{
    "type": "FeatureCollection",
    "features": [
        {
            "id": 35001,
            "type": "Feature",
            "geometry": {
                "type": "Point",
                "coordinates": [
                    21.26107,
                    51.82874
                ]
            },
            "properties": {
                "ref:rspo": 35001,
                "official_name": "Przedszkole Niepubliczne \"Akademia Maluch\u00f3w\"",
                "name": "Przedszkole Niepubliczne \"Akademia Maluch\u00f3w\"",
                "addr:postcode": "07-410",
                "addr:city": "Ostro\u0142\u0119ka",
                "addr:street": "Hubalczyk\u00f3w",
                "addr:housenumber": "2A",
                "addr:city:simc": 966079,
                "addr:street:sym_ul": 6776,
                "phone": "+48 505023007",
                "email": "akademia.maluchow@wp.pl",
                "ref:regon": "146376195",
                "ref:vatin": "PL7581560111",
                "operator": "Renata Za\u0142uska-Szcze\u015bniak",
                "operator:type": "private",
                "amenity": "kindergarten"
            }
        },
        {
            "id": 66148,
            "type": "Feature",
            "geometry": {
                "type": "Point",
                "coordinates": [
                    21.6025366,
                    53.054042
                ]
            },
            "properties": {
                "isced:level": "1;2",
                "ref:rspo": 66148,
                "official_name": "Szko\u0142a Podstawowa nr 3 im. Adama Mickiewicza w Ostro\u0142\u0119ce",
                "name": "Szko\u0142a Podstawowa nr 3",
                "addr:postcode": "07-417",
                "addr:city": "Ostro\u0142\u0119ka",
                "addr:street": "Ignacego Jerzego Skowro\u0144skiego",
                "addr:housenumber": "8",
                "addr:city:simc": 966079,
                "addr:street:sym_ul": 20128,
                "phone": "+48 297602403",
                "email": "nasza_3ostroleka@interia.pl",
                "website": "http:\/\/www.szkolatrojkaostroleka.pl",
                "ref:regon": "000694630",
                "operator": "Miasto Ostro\u0142\u0119ka",
                "operator:type": "government",
                "amenity": "school"
            }
        },
        {
            "id": 27435,
            "type": "Feature",
            "geometry": {
                "type": "Point",
                "coordinates": [
                    21.60427,
                    53.05406
                ]
            },
            "properties": {
                "ref:rspo": 27435,
                "official_name": "Przedszkole Miejskie nr 18 w Ostro\u0142\u0119ce",
                "name": "Przedszkole Miejskie nr 18 w Ostro\u0142\u0119ce",
                "addr:postcode": "07-410",
                "addr:city": "Ostro\u0142\u0119ka",
                "addr:street": "Mieczys\u0142awa Kar\u0142owicza",
                "addr:housenumber": "18",
                "addr:city:simc": 966079,
                "addr:street:sym_ul": 8058,
                "phone": "+48 297690265",
                "email": "przedszkole18@tlen.pl",
                "website": "http:\/\/pm18.ostroleka.edu.pl",
                "ref:regon": "551266228",
                "ref:vatin": "PL7582077285",
                "operator": "Miasto Ostro\u0142\u0119ka",
                "operator:type": "government",
                "amenity": "kindergarten"
            }
        },
        {
            "id": 103882,
            "type": "Feature",
            "geometry": {
                "type": "Point",
                "coordinates": [
                    21.61189,
                    53.05633
                ]
            },
            "properties": {
                "ref:rspo": 103882,
                "official_name": "O\u015brodek Dokszta\u0142cania I Doskonalenia Zawodowego w Ostro\u0142\u0119ce",
                "name": "O\u015brodek Dokszta\u0142cania I Doskonalenia Zawodowego w Ostro\u0142\u0119ce",
                "addr:postcode": "07-417",
                "addr:city": "Ostro\u0142\u0119ka",
                "addr:street": "Stefana \u017beromskiego",
                "addr:housenumber": "88",
                "addr:city:simc": 966079,
                "addr:street:sym_ul": 26469,
                "phone": "+48 297690462",
                "email": "mcp2@wp.pl",
                "ref:regon": "146461512",
                "ref:vatin": "PL7190000052",
                "operator": "Dane Do Uzupe\u0142nienia",
                "operator:type": "private",
                "fixme": "w zale\u017cno\u015bci od przedmiotu dzia\u0142alno\u015bci (np. amenity=training + training=*, amenity=dancing_school, amenity=language_school, amenity=music_school)"
            }
        },
        {
            "id": 266783,
            "type": "Feature",
            "geometry": {
                "type": "Point",
                "coordinates": [
                    21.61553,
                    53.05746
                ]
            },
            "properties": {
                "ref:rspo": 266783,
                "official_name": "Dwuj\u0119zyczne Niepubliczne Przedszkole \"Stacyjkowo\"",
                "name": "Dwuj\u0119zyczne Niepubliczne Przedszkole \"Stacyjkowo\"",
                "addr:postcode": "07-410",
                "addr:city": "Ostro\u0142\u0119ka",
                "addr:street": "Stefana \u017beromskiego",
                "addr:housenumber": "76",
                "addr:city:simc": 966079,
                "addr:street:sym_ul": 26469,
                "phone": "+48 534060064",
                "email": "dwujezyczne.stacyjkowo@gmail.com",
                "ref:regon": "369692472",
                "operator": "Marta Bialobrzewska",
                "operator:type": "private",
                "amenity": "kindergarten"
            }
        },
        {
            "id": 35000,
            "type": "Feature",
            "geometry": {
                "type": "Point",
                "coordinates": [
                    21.60602,
                    53.05858
                ]
            },
            "properties": {
                "ref:rspo": 35000,
                "official_name": "Przedszkole Niepubliczne \"Chatka Puchatka\"",
                "name": "Przedszkole Niepubliczne \"Chatka Puchatka\"",
                "addr:postcode": "07-417",
                "addr:city": "Ostro\u0142\u0119ka",
                "addr:street": "Wiejska",
                "addr:housenumber": "11",
                "addr:city:simc": 966079,
                "addr:street:sym_ul": 24048,
                "phone": "+48 604449805",
                "email": "biuro@przedszkole.ostroleka.pl",
                "ref:regon": "146352993",
                "ref:vatin": "PL7581836375",
                "operator": "Malgorzata Lewandowska",
                "operator:type": "private",
                "amenity": "kindergarten"
            }
        },
        {
            "id": 9475,
            "type": "Feature",
            "geometry": {
                "type": "Point",
                "coordinates": [
                    21.61403,
                    53.06222
                ]
            },
            "properties": {
                "ref:rspo": 9475,
                "official_name": "Bajkowe Przedszkole",
                "name": "Bajkowe Przedszkole",
                "addr:postcode": "07-410",
                "addr:city": "Ostro\u0142\u0119ka",
                "addr:street": "Kaczy\u0144ska",
                "addr:housenumber": "21",
                "addr:city:simc": 966079,
                "addr:street:sym_ul": 7749,
                "phone": "+48 506772689",
                "ref:regon": "146282755",
                "operator": "Julita Olbry\u015b",
                "operator:type": "private",
                "amenity": "kindergarten"
            }
        },
        {
            "id": 268859,
            "type": "Feature",
            "geometry": {
                "type": "Point",
                "coordinates": [
                    21.5966099,
                    53.06414
                ]
            },
            "properties": {
                "ref:rspo": 268859,
                "official_name": "Punkt Przedszkolny ,,Mali Przyjaciele\"",
                "name": "Punkt Przedszkolny ,,Mali Przyjaciele\"",
                "addr:postcode": "07-410",
                "addr:city": "Ostro\u0142\u0119ka",
                "addr:street": "Doktora Jana Certowicza",
                "addr:housenumber": "8",
                "addr:city:simc": 966079,
                "addr:street:sym_ul": 38132,
                "website": "http:\/\/www.maliprzyjaciele.com",
                "ref:regon": "381266211",
                "operator": "Milena Wilmowicz",
                "operator:type": "private",
                "amenity": "kindergarten"
            }
        },
        {
            "id": 130399,
            "type": "Feature",
            "geometry": {
                "type": "Point",
                "coordinates": [
                    21.58055,
                    53.06667
                ]
            },
            "properties": {
                "ref:rspo": 130399,
                "official_name": "Przedszkole Niepubliczne \"Akademia Maluch\u00f3w 3\" w Ostro\u0142\u0119ce",
                "name": "Przedszkole Niepubliczne \"Akademia Maluch\u00f3w 3\" w Ostro\u0142\u0119ce",
                "addr:postcode": "07-410",
                "addr:city": "Ostro\u0142\u0119ka",
                "addr:street": "Geodet\u00f3w",
                "addr:housenumber": "17",
                "addr:city:simc": 966079,
                "addr:street:sym_ul": 5452,
                "phone": "+48 505023007",
                "email": "akademia.maluchow@wp.pl",
                "ref:regon": "363961310",
                "ref:vatin": "PL7581560111",
                "operator": "Renata Za\u0142uska-Szcze\u015bniak",
                "operator:type": "private",
                "amenity": "kindergarten"
            }
        },
        {
            "id": 264533,
            "type": "Feature",
            "geometry": {
                "type": "Point",
                "coordinates": [
                    21.58042,
                    53.0672
                ]
            },
            "properties": {
                "ref:rspo": 264533,
                "official_name": "Niepubliczny Punkt Przedszkolny \"Przedszkole Le\u015bne W\u0142\u00f3czykij\"",
                "name": "Niepubliczny Punkt Przedszkolny \"Przedszkole Le\u015bne W\u0142\u00f3czykij\"",
                "addr:postcode": "07-410",
                "addr:city": "Ostro\u0142\u0119ka",
                "addr:street": "Geodet\u00f3w",
                "addr:housenumber": "24",
                "addr:city:simc": 966079,
                "addr:street:sym_ul": 5452,
                "phone": "+48 793631988",
                "email": "wloczykij@przedszkolelesne.org.pl",
                "website": "http:\/\/przedszkolelesne.org.pl",
                "ref:regon": "368373339",
                "operator": "Fundacja \"Strefa Przetrwania\"",
                "operator:type": "ngo",
                "amenity": "kindergarten"
            }
        },
        {
            "id": 35004,
            "type": "Feature",
            "geometry": {
                "type": "Point",
                "coordinates": [
                    21.58428,
                    53.07352
                ]
            },
            "properties": {
                "ref:rspo": 35004,
                "official_name": "Przedszkole Niepubliczne \"Akademia Maluch\u00f3w\"",
                "name": "Przedszkole Niepubliczne \"Akademia Maluch\u00f3w\"",
                "addr:postcode": "07-410",
                "addr:city": "Ostro\u0142\u0119ka",
                "addr:street": "Genera\u0142a Franciszka Kleeberga",
                "addr:housenumber": "2",
                "addr:city:simc": 966079,
                "addr:street:sym_ul": 8499,
                "phone": "+48 296944222",
                "email": "akademia.maluchow@wp.pl",
                "ref:regon": "146377852",
                "ref:vatin": "PL7581560111",
                "operator": "Renata Za\u0142uska-Szcze\u015bniak",
                "operator:type": "private",
                "amenity": "kindergarten"
            }
        },
        {
            "id": 89650,
            "type": "Feature",
            "geometry": {
                "type": "Point",
                "coordinates": [
                    21.5694899,
                    53.07393
                ]
            },
            "properties": {
                "isced:level": "1;2",
                "ref:rspo": 89650,
                "official_name": "\"Kolorowa Szko\u0142a\" Niepubliczna Szko\u0142a Podstawowa",
                "name": "\"Kolorowa Szko\u0142a\" Niepubliczna Szko\u0142a Podstawowa",
                "addr:postcode": "07-409",
                "addr:city": "Ostro\u0142\u0119ka",
                "addr:street": "Pozna\u0144ska",
                "addr:housenumber": "34",
                "addr:door": "36",
                "addr:city:simc": 966079,
                "addr:street:sym_ul": 17394,
                "phone": "+48 512997454",
                "email": "kolorowaszkola@o2.pl",
                "ref:regon": "146416121",
                "ref:vatin": "PL7582351964",
                "operator": "Stowarzyszenie \"Dajmy Razem Szans\u0119\"",
                "operator:type": "ngo",
                "amenity": "school"
            }
        },
        {
            "id": 272080,
            "type": "Feature",
            "geometry": {
                "type": "Point",
                "coordinates": [
                    21.5694899,
                    53.073899999999995
                ]
            },
            "properties": {
                "ref:rspo": 272080,
                "official_name": "Kolorowe Przedszkole",
                "name": "Kolorowe Przedszkole",
                "addr:postcode": "07-410",
                "addr:city": "Ostro\u0142\u0119ka",
                "addr:street": "Pozna\u0144ska",
                "addr:housenumber": "34",
                "addr:door": "36",
                "addr:city:simc": 966079,
                "addr:street:sym_ul": 17394,
                "phone": "+48 512997454",
                "email": "koloroweprzedszkole2@gmail.com",
                "ref:regon": "383917322",
                "operator": "Stowarzyszenie \"Dajmy Razem Szans\u0119\"",
                "operator:type": "ngo",
                "amenity": "kindergarten"
            }
        },
        {
            "id": 272081,
            "type": "Feature",
            "geometry": {
                "type": "Point",
                "coordinates": [
                    21.5694899,
                    53.07387
                ]
            },
            "properties": {
                "ref:rspo": 272081,
                "official_name": "Szko\u0142a Przysposabiaj\u0105ca do Pracy",
                "name": "Szko\u0142a Przysposabiaj\u0105ca do Pracy",
                "addr:postcode": "07-410",
                "addr:city": "Ostro\u0142\u0119ka",
                "addr:street": "Pozna\u0144ska",
                "addr:housenumber": "34",
                "addr:door": "36",
                "addr:city:simc": 966079,
                "addr:street:sym_ul": 17394,
                "phone": "+48 512997454",
                "email": "szpdpr@gmail.com",
                "ref:regon": "383917368",
                "operator": "Stowarzyszenie \"Dajmy Razem Szans\u0119\"",
                "operator:type": "ngo",
                "amenity": "school"
            }
        },
        {
            "id": 23050,
            "type": "Feature",
            "geometry": {
                "type": "Point",
                "coordinates": [
                    21.5672,
                    53.07414
                ]
            },
            "properties": {
                "ref:rspo": 23050,
                "official_name": "Zesp\u00f3\u0142 Szk\u00f3\u0142 Zawodowych nr 3 im. Kardyna\u0142a Stefana Wyszy\u0144skiego w Ostro\u0142\u0119ce",
                "name": "Zesp\u00f3\u0142 Szk\u00f3\u0142 Zawodowych nr 3",
                "addr:postcode": "07-409",
                "addr:city": "Ostro\u0142\u0119ka",
                "addr:street": "Stefana Jaracza",
                "addr:housenumber": "5",
                "addr:city:simc": 966079,
                "addr:street:sym_ul": 7240,
                "phone": "+48 297643852",
                "email": "sekretariat@zsz3.ostroleka.edu.pl",
                "website": "http:\/\/zsz3.ostroleka.edu.pl",
                "ref:regon": "000934530",
                "ref:vatin": "PL7581045461",
                "operator": "Miasto Ostro\u0142\u0119ka",
                "operator:type": "government",
                "landuse": "education",
                "fixme": "amenity=school, amenity=college albo landuse=education w zale\u017cno\u015bci od tego, jakie plac\u00f3wki wchodz\u0105 w sk\u0142ad zespo\u0142u. Sprawd\u017a, kiedy stosowa\u0107 amenity=* a kiedy landuse=education.",
                "note": "Children RSPO: 41103;48457;48458;119130;119645"
            }
        },
        {
            "id": 27314,
            "type": "Feature",
            "geometry": {
                "type": "Point",
                "coordinates": [
                    21.5672,
                    53.07411
                ]
            },
            "properties": {
                "ref:rspo": 27314,
                "official_name": "Przedszkole Miejskie nr 15 \"Kraina Marze\u0144\" w Ostro\u0142\u0119ce",
                "name": "Przedszkole Miejskie nr 15 \"Kraina Marze\u0144\" w Ostro\u0142\u0119ce",
                "addr:postcode": "07-410",
                "addr:city": "Ostro\u0142\u0119ka",
                "addr:street": "Stefana Jaracza",
                "addr:housenumber": "5",
                "addr:city:simc": 966079,
                "addr:street:sym_ul": 7240,
                "phone": "+48 297665278",
                "email": "przedszkolenr15@o2.pl",
                "website": "http:\/\/pm15.przedszkolowo.pl",
                "ref:regon": "551265996",
                "ref:vatin": "PL7582077888",
                "operator": "Miasto Ostro\u0142\u0119ka",
                "operator:type": "government",
                "amenity": "kindergarten"
            }
        },
        {
            "id": 41103,
            "type": "Feature",
            "geometry": {
                "type": "Point",
                "coordinates": [
                    21.5672,
                    53.07408
                ]
            },
            "properties": {
                "isced:level": "3",
                "ref:rspo": 41103,
                "official_name": "Technikum nr 3 w Ostro\u0142\u0119ce",
                "name": "Technikum nr 3 w Ostro\u0142\u0119ce",
                "addr:postcode": "07-409",
                "addr:city": "Ostro\u0142\u0119ka",
                "addr:street": "Stefana Jaracza",
                "addr:housenumber": "5",
                "addr:city:simc": 966079,
                "addr:street:sym_ul": 7240,
                "phone": "+48 297643852",
                "email": "sekretariat@zsz3.ostroleka.edu.pl",
                "website": "http:\/\/zsz3.ostroleka.edu.pl",
                "ref:regon": "551260786",
                "operator": "Miasto Ostro\u0142\u0119ka",
                "operator:type": "government",
                "amenity": "school",
                "note": "Parent RSPO: 23050"
            }
        },
        {
            "id": 48457,
            "type": "Feature",
            "geometry": {
                "type": "Point",
                "coordinates": [
                    21.5672,
                    53.07405
                ]
            },
            "properties": {
                "isced:level": "3",
                "ref:rspo": 48457,
                "official_name": "Bran\u017cowa Szko\u0142a I Stopnia nr 3",
                "name": "Bran\u017cowa Szko\u0142a I Stopnia nr 3",
                "addr:postcode": "07-409",
                "addr:city": "Ostro\u0142\u0119ka",
                "addr:street": "Stefana Jaracza",
                "addr:housenumber": "5",
                "addr:city:simc": 966079,
                "addr:street:sym_ul": 7240,
                "phone": "+48 297643852",
                "email": "zsz3oka@wp.pl",
                "website": "http:\/\/zsz3.ostroleka.edu.pl",
                "ref:regon": "146366972",
                "operator": "Miasto Ostro\u0142\u0119ka",
                "operator:type": "government",
                "amenity": "school",
                "note": "Parent RSPO: 23050"
            }
        },
        {
            "id": 48458,
            "type": "Feature",
            "geometry": {
                "type": "Point",
                "coordinates": [
                    21.5672,
                    53.07402
                ]
            },
            "properties": {
                "isced:level": "4",
                "ref:rspo": 48458,
                "official_name": "Szko\u0142a Policealna nr 3",
                "name": "Szko\u0142a Policealna nr 3",
                "addr:postcode": "07-409",
                "addr:city": "Ostro\u0142\u0119ka",
                "addr:street": "Stefana Jaracza",
                "addr:housenumber": "5",
                "addr:city:simc": 966079,
                "addr:street:sym_ul": 7240,
                "phone": "+48 297643852",
                "email": "zsz3oka@wp.pl",
                "website": "http:\/\/zsz3.ostroleka.edu.pl",
                "ref:regon": "146367316",
                "operator": "Miasto Ostro\u0142\u0119ka",
                "operator:type": "government",
                "amenity": "college",
                "note": "Parent RSPO: 23050"
            }
        },
        {
            "id": 119130,
            "type": "Feature",
            "geometry": {
                "type": "Point",
                "coordinates": [
                    21.5672,
                    53.07399
                ]
            },
            "properties": {
                "isced:level": "3",
                "ref:rspo": 119130,
                "official_name": "V Liceum Og\u00f3lnokszta\u0142c\u0105ce",
                "name": "V Liceum Og\u00f3lnokszta\u0142c\u0105ce",
                "addr:postcode": "07-409",
                "addr:city": "Ostro\u0142\u0119ka",
                "addr:street": "Stefana Jaracza",
                "addr:housenumber": "5",
                "addr:city:simc": 966079,
                "addr:street:sym_ul": 7240,
                "phone": "+48 297643852",
                "email": "sekretariat@zsz3.ostroleka.edu.pl",
                "website": "http:\/\/zsz3.ostroleka.edu.pl",
                "ref:regon": "146837006",
                "operator": "Miasto Ostro\u0142\u0119ka",
                "operator:type": "government",
                "amenity": "school",
                "note": "Parent RSPO: 23050"
            }
        },
        {
            "id": 119645,
            "type": "Feature",
            "geometry": {
                "type": "Point",
                "coordinates": [
                    21.5672,
                    53.07396
                ]
            },
            "properties": {
                "isced:level": "3",
                "ref:rspo": 119645,
                "official_name": "Iii Liceum Og\u00f3lnokszta\u0142c\u0105ce dla Doros\u0142ych",
                "name": "Iii Liceum Og\u00f3lnokszta\u0142c\u0105ce dla Doros\u0142ych",
                "addr:postcode": "07-409",
                "addr:city": "Ostro\u0142\u0119ka",
                "addr:street": "Stefana Jaracza",
                "addr:housenumber": "5",
                "addr:city:simc": 966079,
                "addr:street:sym_ul": 7240,
                "phone": "+48 297643852",
                "email": "zsz3oka@wp.pl",
                "website": "http:\/\/zsz3.ostroleka.edu.pl",
                "ref:regon": "146856021",
                "operator": "Miasto Ostro\u0142\u0119ka",
                "operator:type": "government",
                "amenity": "school",
                "note": "Parent RSPO: 23050"
            }
        },
        {
            "id": 107689,
            "type": "Feature",
            "geometry": {
                "type": "Point",
                "coordinates": [
                    21.58415,
                    53.07425
                ]
            },
            "properties": {
                "ref:rspo": 107689,
                "official_name": "Przedszkole Miejskie nr 1 \"Kraina U\u015bmiechu\" w Ostro\u0142\u0119ce",
                "name": "Przedszkole Miejskie nr 1 \"Kraina U\u015bmiechu\" w Ostro\u0142\u0119ce",
                "addr:postcode": "07-410",
                "addr:city": "Ostro\u0142\u0119ka",
                "addr:street": "Rotmistrza Witolda Pileckiego",
                "addr:housenumber": "11A",
                "addr:city:simc": 966079,
                "addr:street:sym_ul": 16225,
                "phone": "+48 297667195",
                "email": "o-ka.przedszkole1@gazeta.pl",
                "website": "http:\/\/www.pm1.com.pl",
                "ref:regon": "551263187",
                "ref:vatin": "PL7582073838",
                "operator": "Miasto Ostro\u0142\u0119ka",
                "operator:type": "government",
                "amenity": "kindergarten"
            }
        },
        {
            "id": 264547,
            "type": "Feature",
            "geometry": {
                "type": "Point",
                "coordinates": [
                    21.56609,
                    53.07459
                ]
            },
            "properties": {
                "ref:rspo": 264547,
                "official_name": "Punkt Przedszkolny \"S\u0142oneczko\"",
                "name": "Punkt Przedszkolny \"S\u0142oneczko\"",
                "addr:postcode": "07-410",
                "addr:city": "Ostro\u0142\u0119ka",
                "addr:street": "Janusza Korczaka",
                "addr:housenumber": "4",
                "addr:city:simc": 966079,
                "addr:street:sym_ul": 9329,
                "email": "michal.modzelan@gmail.com",
                "ref:regon": "368375433",
                "operator": "Micha\u0142 Modzelan",
                "operator:type": "private",
                "amenity": "kindergarten"
            }
        },
        {
            "id": 60541,
            "type": "Feature",
            "geometry": {
                "type": "Point",
                "coordinates": [
                    21.56748,
                    53.07485
                ]
            },
            "properties": {
                "ref:rspo": 60541,
                "official_name": "Stowarzyszenie Ksi\u0119gowych w Polsce Oddzia\u0142 Okr\u0119gowy w Warszawie Centrum Edukacji Zawodowej",
                "name": "Stowarzyszenie Ksi\u0119gowych w Polsce Oddzia\u0142 Okr\u0119gowy w Warszawie Centrum Edukacji Zawodowej",
                "addr:postcode": "07-400",
                "addr:city": "Ostro\u0142\u0119ka",
                "addr:street": "Janusza Korczaka",
                "addr:housenumber": "73",
                "addr:city:simc": 966079,
                "addr:street:sym_ul": 9329,
                "phone": "+48 297642375",
                "email": "skpw_ost@skp-ow.com.pl",
                "website": "http:\/\/www.ostroleka.skp-ow.com.pl",
                "ref:regon": "146390723",
                "ref:vatin": "PL5260307956",
                "operator": "Stowarzyszenie Ksi\u0119gowych W Polsce",
                "operator:type": "ngo"
            }
        },
        {
            "id": 129063,
            "type": "Feature",
            "geometry": {
                "type": "Point",
                "coordinates": [
                    21.58698,
                    53.07565
                ]
            },
            "properties": {
                "ref:rspo": 129063,
                "official_name": "Punkt Przedszkolny \"Iskierka\"",
                "name": "Punkt Przedszkolny \"Iskierka\"",
                "addr:postcode": "07-410",
                "addr:city": "Ostro\u0142\u0119ka",
                "addr:street": "Hugo Ko\u0142\u0142\u0105taja",
                "addr:housenumber": "19",
                "addr:city:simc": 966079,
                "addr:street:sym_ul": 28081,
                "phone": "+48 606741343",
                "ref:regon": "362468263",
                "operator": "\"Fundacja Dr Otis\"",
                "operator:type": "ngo",
                "amenity": "kindergarten"
            }
        },
        {
            "id": 34877,
            "type": "Feature",
            "geometry": {
                "type": "Point",
                "coordinates": [
                    21.58628,
                    53.07596
                ]
            },
            "properties": {
                "ref:rspo": 34877,
                "official_name": "Punkt Przedszkolny 'Kangurek' Dzieci\u0119ce Centrum Artystyczno-J\u0119zykowe",
                "name": "Punkt Przedszkolny 'Kangurek' Dzieci\u0119ce Centrum Artystyczno-J\u0119zykowe",
                "addr:postcode": "07-410",
                "addr:city": "Ostro\u0142\u0119ka",
                "addr:street": "Hugo Ko\u0142\u0142\u0105taja",
                "addr:housenumber": "9",
                "addr:city:simc": 966079,
                "addr:street:sym_ul": 28081,
                "phone": "+48 662842085",
                "email": "ckangurek@gmail.com",
                "ref:regon": "146352830",
                "ref:vatin": "PL7582133291",
                "operator": "Dane Do Uzupe\u0142nienia",
                "operator:type": "private",
                "amenity": "kindergarten"
            }
        },
        {
            "id": 52457,
            "type": "Feature",
            "geometry": {
                "type": "Point",
                "coordinates": [
                    21.57932,
                    53.07602
                ]
            },
            "properties": {
                "isced:level": "4",
                "ref:rspo": 52457,
                "official_name": "Policealna Szko\u0142a Centrum Nauki I Biznesu \"\u017bak\" w Ostro\u0142\u0119ce",
                "name": "Policealna Szko\u0142a Centrum Nauki I Biznesu \"\u017bak\" w Ostro\u0142\u0119ce",
                "addr:postcode": "07-410",
                "addr:city": "Ostro\u0142\u0119ka",
                "addr:street": "\"Genera\u0142a Augusta Emila Fieldorfa \"\"Nila\"\"\"",
                "addr:housenumber": "63",
                "addr:city:simc": 966079,
                "addr:street:sym_ul": 51784,
                "phone": "+48 297603408",
                "email": "ostroleka@zak.edu.pl",
                "website": "http:\/\/www.zak.edu.pl",
                "ref:regon": "146415972",
                "ref:vatin": "PL7292597869",
                "operator": "Centrum Nauki I Biznesu \"\u017bak\" Sp\u00f3\u0142ka Z Ograniczon\u0105 Odpowiedzialno\u015bci\u0105",
                "operator:type": "private",
                "amenity": "college"
            }
        },
        {
            "id": 52662,
            "type": "Feature",
            "geometry": {
                "type": "Point",
                "coordinates": [
                    21.57932,
                    53.07599
                ]
            },
            "properties": {
                "isced:level": "3",
                "ref:rspo": 52662,
                "official_name": "Liceum Og\u00f3lnokszta\u0142c\u0105ce dla Doros\u0142ych \"\u017bak\" \nW Ostro\u0142\u0119ce",
                "name": "Liceum Og\u00f3lnokszta\u0142c\u0105ce dla Doros\u0142ych \"\u017bak\" \nW Ostro\u0142\u0119ce",
                "addr:postcode": "07-410",
                "addr:city": "Ostro\u0142\u0119ka",
                "addr:street": "\"Genera\u0142a Augusta Emila Fieldorfa \"\"Nila\"\"\"",
                "addr:housenumber": "63",
                "addr:city:simc": 966079,
                "addr:street:sym_ul": 51784,
                "phone": "+48 297603408",
                "email": "ostroleka@zak.edu.pl",
                "website": "http:\/\/www.zak.edu.pl",
                "ref:regon": "146407547",
                "ref:vatin": "PL7292597869",
                "operator": "Centrum Nauki I Biznesu \"\u017bak\" Sp\u00f3\u0142ka Z Ograniczon\u0105 Odpowiedzialno\u015bci\u0105",
                "operator:type": "private",
                "amenity": "school"
            }
        },
        {
            "id": 61849,
            "type": "Feature",
            "geometry": {
                "type": "Point",
                "coordinates": [
                    21.57932,
                    53.07596
                ]
            },
            "properties": {
                "ref:rspo": 61849,
                "official_name": "O\u015brodek Szkoleniowy Centrum Nauki I Biznesu \"\u017bak\" w Ostro\u0142\u0119ce",
                "name": "O\u015brodek Szkoleniowy Centrum Nauki I Biznesu \"\u017bak\" w Ostro\u0142\u0119ce",
                "addr:postcode": "07-410",
                "addr:city": "Ostro\u0142\u0119ka",
                "addr:street": "\"Genera\u0142a Augusta Emila Fieldorfa \"\"Nila\"\"\"",
                "addr:housenumber": "63",
                "addr:city:simc": 966079,
                "addr:street:sym_ul": 51784,
                "phone": "+48 297603408",
                "email": "ostroleka@zak.edu.pl",
                "ref:regon": "146407464",
                "ref:vatin": "PL7292597869",
                "operator": "Centrum Nauki I Biznesu \"\u017bak\" Sp\u00f3\u0142ka Z Ograniczon\u0105 Odpowiedzialno\u015bci\u0105",
                "operator:type": "private",
                "amenity": "school",
                "fixme": "amenity=school lub amenity=college"
            }
        },
        {
            "id": 104190,
            "type": "Feature",
            "geometry": {
                "type": "Point",
                "coordinates": [
                    21.57932,
                    53.07593
                ]
            },
            "properties": {
                "isced:level": "4",
                "ref:rspo": 104190,
                "official_name": "Policealna Szko\u0142a Zawodowa \"\u017bak\" w Ostro\u0142\u0119ce",
                "name": "Policealna Szko\u0142a Zawodowa \"\u017bak\" w Ostro\u0142\u0119ce",
                "addr:postcode": "07-410",
                "addr:city": "Ostro\u0142\u0119ka",
                "addr:street": "\"Genera\u0142a Augusta Emila Fieldorfa \"\"Nila\"\"\"",
                "addr:housenumber": "63",
                "addr:city:simc": 966079,
                "addr:street:sym_ul": 51784,
                "phone": "+48 297603408",
                "email": "ostroleka@zak.edu.pl",
                "ref:regon": "146470072",
                "ref:vatin": "PL7292597869",
                "operator": "Centrum Nauki I Biznesu \"\u017bak\" Sp\u00f3\u0142ka Z Ograniczon\u0105 Odpowiedzialno\u015bci\u0105",
                "operator:type": "private",
                "amenity": "college"
            }
        },
        {
            "id": 130400,
            "type": "Feature",
            "geometry": {
                "type": "Point",
                "coordinates": [
                    21.57932,
                    53.0759
                ]
            },
            "properties": {
                "isced:level": "4",
                "ref:rspo": 130400,
                "official_name": "Policealna Szko\u0142a Opieki Medycznej \"\u017bak\" w Ostro\u0142\u0119ce",
                "name": "Policealna Szko\u0142a Opieki Medycznej \"\u017bak\" w Ostro\u0142\u0119ce",
                "addr:postcode": "07-410",
                "addr:city": "Ostro\u0142\u0119ka",
                "addr:street": "\"Genera\u0142a Augusta Emila Fieldorfa \"\"Nila\"\"\"",
                "addr:housenumber": "63",
                "addr:city:simc": 966079,
                "addr:street:sym_ul": 51784,
                "phone": "+48 297603408",
                "email": "ostroleka@zak.edu.pl",
                "website": "http:\/\/www.zak.edu.pl",
                "ref:regon": "363966419",
                "operator": "Centrum Nauki I Biznesu \"\u017bak\" Sp\u00f3\u0142ka Z Ograniczon\u0105 Odpowiedzialno\u015bci\u0105",
                "operator:type": "private",
                "amenity": "college"
            }
        },
        {
            "id": 39025,
            "type": "Feature",
            "geometry": {
                "type": "Point",
                "coordinates": [
                    21.56194,
                    53.07618
                ]
            },
            "properties": {
                "isced:level": "4",
                "ref:rspo": 39025,
                "official_name": "Medyczna Szko\u0142a Policealna Twp w Ostro\u0142\u0119ce",
                "name": "Medyczna Szko\u0142a Policealna Twp w Ostro\u0142\u0119ce",
                "addr:postcode": "07-410",
                "addr:city": "Ostro\u0142\u0119ka",
                "addr:street": "Kr\u00f3la W\u0142adys\u0142awa Jagie\u0142\u0142y",
                "addr:housenumber": "5",
                "addr:city:simc": 966079,
                "addr:street:sym_ul": 7043,
                "phone": "+48 297645487",
                "email": "ostrolek@twpostroleka.pl",
                "ref:regon": "146400953",
                "ref:vatin": "PL7581797959",
                "operator": "Towarzystwo Wiedzy Powszechnej Oddzia\u0142 Regionalny W Ostro\u0142\u0119ce",
                "operator:type": "ngo",
                "amenity": "college"
            }
        },
        {
            "id": 27169,
            "type": "Feature",
            "geometry": {
                "type": "Point",
                "coordinates": [
                    21.584709167481,
                    53.076229095459
                ]
            },
            "properties": {
                "ref:rspo": 27169,
                "official_name": "Przedszkole Miejskie nr 9 Bajkowa Kraina w Ostro\u0142\u0119ce",
                "name": "Przedszkole Miejskie nr 9 Bajkowa Kraina w Ostro\u0142\u0119ce",
                "addr:postcode": "07-400",
                "addr:city": "Ostro\u0142\u0119ka",
                "addr:street": "Ksi\u0119dza Franciszka Blachnickiego",
                "addr:housenumber": "16",
                "addr:city:simc": 966079,
                "addr:street:sym_ul": 51785,
                "phone": "+48 297667231",
                "email": "kontakt@pm9.ostroleka.edu.pl",
                "website": "http:\/\/www.pm9.ostroleka.edu.pl",
                "ref:regon": "551262963",
                "ref:vatin": "PL7582073270",
                "operator": "Miasto Ostro\u0142\u0119ka",
                "operator:type": "government",
                "amenity": "kindergarten"
            }
        },
        {
            "id": 27789,
            "type": "Feature",
            "geometry": {
                "type": "Point",
                "coordinates": [
                    21.584709167481,
                    53.076199095458996
                ]
            },
            "properties": {
                "isced:level": "1;2",
                "ref:rspo": 27789,
                "official_name": "Szko\u0142a Podstawowa nr 10 im. Jana Paw\u0142a II w Ostro\u0142\u0119ce",
                "name": "Szko\u0142a Podstawowa nr 10",
                "addr:postcode": "07-410",
                "addr:city": "Ostro\u0142\u0119ka",
                "addr:street": "Ksi\u0119dza Franciszka Blachnickiego",
                "addr:housenumber": "16",
                "addr:city:simc": 966079,
                "addr:street:sym_ul": 51785,
                "phone": "+48 297602589",
                "email": "sekretariat@sp10.ostroleka.edu.pl",
                "website": "http:\/\/sp10.ostroleka.edu.pl",
                "ref:regon": "550028478",
                "ref:vatin": "PL7582069736",
                "operator": "Miasto Ostro\u0142\u0119ka",
                "operator:type": "government",
                "amenity": "school"
            }
        },
        {
            "id": 39044,
            "type": "Feature",
            "geometry": {
                "type": "Point",
                "coordinates": [
                    21.584709167481,
                    53.076169095459
                ]
            },
            "properties": {
                "isced:level": "3",
                "ref:rspo": 39044,
                "official_name": "Iii Liceum Og\u00f3lnokszta\u0142c\u0105ce im. Unii Europejskiej",
                "name": "Iii Liceum Og\u00f3lnokszta\u0142c\u0105ce",
                "addr:postcode": "07-410",
                "addr:city": "Ostro\u0142\u0119ka",
                "addr:street": "Ksi\u0119dza Franciszka Blachnickiego",
                "addr:housenumber": "5",
                "addr:city:simc": 966079,
                "addr:street:sym_ul": 51785,
                "phone": "+48 297603692",
                "email": "sekretariat@3lo.ostroleka.edu.pl",
                "website": "http:\/\/www.3lo.ostroleka.edu.pl",
                "ref:regon": "551254691",
                "operator": "Miasto Ostro\u0142\u0119ka",
                "operator:type": "government",
                "amenity": "school"
            }
        },
        {
            "id": 44013,
            "type": "Feature",
            "geometry": {
                "type": "Point",
                "coordinates": [
                    21.584709167481,
                    53.076139095459
                ]
            },
            "properties": {
                "isced:level": "1;2",
                "ref:rspo": 44013,
                "official_name": "Szko\u0142a Podstawowa nr 1 im. Stanis\u0142awa Jachowicza",
                "name": "Szko\u0142a Podstawowa nr 1",
                "addr:postcode": "07-410",
                "addr:city": "Ostro\u0142\u0119ka",
                "addr:street": "\"Genera\u0142a Augusta Emila Fieldorfa \"\"Nila\"\"\"",
                "addr:housenumber": "4\/6",
                "addr:city:simc": 966079,
                "addr:street:sym_ul": 51784,
                "phone": "+48 297667955",
                "email": "sp1os@wp.pl",
                "website": "http:\/\/sp1.ostroleka.pl",
                "ref:regon": "000694617",
                "ref:vatin": "PL7582071012",
                "operator": "Miasto Ostro\u0142\u0119ka",
                "operator:type": "government",
                "amenity": "school"
            }
        },
        {
            "id": 279067,
            "type": "Feature",
            "geometry": {
                "type": "Point",
                "coordinates": [
                    21.57986,
                    53.07635
                ]
            },
            "properties": {
                "ref:rspo": 279067,
                "official_name": "Punkt Przedszkolny \"Ja\u015b I Ma\u0142gosia\"",
                "name": "Punkt Przedszkolny \"Ja\u015b I Ma\u0142gosia\"",
                "addr:postcode": "07-410",
                "addr:city": "Ostro\u0142\u0119ka",
                "addr:street": "Weso\u0142a",
                "addr:housenumber": "18",
                "addr:city:simc": 966079,
                "addr:street:sym_ul": 23884,
                "ref:regon": "520675066",
                "ref:vatin": "PL7582253776",
                "operator": "Milena Wilmowicz",
                "operator:type": "private",
                "amenity": "kindergarten"
            }
        },
        {
            "id": 34899,
            "type": "Feature",
            "geometry": {
                "type": "Point",
                "coordinates": [
                    21.56433,
                    53.0775999
                ]
            },
            "properties": {
                "ref:rspo": 34899,
                "official_name": "Punkt Przedszkolny \"Zaczarowane Przedszkole\"",
                "name": "Punkt Przedszkolny \"Zaczarowane Przedszkole\"",
                "addr:postcode": "07-410",
                "addr:city": "Ostro\u0142\u0119ka",
                "addr:street": "Kr\u00f3la Jana Sobieskiego",
                "addr:housenumber": "30",
                "addr:city:simc": 966079,
                "addr:street:sym_ul": 20432,
                "phone": "+48 509363025",
                "ref:regon": "146353136",
                "ref:vatin": "PL7581929289",
                "operator": "Dane Do Uzupe\u0142nienia",
                "operator:type": "private",
                "amenity": "kindergarten"
            }
        },
        {
            "id": 83945,
            "type": "Feature",
            "geometry": {
                "type": "Point",
                "coordinates": [
                    21.57411,
                    53.0776899
                ]
            },
            "properties": {
                "isced:level": "1;2",
                "ref:rspo": 83945,
                "official_name": "\"Nasza Szko\u0142a\" Niepubliczna Szko\u0142a z Oddzia\u0142ami Przedszkolnymi Realizuj\u0105ca Program Rehabilitacyjny w Ostro\u0142\u0119ce",
                "name": "\"Nasza Szko\u0142a\" Niepubliczna Szko\u0142a z Oddzia\u0142ami Przedszkolnymi Realizuj\u0105ca Program Rehabilitacyjny w Ostro\u0142\u0119ce",
                "addr:postcode": "07-410",
                "addr:city": "Ostro\u0142\u0119ka",
                "addr:street": "Goworowska",
                "addr:housenumber": "27",
                "addr:city:simc": 966079,
                "addr:street:sym_ul": 5898,
                "phone": "+48 297604406",
                "email": "aga.ostroleka@aga.org.pl",
                "ref:regon": "146416109",
                "ref:vatin": "PL5251034619",
                "operator": "Stowarzyszenie \"Po Pierwsze Rodzina\"",
                "operator:type": "ngo",
                "amenity": "school"
            }
        },
        {
            "id": 131892,
            "type": "Feature",
            "geometry": {
                "type": "Point",
                "coordinates": [
                    21.58277,
                    53.07791
                ]
            },
            "properties": {
                "ref:rspo": 131892,
                "official_name": "Przedszkole Niepubliczne ,,Promyczki\"",
                "name": "Przedszkole Niepubliczne ,,Promyczki\"",
                "addr:postcode": "07-410",
                "addr:city": "Ostro\u0142\u0119ka",
                "addr:street": "Czes\u0142awa Niemena",
                "addr:housenumber": "9",
                "addr:city:simc": 966079,
                "addr:street:sym_ul": 37219,
                "ref:regon": "365374864",
                "operator": "Magdalena Nitkowska",
                "operator:type": "private",
                "amenity": "kindergarten"
            }
        },
        {
            "id": 48154,
            "type": "Feature",
            "geometry": {
                "type": "Point",
                "coordinates": [
                    21.56937,
                    53.07831
                ]
            },
            "properties": {
                "isced:level": "3",
                "ref:rspo": 48154,
                "official_name": "Liceum Og\u00f3lnokszta\u0142c\u0105ce dla Doros\u0142ych Ostro\u0142\u0119ckie Centrum Kszta\u0142cenia",
                "name": "Liceum Og\u00f3lnokszta\u0142c\u0105ce dla Doros\u0142ych Ostro\u0142\u0119ckie Centrum Kszta\u0142cenia",
                "addr:postcode": "07-401",
                "addr:city": "Ostro\u0142\u0119ka",
                "addr:street": "W\u0142adys\u0142awa Reymonta",
                "addr:housenumber": "11",
                "addr:city:simc": 966079,
                "addr:street:sym_ul": 18648,
                "phone": "+48 600443788",
                "email": "ock@home.pl",
                "ref:regon": "146408127",
                "ref:vatin": "PL7581487035",
                "operator": "Dane Do Uzupe\u0142nienia",
                "operator:type": "private",
                "amenity": "school"
            }
        },
        {
            "id": 264550,
            "type": "Feature",
            "geometry": {
                "type": "Point",
                "coordinates": [
                    21.56937,
                    53.07828
                ]
            },
            "properties": {
                "ref:rspo": 264550,
                "official_name": "Terapeutyczny Punkt Przedszkolny \"Supe\u0142ek\"",
                "name": "Terapeutyczny Punkt Przedszkolny \"Supe\u0142ek\"",
                "addr:postcode": "07-410",
                "addr:city": "Ostro\u0142\u0119ka",
                "addr:street": "W\u0142adys\u0142awa Reymonta",
                "addr:housenumber": "11",
                "addr:city:simc": 966079,
                "addr:street:sym_ul": 18648,
                "email": "p.zebrowski@carden.pl",
                "ref:regon": "368375485",
                "operator": "Pawe\u0142 \u017bebrowski",
                "operator:type": "private",
                "amenity": "kindergarten"
            }
        },
        {
            "id": 39739,
            "type": "Feature",
            "geometry": {
                "type": "Point",
                "coordinates": [
                    21.56519,
                    53.07846
                ]
            },
            "properties": {
                "isced:level": "4",
                "ref:rspo": 39739,
                "official_name": "Szko\u0142a Policealna Opiekun w Domu Pomocy Spo\u0142ecznej Towarzystwa Wiedzy Powszechnej",
                "name": "Szko\u0142a Policealna Opiekun w Domu Pomocy Spo\u0142ecznej Towarzystwa Wiedzy Powszechnej",
                "addr:postcode": "07-410",
                "addr:city": "Ostro\u0142\u0119ka",
                "addr:street": "Henryka Sienkiewicza",
                "addr:housenumber": "28",
                "addr:city:simc": 966079,
                "addr:street:sym_ul": 19834,
                "phone": "+48 291645487",
                "email": "ostrolek@twpostroleka.pl",
                "ref:regon": "146399693",
                "ref:vatin": "PL7581797959",
                "operator": "Dane Do Uzupe\u0142nienia",
                "operator:type": "private",
                "amenity": "college"
            }
        },
        {
            "id": 40211,
            "type": "Feature",
            "geometry": {
                "type": "Point",
                "coordinates": [
                    21.56519,
                    53.07843
                ]
            },
            "properties": {
                "isced:level": "4",
                "ref:rspo": 40211,
                "official_name": "Szko\u0142a Policealna Towarzystwa Wiedzy Powszechnej w Ostro\u0142\u0119ce",
                "name": "Szko\u0142a Policealna Towarzystwa Wiedzy Powszechnej w Ostro\u0142\u0119ce",
                "addr:postcode": "07-410",
                "addr:city": "Ostro\u0142\u0119ka",
                "addr:street": "Henryka Sienkiewicza",
                "addr:housenumber": "28",
                "addr:city:simc": 966079,
                "addr:street:sym_ul": 19834,
                "phone": "+48 297645487",
                "email": "ostrolek@twpostroleka.pl",
                "ref:regon": "146355862",
                "ref:vatin": "PL7581797959",
                "operator": "Dane Do Uzupe\u0142nienia",
                "operator:type": "private",
                "amenity": "college"
            }
        },
        {
            "id": 27351,
            "type": "Feature",
            "geometry": {
                "type": "Point",
                "coordinates": [
                    21.56622,
                    53.07846
                ]
            },
            "properties": {
                "isced:level": "1;2",
                "ref:rspo": 27351,
                "official_name": "Szko\u0142a Podstawowa nr 6 im. Or\u0142a Bia\u0142ego w Ostro\u0142\u0119ce",
                "name": "Szko\u0142a Podstawowa nr 6",
                "addr:postcode": "07-410",
                "addr:city": "Ostro\u0142\u0119ka",
                "addr:street": "Henryka Sienkiewicza",
                "addr:housenumber": "15",
                "addr:city:simc": 966079,
                "addr:street:sym_ul": 19834,
                "phone": "+48 297645911",
                "email": "sp6ostroleka@wp.pl",
                "website": "http:\/\/www.sp6ostroleka.superszkolna.pl",
                "ref:regon": "000694669",
                "ref:vatin": "PL7582055183",
                "operator": "Miasto Ostro\u0142\u0119ka",
                "operator:type": "government",
                "amenity": "school"
            }
        },
        {
            "id": 27346,
            "type": "Feature",
            "geometry": {
                "type": "Point",
                "coordinates": [
                    21.57013,
                    53.07852
                ]
            },
            "properties": {
                "ref:rspo": 27346,
                "official_name": "Przedszkole Miejskie nr 16 \"Kraina Odkrywc\u00f3w\" w Ostro\u0142\u0119ce",
                "name": "Przedszkole Miejskie nr 16 \"Kraina Odkrywc\u00f3w\" w Ostro\u0142\u0119ce",
                "addr:postcode": "07-410",
                "addr:city": "Ostro\u0142\u0119ka",
                "addr:street": "Powsta\u0144c\u00f3w",
                "addr:housenumber": "4",
                "addr:city:simc": 966079,
                "addr:street:sym_ul": 17354,
                "phone": "+48 297644080",
                "email": "przedszkole16@poczta.onet.eu",
                "website": "http:\/\/pm16ostroleka.pl",
                "ref:regon": "551263336",
                "ref:vatin": "PL7582073821",
                "operator": "Miasto Ostro\u0142\u0119ka",
                "operator:type": "government",
                "amenity": "kindergarten"
            }
        },
        {
            "id": 34450,
            "type": "Feature",
            "geometry": {
                "type": "Point",
                "coordinates": [
                    21.57417,
                    53.0786299
                ]
            },
            "properties": {
                "ref:rspo": 34450,
                "official_name": "Przedszkole Miejskie nr 17 \"Kraina Misi\u00f3w\" w Ostro\u0142\u0119ce",
                "name": "Przedszkole Miejskie nr 17 \"Kraina Misi\u00f3w\" w Ostro\u0142\u0119ce",
                "addr:postcode": "07-410",
                "addr:city": "Ostro\u0142\u0119ka",
                "addr:street": "Marii Konopnickiej",
                "addr:housenumber": "6",
                "addr:city:simc": 966079,
                "addr:street:sym_ul": 9186,
                "phone": "+48 297605868",
                "email": "kontakt@pm17.ostroleka.edu.pl",
                "website": "http:\/\/www.pm17.ostroleka.edu.pl",
                "ref:regon": "551263224",
                "ref:vatin": "PL7582073264",
                "operator": "Miasto Ostro\u0142\u0119ka",
                "operator:type": "government",
                "amenity": "kindergarten"
            }
        },
        {
            "id": 276164,
            "type": "Feature",
            "geometry": {
                "type": "Point",
                "coordinates": [
                    21.59102,
                    53.07879
                ]
            },
            "properties": {
                "ref:rspo": 276164,
                "official_name": "Przedszkole Niepubliczne \"Promyczki\" w Ostro\u0142\u0119ce",
                "name": "Przedszkole Niepubliczne \"Promyczki\" w Ostro\u0142\u0119ce",
                "addr:postcode": "07-410",
                "addr:city": "Ostro\u0142\u0119ka",
                "addr:street": "11 Listopada",
                "addr:housenumber": "78",
                "addr:city:simc": 966079,
                "addr:street:sym_ul": 11205,
                "phone": "+48 516024779",
                "email": "przedszkolepromyczki@onet.pl",
                "ref:regon": "387010292",
                "operator": "Przemys\u0142aw Nitkowski",
                "operator:type": "private",
                "amenity": "kindergarten"
            }
        },
        {
            "id": 48175,
            "type": "Feature",
            "geometry": {
                "type": "Point",
                "coordinates": [
                    21.56863,
                    53.079
                ]
            },
            "properties": {
                "isced:level": "3",
                "ref:rspo": 48175,
                "official_name": "Liceum Og\u00f3lnokszta\u0142c\u0105ce Po Zasadniczej Szkole Zawodowej \nOstro\u0142\u0119ckie Centrum Kszta\u0142cenia",
                "name": "Liceum Og\u00f3lnokszta\u0142c\u0105ce Po Zasadniczej Szkole Zawodowej \nOstro\u0142\u0119ckie Centrum Kszta\u0142cenia",
                "addr:postcode": "07-410",
                "addr:city": "Ostro\u0142\u0119ka",
                "addr:street": "W\u0142adys\u0142awa Reymonta",
                "addr:housenumber": "12",
                "addr:city:simc": 966079,
                "addr:street:sym_ul": 18648,
                "phone": "+48 600443788",
                "ref:regon": "146403874",
                "ref:vatin": "PL7581487035",
                "operator": "Dane Do Uzupe\u0142nienia",
                "operator:type": "private",
                "amenity": "school"
            }
        },
        {
            "id": 278096,
            "type": "Feature",
            "geometry": {
                "type": "Point",
                "coordinates": [
                    21.58392,
                    53.0791
                ]
            },
            "properties": {
                "ref:rspo": 278096,
                "official_name": "Niepubliczne Specjalne Przedszkole Kwiatuszkowo",
                "name": "Niepubliczne Specjalne Przedszkole Kwiatuszkowo",
                "addr:postcode": "07-410",
                "addr:city": "Ostro\u0142\u0119ka",
                "addr:street": "Czes\u0142awa Niemena",
                "addr:housenumber": "16",
                "addr:city:simc": 966079,
                "addr:street:sym_ul": 37219,
                "email": "kontakt@fundacjarazem.com",
                "website": "http:\/\/www.kwiatuszkowo.pl",
                "ref:regon": "389767332",
                "operator": "Fundacja \"Razem\"",
                "operator:type": "ngo",
                "amenity": "kindergarten"
            }
        },
        {
            "id": 131902,
            "type": "Feature",
            "geometry": {
                "type": "Point",
                "coordinates": [
                    21.58079,
                    53.08003
                ]
            },
            "properties": {
                "ref:rspo": 131902,
                "official_name": "\"Bambi\"Niepubliczne Przedszkole Montessori",
                "name": "\"Bambi\"Niepubliczne Przedszkole Montessori",
                "addr:postcode": "07-410",
                "addr:city": "Ostro\u0142\u0119ka",
                "addr:street": "Henryka Dobrza\u0144skiego",
                "addr:housenumber": "8",
                "addr:city:simc": 966079,
                "addr:street:sym_ul": 3978,
                "phone": "+48 603240881",
                "email": "bambiradosc@wp.pl",
                "website": "http:\/\/www.bambiradosc@wp.pl",
                "ref:regon": "365375042",
                "operator": "Emilia Dzierlatka",
                "operator:type": "private",
                "amenity": "kindergarten"
            }
        },
        {
            "id": 131954,
            "type": "Feature",
            "geometry": {
                "type": "Point",
                "coordinates": [
                    21.58079,
                    53.08
                ]
            },
            "properties": {
                "ref:rspo": 131954,
                "official_name": "Przedszkole Bajeczka",
                "name": "Przedszkole Bajeczka",
                "addr:postcode": "07-410",
                "addr:city": "Ostro\u0142\u0119ka",
                "addr:street": "Henryka Dobrza\u0144skiego",
                "addr:housenumber": "19",
                "addr:city:simc": 966079,
                "addr:street:sym_ul": 3978,
                "phone": "+48 509059975",
                "email": "przedszkolebajeczkaostroleka@gmail.com",
                "website": "http:\/\/www.klubbajeczka.pl",
                "ref:regon": "365389498",
                "operator": "El\u017cbieta D\u0105browska",
                "operator:type": "private",
                "amenity": "kindergarten"
            }
        },
        {
            "id": 59762,
            "type": "Feature",
            "geometry": {
                "type": "Point",
                "coordinates": [
                    21.57502,
                    53.0801
                ]
            },
            "properties": {
                "ref:rspo": 59762,
                "official_name": "Alma Mater Szko\u0142a J\u0119zyk\u00f3w Obcych Wies\u0142aw Brzozowy S.j.",
                "name": "Alma Mater Szko\u0142a J\u0119zyk\u00f3w Obcych Wies\u0142aw Brzozowy S.j.",
                "addr:postcode": "07-410",
                "addr:city": "Ostro\u0142\u0119ka",
                "addr:street": "gen. Armii Aleksandra Gorbatowa",
                "addr:housenumber": "9",
                "addr:city:simc": 966079,
                "addr:street:sym_ul": 5814,
                "phone": "+48 297643051",
                "email": "school@almamater.com.pl",
                "ref:regon": "146382400",
                "ref:vatin": "PL7581074250",
                "operator": "Wies\u0142aw Brzozowy",
                "operator:type": "private",
                "fixme": "w zale\u017cno\u015bci od przedmiotu dzia\u0142alno\u015bci (np. amenity=training + training=*, amenity=dancing_school, amenity=language_school, amenity=music_school)"
            }
        },
        {
            "id": 18668,
            "type": "Feature",
            "geometry": {
                "type": "Point",
                "coordinates": [
                    21.58241,
                    53.08083
                ]
            },
            "properties": {
                "ref:rspo": 18668,
                "official_name": "Zesp\u00f3\u0142 Szk\u00f3\u0142 Zawodowych nr 1 im. J. Psarskiego w Ostro\u0142\u0119ce",
                "name": "Zesp\u00f3\u0142 Szk\u00f3\u0142 Zawodowych nr 1",
                "addr:postcode": "07-410",
                "addr:city": "Ostro\u0142\u0119ka",
                "addr:street": "11 Listopada",
                "addr:housenumber": "20",
                "addr:city:simc": 966079,
                "addr:street:sym_ul": 11205,
                "phone": "+48 297646882",
                "email": "sekretariat@zsz1.ostroleka.edu.pl",
                "website": "http:\/\/zsz1ostroleka.edu.pl",
                "ref:regon": "000191827",
                "ref:vatin": "PL7581246277",
                "operator": "Miasto Ostro\u0142\u0119ka",
                "operator:type": "government",
                "landuse": "education",
                "fixme": "amenity=school, amenity=college albo landuse=education w zale\u017cno\u015bci od tego, jakie plac\u00f3wki wchodz\u0105 w sk\u0142ad zespo\u0142u. Sprawd\u017a, kiedy stosowa\u0107 amenity=* a kiedy landuse=education.",
                "note": "Children RSPO: 41855;42140;48466;119642"
            }
        },
        {
            "id": 41855,
            "type": "Feature",
            "geometry": {
                "type": "Point",
                "coordinates": [
                    21.58241,
                    53.080799999999996
                ]
            },
            "properties": {
                "isced:level": "3",
                "ref:rspo": 41855,
                "official_name": "Technikum nr 1 w Ostro\u0142\u0119ce",
                "name": "Technikum nr 1 w Ostro\u0142\u0119ce",
                "addr:postcode": "07-410",
                "addr:city": "Ostro\u0142\u0119ka",
                "addr:street": "11 Listopada",
                "addr:housenumber": "20",
                "addr:city:simc": 966079,
                "addr:street:sym_ul": 11205,
                "phone": "+48 297646882",
                "email": "sekretariat@zsz1.ostroleka.edu.pl",
                "website": "http:\/\/www.zsz1ostroleka.edu.pl",
                "ref:regon": "551255992",
                "operator": "Miasto Ostro\u0142\u0119ka",
                "operator:type": "government",
                "amenity": "school",
                "note": "Parent RSPO: 18668"
            }
        },
        {
            "id": 42140,
            "type": "Feature",
            "geometry": {
                "type": "Point",
                "coordinates": [
                    21.58241,
                    53.08077
                ]
            },
            "properties": {
                "isced:level": "3",
                "ref:rspo": 42140,
                "official_name": "Bran\u017cowa Szko\u0142a I Stopnia nr 1",
                "name": "Bran\u017cowa Szko\u0142a I Stopnia nr 1",
                "addr:postcode": "07-410",
                "addr:city": "Ostro\u0142\u0119ka",
                "addr:street": "11 Listopada",
                "addr:housenumber": "20",
                "addr:city:simc": 966079,
                "addr:street:sym_ul": 11205,
                "phone": "+48 297646882",
                "email": "sekretariat@zsz1.ostroleka.edu.pl",
                "website": "http:\/\/www.zsz1ostroleka.edu.pl",
                "ref:regon": "551256046",
                "operator": "Miasto Ostro\u0142\u0119ka",
                "operator:type": "government",
                "amenity": "school",
                "note": "Parent RSPO: 18668"
            }
        },
        {
            "id": 48466,
            "type": "Feature",
            "geometry": {
                "type": "Point",
                "coordinates": [
                    21.58241,
                    53.08074
                ]
            },
            "properties": {
                "isced:level": "4",
                "ref:rspo": 48466,
                "official_name": "Szko\u0142a Policealna nr 1 w Ostro\u0142\u0119ce",
                "name": "Szko\u0142a Policealna nr 1 w Ostro\u0142\u0119ce",
                "addr:postcode": "07-410",
                "addr:city": "Ostro\u0142\u0119ka",
                "addr:street": "11 Listopada",
                "addr:housenumber": "20",
                "addr:city:simc": 966079,
                "addr:street:sym_ul": 11205,
                "phone": "+48 297646882",
                "email": "sekretariat@zsz1.ostroleka.edu.pl",
                "website": "http:\/\/www.zsz1ostroleka.edu.pl",
                "ref:regon": "140237890",
                "operator": "Miasto Ostro\u0142\u0119ka",
                "operator:type": "government",
                "amenity": "college",
                "note": "Parent RSPO: 18668"
            }
        },
        {
            "id": 119642,
            "type": "Feature",
            "geometry": {
                "type": "Point",
                "coordinates": [
                    21.58241,
                    53.080709999999996
                ]
            },
            "properties": {
                "isced:level": "3",
                "ref:rspo": 119642,
                "official_name": "I Liceum Og\u00f3lnokszta\u0142c\u0105ce dla Doros\u0142ych",
                "name": "I Liceum Og\u00f3lnokszta\u0142c\u0105ce dla Doros\u0142ych",
                "addr:postcode": "07-410",
                "addr:city": "Ostro\u0142\u0119ka",
                "addr:street": "11 Listopada",
                "addr:housenumber": "20",
                "addr:city:simc": 966079,
                "addr:street:sym_ul": 11205,
                "phone": "+48 297646882",
                "email": "sekretariat@zsz1.ostroleka.edu.pl",
                "website": "http:\/\/www.zsz1ostroleka.edu.pl",
                "ref:regon": "146855990",
                "operator": "Miasto Ostro\u0142\u0119ka",
                "operator:type": "government",
                "amenity": "school",
                "note": "Parent RSPO: 18668"
            }
        },
        {
            "id": 27138,
            "type": "Feature",
            "geometry": {
                "type": "Point",
                "coordinates": [
                    21.57729,
                    53.08102
                ]
            },
            "properties": {
                "ref:rspo": 27138,
                "official_name": "Przedszkole Miejskie nr 8 \"Kraina Rado\u015bci\" w Ostro\u0142\u0119ce",
                "name": "Przedszkole Miejskie nr 8 \"Kraina Rado\u015bci\" w Ostro\u0142\u0119ce",
                "addr:postcode": "07-410",
                "addr:city": "Ostro\u0142\u0119ka",
                "addr:street": "Genera\u0142a Ignacego Pr\u0105dzy\u0144skiego",
                "addr:housenumber": "12",
                "addr:city:simc": 966079,
                "addr:street:sym_ul": 17474,
                "phone": "+48 297645816",
                "email": "dyrektor@pm8.ostroleka.edu.pl",
                "website": "http:\/\/www.pm8.ostroleka.edu.pl\/",
                "ref:regon": "551263939",
                "ref:vatin": "PL7582075671",
                "operator": "Miasto Ostro\u0142\u0119ka",
                "operator:type": "government",
                "amenity": "kindergarten"
            }
        },
        {
            "id": 39040,
            "type": "Feature",
            "geometry": {
                "type": "Point",
                "coordinates": [
                    21.57436,
                    53.0813
                ]
            },
            "properties": {
                "isced:level": "4",
                "ref:rspo": 39040,
                "official_name": "Policealna Szko\u0142a Administracji \"Akademia Sukcesu\"",
                "name": "Policealna Szko\u0142a Administracji \"Akademia Sukcesu\"",
                "addr:postcode": "07-410",
                "addr:city": "Ostro\u0142\u0119ka",
                "addr:street": "Genera\u0142a Ignacego Pr\u0105dzy\u0144skiego",
                "addr:housenumber": "4",
                "addr:door": "2\/20",
                "addr:city:simc": 966079,
                "addr:street:sym_ul": 17474,
                "phone": "+48 296462867",
                "email": "ostroleka.sekretariat@as.edu.pl",
                "ref:regon": "146353640",
                "ref:vatin": "PL5423201180",
                "operator": "Dane Do Uzupe\u0142nienia",
                "operator:type": "private",
                "amenity": "college"
            }
        },
        {
            "id": 89654,
            "type": "Feature",
            "geometry": {
                "type": "Point",
                "coordinates": [
                    21.57436,
                    53.081269999999996
                ]
            },
            "properties": {
                "isced:level": "4",
                "ref:rspo": 89654,
                "official_name": "Policealna Szko\u0142a Jednoroczna \"Akademia Sukcesu\"",
                "name": "Policealna Szko\u0142a Jednoroczna \"Akademia Sukcesu\"",
                "addr:postcode": "07-410",
                "addr:city": "Ostro\u0142\u0119ka",
                "addr:street": "Genera\u0142a Ignacego Pr\u0105dzy\u0144skiego",
                "addr:housenumber": "4",
                "addr:door": "2\/20",
                "addr:city:simc": 966079,
                "addr:street:sym_ul": 17474,
                "phone": "+48 296462867",
                "email": "ostroleka.sekretariat@as.edu.pl",
                "ref:regon": "146429543",
                "ref:vatin": "PL5423201180",
                "operator": "Dane Do Uzupe\u0142nienia",
                "operator:type": "private",
                "amenity": "college"
            }
        },
        {
            "id": 27230,
            "type": "Feature",
            "geometry": {
                "type": "Point",
                "coordinates": [
                    21.56577,
                    53.08143
                ]
            },
            "properties": {
                "ref:rspo": 27230,
                "official_name": "Przedszkole Miejskie nr 10 w Ostro\u0142\u0119ce",
                "name": "Przedszkole Miejskie nr 10 w Ostro\u0142\u0119ce",
                "addr:postcode": "07-410",
                "addr:city": "Ostro\u0142\u0119ka",
                "addr:street": "Mazowiecka",
                "addr:housenumber": "7",
                "addr:city:simc": 966079,
                "addr:street:sym_ul": 12540,
                "phone": "+48 297644853",
                "email": "kontakt@pm10.ostroleka.edu.pl",
                "website": "http:\/\/pm10.ostroleka.edu.pl",
                "ref:regon": "551263721",
                "ref:vatin": "PL7582073896",
                "operator": "Miasto Ostro\u0142\u0119ka",
                "operator:type": "government",
                "amenity": "kindergarten"
            }
        },
        {
            "id": 48046,
            "type": "Feature",
            "geometry": {
                "type": "Point",
                "coordinates": [
                    21.57494,
                    53.08193
                ]
            },
            "properties": {
                "isced:level": "3",
                "ref:rspo": 48046,
                "official_name": "Ii Spo\u0142eczne Liceum Og\u00f3lnokszta\u0142c\u0105ce\nIm. Toniego Halika",
                "name": "Ii Spo\u0142eczne Liceum Og\u00f3lnokszta\u0142c\u0105ce\nIm. Toniego Halika",
                "addr:postcode": "07-410",
                "addr:city": "Ostro\u0142\u0119ka",
                "addr:street": "Genera\u0142a Ignacego Pr\u0105dzy\u0144skiego",
                "addr:housenumber": "5",
                "addr:city:simc": 966079,
                "addr:street:sym_ul": 17474,
                "phone": "+48 297645437",
                "email": "kancelaria2slo@interia.pl",
                "website": "http:\/\/www.slo2.pl",
                "ref:regon": "146366558",
                "ref:vatin": "PL7581073279",
                "operator": "Dane Do Uzupe\u0142nienia",
                "operator:type": "private",
                "amenity": "school"
            }
        },
        {
            "id": 39065,
            "type": "Feature",
            "geometry": {
                "type": "Point",
                "coordinates": [
                    21.56917,
                    53.08206
                ]
            },
            "properties": {
                "isced:level": "4",
                "ref:rspo": 39065,
                "official_name": "Policealna Szko\u0142a \"Akademia Sukcesu\"",
                "name": "Policealna Szko\u0142a \"Akademia Sukcesu\"",
                "addr:postcode": "07-410",
                "addr:city": "Ostro\u0142\u0119ka",
                "addr:street": "Jana Kili\u0144skiego",
                "addr:housenumber": "31",
                "addr:city:simc": 966079,
                "addr:street:sym_ul": 8435,
                "email": "ostroleka.sekretariat@as.edu.pl",
                "website": "http:\/\/as.edu.pl",
                "ref:regon": "146355106",
                "ref:vatin": "PL5423201180",
                "operator": "Fundacja Inicjatywa Na Rzecz Edukacji",
                "operator:type": "ngo",
                "amenity": "college"
            }
        },
        {
            "id": 89653,
            "type": "Feature",
            "geometry": {
                "type": "Point",
                "coordinates": [
                    21.56917,
                    53.082029999999996
                ]
            },
            "properties": {
                "isced:level": "3",
                "ref:rspo": 89653,
                "official_name": "Trzyletnie Liceum Og\u00f3lnokszta\u0142c\u0105ce dla Doros\u0142ych \"Akademia Sukcesu\"",
                "name": "Trzyletnie Liceum Og\u00f3lnokszta\u0142c\u0105ce dla Doros\u0142ych \"Akademia Sukcesu\"",
                "addr:postcode": "07-410",
                "addr:city": "Ostro\u0142\u0119ka",
                "addr:street": "Jana Kili\u0144skiego",
                "addr:housenumber": "31",
                "addr:city:simc": 966079,
                "addr:street:sym_ul": 8435,
                "phone": "+48 660459369",
                "email": "ostroleka@as.edu.pl",
                "ref:regon": "146429394",
                "ref:vatin": "PL5423201180",
                "operator": "Fundacja Inicjatywa Na Rzecz Edukacji",
                "operator:type": "ngo",
                "amenity": "school"
            }
        },
        {
            "id": 61851,
            "type": "Feature",
            "geometry": {
                "type": "Point",
                "coordinates": [
                    21.5658299,
                    53.08229
                ]
            },
            "properties": {
                "ref:rspo": 61851,
                "official_name": "O\u015brodek Doskonalenia Kadr Not w Ostro\u0142\u0119ce",
                "name": "O\u015brodek Doskonalenia Kadr Not w Ostro\u0142\u0119ce",
                "addr:postcode": "07-410",
                "addr:city": "Ostro\u0142\u0119ka",
                "addr:street": "Mazowiecka",
                "addr:housenumber": "6",
                "addr:city:simc": 966079,
                "addr:street:sym_ul": 12540,
                "phone": "+48 297645858",
                "ref:regon": "146391929",
                "ref:vatin": "PL7580001272",
                "operator": "Dane Do Uzupe\u0142nienia",
                "operator:type": "private",
                "fixme": "w zale\u017cno\u015bci od przedmiotu dzia\u0142alno\u015bci (np. amenity=training + training=*, amenity=dancing_school, amenity=language_school, amenity=music_school)"
            }
        },
        {
            "id": 269648,
            "type": "Feature",
            "geometry": {
                "type": "Point",
                "coordinates": [
                    21.56882,
                    53.08231
                ]
            },
            "properties": {
                "ref:rspo": 269648,
                "official_name": "Agencja Ochrony Mienia Tarcza Grupa Sp. z o.o. Sp. K.",
                "name": "Agencja Ochrony Mienia Tarcza Grupa Sp. z o.o. Sp. K.",
                "addr:postcode": "07-410",
                "addr:city": "Ostro\u0142\u0119ka",
                "addr:street": "Jana Kili\u0144skiego",
                "addr:housenumber": "29",
                "addr:city:simc": 966079,
                "addr:street:sym_ul": 8435,
                "phone": "+48 297606073",
                "email": "tarcza@tarcza.net.pl",
                "website": "http:\/\/www.tarcza.eu",
                "ref:regon": "381658916",
                "operator": "Agencja Ochrony Mienia Tarcza Grupa Sp\u00f3\u0142ka Z Ograniczon\u0105 Odpowiedzialno\u015bci\u0105 Sp\u00f3\u0142ka Komandytowa",
                "operator:type": "private",
                "fixme": "w zale\u017cno\u015bci od przedmiotu dzia\u0142alno\u015bci (np. amenity=training + training=*, amenity=dancing_school, amenity=language_school, amenity=music_school)"
            }
        },
        {
            "id": 132168,
            "type": "Feature",
            "geometry": {
                "type": "Point",
                "coordinates": [
                    21.5694899,
                    53.08235
                ]
            },
            "properties": {
                "ref:rspo": 132168,
                "official_name": "Niepubliczny Terapeutyczny Punkt Przedszkolny \"Wyj\u0105tkowy Maluch\"",
                "name": "Niepubliczny Terapeutyczny Punkt Przedszkolny \"Wyj\u0105tkowy Maluch\"",
                "addr:postcode": "07-410",
                "addr:city": "Ostro\u0142\u0119ka",
                "addr:street": "Go\u0142\u0119bia",
                "addr:housenumber": "9",
                "addr:city:simc": 966079,
                "addr:street:sym_ul": 5761,
                "phone": "+48 886584826",
                "email": "wyjatkowymaluch@onet.pl",
                "ref:regon": "365496811",
                "operator": "Edyta Polewacz",
                "operator:type": "private",
                "amenity": "kindergarten"
            }
        },
        {
            "id": 268422,
            "type": "Feature",
            "geometry": {
                "type": "Point",
                "coordinates": [
                    21.5694899,
                    53.082319999999996
                ]
            },
            "properties": {
                "isced:level": "1;2",
                "ref:rspo": 268422,
                "official_name": "Niepubliczna Szko\u0142a Podstawowa Specjalna ,,Wyj\u0105tkowy Ucze\u0144\"",
                "name": "Niepubliczna Szko\u0142a Podstawowa Specjalna ,,Wyj\u0105tkowy Ucze\u0144\"",
                "addr:postcode": "07-410",
                "addr:city": "Ostro\u0142\u0119ka",
                "addr:street": "Go\u0142\u0119bia",
                "addr:housenumber": "9",
                "addr:city:simc": 966079,
                "addr:street:sym_ul": 5761,
                "phone": "+48 886584826",
                "email": "wyjatkowymaluch@onet.pl",
                "website": "http:\/\/wyjatkowymaluch.wixsite.com\/ostroleka",
                "ref:regon": "381157781",
                "operator": "Edyta Polewacz",
                "operator:type": "private",
                "amenity": "school"
            }
        },
        {
            "id": 34996,
            "type": "Feature",
            "geometry": {
                "type": "Point",
                "coordinates": [
                    21.56715,
                    53.0832
                ]
            },
            "properties": {
                "ref:rspo": 34996,
                "official_name": "Punkt Przedszkolny \"Ja\u015b I Ma\u0142gosia\"",
                "name": "Punkt Przedszkolny \"Ja\u015b I Ma\u0142gosia\"",
                "addr:postcode": "07-410",
                "addr:city": "Ostro\u0142\u0119ka",
                "addr:street": "Jana Kili\u0144skiego",
                "addr:housenumber": "6a",
                "addr:city:simc": 966079,
                "addr:street:sym_ul": 8435,
                "phone": "+48 730818584",
                "ref:regon": "146353248",
                "ref:vatin": "PL7582063320",
                "operator": "Ewa Ostrowska",
                "operator:type": "private",
                "amenity": "kindergarten"
            }
        },
        {
            "id": 60097,
            "type": "Feature",
            "geometry": {
                "type": "Point",
                "coordinates": [
                    21.59432,
                    53.08325
                ]
            },
            "properties": {
                "ref:rspo": 60097,
                "official_name": "O\u015brodek Szkolenia Zawodowego \"Amet\"",
                "name": "O\u015brodek Szkolenia Zawodowego \"Amet\"",
                "addr:postcode": "07-410",
                "addr:city": "Ostro\u0142\u0119ka",
                "addr:street": "Tadeusza Zawadzkiego \"Zo\u015bki\"",
                "addr:housenumber": "4",
                "addr:city:simc": 966079,
                "addr:street:sym_ul": 25829,
                "phone": "+48 297602414",
                "email": "wambrzyk@o2.pl",
                "ref:regon": "146375758",
                "ref:vatin": "PL7581071843",
                "operator": "Dane Do Uzupe\u0142nienia",
                "operator:type": "private",
                "fixme": "w zale\u017cno\u015bci od przedmiotu dzia\u0142alno\u015bci (np. amenity=training + training=*, amenity=dancing_school, amenity=language_school, amenity=music_school)"
            }
        },
        {
            "id": 27152,
            "type": "Feature",
            "geometry": {
                "type": "Point",
                "coordinates": [
                    21.5808,
                    53.08346
                ]
            },
            "properties": {
                "isced:level": "1;2",
                "ref:rspo": 27152,
                "official_name": "Szko\u0142a Podstawowa nr 5 im. Zofii Niedzia\u0142kowskiej w Ostro\u0142\u0119ce",
                "name": "Szko\u0142a Podstawowa nr 5",
                "addr:postcode": "07-410",
                "addr:city": "Ostro\u0142\u0119ka",
                "addr:street": "Genera\u0142a J\u00f3zefa Hallera",
                "addr:housenumber": "12",
                "addr:city:simc": 966079,
                "addr:street:sym_ul": 6485,
                "phone": "+48 297644540",
                "email": "sekretariat@sp5.ostroleka.edu.pl",
                "website": "http:\/\/www.sp5oka.pl",
                "ref:regon": "000694652",
                "ref:vatin": "PL7582071905",
                "operator": "Miasto Ostro\u0142\u0119ka",
                "operator:type": "government",
                "amenity": "school"
            }
        },
        {
            "id": 43416,
            "type": "Feature",
            "geometry": {
                "type": "Point",
                "coordinates": [
                    21.5808,
                    53.08343
                ]
            },
            "properties": {
                "isced:level": "4",
                "ref:rspo": 43416,
                "official_name": "Policealne Studium Kosmetyczne w Ostro\u0142\u0119ce",
                "name": "Policealne Studium Kosmetyczne w Ostro\u0142\u0119ce",
                "addr:postcode": "07-410",
                "addr:city": "Ostro\u0142\u0119ka",
                "addr:street": "Genera\u0142a J\u00f3zefa Hallera",
                "addr:housenumber": "12",
                "addr:city:simc": 966079,
                "addr:street:sym_ul": 6485,
                "phone": "+48 508080809",
                "email": "pskoka@o2.pl",
                "ref:regon": "146359417",
                "operator": "Dane Do Uzupe\u0142nienia",
                "operator:type": "private",
                "amenity": "college"
            }
        },
        {
            "id": 34289,
            "type": "Feature",
            "geometry": {
                "type": "Point",
                "coordinates": [
                    21.58439,
                    53.08378
                ]
            },
            "properties": {
                "ref:rspo": 34289,
                "official_name": "Przedszkole Miejskie nr 13 \"Kraina Przyg\u00f3d\" w Ostro\u0142\u0119ce",
                "name": "Przedszkole Miejskie nr 13 \"Kraina Przyg\u00f3d\" w Ostro\u0142\u0119ce",
                "addr:postcode": "07-410",
                "addr:city": "Ostro\u0142\u0119ka",
                "addr:street": "Dzieci Polskich",
                "addr:housenumber": "5",
                "addr:city:simc": 966079,
                "addr:street:sym_ul": 4604,
                "phone": "+48 297666832",
                "email": "pm13ostroleka@gmail.com",
                "website": "http:\/\/www.przedszkole13ostroleka.dlaprzedszkoli.eu",
                "ref:regon": "551264229",
                "ref:vatin": "PL7582075642",
                "operator": "Miasto Ostro\u0142\u0119ka",
                "operator:type": "government",
                "amenity": "kindergarten"
            }
        },
        {
            "id": 132386,
            "type": "Feature",
            "geometry": {
                "type": "Point",
                "coordinates": [
                    21.57345,
                    53.08412
                ]
            },
            "properties": {
                "ref:rspo": 132386,
                "official_name": "O\u015brodek Szkolenia \"Znak\" Witold Samsel",
                "name": "O\u015brodek Szkolenia \"Znak\" Witold Samsel",
                "addr:postcode": "07-410",
                "addr:city": "Ostro\u0142\u0119ka",
                "addr:street": "Genera\u0142a Ludwika Bogus\u0142awskiego",
                "addr:housenumber": "23",
                "addr:city:simc": 966079,
                "addr:street:sym_ul": 1606,
                "phone": "+48 604256719",
                "ref:regon": "365582835",
                "operator": "Witold Samsel",
                "operator:type": "private",
                "fixme": "w zale\u017cno\u015bci od przedmiotu dzia\u0142alno\u015bci (np. amenity=training + training=*, amenity=dancing_school, amenity=language_school, amenity=music_school)"
            }
        },
        {
            "id": 132162,
            "type": "Feature",
            "geometry": {
                "type": "Point",
                "coordinates": [
                    21.58404,
                    53.08466
                ]
            },
            "properties": {
                "ref:rspo": 132162,
                "official_name": "Prywatne Przedszkole \"Ja\u015b I Ma\u0142gosia\"",
                "name": "Prywatne Przedszkole \"Ja\u015b I Ma\u0142gosia\"",
                "addr:postcode": "07-410",
                "addr:city": "Ostro\u0142\u0119ka",
                "addr:street": "Genera\u0142a J\u00f3zefa Hallera",
                "addr:housenumber": "13",
                "addr:city:simc": 966079,
                "addr:street:sym_ul": 6485,
                "phone": "+48 518044771",
                "email": "p.p.jasimalgosia@op.pl",
                "website": "http:\/\/www.jasimalgosia.mazowsze.me",
                "ref:regon": "365493110",
                "operator": "Sylwia Wo\u0142osz",
                "operator:type": "private",
                "amenity": "kindergarten"
            }
        },
        {
            "id": 27001,
            "type": "Feature",
            "geometry": {
                "type": "Point",
                "coordinates": [
                    21.58112,
                    53.08491
                ]
            },
            "properties": {
                "ref:rspo": 27001,
                "official_name": "Biblioteka Pedagogiczna w Ostro\u0142\u0119ce",
                "name": "Biblioteka Pedagogiczna w Ostro\u0142\u0119ce",
                "addr:postcode": "07-410",
                "addr:city": "Ostro\u0142\u0119ka",
                "addr:street": "Marsza\u0142ka J\u00f3zefa Pi\u0142sudskiego",
                "addr:housenumber": "38",
                "addr:city:simc": 966079,
                "addr:street:sym_ul": 16274,
                "phone": "+48 297642129",
                "email": "sekretariat@bp.ostroleka.pl",
                "website": "http:\/\/www.bpostroleka.pl",
                "ref:regon": "000694480",
                "ref:vatin": "PL7582120644",
                "operator": "Wojew\u00f3dztwo Mazowieckie",
                "operator:type": "government",
                "amenity": "library",
                "note": "Children RSPO: 89392;89446;89464;89473"
            }
        },
        {
            "id": 17357,
            "type": "Feature",
            "geometry": {
                "type": "Point",
                "coordinates": [
                    21.5954,
                    53.08515
                ]
            },
            "properties": {
                "ref:rspo": 17357,
                "official_name": "Poradnia Psychologiczno-Pedagogiczna",
                "name": "Poradnia Psychologiczno-Pedagogiczna",
                "addr:postcode": "07-410",
                "addr:city": "Ostro\u0142\u0119ka",
                "addr:street": "O\u015bwiatowa",
                "addr:housenumber": "1",
                "addr:city:simc": 966079,
                "addr:street:sym_ul": 15436,
                "phone": "+48 297604536",
                "email": "pppostroleka@o2.pl",
                "website": "http:\/\/ppp.ostroleka.pl",
                "ref:regon": "000694422",
                "ref:vatin": "PL7581728243",
                "operator": "Miasto Ostro\u0142\u0119ka",
                "operator:type": "government",
                "healthcare": "counselling",
                "counselling_type": "education",
                "fixme": "w zale\u017cno\u015bci od przedmiotu dzia\u0142alno\u015bci (np. healthcare=counselling + counselling_type=education albo healthcare=psychotherapist)"
            }
        },
        {
            "id": 27124,
            "type": "Feature",
            "geometry": {
                "type": "Point",
                "coordinates": [
                    21.57661,
                    53.0858599
                ]
            },
            "properties": {
                "ref:rspo": 27124,
                "official_name": "Przedszkole Miejskie nr 7 T\u0119czowa Kraina w Ostro\u0142\u0119ce",
                "name": "Przedszkole Miejskie nr 7 T\u0119czowa Kraina w Ostro\u0142\u0119ce",
                "addr:postcode": "07-410",
                "addr:city": "Ostro\u0142\u0119ka",
                "addr:street": "Doktora J\u00f3zefa Psarskiego",
                "addr:housenumber": "24",
                "addr:city:simc": 966079,
                "addr:street:sym_ul": 18021,
                "phone": "+48 297643077",
                "email": "kontakt@pm7.ostroleka.edu.pl",
                "website": "http:\/\/pm7.ostroleka.edu.pl",
                "ref:regon": "551266211",
                "ref:vatin": "PL7582077894",
                "operator": "Miasto Ostro\u0142\u0119ka",
                "operator:type": "government",
                "amenity": "kindergarten"
            }
        },
        {
            "id": 18564,
            "type": "Feature",
            "geometry": {
                "type": "Point",
                "coordinates": [
                    21.57503,
                    53.08679
                ]
            },
            "properties": {
                "ref:rspo": 18564,
                "official_name": "Centrum Kszta\u0142cenia Zawodowego",
                "name": "Centrum Kszta\u0142cenia Zawodowego",
                "addr:postcode": "07-410",
                "addr:city": "Ostro\u0142\u0119ka",
                "addr:street": "Genera\u0142a Henryka Kamie\u0144skiego",
                "addr:housenumber": "5",
                "addr:city:simc": 966079,
                "addr:street:sym_ul": 7893,
                "phone": "+48 297645281",
                "email": "ckp12@o2.pl",
                "ref:regon": "551183985",
                "ref:vatin": "PL7582134480",
                "operator": "Miasto Ostro\u0142\u0119ka",
                "operator:type": "government",
                "fixme": "w zale\u017cno\u015bci od przedmiotu dzia\u0142alno\u015bci (np. amenity=training + training=*, amenity=dancing_school, amenity=language_school, amenity=music_school) albo amenity=school, amenity=college, albo landuse=education w zale\u017cno\u015bci od tego, jakie plac\u00f3wki wchodz\u0105 w sk\u0142ad zespo\u0142u. Sprawd\u017a, kiedy stosowa\u0107 amenity=* a kiedy landuse=education."
            }
        },
        {
            "id": 132235,
            "type": "Feature",
            "geometry": {
                "type": "Point",
                "coordinates": [
                    21.56936,
                    53.087
                ]
            },
            "properties": {
                "isced:level": "3",
                "ref:rspo": 132235,
                "official_name": "Liceum Klasyczne im.papie\u017ca Jana Paw\u0142a II w Ostro\u0142\u0119ce",
                "name": "Liceum Klasyczne im.papie\u017ca Jana Paw\u0142a II w Ostro\u0142\u0119ce",
                "addr:postcode": "07-410",
                "addr:city": "Ostro\u0142\u0119ka",
                "addr:street": "Szwedzka",
                "addr:housenumber": "2",
                "addr:city:simc": 966079,
                "addr:street:sym_ul": 22179,
                "phone": "+48 297648944",
                "email": "sekretariat@liceumklasyczne.pl",
                "website": "http:\/\/liceumklasyczne.pl",
                "ref:regon": "365524921",
                "operator": "Dane Do Uzupe\u0142nienia",
                "operator:type": "private",
                "amenity": "school"
            }
        },
        {
            "id": 264543,
            "type": "Feature",
            "geometry": {
                "type": "Point",
                "coordinates": [
                    21.56936,
                    53.08697
                ]
            },
            "properties": {
                "isced:level": "1;2",
                "ref:rspo": 264543,
                "official_name": "Szko\u0142a Podstawowa Przy Liceum Klasycznym im. Papie\u017ca Jana Paw\u0142a II w Ostro\u0142\u0119ce",
                "name": "Szko\u0142a Podstawowa Przy Liceum Klasycznym",
                "addr:postcode": "07-410",
                "addr:city": "Ostro\u0142\u0119ka",
                "addr:street": "Szwedzka",
                "addr:housenumber": "2",
                "addr:city:simc": 966079,
                "addr:street:sym_ul": 22179,
                "phone": "+48 297648944",
                "email": "szkola@gimnazjumklasyczne.pl",
                "website": "http:\/\/gimnazjumklasyczne.pl",
                "ref:regon": "368374764",
                "ref:vatin": "PL7582365073",
                "operator": "Stowarzyszenie \"Rodzina Polska\"",
                "operator:type": "ngo",
                "amenity": "school"
            }
        },
        {
            "id": 17092,
            "type": "Feature",
            "geometry": {
                "type": "Point",
                "coordinates": [
                    21.5744,
                    53.08766
                ]
            },
            "properties": {
                "isced:level": "3",
                "ref:rspo": 17092,
                "official_name": "Ii Liceum Og\u00f3lnokszta\u0142c\u0105ce im. C. K. Norwida",
                "name": "Ii Liceum Og\u00f3lnokszta\u0142c\u0105ce",
                "addr:postcode": "07-410",
                "addr:city": "Ostro\u0142\u0119ka",
                "addr:street": "Romualda Traugutta",
                "addr:housenumber": "2",
                "addr:city:simc": 966079,
                "addr:street:sym_ul": 22965,
                "phone": "+48 297644713",
                "email": "kontakt@2lo.ostroleka.edu.pl",
                "website": "http:\/\/www.2lo.ostroleka.edu.pl",
                "ref:regon": "000192086",
                "ref:vatin": "PL7581231152",
                "operator": "Miasto Ostro\u0142\u0119ka",
                "operator:type": "government",
                "amenity": "school"
            }
        },
        {
            "id": 127370,
            "type": "Feature",
            "geometry": {
                "type": "Point",
                "coordinates": [
                    21.57766,
                    53.0878299
                ]
            },
            "properties": {
                "ref:rspo": 127370,
                "official_name": "Centrum Kszta\u0142cenia Zawodowego I Ustawicznego w Ostro\u0142\u0119ce",
                "name": "Centrum Kszta\u0142cenia Zawodowego I Ustawicznego w Ostro\u0142\u0119ce",
                "addr:postcode": "07-412",
                "addr:city": "Ostro\u0142\u0119ka",
                "addr:street": "Parkowa",
                "addr:housenumber": "6",
                "addr:city:simc": 966079,
                "addr:street:sym_ul": 15710,
                "phone": "+48 297646637",
                "email": "sekretariat@ckziu.ostroleka.pl",
                "website": "http:\/\/ckziu.ostroleka.pl\/",
                "ref:regon": "361464323",
                "operator": "Wojew\u00f3dztwo Mazowieckie",
                "operator:type": "government",
                "landuse": "education",
                "fixme": "amenity=school, amenity=college albo landuse=education w zale\u017cno\u015bci od tego, jakie plac\u00f3wki wchodz\u0105 w sk\u0142ad zespo\u0142u. Sprawd\u017a, kiedy stosowa\u0107 amenity=* a kiedy landuse=education.",
                "note": "Children RSPO: 127417;127421"
            }
        },
        {
            "id": 131894,
            "type": "Feature",
            "geometry": {
                "type": "Point",
                "coordinates": [
                    21.57766,
                    53.0877999
                ]
            },
            "properties": {
                "ref:rspo": 131894,
                "official_name": "Dor-Edu Niepubliczna Plac\u00f3wka Kszta\u0142cenia Ustawicznego",
                "name": "Dor-Edu Niepubliczna Plac\u00f3wka Kszta\u0142cenia Ustawicznego",
                "addr:postcode": "07-410",
                "addr:city": "Ostro\u0142\u0119ka",
                "addr:street": "Parkowa",
                "addr:housenumber": "6",
                "addr:city:simc": 966079,
                "addr:street:sym_ul": 15710,
                "phone": "+48 604591677",
                "ref:regon": "365374887",
                "operator": "Pawe\u0142 Rzewnicki",
                "operator:type": "private",
                "fixme": "w zale\u017cno\u015bci od przedmiotu dzia\u0142alno\u015bci (np. amenity=training + training=*, amenity=dancing_school, amenity=language_school, amenity=music_school)"
            }
        },
        {
            "id": 127417,
            "type": "Feature",
            "geometry": {
                "type": "Point",
                "coordinates": [
                    21.57766,
                    53.087769900000005
                ]
            },
            "properties": {
                "isced:level": "4",
                "ref:rspo": 127417,
                "official_name": "Medyczno -Spo\u0142eczna Szko\u0142a Policealna w Ostro\u0142\u0119ce",
                "name": "Medyczno -Spo\u0142eczna Szko\u0142a Policealna w Ostro\u0142\u0119ce",
                "addr:postcode": "07-410",
                "addr:city": "Ostro\u0142\u0119ka",
                "addr:street": "Parkowa",
                "addr:housenumber": "6",
                "addr:city:simc": 966079,
                "addr:street:sym_ul": 15710,
                "phone": "+48 297646637",
                "email": "sekretariat@ckziu.ostroleka.pl",
                "website": "http:\/\/www.ckziu.ostroleka.pl",
                "ref:regon": "361567313",
                "operator": "Wojew\u00f3dztwo Mazowieckie",
                "operator:type": "government",
                "amenity": "college",
                "note": "Parent RSPO: 127370"
            }
        },
        {
            "id": 127421,
            "type": "Feature",
            "geometry": {
                "type": "Point",
                "coordinates": [
                    21.57766,
                    53.0877399
                ]
            },
            "properties": {
                "ref:rspo": 127421,
                "official_name": "Centrum Kszta\u0142cenia Ustawicznego w Ostro\u0142\u0119ce",
                "name": "Centrum Kszta\u0142cenia Ustawicznego w Ostro\u0142\u0119ce",
                "addr:postcode": "07-410",
                "addr:city": "Ostro\u0142\u0119ka",
                "addr:street": "Parkowa",
                "addr:housenumber": "6",
                "addr:city:simc": 966079,
                "addr:street:sym_ul": 15710,
                "phone": "+48 297646637",
                "email": "sekretariat@ckziu.ostroleka.pl",
                "website": "http:\/\/www.ckziu.ostroleka.pl",
                "ref:regon": "361567431",
                "operator": "Wojew\u00f3dztwo Mazowieckie",
                "operator:type": "government",
                "fixme": "w zale\u017cno\u015bci od przedmiotu dzia\u0142alno\u015bci (np. amenity=training + training=*, amenity=dancing_school, amenity=language_school, amenity=music_school)",
                "note": "Parent RSPO: 127370"
            }
        },
        {
            "id": 44015,
            "type": "Feature",
            "geometry": {
                "type": "Point",
                "coordinates": [
                    21.58243,
                    53.08814
                ]
            },
            "properties": {
                "isced:level": "1;2",
                "ref:rspo": 44015,
                "official_name": "Szko\u0142a Podstawowa nr 2 im. Stanis\u0142awa Staszica w Ostro\u0142\u0119ce",
                "name": "Szko\u0142a Podstawowa nr 2",
                "addr:postcode": "07-410",
                "addr:city": "Ostro\u0142\u0119ka",
                "addr:street": "Papiernicza",
                "addr:housenumber": "1",
                "addr:city:simc": 966079,
                "addr:street:sym_ul": 15653,
                "phone": "+48 297666952",
                "email": "sp2ostroleka@wp.pl",
                "website": "http:\/\/www.sp2ostroleka.pl",
                "ref:regon": "000694623",
                "ref:vatin": "PL7582080732",
                "operator": "Miasto Ostro\u0142\u0119ka",
                "operator:type": "government",
                "amenity": "school"
            }
        },
        {
            "id": 17553,
            "type": "Feature",
            "geometry": {
                "type": "Point",
                "coordinates": [
                    21.57434,
                    53.08873
                ]
            },
            "properties": {
                "isced:level": "3",
                "ref:rspo": 17553,
                "official_name": "I Liceum Og\u00f3lnokszta\u0142c\u0105ce im.gen. J\u00f3zefa Bema",
                "name": "I Liceum Og\u00f3lnokszta\u0142c\u0105ce im.gen. J\u00f3zefa Bema",
                "addr:postcode": "07-410",
                "addr:city": "Ostro\u0142\u0119ka",
                "addr:street": "Romualda Traugutta",
                "addr:housenumber": "1",
                "addr:city:simc": 966079,
                "addr:street:sym_ul": 22965,
                "phone": "+48 297602051",
                "email": "sekretariat@1lo.ostroleka.edu.pl",
                "website": "http:\/\/1lo.ostroleka.edu.pl",
                "ref:regon": "000256656",
                "ref:vatin": "PL7581231063",
                "operator": "Miasto Ostro\u0142\u0119ka",
                "operator:type": "government",
                "amenity": "school"
            }
        },
        {
            "id": 14359,
            "type": "Feature",
            "geometry": {
                "type": "Point",
                "coordinates": [
                    21.57661,
                    53.08928
                ]
            },
            "properties": {
                "ref:rspo": 14359,
                "official_name": "Pa\u0144stwowa Szko\u0142a Muzyczna I I II St. im. Zygmunta Noskowskiego w Ostro\u0142\u0119ce",
                "name": "Pa\u0144stwowa Szko\u0142a Muzyczna I I II St.",
                "addr:postcode": "07-400",
                "addr:city": "Ostro\u0142\u0119ka",
                "addr:street": "Romualda Traugutta",
                "addr:housenumber": "7",
                "addr:city:simc": 966079,
                "addr:street:sym_ul": 22965,
                "phone": "+48 297602840",
                "email": "sekretariat@psm.ostroleka.pl",
                "website": "http:\/\/psm.ostroleka.pl",
                "ref:regon": "000934441",
                "operator": "Ministerstwo Kultury I Dziedzictwa Narodowego",
                "operator:type": "government",
                "landuse": "education",
                "fixme": "amenity=school, amenity=college albo landuse=education w zale\u017cno\u015bci od tego, jakie plac\u00f3wki wchodz\u0105 w sk\u0142ad zespo\u0142u. Sprawd\u017a, kiedy stosowa\u0107 amenity=* a kiedy landuse=education.",
                "note": "Children RSPO: 103776;103777"
            }
        },
        {
            "id": 103776,
            "type": "Feature",
            "geometry": {
                "type": "Point",
                "coordinates": [
                    21.57661,
                    53.08925
                ]
            },
            "properties": {
                "ref:rspo": 103776,
                "official_name": "Pa\u0144stwowa Szko\u0142a Muzyczna II St. w Ostro\u0142\u0119ce",
                "name": "Pa\u0144stwowa Szko\u0142a Muzyczna II St. w Ostro\u0142\u0119ce",
                "addr:postcode": "07-400",
                "addr:city": "Ostro\u0142\u0119ka",
                "addr:street": "Romualda Traugutta",
                "addr:housenumber": "7",
                "addr:city:simc": 966079,
                "addr:street:sym_ul": 22965,
                "phone": "+48 297602840",
                "email": "sekretariat@psm.ostroleka.pl",
                "website": "http:\/\/psm.ostroleka.pl",
                "ref:regon": "140099582",
                "operator": "Ministerstwo Kultury I Dziedzictwa Narodowego",
                "operator:type": "government",
                "amenity": "music_school",
                "note": "Parent RSPO: 14359"
            }
        },
        {
            "id": 103777,
            "type": "Feature",
            "geometry": {
                "type": "Point",
                "coordinates": [
                    21.57661,
                    53.089220000000005
                ]
            },
            "properties": {
                "ref:rspo": 103777,
                "official_name": "Pa\u0144stwowa Szko\u0142a Muzyczna I St. w Ostro\u0142\u0119ce",
                "name": "Pa\u0144stwowa Szko\u0142a Muzyczna I St. w Ostro\u0142\u0119ce",
                "addr:postcode": "07-400",
                "addr:city": "Ostro\u0142\u0119ka",
                "addr:street": "Romualda Traugutta",
                "addr:housenumber": "7",
                "addr:city:simc": 966079,
                "addr:street:sym_ul": 22965,
                "phone": "+48 297602840",
                "email": "sekretariat@psm.ostroleka.pl",
                "website": "http:\/\/psm.ostroleka.pl",
                "ref:regon": "140099553",
                "operator": "Ministerstwo Kultury I Dziedzictwa Narodowego",
                "operator:type": "government",
                "amenity": "music_school",
                "note": "Parent RSPO: 14359"
            }
        },
        {
            "id": 18939,
            "type": "Feature",
            "geometry": {
                "type": "Point",
                "coordinates": [
                    21.57855,
                    53.08932
                ]
            },
            "properties": {
                "ref:rspo": 18939,
                "official_name": "Zesp\u00f3\u0142 Szk\u00f3\u0142 Zawodowych nr 4 im. A. Ch\u0119tnika w Ostro\u0142\u0119ce",
                "name": "Zesp\u00f3\u0142 Szk\u00f3\u0142 Zawodowych nr 4",
                "addr:postcode": "07-410",
                "addr:city": "Ostro\u0142\u0119ka",
                "addr:street": "Romualda Traugutta",
                "addr:housenumber": "10",
                "addr:city:simc": 966079,
                "addr:street:sym_ul": 22965,
                "phone": "+48 297642127",
                "email": "sekretariat@zsz4.ostroleka.edu.pl",
                "website": "http:\/\/zsz4.ostroleka.edu.pl",
                "ref:regon": "000192956",
                "ref:vatin": "PL7581246337",
                "operator": "Miasto Ostro\u0142\u0119ka",
                "operator:type": "government",
                "landuse": "education",
                "fixme": "amenity=school, amenity=college albo landuse=education w zale\u017cno\u015bci od tego, jakie plac\u00f3wki wchodz\u0105 w sk\u0142ad zespo\u0142u. Sprawd\u017a, kiedy stosowa\u0107 amenity=* a kiedy landuse=education.",
                "note": "Children RSPO: 47317;48024;59930;119652"
            }
        },
        {
            "id": 47317,
            "type": "Feature",
            "geometry": {
                "type": "Point",
                "coordinates": [
                    21.57855,
                    53.08929
                ]
            },
            "properties": {
                "isced:level": "4",
                "ref:rspo": 47317,
                "official_name": "Szko\u0142a Policealna nr 4 w Ostro\u0142\u0119ce",
                "name": "Szko\u0142a Policealna nr 4 w Ostro\u0142\u0119ce",
                "addr:postcode": "07-410",
                "addr:city": "Ostro\u0142\u0119ka",
                "addr:street": "Romualda Traugutta",
                "addr:housenumber": "10",
                "addr:city:simc": 966079,
                "addr:street:sym_ul": 22965,
                "phone": "+48 297642127",
                "email": "sekretariat@zsz4.ostroleka.edu.pl",
                "website": "http:\/\/zsz4.ostroleka.edu.pl",
                "ref:regon": "146366297",
                "operator": "Miasto Ostro\u0142\u0119ka",
                "operator:type": "government",
                "amenity": "college",
                "note": "Parent RSPO: 18939"
            }
        },
        {
            "id": 48024,
            "type": "Feature",
            "geometry": {
                "type": "Point",
                "coordinates": [
                    21.57855,
                    53.08926
                ]
            },
            "properties": {
                "isced:level": "3",
                "ref:rspo": 48024,
                "official_name": "Bran\u017cowa Szko\u0142a I Stopnia nr 4",
                "name": "Bran\u017cowa Szko\u0142a I Stopnia nr 4",
                "addr:postcode": "07-410",
                "addr:city": "Ostro\u0142\u0119ka",
                "addr:street": "Romualda Traugutta",
                "addr:housenumber": "10",
                "addr:city:simc": 966079,
                "addr:street:sym_ul": 22965,
                "phone": "+48 297642127",
                "email": "sekretariat@zsz4.ostroleka.edu.pl",
                "website": "http:\/\/zsz4.ostroleka.edu.pl",
                "ref:regon": "551292600",
                "operator": "Miasto Ostro\u0142\u0119ka",
                "operator:type": "government",
                "amenity": "school",
                "note": "Parent RSPO: 18939"
            }
        },
        {
            "id": 59930,
            "type": "Feature",
            "geometry": {
                "type": "Point",
                "coordinates": [
                    21.57855,
                    53.08923
                ]
            },
            "properties": {
                "isced:level": "3",
                "ref:rspo": 59930,
                "official_name": "Technikum nr 4 w Ostro\u0142\u0119ce",
                "name": "Technikum nr 4 w Ostro\u0142\u0119ce",
                "addr:postcode": "07-410",
                "addr:city": "Ostro\u0142\u0119ka",
                "addr:street": "Romualda Traugutta",
                "addr:housenumber": "10",
                "addr:city:simc": 966079,
                "addr:street:sym_ul": 22965,
                "phone": "+48 297642127",
                "email": "sekretariat@zsz4.ostroleka.edu.pl",
                "website": "http:\/\/zsz4.ostroleka.edu.pl",
                "ref:regon": "551292697",
                "operator": "Miasto Ostro\u0142\u0119ka",
                "operator:type": "government",
                "amenity": "school",
                "note": "Parent RSPO: 18939"
            }
        },
        {
            "id": 119652,
            "type": "Feature",
            "geometry": {
                "type": "Point",
                "coordinates": [
                    21.57855,
                    53.0892
                ]
            },
            "properties": {
                "isced:level": "3",
                "ref:rspo": 119652,
                "official_name": "Iv Liceum Og\u00f3lnokszta\u0142c\u0105ce dla Doros\u0142ych",
                "name": "Iv Liceum Og\u00f3lnokszta\u0142c\u0105ce dla Doros\u0142ych",
                "addr:postcode": "07-410",
                "addr:city": "Ostro\u0142\u0119ka",
                "addr:street": "Romualda Traugutta",
                "addr:housenumber": "10",
                "addr:city:simc": 966079,
                "addr:street:sym_ul": 22965,
                "phone": "+48 297642127",
                "email": "sekretariat@zsz4.ostroleka.edu.pl",
                "ref:regon": "146856245",
                "operator": "Miasto Ostro\u0142\u0119ka",
                "operator:type": "government",
                "amenity": "school",
                "note": "Parent RSPO: 18939"
            }
        },
        {
            "id": 17155,
            "type": "Feature",
            "geometry": {
                "type": "Point",
                "coordinates": [
                    21.57717,
                    53.08947
                ]
            },
            "properties": {
                "ref:rspo": 17155,
                "official_name": "Specjalny O\u015brodek Szkolno-Wychowawczy im. Ks. Jana Twardowskiego",
                "name": "Specjalny O\u015brodek Szkolno-Wychowawczy",
                "addr:postcode": "07-410",
                "addr:city": "Ostro\u0142\u0119ka",
                "addr:street": "Romualda Traugutta",
                "addr:housenumber": "9",
                "addr:city:simc": 966079,
                "addr:street:sym_ul": 22965,
                "phone": "+48 297602237",
                "email": "soswostroleka@op.pl",
                "website": "http:\/\/sosw.ostroleka.pl",
                "ref:regon": "000192838",
                "ref:vatin": "PL7581535573",
                "operator": "Miasto Ostro\u0142\u0119ka",
                "operator:type": "government",
                "amenity": "school",
                "note": "Children RSPO: 40591;48455;48456;268589"
            }
        },
        {
            "id": 41052,
            "type": "Feature",
            "geometry": {
                "type": "Point",
                "coordinates": [
                    21.57717,
                    53.089439999999996
                ]
            },
            "properties": {
                "ref:rspo": 41052,
                "official_name": "Bursa Regionalna w Ostro\u0142\u0119ce",
                "name": "Bursa Regionalna w Ostro\u0142\u0119ce",
                "addr:postcode": "07-410",
                "addr:city": "Ostro\u0142\u0119ka",
                "addr:street": "Romualda Traugutta",
                "addr:housenumber": "9A",
                "addr:city:simc": 966079,
                "addr:street:sym_ul": 22965,
                "phone": "+48 297602801",
                "email": "sekretariat@bursa.ostroleka.pl",
                "website": "http:\/\/www.bursa.ostroleka.pl",
                "ref:regon": "142485020",
                "ref:vatin": "PL7582323270",
                "operator": "Wojew\u00f3dztwo Mazowieckie",
                "operator:type": "government",
                "building": "dormitory"
            }
        },
        {
            "id": 40591,
            "type": "Feature",
            "geometry": {
                "type": "Point",
                "coordinates": [
                    21.57717,
                    53.08941
                ]
            },
            "properties": {
                "ref:rspo": 40591,
                "official_name": "Szko\u0142a Specjalna Przysposabiaj\u0105ca do Pracy",
                "name": "Szko\u0142a Specjalna Przysposabiaj\u0105ca do Pracy",
                "addr:postcode": "07-410",
                "addr:city": "Ostro\u0142\u0119ka",
                "addr:street": "Romualda Traugutta",
                "addr:housenumber": "9",
                "addr:city:simc": 966079,
                "addr:street:sym_ul": 22965,
                "phone": "+48 297602237",
                "email": "soswostroleka@op.pl",
                "website": "http:\/\/sosw.ostroleka.pl",
                "ref:regon": "551334510",
                "operator": "Miasto Ostro\u0142\u0119ka",
                "operator:type": "government",
                "amenity": "school",
                "note": "Parent RSPO: 17155"
            }
        },
        {
            "id": 48455,
            "type": "Feature",
            "geometry": {
                "type": "Point",
                "coordinates": [
                    21.57717,
                    53.08938
                ]
            },
            "properties": {
                "isced:level": "1;2",
                "ref:rspo": 48455,
                "official_name": "Szko\u0142a Podstawowa Specjalna",
                "name": "Szko\u0142a Podstawowa Specjalna",
                "addr:postcode": "07-410",
                "addr:city": "Ostro\u0142\u0119ka",
                "addr:street": "Romualda Traugutta",
                "addr:housenumber": "9",
                "addr:city:simc": 966079,
                "addr:street:sym_ul": 22965,
                "phone": "+48 297602237",
                "email": "soswostroleka@op.pl",
                "website": "http:\/\/sosw.ostroleka.pl",
                "ref:regon": "000932152",
                "operator": "Miasto Ostro\u0142\u0119ka",
                "operator:type": "government",
                "amenity": "school",
                "note": "Parent RSPO: 17155"
            }
        },
        {
            "id": 48456,
            "type": "Feature",
            "geometry": {
                "type": "Point",
                "coordinates": [
                    21.57717,
                    53.089349999999996
                ]
            },
            "properties": {
                "isced:level": "3",
                "ref:rspo": 48456,
                "official_name": "Bran\u017cowa Szko\u0142a Specjalna I Stopnia",
                "name": "Bran\u017cowa Szko\u0142a Specjalna I Stopnia",
                "addr:postcode": "07-410",
                "addr:city": "Ostro\u0142\u0119ka",
                "addr:street": "Romualda Traugutta",
                "addr:housenumber": "9",
                "addr:city:simc": 966079,
                "addr:street:sym_ul": 22965,
                "phone": "+48 297602237",
                "email": "soswostroleka@op.pl",
                "website": "http:\/\/sosw.ostroleka.pl",
                "ref:regon": "000913054",
                "operator": "Miasto Ostro\u0142\u0119ka",
                "operator:type": "government",
                "amenity": "school",
                "note": "Parent RSPO: 17155"
            }
        },
        {
            "id": 268589,
            "type": "Feature",
            "geometry": {
                "type": "Point",
                "coordinates": [
                    21.57717,
                    53.08932
                ]
            },
            "properties": {
                "ref:rspo": 268589,
                "official_name": "Przedszkole Specjalne w Ostro\u0142\u0119ce",
                "name": "Przedszkole Specjalne w Ostro\u0142\u0119ce",
                "addr:postcode": "07-410",
                "addr:city": "Ostro\u0142\u0119ka",
                "addr:street": "Romualda Traugutta",
                "addr:housenumber": "9",
                "addr:city:simc": 966079,
                "addr:street:sym_ul": 22965,
                "phone": "+48 297602237",
                "email": "soswostroleka@op.pl",
                "website": "http:\/\/sosw.ostroleka.pl",
                "ref:regon": "381211380",
                "operator": "Miasto Ostro\u0142\u0119ka",
                "operator:type": "government",
                "amenity": "kindergarten",
                "note": "Parent RSPO: 17155"
            }
        },
        {
            "id": 129065,
            "type": "Feature",
            "geometry": {
                "type": "Point",
                "coordinates": [
                    21.60242,
                    53.09349
                ]
            },
            "properties": {
                "ref:rspo": 129065,
                "official_name": "Niepubliczna Specjalistyczna Poradnia Psychologiczno-Pedagogiczna w Ostro\u0142\u0119ce",
                "name": "Niepubliczna Specjalistyczna Poradnia Psychologiczno-Pedagogiczna w Ostro\u0142\u0119ce",
                "addr:postcode": "07-410",
                "addr:city": "Ostro\u0142\u0119ka",
                "addr:street": "Ko\u0142obrzeska",
                "addr:housenumber": "7",
                "addr:city:simc": 966079,
                "addr:street:sym_ul": 9009,
                "phone": "+48 502538464",
                "ref:regon": "362468412",
                "ref:vatin": "PL7582356306",
                "operator": "Fundacja \"Promyk\" Centrum Wspierania Rozwoju Dzieci, M\u0142odzie\u017cy I Doros\u0142ych",
                "operator:type": "ngo",
                "healthcare": "counselling",
                "counselling_type": "education",
                "fixme": "w zale\u017cno\u015bci od przedmiotu dzia\u0142alno\u015bci (np. healthcare=counselling + counselling_type=education albo healthcare=psychotherapist)"
            }
        },
        {
            "id": 27555,
            "type": "Feature",
            "geometry": {
                "type": "Point",
                "coordinates": [
                    21.61131,
                    53.09621
                ]
            },
            "properties": {
                "ref:rspo": 27555,
                "official_name": "Przedszkole Miejskie nr 5 z Oddzia\u0142ami Integracyjnymi \"Le\u015bna Kraina\" w Ostro\u0142\u0119ce",
                "name": "Przedszkole Miejskie nr 5 z Oddzia\u0142ami Integracyjnymi \"Le\u015bna Kraina\" w Ostro\u0142\u0119ce",
                "addr:postcode": "07-410",
                "addr:city": "Ostro\u0142\u0119ka",
                "addr:street": "Pi\u0119kna",
                "addr:housenumber": "12",
                "addr:city:simc": 966079,
                "addr:street:sym_ul": 16191,
                "phone": "+48 297664769",
                "email": "przedszkole.nr5.ostroleka@wp.pl",
                "website": "http:\/\/pm5.ostroleka.edu.pl",
                "ref:regon": "551263170",
                "ref:vatin": "PL7582074306",
                "operator": "Miasto Ostro\u0142\u0119ka",
                "operator:type": "government",
                "amenity": "kindergarten"
            }
        },
        {
            "id": 62601,
            "type": "Feature",
            "geometry": {
                "type": "Point",
                "coordinates": [
                    21.6214712,
                    53.0988294
                ]
            },
            "properties": {
                "isced:level": "1;2",
                "ref:rspo": 62601,
                "official_name": "Szko\u0142a Podstawowa nr 4 w Ostro\u0142\u0119ce",
                "name": "Szko\u0142a Podstawowa nr 4 w Ostro\u0142\u0119ce",
                "addr:postcode": "07-401",
                "addr:city": "Ostro\u0142\u0119ka",
                "addr:street": "Legionowa",
                "addr:housenumber": "17",
                "addr:city:simc": 966079,
                "addr:street:sym_ul": 10765,
                "phone": "+48 297691008",
                "email": "sekretariat@sp4.ostroleka.edu.pl",
                "website": "http:\/\/sp4.ostroleka.edu.pl",
                "ref:regon": "551255756",
                "operator": "Miasto Ostro\u0142\u0119ka",
                "operator:type": "government",
                "amenity": "school"
            }
        },
        {
            "id": 106238,
            "type": "Feature",
            "geometry": {
                "type": "Point",
                "coordinates": [
                    21.61976,
                    53.10026
                ]
            },
            "properties": {
                "isced:level": "1;2",
                "ref:rspo": 106238,
                "official_name": "Spo\u0142eczna Szko\u0142a Podstawowa Spo\u0142ecznego Towarzystwa O\u015bwiatowego",
                "name": "Spo\u0142eczna Szko\u0142a Podstawowa Spo\u0142ecznego Towarzystwa O\u015bwiatowego",
                "addr:postcode": "07-401",
                "addr:city": "Ostro\u0142\u0119ka",
                "addr:street": "Koszarowa",
                "addr:housenumber": "3",
                "addr:city:simc": 966079,
                "addr:street:sym_ul": 9512,
                "phone": "+48 297603960",
                "email": "biuro@zssto.ostroleka.pl",
                "website": "http:\/\/zssto.ostroleka.pl",
                "ref:regon": "146473343",
                "ref:vatin": "PL7581045432",
                "operator": "Samodzielne Ko\u0142o Terenowe Nr 116 Spo\u0142ecznego Towarzystwa O\u015bwiatowego W Ostro\u0142\u0119ce",
                "operator:type": "ngo",
                "amenity": "school"
            }
        },
        {
            "id": 38846,
            "type": "Feature",
            "geometry": {
                "type": "Point",
                "coordinates": [
                    21.6218,
                    53.10119
                ]
            },
            "properties": {
                "ref:rspo": 38846,
                "official_name": "Zesp\u00f3\u0142 Szk\u00f3\u0142 Zawodowych nr 2 im. 5. Pu\u0142ku U\u0142an\u00f3w Zas\u0142awskich w Ostro\u0142\u0119ce",
                "name": "Zesp\u00f3\u0142 Szk\u00f3\u0142 Zawodowych nr 2",
                "addr:postcode": "07-401",
                "addr:city": "Ostro\u0142\u0119ka",
                "addr:street": "Czwartak\u00f3w",
                "addr:housenumber": "4",
                "addr:city:simc": 966079,
                "addr:street:sym_ul": 3496,
                "phone": "+48 297691045",
                "email": "sekretariat@zsz2.ostroleka.edu.pl",
                "website": "http:\/\/zsz2.ostroleka.edu.pl",
                "ref:regon": "000192347",
                "ref:vatin": "PL7581676581",
                "operator": "Miasto Ostro\u0142\u0119ka",
                "operator:type": "government",
                "landuse": "education",
                "fixme": "amenity=school, amenity=college albo landuse=education w zale\u017cno\u015bci od tego, jakie plac\u00f3wki wchodz\u0105 w sk\u0142ad zespo\u0142u. Sprawd\u017a, kiedy stosowa\u0107 amenity=* a kiedy landuse=education.",
                "note": "Children RSPO: 52733;53496;53992;55274;58592;119643;122862"
            }
        },
        {
            "id": 52733,
            "type": "Feature",
            "geometry": {
                "type": "Point",
                "coordinates": [
                    21.6218,
                    53.10116
                ]
            },
            "properties": {
                "isced:level": "3",
                "ref:rspo": 52733,
                "official_name": "Iv Liceum Og\u00f3lnokszta\u0142c\u0105ce w Ostro\u0142\u0119ce",
                "name": "Iv Liceum Og\u00f3lnokszta\u0142c\u0105ce w Ostro\u0142\u0119ce",
                "addr:postcode": "07-401",
                "addr:city": "Ostro\u0142\u0119ka",
                "addr:street": "Czwartak\u00f3w",
                "addr:housenumber": "4",
                "addr:city:simc": 966079,
                "addr:street:sym_ul": 3496,
                "phone": "+48 297691045",
                "email": "sekretariat@zsz2.ostroleka.edu.pl",
                "ref:regon": "551265750",
                "operator": "Miasto Ostro\u0142\u0119ka",
                "operator:type": "government",
                "amenity": "school",
                "note": "Parent RSPO: 38846"
            }
        },
        {
            "id": 53496,
            "type": "Feature",
            "geometry": {
                "type": "Point",
                "coordinates": [
                    21.6218,
                    53.101130000000005
                ]
            },
            "properties": {
                "ref:rspo": 53496,
                "official_name": "Centrum Kszta\u0142cenia Zawodowego",
                "name": "Centrum Kszta\u0142cenia Zawodowego",
                "addr:postcode": "07-401",
                "addr:city": "Ostro\u0142\u0119ka",
                "addr:street": "Czwartak\u00f3w",
                "addr:housenumber": "4",
                "addr:city:simc": 966079,
                "addr:street:sym_ul": 3496,
                "phone": "+48 297691045",
                "email": "sekretariat@zsz2.ostroleka.edu.pl",
                "ref:regon": "551257577",
                "operator": "Miasto Ostro\u0142\u0119ka",
                "operator:type": "government",
                "fixme": "w zale\u017cno\u015bci od przedmiotu dzia\u0142alno\u015bci (np. amenity=training + training=*, amenity=dancing_school, amenity=language_school, amenity=music_school) albo amenity=school, amenity=college, albo landuse=education w zale\u017cno\u015bci od tego, jakie plac\u00f3wki wchodz\u0105 w sk\u0142ad zespo\u0142u. Sprawd\u017a, kiedy stosowa\u0107 amenity=* a kiedy landuse=education.",
                "note": "Parent RSPO: 38846"
            }
        },
        {
            "id": 53992,
            "type": "Feature",
            "geometry": {
                "type": "Point",
                "coordinates": [
                    21.6218,
                    53.1011
                ]
            },
            "properties": {
                "isced:level": "3",
                "ref:rspo": 53992,
                "official_name": "Bran\u017cowa Szko\u0142a I Stopnia nr 2 w Ostro\u0142\u0119ce",
                "name": "Bran\u017cowa Szko\u0142a I Stopnia nr 2 w Ostro\u0142\u0119ce",
                "addr:postcode": "07-401",
                "addr:city": "Ostro\u0142\u0119ka",
                "addr:street": "Czwartak\u00f3w",
                "addr:housenumber": "4",
                "addr:city:simc": 966079,
                "addr:street:sym_ul": 3496,
                "phone": "+48 297691045",
                "email": "sekretariat@zsz2.ostroleka.edu.pl",
                "ref:regon": "551255242",
                "operator": "Miasto Ostro\u0142\u0119ka",
                "operator:type": "government",
                "amenity": "school",
                "note": "Parent RSPO: 38846"
            }
        },
        {
            "id": 55274,
            "type": "Feature",
            "geometry": {
                "type": "Point",
                "coordinates": [
                    21.6218,
                    53.10107
                ]
            },
            "properties": {
                "isced:level": "4",
                "ref:rspo": 55274,
                "official_name": "Szko\u0142a Policealna nr 2 w Ostro\u0142\u0119ce",
                "name": "Szko\u0142a Policealna nr 2 w Ostro\u0142\u0119ce",
                "addr:postcode": "07-401",
                "addr:city": "Ostro\u0142\u0119ka",
                "addr:street": "Czwartak\u00f3w",
                "addr:housenumber": "4",
                "addr:city:simc": 966079,
                "addr:street:sym_ul": 3496,
                "phone": "+48 297691045",
                "email": "sekretariat@zsz2.ostroleka.edu.pl",
                "ref:regon": "140240891",
                "operator": "Miasto Ostro\u0142\u0119ka",
                "operator:type": "government",
                "amenity": "college",
                "note": "Parent RSPO: 38846"
            }
        },
        {
            "id": 58592,
            "type": "Feature",
            "geometry": {
                "type": "Point",
                "coordinates": [
                    21.6218,
                    53.101040000000005
                ]
            },
            "properties": {
                "isced:level": "3",
                "ref:rspo": 58592,
                "official_name": "Technikum nr 2 w Ostro\u0142\u0119ce",
                "name": "Technikum nr 2 w Ostro\u0142\u0119ce",
                "addr:postcode": "07-401",
                "addr:city": "Ostro\u0142\u0119ka",
                "addr:street": "Czwartak\u00f3w",
                "addr:housenumber": "4",
                "addr:city:simc": 966079,
                "addr:street:sym_ul": 3496,
                "phone": "+48 297691045",
                "email": "sekretariat@zsz2.ostroleka.edu.pl",
                "ref:regon": "140081406",
                "operator": "Miasto Ostro\u0142\u0119ka",
                "operator:type": "government",
                "amenity": "school",
                "note": "Parent RSPO: 38846"
            }
        },
        {
            "id": 119643,
            "type": "Feature",
            "geometry": {
                "type": "Point",
                "coordinates": [
                    21.6218,
                    53.10101
                ]
            },
            "properties": {
                "isced:level": "3",
                "ref:rspo": 119643,
                "official_name": "Ii Liceum Og\u00f3lnokszta\u0142c\u0105ce dla Doros\u0142ych",
                "name": "Ii Liceum Og\u00f3lnokszta\u0142c\u0105ce dla Doros\u0142ych",
                "addr:postcode": "07-401",
                "addr:city": "Ostro\u0142\u0119ka",
                "addr:street": "Czwartak\u00f3w",
                "addr:housenumber": "4",
                "addr:city:simc": 966079,
                "addr:street:sym_ul": 3496,
                "phone": "+48 297691045",
                "email": "sekretariat@zsz2.ostroleka.edu.pl",
                "ref:regon": "146856015",
                "operator": "Miasto Ostro\u0142\u0119ka",
                "operator:type": "government",
                "amenity": "school",
                "note": "Parent RSPO: 38846"
            }
        },
        {
            "id": 122862,
            "type": "Feature",
            "geometry": {
                "type": "Point",
                "coordinates": [
                    21.6218,
                    53.10098
                ]
            },
            "properties": {
                "isced:level": "3",
                "ref:rspo": 122862,
                "official_name": "Vi Liceum Og\u00f3lnokszta\u0142c\u0105ce Mistrzostwa Sportowego w Ostro\u0142\u0119ce",
                "name": "Vi Liceum Og\u00f3lnokszta\u0142c\u0105ce Mistrzostwa Sportowego w Ostro\u0142\u0119ce",
                "addr:postcode": "07-401",
                "addr:city": "Ostro\u0142\u0119ka",
                "addr:street": "Czwartak\u00f3w",
                "addr:housenumber": "4",
                "addr:city:simc": 966079,
                "addr:street:sym_ul": 3496,
                "phone": "+48 297691045",
                "email": "sekretariat@zsz2.ostroleka.edu.pl",
                "ref:regon": "147202735",
                "operator": "Miasto Ostro\u0142\u0119ka",
                "operator:type": "government",
                "amenity": "school",
                "note": "Parent RSPO: 38846"
            }
        },
        {
            "id": 48044,
            "type": "Feature",
            "geometry": {
                "type": "Point",
                "coordinates": [
                    21.62,
                    53.10161
                ]
            },
            "properties": {
                "isced:level": "3",
                "ref:rspo": 48044,
                "official_name": "Liceum Og\u00f3lnokszta\u0142c\u0105ce dla Doros\u0142ych Stowarzyszenia Inicjatyw Gospodarczych I Edukacyjnych im. Karola Adamieckiego Oddzia\u0142 w Ostro\u0142\u0119ce",
                "name": "Liceum Og\u00f3lnokszta\u0142c\u0105ce dla Doros\u0142ych Stowarzyszenia Inicjatyw Gospodarczych I Edukacyjnych",
                "addr:postcode": "07-401",
                "addr:city": "Ostro\u0142\u0119ka",
                "addr:street": "Aleja Wojska Polskiego",
                "addr:housenumber": "44",
                "addr:city:simc": 966079,
                "addr:street:sym_ul": 33764,
                "phone": "+48 297691526",
                "email": "siegeoka@interia.pl",
                "ref:regon": "146413281",
                "ref:vatin": "PL7582066991",
                "operator": "Stowarzyszenie Inicjatyw Gospodarczych I Edukacyjnych Im. Karola Adamieckiego Oddzia\u0142 W Ostro\u0142\u0119ce",
                "operator:type": "ngo",
                "amenity": "school"
            }
        },
        {
            "id": 48086,
            "type": "Feature",
            "geometry": {
                "type": "Point",
                "coordinates": [
                    21.62,
                    53.10158
                ]
            },
            "properties": {
                "isced:level": "3",
                "ref:rspo": 48086,
                "official_name": "Spo\u0142eczna Szko\u0142a Zawodowa Sigie im. Karola Adamieckiego w Ostro\u0142\u0119ce",
                "name": "Spo\u0142eczna Szko\u0142a Zawodowa Sigie",
                "addr:postcode": "07-401",
                "addr:city": "Ostro\u0142\u0119ka",
                "addr:street": "I Armii Wojska Polskiego",
                "addr:housenumber": "44",
                "addr:city:simc": 966079,
                "addr:street:sym_ul": 441,
                "phone": "+48 297691526",
                "email": "tesigie@interia.pl",
                "ref:regon": "146416010",
                "ref:vatin": "PL7582066991",
                "operator": "Dane Do Uzupe\u0142nienia",
                "operator:type": "private",
                "amenity": "school"
            }
        },
        {
            "id": 48109,
            "type": "Feature",
            "geometry": {
                "type": "Point",
                "coordinates": [
                    21.62,
                    53.10155
                ]
            },
            "properties": {
                "isced:level": "4",
                "ref:rspo": 48109,
                "official_name": "Policealna Szko\u0142a Edukacji Spo\u0142ecznej Sigie im. Karola Adamieckiego w Ostro\u0142\u0119ce",
                "name": "Policealna Szko\u0142a Edukacji Spo\u0142ecznej Sigie",
                "addr:postcode": "07-401",
                "addr:city": "Ostro\u0142\u0119ka",
                "addr:street": "I Armii Wojska Polskiego",
                "addr:housenumber": "44",
                "addr:city:simc": 966079,
                "addr:street:sym_ul": 441,
                "phone": "+48 297691526",
                "email": "pssigie@interia.pl",
                "ref:regon": "146403851",
                "ref:vatin": "PL7582066991",
                "operator": "Dane Do Uzupe\u0142nienia",
                "operator:type": "private",
                "amenity": "college"
            }
        },
        {
            "id": 60822,
            "type": "Feature",
            "geometry": {
                "type": "Point",
                "coordinates": [
                    21.62,
                    53.10152
                ]
            },
            "properties": {
                "ref:rspo": 60822,
                "official_name": "Mazowiecki Instytut Doskonalenia Kadr im. Karola Adamieckiego w Ostro\u0142\u0119ce",
                "name": "Mazowiecki Instytut Doskonalenia Kadr",
                "addr:postcode": "07-401",
                "addr:city": "Ostro\u0142\u0119ka",
                "addr:street": "I Armii Wojska Polskiego",
                "addr:housenumber": "44",
                "addr:city:simc": 966079,
                "addr:street:sym_ul": 441,
                "phone": "+48 297691526",
                "email": "odksigie@interia.pl",
                "ref:regon": "146416032",
                "ref:vatin": "PL7582066991",
                "operator": "Dane Do Uzupe\u0142nienia",
                "operator:type": "private",
                "fixme": "w zale\u017cno\u015bci od przedmiotu dzia\u0142alno\u015bci (np. amenity=training + training=*, amenity=dancing_school, amenity=language_school, amenity=music_school)"
            }
        },
        {
            "id": 268909,
            "type": "Feature",
            "geometry": {
                "type": "Point",
                "coordinates": [
                    21.62,
                    53.10149
                ]
            },
            "properties": {
                "isced:level": "1;2",
                "ref:rspo": 268909,
                "official_name": "Spo\u0142eczna Szko\u0142a Podstawowa Sigie im. Karola Adamieckiego dla Doros\u0142ych w Ostro\u0142\u0119ce",
                "name": "Spo\u0142eczna Szko\u0142a Podstawowa Sigie",
                "addr:postcode": "07-401",
                "addr:city": "Ostro\u0142\u0119ka",
                "addr:street": "Aleja Wojska Polskiego",
                "addr:housenumber": "44",
                "addr:city:simc": 966079,
                "addr:street:sym_ul": 33764,
                "phone": "+48 297691526",
                "email": "sigieoka@interia.pl",
                "ref:regon": "381283729",
                "operator": "Stowarzyszenie Inicjatyw Gospodarczych I Edukacyjnych Im. Karola Adamieckiego Oddzia\u0142 W Ostro\u0142\u0119ce",
                "operator:type": "ngo",
                "amenity": "school"
            }
        },
        {
            "id": 273242,
            "type": "Feature",
            "geometry": {
                "type": "Point",
                "coordinates": [
                    21.62,
                    53.10146
                ]
            },
            "properties": {
                "ref:rspo": 273242,
                "official_name": "Akademicka Poradnia Psychologiczno-Pedagogiczna w Ostro\u0142\u0119ce",
                "name": "Akademicka Poradnia Psychologiczno-Pedagogiczna w Ostro\u0142\u0119ce",
                "addr:postcode": "07-410",
                "addr:city": "Ostro\u0142\u0119ka",
                "addr:street": "Aleja Wojska Polskiego",
                "addr:housenumber": "44",
                "addr:city:simc": 966079,
                "addr:street:sym_ul": 33764,
                "phone": "+48 297691526",
                "email": "sekretariatappp@gmail.com",
                "ref:regon": "384415462",
                "operator": "Fundacja O\u015bwiatowa Im. Profesora W\u0142adys\u0142awa Kobyli\u0144skiego",
                "operator:type": "ngo",
                "healthcare": "counselling",
                "counselling_type": "education",
                "fixme": "w zale\u017cno\u015bci od przedmiotu dzia\u0142alno\u015bci (np. healthcare=counselling + counselling_type=education albo healthcare=psychotherapist)"
            }
        }
    ]
}