{
    "type": "FeatureCollection",
    "features": [
        {
            "id": 53236,
            "type": "Feature",
            "geometry": {
                "type": "Point",
                "coordinates": [
                    18.62716,
                    52.18775
                ]
            },
            "properties": {
                "isced:level": "1;2",
                "ref:rspo": 53236,
                "official_name": "Szko\u0142a Podstawowa Nr 2 im. Adama Mickiewicza w Kole Z Oddzia\u0142ami Przedszkolnymi I Sportowymi",
                "name": "Szko\u0142a Podstawowa Nr 2",
                "addr:postcode": "62-600",
                "addr:city": "Ko\u0142o",
                "addr:street": "J\u00f3zefa Poniatowskiego",
                "addr:housenumber": "22",
                "addr:city:simc": 949052,
                "addr:street:sym_ul": 17107,
                "phone": "+48 632720398",
                "email": "sp2kolo@wp.pl",
                "website": "http:\/\/sp2kolo.szkolnastrona.pl\/",
                "ref:regon": "000710291",
                "ref:vatin": "PL6661922432",
                "operator": "Gmina Miejska Ko\u0142o",
                "operator:type": "government",
                "amenity": "school"
            }
        },
        {
            "id": 268325,
            "type": "Feature",
            "geometry": {
                "type": "Point",
                "coordinates": [
                    18.62716,
                    52.18772
                ]
            },
            "properties": {
                "isced:level": "4",
                "ref:rspo": 268325,
                "official_name": "Akademicka Szko\u0142a Policealna",
                "name": "Akademicka Szko\u0142a Policealna",
                "addr:postcode": "62-600",
                "addr:city": "Ko\u0142o",
                "addr:street": "J\u00f3zefa Poniatowskiego",
                "addr:housenumber": "22",
                "addr:city:simc": 949052,
                "addr:street:sym_ul": 17107,
                "phone": "+48 734413417",
                "email": "a.szczerkowska@ksw.wloclawek.pl",
                "ref:regon": "381093503",
                "operator": "Kujawska Szko\u0142a Wy\u017csza  We W\u0142oc\u0142awku",
                "operator:type": "private",
                "amenity": "college"
            }
        },
        {
            "id": 131940,
            "type": "Feature",
            "geometry": {
                "type": "Point",
                "coordinates": [
                    18.62694,
                    52.19589
                ]
            },
            "properties": {
                "isced:level": "1;2",
                "ref:rspo": 131940,
                "official_name": "Szko\u0142a Podstawowa Sokrates",
                "name": "Szko\u0142a Podstawowa Sokrates",
                "addr:postcode": "62-600",
                "addr:city": "Ko\u0142o",
                "addr:street": "Ogrodowa",
                "addr:housenumber": "10",
                "addr:city:simc": 949052,
                "addr:street:sym_ul": 14834,
                "phone": "+48 570335554",
                "email": "sekretariat@esokrates.com",
                "ref:regon": "365386531",
                "operator": "Julian Ba\u0142dyka",
                "operator:type": "private",
                "amenity": "school"
            }
        },
        {
            "id": 278270,
            "type": "Feature",
            "geometry": {
                "type": "Point",
                "coordinates": [
                    18.62694,
                    52.195859999999996
                ]
            },
            "properties": {
                "isced:level": "3",
                "ref:rspo": 278270,
                "official_name": "Liceum Sokrates",
                "name": "Liceum Sokrates",
                "addr:postcode": "62-600",
                "addr:city": "Ko\u0142o",
                "addr:street": "Ogrodowa",
                "addr:housenumber": "10",
                "addr:city:simc": 949052,
                "addr:street:sym_ul": 14834,
                "email": "sekretariat@esokrates.com",
                "ref:regon": "389857130",
                "operator": "Katarzyna Bili\u0144ska",
                "operator:type": "private",
                "amenity": "school"
            }
        },
        {
            "id": 56714,
            "type": "Feature",
            "geometry": {
                "type": "Point",
                "coordinates": [
                    18.63497,
                    52.19651
                ]
            },
            "properties": {
                "ref:rspo": 56714,
                "official_name": "Zesp\u00f3\u0142 Szk\u00f3\u0142 Ekonomiczno - Administracyjnych im. Stanis\u0142awa I W\u0142adys\u0142awa Grabskich w Kole",
                "name": "Zesp\u00f3\u0142 Szk\u00f3\u0142 Ekonomiczno - Administracyjnych",
                "addr:postcode": "62-600",
                "addr:city": "Ko\u0142o",
                "addr:street": "Henryka Sienkiewicza",
                "addr:housenumber": "1",
                "addr:city:simc": 949052,
                "addr:street:sym_ul": 19834,
                "phone": "+48 632720715",
                "email": "sekretariat@ekonomikkolo.pl",
                "website": "http:\/\/www.ekonomikkolo.pl",
                "ref:regon": "000182509",
                "ref:vatin": "PL6661278652",
                "operator": "Powiat Kolski",
                "operator:type": "government",
                "landuse": "education",
                "fixme": "amenity=school, amenity=college albo landuse=education w zale\u017cno\u015bci od tego, jakie plac\u00f3wki wchodz\u0105 w sk\u0142ad zespo\u0142u. Sprawd\u017a, kiedy stosowa\u0107 amenity=* a kiedy landuse=education.",
                "note": "Children RSPO: 83388;107231;119549"
            }
        },
        {
            "id": 83388,
            "type": "Feature",
            "geometry": {
                "type": "Point",
                "coordinates": [
                    18.63497,
                    52.19648
                ]
            },
            "properties": {
                "isced:level": "3",
                "ref:rspo": 83388,
                "official_name": "Liceum Og\u00f3lnokszta\u0142c\u0105ce Przy Zse-A w Kole",
                "name": "Liceum Og\u00f3lnokszta\u0142c\u0105ce Przy Zse-A w Kole",
                "addr:postcode": "62-600",
                "addr:city": "Ko\u0142o",
                "addr:street": "Henryka Sienkiewicza",
                "addr:housenumber": "1",
                "addr:city:simc": 949052,
                "addr:street:sym_ul": 19834,
                "phone": "+48 632720715",
                "email": "sekretariat@ekonomikkolo.pl",
                "website": "http:\/\/www.ekonomikkolo.pl",
                "ref:regon": "300121289",
                "ref:vatin": "PL6661278652",
                "operator": "Powiat Kolski",
                "operator:type": "government",
                "amenity": "school",
                "note": "Parent RSPO: 56714"
            }
        },
        {
            "id": 107231,
            "type": "Feature",
            "geometry": {
                "type": "Point",
                "coordinates": [
                    18.63497,
                    52.196450000000006
                ]
            },
            "properties": {
                "isced:level": "3",
                "ref:rspo": 107231,
                "official_name": "Technikum Przy Zsea w Kole",
                "name": "Technikum Przy Zsea w Kole",
                "addr:postcode": "62-600",
                "addr:city": "Ko\u0142o",
                "addr:street": "Henryka Sienkiewicza",
                "addr:housenumber": "1",
                "addr:city:simc": 949052,
                "addr:street:sym_ul": 19834,
                "phone": "+48 632720715",
                "email": "sekretariat@ekonomikkolo.pl",
                "website": "http:\/\/www.ekonomikkolo.pl",
                "ref:regon": "311594674",
                "ref:vatin": "PL6661278652",
                "operator": "Powiat Kolski",
                "operator:type": "government",
                "amenity": "school",
                "note": "Parent RSPO: 56714"
            }
        },
        {
            "id": 119549,
            "type": "Feature",
            "geometry": {
                "type": "Point",
                "coordinates": [
                    18.63497,
                    52.19642
                ]
            },
            "properties": {
                "isced:level": "3",
                "ref:rspo": 119549,
                "official_name": "Liceum Og\u00f3lnokszta\u0142c\u0105ce dla Doros\u0142ych",
                "name": "Liceum Og\u00f3lnokszta\u0142c\u0105ce dla Doros\u0142ych",
                "addr:postcode": "62-600",
                "addr:city": "Ko\u0142o",
                "addr:street": "Henryka Sienkiewicza",
                "addr:housenumber": "1",
                "addr:city:simc": 949052,
                "addr:street:sym_ul": 19834,
                "phone": "+48 632720715",
                "ref:regon": "302518973",
                "ref:vatin": "PL6661278652",
                "operator": "Powiat Kolski",
                "operator:type": "government",
                "amenity": "school",
                "note": "Parent RSPO: 56714"
            }
        },
        {
            "id": 38909,
            "type": "Feature",
            "geometry": {
                "type": "Point",
                "coordinates": [
                    18.64268,
                    52.1990399
                ]
            },
            "properties": {
                "isced:level": "1;2",
                "ref:rspo": 38909,
                "official_name": "Szko\u0142a Podstawowa Nr 1 im. Stanis\u0142awa Konarskiego w Kole",
                "name": "Szko\u0142a Podstawowa Nr 1",
                "addr:postcode": "62-600",
                "addr:city": "Ko\u0142o",
                "addr:street": "Szkolna",
                "addr:housenumber": "2A",
                "addr:city:simc": 949052,
                "addr:street:sym_ul": 21970,
                "phone": "+48 632720514",
                "email": "sp1kolo@interia.pl",
                "website": "http:\/\/www.sp1kolo.szkolnastrona.pl\/",
                "ref:regon": "000242789",
                "ref:vatin": "PL6661069279",
                "operator": "Gmina Miejska Ko\u0142o",
                "operator:type": "government",
                "amenity": "school"
            }
        },
        {
            "id": 30196,
            "type": "Feature",
            "geometry": {
                "type": "Point",
                "coordinates": [
                    18.6376199,
                    52.19946
                ]
            },
            "properties": {
                "ref:rspo": 30196,
                "official_name": "Pa\u0144stwowa Szko\u0142a Muzyczna I St. im. Karola Szymanowskiego w Kole",
                "name": "Pa\u0144stwowa Szko\u0142a Muzyczna I St.",
                "addr:postcode": "62-600",
                "addr:city": "Ko\u0142o",
                "addr:street": "Henryka Sienkiewicza",
                "addr:housenumber": "11",
                "addr:city:simc": 949052,
                "addr:street:sym_ul": 19834,
                "phone": "+48 632722265",
                "email": "sekretariat.psmkolo@gmail.com",
                "website": "http:\/\/psmkolo.pl",
                "ref:regon": "000285706",
                "operator": "Ministerstwo Kultury I Dziedzictwa Narodowego",
                "operator:type": "public",
                "amenity": "music_school"
            }
        },
        {
            "id": 42299,
            "type": "Feature",
            "geometry": {
                "type": "Point",
                "coordinates": [
                    18.63741,
                    52.20088
                ]
            },
            "properties": {
                "ref:rspo": 42299,
                "official_name": "Przedszkole Miejskie Nr 3 w Kole",
                "name": "Przedszkole Miejskie Nr 3 w Kole",
                "addr:postcode": "62-600",
                "addr:city": "Ko\u0142o",
                "addr:street": "Piotra Wojciechowskiego",
                "addr:housenumber": "9",
                "addr:city:simc": 949052,
                "addr:street:sym_ul": 24588,
                "phone": "+48 632720437",
                "email": "dyrektor@pm3kolo.edu.pl",
                "website": "http:\/\/pm3kolo.edu.pl\/",
                "ref:regon": "311103995",
                "ref:vatin": "PL6661795407",
                "operator": "Gmina Miejska Ko\u0142o",
                "operator:type": "government",
                "amenity": "kindergarten"
            }
        },
        {
            "id": 128874,
            "type": "Feature",
            "geometry": {
                "type": "Point",
                "coordinates": [
                    18.64107,
                    52.20119
                ]
            },
            "properties": {
                "ref:rspo": 128874,
                "official_name": "Centrum Doskonalenia Nauczycieli Publiczna Biblioteka Pedagogiczna w Koninie Filia w Kole",
                "name": "Centrum Doskonalenia Nauczycieli Publiczna Biblioteka Pedagogiczna w Koninie Filia w Kole",
                "addr:postcode": "62-600",
                "addr:city": "Ko\u0142o",
                "addr:street": "W\u0142oc\u0142awska",
                "addr:housenumber": "1",
                "addr:city:simc": 949052,
                "addr:street:sym_ul": 24504,
                "phone": "+48 632721261",
                "email": "kolo@cdnkonin.pl",
                "ref:regon": "311111776",
                "operator": "Wojew\u00f3dztwo Wielkopolskie",
                "operator:type": "government",
                "amenity": "library",
                "note": "Parent RSPO: 30934"
            }
        },
        {
            "id": 132199,
            "type": "Feature",
            "geometry": {
                "type": "Point",
                "coordinates": [
                    18.63,
                    52.20145
                ]
            },
            "properties": {
                "ref:rspo": 132199,
                "official_name": "Niepubliczne Przedszkole \"Reksio\" Alicja Michalak",
                "name": "Niepubliczne Przedszkole \"Reksio\" Alicja Michalak",
                "addr:postcode": "62-600",
                "addr:city": "Ko\u0142o",
                "addr:street": "Toru\u0144ska",
                "addr:housenumber": "65",
                "addr:city:simc": 949052,
                "addr:street:sym_ul": 22902,
                "phone": "+48 886686300",
                "email": "a.michalak@reksio.com.pl",
                "ref:regon": "365499146",
                "ref:vatin": "PL6661763703",
                "operator": "Alicja Michalak",
                "operator:type": "private",
                "amenity": "kindergarten"
            }
        },
        {
            "id": 265990,
            "type": "Feature",
            "geometry": {
                "type": "Point",
                "coordinates": [
                    18.63,
                    52.20142
                ]
            },
            "properties": {
                "ref:rspo": 265990,
                "official_name": "Niepubliczne Przedszkole \"Promyczek\" Gra\u017cyna Michalak",
                "name": "Niepubliczne Przedszkole \"Promyczek\" Gra\u017cyna Michalak",
                "addr:postcode": "62-600",
                "addr:city": "Ko\u0142o",
                "addr:street": "Toru\u0144ska",
                "addr:housenumber": "65",
                "addr:city:simc": 949052,
                "addr:street:sym_ul": 22902,
                "phone": "+48 665289085",
                "email": "przedszolepromyczekkolo@gmail.com",
                "ref:regon": "369129021",
                "operator": "Gra\u017cyna Michalak",
                "operator:type": "private",
                "amenity": "kindergarten"
            }
        },
        {
            "id": 40171,
            "type": "Feature",
            "geometry": {
                "type": "Point",
                "coordinates": [
                    18.63108,
                    52.20171
                ]
            },
            "properties": {
                "isced:level": "1;2",
                "ref:rspo": 40171,
                "official_name": "Szko\u0142a Podstawowa Nr 3 im. Marii Konopnickiej Z Oddzia\u0142ami Integracyjnymi w Kole",
                "name": "Szko\u0142a Podstawowa Nr 3",
                "addr:postcode": "62-600",
                "addr:city": "Ko\u0142o",
                "addr:street": "Toru\u0144ska",
                "addr:housenumber": "68",
                "addr:city:simc": 949052,
                "addr:street:sym_ul": 22902,
                "phone": "+48 632720723",
                "email": "sptrojkakolo@gmail.com",
                "website": "http:\/\/www.sp3kolo.pl",
                "ref:regon": "000710300",
                "ref:vatin": "PL6661138537",
                "operator": "Gmina Miejska Ko\u0142o",
                "operator:type": "government",
                "amenity": "school"
            }
        },
        {
            "id": 86252,
            "type": "Feature",
            "geometry": {
                "type": "Point",
                "coordinates": [
                    18.63108,
                    52.201679999999996
                ]
            },
            "properties": {
                "isced:level": "3",
                "ref:rspo": 86252,
                "official_name": "Liceum Og\u00f3lnokszta\u0142c\u0105ce dla Doros\u0142ych Centrum Nauki Eureka w Kole",
                "name": "Liceum Og\u00f3lnokszta\u0142c\u0105ce dla Doros\u0142ych Centrum Nauki Eureka w Kole",
                "addr:postcode": "62-600",
                "addr:city": "Ko\u0142o",
                "addr:street": "Toru\u0144ska",
                "addr:housenumber": "68",
                "addr:city:simc": 949052,
                "addr:street:sym_ul": 22902,
                "phone": "+48 632720723",
                "email": "emc1@onet.eu",
                "ref:regon": "302274413",
                "ref:vatin": "PL6681792263",
                "operator": "El\u017cbieta Cytrowska",
                "operator:type": "private",
                "amenity": "school",
                "note": "Parent RSPO: 271492"
            }
        },
        {
            "id": 86283,
            "type": "Feature",
            "geometry": {
                "type": "Point",
                "coordinates": [
                    18.63108,
                    52.20165
                ]
            },
            "properties": {
                "isced:level": "4",
                "ref:rspo": 86283,
                "official_name": "Szko\u0142a Policealna dla Doros\u0142ych Centrum Nauki Eureka w Kole",
                "name": "Szko\u0142a Policealna dla Doros\u0142ych Centrum Nauki Eureka w Kole",
                "addr:postcode": "62-600",
                "addr:city": "Ko\u0142o",
                "addr:street": "Toru\u0144ska",
                "addr:housenumber": "68",
                "addr:city:simc": 949052,
                "addr:street:sym_ul": 22902,
                "phone": "+48 632720723",
                "email": "emc11@onet.eu",
                "ref:regon": "302274494",
                "ref:vatin": "PL6681792263",
                "operator": "El\u017cbieta Cytrowska",
                "operator:type": "private",
                "amenity": "college",
                "note": "Parent RSPO: 271492"
            }
        },
        {
            "id": 57673,
            "type": "Feature",
            "geometry": {
                "type": "Point",
                "coordinates": [
                    18.63524,
                    52.20211
                ]
            },
            "properties": {
                "ref:rspo": 57673,
                "official_name": "O\u015brodek Rehabilitacyjno-Edukacyjno-Wychowawczy w Kole",
                "name": "O\u015brodek Rehabilitacyjno-Edukacyjno-Wychowawczy w Kole",
                "addr:postcode": "62-600",
                "addr:city": "Ko\u0142o",
                "addr:street": "Piotra Wojciechowskiego",
                "addr:housenumber": "21A",
                "addr:city:simc": 949052,
                "addr:street:sym_ul": 24588,
                "phone": "+48 632720992",
                "email": "orew.kolo@psoni.org.pl",
                "website": "http:\/\/www.psoni-kolo.pl",
                "ref:regon": "302259804",
                "ref:vatin": "PL6661325044",
                "operator": "Polskie Stowarzyszenie Na Rzecz Os\u00f3b Z Niepe\u0142nosprawno\u015bci\u0105 Intelektualn\u0105 Ko\u0142o W Kole",
                "operator:type": "ngo",
                "amenity": "school"
            }
        },
        {
            "id": 42425,
            "type": "Feature",
            "geometry": {
                "type": "Point",
                "coordinates": [
                    18.63674,
                    52.2025099
                ]
            },
            "properties": {
                "ref:rspo": 42425,
                "official_name": "Przedszkole Miejskie Nr 5 w Kole",
                "name": "Przedszkole Miejskie Nr 5 w Kole",
                "addr:postcode": "62-600",
                "addr:city": "Ko\u0142o",
                "addr:street": "Piotra Wojciechowskiego",
                "addr:housenumber": "22",
                "addr:city:simc": 949052,
                "addr:street:sym_ul": 24588,
                "phone": "+48 632720350",
                "email": "pm5uszatek@gmail.com",
                "website": "http:\/\/www.pm5kolo.pl\/",
                "ref:regon": "311104003",
                "ref:vatin": "PL6661795436",
                "operator": "Gmina Miejska Ko\u0142o",
                "operator:type": "government",
                "amenity": "kindergarten"
            }
        },
        {
            "id": 122874,
            "type": "Feature",
            "geometry": {
                "type": "Point",
                "coordinates": [
                    18.63738,
                    52.20418
                ]
            },
            "properties": {
                "ref:rspo": 122874,
                "official_name": "Niepubliczne Przedszkole \"K\u00f3\u0142ko Graniaste\" Marlena Rusztyk",
                "name": "Niepubliczne Przedszkole \"K\u00f3\u0142ko Graniaste\" Marlena Rusztyk",
                "addr:postcode": "62-600",
                "addr:city": "Ko\u0142o",
                "addr:street": "Sp\u00f3\u0142dzielc\u00f3w",
                "addr:housenumber": "6",
                "addr:city:simc": 949052,
                "addr:street:sym_ul": 20695,
                "phone": "+48 667290363",
                "email": "marlena.rusztyk@gmail.com",
                "ref:regon": "302704925",
                "ref:vatin": "PL6652472165",
                "operator": "Marlena Rusztyk",
                "operator:type": "private",
                "amenity": "kindergarten"
            }
        },
        {
            "id": 55334,
            "type": "Feature",
            "geometry": {
                "type": "Point",
                "coordinates": [
                    18.63467,
                    52.20435
                ]
            },
            "properties": {
                "isced:level": "3",
                "ref:rspo": 55334,
                "official_name": "Liceum Og\u00f3lnokszta\u0142c\u0105ce im. Kazimierza Wielkiego w Kole",
                "name": "Liceum Og\u00f3lnokszta\u0142c\u0105ce",
                "addr:postcode": "62-600",
                "addr:city": "Ko\u0142o",
                "addr:street": "Blizna",
                "addr:housenumber": "37",
                "addr:city:simc": 949052,
                "addr:street:sym_ul": 1417,
                "phone": "+48 632721622",
                "email": "sekretariat@lowkole.pl",
                "website": "http:\/\/www.lowkole.pl",
                "ref:regon": "311594527",
                "ref:vatin": "PL6661069256",
                "operator": "Powiat Kolski",
                "operator:type": "government",
                "amenity": "school"
            }
        },
        {
            "id": 39736,
            "type": "Feature",
            "geometry": {
                "type": "Point",
                "coordinates": [
                    18.64619,
                    52.20556
                ]
            },
            "properties": {
                "ref:rspo": 39736,
                "official_name": "Prywatne \"T\u0119czowe\" Przedszkole",
                "name": "Prywatne \"T\u0119czowe\" Przedszkole",
                "addr:postcode": "62-600",
                "addr:city": "Ko\u0142o",
                "addr:street": "Nag\u00f3rna",
                "addr:housenumber": "37",
                "addr:city:simc": 949052,
                "addr:street:sym_ul": 13936,
                "phone": "+48 606142744",
                "email": "biuro@teczoweprzedszkole.com.pl",
                "website": "http:\/\/www.teczoweprzedszkole.com.pl\/index.php",
                "ref:regon": "302244754",
                "ref:vatin": "PL6661751953",
                "operator": "Karolina Ugarenko-\u017burawik",
                "operator:type": "private",
                "amenity": "kindergarten"
            }
        },
        {
            "id": 40118,
            "type": "Feature",
            "geometry": {
                "type": "Point",
                "coordinates": [
                    18.62817,
                    52.20731
                ]
            },
            "properties": {
                "isced:level": "1;2",
                "ref:rspo": 40118,
                "official_name": "Szko\u0142a Podstawowa Nr 5 im. Arkadego Fiedlera",
                "name": "Szko\u0142a Podstawowa Nr 5",
                "addr:postcode": "62-600",
                "addr:city": "Ko\u0142o",
                "addr:street": "Kolejowa",
                "addr:housenumber": "5",
                "addr:city:simc": 949052,
                "addr:street:sym_ul": 8828,
                "phone": "+48 632223123",
                "email": "sp5kolo@op.pl",
                "website": "http:\/\/sp5kolo.szkolnastrona.pl",
                "ref:regon": "001319850",
                "ref:vatin": "PL6662117804",
                "operator": "Gmina Miejska Ko\u0142o",
                "operator:type": "government",
                "amenity": "school"
            }
        },
        {
            "id": 42564,
            "type": "Feature",
            "geometry": {
                "type": "Point",
                "coordinates": [
                    18.62817,
                    52.20728
                ]
            },
            "properties": {
                "ref:rspo": 42564,
                "official_name": "Przedszkole Miejskie Nr 6 w Kole",
                "name": "Przedszkole Miejskie Nr 6 w Kole",
                "addr:postcode": "62-600",
                "addr:city": "Ko\u0142o",
                "addr:street": "Kolejowa",
                "addr:housenumber": "5",
                "addr:city:simc": 949052,
                "addr:street:sym_ul": 8828,
                "email": "przedszkolemiejskie6@gmail.com",
                "website": "http:\/\/www.pm6.kolo.pl\/",
                "ref:regon": "311104010",
                "ref:vatin": "PL6661795442",
                "operator": "Gmina Miejska Ko\u0142o",
                "operator:type": "government",
                "amenity": "kindergarten"
            }
        },
        {
            "id": 53909,
            "type": "Feature",
            "geometry": {
                "type": "Point",
                "coordinates": [
                    18.62817,
                    52.20725
                ]
            },
            "properties": {
                "isced:level": "4",
                "ref:rspo": 53909,
                "official_name": "Szko\u0142a Policealna Centrum Szkoleniowego Wiedza",
                "name": "Szko\u0142a Policealna Centrum Szkoleniowego Wiedza",
                "addr:postcode": "62-600",
                "addr:city": "Ko\u0142o",
                "addr:street": "Kolejowa",
                "addr:housenumber": "5",
                "addr:city:simc": 949052,
                "addr:street:sym_ul": 8828,
                "phone": "+48 632720865",
                "email": "kolo@cswiedza.pl",
                "website": "http:\/\/kolo.szkoly.cswiedza.pl",
                "ref:regon": "302257900",
                "ref:vatin": "PL6652252742",
                "operator": "Wanda Musia\u0142",
                "operator:type": "private",
                "amenity": "college"
            }
        },
        {
            "id": 81519,
            "type": "Feature",
            "geometry": {
                "type": "Point",
                "coordinates": [
                    18.62817,
                    52.20722
                ]
            },
            "properties": {
                "isced:level": "3",
                "ref:rspo": 81519,
                "official_name": "Liceum Og\u00f3lnkokszta\u0142ac\u0105ce (Dla Doros\u0142ych Na Podbudowie Gimnazjum) Centrum Szkoleniowego Wiedza",
                "name": "Liceum Og\u00f3lnkokszta\u0142ac\u0105ce (Dla Doros\u0142ych Na Podbudowie Gimnazjum) Centrum Szkoleniowego Wiedza",
                "addr:postcode": "62-600",
                "addr:city": "Ko\u0142o",
                "addr:street": "Kolejowa",
                "addr:housenumber": "5",
                "addr:city:simc": 949052,
                "addr:street:sym_ul": 8828,
                "phone": "+48 632437705",
                "email": "kolo@cswiedza.pl",
                "website": "http:\/\/www.cswiedza.pl",
                "ref:regon": "302269553",
                "ref:vatin": "PL6652252742",
                "operator": "Wanda Musia\u0142",
                "operator:type": "private",
                "amenity": "school"
            }
        },
        {
            "id": 267674,
            "type": "Feature",
            "geometry": {
                "type": "Point",
                "coordinates": [
                    18.62817,
                    52.20719
                ]
            },
            "properties": {
                "isced:level": "3",
                "ref:rspo": 267674,
                "official_name": "Bran\u017cowa Szko\u0142a I Stopnia Centrum Nauki Feniks",
                "name": "Bran\u017cowa Szko\u0142a I Stopnia Centrum Nauki Feniks",
                "addr:postcode": "62-600",
                "addr:city": "Ko\u0142o",
                "addr:street": "Kolejowa",
                "addr:housenumber": "5",
                "addr:city:simc": 949052,
                "addr:street:sym_ul": 8828,
                "ref:regon": "380488056",
                "operator": "Jan Paw\u0142owski",
                "operator:type": "private",
                "amenity": "school"
            }
        },
        {
            "id": 275887,
            "type": "Feature",
            "geometry": {
                "type": "Point",
                "coordinates": [
                    18.62817,
                    52.20716
                ]
            },
            "properties": {
                "isced:level": "3",
                "ref:rspo": 275887,
                "official_name": "Bran\u017cowa Szko\u0142a II Stopnia Centrum Szkoleniowe Wiedza",
                "name": "Bran\u017cowa Szko\u0142a II Stopnia Centrum Szkoleniowe Wiedza",
                "addr:postcode": "62-600",
                "addr:city": "Ko\u0142o",
                "addr:street": "Kolejowa",
                "addr:housenumber": "5",
                "addr:city:simc": 949052,
                "addr:street:sym_ul": 8828,
                "phone": "+48 632720865",
                "email": "kolo@cswiedza.pl",
                "website": "http:\/\/kolo.szkoly.cswiedza.pl",
                "ref:regon": "386948872",
                "ref:vatin": "PL6652252742",
                "operator": "Wanda Musia\u0142",
                "operator:type": "private",
                "amenity": "school"
            }
        },
        {
            "id": 42097,
            "type": "Feature",
            "geometry": {
                "type": "Point",
                "coordinates": [
                    18.62244,
                    52.20782
                ]
            },
            "properties": {
                "ref:rspo": 42097,
                "official_name": "Przedszkole Miejskie Nr 1 w Kole",
                "name": "Przedszkole Miejskie Nr 1 w Kole",
                "addr:postcode": "62-600",
                "addr:city": "Ko\u0142o",
                "addr:street": "Piaski",
                "addr:housenumber": "15",
                "addr:city:simc": 949052,
                "addr:street:sym_ul": 16027,
                "phone": "+48 632720200",
                "email": "przedszkole1kolo@wp.pl",
                "website": "http:\/\/przedszkole1kolo.edupage.org\/",
                "ref:regon": "311103989",
                "ref:vatin": "PL6661795399",
                "operator": "Gmina Miejska Ko\u0142o",
                "operator:type": "government",
                "amenity": "kindergarten"
            }
        },
        {
            "id": 55335,
            "type": "Feature",
            "geometry": {
                "type": "Point",
                "coordinates": [
                    18.62947,
                    52.20884
                ]
            },
            "properties": {
                "ref:rspo": 55335,
                "official_name": "Zesp\u00f3\u0142 Szk\u00f3\u0142 Technicznych w Kole",
                "name": "Zesp\u00f3\u0142 Szk\u00f3\u0142 Technicznych w Kole",
                "addr:postcode": "62-600",
                "addr:city": "Ko\u0142o",
                "addr:street": "Kolejowa",
                "addr:housenumber": "11",
                "addr:city:simc": 949052,
                "addr:street:sym_ul": 8828,
                "phone": "+48 632617900",
                "email": "szkola@zst-kolo.pl",
                "website": "http:\/\/www.zst-kolo.pl",
                "ref:regon": "000240514",
                "ref:vatin": "PL6661278221",
                "operator": "Powiat Kolski",
                "operator:type": "government",
                "landuse": "education",
                "fixme": "amenity=school, amenity=college albo landuse=education w zale\u017cno\u015bci od tego, jakie plac\u00f3wki wchodz\u0105 w sk\u0142ad zespo\u0142u. Sprawd\u017a, kiedy stosowa\u0107 amenity=* a kiedy landuse=education.",
                "note": "Children RSPO: 72461;83253;122658;127270"
            }
        },
        {
            "id": 72461,
            "type": "Feature",
            "geometry": {
                "type": "Point",
                "coordinates": [
                    18.62947,
                    52.20881
                ]
            },
            "properties": {
                "isced:level": "3",
                "ref:rspo": 72461,
                "official_name": "Liceum Og\u00f3lnokszta\u0142c\u0105ce Przy Zst w Kole",
                "name": "Liceum Og\u00f3lnokszta\u0142c\u0105ce Przy Zst w Kole",
                "addr:postcode": "62-600",
                "addr:city": "Ko\u0142o",
                "addr:street": "Kolejowa",
                "addr:housenumber": "11",
                "addr:city:simc": 949052,
                "addr:street:sym_ul": 8828,
                "phone": "+48 632617900",
                "email": "szkola@zst-kolo.pl",
                "website": "http:\/\/www.zst-kolo.pl",
                "ref:regon": "302158150",
                "ref:vatin": "PL6661278221",
                "operator": "Powiat Kolski",
                "operator:type": "government",
                "amenity": "school",
                "note": "Parent RSPO: 55335"
            }
        },
        {
            "id": 83253,
            "type": "Feature",
            "geometry": {
                "type": "Point",
                "coordinates": [
                    18.62947,
                    52.208780000000004
                ]
            },
            "properties": {
                "isced:level": "3",
                "ref:rspo": 83253,
                "official_name": "Bran\u017cowa Szko\u0142a I Stopnia Przy Zst w Kole",
                "name": "Bran\u017cowa Szko\u0142a I Stopnia Przy Zst w Kole",
                "addr:postcode": "62-600",
                "addr:city": "Ko\u0142o",
                "addr:street": "Kolejowa",
                "addr:housenumber": "11",
                "addr:city:simc": 949052,
                "addr:street:sym_ul": 8828,
                "phone": "+48 632617900",
                "email": "szkola@zst-kolo.pl",
                "website": "http:\/\/www.zst-kolo.pl",
                "ref:regon": "311595030",
                "ref:vatin": "PL6661278221",
                "operator": "Powiat Kolski",
                "operator:type": "government",
                "amenity": "school",
                "note": "Parent RSPO: 55335"
            }
        },
        {
            "id": 122658,
            "type": "Feature",
            "geometry": {
                "type": "Point",
                "coordinates": [
                    18.62947,
                    52.20875
                ]
            },
            "properties": {
                "ref:rspo": 122658,
                "official_name": "Centrum Kszta\u0142cenia Zawodowego w Zespole Szk\u00f3\u0142 Technicznych w Kole w Kole",
                "name": "Centrum Kszta\u0142cenia Zawodowego w Zespole Szk\u00f3\u0142 Technicznych w Kole w Kole",
                "addr:postcode": "62-600",
                "addr:city": "Ko\u0142o",
                "addr:street": "Kolejowa",
                "addr:housenumber": "11",
                "addr:city:simc": 949052,
                "addr:street:sym_ul": 8828,
                "phone": "+48 632617900",
                "ref:regon": "300678833",
                "operator": "Powiat Kolski",
                "operator:type": "government",
                "fixme": "w zale\u017cno\u015bci od przedmiotu dzia\u0142alno\u015bci (np. amenity=training + training=*, amenity=dancing_school, amenity=language_school, amenity=music_school) albo amenity=school, amenity=college, albo landuse=education w zale\u017cno\u015bci od tego, jakie plac\u00f3wki wchodz\u0105 w sk\u0142ad zespo\u0142u. Sprawd\u017a, kiedy stosowa\u0107 amenity=* a kiedy landuse=education.",
                "note": "Parent RSPO: 55335"
            }
        },
        {
            "id": 127270,
            "type": "Feature",
            "geometry": {
                "type": "Point",
                "coordinates": [
                    18.62947,
                    52.20872
                ]
            },
            "properties": {
                "isced:level": "3",
                "ref:rspo": 127270,
                "official_name": "Technikum Przy Zst w Kole",
                "name": "Technikum Przy Zst w Kole",
                "addr:postcode": "62-600",
                "addr:city": "Ko\u0142o",
                "addr:street": "Kolejowa",
                "addr:housenumber": "11",
                "addr:city:simc": 949052,
                "addr:street:sym_ul": 8828,
                "phone": "+48 632617900",
                "email": "szkola@zst-kolo.pl",
                "website": "http:\/\/www.zst-kolo.pl",
                "ref:regon": "361288560",
                "ref:vatin": "PL6661278221",
                "operator": "Powiat Kolski",
                "operator:type": "government",
                "amenity": "school",
                "note": "Parent RSPO: 55335"
            }
        },
        {
            "id": 262710,
            "type": "Feature",
            "geometry": {
                "type": "Point",
                "coordinates": [
                    18.63007,
                    52.20957
                ]
            },
            "properties": {
                "ref:rspo": 262710,
                "official_name": "Zesp\u00f3\u0142 Opieku\u0144czo-Edukacyjno-Wychowawczy w Kole",
                "name": "Zesp\u00f3\u0142 Opieku\u0144czo-Edukacyjno-Wychowawczy w Kole",
                "addr:postcode": "62-600",
                "addr:city": "Ko\u0142o",
                "addr:street": "Kolejowa",
                "addr:housenumber": "13",
                "addr:city:simc": 949052,
                "addr:street:sym_ul": 8828,
                "phone": "+48 632610177",
                "email": "sosw.kolo1@wp.pl",
                "ref:regon": "368052457",
                "ref:vatin": "PL6662117365",
                "operator": "Powiat Kolski",
                "operator:type": "government",
                "landuse": "education",
                "fixme": "amenity=school, amenity=college albo landuse=education w zale\u017cno\u015bci od tego, jakie plac\u00f3wki wchodz\u0105 w sk\u0142ad zespo\u0142u. Sprawd\u017a, kiedy stosowa\u0107 amenity=* a kiedy landuse=education.",
                "note": "Children RSPO: 49135;50335;56171"
            }
        },
        {
            "id": 87422,
            "type": "Feature",
            "geometry": {
                "type": "Point",
                "coordinates": [
                    18.63007,
                    52.20954
                ]
            },
            "properties": {
                "isced:level": "1;2",
                "ref:rspo": 87422,
                "official_name": "Szko\u0142a Podstawowa Specjalna",
                "name": "Szko\u0142a Podstawowa Specjalna",
                "addr:postcode": "62-600",
                "addr:city": "Ko\u0142o",
                "addr:street": "Kolejowa",
                "addr:housenumber": "13",
                "addr:city:simc": 949052,
                "addr:street:sym_ul": 8828,
                "phone": "+48 632720457",
                "email": "sosw.kolo1@wp.pl",
                "website": "http:\/\/www.soswkolo.szkolnastrona.pl",
                "ref:regon": "311509533",
                "ref:vatin": "PL6661279344",
                "operator": "Powiat Kolski",
                "operator:type": "government",
                "amenity": "school",
                "note": "Parent RSPO: 56171"
            }
        },
        {
            "id": 126768,
            "type": "Feature",
            "geometry": {
                "type": "Point",
                "coordinates": [
                    18.63007,
                    52.20951
                ]
            },
            "properties": {
                "isced:level": "3",
                "ref:rspo": 126768,
                "official_name": "Bran\u017cowa Szko\u0142a I Stopnia Specjalna w Sosw w Kole",
                "name": "Bran\u017cowa Szko\u0142a I Stopnia Specjalna w Sosw w Kole",
                "addr:postcode": "62-600",
                "addr:city": "Ko\u0142o",
                "addr:street": "Kolejowa",
                "addr:housenumber": "13",
                "addr:city:simc": 949052,
                "addr:street:sym_ul": 8828,
                "phone": "+48 632720457",
                "email": "sosw.kolo1@wp.pl",
                "website": "http:\/\/www.soswkolo.szkolnastrona.pl",
                "ref:regon": "311509540",
                "ref:vatin": "PL6661279344",
                "operator": "Powiat Kolski",
                "operator:type": "government",
                "amenity": "school",
                "note": "Parent RSPO: 56171"
            }
        },
        {
            "id": 126769,
            "type": "Feature",
            "geometry": {
                "type": "Point",
                "coordinates": [
                    18.63007,
                    52.20948
                ]
            },
            "properties": {
                "ref:rspo": 126769,
                "official_name": "Szko\u0142a Specjalna Przysposabiaj\u0105ca Do Pracy Przy Sosw w Kole",
                "name": "Szko\u0142a Specjalna Przysposabiaj\u0105ca Do Pracy Przy Sosw w Kole",
                "addr:postcode": "62-600",
                "addr:city": "Ko\u0142o",
                "addr:street": "Kolejowa",
                "addr:housenumber": "13",
                "addr:city:simc": 949052,
                "addr:street:sym_ul": 8828,
                "phone": "+48 632720457",
                "email": "sosw.kolo1@wp.pl",
                "website": "http:\/\/www.soswkolo.szkolnastrona.pl",
                "ref:regon": "311619322",
                "ref:vatin": "PL6661279344",
                "operator": "Powiat Kolski",
                "operator:type": "government",
                "amenity": "school",
                "note": "Parent RSPO: 56171"
            }
        },
        {
            "id": 49135,
            "type": "Feature",
            "geometry": {
                "type": "Point",
                "coordinates": [
                    18.63007,
                    52.20945
                ]
            },
            "properties": {
                "ref:rspo": 49135,
                "official_name": "Poradnia Psychologiczno - Pedagogiczna w Kole",
                "name": "Poradnia Psychologiczno - Pedagogiczna w Kole",
                "addr:postcode": "62-600",
                "addr:city": "Ko\u0142o",
                "addr:street": "Kolejowa",
                "addr:housenumber": "13",
                "addr:city:simc": 949052,
                "addr:street:sym_ul": 8828,
                "phone": "+48 632722789",
                "email": "ppp.kolo@wp.pl",
                "website": "http:\/\/www.ppp.kolo.bip.net.pl",
                "ref:regon": "311107438",
                "ref:vatin": "PL6661847392",
                "operator": "Powiat Kolski",
                "operator:type": "government",
                "healthcare": "counselling",
                "counselling_type": "education",
                "fixme": "w zale\u017cno\u015bci od przedmiotu dzia\u0142alno\u015bci (np. healthcare=counselling + counselling_type=education albo healthcare=psychotherapist)",
                "note": "Parent RSPO: 262710"
            }
        },
        {
            "id": 50335,
            "type": "Feature",
            "geometry": {
                "type": "Point",
                "coordinates": [
                    18.63007,
                    52.20942
                ]
            },
            "properties": {
                "ref:rspo": 50335,
                "official_name": "Bursa Szkolna w Kole",
                "name": "Bursa Szkolna w Kole",
                "addr:postcode": "62-600",
                "addr:city": "Ko\u0142o",
                "addr:street": "Kolejowa",
                "addr:housenumber": "13",
                "addr:city:simc": 949052,
                "addr:street:sym_ul": 8828,
                "phone": "+48 632610177",
                "email": "bursa_kolo@poczta.onet.pl",
                "website": "http:\/\/bursa-kolo.nazwa.pl",
                "ref:regon": "000192152",
                "ref:vatin": "PL6661280117",
                "operator": "Powiat Kolski",
                "operator:type": "government",
                "building": "dormitory",
                "note": "Parent RSPO: 262710"
            }
        },
        {
            "id": 56171,
            "type": "Feature",
            "geometry": {
                "type": "Point",
                "coordinates": [
                    18.63007,
                    52.20939
                ]
            },
            "properties": {
                "ref:rspo": 56171,
                "official_name": "Specjalny O\u015brodek Szkolno - Wychowawczy im. \u015awi\u0119tego Miko\u0142aja w Kole",
                "name": "Specjalny O\u015brodek Szkolno - Wychowawczy",
                "addr:postcode": "62-600",
                "addr:city": "Ko\u0142o",
                "addr:street": "Kolejowa",
                "addr:housenumber": "13",
                "addr:city:simc": 949052,
                "addr:street:sym_ul": 8828,
                "phone": "+48 632720457",
                "email": "sosw.kolo1@wp.pl",
                "website": "http:\/\/www.soswkolo.szkolnastrona.pl",
                "ref:regon": "000710368",
                "ref:vatin": "PL6661279344",
                "operator": "Powiat Kolski",
                "operator:type": "government",
                "amenity": "school",
                "note": "Children RSPO: 87422;126768;126769Parent RSPO: 262710"
            }
        },
        {
            "id": 40218,
            "type": "Feature",
            "geometry": {
                "type": "Point",
                "coordinates": [
                    18.60379,
                    52.22473
                ]
            },
            "properties": {
                "isced:level": "1;2",
                "ref:rspo": 40218,
                "official_name": "Szko\u0142a Podstawowa Nr 4 im. Kawaler\u00f3w Orderu U\u015bmiechu w Kole",
                "name": "Szko\u0142a Podstawowa Nr 4",
                "addr:postcode": "62-600",
                "addr:city": "Ko\u0142o",
                "addr:street": "Toru\u0144ska",
                "addr:housenumber": "315A",
                "addr:city:simc": 949052,
                "addr:street:sym_ul": 22902,
                "phone": "+48 632720694",
                "email": "sp4kolo@op.pl",
                "website": "http:\/\/sp4kolo.szkolnastrona.pl",
                "ref:regon": "000710316",
                "ref:vatin": "PL6661263662",
                "operator": "Gmina Miejska Ko\u0142o",
                "operator:type": "government",
                "amenity": "school"
            }
        }
    ]
}