{"type":"FeatureCollection","features":[{"id":6801,"type":"Feature","geometry":{"type":"Point","coordinates":[18.66229,52.34434]},"properties":{"isced:level":"1;2","ref:rspo":6801,"official_name":"Szko\u0142a Podstawowa im. Miko\u0142aja Kopernika w Babiaku","name":"Szko\u0142a Podstawowa","addr:country":"PL","addr:postcode":"62-620","addr:city":"Babiak","addr:street":"ul. Pozna\u0144ska","addr:housenumber":"5","addr:teryt:simc":17394,"addr:teryt:sym_ul":280809,"contact:phone":"+48 632711016","contact:email":"spbabiak@guzik.konin.pl","ref:regon":"000265589","ref:vatin":"PL6661867199","operator":"Gmina Babiak","operator:type":"government","amenity":"school"}},{"id":6802,"type":"Feature","geometry":{"type":"Point","coordinates":[18.66107,52.34476]},"properties":{"ref:rspo":6802,"official_name":"Samorz\u0105dowe Przedszkole w Babiaku","name":"Samorz\u0105dowe Przedszkole w Babiaku","addr:country":"PL","addr:postcode":"62-620","addr:city":"Babiak","addr:street":"ul. Pozna\u0144ska","addr:housenumber":"8","addr:teryt:simc":17394,"addr:teryt:sym_ul":280809,"contact:phone":"+48 632711020","contact:email":"ps-babiak@wp.pl","ref:regon":"000996092","ref:vatin":"PL6661868230","operator":"Gmina Babiak","operator:type":"government","amenity":"kindergarten"}},{"id":6804,"type":"Feature","geometry":{"type":"Point","coordinates":[18.72826,52.34889]},"properties":{"ref:rspo":6804,"official_name":"Zesp\u00f3\u0142 Szk\u00f3\u0142 w Brdowie","name":"Zesp\u00f3\u0142 Szk\u00f3\u0142 w Brdowie","addr:country":"PL","addr:postcode":"62-620","addr:city":"Brd\u00f3w","addr:street":"ul. Mickiewicza","addr:housenumber":"8","addr:teryt:simc":12734,"addr:teryt:sym_ul":280844,"contact:phone":"+48 632713012","contact:email":"spig2@poczta.onet.pl","ref:regon":"311597112","ref:vatin":"PL6661961001","operator":"Gmina Babiak","operator:type":"government","landuse":"education","fixme":"amenity=school, amenity=college albo landuse=education w zale\u017cno\u015bci od tego, jakie plac\u00f3wki wchodz\u0105 w sk\u0142ad zespo\u0142u. Sprawd\u017a, kiedy stosowa\u0107 amenity=* a kiedy landuse=education.","note":"Children RSPO: 8590;8591"}},{"id":8590,"type":"Feature","geometry":{"type":"Point","coordinates":[18.72826,52.348859999999995]},"properties":{"ref:rspo":8590,"official_name":"Przedszkole Samorz\u0105dowe w Brdowie","name":"Przedszkole Samorz\u0105dowe w Brdowie","addr:country":"PL","addr:postcode":"62-620","addr:city":"Brd\u00f3w","addr:street":"ul. Mickiewicza","addr:housenumber":"8","addr:teryt:simc":12734,"addr:teryt:sym_ul":280844,"contact:phone":"+48 632713012","contact:email":"spig2@poczta.onet.pl","ref:regon":"311105528","ref:vatin":"PL6661866969","operator":"Gmina Babiak","operator:type":"government","amenity":"kindergarten","note":"Parent RSPO: 6804"}},{"id":8591,"type":"Feature","geometry":{"type":"Point","coordinates":[18.72826,52.34883]},"properties":{"isced:level":"1;2","ref:rspo":8591,"official_name":"Szko\u0142a Podstawowa w Brdowie","name":"Szko\u0142a Podstawowa w Brdowie","addr:country":"PL","addr:postcode":"62-620","addr:city":"Brd\u00f3w","addr:street":"ul. Mickiewicza","addr:housenumber":"8","addr:teryt:simc":12734,"addr:teryt:sym_ul":280844,"contact:phone":"+48 632713012","contact:email":"spig2@poczta.onet.pl","ref:regon":"001148822","ref:vatin":"PL6661867070","operator":"Gmina Babiak","operator:type":"government","amenity":"school","note":"Parent RSPO: 6804"}},{"id":6803,"type":"Feature","geometry":{"type":"Point","coordinates":[18.6583,52.39226]},"properties":{"ref:rspo":6803,"official_name":"Zesp\u00f3\u0142 Szk\u00f3\u0142 w Bogus\u0142awicach","name":"Zesp\u00f3\u0142 Szk\u00f3\u0142 w Bogus\u0142awicach","addr:country":"PL","addr:postcode":"62-620","addr:place":"Bogus\u0142awice","addr:housenumber":"1A","addr:teryt:sym_ul":280821,"contact:phone":"+48 632712243","contact:email":"zsbog@poczta.onet.pl","ref:regon":"311598382","ref:vatin":"PL6661961018","operator":"Gmina Babiak","operator:type":"government","landuse":"education","fixme":"amenity=school, amenity=college albo landuse=education w zale\u017cno\u015bci od tego, jakie plac\u00f3wki wchodz\u0105 w sk\u0142ad zespo\u0142u. Sprawd\u017a, kiedy stosowa\u0107 amenity=* a kiedy landuse=education.","note":"Children RSPO: 8504;8563"}},{"id":8504,"type":"Feature","geometry":{"type":"Point","coordinates":[18.6583,52.39223]},"properties":{"ref:rspo":8504,"official_name":"Samorz\u0105dowe Przedszkole w Bogus\u0142awicach","name":"Samorz\u0105dowe Przedszkole w Bogus\u0142awicach","addr:country":"PL","addr:postcode":"62-620","addr:place":"Bogus\u0142awice","addr:housenumber":"1A","addr:teryt:sym_ul":280821,"contact:phone":"+48 632712243","contact:email":"zsbog@poczta.onet.pl","ref:regon":"302202394","operator":"Gmina Babiak","operator:type":"government","amenity":"kindergarten","note":"Parent RSPO: 6803"}},{"id":8563,"type":"Feature","geometry":{"type":"Point","coordinates":[18.6583,52.3922]},"properties":{"isced:level":"1;2","ref:rspo":8563,"official_name":"Szko\u0142a Podstawowa im. Wincentego Witosa w Bogus\u0142awicach","name":"Szko\u0142a Podstawowa","addr:country":"PL","addr:postcode":"62-620","addr:place":"Bogus\u0142awice","addr:housenumber":"1A","addr:teryt:sym_ul":280821,"contact:phone":"+48 632712243","contact:email":"zsbog@poczta.onet.pl","ref:regon":"001148816","ref:vatin":"PL6661867762","operator":"Gmina Babiak","operator:type":"government","amenity":"school","note":"Parent RSPO: 6803"}}]}