{
    "type": "FeatureCollection",
    "features": [
        {
            "id": 52546,
            "type": "Feature",
            "geometry": {
                "type": "Point",
                "coordinates": [
                    19.0095779,
                    52.245998
                ]
            },
            "properties": {
                "isced:level": "1;2",
                "ref:rspo": 52546,
                "official_name": "Szko\u0142a Podstawowa w Chodowie",
                "name": "Szko\u0142a Podstawowa w Chodowie",
                "addr:postcode": "62-652",
                "addr:place": "Chod\u00f3w",
                "addr:housenumber": "45",
                "addr:city:simc": 281849,
                "phone": "+48 632737260",
                "email": "spchodow@op.pl",
                "ref:regon": "001168718",
                "ref:vatin": "PL6662117336",
                "operator": "Gmina Chod\u00f3w",
                "operator:type": "government",
                "amenity": "school"
            }
        },
        {
            "id": 89772,
            "type": "Feature",
            "geometry": {
                "type": "Point",
                "coordinates": [
                    19.0978428,
                    52.2529313
                ]
            },
            "properties": {
                "isced:level": "1;2",
                "ref:rspo": 89772,
                "official_name": "Katolicka Szko\u0142a Podstawowa Stowarzyszyszenia Przyjaci\u00f3\u0142 Szk\u00f3\u0142 Katolickich Im \u015aw Faustyny",
                "name": "Katolicka Szko\u0142a Podstawowa Stowarzyszyszenia Przyjaci\u00f3\u0142 Szk\u00f3\u0142 Katolickich Im \u015aw Faustyny",
                "addr:postcode": "62-652",
                "addr:place": "Pniewo",
                "addr:housenumber": "12",
                "addr:city:simc": 282100,
                "phone": "+48 632737388",
                "email": "pniewo@vp.pl",
                "ref:regon": "302277570",
                "ref:vatin": "PL6661963773",
                "operator": "Dane Do Uzupe\u0142nienia",
                "operator:type": "private",
                "amenity": "school"
            }
        }
    ]
}