{
    "type": "FeatureCollection",
    "features": [
        {
            "id": 9460,
            "type": "Feature",
            "geometry": {
                "type": "Point",
                "coordinates": [
                    18.8771128,
                    52.223836
                ]
            },
            "properties": {
                "isced:level": "1;2",
                "ref:rspo": 9460,
                "official_name": "Szko\u0142a Podstawowa w G\u00f3rkach",
                "name": "Szko\u0142a Podstawowa w G\u00f3rkach",
                "addr:country": "PL",
                "addr:postcode": "62-650",
                "addr:place": "G\u00f3rki",
                "addr:housenumber": "18",
                "addr:teryt:sym_ul": 286864,
                "contact:phone": "+48 632631648",
                "contact:email": "spgorki@vp.pl",
                "contact:website": "http:\/\/www.spgimgorki.szkolnastrona.pl",
                "ref:regon": "302203525",
                "ref:vatin": "PL6662110297",
                "operator": "Stowarzyszenie O\u015bwiatowe G\u00f3rki",
                "operator:type": "ngo",
                "amenity": "school"
            }
        },
        {
            "id": 53155,
            "type": "Feature",
            "geometry": {
                "type": "Point",
                "coordinates": [
                    18.9402938,
                    52.234513
                ]
            },
            "properties": {
                "isced:level": "1;2",
                "ref:rspo": 53155,
                "official_name": "Szko\u0142a Podstawowa Stowarzyszenia Przyjaci\u00f3\u0142 Szk\u00f3\u0142 Katolickich im.kardyna\u0142a Stefana Wyszy\u0144skiego w W\u00f3lce Czepowej",
                "name": "Szko\u0142a Podstawowa Stowarzyszenia Przyjaci\u00f3\u0142 Szk\u00f3\u0142 Katolickich im.kardyna\u0142a Stefana Wyszy\u0144skiego w W\u00f3lce Czepowej",
                "addr:country": "PL",
                "addr:postcode": "62-650",
                "addr:place": "W\u00f3lka Czepowa",
                "addr:housenumber": "33",
                "addr:teryt:sym_ul": 287266,
                "contact:phone": "+48 632631020",
                "contact:email": "szkola@spskwolka.edu.pl",
                "contact:website": "http:\/\/www.spskwolka.edu.pl",
                "ref:regon": "302257923",
                "ref:vatin": "PL6661984663",
                "operator": "Stowarzyszenie Przyjaci\u00f3\u0142 Szk\u00f3\u0142 Katolickich",
                "operator:type": "ngo",
                "amenity": "school"
            }
        },
        {
            "id": 3573,
            "type": "Feature",
            "geometry": {
                "type": "Point",
                "coordinates": [
                    18.92154,
                    52.2463399
                ]
            },
            "properties": {
                "isced:level": "1;2",
                "ref:rspo": 3573,
                "official_name": "Szko\u0142a Podstawowa Nr 2 im.bia\u0142ych G\u00f3rnik\u00f3w w K\u0142odawie",
                "name": "Szko\u0142a Podstawowa Nr 2 im.bia\u0142ych G\u00f3rnik\u00f3w w K\u0142odawie",
                "addr:country": "PL",
                "addr:postcode": "62-650",
                "addr:city": "K\u0142odawa",
                "addr:street": "3 Maja",
                "addr:housenumber": "5",
                "addr:teryt:simc": 11937,
                "addr:teryt:sym_ul": 949046,
                "contact:phone": "+48 632730310",
                "contact:email": "zsp21@wp.pl",
                "contact:website": "https:\/\/sp2klodawa.pl\/",
                "ref:regon": "001192622",
                "ref:vatin": "PL6661060373",
                "operator": "Gmina K\u0142odawa",
                "operator:type": "government",
                "amenity": "school"
            }
        },
        {
            "id": 86304,
            "type": "Feature",
            "geometry": {
                "type": "Point",
                "coordinates": [
                    18.92154,
                    52.2463099
                ]
            },
            "properties": {
                "isced:level": "3",
                "ref:rspo": 86304,
                "official_name": "Liceum Og\u00f3lnokszta\u0142c\u0105ce dla Doros\u0142ych Centrum Nauki Eureka w K\u0142odawie",
                "name": "Liceum Og\u00f3lnokszta\u0142c\u0105ce dla Doros\u0142ych Centrum Nauki Eureka w K\u0142odawie",
                "addr:country": "PL",
                "addr:postcode": "62-650",
                "addr:city": "K\u0142odawa",
                "addr:street": "3 Maja",
                "addr:housenumber": "5",
                "addr:teryt:simc": 11937,
                "addr:teryt:sym_ul": 949046,
                "contact:phone": "+48 601701553",
                "contact:email": "janpawlowski@interia.pl",
                "ref:regon": "302280827",
                "ref:vatin": "PL6681792263",
                "operator": "El\u017cbieta Cytrowska",
                "operator:type": "private",
                "amenity": "school"
            }
        },
        {
            "id": 126514,
            "type": "Feature",
            "geometry": {
                "type": "Point",
                "coordinates": [
                    18.92154,
                    52.246279900000005
                ]
            },
            "properties": {
                "isced:level": "4",
                "ref:rspo": 126514,
                "official_name": "Szko\u0142a Policealna Centrum Nauki Eureka w K\u0142odawie",
                "name": "Szko\u0142a Policealna Centrum Nauki Eureka w K\u0142odawie",
                "addr:country": "PL",
                "addr:postcode": "62-650",
                "addr:city": "K\u0142odawa",
                "addr:street": "3 Maja",
                "addr:housenumber": "5",
                "addr:teryt:simc": 11937,
                "addr:teryt:sym_ul": 949046,
                "contact:email": "janpawlowski@interia.pl",
                "contact:website": "http:\/\/centrumnaukieureka.pl",
                "ref:regon": "360404744",
                "operator": "El\u017cbieta Cytrowska",
                "operator:type": "private",
                "amenity": "college"
            }
        },
        {
            "id": 267675,
            "type": "Feature",
            "geometry": {
                "type": "Point",
                "coordinates": [
                    18.92154,
                    52.2462499
                ]
            },
            "properties": {
                "isced:level": "3",
                "ref:rspo": 267675,
                "official_name": "Bran\u017cowa Szko\u0142a I Stopnia Centrum Nauki Eureka K\u0142odawa",
                "name": "Bran\u017cowa Szko\u0142a I Stopnia Centrum Nauki Eureka K\u0142odawa",
                "addr:country": "PL",
                "addr:postcode": "62-650",
                "addr:city": "K\u0142odawa",
                "addr:street": "3 Maja",
                "addr:housenumber": "5",
                "addr:teryt:simc": 11937,
                "addr:teryt:sym_ul": 949046,
                "contact:email": "emc1@onet.eu",
                "ref:regon": "380488530",
                "operator": "El\u017cbieta Cytrowska",
                "operator:type": "private",
                "amenity": "school"
            }
        },
        {
            "id": 271492,
            "type": "Feature",
            "geometry": {
                "type": "Point",
                "coordinates": [
                    18.92154,
                    52.2462199
                ]
            },
            "properties": {
                "ref:rspo": 271492,
                "official_name": "Centrum Nauki Eureka w K\u0142odawie",
                "name": "Centrum Nauki Eureka w K\u0142odawie",
                "addr:country": "PL",
                "addr:postcode": "62-650",
                "addr:city": "K\u0142odawa",
                "addr:street": "3 Maja",
                "addr:housenumber": "5",
                "addr:teryt:simc": 11937,
                "addr:teryt:sym_ul": 949046,
                "contact:phone": "+48 632720723",
                "ref:regon": "383365176",
                "ref:vatin": "PL6681792263",
                "operator": "El\u017cbieta Cytrowska",
                "operator:type": "private",
                "amenity": "school",
                "fixme": "amenity=school lub amenity=college",
                "note": "Children RSPO: 86252;86283"
            }
        },
        {
            "id": 91094,
            "type": "Feature",
            "geometry": {
                "type": "Point",
                "coordinates": [
                    18.9140799,
                    52.24851
                ]
            },
            "properties": {
                "ref:rspo": 91094,
                "official_name": "Przedszkole Nr 1 im. Jana Brzechwy w K\u0142odawie",
                "name": "Przedszkole Nr 1",
                "addr:country": "PL",
                "addr:postcode": "62-650",
                "addr:city": "K\u0142odawa",
                "addr:street": "Bohater\u00f3w Wrze\u015bnia 1939 roku",
                "addr:housenumber": "17",
                "addr:teryt:simc": 1689,
                "addr:teryt:sym_ul": 949046,
                "contact:phone": "+48 632730813",
                "contact:email": "przedszkole1@autograf.pl",
                "contact:website": "http:\/\/www.przedszkole1.szkolnastrona.pl",
                "ref:regon": "000996063",
                "ref:vatin": "PL6661412553",
                "operator": "Gmina K\u0142odawa",
                "operator:type": "government",
                "amenity": "kindergarten"
            }
        },
        {
            "id": 133223,
            "type": "Feature",
            "geometry": {
                "type": "Point",
                "coordinates": [
                    18.91786,
                    52.25463
                ]
            },
            "properties": {
                "isced:level": "4",
                "ref:rspo": 133223,
                "official_name": "Niepubliczna Szko\u0142a Policealna dla Doros\u0142ych \"Prymus\"",
                "name": "Niepubliczna Szko\u0142a Policealna dla Doros\u0142ych \"Prymus\"",
                "addr:country": "PL",
                "addr:postcode": "62-650",
                "addr:city": "K\u0142odawa",
                "addr:street": "Ko\u015bcielna",
                "addr:housenumber": "15",
                "addr:teryt:simc": 9546,
                "addr:teryt:sym_ul": 949046,
                "contact:phone": "+48 691955015",
                "contact:email": "klodawa@darmoweszkoly.pl",
                "ref:regon": "366832808",
                "operator": "Ksko Sp\u00f3\u0142ka Z Ograniczon\u0105 Odpowiedzialno\u015bci\u0105",
                "operator:type": "private",
                "amenity": "college"
            }
        },
        {
            "id": 262961,
            "type": "Feature",
            "geometry": {
                "type": "Point",
                "coordinates": [
                    18.91786,
                    52.254599999999996
                ]
            },
            "properties": {
                "isced:level": "1;2",
                "ref:rspo": 262961,
                "official_name": "Szko\u0142a Podstawowa Nr 1 im. \u015aw.jana Paw\u0142a II w K\u0142odawie",
                "name": "Szko\u0142a Podstawowa Nr 1",
                "addr:country": "PL",
                "addr:postcode": "62-650",
                "addr:city": "K\u0142odawa",
                "addr:street": "Ko\u015bcielna",
                "addr:housenumber": "15",
                "addr:teryt:simc": 9546,
                "addr:teryt:sym_ul": 949046,
                "contact:phone": "+48 632730380",
                "contact:email": "klodawa1@wp.pl",
                "contact:website": "http:\/\/www.gim1klodawa.pl",
                "ref:regon": "368081750",
                "ref:vatin": "PL6661069693",
                "operator": "Gmina K\u0142odawa",
                "operator:type": "government",
                "amenity": "school"
            }
        },
        {
            "id": 275022,
            "type": "Feature",
            "geometry": {
                "type": "Point",
                "coordinates": [
                    18.91716,
                    52.25488
                ]
            },
            "properties": {
                "ref:rspo": 275022,
                "official_name": "Niepubliczne Przedszkole Misio",
                "name": "Niepubliczne Przedszkole Misio",
                "addr:country": "PL",
                "addr:postcode": "62-650",
                "addr:city": "K\u0142odawa",
                "addr:street": "Ko\u015bcielna",
                "addr:housenumber": "9",
                "addr:teryt:simc": 9546,
                "addr:teryt:sym_ul": 949046,
                "contact:phone": "+48 722190199",
                "contact:email": "kontakt@misioprzedszkole.pl",
                "contact:website": "http:\/\/www.misioprzedszkole.pl",
                "ref:regon": "386506068",
                "operator": "Micha\u0142 Matuszewski",
                "operator:type": "private",
                "amenity": "kindergarten"
            }
        },
        {
            "id": 55856,
            "type": "Feature",
            "geometry": {
                "type": "Point",
                "coordinates": [
                    18.90115,
                    52.25827
                ]
            },
            "properties": {
                "ref:rspo": 55856,
                "official_name": "Zesp\u00f3\u0142 Szk\u00f3\u0142 Og\u00f3lnokszta\u0142c\u0105cych I Technicznych w K\u0142odawie",
                "name": "Zesp\u00f3\u0142 Szk\u00f3\u0142 Og\u00f3lnokszta\u0142c\u0105cych I Technicznych w K\u0142odawie",
                "addr:country": "PL",
                "addr:postcode": "62-650",
                "addr:city": "K\u0142odawa",
                "addr:street": "Adama Mickiewicza",
                "addr:housenumber": "3",
                "addr:teryt:simc": 12740,
                "addr:teryt:sym_ul": 949046,
                "contact:phone": "+48 632730263",
                "contact:email": "zspklodawa@wp.pl",
                "contact:website": "http:\/\/www.zsoitklodawa.pl",
                "ref:regon": "310150863",
                "ref:vatin": "PL6661403206",
                "operator": "Powiat Kolski",
                "operator:type": "government",
                "landuse": "education",
                "fixme": "amenity=school, amenity=college albo landuse=education w zale\u017cno\u015bci od tego, jakie plac\u00f3wki wchodz\u0105 w sk\u0142ad zespo\u0142u. Sprawd\u017a, kiedy stosowa\u0107 amenity=* a kiedy landuse=education.",
                "note": "Children RSPO: 87311;87312;87313"
            }
        },
        {
            "id": 87311,
            "type": "Feature",
            "geometry": {
                "type": "Point",
                "coordinates": [
                    18.90115,
                    52.25824
                ]
            },
            "properties": {
                "isced:level": "3",
                "ref:rspo": 87311,
                "official_name": "Liceum Og\u00f3lnokszta\u0142c\u0105ce Przy Zespole Szk\u00f3\u0142 Og\u00f3lnokszta\u0142c\u0105cych I Technicznych w K\u0142odawie",
                "name": "Liceum Og\u00f3lnokszta\u0142c\u0105ce Przy Zespole Szk\u00f3\u0142 Og\u00f3lnokszta\u0142c\u0105cych I Technicznych w K\u0142odawie",
                "addr:country": "PL",
                "addr:postcode": "62-650",
                "addr:city": "K\u0142odawa",
                "addr:street": "Adama Mickiewicza",
                "addr:housenumber": "3",
                "addr:teryt:simc": 12740,
                "addr:teryt:sym_ul": 949046,
                "contact:phone": "+48 632730539",
                "contact:email": "zspklodawa@wp.pl",
                "contact:website": "http:\/\/www.zsoitklodawa.pl",
                "ref:regon": "311594830",
                "ref:vatin": "PL6661403206",
                "operator": "Powiat Kolski",
                "operator:type": "government",
                "amenity": "school",
                "note": "Parent RSPO: 55856"
            }
        },
        {
            "id": 87312,
            "type": "Feature",
            "geometry": {
                "type": "Point",
                "coordinates": [
                    18.90115,
                    52.258210000000005
                ]
            },
            "properties": {
                "isced:level": "3",
                "ref:rspo": 87312,
                "official_name": "Technikum Przy Zespole Szk\u00f3\u0142 Og\u00f3lnokszta\u0142c\u0105cych I Technicznych w K\u0142odawie",
                "name": "Technikum Przy Zespole Szk\u00f3\u0142 Og\u00f3lnokszta\u0142c\u0105cych I Technicznych w K\u0142odawie",
                "addr:country": "PL",
                "addr:postcode": "62-650",
                "addr:city": "K\u0142odawa",
                "addr:street": "Adama Mickiewicza",
                "addr:housenumber": "3",
                "addr:teryt:simc": 12740,
                "addr:teryt:sym_ul": 949046,
                "contact:phone": "+48 632730263",
                "contact:email": "zspklodawa@wp.pl",
                "contact:website": "http:\/\/www.zsoitklodawa.pl",
                "ref:regon": "311594792",
                "ref:vatin": "PL6661403206",
                "operator": "Powiat Kolski",
                "operator:type": "government",
                "amenity": "school",
                "note": "Parent RSPO: 55856"
            }
        },
        {
            "id": 87313,
            "type": "Feature",
            "geometry": {
                "type": "Point",
                "coordinates": [
                    18.90115,
                    52.25818
                ]
            },
            "properties": {
                "isced:level": "3",
                "ref:rspo": 87313,
                "official_name": "Bran\u017cowa Szko\u0142a I Stopnia Przy Zespole Szk\u00f3\u0142 Og\u00f3lnokszta\u0142c\u0105cych I Technicznych w K\u0142odawie",
                "name": "Bran\u017cowa Szko\u0142a I Stopnia Przy Zespole Szk\u00f3\u0142 Og\u00f3lnokszta\u0142c\u0105cych I Technicznych w K\u0142odawie",
                "addr:country": "PL",
                "addr:postcode": "62-650",
                "addr:city": "K\u0142odawa",
                "addr:street": "Adama Mickiewicza",
                "addr:housenumber": "3",
                "addr:teryt:simc": 12740,
                "addr:teryt:sym_ul": 949046,
                "contact:phone": "+48 632730263",
                "contact:email": "zspklodawa@wp.pl",
                "contact:website": "http:\/\/www.zsoitklodawa.pl",
                "ref:regon": "311594846",
                "ref:vatin": "PL6661403206",
                "operator": "Powiat Kolski",
                "operator:type": "government",
                "amenity": "school",
                "note": "Parent RSPO: 55856"
            }
        },
        {
            "id": 53144,
            "type": "Feature",
            "geometry": {
                "type": "Point",
                "coordinates": [
                    18.865347,
                    52.2835059
                ]
            },
            "properties": {
                "isced:level": "1;2",
                "ref:rspo": 53144,
                "official_name": "Szko\u0142a Podstawowa im.gen.t.kutrzeby w Bierzwiennej D\u0142ugiej",
                "name": "Szko\u0142a Podstawowa im.gen.t.kutrzeby w Bierzwiennej D\u0142ugiej",
                "addr:country": "PL",
                "addr:postcode": "62-650",
                "addr:place": "Bierzwienna D\u0142uga",
                "addr:housenumber": "25",
                "addr:teryt:sym_ul": 286692,
                "contact:phone": "+48 632735195",
                "contact:email": "sp_bierzwienna@poczta.onet.pl",
                "contact:website": "http:\/\/spbierzwienna.pl\/",
                "ref:regon": "001196117",
                "ref:vatin": "PL6661166893",
                "operator": "Gmina K\u0142odawa",
                "operator:type": "government",
                "amenity": "school"
            }
        },
        {
            "id": 3567,
            "type": "Feature",
            "geometry": {
                "type": "Point",
                "coordinates": [
                    18.808207,
                    52.2976869
                ]
            },
            "properties": {
                "isced:level": "1;2",
                "ref:rspo": 3567,
                "official_name": "Szko\u0142a Podstawowa w Lubo\u0144ku",
                "name": "Szko\u0142a Podstawowa w Lubo\u0144ku",
                "addr:country": "PL",
                "addr:postcode": "62-650",
                "addr:place": "Luboniek",
                "addr:housenumber": "73",
                "addr:teryt:sym_ul": 287036,
                "contact:phone": "+48 632735235",
                "contact:email": "sp-luboniek@wp.pl",
                "contact:website": "http:\/\/spluboniek.szkolnastrona.pl\/",
                "ref:regon": "302184495",
                "ref:vatin": "PL6662110340",
                "operator": "Stowarzyszenie \"Dzia\u0142ajmy Z My\u015bl\u0105 O Przysz\u0142o\u015bci\"",
                "operator:type": "ngo",
                "amenity": "school"
            }
        },
        {
            "id": 126442,
            "type": "Feature",
            "geometry": {
                "type": "Point",
                "coordinates": [
                    18.808207,
                    52.2976569
                ]
            },
            "properties": {
                "ref:rspo": 126442,
                "official_name": "Przedszkole Niepubliczne w Lubo\u0144ku",
                "name": "Przedszkole Niepubliczne w Lubo\u0144ku",
                "addr:country": "PL",
                "addr:postcode": "62-650",
                "addr:place": "Luboniek",
                "addr:housenumber": "73",
                "addr:teryt:sym_ul": 287036,
                "contact:phone": "+48 632735235",
                "contact:email": "sp-luboniek@wp.pl",
                "ref:regon": "360321768",
                "ref:vatin": "PL6662112267",
                "operator": "Stowarzyszenie \"Dzia\u0142ajmy Z My\u015bl\u0105 O Przysz\u0142o\u015bci\"",
                "operator:type": "ngo",
                "amenity": "kindergarten"
            }
        },
        {
            "id": 64653,
            "type": "Feature",
            "geometry": {
                "type": "Point",
                "coordinates": [
                    18.786594,
                    52.322258
                ]
            },
            "properties": {
                "ref:rspo": 64653,
                "official_name": "Centrum Kszta\u0142cenia Ustawicznego w Korzeczniku",
                "name": "Centrum Kszta\u0142cenia Ustawicznego w Korzeczniku",
                "addr:country": "PL",
                "addr:postcode": "62-650",
                "addr:place": "Korzecznik",
                "addr:housenumber": "41",
                "addr:teryt:sym_ul": 286953,
                "contact:phone": "+48 632735218",
                "contact:email": "sp-korzecznik@wp.pl",
                "contact:website": "http:\/\/www.korzecznik.eu",
                "ref:regon": "302270705",
                "ref:vatin": "PL6662009776",
                "operator": "Stowarzyszenie Na Rzecz Rozwoju I Integracji \u015arodowiska Lokalnego \"Z Edukacj\u0105 W Przysz\u0142o\u015b\u0107\"",
                "operator:type": "ngo",
                "amenity": "school",
                "fixme": "amenity=school lub amenity=college"
            }
        },
        {
            "id": 72426,
            "type": "Feature",
            "geometry": {
                "type": "Point",
                "coordinates": [
                    18.786594,
                    52.322227999999996
                ]
            },
            "properties": {
                "isced:level": "1;2",
                "ref:rspo": 72426,
                "official_name": "Szko\u0142a Podstawowa w Korzeczniku",
                "name": "Szko\u0142a Podstawowa w Korzeczniku",
                "addr:country": "PL",
                "addr:postcode": "62-650",
                "addr:place": "Korzecznik",
                "addr:housenumber": "41",
                "addr:teryt:sym_ul": 286953,
                "contact:phone": "+48 632735218",
                "contact:email": "sp-korzecznik@wp.pl",
                "contact:website": "http:\/\/www.korzecznik.eu\/",
                "ref:regon": "302262114",
                "ref:vatin": "PL6661984634",
                "operator": "Stowarzyszenie Na Rzecz Rozwoju I Integracji \u015arodowiska Lokalnego \"Z Edukacj\u0105 W Przysz\u0142o\u015b\u0107\"",
                "operator:type": "ngo",
                "amenity": "school"
            }
        },
        {
            "id": 129191,
            "type": "Feature",
            "geometry": {
                "type": "Point",
                "coordinates": [
                    18.786594,
                    52.322198
                ]
            },
            "properties": {
                "isced:level": "3",
                "ref:rspo": 129191,
                "official_name": "Bran\u017cowa Szko\u0142a I Stopnia",
                "name": "Bran\u017cowa Szko\u0142a I Stopnia",
                "addr:country": "PL",
                "addr:postcode": "62-650",
                "addr:place": "Korzecznik",
                "addr:housenumber": "41",
                "addr:teryt:sym_ul": 286953,
                "contact:phone": "+48 632735218",
                "contact:email": "sp-korzecznik@wp.pl",
                "contact:website": "http:\/\/www.korzecznik.eu",
                "ref:regon": "362506408",
                "operator": "Stowarzyszenie Na Rzecz Rozwoju I Integracji \u015arodowiska Lokalnego \"Z Edukacj\u0105 W Przysz\u0142o\u015b\u0107\"",
                "operator:type": "ngo",
                "amenity": "school"
            }
        },
        {
            "id": 103738,
            "type": "Feature",
            "geometry": {
                "type": "Point",
                "coordinates": [
                    18.789298,
                    52.325747
                ]
            },
            "properties": {
                "ref:rspo": 103738,
                "official_name": "Przedszkole Niepubliczne w Korzeczniku",
                "name": "Przedszkole Niepubliczne w Korzeczniku",
                "addr:country": "PL",
                "addr:postcode": "62-650",
                "addr:place": "Korzecznik",
                "addr:housenumber": "49",
                "addr:teryt:sym_ul": 286953,
                "contact:phone": "+48 632735218",
                "contact:email": "sp-korzecznik@wp.pl",
                "contact:website": "http:\/\/korzecznik.eu",
                "ref:regon": "302296567",
                "operator": "Stowarzyszenie Na Rzecz Rozwoju I Integracji \u015arodowiska Lokalnego \"Z Edukacj\u0105 W Przysz\u0142o\u015b\u0107\"",
                "operator:type": "ngo",
                "amenity": "kindergarten"
            }
        }
    ]
}