{
    "type": "FeatureCollection",
    "features": [
        {
            "id": 104213,
            "type": "Feature",
            "geometry": {
                "type": "Point",
                "coordinates": [
                    18.8225,
                    52.08753
                ]
            },
            "properties": {
                "ref:rspo": 104213,
                "official_name": "Przedszkole Miejskie w D\u0105biu",
                "name": "Przedszkole Miejskie w D\u0105biu",
                "addr:country": "PL",
                "addr:postcode": "62-660",
                "addr:city": "D\u0105bie",
                "addr:street": "1 Maja",
                "addr:housenumber": "4",
                "addr:teryt:simc": 948992,
                "addr:teryt:sym_ul": 11926,
                "contact:phone": "+48 632710043",
                "contact:email": "przedszkole.dabie@wp.pl",
                "contact:website": "http:\/\/www.przedszkoledabie.szkolnastrona.pl",
                "ref:regon": "310005279",
                "ref:vatin": "PL6661412719",
                "operator": "Gmina D\u0105bie",
                "operator:type": "government",
                "amenity": "kindergarten"
            }
        },
        {
            "id": 104211,
            "type": "Feature",
            "geometry": {
                "type": "Point",
                "coordinates": [
                    18.82247,
                    52.0876499
                ]
            },
            "properties": {
                "isced:level": "1;2",
                "ref:rspo": 104211,
                "official_name": "Szko\u0142a Podstawowa im. Jana Paw\u0142a II w D\u0105biu",
                "name": "Szko\u0142a Podstawowa",
                "addr:country": "PL",
                "addr:postcode": "62-660",
                "addr:city": "D\u0105bie",
                "addr:street": "3 Maja",
                "addr:housenumber": "6",
                "addr:teryt:simc": 948992,
                "addr:teryt:sym_ul": 11937,
                "contact:phone": "+48 632616488",
                "contact:email": "sp.dabie@interia.pl",
                "ref:regon": "000563134",
                "ref:vatin": "PL6661873047",
                "operator": "Gmina D\u0105bie",
                "operator:type": "government",
                "amenity": "school"
            }
        },
        {
            "id": 104210,
            "type": "Feature",
            "geometry": {
                "type": "Point",
                "coordinates": [
                    18.873777,
                    52.1054989
                ]
            },
            "properties": {
                "isced:level": "1;2",
                "ref:rspo": 104210,
                "official_name": "Szko\u0142a Podstawowa im. Stanis\u0142awa Miko\u0142ajczyka w Karszewie",
                "name": "Szko\u0142a Podstawowa",
                "addr:country": "PL",
                "addr:postcode": "62-660",
                "addr:place": "Kupinin",
                "addr:housenumber": "1",
                "addr:teryt:simc": 282524,
                "contact:phone": "+48 632616618",
                "contact:email": "spkarszew@poczta.fm",
                "contact:website": "http:\/\/spkarszew.szkolnastrona.pl",
                "ref:regon": "001166091",
                "ref:vatin": "PL6661873030",
                "operator": "Gmina D\u0105bie",
                "operator:type": "government",
                "amenity": "school"
            }
        },
        {
            "id": 104209,
            "type": "Feature",
            "geometry": {
                "type": "Point",
                "coordinates": [
                    18.74438,
                    52.11855
                ]
            },
            "properties": {
                "isced:level": "1;2",
                "ref:rspo": 104209,
                "official_name": "Szko\u0142a Podstawowa im. Adama Mickiewicza w Che\u0142mnie",
                "name": "Szko\u0142a Podstawowa",
                "addr:country": "PL",
                "addr:postcode": "62-660",
                "addr:place": "Che\u0142mno",
                "addr:housenumber": "89 B",
                "addr:teryt:simc": 282292,
                "contact:phone": "+48 632719460",
                "contact:email": "spchelmno@o2.pl",
                "ref:regon": "001166100",
                "ref:vatin": "PL6661873018",
                "operator": "Gmina D\u0105bie",
                "operator:type": "government",
                "amenity": "school"
            }
        }
    ]
}