{
    "type": "FeatureCollection",
    "features": [
        {
            "id": 34349,
            "type": "Feature",
            "geometry": {
                "type": "Point",
                "coordinates": [
                    18.682892,
                    52.18069
                ]
            },
            "properties": {
                "ref:rspo": 34349,
                "official_name": "Zesp\u00f3\u0142 Szk\u00f3\u0142 Centrum Kszta\u0142cenia Rolniczego w Powierciu",
                "name": "Zesp\u00f3\u0142 Szk\u00f3\u0142 Centrum Kszta\u0142cenia Rolniczego w Powierciu",
                "addr:postcode": "62-600",
                "addr:place": "Powiercie",
                "addr:housenumber": "31",
                "addr:teryt:simc": 287680,
                "phone": "+48 632615197",
                "email": "zsp_powiercie@o2.pl",
                "website": "http:\/\/www.powiercie.eu",
                "ref:regon": "000097590",
                "ref:vatin": "PL6661069316",
                "operator": "Ministerstwo Rolnictwa I Rozwoju Wsi",
                "operator:type": "public",
                "landuse": "education",
                "fixme": "amenity=school, amenity=college albo landuse=education w zale\u017cno\u015bci od tego, jakie plac\u00f3wki wchodz\u0105 w sk\u0142ad zespo\u0142u. Sprawd\u017a, kiedy stosowa\u0107 amenity=* a kiedy landuse=education.",
                "note": "Children RSPO: 104328;104329"
            }
        },
        {
            "id": 130453,
            "type": "Feature",
            "geometry": {
                "type": "Point",
                "coordinates": [
                    18.682892,
                    52.180659999999996
                ]
            },
            "properties": {
                "ref:rspo": 130453,
                "official_name": "Centrum Kszta\u0142cenia Ustawicznego w Powierciu",
                "name": "Centrum Kszta\u0142cenia Ustawicznego w Powierciu",
                "addr:postcode": "62-600",
                "addr:place": "Powiercie",
                "addr:housenumber": "31",
                "addr:teryt:simc": 287680,
                "phone": "+48 632615197",
                "email": "zsp_powiercie@o2.pl",
                "website": "http:\/\/www.powiercie.eu",
                "ref:regon": "364038957",
                "operator": "Ministerstwo Rolnictwa I Rozwoju Wsi",
                "operator:type": "public",
                "fixme": "w zale\u017cno\u015bci od przedmiotu dzia\u0142alno\u015bci (np. amenity=training + training=*, amenity=dancing_school, amenity=language_school, amenity=music_school)"
            }
        },
        {
            "id": 104328,
            "type": "Feature",
            "geometry": {
                "type": "Point",
                "coordinates": [
                    18.682892,
                    52.18063
                ]
            },
            "properties": {
                "isced:level": "3",
                "ref:rspo": 104328,
                "official_name": "Technikum im. Wilhelma Bali\u0144skiego w Powierciu",
                "name": "Technikum",
                "addr:postcode": "62-600",
                "addr:place": "Powiercie",
                "addr:housenumber": "31",
                "addr:teryt:simc": 287680,
                "phone": "+48 632615197",
                "email": "zsp_powiercie@o2.pl",
                "website": "http:\/\/www.powiercie.eu",
                "ref:regon": "311594645",
                "operator": "Ministerstwo Rolnictwa I Rozwoju Wsi",
                "operator:type": "public",
                "amenity": "school",
                "note": "Parent RSPO: 34349"
            }
        },
        {
            "id": 104329,
            "type": "Feature",
            "geometry": {
                "type": "Point",
                "coordinates": [
                    18.682892,
                    52.1806
                ]
            },
            "properties": {
                "isced:level": "3",
                "ref:rspo": 104329,
                "official_name": "Bran\u017cowa Szko\u0142a I Stopnia im. Wilhelma Bali\u0144skiego w Powierciu",
                "name": "Bran\u017cowa Szko\u0142a I Stopnia",
                "addr:postcode": "62-600",
                "addr:place": "Powiercie",
                "addr:housenumber": "31",
                "addr:teryt:simc": 287680,
                "phone": "+48 632615197",
                "email": "zsp_powiercie@o2.pl",
                "website": "http:\/\/www.powiercie.eu",
                "ref:regon": "300610410",
                "operator": "Ministerstwo Rolnictwa I Rozwoju Wsi",
                "operator:type": "public",
                "amenity": "school",
                "note": "Parent RSPO: 34349"
            }
        },
        {
            "id": 72293,
            "type": "Feature",
            "geometry": {
                "type": "Point",
                "coordinates": [
                    18.7330707,
                    52.2016464
                ]
            },
            "properties": {
                "ref:rspo": 72293,
                "official_name": "Przedszkole Publiczne w Powierciu",
                "name": "Przedszkole Publiczne w Powierciu",
                "addr:postcode": "62-600",
                "addr:place": "Powiercie",
                "addr:housenumber": "3",
                "addr:teryt:simc": 287680,
                "email": "przedszkole.powiercie@vp.pl",
                "website": "http:\/\/ppowiercie.szkolnastrona.pl",
                "ref:regon": "301135023",
                "ref:vatin": "PL6662077068",
                "operator": "Gmina Ko\u0142o",
                "operator:type": "government",
                "amenity": "kindergarten"
            }
        },
        {
            "id": 89305,
            "type": "Feature",
            "geometry": {
                "type": "Point",
                "coordinates": [
                    18.7330707,
                    52.2016164
                ]
            },
            "properties": {
                "isced:level": "1;2",
                "ref:rspo": 89305,
                "official_name": "Szko\u0142a Podstawowa im. Or\u0142a Bia\u0142ego w Powierciu",
                "name": "Szko\u0142a Podstawowa",
                "addr:postcode": "62-600",
                "addr:place": "Powiercie",
                "addr:housenumber": "3",
                "addr:teryt:simc": 287680,
                "phone": "+48 632728525",
                "email": "zs.powiercie@wp.pl",
                "website": "http:\/\/www.sppowiercie.pl",
                "ref:regon": "001144793",
                "operator": "Gmina Ko\u0142o",
                "operator:type": "government",
                "amenity": "school"
            }
        },
        {
            "id": 276766,
            "type": "Feature",
            "geometry": {
                "type": "Point",
                "coordinates": [
                    18.662502,
                    52.242759
                ]
            },
            "properties": {
                "isced:level": "1;2",
                "ref:rspo": 276766,
                "official_name": "Niepubliczna Integracyjna Szko\u0142a Podstawowa im. Marii Grzegorzewskiej",
                "name": "Niepubliczna Integracyjna Szko\u0142a Podstawowa",
                "addr:postcode": "62-600",
                "addr:place": "Czo\u0142owo",
                "addr:housenumber": "12",
                "addr:teryt:simc": 287349,
                "phone": "+48 666909263",
                "email": "sekretariat@niepublicznaintegracyjna.pl",
                "website": "http:\/\/www.niepublicznaintegracyjna.pl",
                "ref:regon": "387538194",
                "operator": "Karolina Ugarenko-\u017burawik",
                "operator:type": "private",
                "amenity": "school"
            }
        },
        {
            "id": 60534,
            "type": "Feature",
            "geometry": {
                "type": "Point",
                "coordinates": [
                    18.731915,
                    52.257715
                ]
            },
            "properties": {
                "isced:level": "1;2",
                "ref:rspo": 60534,
                "official_name": "Szko\u0142a Podstawowa w Kie\u0142czewie",
                "name": "Szko\u0142a Podstawowa w Kie\u0142czewie",
                "addr:postcode": "62-600",
                "addr:place": "Kie\u0142czew Smu\u017cny Pierwszy",
                "addr:housenumber": "42",
                "addr:teryt:simc": 287510,
                "phone": "+48 632625603",
                "email": "sp_kielczew@op.pl",
                "ref:regon": "001144787",
                "ref:vatin": "PL6661866900",
                "operator": "Gmina Ko\u0142o",
                "operator:type": "government",
                "amenity": "school"
            }
        },
        {
            "id": 60904,
            "type": "Feature",
            "geometry": {
                "type": "Point",
                "coordinates": [
                    18.672731,
                    52.267688
                ]
            },
            "properties": {
                "isced:level": "1;2",
                "ref:rspo": 60904,
                "official_name": "Szko\u0142a Podstawowa Im Tony Halika we Wrzacej Wielkiej",
                "name": "Szko\u0142a Podstawowa Im Tony Halika we Wrzacej Wielkiej",
                "addr:postcode": "62-600",
                "addr:place": "Wrz\u0105ca Wielka",
                "addr:housenumber": "124",
                "addr:teryt:simc": 287830,
                "phone": "+48 632615709",
                "email": "sphalik124@gmail.com",
                "website": "https:\/\/sp-halik.edupage.org\/",
                "ref:regon": "001144770",
                "ref:vatin": "PL6661866863",
                "operator": "Gmina Ko\u0142o",
                "operator:type": "government",
                "amenity": "school"
            }
        },
        {
            "id": 61545,
            "type": "Feature",
            "geometry": {
                "type": "Point",
                "coordinates": [
                    18.672731,
                    52.267658
                ]
            },
            "properties": {
                "ref:rspo": 61545,
                "official_name": "Przedszkole Publiczne we Wrz\u0105cej Wielkiej",
                "name": "Przedszkole Publiczne we Wrz\u0105cej Wielkiej",
                "addr:postcode": "62-600",
                "addr:place": "Wrz\u0105ca Wielka",
                "addr:housenumber": "124",
                "addr:teryt:simc": 287830,
                "phone": "+48 632610082",
                "email": "szuprzedszkole@interia.pl",
                "ref:regon": "301135112",
                "ref:vatin": "PL6662077074",
                "operator": "Gmina Ko\u0142o",
                "operator:type": "government",
                "amenity": "kindergarten"
            }
        },
        {
            "id": 262529,
            "type": "Feature",
            "geometry": {
                "type": "Point",
                "coordinates": [
                    18.7006199,
                    52.2819969
                ]
            },
            "properties": {
                "isced:level": "1;2",
                "ref:rspo": 262529,
                "official_name": "Szko\u0142a Podstawowa im. Idei Olimpijskiej w Soko\u0142owie",
                "name": "Szko\u0142a Podstawowa",
                "addr:postcode": "62-600",
                "addr:place": "Soko\u0142owo",
                "addr:housenumber": "55",
                "addr:teryt:simc": 287770,
                "phone": "+48 632627179",
                "email": "gimnazjum_sokolowo@poczta.onet.pl",
                "website": "http:\/\/www.spsokolowo.szkolnastrona.pl",
                "ref:regon": "368029470",
                "ref:vatin": "PL6662117922",
                "operator": "Gmina Ko\u0142o",
                "operator:type": "government",
                "amenity": "school"
            }
        }
    ]
}