{
    "type": "FeatureCollection",
    "features": [
        {
            "id": 86868,
            "type": "Feature",
            "geometry": {
                "type": "Point",
                "coordinates": [
                    18.552281,
                    52.23896
                ]
            },
            "properties": {
                "isced:level": "1;2",
                "ref:rspo": 86868,
                "official_name": "Szko\u0142a Podstawowa w Budkach Nowych",
                "name": "Szko\u0142a Podstawowa w Budkach Nowych",
                "addr:postcode": "62-600",
                "addr:place": "Nowe Budki",
                "addr:housenumber": "31",
                "addr:teryt:simc": 291049,
                "phone": "+48 632622266",
                "email": "spbn@wp.pl",
                "website": "http:\/\/www.spbudki.konin.pl",
                "ref:regon": "001189809",
                "ref:vatin": "PL6661866998",
                "operator": "Gmina Osiek Ma\u0142y",
                "operator:type": "government",
                "amenity": "school"
            }
        },
        {
            "id": 86872,
            "type": "Feature",
            "geometry": {
                "type": "Point",
                "coordinates": [
                    18.6170658,
                    52.2461049
                ]
            },
            "properties": {
                "isced:level": "1;2",
                "ref:rspo": 86872,
                "official_name": "Szko\u0142a Podstawowa w Osieku Wielkim",
                "name": "Szko\u0142a Podstawowa w Osieku Wielkim",
                "addr:postcode": "62-600",
                "addr:place": "Osiek Wielki",
                "addr:housenumber": "61",
                "addr:teryt:simc": 291115,
                "phone": "+48 632717801",
                "email": "sposiekwielki@o2.pl",
                "website": "http:\/\/www.sposiek.pl",
                "ref:regon": "001190221",
                "ref:vatin": "PL6661862397",
                "operator": "Gmina Osiek Ma\u0142y",
                "operator:type": "government",
                "amenity": "school"
            }
        },
        {
            "id": 86859,
            "type": "Feature",
            "geometry": {
                "type": "Point",
                "coordinates": [
                    18.550231,
                    52.2660459
                ]
            },
            "properties": {
                "isced:level": "1;2",
                "ref:rspo": 86859,
                "official_name": "Szko\u0142a Podstawowa w Drzewcach",
                "name": "Szko\u0142a Podstawowa w Drzewcach",
                "addr:postcode": "62-613",
                "addr:place": "Drzewce",
                "addr:housenumber": "41",
                "addr:teryt:simc": 290883,
                "phone": "+48 632717317",
                "email": "spdrzewce@interia.pl",
                "website": "http:\/\/www.szkoladrzewce.szkolnastrona.pl",
                "ref:regon": "001215398",
                "ref:vatin": "PL6661866840",
                "operator": "Gmina Osiek Ma\u0142y",
                "operator:type": "government",
                "amenity": "school"
            }
        },
        {
            "id": 111786,
            "type": "Feature",
            "geometry": {
                "type": "Point",
                "coordinates": [
                    18.6301439,
                    52.2694799
                ]
            },
            "properties": {
                "ref:rspo": 111786,
                "official_name": "Punkt Przedszkolny w Miejscowo\u015bci Rosocha",
                "name": "Punkt Przedszkolny w Miejscowo\u015bci Rosocha",
                "addr:postcode": "62-613",
                "addr:place": "Rosocha",
                "addr:housenumber": "11",
                "addr:teryt:simc": 291144,
                "phone": "+48 618436304",
                "website": "http:\/\/www.familijny.pl",
                "ref:regon": "302378242",
                "operator": "Dane Do Uzupe\u0142nienia",
                "operator:type": "private",
                "amenity": "kindergarten"
            }
        },
        {
            "id": 125974,
            "type": "Feature",
            "geometry": {
                "type": "Point",
                "coordinates": [
                    18.6301439,
                    52.2694499
                ]
            },
            "properties": {
                "ref:rspo": 125974,
                "official_name": "Publiczne Przedszkole '\"Familijna Rosocha\"",
                "name": "Publiczne Przedszkole '\"Familijna Rosocha\"",
                "addr:postcode": "62-613",
                "addr:place": "Rosocha",
                "addr:housenumber": "11",
                "addr:teryt:simc": 291144,
                "phone": "+48 618436304",
                "email": "rosocha@operator.edu.pl",
                "website": "http:\/\/www.familijny.pl",
                "ref:regon": "360136278",
                "operator": "Og\u00f3lnopolski Operator O\u015bwiaty",
                "operator:type": "ngo",
                "amenity": "kindergarten"
            }
        },
        {
            "id": 86877,
            "type": "Feature",
            "geometry": {
                "type": "Point",
                "coordinates": [
                    18.60045,
                    52.27505
                ]
            },
            "properties": {
                "ref:rspo": 86877,
                "official_name": "Przedszkole Samorz\u0105dowe w Osieku Ma\u0142ym",
                "name": "Przedszkole Samorz\u0105dowe w Osieku Ma\u0142ym",
                "addr:postcode": "62-613",
                "addr:city": "Osiek Ma\u0142y",
                "addr:street": "G\u0142\u00f3wna",
                "addr:housenumber": "1",
                "addr:teryt:simc": 291084,
                "addr:teryt:sym_ul": 5635,
                "phone": "+48 632624182",
                "email": "osiekmalyprzedszkole@wp.pl",
                "ref:regon": "000996784",
                "ref:vatin": "PL6661854771",
                "operator": "Gmina Osiek Ma\u0142y",
                "operator:type": "government",
                "amenity": "kindergarten"
            }
        },
        {
            "id": 90693,
            "type": "Feature",
            "geometry": {
                "type": "Point",
                "coordinates": [
                    18.6063319,
                    52.2923349
                ]
            },
            "properties": {
                "isced:level": "1;2",
                "ref:rspo": 90693,
                "official_name": "Szko\u0142a Podstawowa w D\u0119bach Szlacheckich",
                "name": "Szko\u0142a Podstawowa w D\u0119bach Szlacheckich",
                "addr:postcode": "62-613",
                "addr:place": "D\u0119by Szlacheckie",
                "addr:housenumber": "54",
                "addr:teryt:simc": 290877,
                "phone": "+48 632622487",
                "email": "sekretariat@spdeby.szkolnastrona.pl",
                "website": "http:\/\/www.spdeby.szkolnastrona.pl",
                "ref:regon": "000273399",
                "ref:vatin": "PL6661866834",
                "operator": "Gmina Osiek Ma\u0142y",
                "operator:type": "government",
                "amenity": "school"
            }
        },
        {
            "id": 86875,
            "type": "Feature",
            "geometry": {
                "type": "Point",
                "coordinates": [
                    18.505029,
                    52.293608
                ]
            },
            "properties": {
                "isced:level": "1;2",
                "ref:rspo": 86875,
                "official_name": "Szko\u0142a Podstawowa w \u0141uczywnie",
                "name": "Szko\u0142a Podstawowa w \u0141uczywnie",
                "addr:postcode": "62-613",
                "addr:place": "\u0141uczywno",
                "addr:housenumber": "4",
                "addr:teryt:simc": 290950,
                "phone": "+48 632623224",
                "email": "spluczywno@plocman.pl",
                "website": "http:\/\/www.spluczywno.szkolnastrona.pl",
                "ref:regon": "001189790",
                "ref:vatin": "PL6661862380",
                "operator": "Gmina Osiek Ma\u0142y",
                "operator:type": "government",
                "amenity": "school"
            }
        }
    ]
}