{"type":"FeatureCollection","features":[{"id":268402,"type":"Feature","geometry":{"type":"Point","coordinates":[18.64698,52.15244]},"properties":{"ref:rspo":268402,"official_name":"Zesp\u00f3\u0142 Szkolno-Przedszkolny","name":"Zesp\u00f3\u0142 Szkolno-Przedszkolny","addr:country":"PL","addr:postcode":"62-604","addr:city":"Ko\u015bcielec","addr:street":"ul. Szkolna","addr:housenumber":"9","addr:teryt:simc":21970,"addr:teryt:sym_ul":288030,"contact:phone":"+48 632716480","contact:email":"szkolakoscielec@o2pl","contact:website":"http:\/\/szkolakoscielec.szkolnastrona.pl","ref:regon":"381144436","ref:vatin":"PL6662120769","operator":"Gmina Ko\u015bcielec","operator:type":"government","landuse":"education","fixme":"amenity=school, amenity=college albo landuse=education w zale\u017cno\u015bci od tego, jakie plac\u00f3wki wchodz\u0105 w sk\u0142ad zespo\u0142u. Sprawd\u017a, kiedy stosowa\u0107 amenity=* a kiedy landuse=education.","note":"Children RSPO: 80501;268525"}},{"id":80501,"type":"Feature","geometry":{"type":"Point","coordinates":[18.64698,52.152409999999996]},"properties":{"isced:level":"1;2","ref:rspo":80501,"official_name":"Szko\u0142a Podstawowa w Zespole Szkolno-Przedszkolnym","name":"Szko\u0142a Podstawowa w Zespole Szkolno-Przedszkolnym","addr:country":"PL","addr:postcode":"62-604","addr:city":"Ko\u015bcielec","addr:street":"ul. Szkolna","addr:housenumber":"9","addr:teryt:simc":21970,"addr:teryt:sym_ul":288030,"contact:phone":"+48 632716480","contact:email":"szkolakoscielec@o2.pl","ref:regon":"000272490","ref:vatin":"PL6661901855","operator":"Gmina Ko\u015bcielec","operator:type":"government","amenity":"school","note":"Parent RSPO: 268402"}},{"id":268525,"type":"Feature","geometry":{"type":"Point","coordinates":[18.64698,52.15238]},"properties":{"ref:rspo":268525,"official_name":"Publiczne Przedszkole w Zespole Szkolno-Przedszkolnym","name":"Publiczne Przedszkole w Zespole Szkolno-Przedszkolnym","addr:country":"PL","addr:postcode":"62-604","addr:city":"Ko\u015bcielec","addr:street":"ul. Szkolna","addr:housenumber":"9","addr:teryt:simc":21970,"addr:teryt:sym_ul":288030,"contact:phone":"+48 632716480","contact:email":"szkolakoscielec@o2.pl","contact:website":"http:\/\/szkolakoscielec.szkolnastrona.pl","ref:regon":"381199207","operator":"Gmina Ko\u015bcielec","operator:type":"government","amenity":"kindergarten","note":"Parent RSPO: 268402"}},{"id":55666,"type":"Feature","geometry":{"type":"Point","coordinates":[18.57151,52.17251]},"properties":{"ref:rspo":55666,"official_name":"Zesp\u00f3\u0142 Szk\u00f3\u0142 Rolnicze Centrum Kszta\u0142cenia Ustawicznego im. Stanis\u0142awa Staszica w Ko\u015bcielcu","name":"Zesp\u00f3\u0142 Szk\u00f3\u0142 Rolnicze Centrum Kszta\u0142cenia Ustawicznego","addr:country":"PL","addr:postcode":"62-604","addr:city":"Ko\u015bcielec","addr:street":"ul. Ko\u015bcielna","addr:housenumber":"2","addr:teryt:simc":9546,"addr:teryt:sym_ul":288030,"contact:phone":"+48 632722897","contact:email":"zsrckukoscielec@gmail.com","contact:website":"http:\/\/www.zsrcku-koscielec.pl","ref:regon":"000097353","ref:vatin":"PL6661173172","operator":"Powiat Kolski","operator:type":"government","landuse":"education","fixme":"amenity=school, amenity=college albo landuse=education w zale\u017cno\u015bci od tego, jakie plac\u00f3wki wchodz\u0105 w sk\u0142ad zespo\u0142u. Sprawd\u017a, kiedy stosowa\u0107 amenity=* a kiedy landuse=education.","note":"Children RSPO: 107241;107247;107248;271496"}},{"id":107241,"type":"Feature","geometry":{"type":"Point","coordinates":[18.57151,52.17248]},"properties":{"isced:level":"3","ref:rspo":107241,"official_name":"Technikum Przy Zs Rcku w Ko\u015bcielcu","name":"Technikum Przy Zs Rcku w Ko\u015bcielcu","addr:country":"PL","addr:postcode":"62-604","addr:city":"Ko\u015bcielec","addr:street":"ul. Ko\u015bcielna","addr:housenumber":"2","addr:teryt:simc":9546,"addr:teryt:sym_ul":288030,"contact:phone":"+48 632722897","contact:email":"zsrckukoscielec@gmail.com","contact:website":"http:\/\/www.zsrcku-koscielec.pl","ref:regon":"302063633","ref:vatin":"PL6661173172","operator":"Powiat Kolski","operator:type":"government","amenity":"school","note":"Parent RSPO: 55666"}},{"id":107247,"type":"Feature","geometry":{"type":"Point","coordinates":[18.57151,52.172450000000005]},"properties":{"isced:level":"3","ref:rspo":107247,"official_name":"Liceum Og\u00f3lnokszta\u0142c\u0105ce Przy Zs Rcku w Ko\u015bcielcu","name":"Liceum Og\u00f3lnokszta\u0142c\u0105ce Przy Zs Rcku w Ko\u015bcielcu","addr:country":"PL","addr:postcode":"62-604","addr:city":"Ko\u015bcielec","addr:street":"ul. Ko\u015bcielna","addr:housenumber":"2","addr:teryt:simc":9546,"addr:teryt:sym_ul":288030,"contact:phone":"+48 632722897","contact:email":"zsrckukoscielec@gmail.com","contact:website":"http:\/\/www.zsrcku-koscielec.pl","ref:regon":"311595573","ref:vatin":"PL6661173172","operator":"Powiat Kolski","operator:type":"government","amenity":"school","note":"Parent RSPO: 55666"}},{"id":107248,"type":"Feature","geometry":{"type":"Point","coordinates":[18.57151,52.17242]},"properties":{"isced:level":"3","ref:rspo":107248,"official_name":"Bran\u017cowa Szko\u0142a I Stopnia Przy Zs Rcku w Ko\u015bcielcu","name":"Bran\u017cowa Szko\u0142a I Stopnia Przy Zs Rcku w Ko\u015bcielcu","addr:country":"PL","addr:postcode":"62-604","addr:city":"Ko\u015bcielec","addr:street":"ul. Ko\u015bcielna","addr:housenumber":"2","addr:teryt:simc":9546,"addr:teryt:sym_ul":288030,"contact:phone":"+48 632722897","contact:email":"zsrcekukoscielec@gmail.com","contact:website":"http:\/\/www.zsrcku-koscielec.pl","ref:regon":"300379645","ref:vatin":"PL6661173172","operator":"Powiat Kolski","operator:type":"government","amenity":"school","note":"Parent RSPO: 55666"}},{"id":271496,"type":"Feature","geometry":{"type":"Point","coordinates":[18.57151,52.17239]},"properties":{"ref:rspo":271496,"official_name":"Rolnicze Centrum Kszta\u0142cenia Ustawicznego","name":"Rolnicze Centrum Kszta\u0142cenia Ustawicznego","addr:country":"PL","addr:postcode":"62-604","addr:city":"Ko\u015bcielec","addr:street":"ul. Ko\u015bcielna","addr:housenumber":"2","addr:teryt:simc":9546,"addr:teryt:sym_ul":288030,"contact:phone":"+48 632722897","contact:email":"zsrckukoscielec@gmail.com","contact:website":"http:\/\/www.zsrcku-koscielec.pl","ref:regon":"383366750","ref:vatin":"PL6661173172","operator":"Powiat Kolski","operator:type":"government","amenity":"school","fixme":"amenity=school lub amenity=college","note":"Children RSPO: 107271;119529Parent RSPO: 55666"}},{"id":107271,"type":"Feature","geometry":{"type":"Point","coordinates":[18.57151,52.172360000000005]},"properties":{"isced:level":"4","ref:rspo":107271,"official_name":"Szko\u0142a Policealna","name":"Szko\u0142a Policealna","addr:country":"PL","addr:postcode":"62-604","addr:city":"Ko\u015bcielec","addr:street":"ul. Ko\u015bcielna","addr:housenumber":"2","addr:teryt:simc":9546,"addr:teryt:sym_ul":288030,"contact:phone":"+48 632722897","contact:email":"zsrckukoscielec@gmail.com","contact:website":"http:\/\/www.zsrcku-koscielec.pl","ref:regon":"301199112","ref:vatin":"PL6661173172","operator":"Powiat Kolski","operator:type":"government","amenity":"college","note":"Parent RSPO: 271496"}},{"id":119529,"type":"Feature","geometry":{"type":"Point","coordinates":[18.57151,52.17233]},"properties":{"isced:level":"3","ref:rspo":119529,"official_name":"Liceum Og\u00f3lnokszta\u0142c\u0105ce dla Doros\u0142ych","name":"Liceum Og\u00f3lnokszta\u0142c\u0105ce dla Doros\u0142ych","addr:country":"PL","addr:postcode":"62-604","addr:city":"Ko\u015bcielec","addr:street":"ul. Ko\u015bcielna","addr:housenumber":"2","addr:teryt:simc":9546,"addr:teryt:sym_ul":288030,"contact:phone":"+48 632722897","contact:email":"zsrckukoscielec@gmail.com","contact:website":"http:\/\/www.zsrcku-koscielec.pl","ref:regon":"302518690","ref:vatin":"PL6661173172","operator":"Powiat Kolski","operator:type":"government","amenity":"school","note":"Parent RSPO: 271496"}},{"id":27914,"type":"Feature","geometry":{"type":"Point","coordinates":[18.56909,52.17557]},"properties":{"isced:level":"3","ref:rspo":27914,"official_name":"Pa\u0144stwowe Liceum Sztuk Plastycznych w Ko\u015bcielcu","name":"Pa\u0144stwowe Liceum Sztuk Plastycznych w Ko\u015bcielcu","addr:country":"PL","addr:postcode":"62-604","addr:city":"Ko\u015bcielec","addr:street":"ul. D\u0142uga","addr:housenumber":"1","addr:teryt:simc":3839,"addr:teryt:sym_ul":288030,"contact:phone":"+48 632622900","contact:email":"sekretariat@plastyk-koscielec.pl","contact:website":"http:\/\/www.plastyk-koscielec.pl","ref:regon":"300040071","ref:vatin":"PL6662118005","operator":"Ministerstwo Kultury I Dziedzictwa Narodowego","operator:type":"public","amenity":"school"}},{"id":42454,"type":"Feature","geometry":{"type":"Point","coordinates":[18.515002,52.193925]},"properties":{"isced:level":"1;2","ref:rspo":42454,"official_name":"Szko\u0142a Podstawowa w Trz\u0119\u015bniewie","name":"Szko\u0142a Podstawowa w Trz\u0119\u015bniewie","addr:country":"PL","addr:postcode":"62-604","addr:place":"Trz\u0119\u015bniew","addr:housenumber":"24","addr:teryt:sym_ul":288194,"contact:phone":"+48 632621834","contact:email":"sptrzesniew@wp.pl","contact:website":"http:\/\/sptrzesniew.superszkolna.pl","ref:regon":"001210030","ref:vatin":"PL6661866923","operator":"Gmina Ko\u015bcielec","operator:type":"government","amenity":"school"}},{"id":42457,"type":"Feature","geometry":{"type":"Point","coordinates":[18.64161,52.19972]},"properties":{"isced:level":"1;2","ref:rspo":42457,"official_name":"Szko\u0142a Podstawowa w Dobrowie","name":"Szko\u0142a Podstawowa w Dobrowie","addr:country":"PL","addr:postcode":"62-604","addr:city":"Dobr\u00f3w","addr:street":"ul. Szkolna","addr:housenumber":"1","addr:teryt:simc":21970,"addr:teryt:sym_ul":287987,"contact:phone":"+48 632621229","contact:email":"dobrowsp@wp.pl","contact:website":"http:\/\/www.spdobrow.szkolnastrona.pl","ref:regon":"001210337","ref:vatin":"PL6661872993","operator":"Gmina Ko\u015bcielec","operator:type":"government","amenity":"school"}},{"id":42453,"type":"Feature","geometry":{"type":"Point","coordinates":[18.766645431519,52.237632751465]},"properties":{"isced:level":"1;2","ref:rspo":42453,"official_name":"Szko\u0142a Podstawowa w Ruszkowie Pierwszym","name":"Szko\u0142a Podstawowa w Ruszkowie Pierwszym","addr:country":"PL","addr:postcode":"62-604","addr:city":"Ruszk\u00f3w Pierwszy","addr:street":"ul. Brudzewska","addr:housenumber":"3","addr:teryt:simc":41497,"addr:teryt:sym_ul":288142,"contact:phone":"+48 632621531","contact:email":"spruszkow@wp.pl","contact:website":"http:\/\/spruszkow.szkolna.net","ref:regon":"001210024","ref:vatin":"PL6661951563","operator":"Gmina Ko\u015bcielec","operator:type":"government","amenity":"school"}}]}