{
    "type": "FeatureCollection",
    "features": [
        {
            "id": 31800,
            "type": "Feature",
            "geometry": {
                "type": "Point",
                "coordinates": [
                    22.56434,
                    53.78771
                ]
            },
            "properties": {
                "isced:level": "1;2",
                "ref:rspo": 31800,
                "official_name": "Szko\u0142a Podstawowa w Sypitkach",
                "name": "Szko\u0142a Podstawowa w Sypitkach",
                "addr:postcode": "19-314",
                "addr:place": "Sypitki",
                "addr:housenumber": "3",
                "addr:teryt:simc": 760024,
                "phone": "+48 876297001",
                "email": "sp_sypitki5@wp.pl",
                "website": "http:\/\/www.szkola.sypitki.pl",
                "ref:regon": "001164821",
                "ref:vatin": "PL8481613707",
                "operator": "Gmina Kalinowo",
                "operator:type": "government",
                "amenity": "school"
            }
        },
        {
            "id": 31401,
            "type": "Feature",
            "geometry": {
                "type": "Point",
                "coordinates": [
                    22.68609,
                    53.81853
                ]
            },
            "properties": {
                "isced:level": "1;2",
                "ref:rspo": 31401,
                "official_name": "Szko\u0142a Podstawowa im. Ks. Jerzego Popie\u0142uszki w Borzymach",
                "name": "Szko\u0142a Podstawowa",
                "addr:postcode": "19-314",
                "addr:place": "Borzymy",
                "addr:housenumber": "22",
                "addr:teryt:simc": 759535,
                "phone": "+48 876298296",
                "email": "spborzymy@poczta.onet.pl",
                "website": "http:\/\/spborzymy.superszkolna.pl",
                "ref:regon": "510887267",
                "ref:vatin": "PL8481613653",
                "operator": "Gmina Kalinowo",
                "operator:type": "government",
                "amenity": "school"
            }
        },
        {
            "id": 41648,
            "type": "Feature",
            "geometry": {
                "type": "Point",
                "coordinates": [
                    22.58004,
                    53.8228
                ]
            },
            "properties": {
                "isced:level": "1;2",
                "ref:rspo": 41648,
                "official_name": "Szko\u0142a Podstawowa im. Jana Paw\u0142a II w Pisanicy",
                "name": "Szko\u0142a Podstawowa",
                "addr:postcode": "19-314",
                "addr:place": "Pisanica",
                "addr:housenumber": "65",
                "addr:teryt:simc": 759890,
                "phone": "+48 876298392",
                "email": "zspisanica@interia.pl",
                "website": "http:\/\/www.zspisanica.netstrefa.eu",
                "ref:regon": "001164844",
                "ref:vatin": "PL8481870048",
                "operator": "Gmina Kalinowo",
                "operator:type": "government",
                "amenity": "school"
            }
        },
        {
            "id": 34909,
            "type": "Feature",
            "geometry": {
                "type": "Point",
                "coordinates": [
                    22.67166,
                    53.87352
                ]
            },
            "properties": {
                "isced:level": "1;2",
                "ref:rspo": 34909,
                "official_name": "Szko\u0142a Podstawowa im. Marii Konopnickiej w Kalinowie",
                "name": "Szko\u0142a Podstawowa",
                "addr:postcode": "19-314",
                "addr:city": "Kalinowo",
                "addr:street": "Micha\u0142a Kajki",
                "addr:housenumber": "1",
                "addr:teryt:simc": 759660,
                "addr:teryt:sym_ul": 7781,
                "phone": "+48 876298834",
                "email": "spkalinowo@poczta.onet.pl",
                "website": "http:\/\/spkalinowo.edupage.org",
                "ref:regon": "000266347",
                "ref:vatin": "PL8481188747",
                "operator": "Gmina Kalinowo",
                "operator:type": "government",
                "amenity": "school"
            }
        }
    ]
}