{
    "type": "FeatureCollection",
    "features": [
        {
            "id": 128511,
            "type": "Feature",
            "geometry": {
                "type": "Point",
                "coordinates": [
                    22.35238,
                    53.79865
                ]
            },
            "properties": {
                "ref:rspo": 128511,
                "official_name": "Niepubliczne Katolickie Przedszkole \"U Lolka\" im. \u015aw. Jana Paw\u0142a Ii",
                "name": "Niepubliczne Katolickie Przedszkole \"U Lolka\"",
                "addr:postcode": "19-300",
                "addr:city": "E\u0142k",
                "addr:street": "Jana Paw\u0142a II",
                "addr:housenumber": "23",
                "addr:city:simc": 977670,
                "addr:street:sym_ul": 7123,
                "phone": "+48 731028668",
                "email": "sekretariat@przedszkole.elk.pl",
                "website": "http:\/\/przedszkole.elk.pl",
                "ref:regon": "362302812",
                "operator": "Rzymskokatolicka Parafia Pw. \u015awi\u0119tego Jana Paw\u0142a Ii W E\u0142ku",
                "operator:type": "religious",
                "amenity": "kindergarten"
            }
        },
        {
            "id": 263294,
            "type": "Feature",
            "geometry": {
                "type": "Point",
                "coordinates": [
                    22.35831,
                    53.79906
                ]
            },
            "properties": {
                "ref:rspo": 263294,
                "official_name": "Przedszkole Niepubliczne \"T\u0119czowy Zak\u0105tek\"",
                "name": "Przedszkole Niepubliczne \"T\u0119czowy Zak\u0105tek\"",
                "addr:postcode": "19-300",
                "addr:city": "E\u0142k",
                "addr:street": "Matki Teresy z Kalkuty",
                "addr:housenumber": "3",
                "addr:door": "lok. 1",
                "addr:city:simc": 977670,
                "addr:street:sym_ul": 30162,
                "phone": "+48 669214118",
                "email": "przedszkole@teczowyzakatek.net.pl",
                "website": "http:\/\/teczowyzakatek.net.pl",
                "ref:regon": "368179011",
                "operator": "Aneta Szlaszy\u0144ska",
                "operator:type": "private",
                "amenity": "kindergarten"
            }
        },
        {
            "id": 274937,
            "type": "Feature",
            "geometry": {
                "type": "Point",
                "coordinates": [
                    22.3585,
                    53.79933
                ]
            },
            "properties": {
                "ref:rspo": 274937,
                "official_name": "Pierwsza Niepubliczna Poradnia Psychologiczna-Pedagogiczna Neuronek w E\u0142ku",
                "name": "Pierwsza Niepubliczna Poradnia Psychologiczna-Pedagogiczna Neuronek w E\u0142ku",
                "addr:postcode": "19-300",
                "addr:city": "E\u0142k",
                "addr:street": "Matki Teresy z Kalkuty",
                "addr:housenumber": "4",
                "addr:door": "3",
                "addr:city:simc": 977670,
                "addr:street:sym_ul": 30162,
                "email": "mjk.logoaudio@gmail.com",
                "ref:regon": "386420734",
                "operator": "Michalina Janczak-Kukowska",
                "operator:type": "private",
                "healthcare": "counselling",
                "counselling_type": "education",
                "fixme": "w zale\u017cno\u015bci od przedmiotu dzia\u0142alno\u015bci (np. healthcare=counselling + counselling_type=education albo healthcare=psychotherapist)"
            }
        },
        {
            "id": 274955,
            "type": "Feature",
            "geometry": {
                "type": "Point",
                "coordinates": [
                    22.3585,
                    53.799299999999995
                ]
            },
            "properties": {
                "ref:rspo": 274955,
                "official_name": "Pierwsze Niepubliczne Przedszkole Terapeutyczne \"Zaczarowany Ogr\u00f3d\" w E\u0142ku",
                "name": "Pierwsze Niepubliczne Przedszkole Terapeutyczne \"Zaczarowany Ogr\u00f3d\" w E\u0142ku",
                "addr:postcode": "19-300",
                "addr:city": "E\u0142k",
                "addr:street": "Matki Teresy z Kalkuty",
                "addr:housenumber": "4",
                "addr:door": "L3",
                "addr:city:simc": 977670,
                "addr:street:sym_ul": 30162,
                "phone": "+48 663919237",
                "email": "mjk.logoaudio@gmail.com",
                "ref:regon": "386430098",
                "operator": "Michalina Janczak-Kukowska",
                "operator:type": "private",
                "amenity": "kindergarten"
            }
        },
        {
            "id": 131609,
            "type": "Feature",
            "geometry": {
                "type": "Point",
                "coordinates": [
                    22.35789,
                    53.79952
                ]
            },
            "properties": {
                "ref:rspo": 131609,
                "official_name": "Niepubliczny Punkt Przedszkolny \"Akademia Rozwoju\"",
                "name": "Niepubliczny Punkt Przedszkolny \"Akademia Rozwoju\"",
                "addr:postcode": "19-300",
                "addr:city": "E\u0142k",
                "addr:street": "Matki Teresy z Kalkuty",
                "addr:housenumber": "6",
                "addr:door": "U2\/1B",
                "addr:city:simc": 977670,
                "addr:street:sym_ul": 30162,
                "phone": "+48 533867616",
                "email": "beataz05@wp.pl",
                "ref:regon": "365315420",
                "operator": "Beata Zieli\u0144ska",
                "operator:type": "private",
                "amenity": "kindergarten"
            }
        },
        {
            "id": 59001,
            "type": "Feature",
            "geometry": {
                "type": "Point",
                "coordinates": [
                    22.36014,
                    53.80139
                ]
            },
            "properties": {
                "ref:rspo": 59001,
                "official_name": "Miejskie Przedszkole \"Bajka\" w E\u0142ku",
                "name": "Miejskie Przedszkole \"Bajka\" w E\u0142ku",
                "addr:postcode": "19-300",
                "addr:city": "E\u0142k",
                "addr:street": "Ksi\u0119dza Jerzego Popie\u0142uszki",
                "addr:housenumber": "6",
                "addr:city:simc": 977670,
                "addr:street:sym_ul": 17149,
                "phone": "+48 877326471",
                "email": "przedszkole-bajkaelk@wp.pl",
                "website": "http:\/\/mpbajka.przedszkolowo.pl",
                "ref:regon": "280564760",
                "ref:vatin": "PL8481847724",
                "operator": "Gmina Miasto E\u0142k",
                "operator:type": "government",
                "amenity": "kindergarten"
            }
        },
        {
            "id": 111791,
            "type": "Feature",
            "geometry": {
                "type": "Point",
                "coordinates": [
                    22.36601,
                    53.8034
                ]
            },
            "properties": {
                "ref:rspo": 111791,
                "official_name": "Specjalny O\u015brodek Szkolno-Wychowawczy w E\u0142ku",
                "name": "Specjalny O\u015brodek Szkolno-Wychowawczy w E\u0142ku",
                "addr:postcode": "19-300",
                "addr:city": "E\u0142k",
                "addr:street": "Grajewska",
                "addr:housenumber": "16a",
                "addr:door": "-",
                "addr:city:simc": 977670,
                "addr:street:sym_ul": 6064,
                "phone": "+48 876103742",
                "email": "zss4elk@op.pl",
                "website": "http:\/\/soswmiastoelk.pl",
                "ref:regon": "511036092",
                "ref:vatin": "PL8481170977",
                "operator": "Powiat E\u0142cki",
                "operator:type": "government",
                "amenity": "school",
                "note": "Children RSPO: 124722;124736;124737"
            }
        },
        {
            "id": 124722,
            "type": "Feature",
            "geometry": {
                "type": "Point",
                "coordinates": [
                    22.36601,
                    53.80337
                ]
            },
            "properties": {
                "isced:level": "1;2",
                "ref:rspo": 124722,
                "official_name": "Szko\u0142a Podstawowa Nr 1 Specjalna",
                "name": "Szko\u0142a Podstawowa Nr 1 Specjalna",
                "addr:postcode": "19-300",
                "addr:city": "E\u0142k",
                "addr:street": "Grajewska",
                "addr:housenumber": "16A",
                "addr:door": "-",
                "addr:city:simc": 977670,
                "addr:street:sym_ul": 6064,
                "phone": "+48 876103742",
                "email": "zss4elk@op.pl",
                "website": "http:\/\/sosw.miasto.elk.pl",
                "ref:regon": "519462747",
                "operator": "Powiat E\u0142cki",
                "operator:type": "government",
                "amenity": "school",
                "note": "Parent RSPO: 111791"
            }
        },
        {
            "id": 124736,
            "type": "Feature",
            "geometry": {
                "type": "Point",
                "coordinates": [
                    22.36601,
                    53.803340000000006
                ]
            },
            "properties": {
                "isced:level": "3",
                "ref:rspo": 124736,
                "official_name": "Bran\u017cowa Szko\u0142a I Stopnia Specjalna w E\u0142ku",
                "name": "Bran\u017cowa Szko\u0142a I Stopnia Specjalna w E\u0142ku",
                "addr:postcode": "19-300",
                "addr:city": "E\u0142k",
                "addr:street": "Grajewska",
                "addr:housenumber": "16A",
                "addr:city:simc": 977670,
                "addr:street:sym_ul": 6064,
                "phone": "+48 876103742",
                "email": "zss4elk@op.pl",
                "website": "http:\/\/sosw.miasto.elk.pl",
                "ref:regon": "519462760",
                "operator": "Powiat E\u0142cki",
                "operator:type": "government",
                "amenity": "school",
                "note": "Parent RSPO: 111791"
            }
        },
        {
            "id": 124737,
            "type": "Feature",
            "geometry": {
                "type": "Point",
                "coordinates": [
                    22.36601,
                    53.80331
                ]
            },
            "properties": {
                "ref:rspo": 124737,
                "official_name": "Szko\u0142a Specjalna Przysposabiaj\u0105ca Do Pracy",
                "name": "Szko\u0142a Specjalna Przysposabiaj\u0105ca Do Pracy",
                "addr:postcode": "19-300",
                "addr:city": "E\u0142k",
                "addr:street": "Grajewska",
                "addr:housenumber": "16A",
                "addr:door": "-",
                "addr:city:simc": 977670,
                "addr:street:sym_ul": 6064,
                "phone": "+48 876103742",
                "email": "zss4elk@op.pl",
                "website": "http:\/\/sosw.miasto.elk.pl",
                "ref:regon": "519625675",
                "operator": "Powiat E\u0142cki",
                "operator:type": "government",
                "amenity": "school",
                "note": "Parent RSPO: 111791"
            }
        },
        {
            "id": 42379,
            "type": "Feature",
            "geometry": {
                "type": "Point",
                "coordinates": [
                    22.36386,
                    53.80875
                ]
            },
            "properties": {
                "isced:level": "1;2",
                "ref:rspo": 42379,
                "official_name": "Szko\u0142a Podstawowa Nr 7 Z Oddzia\u0142ami Integracyjnymi w E\u0142ku",
                "name": "Szko\u0142a Podstawowa Nr 7 Z Oddzia\u0142ami Integracyjnymi w E\u0142ku",
                "addr:postcode": "19-300",
                "addr:city": "E\u0142k",
                "addr:street": "Jana Kili\u0144skiego",
                "addr:housenumber": "48",
                "addr:city:simc": 977670,
                "addr:street:sym_ul": 8435,
                "phone": "+48 877326090",
                "email": "sp7@elk.edu.pl",
                "website": "http:\/\/www.sp7.elk.edu.pl",
                "ref:regon": "001325721",
                "ref:vatin": "PL8481135337",
                "operator": "Gmina Miasto E\u0142k",
                "operator:type": "government",
                "amenity": "school"
            }
        },
        {
            "id": 58981,
            "type": "Feature",
            "geometry": {
                "type": "Point",
                "coordinates": [
                    22.36386,
                    53.80872
                ]
            },
            "properties": {
                "ref:rspo": 58981,
                "official_name": "Przedszkole Nr 1 \"Ekoludki\" w E\u0142ku",
                "name": "Przedszkole Nr 1 \"Ekoludki\" w E\u0142ku",
                "addr:postcode": "19-300",
                "addr:city": "E\u0142k",
                "addr:street": "Jana Kili\u0144skiego",
                "addr:housenumber": "48",
                "addr:city:simc": 977670,
                "addr:street:sym_ul": 8435,
                "phone": "+48 877326430",
                "email": "ekoludki@o2.pl",
                "website": "http:\/\/www.ekoludki.elk.edu.pl",
                "ref:regon": "280570832",
                "ref:vatin": "PL8481848020",
                "operator": "Gmina Miasto E\u0142k",
                "operator:type": "government",
                "amenity": "kindergarten"
            }
        },
        {
            "id": 129396,
            "type": "Feature",
            "geometry": {
                "type": "Point",
                "coordinates": [
                    22.3604999,
                    53.80934
                ]
            },
            "properties": {
                "ref:rspo": 129396,
                "official_name": "Tanmuz",
                "name": "Tanmuz",
                "addr:postcode": "19-300",
                "addr:city": "E\u0142k",
                "addr:street": "Pi\u0119kna",
                "addr:housenumber": "18",
                "addr:door": "-",
                "addr:city:simc": 977670,
                "addr:street:sym_ul": 16191,
                "phone": "+48 875204282",
                "email": "tanmuz@tanmuz.pl",
                "website": "http:\/\/tanmuz.pl",
                "ref:regon": "362585098",
                "ref:vatin": "PL8471138848",
                "operator": "Bogus\u0142aw Szlaszy\u0144ski",
                "operator:type": "private",
                "fixme": "w zale\u017cno\u015bci od przedmiotu dzia\u0142alno\u015bci (np. amenity=training + training=*, amenity=dancing_school, amenity=language_school, amenity=music_school)"
            }
        },
        {
            "id": 269623,
            "type": "Feature",
            "geometry": {
                "type": "Point",
                "coordinates": [
                    22.36274,
                    53.81184
                ]
            },
            "properties": {
                "ref:rspo": 269623,
                "official_name": "Przedszkole Niepubliczne Akademia U\u015bmiechu",
                "name": "Przedszkole Niepubliczne Akademia U\u015bmiechu",
                "addr:postcode": "19-300",
                "addr:city": "E\u0142k",
                "addr:street": "Jana Kili\u0144skiego",
                "addr:housenumber": "21C",
                "addr:city:simc": 977670,
                "addr:street:sym_ul": 8435,
                "phone": "+48 507580819",
                "email": "biuro@akademiausmiechu.edu.pl",
                "website": "http:\/\/www.akademiausmiechu.edu.pl",
                "ref:regon": "381603387",
                "operator": "Aleksandra Bogdziewicz",
                "operator:type": "private",
                "amenity": "kindergarten"
            }
        },
        {
            "id": 196223,
            "type": "Feature",
            "geometry": {
                "type": "Point",
                "coordinates": [
                    22.3571199,
                    53.81186
                ]
            },
            "properties": {
                "isced:level": "1;2",
                "ref:rspo": 196223,
                "official_name": "Szko\u0142a Podstawowa Nr 1 w E\u0142ku",
                "name": "Szko\u0142a Podstawowa Nr 1 w E\u0142ku",
                "addr:postcode": "19-300",
                "addr:city": "E\u0142k",
                "addr:street": "Koszykowa",
                "addr:housenumber": "1",
                "addr:city:simc": 977670,
                "addr:street:sym_ul": 9537,
                "phone": "+48 877326414",
                "email": "sp1@elk.edu.pl",
                "website": "http:\/\/sp1.elk.edu.pl\/",
                "ref:regon": "367988487",
                "operator": "Gmina Miasto E\u0142k",
                "operator:type": "government",
                "amenity": "school"
            }
        },
        {
            "id": 263314,
            "type": "Feature",
            "geometry": {
                "type": "Point",
                "coordinates": [
                    22.36543,
                    53.81235
                ]
            },
            "properties": {
                "ref:rspo": 263314,
                "official_name": "Przedszkole Niepubliczne Ba\u015bniowy Las",
                "name": "Przedszkole Niepubliczne Ba\u015bniowy Las",
                "addr:postcode": "19-300",
                "addr:city": "E\u0142k",
                "addr:street": "Jana Kochanowskiego",
                "addr:housenumber": "44",
                "addr:city:simc": 977670,
                "addr:street:sym_ul": 8728,
                "phone": "+48 501208487",
                "email": "przedszkole@basniowylas.pl",
                "website": "http:\/\/www.basniowylas.pl",
                "ref:regon": "368179583",
                "operator": "Barbara Bala",
                "operator:type": "private",
                "amenity": "kindergarten"
            }
        },
        {
            "id": 112171,
            "type": "Feature",
            "geometry": {
                "type": "Point",
                "coordinates": [
                    22.36103,
                    53.81334
                ]
            },
            "properties": {
                "ref:rspo": 112171,
                "official_name": "Centrum Kszta\u0142cenia Zawodowego w E\u0142ku",
                "name": "Centrum Kszta\u0142cenia Zawodowego w E\u0142ku",
                "addr:postcode": "19-300",
                "addr:city": "E\u0142k",
                "addr:street": "Jana Matejki",
                "addr:housenumber": "1",
                "addr:door": "-",
                "addr:city:simc": 977670,
                "addr:street:sym_ul": 12489,
                "phone": "+48 876217878",
                "email": "sekretariat@ckpiu.pl",
                "website": "http:\/\/ckz.elk.pl",
                "ref:regon": "519468069",
                "ref:vatin": "PL8481756418",
                "operator": "Powiat E\u0142cki",
                "operator:type": "government",
                "amenity": "school",
                "fixme": "amenity=school lub amenity=college",
                "note": "Children RSPO: 264120;265891"
            }
        },
        {
            "id": 264120,
            "type": "Feature",
            "geometry": {
                "type": "Point",
                "coordinates": [
                    22.36103,
                    53.813309999999994
                ]
            },
            "properties": {
                "isced:level": "4",
                "ref:rspo": 264120,
                "official_name": "Szko\u0142a Policealna Nr 7 w E\u0142ku",
                "name": "Szko\u0142a Policealna Nr 7 w E\u0142ku",
                "addr:postcode": "19-300",
                "addr:city": "E\u0142k",
                "addr:street": "Jana Matejki",
                "addr:housenumber": "1",
                "addr:city:simc": 977670,
                "addr:street:sym_ul": 12489,
                "phone": "+48 876217878",
                "email": "sekretariat@ckpiu.pl",
                "website": "http:\/\/ckz.elk.pl",
                "ref:regon": "519504291",
                "operator": "Powiat E\u0142cki",
                "operator:type": "government",
                "amenity": "college",
                "note": "Parent RSPO: 112171"
            }
        },
        {
            "id": 265891,
            "type": "Feature",
            "geometry": {
                "type": "Point",
                "coordinates": [
                    22.36103,
                    53.81328
                ]
            },
            "properties": {
                "isced:level": "1;2",
                "ref:rspo": 265891,
                "official_name": "Szko\u0142a Podstawowa dla Doros\u0142ych w E\u0142ku",
                "name": "Szko\u0142a Podstawowa dla Doros\u0142ych w E\u0142ku",
                "addr:postcode": "19-300",
                "addr:city": "E\u0142k",
                "addr:street": "Jana Matejki",
                "addr:housenumber": "1",
                "addr:city:simc": 977670,
                "addr:street:sym_ul": 12489,
                "phone": "+48 876217878",
                "email": "sekretariat@ckpiu.pl",
                "website": "http:\/\/ckz.elk.pl",
                "ref:regon": "368988220",
                "operator": "Powiat E\u0142cki",
                "operator:type": "government",
                "amenity": "school",
                "note": "Parent RSPO: 112171"
            }
        },
        {
            "id": 49671,
            "type": "Feature",
            "geometry": {
                "type": "Point",
                "coordinates": [
                    22.36091,
                    53.81601
                ]
            },
            "properties": {
                "ref:rspo": 49671,
                "official_name": "Abc Akademia Przedszkolaka Niepubliczne Przedszkole J\u0119zykowe",
                "name": "Abc Akademia Przedszkolaka Niepubliczne Przedszkole J\u0119zykowe",
                "addr:postcode": "19-300",
                "addr:city": "E\u0142k",
                "addr:street": "Targowa",
                "addr:housenumber": "18",
                "addr:door": "20",
                "addr:city:simc": 977670,
                "addr:street:sym_ul": 22659,
                "phone": "+48 603526098",
                "email": "przedszkolepotapczyk@gmail.com",
                "website": "http:\/\/www.potapczyk.pl",
                "ref:regon": "281438081",
                "ref:vatin": "PL8481112520",
                "operator": "Abc Akademia Przedszkolaka, Szko\u0142a J\u0119zyk\u00f3w Obcych El\u017cbieta Potapczyk",
                "operator:type": "consortium",
                "amenity": "kindergarten"
            }
        },
        {
            "id": 44171,
            "type": "Feature",
            "geometry": {
                "type": "Point",
                "coordinates": [
                    22.35707,
                    53.81673
                ]
            },
            "properties": {
                "isced:level": "1;2",
                "ref:rspo": 44171,
                "official_name": "Szko\u0142a Podstawowa Specjalna Zgromadzenia Si\u00f3str Benedyktynek Misjonarek w E\u0142ku",
                "name": "Szko\u0142a Podstawowa Specjalna Zgromadzenia Si\u00f3str Benedyktynek Misjonarek w E\u0142ku",
                "addr:postcode": "19-300",
                "addr:city": "E\u0142k",
                "addr:street": "Jana Kili\u0144skiego",
                "addr:housenumber": "2",
                "addr:city:simc": 977670,
                "addr:street:sym_ul": 8435,
                "phone": "+48 876102039",
                "email": "sps.zsbm@eol.pl",
                "ref:regon": "281444526",
                "ref:vatin": "PL8481631757",
                "operator": "Zgromadzenie Si\u00f3str Benedyktynek Misjonarek,Dom Generalny",
                "operator:type": "religious",
                "amenity": "school"
            }
        },
        {
            "id": 196211,
            "type": "Feature",
            "geometry": {
                "type": "Point",
                "coordinates": [
                    22.35707,
                    53.8167
                ]
            },
            "properties": {
                "ref:rspo": 196211,
                "official_name": "Szko\u0142a Specjalna Przysposabiaj\u0105ca Do Pracy Zgromadzenia Si\u00f3str Benedyktynek Misjonarek w E\u0142ku",
                "name": "Szko\u0142a Specjalna Przysposabiaj\u0105ca Do Pracy Zgromadzenia Si\u00f3str Benedyktynek Misjonarek w E\u0142ku",
                "addr:postcode": "19-300",
                "addr:city": "E\u0142k",
                "addr:street": "Jana Kili\u0144skiego",
                "addr:housenumber": "2",
                "addr:door": "-",
                "addr:city:simc": 977670,
                "addr:street:sym_ul": 8435,
                "phone": "+48 876102039",
                "email": "smariaosb@gmail.com",
                "website": "http:\/\/teczowydom.elk.pl",
                "ref:regon": "367996788",
                "operator": "Zgromadzenie Si\u00f3str Benedyktynek Misjonarek,Dom Generalny",
                "operator:type": "religious",
                "amenity": "school"
            }
        },
        {
            "id": 44175,
            "type": "Feature",
            "geometry": {
                "type": "Point",
                "coordinates": [
                    22.35629,
                    53.82009
                ]
            },
            "properties": {
                "ref:rspo": 44175,
                "official_name": "O\u015brodek Kszta\u0142cenia Ustawicznego E\u0142ckiego Forum Wspierania Samozatrudnienia Bezrobotnych w E\u0142ku",
                "name": "O\u015brodek Kszta\u0142cenia Ustawicznego E\u0142ckiego Forum Wspierania Samozatrudnienia Bezrobotnych w E\u0142ku",
                "addr:postcode": "19-300",
                "addr:city": "E\u0142k",
                "addr:street": "Stary Rynek",
                "addr:housenumber": "8",
                "addr:door": "-",
                "addr:city:simc": 977670,
                "addr:street:sym_ul": 21032,
                "phone": "+48 876213471",
                "email": "forumelk@op.pl",
                "ref:regon": "281437800",
                "ref:vatin": "PL8481135509",
                "operator": "E\u0142ckie Forum Wspierania Samozatrudnienia Bezrobotnych",
                "operator:type": "ngo",
                "fixme": "w zale\u017cno\u015bci od przedmiotu dzia\u0142alno\u015bci (np. amenity=training + training=*, amenity=dancing_school, amenity=language_school, amenity=music_school)"
            }
        },
        {
            "id": 44176,
            "type": "Feature",
            "geometry": {
                "type": "Point",
                "coordinates": [
                    22.35629,
                    53.82006
                ]
            },
            "properties": {
                "isced:level": "4",
                "ref:rspo": 44176,
                "official_name": "Studium Obs\u0142ugi Celnej w E\u0142ku",
                "name": "Studium Obs\u0142ugi Celnej w E\u0142ku",
                "addr:postcode": "19-300",
                "addr:city": "E\u0142k",
                "addr:street": "Stary Rynek",
                "addr:housenumber": "8",
                "addr:door": "-",
                "addr:city:simc": 977670,
                "addr:street:sym_ul": 21032,
                "phone": "+48 876213471",
                "email": "elkforum_edu@wp.pl",
                "ref:regon": "281441769",
                "ref:vatin": "PL8481135509",
                "operator": "E\u0142ckie Forum Wspierania Samozatrudnienia Bezrobotnych",
                "operator:type": "ngo",
                "amenity": "college"
            }
        },
        {
            "id": 125334,
            "type": "Feature",
            "geometry": {
                "type": "Point",
                "coordinates": [
                    22.34675,
                    53.82045
                ]
            },
            "properties": {
                "ref:rspo": 125334,
                "official_name": "Niepubliczne Przedszkole Pod Weso\u0142\u0105 Chmurk\u0105",
                "name": "Niepubliczne Przedszkole Pod Weso\u0142\u0105 Chmurk\u0105",
                "addr:postcode": "19-300",
                "addr:city": "E\u0142k",
                "addr:street": "Wojska Polskiego",
                "addr:housenumber": "45",
                "addr:city:simc": 977670,
                "addr:street:sym_ul": 24628,
                "phone": "+48 506353301",
                "email": "punkt.elk@caritas.pl",
                "website": "http:\/\/npp-caritas-elk.przedszkolowo.pl",
                "ref:regon": "281627422",
                "ref:vatin": "PL8481465879",
                "operator": "Caritas Diecezji E\u0142ckiej",
                "operator:type": "religious",
                "amenity": "kindergarten"
            }
        },
        {
            "id": 131604,
            "type": "Feature",
            "geometry": {
                "type": "Point",
                "coordinates": [
                    22.3510199,
                    53.82061
                ]
            },
            "properties": {
                "ref:rspo": 131604,
                "official_name": "Niepubliczne Przedszkole Plastu\u015b",
                "name": "Niepubliczne Przedszkole Plastu\u015b",
                "addr:postcode": "19-300",
                "addr:city": "E\u0142k",
                "addr:street": "Juliusza S\u0142owackiego",
                "addr:housenumber": "28",
                "addr:city:simc": 977670,
                "addr:street:sym_ul": 20291,
                "phone": "+48 535352930",
                "email": "kontakt@punktplastus.pl",
                "website": "http:\/\/www.punktplastus.pl",
                "ref:regon": "365315212",
                "operator": "Gra\u017cyna Jarosz",
                "operator:type": "private",
                "amenity": "kindergarten"
            }
        },
        {
            "id": 58840,
            "type": "Feature",
            "geometry": {
                "type": "Point",
                "coordinates": [
                    22.35005,
                    53.82145
                ]
            },
            "properties": {
                "ref:rspo": 58840,
                "official_name": "Miejskie Przedszkole \"Niezapominajka\" w E\u0142ku",
                "name": "Miejskie Przedszkole \"Niezapominajka\" w E\u0142ku",
                "addr:postcode": "19-300",
                "addr:city": "E\u0142k",
                "addr:street": "Juliusza S\u0142owackiego",
                "addr:housenumber": "18",
                "addr:city:simc": 977670,
                "addr:street:sym_ul": 20291,
                "phone": "+48 877326478",
                "email": "mpn3@o2.pl",
                "website": "http:\/\/www.mpn.elk.edu.pl",
                "ref:regon": "280564620",
                "ref:vatin": "PL8481847575",
                "operator": "Gmina Miasto E\u0142k",
                "operator:type": "government",
                "amenity": "kindergarten"
            }
        },
        {
            "id": 263188,
            "type": "Feature",
            "geometry": {
                "type": "Point",
                "coordinates": [
                    22.35825,
                    53.82152
                ]
            },
            "properties": {
                "isced:level": "3",
                "ref:rspo": 263188,
                "official_name": "Liceum Og\u00f3lnokszta\u0142c\u0105ce dla Doros\u0142ych w E\u0142ku",
                "name": "Liceum Og\u00f3lnokszta\u0142c\u0105ce dla Doros\u0142ych w E\u0142ku",
                "addr:postcode": "19-300",
                "addr:city": "E\u0142k",
                "addr:street": "Tadeusza Ko\u015bciuszki",
                "addr:housenumber": "25",
                "addr:city:simc": 977670,
                "addr:street:sym_ul": 9582,
                "phone": "+48 877775001",
                "email": "szkola.beta@onet.pl",
                "ref:regon": "368118417",
                "operator": "Ewa W\u00f3jcik",
                "operator:type": "private",
                "amenity": "school"
            }
        },
        {
            "id": 58771,
            "type": "Feature",
            "geometry": {
                "type": "Point",
                "coordinates": [
                    22.34892,
                    53.82178
                ]
            },
            "properties": {
                "ref:rspo": 58771,
                "official_name": "Miejskie Przedszkole \"Pere\u0142ka\" im. Jana Brzechwy w E\u0142ku",
                "name": "Miejskie Przedszkole \"Pere\u0142ka\"",
                "addr:postcode": "19-300",
                "addr:city": "E\u0142k",
                "addr:street": "Armii Krajowej",
                "addr:housenumber": "4",
                "addr:city:simc": 977670,
                "addr:street:sym_ul": 432,
                "phone": "+48 877326485",
                "email": "przedszkole2@elk.edu.pl",
                "website": "http:\/\/www.perelka.elk.edu.pl",
                "ref:regon": "280564636",
                "ref:vatin": "PL8481847569",
                "operator": "Gmina Miasto E\u0142k",
                "operator:type": "government",
                "amenity": "kindergarten"
            }
        },
        {
            "id": 35294,
            "type": "Feature",
            "geometry": {
                "type": "Point",
                "coordinates": [
                    22.34865,
                    53.82192
                ]
            },
            "properties": {
                "ref:rspo": 35294,
                "official_name": "Zesp\u00f3\u0142 Szk\u00f3\u0142 Mechaniczno-Elektrycznych w E\u0142ku",
                "name": "Zesp\u00f3\u0142 Szk\u00f3\u0142 Mechaniczno-Elektrycznych w E\u0142ku",
                "addr:postcode": "19-300",
                "addr:city": "E\u0142k",
                "addr:street": "Armii Krajowej",
                "addr:housenumber": "1",
                "addr:door": "-",
                "addr:city:simc": 977670,
                "addr:street:sym_ul": 432,
                "phone": "+48 876103109",
                "email": "zsme@elk.edu.pl",
                "website": "http:\/\/zsme.elk.edu.pl",
                "ref:regon": "000181007",
                "ref:vatin": "PL8481166912",
                "operator": "Powiat E\u0142cki",
                "operator:type": "government",
                "landuse": "education",
                "fixme": "amenity=school, amenity=college albo landuse=education w zale\u017cno\u015bci od tego, jakie plac\u00f3wki wchodz\u0105 w sk\u0142ad zespo\u0142u. Sprawd\u017a, kiedy stosowa\u0107 amenity=* a kiedy landuse=education.",
                "note": "Children RSPO: 124716;124718;276939"
            }
        },
        {
            "id": 124716,
            "type": "Feature",
            "geometry": {
                "type": "Point",
                "coordinates": [
                    22.34865,
                    53.821889999999996
                ]
            },
            "properties": {
                "isced:level": "3",
                "ref:rspo": 124716,
                "official_name": "Technikum Nr 6 w E\u0142ku",
                "name": "Technikum Nr 6 w E\u0142ku",
                "addr:postcode": "19-300",
                "addr:city": "E\u0142k",
                "addr:street": "Armii Krajowej",
                "addr:housenumber": "1",
                "addr:door": "-",
                "addr:city:simc": 977670,
                "addr:street:sym_ul": 432,
                "phone": "+48 876103109",
                "email": "zsme@elk.edu.pl",
                "website": "http:\/\/zsme.elk.edu.pl",
                "ref:regon": "519652070",
                "operator": "Powiat E\u0142cki",
                "operator:type": "government",
                "amenity": "school",
                "note": "Parent RSPO: 35294"
            }
        },
        {
            "id": 124718,
            "type": "Feature",
            "geometry": {
                "type": "Point",
                "coordinates": [
                    22.34865,
                    53.82186
                ]
            },
            "properties": {
                "isced:level": "3",
                "ref:rspo": 124718,
                "official_name": "Bran\u017cowa Szko\u0142a I Stopnia Nr 4 w E\u0142ku",
                "name": "Bran\u017cowa Szko\u0142a I Stopnia Nr 4 w E\u0142ku",
                "addr:postcode": "19-300",
                "addr:city": "E\u0142k",
                "addr:street": "Armii Krajowej",
                "addr:housenumber": "1",
                "addr:city:simc": 977670,
                "addr:street:sym_ul": 432,
                "phone": "+48 876103109",
                "email": "zsme@elk.edu.pl",
                "website": "http:\/\/zsme.elk.edu.pl",
                "ref:regon": "519472935",
                "operator": "Powiat E\u0142cki",
                "operator:type": "government",
                "amenity": "school",
                "note": "Parent RSPO: 35294"
            }
        },
        {
            "id": 276939,
            "type": "Feature",
            "geometry": {
                "type": "Point",
                "coordinates": [
                    22.34865,
                    53.82183
                ]
            },
            "properties": {
                "isced:level": "3",
                "ref:rspo": 276939,
                "official_name": "Bran\u017cowa Szko\u0142a II Stopnia Nr 4 w E\u0142ku",
                "name": "Bran\u017cowa Szko\u0142a II Stopnia Nr 4 w E\u0142ku",
                "addr:postcode": "19-300",
                "addr:city": "E\u0142k",
                "addr:street": "Armii Krajowej",
                "addr:housenumber": "1",
                "addr:city:simc": 977670,
                "addr:street:sym_ul": 432,
                "phone": "+48 876103109",
                "email": "zsme@elk.edu.pl",
                "website": "http:\/\/zsme.elk.edu.pl",
                "ref:regon": "387862090",
                "operator": "Powiat E\u0142cki",
                "operator:type": "government",
                "amenity": "school",
                "note": "Parent RSPO: 35294"
            }
        },
        {
            "id": 41178,
            "type": "Feature",
            "geometry": {
                "type": "Point",
                "coordinates": [
                    22.351619720459,
                    53.822578430176
                ]
            },
            "properties": {
                "isced:level": "1;2",
                "ref:rspo": 41178,
                "official_name": "Szko\u0142a Podstawowa Nr 5 im. Marii Konopnickiej w E\u0142ku",
                "name": "Szko\u0142a Podstawowa Nr 5",
                "addr:postcode": "19-300",
                "addr:city": "E\u0142k",
                "addr:street": "\u015awi\u0119tego Maksymiliana Marii Kolbe",
                "addr:housenumber": "11",
                "addr:city:simc": 977670,
                "addr:street:sym_ul": 31856,
                "phone": "+48 877326071",
                "email": "sp5elk@onet.pl",
                "website": "http:\/\/www.sp5.elk.edu.pl",
                "ref:regon": "000720326",
                "ref:vatin": "PL8481131569",
                "operator": "Gmina Miasto E\u0142k",
                "operator:type": "government",
                "amenity": "school"
            }
        },
        {
            "id": 270186,
            "type": "Feature",
            "geometry": {
                "type": "Point",
                "coordinates": [
                    22.351619720459,
                    53.822548430176
                ]
            },
            "properties": {
                "ref:rspo": 270186,
                "official_name": "Centrum Szkoleniowe Kreator",
                "name": "Centrum Szkoleniowe Kreator",
                "addr:postcode": "19-300",
                "addr:city": "E\u0142k",
                "addr:street": "\u015awi\u0119tego Maksymiliana Marii Kolbe",
                "addr:housenumber": "11",
                "addr:city:simc": 977670,
                "addr:street:sym_ul": 31856,
                "email": "kreator@kreator.elk.pl",
                "website": "http:\/\/kreator.elk.pl",
                "ref:regon": "382158653",
                "operator": "Przemys\u0142aw Oszczapi\u0144ski",
                "operator:type": "private",
                "fixme": "w zale\u017cno\u015bci od przedmiotu dzia\u0142alno\u015bci (np. amenity=training + training=*, amenity=dancing_school, amenity=language_school, amenity=music_school)"
            }
        },
        {
            "id": 22232,
            "type": "Feature",
            "geometry": {
                "type": "Point",
                "coordinates": [
                    22.35517,
                    53.82353
                ]
            },
            "properties": {
                "ref:rspo": 22232,
                "official_name": "Zesp\u00f3\u0142 Pa\u0144stwowych Szk\u00f3\u0142 Muzycznych w E\u0142ku",
                "name": "Zesp\u00f3\u0142 Pa\u0144stwowych Szk\u00f3\u0142 Muzycznych w E\u0142ku",
                "addr:postcode": "19-300",
                "addr:city": "E\u0142k",
                "addr:street": "Armii Krajowej",
                "addr:housenumber": "21",
                "addr:city:simc": 977670,
                "addr:street:sym_ul": 432,
                "phone": "+48 876103623",
                "email": "psmelk@o2.pl",
                "website": "http:\/\/psmelk.edupage.org",
                "ref:regon": "280326820",
                "operator": "Ministerstwo Kultury I Dziedzictwa Narodowego",
                "operator:type": "public",
                "landuse": "education",
                "fixme": "amenity=school, amenity=college albo landuse=education w zale\u017cno\u015bci od tego, jakie plac\u00f3wki wchodz\u0105 w sk\u0142ad zespo\u0142u. Sprawd\u017a, kiedy stosowa\u0107 amenity=* a kiedy landuse=education.",
                "note": "Children RSPO: 92901;92902"
            }
        },
        {
            "id": 92901,
            "type": "Feature",
            "geometry": {
                "type": "Point",
                "coordinates": [
                    22.35517,
                    53.823499999999996
                ]
            },
            "properties": {
                "ref:rspo": 92901,
                "official_name": "Pa\u0144stwowa Szko\u0142a Muzyczna I St. w E\u0142ku",
                "name": "Pa\u0144stwowa Szko\u0142a Muzyczna I St. w E\u0142ku",
                "addr:postcode": "19-300",
                "addr:city": "E\u0142k",
                "addr:street": "Armii Krajowej",
                "addr:housenumber": "21",
                "addr:city:simc": 977670,
                "addr:street:sym_ul": 432,
                "phone": "+48 876103623",
                "ref:regon": "000280502",
                "operator": "Ministerstwo Kultury I Dziedzictwa Narodowego",
                "operator:type": "public",
                "amenity": "music_school",
                "note": "Parent RSPO: 22232"
            }
        },
        {
            "id": 92902,
            "type": "Feature",
            "geometry": {
                "type": "Point",
                "coordinates": [
                    22.35517,
                    53.82347
                ]
            },
            "properties": {
                "ref:rspo": 92902,
                "official_name": "Pa\u0144stwowa Szko\u0142a Muzyczna II St. w E\u0142ku",
                "name": "Pa\u0144stwowa Szko\u0142a Muzyczna II St. w E\u0142ku",
                "addr:postcode": "19-300",
                "addr:city": "E\u0142k",
                "addr:street": "Armii Krajowej",
                "addr:housenumber": "21",
                "addr:city:simc": 977670,
                "addr:street:sym_ul": 432,
                "phone": "+48 876103623",
                "email": "psmelk@o2.pl",
                "website": "https:\/\/psmelk.edupage.org",
                "ref:regon": "280326813",
                "operator": "Ministerstwo Kultury I Dziedzictwa Narodowego",
                "operator:type": "public",
                "amenity": "music_school",
                "note": "Parent RSPO: 22232"
            }
        },
        {
            "id": 73020,
            "type": "Feature",
            "geometry": {
                "type": "Point",
                "coordinates": [
                    22.35213,
                    53.82367
                ]
            },
            "properties": {
                "isced:level": "1;2",
                "ref:rspo": 73020,
                "official_name": "Szko\u0142a Podstawowa Nr 2 im. Danuty Siedzik\u00f3wny \"Inki\" w E\u0142ku",
                "name": "Szko\u0142a Podstawowa Nr 2",
                "addr:postcode": "19-300",
                "addr:city": "E\u0142k",
                "addr:street": "Jana i Hieronima Ma\u0142eckich",
                "addr:housenumber": "1",
                "addr:city:simc": 977670,
                "addr:street:sym_ul": 12142,
                "phone": "+48 877326020",
                "email": "dyr_sp2@op.pl",
                "website": "http:\/\/sp2elk.edupage.org",
                "ref:regon": "000720303",
                "ref:vatin": "PL8481131463",
                "operator": "Gmina Miasto E\u0142k",
                "operator:type": "government",
                "amenity": "school"
            }
        },
        {
            "id": 269553,
            "type": "Feature",
            "geometry": {
                "type": "Point",
                "coordinates": [
                    22.35169,
                    53.82419
                ]
            },
            "properties": {
                "ref:rspo": 269553,
                "official_name": "Abc Akademia Przedszkolaka, Szko\u0142a J\u0119zyk\u00f3w Obcych El\u017cbieta Potapczyk",
                "name": "Abc Akademia Przedszkolaka, Szko\u0142a J\u0119zyk\u00f3w Obcych El\u017cbieta Potapczyk",
                "addr:postcode": "19-300",
                "addr:city": "E\u0142k",
                "addr:street": "Jana i Hieronima Ma\u0142eckich",
                "addr:housenumber": "2",
                "addr:city:simc": 977670,
                "addr:street:sym_ul": 12142,
                "phone": "+48 603526098",
                "email": "pota@gazeta.pl",
                "website": "http:\/\/potapczyk.pl",
                "ref:regon": "381544740",
                "operator": "Abc Akademia Przedszkolaka, Szko\u0142a J\u0119zyk\u00f3w Obcych El\u017cbieta Potapczyk",
                "operator:type": "consortium",
                "fixme": "w zale\u017cno\u015bci od przedmiotu dzia\u0142alno\u015bci (np. amenity=training + training=*, amenity=dancing_school, amenity=language_school, amenity=music_school)"
            }
        },
        {
            "id": 274934,
            "type": "Feature",
            "geometry": {
                "type": "Point",
                "coordinates": [
                    22.35153,
                    53.82444
                ]
            },
            "properties": {
                "ref:rspo": 274934,
                "official_name": "Centrum Kszta\u0142cenia Ustawicznego Akademia Wnib",
                "name": "Centrum Kszta\u0142cenia Ustawicznego Akademia Wnib",
                "addr:postcode": "19-300",
                "addr:city": "E\u0142k",
                "addr:street": "Jana i Hieronima Ma\u0142eckich",
                "addr:housenumber": "3",
                "addr:door": "2",
                "addr:city:simc": 977670,
                "addr:street:sym_ul": 12142,
                "phone": "+48 572222004",
                "email": "biuro@fundacjawnb.org.pl",
                "website": "http:\/\/fundacjawnb.org.pl",
                "ref:regon": "386420332",
                "operator": "Fundacja Wsparcia Nauki I Biznesu",
                "operator:type": "ngo",
                "fixme": "w zale\u017cno\u015bci od przedmiotu dzia\u0142alno\u015bci (np. amenity=training + training=*, amenity=dancing_school, amenity=language_school, amenity=music_school)"
            }
        },
        {
            "id": 44189,
            "type": "Feature",
            "geometry": {
                "type": "Point",
                "coordinates": [
                    22.35952,
                    53.82456
                ]
            },
            "properties": {
                "isced:level": "3",
                "ref:rspo": 44189,
                "official_name": "Technikum Zak\u0142adu Doskonalenia Zawodowego w Bia\u0142ymstoku Z Siedzib\u0105 w E\u0142ku",
                "name": "Technikum Zak\u0142adu Doskonalenia Zawodowego w Bia\u0142ymstoku Z Siedzib\u0105 w E\u0142ku",
                "addr:postcode": "19-300",
                "addr:city": "E\u0142k",
                "addr:street": "Armii Krajowej",
                "addr:housenumber": "43",
                "addr:door": "-",
                "addr:city:simc": 977670,
                "addr:street:sym_ul": 432,
                "phone": "+48 876202610",
                "email": "elk@zdz.bialystok.pl",
                "website": "http:\/\/zdz.bialystok.pl\/elk",
                "ref:regon": "281441893",
                "ref:vatin": "PL5420000305",
                "operator": "Zak\u0142ad Doskonalenia Zawodowego",
                "operator:type": "ngo",
                "amenity": "school"
            }
        },
        {
            "id": 44190,
            "type": "Feature",
            "geometry": {
                "type": "Point",
                "coordinates": [
                    22.35952,
                    53.824529999999996
                ]
            },
            "properties": {
                "isced:level": "3",
                "ref:rspo": 44190,
                "official_name": "Liceum Og\u00f3lnokszta\u0142c\u0105cego dla Doros\u0142ych Zak\u0142adu Doskonalenia Zawodowego w Bia\u0142ymstoku Z Siedzib\u0105 w E\u0142ku",
                "name": "Liceum Og\u00f3lnokszta\u0142c\u0105cego dla Doros\u0142ych Zak\u0142adu Doskonalenia Zawodowego w Bia\u0142ymstoku Z Siedzib\u0105 w E\u0142ku",
                "addr:postcode": "19-300",
                "addr:city": "E\u0142k",
                "addr:street": "Armii Krajowej",
                "addr:housenumber": "43",
                "addr:door": "-",
                "addr:city:simc": 977670,
                "addr:street:sym_ul": 432,
                "phone": "+48 876202610",
                "email": "elk@zdz.bialystok.pl",
                "website": "http:\/\/zdz.bialystok.pl\/elk",
                "ref:regon": "281441924",
                "ref:vatin": "PL5420000305",
                "operator": "Zak\u0142ad Doskonalenia Zawodowego",
                "operator:type": "ngo",
                "amenity": "school"
            }
        },
        {
            "id": 44191,
            "type": "Feature",
            "geometry": {
                "type": "Point",
                "coordinates": [
                    22.35952,
                    53.8245
                ]
            },
            "properties": {
                "isced:level": "3",
                "ref:rspo": 44191,
                "official_name": "Liceum Og\u00f3lnokszta\u0142c\u0105ce Zak\u0142adu Doskonalenia Zawodowego w Bia\u0142ymstoku Z Siedzib\u0105 w E\u0142ku",
                "name": "Liceum Og\u00f3lnokszta\u0142c\u0105ce Zak\u0142adu Doskonalenia Zawodowego w Bia\u0142ymstoku Z Siedzib\u0105 w E\u0142ku",
                "addr:postcode": "19-300",
                "addr:city": "E\u0142k",
                "addr:street": "Armii Krajowej",
                "addr:housenumber": "43",
                "addr:door": "-",
                "addr:city:simc": 977670,
                "addr:street:sym_ul": 432,
                "phone": "+48 876202610",
                "email": "elk@zdz.bialystok.pl",
                "website": "http:\/\/zdz.bialystok.pl\/elk",
                "ref:regon": "281441930",
                "ref:vatin": "PL5420000305",
                "operator": "Zak\u0142ad Doskonalenia Zawodowego",
                "operator:type": "ngo",
                "amenity": "school"
            }
        },
        {
            "id": 127639,
            "type": "Feature",
            "geometry": {
                "type": "Point",
                "coordinates": [
                    22.35952,
                    53.82447
                ]
            },
            "properties": {
                "ref:rspo": 127639,
                "official_name": "O\u015brodek Kszta\u0142cenia Zawodowego Zdz w Bia\u0142ymstoku Z\/S w E\u0142ku",
                "name": "O\u015brodek Kszta\u0142cenia Zawodowego Zdz w Bia\u0142ymstoku Z\/S w E\u0142ku",
                "addr:postcode": "19-300",
                "addr:city": "E\u0142k",
                "addr:street": "Armii Krajowej",
                "addr:housenumber": "43",
                "addr:door": "-",
                "addr:city:simc": 977670,
                "addr:street:sym_ul": 432,
                "phone": "+48 876202610",
                "email": "elk@zdz.bialystok.pl",
                "website": "http:\/\/elk.zdz.bialystok.pl",
                "ref:regon": "361793073",
                "operator": "Zak\u0142ad Doskonalenia Zawodowego",
                "operator:type": "ngo",
                "fixme": "w zale\u017cno\u015bci od przedmiotu dzia\u0142alno\u015bci (np. amenity=training + training=*, amenity=dancing_school, amenity=language_school, amenity=music_school) albo amenity=school, amenity=college, albo landuse=education w zale\u017cno\u015bci od tego, jakie plac\u00f3wki wchodz\u0105 w sk\u0142ad zespo\u0142u. Sprawd\u017a, kiedy stosowa\u0107 amenity=* a kiedy landuse=education."
            }
        },
        {
            "id": 44170,
            "type": "Feature",
            "geometry": {
                "type": "Point",
                "coordinates": [
                    22.35016,
                    53.82495
                ]
            },
            "properties": {
                "ref:rspo": 44170,
                "official_name": "Centrum Szkolenia Zawodowego Uniwers",
                "name": "Centrum Szkolenia Zawodowego Uniwers",
                "addr:postcode": "19-300",
                "addr:city": "E\u0142k",
                "addr:street": "Adama Mickiewicza",
                "addr:housenumber": "15",
                "addr:door": "-",
                "addr:city:simc": 977670,
                "addr:street:sym_ul": 12740,
                "phone": "+48 876212960",
                "email": "uniwerselk@interia.pl",
                "website": "http:\/\/szkoleniauniwers.pl",
                "ref:regon": "281492896",
                "ref:vatin": "PL8451063337",
                "operator": "Agnieszka Stankiewicz",
                "operator:type": "private",
                "fixme": "w zale\u017cno\u015bci od przedmiotu dzia\u0142alno\u015bci (np. amenity=training + training=*, amenity=dancing_school, amenity=language_school, amenity=music_school)"
            }
        },
        {
            "id": 35291,
            "type": "Feature",
            "geometry": {
                "type": "Point",
                "coordinates": [
                    22.34919,
                    53.82556
                ]
            },
            "properties": {
                "isced:level": "3",
                "ref:rspo": 35291,
                "official_name": "I Liceum Og\u00f3lnokszta\u0142c\u0105ce im. Stefana \u017beromskiego w E\u0142ku",
                "name": "I Liceum Og\u00f3lnokszta\u0142c\u0105ce",
                "addr:postcode": "19-300",
                "addr:city": "E\u0142k",
                "addr:street": "Marsza\u0142ka J\u00f3zefa Pi\u0142sudskiego",
                "addr:housenumber": "3",
                "addr:door": "-",
                "addr:city:simc": 977670,
                "addr:street:sym_ul": 16274,
                "phone": "+48 876103030",
                "email": "lo1@elk.edu.pl",
                "website": "http:\/\/lo1elk.pl",
                "ref:regon": "519457893",
                "ref:vatin": "PL8481135389",
                "operator": "Powiat E\u0142cki",
                "operator:type": "government",
                "amenity": "school"
            }
        },
        {
            "id": 72996,
            "type": "Feature",
            "geometry": {
                "type": "Point",
                "coordinates": [
                    22.34574,
                    53.82698
                ]
            },
            "properties": {
                "isced:level": "1;2",
                "ref:rspo": 72996,
                "official_name": "Szko\u0142a Podstawowa Nr 4 im. Prof. W\u0142. Szafera w E\u0142ku",
                "name": "Szko\u0142a Podstawowa Nr 4",
                "addr:postcode": "19-300",
                "addr:city": "E\u0142k",
                "addr:street": "Profesora W\u0142adys\u0142awa Szafera",
                "addr:housenumber": "2",
                "addr:city:simc": 977670,
                "addr:street:sym_ul": 28049,
                "phone": "+48 877326050",
                "email": "sp4@elk.edu.pl",
                "website": "http:\/\/www.sp4.elk.edu.pl",
                "ref:regon": "000720310",
                "ref:vatin": "PL8481131492",
                "operator": "Gmina Miasto E\u0142k",
                "operator:type": "government",
                "amenity": "school"
            }
        },
        {
            "id": 111792,
            "type": "Feature",
            "geometry": {
                "type": "Point",
                "coordinates": [
                    22.33971,
                    53.8272
                ]
            },
            "properties": {
                "ref:rspo": 111792,
                "official_name": "Mi\u0119dzyszkolny O\u015brodek Sportowy w E\u0142ku",
                "name": "Mi\u0119dzyszkolny O\u015brodek Sportowy w E\u0142ku",
                "addr:postcode": "19-300",
                "addr:city": "E\u0142k",
                "addr:street": "Grunwaldzka",
                "addr:housenumber": "10",
                "addr:door": "-",
                "addr:city:simc": 977670,
                "addr:street:sym_ul": 6260,
                "email": "mos-elk@o2.pl",
                "website": "http:\/\/mos.elk.pl",
                "ref:regon": "790038060",
                "ref:vatin": "PL8481533894",
                "operator": "Powiat E\u0142cki",
                "operator:type": "government",
                "leisure": "sports_centre"
            }
        },
        {
            "id": 44177,
            "type": "Feature",
            "geometry": {
                "type": "Point",
                "coordinates": [
                    22.34131,
                    53.82751
                ]
            },
            "properties": {
                "isced:level": "4",
                "ref:rspo": 44177,
                "official_name": "Policealne Studium Przedsi\u0119biorczo\u015bci I Zarz\u0105dzania w E\u0142ku",
                "name": "Policealne Studium Przedsi\u0119biorczo\u015bci I Zarz\u0105dzania w E\u0142ku",
                "addr:postcode": "19-300",
                "addr:city": "E\u0142k",
                "addr:street": "Grunwaldzka",
                "addr:housenumber": "1",
                "addr:door": "-",
                "addr:city:simc": 977670,
                "addr:street:sym_ul": 6260,
                "phone": "+48 876213471",
                "email": "elkforum_edu@wp.pl",
                "ref:regon": "281441746",
                "ref:vatin": "PL8481135509",
                "operator": "E\u0142ckie Forum Wspierania Samozatrudnienia Bezrobotnych",
                "operator:type": "ngo",
                "amenity": "college"
            }
        },
        {
            "id": 127784,
            "type": "Feature",
            "geometry": {
                "type": "Point",
                "coordinates": [
                    22.34131,
                    53.827479999999994
                ]
            },
            "properties": {
                "isced:level": "3",
                "ref:rspo": 127784,
                "official_name": "Liceum Og\u00f3lnokszta\u0142c\u0105ce dla M\u0142odzie\u017cy Centrum Edukacji Mundurowej Wsfiz E\u0142k",
                "name": "Liceum Og\u00f3lnokszta\u0142c\u0105ce dla M\u0142odzie\u017cy Centrum Edukacji Mundurowej Wsfiz E\u0142k",
                "addr:postcode": "19-300",
                "addr:city": "E\u0142k",
                "addr:street": "Grunwaldzka",
                "addr:housenumber": "1",
                "addr:door": "-",
                "addr:city:simc": 977670,
                "addr:street:sym_ul": 6260,
                "phone": "+48 876218093",
                "email": "cem.elk.sekretariat@gmail.com",
                "website": "http:\/\/cem.elk.pl",
                "ref:regon": "361840720",
                "operator": "Wy\u017csza Szko\u0142a Finans\u00f3w I Zarz\u0105dzania W Bia\u0142ymstoku",
                "operator:type": "public",
                "amenity": "school"
            }
        },
        {
            "id": 123246,
            "type": "Feature",
            "geometry": {
                "type": "Point",
                "coordinates": [
                    22.34062,
                    53.82775
                ]
            },
            "properties": {
                "ref:rspo": 123246,
                "official_name": "Przedszkole Niepubliczne \"Ciekawi \u015awiata\"",
                "name": "Przedszkole Niepubliczne \"Ciekawi \u015awiata\"",
                "addr:postcode": "19-300",
                "addr:city": "E\u0142k",
                "addr:street": "Grunwaldzka",
                "addr:housenumber": "4",
                "addr:city:simc": 977670,
                "addr:street:sym_ul": 6260,
                "phone": "+48 517472130",
                "ref:regon": "281599140",
                "operator": "\"Przedszkole Niepubliczne Ciekawi \u015awiata Duba Edyta\" Sp\u00f3\u0142ka Z Ograniczon\u0105 Odpowiedzialno\u015bci\u0105",
                "operator:type": "private",
                "amenity": "kindergarten"
            }
        },
        {
            "id": 278706,
            "type": "Feature",
            "geometry": {
                "type": "Point",
                "coordinates": [
                    22.36383,
                    53.82804
                ]
            },
            "properties": {
                "ref:rspo": 278706,
                "official_name": "Niepubliczny Punkt Przedszkolny \"Niebieska Akademia\"",
                "name": "Niepubliczny Punkt Przedszkolny \"Niebieska Akademia\"",
                "addr:postcode": "19-300",
                "addr:city": "E\u0142k",
                "addr:street": "Suwalska",
                "addr:housenumber": "11",
                "addr:door": "U1",
                "addr:city:simc": 977670,
                "addr:street:sym_ul": 21614,
                "phone": "+48 512525790",
                "email": "ewielgat@gmail.com",
                "ref:regon": "520046525",
                "operator": "Ewa R\u00f3\u017cy\u0144ska",
                "operator:type": "private",
                "amenity": "kindergarten"
            }
        },
        {
            "id": 44174,
            "type": "Feature",
            "geometry": {
                "type": "Point",
                "coordinates": [
                    22.3535,
                    53.82825
                ]
            },
            "properties": {
                "ref:rspo": 44174,
                "official_name": "Atest Szkolenia, Obs\u0142uga Firm Beata Maria Choj\u0119ta",
                "name": "Atest Szkolenia, Obs\u0142uga Firm Beata Maria Choj\u0119ta",
                "addr:postcode": "19-300",
                "addr:city": "E\u0142k",
                "addr:street": "Gda\u0144ska",
                "addr:housenumber": "24A",
                "addr:door": "2",
                "addr:city:simc": 977670,
                "addr:street:sym_ul": 5431,
                "phone": "+48 876104646",
                "email": "atestelk@vp.pl",
                "ref:regon": "281437791",
                "ref:vatin": "PL8481082144",
                "operator": "Beata Choj\u0119ta",
                "operator:type": "private",
                "fixme": "w zale\u017cno\u015bci od przedmiotu dzia\u0142alno\u015bci (np. amenity=training + training=*, amenity=dancing_school, amenity=language_school, amenity=music_school)"
            }
        },
        {
            "id": 59960,
            "type": "Feature",
            "geometry": {
                "type": "Point",
                "coordinates": [
                    22.36554,
                    53.82858
                ]
            },
            "properties": {
                "ref:rspo": 59960,
                "official_name": "Zesp\u00f3\u0142 Szk\u00f3\u0142 Sportowych w E\u0142ku",
                "name": "Zesp\u00f3\u0142 Szk\u00f3\u0142 Sportowych w E\u0142ku",
                "addr:postcode": "19-300",
                "addr:city": "E\u0142k",
                "addr:street": "Suwalska",
                "addr:housenumber": "15",
                "addr:city:simc": 977670,
                "addr:street:sym_ul": 21614,
                "phone": "+48 877326370",
                "email": "sekretariat@zss.elk.pl",
                "website": "http:\/\/zss.elk.pl",
                "ref:regon": "790371285",
                "ref:vatin": "PL8481553112",
                "operator": "Gmina Miasto E\u0142k",
                "operator:type": "government",
                "landuse": "education",
                "fixme": "amenity=school, amenity=college albo landuse=education w zale\u017cno\u015bci od tego, jakie plac\u00f3wki wchodz\u0105 w sk\u0142ad zespo\u0142u. Sprawd\u017a, kiedy stosowa\u0107 amenity=* a kiedy landuse=education.",
                "note": "Children RSPO: 72605;72606"
            }
        },
        {
            "id": 272927,
            "type": "Feature",
            "geometry": {
                "type": "Point",
                "coordinates": [
                    22.36554,
                    53.82855
                ]
            },
            "properties": {
                "ref:rspo": 272927,
                "official_name": "Zesp\u00f3\u0142 Szk\u00f3\u0142 \"Pascal\" w E\u0142ku",
                "name": "Zesp\u00f3\u0142 Szk\u00f3\u0142 \"Pascal\" w E\u0142ku",
                "addr:postcode": "19-300",
                "addr:city": "E\u0142k",
                "addr:street": "Suwalska",
                "addr:housenumber": "15",
                "addr:city:simc": 977670,
                "addr:street:sym_ul": 21614,
                "phone": "+48 873000444",
                "email": "elk@pascal.edu.pl",
                "website": "http:\/\/pascal.edu.pl",
                "ref:regon": "384321815",
                "operator": "Apprendi Sp\u00f3\u0142ka Z Ograniczon\u0105 Odpowiedzialno\u015bci\u0105",
                "operator:type": "private",
                "landuse": "education",
                "fixme": "amenity=school, amenity=college albo landuse=education w zale\u017cno\u015bci od tego, jakie plac\u00f3wki wchodz\u0105 w sk\u0142ad zespo\u0142u. Sprawd\u017a, kiedy stosowa\u0107 amenity=* a kiedy landuse=education.",
                "note": "Children RSPO: 269392;269393;269394;269395"
            }
        },
        {
            "id": 72605,
            "type": "Feature",
            "geometry": {
                "type": "Point",
                "coordinates": [
                    22.36554,
                    53.828520000000005
                ]
            },
            "properties": {
                "isced:level": "1;2",
                "ref:rspo": 72605,
                "official_name": "Szko\u0142a Podstawowa Sportowa Nr 6 w E\u0142ku",
                "name": "Szko\u0142a Podstawowa Sportowa Nr 6 w E\u0142ku",
                "addr:postcode": "19-300",
                "addr:city": "E\u0142k",
                "addr:street": "Suwalska",
                "addr:housenumber": "15",
                "addr:city:simc": 977670,
                "addr:street:sym_ul": 21614,
                "phone": "+48 877326370",
                "email": "sekretariat@zss.elk.pl",
                "website": "http:\/\/www.zss.elk.edu.pl",
                "ref:regon": "519455411",
                "operator": "Gmina Miasto E\u0142k",
                "operator:type": "government",
                "amenity": "school",
                "note": "Parent RSPO: 59960"
            }
        },
        {
            "id": 72606,
            "type": "Feature",
            "geometry": {
                "type": "Point",
                "coordinates": [
                    22.36554,
                    53.82849
                ]
            },
            "properties": {
                "isced:level": "3",
                "ref:rspo": 72606,
                "official_name": "Liceum Og\u00f3lnokszta\u0142c\u0105ce w E\u0142ku",
                "name": "Liceum Og\u00f3lnokszta\u0142c\u0105ce w E\u0142ku",
                "addr:postcode": "19-300",
                "addr:city": "E\u0142k",
                "addr:street": "Suwalska",
                "addr:housenumber": "15",
                "addr:city:simc": 977670,
                "addr:street:sym_ul": 21614,
                "phone": "+48 877326370",
                "email": "sekretariat@zss.elk.pl",
                "website": "http:\/\/www.zss.elk.edu.pl",
                "ref:regon": "519455397",
                "operator": "Gmina Miasto E\u0142k",
                "operator:type": "government",
                "amenity": "school",
                "note": "Parent RSPO: 59960"
            }
        },
        {
            "id": 269392,
            "type": "Feature",
            "geometry": {
                "type": "Point",
                "coordinates": [
                    22.36554,
                    53.82846
                ]
            },
            "properties": {
                "isced:level": "3",
                "ref:rspo": 269392,
                "official_name": "Liceum Og\u00f3lnokszta\u0142c\u0105ce dla Doros\u0142ych \"Pascal\" w E\u0142ku",
                "name": "Liceum Og\u00f3lnokszta\u0142c\u0105ce dla Doros\u0142ych \"Pascal\" w E\u0142ku",
                "addr:postcode": "19-300",
                "addr:city": "E\u0142k",
                "addr:street": "Suwalska",
                "addr:housenumber": "15",
                "addr:city:simc": 977670,
                "addr:street:sym_ul": 21614,
                "phone": "+48 873000444",
                "email": "elk@pascal.edu.pl",
                "ref:regon": "381478806",
                "operator": "Apprendi Sp\u00f3\u0142ka Z Ograniczon\u0105 Odpowiedzialno\u015bci\u0105",
                "operator:type": "private",
                "amenity": "school",
                "note": "Parent RSPO: 272927"
            }
        },
        {
            "id": 269393,
            "type": "Feature",
            "geometry": {
                "type": "Point",
                "coordinates": [
                    22.36554,
                    53.828430000000004
                ]
            },
            "properties": {
                "isced:level": "4",
                "ref:rspo": 269393,
                "official_name": "Policealna Szko\u0142a Medyczna \"Pascal\" w E\u0142ku",
                "name": "Policealna Szko\u0142a Medyczna \"Pascal\" w E\u0142ku",
                "addr:postcode": "19-300",
                "addr:city": "E\u0142k",
                "addr:street": "Suwalska",
                "addr:housenumber": "15",
                "addr:city:simc": 977670,
                "addr:street:sym_ul": 21614,
                "phone": "+48 873000444",
                "email": "elk@pascal.edu.pl",
                "ref:regon": "381478829",
                "operator": "Apprendi Sp\u00f3\u0142ka Z Ograniczon\u0105 Odpowiedzialno\u015bci\u0105",
                "operator:type": "private",
                "amenity": "college",
                "note": "Parent RSPO: 272927"
            }
        },
        {
            "id": 269394,
            "type": "Feature",
            "geometry": {
                "type": "Point",
                "coordinates": [
                    22.36554,
                    53.8284
                ]
            },
            "properties": {
                "isced:level": "4",
                "ref:rspo": 269394,
                "official_name": "Stacjonarna Policealna Szko\u0142a Medyczna \"Pascal\" w E\u0142ku",
                "name": "Stacjonarna Policealna Szko\u0142a Medyczna \"Pascal\" w E\u0142ku",
                "addr:postcode": "19-300",
                "addr:city": "E\u0142k",
                "addr:street": "Suwalska",
                "addr:housenumber": "15",
                "addr:city:simc": 977670,
                "addr:street:sym_ul": 21614,
                "phone": "+48 873000444",
                "email": "elk@pascal.edu.pl",
                "ref:regon": "381478864",
                "operator": "Apprendi Sp\u00f3\u0142ka Z Ograniczon\u0105 Odpowiedzialno\u015bci\u0105",
                "operator:type": "private",
                "amenity": "college",
                "note": "Parent RSPO: 272927"
            }
        },
        {
            "id": 269395,
            "type": "Feature",
            "geometry": {
                "type": "Point",
                "coordinates": [
                    22.36554,
                    53.82837
                ]
            },
            "properties": {
                "isced:level": "4",
                "ref:rspo": 269395,
                "official_name": "Zaoczna Policealna Szko\u0142a Zawodowa \"Pascal\" w E\u0142ku",
                "name": "Zaoczna Policealna Szko\u0142a Zawodowa \"Pascal\" w E\u0142ku",
                "addr:postcode": "19-300",
                "addr:city": "E\u0142k",
                "addr:street": "Suwalska",
                "addr:housenumber": "15",
                "addr:city:simc": 977670,
                "addr:street:sym_ul": 21614,
                "phone": "+48 873000444",
                "email": "elk@pascal.edu.pl",
                "ref:regon": "381479007",
                "operator": "Apprendi Sp\u00f3\u0142ka Z Ograniczon\u0105 Odpowiedzialno\u015bci\u0105",
                "operator:type": "private",
                "amenity": "college",
                "note": "Parent RSPO: 272927"
            }
        },
        {
            "id": 42930,
            "type": "Feature",
            "geometry": {
                "type": "Point",
                "coordinates": [
                    22.35117,
                    53.82926
                ]
            },
            "properties": {
                "ref:rspo": 42930,
                "official_name": "Miejskie Przedszkole \"\u015awiate\u0142ko\" w E\u0142ku",
                "name": "Miejskie Przedszkole \"\u015awiate\u0142ko\" w E\u0142ku",
                "addr:postcode": "19-300",
                "addr:city": "E\u0142k",
                "addr:street": "Toru\u0144ska",
                "addr:housenumber": "8A",
                "addr:city:simc": 977670,
                "addr:street:sym_ul": 22902,
                "phone": "+48 877326760",
                "email": "swiatelko.elk@wp.pl",
                "website": "http:\/\/www.swiatelko.elk.pl",
                "ref:regon": "280566820",
                "ref:vatin": "PL8481847960",
                "operator": "Gmina Miasto E\u0142k",
                "operator:type": "government",
                "amenity": "kindergarten"
            }
        },
        {
            "id": 267578,
            "type": "Feature",
            "geometry": {
                "type": "Point",
                "coordinates": [
                    22.39375,
                    53.82927
                ]
            },
            "properties": {
                "ref:rspo": 267578,
                "official_name": "Steel Group Sp. Z O. O.",
                "name": "Steel Group Sp. Z O. O.",
                "addr:postcode": "19-300",
                "addr:city": "E\u0142k",
                "addr:street": "Podmiejska",
                "addr:housenumber": "5",
                "addr:door": "1.12",
                "addr:city:simc": 977670,
                "addr:street:sym_ul": 16816,
                "email": "biuro@steelgroup.com.pl",
                "ref:regon": "380360178",
                "operator": "Beata Rawinis",
                "operator:type": "private",
                "fixme": "w zale\u017cno\u015bci od przedmiotu dzia\u0142alno\u015bci (np. amenity=training + training=*, amenity=dancing_school, amenity=language_school, amenity=music_school)"
            }
        },
        {
            "id": 270603,
            "type": "Feature",
            "geometry": {
                "type": "Point",
                "coordinates": [
                    22.39375,
                    53.82924
                ]
            },
            "properties": {
                "ref:rspo": 270603,
                "official_name": "Biznes Marketing Consulting Group",
                "name": "Biznes Marketing Consulting Group",
                "addr:postcode": "19-300",
                "addr:city": "E\u0142k",
                "addr:street": "Podmiejska",
                "addr:housenumber": "5",
                "addr:door": "1.16",
                "addr:city:simc": 977670,
                "addr:street:sym_ul": 16816,
                "email": "kontakt@bmcg.com.pl",
                "ref:regon": "382803740",
                "operator": "Biznes Marketing Consulting Group Sp\u00f3\u0142ka Z Ograniczon\u0105 Odpowiedzialno\u015bci\u0105",
                "operator:type": "private",
                "fixme": "w zale\u017cno\u015bci od przedmiotu dzia\u0142alno\u015bci (np. amenity=training + training=*, amenity=dancing_school, amenity=language_school, amenity=music_school)"
            }
        },
        {
            "id": 274600,
            "type": "Feature",
            "geometry": {
                "type": "Point",
                "coordinates": [
                    22.39375,
                    53.82921
                ]
            },
            "properties": {
                "ref:rspo": 274600,
                "official_name": "Helpon",
                "name": "Helpon",
                "addr:postcode": "19-300",
                "addr:city": "E\u0142k",
                "addr:street": "Podmiejska",
                "addr:housenumber": "5",
                "addr:door": "1.18",
                "addr:city:simc": 977670,
                "addr:street:sym_ul": 16816,
                "email": "kontakt@helpon.eu",
                "website": "http:\/\/helpon.eu",
                "ref:regon": "386021282",
                "operator": "Helpon Sp\u00f3\u0142ka Z Ograniczon\u0105 Odpowiedzialno\u015bci\u0105",
                "operator:type": "private",
                "fixme": "w zale\u017cno\u015bci od przedmiotu dzia\u0142alno\u015bci (np. amenity=training + training=*, amenity=dancing_school, amenity=language_school, amenity=music_school)"
            }
        },
        {
            "id": 49672,
            "type": "Feature",
            "geometry": {
                "type": "Point",
                "coordinates": [
                    22.37565,
                    53.8302
                ]
            },
            "properties": {
                "ref:rspo": 49672,
                "official_name": "Przedszkole Niepubliczne \"S\u0142oneczko\" w E\u0142ku",
                "name": "Przedszkole Niepubliczne \"S\u0142oneczko\" w E\u0142ku",
                "addr:postcode": "19-300",
                "addr:city": "E\u0142k",
                "addr:street": "Suwalska",
                "addr:housenumber": "44",
                "addr:city:simc": 977670,
                "addr:street:sym_ul": 21614,
                "phone": "+48 876211039",
                "email": "pnsloneczko@op.pl",
                "website": "http:\/\/sloneczko.elk.pl",
                "ref:regon": "281438098",
                "ref:vatin": "PL8481830451",
                "operator": "Renata Basiewicz",
                "operator:type": "private",
                "amenity": "kindergarten"
            }
        },
        {
            "id": 44182,
            "type": "Feature",
            "geometry": {
                "type": "Point",
                "coordinates": [
                    22.37746,
                    53.83024
                ]
            },
            "properties": {
                "ref:rspo": 44182,
                "official_name": "O\u015brodek Szkolenia Zawodowego Lok-Jan Gr\u00f3ndwald",
                "name": "O\u015brodek Szkolenia Zawodowego Lok-Jan Gr\u00f3ndwald",
                "addr:postcode": "19-300",
                "addr:city": "E\u0142k",
                "addr:street": "Suwalska",
                "addr:housenumber": "48",
                "addr:city:simc": 977670,
                "addr:street:sym_ul": 21614,
                "phone": "+48 876102428",
                "email": "osz.lok@wp.pl",
                "website": "http:\/\/grondwald.pl",
                "ref:regon": "281437822",
                "ref:vatin": "PL8481274725",
                "operator": "Jan Gr\u00f3ndwald",
                "operator:type": "private",
                "fixme": "w zale\u017cno\u015bci od przedmiotu dzia\u0142alno\u015bci (np. amenity=training + training=*, amenity=dancing_school, amenity=language_school, amenity=music_school)"
            }
        },
        {
            "id": 35297,
            "type": "Feature",
            "geometry": {
                "type": "Point",
                "coordinates": [
                    22.3413499,
                    53.83031
                ]
            },
            "properties": {
                "ref:rspo": 35297,
                "official_name": "Zesp\u00f3\u0142 Szk\u00f3\u0142 Nr 6 im. Macieja Rataja w E\u0142ku",
                "name": "Zesp\u00f3\u0142 Szk\u00f3\u0142 Nr 6",
                "addr:postcode": "19-300",
                "addr:city": "E\u0142k",
                "addr:street": "Micha\u0142a Kajki",
                "addr:housenumber": "4",
                "addr:door": "-",
                "addr:city:simc": 977670,
                "addr:street:sym_ul": 7781,
                "phone": "+48 876102362",
                "email": "zs6@elk.edu.pl",
                "website": "http:\/\/zs6-elk.edupage.org",
                "ref:regon": "000096135",
                "ref:vatin": "PL8481132072",
                "operator": "Powiat E\u0142cki",
                "operator:type": "government",
                "landuse": "education",
                "fixme": "amenity=school, amenity=college albo landuse=education w zale\u017cno\u015bci od tego, jakie plac\u00f3wki wchodz\u0105 w sk\u0142ad zespo\u0142u. Sprawd\u017a, kiedy stosowa\u0107 amenity=* a kiedy landuse=education.",
                "note": "Children RSPO: 124713;124715;276938"
            }
        },
        {
            "id": 124713,
            "type": "Feature",
            "geometry": {
                "type": "Point",
                "coordinates": [
                    22.3413499,
                    53.830279999999995
                ]
            },
            "properties": {
                "isced:level": "3",
                "ref:rspo": 124713,
                "official_name": "Technikum Nr 4 w E\u0142ku",
                "name": "Technikum Nr 4 w E\u0142ku",
                "addr:postcode": "19-300",
                "addr:city": "E\u0142k",
                "addr:street": "Micha\u0142a Kajki",
                "addr:housenumber": "4",
                "addr:door": "-",
                "addr:city:simc": 977670,
                "addr:street:sym_ul": 7781,
                "phone": "+48 876102362",
                "email": "zs6@elk.edu.pl",
                "website": "http:\/\/zs6-elk.edupage.org\/",
                "ref:regon": "519478984",
                "operator": "Powiat E\u0142cki",
                "operator:type": "government",
                "amenity": "school",
                "note": "Parent RSPO: 35297"
            }
        },
        {
            "id": 124715,
            "type": "Feature",
            "geometry": {
                "type": "Point",
                "coordinates": [
                    22.3413499,
                    53.83025
                ]
            },
            "properties": {
                "isced:level": "3",
                "ref:rspo": 124715,
                "official_name": "Bran\u017cowa Szko\u0142a I Stopnia Nr 3 w E\u0142ku",
                "name": "Bran\u017cowa Szko\u0142a I Stopnia Nr 3 w E\u0142ku",
                "addr:postcode": "19-300",
                "addr:city": "E\u0142k",
                "addr:street": "Micha\u0142a Kajki",
                "addr:housenumber": "4",
                "addr:city:simc": 977670,
                "addr:street:sym_ul": 7781,
                "phone": "+48 876102362",
                "email": "zs6@elk.edu.pl",
                "website": "http:\/\/zs6-elk.edupage.org",
                "ref:regon": "280488786",
                "operator": "Powiat E\u0142cki",
                "operator:type": "government",
                "amenity": "school",
                "note": "Parent RSPO: 35297"
            }
        },
        {
            "id": 276938,
            "type": "Feature",
            "geometry": {
                "type": "Point",
                "coordinates": [
                    22.3413499,
                    53.83022
                ]
            },
            "properties": {
                "isced:level": "3",
                "ref:rspo": 276938,
                "official_name": "Bran\u017cowa Szko\u0142a II Stopnia Nr 3 w E\u0142ku",
                "name": "Bran\u017cowa Szko\u0142a II Stopnia Nr 3 w E\u0142ku",
                "addr:postcode": "19-300",
                "addr:city": "E\u0142k",
                "addr:street": "Micha\u0142a Kajki",
                "addr:housenumber": "4",
                "addr:city:simc": 977670,
                "addr:street:sym_ul": 7781,
                "phone": "+48 876102362",
                "email": "zs6@elk.edu.pl",
                "website": "http:\/\/zs6.elk.edu.pl",
                "ref:regon": "387862061",
                "operator": "Powiat E\u0142cki",
                "operator:type": "government",
                "amenity": "school",
                "note": "Parent RSPO: 35297"
            }
        },
        {
            "id": 112176,
            "type": "Feature",
            "geometry": {
                "type": "Point",
                "coordinates": [
                    22.3464199,
                    53.83087
                ]
            },
            "properties": {
                "ref:rspo": 112176,
                "official_name": "Zesp\u00f3\u0142 Szk\u00f3\u0142 Nr 5 im. Karola Brzostowskiego w E\u0142ku",
                "name": "Zesp\u00f3\u0142 Szk\u00f3\u0142 Nr 5",
                "addr:postcode": "19-300",
                "addr:city": "E\u0142k",
                "addr:street": "Genera\u0142a W\u0142adys\u0142awa Sikorskiego",
                "addr:housenumber": "5",
                "addr:door": "-",
                "addr:city:simc": 977670,
                "addr:street:sym_ul": 19907,
                "phone": "+48 876102331",
                "email": "sekretariat@zs5.elk.pl",
                "website": "http:\/\/zs5.elk.pl",
                "ref:regon": "000333144",
                "ref:vatin": "PL8481004138",
                "operator": "Powiat E\u0142cki",
                "operator:type": "government",
                "landuse": "education",
                "fixme": "amenity=school, amenity=college albo landuse=education w zale\u017cno\u015bci od tego, jakie plac\u00f3wki wchodz\u0105 w sk\u0142ad zespo\u0142u. Sprawd\u017a, kiedy stosowa\u0107 amenity=* a kiedy landuse=education.",
                "note": "Children RSPO: 124709;124711"
            }
        },
        {
            "id": 124709,
            "type": "Feature",
            "geometry": {
                "type": "Point",
                "coordinates": [
                    22.3464199,
                    53.830839999999995
                ]
            },
            "properties": {
                "isced:level": "3",
                "ref:rspo": 124709,
                "official_name": "Technikum Nr 5 w E\u0142ku",
                "name": "Technikum Nr 5 w E\u0142ku",
                "addr:postcode": "19-300",
                "addr:city": "E\u0142k",
                "addr:street": "Genera\u0142a W\u0142adys\u0142awa Sikorskiego",
                "addr:housenumber": "5",
                "addr:door": "-",
                "addr:city:simc": 977670,
                "addr:street:sym_ul": 19907,
                "phone": "+48 876102331",
                "email": "ekonomiak@gmail.com",
                "website": "http:\/\/zs5.elk.pl",
                "ref:regon": "519478719",
                "operator": "Powiat E\u0142cki",
                "operator:type": "government",
                "amenity": "school",
                "note": "Parent RSPO: 112176"
            }
        },
        {
            "id": 124711,
            "type": "Feature",
            "geometry": {
                "type": "Point",
                "coordinates": [
                    22.3464199,
                    53.83081
                ]
            },
            "properties": {
                "isced:level": "4",
                "ref:rspo": 124711,
                "official_name": "Szko\u0142a Policealna Nr 5 dla Doros\u0142ych w E\u0142ku",
                "name": "Szko\u0142a Policealna Nr 5 dla Doros\u0142ych w E\u0142ku",
                "addr:postcode": "19-300",
                "addr:city": "E\u0142k",
                "addr:street": "Genera\u0142a W\u0142adys\u0142awa Sikorskiego",
                "addr:housenumber": "5",
                "addr:door": "-",
                "addr:city:simc": 977670,
                "addr:street:sym_ul": 19907,
                "phone": "+48 876102331",
                "email": "ekonomiak@gmail.com",
                "website": "http:\/\/zs5.elk.pl",
                "ref:regon": "519480202",
                "operator": "Powiat E\u0142cki",
                "operator:type": "government",
                "amenity": "college",
                "note": "Parent RSPO: 112176"
            }
        },
        {
            "id": 111795,
            "type": "Feature",
            "geometry": {
                "type": "Point",
                "coordinates": [
                    22.34552,
                    53.83118
                ]
            },
            "properties": {
                "ref:rspo": 111795,
                "official_name": "Mazurski O\u015brodek Doskonalenia Nauczycieli w E\u0142ku",
                "name": "Mazurski O\u015brodek Doskonalenia Nauczycieli w E\u0142ku",
                "addr:postcode": "19-300",
                "addr:city": "E\u0142k",
                "addr:street": "Genera\u0142a W\u0142adys\u0142awa Sikorskiego",
                "addr:housenumber": "5a",
                "addr:door": "-",
                "addr:city:simc": 977670,
                "addr:street:sym_ul": 19907,
                "phone": "+48 876211071",
                "email": "modn@modn.elk.pl",
                "website": "http:\/\/modn.elk.pl",
                "ref:regon": "511037737",
                "ref:vatin": "PL8481639888",
                "operator": "Powiat E\u0142cki",
                "operator:type": "government",
                "amenity": "training"
            }
        },
        {
            "id": 35293,
            "type": "Feature",
            "geometry": {
                "type": "Point",
                "coordinates": [
                    22.34992,
                    53.83151
                ]
            },
            "properties": {
                "ref:rspo": 35293,
                "official_name": "Zesp\u00f3\u0142 Szk\u00f3\u0142 Nr 2 im. Krzysztofa Kamila Baczy\u0144skiego w E\u0142ku",
                "name": "Zesp\u00f3\u0142 Szk\u00f3\u0142 Nr 2",
                "addr:postcode": "19-300",
                "addr:city": "E\u0142k",
                "addr:street": "Genera\u0142a W\u0142adys\u0142awa Sikorskiego",
                "addr:housenumber": "7",
                "addr:door": "-",
                "addr:city:simc": 977670,
                "addr:street:sym_ul": 19907,
                "phone": "+48 876104323",
                "email": "sekretariat@zs2.elk.pl",
                "website": "http:\/\/zs2.elk.pl",
                "ref:regon": "000604933",
                "ref:vatin": "PL8481135768",
                "operator": "Powiat E\u0142cki",
                "operator:type": "government",
                "landuse": "education",
                "fixme": "amenity=school, amenity=college albo landuse=education w zale\u017cno\u015bci od tego, jakie plac\u00f3wki wchodz\u0105 w sk\u0142ad zespo\u0142u. Sprawd\u017a, kiedy stosowa\u0107 amenity=* a kiedy landuse=education.",
                "note": "Children RSPO: 124701;124702"
            }
        },
        {
            "id": 124701,
            "type": "Feature",
            "geometry": {
                "type": "Point",
                "coordinates": [
                    22.34992,
                    53.83148
                ]
            },
            "properties": {
                "isced:level": "3",
                "ref:rspo": 124701,
                "official_name": "Ii Liceum Og\u00f3lnokszta\u0142c\u0105ce w E\u0142ku",
                "name": "Ii Liceum Og\u00f3lnokszta\u0142c\u0105ce w E\u0142ku",
                "addr:postcode": "19-300",
                "addr:city": "E\u0142k",
                "addr:street": "Genera\u0142a W\u0142adys\u0142awa Sikorskiego",
                "addr:housenumber": "7",
                "addr:door": "-",
                "addr:city:simc": 977670,
                "addr:street:sym_ul": 19907,
                "phone": "+48 876104323",
                "email": "sekretariat@zs2.elk.pl",
                "website": "http:\/\/zs2.elk.pl",
                "ref:regon": "519483175",
                "operator": "Powiat E\u0142cki",
                "operator:type": "government",
                "amenity": "school",
                "note": "Parent RSPO: 35293"
            }
        },
        {
            "id": 124702,
            "type": "Feature",
            "geometry": {
                "type": "Point",
                "coordinates": [
                    22.34992,
                    53.831450000000004
                ]
            },
            "properties": {
                "isced:level": "3",
                "ref:rspo": 124702,
                "official_name": "V Liceum Og\u00f3lnokszta\u0142c\u0105ce dla Doros\u0142ych w E\u0142ku",
                "name": "V Liceum Og\u00f3lnokszta\u0142c\u0105ce dla Doros\u0142ych w E\u0142ku",
                "addr:postcode": "19-300",
                "addr:city": "E\u0142k",
                "addr:street": "Genera\u0142a W\u0142adys\u0142awa Sikorskiego",
                "addr:housenumber": "7",
                "addr:door": "-",
                "addr:city:simc": 977670,
                "addr:street:sym_ul": 19907,
                "phone": "+48 876104323",
                "email": "sekretariat@zs2.elk.pl",
                "website": "http:\/\/zs2.elk.pl",
                "ref:regon": "519504233",
                "operator": "Powiat E\u0142cki",
                "operator:type": "government",
                "amenity": "school",
                "note": "Parent RSPO: 35293"
            }
        },
        {
            "id": 111794,
            "type": "Feature",
            "geometry": {
                "type": "Point",
                "coordinates": [
                    22.34779,
                    53.83154
                ]
            },
            "properties": {
                "ref:rspo": 111794,
                "official_name": "Bursa Szkolna w E\u0142ku",
                "name": "Bursa Szkolna w E\u0142ku",
                "addr:postcode": "19-300",
                "addr:city": "E\u0142k",
                "addr:street": "Genera\u0142a W\u0142adys\u0142awa Sikorskiego",
                "addr:housenumber": "7a",
                "addr:door": "-",
                "addr:city:simc": 977670,
                "addr:street:sym_ul": 19907,
                "phone": "+48 876212514",
                "email": "elkbursa@wp.pl",
                "website": "http:\/\/elkbursa.edu.pl",
                "ref:regon": "790002895",
                "ref:vatin": "PL8481003245",
                "operator": "Powiat E\u0142cki",
                "operator:type": "government",
                "building": "dormitory"
            }
        },
        {
            "id": 59097,
            "type": "Feature",
            "geometry": {
                "type": "Point",
                "coordinates": [
                    22.34216,
                    53.8318
                ]
            },
            "properties": {
                "ref:rspo": 59097,
                "official_name": "Miejskie Przedszkole \"Mali Odkrywcy\" w E\u0142ku",
                "name": "Miejskie Przedszkole \"Mali Odkrywcy\" w E\u0142ku",
                "addr:postcode": "19-300",
                "addr:city": "E\u0142k",
                "addr:street": "Micha\u0142a Kajki",
                "addr:housenumber": "8A",
                "addr:city:simc": 977670,
                "addr:street:sym_ul": 7781,
                "phone": "+48 877326474",
                "email": "i.wierzbicka@vp.pl",
                "website": "http:\/\/www.maliodkrywcy.elk.pl",
                "ref:regon": "280564754",
                "ref:vatin": "PL8481847718",
                "operator": "Gmina Miasto E\u0142k",
                "operator:type": "government",
                "amenity": "kindergarten"
            }
        },
        {
            "id": 264079,
            "type": "Feature",
            "geometry": {
                "type": "Point",
                "coordinates": [
                    22.3414,
                    53.83182
                ]
            },
            "properties": {
                "ref:rspo": 264079,
                "official_name": "Powiatowe Centrum Pomocy Psychologiczno-Pedagogicznej w E\u0142ku",
                "name": "Powiatowe Centrum Pomocy Psychologiczno-Pedagogicznej w E\u0142ku",
                "addr:postcode": "19-300",
                "addr:city": "E\u0142k",
                "addr:street": "Micha\u0142a Kajki",
                "addr:housenumber": "8",
                "addr:city:simc": 977670,
                "addr:street:sym_ul": 7781,
                "phone": "+48 876102747",
                "email": "pcpp.pelk@gmail.com",
                "website": "http:\/\/ppp.elk.edu.pl",
                "ref:regon": "281527554",
                "ref:vatin": "PL8481861204",
                "operator": "Powiat E\u0142cki",
                "operator:type": "government",
                "landuse": "education",
                "fixme": "amenity=school, amenity=college albo landuse=education w zale\u017cno\u015bci od tego, jakie plac\u00f3wki wchodz\u0105 w sk\u0142ad zespo\u0142u. Sprawd\u017a, kiedy stosowa\u0107 amenity=* a kiedy landuse=education.",
                "note": "Children RSPO: 35292;264357"
            }
        },
        {
            "id": 35292,
            "type": "Feature",
            "geometry": {
                "type": "Point",
                "coordinates": [
                    22.3414,
                    53.83179
                ]
            },
            "properties": {
                "ref:rspo": 35292,
                "official_name": "Poradnia Psychologiczno-Pedagogiczna w E\u0142ku",
                "name": "Poradnia Psychologiczno-Pedagogiczna w E\u0142ku",
                "addr:postcode": "19-300",
                "addr:city": "E\u0142k",
                "addr:street": "Micha\u0142a Kajki",
                "addr:housenumber": "8",
                "addr:city:simc": 977670,
                "addr:street:sym_ul": 7781,
                "phone": "+48 876102747",
                "email": "pcpp.pelk@gmail.com",
                "website": "http:\/\/ppp.elk.edu.pl",
                "ref:regon": "000695806",
                "operator": "Powiat E\u0142cki",
                "operator:type": "government",
                "healthcare": "counselling",
                "counselling_type": "education",
                "fixme": "w zale\u017cno\u015bci od przedmiotu dzia\u0142alno\u015bci (np. healthcare=counselling + counselling_type=education albo healthcare=psychotherapist)",
                "note": "Parent RSPO: 264079"
            }
        },
        {
            "id": 264357,
            "type": "Feature",
            "geometry": {
                "type": "Point",
                "coordinates": [
                    22.3414,
                    53.83176
                ]
            },
            "properties": {
                "ref:rspo": 264357,
                "official_name": "Powiatowa Biblioteka Pedagogiczna w E\u0142ku",
                "name": "Powiatowa Biblioteka Pedagogiczna w E\u0142ku",
                "addr:postcode": "19-300",
                "addr:city": "E\u0142k",
                "addr:street": "Micha\u0142a Kajki",
                "addr:housenumber": "8",
                "addr:city:simc": 977670,
                "addr:street:sym_ul": 7781,
                "phone": "+48 876102747",
                "email": "pcpp.pelk@gmail.com",
                "website": "http:\/\/ppp.elk.edu.pl",
                "ref:regon": "281504978",
                "operator": "Powiat E\u0142cki",
                "operator:type": "government",
                "amenity": "library",
                "note": "Parent RSPO: 264079"
            }
        },
        {
            "id": 35295,
            "type": "Feature",
            "geometry": {
                "type": "Point",
                "coordinates": [
                    22.33567,
                    53.83188
                ]
            },
            "properties": {
                "ref:rspo": 35295,
                "official_name": "Zesp\u00f3\u0142 Szk\u00f3\u0142 Nr 1 im. J\u0119drzeja \u015aniadeckiego w E\u0142ku",
                "name": "Zesp\u00f3\u0142 Szk\u00f3\u0142 Nr 1",
                "addr:postcode": "19-300",
                "addr:city": "E\u0142k",
                "addr:street": "11 Listopada",
                "addr:housenumber": "24",
                "addr:door": "-",
                "addr:city:simc": 977670,
                "addr:street:sym_ul": 11205,
                "phone": "+48 876216992",
                "email": "zs1@zs1.elk.pl",
                "website": "http:\/\/zs1.elk.pl",
                "ref:regon": "000190696",
                "ref:vatin": "PL8481131523",
                "operator": "Powiat E\u0142cki",
                "operator:type": "government",
                "landuse": "education",
                "fixme": "amenity=school, amenity=college albo landuse=education w zale\u017cno\u015bci od tego, jakie plac\u00f3wki wchodz\u0105 w sk\u0142ad zespo\u0142u. Sprawd\u017a, kiedy stosowa\u0107 amenity=* a kiedy landuse=education.",
                "note": "Children RSPO: 124694;124699;276937"
            }
        },
        {
            "id": 59637,
            "type": "Feature",
            "geometry": {
                "type": "Point",
                "coordinates": [
                    22.33567,
                    53.831849999999996
                ]
            },
            "properties": {
                "ref:rspo": 59637,
                "official_name": "Przedszkole Niepubliczne \"Jedyneczka\" w E\u0142ku",
                "name": "Przedszkole Niepubliczne \"Jedyneczka\" w E\u0142ku",
                "addr:postcode": "19-300",
                "addr:city": "E\u0142k",
                "addr:street": "11 Listopada",
                "addr:housenumber": "24",
                "addr:city:simc": 977670,
                "addr:street:sym_ul": 11205,
                "phone": "+48 609499084",
                "email": "annalachowicz0@wp.pl",
                "website": "http:\/\/www.jedyneczka.elk.pl",
                "ref:regon": "281439620",
                "ref:vatin": "PL8481378577",
                "operator": "Anna Lachowicz",
                "operator:type": "private",
                "amenity": "kindergarten"
            }
        },
        {
            "id": 124694,
            "type": "Feature",
            "geometry": {
                "type": "Point",
                "coordinates": [
                    22.33567,
                    53.83182
                ]
            },
            "properties": {
                "isced:level": "3",
                "ref:rspo": 124694,
                "official_name": "Technikum Nr 1 w E\u0142ku",
                "name": "Technikum Nr 1 w E\u0142ku",
                "addr:postcode": "19-300",
                "addr:city": "E\u0142k",
                "addr:street": "11 Listopada",
                "addr:housenumber": "24",
                "addr:door": "-",
                "addr:city:simc": 977670,
                "addr:street:sym_ul": 11205,
                "phone": "+48 876216992",
                "email": "dyrekcjazs1@gmail.com",
                "website": "http:\/\/zs1.elk.pl",
                "ref:regon": "519461653",
                "operator": "Powiat E\u0142cki",
                "operator:type": "government",
                "amenity": "school",
                "note": "Parent RSPO: 35295"
            }
        },
        {
            "id": 124699,
            "type": "Feature",
            "geometry": {
                "type": "Point",
                "coordinates": [
                    22.33567,
                    53.83179
                ]
            },
            "properties": {
                "isced:level": "3",
                "ref:rspo": 124699,
                "official_name": "Bran\u017cowa Szko\u0142a I Stopnia Nr 1 w E\u0142ku",
                "name": "Bran\u017cowa Szko\u0142a I Stopnia Nr 1 w E\u0142ku",
                "addr:postcode": "19-300",
                "addr:city": "E\u0142k",
                "addr:street": "11 Listopada",
                "addr:housenumber": "24",
                "addr:city:simc": 977670,
                "addr:street:sym_ul": 11205,
                "phone": "+48 876216992",
                "email": "dyrekcjazs1@gmail.com",
                "website": "http:\/\/zs1.elk.pl",
                "ref:regon": "519461676",
                "operator": "Powiat E\u0142cki",
                "operator:type": "government",
                "amenity": "school",
                "note": "Parent RSPO: 35295"
            }
        },
        {
            "id": 276937,
            "type": "Feature",
            "geometry": {
                "type": "Point",
                "coordinates": [
                    22.33567,
                    53.831759999999996
                ]
            },
            "properties": {
                "isced:level": "3",
                "ref:rspo": 276937,
                "official_name": "Bran\u017cowa Szko\u0142a II Stopnia Nr 1 w E\u0142ku",
                "name": "Bran\u017cowa Szko\u0142a II Stopnia Nr 1 w E\u0142ku",
                "addr:postcode": "19-300",
                "addr:city": "E\u0142k",
                "addr:street": "11 Listopada",
                "addr:housenumber": "24",
                "addr:city:simc": 977670,
                "addr:street:sym_ul": 11205,
                "phone": "+48 876216992",
                "email": "zs1@zs1.elk.pl",
                "website": "http:\/\/zs1.elk.pl",
                "ref:regon": "387862032",
                "operator": "Powiat E\u0142cki",
                "operator:type": "government",
                "amenity": "school",
                "note": "Parent RSPO: 35295"
            }
        },
        {
            "id": 40615,
            "type": "Feature",
            "geometry": {
                "type": "Point",
                "coordinates": [
                    22.34675,
                    53.83269
                ]
            },
            "properties": {
                "isced:level": "1;2",
                "ref:rspo": 40615,
                "official_name": "Szko\u0142a Podstawowa Nr 3 im. Henryka Sienkiewicza w E\u0142ku",
                "name": "Szko\u0142a Podstawowa Nr 3",
                "addr:postcode": "19-300",
                "addr:city": "E\u0142k",
                "addr:street": "Grodzie\u0144ska",
                "addr:housenumber": "1",
                "addr:city:simc": 977670,
                "addr:street:sym_ul": 6157,
                "phone": "+48 877326040",
                "email": "sp3@elk.edu.pl",
                "website": "http:\/\/www.sp3.elk.edu.pl",
                "ref:regon": "000890991",
                "ref:vatin": "PL8481131486",
                "operator": "Gmina Miasto E\u0142k",
                "operator:type": "government",
                "amenity": "school"
            }
        },
        {
            "id": 126337,
            "type": "Feature",
            "geometry": {
                "type": "Point",
                "coordinates": [
                    22.34062,
                    53.83364
                ]
            },
            "properties": {
                "ref:rspo": 126337,
                "official_name": "Niepubliczne Przedszkole J\u0119zykowe Britiszek",
                "name": "Niepubliczne Przedszkole J\u0119zykowe Britiszek",
                "addr:postcode": "19-300",
                "addr:city": "E\u0142k",
                "addr:street": "Juliana Tuwima",
                "addr:housenumber": "3",
                "addr:door": "1",
                "addr:city:simc": 977670,
                "addr:street:sym_ul": 23196,
                "phone": "+48 509163161",
                "email": "britiszek@gmail.com",
                "ref:regon": "360242780",
                "ref:vatin": "PL8392965847",
                "operator": "Albert Merchel",
                "operator:type": "consortium",
                "amenity": "kindergarten"
            }
        },
        {
            "id": 104570,
            "type": "Feature",
            "geometry": {
                "type": "Point",
                "coordinates": [
                    22.35912,
                    53.8347
                ]
            },
            "properties": {
                "isced:level": "4",
                "ref:rspo": 104570,
                "official_name": "Szko\u0142a Policealna w E\u0142ku",
                "name": "Szko\u0142a Policealna w E\u0142ku",
                "addr:postcode": "19-300",
                "addr:city": "E\u0142k",
                "addr:street": "Karola Augusta Bahrkego",
                "addr:housenumber": "2B",
                "addr:city:simc": 977670,
                "addr:street:sym_ul": 596,
                "phone": "+48 876103940",
                "email": "medstud@vp.pl",
                "website": "http:\/\/www.medyk.lh.pl",
                "ref:regon": "281457724",
                "operator": "Wojew\u00f3dztwo Warmi\u0144sko-Mazurskie",
                "operator:type": "government",
                "amenity": "college"
            }
        },
        {
            "id": 49668,
            "type": "Feature",
            "geometry": {
                "type": "Point",
                "coordinates": [
                    22.36211,
                    53.83632
                ]
            },
            "properties": {
                "ref:rspo": 49668,
                "official_name": "Przedszkole Niepubliczne \"Promyk\" w E\u0142ku",
                "name": "Przedszkole Niepubliczne \"Promyk\" w E\u0142ku",
                "addr:postcode": "19-300",
                "addr:city": "E\u0142k",
                "addr:street": "Genera\u0142a Stefana Grota-Roweckiego",
                "addr:housenumber": "6",
                "addr:city:simc": 977670,
                "addr:street:sym_ul": 6189,
                "phone": "+48 877327622",
                "email": "przedszkole@promyk.elk.pl",
                "website": "http:\/\/promyk.elk.pl",
                "ref:regon": "281438075",
                "ref:vatin": "PL8481035848",
                "operator": "Studio Art Piotr Kowalewski",
                "operator:type": "consortium",
                "amenity": "kindergarten"
            }
        },
        {
            "id": 59126,
            "type": "Feature",
            "geometry": {
                "type": "Point",
                "coordinates": [
                    22.35936,
                    53.83645
                ]
            },
            "properties": {
                "ref:rspo": 59126,
                "official_name": "Miejskie Przedszkole \"S\u0142oneczna \u00d3semka\" w E\u0142ku",
                "name": "Miejskie Przedszkole \"S\u0142oneczna \u00d3semka\" w E\u0142ku",
                "addr:postcode": "19-300",
                "addr:city": "E\u0142k",
                "addr:street": "Majora Henryka Dobrza\u0144skiego",
                "addr:housenumber": "3",
                "addr:city:simc": 977670,
                "addr:street:sym_ul": 3980,
                "phone": "+48 877326488",
                "email": "przedszkole8elk@gmail.com",
                "website": "http:\/\/www.p8.elk.edu.pl",
                "ref:regon": "280563631",
                "ref:vatin": "PL8481847517",
                "operator": "Gmina Miasto E\u0142k",
                "operator:type": "government",
                "amenity": "kindergarten"
            }
        },
        {
            "id": 72966,
            "type": "Feature",
            "geometry": {
                "type": "Point",
                "coordinates": [
                    22.36076,
                    53.83797
                ]
            },
            "properties": {
                "isced:level": "1;2",
                "ref:rspo": 72966,
                "official_name": "Szko\u0142a Podstawowa Nr 9 im. Jana Paw\u0142a II w E\u0142ku",
                "name": "Szko\u0142a Podstawowa Nr 9",
                "addr:postcode": "19-300",
                "addr:city": "E\u0142k",
                "addr:street": "\"Majora Jana Piwnika \"\"Ponurego\"\"\"",
                "addr:housenumber": "1",
                "addr:city:simc": 977670,
                "addr:street:sym_ul": 16374,
                "phone": "+48 877326399",
                "email": "sp9_elk@o2.pl",
                "website": "http:\/\/www.sp9.elk.edu.pl",
                "ref:regon": "790505923",
                "ref:vatin": "PL8481135432",
                "operator": "Gmina Miasto E\u0142k",
                "operator:type": "government",
                "amenity": "school"
            }
        }
    ]
}