{
    "type": "FeatureCollection",
    "features": [
        {
            "id": 25356,
            "type": "Feature",
            "geometry": {
                "type": "Point",
                "coordinates": [
                    22.23917,
                    53.67509
                ]
            },
            "properties": {
                "isced:level": "1;2",
                "ref:rspo": 25356,
                "official_name": "Szko\u0142a Podstawowa im.kard. Stefana Wyszy\u0144skiego w Ro\u017cy\u0144sku Wielkim",
                "name": "Szko\u0142a Podstawowa im.kard. Stefana Wyszy\u0144skiego w Ro\u017cy\u0144sku Wielkim",
                "addr:postcode": "19-335",
                "addr:place": "Ro\u017cy\u0144sk Wielki",
                "addr:housenumber": "31",
                "addr:city:simc": 765702,
                "phone": "+48 874258212",
                "email": "sprw@prostki.pl",
                "website": "http:\/\/www.sprw.szkolnastrona.pl",
                "ref:regon": "001145002",
                "ref:vatin": "PL8481601986",
                "operator": "Gmina Prostki",
                "operator:type": "government",
                "amenity": "school"
            }
        },
        {
            "id": 25469,
            "type": "Feature",
            "geometry": {
                "type": "Point",
                "coordinates": [
                    22.4388599,
                    53.69436
                ]
            },
            "properties": {
                "isced:level": "1;2",
                "ref:rspo": 25469,
                "official_name": "Szko\u0142a Podstawowa im. Jana Paw\u0142a II w Prostkach",
                "name": "Szko\u0142a Podstawowa",
                "addr:postcode": "19-335",
                "addr:city": "Prostki",
                "addr:street": "1 Maja",
                "addr:housenumber": "19",
                "addr:city:simc": 765688,
                "addr:street:sym_ul": 11926,
                "phone": "+48 876112015",
                "email": "sp@prostki.pl",
                "ref:regon": "000637016",
                "ref:vatin": "PL8481601911",
                "operator": "Gmina Prostki",
                "operator:type": "government",
                "amenity": "school"
            }
        },
        {
            "id": 25244,
            "type": "Feature",
            "geometry": {
                "type": "Point",
                "coordinates": [
                    22.4387,
                    53.69517
                ]
            },
            "properties": {
                "ref:rspo": 25244,
                "official_name": "Przedszkole Samorz\u0105dowe \"Mazurki\" w Prostkach",
                "name": "Przedszkole Samorz\u0105dowe \"Mazurki\" w Prostkach",
                "addr:postcode": "19-335",
                "addr:city": "Prostki",
                "addr:street": "1 Maja",
                "addr:housenumber": "23",
                "addr:city:simc": 765688,
                "addr:street:sym_ul": 11926,
                "phone": "+48 876112014",
                "email": "przedszprostki@o2.pl",
                "website": "http:\/\/przedszkoleprostki.szkolnastrona",
                "ref:regon": "001011307",
                "ref:vatin": "PL8481602164",
                "operator": "Gmina Prostki",
                "operator:type": "government",
                "amenity": "kindergarten"
            }
        },
        {
            "id": 34273,
            "type": "Feature",
            "geometry": {
                "type": "Point",
                "coordinates": [
                    22.52931,
                    53.75814
                ]
            },
            "properties": {
                "isced:level": "1;2",
                "ref:rspo": 34273,
                "official_name": "Szko\u0142a Podstawowa im. Ks. Bpa Edwarda Samsela w Wi\u015bniowie E\u0142ckim",
                "name": "Szko\u0142a Podstawowa",
                "addr:postcode": "19-335",
                "addr:place": "Wi\u015bniowo E\u0142ckie",
                "addr:housenumber": "40A",
                "addr:city:simc": 765748,
                "phone": "+48 876111523",
                "email": "zswisniowo@wp.pl",
                "website": "http:\/\/spwisniowo.szkolna.net",
                "ref:regon": "001144994",
                "ref:vatin": "PL8481682594",
                "operator": "Gmina Prostki",
                "operator:type": "government",
                "amenity": "school"
            }
        }
    ]
}