{
    "type": "FeatureCollection",
    "features": [
        {
            "id": 50839,
            "type": "Feature",
            "geometry": {
                "type": "Point",
                "coordinates": [
                    15.38462,
                    52.14548
                ]
            },
            "properties": {
                "isced:level": "1;2",
                "ref:rspo": 50839,
                "official_name": "Szko\u0142a Podstawowa im. Janusza Korczaka w Mi\u0119dzylesiu",
                "name": "Szko\u0142a Podstawowa",
                "addr:postcode": "66-213",
                "addr:place": "Mi\u0119dzylesie",
                "addr:housenumber": "6",
                "addr:teryt:simc": 913522,
                "phone": "+48 683419219",
                "email": "psp_miedzylesie@wp.pl",
                "ref:regon": "970571852",
                "ref:vatin": "PL9271765854",
                "operator": "Gmina Sk\u0105pe",
                "operator:type": "government",
                "amenity": "school"
            }
        },
        {
            "id": 50845,
            "type": "Feature",
            "geometry": {
                "type": "Point",
                "coordinates": [
                    15.40085,
                    52.14571
                ]
            },
            "properties": {
                "ref:rspo": 50845,
                "official_name": "Niepubliczne Przedszkole Pod Muchomorkiem w Ciborzu",
                "name": "Niepubliczne Przedszkole Pod Muchomorkiem w Ciborzu",
                "addr:postcode": "66-213",
                "addr:place": "Cib\u00f3rz",
                "addr:housenumber": "21",
                "addr:teryt:simc": 913539,
                "phone": "+48 683812905",
                "email": "przedszkole.ciborz@wp.pl",
                "ref:regon": "081083454",
                "ref:vatin": "PL9271301617",
                "operator": "Dane Do Uzupe\u0142nienia",
                "operator:type": "private",
                "amenity": "kindergarten"
            }
        },
        {
            "id": 50840,
            "type": "Feature",
            "geometry": {
                "type": "Point",
                "coordinates": [
                    15.49611,
                    52.17348
                ]
            },
            "properties": {
                "isced:level": "1;2",
                "ref:rspo": 50840,
                "official_name": "Szko\u0142a Podstawowa w Radoszynie",
                "name": "Szko\u0142a Podstawowa w Radoszynie",
                "addr:postcode": "66-213",
                "addr:place": "Radoszyn",
                "addr:housenumber": "77",
                "addr:teryt:simc": 913640,
                "phone": "+48 683419389",
                "email": "pspniekarzyn@skape.pl",
                "ref:regon": "970571929",
                "ref:vatin": "PL9271764961",
                "operator": "Gmina Sk\u0105pe",
                "operator:type": "government",
                "amenity": "school"
            }
        },
        {
            "id": 50841,
            "type": "Feature",
            "geometry": {
                "type": "Point",
                "coordinates": [
                    15.4335,
                    52.20601
                ]
            },
            "properties": {
                "isced:level": "1;2",
                "ref:rspo": 50841,
                "official_name": "Szko\u0142a Podstawowa im. Bohater\u00f3w Powstania Warszawskiego w O\u0142oboku",
                "name": "Szko\u0142a Podstawowa",
                "addr:postcode": "66-213",
                "addr:city": "O\u0142obok",
                "addr:street": "Wojciechowskiego",
                "addr:housenumber": "25",
                "addr:teryt:simc": 913580,
                "addr:teryt:sym_ul": 24585,
                "phone": "+48 683812116",
                "email": "pspolobok@skape.pl",
                "ref:regon": "970571958",
                "ref:vatin": "PL9271765280",
                "operator": "Gmina Sk\u0105pe",
                "operator:type": "government",
                "amenity": "school"
            }
        }
    ]
}