{
    "type": "FeatureCollection",
    "features": [
        {
            "id": 26401,
            "type": "Feature",
            "geometry": {
                "type": "Point",
                "coordinates": [
                    22.39559,
                    54.21226
                ]
            },
            "properties": {
                "isced:level": "1;2",
                "ref:rspo": 26401,
                "official_name": "Szko\u0142a Podstawowa w Pogorzeli",
                "name": "Szko\u0142a Podstawowa w Pogorzeli",
                "addr:country": "PL",
                "addr:postcode": "19-500",
                "addr:place": "Pogorzel",
                "addr:housenumber": "27",
                "addr:teryt:sym_ul": 758984,
                "contact:phone": "+48 876151949",
                "contact:email": "sppogorzel@poczta.onet.pl",
                "ref:regon": "001154567",
                "ref:vatin": "PL8471552275",
                "operator": "Gmina Go\u0142dap",
                "operator:type": "government",
                "amenity": "school"
            }
        },
        {
            "id": 124408,
            "type": "Feature",
            "geometry": {
                "type": "Point",
                "coordinates": [
                    22.15271,
                    54.21898
                ]
            },
            "properties": {
                "isced:level": "1;2",
                "ref:rspo": 124408,
                "official_name": "Szko\u0142a Podstawowa w Bo\u0107wince",
                "name": "Szko\u0142a Podstawowa w Bo\u0107wince",
                "addr:country": "PL",
                "addr:postcode": "19-500",
                "addr:place": "Bo\u0107winka",
                "addr:housenumber": "13",
                "addr:teryt:sym_ul": 758369,
                "contact:phone": "+48 876156612",
                "contact:email": "spbocwinka@gazeta.pl",
                "contact:website": "http:\/\/www.spbocwinka.goldap.pl",
                "ref:regon": "281620302",
                "ref:vatin": "PL8471516233",
                "operator": "Fundacja Rozwoju Regionu Go\u0142dap",
                "operator:type": "ngo",
                "amenity": "school"
            }
        },
        {
            "id": 26306,
            "type": "Feature",
            "geometry": {
                "type": "Point",
                "coordinates": [
                    22.24206,
                    54.22273
                ]
            },
            "properties": {
                "isced:level": "1;2",
                "ref:rspo": 26306,
                "official_name": "Szko\u0142a Podstawowa im. Micha\u0142a Kajki w Grabowie",
                "name": "Szko\u0142a Podstawowa",
                "addr:country": "PL",
                "addr:postcode": "19-500",
                "addr:place": "Grabowo",
                "addr:housenumber": "54",
                "addr:teryt:sym_ul": 758620,
                "contact:phone": "+48 876156635",
                "contact:email": "zsgrabowo@poczta.fm",
                "ref:regon": "001154521",
                "ref:vatin": "PL8471490433",
                "operator": "Gmina Go\u0142dap",
                "operator:type": "government",
                "amenity": "school"
            }
        },
        {
            "id": 272520,
            "type": "Feature",
            "geometry": {
                "type": "Point",
                "coordinates": [
                    22.2573599,
                    54.27363
                ]
            },
            "properties": {
                "isced:level": "1;2",
                "ref:rspo": 272520,
                "official_name": "Niepubliczna Terapeutyczna Szko\u0142a Podstawowa \"Dobry Start\"",
                "name": "Niepubliczna Terapeutyczna Szko\u0142a Podstawowa \"Dobry Start\"",
                "addr:country": "PL",
                "addr:postcode": "19-500",
                "addr:place": "Jab\u0142o\u0144skie",
                "addr:housenumber": "12",
                "addr:teryt:sym_ul": 758636,
                "contact:email": "annaszulczynska@buziaczek.pl",
                "ref:regon": "384273000",
                "operator": "Stowarzyszenie Dobry Start",
                "operator:type": "ngo",
                "amenity": "school"
            }
        },
        {
            "id": 275015,
            "type": "Feature",
            "geometry": {
                "type": "Point",
                "coordinates": [
                    22.2573599,
                    54.273599999999995
                ]
            },
            "properties": {
                "isced:level": "1;2",
                "ref:rspo": 275015,
                "official_name": "Szko\u0142a Podstawowa Nr 5 Im Noblist\u00f3w Polskich w Go\u0142dapi Szko\u0142a Filialna w Jab\u0142o\u0144skich",
                "name": "Szko\u0142a Podstawowa Nr 5 Im Noblist\u00f3w Polskich w Go\u0142dapi Szko\u0142a Filialna w Jab\u0142o\u0144skich",
                "addr:country": "PL",
                "addr:postcode": "19-500",
                "addr:place": "Jab\u0142o\u0144skie",
                "addr:housenumber": "12",
                "addr:teryt:sym_ul": 758636,
                "contact:phone": "+48 876151261",
                "contact:email": "sp5np@wp.pl",
                "ref:regon": "368026313",
                "operator": "Gmina Go\u0142dap",
                "operator:type": "government",
                "amenity": "school",
                "note": "Parent RSPO: 262510"
            }
        },
        {
            "id": 119499,
            "type": "Feature",
            "geometry": {
                "type": "Point",
                "coordinates": [
                    22.29859,
                    54.3017
                ]
            },
            "properties": {
                "ref:rspo": 119499,
                "official_name": "Zesp\u00f3\u0142 Plac\u00f3wek Edukacyjno-Wychowawczych w Go\u0142dapi",
                "name": "Zesp\u00f3\u0142 Plac\u00f3wek Edukacyjno-Wychowawczych w Go\u0142dapi",
                "addr:country": "PL",
                "addr:postcode": "19-500",
                "addr:city": "Go\u0142dap",
                "addr:street": "ul. Wojska Polskiego",
                "addr:housenumber": "18",
                "addr:teryt:simc": 24628,
                "addr:teryt:sym_ul": 977700,
                "contact:phone": "+48 876151160",
                "contact:email": "zpewgoldap@gmail.com",
                "contact:website": "http:\/\/www.zpewgoldap.pl",
                "ref:regon": "281523480",
                "ref:vatin": "PL8471613261",
                "operator": "Powiat Go\u0142dapski",
                "operator:type": "government",
                "landuse": "education",
                "fixme": "amenity=school, amenity=college albo landuse=education w zale\u017cno\u015bci od tego, jakie plac\u00f3wki wchodz\u0105 w sk\u0142ad zespo\u0142u. Sprawd\u017a, kiedy stosowa\u0107 amenity=* a kiedy landuse=education.",
                "note": "Children RSPO: 28514;28574;57240;125970"
            }
        },
        {
            "id": 73684,
            "type": "Feature",
            "geometry": {
                "type": "Point",
                "coordinates": [
                    22.29859,
                    54.301669999999994
                ]
            },
            "properties": {
                "isced:level": "1;2",
                "ref:rspo": 73684,
                "official_name": "Szko\u0142a Podstawowa Specjalna",
                "name": "Szko\u0142a Podstawowa Specjalna",
                "addr:country": "PL",
                "addr:postcode": "19-500",
                "addr:city": "Go\u0142dap",
                "addr:street": "ul. Wojska Polskiego",
                "addr:housenumber": "18",
                "addr:teryt:simc": 24628,
                "addr:teryt:sym_ul": 977700,
                "contact:phone": "+48 876151160",
                "contact:email": "zpewgoldap@gmail.com",
                "contact:website": "http:\/\/www.zpewgoldap.pl\/",
                "ref:regon": "000891022",
                "operator": "Powiat Go\u0142dapski",
                "operator:type": "government",
                "amenity": "school",
                "note": "Parent RSPO: 28574"
            }
        },
        {
            "id": 73707,
            "type": "Feature",
            "geometry": {
                "type": "Point",
                "coordinates": [
                    22.29859,
                    54.30164
                ]
            },
            "properties": {
                "ref:rspo": 73707,
                "official_name": "Szko\u0142a Specjalna Przysposabiaj\u0105ca Do Pracy",
                "name": "Szko\u0142a Specjalna Przysposabiaj\u0105ca Do Pracy",
                "addr:country": "PL",
                "addr:postcode": "19-500",
                "addr:city": "Go\u0142dap",
                "addr:street": "ul. Wojska Polskiego",
                "addr:housenumber": "18",
                "addr:teryt:simc": 24628,
                "addr:teryt:sym_ul": 977700,
                "contact:phone": "+48 876151160",
                "contact:email": "soswgoldap@hot.pl",
                "ref:regon": "280424881",
                "operator": "Powiat Go\u0142dapski",
                "operator:type": "government",
                "amenity": "school",
                "note": "Parent RSPO: 28574"
            }
        },
        {
            "id": 28514,
            "type": "Feature",
            "geometry": {
                "type": "Point",
                "coordinates": [
                    22.29859,
                    54.30161
                ]
            },
            "properties": {
                "ref:rspo": 28514,
                "official_name": "Bursa Szkolna w Go\u0142dapi",
                "name": "Bursa Szkolna w Go\u0142dapi",
                "addr:country": "PL",
                "addr:postcode": "19-500",
                "addr:city": "Go\u0142dap",
                "addr:street": "ul. Wojska Polskiego",
                "addr:housenumber": "18",
                "addr:teryt:simc": 24628,
                "addr:teryt:sym_ul": 977700,
                "contact:phone": "+48 876151160",
                "contact:email": "zpewgoldap@gmail.com",
                "ref:regon": "790248870",
                "ref:vatin": "PL8471256393",
                "operator": "Powiat Go\u0142dapski",
                "operator:type": "government",
                "building": "dormitory",
                "note": "Parent RSPO: 119499"
            }
        },
        {
            "id": 28574,
            "type": "Feature",
            "geometry": {
                "type": "Point",
                "coordinates": [
                    22.29859,
                    54.301579999999994
                ]
            },
            "properties": {
                "ref:rspo": 28574,
                "official_name": "Specjalny O\u015brodek Szkolno-Wychowawczy w Go\u0142dapi",
                "name": "Specjalny O\u015brodek Szkolno-Wychowawczy w Go\u0142dapi",
                "addr:country": "PL",
                "addr:postcode": "19-500",
                "addr:city": "Go\u0142dap",
                "addr:street": "ul. Wojska Polskiego",
                "addr:housenumber": "18",
                "addr:teryt:simc": 24628,
                "addr:teryt:sym_ul": 977700,
                "contact:phone": "+48 876151160",
                "contact:email": "zpewgoldap@gmail.com",
                "contact:website": "http:\/\/www.zpewgoldap.pl\/",
                "ref:regon": "001243377",
                "ref:vatin": "PL8471026084",
                "operator": "Powiat Go\u0142dapski",
                "operator:type": "government",
                "amenity": "school",
                "note": "Children RSPO: 73684;73707Parent RSPO: 119499"
            }
        },
        {
            "id": 57240,
            "type": "Feature",
            "geometry": {
                "type": "Point",
                "coordinates": [
                    22.29859,
                    54.30155
                ]
            },
            "properties": {
                "ref:rspo": 57240,
                "official_name": "Szkolne Schronisko M\u0142odzie\u017cowe w Bursie Szkolnej w Go\u0142dapi",
                "name": "Szkolne Schronisko M\u0142odzie\u017cowe w Bursie Szkolnej w Go\u0142dapi",
                "addr:country": "PL",
                "addr:postcode": "19-500",
                "addr:city": "Go\u0142dap",
                "addr:street": "ul. Wojska Polskiego",
                "addr:housenumber": "18",
                "addr:teryt:simc": 24628,
                "addr:teryt:sym_ul": 977700,
                "contact:phone": "+48 876151160",
                "contact:email": "zpewgoldap@gmail.com",
                "ref:regon": "281438900",
                "operator": "Powiat Go\u0142dapski",
                "operator:type": "government",
                "tourism": "hostel",
                "note": "Parent RSPO: 119499"
            }
        },
        {
            "id": 26302,
            "type": "Feature",
            "geometry": {
                "type": "Point",
                "coordinates": [
                    22.29569,
                    54.30365
                ]
            },
            "properties": {
                "isced:level": "1;2",
                "ref:rspo": 26302,
                "official_name": "Szko\u0142a Podstawowa Nr 3 im.tadeusza Ko\u015bciuszki w Go\u0142dapi",
                "name": "Szko\u0142a Podstawowa Nr 3 im.tadeusza Ko\u015bciuszki w Go\u0142dapi",
                "addr:country": "PL",
                "addr:postcode": "19-500",
                "addr:city": "Go\u0142dap",
                "addr:street": "ul. Tadeusza Ko\u015bciuszki",
                "addr:housenumber": "25",
                "addr:teryt:simc": 9582,
                "addr:teryt:sym_ul": 977700,
                "contact:phone": "+48 876150854",
                "contact:email": "sp3.goldap@wp.pl",
                "contact:website": "http:\/\/sp3goldap.pl",
                "ref:regon": "000256426",
                "ref:vatin": "PL8471026368",
                "operator": "Gmina Go\u0142dap",
                "operator:type": "government",
                "amenity": "school"
            }
        },
        {
            "id": 28627,
            "type": "Feature",
            "geometry": {
                "type": "Point",
                "coordinates": [
                    22.30202,
                    54.30392
                ]
            },
            "properties": {
                "ref:rspo": 28627,
                "official_name": "Szko\u0142a Jazdy Jaros\u0142aw Mrozowski",
                "name": "Szko\u0142a Jazdy Jaros\u0142aw Mrozowski",
                "addr:country": "PL",
                "addr:postcode": "19-500",
                "addr:city": "Go\u0142dap",
                "addr:street": "ul. Wojska Polskiego",
                "addr:housenumber": "9b",
                "addr:teryt:simc": 24628,
                "addr:teryt:sym_ul": 977700,
                "contact:phone": "+48 502612874",
                "contact:email": "mrozowski@prawojazdy.com.pl",
                "ref:regon": "281435651",
                "ref:vatin": "PL8471198419",
                "operator": "Dane Do Uzupe\u0142nienia",
                "operator:type": "private"
            }
        },
        {
            "id": 262510,
            "type": "Feature",
            "geometry": {
                "type": "Point",
                "coordinates": [
                    22.29624,
                    54.30477
                ]
            },
            "properties": {
                "isced:level": "1;2",
                "ref:rspo": 262510,
                "official_name": "Szko\u0142a Podstawowa Nr 5 im. Noblist\u00f3w Polskich w Go\u0142dapi",
                "name": "Szko\u0142a Podstawowa Nr 5",
                "addr:country": "PL",
                "addr:postcode": "19-500",
                "addr:city": "Go\u0142dap",
                "addr:street": "ul. Tadeusza Ko\u015bciuszki",
                "addr:housenumber": "30",
                "addr:teryt:simc": 9582,
                "addr:teryt:sym_ul": 977700,
                "contact:phone": "+48 876151382",
                "contact:email": "sp5np@wp.pl",
                "contact:website": "http:\/\/www.sp5goldap.cal24.pl",
                "ref:regon": "368026313",
                "operator": "Gmina Go\u0142dap",
                "operator:type": "government",
                "amenity": "school",
                "note": "Children RSPO: 275015"
            }
        },
        {
            "id": 28513,
            "type": "Feature",
            "geometry": {
                "type": "Point",
                "coordinates": [
                    22.30143,
                    54.30486
                ]
            },
            "properties": {
                "ref:rspo": 28513,
                "official_name": "Poradnia Psychologiczno-Pedagogiczna w Go\u0142dapi",
                "name": "Poradnia Psychologiczno-Pedagogiczna w Go\u0142dapi",
                "addr:country": "PL",
                "addr:postcode": "19-500",
                "addr:city": "Go\u0142dap",
                "addr:street": "ul. Wolno\u015bci",
                "addr:housenumber": "11",
                "addr:teryt:simc": 24687,
                "addr:teryt:sym_ul": 977700,
                "contact:phone": "+48 876107430",
                "contact:email": "dyrektor@ppp.powiatgoldap.pl",
                "contact:website": "http:\/\/pppgoldap.wixsite.com\/info",
                "ref:regon": "000695812",
                "ref:vatin": "PL8471366495",
                "operator": "Powiat Go\u0142dapski",
                "operator:type": "government",
                "healthcare": "counselling",
                "counselling_type": "education",
                "fixme": "w zale\u017cno\u015bci od przedmiotu dzia\u0142alno\u015bci (np. healthcare=counselling + counselling_type=education albo healthcare=psychotherapist)"
            }
        },
        {
            "id": 28000,
            "type": "Feature",
            "geometry": {
                "type": "Point",
                "coordinates": [
                    22.30824,
                    54.30508
                ]
            },
            "properties": {
                "ref:rspo": 28000,
                "official_name": "Zesp\u00f3\u0142 Szk\u00f3\u0142 Zawodowych w Go\u0142dapi",
                "name": "Zesp\u00f3\u0142 Szk\u00f3\u0142 Zawodowych w Go\u0142dapi",
                "addr:country": "PL",
                "addr:postcode": "19-500",
                "addr:city": "Go\u0142dap",
                "addr:street": "ul. Ja\u0107wieska",
                "addr:housenumber": "14",
                "addr:teryt:simc": 7007,
                "addr:teryt:sym_ul": 977700,
                "contact:phone": "+48 876150440",
                "contact:email": "zszgoldap@post.pl",
                "contact:website": "http:\/\/zszgoldap.superszkolna.pl\/",
                "ref:regon": "000181289",
                "operator": "Powiat Go\u0142dapski",
                "operator:type": "government",
                "landuse": "education",
                "fixme": "amenity=school, amenity=college albo landuse=education w zale\u017cno\u015bci od tego, jakie plac\u00f3wki wchodz\u0105 w sk\u0142ad zespo\u0142u. Sprawd\u017a, kiedy stosowa\u0107 amenity=* a kiedy landuse=education.",
                "note": "Children RSPO: 62339;62341;62343;62345;275173"
            }
        },
        {
            "id": 62339,
            "type": "Feature",
            "geometry": {
                "type": "Point",
                "coordinates": [
                    22.30824,
                    54.305049999999994
                ]
            },
            "properties": {
                "isced:level": "3",
                "ref:rspo": 62339,
                "official_name": "Bran\u017cowa Szko\u0142a I Stopnia",
                "name": "Bran\u017cowa Szko\u0142a I Stopnia",
                "addr:country": "PL",
                "addr:postcode": "19-500",
                "addr:city": "Go\u0142dap",
                "addr:street": "ul. Ja\u0107wieska",
                "addr:housenumber": "14",
                "addr:teryt:simc": 7007,
                "addr:teryt:sym_ul": 977700,
                "contact:phone": "+48 876150440",
                "contact:email": "zszgoldap@post.pl",
                "contact:website": "http:\/\/zszgoldap.superszkolna.pl\/",
                "ref:regon": "519479587",
                "operator": "Powiat Go\u0142dapski",
                "operator:type": "government",
                "amenity": "school",
                "note": "Parent RSPO: 28000"
            }
        },
        {
            "id": 62341,
            "type": "Feature",
            "geometry": {
                "type": "Point",
                "coordinates": [
                    22.30824,
                    54.30502
                ]
            },
            "properties": {
                "isced:level": "3",
                "ref:rspo": 62341,
                "official_name": "Technikum",
                "name": "Technikum",
                "addr:country": "PL",
                "addr:postcode": "19-500",
                "addr:city": "Go\u0142dap",
                "addr:street": "ul. Ja\u0107wieska",
                "addr:housenumber": "14",
                "addr:teryt:simc": 7007,
                "addr:teryt:sym_ul": 977700,
                "contact:phone": "+48 876150440",
                "contact:email": "zszgoldap@post.pl",
                "ref:regon": "519479618",
                "operator": "Powiat Go\u0142dapski",
                "operator:type": "government",
                "amenity": "school",
                "note": "Parent RSPO: 28000"
            }
        },
        {
            "id": 62343,
            "type": "Feature",
            "geometry": {
                "type": "Point",
                "coordinates": [
                    22.30824,
                    54.30499
                ]
            },
            "properties": {
                "isced:level": "4",
                "ref:rspo": 62343,
                "official_name": "Szko\u0142a Policealna Nr 1",
                "name": "Szko\u0142a Policealna Nr 1",
                "addr:country": "PL",
                "addr:postcode": "19-500",
                "addr:city": "Go\u0142dap",
                "addr:street": "ul. Ja\u0107wieska",
                "addr:housenumber": "14",
                "addr:teryt:simc": 7007,
                "addr:teryt:sym_ul": 977700,
                "contact:phone": "+48 876150440",
                "contact:email": "zszgoldap@post.pl",
                "ref:regon": "280143596",
                "operator": "Powiat Go\u0142dapski",
                "operator:type": "government",
                "amenity": "college",
                "note": "Parent RSPO: 28000"
            }
        },
        {
            "id": 62345,
            "type": "Feature",
            "geometry": {
                "type": "Point",
                "coordinates": [
                    22.30824,
                    54.304959999999994
                ]
            },
            "properties": {
                "isced:level": "3",
                "ref:rspo": 62345,
                "official_name": "Liceum Og\u00f3lnokszta\u0142c\u0105ce dla Doros\u0142ych",
                "name": "Liceum Og\u00f3lnokszta\u0142c\u0105ce dla Doros\u0142ych",
                "addr:country": "PL",
                "addr:postcode": "19-500",
                "addr:city": "Go\u0142dap",
                "addr:street": "ul. Ja\u0107wieska",
                "addr:housenumber": "14",
                "addr:teryt:simc": 7007,
                "addr:teryt:sym_ul": 977700,
                "contact:phone": "+48 876150440",
                "contact:email": "zszgoldap@post.pl",
                "ref:regon": "281411343",
                "operator": "Powiat Go\u0142dapski",
                "operator:type": "government",
                "amenity": "school",
                "note": "Parent RSPO: 28000"
            }
        },
        {
            "id": 275173,
            "type": "Feature",
            "geometry": {
                "type": "Point",
                "coordinates": [
                    22.30824,
                    54.30493
                ]
            },
            "properties": {
                "isced:level": "3",
                "ref:rspo": 275173,
                "official_name": "Bran\u017cowa Szko\u0142a II Stopnia",
                "name": "Bran\u017cowa Szko\u0142a II Stopnia",
                "addr:country": "PL",
                "addr:postcode": "19-500",
                "addr:city": "Go\u0142dap",
                "addr:street": "ul. Ja\u0107wieska",
                "addr:housenumber": "14",
                "addr:teryt:simc": 7007,
                "addr:teryt:sym_ul": 977700,
                "contact:phone": "+48 876150344",
                "contact:email": "zszgoldap@post.pl",
                "contact:website": "http:\/\/zszgoldap.superszkolna.pl\/",
                "ref:regon": "386658281",
                "operator": "Powiat Go\u0142dapski",
                "operator:type": "government",
                "amenity": "school",
                "note": "Parent RSPO: 28000"
            }
        },
        {
            "id": 26556,
            "type": "Feature",
            "geometry": {
                "type": "Point",
                "coordinates": [
                    22.30727,
                    54.30579
                ]
            },
            "properties": {
                "ref:rspo": 26556,
                "official_name": "Przedszkole Samorz\u0105dowe Nr 1 w Go\u0142dapi",
                "name": "Przedszkole Samorz\u0105dowe Nr 1 w Go\u0142dapi",
                "addr:country": "PL",
                "addr:postcode": "19-500",
                "addr:city": "Go\u0142dap",
                "addr:street": "ul. Ja\u0107wieska",
                "addr:housenumber": "17",
                "addr:teryt:simc": 7007,
                "addr:teryt:sym_ul": 977700,
                "contact:phone": "+48 876150278",
                "contact:email": "przedszkole1goldap@gmail.com",
                "contact:website": "https:\/\/przedszkolegoldap.edupage.org\/",
                "ref:regon": "790008053",
                "ref:vatin": "PL8471428291",
                "operator": "Gmina Go\u0142dap",
                "operator:type": "government",
                "amenity": "kindergarten"
            }
        },
        {
            "id": 27611,
            "type": "Feature",
            "geometry": {
                "type": "Point",
                "coordinates": [
                    22.30049,
                    54.30586
                ]
            },
            "properties": {
                "ref:rspo": 27611,
                "official_name": "Niepubliczne Przedszkole \"U Kubusia Puchatka\"",
                "name": "Niepubliczne Przedszkole \"U Kubusia Puchatka\"",
                "addr:country": "PL",
                "addr:postcode": "19-500",
                "addr:city": "Go\u0142dap",
                "addr:street": "ul. Wolno\u015bci",
                "addr:housenumber": "4",
                "addr:teryt:simc": 24687,
                "addr:teryt:sym_ul": 977700,
                "contact:phone": "+48 510172733",
                "contact:email": "e.kudosz@o2.pl",
                "ref:regon": "281435266",
                "ref:vatin": "PL8441139990",
                "operator": "El\u017cbieta Baranowska",
                "operator:type": "private",
                "amenity": "kindergarten"
            }
        },
        {
            "id": 124413,
            "type": "Feature",
            "geometry": {
                "type": "Point",
                "coordinates": [
                    22.42247,
                    54.30591
                ]
            },
            "properties": {
                "isced:level": "1;2",
                "ref:rspo": 124413,
                "official_name": "Szko\u0142a Podstawowa w Galwieciach",
                "name": "Szko\u0142a Podstawowa w Galwieciach",
                "addr:country": "PL",
                "addr:postcode": "19-500",
                "addr:place": "Galwiecie",
                "addr:housenumber": "18",
                "addr:teryt:sym_ul": 758518,
                "contact:phone": "+48 876153330",
                "contact:email": "sp.galwiecie@wp.pl",
                "contact:website": "http:\/\/spgalwiecie.goldap.pl",
                "ref:regon": "281620348",
                "ref:vatin": "PL8471558817",
                "operator": "Fundacja Rozwoju Regionu Go\u0142dap",
                "operator:type": "ngo",
                "amenity": "school"
            }
        },
        {
            "id": 75615,
            "type": "Feature",
            "geometry": {
                "type": "Point",
                "coordinates": [
                    22.30196,
                    54.30639
                ]
            },
            "properties": {
                "ref:rspo": 75615,
                "official_name": "Pa\u0144stwowa Szko\u0142a Muzyczna I St. im. Prof. Witalisa Jerzego Raczkiewicza w Go\u0142dapi",
                "name": "Pa\u0144stwowa Szko\u0142a Muzyczna I St.",
                "addr:country": "PL",
                "addr:postcode": "19-500",
                "addr:city": "Go\u0142dap",
                "addr:street": "ul. Partyzant\u00f3w",
                "addr:housenumber": "31",
                "addr:teryt:simc": 15733,
                "addr:teryt:sym_ul": 977700,
                "contact:phone": "+48 876151572",
                "contact:email": "psm.ist.goldap@interia.pl",
                "contact:website": "http:\/\/psmgoldap.pl.tl",
                "ref:regon": "510885430",
                "operator": "Ministerstwo Kultury I Dziedzictwa Narodowego",
                "operator:type": "public",
                "amenity": "music_school"
            }
        },
        {
            "id": 27991,
            "type": "Feature",
            "geometry": {
                "type": "Point",
                "coordinates": [
                    22.30986,
                    54.30695
                ]
            },
            "properties": {
                "isced:level": "3",
                "ref:rspo": 27991,
                "official_name": "Liceum Og\u00f3lnokszta\u0142c\u0105ce im. Jana Paw\u0142a Ii",
                "name": "Liceum Og\u00f3lnokszta\u0142c\u0105ce",
                "addr:country": "PL",
                "addr:postcode": "19-500",
                "addr:city": "Go\u0142dap",
                "addr:street": "ul. ks. Popie\u0142uszki",
                "addr:housenumber": "2",
                "addr:teryt:simc": 17146,
                "addr:teryt:sym_ul": 977700,
                "contact:phone": "+48 876150699",
                "contact:email": "logoldap@poczta.onet.pl",
                "contact:website": "http:\/\/www.logoldap.edupage.org\/",
                "ref:regon": "519457396",
                "ref:vatin": "PL8471612617",
                "operator": "Powiat Go\u0142dapski",
                "operator:type": "government",
                "amenity": "school"
            }
        },
        {
            "id": 29394,
            "type": "Feature",
            "geometry": {
                "type": "Point",
                "coordinates": [
                    22.30986,
                    54.30692
                ]
            },
            "properties": {
                "isced:level": "3",
                "ref:rspo": 29394,
                "official_name": "Liceum Og\u00f3lnokszta\u0142c\u0105ce Zaoczne Mazursko-Podlaskiego Centrum Edukacji",
                "name": "Liceum Og\u00f3lnokszta\u0142c\u0105ce Zaoczne Mazursko-Podlaskiego Centrum Edukacji",
                "addr:country": "PL",
                "addr:postcode": "19-500",
                "addr:city": "Go\u0142dap",
                "addr:street": "ul. ks. Popie\u0142uszki",
                "addr:housenumber": "2",
                "addr:teryt:simc": 17146,
                "addr:teryt:sym_ul": 977700,
                "contact:email": "mpcegoldap@wp.pl",
                "ref:regon": "281438566",
                "operator": "Marek Bludnik",
                "operator:type": "private",
                "amenity": "school"
            }
        },
        {
            "id": 125970,
            "type": "Feature",
            "geometry": {
                "type": "Point",
                "coordinates": [
                    22.30986,
                    54.30689
                ]
            },
            "properties": {
                "ref:rspo": 125970,
                "official_name": "Powiatowa Biblioteka Pedagogiczna w Go\u0142dapi",
                "name": "Powiatowa Biblioteka Pedagogiczna w Go\u0142dapi",
                "addr:country": "PL",
                "addr:postcode": "19-500",
                "addr:city": "Go\u0142dap",
                "addr:street": "ul. ks. Popie\u0142uszki",
                "addr:housenumber": "2",
                "addr:teryt:simc": 17146,
                "addr:teryt:sym_ul": 977700,
                "contact:phone": "+48 876151098",
                "ref:regon": "360124766",
                "operator": "Powiat Go\u0142dapski",
                "operator:type": "government",
                "amenity": "library",
                "note": "Parent RSPO: 119499"
            }
        },
        {
            "id": 268145,
            "type": "Feature",
            "geometry": {
                "type": "Point",
                "coordinates": [
                    22.30845,
                    54.30719
                ]
            },
            "properties": {
                "ref:rspo": 268145,
                "official_name": "Niepubliczne Przedszkole \"Zuchowa Przygoda\"",
                "name": "Niepubliczne Przedszkole \"Zuchowa Przygoda\"",
                "addr:country": "PL",
                "addr:postcode": "19-500",
                "addr:city": "Go\u0142dap",
                "addr:street": "ul. Paderewskiego",
                "addr:housenumber": "16A",
                "addr:teryt:simc": 15524,
                "addr:teryt:sym_ul": 977700,
                "contact:phone": "+48 690007748",
                "contact:email": "andrzejkaczka@wp.pl",
                "ref:regon": "380969956",
                "operator": "Stowarzyszenie Dobry Start",
                "operator:type": "ngo",
                "amenity": "kindergarten"
            }
        },
        {
            "id": 26300,
            "type": "Feature",
            "geometry": {
                "type": "Point",
                "coordinates": [
                    22.3060699,
                    54.30796
                ]
            },
            "properties": {
                "isced:level": "1;2",
                "ref:rspo": 26300,
                "official_name": "Szko\u0142a Podstawowa Nr 1 Z Oddzia\u0142ami Integracyjnymi im. Miko\u0142aja Kopernika w Go\u0142dapi",
                "name": "Szko\u0142a Podstawowa Nr 1 Z Oddzia\u0142ami Integracyjnymi",
                "addr:country": "PL",
                "addr:postcode": "19-500",
                "addr:city": "Go\u0142dap",
                "addr:street": "ul. Szkolna",
                "addr:housenumber": "4",
                "addr:teryt:simc": 21970,
                "addr:teryt:sym_ul": 977700,
                "contact:phone": "+48 876151337",
                "contact:email": "sp1goldap@poczta.fm",
                "ref:regon": "001154478",
                "ref:vatin": "PL8471060425",
                "operator": "Gmina Go\u0142dap",
                "operator:type": "government",
                "amenity": "school"
            }
        },
        {
            "id": 27344,
            "type": "Feature",
            "geometry": {
                "type": "Point",
                "coordinates": [
                    22.30226,
                    54.30872
                ]
            },
            "properties": {
                "ref:rspo": 27344,
                "official_name": "Przedszkole Niepubliczne \"Bajka\" w Go\u0142dapi",
                "name": "Przedszkole Niepubliczne \"Bajka\" w Go\u0142dapi",
                "addr:country": "PL",
                "addr:postcode": "19-500",
                "addr:city": "Go\u0142dap",
                "addr:street": "pl. Plac Zwyci\u0119stwa",
                "addr:housenumber": "16",
                "addr:teryt:simc": 41645,
                "addr:teryt:sym_ul": 977700,
                "contact:phone": "+48 515084019",
                "contact:email": "jolantalenkiewicz@op.pl",
                "ref:regon": "281435237",
                "ref:vatin": "PL8471016134",
                "operator": "Jolanta Lenkiewicz",
                "operator:type": "private",
                "amenity": "kindergarten"
            }
        },
        {
            "id": 276500,
            "type": "Feature",
            "geometry": {
                "type": "Point",
                "coordinates": [
                    22.29597,
                    54.30951
                ]
            },
            "properties": {
                "ref:rspo": 276500,
                "official_name": "Niepubliczne Przedszkole \"Radosne Skrzaty\"",
                "name": "Niepubliczne Przedszkole \"Radosne Skrzaty\"",
                "addr:country": "PL",
                "addr:postcode": "19-500",
                "addr:city": "Go\u0142dap",
                "addr:street": "ul. \u017beromskiego",
                "addr:housenumber": "13",
                "addr:teryt:simc": 26464,
                "addr:teryt:sym_ul": 977700,
                "contact:email": "sekretariat@radosne-skrzaty.pl",
                "ref:regon": "387160123",
                "operator": "Paulina Brol",
                "operator:type": "private",
                "amenity": "kindergarten"
            }
        },
        {
            "id": 81360,
            "type": "Feature",
            "geometry": {
                "type": "Point",
                "coordinates": [
                    22.29952,
                    54.31258
                ]
            },
            "properties": {
                "ref:rspo": 81360,
                "official_name": "O\u015brodek Kszta\u0142cenia Zawodowego w Go\u0142dapi",
                "name": "O\u015brodek Kszta\u0142cenia Zawodowego w Go\u0142dapi",
                "addr:country": "PL",
                "addr:postcode": "19-500",
                "addr:city": "Go\u0142dap",
                "addr:street": "ul. Mazurska",
                "addr:housenumber": "25",
                "addr:teryt:simc": 12555,
                "addr:teryt:sym_ul": 977700,
                "contact:phone": "+48 876152877",
                "ref:regon": "281444710",
                "ref:vatin": "PL5420000305",
                "operator": "Zak\u0142ad Doskonalenia Zawodowego",
                "operator:type": "ngo",
                "fixme": "w zale\u017cno\u015bci od przedmiotu dzia\u0142alno\u015bci (np. amenity=training + training=*, amenity=dancing_school, amenity=language_school, amenity=music_school)"
            }
        },
        {
            "id": 26301,
            "type": "Feature",
            "geometry": {
                "type": "Point",
                "coordinates": [
                    22.31476,
                    54.31847
                ]
            },
            "properties": {
                "isced:level": "1;2",
                "ref:rspo": 26301,
                "official_name": "Szko\u0142a Podstawowa Nr2 im.marsza\u0142ka J\u00f3zefa Pi\u0142sudskiego w Go\u0142dapi",
                "name": "Szko\u0142a Podstawowa Nr2 im.marsza\u0142ka J\u00f3zefa Pi\u0142sudskiego w Go\u0142dapi",
                "addr:country": "PL",
                "addr:postcode": "19-500",
                "addr:city": "Go\u0142dap",
                "addr:street": "ul. 1 Maja",
                "addr:housenumber": "25",
                "addr:teryt:simc": 11926,
                "addr:teryt:sym_ul": 977700,
                "contact:phone": "+48 876150884",
                "contact:email": "szkola.goldap@op.pl",
                "contact:website": "http:\/\/sp2goldap.pl",
                "ref:regon": "001154484",
                "ref:vatin": "PL8471026322",
                "operator": "Gmina Go\u0142dap",
                "operator:type": "government",
                "amenity": "school"
            }
        },
        {
            "id": 129345,
            "type": "Feature",
            "geometry": {
                "type": "Point",
                "coordinates": [
                    22.31476,
                    54.318439999999995
                ]
            },
            "properties": {
                "ref:rspo": 129345,
                "official_name": "Nibylandia",
                "name": "Nibylandia",
                "addr:country": "PL",
                "addr:postcode": "19-500",
                "addr:city": "Go\u0142dap",
                "addr:street": "ul. 1 Maja",
                "addr:housenumber": "25",
                "addr:teryt:simc": 11926,
                "addr:teryt:sym_ul": 977700,
                "contact:phone": "+48 663945789",
                "contact:email": "annajurczyk.89@wp.pl",
                "ref:regon": "362565144",
                "ref:vatin": "PL8471557344",
                "operator": "Anna Jurczyk",
                "operator:type": "private",
                "amenity": "kindergarten"
            }
        }
    ]
}