{
    "type": "FeatureCollection",
    "features": [
        {
            "id": 111681,
            "type": "Feature",
            "geometry": {
                "type": "Point",
                "coordinates": [
                    22.58926,
                    50.48452
                ]
            },
            "properties": {
                "isced:level": "1;2",
                "ref:rspo": 111681,
                "official_name": "Szko\u0142a Podstawowa w Starym Bidaczowie",
                "name": "Szko\u0142a Podstawowa w Starym Bidaczowie",
                "addr:country": "PL",
                "addr:postcode": "23-400",
                "addr:place": "Stary Bidacz\u00f3w",
                "addr:housenumber": "42",
                "addr:teryt:sym_ul": 886311,
                "contact:phone": "+48 846894050",
                "contact:email": "szkolabidaczow@o2.pl",
                "ref:regon": "061531900",
                "ref:vatin": "PL9181804154",
                "operator": "Stowarzyszenie Inicjatyw Spo\u0142ecznych W Gminie Bi\u0142goraj",
                "operator:type": "ngo",
                "amenity": "school"
            }
        },
        {
            "id": 111682,
            "type": "Feature",
            "geometry": {
                "type": "Point",
                "coordinates": [
                    22.78268,
                    50.48605
                ]
            },
            "properties": {
                "isced:level": "1;2",
                "ref:rspo": 111682,
                "official_name": "Szko\u0142a Podstawowa w Sm\u00f3lsku",
                "name": "Szko\u0142a Podstawowa w Sm\u00f3lsku",
                "addr:country": "PL",
                "addr:postcode": "23-400",
                "addr:place": "Sm\u00f3lsko Ma\u0142e",
                "addr:housenumber": "45",
                "addr:teryt:sym_ul": 886216,
                "contact:phone": "+48 846851674",
                "contact:email": "sp.smolsko@o2.pl",
                "contact:website": "http:\/\/www.spsmolsko.edupage.org",
                "ref:regon": "061531916",
                "ref:vatin": "PL9181804208",
                "operator": "Stowarzyszenie Inicjatyw Spo\u0142ecznych W Gminie Bi\u0142goraj",
                "operator:type": "ngo",
                "amenity": "school"
            }
        },
        {
            "id": 111684,
            "type": "Feature",
            "geometry": {
                "type": "Point",
                "coordinates": [
                    22.65732,
                    50.48832
                ]
            },
            "properties": {
                "isced:level": "1;2",
                "ref:rspo": 111684,
                "official_name": "Szko\u0142a Podstawowa w Woli Dere\u017ania\u0144skiej",
                "name": "Szko\u0142a Podstawowa w Woli Dere\u017ania\u0144skiej",
                "addr:country": "PL",
                "addr:postcode": "23-400",
                "addr:place": "Wola Dere\u017ania\u0144ska",
                "addr:housenumber": "93",
                "addr:teryt:sym_ul": 886370,
                "contact:phone": "+48 846893400",
                "contact:email": "szkolawola10@wp.eu",
                "contact:website": "http:\/\/www.woladerszkola.edupage.org",
                "ref:regon": "061531945",
                "ref:vatin": "PL9181804094",
                "operator": "Stowarzyszenie Inicjatyw Spo\u0142ecznych W Gminie Bi\u0142goraj",
                "operator:type": "ngo",
                "amenity": "school"
            }
        },
        {
            "id": 272523,
            "type": "Feature",
            "geometry": {
                "type": "Point",
                "coordinates": [
                    22.64614,
                    50.50505
                ]
            },
            "properties": {
                "ref:rspo": 272523,
                "official_name": "Zesp\u00f3\u0142 Szko\u0142y Podstawowej I Przedszkola im. Mieczys\u0142awa Pasiaka w Soli",
                "name": "Zesp\u00f3\u0142 Szko\u0142y Podstawowej I Przedszkola",
                "addr:country": "PL",
                "addr:postcode": "23-400",
                "addr:place": "S\u00f3l",
                "addr:housenumber": "279",
                "addr:teryt:sym_ul": 886239,
                "contact:phone": "+48 846870125",
                "contact:email": "zssol@vp.pl",
                "contact:website": "http:\/\/www.zs-sol.com\/",
                "ref:regon": "384262060",
                "ref:vatin": "PL9182173425",
                "operator": "Gmina  Bi\u0142goraj",
                "operator:type": "government",
                "landuse": "education",
                "fixme": "amenity=school, amenity=college albo landuse=education w zale\u017cno\u015bci od tego, jakie plac\u00f3wki wchodz\u0105 w sk\u0142ad zespo\u0142u. Sprawd\u017a, kiedy stosowa\u0107 amenity=* a kiedy landuse=education.",
                "note": "Children RSPO: 53417;53425"
            }
        },
        {
            "id": 53417,
            "type": "Feature",
            "geometry": {
                "type": "Point",
                "coordinates": [
                    22.64614,
                    50.505019999999995
                ]
            },
            "properties": {
                "ref:rspo": 53417,
                "official_name": "Przedszkole w Soli",
                "name": "Przedszkole w Soli",
                "addr:country": "PL",
                "addr:postcode": "23-400",
                "addr:place": "S\u00f3l",
                "addr:housenumber": "279",
                "addr:teryt:sym_ul": 1025120,
                "contact:phone": "+48 846870125",
                "contact:email": "zssol@vp.pl",
                "ref:regon": "951081864",
                "operator": "Gmina  Bi\u0142goraj",
                "operator:type": "government",
                "amenity": "kindergarten",
                "note": "Parent RSPO: 272523"
            }
        },
        {
            "id": 53425,
            "type": "Feature",
            "geometry": {
                "type": "Point",
                "coordinates": [
                    22.64614,
                    50.50499
                ]
            },
            "properties": {
                "isced:level": "1;2",
                "ref:rspo": 53425,
                "official_name": "Szko\u0142a Podstawowa w Soli",
                "name": "Szko\u0142a Podstawowa w Soli",
                "addr:country": "PL",
                "addr:postcode": "23-400",
                "addr:place": "S\u00f3l",
                "addr:housenumber": "279",
                "addr:teryt:sym_ul": 1025120,
                "contact:phone": "+48 846870125",
                "contact:email": "zssol@vp.pl",
                "contact:website": "http:\/\/www.zs-sol.com",
                "ref:regon": "001137876",
                "ref:vatin": "PL9181804102",
                "operator": "Gmina  Bi\u0142goraj",
                "operator:type": "government",
                "amenity": "school",
                "note": "Parent RSPO: 272523"
            }
        },
        {
            "id": 118937,
            "type": "Feature",
            "geometry": {
                "type": "Point",
                "coordinates": [
                    22.72127,
                    50.5061899
                ]
            },
            "properties": {
                "isced:level": "1;2",
                "ref:rspo": 118937,
                "official_name": "Szko\u0142a Podstawowa w Korczowie",
                "name": "Szko\u0142a Podstawowa w Korczowie",
                "addr:country": "PL",
                "addr:postcode": "23-400",
                "addr:place": "Korcz\u00f3w",
                "addr:housenumber": "1b",
                "addr:teryt:sym_ul": 886021,
                "contact:phone": "+48 846871366",
                "contact:email": "sp.korczow@op.pl",
                "contact:website": "http:\/\/www.korczow.pl",
                "ref:regon": "061591864",
                "ref:vatin": "PL9181804119",
                "operator": "Stowarzyszenie Inicjatyw Spo\u0142ecznych W Gminie Bi\u0142goraj",
                "operator:type": "ngo",
                "amenity": "school"
            }
        },
        {
            "id": 53408,
            "type": "Feature",
            "geometry": {
                "type": "Point",
                "coordinates": [
                    22.68846,
                    50.5066599
                ]
            },
            "properties": {
                "isced:level": "1;2",
                "ref:rspo": 53408,
                "official_name": "Szko\u0142a Podstawowa im. Papie\u017ca Jana Paw\u0142a II w Dere\u017ani Solskiej",
                "name": "Szko\u0142a Podstawowa",
                "addr:country": "PL",
                "addr:postcode": "23-400",
                "addr:place": "Dere\u017ania Solska",
                "addr:housenumber": "1a",
                "addr:teryt:sym_ul": 885910,
                "contact:phone": "+48 846861415",
                "contact:email": "spdereznia@wp.pl",
                "contact:website": "http:\/\/www.spdereznia.szkolnastrona.pl",
                "ref:regon": "001133884",
                "ref:vatin": "PL9181804088",
                "operator": "Gmina  Bi\u0142goraj",
                "operator:type": "government",
                "amenity": "school"
            }
        },
        {
            "id": 53427,
            "type": "Feature",
            "geometry": {
                "type": "Point",
                "coordinates": [
                    22.787433624268,
                    50.509925842285
                ]
            },
            "properties": {
                "isced:level": "1;2",
                "ref:rspo": 53427,
                "official_name": "Szko\u0142a Podstawowa w Korytkowie Du\u017cym",
                "name": "Szko\u0142a Podstawowa w Korytkowie Du\u017cym",
                "addr:country": "PL",
                "addr:postcode": "23-400",
                "addr:place": "Korytk\u00f3w Du\u017cy",
                "addr:housenumber": "118",
                "addr:teryt:sym_ul": 886044,
                "contact:phone": "+48 846857893",
                "contact:email": "spkorytkow@gmail.com",
                "contact:website": "http:\/\/www.korytkowszkola.szkolnastrona.pl\/",
                "ref:regon": "001137882",
                "ref:vatin": "PL9181804131",
                "operator": "Gmina  Bi\u0142goraj",
                "operator:type": "government",
                "amenity": "school"
            }
        },
        {
            "id": 53356,
            "type": "Feature",
            "geometry": {
                "type": "Point",
                "coordinates": [
                    22.6583,
                    50.5418
                ]
            },
            "properties": {
                "isced:level": "1;2",
                "ref:rspo": 53356,
                "official_name": "Szko\u0142a Podstawowa w D\u0105browicy",
                "name": "Szko\u0142a Podstawowa w D\u0105browicy",
                "addr:country": "PL",
                "addr:postcode": "23-400",
                "addr:place": "D\u0105browica",
                "addr:housenumber": "138a",
                "addr:teryt:sym_ul": 885843,
                "contact:phone": "+48 846864400",
                "contact:email": "dabrowicaszkola@op.pl",
                "contact:website": "http:\/\/dabrowszkola.edupage.org",
                "ref:regon": "001133921",
                "ref:vatin": "PL9181804148",
                "operator": "Gmina  Bi\u0142goraj",
                "operator:type": "government",
                "amenity": "school"
            }
        },
        {
            "id": 53414,
            "type": "Feature",
            "geometry": {
                "type": "Point",
                "coordinates": [
                    22.69531,
                    50.56791
                ]
            },
            "properties": {
                "isced:level": "1;2",
                "ref:rspo": 53414,
                "official_name": "Szko\u0142a Podstawowa w Gromadzie",
                "name": "Szko\u0142a Podstawowa w Gromadzie",
                "addr:country": "PL",
                "addr:postcode": "23-400",
                "addr:place": "Gromada",
                "addr:housenumber": "141",
                "addr:teryt:sym_ul": 885978,
                "contact:phone": "+48 846861083",
                "contact:email": "spgromada@poczta.onet.pl",
                "contact:website": "http:\/\/www.zspig-gromada.lbl.pl",
                "ref:regon": "001133890",
                "ref:vatin": "PL9181804125",
                "operator": "Gmina  Bi\u0142goraj",
                "operator:type": "government",
                "amenity": "school"
            }
        },
        {
            "id": 53430,
            "type": "Feature",
            "geometry": {
                "type": "Point",
                "coordinates": [
                    22.80606,
                    50.58265
                ]
            },
            "properties": {
                "isced:level": "1;2",
                "ref:rspo": 53430,
                "official_name": "Szko\u0142a Podstawowa w Hedwi\u017cynie",
                "name": "Szko\u0142a Podstawowa w Hedwi\u017cynie",
                "addr:country": "PL",
                "addr:postcode": "23-400",
                "addr:place": "Hedwi\u017cyn",
                "addr:housenumber": "88b",
                "addr:teryt:sym_ul": 885984,
                "contact:phone": "+48 846871708",
                "contact:email": "szkola@sphedwizyn.pl",
                "contact:website": "http:\/\/www.sphedwizyn.pl",
                "ref:regon": "001133915",
                "ref:vatin": "PL9181804059",
                "operator": "Gmina  Bi\u0142goraj",
                "operator:type": "government",
                "amenity": "school"
            }
        },
        {
            "id": 111685,
            "type": "Feature",
            "geometry": {
                "type": "Point",
                "coordinates": [
                    22.56992,
                    50.58278
                ]
            },
            "properties": {
                "isced:level": "1;2",
                "ref:rspo": 111685,
                "official_name": "Szko\u0142a Podstawowa im. Ks. Jerzego Popie\u0142uszki w Bukowej",
                "name": "Szko\u0142a Podstawowa",
                "addr:country": "PL",
                "addr:postcode": "23-400",
                "addr:place": "Bukowa",
                "addr:housenumber": "98",
                "addr:teryt:sym_ul": 885748,
                "contact:phone": "+48 846418855",
                "contact:email": "szkolabukowa@o2.pl",
                "ref:regon": "061531968",
                "ref:vatin": "PL9181804160",
                "operator": "Stowarzyszenie Inicjatyw Spo\u0142ecznych W Gminie Bi\u0142goraj",
                "operator:type": "ngo",
                "amenity": "school"
            }
        }
    ]
}