{"type":"FeatureCollection","features":[{"id":84997,"type":"Feature","geometry":{"type":"Point","coordinates":[23.02165,50.31206]},"properties":{"isced:level":"1;2","ref:rspo":84997,"official_name":"Szko\u0142a Podstawowa im. Jana Paw\u0142a II w Zamchu","name":"Szko\u0142a Podstawowa","addr:country":"PL","addr:postcode":"23-413","addr:place":"Zamch","addr:housenumber":"117","addr:teryt:sym_ul":896172,"contact:phone":"+48 846891033","contact:email":"sp-zamch@wp.pl","ref:regon":"001135943","ref:vatin":"PL9181823275","operator":"Gmina  Obsza","operator:type":"government","amenity":"school"}},{"id":85235,"type":"Feature","geometry":{"type":"Point","coordinates":[22.96261,50.31238]},"properties":{"isced:level":"1;2","ref:rspo":85235,"official_name":"Szko\u0142a Podstawowa w Obszy","name":"Szko\u0142a Podstawowa w Obszy","addr:country":"PL","addr:postcode":"23-413","addr:place":"Obsza","addr:housenumber":"70A","addr:teryt:sym_ul":896137,"contact:phone":"+48 846891014","contact:email":"obszaszkola@op.pl","ref:regon":"001135914","ref:vatin":"PL9181823306","operator":"Gmina  Obsza","operator:type":"government","amenity":"school"}},{"id":274889,"type":"Feature","geometry":{"type":"Point","coordinates":[22.90402,50.31777]},"properties":{"ref:rspo":274889,"official_name":"Gminne Przedszkole w Woli Obsza\u0144skiej","name":"Gminne Przedszkole w Woli Obsza\u0144skiej","addr:country":"PL","addr:postcode":"23-413","addr:place":"Wola Obsza\u0144ska","addr:housenumber":"106A","addr:teryt:sym_ul":896166,"contact:phone":"+48 846891036","ref:regon":"386364094","operator":"Gmina  Obsza","operator:type":"government","amenity":"kindergarten"}},{"id":86807,"type":"Feature","geometry":{"type":"Point","coordinates":[22.97834,50.34463]},"properties":{"isced:level":"1;2","ref:rspo":86807,"official_name":"Szko\u0142a Podstawowa im. Marii Konopnickiej w Olchowcu","name":"Szko\u0142a Podstawowa","addr:country":"PL","addr:postcode":"23-413","addr:place":"Olchowiec","addr:housenumber":"31","addr:teryt:sym_ul":896150,"contact:phone":"+48 846891016","contact:email":"sp-olchowiec@wp.pl","ref:regon":"001025539","ref:vatin":"PL9181823269","operator":"Gmina  Obsza","operator:type":"government","amenity":"school"}},{"id":85350,"type":"Feature","geometry":{"type":"Point","coordinates":[22.91832,50.34922]},"properties":{"isced:level":"1;2","ref:rspo":85350,"official_name":"Szko\u0142a Podstawowa im. Prymasa Tysi\u0105clecia Ks. Kard. Stefana Wyszy\u0144skiego w Babicach","name":"Szko\u0142a Podstawowa","addr:country":"PL","addr:postcode":"23-413","addr:place":"Babice","addr:housenumber":"108A","addr:teryt:sym_ul":896090,"contact:phone":"+48 846891039","contact:email":"szkolabab@o2.pl","ref:regon":"001135920","ref:vatin":"PL9181823312","operator":"Gmina  Obsza","operator:type":"government","amenity":"school"}}]}