{"type":"FeatureCollection","features":[{"id":18387,"type":"Feature","geometry":{"type":"Point","coordinates":[23.05921,50.47701]},"properties":{"isced:level":"1;2","ref:rspo":18387,"official_name":"Szko\u0142a Podstawowa im. Mieczys\u0142awa Romanowskiego w J\u00f3zefowie","name":"Szko\u0142a Podstawowa","addr:country":"PL","addr:postcode":"23-460","addr:city":"J\u00f3zef\u00f3w","addr:street":"ul. G\u00f3rnicza","addr:housenumber":"21","addr:teryt:simc":5962,"addr:teryt:sym_ul":987897,"contact:phone":"+48 846878079","contact:email":"spjozefow@interia.pl","contact:website":"http:\/\/www.spjozefow.pl","ref:regon":"000271578","ref:vatin":"PL9181117376","operator":"Gmina  J\u00f3zef\u00f3w","operator:type":"government","amenity":"school"}},{"id":120943,"type":"Feature","geometry":{"type":"Point","coordinates":[23.05921,50.47698]},"properties":{"ref:rspo":120943,"official_name":"Szkolne Schronisko M\u0142odzie\u017cowe w J\u00f3zefowie","name":"Szkolne Schronisko M\u0142odzie\u017cowe w J\u00f3zefowie","addr:country":"PL","addr:postcode":"23-460","addr:city":"J\u00f3zef\u00f3w","addr:street":"ul. G\u00f3rnicza","addr:housenumber":"21","addr:teryt:simc":5962,"addr:teryt:sym_ul":987897,"contact:email":"spjozefow@interia.pl","ref:regon":"061625215","operator":"Gmina  J\u00f3zef\u00f3w","operator:type":"government","tourism":"hostel"}},{"id":275435,"type":"Feature","geometry":{"type":"Point","coordinates":[23.05829,50.47848]},"properties":{"ref:rspo":275435,"official_name":"Szkolne Schronisko M\u0142odzie\u017cowe w J\u00f3zefowie","name":"Szkolne Schronisko M\u0142odzie\u017cowe w J\u00f3zefowie","addr:country":"PL","addr:postcode":"23-460","addr:city":"J\u00f3zef\u00f3w","addr:street":"ul. Broniewskiego","addr:housenumber":"14","addr:teryt:simc":2120,"addr:teryt:sym_ul":987897,"contact:email":"ssmwjozefowie.filie@wp.pl","ref:regon":"386916731","operator":"Gmina  J\u00f3zef\u00f3w","operator:type":"government","tourism":"hostel","note":"Children RSPO: 276922"}},{"id":18173,"type":"Feature","geometry":{"type":"Point","coordinates":[23.05719,50.47905]},"properties":{"ref:rspo":18173,"official_name":"Przedszkole im. Krasnala Ha\u0142aba\u0142y w J\u00f3zefowie","name":"Przedszkole","addr:country":"PL","addr:postcode":"23-460","addr:city":"J\u00f3zef\u00f3w","addr:street":"ul. Broniewskiego","addr:housenumber":"10","addr:teryt:simc":2120,"addr:teryt:sym_ul":987897,"contact:phone":"+48 846878042","contact:email":"ewaskora1@wp.pl","ref:regon":"060701144","ref:vatin":"PL9182152110","operator":"Gmina  J\u00f3zef\u00f3w","operator:type":"government","amenity":"kindergarten"}},{"id":17264,"type":"Feature","geometry":{"type":"Point","coordinates":[23.08956,50.48299]},"properties":{"isced:level":"1;2","ref:rspo":17264,"official_name":"Szko\u0142a Podstawowa im. Jana Paw\u0142a II w Majdanie Nepryskim","name":"Szko\u0142a Podstawowa","addr:country":"PL","addr:postcode":"23-460","addr:place":"Majdan Nepryski","addr:housenumber":"18","addr:teryt:sym_ul":890420,"contact:phone":"+48 846878074","contact:email":"spmajdan@interia.pl","contact:website":"http:\/\/spmajdnepr.pl","ref:regon":"001134553","ref:vatin":"PL9181117318","operator":"Gmina  J\u00f3zef\u00f3w","operator:type":"government","amenity":"school"}},{"id":12864,"type":"Feature","geometry":{"type":"Point","coordinates":[23.13678,50.50964]},"properties":{"isced:level":"1;2","ref:rspo":12864,"official_name":"Szko\u0142a Podstawowa im. Marii Konopnickiej w Stanis\u0142awowie","name":"Szko\u0142a Podstawowa","addr:country":"PL","addr:postcode":"23-460","addr:place":"Stanis\u0142aw\u00f3w","addr:housenumber":"64A","addr:teryt:sym_ul":890502,"contact:phone":"+48 846879164","contact:email":"stanislawow@poczta.fm","ref:regon":"061457344","ref:vatin":"PL9181117206","operator":"Stanis\u0142awowskie Stowarzyszenie Pomocy Szkole","operator:type":"ngo","amenity":"school"}},{"id":13443,"type":"Feature","geometry":{"type":"Point","coordinates":[22.99481,50.52166]},"properties":{"isced:level":"1;2","ref:rspo":13443,"official_name":"Szko\u0142a Podstawowa im. Konrada Bartoszewskiego \"Wira\" w G\u00f3recku Starym","name":"Szko\u0142a Podstawowa","addr:country":"PL","addr:postcode":"23-460","addr:place":"G\u00f3recko Stare","addr:housenumber":"75","addr:teryt:sym_ul":890519,"contact:phone":"+48 846878238","contact:email":"spgorecko@wp.pl","ref:regon":"061458378","ref:vatin":"PL9181117399","operator":"Roztocza\u0144skie Stowarzyszenie O\u015bwiatowo-Kulturalne Im.konrada Bartoszewskiego-Wira  W G\u00f3recku Starym","operator:type":"ngo","amenity":"school"}},{"id":276922,"type":"Feature","geometry":{"type":"Point","coordinates":[22.99464,50.52256]},"properties":{"ref:rspo":276922,"official_name":"Szkolne Schronisko M\u0142odzie\u017cowe w J\u00f3zefowie Filia w G\u00f3recku Starym","name":"Szkolne Schronisko M\u0142odzie\u017cowe w J\u00f3zefowie Filia w G\u00f3recku Starym","addr:country":"PL","addr:postcode":"23-460","addr:place":"G\u00f3recko Stare","addr:housenumber":"75a","addr:teryt:sym_ul":890519,"contact:phone":"+48 846878238","ref:regon":"386916731","operator":"Gmina  J\u00f3zef\u00f3w","operator:type":"government","tourism":"hostel","note":"Parent RSPO: 275435"}}]}