{"type":"FeatureCollection","features":[{"id":10901,"type":"Feature","geometry":{"type":"Point","coordinates":[22.69826,50.77431]},"properties":{"isced:level":"1;2","ref:rspo":10901,"official_name":"Szko\u0142a Podstawowa w Gr\u00f3dkach","name":"Szko\u0142a Podstawowa w Gr\u00f3dkach","addr:country":"PL","addr:postcode":"23-465","addr:place":"Gr\u00f3dki Drugie","addr:housenumber":"100","addr:teryt:sym_ul":903073,"contact:phone":"+48 846835209","contact:email":"szkolagrodki@wp.pl","contact:website":"http:\/\/szkolagrodki.edupage.org","ref:regon":"001138491","ref:vatin":"PL9181825647","operator":"Gmina Turobin","operator:type":"government","amenity":"school"}},{"id":9986,"type":"Feature","geometry":{"type":"Point","coordinates":[22.80215,50.8056]},"properties":{"isced:level":"1;2","ref:rspo":9986,"official_name":"Szko\u0142a Podstawowa im. Szymona Szymonowicza w Czerni\u0119cinie","name":"Szko\u0142a Podstawowa","addr:country":"PL","addr:postcode":"23-465","addr:place":"Czerni\u0119cin G\u0142\u00f3wny","addr:housenumber":"159","addr:teryt:sym_ul":903021,"contact:phone":"+48 846833126","contact:email":"spczerniecin@o2.pl","contact:website":"http:\/\/spczerniecin.szkolnastrona.pl","ref:regon":"001138462","ref:vatin":"PL9181825624","operator":"Gmina Turobin","operator:type":"government","amenity":"school"}},{"id":27312,"type":"Feature","geometry":{"type":"Point","coordinates":[22.74476,50.82426]},"properties":{"ref:rspo":27312,"official_name":"Przedszkole Samorz\u0105dowe w Turobinie","name":"Przedszkole Samorz\u0105dowe w Turobinie","addr:country":"PL","addr:postcode":"23-465","addr:city":"Turobin","addr:street":"ul. J\u00f3zefa Pi\u0142sudskiego","addr:housenumber":"28","addr:teryt:simc":16264,"addr:teryt:sym_ul":903200,"contact:phone":"+48 846833102","contact:email":"sekretariat@loturobin.pl","contact:website":"http:\/\/zsturobin.szkolnastrona.pl","ref:regon":"951080095","ref:vatin":"PL9181825653","operator":"Gmina Turobin","operator:type":"government","amenity":"kindergarten","note":"Parent RSPO: 272234"}},{"id":17597,"type":"Feature","geometry":{"type":"Point","coordinates":[22.7446345,50.8259814]},"properties":{"isced:level":"3","ref:rspo":17597,"official_name":"Rzemie\u015blnicza Szko\u0142a Bran\u017cowa I Stopnia w Turobinie","name":"Rzemie\u015blnicza Szko\u0142a Bran\u017cowa I Stopnia w Turobinie","addr:country":"PL","addr:postcode":"23-465","addr:city":"Turobin","addr:street":"ul. J\u00f3zefa Pi\u0142sudskiego","addr:housenumber":"34","addr:teryt:simc":16264,"addr:teryt:sym_ul":903200,"contact:phone":"+48 846833224","contact:email":"rzsz.turobin@onet.eu","contact:website":"http:\/\/www.rszbturobin.pl","ref:regon":"061463959","ref:vatin":"PL9181642125","operator":"Cech Rzemios\u0142 R\u00f3\u017cnych I Drobnej Przedsi\u0119biorczo\u015bci W Bi\u0142goraju","operator:type":"cooperative","amenity":"school"}},{"id":272234,"type":"Feature","geometry":{"type":"Point","coordinates":[22.7446345,50.8259514]},"properties":{"ref:rspo":272234,"official_name":"Zesp\u00f3\u0142 Szk\u00f3\u0142 w Turobinie","name":"Zesp\u00f3\u0142 Szk\u00f3\u0142 w Turobinie","addr:country":"PL","addr:postcode":"23-465","addr:city":"Turobin","addr:street":"ul. J\u00f3zefa Pi\u0142sudskiego","addr:housenumber":"34","addr:teryt:simc":16264,"addr:teryt:sym_ul":903200,"contact:phone":"+48 846833336","contact:email":"sekretariat@loturobin.pl","contact:website":"http:\/\/zsturobin.szkolnastrona.pl","ref:regon":"384079432","ref:vatin":"PL9182173106","operator":"Gmina Turobin","operator:type":"government","landuse":"education","fixme":"amenity=school, amenity=college albo landuse=education w zale\u017cno\u015bci od tego, jakie plac\u00f3wki wchodz\u0105 w sk\u0142ad zespo\u0142u. Sprawd\u017a, kiedy stosowa\u0107 amenity=* a kiedy landuse=education.","note":"Children RSPO: 27222;27223;27226;27311;27312;29108"}},{"id":277001,"type":"Feature","geometry":{"type":"Point","coordinates":[22.7446345,50.825921400000006]},"properties":{"isced:level":"3","ref:rspo":277001,"official_name":"Rzemie\u015blnicza Szko\u0142a Bran\u017cowa II Stopnia w Turobinie","name":"Rzemie\u015blnicza Szko\u0142a Bran\u017cowa II Stopnia w Turobinie","addr:country":"PL","addr:postcode":"23-465","addr:city":"Turobin","addr:street":"ul. J\u00f3zefa Pi\u0142sudskiego","addr:housenumber":"34","addr:teryt:simc":16264,"addr:teryt:sym_ul":903200,"contact:phone":"+48 846833224","contact:email":"rzsz.turobin@onet.eu","contact:website":"http:\/\/szkolabranzowa.rszbturobin.pl","ref:regon":"387984545","operator":"Cech Rzemios\u0142 R\u00f3\u017cnych I Drobnej Przedsi\u0119biorczo\u015bci W Bi\u0142goraju","operator:type":"cooperative","amenity":"school"}},{"id":27222,"type":"Feature","geometry":{"type":"Point","coordinates":[22.7446345,50.8258914]},"properties":{"isced:level":"3","ref:rspo":27222,"official_name":"Liceum Og\u00f3lnokszta\u0142c\u0105ce im. Jana Zamoyskiego w Turobinie","name":"Liceum Og\u00f3lnokszta\u0142c\u0105ce","addr:country":"PL","addr:postcode":"23-465","addr:city":"Turobin","addr:street":"ul. J\u00f3zefa Pi\u0142sudskiego","addr:housenumber":"34","addr:teryt:simc":16264,"addr:teryt:sym_ul":903200,"contact:phone":"+48 846833336","contact:email":"sekretariat@loturobin.pl","contact:website":"http:\/\/zsturobin.szkolnastrona.pl","ref:regon":"000982807","ref:vatin":"PL9181841586","operator":"Gmina Turobin","operator:type":"government","amenity":"school","note":"Parent RSPO: 272234"}},{"id":27223,"type":"Feature","geometry":{"type":"Point","coordinates":[22.7446345,50.8258614]},"properties":{"isced:level":"4","ref:rspo":27223,"official_name":"Szko\u0142a Policealna w Turobinie","name":"Szko\u0142a Policealna w Turobinie","addr:country":"PL","addr:postcode":"23-465","addr:city":"Turobin","addr:street":"ul. J\u00f3zefa Pi\u0142sudskiego","addr:housenumber":"34","addr:teryt:simc":16264,"addr:teryt:sym_ul":903200,"contact:phone":"+48 846833336","contact:email":"sekretariat@loturobin.pl","contact:website":"http:\/\/zsturobin.szkolnastrona.pl","ref:regon":"951214992","ref:vatin":"PL9181841586","operator":"Gmina Turobin","operator:type":"government","amenity":"college","note":"Parent RSPO: 272234"}},{"id":27226,"type":"Feature","geometry":{"type":"Point","coordinates":[22.7446345,50.825831400000006]},"properties":{"isced:level":"3","ref:rspo":27226,"official_name":"Liceum Og\u00f3lnokszta\u0142c\u0105ce dla Doros\u0142ych w Turobinie","name":"Liceum Og\u00f3lnokszta\u0142c\u0105ce dla Doros\u0142ych w Turobinie","addr:country":"PL","addr:postcode":"23-465","addr:city":"Turobin","addr:street":"ul. J\u00f3zefa Pi\u0142sudskiego","addr:housenumber":"34","addr:teryt:simc":16264,"addr:teryt:sym_ul":903200,"contact:phone":"+48 846833336","contact:email":"sekretariat@loturobin.pl","contact:website":"http:\/\/zsturobin.szkolnastrona.pl","ref:regon":"061469270","ref:vatin":"PL9181841586","operator":"Gmina Turobin","operator:type":"government","amenity":"school","note":"Parent RSPO: 272234"}},{"id":27311,"type":"Feature","geometry":{"type":"Point","coordinates":[22.7446345,50.8258014]},"properties":{"isced:level":"1;2","ref:rspo":27311,"official_name":"Szko\u0142a Podstawowa im. Tadeusza Ko\u015bciuszki w Turobinie","name":"Szko\u0142a Podstawowa","addr:country":"PL","addr:postcode":"23-465","addr:city":"Turobin","addr:street":"ul. J\u00f3zefa Pi\u0142sudskiego","addr:housenumber":"34","addr:teryt:simc":16264,"addr:teryt:sym_ul":903200,"contact:phone":"+48 846833336","contact:email":"sekretariat@loturobin.pl","contact:website":"http:\/\/zsturobin.szkolnastrona.pl","ref:regon":"000631999","ref:vatin":"PL9181825653","operator":"Gmina Turobin","operator:type":"government","amenity":"school","note":"Parent RSPO: 272234"}},{"id":29108,"type":"Feature","geometry":{"type":"Point","coordinates":[22.7446345,50.8257714]},"properties":{"isced:level":"3","ref:rspo":29108,"official_name":"Technikum w Turobinie","name":"Technikum w Turobinie","addr:country":"PL","addr:postcode":"23-465","addr:city":"Turobin","addr:street":"ul. J\u00f3zefa Pi\u0142sudskiego","addr:housenumber":"34","addr:teryt:simc":16264,"addr:teryt:sym_ul":903200,"contact:phone":"+48 846833336","contact:email":"sekretariat@loturobin.pl","contact:website":"http:\/\/zsturobin.szkolnastrona.pl","ref:regon":"061470735","ref:vatin":"PL9181841586","operator":"Gmina Turobin","operator:type":"government","amenity":"school","note":"Parent RSPO: 272234"}}]}