{
    "type": "FeatureCollection",
    "features": [
        {
            "id": 50309,
            "type": "Feature",
            "geometry": {
                "type": "Point",
                "coordinates": [
                    22.78787,
                    50.3771
                ]
            },
            "properties": {
                "isced:level": "1;2",
                "ref:rspo": 50309,
                "official_name": "Szko\u0142a Podstawowa w Korchowie Pierwszym",
                "name": "Szko\u0142a Podstawowa w Korchowie Pierwszym",
                "addr:country": "PL",
                "addr:postcode": "23-415",
                "addr:place": "Korch\u00f3w Pierwszy",
                "addr:housenumber": "86B",
                "addr:teryt:sym_ul": 892211,
                "contact:phone": "+48 846897029",
                "contact:email": "szkola.korchow@poczta.fm",
                "contact:website": "http:\/\/spkorchow.superszkolna.pl\/",
                "ref:regon": "001134659",
                "ref:vatin": "PL9181820414",
                "operator": "Gmina  Ksi\u0119\u017cpol",
                "operator:type": "government",
                "amenity": "school"
            }
        },
        {
            "id": 50390,
            "type": "Feature",
            "geometry": {
                "type": "Point",
                "coordinates": [
                    22.7932,
                    50.41325
                ]
            },
            "properties": {
                "isced:level": "1;2",
                "ref:rspo": 50390,
                "official_name": "Szko\u0142a Podstawowa w Rak\u00f3wce",
                "name": "Szko\u0142a Podstawowa w Rak\u00f3wce",
                "addr:country": "PL",
                "addr:postcode": "23-415",
                "addr:place": "Rak\u00f3wka",
                "addr:housenumber": "1",
                "addr:teryt:sym_ul": 892441,
                "contact:phone": "+48 846854244",
                "contact:email": "rakowka@o2.pl",
                "ref:regon": "001134642",
                "ref:vatin": "PL9181821862",
                "operator": "Gmina  Ksi\u0119\u017cpol",
                "operator:type": "government",
                "amenity": "school"
            }
        },
        {
            "id": 80037,
            "type": "Feature",
            "geometry": {
                "type": "Point",
                "coordinates": [
                    22.73619,
                    50.42436
                ]
            },
            "properties": {
                "isced:level": "1;2",
                "ref:rspo": 80037,
                "official_name": "Szko\u0142a Podstawowa im. Jana Paw\u0142a II w Ksi\u0119\u017cpolu",
                "name": "Szko\u0142a Podstawowa",
                "addr:country": "PL",
                "addr:postcode": "23-415",
                "addr:city": "Ksi\u0119\u017cpol",
                "addr:street": "ul. Bi\u0142gorajska",
                "addr:housenumber": "11",
                "addr:teryt:simc": 1348,
                "addr:teryt:sym_ul": 892228,
                "contact:phone": "+48 846877404",
                "contact:email": "zsksiezpol@interia.pl",
                "contact:website": "http:\/\/www.zsksiezpol.szkolna.net",
                "ref:regon": "001134636",
                "ref:vatin": "PL9181822181",
                "operator": "Gmina  Ksi\u0119\u017cpol",
                "operator:type": "government",
                "amenity": "school"
            }
        },
        {
            "id": 50279,
            "type": "Feature",
            "geometry": {
                "type": "Point",
                "coordinates": [
                    22.7169199,
                    50.4393
                ]
            },
            "properties": {
                "ref:rspo": 50279,
                "official_name": "Publiczne Przedszkole Samorz\u0105dowe w Markowiczach",
                "name": "Publiczne Przedszkole Samorz\u0105dowe w Markowiczach",
                "addr:country": "PL",
                "addr:postcode": "23-415",
                "addr:place": "Markowicze",
                "addr:housenumber": "11",
                "addr:teryt:sym_ul": 892263,
                "contact:phone": "+48 846877380",
                "contact:email": "przedszkole.markowicze@wp.pl",
                "ref:regon": "060278510",
                "ref:vatin": "PL9182076337",
                "operator": "Gmina  Ksi\u0119\u017cpol",
                "operator:type": "government",
                "amenity": "kindergarten"
            }
        },
        {
            "id": 275756,
            "type": "Feature",
            "geometry": {
                "type": "Point",
                "coordinates": [
                    22.74243,
                    50.46891
                ]
            },
            "properties": {
                "ref:rspo": 275756,
                "official_name": "Przedszkole Niepubliczne Smerfy w Majdanie Nowym",
                "name": "Przedszkole Niepubliczne Smerfy w Majdanie Nowym",
                "addr:country": "PL",
                "addr:postcode": "23-415",
                "addr:place": "Majdan Nowy",
                "addr:housenumber": "46b",
                "addr:teryt:sym_ul": 892323,
                "contact:email": "przedszkole.smerfy@onet.pl",
                "ref:regon": "386934108",
                "operator": "Dorota Szymanik",
                "operator:type": "private",
                "amenity": "kindergarten"
            }
        },
        {
            "id": 84257,
            "type": "Feature",
            "geometry": {
                "type": "Point",
                "coordinates": [
                    22.7222246,
                    50.4698705
                ]
            },
            "properties": {
                "isced:level": "1;2",
                "ref:rspo": 84257,
                "official_name": "Szko\u0142a Podstawowa im. Zofii Krawieckiej w Majdanie Starym",
                "name": "Szko\u0142a Podstawowa",
                "addr:country": "PL",
                "addr:postcode": "23-414",
                "addr:place": "Majdan Stary",
                "addr:housenumber": "21",
                "addr:teryt:sym_ul": 892607,
                "contact:phone": "+48 846851989",
                "contact:email": "zespolszkol_majdan@vp.pl",
                "ref:regon": "000678080",
                "ref:vatin": "PL9181820704",
                "operator": "Gmina  Ksi\u0119\u017cpol",
                "operator:type": "government",
                "amenity": "school"
            }
        }
    ]
}