{
    "type": "FeatureCollection",
    "features": [
        {
            "id": 17525,
            "type": "Feature",
            "geometry": {
                "type": "Point",
                "coordinates": [
                    22.71253,
                    50.52257
                ]
            },
            "properties": {
                "isced:level": "3",
                "ref:rspo": 17525,
                "official_name": "Katolickie Liceum Og\u00f3lnokszta\u0142c\u0105ce im. Papie\u017ca Jana Paw\u0142a II w Bi\u0142goraju",
                "name": "Katolickie Liceum Og\u00f3lnokszta\u0142c\u0105ce",
                "addr:country": "PL",
                "addr:postcode": "23-400",
                "addr:city": "Bi\u0142goraj",
                "addr:street": "ul. Krzeszowska",
                "addr:housenumber": "1",
                "addr:teryt:simc": 10124,
                "addr:teryt:sym_ul": 987673,
                "contact:phone": "+48 846867475",
                "contact:email": "kgilo_bilgoraj@wp.pl",
                "contact:website": "http:\/\/www.kgilo.lbl.pl",
                "ref:regon": "061463356",
                "ref:vatin": "PL9181982944",
                "operator": "Parafia Rzymskokatolicka Pw.\u015bw.marii Magdaleny W Bi\u0142goraju",
                "operator:type": "religious",
                "amenity": "school"
            }
        },
        {
            "id": 86186,
            "type": "Feature",
            "geometry": {
                "type": "Point",
                "coordinates": [
                    22.7118499,
                    50.52609
                ]
            },
            "properties": {
                "ref:rspo": 86186,
                "official_name": "Samorz\u0105dowe Przedszkole Nr 3",
                "name": "Samorz\u0105dowe Przedszkole Nr 3",
                "addr:country": "PL",
                "addr:postcode": "23-400",
                "addr:city": "Bi\u0142goraj",
                "addr:street": "ul. Henryka Sienkiewicza",
                "addr:housenumber": "17",
                "addr:teryt:simc": 19834,
                "addr:teryt:sym_ul": 987673,
                "contact:email": "przedszkole3bilgoraj@wp.pl",
                "ref:regon": "950443160",
                "ref:vatin": "PL9181822212",
                "operator": "Gmina Miasto  Bi\u0142goraj",
                "operator:type": "government",
                "amenity": "kindergarten"
            }
        },
        {
            "id": 121722,
            "type": "Feature",
            "geometry": {
                "type": "Point",
                "coordinates": [
                    22.7120399,
                    50.52671
                ]
            },
            "properties": {
                "ref:rspo": 121722,
                "official_name": "Niepubliczne Przedszkole Specjalne w Bi\u0142goraju",
                "name": "Niepubliczne Przedszkole Specjalne w Bi\u0142goraju",
                "addr:country": "PL",
                "addr:postcode": "23-400",
                "addr:city": "Bi\u0142goraj",
                "addr:street": "ul. Henryka Sienkiewicza",
                "addr:housenumber": "15",
                "addr:teryt:simc": 19834,
                "addr:teryt:sym_ul": 987673,
                "contact:phone": "+48 846865142",
                "contact:email": "npsbilgoraj@interia.pl",
                "ref:regon": "061647458",
                "operator": "Stowarzyszenie Pomocy Dzieciom Niepe\u0142nosprawnym \"Krok Za Krokiem\" W Zamo\u015bciu Ko\u0142o Terenowe W Bi\u0142goraju",
                "operator:type": "ngo",
                "amenity": "kindergarten"
            }
        },
        {
            "id": 121746,
            "type": "Feature",
            "geometry": {
                "type": "Point",
                "coordinates": [
                    22.72131,
                    50.52696
                ]
            },
            "properties": {
                "ref:rspo": 121746,
                "official_name": "Przedszkole Integracyjne \"Bambini\"",
                "name": "Przedszkole Integracyjne \"Bambini\"",
                "addr:country": "PL",
                "addr:postcode": "23-400",
                "addr:city": "Bi\u0142goraj",
                "addr:street": "ul. Marii Konopnickiej",
                "addr:housenumber": "36",
                "addr:teryt:simc": 9186,
                "addr:teryt:sym_ul": 987673,
                "contact:phone": "+48 790495337",
                "contact:email": "bambini.za@wp.pl",
                "contact:website": "http:\/\/www.bambiniprzedszkole.pl",
                "ref:regon": "061647441",
                "ref:vatin": "PL9181907581",
                "operator": "Bambini Sp\u00f3\u0142ka Z Ograniczon\u0105 Odpowiedzialno\u015bci\u0105",
                "operator:type": "private",
                "amenity": "kindergarten"
            }
        },
        {
            "id": 129930,
            "type": "Feature",
            "geometry": {
                "type": "Point",
                "coordinates": [
                    22.71134,
                    50.52703
                ]
            },
            "properties": {
                "isced:level": "1;2",
                "ref:rspo": 129930,
                "official_name": "Szko\u0142a Podstawowa Nr 3 Z Oddzia\u0142ami Integracyjnymi",
                "name": "Szko\u0142a Podstawowa Nr 3 Z Oddzia\u0142ami Integracyjnymi",
                "addr:country": "PL",
                "addr:postcode": "23-400",
                "addr:city": "Bi\u0142goraj",
                "addr:street": "ul. Henryka Sienkiewicza",
                "addr:housenumber": "6",
                "addr:teryt:simc": 19834,
                "addr:teryt:sym_ul": 987673,
                "contact:phone": "+48 846880337",
                "contact:email": "mzs3bilgoraj@wp.pl",
                "ref:regon": "000719961",
                "operator": "Gmina Miasto  Bi\u0142goraj",
                "operator:type": "government",
                "amenity": "school"
            }
        },
        {
            "id": 17462,
            "type": "Feature",
            "geometry": {
                "type": "Point",
                "coordinates": [
                    22.71623,
                    50.5276
                ]
            },
            "properties": {
                "ref:rspo": 17462,
                "official_name": "O\u015brodek Doradztwa I Szkolenia",
                "name": "O\u015brodek Doradztwa I Szkolenia",
                "addr:country": "PL",
                "addr:postcode": "23-400",
                "addr:city": "Bi\u0142goraj",
                "addr:street": "ul. \u017bo\u0142nierzy Wojska Polskiego",
                "addr:housenumber": "4",
                "addr:teryt:simc": 52052,
                "addr:teryt:sym_ul": 987673,
                "contact:phone": "+48 604564148",
                "contact:email": "biuro@barr.org.pl",
                "contact:website": "http:\/\/www.barr.org.pl",
                "ref:regon": "061462990",
                "operator": "Bi\u0142gorajska Agencja Rozwoju Regionalnego Sp\u00f3\u0142ka Akcyjna",
                "operator:type": "private",
                "fixme": "w zale\u017cno\u015bci od przedmiotu dzia\u0142alno\u015bci (np. amenity=training + training=*, amenity=dancing_school, amenity=language_school, amenity=music_school)"
            }
        },
        {
            "id": 125736,
            "type": "Feature",
            "geometry": {
                "type": "Point",
                "coordinates": [
                    22.71623,
                    50.52757
                ]
            },
            "properties": {
                "ref:rspo": 125736,
                "official_name": "Biblioteka Pedagogiczna w Zamo\u015bciu Filia w Bi\u0142goraju",
                "name": "Biblioteka Pedagogiczna w Zamo\u015bciu Filia w Bi\u0142goraju",
                "addr:country": "PL",
                "addr:postcode": "23-400",
                "addr:city": "Bi\u0142goraj",
                "addr:street": "ul. \u017bo\u0142nierzy Wojska Polskiego",
                "addr:housenumber": "4",
                "addr:teryt:simc": 52052,
                "addr:teryt:sym_ul": 987673,
                "contact:phone": "+48 846864255",
                "contact:email": "bpbilgoraj@bipe.pl",
                "ref:regon": "583556000",
                "ref:vatin": "PL9221939795",
                "operator": "Wojew\u00f3dztwo Lubelskie",
                "operator:type": "government",
                "amenity": "library",
                "note": "Parent RSPO: 41046"
            }
        },
        {
            "id": 48930,
            "type": "Feature",
            "geometry": {
                "type": "Point",
                "coordinates": [
                    22.71505,
                    50.52762
                ]
            },
            "properties": {
                "isced:level": "4",
                "ref:rspo": 48930,
                "official_name": "Szko\u0142a Policealna - Medyczne Studium Zawodowe w Bi\u0142goraju",
                "name": "Szko\u0142a Policealna - Medyczne Studium Zawodowe w Bi\u0142goraju",
                "addr:country": "PL",
                "addr:postcode": "23-400",
                "addr:city": "Bi\u0142goraj",
                "addr:street": "ul. Tadeusza Ko\u015bciuszki",
                "addr:housenumber": "127",
                "addr:teryt:simc": 9582,
                "addr:teryt:sym_ul": 987673,
                "contact:phone": "+48 846860052",
                "contact:email": "medyk-bilgoraj@wp.pl",
                "contact:website": "http:\/\/www.medyk.lbl.pl",
                "ref:regon": "950217764",
                "ref:vatin": "PL9181040596",
                "operator": "Wojew\u00f3dztwo Lubelskie",
                "operator:type": "government",
                "amenity": "college"
            }
        },
        {
            "id": 15672,
            "type": "Feature",
            "geometry": {
                "type": "Point",
                "coordinates": [
                    22.7184199,
                    50.52873
                ]
            },
            "properties": {
                "ref:rspo": 15672,
                "official_name": "Zesp\u00f3\u0142 Szk\u00f3\u0142 Specjalnych w Bi\u0142goraju",
                "name": "Zesp\u00f3\u0142 Szk\u00f3\u0142 Specjalnych w Bi\u0142goraju",
                "addr:country": "PL",
                "addr:postcode": "23-400",
                "addr:city": "Bi\u0142goraj",
                "addr:street": "ul. \"Wira\" Bartoszewskiego",
                "addr:housenumber": "10",
                "addr:teryt:simc": 37436,
                "addr:teryt:sym_ul": 987673,
                "contact:phone": "+48 846274964",
                "contact:email": "zsr.teodorowka@op.pl",
                "contact:website": "http:\/\/www.zss.bilgo.pl",
                "ref:regon": "060160487",
                "ref:vatin": "PL9182051248",
                "operator": "Powiat  Bi\u0142gorajski",
                "operator:type": "government",
                "landuse": "education",
                "fixme": "amenity=school, amenity=college albo landuse=education w zale\u017cno\u015bci od tego, jakie plac\u00f3wki wchodz\u0105 w sk\u0142ad zespo\u0142u. Sprawd\u017a, kiedy stosowa\u0107 amenity=* a kiedy landuse=education.",
                "note": "Children RSPO: 54104;54106;54107"
            }
        },
        {
            "id": 17287,
            "type": "Feature",
            "geometry": {
                "type": "Point",
                "coordinates": [
                    22.7184199,
                    50.5287
                ]
            },
            "properties": {
                "ref:rspo": 17287,
                "official_name": "M\u0142odzie\u017cowy Dom Kultury w Bi\u0142goraju",
                "name": "M\u0142odzie\u017cowy Dom Kultury w Bi\u0142goraju",
                "addr:country": "PL",
                "addr:postcode": "23-400",
                "addr:city": "Bi\u0142goraj",
                "addr:street": "ul. \"Wira\" Bartoszewskiego",
                "addr:housenumber": "10",
                "addr:teryt:simc": 37436,
                "addr:teryt:sym_ul": 987673,
                "contact:phone": "+48 846868956",
                "contact:email": "mdk@mdk.lbl.pl",
                "contact:website": "http:\/\/www.mdk.lbl.pl",
                "ref:regon": "950180305",
                "ref:vatin": "PL9181029525",
                "operator": "Powiat  Bi\u0142gorajski",
                "operator:type": "government",
                "amenity": "community_centre",
                "community_centre:for": "juvenile"
            }
        },
        {
            "id": 54104,
            "type": "Feature",
            "geometry": {
                "type": "Point",
                "coordinates": [
                    22.7184199,
                    50.528670000000005
                ]
            },
            "properties": {
                "isced:level": "1;2",
                "ref:rspo": 54104,
                "official_name": "Szko\u0142a Podstawowa Specjalna w Bi\u0142goraju w Zespole Szk\u00f3\u0142 Specjalnych w Bi\u0142goraju",
                "name": "Szko\u0142a Podstawowa Specjalna w Bi\u0142goraju w Zespole Szk\u00f3\u0142 Specjalnych w Bi\u0142goraju",
                "addr:country": "PL",
                "addr:postcode": "23-400",
                "addr:city": "Bi\u0142goraj",
                "addr:street": "ul. \"Wira\" Bartoszewskiego",
                "addr:housenumber": "10",
                "addr:teryt:simc": 37436,
                "addr:teryt:sym_ul": 987673,
                "contact:phone": "+48 846274964",
                "contact:email": "zsr.teodorowka@op.pl",
                "contact:website": "http:\/\/www.zsr.bilgo.pl",
                "ref:regon": "060160524",
                "operator": "Powiat  Bi\u0142gorajski",
                "operator:type": "government",
                "amenity": "school",
                "note": "Parent RSPO: 15672"
            }
        },
        {
            "id": 54106,
            "type": "Feature",
            "geometry": {
                "type": "Point",
                "coordinates": [
                    22.7184199,
                    50.52864
                ]
            },
            "properties": {
                "ref:rspo": 54106,
                "official_name": "Szko\u0142a Specjalna Przysposabiaj\u0105ca Do Pracy w Bi\u0142goraju w Zespole Szk\u00f3\u0142 Specjalnych w Bi\u0142goraju",
                "name": "Szko\u0142a Specjalna Przysposabiaj\u0105ca Do Pracy w Bi\u0142goraju w Zespole Szk\u00f3\u0142 Specjalnych w Bi\u0142goraju",
                "addr:country": "PL",
                "addr:postcode": "23-400",
                "addr:city": "Bi\u0142goraj",
                "addr:street": "ul. \"Wira\" Bartoszewskiego",
                "addr:housenumber": "10",
                "addr:teryt:simc": 37436,
                "addr:teryt:sym_ul": 987673,
                "contact:phone": "+48 846274964",
                "contact:email": "zsr.teodorowka@op.pl",
                "contact:website": "http:\/\/www.zsr.bilgo.pl",
                "ref:regon": "060160501",
                "operator": "Powiat  Bi\u0142gorajski",
                "operator:type": "government",
                "amenity": "school",
                "note": "Parent RSPO: 15672"
            }
        },
        {
            "id": 54107,
            "type": "Feature",
            "geometry": {
                "type": "Point",
                "coordinates": [
                    22.7184199,
                    50.52861
                ]
            },
            "properties": {
                "ref:rspo": 54107,
                "official_name": "Specjalny O\u015brodek Rewalidacyjno-Wychowawczy w Bi\u0142goraju",
                "name": "Specjalny O\u015brodek Rewalidacyjno-Wychowawczy w Bi\u0142goraju",
                "addr:country": "PL",
                "addr:postcode": "23-400",
                "addr:city": "Bi\u0142goraj",
                "addr:street": "ul. \"Wira\" Bartoszewskiego",
                "addr:housenumber": "10",
                "addr:teryt:simc": 37436,
                "addr:teryt:sym_ul": 987673,
                "contact:phone": "+48 846274964",
                "contact:email": "zsr.teodorowka@op.pl",
                "contact:website": "http:\/\/www.zsr.bilgo.pl",
                "ref:regon": "950444780",
                "operator": "Powiat  Bi\u0142gorajski",
                "operator:type": "government",
                "amenity": "school",
                "note": "Parent RSPO: 15672"
            }
        },
        {
            "id": 17285,
            "type": "Feature",
            "geometry": {
                "type": "Point",
                "coordinates": [
                    22.7158,
                    50.52981
                ]
            },
            "properties": {
                "ref:rspo": 17285,
                "official_name": "Regionalne Centrum Edukacji Zawodowej w Bi\u0142goraju",
                "name": "Regionalne Centrum Edukacji Zawodowej w Bi\u0142goraju",
                "addr:country": "PL",
                "addr:postcode": "23-400",
                "addr:city": "Bi\u0142goraj",
                "addr:street": "ul. Tadeusza Ko\u015bciuszki",
                "addr:housenumber": "98",
                "addr:teryt:simc": 9582,
                "addr:teryt:sym_ul": 987673,
                "contact:phone": "+48 846867978",
                "contact:email": "rcezbilgoraj@lbl.pl",
                "contact:website": "http:\/\/www.rcezbilgoraj.lbl.pl",
                "ref:regon": "000180798",
                "ref:vatin": "PL9181761315",
                "operator": "Powiat  Bi\u0142gorajski",
                "operator:type": "government",
                "landuse": "education",
                "fixme": "amenity=school, amenity=college albo landuse=education w zale\u017cno\u015bci od tego, jakie plac\u00f3wki wchodz\u0105 w sk\u0142ad zespo\u0142u. Sprawd\u017a, kiedy stosowa\u0107 amenity=* a kiedy landuse=education.",
                "note": "Children RSPO: 72495;72500;72502;87321;275054"
            }
        },
        {
            "id": 72495,
            "type": "Feature",
            "geometry": {
                "type": "Point",
                "coordinates": [
                    22.7158,
                    50.529779999999995
                ]
            },
            "properties": {
                "isced:level": "3",
                "ref:rspo": 72495,
                "official_name": "Ii Liceum Og\u00f3lnokszta\u0142c\u0105ce dla Doros\u0142ych w Bi\u0142goraju w Regionalnym Centrum Edukacji Zawodowej w Bi\u0142goraju",
                "name": "Ii Liceum Og\u00f3lnokszta\u0142c\u0105ce dla Doros\u0142ych w Bi\u0142goraju w Regionalnym Centrum Edukacji Zawodowej w Bi\u0142goraju",
                "addr:country": "PL",
                "addr:postcode": "23-400",
                "addr:city": "Bi\u0142goraj",
                "addr:street": "ul. Tadeusza Ko\u015bciuszki",
                "addr:housenumber": "98",
                "addr:teryt:simc": 9582,
                "addr:teryt:sym_ul": 987673,
                "contact:phone": "+48 846867978",
                "contact:email": "rcezbilgoraj@lbl.pl",
                "contact:website": "http:\/\/www.rcezbilgoraj.lbl.pl",
                "ref:regon": "061481957",
                "operator": "Powiat  Bi\u0142gorajski",
                "operator:type": "government",
                "amenity": "school",
                "note": "Parent RSPO: 17285"
            }
        },
        {
            "id": 72500,
            "type": "Feature",
            "geometry": {
                "type": "Point",
                "coordinates": [
                    22.7158,
                    50.52975
                ]
            },
            "properties": {
                "isced:level": "3",
                "ref:rspo": 72500,
                "official_name": "Technikum Mechaniczno-Elektryczne w Bi\u0142goraju w Regionalnym Centrum Edukacji Zawodowej w Bi\u0142goraju",
                "name": "Technikum Mechaniczno-Elektryczne w Bi\u0142goraju w Regionalnym Centrum Edukacji Zawodowej w Bi\u0142goraju",
                "addr:country": "PL",
                "addr:postcode": "23-400",
                "addr:city": "Bi\u0142goraj",
                "addr:street": "ul. Tadeusza Ko\u015bciuszki",
                "addr:housenumber": "98",
                "addr:teryt:simc": 9582,
                "addr:teryt:sym_ul": 987673,
                "contact:phone": "+48 846867978",
                "contact:email": "rcezbilgoraj@lbl.pl",
                "contact:website": "http:\/\/www.rcezbilgoraj.lbl.pl",
                "ref:regon": "061482000",
                "operator": "Powiat  Bi\u0142gorajski",
                "operator:type": "government",
                "amenity": "school",
                "note": "Parent RSPO: 17285"
            }
        },
        {
            "id": 72502,
            "type": "Feature",
            "geometry": {
                "type": "Point",
                "coordinates": [
                    22.7158,
                    50.52972
                ]
            },
            "properties": {
                "isced:level": "3",
                "ref:rspo": 72502,
                "official_name": "Bran\u017cowa Szko\u0142a I Stopnia Nr 2 w Bi\u0142goraju w Regionalnym Centrum Edukacji Zawodowej w Bi\u0142goraju",
                "name": "Bran\u017cowa Szko\u0142a I Stopnia Nr 2 w Bi\u0142goraju w Regionalnym Centrum Edukacji Zawodowej w Bi\u0142goraju",
                "addr:country": "PL",
                "addr:postcode": "23-400",
                "addr:city": "Bi\u0142goraj",
                "addr:street": "ul. Tadeusza Ko\u015bciuszki",
                "addr:housenumber": "98",
                "addr:teryt:simc": 9582,
                "addr:teryt:sym_ul": 987673,
                "contact:phone": "+48 846867978",
                "contact:email": "rcezbilgoraj@lbl.pl",
                "contact:website": "http:\/\/www.rcezbilgoraj.lbl.pl",
                "ref:regon": "061482017",
                "operator": "Powiat  Bi\u0142gorajski",
                "operator:type": "government",
                "amenity": "school",
                "note": "Parent RSPO: 17285"
            }
        },
        {
            "id": 87321,
            "type": "Feature",
            "geometry": {
                "type": "Point",
                "coordinates": [
                    22.7158,
                    50.529689999999995
                ]
            },
            "properties": {
                "ref:rspo": 87321,
                "official_name": "Centrum Kszta\u0142cenia Zawodowego",
                "name": "Centrum Kszta\u0142cenia Zawodowego",
                "addr:country": "PL",
                "addr:postcode": "23-400",
                "addr:city": "Bi\u0142goraj",
                "addr:street": "ul. Tadeusza Ko\u015bciuszki",
                "addr:housenumber": "98",
                "addr:teryt:simc": 9582,
                "addr:teryt:sym_ul": 987673,
                "contact:phone": "+48 846867978",
                "contact:email": "rcezbilgoraj@lbl.pl",
                "contact:website": "http:\/\/www.rcezbilgoraj.lbl.pl",
                "ref:regon": "061488511",
                "operator": "Powiat  Bi\u0142gorajski",
                "operator:type": "government",
                "fixme": "w zale\u017cno\u015bci od przedmiotu dzia\u0142alno\u015bci (np. amenity=training + training=*, amenity=dancing_school, amenity=language_school, amenity=music_school) albo amenity=school, amenity=college, albo landuse=education w zale\u017cno\u015bci od tego, jakie plac\u00f3wki wchodz\u0105 w sk\u0142ad zespo\u0142u. Sprawd\u017a, kiedy stosowa\u0107 amenity=* a kiedy landuse=education.",
                "note": "Parent RSPO: 17285"
            }
        },
        {
            "id": 275054,
            "type": "Feature",
            "geometry": {
                "type": "Point",
                "coordinates": [
                    22.7158,
                    50.52966
                ]
            },
            "properties": {
                "isced:level": "3",
                "ref:rspo": 275054,
                "official_name": "Bran\u017cowa Szko\u0142a II Stopnia Nr 2 w Bi\u0142goraju w Regionalnym Centrum Edukacji Zawodowej w Bi\u0142goraju",
                "name": "Bran\u017cowa Szko\u0142a II Stopnia Nr 2 w Bi\u0142goraju w Regionalnym Centrum Edukacji Zawodowej w Bi\u0142goraju",
                "addr:country": "PL",
                "addr:postcode": "23-400",
                "addr:city": "Bi\u0142goraj",
                "addr:street": "ul. Tadeusza Ko\u015bciuszki",
                "addr:housenumber": "98",
                "addr:teryt:simc": 9582,
                "addr:teryt:sym_ul": 987673,
                "contact:phone": "+48 846867978",
                "contact:email": "rcezbilgoraj@lbl.pl",
                "ref:regon": "386525829",
                "operator": "Powiat  Bi\u0142gorajski",
                "operator:type": "government",
                "amenity": "school",
                "note": "Parent RSPO: 17285"
            }
        },
        {
            "id": 75565,
            "type": "Feature",
            "geometry": {
                "type": "Point",
                "coordinates": [
                    22.71605,
                    50.53056
                ]
            },
            "properties": {
                "ref:rspo": 75565,
                "official_name": "Pa\u0144stwowa Szko\u0142a Muzyczna I St. w Bi\u0142goraju",
                "name": "Pa\u0144stwowa Szko\u0142a Muzyczna I St. w Bi\u0142goraju",
                "addr:country": "PL",
                "addr:postcode": "23-400",
                "addr:city": "Bi\u0142goraj",
                "addr:street": "ul. Tadeusza Ko\u015bciuszki",
                "addr:housenumber": "96",
                "addr:teryt:simc": 9582,
                "addr:teryt:sym_ul": 987673,
                "contact:phone": "+48 846880779",
                "contact:email": "psmbj@lbl.pl",
                "contact:website": "http:\/\/muzycznabilgoraj.pl",
                "ref:regon": "001078487",
                "operator": "Ministerstwo Kultury I Dziedzictwa Narodowego",
                "operator:type": "public",
                "amenity": "music_school"
            }
        },
        {
            "id": 28013,
            "type": "Feature",
            "geometry": {
                "type": "Point",
                "coordinates": [
                    22.7017,
                    50.53229
                ]
            },
            "properties": {
                "ref:rspo": 28013,
                "official_name": "Zesp\u00f3\u0142 Szk\u00f3\u0142 Le\u015bnych w Bi\u0142goraju",
                "name": "Zesp\u00f3\u0142 Szk\u00f3\u0142 Le\u015bnych w Bi\u0142goraju",
                "addr:country": "PL",
                "addr:postcode": "23-400",
                "addr:city": "Bi\u0142goraj",
                "addr:street": "ul. Polna",
                "addr:housenumber": "3",
                "addr:teryt:simc": 17011,
                "addr:teryt:sym_ul": 987673,
                "contact:phone": "+48 846880797",
                "contact:email": "sekretariat@zslbilgoraj.pl",
                "contact:website": "http:\/\/www.zslbilgoraj.pl",
                "ref:regon": "000124340",
                "ref:vatin": "PL9181020263",
                "operator": "Ministerstwo \u015arodowiska",
                "operator:type": "public",
                "landuse": "education",
                "fixme": "amenity=school, amenity=college albo landuse=education w zale\u017cno\u015bci od tego, jakie plac\u00f3wki wchodz\u0105 w sk\u0142ad zespo\u0142u. Sprawd\u017a, kiedy stosowa\u0107 amenity=* a kiedy landuse=education.",
                "note": "Children RSPO: 34940;34941"
            }
        },
        {
            "id": 85489,
            "type": "Feature",
            "geometry": {
                "type": "Point",
                "coordinates": [
                    22.7017,
                    50.53226
                ]
            },
            "properties": {
                "isced:level": "1;2",
                "ref:rspo": 85489,
                "official_name": "Szko\u0142a Podstawowa Nr 4",
                "name": "Szko\u0142a Podstawowa Nr 4",
                "addr:country": "PL",
                "addr:postcode": "23-400",
                "addr:city": "Bi\u0142goraj",
                "addr:street": "ul. Polna",
                "addr:housenumber": "3",
                "addr:teryt:simc": 17011,
                "addr:teryt:sym_ul": 987673,
                "contact:phone": "+48 846866023",
                "contact:email": "sp4_bilgoraj@op.pl",
                "ref:regon": "000719978",
                "ref:vatin": "PL9181817501",
                "operator": "Gmina Miasto  Bi\u0142goraj",
                "operator:type": "government",
                "amenity": "school"
            }
        },
        {
            "id": 34940,
            "type": "Feature",
            "geometry": {
                "type": "Point",
                "coordinates": [
                    22.7017,
                    50.532230000000006
                ]
            },
            "properties": {
                "isced:level": "3",
                "ref:rspo": 34940,
                "official_name": "Technikum Le\u015bne im. Polskiego Towarzystwa Le\u015bnego w Bi\u0142goraju",
                "name": "Technikum Le\u015bne",
                "addr:country": "PL",
                "addr:postcode": "23-400",
                "addr:city": "Bi\u0142goraj",
                "addr:street": "ul. Polna",
                "addr:housenumber": "3",
                "addr:teryt:simc": 17011,
                "addr:teryt:sym_ul": 987673,
                "contact:phone": "+48 846880797",
                "contact:email": "sekretariat@zslbilgoraj.pl",
                "contact:website": "http:\/\/www.zslbilgoraj.pl",
                "ref:regon": "951196550",
                "operator": "Ministerstwo \u015arodowiska",
                "operator:type": "public",
                "amenity": "school",
                "note": "Parent RSPO: 28013"
            }
        },
        {
            "id": 34941,
            "type": "Feature",
            "geometry": {
                "type": "Point",
                "coordinates": [
                    22.7017,
                    50.5322
                ]
            },
            "properties": {
                "isced:level": "3",
                "ref:rspo": 34941,
                "official_name": "Bran\u017cowa Szko\u0142a I Stopnia w Bi\u0142goraju",
                "name": "Bran\u017cowa Szko\u0142a I Stopnia w Bi\u0142goraju",
                "addr:country": "PL",
                "addr:postcode": "23-400",
                "addr:city": "Bi\u0142goraj",
                "addr:street": "ul. Polna",
                "addr:housenumber": "3",
                "addr:teryt:simc": 17011,
                "addr:teryt:sym_ul": 987673,
                "contact:phone": "+48 846880797",
                "contact:email": "sekretariat@zslbilgoraj.pl",
                "contact:website": "http:\/\/www.zslbilgoraj.pl",
                "ref:regon": "951196573",
                "operator": "Ministerstwo \u015arodowiska",
                "operator:type": "public",
                "amenity": "school",
                "note": "Parent RSPO: 28013"
            }
        },
        {
            "id": 271744,
            "type": "Feature",
            "geometry": {
                "type": "Point",
                "coordinates": [
                    22.70632,
                    50.53271
                ]
            },
            "properties": {
                "isced:level": "1;2",
                "ref:rspo": 271744,
                "official_name": "Prywatna Szko\u0142a Podstawowa",
                "name": "Prywatna Szko\u0142a Podstawowa",
                "addr:country": "PL",
                "addr:postcode": "23-400",
                "addr:city": "Bi\u0142goraj",
                "addr:street": "ul. W\u0142osiankarska",
                "addr:housenumber": "13",
                "addr:teryt:simc": 24520,
                "addr:teryt:sym_ul": 987673,
                "contact:phone": "+48 730832727",
                "contact:email": "kontakt@lokujwprzyszlosc.pl",
                "ref:regon": "383589214",
                "operator": "Bambini Sp\u00f3\u0142ka Z Ograniczon\u0105 Odpowiedzialno\u015bci\u0105",
                "operator:type": "private",
                "amenity": "school"
            }
        },
        {
            "id": 17286,
            "type": "Feature",
            "geometry": {
                "type": "Point",
                "coordinates": [
                    22.7250799,
                    50.53399
                ]
            },
            "properties": {
                "ref:rspo": 17286,
                "official_name": "Zesp\u00f3\u0142 Szk\u00f3\u0142 Budowlanych I Og\u00f3lnokszta\u0142c\u0105cych w Bi\u0142goraju",
                "name": "Zesp\u00f3\u0142 Szk\u00f3\u0142 Budowlanych I Og\u00f3lnokszta\u0142c\u0105cych w Bi\u0142goraju",
                "addr:country": "PL",
                "addr:postcode": "23-400",
                "addr:city": "Bi\u0142goraj",
                "addr:street": "ul. Cegielniana",
                "addr:housenumber": "24",
                "addr:teryt:simc": 2580,
                "addr:teryt:sym_ul": 987673,
                "contact:phone": "+48 846880636",
                "contact:email": "sekretariatzsb@wp.pl",
                "contact:website": "http:\/\/www.zsbio.lbl.pl",
                "ref:regon": "001002952",
                "ref:vatin": "PL9181056309",
                "operator": "Powiat  Bi\u0142gorajski",
                "operator:type": "government",
                "landuse": "education",
                "fixme": "amenity=school, amenity=college albo landuse=education w zale\u017cno\u015bci od tego, jakie plac\u00f3wki wchodz\u0105 w sk\u0142ad zespo\u0142u. Sprawd\u017a, kiedy stosowa\u0107 amenity=* a kiedy landuse=education.",
                "note": "Children RSPO: 55203;55390;55431;56045;275055"
            }
        },
        {
            "id": 55203,
            "type": "Feature",
            "geometry": {
                "type": "Point",
                "coordinates": [
                    22.7250799,
                    50.53396
                ]
            },
            "properties": {
                "isced:level": "3",
                "ref:rspo": 55203,
                "official_name": "Ii Liceum Og\u00f3lnokszta\u0142c\u0105ce w Bi\u0142goraju w Zespole Szk\u00f3\u0142 Budowlanych I Og\u00f3lnokszta\u0142c\u0105cych w Bi\u0142goraju",
                "name": "Ii Liceum Og\u00f3lnokszta\u0142c\u0105ce w Bi\u0142goraju w Zespole Szk\u00f3\u0142 Budowlanych I Og\u00f3lnokszta\u0142c\u0105cych w Bi\u0142goraju",
                "addr:country": "PL",
                "addr:postcode": "23-400",
                "addr:city": "Bi\u0142goraj",
                "addr:street": "ul. Cegielniana",
                "addr:housenumber": "24",
                "addr:teryt:simc": 2580,
                "addr:teryt:sym_ul": 987673,
                "contact:phone": "+48 846880636",
                "contact:email": "sekretariatzsb@wp.pl",
                "contact:website": "http:\/\/www.zsbio.lbl.pl",
                "ref:regon": "951154184",
                "operator": "Powiat  Bi\u0142gorajski",
                "operator:type": "government",
                "amenity": "school",
                "note": "Parent RSPO: 17286"
            }
        },
        {
            "id": 55390,
            "type": "Feature",
            "geometry": {
                "type": "Point",
                "coordinates": [
                    22.7250799,
                    50.533930000000005
                ]
            },
            "properties": {
                "isced:level": "3",
                "ref:rspo": 55390,
                "official_name": "Technikum Budowlane w Bi\u0142goraju w Zespole Szk\u00f3\u0142 Budowlanych I Og\u00f3lnokszta\u0142c\u0105cych w Bi\u0142goraju",
                "name": "Technikum Budowlane w Bi\u0142goraju w Zespole Szk\u00f3\u0142 Budowlanych I Og\u00f3lnokszta\u0142c\u0105cych w Bi\u0142goraju",
                "addr:country": "PL",
                "addr:postcode": "23-400",
                "addr:city": "Bi\u0142goraj",
                "addr:street": "ul. Cegielniana",
                "addr:housenumber": "24",
                "addr:teryt:simc": 2580,
                "addr:teryt:sym_ul": 987673,
                "contact:phone": "+48 846880636",
                "contact:email": "sekretariatzsb@wp.pl",
                "contact:website": "http:\/\/www.zsbio.lbl.pl",
                "ref:regon": "951154209",
                "operator": "Powiat  Bi\u0142gorajski",
                "operator:type": "government",
                "amenity": "school",
                "note": "Parent RSPO: 17286"
            }
        },
        {
            "id": 55431,
            "type": "Feature",
            "geometry": {
                "type": "Point",
                "coordinates": [
                    22.7250799,
                    50.5339
                ]
            },
            "properties": {
                "isced:level": "3",
                "ref:rspo": 55431,
                "official_name": "Bran\u017cowa Szko\u0142a I Stopnia Nr 3 w Bi\u0142goraju w Zespole Szk\u00f3\u0142 Budowlanych I Og\u00f3lnokszta\u0142c\u0105cych w Bi\u0142goraju",
                "name": "Bran\u017cowa Szko\u0142a I Stopnia Nr 3 w Bi\u0142goraju w Zespole Szk\u00f3\u0142 Budowlanych I Og\u00f3lnokszta\u0142c\u0105cych w Bi\u0142goraju",
                "addr:country": "PL",
                "addr:postcode": "23-400",
                "addr:city": "Bi\u0142goraj",
                "addr:street": "ul. Cegielniana",
                "addr:housenumber": "24",
                "addr:teryt:simc": 2580,
                "addr:teryt:sym_ul": 987673,
                "contact:phone": "+48 846880636",
                "contact:email": "sekretariatzsb@wp.pl",
                "contact:website": "http:\/\/www.zsbio.lbl.pl",
                "ref:regon": "951154215",
                "operator": "Powiat  Bi\u0142gorajski",
                "operator:type": "government",
                "amenity": "school",
                "note": "Parent RSPO: 17286"
            }
        },
        {
            "id": 56045,
            "type": "Feature",
            "geometry": {
                "type": "Point",
                "coordinates": [
                    22.7250799,
                    50.53387
                ]
            },
            "properties": {
                "isced:level": "3",
                "ref:rspo": 56045,
                "official_name": "Iii Liceum Og\u00f3lnokszta\u0142c\u0105ce dla Doros\u0142ych w Bi\u0142goraju w Zespole Szk\u00f3\u0142 Budowlanych I Og\u00f3lnokszta\u0142c\u0105cych w Bi\u0142goraju",
                "name": "Iii Liceum Og\u00f3lnokszta\u0142c\u0105ce dla Doros\u0142ych w Bi\u0142goraju w Zespole Szk\u00f3\u0142 Budowlanych I Og\u00f3lnokszta\u0142c\u0105cych w Bi\u0142goraju",
                "addr:country": "PL",
                "addr:postcode": "23-400",
                "addr:city": "Bi\u0142goraj",
                "addr:street": "ul. Cegielniana",
                "addr:housenumber": "24",
                "addr:teryt:simc": 2580,
                "addr:teryt:sym_ul": 987673,
                "contact:phone": "+48 846880636",
                "contact:email": "sekretariatzsb@wp.pl",
                "contact:website": "http:\/\/www.zsbio.lbl.pl",
                "ref:regon": "061477849",
                "operator": "Powiat  Bi\u0142gorajski",
                "operator:type": "government",
                "amenity": "school",
                "note": "Parent RSPO: 17286"
            }
        },
        {
            "id": 275055,
            "type": "Feature",
            "geometry": {
                "type": "Point",
                "coordinates": [
                    22.7250799,
                    50.533840000000005
                ]
            },
            "properties": {
                "isced:level": "3",
                "ref:rspo": 275055,
                "official_name": "Bran\u017cowa Szko\u0142a II Stopnia Nr 3 w Bi\u0142goraju w Zespole Szk\u00f3\u0142 Budowlanych I Og\u00f3lnokszta\u0142c\u0105cych w Bi\u0142goraju",
                "name": "Bran\u017cowa Szko\u0142a II Stopnia Nr 3 w Bi\u0142goraju w Zespole Szk\u00f3\u0142 Budowlanych I Og\u00f3lnokszta\u0142c\u0105cych w Bi\u0142goraju",
                "addr:country": "PL",
                "addr:postcode": "23-400",
                "addr:city": "Bi\u0142goraj",
                "addr:street": "ul. Cegielniana",
                "addr:housenumber": "24",
                "addr:teryt:simc": 2580,
                "addr:teryt:sym_ul": 987673,
                "contact:phone": "+48 846880636",
                "contact:email": "sekretariatzsb@wp.pl",
                "contact:website": "http:\/\/www.sekretariatzsb@wp.pl",
                "ref:regon": "386525901",
                "operator": "Powiat  Bi\u0142gorajski",
                "operator:type": "government",
                "amenity": "school",
                "note": "Parent RSPO: 17286"
            }
        },
        {
            "id": 85473,
            "type": "Feature",
            "geometry": {
                "type": "Point",
                "coordinates": [
                    22.71894,
                    50.53573
                ]
            },
            "properties": {
                "isced:level": "1;2",
                "ref:rspo": 85473,
                "official_name": "Szko\u0142a Podstawowa Nr 5 im. Ksi\u0119dza Jana Twardowskiego",
                "name": "Szko\u0142a Podstawowa Nr 5",
                "addr:country": "PL",
                "addr:postcode": "23-400",
                "addr:city": "Bi\u0142goraj",
                "addr:street": "ul. Nadstawna",
                "addr:housenumber": "62A",
                "addr:teryt:simc": 13906,
                "addr:teryt:sym_ul": 987673,
                "contact:phone": "+48 846880481",
                "contact:email": "bilgoraj_sp5@poczta.onet.pl",
                "contact:website": "http:\/\/www.sp5bilgoraj.pl\/",
                "ref:regon": "950003804",
                "ref:vatin": "PL9181084352",
                "operator": "Gmina Miasto  Bi\u0142goraj",
                "operator:type": "government",
                "amenity": "school"
            }
        },
        {
            "id": 86362,
            "type": "Feature",
            "geometry": {
                "type": "Point",
                "coordinates": [
                    22.72463,
                    50.53575
                ]
            },
            "properties": {
                "ref:rspo": 86362,
                "official_name": "Akademia Przedszkolaka Publiczne Przedszkole J\u0119zykowe w Bi\u0142goraju",
                "name": "Akademia Przedszkolaka Publiczne Przedszkole J\u0119zykowe w Bi\u0142goraju",
                "addr:country": "PL",
                "addr:postcode": "23-400",
                "addr:city": "Bi\u0142goraj",
                "addr:street": "ul. Aleja 400-lecia",
                "addr:housenumber": "4",
                "addr:teryt:simc": 33614,
                "addr:teryt:sym_ul": 987673,
                "ref:regon": "061487753",
                "operator": "Gra\u017cyna Kargol",
                "operator:type": "private",
                "amenity": "kindergarten"
            }
        },
        {
            "id": 270458,
            "type": "Feature",
            "geometry": {
                "type": "Point",
                "coordinates": [
                    22.72463,
                    50.53572
                ]
            },
            "properties": {
                "ref:rspo": 270458,
                "official_name": "\"Akademia Przedszkolaka\" Prywatne Przedszkole J\u0119zykowe",
                "name": "\"Akademia Przedszkolaka\" Prywatne Przedszkole J\u0119zykowe",
                "addr:country": "PL",
                "addr:postcode": "23-400",
                "addr:city": "Bi\u0142goraj",
                "addr:street": "ul. Aleja 400-lecia",
                "addr:housenumber": "4",
                "addr:teryt:simc": 33614,
                "addr:teryt:sym_ul": 987673,
                "contact:phone": "+48 846864071",
                "ref:regon": "382606028",
                "operator": "Gra\u017cyna Kargol",
                "operator:type": "private",
                "amenity": "kindergarten"
            }
        },
        {
            "id": 85991,
            "type": "Feature",
            "geometry": {
                "type": "Point",
                "coordinates": [
                    22.72303,
                    50.53614
                ]
            },
            "properties": {
                "ref:rspo": 85991,
                "official_name": "Samorz\u0105dowe Przedszkole Nr 1",
                "name": "Samorz\u0105dowe Przedszkole Nr 1",
                "addr:country": "PL",
                "addr:postcode": "23-400",
                "addr:city": "Bi\u0142goraj",
                "addr:street": "ul. D\u0142uga",
                "addr:housenumber": "84",
                "addr:teryt:simc": 3839,
                "addr:teryt:sym_ul": 987673,
                "contact:email": "samorzadowe.przedszkole1@gmail.com",
                "ref:regon": "950443147",
                "ref:vatin": "PL9181822206",
                "operator": "Gmina Miasto  Bi\u0142goraj",
                "operator:type": "government",
                "amenity": "kindergarten"
            }
        },
        {
            "id": 129792,
            "type": "Feature",
            "geometry": {
                "type": "Point",
                "coordinates": [
                    22.7185099,
                    50.53721
                ]
            },
            "properties": {
                "ref:rspo": 129792,
                "official_name": "Lider Szko\u0142a J\u0119zykowa - Akademia Nauki",
                "name": "Lider Szko\u0142a J\u0119zykowa - Akademia Nauki",
                "addr:country": "PL",
                "addr:postcode": "23-400",
                "addr:city": "Bi\u0142goraj",
                "addr:street": "ul. Nadstawna",
                "addr:housenumber": "56a",
                "addr:teryt:simc": 13906,
                "addr:teryt:sym_ul": 987673,
                "contact:phone": "+48 728942650",
                "contact:email": "lider.sekretariat@gmail.com",
                "contact:website": "http:\/\/www.szkolalider.pl",
                "ref:regon": "362904008",
                "operator": "Agata Granda",
                "operator:type": "private",
                "fixme": "w zale\u017cno\u015bci od przedmiotu dzia\u0142alno\u015bci (np. amenity=training + training=*, amenity=dancing_school, amenity=language_school, amenity=music_school)"
            }
        },
        {
            "id": 17263,
            "type": "Feature",
            "geometry": {
                "type": "Point",
                "coordinates": [
                    22.72081,
                    50.53754
                ]
            },
            "properties": {
                "ref:rspo": 17263,
                "official_name": "Poradnia Psychologiczno-Pedagogiczna w Bi\u0142goraju",
                "name": "Poradnia Psychologiczno-Pedagogiczna w Bi\u0142goraju",
                "addr:country": "PL",
                "addr:postcode": "23-400",
                "addr:city": "Bi\u0142goraj",
                "addr:street": "ul. Tadeusza Ko\u015bciuszki",
                "addr:housenumber": "41",
                "addr:door": "43",
                "addr:teryt:simc": 9582,
                "addr:teryt:sym_ul": 987673,
                "contact:phone": "+48 846861066",
                "contact:email": "pppbil@poczta.fm",
                "contact:website": "http:\/\/www.ppp.lbl.pl",
                "ref:regon": "000707834",
                "ref:vatin": "PL9181858782",
                "operator": "Powiat  Bi\u0142gorajski",
                "operator:type": "government",
                "healthcare": "counselling",
                "counselling_type": "education",
                "fixme": "w zale\u017cno\u015bci od przedmiotu dzia\u0142alno\u015bci (np. healthcare=counselling + counselling_type=education albo healthcare=psychotherapist)"
            }
        },
        {
            "id": 41928,
            "type": "Feature",
            "geometry": {
                "type": "Point",
                "coordinates": [
                    22.72081,
                    50.53751
                ]
            },
            "properties": {
                "isced:level": "3",
                "ref:rspo": 41928,
                "official_name": "I Liceum Og\u00f3lnokszta\u0142c\u0105ce im. Organizacji Narod\u00f3w Zjednoczonych w Bi\u0142goraju",
                "name": "I Liceum Og\u00f3lnokszta\u0142c\u0105ce",
                "addr:country": "PL",
                "addr:postcode": "23-400",
                "addr:city": "Bi\u0142goraj",
                "addr:street": "ul. Tadeusza Ko\u015bciuszki",
                "addr:housenumber": "41",
                "addr:door": "43",
                "addr:teryt:simc": 9582,
                "addr:teryt:sym_ul": 987673,
                "contact:phone": "+48 846860442",
                "contact:email": "loonz@lbl.pl",
                "contact:website": "http:\/\/www.loonz.lbl.pl",
                "ref:regon": "950451342",
                "operator": "Powiat  Bi\u0142gorajski",
                "operator:type": "government",
                "amenity": "school"
            }
        },
        {
            "id": 270425,
            "type": "Feature",
            "geometry": {
                "type": "Point",
                "coordinates": [
                    22.72027,
                    50.53837
                ]
            },
            "properties": {
                "ref:rspo": 270425,
                "official_name": "Gadu - Gadu - Punkt Przedszkolno - Terapeutyczny Akson",
                "name": "Gadu - Gadu - Punkt Przedszkolno - Terapeutyczny Akson",
                "addr:country": "PL",
                "addr:postcode": "23-400",
                "addr:city": "Bi\u0142goraj",
                "addr:street": "ul. Ogrodowa",
                "addr:housenumber": "14",
                "addr:teryt:simc": 14834,
                "addr:teryt:sym_ul": 987673,
                "contact:email": "alicjabosak@o2.pl",
                "ref:regon": "382581943",
                "operator": "Alicja Bosak",
                "operator:type": "private",
                "amenity": "kindergarten"
            }
        },
        {
            "id": 86060,
            "type": "Feature",
            "geometry": {
                "type": "Point",
                "coordinates": [
                    22.72932,
                    50.5413
                ]
            },
            "properties": {
                "ref:rspo": 86060,
                "official_name": "Samorz\u0105dowe Przedszkole Nr 2",
                "name": "Samorz\u0105dowe Przedszkole Nr 2",
                "addr:country": "PL",
                "addr:postcode": "23-400",
                "addr:city": "Bi\u0142goraj",
                "addr:street": "ul. Aleja 400-lecia",
                "addr:housenumber": "54",
                "addr:teryt:simc": 33614,
                "addr:teryt:sym_ul": 987673,
                "contact:phone": "+48 846864183",
                "contact:email": "przedszkole2bilgoraj@o2.pl",
                "contact:website": "http:\/\/sp2.bilgo.pl",
                "ref:regon": "950443153",
                "ref:vatin": "PL9181822229",
                "operator": "Gmina Miasto  Bi\u0142goraj",
                "operator:type": "government",
                "amenity": "kindergarten"
            }
        },
        {
            "id": 115607,
            "type": "Feature",
            "geometry": {
                "type": "Point",
                "coordinates": [
                    22.72042,
                    50.54144
                ]
            },
            "properties": {
                "ref:rspo": 115607,
                "official_name": "Rzemie\u015blnicze Centrum Szkolenia Zawodowego",
                "name": "Rzemie\u015blnicze Centrum Szkolenia Zawodowego",
                "addr:country": "PL",
                "addr:postcode": "23-400",
                "addr:city": "Bi\u0142goraj",
                "addr:street": "ul. Lubelska",
                "addr:housenumber": "10",
                "addr:teryt:simc": 11307,
                "addr:teryt:sym_ul": 987673,
                "contact:phone": "+48 846862804",
                "contact:email": "biuro@cech.lbl.pl",
                "contact:website": "http:\/\/www.cech.lbl.pl",
                "ref:regon": "061578912",
                "operator": "Cech Rzemios\u0142 R\u00f3\u017cnych I Drobnej Przedsi\u0119biorczo\u015bci W Bi\u0142goraju",
                "operator:type": "cooperative",
                "fixme": "w zale\u017cno\u015bci od przedmiotu dzia\u0142alno\u015bci (np. amenity=training + training=*, amenity=dancing_school, amenity=language_school, amenity=music_school)"
            }
        },
        {
            "id": 8235,
            "type": "Feature",
            "geometry": {
                "type": "Point",
                "coordinates": [
                    22.73479,
                    50.54173
                ]
            },
            "properties": {
                "ref:rspo": 8235,
                "official_name": "Katolickie Przedszkole im. \u015aw. Jana Paw\u0142a II w Bi\u0142goraju",
                "name": "Katolickie Przedszkole",
                "addr:country": "PL",
                "addr:postcode": "23-400",
                "addr:city": "Bi\u0142goraj",
                "addr:street": "ul. Ksi\u0119cia J\u00f3zefa Poniatowskiego",
                "addr:housenumber": "42",
                "addr:teryt:simc": 17113,
                "addr:teryt:sym_ul": 987673,
                "contact:email": "przedszkolejp2@wp.pl",
                "contact:website": "http:\/\/www.przedszkolejp2.pl",
                "ref:regon": "061454239",
                "ref:vatin": "PL9182161445",
                "operator": "Parafia Rzym.-Kat. Pw. Wniebowzi\u0119cia Naj\u015bwi\u0119tszej Maryi Panny",
                "operator:type": "religious",
                "amenity": "kindergarten"
            }
        },
        {
            "id": 270479,
            "type": "Feature",
            "geometry": {
                "type": "Point",
                "coordinates": [
                    22.73479,
                    50.5417
                ]
            },
            "properties": {
                "ref:rspo": 270479,
                "official_name": "Katolickie Przedszkole im. \u015aw. Jana Paw\u0142a II w Bi\u0142goraju",
                "name": "Katolickie Przedszkole",
                "addr:country": "PL",
                "addr:postcode": "23-400",
                "addr:city": "Bi\u0142goraj",
                "addr:street": "ul. Ksi\u0119cia J\u00f3zefa Poniatowskiego",
                "addr:housenumber": "42",
                "addr:teryt:simc": 17113,
                "addr:teryt:sym_ul": 987673,
                "ref:regon": "382618221",
                "operator": "Parafia Pw.\u015bw.jana Paw\u0142a Ii W Bi\u0142goraju",
                "operator:type": "religious",
                "amenity": "kindergarten"
            }
        },
        {
            "id": 85355,
            "type": "Feature",
            "geometry": {
                "type": "Point",
                "coordinates": [
                    22.72398,
                    50.54215
                ]
            },
            "properties": {
                "isced:level": "1;2",
                "ref:rspo": 85355,
                "official_name": "Szko\u0142a Podstawowa Nr 1 Im S\u0142ugi Bo\u017cego Ksi\u0119dza Prymasa Stefana Kardyna\u0142a Wyszy\u0144skiegow Bi\u0142goraju",
                "name": "Szko\u0142a Podstawowa Nr 1 Im S\u0142ugi Bo\u017cego Ksi\u0119dza Prymasa Stefana Kardyna\u0142a Wyszy\u0144skiegow Bi\u0142goraju",
                "addr:country": "PL",
                "addr:postcode": "23-400",
                "addr:city": "Bi\u0142goraj",
                "addr:street": "ul. 3 Maja",
                "addr:housenumber": "3",
                "addr:teryt:simc": 11937,
                "addr:teryt:sym_ul": 987673,
                "contact:phone": "+48 846860717",
                "contact:email": "sp1bilgoraj@op.pl",
                "ref:regon": "000265431",
                "ref:vatin": "PL9181077091",
                "operator": "Gmina Miasto  Bi\u0142goraj",
                "operator:type": "government",
                "amenity": "school"
            }
        },
        {
            "id": 276566,
            "type": "Feature",
            "geometry": {
                "type": "Point",
                "coordinates": [
                    22.72398,
                    50.54212
                ]
            },
            "properties": {
                "isced:level": "1;2",
                "ref:rspo": 276566,
                "official_name": "Szko\u0142a Podstawowa Mistrzostwa Sportowego Bi\u0142goraj Niepubliczna Szko\u0142a Podstawowa",
                "name": "Szko\u0142a Podstawowa Mistrzostwa Sportowego Bi\u0142goraj Niepubliczna Szko\u0142a Podstawowa",
                "addr:country": "PL",
                "addr:postcode": "23-400",
                "addr:city": "Bi\u0142goraj",
                "addr:street": "ul. 3 Maja",
                "addr:housenumber": "3",
                "addr:teryt:simc": 11937,
                "addr:teryt:sym_ul": 987673,
                "contact:phone": "+48 696074854",
                "contact:email": "biuro@smsbilgoraj.pl",
                "ref:regon": "387233744",
                "operator": "\"M.b. Sport\" Sp\u00f3\u0142ka Z Ograniczon\u0105 Odpowiedzialno\u015bci\u0105",
                "operator:type": "private",
                "amenity": "school"
            }
        },
        {
            "id": 86359,
            "type": "Feature",
            "geometry": {
                "type": "Point",
                "coordinates": [
                    22.72619,
                    50.54292
                ]
            },
            "properties": {
                "ref:rspo": 86359,
                "official_name": "Domek Przedszkolaka",
                "name": "Domek Przedszkolaka",
                "addr:country": "PL",
                "addr:postcode": "23-400",
                "addr:city": "Bi\u0142goraj",
                "addr:street": "ul. D\u0142uga",
                "addr:housenumber": "3",
                "addr:teryt:simc": 3839,
                "addr:teryt:sym_ul": 987673,
                "contact:email": "arnivmax@op.pl",
                "ref:regon": "061487664",
                "ref:vatin": "PL9182120920",
                "operator": "Anna Jankowska",
                "operator:type": "private",
                "amenity": "kindergarten"
            }
        },
        {
            "id": 270452,
            "type": "Feature",
            "geometry": {
                "type": "Point",
                "coordinates": [
                    22.72619,
                    50.54289
                ]
            },
            "properties": {
                "ref:rspo": 270452,
                "official_name": "Przedszkole Publiczne \"Domek Przedszkolaka\"-Anna Pi\u0119tal",
                "name": "Przedszkole Publiczne \"Domek Przedszkolaka\"-Anna Pi\u0119tal",
                "addr:country": "PL",
                "addr:postcode": "23-400",
                "addr:city": "Bi\u0142goraj",
                "addr:street": "ul. D\u0142uga",
                "addr:housenumber": "3",
                "addr:teryt:simc": 3839,
                "addr:teryt:sym_ul": 987673,
                "ref:regon": "382596732",
                "operator": "Krystian Pi\u0119tal",
                "operator:type": "private",
                "amenity": "kindergarten"
            }
        },
        {
            "id": 132106,
            "type": "Feature",
            "geometry": {
                "type": "Point",
                "coordinates": [
                    22.72393,
                    50.54309
                ]
            },
            "properties": {
                "ref:rspo": 132106,
                "official_name": "Szkolne Schronisko M\u0142odzie\u017cowe \"Sitareczka\"",
                "name": "Szkolne Schronisko M\u0142odzie\u017cowe \"Sitareczka\"",
                "addr:country": "PL",
                "addr:postcode": "23-400",
                "addr:city": "Bi\u0142goraj",
                "addr:street": "ul. Zamojska",
                "addr:housenumber": "2",
                "addr:teryt:simc": 25557,
                "addr:teryt:sym_ul": 987673,
                "contact:phone": "+48 846860717",
                "contact:email": "sp1bilgoraj@op.pl",
                "ref:regon": "365467749",
                "operator": "Gmina Miasto  Bi\u0142goraj",
                "operator:type": "government",
                "tourism": "hostel"
            }
        },
        {
            "id": 17284,
            "type": "Feature",
            "geometry": {
                "type": "Point",
                "coordinates": [
                    22.72487,
                    50.5454099
                ]
            },
            "properties": {
                "ref:rspo": 17284,
                "official_name": "Zesp\u00f3\u0142 Szk\u00f3\u0142 Zawodowych I Og\u00f3lnokszta\u0142c\u0105cych w Bi\u0142goraju",
                "name": "Zesp\u00f3\u0142 Szk\u00f3\u0142 Zawodowych I Og\u00f3lnokszta\u0142c\u0105cych w Bi\u0142goraju",
                "addr:country": "PL",
                "addr:postcode": "23-400",
                "addr:city": "Bi\u0142goraj",
                "addr:street": "ul. Przemys\u0142owa",
                "addr:housenumber": "23",
                "addr:teryt:simc": 17742,
                "addr:teryt:sym_ul": 987673,
                "contact:phone": "+48 846880775",
                "contact:email": "sekretariat@zszio.lbl.pl",
                "contact:website": "http:\/\/www.zszio.lbl.pl",
                "ref:regon": "000180261",
                "ref:vatin": "PL9181154615",
                "operator": "Powiat  Bi\u0142gorajski",
                "operator:type": "government",
                "landuse": "education",
                "fixme": "amenity=school, amenity=college albo landuse=education w zale\u017cno\u015bci od tego, jakie plac\u00f3wki wchodz\u0105 w sk\u0142ad zespo\u0142u. Sprawd\u017a, kiedy stosowa\u0107 amenity=* a kiedy landuse=education.",
                "note": "Children RSPO: 72482;72486;72487;72489;275056"
            }
        },
        {
            "id": 72482,
            "type": "Feature",
            "geometry": {
                "type": "Point",
                "coordinates": [
                    22.72487,
                    50.5453799
                ]
            },
            "properties": {
                "isced:level": "3",
                "ref:rspo": 72482,
                "official_name": "Bran\u017cowa Szko\u0142a I Stopnia Nr 1 w Bi\u0142goraju w Zespole Szk\u00f3\u0142 Zawodowych I Og\u00f3lnokszta\u0142c\u0105cych w Bi\u0142goraju",
                "name": "Bran\u017cowa Szko\u0142a I Stopnia Nr 1 w Bi\u0142goraju w Zespole Szk\u00f3\u0142 Zawodowych I Og\u00f3lnokszta\u0142c\u0105cych w Bi\u0142goraju",
                "addr:country": "PL",
                "addr:postcode": "23-400",
                "addr:city": "Bi\u0142goraj",
                "addr:street": "ul. Przemys\u0142owa",
                "addr:housenumber": "23",
                "addr:teryt:simc": 17742,
                "addr:teryt:sym_ul": 987673,
                "contact:phone": "+48 846880775",
                "contact:email": "sekretariat@zszio.lbl.pl",
                "contact:website": "http:\/\/www.zszio.lbl.pl",
                "ref:regon": "951196509",
                "operator": "Powiat  Bi\u0142gorajski",
                "operator:type": "government",
                "amenity": "school",
                "note": "Parent RSPO: 17284"
            }
        },
        {
            "id": 72486,
            "type": "Feature",
            "geometry": {
                "type": "Point",
                "coordinates": [
                    22.72487,
                    50.545349900000005
                ]
            },
            "properties": {
                "isced:level": "3",
                "ref:rspo": 72486,
                "official_name": "Technikum w Bi\u0142goraju w Zespole Szk\u00f3\u0142 Zawodowych I Og\u00f3lnokszta\u0142c\u0105cych w Bi\u0142goraju",
                "name": "Technikum w Bi\u0142goraju w Zespole Szk\u00f3\u0142 Zawodowych I Og\u00f3lnokszta\u0142c\u0105cych w Bi\u0142goraju",
                "addr:country": "PL",
                "addr:postcode": "23-400",
                "addr:city": "Bi\u0142goraj",
                "addr:street": "ul. Przemys\u0142owa",
                "addr:housenumber": "23",
                "addr:teryt:simc": 17742,
                "addr:teryt:sym_ul": 987673,
                "contact:phone": "+48 846880775",
                "contact:email": "sekretariat@zszio.lbl.pl",
                "contact:website": "http:\/\/www.zszio.lbl.pl",
                "ref:regon": "061482603",
                "operator": "Powiat  Bi\u0142gorajski",
                "operator:type": "government",
                "amenity": "school",
                "note": "Parent RSPO: 17284"
            }
        },
        {
            "id": 72487,
            "type": "Feature",
            "geometry": {
                "type": "Point",
                "coordinates": [
                    22.72487,
                    50.5453199
                ]
            },
            "properties": {
                "isced:level": "3",
                "ref:rspo": 72487,
                "official_name": "I Liceum Og\u00f3lnokszta\u0142c\u0105ce dla Doros\u0142ych w Bi\u0142goraju w Zespole Szk\u00f3\u0142 Zawodowych I Og\u00f3lnokszta\u0142c\u0105cych w Bi\u0142goraju",
                "name": "I Liceum Og\u00f3lnokszta\u0142c\u0105ce dla Doros\u0142ych w Bi\u0142goraju w Zespole Szk\u00f3\u0142 Zawodowych I Og\u00f3lnokszta\u0142c\u0105cych w Bi\u0142goraju",
                "addr:country": "PL",
                "addr:postcode": "23-400",
                "addr:city": "Bi\u0142goraj",
                "addr:street": "ul. Przemys\u0142owa",
                "addr:housenumber": "23",
                "addr:teryt:simc": 17742,
                "addr:teryt:sym_ul": 987673,
                "contact:phone": "+48 846880775",
                "contact:email": "sekretariat@zszio.lbl.pl",
                "contact:website": "http:\/\/www.zszio.lbl.pl",
                "ref:regon": "061481710",
                "operator": "Powiat  Bi\u0142gorajski",
                "operator:type": "government",
                "amenity": "school",
                "note": "Parent RSPO: 17284"
            }
        },
        {
            "id": 72489,
            "type": "Feature",
            "geometry": {
                "type": "Point",
                "coordinates": [
                    22.72487,
                    50.5452899
                ]
            },
            "properties": {
                "isced:level": "4",
                "ref:rspo": 72489,
                "official_name": "Szko\u0142a Policealna Nr 1 w Bi\u0142goraju w Zespole Szk\u00f3\u0142 Zawodowych I Og\u00f3lnokszta\u0142c\u0105cych w Bi\u0142goraju",
                "name": "Szko\u0142a Policealna Nr 1 w Bi\u0142goraju w Zespole Szk\u00f3\u0142 Zawodowych I Og\u00f3lnokszta\u0142c\u0105cych w Bi\u0142goraju",
                "addr:country": "PL",
                "addr:postcode": "23-400",
                "addr:city": "Bi\u0142goraj",
                "addr:street": "ul. Przemys\u0142owa",
                "addr:housenumber": "23",
                "addr:teryt:simc": 17742,
                "addr:teryt:sym_ul": 987673,
                "contact:phone": "+48 846880775",
                "contact:email": "sekretariat@zszio.lbl.pl",
                "contact:website": "http:\/\/www.zszio.lbl.pl",
                "ref:regon": "951196544",
                "operator": "Powiat  Bi\u0142gorajski",
                "operator:type": "government",
                "amenity": "college",
                "note": "Parent RSPO: 17284"
            }
        },
        {
            "id": 275056,
            "type": "Feature",
            "geometry": {
                "type": "Point",
                "coordinates": [
                    22.72487,
                    50.545259900000005
                ]
            },
            "properties": {
                "isced:level": "3",
                "ref:rspo": 275056,
                "official_name": "Bran\u017cowa Szko\u0142a II Stopnia Nr 1 w Bi\u0142goraju w Zespole Szk\u00f3\u0142 Zawodowych I Og\u00f3lnokszta\u0142c\u0105cych w Bi\u0142goraju",
                "name": "Bran\u017cowa Szko\u0142a II Stopnia Nr 1 w Bi\u0142goraju w Zespole Szk\u00f3\u0142 Zawodowych I Og\u00f3lnokszta\u0142c\u0105cych w Bi\u0142goraju",
                "addr:country": "PL",
                "addr:postcode": "23-400",
                "addr:city": "Bi\u0142goraj",
                "addr:street": "ul. Przemys\u0142owa",
                "addr:housenumber": "23",
                "addr:teryt:simc": 17742,
                "addr:teryt:sym_ul": 987673,
                "contact:phone": "+48 846880775",
                "contact:email": "sekretariat@zszio.lbl.pl",
                "contact:website": "http:\/\/zszio.lbl.pl",
                "ref:regon": "386526480",
                "operator": "Powiat  Bi\u0142gorajski",
                "operator:type": "government",
                "amenity": "school",
                "note": "Parent RSPO: 17284"
            }
        }
    ]
}