{
    "type": "FeatureCollection",
    "features": [
        {
            "id": 49675,
            "type": "Feature",
            "geometry": {
                "type": "Point",
                "coordinates": [
                    14.33806,
                    53.88783
                ]
            },
            "properties": {
                "ref:rspo": 49675,
                "official_name": "Zesp\u00f3\u0142 Szkolno-Przedszkolny \u015awinouj\u015bciu",
                "name": "Zesp\u00f3\u0142 Szkolno-Przedszkolny \u015awinouj\u015bciu",
                "addr:postcode": "72-605",
                "addr:city": "\u015awinouj\u015bcie",
                "addr:street": "S\u0105siedzka",
                "addr:housenumber": "13a",
                "addr:city:simc": 979722,
                "addr:street:sym_ul": 19585,
                "phone": "+48 913221724",
                "email": "sekretariat@sp9.swinoujscie.pl",
                "website": "http:\/\/www.sp9.swinoujscie.pl",
                "ref:regon": "320711905",
                "ref:vatin": "PL8551570588",
                "operator": "Gmina-Miasto \u015awinouj\u015bcie",
                "operator:type": "government",
                "landuse": "education",
                "fixme": "amenity=school, amenity=college albo landuse=education w zale\u017cno\u015bci od tego, jakie plac\u00f3wki wchodz\u0105 w sk\u0142ad zespo\u0142u. Sprawd\u017a, kiedy stosowa\u0107 amenity=* a kiedy landuse=education.",
                "note": "Children RSPO: 80928;80929"
            }
        },
        {
            "id": 80928,
            "type": "Feature",
            "geometry": {
                "type": "Point",
                "coordinates": [
                    14.33806,
                    53.8878
                ]
            },
            "properties": {
                "ref:rspo": 80928,
                "official_name": "Przedszkole Miejskie nr 7",
                "name": "Przedszkole Miejskie nr 7",
                "addr:postcode": "72-605",
                "addr:city": "\u015awinouj\u015bcie",
                "addr:street": "S\u0105siedzka",
                "addr:housenumber": "13a",
                "addr:city:simc": 979722,
                "addr:street:sym_ul": 19585,
                "phone": "+48 913221724",
                "email": "sp.9swinoujscie@wp.pl",
                "website": "http:\/\/www.sp.9swinoujscie.pl",
                "ref:regon": "320711911",
                "operator": "Gmina-Miasto \u015awinouj\u015bcie",
                "operator:type": "government",
                "amenity": "kindergarten",
                "note": "Parent RSPO: 49675"
            }
        },
        {
            "id": 80929,
            "type": "Feature",
            "geometry": {
                "type": "Point",
                "coordinates": [
                    14.33806,
                    53.88777
                ]
            },
            "properties": {
                "isced:level": "1;2",
                "ref:rspo": 80929,
                "official_name": "Szko\u0142a Podstawowa nr 9 im. Jana Paw\u0142a Ii",
                "name": "Szko\u0142a Podstawowa nr 9",
                "addr:postcode": "72-605",
                "addr:city": "\u015awinouj\u015bcie",
                "addr:street": "S\u0105siedzka",
                "addr:housenumber": "13a",
                "addr:city:simc": 979722,
                "addr:street:sym_ul": 19585,
                "phone": "+48 913221724",
                "email": "sekretariat@sp9.swinoujscie.pl",
                "website": "http:\/\/www.sp9.swinoujscie.pl",
                "ref:regon": "810996722",
                "operator": "Gmina-Miasto \u015awinouj\u015bcie",
                "operator:type": "government",
                "amenity": "school",
                "note": "Parent RSPO: 49675"
            }
        },
        {
            "id": 55152,
            "type": "Feature",
            "geometry": {
                "type": "Point",
                "coordinates": [
                    14.23032,
                    53.89777
                ]
            },
            "properties": {
                "isced:level": "3",
                "ref:rspo": 55152,
                "official_name": "I Liceum Spo\u0142eczne Fundacji Logos",
                "name": "I Liceum Spo\u0142eczne Fundacji Logos",
                "addr:postcode": "72-600",
                "addr:city": "\u015awinouj\u015bcie",
                "addr:street": "Grunwaldzka",
                "addr:housenumber": "47",
                "addr:city:simc": 979722,
                "addr:street:sym_ul": 6260,
                "phone": "+48 913212366",
                "email": "dyrektor@logos.swinoujscie.pl",
                "website": "http:\/\/www.logos.swinoujscie.pl",
                "ref:regon": "321290937",
                "operator": "Fundacja \"Logos\"",
                "operator:type": "ngo",
                "amenity": "school"
            }
        },
        {
            "id": 114467,
            "type": "Feature",
            "geometry": {
                "type": "Point",
                "coordinates": [
                    14.23032,
                    53.89774
                ]
            },
            "properties": {
                "isced:level": "1;2",
                "ref:rspo": 114467,
                "official_name": "Szko\u0142a Podstawowa Fundacji Logos",
                "name": "Szko\u0142a Podstawowa Fundacji Logos",
                "addr:postcode": "72-600",
                "addr:city": "\u015awinouj\u015bcie",
                "addr:street": "Grunwaldzka",
                "addr:housenumber": "47",
                "addr:city:simc": 979722,
                "addr:street:sym_ul": 6260,
                "phone": "+48 913212366",
                "email": "dyrektorsp@logos.swinoujscie.pl",
                "website": "http:\/\/logos.swinoujscie.pl",
                "ref:regon": "321372078",
                "operator": "Fundacja \"Logos\"",
                "operator:type": "ngo",
                "amenity": "school"
            }
        },
        {
            "id": 49680,
            "type": "Feature",
            "geometry": {
                "type": "Point",
                "coordinates": [
                    14.27686,
                    53.89842
                ]
            },
            "properties": {
                "ref:rspo": 49680,
                "official_name": "Zesp\u00f3\u0142 Szk\u00f3\u0142 Morskich im. Eugeniusza Kwiatkowskiego w \u015awinouj\u015bciu",
                "name": "Zesp\u00f3\u0142 Szk\u00f3\u0142 Morskich",
                "addr:postcode": "72-602",
                "addr:city": "\u015awinouj\u015bcie",
                "addr:street": "Jana So\u0142tana",
                "addr:housenumber": "2",
                "addr:city:simc": 979722,
                "addr:street:sym_ul": 20559,
                "phone": "+48 913216287",
                "email": "sekretariat@zsm.edu.pl",
                "website": "http:\/\/www.zsm.edu.pl",
                "ref:regon": "000144785",
                "ref:vatin": "PL8551024420",
                "operator": "Ministerstwo Infrastruktury",
                "operator:type": "public",
                "landuse": "education",
                "fixme": "amenity=school, amenity=college albo landuse=education w zale\u017cno\u015bci od tego, jakie plac\u00f3wki wchodz\u0105 w sk\u0142ad zespo\u0142u. Sprawd\u017a, kiedy stosowa\u0107 amenity=* a kiedy landuse=education.",
                "note": "Children RSPO: 70235;70239"
            }
        },
        {
            "id": 70235,
            "type": "Feature",
            "geometry": {
                "type": "Point",
                "coordinates": [
                    14.27686,
                    53.89839
                ]
            },
            "properties": {
                "isced:level": "3",
                "ref:rspo": 70235,
                "official_name": "Technikum Morskie w \u015awinouj\u015bciu",
                "name": "Technikum Morskie w \u015awinouj\u015bciu",
                "addr:postcode": "72-602",
                "addr:city": "\u015awinouj\u015bcie",
                "addr:street": "Jana So\u0142tana",
                "addr:housenumber": "2",
                "addr:city:simc": 979722,
                "addr:street:sym_ul": 20559,
                "phone": "+48 913216287",
                "email": "sekretariat@zsm.edu.pl",
                "website": "http:\/\/www.zsm.edu.pl",
                "ref:regon": "812079591",
                "operator": "Ministerstwo Infrastruktury",
                "operator:type": "public",
                "amenity": "school",
                "note": "Parent RSPO: 49680"
            }
        },
        {
            "id": 70239,
            "type": "Feature",
            "geometry": {
                "type": "Point",
                "coordinates": [
                    14.27686,
                    53.898360000000004
                ]
            },
            "properties": {
                "isced:level": "3",
                "ref:rspo": 70239,
                "official_name": "Bran\u017cowa Szko\u0142a I Stopnia nr 1 w \u015awinouj\u015bciu",
                "name": "Bran\u017cowa Szko\u0142a I Stopnia nr 1 w \u015awinouj\u015bciu",
                "addr:postcode": "72-602",
                "addr:city": "\u015awinouj\u015bcie",
                "addr:street": "Jana So\u0142tana",
                "addr:housenumber": "2",
                "addr:city:simc": 979722,
                "addr:street:sym_ul": 20559,
                "phone": "+48 913216287",
                "email": "sekretariat@zsm.edu.pl",
                "website": "http:\/\/www.zsm.edu.pl",
                "ref:regon": "812079645",
                "operator": "Ministerstwo Infrastruktury",
                "operator:type": "public",
                "amenity": "school",
                "note": "Parent RSPO: 49680"
            }
        },
        {
            "id": 123761,
            "type": "Feature",
            "geometry": {
                "type": "Point",
                "coordinates": [
                    14.23624,
                    53.90266
                ]
            },
            "properties": {
                "ref:rspo": 123761,
                "official_name": "Zachodniopomorskie Centrum Kszta\u0142cenia Zawodowego I Ustawicznego w \u015awinouj\u015bciu",
                "name": "Zachodniopomorskie Centrum Kszta\u0142cenia Zawodowego I Ustawicznego w \u015awinouj\u015bciu",
                "addr:postcode": "72-600",
                "addr:city": "\u015awinouj\u015bcie",
                "addr:street": "Grodzka",
                "addr:housenumber": "3",
                "addr:city:simc": 979722,
                "addr:street:sym_ul": 6163,
                "phone": "+48 913214949",
                "ref:regon": "321553390",
                "operator": "Wojew\u00f3dztwo Zachodniopomorskie",
                "operator:type": "government",
                "landuse": "education",
                "fixme": "amenity=school, amenity=college albo landuse=education w zale\u017cno\u015bci od tego, jakie plac\u00f3wki wchodz\u0105 w sk\u0142ad zespo\u0142u. Sprawd\u017a, kiedy stosowa\u0107 amenity=* a kiedy landuse=education.",
                "note": "Children RSPO: 114272;123786"
            }
        },
        {
            "id": 114272,
            "type": "Feature",
            "geometry": {
                "type": "Point",
                "coordinates": [
                    14.23624,
                    53.902629999999995
                ]
            },
            "properties": {
                "isced:level": "4",
                "ref:rspo": 114272,
                "official_name": "Wojew\u00f3dzka Szko\u0142a Policealna w \u015awinouj\u015bciu",
                "name": "Wojew\u00f3dzka Szko\u0142a Policealna w \u015awinouj\u015bciu",
                "addr:postcode": "72-600",
                "addr:city": "\u015awinouj\u015bcie",
                "addr:street": "Grodzka",
                "addr:housenumber": "3",
                "addr:city:simc": 979722,
                "addr:street:sym_ul": 6163,
                "phone": "+48 913214949",
                "email": "sekretariat@zckziu.eu",
                "website": "http:\/\/www.medyk.uznam.net.pl",
                "ref:regon": "321367516",
                "operator": "Wojew\u00f3dztwo Zachodniopomorskie",
                "operator:type": "government",
                "amenity": "college",
                "note": "Parent RSPO: 123761"
            }
        },
        {
            "id": 123786,
            "type": "Feature",
            "geometry": {
                "type": "Point",
                "coordinates": [
                    14.23624,
                    53.9026
                ]
            },
            "properties": {
                "isced:level": "3",
                "ref:rspo": 123786,
                "official_name": "Wojew\u00f3dzkie Technikum dla M\u0142odzie\u017cy w \u015awinouj\u015bciu",
                "name": "Wojew\u00f3dzkie Technikum dla M\u0142odzie\u017cy w \u015awinouj\u015bciu",
                "addr:postcode": "72-600",
                "addr:city": "\u015awinouj\u015bcie",
                "addr:street": "Grodzka",
                "addr:housenumber": "3",
                "addr:city:simc": 979722,
                "addr:street:sym_ul": 6163,
                "phone": "+48 913214949",
                "email": "sekretariat@zckziu.eu",
                "ref:regon": "321554017",
                "operator": "Wojew\u00f3dztwo Zachodniopomorskie",
                "operator:type": "government",
                "amenity": "school",
                "note": "Parent RSPO: 123761"
            }
        },
        {
            "id": 263652,
            "type": "Feature",
            "geometry": {
                "type": "Point",
                "coordinates": [
                    14.28064,
                    53.90289
                ]
            },
            "properties": {
                "isced:level": "3",
                "ref:rspo": 263652,
                "official_name": "Bran\u017cowa Szko\u0142a I Stopnia A.k.s. Szko\u0142a Techniczna",
                "name": "Bran\u017cowa Szko\u0142a I Stopnia A.k.s. Szko\u0142a Techniczna",
                "addr:postcode": "72-602",
                "addr:city": "\u015awinouj\u015bcie",
                "addr:street": "Norweska",
                "addr:housenumber": "12",
                "addr:city:simc": 979722,
                "addr:street:sym_ul": 14316,
                "email": "sekretariat@aks.szkola.pl",
                "website": "http:\/\/www.aks.szkola.pl",
                "ref:regon": "368211111",
                "operator": "A.k.s. Szko\u0142a Techniczna Sp\u00f3\u0142ka Z Ograniczon\u0105 Odpowiedzialno\u015bci\u0105",
                "operator:type": "consortium",
                "amenity": "school"
            }
        },
        {
            "id": 274818,
            "type": "Feature",
            "geometry": {
                "type": "Point",
                "coordinates": [
                    14.28064,
                    53.90286
                ]
            },
            "properties": {
                "isced:level": "3",
                "ref:rspo": 274818,
                "official_name": "Bran\u017cowa Szko\u0142a II Stopnia A.k.s. Szko\u0142a Techniczna",
                "name": "Bran\u017cowa Szko\u0142a II Stopnia A.k.s. Szko\u0142a Techniczna",
                "addr:postcode": "72-602",
                "addr:city": "\u015awinouj\u015bcie",
                "addr:street": "Norweska",
                "addr:housenumber": "12",
                "addr:city:simc": 979722,
                "addr:street:sym_ul": 14316,
                "phone": "+48 512263501",
                "email": "sekretariat@aks.szkola.pl",
                "website": "http:\/\/www.aks.szkola.pl",
                "ref:regon": "386319840",
                "operator": "A.k.s. Szko\u0142a Techniczna Sp\u00f3\u0142ka Z Ograniczon\u0105 Odpowiedzialno\u015bci\u0105",
                "operator:type": "consortium",
                "amenity": "school"
            }
        },
        {
            "id": 49681,
            "type": "Feature",
            "geometry": {
                "type": "Point",
                "coordinates": [
                    14.28009,
                    53.90292
                ]
            },
            "properties": {
                "ref:rspo": 49681,
                "official_name": "Zesp\u00f3\u0142 Szk\u00f3\u0142 Wojew\u00f3dzkiego Zak\u0142adu Doskonalenia Zawodowego w Szczecinie z Siedzib\u0105 w \u015awinouj\u015bciu",
                "name": "Zesp\u00f3\u0142 Szk\u00f3\u0142 Wojew\u00f3dzkiego Zak\u0142adu Doskonalenia Zawodowego w Szczecinie z Siedzib\u0105 w \u015awinouj\u015bciu",
                "addr:postcode": "72-602",
                "addr:city": "\u015awinouj\u015bcie",
                "addr:street": "Norweska",
                "addr:housenumber": "12a",
                "addr:city:simc": 979722,
                "addr:street:sym_ul": 14316,
                "phone": "+48 913215136",
                "email": "szkola.swinoujscie@wzdz.pl",
                "website": "http:\/\/www.swinoujscie.wzdz.pl",
                "ref:regon": "321291032",
                "operator": "Wojew\u00f3dzki Zak\u0142ad Doskonalenia Zawodowego W Szczecinie",
                "operator:type": "ngo",
                "landuse": "education",
                "fixme": "amenity=school, amenity=college albo landuse=education w zale\u017cno\u015bci od tego, jakie plac\u00f3wki wchodz\u0105 w sk\u0142ad zespo\u0142u. Sprawd\u017a, kiedy stosowa\u0107 amenity=* a kiedy landuse=education.",
                "note": "Children RSPO: 73790;73791"
            }
        },
        {
            "id": 125296,
            "type": "Feature",
            "geometry": {
                "type": "Point",
                "coordinates": [
                    14.28009,
                    53.90289
                ]
            },
            "properties": {
                "isced:level": "3",
                "ref:rspo": 125296,
                "official_name": "Liceum Og\u00f3lnokszta\u0142c\u0105ce dla Doros\u0142ych w \u015awinouj\u015bciu Wojew\u00f3dzkiego Zak\u0142adu Doskonalenia Zawodowego w Szczecinie",
                "name": "Liceum Og\u00f3lnokszta\u0142c\u0105ce dla Doros\u0142ych w \u015awinouj\u015bciu Wojew\u00f3dzkiego Zak\u0142adu Doskonalenia Zawodowego w Szczecinie",
                "addr:postcode": "72-602",
                "addr:city": "\u015awinouj\u015bcie",
                "addr:street": "Norweska",
                "addr:housenumber": "12 a",
                "addr:city:simc": 979722,
                "addr:street:sym_ul": 14316,
                "phone": "+48 913215136",
                "email": "szkola.swinoujscie@wzdz.pl",
                "website": "http:\/\/www.wzdz.pl",
                "ref:regon": "321575605",
                "operator": "Wojew\u00f3dzki Zak\u0142ad Doskonalenia Zawodowego W Szczecinie",
                "operator:type": "ngo",
                "amenity": "school"
            }
        },
        {
            "id": 274823,
            "type": "Feature",
            "geometry": {
                "type": "Point",
                "coordinates": [
                    14.28009,
                    53.902860000000004
                ]
            },
            "properties": {
                "isced:level": "3",
                "ref:rspo": 274823,
                "official_name": "Bran\u017cowa Szko\u0142a II Stopnia w \u015awinouj\u015bciu Wojew\u00f3dzkiego Zak\u0142adu Doskonalenia Zawodowego w Szczecinie",
                "name": "Bran\u017cowa Szko\u0142a II Stopnia w \u015awinouj\u015bciu Wojew\u00f3dzkiego Zak\u0142adu Doskonalenia Zawodowego w Szczecinie",
                "addr:postcode": "72-602",
                "addr:city": "\u015awinouj\u015bcie",
                "addr:street": "Norweska",
                "addr:housenumber": "12 a",
                "addr:city:simc": 979722,
                "addr:street:sym_ul": 14316,
                "phone": "+48 913215136",
                "email": "szkola.swinoujscie@wzdz.pl",
                "website": "http:\/\/swinoujscie.wzdz.pl\/szkola",
                "ref:regon": "386321334",
                "operator": "Wojew\u00f3dzki Zak\u0142ad Doskonalenia Zawodowego W Szczecinie",
                "operator:type": "ngo",
                "amenity": "school"
            }
        },
        {
            "id": 73790,
            "type": "Feature",
            "geometry": {
                "type": "Point",
                "coordinates": [
                    14.28009,
                    53.90283
                ]
            },
            "properties": {
                "isced:level": "3",
                "ref:rspo": 73790,
                "official_name": "Technikum Zawodowe w \u015awinouj\u015bciu Wojew\u00f3dzkiego Zak\u0142adu Doskonalenia Zawodowego w Szczecinie",
                "name": "Technikum Zawodowe w \u015awinouj\u015bciu Wojew\u00f3dzkiego Zak\u0142adu Doskonalenia Zawodowego w Szczecinie",
                "addr:postcode": "72-602",
                "addr:city": "\u015awinouj\u015bcie",
                "addr:street": "Norweska",
                "addr:housenumber": "12a",
                "addr:city:simc": 979722,
                "addr:street:sym_ul": 14316,
                "phone": "+48 913215136",
                "email": "szkola.swinoujscie@wzdz.pl",
                "website": "http:\/\/www.swinoujscie.wzdz.pl",
                "ref:regon": "321296302",
                "operator": "Wojew\u00f3dzki Zak\u0142ad Doskonalenia Zawodowego W Szczecinie",
                "operator:type": "ngo",
                "amenity": "school",
                "note": "Parent RSPO: 49681"
            }
        },
        {
            "id": 73791,
            "type": "Feature",
            "geometry": {
                "type": "Point",
                "coordinates": [
                    14.28009,
                    53.9028
                ]
            },
            "properties": {
                "isced:level": "3",
                "ref:rspo": 73791,
                "official_name": "Bran\u017cowa Szko\u0142a I Stopnia w \u015awinouj\u015bciu Wojew\u00f3dzkiego Zak\u0142adu Doskonalenia Zawodowego w Szczecinie",
                "name": "Bran\u017cowa Szko\u0142a I Stopnia w \u015awinouj\u015bciu Wojew\u00f3dzkiego Zak\u0142adu Doskonalenia Zawodowego w Szczecinie",
                "addr:postcode": "72-602",
                "addr:city": "\u015awinouj\u015bcie",
                "addr:street": "Norweska",
                "addr:housenumber": "12a",
                "addr:city:simc": 979722,
                "addr:street:sym_ul": 14316,
                "phone": "+48 913215136",
                "email": "szkola.swinoujscie@wzdz.pl",
                "website": "http:\/\/www.swinoujscie.wzdz.pl",
                "ref:regon": "321296271",
                "operator": "Wojew\u00f3dzki Zak\u0142ad Doskonalenia Zawodowego W Szczecinie",
                "operator:type": "ngo",
                "amenity": "school",
                "note": "Parent RSPO: 49681"
            }
        },
        {
            "id": 49676,
            "type": "Feature",
            "geometry": {
                "type": "Point",
                "coordinates": [
                    14.28167,
                    53.90316
                ]
            },
            "properties": {
                "isced:level": "1;2",
                "ref:rspo": 49676,
                "official_name": "Szko\u0142a Podstawowa nr 2 im. Mjr. Henryka Sucharskiego w \u015awinouj\u015bciu",
                "name": "Szko\u0142a Podstawowa nr 2",
                "addr:postcode": "72-602",
                "addr:city": "\u015awinouj\u015bcie",
                "addr:street": "Bia\u0142oruska",
                "addr:housenumber": "2",
                "addr:city:simc": 979722,
                "addr:street:sym_ul": 1182,
                "phone": "+48 913215232",
                "email": "sekretariat@sp2.swi.pl",
                "website": "http:\/\/www.sp2.swi.pl",
                "ref:regon": "000211518",
                "ref:vatin": "PL8551068995",
                "operator": "Gmina-Miasto \u015awinouj\u015bcie",
                "operator:type": "government",
                "amenity": "school"
            }
        },
        {
            "id": 75392,
            "type": "Feature",
            "geometry": {
                "type": "Point",
                "coordinates": [
                    14.28396,
                    53.90324
                ]
            },
            "properties": {
                "ref:rspo": 75392,
                "official_name": "Przedszkole Miejskie nr 9 \"Fantazja\"",
                "name": "Przedszkole Miejskie nr 9 \"Fantazja\"",
                "addr:postcode": "72-602",
                "addr:city": "\u015awinouj\u015bcie",
                "addr:street": "Sosnowa",
                "addr:housenumber": "16",
                "addr:city:simc": 979722,
                "addr:street:sym_ul": 20598,
                "phone": "+48 913215240",
                "email": "przedszkolenr9@neostrada.pl",
                "website": "http:\/\/www.dziewiatka.swinoujscie.pl",
                "ref:regon": "320930895",
                "ref:vatin": "PL8551577892",
                "operator": "Gmina-Miasto \u015awinouj\u015bcie",
                "operator:type": "government",
                "amenity": "kindergarten"
            }
        },
        {
            "id": 80930,
            "type": "Feature",
            "geometry": {
                "type": "Point",
                "coordinates": [
                    14.23179,
                    53.90341
                ]
            },
            "properties": {
                "isced:level": "1;2",
                "ref:rspo": 80930,
                "official_name": "Szko\u0142a Podstawowa nr 4 z Oddzia\u0142ami Integracyjnymi im. Kpt.\u017c.w. Mamerta Stankiewicza w \u015awinouj\u015bciu",
                "name": "Szko\u0142a Podstawowa nr 4 z Oddzia\u0142ami Integracyjnymi",
                "addr:postcode": "72-600",
                "addr:city": "\u015awinouj\u015bcie",
                "addr:street": "Szkolna",
                "addr:housenumber": "1",
                "addr:city:simc": 979722,
                "addr:street:sym_ul": 21970,
                "phone": "+48 913212881",
                "email": "sekretariat@zsp4.swinoujscie.pl",
                "website": "http:\/\/www.zsp4.swinoujscie.pl",
                "ref:regon": "000211837",
                "ref:vatin": "PL8551069049",
                "operator": "Gmina-Miasto \u015awinouj\u015bcie",
                "operator:type": "government",
                "amenity": "school"
            }
        },
        {
            "id": 49679,
            "type": "Feature",
            "geometry": {
                "type": "Point",
                "coordinates": [
                    14.23375,
                    53.90357
                ]
            },
            "properties": {
                "ref:rspo": 49679,
                "official_name": "Centrum Edukacji Zawodowej I Turystyki w \u015awinouj\u015bciu",
                "name": "Centrum Edukacji Zawodowej I Turystyki w \u015awinouj\u015bciu",
                "addr:postcode": "72-600",
                "addr:city": "\u015awinouj\u015bcie",
                "addr:street": "Gdy\u0144ska",
                "addr:housenumber": "26",
                "addr:city:simc": 979722,
                "addr:street:sym_ul": 5441,
                "phone": "+48 913214566",
                "email": "dyrekcja@cezit.swinoujscie.pl",
                "website": "http:\/\/www.cezit.swinoujscie.pl",
                "ref:regon": "000189339",
                "ref:vatin": "PL8551069032",
                "operator": "Gmina-Miasto \u015awinouj\u015bcie",
                "operator:type": "government",
                "landuse": "education",
                "fixme": "amenity=school, amenity=college albo landuse=education w zale\u017cno\u015bci od tego, jakie plac\u00f3wki wchodz\u0105 w sk\u0142ad zespo\u0142u. Sprawd\u017a, kiedy stosowa\u0107 amenity=* a kiedy landuse=education.",
                "note": "Children RSPO: 70231;80101"
            }
        },
        {
            "id": 70231,
            "type": "Feature",
            "geometry": {
                "type": "Point",
                "coordinates": [
                    14.23375,
                    53.90354
                ]
            },
            "properties": {
                "ref:rspo": 70231,
                "official_name": "Szkolne Schronisko M\u0142odzie\u017cowe w \u015awinouj\u015bciu w Centrum Edukacji Zawodowej I Turystyki",
                "name": "Szkolne Schronisko M\u0142odzie\u017cowe w \u015awinouj\u015bciu w Centrum Edukacji Zawodowej I Turystyki",
                "addr:postcode": "72-600",
                "addr:city": "\u015awinouj\u015bcie",
                "addr:street": "Gdy\u0144ska",
                "addr:housenumber": "26",
                "addr:city:simc": 979722,
                "addr:street:sym_ul": 5441,
                "phone": "+48 913270613",
                "email": "recepcja@schronisko.swinoujscie.pl",
                "website": "http:\/\/www.schronisko.swinoujscie.pl",
                "ref:regon": "810827327",
                "operator": "Gmina-Miasto \u015awinouj\u015bcie",
                "operator:type": "government",
                "tourism": "hostel",
                "note": "Parent RSPO: 49679"
            }
        },
        {
            "id": 80101,
            "type": "Feature",
            "geometry": {
                "type": "Point",
                "coordinates": [
                    14.23375,
                    53.903510000000004
                ]
            },
            "properties": {
                "isced:level": "3",
                "ref:rspo": 80101,
                "official_name": "Technikum Zawodowe nr 1W \u015awinouj\u015bciu w Centrum Edukacji Zawodowej I Turystyki w \u015awinouj\u015bciu",
                "name": "Technikum Zawodowe nr 1W \u015awinouj\u015bciu w Centrum Edukacji Zawodowej I Turystyki w \u015awinouj\u015bciu",
                "addr:postcode": "72-600",
                "addr:city": "\u015awinouj\u015bcie",
                "addr:street": "Gdy\u0144ska",
                "addr:housenumber": "26",
                "addr:city:simc": 979722,
                "addr:street:sym_ul": 5441,
                "phone": "+48 913214566",
                "email": "sekretariat@cezit.swinoujscie.pl",
                "website": "http:\/\/www.cezit.swinoujscie.pl",
                "ref:regon": "812525004",
                "operator": "Gmina-Miasto \u015awinouj\u015bcie",
                "operator:type": "government",
                "amenity": "school",
                "note": "Parent RSPO: 49679"
            }
        },
        {
            "id": 75394,
            "type": "Feature",
            "geometry": {
                "type": "Point",
                "coordinates": [
                    14.23392,
                    53.90558
                ]
            },
            "properties": {
                "ref:rspo": 75394,
                "official_name": "Przedszkole Miejskie nr 1 \"Pere\u0142ki Ba\u0142tyku\"",
                "name": "Przedszkole Miejskie nr 1 \"Pere\u0142ki Ba\u0142tyku\"",
                "addr:postcode": "72-600",
                "addr:city": "\u015awinouj\u015bcie",
                "addr:street": "Warszawska",
                "addr:housenumber": "13",
                "addr:city:simc": 979722,
                "addr:street:sym_ul": 23682,
                "phone": "+48 913274614",
                "email": "pmnr1.perelkibaltyku@gmail.com",
                "website": "http:\/\/www.przedszkole-miejskie-nr1.pl",
                "ref:regon": "320930910",
                "ref:vatin": "PL8551577886",
                "operator": "Gmina-Miasto \u015awinouj\u015bcie",
                "operator:type": "government",
                "amenity": "kindergarten"
            }
        },
        {
            "id": 80064,
            "type": "Feature",
            "geometry": {
                "type": "Point",
                "coordinates": [
                    14.23424,
                    53.90576
                ]
            },
            "properties": {
                "ref:rspo": 80064,
                "official_name": "Centrum Kszta\u0142cenia Ustawicznego I Praktycznego Przy Cechu Rzemios\u0142 R\u00f3\u017cnych w \u015awinouj\u015bciu",
                "name": "Centrum Kszta\u0142cenia Ustawicznego I Praktycznego Przy Cechu Rzemios\u0142 R\u00f3\u017cnych w \u015awinouj\u015bciu",
                "addr:postcode": "72-600",
                "addr:city": "\u015awinouj\u015bcie",
                "addr:street": "Warszawska",
                "addr:housenumber": "20",
                "addr:city:simc": 979722,
                "addr:street:sym_ul": 23682,
                "phone": "+48 783215860",
                "email": "poczta@crrs.pl",
                "website": "http:\/\/www.crrs.pl",
                "ref:regon": "321298927",
                "operator": "Cech Rzemios\u0142 R\u00f3\u017cnych",
                "operator:type": "ngo",
                "fixme": "w zale\u017cno\u015bci od przedmiotu dzia\u0142alno\u015bci (np. amenity=training + training=*, amenity=dancing_school, amenity=language_school, amenity=music_school) albo amenity=school, amenity=college, albo landuse=education w zale\u017cno\u015bci od tego, jakie plac\u00f3wki wchodz\u0105 w sk\u0142ad zespo\u0142u. Sprawd\u017a, kiedy stosowa\u0107 amenity=* a kiedy landuse=education."
            }
        },
        {
            "id": 79996,
            "type": "Feature",
            "geometry": {
                "type": "Point",
                "coordinates": [
                    14.24258,
                    53.90686
                ]
            },
            "properties": {
                "isced:level": "1;2",
                "ref:rspo": 79996,
                "official_name": "Szko\u0142a Podstawowa nr 6 im. Mieszka I w \u015awinouj\u015bciu",
                "name": "Szko\u0142a Podstawowa nr 6",
                "addr:postcode": "72-600",
                "addr:city": "\u015awinouj\u015bcie",
                "addr:street": "Stanis\u0142awa Staszica",
                "addr:housenumber": "17",
                "addr:city:simc": 979722,
                "addr:street:sym_ul": 21071,
                "phone": "+48 913213707",
                "email": "sekretariat1@szkolasp6.pl",
                "website": "http:\/\/www.szkolasp6.pl",
                "ref:regon": "000212423",
                "ref:vatin": "PL8551069003",
                "operator": "Gmina-Miasto \u015awinouj\u015bcie",
                "operator:type": "government",
                "amenity": "school"
            }
        },
        {
            "id": 75396,
            "type": "Feature",
            "geometry": {
                "type": "Point",
                "coordinates": [
                    14.22764,
                    53.90747
                ]
            },
            "properties": {
                "ref:rspo": 75396,
                "official_name": "Przedszkole Miejskie nr 11 z Oddzia\u0142ami Integracyjnymi \"T\u0119cza\"",
                "name": "Przedszkole Miejskie nr 11 z Oddzia\u0142ami Integracyjnymi \"T\u0119cza\"",
                "addr:postcode": "72-600",
                "addr:city": "\u015awinouj\u015bcie",
                "addr:street": "Bydgoska",
                "addr:housenumber": "15",
                "addr:city:simc": 979722,
                "addr:street:sym_ul": 2498,
                "phone": "+48 913508505",
                "email": "dyrekcja@tecza.swi.pl",
                "website": "http:\/\/www.p11tecza.edupage.org",
                "ref:regon": "320930866",
                "ref:vatin": "PL8551577780",
                "operator": "Gmina-Miasto \u015awinouj\u015bcie",
                "operator:type": "government",
                "amenity": "kindergarten"
            }
        },
        {
            "id": 75395,
            "type": "Feature",
            "geometry": {
                "type": "Point",
                "coordinates": [
                    14.24189,
                    53.90768
                ]
            },
            "properties": {
                "ref:rspo": 75395,
                "official_name": "Przedszkole Miejskie nr 3 \"Pod \u017baglami\"",
                "name": "Przedszkole Miejskie nr 3 \"Pod \u017baglami\"",
                "addr:postcode": "72-600",
                "addr:city": "\u015awinouj\u015bcie",
                "addr:street": "Batalion\u00f3w Ch\u0142opskich",
                "addr:housenumber": "5",
                "addr:city:simc": 979722,
                "addr:street:sym_ul": 868,
                "phone": "+48 913214746",
                "email": "poczta@przedszkole3.swinoujscie.pl",
                "website": "http:\/\/www.przedszkole3.swinoujscie.pl",
                "ref:regon": "320930872",
                "ref:vatin": "PL8551577797",
                "operator": "Gmina-Miasto \u015awinouj\u015bcie",
                "operator:type": "government",
                "amenity": "kindergarten"
            }
        },
        {
            "id": 80052,
            "type": "Feature",
            "geometry": {
                "type": "Point",
                "coordinates": [
                    14.24309,
                    53.90848
                ]
            },
            "properties": {
                "ref:rspo": 80052,
                "official_name": "O\u015brodek Kszta\u0142cenia Zawodowego I Szkole\u0144 Morskich w \u015awinouj\u015bciu",
                "name": "O\u015brodek Kszta\u0142cenia Zawodowego I Szkole\u0144 Morskich w \u015awinouj\u015bciu",
                "addr:postcode": "72-600",
                "addr:city": "\u015awinouj\u015bcie",
                "addr:street": "Rybaki",
                "addr:housenumber": "13",
                "addr:city:simc": 979722,
                "addr:street:sym_ul": 19150,
                "phone": "+48 509385101",
                "email": "swinoujscie@wzdz.pl",
                "website": "http:\/\/www.wzdz.pl",
                "ref:regon": "321299217",
                "ref:vatin": "PL8510107787",
                "operator": "Wojew\u00f3dzki Zak\u0142ad Doskonalenia Zawodowego W Szczecinie",
                "operator:type": "ngo",
                "fixme": "w zale\u017cno\u015bci od przedmiotu dzia\u0142alno\u015bci (np. amenity=training + training=*, amenity=dancing_school, amenity=language_school, amenity=music_school)"
            }
        },
        {
            "id": 54267,
            "type": "Feature",
            "geometry": {
                "type": "Point",
                "coordinates": [
                    14.25195,
                    53.90923
                ]
            },
            "properties": {
                "ref:rspo": 54267,
                "official_name": "Niepubliczne Przedszkole \"Tygrysek\"",
                "name": "Niepubliczne Przedszkole \"Tygrysek\"",
                "addr:postcode": "72-600",
                "addr:city": "\u015awinouj\u015bcie",
                "addr:street": "Bohater\u00f3w Wrze\u015bnia",
                "addr:housenumber": "71",
                "addr:door": "72",
                "addr:city:simc": 979722,
                "addr:street:sym_ul": 1688,
                "phone": "+48 913211369",
                "email": "tygrysek.71@op.pl",
                "website": "http:\/\/www.przedszkoletygrysekswinoujscie.pl",
                "ref:regon": "321290860",
                "operator": "Mateusz Dziemitko",
                "operator:type": "private",
                "amenity": "kindergarten"
            }
        },
        {
            "id": 75393,
            "type": "Feature",
            "geometry": {
                "type": "Point",
                "coordinates": [
                    14.24088,
                    53.90952
                ]
            },
            "properties": {
                "ref:rspo": 75393,
                "official_name": "Przedszkole Miejskie nr 5 \"Bajka\" z Oddzia\u0142ami Integracyjnymi",
                "name": "Przedszkole Miejskie nr 5 \"Bajka\" z Oddzia\u0142ami Integracyjnymi",
                "addr:postcode": "72-600",
                "addr:city": "\u015awinouj\u015bcie",
                "addr:street": "Wincentego Witosa",
                "addr:housenumber": "7",
                "addr:city:simc": 979722,
                "addr:street:sym_ul": 24459,
                "phone": "+48 913213963",
                "email": "przedszkole5@fornet.com.pl",
                "website": "http:\/\/www.bajka.swinoujscie.pl",
                "ref:regon": "320930889",
                "ref:vatin": "PL8551577774",
                "operator": "Gmina-Miasto \u015awinouj\u015bcie",
                "operator:type": "government",
                "amenity": "kindergarten"
            }
        },
        {
            "id": 54264,
            "type": "Feature",
            "geometry": {
                "type": "Point",
                "coordinates": [
                    14.2507,
                    53.91057
                ]
            },
            "properties": {
                "ref:rspo": 54264,
                "official_name": "Poradnia Psychologiczno-Pedagogiczna",
                "name": "Poradnia Psychologiczno-Pedagogiczna",
                "addr:postcode": "72-600",
                "addr:city": "\u015awinouj\u015bcie",
                "addr:street": "Piastowska",
                "addr:housenumber": "54",
                "addr:city:simc": 979722,
                "addr:street:sym_ul": 16046,
                "phone": "+48 913214911",
                "email": "sekretariat@poradnia.swinoujscie.pl",
                "website": "http:\/\/poradnia.swinoujscie.pl",
                "ref:regon": "000703150",
                "ref:vatin": "PL8551024348",
                "operator": "Gmina-Miasto \u015awinouj\u015bcie",
                "operator:type": "government",
                "healthcare": "counselling",
                "counselling_type": "education",
                "fixme": "w zale\u017cno\u015bci od przedmiotu dzia\u0142alno\u015bci (np. healthcare=counselling + counselling_type=education albo healthcare=psychotherapist)"
            }
        },
        {
            "id": 49682,
            "type": "Feature",
            "geometry": {
                "type": "Point",
                "coordinates": [
                    14.25018,
                    53.91061
                ]
            },
            "properties": {
                "ref:rspo": 49682,
                "official_name": "Specjalny O\u015brodek Szkolno - Wychowaczy im. Marii Konopnickiej w \u015awinouj\u015bciu",
                "name": "Specjalny O\u015brodek Szkolno - Wychowaczy",
                "addr:postcode": "72-600",
                "addr:city": "\u015awinouj\u015bcie",
                "addr:street": "Piastowska",
                "addr:housenumber": "55",
                "addr:city:simc": 979722,
                "addr:street:sym_ul": 16046,
                "phone": "+48 913215426",
                "email": "dyrektor@sosw.swinoujscie.pl",
                "website": "http:\/\/www.sosw.swinoujscie.pl",
                "ref:regon": "000190390",
                "ref:vatin": "PL8551058465",
                "operator": "Gmina-Miasto \u015awinouj\u015bcie",
                "operator:type": "government",
                "amenity": "school",
                "note": "Children RSPO: 73786;73788;73789;75694"
            }
        },
        {
            "id": 73786,
            "type": "Feature",
            "geometry": {
                "type": "Point",
                "coordinates": [
                    14.25018,
                    53.910579999999996
                ]
            },
            "properties": {
                "isced:level": "1;2",
                "ref:rspo": 73786,
                "official_name": "Szko\u0142a Podstawowa Specjalna w Specjalnym O\u015brodku Szkolno-Wychowawczym im. Marii Konopnickiej w \u015awinouj\u015bciu",
                "name": "Szko\u0142a Podstawowa Specjalna w Specjalnym O\u015brodku Szkolno-Wychowawczym",
                "addr:postcode": "72-600",
                "addr:city": "\u015awinouj\u015bcie",
                "addr:street": "Piastowska",
                "addr:housenumber": "55",
                "addr:city:simc": 979722,
                "addr:street:sym_ul": 16046,
                "phone": "+48 913215426",
                "email": "dyrektor@sosw.swinoujscie.pl",
                "website": "http:\/\/www.sosw.swinoujscie.pl",
                "ref:regon": "000737829",
                "operator": "Gmina-Miasto \u015awinouj\u015bcie",
                "operator:type": "government",
                "amenity": "school",
                "note": "Parent RSPO: 49682"
            }
        },
        {
            "id": 73788,
            "type": "Feature",
            "geometry": {
                "type": "Point",
                "coordinates": [
                    14.25018,
                    53.91055
                ]
            },
            "properties": {
                "isced:level": "3",
                "ref:rspo": 73788,
                "official_name": "Bran\u017cowa Szko\u0142a Specjalna I Stopnia",
                "name": "Bran\u017cowa Szko\u0142a Specjalna I Stopnia",
                "addr:postcode": "72-600",
                "addr:city": "\u015awinouj\u015bcie",
                "addr:street": "Piastowska",
                "addr:housenumber": "55",
                "addr:city:simc": 979722,
                "addr:street:sym_ul": 16046,
                "phone": "+48 913215426",
                "email": "dyrektor@sosw.swinoujscie.pl",
                "website": "http:\/\/www.sosw.swinoujscie.pl",
                "ref:regon": "811702556",
                "operator": "Gmina-Miasto \u015awinouj\u015bcie",
                "operator:type": "government",
                "amenity": "school",
                "note": "Parent RSPO: 49682"
            }
        },
        {
            "id": 73789,
            "type": "Feature",
            "geometry": {
                "type": "Point",
                "coordinates": [
                    14.25018,
                    53.91052
                ]
            },
            "properties": {
                "ref:rspo": 73789,
                "official_name": "Szko\u0142a Specjalna Przysposbiaj\u0105ca do Pracy w Specjalnym O\u015brodku Szkolno-Wychowawczym im. Marii Konopnickiej w \u015awinouj\u015bciu",
                "name": "Szko\u0142a Specjalna Przysposbiaj\u0105ca do Pracy w Specjalnym O\u015brodku Szkolno-Wychowawczym",
                "addr:postcode": "72-600",
                "addr:city": "\u015awinouj\u015bcie",
                "addr:street": "Piastowska",
                "addr:housenumber": "55",
                "addr:city:simc": 979722,
                "addr:street:sym_ul": 16046,
                "phone": "+48 913215426",
                "email": "dyrektor@sosw.swinoujscie.pl",
                "website": "http:\/\/www.sosw.swinoujscie.pl",
                "ref:regon": "320409477",
                "operator": "Gmina-Miasto \u015awinouj\u015bcie",
                "operator:type": "government",
                "amenity": "school",
                "note": "Parent RSPO: 49682"
            }
        },
        {
            "id": 75694,
            "type": "Feature",
            "geometry": {
                "type": "Point",
                "coordinates": [
                    14.25018,
                    53.910489999999996
                ]
            },
            "properties": {
                "ref:rspo": 75694,
                "official_name": "Przedszkole Specjalne w Specjalnym O\u015brodku Szkolno-Wychowawczym im. Marii Konopnickiej w \u015awinouj\u015bciu",
                "name": "Przedszkole Specjalne w Specjalnym O\u015brodku Szkolno-Wychowawczym",
                "addr:postcode": "72-600",
                "addr:city": "\u015awinouj\u015bcie",
                "addr:street": "Piastowska",
                "addr:housenumber": "55",
                "addr:city:simc": 979722,
                "addr:street:sym_ul": 16046,
                "phone": "+48 913215426",
                "email": "dyrektor@sosw.swinoujscie.pl",
                "website": "http:\/\/www.sosw.swinoujscie.pl",
                "ref:regon": "321130783",
                "operator": "Gmina-Miasto \u015awinouj\u015bcie",
                "operator:type": "government",
                "amenity": "kindergarten",
                "note": "Parent RSPO: 49682"
            }
        },
        {
            "id": 88183,
            "type": "Feature",
            "geometry": {
                "type": "Point",
                "coordinates": [
                    14.24511,
                    53.91079
                ]
            },
            "properties": {
                "ref:rspo": 88183,
                "official_name": "Aktywne Przedszkole \"Kogut\" w \u015awinouj\u015bciu",
                "name": "Aktywne Przedszkole \"Kogut\" w \u015awinouj\u015bciu",
                "addr:postcode": "72-600",
                "addr:city": "\u015awinouj\u015bcie",
                "addr:street": "Piastowska",
                "addr:housenumber": "62",
                "addr:city:simc": 979722,
                "addr:street:sym_ul": 16046,
                "phone": "+48 503923727",
                "email": "j.kantorska@przedszkolekogut.pl",
                "website": "http:\/\/www.przedszkolekogut.pl",
                "ref:regon": "321302623",
                "operator": "Rino Rino Sp\u00f3\u0142ka Z Ograniczon\u0105 Odpowiedzialno\u015bci\u0105",
                "operator:type": "private",
                "amenity": "kindergarten"
            }
        },
        {
            "id": 55144,
            "type": "Feature",
            "geometry": {
                "type": "Point",
                "coordinates": [
                    14.23916,
                    53.9114
                ]
            },
            "properties": {
                "isced:level": "1;2",
                "ref:rspo": 55144,
                "official_name": "Spo\u0142eczna Szko\u0142a Podstawowa Spo\u0142ecznego Towarzystwa Szko\u0142y Gimnazjalnej",
                "name": "Spo\u0142eczna Szko\u0142a Podstawowa Spo\u0142ecznego Towarzystwa Szko\u0142y Gimnazjalnej",
                "addr:postcode": "72-600",
                "addr:city": "\u015awinouj\u015bcie",
                "addr:street": "Jana Matejki",
                "addr:housenumber": "35",
                "addr:city:simc": 979722,
                "addr:street:sym_ul": 12489,
                "phone": "+48 913279141",
                "email": "sekretariat@stsg.pl",
                "website": "http:\/\/www.stsg.pl",
                "ref:regon": "321296147",
                "operator": "Spo\u0142eczne Towarzystwo Szko\u0142y Gimnazjalnej W \u015awinouj\u015bciu",
                "operator:type": "ngo",
                "amenity": "school"
            }
        },
        {
            "id": 55147,
            "type": "Feature",
            "geometry": {
                "type": "Point",
                "coordinates": [
                    14.23916,
                    53.91137
                ]
            },
            "properties": {
                "isced:level": "3",
                "ref:rspo": 55147,
                "official_name": "Spo\u0142eczne Liceum Og\u00f3lnokszta\u0142c\u0105ce Spo\u0142ecznego Towarzystwa Szko\u0142y Gimnazjalnej",
                "name": "Spo\u0142eczne Liceum Og\u00f3lnokszta\u0142c\u0105ce Spo\u0142ecznego Towarzystwa Szko\u0142y Gimnazjalnej",
                "addr:postcode": "72-600",
                "addr:city": "\u015awinouj\u015bcie",
                "addr:street": "Jana Matejki",
                "addr:housenumber": "35",
                "addr:city:simc": 979722,
                "addr:street:sym_ul": 12489,
                "phone": "+48 913279141",
                "email": "sekretariat@stsg.pl",
                "website": "http:\/\/www.stsg.pl",
                "ref:regon": "321296070",
                "operator": "Spo\u0142eczne Towarzystwo Szko\u0142y Gimnazjalnej W \u015awinouj\u015bciu",
                "operator:type": "ngo",
                "amenity": "school"
            }
        },
        {
            "id": 56172,
            "type": "Feature",
            "geometry": {
                "type": "Point",
                "coordinates": [
                    14.22642,
                    53.91155
                ]
            },
            "properties": {
                "ref:rspo": 56172,
                "official_name": "O\u015brodek Rehabilitacyjno-Edukacyjno-Wychowawczy w \u015awinouj\u015bciu",
                "name": "O\u015brodek Rehabilitacyjno-Edukacyjno-Wychowawczy w \u015awinouj\u015bciu",
                "addr:postcode": "72-600",
                "addr:city": "\u015awinouj\u015bcie",
                "addr:street": "Basztowa",
                "addr:housenumber": "11",
                "addr:city:simc": 979722,
                "addr:street:sym_ul": 861,
                "phone": "+48 913213559",
                "email": "orew.swinoujscie@psouu.org.pl",
                "website": "http:\/\/www.niepelnosprawni.swi.pl",
                "ref:regon": "321291055",
                "operator": "Polskie Stowarzyszenie Na Rzecz Os\u00f3b Z Niepe\u0142nosprawno\u015bci\u0105 Intelektualn\u0105 Ko\u0142o W \u015awinouj\u015bciu",
                "operator:type": "ngo",
                "amenity": "school"
            }
        },
        {
            "id": 56175,
            "type": "Feature",
            "geometry": {
                "type": "Point",
                "coordinates": [
                    14.22642,
                    53.911519999999996
                ]
            },
            "properties": {
                "ref:rspo": 56175,
                "official_name": "Niepubliczne Przedszkole Specjalne \"Je\u017cyk\"",
                "name": "Niepubliczne Przedszkole Specjalne \"Je\u017cyk\"",
                "addr:postcode": "72-600",
                "addr:city": "\u015awinouj\u015bcie",
                "addr:street": "Basztowa",
                "addr:housenumber": "11",
                "addr:city:simc": 979722,
                "addr:street:sym_ul": 861,
                "phone": "+48 913213559",
                "email": "orew.swinoujscie@psouu.org.pl",
                "website": "http:\/\/www.niepelnosprawni.swi.pl",
                "ref:regon": "321291180",
                "operator": "Polskie Stowarzyszenie Na Rzecz Os\u00f3b Z Niepe\u0142nosprawno\u015bci\u0105 Intelektualn\u0105 Ko\u0142o W \u015awinouj\u015bciu",
                "operator:type": "ngo",
                "amenity": "kindergarten"
            }
        },
        {
            "id": 54262,
            "type": "Feature",
            "geometry": {
                "type": "Point",
                "coordinates": [
                    14.24494,
                    53.91156
                ]
            },
            "properties": {
                "isced:level": "3",
                "ref:rspo": 54262,
                "official_name": "Liceum Og\u00f3lnokszta\u0142c\u0105ce z Oddzia\u0142ami Integracyjnymi im. Mieszka I",
                "name": "Liceum Og\u00f3lnokszta\u0142c\u0105ce z Oddzia\u0142ami Integracyjnymi",
                "addr:postcode": "72-600",
                "addr:city": "\u015awinouj\u015bcie",
                "addr:street": "Mieczys\u0142awa Niedzia\u0142kowskiego",
                "addr:housenumber": "2",
                "addr:city:simc": 979722,
                "addr:street:sym_ul": 14140,
                "phone": "+48 913212630",
                "email": "sekretariat@lo-mieszko.pl",
                "website": "http:\/\/www.lo-mieszko.pl",
                "ref:regon": "000207712",
                "ref:vatin": "PL8551086183",
                "operator": "Gmina-Miasto \u015awinouj\u015bcie",
                "operator:type": "government",
                "amenity": "school"
            }
        },
        {
            "id": 75391,
            "type": "Feature",
            "geometry": {
                "type": "Point",
                "coordinates": [
                    14.25348,
                    53.912
                ]
            },
            "properties": {
                "ref:rspo": 75391,
                "official_name": "Przedszkole Miejskie nr 10 \"Kolorowy \u015awiat\"",
                "name": "Przedszkole Miejskie nr 10 \"Kolorowy \u015awiat\"",
                "addr:postcode": "72-600",
                "addr:city": "\u015awinouj\u015bcie",
                "addr:street": "Monte Cassino",
                "addr:housenumber": "24",
                "addr:city:simc": 979722,
                "addr:street:sym_ul": 13252,
                "phone": "+48 913274780",
                "email": "dziesiatka@fornet.com.pl",
                "website": "http:\/\/www.dziesiatka.swi.pl",
                "ref:regon": "320930903",
                "ref:vatin": "PL8551577805",
                "operator": "Gmina-Miasto \u015awinouj\u015bcie",
                "operator:type": "government",
                "amenity": "kindergarten"
            }
        },
        {
            "id": 124234,
            "type": "Feature",
            "geometry": {
                "type": "Point",
                "coordinates": [
                    14.2542457,
                    53.9123664
                ]
            },
            "properties": {
                "ref:rspo": 124234,
                "official_name": "Przedszkole Niepubliczne \"Wiatraczek\" w \u015awinouj\u015bciu",
                "name": "Przedszkole Niepubliczne \"Wiatraczek\" w \u015awinouj\u015bciu",
                "addr:postcode": "72-600",
                "addr:city": "\u015awinouj\u015bcie",
                "addr:street": "Monte Cassino",
                "addr:housenumber": "22",
                "addr:city:simc": 979722,
                "addr:street:sym_ul": 13252,
                "phone": "+48 508481381",
                "email": "patrycha114@wp.pl",
                "website": "http:\/\/www.przedszkolewiatraczek.pl",
                "ref:regon": "321562519",
                "operator": "Patrycja Hudzik-Kowalczyk",
                "operator:type": "private",
                "amenity": "kindergarten"
            }
        },
        {
            "id": 26347,
            "type": "Feature",
            "geometry": {
                "type": "Point",
                "coordinates": [
                    14.24055,
                    53.91255
                ]
            },
            "properties": {
                "ref:rspo": 26347,
                "official_name": "Pa\u0144stwowa Szko\u0142a Muzyczna I St. w \u015awinouj\u015bciu",
                "name": "Pa\u0144stwowa Szko\u0142a Muzyczna I St. w \u015awinouj\u015bciu",
                "addr:postcode": "72-600",
                "addr:city": "\u015awinouj\u015bcie",
                "addr:street": "Wojska Polskiego",
                "addr:housenumber": "1",
                "addr:door": "1",
                "addr:city:simc": 979722,
                "addr:street:sym_ul": 24628,
                "phone": "+48 913213462",
                "email": "sekretariat@psm.swi.pl",
                "website": "http:\/\/psm.swi.pl",
                "ref:regon": "001241266",
                "operator": "Ministerstwo Kultury I Dziedzictwa Narodowego",
                "operator:type": "public",
                "amenity": "music_school"
            }
        },
        {
            "id": 55162,
            "type": "Feature",
            "geometry": {
                "type": "Point",
                "coordinates": [
                    14.24203,
                    53.91381
                ]
            },
            "properties": {
                "isced:level": "3",
                "ref:rspo": 55162,
                "official_name": "Katolickie Liceum Og\u00f3lnokszta\u0142c\u0105ce im. \u015aw. Jadwigi Kr\u00f3lowej w \u015awinouj\u015bciu",
                "name": "Katolickie Liceum Og\u00f3lnokszta\u0142c\u0105ce",
                "addr:postcode": "72-600",
                "addr:city": "\u015awinouj\u015bcie",
                "addr:street": "Stanis\u0142awa Wyspia\u0144skiego",
                "addr:housenumber": "12",
                "addr:city:simc": 979722,
                "addr:street:sym_ul": 25084,
                "phone": "+48 913213222",
                "email": "liceumkatolickie@vp.pl",
                "website": "http:\/\/www.liceumkatolickie.swi.pl",
                "ref:regon": "321295923",
                "operator": "Parafia Rzymskokatolicka P.w. Chrystusa Kr\u00f3la",
                "operator:type": "religious",
                "amenity": "school"
            }
        },
        {
            "id": 79982,
            "type": "Feature",
            "geometry": {
                "type": "Point",
                "coordinates": [
                    14.24838,
                    53.91445
                ]
            },
            "properties": {
                "isced:level": "1;2",
                "ref:rspo": 79982,
                "official_name": "Szko\u0142a Podstawowa nr 1 im. Marynarki Wojennej Rp w \u015awinouj\u015bciu",
                "name": "Szko\u0142a Podstawowa nr 1",
                "addr:postcode": "72-600",
                "addr:city": "\u015awinouj\u015bcie",
                "addr:street": "Gabriela Narutowicza",
                "addr:housenumber": "10",
                "addr:city:simc": 979722,
                "addr:street:sym_ul": 14018,
                "phone": "+48 913214019",
                "email": "sekretariat@pracowniasp1.pl",
                "website": "http:\/\/info.pracowniasp1.pl",
                "ref:regon": "000211151",
                "ref:vatin": "PL8551095331",
                "operator": "Gmina-Miasto \u015awinouj\u015bcie",
                "operator:type": "government",
                "amenity": "school"
            }
        },
        {
            "id": 54270,
            "type": "Feature",
            "geometry": {
                "type": "Point",
                "coordinates": [
                    14.24696,
                    53.91879
                ]
            },
            "properties": {
                "ref:rspo": 54270,
                "official_name": "Przedszkole Niepubliczne \"Motylek\"",
                "name": "Przedszkole Niepubliczne \"Motylek\"",
                "addr:postcode": "72-600",
                "addr:city": "\u015awinouj\u015bcie",
                "addr:street": "Juliusza S\u0142owackiego",
                "addr:housenumber": "27",
                "addr:door": "2,5a,8",
                "addr:city:simc": 979722,
                "addr:street:sym_ul": 20291,
                "phone": "+48 798898902",
                "email": "kontakt@przedszkolemotylek.pl",
                "website": "http:\/\/www.przedszkolemotylek.pl",
                "ref:regon": "321290883",
                "operator": "Urszula Kraska",
                "operator:type": "private",
                "amenity": "kindergarten"
            }
        }
    ]
}