{
    "type": "FeatureCollection",
    "features": [
        {
            "id": 278396,
            "type": "Feature",
            "geometry": {
                "type": "Point",
                "coordinates": [
                    20.335586547852,
                    50.202030181885
                ]
            },
            "properties": {
                "ref:rspo": 278396,
                "official_name": "Zesp\u00f3\u0142 Szkolno-Przedszkolny w Pa\u0142ecznicy",
                "name": "Zesp\u00f3\u0142 Szkolno-Przedszkolny w Pa\u0142ecznicy",
                "addr:country": "PL",
                "addr:postcode": "32-109",
                "addr:place": "Pa\u0142ecznica",
                "addr:housenumber": "43",
                "addr:teryt:sym_ul": 259614,
                "contact:phone": "+48 413848645",
                "contact:email": "szkola@ssp.palecznica.pl",
                "contact:website": "http:\/\/ssp.palecznica.pl",
                "ref:regon": "389883943",
                "operator": "Gmina Pa\u0142ecznica",
                "operator:type": "government",
                "landuse": "education",
                "fixme": "amenity=school, amenity=college albo landuse=education w zale\u017cno\u015bci od tego, jakie plac\u00f3wki wchodz\u0105 w sk\u0142ad zespo\u0142u. Sprawd\u017a, kiedy stosowa\u0107 amenity=* a kiedy landuse=education.",
                "note": "Children RSPO: 113761;278398"
            }
        },
        {
            "id": 278398,
            "type": "Feature",
            "geometry": {
                "type": "Point",
                "coordinates": [
                    20.335586547852,
                    50.202000181885
                ]
            },
            "properties": {
                "ref:rspo": 278398,
                "official_name": "Przedszkole Publiczne w Pa\u0142ecznicy",
                "name": "Przedszkole Publiczne w Pa\u0142ecznicy",
                "addr:country": "PL",
                "addr:postcode": "32-109",
                "addr:place": "Pa\u0142ecznica",
                "addr:housenumber": "43",
                "addr:teryt:sym_ul": 259614,
                "contact:phone": "+48 413848645",
                "contact:email": "szkola@ssp.palecznica.pl",
                "contact:website": "http:\/\/ssp.palecznica.pl",
                "ref:regon": "389884003",
                "operator": "Gmina Pa\u0142ecznica",
                "operator:type": "government",
                "amenity": "kindergarten",
                "note": "Parent RSPO: 278396"
            }
        },
        {
            "id": 113756,
            "type": "Feature",
            "geometry": {
                "type": "Point",
                "coordinates": [
                    20.340425,
                    50.247704
                ]
            },
            "properties": {
                "ref:rspo": 113756,
                "official_name": "Punkt Przedszkolny w Czuszowie",
                "name": "Punkt Przedszkolny w Czuszowie",
                "addr:country": "PL",
                "addr:postcode": "32-112",
                "addr:place": "Czusz\u00f3w",
                "addr:housenumber": "74",
                "addr:teryt:sym_ul": 259360,
                "contact:phone": "+48 413848602",
                "contact:email": "szkola@ssp.palecznica.pl",
                "contact:website": "http:\/\/ssp.palecznica.pl",
                "ref:regon": "122829244",
                "operator": "Gmina Pa\u0142ecznica",
                "operator:type": "government",
                "amenity": "kindergarten"
            }
        },
        {
            "id": 127145,
            "type": "Feature",
            "geometry": {
                "type": "Point",
                "coordinates": [
                    20.273641,
                    50.255095
                ]
            },
            "properties": {
                "ref:rspo": 127145,
                "official_name": "Punkt Przedszkolny w Ibramowicach",
                "name": "Punkt Przedszkolny w Ibramowicach",
                "addr:country": "PL",
                "addr:postcode": "32-109",
                "addr:place": "Ibramowice",
                "addr:housenumber": "42",
                "addr:teryt:sym_ul": 259459,
                "contact:phone": "+48 413848113",
                "contact:email": "szkola@ssp.plaecznica.pl",
                "contact:website": "http:\/\/ssp.palecznica.pl",
                "ref:regon": "361163283",
                "operator": "Gmina Pa\u0142ecznica",
                "operator:type": "government",
                "amenity": "kindergarten"
            }
        },
        {
            "id": 275483,
            "type": "Feature",
            "geometry": {
                "type": "Point",
                "coordinates": [
                    20.273641,
                    50.255064999999995
                ]
            },
            "properties": {
                "isced:level": "1;2",
                "ref:rspo": 275483,
                "official_name": "Szko\u0142a Podstawowa w Ibramowicach",
                "name": "Szko\u0142a Podstawowa w Ibramowicach",
                "addr:country": "PL",
                "addr:postcode": "32-109",
                "addr:place": "Ibramowice",
                "addr:housenumber": "42",
                "addr:teryt:sym_ul": 259459,
                "contact:phone": "+48 413848113",
                "contact:email": "szkola@spi.palecznica.pl",
                "ref:regon": "386920425",
                "ref:vatin": "PL6821789049",
                "operator": "Gmina Pa\u0142ecznica",
                "operator:type": "government",
                "amenity": "school"
            }
        },
        {
            "id": 113757,
            "type": "Feature",
            "geometry": {
                "type": "Point",
                "coordinates": [
                    20.3220111,
                    50.2575919
                ]
            },
            "properties": {
                "ref:rspo": 113757,
                "official_name": "Punkt Przedszkolny w Nadzowie",
                "name": "Punkt Przedszkolny w Nadzowie",
                "addr:country": "PL",
                "addr:postcode": "32-109",
                "addr:place": "Nadz\u00f3w",
                "addr:housenumber": "101",
                "addr:teryt:sym_ul": 259531,
                "contact:email": "szkola@ssp.palecznica.pl",
                "contact:website": "http:\/\/ssp.palecznica.pl",
                "ref:regon": "122829250",
                "operator": "Gmina Pa\u0142ecznica",
                "operator:type": "government",
                "amenity": "kindergarten"
            }
        },
        {
            "id": 6832,
            "type": "Feature",
            "geometry": {
                "type": "Point",
                "coordinates": [
                    20.2963099,
                    50.2915599
                ]
            },
            "properties": {
                "ref:rspo": 6832,
                "official_name": "Szko\u0142a Muzyczna I Stopnia im. Stanis\u0142awa Moniuszki w Pa\u0142ecznicy",
                "name": "Szko\u0142a Muzyczna I Stopnia",
                "addr:country": "PL",
                "addr:postcode": "32-109",
                "addr:city": "Pa\u0142ecznica",
                "addr:street": "\u015awi\u0119tego Jakuba",
                "addr:housenumber": "43",
                "addr:teryt:simc": 7078,
                "addr:teryt:sym_ul": 259614,
                "contact:phone": "+48 413848645",
                "contact:email": "smuz.palecznica@interia.pl",
                "ref:regon": "122647980",
                "ref:vatin": "PL6821767705",
                "operator": "Gmina Pa\u0142ecznica",
                "operator:type": "government",
                "amenity": "music_school"
            }
        },
        {
            "id": 113755,
            "type": "Feature",
            "geometry": {
                "type": "Point",
                "coordinates": [
                    20.2963099,
                    50.2915299
                ]
            },
            "properties": {
                "ref:rspo": 113755,
                "official_name": "Punkt Przedszkolny\nW Pa\u0142ecznicy",
                "name": "Punkt Przedszkolny\nW Pa\u0142ecznicy",
                "addr:country": "PL",
                "addr:postcode": "32-109",
                "addr:city": "Pa\u0142ecznica",
                "addr:street": "\u015awi\u0119tego Jakuba",
                "addr:housenumber": "43",
                "addr:teryt:simc": 7078,
                "addr:teryt:sym_ul": 259614,
                "contact:phone": "+48 413848645",
                "contact:email": "szkola@ssp.palecznica.pl",
                "contact:website": "http:\/\/ssp.palecznica.pl",
                "ref:regon": "122829215",
                "operator": "Gmina Pa\u0142ecznica",
                "operator:type": "government",
                "amenity": "kindergarten"
            }
        },
        {
            "id": 113761,
            "type": "Feature",
            "geometry": {
                "type": "Point",
                "coordinates": [
                    20.2963099,
                    50.291499900000005
                ]
            },
            "properties": {
                "isced:level": "1;2",
                "ref:rspo": 113761,
                "official_name": "Samorz\u0105dowa Szko\u0142a Podstawowa w Pa\u0142ecznicy",
                "name": "Samorz\u0105dowa Szko\u0142a Podstawowa w Pa\u0142ecznicy",
                "addr:country": "PL",
                "addr:postcode": "32-109",
                "addr:city": "Pa\u0142ecznica",
                "addr:street": "\u015awi\u0119tego Jakuba",
                "addr:housenumber": "43",
                "addr:teryt:simc": 7078,
                "addr:teryt:sym_ul": 259614,
                "contact:phone": "+48 413848645",
                "contact:email": "szkola@ssp.palecznica.pl",
                "contact:website": "http:\/\/ssp.palecznica.pl",
                "ref:regon": "001217730",
                "ref:vatin": "PL6821567797",
                "operator": "Gmina Pa\u0142ecznica",
                "operator:type": "government",
                "amenity": "school",
                "note": "Parent RSPO: 278396"
            }
        }
    ]
}