{
    "type": "FeatureCollection",
    "features": [
        {
            "id": 4910,
            "type": "Feature",
            "geometry": {
                "type": "Point",
                "coordinates": [
                    20.3197069,
                    50.170004
                ]
            },
            "properties": {
                "ref:rspo": 4910,
                "official_name": "Zesp\u00f3\u0142 Szk\u00f3\u0142 w \u017b\u0119bocinie",
                "name": "Zesp\u00f3\u0142 Szk\u00f3\u0142 w \u017b\u0119bocinie",
                "addr:country": "PL",
                "addr:postcode": "32-100",
                "addr:place": "\u017b\u0119bocin",
                "addr:housenumber": "65",
                "addr:teryt:sym_ul": 332400,
                "contact:phone": "+48 123864542",
                "contact:website": "http:\/\/www.zs-zebocin.d2.pl\/",
                "ref:regon": "122641523",
                "ref:vatin": "PL6821767680",
                "operator": "Gmina Proszowice",
                "operator:type": "government",
                "landuse": "education",
                "fixme": "amenity=school, amenity=college albo landuse=education w zale\u017cno\u015bci od tego, jakie plac\u00f3wki wchodz\u0105 w sk\u0142ad zespo\u0142u. Sprawd\u017a, kiedy stosowa\u0107 amenity=* a kiedy landuse=education.",
                "note": "Children RSPO: 3198;4900"
            }
        },
        {
            "id": 3198,
            "type": "Feature",
            "geometry": {
                "type": "Point",
                "coordinates": [
                    20.3197069,
                    50.169973999999996
                ]
            },
            "properties": {
                "ref:rspo": 3198,
                "official_name": "Szko\u0142a Muzyczna I Stopnia w \u017b\u0119bocinie",
                "name": "Szko\u0142a Muzyczna I Stopnia w \u017b\u0119bocinie",
                "addr:country": "PL",
                "addr:postcode": "32-100",
                "addr:place": "\u017b\u0119bocin",
                "addr:housenumber": "65",
                "addr:teryt:sym_ul": 332400,
                "contact:phone": "+48 123864542",
                "contact:email": "muzyczna@proszowice.pl",
                "contact:website": "http:\/\/www.zs-zebocin.d2.pl\/index.php?school=2&command=muz_home&home=szkola",
                "ref:regon": "122642333",
                "operator": "Gmina Proszowice",
                "operator:type": "government",
                "amenity": "music_school",
                "note": "Parent RSPO: 4910"
            }
        },
        {
            "id": 4900,
            "type": "Feature",
            "geometry": {
                "type": "Point",
                "coordinates": [
                    20.3197069,
                    50.169944
                ]
            },
            "properties": {
                "isced:level": "1;2",
                "ref:rspo": 4900,
                "official_name": "Szko\u0142a Podstawowa w \u017b\u0119bocinie",
                "name": "Szko\u0142a Podstawowa w \u017b\u0119bocinie",
                "addr:country": "PL",
                "addr:postcode": "32-100",
                "addr:place": "\u017b\u0119bocin",
                "addr:housenumber": "65",
                "addr:teryt:sym_ul": 332400,
                "contact:phone": "+48 123864542",
                "contact:email": "sp.zebocin@proszowice.pl",
                "contact:website": "http:\/\/www.zs-zebocin.d2.pl\/index.php?school=1&command=podst_home&home=szkola",
                "ref:regon": "001054386",
                "ref:vatin": "PL6821767680",
                "operator": "Gmina Proszowice",
                "operator:type": "government",
                "amenity": "school",
                "note": "Parent RSPO: 4910"
            }
        },
        {
            "id": 119120,
            "type": "Feature",
            "geometry": {
                "type": "Point",
                "coordinates": [
                    20.484101,
                    50.1809249
                ]
            },
            "properties": {
                "ref:rspo": 119120,
                "official_name": "Niepubliczny Punkt Przedszkolny \"Bajka\" w Koczanowie",
                "name": "Niepubliczny Punkt Przedszkolny \"Bajka\" w Koczanowie",
                "addr:country": "PL",
                "addr:postcode": "32-100",
                "addr:place": "Koczan\u00f3w",
                "addr:housenumber": "14",
                "addr:teryt:sym_ul": 331903,
                "contact:phone": "+48 123866636",
                "contact:email": "spkoczanow@interia.pl",
                "contact:website": "http:\/\/koczanow.pl",
                "ref:regon": "122929796",
                "operator": "Stowarzyszenie Rozwoju Wsi Koczan\u00f3w",
                "operator:type": "ngo",
                "amenity": "kindergarten"
            }
        },
        {
            "id": 119121,
            "type": "Feature",
            "geometry": {
                "type": "Point",
                "coordinates": [
                    20.484101,
                    50.1808949
                ]
            },
            "properties": {
                "isced:level": "1;2",
                "ref:rspo": 119121,
                "official_name": "Niepubliczna Szko\u0142a Podstawowa Z Oddzia\u0142em Przedszkolnym w Koczanowie",
                "name": "Niepubliczna Szko\u0142a Podstawowa Z Oddzia\u0142em Przedszkolnym w Koczanowie",
                "addr:country": "PL",
                "addr:postcode": "32-100",
                "addr:place": "Koczan\u00f3w",
                "addr:housenumber": "14",
                "addr:teryt:sym_ul": 331903,
                "contact:phone": "+48 123866636",
                "contact:email": "spkoczanow@interia.pl",
                "contact:website": "http:\/\/koczanow.pl",
                "ref:regon": "122929804",
                "operator": "Stowarzyszenie Rozwoju Wsi Koczan\u00f3w",
                "operator:type": "ngo",
                "amenity": "school"
            }
        },
        {
            "id": 262994,
            "type": "Feature",
            "geometry": {
                "type": "Point",
                "coordinates": [
                    20.29758,
                    50.18521
                ]
            },
            "properties": {
                "isced:level": "1;2",
                "ref:rspo": 262994,
                "official_name": "Szko\u0142a Podstawowa Nr 2 w Proszowicach im. 6 Brygady Powietrznodesantowej Gen.bryg. S. Sosabowskiego",
                "name": "Szko\u0142a Podstawowa Nr 2 w Proszowicach",
                "addr:country": "PL",
                "addr:postcode": "32-100",
                "addr:city": "Proszowice",
                "addr:street": "Miko\u0142aja Kopernika",
                "addr:housenumber": "7",
                "addr:teryt:simc": 9282,
                "addr:teryt:sym_ul": 951818,
                "contact:phone": "+48 123861694",
                "contact:email": "sp2@proszowice.pl",
                "contact:website": "http:\/\/www.sp2.proszowice.pl",
                "ref:regon": "368087540",
                "ref:vatin": "PL6821775277",
                "operator": "Gmina Proszowice",
                "operator:type": "government",
                "amenity": "school"
            }
        },
        {
            "id": 275689,
            "type": "Feature",
            "geometry": {
                "type": "Point",
                "coordinates": [
                    20.29828,
                    50.18845
                ]
            },
            "properties": {
                "ref:rspo": 275689,
                "official_name": "Prywatne Przedszkole \"Kolorowe Kredki\"",
                "name": "Prywatne Przedszkole \"Kolorowe Kredki\"",
                "addr:country": "PL",
                "addr:postcode": "32-100",
                "addr:city": "Proszowice",
                "addr:street": "Miko\u0142aja Kopernika",
                "addr:housenumber": "17",
                "addr:teryt:simc": 9282,
                "addr:teryt:sym_ul": 951818,
                "contact:email": "kat.korfel87@gmail.com",
                "contact:website": "http:\/\/kolorowe-kredki.net",
                "ref:regon": "386937549",
                "ref:vatin": "PL6821682417",
                "operator": "Katarzyna Korfel",
                "operator:type": "private",
                "amenity": "kindergarten"
            }
        },
        {
            "id": 26741,
            "type": "Feature",
            "geometry": {
                "type": "Point",
                "coordinates": [
                    20.29516,
                    50.18911
                ]
            },
            "properties": {
                "ref:rspo": 26741,
                "official_name": "Poradnia Psychologiczno-Pedagogiczna",
                "name": "Poradnia Psychologiczno-Pedagogiczna",
                "addr:country": "PL",
                "addr:postcode": "32-100",
                "addr:city": "Proszowice",
                "addr:street": "Kolejowa",
                "addr:housenumber": "10",
                "addr:teryt:simc": 8828,
                "addr:teryt:sym_ul": 951818,
                "contact:phone": "+48 123070336",
                "contact:email": "poradniapsychologiczna1@wp.pl",
                "contact:website": "http:\/\/www.proszowice.republika.pl",
                "ref:regon": "000705686",
                "operator": "Powiat Proszowicki",
                "operator:type": "government",
                "healthcare": "counselling",
                "counselling_type": "education",
                "fixme": "w zale\u017cno\u015bci od przedmiotu dzia\u0142alno\u015bci (np. healthcare=counselling + counselling_type=education albo healthcare=psychotherapist)"
            }
        },
        {
            "id": 66341,
            "type": "Feature",
            "geometry": {
                "type": "Point",
                "coordinates": [
                    20.28694,
                    50.19064
                ]
            },
            "properties": {
                "ref:rspo": 66341,
                "official_name": "Przedszkole Samorzadowe Nr 1 im.ks. J\u00f3zefa Paw\u0142owskiego w Proszowicach",
                "name": "Przedszkole Samorzadowe Nr 1 im.ks. J\u00f3zefa Paw\u0142owskiego w Proszowicach",
                "addr:country": "PL",
                "addr:postcode": "32-100",
                "addr:city": "Proszowice",
                "addr:street": "Krakowska",
                "addr:housenumber": "35",
                "addr:teryt:simc": 9796,
                "addr:teryt:sym_ul": 951818,
                "contact:phone": "+48 122850714",
                "ref:regon": "357112314",
                "ref:vatin": "PL6821527697",
                "operator": "Gmina Proszowice",
                "operator:type": "government",
                "amenity": "kindergarten"
            }
        },
        {
            "id": 66342,
            "type": "Feature",
            "geometry": {
                "type": "Point",
                "coordinates": [
                    20.29915,
                    50.19093
                ]
            },
            "properties": {
                "ref:rspo": 66342,
                "official_name": "Samorz\u0105dowe Przedszkole Publiczne Nr 2 w Proszowicach",
                "name": "Samorz\u0105dowe Przedszkole Publiczne Nr 2 w Proszowicach",
                "addr:country": "PL",
                "addr:postcode": "32-100",
                "addr:city": "Proszowice",
                "addr:street": "3 Maja",
                "addr:housenumber": "96",
                "addr:teryt:simc": 11937,
                "addr:teryt:sym_ul": 951818,
                "contact:phone": "+48 123861358",
                "contact:email": "przedszkoleproszowice@op.pl",
                "contact:website": "https:\/\/przedszkole.nr2.dlaprzedszkoli.eu\/",
                "ref:regon": "357106006",
                "ref:vatin": "PL6821527579",
                "operator": "Gmina Proszowice",
                "operator:type": "government",
                "amenity": "kindergarten"
            }
        },
        {
            "id": 86930,
            "type": "Feature",
            "geometry": {
                "type": "Point",
                "coordinates": [
                    20.30868,
                    50.19117
                ]
            },
            "properties": {
                "ref:rspo": 86930,
                "official_name": "Przedszkole Prywatne \"Pinokio\"",
                "name": "Przedszkole Prywatne \"Pinokio\"",
                "addr:country": "PL",
                "addr:postcode": "32-100",
                "addr:city": "Proszowice",
                "addr:street": "3 Maja",
                "addr:housenumber": "155",
                "addr:teryt:simc": 11937,
                "addr:teryt:sym_ul": 951818,
                "contact:phone": "+48 126534393",
                "contact:email": "pinokio.proszowice@gmail.com",
                "ref:regon": "122715003",
                "ref:vatin": "PL6780036174",
                "operator": "Agnieszka Rojewska",
                "operator:type": "private",
                "amenity": "kindergarten"
            }
        },
        {
            "id": 24926,
            "type": "Feature",
            "geometry": {
                "type": "Point",
                "coordinates": [
                    20.2992199,
                    50.19137
                ]
            },
            "properties": {
                "ref:rspo": 24926,
                "official_name": "Pedagogiczna Biblioteka Wojew\u00f3dzka im. Hugona Ko\u0142\u0142\u0105taja w Krakowie Filia w Proszowicach",
                "name": "Pedagogiczna Biblioteka Wojew\u00f3dzka",
                "addr:country": "PL",
                "addr:postcode": "32-100",
                "addr:city": "Proszowice",
                "addr:street": "3 Maja",
                "addr:housenumber": "91",
                "addr:teryt:simc": 11937,
                "addr:teryt:sym_ul": 951818,
                "contact:phone": "+48 123861228",
                "contact:email": "filia.proszowice@pbw.edu.pl",
                "ref:regon": "197729000",
                "operator": "Wojew\u00f3dztwo Ma\u0142opolskie",
                "operator:type": "government",
                "amenity": "library",
                "note": "Parent RSPO: 19644"
            }
        },
        {
            "id": 26739,
            "type": "Feature",
            "geometry": {
                "type": "Point",
                "coordinates": [
                    20.30183,
                    50.19193
                ]
            },
            "properties": {
                "ref:rspo": 26739,
                "official_name": "Zesp\u00f3\u0142 Szk\u00f3\u0142 im. Bartosza G\u0142owackiego",
                "name": "Zesp\u00f3\u0142 Szk\u00f3\u0142",
                "addr:country": "PL",
                "addr:postcode": "32-100",
                "addr:city": "Proszowice",
                "addr:street": "3 Maja",
                "addr:housenumber": "107",
                "addr:teryt:simc": 11937,
                "addr:teryt:sym_ul": 951818,
                "contact:phone": "+48 123861035",
                "contact:email": "zsproszowice@zsproszowice.edu.pl",
                "contact:website": "http:\/\/www.zsproszowice.edu.pl",
                "ref:regon": "000183851",
                "operator": "Powiat Proszowicki",
                "operator:type": "government",
                "landuse": "education",
                "fixme": "amenity=school, amenity=college albo landuse=education w zale\u017cno\u015bci od tego, jakie plac\u00f3wki wchodz\u0105 w sk\u0142ad zespo\u0142u. Sprawd\u017a, kiedy stosowa\u0107 amenity=* a kiedy landuse=education.",
                "note": "Children RSPO: 40744;41962;42074;42254;119848"
            }
        },
        {
            "id": 40744,
            "type": "Feature",
            "geometry": {
                "type": "Point",
                "coordinates": [
                    20.30183,
                    50.1919
                ]
            },
            "properties": {
                "isced:level": "3",
                "ref:rspo": 40744,
                "official_name": "Liceum Og\u00f3lnokszta\u0142c\u0105ce",
                "name": "Liceum Og\u00f3lnokszta\u0142c\u0105ce",
                "addr:country": "PL",
                "addr:postcode": "32-100",
                "addr:city": "Proszowice",
                "addr:street": "3 Maja",
                "addr:housenumber": "107",
                "addr:teryt:simc": 11937,
                "addr:teryt:sym_ul": 951818,
                "contact:phone": "+48 123861035",
                "contact:email": "zsproszowice@zsproszowice.edu.pl",
                "contact:website": "http:\/\/www.zsproszowice.edu.pl",
                "ref:regon": "356726310",
                "ref:vatin": "PL6821182011",
                "operator": "Powiat Proszowicki",
                "operator:type": "government",
                "amenity": "school",
                "note": "Parent RSPO: 26739"
            }
        },
        {
            "id": 41962,
            "type": "Feature",
            "geometry": {
                "type": "Point",
                "coordinates": [
                    20.30183,
                    50.19187
                ]
            },
            "properties": {
                "isced:level": "3",
                "ref:rspo": 41962,
                "official_name": "Technikum",
                "name": "Technikum",
                "addr:country": "PL",
                "addr:postcode": "32-100",
                "addr:city": "Proszowice",
                "addr:street": "3 Maja",
                "addr:housenumber": "107",
                "addr:teryt:simc": 11937,
                "addr:teryt:sym_ul": 951818,
                "contact:phone": "+48 123861035",
                "contact:email": "zsproszowice@zsproszowice.edu.pl",
                "contact:website": "http:\/\/www.zsproszowice.edu.pl",
                "ref:regon": "122203987",
                "ref:vatin": "PL6821182011",
                "operator": "Powiat Proszowicki",
                "operator:type": "government",
                "amenity": "school",
                "note": "Parent RSPO: 26739"
            }
        },
        {
            "id": 42074,
            "type": "Feature",
            "geometry": {
                "type": "Point",
                "coordinates": [
                    20.30183,
                    50.19184
                ]
            },
            "properties": {
                "isced:level": "3",
                "ref:rspo": 42074,
                "official_name": "Bran\u017cowa Szko\u0142a I Stopnia",
                "name": "Bran\u017cowa Szko\u0142a I Stopnia",
                "addr:country": "PL",
                "addr:postcode": "32-100",
                "addr:city": "Proszowice",
                "addr:street": "3 Maja",
                "addr:housenumber": "107",
                "addr:teryt:simc": 11937,
                "addr:teryt:sym_ul": 951818,
                "contact:phone": "+48 123861035",
                "contact:email": "zsproszowice@zsproszowice.edu.pl",
                "contact:website": "http:\/\/www.zsproszowice.edu.pl",
                "ref:regon": "356726296",
                "ref:vatin": "PL6821182011",
                "operator": "Powiat Proszowicki",
                "operator:type": "government",
                "amenity": "school",
                "note": "Parent RSPO: 26739"
            }
        },
        {
            "id": 42254,
            "type": "Feature",
            "geometry": {
                "type": "Point",
                "coordinates": [
                    20.30183,
                    50.19181
                ]
            },
            "properties": {
                "isced:level": "4",
                "ref:rspo": 42254,
                "official_name": "Szko\u0142a Policealna",
                "name": "Szko\u0142a Policealna",
                "addr:country": "PL",
                "addr:postcode": "32-100",
                "addr:city": "Proszowice",
                "addr:street": "3 Maja",
                "addr:housenumber": "107",
                "addr:teryt:simc": 11937,
                "addr:teryt:sym_ul": 951818,
                "contact:phone": "+48 123861035",
                "contact:email": "zsproszowice@zsproszowice.edu.pl",
                "contact:website": "http:\/\/www.zsproszowice.edu.pl",
                "ref:regon": "356726340",
                "ref:vatin": "PL6821182011",
                "operator": "Powiat Proszowicki",
                "operator:type": "government",
                "amenity": "college",
                "note": "Parent RSPO: 26739"
            }
        },
        {
            "id": 119848,
            "type": "Feature",
            "geometry": {
                "type": "Point",
                "coordinates": [
                    20.30183,
                    50.19178
                ]
            },
            "properties": {
                "isced:level": "3",
                "ref:rspo": 119848,
                "official_name": "Liceum Og\u00f3lnokszta\u0142c\u0105ce dla Doros\u0142ych",
                "name": "Liceum Og\u00f3lnokszta\u0142c\u0105ce dla Doros\u0142ych",
                "addr:country": "PL",
                "addr:postcode": "32-100",
                "addr:city": "Proszowice",
                "addr:street": "3 Maja",
                "addr:housenumber": "107",
                "addr:teryt:simc": 11937,
                "addr:teryt:sym_ul": 951818,
                "contact:phone": "+48 123861035",
                "contact:email": "zsproszowice@zsproszowice.edu.pl",
                "contact:website": "http:\/\/www.zsproszowic.edu.pl",
                "ref:regon": "122941716",
                "ref:vatin": "PL6821182011",
                "operator": "Powiat Proszowicki",
                "operator:type": "government",
                "amenity": "school",
                "note": "Parent RSPO: 26739"
            }
        },
        {
            "id": 35125,
            "type": "Feature",
            "geometry": {
                "type": "Point",
                "coordinates": [
                    20.28622,
                    50.19256
                ]
            },
            "properties": {
                "isced:level": "4",
                "ref:rspo": 35125,
                "official_name": "Niepubliczna Zaoczna Szko\u0142a Policealna dla Doros\u0142ych Towarzystwa Wiedzy Powszechnej w Proszowicach",
                "name": "Niepubliczna Zaoczna Szko\u0142a Policealna dla Doros\u0142ych Towarzystwa Wiedzy Powszechnej w Proszowicach",
                "addr:country": "PL",
                "addr:postcode": "32-100",
                "addr:city": "Proszowice",
                "addr:street": "Tadeusza Ko\u015bciuszki",
                "addr:housenumber": "15",
                "addr:teryt:simc": 9582,
                "addr:teryt:sym_ul": 951818,
                "contact:phone": "+48 501661153",
                "ref:regon": "122690898",
                "operator": "Towarzystwo Wiedzy Powszechnej Oddzia\u0142 Regionalny W Radomiu",
                "operator:type": "ngo",
                "amenity": "college"
            }
        },
        {
            "id": 53884,
            "type": "Feature",
            "geometry": {
                "type": "Point",
                "coordinates": [
                    20.28622,
                    50.19253
                ]
            },
            "properties": {
                "isced:level": "3",
                "ref:rspo": 53884,
                "official_name": "Prywatne Liceum Og\u00f3lnokszta\u0142c\u0105ce dla Doros\u0142ych Towarzystwa Wiedzy Powszechnej w Proszowicach",
                "name": "Prywatne Liceum Og\u00f3lnokszta\u0142c\u0105ce dla Doros\u0142ych Towarzystwa Wiedzy Powszechnej w Proszowicach",
                "addr:country": "PL",
                "addr:postcode": "32-100",
                "addr:city": "Proszowice",
                "addr:street": "Tadeusza Ko\u015bciuszki",
                "addr:housenumber": "15",
                "addr:teryt:simc": 9582,
                "addr:teryt:sym_ul": 951818,
                "contact:phone": "+48 501661153",
                "contact:email": "i.slaby@interia.pl",
                "ref:regon": "122692288",
                "ref:vatin": "PL6751547386",
                "operator": "Towarzystwo Wiedzy Powszechnej - Oddzia\u0142 Regionalny W Krakowie",
                "operator:type": "ngo",
                "amenity": "school"
            }
        },
        {
            "id": 66337,
            "type": "Feature",
            "geometry": {
                "type": "Point",
                "coordinates": [
                    20.28622,
                    50.1925
                ]
            },
            "properties": {
                "isced:level": "1;2",
                "ref:rspo": 66337,
                "official_name": "Szko\u0142a Podstawowa Nr 1 im. T. Ko\u015bciuszki w Proszowicach",
                "name": "Szko\u0142a Podstawowa Nr 1",
                "addr:country": "PL",
                "addr:postcode": "32-100",
                "addr:city": "Proszowice",
                "addr:street": "Tadeusza Ko\u015bciuszki",
                "addr:housenumber": "15",
                "addr:teryt:simc": 9582,
                "addr:teryt:sym_ul": 951818,
                "contact:phone": "+48 123861640",
                "contact:email": "sp1@proszowice.pl",
                "contact:website": "http:\/\/www.sp1.proszowice.pl",
                "ref:regon": "000703612",
                "ref:vatin": "PL6821526717",
                "operator": "Gmina Proszowice",
                "operator:type": "government",
                "amenity": "school"
            }
        },
        {
            "id": 83146,
            "type": "Feature",
            "geometry": {
                "type": "Point",
                "coordinates": [
                    20.400444,
                    50.1932569
                ]
            },
            "properties": {
                "isced:level": "1;2",
                "ref:rspo": 83146,
                "official_name": "Szko\u0142a Podstawowa im. M. Kopernika w Ko\u015bcielcu",
                "name": "Szko\u0142a Podstawowa",
                "addr:country": "PL",
                "addr:postcode": "32-100",
                "addr:place": "Ko\u015bcielec",
                "addr:housenumber": "11",
                "addr:teryt:sym_ul": 331910,
                "contact:phone": "+48 123866508",
                "contact:email": "sp.koscielec@proszowice.pl",
                "ref:regon": "001054392",
                "ref:vatin": "PL6821225944",
                "operator": "Gmina Proszowice",
                "operator:type": "government",
                "amenity": "school"
            }
        },
        {
            "id": 276242,
            "type": "Feature",
            "geometry": {
                "type": "Point",
                "coordinates": [
                    20.28974,
                    50.19494
                ]
            },
            "properties": {
                "ref:rspo": 276242,
                "official_name": "Prywatne Przedszkole \"Przedszkole Parkowe\"",
                "name": "Prywatne Przedszkole \"Przedszkole Parkowe\"",
                "addr:country": "PL",
                "addr:postcode": "32-100",
                "addr:city": "Proszowice",
                "addr:street": "Parkowa",
                "addr:housenumber": "8",
                "addr:teryt:simc": 15710,
                "addr:teryt:sym_ul": 951818,
                "contact:email": "parkolandia8@gmail.com",
                "contact:website": "http:\/\/www.parkolandia.pl",
                "ref:regon": "387051240",
                "operator": "Dariusz Jasi\u0144ski",
                "operator:type": "private",
                "amenity": "kindergarten"
            }
        },
        {
            "id": 84948,
            "type": "Feature",
            "geometry": {
                "type": "Point",
                "coordinates": [
                    20.3201459,
                    50.221198
                ]
            },
            "properties": {
                "isced:level": "1;2",
                "ref:rspo": 84948,
                "official_name": "Szko\u0142a Podstawowa im. \u015awi\u0119tej Jadwigi Kr\u00f3lowej w Klimontowie",
                "name": "Szko\u0142a Podstawowa",
                "addr:country": "PL",
                "addr:postcode": "32-112",
                "addr:place": "Klimont\u00f3w",
                "addr:housenumber": "180",
                "addr:teryt:sym_ul": 331837,
                "contact:phone": "+48 123866008",
                "contact:email": "spklimontow@proszowice.pl",
                "contact:website": "http:\/\/spklimontow.edupage.org",
                "ref:regon": "001054357",
                "ref:vatin": "PL6821526901",
                "operator": "Gmina Proszowice",
                "operator:type": "government",
                "amenity": "school"
            }
        },
        {
            "id": 66338,
            "type": "Feature",
            "geometry": {
                "type": "Point",
                "coordinates": [
                    20.36019,
                    50.233481
                ]
            },
            "properties": {
                "isced:level": "1;2",
                "ref:rspo": 66338,
                "official_name": "Szko\u0142a Podstawowa im. Lotnik\u00f3w Alianckich w Ostrowie",
                "name": "Szko\u0142a Podstawowa",
                "addr:country": "PL",
                "addr:postcode": "32-112",
                "addr:place": "Ostr\u00f3w",
                "addr:housenumber": "1",
                "addr:teryt:sym_ul": 332096,
                "contact:phone": "+48 123866009",
                "contact:email": "sp.ostrow@proszowice.pl",
                "contact:website": "http:\/\/spostrow.edupage.org",
                "ref:regon": "001054363",
                "ref:vatin": "PL6821527444",
                "operator": "Gmina Proszowice",
                "operator:type": "government",
                "amenity": "school"
            }
        },
        {
            "id": 66340,
            "type": "Feature",
            "geometry": {
                "type": "Point",
                "coordinates": [
                    20.28662,
                    50.2368309
                ]
            },
            "properties": {
                "isced:level": "1;2",
                "ref:rspo": 66340,
                "official_name": "Szko\u0142a Podstawowa Z Oddzia\u0142ami Integracyjnymi w Szczytnikach",
                "name": "Szko\u0142a Podstawowa Z Oddzia\u0142ami Integracyjnymi w Szczytnikach",
                "addr:country": "PL",
                "addr:postcode": "32-112",
                "addr:place": "Szczytniki",
                "addr:housenumber": "91a",
                "addr:teryt:sym_ul": 332200,
                "contact:phone": "+48 123866007",
                "contact:email": "sp.szczytniki@poczta.onet.pl",
                "ref:regon": "001054334",
                "ref:vatin": "PL6821527438",
                "operator": "Gmina Proszowice",
                "operator:type": "government",
                "amenity": "school"
            }
        }
    ]
}