{
    "type": "FeatureCollection",
    "features": [
        {
            "id": 84041,
            "type": "Feature",
            "geometry": {
                "type": "Point",
                "coordinates": [
                    20.2287119,
                    50.131879
                ]
            },
            "properties": {
                "isced:level": "1;2",
                "ref:rspo": 84041,
                "official_name": "Szko\u0142a Podstawowa im.stanis\u0142awa Szymachy w Glewcu",
                "name": "Szko\u0142a Podstawowa im.stanis\u0142awa Szymachy w Glewcu",
                "addr:postcode": "32-104",
                "addr:place": "Glewiec",
                "addr:housenumber": "2",
                "addr:city:simc": 322991,
                "phone": "+48 123869730",
                "email": "spglewiec1@op.pl",
                "website": "http:\/\/www.spglewiec.szkolnastrona.pl",
                "ref:regon": "000699336",
                "ref:vatin": "PL6821533686",
                "operator": "Gmina Koniusza",
                "operator:type": "government",
                "amenity": "school"
            }
        },
        {
            "id": 66208,
            "type": "Feature",
            "geometry": {
                "type": "Point",
                "coordinates": [
                    20.262586,
                    50.145716
                ]
            },
            "properties": {
                "isced:level": "1;2",
                "ref:rspo": 66208,
                "official_name": "Niepubliczna Szko\u0142a Podstawowa w Karwinie",
                "name": "Niepubliczna Szko\u0142a Podstawowa w Karwinie",
                "addr:postcode": "32-104",
                "addr:place": "Karwin",
                "addr:housenumber": "1",
                "addr:city:simc": 323140,
                "phone": "+48 123869524",
                "email": "szkola.karwin@onet.pl",
                "ref:regon": "122695648",
                "ref:vatin": "PL6821762228",
                "operator": "Dane Do Uzupe\u0142nienia",
                "operator:type": "private",
                "amenity": "school"
            }
        },
        {
            "id": 274668,
            "type": "Feature",
            "geometry": {
                "type": "Point",
                "coordinates": [
                    20.1784049,
                    50.167356
                ]
            },
            "properties": {
                "ref:rspo": 274668,
                "official_name": "Zesp\u00f3\u0142 Szkolno-Przedszkolny w Bi\u00f3rkowie Wielkim",
                "name": "Zesp\u00f3\u0142 Szkolno-Przedszkolny w Bi\u00f3rkowie Wielkim",
                "addr:postcode": "32-104",
                "addr:place": "Bi\u00f3rk\u00f3w Wielki",
                "addr:housenumber": "111",
                "addr:city:simc": 322809,
                "phone": "+48 123869007",
                "email": "spbiorkow@koniusza.pl",
                "ref:regon": "386198780",
                "operator": "Gmina Koniusza",
                "operator:type": "government",
                "landuse": "education",
                "fixme": "amenity=school, amenity=college albo landuse=education w zale\u017cno\u015bci od tego, jakie plac\u00f3wki wchodz\u0105 w sk\u0142ad zespo\u0142u. Sprawd\u017a, kiedy stosowa\u0107 amenity=* a kiedy landuse=education.",
                "note": "Children RSPO: 84035;274666"
            }
        },
        {
            "id": 84035,
            "type": "Feature",
            "geometry": {
                "type": "Point",
                "coordinates": [
                    20.1784049,
                    50.167325999999996
                ]
            },
            "properties": {
                "isced:level": "1;2",
                "ref:rspo": 84035,
                "official_name": "Szko\u0142a Podstawowa im.marii Konopnickiej w Bi\u00f3rkowie Wielkim",
                "name": "Szko\u0142a Podstawowa im.marii Konopnickiej w Bi\u00f3rkowie Wielkim",
                "addr:postcode": "32-104",
                "addr:place": "Bi\u00f3rk\u00f3w Wielki",
                "addr:housenumber": "111",
                "addr:city:simc": 322809,
                "phone": "+48 123869007",
                "email": "spbiorkow@koniusza.pl",
                "website": "http:\/\/www.zsbiorkow.szkolnastrona.pl",
                "ref:regon": "000699359",
                "ref:vatin": "PL6821220964",
                "operator": "Gmina Koniusza",
                "operator:type": "government",
                "amenity": "school",
                "note": "Parent RSPO: 274668"
            }
        },
        {
            "id": 274666,
            "type": "Feature",
            "geometry": {
                "type": "Point",
                "coordinates": [
                    20.1784049,
                    50.167296
                ]
            },
            "properties": {
                "ref:rspo": 274666,
                "official_name": "Samorz\u0105dowe Przedszkole w Bi\u00f3rkowie Wielkim",
                "name": "Samorz\u0105dowe Przedszkole w Bi\u00f3rkowie Wielkim",
                "addr:postcode": "32-104",
                "addr:place": "Bi\u00f3rk\u00f3w Wielki",
                "addr:housenumber": "111",
                "addr:city:simc": 322809,
                "phone": "+48 123869007",
                "email": "spbiorkow@koniusza.pl",
                "website": "http:\/\/zsbiorkow.szkolnastrona.pl",
                "ref:regon": "386198448",
                "ref:vatin": "PL6821788794",
                "operator": "Gmina Koniusza",
                "operator:type": "government",
                "amenity": "kindergarten",
                "note": "Parent RSPO: 274668"
            }
        },
        {
            "id": 48090,
            "type": "Feature",
            "geometry": {
                "type": "Point",
                "coordinates": [
                    20.236455,
                    50.1701709
                ]
            },
            "properties": {
                "ref:rspo": 48090,
                "official_name": "Samorz\u0105dowe Przedszkole z Oddzia\u0142ami Integracyjnymi w Pos\u0105dzy",
                "name": "Samorz\u0105dowe Przedszkole z Oddzia\u0142ami Integracyjnymi w Pos\u0105dzy",
                "addr:postcode": "32-104",
                "addr:place": "Pos\u0105dza",
                "addr:housenumber": "94",
                "addr:city:simc": 323625,
                "phone": "+48 123869128",
                "email": "wierzbno2009@gmail.com",
                "website": "http:\/\/www.wierzbno.edupage.org",
                "ref:regon": "120979778",
                "ref:vatin": "PL6821732658",
                "operator": "Gmina Koniusza",
                "operator:type": "government",
                "amenity": "kindergarten"
            }
        },
        {
            "id": 84042,
            "type": "Feature",
            "geometry": {
                "type": "Point",
                "coordinates": [
                    20.2142309,
                    50.188176
                ]
            },
            "properties": {
                "isced:level": "1;2",
                "ref:rspo": 84042,
                "official_name": "Szko\u0142a Podstawowa im.tadeusza Ko\u015bciuszki w Koniuszy",
                "name": "Szko\u0142a Podstawowa im.tadeusza Ko\u015bciuszki w Koniuszy",
                "addr:postcode": "32-104",
                "addr:place": "Koniusza",
                "addr:housenumber": "19",
                "addr:city:simc": 323230,
                "phone": "+48 123869005",
                "email": "spkoniusza19@koniusza.pl",
                "website": "http:\/\/www.spkoniusza.edupage.org",
                "ref:regon": "000699371",
                "ref:vatin": "PL6821179003",
                "operator": "Gmina Koniusza",
                "operator:type": "government",
                "amenity": "school"
            }
        },
        {
            "id": 26740,
            "type": "Feature",
            "geometry": {
                "type": "Point",
                "coordinates": [
                    20.233818,
                    50.1952549
                ]
            },
            "properties": {
                "ref:rspo": 26740,
                "official_name": "Zesp\u00f3\u0142 Szk\u00f3\u0142 im. Emila Godlewskiego w Piotrkowicach Ma\u0142ych",
                "name": "Zesp\u00f3\u0142 Szk\u00f3\u0142",
                "addr:postcode": "32-104",
                "addr:place": "Piotrkowice Ma\u0142e",
                "addr:housenumber": "87d",
                "addr:city:simc": 323499,
                "phone": "+48 123869420",
                "email": "zs@piotrkowice.edu.pl",
                "website": "http:\/\/www.piotrkowice.edu.pl",
                "ref:regon": "000098418",
                "operator": "Powiat Proszowicki",
                "operator:type": "government",
                "landuse": "education",
                "fixme": "amenity=school, amenity=college albo landuse=education w zale\u017cno\u015bci od tego, jakie plac\u00f3wki wchodz\u0105 w sk\u0142ad zespo\u0142u. Sprawd\u017a, kiedy stosowa\u0107 amenity=* a kiedy landuse=education.",
                "note": "Children RSPO: 42544;44604;47316;119849"
            }
        },
        {
            "id": 42544,
            "type": "Feature",
            "geometry": {
                "type": "Point",
                "coordinates": [
                    20.233818,
                    50.1952249
                ]
            },
            "properties": {
                "isced:level": "3",
                "ref:rspo": 42544,
                "official_name": "Technikum w Zespole Szk\u00f3\u0142 im. Emila Godlewskiego w Piotrkowicach Ma\u0142ych",
                "name": "Technikum w Zespole Szk\u00f3\u0142",
                "addr:postcode": "32-104",
                "addr:place": "Piotrkowice Ma\u0142e",
                "addr:housenumber": "87d",
                "addr:city:simc": 323499,
                "phone": "+48 123869420",
                "email": "zs@piotrkowice.edu.pl",
                "website": "http:\/\/www.piotrkowice.edu.pl",
                "ref:regon": "121317393",
                "ref:vatin": "PL6821001713",
                "operator": "Powiat Proszowicki",
                "operator:type": "government",
                "amenity": "school",
                "note": "Parent RSPO: 26740"
            }
        },
        {
            "id": 44604,
            "type": "Feature",
            "geometry": {
                "type": "Point",
                "coordinates": [
                    20.233818,
                    50.195194900000004
                ]
            },
            "properties": {
                "isced:level": "3",
                "ref:rspo": 44604,
                "official_name": "Bran\u017cowa Szko\u0142a I Stopnia w Zespole Szk\u00f3\u0142 im. Emila Godlewskiego w Piotrkowicach Ma\u0142ych",
                "name": "Bran\u017cowa Szko\u0142a I Stopnia w Zespole Szk\u00f3\u0142",
                "addr:postcode": "32-104",
                "addr:place": "Piotrkowice Ma\u0142e",
                "addr:housenumber": "87d",
                "addr:city:simc": 323499,
                "phone": "+48 123869420",
                "email": "zs@piotrkowice.edu.pl",
                "website": "http:\/\/www.piotrkowice.edu.pl",
                "ref:regon": "121317401",
                "ref:vatin": "PL6821001713",
                "operator": "Powiat Proszowicki",
                "operator:type": "government",
                "amenity": "school",
                "note": "Parent RSPO: 26740"
            }
        },
        {
            "id": 47316,
            "type": "Feature",
            "geometry": {
                "type": "Point",
                "coordinates": [
                    20.233818,
                    50.1951649
                ]
            },
            "properties": {
                "isced:level": "3",
                "ref:rspo": 47316,
                "official_name": "Liceum Og\u00f3lnokszta\u0142c\u0105ce w Zespole Szk\u00f3\u0142 im. Emila Godlewskiego w Piotrkowicach Ma\u0142ych",
                "name": "Liceum Og\u00f3lnokszta\u0142c\u0105ce w Zespole Szk\u00f3\u0142",
                "addr:postcode": "32-104",
                "addr:place": "Piotrkowice Ma\u0142e",
                "addr:housenumber": "87d",
                "addr:city:simc": 323499,
                "phone": "+48 123869420",
                "email": "zs@piotrkowice.edu.pl",
                "website": "http:\/\/www.piotrkowice.edu.pl",
                "ref:regon": "356568058",
                "ref:vatin": "PL6821001713",
                "operator": "Powiat Proszowicki",
                "operator:type": "government",
                "amenity": "school",
                "note": "Parent RSPO: 26740"
            }
        },
        {
            "id": 119849,
            "type": "Feature",
            "geometry": {
                "type": "Point",
                "coordinates": [
                    20.233818,
                    50.1951349
                ]
            },
            "properties": {
                "isced:level": "3",
                "ref:rspo": 119849,
                "official_name": "Liceum Og\u00f3lnokszta\u0142c\u0105ce dla Doros\u0142ych",
                "name": "Liceum Og\u00f3lnokszta\u0142c\u0105ce dla Doros\u0142ych",
                "addr:postcode": "32-104",
                "addr:place": "Piotrkowice Ma\u0142e",
                "addr:housenumber": "87d",
                "addr:city:simc": 323499,
                "phone": "+48 123869420",
                "email": "zs@piotrkowice.edu.pl",
                "website": "http:\/\/www.piotrkowice.edu.pl",
                "ref:regon": "122941722",
                "ref:vatin": "PL6821001713",
                "operator": "Powiat Proszowicki",
                "operator:type": "government",
                "amenity": "school",
                "note": "Parent RSPO: 26740"
            }
        },
        {
            "id": 131284,
            "type": "Feature",
            "geometry": {
                "type": "Point",
                "coordinates": [
                    20.1862,
                    50.215879
                ]
            },
            "properties": {
                "ref:rspo": 131284,
                "official_name": "Zesp\u00f3\u0142 Szkolno-Przedszkolny w Niegardowie",
                "name": "Zesp\u00f3\u0142 Szkolno-Przedszkolny w Niegardowie",
                "addr:postcode": "32-104",
                "addr:place": "Niegard\u00f3w",
                "addr:housenumber": "57",
                "addr:city:simc": 323393,
                "phone": "+48 123869348",
                "email": "zspn.niegardow@gmail.pl",
                "website": "http:\/\/www.spniegardow.superszkolna.pl",
                "ref:regon": "365081122",
                "ref:vatin": "PL6821773077",
                "operator": "Gmina Koniusza",
                "operator:type": "government",
                "landuse": "education",
                "fixme": "amenity=school, amenity=college albo landuse=education w zale\u017cno\u015bci od tego, jakie plac\u00f3wki wchodz\u0105 w sk\u0142ad zespo\u0142u. Sprawd\u017a, kiedy stosowa\u0107 amenity=* a kiedy landuse=education.",
                "note": "Children RSPO: 64654;84040"
            }
        },
        {
            "id": 84040,
            "type": "Feature",
            "geometry": {
                "type": "Point",
                "coordinates": [
                    20.1862,
                    50.215849
                ]
            },
            "properties": {
                "isced:level": "1;2",
                "ref:rspo": 84040,
                "official_name": "Zesp\u00f3\u0142 Szkolno-Przedszkolny w Niegardowie - Szko\u0142a Podstawowa im.janusza Korczaka",
                "name": "Zesp\u00f3\u0142 Szkolno-Przedszkolny w Niegardowie - Szko\u0142a Podstawowa im.janusza Korczaka",
                "addr:postcode": "32-104",
                "addr:place": "Niegard\u00f3w",
                "addr:housenumber": "57",
                "addr:city:simc": 323393,
                "phone": "+48 123869348",
                "email": "zspn.niegardow@gmail.com",
                "website": "http:\/\/www.spniegardow.superszkolna.pl",
                "ref:regon": "000699320",
                "ref:vatin": "PL6821479053",
                "operator": "Gmina Koniusza",
                "operator:type": "government",
                "amenity": "school",
                "note": "Parent RSPO: 131284"
            }
        },
        {
            "id": 64654,
            "type": "Feature",
            "geometry": {
                "type": "Point",
                "coordinates": [
                    20.1866029,
                    50.2162099
                ]
            },
            "properties": {
                "ref:rspo": 64654,
                "official_name": "Zesp\u00f3\u0142 Szkolno-Przedszkolny w Niegardowie- Przedszkole Samorz\u0105dowe w Niegardowie",
                "name": "Zesp\u00f3\u0142 Szkolno-Przedszkolny w Niegardowie- Przedszkole Samorz\u0105dowe w Niegardowie",
                "addr:postcode": "32-104",
                "addr:place": "Niegard\u00f3w",
                "addr:housenumber": "63",
                "addr:city:simc": 323393,
                "phone": "+48 123869361",
                "email": "zspn.niegardow@gmail.com",
                "website": "http:\/\/www.przedszkoleniegardow.dla przedszkola.eu",
                "ref:regon": "350018641",
                "ref:vatin": "PL6821535113",
                "operator": "Gmina Koniusza",
                "operator:type": "government",
                "amenity": "kindergarten",
                "note": "Parent RSPO: 131284"
            }
        },
        {
            "id": 63409,
            "type": "Feature",
            "geometry": {
                "type": "Point",
                "coordinates": [
                    20.239635,
                    50.224038
                ]
            },
            "properties": {
                "isced:level": "1;2",
                "ref:rspo": 63409,
                "official_name": "Szko\u0142a Podstawowa im.bartosza G\u0142owackiego w Rz\u0119dowicach",
                "name": "Szko\u0142a Podstawowa im.bartosza G\u0142owackiego w Rz\u0119dowicach",
                "addr:postcode": "32-104",
                "addr:place": "Rz\u0119dowice",
                "addr:housenumber": "44",
                "addr:city:simc": 323720,
                "phone": "+48 123861885",
                "email": "sp.bartosz@koniusza.pl",
                "website": "https:\/\/sprzedowice.szkolna.net\/",
                "ref:regon": "000699342",
                "ref:vatin": "PL6821510923",
                "operator": "Gmina Koniusza",
                "operator:type": "government",
                "amenity": "school"
            }
        }
    ]
}