{
    "type": "FeatureCollection",
    "features": [
        {
            "id": 25484,
            "type": "Feature",
            "geometry": {
                "type": "Point",
                "coordinates": [
                    16.2501,
                    52.36012
                ]
            },
            "properties": {
                "ref:rspo": 25484,
                "official_name": "Zesp\u00f3\u0142 Szko\u0142a Podstawowa -Przedszkole w W\u0105sowie\nUl.lipowa 51",
                "name": "Zesp\u00f3\u0142 Szko\u0142a Podstawowa -Przedszkole w W\u0105sowie\nUl.lipowa 51",
                "addr:postcode": "64-316",
                "addr:city": "W\u0105sowo",
                "addr:street": "Lipowa",
                "addr:housenumber": "51",
                "addr:teryt:simc": 587666,
                "addr:teryt:sym_ul": 11139,
                "phone": "+48 614472977",
                "email": "spwasowo@o2.pl",
                "ref:regon": "634241201",
                "ref:vatin": "PL7881836818",
                "operator": "Gmina Ku\u015blin",
                "operator:type": "government",
                "landuse": "education",
                "fixme": "amenity=school, amenity=college albo landuse=education w zale\u017cno\u015bci od tego, jakie plac\u00f3wki wchodz\u0105 w sk\u0142ad zespo\u0142u. Sprawd\u017a, kiedy stosowa\u0107 amenity=* a kiedy landuse=education.",
                "note": "Children RSPO: 29270;29770"
            }
        },
        {
            "id": 29270,
            "type": "Feature",
            "geometry": {
                "type": "Point",
                "coordinates": [
                    16.2501,
                    52.36009
                ]
            },
            "properties": {
                "isced:level": "1;2",
                "ref:rspo": 29270,
                "official_name": "Szko\u0142a Podstawowa im.gen.stanis\u0142awa Taczaka w W\u0105sowie",
                "name": "Szko\u0142a Podstawowa im.gen.stanis\u0142awa Taczaka w W\u0105sowie",
                "addr:postcode": "64-316",
                "addr:city": "W\u0105sowo",
                "addr:street": "Lipowa",
                "addr:housenumber": "51",
                "addr:teryt:simc": 587666,
                "addr:teryt:sym_ul": 11139,
                "phone": "+48 614472977",
                "email": "spwasowo@o2.pl",
                "ref:regon": "000657556",
                "ref:vatin": "PL7881277589",
                "operator": "Gmina Ku\u015blin",
                "operator:type": "government",
                "amenity": "school",
                "note": "Parent RSPO: 25484"
            }
        },
        {
            "id": 29770,
            "type": "Feature",
            "geometry": {
                "type": "Point",
                "coordinates": [
                    16.2501,
                    52.360060000000004
                ]
            },
            "properties": {
                "ref:rspo": 29770,
                "official_name": "Przedszkole im.janka W\u0119drowniczka w W\u0105sowie",
                "name": "Przedszkole im.janka W\u0119drowniczka w W\u0105sowie",
                "addr:postcode": "64-316",
                "addr:city": "W\u0105sowo",
                "addr:street": "Lipowa",
                "addr:housenumber": "51",
                "addr:teryt:simc": 587666,
                "addr:teryt:sym_ul": 11139,
                "phone": "+48 614472977",
                "email": "spwasowo@o2.pl",
                "ref:regon": "630266210",
                "ref:vatin": "PL7881277690",
                "operator": "Gmina Ku\u015blin",
                "operator:type": "government",
                "amenity": "kindergarten",
                "note": "Parent RSPO: 25484"
            }
        },
        {
            "id": 25510,
            "type": "Feature",
            "geometry": {
                "type": "Point",
                "coordinates": [
                    16.34575,
                    52.37385
                ]
            },
            "properties": {
                "ref:rspo": 25510,
                "official_name": "Zesp\u00f3\u0142 Szko\u0142a Podstawowa-Przedszkole w Michorzewie Ul.szkolna 2",
                "name": "Zesp\u00f3\u0142 Szko\u0142a Podstawowa-Przedszkole w Michorzewie Ul.szkolna 2",
                "addr:postcode": "64-316",
                "addr:city": "Michorzewo",
                "addr:street": "Szkolna",
                "addr:housenumber": "2",
                "addr:teryt:simc": 587583,
                "addr:teryt:sym_ul": 21970,
                "phone": "+48 614473036",
                "email": "spmichorzewo@o2.pl",
                "website": "http:\/\/spmichorzewo.fastum.pl",
                "ref:regon": "634241170",
                "ref:vatin": "PL7881836824",
                "operator": "Gmina Ku\u015blin",
                "operator:type": "government",
                "landuse": "education",
                "fixme": "amenity=school, amenity=college albo landuse=education w zale\u017cno\u015bci od tego, jakie plac\u00f3wki wchodz\u0105 w sk\u0142ad zespo\u0142u. Sprawd\u017a, kiedy stosowa\u0107 amenity=* a kiedy landuse=education.",
                "note": "Children RSPO: 30795;30887"
            }
        },
        {
            "id": 30795,
            "type": "Feature",
            "geometry": {
                "type": "Point",
                "coordinates": [
                    16.34575,
                    52.373819999999995
                ]
            },
            "properties": {
                "isced:level": "1;2",
                "ref:rspo": 30795,
                "official_name": "Szko\u0142a Podstawowa im.emilii Sczanieckiej w Michorzewie",
                "name": "Szko\u0142a Podstawowa im.emilii Sczanieckiej w Michorzewie",
                "addr:postcode": "64-316",
                "addr:city": "Michorzewo",
                "addr:street": "Szkolna",
                "addr:housenumber": "2",
                "addr:teryt:simc": 587583,
                "addr:teryt:sym_ul": 21970,
                "phone": "+48 614473036",
                "email": "spmichorzewo@o2.pl",
                "website": "http:\/\/spmichorzewo.pl",
                "ref:regon": "001227645",
                "ref:vatin": "PL7881277661",
                "operator": "Gmina Ku\u015blin",
                "operator:type": "government",
                "amenity": "school",
                "note": "Parent RSPO: 25510"
            }
        },
        {
            "id": 30887,
            "type": "Feature",
            "geometry": {
                "type": "Point",
                "coordinates": [
                    16.34575,
                    52.37379
                ]
            },
            "properties": {
                "ref:rspo": 30887,
                "official_name": "Przedszkole \"Misia Uszatka\" w Michorzewie",
                "name": "Przedszkole \"Misia Uszatka\" w Michorzewie",
                "addr:postcode": "64-316",
                "addr:city": "Michorzewo",
                "addr:street": "Szkolna",
                "addr:housenumber": "2",
                "addr:teryt:simc": 587583,
                "addr:teryt:sym_ul": 21970,
                "phone": "+48 614473036",
                "email": "spmichorzewo@o2.pl",
                "website": "http:\/\/spmichorzewo.fastum.pl",
                "ref:regon": "630266204",
                "ref:vatin": "PL7881277201",
                "operator": "Gmina Ku\u015blin",
                "operator:type": "government",
                "amenity": "kindergarten",
                "note": "Parent RSPO: 25510"
            }
        },
        {
            "id": 25505,
            "type": "Feature",
            "geometry": {
                "type": "Point",
                "coordinates": [
                    16.33513,
                    52.3902
                ]
            },
            "properties": {
                "ref:rspo": 25505,
                "official_name": "Zesp\u00f3\u0142 Szk\u00f3\u0142 Rolnicze Centrum Kszta\u0142cenia Ustawicznego w Trzciance",
                "name": "Zesp\u00f3\u0142 Szk\u00f3\u0142 Rolnicze Centrum Kszta\u0142cenia Ustawicznego w Trzciance",
                "addr:postcode": "64-316",
                "addr:place": "Trzcianka",
                "addr:housenumber": "15a",
                "addr:teryt:simc": 587643,
                "phone": "+48 614473032",
                "email": "szkola@zsrcku.com",
                "website": "http:\/\/www.zsrcku.com",
                "ref:regon": "000099487",
                "ref:vatin": "PL7881004696",
                "operator": "Powiat Nowotomyski",
                "operator:type": "government",
                "landuse": "education",
                "fixme": "amenity=school, amenity=college albo landuse=education w zale\u017cno\u015bci od tego, jakie plac\u00f3wki wchodz\u0105 w sk\u0142ad zespo\u0142u. Sprawd\u017a, kiedy stosowa\u0107 amenity=* a kiedy landuse=education.",
                "note": "Children RSPO: 31246;32110"
            }
        },
        {
            "id": 31246,
            "type": "Feature",
            "geometry": {
                "type": "Point",
                "coordinates": [
                    16.33513,
                    52.39017
                ]
            },
            "properties": {
                "isced:level": "3",
                "ref:rspo": 31246,
                "official_name": "Technikum im. Gen. Dezyderego Ch\u0142apowskiego w Trzciance",
                "name": "Technikum",
                "addr:postcode": "64-316",
                "addr:place": "Trzcianka",
                "addr:housenumber": "15a",
                "addr:teryt:simc": 587643,
                "phone": "+48 614473032",
                "email": "szkola@zsrcku.com",
                "website": "http:\/\/www.zsrcku.com",
                "ref:regon": "300037100",
                "operator": "Powiat Nowotomyski",
                "operator:type": "government",
                "amenity": "school",
                "note": "Parent RSPO: 25505"
            }
        },
        {
            "id": 32110,
            "type": "Feature",
            "geometry": {
                "type": "Point",
                "coordinates": [
                    16.33513,
                    52.39014
                ]
            },
            "properties": {
                "ref:rspo": 32110,
                "official_name": "Rolnicze Centrum Kszta\u0142cenia Ustawicznego",
                "name": "Rolnicze Centrum Kszta\u0142cenia Ustawicznego",
                "addr:postcode": "64-316",
                "addr:place": "Trzcianka",
                "addr:housenumber": "15a",
                "addr:teryt:simc": 587643,
                "phone": "+48 614473032",
                "ref:regon": "302241997",
                "operator": "Powiat Nowotomyski",
                "operator:type": "government",
                "fixme": "w zale\u017cno\u015bci od przedmiotu dzia\u0142alno\u015bci (np. amenity=training + training=*, amenity=dancing_school, amenity=language_school, amenity=music_school)",
                "note": "Parent RSPO: 25505"
            }
        },
        {
            "id": 264578,
            "type": "Feature",
            "geometry": {
                "type": "Point",
                "coordinates": [
                    16.2836,
                    52.39647
                ]
            },
            "properties": {
                "isced:level": "1;2",
                "ref:rspo": 264578,
                "official_name": "Niepubliczna Szko\u0142a Podstawowa w Chraplewie",
                "name": "Niepubliczna Szko\u0142a Podstawowa w Chraplewie",
                "addr:postcode": "64-316",
                "addr:place": "Chraplewo",
                "addr:housenumber": "4",
                "addr:teryt:simc": 587519,
                "phone": "+48 614473455",
                "email": "szkolachraplewo@wp.pl",
                "ref:regon": "368383668",
                "operator": "Edukacja Sp\u00f3\u0142ka Zograniczon\u0105 Odpowiedzialno\u015bci\u0105",
                "operator:type": "private",
                "amenity": "school",
                "note": "Parent RSPO: 59889"
            }
        },
        {
            "id": 268833,
            "type": "Feature",
            "geometry": {
                "type": "Point",
                "coordinates": [
                    16.2836,
                    52.39644
                ]
            },
            "properties": {
                "isced:level": "3",
                "ref:rspo": 268833,
                "official_name": "Bran\u017cowa Szko\u0142a I Stopnia w Chraplewie",
                "name": "Bran\u017cowa Szko\u0142a I Stopnia w Chraplewie",
                "addr:postcode": "64-316",
                "addr:place": "Chraplewo",
                "addr:housenumber": "4",
                "addr:teryt:simc": 587519,
                "phone": "+48 614473455",
                "email": "szkolachraplewo@wp.pl",
                "ref:regon": "381257181",
                "operator": "\"Edukacja Lubasz\" Sp\u00f3\u0142ka Z Ograniczon\u0105 Odpowiedzialno\u015bci\u0105",
                "operator:type": "private",
                "amenity": "school",
                "note": "Parent RSPO: 59889"
            }
        }
    ]
}