{
    "type": "FeatureCollection",
    "features": [
        {
            "id": 26397,
            "type": "Feature",
            "geometry": {
                "type": "Point",
                "coordinates": [
                    16.19818,
                    52.41437
                ]
            },
            "properties": {
                "ref:rspo": 26397,
                "official_name": "Przedszkole \"Krystynka\" w Chmielinku",
                "name": "Przedszkole \"Krystynka\" w Chmielinku",
                "addr:postcode": "64-310",
                "addr:place": "Chmielinko",
                "addr:housenumber": "29",
                "addr:city:simc": 588080,
                "email": "szkolchmiel@poczta.onet.pl",
                "website": "http:\/\/www.spchmielinko.superszkolna.pl",
                "ref:regon": "630032498",
                "ref:vatin": "PL7881839107",
                "operator": "Gmina Lw\u00f3wek",
                "operator:type": "government",
                "amenity": "kindergarten",
                "note": "Parent RSPO: 12367"
            }
        },
        {
            "id": 12367,
            "type": "Feature",
            "geometry": {
                "type": "Point",
                "coordinates": [
                    16.19743,
                    52.41669
                ]
            },
            "properties": {
                "ref:rspo": 12367,
                "official_name": "Zesp\u00f3\u0142 Szko\u0142y Podstawowej im. Bronis\u0142awa Malinowskiego I Przedszkola \"Krystynka\"",
                "name": "Zesp\u00f3\u0142 Szko\u0142y Podstawowej",
                "addr:postcode": "64-310",
                "addr:place": "Chmielinko",
                "addr:housenumber": "55",
                "addr:city:simc": 588080,
                "phone": "+48 614414216",
                "email": "szkolchmiel@poczta.onet.pl",
                "website": "http:\/\/www.spchmielinko.superszkolna.pl",
                "ref:regon": "634496266",
                "ref:vatin": "PL7881839076",
                "operator": "Gmina Lw\u00f3wek",
                "operator:type": "government",
                "landuse": "education",
                "fixme": "amenity=school, amenity=college albo landuse=education w zale\u017cno\u015bci od tego, jakie plac\u00f3wki wchodz\u0105 w sk\u0142ad zespo\u0142u. Sprawd\u017a, kiedy stosowa\u0107 amenity=* a kiedy landuse=education.",
                "note": "Children RSPO: 26396;26397"
            }
        },
        {
            "id": 26396,
            "type": "Feature",
            "geometry": {
                "type": "Point",
                "coordinates": [
                    16.19743,
                    52.41666
                ]
            },
            "properties": {
                "isced:level": "1;2",
                "ref:rspo": 26396,
                "official_name": "Szko\u0142a Podstawowa im. Bronis\u0142awa Malinowskiego w Chmielinku",
                "name": "Szko\u0142a Podstawowa",
                "addr:postcode": "64-310",
                "addr:place": "Chmielinko",
                "addr:housenumber": "55",
                "addr:city:simc": 588080,
                "phone": "+48 614414216",
                "email": "szkolchmiel@poczta.onet.pl",
                "website": "http:\/\/www.spchmielinko.superszkolna.pl",
                "ref:regon": "001226019",
                "ref:vatin": "PL7881991482",
                "operator": "Gmina Lw\u00f3wek",
                "operator:type": "government",
                "amenity": "school",
                "note": "Parent RSPO: 12367"
            }
        },
        {
            "id": 12368,
            "type": "Feature",
            "geometry": {
                "type": "Point",
                "coordinates": [
                    16.24859,
                    52.43462
                ]
            },
            "properties": {
                "ref:rspo": 12368,
                "official_name": "Zesp\u00f3\u0142 Szko\u0142y Podstawowej I Przedszkola im. Emilii Sczanieckiej",
                "name": "Zesp\u00f3\u0142 Szko\u0142y Podstawowej I Przedszkola",
                "addr:postcode": "64-310",
                "addr:place": "Pakos\u0142aw",
                "addr:housenumber": "152",
                "addr:city:simc": 588217,
                "phone": "+48 614413426",
                "email": "zspip.pakoslaw@gmail.com",
                "ref:regon": "634495982",
                "ref:vatin": "PL7881839047",
                "operator": "Gmina Lw\u00f3wek",
                "operator:type": "government",
                "landuse": "education",
                "fixme": "amenity=school, amenity=college albo landuse=education w zale\u017cno\u015bci od tego, jakie plac\u00f3wki wchodz\u0105 w sk\u0142ad zespo\u0142u. Sprawd\u017a, kiedy stosowa\u0107 amenity=* a kiedy landuse=education.",
                "note": "Children RSPO: 26529;26530"
            }
        },
        {
            "id": 26529,
            "type": "Feature",
            "geometry": {
                "type": "Point",
                "coordinates": [
                    16.24859,
                    52.43459
                ]
            },
            "properties": {
                "isced:level": "1;2",
                "ref:rspo": 26529,
                "official_name": "Szko\u0142a Podstawowa w Pakos\u0142awiu",
                "name": "Szko\u0142a Podstawowa w Pakos\u0142awiu",
                "addr:postcode": "64-310",
                "addr:place": "Pakos\u0142aw",
                "addr:housenumber": "152",
                "addr:city:simc": 588217,
                "phone": "+48 614413426",
                "email": "szkolapakoslaw@gazeta.pl",
                "ref:regon": "001226025",
                "ref:vatin": "PL7881961759",
                "operator": "Gmina Lw\u00f3wek",
                "operator:type": "government",
                "amenity": "school",
                "note": "Parent RSPO: 12368"
            }
        },
        {
            "id": 26530,
            "type": "Feature",
            "geometry": {
                "type": "Point",
                "coordinates": [
                    16.24859,
                    52.434560000000005
                ]
            },
            "properties": {
                "ref:rspo": 26530,
                "official_name": "Przedszkole w Pakos\u0142awiu",
                "name": "Przedszkole w Pakos\u0142awiu",
                "addr:postcode": "64-310",
                "addr:place": "Pakos\u0142aw",
                "addr:housenumber": "152",
                "addr:city:simc": 588217,
                "phone": "+48 614413426",
                "email": "szkolapakoslaw@gazeta.pl",
                "ref:regon": "630032446",
                "ref:vatin": "PL7881961765",
                "operator": "Gmina Lw\u00f3wek",
                "operator:type": "government",
                "amenity": "kindergarten",
                "note": "Parent RSPO: 12368"
            }
        },
        {
            "id": 12366,
            "type": "Feature",
            "geometry": {
                "type": "Point",
                "coordinates": [
                    16.29463,
                    52.43829
                ]
            },
            "properties": {
                "ref:rspo": 12366,
                "official_name": "Zesp\u00f3\u0142 Szko\u0142y I Przedszkola im. Jana Paw\u0142a II w Brodach",
                "name": "Zesp\u00f3\u0142 Szko\u0142y I Przedszkola",
                "addr:postcode": "64-310",
                "addr:place": "Brody",
                "addr:housenumber": "1",
                "addr:city:simc": 588039,
                "email": "zsipbrody@onet.eu",
                "ref:regon": "634502995",
                "ref:vatin": "PL7881839082",
                "operator": "Gmina Lw\u00f3wek",
                "operator:type": "government",
                "landuse": "education",
                "fixme": "amenity=school, amenity=college albo landuse=education w zale\u017cno\u015bci od tego, jakie plac\u00f3wki wchodz\u0105 w sk\u0142ad zespo\u0142u. Sprawd\u017a, kiedy stosowa\u0107 amenity=* a kiedy landuse=education.",
                "note": "Children RSPO: 26212;26213"
            }
        },
        {
            "id": 26212,
            "type": "Feature",
            "geometry": {
                "type": "Point",
                "coordinates": [
                    16.29463,
                    52.43826
                ]
            },
            "properties": {
                "isced:level": "1;2",
                "ref:rspo": 26212,
                "official_name": "Szko\u0142a Podstawowa w Brodach",
                "name": "Szko\u0142a Podstawowa w Brodach",
                "addr:postcode": "64-310",
                "addr:place": "Brody",
                "addr:housenumber": "1",
                "addr:city:simc": 588039,
                "phone": "+48 614413223",
                "email": "zsipbrody@onet.eu",
                "ref:regon": "001226002",
                "ref:vatin": "PL7881961713",
                "operator": "Gmina Lw\u00f3wek",
                "operator:type": "government",
                "amenity": "school",
                "note": "Parent RSPO: 12366"
            }
        },
        {
            "id": 26213,
            "type": "Feature",
            "geometry": {
                "type": "Point",
                "coordinates": [
                    16.29431,
                    52.4395499
                ]
            },
            "properties": {
                "ref:rspo": 26213,
                "official_name": "Przedszkole w Brodach",
                "name": "Przedszkole w Brodach",
                "addr:postcode": "64-310",
                "addr:place": "Brody",
                "addr:housenumber": "92",
                "addr:city:simc": 588039,
                "phone": "+48 614413229",
                "email": "zsipbrody@onet.eu",
                "ref:regon": "630032469",
                "ref:vatin": "PL7881961736",
                "operator": "Gmina Lw\u00f3wek",
                "operator:type": "government",
                "amenity": "kindergarten",
                "note": "Parent RSPO: 12366"
            }
        },
        {
            "id": 20140,
            "type": "Feature",
            "geometry": {
                "type": "Point",
                "coordinates": [
                    16.18922,
                    52.44588
                ]
            },
            "properties": {
                "isced:level": "1;2",
                "ref:rspo": 20140,
                "official_name": "Szko\u0142a Podstawowa im. Emilii Sczanieckiej w Lw\u00f3wku",
                "name": "Szko\u0142a Podstawowa",
                "addr:postcode": "64-310",
                "addr:city": "Lw\u00f3wek",
                "addr:street": "Gimnazjalna",
                "addr:housenumber": "1",
                "addr:city:simc": 971028,
                "addr:street:sym_ul": 5527,
                "email": "splwowek@interia.pl",
                "ref:regon": "000654990",
                "ref:vatin": "PL7881839136",
                "operator": "Gmina Lw\u00f3wek",
                "operator:type": "government",
                "amenity": "school"
            }
        },
        {
            "id": 20141,
            "type": "Feature",
            "geometry": {
                "type": "Point",
                "coordinates": [
                    16.1829004,
                    52.4466114
                ]
            },
            "properties": {
                "ref:rspo": 20141,
                "official_name": "Przedszkole w Lw\u00f3wku",
                "name": "Przedszkole w Lw\u00f3wku",
                "addr:postcode": "64-310",
                "addr:city": "Lw\u00f3wek",
                "addr:street": "Zbigniewa \u015awitalskiego",
                "addr:housenumber": "31",
                "addr:city:simc": 971028,
                "addr:street:sym_ul": 22579,
                "phone": "+48 614414996",
                "email": "przedlwowek@wp.pl",
                "ref:regon": "630032475",
                "ref:vatin": "PL7881839099",
                "operator": "Gmina Lw\u00f3wek",
                "operator:type": "government",
                "amenity": "kindergarten"
            }
        },
        {
            "id": 118407,
            "type": "Feature",
            "geometry": {
                "type": "Point",
                "coordinates": [
                    16.2171999,
                    52.45353
                ]
            },
            "properties": {
                "ref:rspo": 118407,
                "official_name": "Zesp\u00f3\u0142 Szko\u0142y Podstawowej I Przedszkola im. Powsta\u0144c\u00f3w Wielkopolskich w Posadowie",
                "name": "Zesp\u00f3\u0142 Szko\u0142y Podstawowej I Przedszkola",
                "addr:postcode": "64-310",
                "addr:place": "Posadowo",
                "addr:housenumber": "30",
                "addr:city:simc": 588246,
                "phone": "+48 614414625",
                "email": "szkolaposadowo@wp.pl",
                "ref:regon": "302490329",
                "ref:vatin": "PL7881995557",
                "operator": "Gmina Lw\u00f3wek",
                "operator:type": "government",
                "landuse": "education",
                "fixme": "amenity=school, amenity=college albo landuse=education w zale\u017cno\u015bci od tego, jakie plac\u00f3wki wchodz\u0105 w sk\u0142ad zespo\u0142u. Sprawd\u017a, kiedy stosowa\u0107 amenity=* a kiedy landuse=education.",
                "note": "Children RSPO: 12369;118755"
            }
        },
        {
            "id": 12369,
            "type": "Feature",
            "geometry": {
                "type": "Point",
                "coordinates": [
                    16.2171999,
                    52.4535
                ]
            },
            "properties": {
                "isced:level": "1;2",
                "ref:rspo": 12369,
                "official_name": "Szko\u0142a Podstawowa im. Powsta\u0144c\u00f3w Wielkopolskich w Posadowie",
                "name": "Szko\u0142a Podstawowa",
                "addr:postcode": "64-310",
                "addr:place": "Posadowo",
                "addr:housenumber": "30",
                "addr:city:simc": 588246,
                "phone": "+48 614414625",
                "email": "szkolaposadowo@wp.pl",
                "ref:regon": "001226551",
                "ref:vatin": "PL7881839053",
                "operator": "Gmina Lw\u00f3wek",
                "operator:type": "government",
                "amenity": "school",
                "note": "Parent RSPO: 118407"
            }
        },
        {
            "id": 118755,
            "type": "Feature",
            "geometry": {
                "type": "Point",
                "coordinates": [
                    16.2171999,
                    52.45347
                ]
            },
            "properties": {
                "ref:rspo": 118755,
                "official_name": "Przedszkole w Posadowie",
                "name": "Przedszkole w Posadowie",
                "addr:postcode": "64-310",
                "addr:place": "Posadowo",
                "addr:housenumber": "30",
                "addr:city:simc": 588246,
                "phone": "+48 614414625",
                "ref:regon": "302500200",
                "operator": "Gmina Lw\u00f3wek",
                "operator:type": "government",
                "amenity": "kindergarten",
                "note": "Parent RSPO: 118407"
            }
        },
        {
            "id": 12365,
            "type": "Feature",
            "geometry": {
                "type": "Point",
                "coordinates": [
                    16.08556,
                    52.4677099
                ]
            },
            "properties": {
                "ref:rspo": 12365,
                "official_name": "Zesp\u00f3\u0142 Szko\u0142y Podstawowej I Przedszkola im. Kornela Makuszy\u0144skiego",
                "name": "Zesp\u00f3\u0142 Szko\u0142y Podstawowej I Przedszkola",
                "addr:postcode": "64-310",
                "addr:city": "Z\u0119bowo",
                "addr:street": "D\u0142uga",
                "addr:housenumber": "1",
                "addr:city:simc": 588281,
                "addr:street:sym_ul": 3839,
                "phone": "+48 614413678",
                "email": "szkolazebowo@o2.pl",
                "ref:regon": "634606750",
                "ref:vatin": "PL7881343613",
                "operator": "Gmina Lw\u00f3wek",
                "operator:type": "government",
                "landuse": "education",
                "fixme": "amenity=school, amenity=college albo landuse=education w zale\u017cno\u015bci od tego, jakie plac\u00f3wki wchodz\u0105 w sk\u0142ad zespo\u0142u. Sprawd\u017a, kiedy stosowa\u0107 amenity=* a kiedy landuse=education.",
                "note": "Children RSPO: 26468;26469"
            }
        },
        {
            "id": 26468,
            "type": "Feature",
            "geometry": {
                "type": "Point",
                "coordinates": [
                    16.08556,
                    52.4676799
                ]
            },
            "properties": {
                "isced:level": "1;2",
                "ref:rspo": 26468,
                "official_name": "Szko\u0142a Podstawowa w Z\u0119bowie",
                "name": "Szko\u0142a Podstawowa w Z\u0119bowie",
                "addr:postcode": "64-310",
                "addr:city": "Z\u0119bowo",
                "addr:street": "D\u0142uga",
                "addr:housenumber": "1",
                "addr:city:simc": 588281,
                "addr:street:sym_ul": 3839,
                "phone": "+48 614413678",
                "email": "szkolazebowo@o2.pl",
                "ref:regon": "001225994",
                "ref:vatin": "PL7881961771",
                "operator": "Gmina Lw\u00f3wek",
                "operator:type": "government",
                "amenity": "school",
                "note": "Parent RSPO: 12365"
            }
        },
        {
            "id": 26469,
            "type": "Feature",
            "geometry": {
                "type": "Point",
                "coordinates": [
                    16.08556,
                    52.467649900000005
                ]
            },
            "properties": {
                "ref:rspo": 26469,
                "official_name": "Przedszkole w Z\u0119bowie",
                "name": "Przedszkole w Z\u0119bowie",
                "addr:postcode": "64-310",
                "addr:city": "Z\u0119bowo",
                "addr:street": "D\u0142uga",
                "addr:housenumber": "1",
                "addr:city:simc": 588281,
                "addr:street:sym_ul": 3839,
                "phone": "+48 614413678",
                "email": "szkolazebowo@o2.pl",
                "ref:regon": "634606766",
                "ref:vatin": "PL7881961788",
                "operator": "Gmina Lw\u00f3wek",
                "operator:type": "government",
                "amenity": "kindergarten",
                "note": "Parent RSPO: 12365"
            }
        }
    ]
}