{
    "type": "FeatureCollection",
    "features": [
        {
            "id": 26683,
            "type": "Feature",
            "geometry": {
                "type": "Point",
                "coordinates": [
                    16.48329,
                    52.26781
                ]
            },
            "properties": {
                "isced:level": "1;2",
                "ref:rspo": 26683,
                "official_name": "Szko\u0142a Podstawowa w Dakowach Mokrych",
                "name": "Szko\u0142a Podstawowa w Dakowach Mokrych",
                "addr:postcode": "64-330",
                "addr:city": "Dakowy Mokre",
                "addr:street": "Szkolna",
                "addr:housenumber": "8",
                "addr:city:simc": 592176,
                "addr:street:sym_ul": 21970,
                "phone": "+48 614476779",
                "email": "spdakowymokre@op.pl",
                "website": "http:\/\/www.szkola-dakowy-mokre.pl",
                "ref:regon": "001225824",
                "ref:vatin": "PL7881820415",
                "operator": "Gmina Opalenica",
                "operator:type": "government",
                "amenity": "school"
            }
        },
        {
            "id": 119249,
            "type": "Feature",
            "geometry": {
                "type": "Point",
                "coordinates": [
                    16.40626,
                    52.2710099
                ]
            },
            "properties": {
                "isced:level": "1;2",
                "ref:rspo": 119249,
                "official_name": "Szko\u0142a Podstawowa im. Powsta\u0144c\u00f3w Ziemi Opalenickiej w Urbanowie",
                "name": "Szko\u0142a Podstawowa",
                "addr:postcode": "64-330",
                "addr:place": "Urbanowo",
                "addr:housenumber": "37",
                "addr:city:simc": 592360,
                "phone": "+48 614473550",
                "email": "spurbanowo@wp.pl",
                "website": "http:\/\/www.spurbanowo.szkolnastrona.pl",
                "ref:regon": "302515213",
                "ref:vatin": "PL7881820384",
                "operator": "Stowarzyszenie Kulturalno-O\u015bwiatowe \"Rodzice-Dzieciom\" W Urbanowie",
                "operator:type": "ngo",
                "amenity": "school"
            }
        },
        {
            "id": 119218,
            "type": "Feature",
            "geometry": {
                "type": "Point",
                "coordinates": [
                    16.3160496,
                    52.2890276
                ]
            },
            "properties": {
                "isced:level": "1;2",
                "ref:rspo": 119218,
                "official_name": "Szko\u0142a Podstawowa w Kopankach",
                "name": "Szko\u0142a Podstawowa w Kopankach",
                "addr:postcode": "64-330",
                "addr:place": "Kopanki",
                "addr:housenumber": "52",
                "addr:city:simc": 592220,
                "phone": "+48 614473630",
                "email": "szkola@spkopanki.eu",
                "website": "http:\/\/www.spkopanki.edupage.org",
                "ref:regon": "302515199",
                "operator": "Stowarzyszenie Rodzic\u00f3w I Przyjaci\u00f3\u0142 Szko\u0142y W Kopankach \"Mali Wielcy\"",
                "operator:type": "ngo",
                "amenity": "school"
            }
        },
        {
            "id": 278656,
            "type": "Feature",
            "geometry": {
                "type": "Point",
                "coordinates": [
                    16.38908,
                    52.29295
                ]
            },
            "properties": {
                "ref:rspo": 278656,
                "official_name": "Niepubliczna Bursa Apr w Opalenicy",
                "name": "Niepubliczna Bursa Apr w Opalenicy",
                "addr:postcode": "64-330",
                "addr:city": "Sielinko",
                "addr:street": "Parkowa",
                "addr:housenumber": "2",
                "addr:city:simc": 592302,
                "addr:street:sym_ul": 15710,
                "email": "bursa@akademiareissa.pl",
                "website": "http:\/\/www.akademiareissa.pl",
                "ref:regon": "520018210",
                "operator": "Pr9 Sp\u00f3\u0142ka Z Ograniczon\u0105 Odpowiedzialno\u015bci\u0105",
                "operator:type": "private",
                "building": "dormitory"
            }
        },
        {
            "id": 41997,
            "type": "Feature",
            "geometry": {
                "type": "Point",
                "coordinates": [
                    16.3891,
                    52.29459
                ]
            },
            "properties": {
                "ref:rspo": 41997,
                "official_name": "O\u015brodek Rehabilitacyjno Edukacyjno - Wychowawczy w Sielinku",
                "name": "O\u015brodek Rehabilitacyjno Edukacyjno - Wychowawczy w Sielinku",
                "addr:postcode": "64-330",
                "addr:city": "Sielinko",
                "addr:street": "Opalenicka",
                "addr:housenumber": "4",
                "addr:city:simc": 592302,
                "addr:street:sym_ul": 15058,
                "phone": "+48 614473700",
                "email": "osrodeksielinko@wp.pl",
                "ref:regon": "302262367",
                "operator": "Polskie Stowarzyszenie Na Rzecz Os\u00f3b Z Niepe\u0142nosprawno\u015bci\u0105 Intelektualn\u0105",
                "operator:type": "ngo",
                "amenity": "school"
            }
        },
        {
            "id": 132905,
            "type": "Feature",
            "geometry": {
                "type": "Point",
                "coordinates": [
                    16.42043,
                    52.30604
                ]
            },
            "properties": {
                "ref:rspo": 132905,
                "official_name": "Przedszkole Nr 2 w Opalenicy",
                "name": "Przedszkole Nr 2 w Opalenicy",
                "addr:postcode": "64-330",
                "addr:city": "Opalenica",
                "addr:street": "Zamkowa",
                "addr:housenumber": "3a",
                "addr:city:simc": 971241,
                "addr:street:sym_ul": 25547,
                "phone": "+48 612247474",
                "email": "przedszkole2.opalenica@op.pl",
                "ref:regon": "366306570",
                "operator": "Gmina Opalenica",
                "operator:type": "government",
                "amenity": "kindergarten"
            }
        },
        {
            "id": 24708,
            "type": "Feature",
            "geometry": {
                "type": "Point",
                "coordinates": [
                    16.4069,
                    52.30652
                ]
            },
            "properties": {
                "ref:rspo": 24708,
                "official_name": "Zesp\u00f3\u0142 Szk\u00f3\u0142 w Opalenicy",
                "name": "Zesp\u00f3\u0142 Szk\u00f3\u0142 w Opalenicy",
                "addr:postcode": "64-330",
                "addr:city": "Opalenica",
                "addr:street": "Gimnazjalna",
                "addr:housenumber": "1",
                "addr:city:simc": 971241,
                "addr:street:sym_ul": 5527,
                "phone": "+48 614474330",
                "email": "sekretariat@zs-opalenica.pl",
                "website": "http:\/\/www.zs-opalenica.pl",
                "ref:regon": "634463812",
                "ref:vatin": "PL7881133264",
                "operator": "Gmina Opalenica",
                "operator:type": "government",
                "landuse": "education",
                "fixme": "amenity=school, amenity=college albo landuse=education w zale\u017cno\u015bci od tego, jakie plac\u00f3wki wchodz\u0105 w sk\u0142ad zespo\u0142u. Sprawd\u017a, kiedy stosowa\u0107 amenity=* a kiedy landuse=education.",
                "note": "Children RSPO: 31153;31172;31249;72927;72928"
            }
        },
        {
            "id": 31153,
            "type": "Feature",
            "geometry": {
                "type": "Point",
                "coordinates": [
                    16.4069,
                    52.30649
                ]
            },
            "properties": {
                "isced:level": "3",
                "ref:rspo": 31153,
                "official_name": "Liceum Og\u00f3lnokszta\u0142c\u0105ce im.prymasa Tysi\u0105clecia Ks. Stefana Kardyna\u0142a Wyszy\u0144skiego w Opalenicy",
                "name": "Liceum Og\u00f3lnokszta\u0142c\u0105ce im.prymasa Tysi\u0105clecia Ks. Stefana Kardyna\u0142a Wyszy\u0144skiego w Opalenicy",
                "addr:postcode": "64-330",
                "addr:city": "Opalenica",
                "addr:street": "Gimnazjalna",
                "addr:housenumber": "1",
                "addr:city:simc": 971241,
                "addr:street:sym_ul": 5527,
                "phone": "+48 614474330",
                "email": "sekretariat@zs-opalenica.pl",
                "website": "http:\/\/www.zs-opalenica.pl",
                "ref:regon": "630237728",
                "ref:vatin": "PL7881133264",
                "operator": "Gmina Opalenica",
                "operator:type": "government",
                "amenity": "school",
                "note": "Parent RSPO: 24708"
            }
        },
        {
            "id": 31172,
            "type": "Feature",
            "geometry": {
                "type": "Point",
                "coordinates": [
                    16.4069,
                    52.30646
                ]
            },
            "properties": {
                "isced:level": "3",
                "ref:rspo": 31172,
                "official_name": "Liceum Og\u00f3lnokszta\u0142c\u0105ce dla Doros\u0142ych w Opalenicy",
                "name": "Liceum Og\u00f3lnokszta\u0142c\u0105ce dla Doros\u0142ych w Opalenicy",
                "addr:postcode": "64-330",
                "addr:city": "Opalenica",
                "addr:street": "Gimnazjalna",
                "addr:housenumber": "1",
                "addr:city:simc": 971241,
                "addr:street:sym_ul": 5527,
                "phone": "+48 614474330",
                "ref:regon": "302241566",
                "operator": "Gmina Opalenica",
                "operator:type": "government",
                "amenity": "school",
                "note": "Parent RSPO: 24708"
            }
        },
        {
            "id": 31249,
            "type": "Feature",
            "geometry": {
                "type": "Point",
                "coordinates": [
                    16.4069,
                    52.30643
                ]
            },
            "properties": {
                "isced:level": "4",
                "ref:rspo": 31249,
                "official_name": "Szko\u0142a Policealna w Opalenicy",
                "name": "Szko\u0142a Policealna w Opalenicy",
                "addr:postcode": "64-330",
                "addr:city": "Opalenica",
                "addr:street": "Gimnazjalna",
                "addr:housenumber": "1",
                "addr:city:simc": 971241,
                "addr:street:sym_ul": 5527,
                "phone": "+48 614474330",
                "ref:regon": "634463858",
                "operator": "Gmina Opalenica",
                "operator:type": "government",
                "amenity": "college",
                "note": "Parent RSPO: 24708"
            }
        },
        {
            "id": 72927,
            "type": "Feature",
            "geometry": {
                "type": "Point",
                "coordinates": [
                    16.4069,
                    52.3064
                ]
            },
            "properties": {
                "isced:level": "3",
                "ref:rspo": 72927,
                "official_name": "Technikum w Opalenicy",
                "name": "Technikum w Opalenicy",
                "addr:postcode": "64-330",
                "addr:city": "Opalenica",
                "addr:street": "Gimnazjalna",
                "addr:housenumber": "1",
                "addr:city:simc": 971241,
                "addr:street:sym_ul": 5527,
                "phone": "+48 614474330",
                "email": "sekretariat@zs-opalenica.pl",
                "ref:regon": "300607550",
                "operator": "Gmina Opalenica",
                "operator:type": "government",
                "amenity": "school",
                "note": "Parent RSPO: 24708"
            }
        },
        {
            "id": 72928,
            "type": "Feature",
            "geometry": {
                "type": "Point",
                "coordinates": [
                    16.4069,
                    52.30637
                ]
            },
            "properties": {
                "isced:level": "3",
                "ref:rspo": 72928,
                "official_name": "Bran\u017cowa Szko\u0142a I Stopnia w Opalenicy w Zespole Szk\u00f3\u0142 w Opalenicy",
                "name": "Bran\u017cowa Szko\u0142a I Stopnia w Opalenicy w Zespole Szk\u00f3\u0142 w Opalenicy",
                "addr:postcode": "64-330",
                "addr:city": "Opalenica",
                "addr:street": "Gimnazjalna",
                "addr:housenumber": "1",
                "addr:city:simc": 971241,
                "addr:street:sym_ul": 5527,
                "phone": "+48 614474330",
                "email": "sekretariat@zs-opalenica.pl",
                "ref:regon": "634463841",
                "operator": "Gmina Opalenica",
                "operator:type": "government",
                "amenity": "school",
                "note": "Parent RSPO: 24708"
            }
        },
        {
            "id": 26750,
            "type": "Feature",
            "geometry": {
                "type": "Point",
                "coordinates": [
                    16.41364,
                    52.30653
                ]
            },
            "properties": {
                "ref:rspo": 26750,
                "official_name": "Przedszkole Nr 1 w Opalenicy",
                "name": "Przedszkole Nr 1 w Opalenicy",
                "addr:postcode": "64-330",
                "addr:city": "Opalenica",
                "addr:street": "Osiedle Osiedle Centrum",
                "addr:housenumber": "5a",
                "addr:city:simc": 971241,
                "addr:street:sym_ul": 40644,
                "phone": "+48 614477436",
                "email": "przedszkole@opalenica.com",
                "website": "http:\/\/www.przedszkole.opalenica.pl",
                "ref:regon": "631577774",
                "ref:vatin": "PL7881820438",
                "operator": "Gmina Opalenica",
                "operator:type": "government",
                "amenity": "kindergarten"
            }
        },
        {
            "id": 30917,
            "type": "Feature",
            "geometry": {
                "type": "Point",
                "coordinates": [
                    16.41291,
                    52.30785
                ]
            },
            "properties": {
                "ref:rspo": 30917,
                "official_name": "Prywatne Przedszkole Akademia Maluch\u00f3w",
                "name": "Prywatne Przedszkole Akademia Maluch\u00f3w",
                "addr:postcode": "64-330",
                "addr:city": "Opalenica",
                "addr:street": "Adama Mickiewicza",
                "addr:housenumber": "3",
                "addr:city:simc": 971241,
                "addr:street:sym_ul": 12740,
                "phone": "+48 614474380",
                "email": "akademia_malucha@wp.pl",
                "website": "http:\/\/akademiamaluchow.edu.pl",
                "ref:regon": "302245682",
                "ref:vatin": "PL9950227898",
                "operator": "\"Nauka Plus\" Sp\u00f3\u0142ka Z Ograniczon\u0105 Odpowiedzialno\u015bci\u0105",
                "operator:type": "private",
                "amenity": "kindergarten"
            }
        },
        {
            "id": 29823,
            "type": "Feature",
            "geometry": {
                "type": "Point",
                "coordinates": [
                    16.41751,
                    52.30929
                ]
            },
            "properties": {
                "isced:level": "1;2",
                "ref:rspo": 29823,
                "official_name": "Szko\u0142a Podstawowa Z Oddzia\u0142ami Dwuj\u0119zycznymi im. A I W\u0142. Niegolewskich w Opalenicy",
                "name": "Szko\u0142a Podstawowa Z Oddzia\u0142ami Dwuj\u0119zycznymi",
                "addr:postcode": "64-330",
                "addr:city": "Opalenica",
                "addr:street": "Pozna\u0144ska",
                "addr:housenumber": "37",
                "addr:city:simc": 971241,
                "addr:street:sym_ul": 17394,
                "phone": "+48 614477415",
                "email": "kontakt@spopalenica.pl",
                "website": "http:\/\/spopalenica.pl",
                "ref:regon": "000657540",
                "ref:vatin": "PL7881820361",
                "operator": "Gmina Opalenica",
                "operator:type": "government",
                "amenity": "school"
            }
        },
        {
            "id": 26571,
            "type": "Feature",
            "geometry": {
                "type": "Point",
                "coordinates": [
                    16.35113,
                    52.31033
                ]
            },
            "properties": {
                "isced:level": "1;2",
                "ref:rspo": 26571,
                "official_name": "Szko\u0142a Podstawowa w Pora\u017cynie",
                "name": "Szko\u0142a Podstawowa w Pora\u017cynie",
                "addr:postcode": "64-330",
                "addr:place": "Pora\u017cyn",
                "addr:housenumber": "7",
                "addr:city:simc": 592288,
                "phone": "+48 614477228",
                "email": "spporazyn@opalenica.com",
                "website": "http:\/\/www.szkola-porazyn.pl",
                "ref:regon": "631577780",
                "ref:vatin": "PL7881820421",
                "operator": "Gmina Opalenica",
                "operator:type": "government",
                "amenity": "school"
            }
        },
        {
            "id": 123626,
            "type": "Feature",
            "geometry": {
                "type": "Point",
                "coordinates": [
                    16.47197,
                    52.33293
                ]
            },
            "properties": {
                "ref:rspo": 123626,
                "official_name": "Zesp\u00f3\u0142 Szkolno-Przedszkolny w Wojnowicach",
                "name": "Zesp\u00f3\u0142 Szkolno-Przedszkolny w Wojnowicach",
                "addr:postcode": "64-330",
                "addr:city": "Wojnowice",
                "addr:street": "Pozna\u0144ska",
                "addr:housenumber": "5",
                "addr:city:simc": 592383,
                "addr:street:sym_ul": 17394,
                "phone": "+48 614477776",
                "email": "spwojnowice@wp.pl",
                "website": "http:\/\/www.zespolwojnowice.pl",
                "ref:regon": "302777143",
                "operator": "Gmina Opalenica",
                "operator:type": "government",
                "landuse": "education",
                "fixme": "amenity=school, amenity=college albo landuse=education w zale\u017cno\u015bci od tego, jakie plac\u00f3wki wchodz\u0105 w sk\u0142ad zespo\u0142u. Sprawd\u017a, kiedy stosowa\u0107 amenity=* a kiedy landuse=education.",
                "note": "Children RSPO: 25378;30326"
            }
        },
        {
            "id": 25378,
            "type": "Feature",
            "geometry": {
                "type": "Point",
                "coordinates": [
                    16.47197,
                    52.332899999999995
                ]
            },
            "properties": {
                "isced:level": "1;2",
                "ref:rspo": 25378,
                "official_name": "Szko\u0142a Podstawowa im.bernarda Chrzanowskiego w Wojnowicach",
                "name": "Szko\u0142a Podstawowa im.bernarda Chrzanowskiego w Wojnowicach",
                "addr:postcode": "64-330",
                "addr:city": "Wojnowice",
                "addr:street": "Pozna\u0144ska",
                "addr:housenumber": "5",
                "addr:city:simc": 592383,
                "addr:street:sym_ul": 17394,
                "phone": "+48 614477776",
                "email": "spwojnowice@wp.pl",
                "website": "http:\/\/www.spwojnowice.pl",
                "ref:regon": "001225847",
                "ref:vatin": "PL7881820378",
                "operator": "Gmina Opalenica",
                "operator:type": "government",
                "amenity": "school",
                "note": "Parent RSPO: 123626"
            }
        },
        {
            "id": 30326,
            "type": "Feature",
            "geometry": {
                "type": "Point",
                "coordinates": [
                    16.47197,
                    52.33287
                ]
            },
            "properties": {
                "ref:rspo": 30326,
                "official_name": "Przedszkole w Wojnowicach",
                "name": "Przedszkole w Wojnowicach",
                "addr:postcode": "64-330",
                "addr:city": "Wojnowice",
                "addr:street": "Pozna\u0144ska",
                "addr:housenumber": "5",
                "addr:city:simc": 592383,
                "addr:street:sym_ul": 17394,
                "phone": "+48 614477776",
                "email": "spwojnowice@wp.pl",
                "website": "http:\/\/zespolwojnowice.pl",
                "ref:regon": "630612468",
                "ref:vatin": "PL7881820450",
                "operator": "Gmina Opalenica",
                "operator:type": "government",
                "amenity": "kindergarten",
                "note": "Parent RSPO: 123626"
            }
        },
        {
            "id": 26722,
            "type": "Feature",
            "geometry": {
                "type": "Point",
                "coordinates": [
                    16.40169,
                    52.34597
                ]
            },
            "properties": {
                "isced:level": "1;2",
                "ref:rspo": 26722,
                "official_name": "Szko\u0142a Podstawowa im.andrzeja I W\u0142adys\u0142awa Niegolewskich w Rudnikach",
                "name": "Szko\u0142a Podstawowa im.andrzeja I W\u0142adys\u0142awa Niegolewskich w Rudnikach",
                "addr:postcode": "64-330",
                "addr:place": "Rudniki",
                "addr:housenumber": "87",
                "addr:city:simc": 592294,
                "phone": "+48 644474240",
                "email": "sprudniki@opalenica.com",
                "website": "http:\/\/www.sprudniki.edupage.org",
                "ref:regon": "001225818",
                "ref:vatin": "PL7881820390",
                "operator": "Gmina Opalenica",
                "operator:type": "government",
                "amenity": "school"
            }
        }
    ]
}