{
    "type": "FeatureCollection",
    "features": [
        {
            "id": 104005,
            "type": "Feature",
            "geometry": {
                "type": "Point",
                "coordinates": [
                    15.9732,
                    52.23474
                ]
            },
            "properties": {
                "ref:rspo": 104005,
                "official_name": "Przedszkole w Stefanowie",
                "name": "Przedszkole w Stefanowie",
                "addr:postcode": "64-360",
                "addr:place": "Stefanowo",
                "addr:housenumber": "43",
                "addr:city:simc": 917247,
                "phone": "+48 683846244",
                "ref:regon": "302138680",
                "ref:vatin": "PL7881994204",
                "operator": "Gmina Zb\u0105szy\u0144",
                "operator:type": "government",
                "amenity": "kindergarten",
                "note": "Parent RSPO: 86644"
            }
        },
        {
            "id": 86644,
            "type": "Feature",
            "geometry": {
                "type": "Point",
                "coordinates": [
                    15.92868,
                    52.23803
                ]
            },
            "properties": {
                "ref:rspo": 86644,
                "official_name": "Zesp\u00f3\u0142 Szkolno - Przedszkolny w Przyprostyni",
                "name": "Zesp\u00f3\u0142 Szkolno - Przedszkolny w Przyprostyni",
                "addr:postcode": "64-360",
                "addr:city": "Przyprostynia",
                "addr:street": "Prandoty",
                "addr:housenumber": "76",
                "addr:city:simc": 917201,
                "addr:street:sym_ul": 32698,
                "phone": "+48 683846244",
                "email": "szkola_przyprostynia@wp.pl",
                "website": "http:\/\/www.spprzyprostynia.szkolnastrona.pl",
                "ref:regon": "302138704",
                "ref:vatin": "PL7881994210",
                "operator": "Gmina Zb\u0105szy\u0144",
                "operator:type": "government",
                "landuse": "education",
                "fixme": "amenity=school, amenity=college albo landuse=education w zale\u017cno\u015bci od tego, jakie plac\u00f3wki wchodz\u0105 w sk\u0142ad zespo\u0142u. Sprawd\u017a, kiedy stosowa\u0107 amenity=* a kiedy landuse=education.",
                "note": "Children RSPO: 104004;104005"
            }
        },
        {
            "id": 104004,
            "type": "Feature",
            "geometry": {
                "type": "Point",
                "coordinates": [
                    15.92868,
                    52.238
                ]
            },
            "properties": {
                "isced:level": "1;2",
                "ref:rspo": 104004,
                "official_name": "Szko\u0142a Podstawowa im. Antoniny Wo\u017anej w Przyprostyni",
                "name": "Szko\u0142a Podstawowa",
                "addr:postcode": "64-360",
                "addr:city": "Przyprostynia",
                "addr:street": "Prandoty",
                "addr:housenumber": "76",
                "addr:city:simc": 917201,
                "addr:street:sym_ul": 32698,
                "phone": "+48 683846244",
                "email": "szkola_przyprostynia@wp.pl",
                "website": "http:\/\/zspprzyprostynia.szkolnastrona.pl\/",
                "ref:regon": "970573259",
                "ref:vatin": "PL9231452008",
                "operator": "Gmina Zb\u0105szy\u0144",
                "operator:type": "government",
                "amenity": "school",
                "note": "Parent RSPO: 86644"
            }
        },
        {
            "id": 89306,
            "type": "Feature",
            "geometry": {
                "type": "Point",
                "coordinates": [
                    15.88211,
                    52.24245
                ]
            },
            "properties": {
                "ref:rspo": 89306,
                "official_name": "Zesp\u00f3\u0142 Szkolno - Przedszkolny w N\u0105dni",
                "name": "Zesp\u00f3\u0142 Szkolno - Przedszkolny w N\u0105dni",
                "addr:postcode": "64-360",
                "addr:city": "N\u0105dnia",
                "addr:street": "G\u0142\u00f3wna",
                "addr:housenumber": "56",
                "addr:city:simc": 917098,
                "addr:street:sym_ul": 5635,
                "phone": "+48 683866050",
                "email": "sp_nadnia@o2.pl",
                "website": "http:\/\/www.spnadnia.republika.pl",
                "ref:regon": "301971570",
                "ref:vatin": "PL7881993541",
                "operator": "Gmina Zb\u0105szy\u0144",
                "operator:type": "government",
                "landuse": "education",
                "fixme": "amenity=school, amenity=college albo landuse=education w zale\u017cno\u015bci od tego, jakie plac\u00f3wki wchodz\u0105 w sk\u0142ad zespo\u0142u. Sprawd\u017a, kiedy stosowa\u0107 amenity=* a kiedy landuse=education.",
                "note": "Children RSPO: 104009;104012"
            }
        },
        {
            "id": 104009,
            "type": "Feature",
            "geometry": {
                "type": "Point",
                "coordinates": [
                    15.88211,
                    52.242419999999996
                ]
            },
            "properties": {
                "isced:level": "1;2",
                "ref:rspo": 104009,
                "official_name": "Szko\u0142a Podstawowa w N\u0105dni",
                "name": "Szko\u0142a Podstawowa w N\u0105dni",
                "addr:postcode": "64-360",
                "addr:city": "N\u0105dnia",
                "addr:street": "G\u0142\u00f3wna",
                "addr:housenumber": "56",
                "addr:city:simc": 917098,
                "addr:street:sym_ul": 5635,
                "phone": "+48 683866050",
                "email": "sp_nadnia@o2.pl",
                "website": "https:\/\/zsp-nadnia.edupage.org\/",
                "ref:regon": "970573176",
                "ref:vatin": "PL9231451902",
                "operator": "Gmina Zb\u0105szy\u0144",
                "operator:type": "government",
                "amenity": "school",
                "note": "Parent RSPO: 89306"
            }
        },
        {
            "id": 104012,
            "type": "Feature",
            "geometry": {
                "type": "Point",
                "coordinates": [
                    15.88211,
                    52.24239
                ]
            },
            "properties": {
                "ref:rspo": 104012,
                "official_name": "Przedszkole w N\u0105dni",
                "name": "Przedszkole w N\u0105dni",
                "addr:postcode": "64-360",
                "addr:city": "N\u0105dnia",
                "addr:street": "G\u0142\u00f3wna",
                "addr:housenumber": "56",
                "addr:city:simc": 917098,
                "addr:street:sym_ul": 5635,
                "phone": "+48 683866050",
                "email": "sp_nadnia@o2.pl",
                "ref:regon": "301971558",
                "ref:vatin": "PL7881993558",
                "operator": "Gmina Zb\u0105szy\u0144",
                "operator:type": "government",
                "amenity": "kindergarten",
                "note": "Parent RSPO: 89306"
            }
        },
        {
            "id": 21271,
            "type": "Feature",
            "geometry": {
                "type": "Point",
                "coordinates": [
                    15.916560173035,
                    52.248668670654
                ]
            },
            "properties": {
                "ref:rspo": 21271,
                "official_name": "Zesp\u00f3\u0142 Szk\u00f3\u0142 nr 1 w Zb\u0105szyniu",
                "name": "Zesp\u00f3\u0142 Szk\u00f3\u0142 nr 1 w Zb\u0105szyniu",
                "addr:postcode": "64-360",
                "addr:city": "Zb\u0105szy\u0144",
                "addr:street": "Powsta\u0144c\u00f3w Wielkopolskich",
                "addr:housenumber": "43",
                "addr:city:simc": 988655,
                "addr:street:sym_ul": 17379,
                "phone": "+48 683846168",
                "email": "dyr-lozb@oswiata.org.pl",
                "website": "http:\/\/zs1zbaszyn.pl\/",
                "ref:regon": "634380635",
                "ref:vatin": "PL9231452089",
                "operator": "Powiat Nowotomyski",
                "operator:type": "government",
                "landuse": "education",
                "fixme": "amenity=school, amenity=college albo landuse=education w zale\u017cno\u015bci od tego, jakie plac\u00f3wki wchodz\u0105 w sk\u0142ad zespo\u0142u. Sprawd\u017a, kiedy stosowa\u0107 amenity=* a kiedy landuse=education.",
                "note": "Children RSPO: 26386;29698;29778"
            }
        },
        {
            "id": 26386,
            "type": "Feature",
            "geometry": {
                "type": "Point",
                "coordinates": [
                    15.916560173035,
                    52.248638670653996
                ]
            },
            "properties": {
                "isced:level": "3",
                "ref:rspo": 26386,
                "official_name": "Liceum Og\u00f3lnokszta\u0142c\u0105ce im. Stefana Garczy\u0144skiego w Zb\u0105szyniu",
                "name": "Liceum Og\u00f3lnokszta\u0142c\u0105ce",
                "addr:postcode": "64-360",
                "addr:city": "Zb\u0105szy\u0144",
                "addr:street": "Powsta\u0144c\u00f3w Wielkopolskich",
                "addr:housenumber": "43",
                "addr:city:simc": 988655,
                "addr:street:sym_ul": 17379,
                "phone": "+48 683846168",
                "email": "dyr-lozb@oswiata.org.pl",
                "website": "http:\/\/www.zs1zbaszyn.pl",
                "ref:regon": "634380581",
                "operator": "Powiat Nowotomyski",
                "operator:type": "government",
                "amenity": "school",
                "note": "Parent RSPO: 21271"
            }
        },
        {
            "id": 29698,
            "type": "Feature",
            "geometry": {
                "type": "Point",
                "coordinates": [
                    15.916560173035,
                    52.248608670654
                ]
            },
            "properties": {
                "isced:level": "3",
                "ref:rspo": 29698,
                "official_name": "Technikum w Zb\u0105szyniu",
                "name": "Technikum w Zb\u0105szyniu",
                "addr:postcode": "64-360",
                "addr:city": "Zb\u0105szy\u0144",
                "addr:street": "Powsta\u0144c\u00f3w Wielkopolskich",
                "addr:housenumber": "43",
                "addr:city:simc": 988655,
                "addr:street:sym_ul": 17379,
                "phone": "+48 689246095",
                "email": "dyr-lozb@oswiata.org.pl",
                "website": "http:\/\/www.zs1zbaszyn.pl",
                "ref:regon": "634383958",
                "operator": "Powiat Nowotomyski",
                "operator:type": "government",
                "amenity": "school",
                "note": "Parent RSPO: 21271"
            }
        },
        {
            "id": 29778,
            "type": "Feature",
            "geometry": {
                "type": "Point",
                "coordinates": [
                    15.916560173035,
                    52.248578670654
                ]
            },
            "properties": {
                "isced:level": "3",
                "ref:rspo": 29778,
                "official_name": "Bran\u017cowa Szko\u0142a I Stopnia w Zb\u0105szyniu",
                "name": "Bran\u017cowa Szko\u0142a I Stopnia w Zb\u0105szyniu",
                "addr:postcode": "64-360",
                "addr:city": "Zb\u0105szy\u0144",
                "addr:street": "Powsta\u0144c\u00f3w Wielkopolskich",
                "addr:housenumber": "43",
                "addr:city:simc": 988655,
                "addr:street:sym_ul": 17379,
                "phone": "+48 683846168",
                "email": "dyr-lozb@oswiata.org.pl",
                "website": "http:\/\/www.zs1zbaszyn.pl",
                "ref:regon": "639819461",
                "operator": "Powiat Nowotomyski",
                "operator:type": "government",
                "amenity": "school",
                "note": "Parent RSPO: 21271"
            }
        },
        {
            "id": 104003,
            "type": "Feature",
            "geometry": {
                "type": "Point",
                "coordinates": [
                    15.9141,
                    52.2493
                ]
            },
            "properties": {
                "ref:rspo": 104003,
                "official_name": "Przedszkole w Zb\u0105szyniu",
                "name": "Przedszkole w Zb\u0105szyniu",
                "addr:postcode": "64-360",
                "addr:city": "Zb\u0105szy\u0144",
                "addr:street": "Plac Wolno\u015bci",
                "addr:housenumber": "13",
                "addr:city:simc": 988655,
                "addr:street:sym_ul": 24685,
                "phone": "+48 683860736",
                "email": "przedszkolezbaszyn13@wp.pl",
                "ref:regon": "634356192",
                "ref:vatin": "PL9231451948",
                "operator": "Gmina Zb\u0105szy\u0144",
                "operator:type": "government",
                "amenity": "kindergarten"
            }
        },
        {
            "id": 24776,
            "type": "Feature",
            "geometry": {
                "type": "Point",
                "coordinates": [
                    15.9094827,
                    52.2515342
                ]
            },
            "properties": {
                "ref:rspo": 24776,
                "official_name": "Specjalny O\u015brodek Szkolno-Wychowawczy w Zb\u0105szyniu",
                "name": "Specjalny O\u015brodek Szkolno-Wychowawczy w Zb\u0105szyniu",
                "addr:postcode": "64-360",
                "addr:city": "Zb\u0105szy\u0144",
                "addr:street": "Zb\u0105skich",
                "addr:housenumber": "7",
                "addr:city:simc": 988655,
                "addr:street:sym_ul": 25887,
                "phone": "+48 683846175",
                "email": "soswz@wp.pl",
                "website": "http:\/\/www.soswz.pl",
                "ref:regon": "970299166",
                "ref:vatin": "PL9231012232",
                "operator": "Powiat Nowotomyski",
                "operator:type": "government",
                "amenity": "school",
                "note": "Children RSPO: 40109;40112"
            }
        },
        {
            "id": 40109,
            "type": "Feature",
            "geometry": {
                "type": "Point",
                "coordinates": [
                    15.9094827,
                    52.2515042
                ]
            },
            "properties": {
                "isced:level": "1;2",
                "ref:rspo": 40109,
                "official_name": "Szko\u0142a Podstawowa Specjalna w Zb\u0105szyniu",
                "name": "Szko\u0142a Podstawowa Specjalna w Zb\u0105szyniu",
                "addr:postcode": "64-360",
                "addr:city": "Zb\u0105szy\u0144",
                "addr:street": "Zb\u0105skich",
                "addr:housenumber": "7",
                "addr:city:simc": 988655,
                "addr:street:sym_ul": 25887,
                "phone": "+48 683846175",
                "email": "soswz@wp.pl",
                "ref:regon": "634625060",
                "operator": "Powiat Nowotomyski",
                "operator:type": "government",
                "amenity": "school",
                "note": "Parent RSPO: 24776"
            }
        },
        {
            "id": 40112,
            "type": "Feature",
            "geometry": {
                "type": "Point",
                "coordinates": [
                    15.9094827,
                    52.251474200000004
                ]
            },
            "properties": {
                "ref:rspo": 40112,
                "official_name": "Szko\u0142a Specjalna Przysposabiaj\u0105ca do Pracy w Zb\u0105szyniu",
                "name": "Szko\u0142a Specjalna Przysposabiaj\u0105ca do Pracy w Zb\u0105szyniu",
                "addr:postcode": "64-360",
                "addr:city": "Zb\u0105szy\u0144",
                "addr:street": "Zb\u0105skich",
                "addr:housenumber": "7",
                "addr:city:simc": 988655,
                "addr:street:sym_ul": 25887,
                "phone": "+48 683846175",
                "ref:regon": "634625114",
                "operator": "Powiat Nowotomyski",
                "operator:type": "government",
                "amenity": "school",
                "note": "Parent RSPO: 24776"
            }
        },
        {
            "id": 90622,
            "type": "Feature",
            "geometry": {
                "type": "Point",
                "coordinates": [
                    15.9252,
                    52.2533
                ]
            },
            "properties": {
                "ref:rspo": 90622,
                "official_name": "Przedszkole Prywatne Lipowy Zak\u0105tek",
                "name": "Przedszkole Prywatne Lipowy Zak\u0105tek",
                "addr:postcode": "64-360",
                "addr:city": "Zb\u0105szy\u0144",
                "addr:street": "Pozna\u0144ska",
                "addr:housenumber": "38",
                "addr:city:simc": 988655,
                "addr:street:sym_ul": 17394,
                "phone": "+48 683869100",
                "email": "biuro@lipowyzakatek.pl",
                "website": "http:\/\/lipowyzakatek.pl",
                "ref:regon": "302281815",
                "ref:vatin": "PL9720824225",
                "operator": "Dane Do Uzupe\u0142nienia",
                "operator:type": "private",
                "amenity": "kindergarten"
            }
        },
        {
            "id": 85146,
            "type": "Feature",
            "geometry": {
                "type": "Point",
                "coordinates": [
                    15.91777,
                    52.254
                ]
            },
            "properties": {
                "isced:level": "1;2",
                "ref:rspo": 85146,
                "official_name": "Szko\u0142a Podstawowa im. Arkadego Fiedlera w Zb\u0105szyniu",
                "name": "Szko\u0142a Podstawowa",
                "addr:postcode": "64-360",
                "addr:city": "Zb\u0105szy\u0144",
                "addr:street": "Mostowa",
                "addr:housenumber": "10",
                "addr:city:simc": 988655,
                "addr:street:sym_ul": 13379,
                "phone": "+48 683866085",
                "email": "spzbaszyn@gmail.com",
                "website": "http:\/\/www.spzbaszyn.pl",
                "ref:regon": "970571154",
                "ref:vatin": "PL9231451960",
                "operator": "Gmina Zb\u0105szy\u0144",
                "operator:type": "government",
                "amenity": "school"
            }
        },
        {
            "id": 87617,
            "type": "Feature",
            "geometry": {
                "type": "Point",
                "coordinates": [
                    16.0056,
                    52.26562
                ]
            },
            "properties": {
                "ref:rspo": 87617,
                "official_name": "Zesp\u00f3\u0142 Szkolno - Przedszkolny w Chro\u015bnicy",
                "name": "Zesp\u00f3\u0142 Szkolno - Przedszkolny w Chro\u015bnicy",
                "addr:postcode": "64-360",
                "addr:place": "Chro\u015bnica",
                "addr:housenumber": "54",
                "addr:city:simc": 917046,
                "phone": "+48 683847477",
                "email": "spgch1@wp.pl",
                "website": "http:\/\/www.zspc.zbaszyn.pl",
                "ref:regon": "301810536",
                "ref:vatin": "PL7881991499",
                "operator": "Gmina Zb\u0105szy\u0144",
                "operator:type": "government",
                "landuse": "education",
                "fixme": "amenity=school, amenity=college albo landuse=education w zale\u017cno\u015bci od tego, jakie plac\u00f3wki wchodz\u0105 w sk\u0142ad zespo\u0142u. Sprawd\u017a, kiedy stosowa\u0107 amenity=* a kiedy landuse=education.",
                "note": "Children RSPO: 85142;104008"
            }
        },
        {
            "id": 104008,
            "type": "Feature",
            "geometry": {
                "type": "Point",
                "coordinates": [
                    16.0056,
                    52.265589999999996
                ]
            },
            "properties": {
                "ref:rspo": 104008,
                "official_name": "Przedszkole w Chro\u015bnicy",
                "name": "Przedszkole w Chro\u015bnicy",
                "addr:postcode": "64-360",
                "addr:place": "Chro\u015bnica",
                "addr:housenumber": "54",
                "addr:city:simc": 917030,
                "phone": "+48 683847477",
                "email": "spgch1@wp.pl",
                "website": "http:\/\/www.zspc.zbaszyn.pl",
                "ref:regon": "301810476",
                "ref:vatin": "PL7881991507",
                "operator": "Gmina Zb\u0105szy\u0144",
                "operator:type": "government",
                "amenity": "kindergarten",
                "note": "Parent RSPO: 87617"
            }
        },
        {
            "id": 85142,
            "type": "Feature",
            "geometry": {
                "type": "Point",
                "coordinates": [
                    15.96607,
                    52.30717
                ]
            },
            "properties": {
                "isced:level": "1;2",
                "ref:rspo": 85142,
                "official_name": "Szko\u0142a Podstawowa im. Powsta\u0144c\u00f3w Wielkopolskich w \u0141omnicy",
                "name": "Szko\u0142a Podstawowa",
                "addr:postcode": "64-360",
                "addr:place": "\u0141omnica",
                "addr:housenumber": "40",
                "addr:city:simc": 917052,
                "phone": "+48 683847477",
                "email": "spgch1@wp.pl",
                "website": "https:\/\/splomnica.edupage.org\/",
                "ref:regon": "970573147",
                "ref:vatin": "PL9231451724",
                "operator": "Gmina Zb\u0105szy\u0144",
                "operator:type": "government",
                "amenity": "school",
                "note": "Parent RSPO: 87617"
            }
        },
        {
            "id": 123814,
            "type": "Feature",
            "geometry": {
                "type": "Point",
                "coordinates": [
                    16.40218,
                    52.31442
                ]
            },
            "properties": {
                "isced:level": "3",
                "ref:rspo": 123814,
                "official_name": "Liceum Og\u00f3lnokszta\u0142c\u0105ce dla Doros\u0142ych w Zb\u0105szyniu",
                "name": "Liceum Og\u00f3lnokszta\u0142c\u0105ce dla Doros\u0142ych w Zb\u0105szyniu",
                "addr:postcode": "64-360",
                "addr:city": "Zb\u0105szy\u0144",
                "addr:street": "17 Stycznia",
                "addr:housenumber": "27",
                "addr:city:simc": 988655,
                "addr:street:sym_ul": 21445,
                "phone": "+48 683846095",
                "email": "biuro@mgedukacja.pl",
                "ref:regon": "302787963",
                "operator": "Jadwiga Kowalczyk",
                "operator:type": "private",
                "amenity": "school"
            }
        },
        {
            "id": 265757,
            "type": "Feature",
            "geometry": {
                "type": "Point",
                "coordinates": [
                    16.133329391479,
                    52.316669464111
                ]
            },
            "properties": {
                "ref:rspo": 265757,
                "official_name": "Zesp\u00f3\u0142 Szkolno-Przedszkolny w Strzy\u017cewie",
                "name": "Zesp\u00f3\u0142 Szkolno-Przedszkolny w Strzy\u017cewie",
                "addr:postcode": "64-360",
                "addr:place": "Strzy\u017cewo",
                "addr:housenumber": "119",
                "addr:city:simc": 917253,
                "phone": "+48 683846058",
                "email": "strzyzewo.szkolapodstawowa@op.pl",
                "ref:regon": "368887430",
                "operator": "Stowarzyszenie Na Rzecz Rozwoju So\u0142ectwa Strzy\u017cewo",
                "operator:type": "ngo",
                "landuse": "education",
                "fixme": "amenity=school, amenity=college albo landuse=education w zale\u017cno\u015bci od tego, jakie plac\u00f3wki wchodz\u0105 w sk\u0142ad zespo\u0142u. Sprawd\u017a, kiedy stosowa\u0107 amenity=* a kiedy landuse=education.",
                "note": "Children RSPO: 106889;133328"
            }
        },
        {
            "id": 106889,
            "type": "Feature",
            "geometry": {
                "type": "Point",
                "coordinates": [
                    16.133329391479,
                    52.316639464111
                ]
            },
            "properties": {
                "isced:level": "1;2",
                "ref:rspo": 106889,
                "official_name": "Niepubliczna Szko\u0142a Podstawowa w Strzy\u017cewie",
                "name": "Niepubliczna Szko\u0142a Podstawowa w Strzy\u017cewie",
                "addr:postcode": "64-360",
                "addr:place": "Strzy\u017cewo",
                "addr:housenumber": "119",
                "addr:city:simc": 917253,
                "phone": "+48 683846058",
                "ref:regon": "302325056",
                "ref:vatin": "PL7881782092",
                "operator": "Stowarzyszenie Na Rzecz Rozwoju So\u0142ectwa Strzy\u017cewo",
                "operator:type": "ngo",
                "amenity": "school",
                "note": "Parent RSPO: 265757"
            }
        },
        {
            "id": 133328,
            "type": "Feature",
            "geometry": {
                "type": "Point",
                "coordinates": [
                    16.133329391479,
                    52.316609464111
                ]
            },
            "properties": {
                "ref:rspo": 133328,
                "official_name": "Niepubliczne Przedszkole \"Biedronkowo\" w Strzy\u017cewie",
                "name": "Niepubliczne Przedszkole \"Biedronkowo\" w Strzy\u017cewie",
                "addr:postcode": "64-360",
                "addr:place": "Strzy\u017cewo",
                "addr:housenumber": "4",
                "addr:city:simc": 917253,
                "phone": "+48 683846058",
                "ref:regon": "367025702",
                "operator": "Stowarzyszenie Na Rzecz Rozwoju So\u0142ectwa Strzy\u017cewo",
                "operator:type": "ngo",
                "amenity": "kindergarten",
                "note": "Parent RSPO: 265757"
            }
        },
        {
            "id": 31624,
            "type": "Feature",
            "geometry": {
                "type": "Point",
                "coordinates": [
                    16.1193,
                    52.32327
                ]
            },
            "properties": {
                "ref:rspo": 31624,
                "official_name": "Pa\u0144stwowa Szko\u0142a Muzyczna I St. im. Stanis\u0142awa Moniuszki w Zb\u0105szyniu",
                "name": "Pa\u0144stwowa Szko\u0142a Muzyczna I St.",
                "addr:postcode": "64-360",
                "addr:city": "Zb\u0105szy\u0144",
                "addr:street": "17 Stycznia",
                "addr:housenumber": "69",
                "addr:city:simc": 988655,
                "addr:street:sym_ul": 21445,
                "phone": "+48 683866002",
                "email": "sekretariat@psmzbaszyn.pl",
                "website": "http:\/\/psmzbaszyn.pl",
                "ref:regon": "000285712",
                "operator": "Ministerstwo Kultury I Dziedzictwa Narodowego",
                "operator:type": "public",
                "amenity": "music_school"
            }
        }
    ]
}