{
    "type": "FeatureCollection",
    "features": [
        {
            "id": 60324,
            "type": "Feature",
            "geometry": {
                "type": "Point",
                "coordinates": [
                    21.72117,
                    50.80018
                ]
            },
            "properties": {
                "isced:level": "1;2",
                "ref:rspo": 60324,
                "official_name": "Publiczna Szko\u0142a Podstawowa w Pisarach",
                "name": "Publiczna Szko\u0142a Podstawowa w Pisarach",
                "addr:postcode": "27-530",
                "addr:place": "Pisary",
                "addr:housenumber": "63",
                "addr:city:simc": 802662,
                "phone": "+48 158612651",
                "email": "psppisary@onet.eu",
                "website": "http:\/\/www.sppisary.edupage.org",
                "ref:regon": "001186627",
                "ref:vatin": "PL8631534525",
                "operator": "Gmina O\u017car\u00f3w",
                "operator:type": "government",
                "amenity": "school"
            }
        },
        {
            "id": 60326,
            "type": "Feature",
            "geometry": {
                "type": "Point",
                "coordinates": [
                    21.65221,
                    50.81342
                ]
            },
            "properties": {
                "isced:level": "1;2",
                "ref:rspo": 60326,
                "official_name": "Szko\u0142a Podstawowa w Janowicach",
                "name": "Szko\u0142a Podstawowa w Janowicach",
                "addr:postcode": "27-530",
                "addr:place": "Janowice",
                "addr:housenumber": "11",
                "addr:city:simc": 802550,
                "phone": "+48 158612629",
                "email": "spjanowice@op.pl",
                "website": "http:\/\/www.pspjanowice.edupage.org",
                "ref:regon": "001186604",
                "ref:vatin": "PL8631534531",
                "operator": "Gmina O\u017car\u00f3w",
                "operator:type": "government",
                "amenity": "school"
            }
        },
        {
            "id": 18113,
            "type": "Feature",
            "geometry": {
                "type": "Point",
                "coordinates": [
                    21.7897,
                    50.88297
                ]
            },
            "properties": {
                "ref:rspo": 18113,
                "official_name": "Specjalny O\u015brodek Szkolno-Wychowawczy w D\u0119bnie im. Mieczys\u0142awa Jopka",
                "name": "Specjalny O\u015brodek Szkolno-Wychowawczy w D\u0119bnie",
                "addr:postcode": "27-530",
                "addr:place": "D\u0119bno",
                "addr:housenumber": "69",
                "addr:city:simc": 802395,
                "phone": "+48 158610522",
                "email": "sekretariat@soswdebno.pl",
                "website": "http:\/\/www.soswdebno.pl",
                "ref:regon": "292423582",
                "ref:vatin": "PL8631245933",
                "operator": "Powiat Opatowski",
                "operator:type": "government",
                "amenity": "school",
                "note": "Children RSPO: 22795;108788"
            }
        },
        {
            "id": 22795,
            "type": "Feature",
            "geometry": {
                "type": "Point",
                "coordinates": [
                    21.7897,
                    50.88294
                ]
            },
            "properties": {
                "isced:level": "1;2",
                "ref:rspo": 22795,
                "official_name": "Szko\u0142a Podstawowa Specjalna w D\u0119bnie",
                "name": "Szko\u0142a Podstawowa Specjalna w D\u0119bnie",
                "addr:postcode": "27-530",
                "addr:place": "D\u0119bno",
                "addr:housenumber": "69",
                "addr:city:simc": 802395,
                "phone": "+48 158610522",
                "email": "sekretariat@soswdebno.pl",
                "website": "http:\/\/www.soswdebno.pl",
                "ref:regon": "292423599",
                "ref:vatin": "PL8631245933",
                "operator": "Powiat Opatowski",
                "operator:type": "government",
                "amenity": "school",
                "note": "Parent RSPO: 18113"
            }
        },
        {
            "id": 108788,
            "type": "Feature",
            "geometry": {
                "type": "Point",
                "coordinates": [
                    21.7897,
                    50.88291
                ]
            },
            "properties": {
                "ref:rspo": 108788,
                "official_name": "Szko\u0142a Specjalna Przysposabiaj\u0105ca Do Pracy w D\u0119bnie",
                "name": "Szko\u0142a Specjalna Przysposabiaj\u0105ca Do Pracy w D\u0119bnie",
                "addr:postcode": "27-530",
                "addr:place": "D\u0119bno",
                "addr:housenumber": "69",
                "addr:city:simc": 802395,
                "phone": "+48 158610522",
                "email": "sekretariat@soswdebno.pl",
                "website": "http:\/\/www.soswdebno.pl",
                "ref:regon": "292891403",
                "ref:vatin": "PL8631245933",
                "operator": "Powiat Opatowski",
                "operator:type": "government",
                "amenity": "school",
                "note": "Parent RSPO: 18113"
            }
        },
        {
            "id": 64613,
            "type": "Feature",
            "geometry": {
                "type": "Point",
                "coordinates": [
                    21.66056,
                    50.88743
                ]
            },
            "properties": {
                "ref:rspo": 64613,
                "official_name": "Przedszkole Publiczne w O\u017carowie",
                "name": "Przedszkole Publiczne w O\u017carowie",
                "addr:postcode": "27-530",
                "addr:city": "O\u017car\u00f3w",
                "addr:street": "Osiedle Wzg\u00f3rze",
                "addr:housenumber": "52",
                "addr:city:simc": 980777,
                "addr:street:sym_ul": 25146,
                "phone": "+48 158611036",
                "email": "przedszkole@ozarow.pl",
                "website": "http:\/\/www.przedszkoleozarow.edupage.org",
                "ref:regon": "291186430",
                "ref:vatin": "PL8631534548",
                "operator": "Gmina O\u017car\u00f3w",
                "operator:type": "government",
                "amenity": "kindergarten"
            }
        },
        {
            "id": 60321,
            "type": "Feature",
            "geometry": {
                "type": "Point",
                "coordinates": [
                    21.6578899,
                    50.88962
                ]
            },
            "properties": {
                "ref:rspo": 60321,
                "official_name": "Zesp\u00f3\u0142 Szk\u00f3\u0142 Og\u00f3lnokszta\u0142c\u0105cych im. Edwarda Szylki w O\u017carowie",
                "name": "Zesp\u00f3\u0142 Szk\u00f3\u0142 Og\u00f3lnokszta\u0142c\u0105cych",
                "addr:postcode": "27-530",
                "addr:city": "O\u017car\u00f3w",
                "addr:street": "Osiedle Wzg\u00f3rze",
                "addr:housenumber": "54",
                "addr:city:simc": 980777,
                "addr:street:sym_ul": 25146,
                "phone": "+48 158611016",
                "email": "zso-ozarow@wp.pl",
                "website": "http:\/\/www.zso.ozarow.pl",
                "ref:regon": "291186453",
                "ref:vatin": "PL8631534494",
                "operator": "Gmina O\u017car\u00f3w",
                "operator:type": "government",
                "landuse": "education",
                "fixme": "amenity=school, amenity=college albo landuse=education w zale\u017cno\u015bci od tego, jakie plac\u00f3wki wchodz\u0105 w sk\u0142ad zespo\u0142u. Sprawd\u017a, kiedy stosowa\u0107 amenity=* a kiedy landuse=education.",
                "note": "Children RSPO: 89761;90196"
            }
        },
        {
            "id": 89761,
            "type": "Feature",
            "geometry": {
                "type": "Point",
                "coordinates": [
                    21.6578899,
                    50.88959
                ]
            },
            "properties": {
                "isced:level": "3",
                "ref:rspo": 89761,
                "official_name": "Liceum Og\u00f3lnokszta\u0142c\u0105ce w Zespole Szk\u00f3\u0142 Og\u00f3lnokszta\u0142c\u0105cych im. Edwarda Szylki w O\u017carowie",
                "name": "Liceum Og\u00f3lnokszta\u0142c\u0105ce w Zespole Szk\u00f3\u0142 Og\u00f3lnokszta\u0142c\u0105cych",
                "addr:postcode": "27-530",
                "addr:city": "O\u017car\u00f3w",
                "addr:street": "Osiedle Wzg\u00f3rze",
                "addr:housenumber": "54",
                "addr:city:simc": 980777,
                "addr:street:sym_ul": 25146,
                "phone": "+48 158611016",
                "email": "zso-ozarow@wp.pl",
                "website": "http:\/\/www.zso.ozarow.pl",
                "ref:regon": "291186393",
                "operator": "Gmina O\u017car\u00f3w",
                "operator:type": "government",
                "amenity": "school",
                "note": "Parent RSPO: 60321"
            }
        },
        {
            "id": 90196,
            "type": "Feature",
            "geometry": {
                "type": "Point",
                "coordinates": [
                    21.6578899,
                    50.88956
                ]
            },
            "properties": {
                "isced:level": "1;2",
                "ref:rspo": 90196,
                "official_name": "Szko\u0142a Podstawowa w Zespole Szk\u00f3\u0142 Og\u00f3lnokszta\u0142c\u0105cych im. Edwarda Szylki w O\u017carowie",
                "name": "Szko\u0142a Podstawowa w Zespole Szk\u00f3\u0142 Og\u00f3lnokszta\u0142c\u0105cych",
                "addr:postcode": "27-530",
                "addr:city": "O\u017car\u00f3w",
                "addr:street": "Osiedle Wzg\u00f3rze",
                "addr:housenumber": "54",
                "addr:city:simc": 980777,
                "addr:street:sym_ul": 25146,
                "phone": "+48 158611016",
                "email": "zso-ozarow@wp.pl",
                "website": "http:\/\/www.zso.ozarow.pl",
                "ref:regon": "000272951",
                "operator": "Gmina O\u017car\u00f3w",
                "operator:type": "government",
                "amenity": "school",
                "note": "Parent RSPO: 60321"
            }
        },
        {
            "id": 17988,
            "type": "Feature",
            "geometry": {
                "type": "Point",
                "coordinates": [
                    21.65734,
                    50.88991
                ]
            },
            "properties": {
                "ref:rspo": 17988,
                "official_name": "Zesp\u00f3\u0142 Szk\u00f3\u0142 w O\u017carowie im. Marii Sk\u0142odowskiej-Curie",
                "name": "Zesp\u00f3\u0142 Szk\u00f3\u0142 w O\u017carowie",
                "addr:postcode": "27-530",
                "addr:city": "O\u017car\u00f3w",
                "addr:street": "Osiedle Wzg\u00f3rze",
                "addr:housenumber": "56",
                "addr:city:simc": 980777,
                "addr:street:sym_ul": 25146,
                "phone": "+48 158611801",
                "email": "ozarow@poczta.onet.pl",
                "website": "http:\/\/www.zsozarow.pl",
                "ref:regon": "292442668",
                "ref:vatin": "PL8631234266",
                "operator": "Powiat Opatowski",
                "operator:type": "government",
                "landuse": "education",
                "fixme": "amenity=school, amenity=college albo landuse=education w zale\u017cno\u015bci od tego, jakie plac\u00f3wki wchodz\u0105 w sk\u0142ad zespo\u0142u. Sprawd\u017a, kiedy stosowa\u0107 amenity=* a kiedy landuse=education.",
                "note": "Children RSPO: 22669;22691;22730;22764;269201;275836"
            }
        },
        {
            "id": 133220,
            "type": "Feature",
            "geometry": {
                "type": "Point",
                "coordinates": [
                    21.65734,
                    50.88988
                ]
            },
            "properties": {
                "isced:level": "1;2",
                "ref:rspo": 133220,
                "official_name": "Szko\u0142a Podstawowa w O\u017carowie Przy Stowarzyszeniu Na Rzecz Rozwoju Zespo\u0142u Szk\u00f3\u0142 w O\u017carowie im. Marii Sk\u0142odowskiej-Curie",
                "name": "Szko\u0142a Podstawowa w O\u017carowie Przy Stowarzyszeniu Na Rzecz Rozwoju Zespo\u0142u Szk\u00f3\u0142 w O\u017carowie",
                "addr:postcode": "27-530",
                "addr:city": "O\u017car\u00f3w",
                "addr:street": "Osiedle Wzg\u00f3rze",
                "addr:housenumber": "56",
                "addr:city:simc": 980777,
                "addr:street:sym_ul": 25146,
                "phone": "+48 158611801",
                "email": "sekretariat@spozarow.pl",
                "website": "http:\/\/spozarow.pl\/",
                "ref:regon": "366822773",
                "operator": "Stowarzyszenie Na Rzecz Rozwoju Zespo\u0142u Szk\u00f3\u0142 W O\u017carowie Im. Marii Sk\u0142odowskiej - Curie",
                "operator:type": "ngo",
                "amenity": "school"
            }
        },
        {
            "id": 276856,
            "type": "Feature",
            "geometry": {
                "type": "Point",
                "coordinates": [
                    21.65734,
                    50.88985
                ]
            },
            "properties": {
                "ref:rspo": 276856,
                "official_name": "Przedszkole \"U Sk\u0142odowskiej\" w O\u017carowie",
                "name": "Przedszkole \"U Sk\u0142odowskiej\" w O\u017carowie",
                "addr:postcode": "27-530",
                "addr:city": "O\u017car\u00f3w",
                "addr:street": "Osiedle Wzg\u00f3rze",
                "addr:housenumber": "56",
                "addr:city:simc": 980777,
                "addr:street:sym_ul": 25146,
                "phone": "+48 158611801",
                "email": "snrrzs@onet.pl",
                "website": "http:\/\/stowarzyszeniezsozarow.pl",
                "ref:regon": "387722182",
                "operator": "Stowarzyszenie Na Rzecz Rozwoju Zespo\u0142u Szk\u00f3\u0142 W O\u017carowie Im. Marii Sk\u0142odowskiej - Curie",
                "operator:type": "ngo",
                "amenity": "kindergarten"
            }
        },
        {
            "id": 22669,
            "type": "Feature",
            "geometry": {
                "type": "Point",
                "coordinates": [
                    21.65734,
                    50.88982
                ]
            },
            "properties": {
                "isced:level": "3",
                "ref:rspo": 22669,
                "official_name": "Liceum Og\u00f3lnokszta\u0142c\u0105ce w O\u017carowie",
                "name": "Liceum Og\u00f3lnokszta\u0142c\u0105ce w O\u017carowie",
                "addr:postcode": "27-530",
                "addr:city": "O\u017car\u00f3w",
                "addr:street": "Osiedle Wzg\u00f3rze",
                "addr:housenumber": "56",
                "addr:city:simc": 980777,
                "addr:street:sym_ul": 25146,
                "phone": "+48 158611801",
                "email": "ozarow@poczta.onet.pl",
                "website": "http:\/\/www.ozarow.prv.pl",
                "ref:regon": "292676580",
                "ref:vatin": "PL8631234266",
                "operator": "Powiat Opatowski",
                "operator:type": "government",
                "amenity": "school",
                "note": "Parent RSPO: 17988"
            }
        },
        {
            "id": 22691,
            "type": "Feature",
            "geometry": {
                "type": "Point",
                "coordinates": [
                    21.65734,
                    50.88979
                ]
            },
            "properties": {
                "isced:level": "3",
                "ref:rspo": 22691,
                "official_name": "Technikum w O\u017carowie",
                "name": "Technikum w O\u017carowie",
                "addr:postcode": "27-530",
                "addr:city": "O\u017car\u00f3w",
                "addr:street": "Osiedle Wzg\u00f3rze",
                "addr:housenumber": "56",
                "addr:city:simc": 980777,
                "addr:street:sym_ul": 25146,
                "phone": "+48 158611801",
                "email": "ozarow@poczta.onet.pl",
                "website": "http:\/\/ozarow.prv.pl",
                "ref:regon": "292442639",
                "ref:vatin": "PL8631234266",
                "operator": "Powiat Opatowski",
                "operator:type": "government",
                "amenity": "school",
                "note": "Parent RSPO: 17988"
            }
        },
        {
            "id": 22730,
            "type": "Feature",
            "geometry": {
                "type": "Point",
                "coordinates": [
                    21.65734,
                    50.88976
                ]
            },
            "properties": {
                "isced:level": "3",
                "ref:rspo": 22730,
                "official_name": "Bran\u017cowa Szko\u0142a I Stopnia w O\u017carowie",
                "name": "Bran\u017cowa Szko\u0142a I Stopnia w O\u017carowie",
                "addr:postcode": "27-530",
                "addr:city": "O\u017car\u00f3w",
                "addr:street": "Osiedle Wzg\u00f3rze",
                "addr:housenumber": "56",
                "addr:city:simc": 980777,
                "addr:street:sym_ul": 25146,
                "phone": "+48 158611801",
                "email": "ozarow@poczta.onet.pl",
                "website": "http:\/\/www.ozarow.prv.pl",
                "ref:regon": "292442645",
                "ref:vatin": "PL8631234266",
                "operator": "Powiat Opatowski",
                "operator:type": "government",
                "amenity": "school",
                "note": "Parent RSPO: 17988"
            }
        },
        {
            "id": 22764,
            "type": "Feature",
            "geometry": {
                "type": "Point",
                "coordinates": [
                    21.65734,
                    50.88973
                ]
            },
            "properties": {
                "isced:level": "3",
                "ref:rspo": 22764,
                "official_name": "Liceum Og\u00f3lnokszta\u0142c\u0105ce dla Doros\u0142ych w O\u017carowie",
                "name": "Liceum Og\u00f3lnokszta\u0142c\u0105ce dla Doros\u0142ych w O\u017carowie",
                "addr:postcode": "27-530",
                "addr:city": "O\u017car\u00f3w",
                "addr:street": "Osiedle Wzg\u00f3rze",
                "addr:housenumber": "56",
                "addr:city:simc": 980777,
                "addr:street:sym_ul": 25146,
                "phone": "+48 158611801",
                "email": "ozarow@poczta.onet.pl",
                "website": "http:\/\/www.ozarow.prv.pl",
                "ref:regon": "292442616",
                "ref:vatin": "PL8631234266",
                "operator": "Powiat Opatowski",
                "operator:type": "government",
                "amenity": "school",
                "note": "Parent RSPO: 17988"
            }
        },
        {
            "id": 269201,
            "type": "Feature",
            "geometry": {
                "type": "Point",
                "coordinates": [
                    21.65734,
                    50.8897
                ]
            },
            "properties": {
                "isced:level": "4",
                "ref:rspo": 269201,
                "official_name": "Szko\u0142a Policealna Wchodz\u0105ca w Sk\u0142ad Zespo\u0142u Szk\u00f3\u0142 w O\u017carowie im. Marii Sk\u0142odowskiej-Curie",
                "name": "Szko\u0142a Policealna Wchodz\u0105ca w Sk\u0142ad Zespo\u0142u Szk\u00f3\u0142 w O\u017carowie",
                "addr:postcode": "27-530",
                "addr:city": "O\u017car\u00f3w",
                "addr:street": "Osiedle Wzg\u00f3rze",
                "addr:housenumber": "56",
                "addr:city:simc": 980777,
                "addr:street:sym_ul": 25146,
                "phone": "+48 158611801",
                "email": "ozarow@poczta.onet.pl",
                "website": "http:\/\/www.zsozarow.pl",
                "ref:regon": "381402708",
                "ref:vatin": "PL8631234266",
                "operator": "Powiat Opatowski",
                "operator:type": "government",
                "amenity": "college",
                "note": "Parent RSPO: 17988"
            }
        },
        {
            "id": 275836,
            "type": "Feature",
            "geometry": {
                "type": "Point",
                "coordinates": [
                    21.65734,
                    50.88967
                ]
            },
            "properties": {
                "isced:level": "3",
                "ref:rspo": 275836,
                "official_name": "Bran\u017cowa Szko\u0142a II Stopnia w O\u017carowie Wchodz\u0105ca w Sk\u0142ad Zespo\u0142u Szk\u00f3\u0142 w O\u017carowie im. Marii Sk\u0142odowskiej - Curie",
                "name": "Bran\u017cowa Szko\u0142a II Stopnia w O\u017carowie Wchodz\u0105ca w Sk\u0142ad Zespo\u0142u Szk\u00f3\u0142 w O\u017carowie",
                "addr:postcode": "27-530",
                "addr:city": "O\u017car\u00f3w",
                "addr:street": "Osiedle Wzg\u00f3rze",
                "addr:housenumber": "56",
                "addr:city:simc": 980777,
                "addr:street:sym_ul": 25146,
                "phone": "+48 158611801",
                "email": "ozarow@poczta.onet.pl",
                "website": "http:\/\/www.opatow.pl",
                "ref:regon": "386945359",
                "ref:vatin": "PL8631234266",
                "operator": "Powiat Opatowski",
                "operator:type": "government",
                "amenity": "school",
                "note": "Parent RSPO: 17988"
            }
        },
        {
            "id": 18016,
            "type": "Feature",
            "geometry": {
                "type": "Point",
                "coordinates": [
                    21.65734,
                    50.88964
                ]
            },
            "properties": {
                "ref:rspo": 18016,
                "official_name": "Poradnia Psychologiczno-Pedagogiczna w O\u017carowie",
                "name": "Poradnia Psychologiczno-Pedagogiczna w O\u017carowie",
                "addr:postcode": "27-530",
                "addr:city": "O\u017car\u00f3w",
                "addr:street": "Osiedle Wzg\u00f3rze",
                "addr:housenumber": "56",
                "addr:city:simc": 980777,
                "addr:street:sym_ul": 25146,
                "phone": "+48 158611002",
                "email": "poradniaozarow@interia.pl",
                "ref:regon": "292695926",
                "ref:vatin": "PL8631258427",
                "operator": "Powiat Opatowski",
                "operator:type": "government",
                "healthcare": "counselling",
                "counselling_type": "education",
                "fixme": "w zale\u017cno\u015bci od przedmiotu dzia\u0142alno\u015bci (np. healthcare=counselling + counselling_type=education albo healthcare=psychotherapist)",
                "note": "Parent RSPO: 133196"
            }
        },
        {
            "id": 60323,
            "type": "Feature",
            "geometry": {
                "type": "Point",
                "coordinates": [
                    21.75642,
                    50.89628
                ]
            },
            "properties": {
                "ref:rspo": 60323,
                "official_name": "Publiczny Zesp\u00f3\u0142 Szko\u0142y I Przedszkola w Lasocinie",
                "name": "Publiczny Zesp\u00f3\u0142 Szko\u0142y I Przedszkola w Lasocinie",
                "addr:postcode": "27-530",
                "addr:city": "Lasocin",
                "addr:street": "Rynek",
                "addr:housenumber": "17",
                "addr:city:simc": 802627,
                "addr:street:sym_ul": 19253,
                "phone": "+48 158610513",
                "email": "pzsip.lasocin@op.pl",
                "website": "http:\/\/www.splasocin.edupage.org",
                "ref:regon": "260341656",
                "ref:vatin": "PL8631682622",
                "operator": "Gmina O\u017car\u00f3w",
                "operator:type": "government",
                "landuse": "education",
                "fixme": "amenity=school, amenity=college albo landuse=education w zale\u017cno\u015bci od tego, jakie plac\u00f3wki wchodz\u0105 w sk\u0142ad zespo\u0142u. Sprawd\u017a, kiedy stosowa\u0107 amenity=* a kiedy landuse=education.",
                "note": "Children RSPO: 90218;90228"
            }
        },
        {
            "id": 90218,
            "type": "Feature",
            "geometry": {
                "type": "Point",
                "coordinates": [
                    21.75642,
                    50.896249999999995
                ]
            },
            "properties": {
                "isced:level": "1;2",
                "ref:rspo": 90218,
                "official_name": "Publiczna Szko\u0142a Podstawowa w Lasocinie",
                "name": "Publiczna Szko\u0142a Podstawowa w Lasocinie",
                "addr:postcode": "27-530",
                "addr:city": "Lasocin",
                "addr:street": "Rynek",
                "addr:housenumber": "17",
                "addr:city:simc": 802627,
                "addr:street:sym_ul": 19253,
                "phone": "+48 158610513",
                "email": "pzsip.lasocin@op.pl",
                "website": "http:\/\/www.splasocin.edupage.org",
                "ref:regon": "001186610",
                "operator": "Gmina O\u017car\u00f3w",
                "operator:type": "government",
                "amenity": "school",
                "note": "Parent RSPO: 60323"
            }
        },
        {
            "id": 90228,
            "type": "Feature",
            "geometry": {
                "type": "Point",
                "coordinates": [
                    21.75642,
                    50.89622
                ]
            },
            "properties": {
                "ref:rspo": 90228,
                "official_name": "Publiczne Przedszkole w Lasocinie",
                "name": "Publiczne Przedszkole w Lasocinie",
                "addr:postcode": "27-530",
                "addr:city": "Lasocin",
                "addr:street": "Rynek",
                "addr:housenumber": "17",
                "addr:city:simc": 802627,
                "addr:street:sym_ul": 19253,
                "phone": "+48 158610513",
                "email": "pzsip.lasocin@op.pl",
                "website": "http:\/\/www.splasocin.edupage.org",
                "ref:regon": "291186387",
                "operator": "Gmina O\u017car\u00f3w",
                "operator:type": "government",
                "amenity": "kindergarten",
                "note": "Parent RSPO: 60323"
            }
        }
    ]
}