{
    "type": "FeatureCollection",
    "features": [
        {
            "id": 278439,
            "type": "Feature",
            "geometry": {
                "type": "Point",
                "coordinates": [
                    21.67452,
                    50.96259
                ]
            },
            "properties": {
                "ref:rspo": 278439,
                "official_name": "Centrum Inwestycji Spo\u0142ecznych",
                "name": "Centrum Inwestycji Spo\u0142ecznych",
                "addr:country": "PL",
                "addr:postcode": "27-515",
                "addr:place": "Brzozowa",
                "addr:housenumber": "23",
                "addr:teryt:simc": 807990,
                "contact:phone": "+48 660106190",
                "contact:email": "centrum.inwestycji.spolecznych@gmail.com",
                "ref:regon": "389894585",
                "operator": "Centrum Inwestycji Spo\u0142ecznych - Przedsi\u0119biorstwo Spo\u0142eczne Sp\u00f3\u0142ka Z Ograniczon\u0105 Odpowiedzialno\u015bci\u0105",
                "operator:type": "private",
                "fixme": "w zale\u017cno\u015bci od przedmiotu dzia\u0142alno\u015bci (np. amenity=training + training=*, amenity=dancing_school, amenity=language_school, amenity=music_school)"
            }
        },
        {
            "id": 27647,
            "type": "Feature",
            "geometry": {
                "type": "Point",
                "coordinates": [
                    21.7915199,
                    50.98456
                ]
            },
            "properties": {
                "ref:rspo": 27647,
                "official_name": "Specjalny O\u015brodek Szkolno-Wychowawczy w Sulejowie",
                "name": "Specjalny O\u015brodek Szkolno-Wychowawczy w Sulejowie",
                "addr:country": "PL",
                "addr:postcode": "27-515",
                "addr:place": "Sulej\u00f3w",
                "addr:housenumber": "69",
                "addr:teryt:simc": 808558,
                "contact:phone": "+48 158385171",
                "contact:email": "sulejow@op.pl",
                "contact:website": "http:\/\/www.soswsulejow.szkolnastrona.pl",
                "ref:regon": "292427054",
                "ref:vatin": "PL8631249658",
                "operator": "Powiat Opatowski",
                "operator:type": "government",
                "amenity": "school",
                "note": "Children RSPO: 103387;103389;263165"
            }
        },
        {
            "id": 103387,
            "type": "Feature",
            "geometry": {
                "type": "Point",
                "coordinates": [
                    21.7915199,
                    50.98453
                ]
            },
            "properties": {
                "isced:level": "1;2",
                "ref:rspo": 103387,
                "official_name": "Szko\u0142a Podstawowa Specjalna w Sulejowie",
                "name": "Szko\u0142a Podstawowa Specjalna w Sulejowie",
                "addr:country": "PL",
                "addr:postcode": "27-515",
                "addr:place": "Sulej\u00f3w",
                "addr:housenumber": "69",
                "addr:teryt:simc": 808558,
                "contact:phone": "+48 158385171",
                "contact:email": "sulejow@op.pl",
                "contact:website": "http:\/\/www.soswsulejow.szkolnastrona.pl",
                "ref:regon": "292427060",
                "ref:vatin": "PL8631249658",
                "operator": "Powiat Opatowski",
                "operator:type": "government",
                "amenity": "school",
                "note": "Parent RSPO: 27647"
            }
        },
        {
            "id": 103389,
            "type": "Feature",
            "geometry": {
                "type": "Point",
                "coordinates": [
                    21.7915199,
                    50.984500000000004
                ]
            },
            "properties": {
                "ref:rspo": 103389,
                "official_name": "Szko\u0142a Specjalna Przysposabiaj\u0105ca Do Pracy w Sulejowie",
                "name": "Szko\u0142a Specjalna Przysposabiaj\u0105ca Do Pracy w Sulejowie",
                "addr:country": "PL",
                "addr:postcode": "27-515",
                "addr:place": "Sulej\u00f3w",
                "addr:housenumber": "69",
                "addr:teryt:simc": 808558,
                "contact:phone": "+48 158385171",
                "contact:email": "sulejow@op.pl",
                "contact:website": "http:\/\/www.soswsulejow.szkolnastrona.pl",
                "ref:regon": "292427108",
                "ref:vatin": "PL8631249658",
                "operator": "Powiat Opatowski",
                "operator:type": "government",
                "amenity": "school",
                "note": "Parent RSPO: 27647"
            }
        },
        {
            "id": 263165,
            "type": "Feature",
            "geometry": {
                "type": "Point",
                "coordinates": [
                    21.7915199,
                    50.98447
                ]
            },
            "properties": {
                "ref:rspo": 263165,
                "official_name": "Przedszkole Specjalne w Sulejowie",
                "name": "Przedszkole Specjalne w Sulejowie",
                "addr:country": "PL",
                "addr:postcode": "27-515",
                "addr:place": "Sulej\u00f3w",
                "addr:housenumber": "69",
                "addr:teryt:simc": 808558,
                "contact:phone": "+48 158385171",
                "contact:email": "sulejow@op.pl",
                "contact:website": "http:\/\/www.soswsulejow.szkolnastrona.pl",
                "ref:regon": "368113360",
                "ref:vatin": "PL8631249658",
                "operator": "Powiat Opatowski",
                "operator:type": "government",
                "amenity": "kindergarten",
                "note": "Parent RSPO: 27647"
            }
        },
        {
            "id": 20074,
            "type": "Feature",
            "geometry": {
                "type": "Point",
                "coordinates": [
                    21.71499,
                    51.00109
                ]
            },
            "properties": {
                "ref:rspo": 20074,
                "official_name": "Publiczne Przedszkole w Tar\u0142owie",
                "name": "Publiczne Przedszkole w Tar\u0142owie",
                "addr:country": "PL",
                "addr:postcode": "27-515",
                "addr:city": "Tar\u0142\u00f3w",
                "addr:street": "Rynek",
                "addr:housenumber": "42",
                "addr:teryt:simc": 808570,
                "addr:teryt:sym_ul": 19253,
                "contact:phone": "+48 158385770",
                "contact:email": "przedszkole.tarlow@wp.pl",
                "ref:regon": "830013508",
                "ref:vatin": "PL8631522611",
                "operator": "Gmina Tar\u0142\u00f3w",
                "operator:type": "government",
                "amenity": "kindergarten"
            }
        },
        {
            "id": 22190,
            "type": "Feature",
            "geometry": {
                "type": "Point",
                "coordinates": [
                    21.71499,
                    51.001059999999995
                ]
            },
            "properties": {
                "isced:level": "1;2",
                "ref:rspo": 22190,
                "official_name": "Szko\u0142a Podstawowa w Tar\u0142owie im. Bohater\u00f3w Bitwy O Tar\u0142\u00f3w w 1915 R.",
                "name": "Szko\u0142a Podstawowa w Tar\u0142owie",
                "addr:country": "PL",
                "addr:postcode": "27-515",
                "addr:city": "Tar\u0142\u00f3w",
                "addr:street": "Rynek",
                "addr:housenumber": "42",
                "addr:teryt:simc": 808570,
                "addr:teryt:sym_ul": 19253,
                "contact:phone": "+48 158385555",
                "contact:email": "zsotarlow2@wp.pl",
                "ref:regon": "000557441",
                "ref:vatin": "PL8631522410",
                "operator": "Gmina Tar\u0142\u00f3w",
                "operator:type": "government",
                "amenity": "school"
            }
        }
    ]
}