{
    "type": "FeatureCollection",
    "features": [
        {
            "id": 262543,
            "type": "Feature",
            "geometry": {
                "type": "Point",
                "coordinates": [
                    21.49223,
                    50.72945
                ]
            },
            "properties": {
                "ref:rspo": 262543,
                "official_name": "Zesp\u00f3\u0142 Szkolno-Przedszkolny w Lipniku",
                "name": "Zesp\u00f3\u0142 Szkolno-Przedszkolny w Lipniku",
                "addr:postcode": "27-540",
                "addr:place": "Lipnik",
                "addr:housenumber": "23",
                "addr:teryt:simc": 797317,
                "phone": "+48 158691413",
                "email": "zs.lipnik@lipnik.pl",
                "website": "http:\/\/www.zslipnik.szkolnastrona.pl",
                "ref:regon": "368032526",
                "ref:vatin": "PL8631701029",
                "operator": "Gmina Lipnik",
                "operator:type": "government",
                "landuse": "education",
                "fixme": "amenity=school, amenity=college albo landuse=education w zale\u017cno\u015bci od tego, jakie plac\u00f3wki wchodz\u0105 w sk\u0142ad zespo\u0142u. Sprawd\u017a, kiedy stosowa\u0107 amenity=* a kiedy landuse=education.",
                "note": "Children RSPO: 66266;262544"
            }
        },
        {
            "id": 66266,
            "type": "Feature",
            "geometry": {
                "type": "Point",
                "coordinates": [
                    21.49223,
                    50.72942
                ]
            },
            "properties": {
                "isced:level": "1;2",
                "ref:rspo": 66266,
                "official_name": "Szko\u0142a Podstawowa im. Prof. J\u00f3zefa Miku\u0142owskiego-Pomorskiego w Lipniku",
                "name": "Szko\u0142a Podstawowa",
                "addr:postcode": "27-540",
                "addr:place": "Lipnik",
                "addr:housenumber": "23",
                "addr:teryt:simc": 797317,
                "phone": "+48 158691413",
                "email": "zs.lipnik@lipnik.pl",
                "website": "http:\/\/www.zslipnik.szkolnastrona.pl",
                "ref:regon": "000563192",
                "ref:vatin": "PL8631531780",
                "operator": "Gmina Lipnik",
                "operator:type": "government",
                "amenity": "school",
                "note": "Parent RSPO: 262543"
            }
        },
        {
            "id": 262544,
            "type": "Feature",
            "geometry": {
                "type": "Point",
                "coordinates": [
                    21.49223,
                    50.72939
                ]
            },
            "properties": {
                "ref:rspo": 262544,
                "official_name": "Przedszkole Samorz\u0105dowe w Lipniku",
                "name": "Przedszkole Samorz\u0105dowe w Lipniku",
                "addr:postcode": "27-540",
                "addr:place": "Lipnik",
                "addr:housenumber": "23",
                "addr:teryt:simc": 797317,
                "phone": "+48 158691413",
                "email": "zs.lipnik@lipnik.pl",
                "website": "http:\/\/www.zslipnik.szkolnastrona.pl",
                "ref:regon": "368032466",
                "operator": "Gmina Lipnik",
                "operator:type": "government",
                "amenity": "kindergarten",
                "note": "Parent RSPO: 262543"
            }
        },
        {
            "id": 66433,
            "type": "Feature",
            "geometry": {
                "type": "Point",
                "coordinates": [
                    21.44504,
                    50.74808
                ]
            },
            "properties": {
                "isced:level": "1;2",
                "ref:rspo": 66433,
                "official_name": "Szko\u0142a Podstawowa im. Romana Kose\u0142y we W\u0142ostowie",
                "name": "Szko\u0142a Podstawowa",
                "addr:postcode": "27-545",
                "addr:place": "W\u0142ost\u00f3w",
                "addr:housenumber": "1",
                "addr:teryt:simc": 797620,
                "phone": "+48 158691104",
                "email": "zswlostow@gmail.com",
                "website": "http:\/\/www.zswlostow.szkolna.net",
                "ref:regon": "001186886",
                "ref:vatin": "PL8631531751",
                "operator": "Gmina Lipnik",
                "operator:type": "government",
                "amenity": "school"
            }
        },
        {
            "id": 120090,
            "type": "Feature",
            "geometry": {
                "type": "Point",
                "coordinates": [
                    21.44319,
                    50.74814
                ]
            },
            "properties": {
                "ref:rspo": 120090,
                "official_name": "Niepubliczne Przedszkole \u201eOaza\u201d",
                "name": "Niepubliczne Przedszkole \u201eOaza\u201d",
                "addr:postcode": "27-545",
                "addr:place": "W\u0142ost\u00f3w",
                "addr:housenumber": "48",
                "addr:teryt:simc": 797620,
                "phone": "+48 609691799",
                "email": "brzeskab8@gmail.com",
                "ref:regon": "260721927",
                "operator": "Akcja Katolicka Diecezji Sandomierskiej",
                "operator:type": "ngo",
                "amenity": "kindergarten"
            }
        }
    ]
}