{
    "type": "FeatureCollection",
    "features": [
        {
            "id": 18087,
            "type": "Feature",
            "geometry": {
                "type": "Point",
                "coordinates": [
                    21.32973,
                    50.83477
                ]
            },
            "properties": {
                "ref:rspo": 18087,
                "official_name": "Specjalny O\u015brodek Szkolno-Wychowawczy - Centrum Autyzmu I Ca\u0142o\u015bciowych Zaburze\u0144 Rozwojowych w Niemienicach",
                "name": "Specjalny O\u015brodek Szkolno-Wychowawczy - Centrum Autyzmu I Ca\u0142o\u015bciowych Zaburze\u0144 Rozwojowych w Niemienicach",
                "addr:country": "PL",
                "addr:postcode": "27-580",
                "addr:place": "Niemienice",
                "addr:housenumber": "95",
                "addr:teryt:simc": 806217,
                "contact:phone": "+48 158692815",
                "contact:email": "soswniemienice@poczta.onet.pl",
                "contact:website": "http:\/\/www.soswniemienice.pl",
                "ref:regon": "292427485",
                "ref:vatin": "PL8631018195",
                "operator": "Powiat Opatowski",
                "operator:type": "government",
                "amenity": "school",
                "note": "Children RSPO: 25478;25481;124984"
            }
        },
        {
            "id": 25478,
            "type": "Feature",
            "geometry": {
                "type": "Point",
                "coordinates": [
                    21.32973,
                    50.83474
                ]
            },
            "properties": {
                "isced:level": "1;2",
                "ref:rspo": 25478,
                "official_name": "Szko\u0142a Podstawowa Specjalna w Niemienicach",
                "name": "Szko\u0142a Podstawowa Specjalna w Niemienicach",
                "addr:country": "PL",
                "addr:postcode": "27-580",
                "addr:place": "Niemienice",
                "addr:housenumber": "95",
                "addr:teryt:simc": 806217,
                "contact:phone": "+48 158692815",
                "contact:email": "soswniemienice@poczta.onet.pl",
                "contact:website": "http:\/\/www.niemienice.pl",
                "ref:regon": "292677928",
                "ref:vatin": "PL8631018195",
                "operator": "Powiat Opatowski",
                "operator:type": "government",
                "amenity": "school",
                "note": "Parent RSPO: 18087"
            }
        },
        {
            "id": 25481,
            "type": "Feature",
            "geometry": {
                "type": "Point",
                "coordinates": [
                    21.32973,
                    50.83471
                ]
            },
            "properties": {
                "ref:rspo": 25481,
                "official_name": "Szko\u0142a Specjalna Przysposabiaj\u0105ca Do Pracy w Niemienicach",
                "name": "Szko\u0142a Specjalna Przysposabiaj\u0105ca Do Pracy w Niemienicach",
                "addr:country": "PL",
                "addr:postcode": "27-580",
                "addr:place": "Niemienice",
                "addr:housenumber": "95",
                "addr:teryt:simc": 806217,
                "contact:phone": "+48 158692815",
                "contact:email": "soswniemienice@poczta.onet.pl",
                "contact:website": "http:\/\/www.soswniemienice.pl",
                "ref:regon": "292892160",
                "ref:vatin": "PL8631018195",
                "operator": "Powiat Opatowski",
                "operator:type": "government",
                "amenity": "school",
                "note": "Parent RSPO: 18087"
            }
        },
        {
            "id": 124984,
            "type": "Feature",
            "geometry": {
                "type": "Point",
                "coordinates": [
                    21.32973,
                    50.83468
                ]
            },
            "properties": {
                "ref:rspo": 124984,
                "official_name": "Przedszkole Specjalne w Niemienicach",
                "name": "Przedszkole Specjalne w Niemienicach",
                "addr:country": "PL",
                "addr:postcode": "27-580",
                "addr:place": "Niemienice",
                "addr:housenumber": "95",
                "addr:teryt:simc": 806217,
                "contact:phone": "+48 158692815",
                "contact:email": "soswniemienice@poczta.onet.pl",
                "contact:website": "http:\/\/www.soswniemienice.pl",
                "ref:regon": "260794464",
                "ref:vatin": "PL8631018195",
                "operator": "Powiat Opatowski",
                "operator:type": "government",
                "amenity": "kindergarten",
                "note": "Parent RSPO: 18087"
            }
        },
        {
            "id": 88037,
            "type": "Feature",
            "geometry": {
                "type": "Point",
                "coordinates": [
                    21.37524,
                    50.85994
                ]
            },
            "properties": {
                "isced:level": "1;2",
                "ref:rspo": 88037,
                "official_name": "Szko\u0142a Podstawowa im. Batalion\u00f3w Ch\u0142opskich w Sadowiu",
                "name": "Szko\u0142a Podstawowa",
                "addr:country": "PL",
                "addr:postcode": "27-580",
                "addr:place": "Sadowie",
                "addr:housenumber": "94",
                "addr:teryt:simc": 806424,
                "contact:phone": "+48 158692403",
                "contact:email": "szkolysad@wp.pl",
                "contact:website": "http:\/\/www.zssadowie.szkolnastrona.pl",
                "ref:regon": "000655936",
                "ref:vatin": "PL8631522120",
                "operator": "Gmina Sadowie",
                "operator:type": "government",
                "amenity": "school"
            }
        },
        {
            "id": 88030,
            "type": "Feature",
            "geometry": {
                "type": "Point",
                "coordinates": [
                    21.37237,
                    50.8605
                ]
            },
            "properties": {
                "ref:rspo": 88030,
                "official_name": "Niepubliczny Punkt Przedszkolny \u201ePrzedszkolandia\u201d w Sadowiu",
                "name": "Niepubliczny Punkt Przedszkolny \u201ePrzedszkolandia\u201d w Sadowiu",
                "addr:country": "PL",
                "addr:postcode": "27-580",
                "addr:place": "Sadowie",
                "addr:housenumber": "99a",
                "addr:teryt:simc": 806424,
                "contact:phone": "+48 158692432",
                "contact:email": "stowarzyszenierosa@gmail.com",
                "contact:website": "http:\/\/www.stowarzyszenierosa.pl",
                "ref:regon": "260650268",
                "operator": "Stowarzyszenie Na Rzecz Rozwoju Gminy Sadowie \"Rosa\"",
                "operator:type": "ngo",
                "amenity": "kindergarten"
            }
        }
    ]
}