{
    "type": "FeatureCollection",
    "features": [
        {
            "id": 132015,
            "type": "Feature",
            "geometry": {
                "type": "Point",
                "coordinates": [
                    21.34975,
                    50.76931
                ]
            },
            "properties": {
                "ref:rspo": 132015,
                "official_name": "Niepubliczne Przedszkole \u201eDzieci\u0119cy Raj\u201d w Kobylanach",
                "name": "Niepubliczne Przedszkole \u201eDzieci\u0119cy Raj\u201d w Kobylanach",
                "addr:country": "PL",
                "addr:postcode": "27-500",
                "addr:place": "Kobylany",
                "addr:housenumber": "6",
                "addr:teryt:simc": 801504,
                "contact:phone": "+48 511046997",
                "contact:email": "dzieciencyraj@wp.pl",
                "contact:website": "http:\/\/www.naszekobylany.pl",
                "ref:regon": "365418188",
                "operator": "Stowarzyszenie \"Nasze Kobylany\"",
                "operator:type": "ngo",
                "amenity": "kindergarten"
            }
        },
        {
            "id": 17543,
            "type": "Feature",
            "geometry": {
                "type": "Point",
                "coordinates": [
                    21.41867,
                    50.79636
                ]
            },
            "properties": {
                "ref:rspo": 17543,
                "official_name": "Zesp\u00f3\u0142 Szk\u00f3\u0142 Nr 1 w Opatowie",
                "name": "Zesp\u00f3\u0142 Szk\u00f3\u0142 Nr 1 w Opatowie",
                "addr:country": "PL",
                "addr:postcode": "27-500",
                "addr:city": "Opat\u00f3w",
                "addr:street": "Juliusza S\u0142owackiego",
                "addr:housenumber": "56",
                "addr:teryt:simc": 980671,
                "addr:teryt:sym_ul": 20291,
                "contact:phone": "+48 158682319",
                "contact:email": "zs1@opatow.szkola.pl",
                "contact:website": "http:\/\/www.opatow.szkola.pl",
                "ref:regon": "292444058",
                "ref:vatin": "PL8631038105",
                "operator": "Powiat Opatowski",
                "operator:type": "government",
                "landuse": "education",
                "fixme": "amenity=school, amenity=college albo landuse=education w zale\u017cno\u015bci od tego, jakie plac\u00f3wki wchodz\u0105 w sk\u0142ad zespo\u0142u. Sprawd\u017a, kiedy stosowa\u0107 amenity=* a kiedy landuse=education.",
                "note": "Children RSPO: 22279;53296;74052;74053;125966;275846"
            }
        },
        {
            "id": 22279,
            "type": "Feature",
            "geometry": {
                "type": "Point",
                "coordinates": [
                    21.41867,
                    50.79633
                ]
            },
            "properties": {
                "isced:level": "3",
                "ref:rspo": 22279,
                "official_name": "Liceum Og\u00f3lnokszta\u0142c\u0105ce dla Doros\u0142ych w Opatowie",
                "name": "Liceum Og\u00f3lnokszta\u0142c\u0105ce dla Doros\u0142ych w Opatowie",
                "addr:country": "PL",
                "addr:postcode": "27-500",
                "addr:city": "Opat\u00f3w",
                "addr:street": "Juliusza S\u0142owackiego",
                "addr:housenumber": "56",
                "addr:teryt:simc": 980671,
                "addr:teryt:sym_ul": 20291,
                "contact:phone": "+48 158682319",
                "contact:email": "zs1@opatow.szkola.pl",
                "contact:website": "http:\/\/www.opatow.szkola.pl",
                "ref:regon": "260636653",
                "operator": "Powiat Opatowski",
                "operator:type": "government",
                "amenity": "school",
                "note": "Parent RSPO: 17543"
            }
        },
        {
            "id": 53296,
            "type": "Feature",
            "geometry": {
                "type": "Point",
                "coordinates": [
                    21.41867,
                    50.7963
                ]
            },
            "properties": {
                "isced:level": "3",
                "ref:rspo": 53296,
                "official_name": "Liceum Og\u00f3lnokszta\u0142c\u0105ce w Opatowie",
                "name": "Liceum Og\u00f3lnokszta\u0142c\u0105ce w Opatowie",
                "addr:country": "PL",
                "addr:postcode": "27-500",
                "addr:city": "Opat\u00f3w",
                "addr:street": "Juliusza S\u0142owackiego",
                "addr:housenumber": "56",
                "addr:teryt:simc": 980671,
                "addr:teryt:sym_ul": 20291,
                "contact:phone": "+48 158682319",
                "contact:email": "zs1@opatow.szkola.pl",
                "contact:website": "http:\/\/www.opatow.szkola.pl",
                "ref:regon": "292675616",
                "ref:vatin": "PL8631038105",
                "operator": "Powiat Opatowski",
                "operator:type": "government",
                "amenity": "school",
                "note": "Parent RSPO: 17543"
            }
        },
        {
            "id": 74052,
            "type": "Feature",
            "geometry": {
                "type": "Point",
                "coordinates": [
                    21.41867,
                    50.79627
                ]
            },
            "properties": {
                "isced:level": "3",
                "ref:rspo": 74052,
                "official_name": "Technikum w Opatowie",
                "name": "Technikum w Opatowie",
                "addr:country": "PL",
                "addr:postcode": "27-500",
                "addr:city": "Opat\u00f3w",
                "addr:street": "Juliusza S\u0142owackiego",
                "addr:housenumber": "56",
                "addr:teryt:simc": 980671,
                "addr:teryt:sym_ul": 20291,
                "contact:phone": "+48 158682319",
                "contact:email": "zs1@opatow.szkola.pl",
                "contact:website": "http:\/\/www.opatow.szkola.pl",
                "ref:regon": "292443969",
                "ref:vatin": "PL8631038105",
                "operator": "Powiat Opatowski",
                "operator:type": "government",
                "amenity": "school",
                "note": "Parent RSPO: 17543"
            }
        },
        {
            "id": 74053,
            "type": "Feature",
            "geometry": {
                "type": "Point",
                "coordinates": [
                    21.41867,
                    50.79624
                ]
            },
            "properties": {
                "isced:level": "3",
                "ref:rspo": 74053,
                "official_name": "Bran\u017cowa Szko\u0142a I Stopnia w Opatowie",
                "name": "Bran\u017cowa Szko\u0142a I Stopnia w Opatowie",
                "addr:country": "PL",
                "addr:postcode": "27-500",
                "addr:city": "Opat\u00f3w",
                "addr:street": "Juliusza S\u0142owackiego",
                "addr:housenumber": "56",
                "addr:teryt:simc": 980671,
                "addr:teryt:sym_ul": 20291,
                "contact:phone": "+48 158682319",
                "contact:email": "zs1@opatow.szkola.pl",
                "contact:website": "http:\/\/www.opatow.szkola.pl",
                "ref:regon": "292443930",
                "ref:vatin": "PL8631038105",
                "operator": "Powiat Opatowski",
                "operator:type": "government",
                "amenity": "school",
                "note": "Parent RSPO: 17543"
            }
        },
        {
            "id": 125966,
            "type": "Feature",
            "geometry": {
                "type": "Point",
                "coordinates": [
                    21.41867,
                    50.79621
                ]
            },
            "properties": {
                "ref:rspo": 125966,
                "official_name": "Szkolne Schronisko M\u0142odzie\u017cowe w Opatowie",
                "name": "Szkolne Schronisko M\u0142odzie\u017cowe w Opatowie",
                "addr:country": "PL",
                "addr:postcode": "27-500",
                "addr:city": "Opat\u00f3w",
                "addr:street": "Juliusza S\u0142owackiego",
                "addr:housenumber": "56",
                "addr:teryt:simc": 980671,
                "addr:teryt:sym_ul": 20291,
                "contact:phone": "+48 158682199",
                "contact:email": "zs1@opatow.szkola.pl",
                "ref:regon": "360118168",
                "ref:vatin": "PL8631038105",
                "operator": "Powiat Opatowski",
                "operator:type": "government",
                "tourism": "hostel",
                "note": "Parent RSPO: 17543"
            }
        },
        {
            "id": 275846,
            "type": "Feature",
            "geometry": {
                "type": "Point",
                "coordinates": [
                    21.41867,
                    50.79618
                ]
            },
            "properties": {
                "isced:level": "3",
                "ref:rspo": 275846,
                "official_name": "Bran\u017cowa Szko\u0142a II Stopnia w Opatowie Wchodz\u0105ca w Sk\u0142ad Zespo\u0142u Szk\u00f3\u0142 Nr 1 w Opatowie",
                "name": "Bran\u017cowa Szko\u0142a II Stopnia w Opatowie Wchodz\u0105ca w Sk\u0142ad Zespo\u0142u Szk\u00f3\u0142 Nr 1 w Opatowie",
                "addr:country": "PL",
                "addr:postcode": "27-500",
                "addr:city": "Opat\u00f3w",
                "addr:street": "Juliusza S\u0142owackiego",
                "addr:housenumber": "56",
                "addr:teryt:simc": 980671,
                "addr:teryt:sym_ul": 20291,
                "contact:phone": "+48 158682319",
                "contact:email": "zs1@opatow.szkola.pl",
                "contact:website": "http:\/\/www.opatow.szkola.pl",
                "ref:regon": "386945388",
                "ref:vatin": "PL8631038105",
                "operator": "Powiat Opatowski",
                "operator:type": "government",
                "amenity": "school",
                "note": "Parent RSPO: 17543"
            }
        },
        {
            "id": 13997,
            "type": "Feature",
            "geometry": {
                "type": "Point",
                "coordinates": [
                    21.41963,
                    50.7964
                ]
            },
            "properties": {
                "ref:rspo": 13997,
                "official_name": "Pedagogiczna Biblioteka Wojew\u00f3dzka w Kielcach Filia w Opatowie",
                "name": "Pedagogiczna Biblioteka Wojew\u00f3dzka w Kielcach Filia w Opatowie",
                "addr:country": "PL",
                "addr:postcode": "27-500",
                "addr:city": "Opat\u00f3w",
                "addr:street": "Juliusza S\u0142owackiego",
                "addr:housenumber": "54",
                "addr:teryt:simc": 980671,
                "addr:teryt:sym_ul": 20291,
                "contact:email": "opatow@pbw.kielce.pl",
                "contact:website": "http:\/\/www.pbw.kielce.pl",
                "ref:regon": "291170080",
                "operator": "Wojew\u00f3dztwo \u015awi\u0119tokrzyskie",
                "operator:type": "government",
                "amenity": "library",
                "note": "Parent RSPO: 6753"
            }
        },
        {
            "id": 53178,
            "type": "Feature",
            "geometry": {
                "type": "Point",
                "coordinates": [
                    21.427,
                    50.79766
                ]
            },
            "properties": {
                "ref:rspo": 53178,
                "official_name": "Przedszkole Publiczne w Opatowie",
                "name": "Przedszkole Publiczne w Opatowie",
                "addr:country": "PL",
                "addr:postcode": "27-500",
                "addr:city": "Opat\u00f3w",
                "addr:street": "Partyzant\u00f3w",
                "addr:housenumber": "13a",
                "addr:teryt:simc": 980671,
                "addr:teryt:sym_ul": 15733,
                "contact:phone": "+48 158682331",
                "contact:email": "przedszkoleopatow@vp.pl",
                "ref:regon": "830006804",
                "ref:vatin": "PL8631521853",
                "operator": "Gmina Opat\u00f3w",
                "operator:type": "government",
                "amenity": "kindergarten"
            }
        },
        {
            "id": 53187,
            "type": "Feature",
            "geometry": {
                "type": "Point",
                "coordinates": [
                    21.42937,
                    50.79783
                ]
            },
            "properties": {
                "isced:level": "1;2",
                "ref:rspo": 53187,
                "official_name": "Szko\u0142a Podstawowa Nr 2 im. Partyzant\u00f3w Ziemi Opatowskiej w Opatowie",
                "name": "Szko\u0142a Podstawowa Nr 2",
                "addr:country": "PL",
                "addr:postcode": "27-500",
                "addr:city": "Opat\u00f3w",
                "addr:street": "Miko\u0142aja Kopernika",
                "addr:housenumber": "30",
                "addr:teryt:simc": 980671,
                "addr:teryt:sym_ul": 9282,
                "contact:phone": "+48 158682702",
                "contact:email": "szs2opatow@onet.pl",
                "contact:website": "http:\/\/www.szs2opatow.pl",
                "ref:regon": "001187710",
                "ref:vatin": "PL8631521787",
                "operator": "Gmina Opat\u00f3w",
                "operator:type": "government",
                "amenity": "school"
            }
        },
        {
            "id": 277352,
            "type": "Feature",
            "geometry": {
                "type": "Point",
                "coordinates": [
                    21.42431,
                    50.79906
                ]
            },
            "properties": {
                "ref:rspo": 277352,
                "official_name": "Dwuj\u0119zyczne Przedszkole \"Happy Kids\"",
                "name": "Dwuj\u0119zyczne Przedszkole \"Happy Kids\"",
                "addr:country": "PL",
                "addr:postcode": "27-050",
                "addr:city": "Opat\u00f3w",
                "addr:street": "Juliusza S\u0142owackiego",
                "addr:housenumber": "7",
                "addr:teryt:simc": 980671,
                "addr:teryt:sym_ul": 20291,
                "contact:phone": "+48 503755808",
                "contact:email": "kontakt@stowarzyszeniedobryznak.pl",
                "ref:regon": "388675935",
                "operator": "Stowarzyszenie Dobry Znak",
                "operator:type": "ngo",
                "amenity": "kindergarten"
            }
        },
        {
            "id": 133196,
            "type": "Feature",
            "geometry": {
                "type": "Point",
                "coordinates": [
                    21.43037,
                    50.80018
                ]
            },
            "properties": {
                "ref:rspo": 133196,
                "official_name": "Zesp\u00f3\u0142 Poradni Psychologiczno-Pedagogicznych w Opatowie",
                "name": "Zesp\u00f3\u0142 Poradni Psychologiczno-Pedagogicznych w Opatowie",
                "addr:country": "PL",
                "addr:postcode": "27-500",
                "addr:city": "Opat\u00f3w",
                "addr:street": "Henryka Sienkiewicza",
                "addr:housenumber": "17",
                "addr:teryt:simc": 980671,
                "addr:teryt:sym_ul": 19834,
                "contact:phone": "+48 158682636",
                "contact:email": "poradnia_opatow@op.pl",
                "ref:regon": "366792581",
                "operator": "Powiat Opatowski",
                "operator:type": "government",
                "landuse": "education",
                "fixme": "amenity=school, amenity=college albo landuse=education w zale\u017cno\u015bci od tego, jakie plac\u00f3wki wchodz\u0105 w sk\u0142ad zespo\u0142u. Sprawd\u017a, kiedy stosowa\u0107 amenity=* a kiedy landuse=education.",
                "note": "Children RSPO: 18016;27644"
            }
        },
        {
            "id": 27644,
            "type": "Feature",
            "geometry": {
                "type": "Point",
                "coordinates": [
                    21.43037,
                    50.800149999999995
                ]
            },
            "properties": {
                "ref:rspo": 27644,
                "official_name": "Poradnia Psychologiczno-Pedagogiczna w Opatowie",
                "name": "Poradnia Psychologiczno-Pedagogiczna w Opatowie",
                "addr:country": "PL",
                "addr:postcode": "27-500",
                "addr:city": "Opat\u00f3w",
                "addr:street": "Henryka Sienkiewicza",
                "addr:housenumber": "17",
                "addr:teryt:simc": 980671,
                "addr:teryt:sym_ul": 19834,
                "contact:phone": "+48 158682636",
                "contact:email": "poradnia_opatow@op.pl",
                "ref:regon": "292680267",
                "ref:vatin": "PL8631049184",
                "operator": "Powiat Opatowski",
                "operator:type": "government",
                "healthcare": "counselling",
                "counselling_type": "education",
                "fixme": "w zale\u017cno\u015bci od przedmiotu dzia\u0142alno\u015bci (np. healthcare=counselling + counselling_type=education albo healthcare=psychotherapist)",
                "note": "Parent RSPO: 133196"
            }
        },
        {
            "id": 27316,
            "type": "Feature",
            "geometry": {
                "type": "Point",
                "coordinates": [
                    21.42421,
                    50.80084
                ]
            },
            "properties": {
                "ref:rspo": 27316,
                "official_name": "Niepubliczna Szko\u0142a Muzyczna I St. im. Ignacego Krzy\u017canowskiego w Opatowie",
                "name": "Niepubliczna Szko\u0142a Muzyczna I St.",
                "addr:country": "PL",
                "addr:postcode": "27-500",
                "addr:city": "Opat\u00f3w",
                "addr:street": "Plac Obro\u0144c\u00f3w Pokoju",
                "addr:housenumber": "5",
                "addr:teryt:simc": 980671,
                "addr:teryt:sym_ul": 14641,
                "contact:email": "stan_art@poczta.fm",
                "ref:regon": "260639031",
                "operator": "Opatowskie Towarzystwo Artystyczne",
                "operator:type": "ngo",
                "amenity": "music_school"
            }
        },
        {
            "id": 25240,
            "type": "Feature",
            "geometry": {
                "type": "Point",
                "coordinates": [
                    21.42342376709,
                    50.802310943604
                ]
            },
            "properties": {
                "isced:level": "3",
                "ref:rspo": 25240,
                "official_name": "Prywatne Liceum Og\u00f3lnokszta\u0142c\u0105ce dla Doros\u0142ych w Opatowie",
                "name": "Prywatne Liceum Og\u00f3lnokszta\u0142c\u0105ce dla Doros\u0142ych w Opatowie",
                "addr:country": "PL",
                "addr:postcode": "27-500",
                "addr:city": "Opat\u00f3w",
                "addr:street": "Bronis\u0142awa Ostrowskiego ps. Cichy",
                "addr:housenumber": "4",
                "addr:teryt:simc": 980671,
                "addr:teryt:sym_ul": 53262,
                "contact:phone": "+48 530192965",
                "contact:email": "opatow@szkolyprestiz.pl",
                "contact:website": "http:\/\/www.opatow.szkolyprestiz.pl",
                "ref:regon": "260638830",
                "ref:vatin": "PL9591915433",
                "operator": "Presti\u017c Bis Sp\u00f3\u0142ka Z Ograniczon\u0105 Odpowiedzialno\u015bci\u0105",
                "operator:type": "private",
                "amenity": "school"
            }
        },
        {
            "id": 25311,
            "type": "Feature",
            "geometry": {
                "type": "Point",
                "coordinates": [
                    21.42342376709,
                    50.802280943603996
                ]
            },
            "properties": {
                "isced:level": "4",
                "ref:rspo": 25311,
                "official_name": "Prywatna Szko\u0142a Policealna w Opatowie",
                "name": "Prywatna Szko\u0142a Policealna w Opatowie",
                "addr:country": "PL",
                "addr:postcode": "27-500",
                "addr:city": "Opat\u00f3w",
                "addr:street": "Bronis\u0142awa Ostrowskiego ps. Cichy",
                "addr:housenumber": "4",
                "addr:teryt:simc": 980671,
                "addr:teryt:sym_ul": 53262,
                "contact:phone": "+48 530192965",
                "contact:email": "opatow@szkolyprestiz.pl",
                "contact:website": "http:\/\/www.opatow.szkolyprestiz.pl",
                "ref:regon": "260638847",
                "ref:vatin": "PL9591915433",
                "operator": "Presti\u017c Bis Sp\u00f3\u0142ka Z Ograniczon\u0105 Odpowiedzialno\u015bci\u0105",
                "operator:type": "private",
                "amenity": "college"
            }
        },
        {
            "id": 11537,
            "type": "Feature",
            "geometry": {
                "type": "Point",
                "coordinates": [
                    21.42848,
                    50.8043
                ]
            },
            "properties": {
                "ref:rspo": 11537,
                "official_name": "Zesp\u00f3\u0142 Szk\u00f3\u0142 Nr 2 w Opatowie",
                "name": "Zesp\u00f3\u0142 Szk\u00f3\u0142 Nr 2 w Opatowie",
                "addr:country": "PL",
                "addr:postcode": "27-500",
                "addr:city": "Opat\u00f3w",
                "addr:street": "Stefanii Sempo\u0142owskiej",
                "addr:housenumber": "1",
                "addr:teryt:simc": 980671,
                "addr:teryt:sym_ul": 19674,
                "contact:phone": "+48 158682035",
                "contact:email": "lo@opatow.edu.pl",
                "contact:website": "http:\/\/www.lo.opatow.ids.pl",
                "ref:regon": "260630780",
                "ref:vatin": "PL8631019800",
                "operator": "Powiat Opatowski",
                "operator:type": "government",
                "landuse": "education",
                "fixme": "amenity=school, amenity=college albo landuse=education w zale\u017cno\u015bci od tego, jakie plac\u00f3wki wchodz\u0105 w sk\u0142ad zespo\u0142u. Sprawd\u017a, kiedy stosowa\u0107 amenity=* a kiedy landuse=education.",
                "note": "Children RSPO: 53411;264081;268400;275838"
            }
        },
        {
            "id": 53411,
            "type": "Feature",
            "geometry": {
                "type": "Point",
                "coordinates": [
                    21.42848,
                    50.804269999999995
                ]
            },
            "properties": {
                "isced:level": "3",
                "ref:rspo": 53411,
                "official_name": "Liceum Og\u00f3lnokszta\u0142c\u0105ce im. Bartosza G\u0142owackiego w Opatowie",
                "name": "Liceum Og\u00f3lnokszta\u0142c\u0105ce",
                "addr:country": "PL",
                "addr:postcode": "27-500",
                "addr:city": "Opat\u00f3w",
                "addr:street": "Stefanii Sempo\u0142owskiej",
                "addr:housenumber": "1",
                "addr:teryt:simc": 980671,
                "addr:teryt:sym_ul": 19674,
                "contact:phone": "+48 158682035",
                "contact:email": "lo@opatow.edu.pl",
                "contact:website": "http:\/\/www.lo.opatow.ids.pl",
                "ref:regon": "292677058",
                "ref:vatin": "PL8631019800",
                "operator": "Powiat Opatowski",
                "operator:type": "government",
                "amenity": "school",
                "note": "Parent RSPO: 11537"
            }
        },
        {
            "id": 264081,
            "type": "Feature",
            "geometry": {
                "type": "Point",
                "coordinates": [
                    21.42848,
                    50.80424
                ]
            },
            "properties": {
                "isced:level": "3",
                "ref:rspo": 264081,
                "official_name": "Liceum Og\u00f3lnokszta\u0142c\u0105ce dla Doros\u0142ych Wchodz\u0105ce w Sk\u0142ad Zespo\u0142u Szk\u00f3\u0142 Nr 2 w Opatowie",
                "name": "Liceum Og\u00f3lnokszta\u0142c\u0105ce dla Doros\u0142ych Wchodz\u0105ce w Sk\u0142ad Zespo\u0142u Szk\u00f3\u0142 Nr 2 w Opatowie",
                "addr:country": "PL",
                "addr:postcode": "27-500",
                "addr:city": "Opat\u00f3w",
                "addr:street": "Stefanii Sempo\u0142owskiej",
                "addr:housenumber": "1",
                "addr:teryt:simc": 980671,
                "addr:teryt:sym_ul": 19674,
                "contact:phone": "+48 158682035",
                "contact:email": "lo@opatow.edu.pl",
                "contact:website": "http:\/\/www.lo.opatow.ids.pl",
                "ref:regon": "368259000",
                "ref:vatin": "PL8631019800",
                "operator": "Powiat Opatowski",
                "operator:type": "government",
                "amenity": "school",
                "note": "Parent RSPO: 11537"
            }
        },
        {
            "id": 268400,
            "type": "Feature",
            "geometry": {
                "type": "Point",
                "coordinates": [
                    21.42848,
                    50.80421
                ]
            },
            "properties": {
                "isced:level": "3",
                "ref:rspo": 268400,
                "official_name": "Technikum w Zespole Szk\u00f3\u0142 Nr 2 w Opatowie",
                "name": "Technikum w Zespole Szk\u00f3\u0142 Nr 2 w Opatowie",
                "addr:country": "PL",
                "addr:postcode": "27-500",
                "addr:city": "Opat\u00f3w",
                "addr:street": "Stefanii Sempo\u0142owskiej",
                "addr:housenumber": "1",
                "addr:teryt:simc": 980671,
                "addr:teryt:sym_ul": 19674,
                "contact:phone": "+48 158682035",
                "contact:email": "lo@opatow.edu.pl",
                "ref:regon": "381145507",
                "ref:vatin": "PL8631019800",
                "operator": "Powiat Opatowski",
                "operator:type": "government",
                "amenity": "school",
                "note": "Parent RSPO: 11537"
            }
        },
        {
            "id": 275838,
            "type": "Feature",
            "geometry": {
                "type": "Point",
                "coordinates": [
                    21.42848,
                    50.804179999999995
                ]
            },
            "properties": {
                "isced:level": "4",
                "ref:rspo": 275838,
                "official_name": "Szko\u0142a Policealna Wchodz\u0105ca w Sk\u0142ad Zespo\u0142u Szk\u00f3\u0142 Nr 2 w Opatowie",
                "name": "Szko\u0142a Policealna Wchodz\u0105ca w Sk\u0142ad Zespo\u0142u Szk\u00f3\u0142 Nr 2 w Opatowie",
                "addr:country": "PL",
                "addr:postcode": "27-500",
                "addr:city": "Opat\u00f3w",
                "addr:street": "Stefanii Sempo\u0142owskiej",
                "addr:housenumber": "1",
                "addr:teryt:simc": 980671,
                "addr:teryt:sym_ul": 19674,
                "contact:phone": "+48 158682035",
                "contact:email": "lo@opatow.edu.pl",
                "contact:website": "http:\/\/www.opatow.pl",
                "ref:regon": "386945371",
                "ref:vatin": "PL8631019800",
                "operator": "Powiat Opatowski",
                "operator:type": "government",
                "amenity": "college",
                "note": "Parent RSPO: 11537"
            }
        },
        {
            "id": 124833,
            "type": "Feature",
            "geometry": {
                "type": "Point",
                "coordinates": [
                    21.4269399,
                    50.80636
                ]
            },
            "properties": {
                "ref:rspo": 124833,
                "official_name": "Niepubliczne Przedszkole Z Oddzia\u0142ami Integracyjnymi w Opatowie Zak\u0142adu Doskonalenia Zawodowego w Kielcach",
                "name": "Niepubliczne Przedszkole Z Oddzia\u0142ami Integracyjnymi w Opatowie Zak\u0142adu Doskonalenia Zawodowego w Kielcach",
                "addr:country": "PL",
                "addr:postcode": "27-500",
                "addr:city": "Opat\u00f3w",
                "addr:street": "Marii Konopnickiej",
                "addr:housenumber": "2",
                "addr:teryt:simc": 980671,
                "addr:teryt:sym_ul": 9186,
                "contact:phone": "+48 158684156",
                "contact:email": "opatow-przedszkole@zdz.kielce.pl",
                "contact:website": "http:\/\/www.hahaha.edu.pl",
                "ref:regon": "260793720",
                "ref:vatin": "PL6570008869",
                "operator": "Zak\u0142ad Doskonalenia Zawodowego W Kielcach",
                "operator:type": "ngo",
                "amenity": "kindergarten"
            }
        },
        {
            "id": 53183,
            "type": "Feature",
            "geometry": {
                "type": "Point",
                "coordinates": [
                    21.42172,
                    50.80672
                ]
            },
            "properties": {
                "isced:level": "1;2",
                "ref:rspo": 53183,
                "official_name": "Szko\u0142a Podstawowa Nr 1 im. Gen. Bryg. Stanis\u0142awa Gano w Opatowie",
                "name": "Szko\u0142a Podstawowa Nr 1",
                "addr:country": "PL",
                "addr:postcode": "27-500",
                "addr:city": "Opat\u00f3w",
                "addr:street": "\u0106mielowska",
                "addr:housenumber": "2",
                "addr:teryt:simc": 980671,
                "addr:teryt:sym_ul": 3538,
                "contact:phone": "+48 158682734",
                "contact:email": "szs_1_opatow@o2.pl",
                "contact:website": "http:\/\/www.szs1opatow.mozello.pl",
                "ref:regon": "001187704",
                "ref:vatin": "PL8631521824",
                "operator": "Gmina Opat\u00f3w",
                "operator:type": "government",
                "amenity": "school"
            }
        },
        {
            "id": 18097,
            "type": "Feature",
            "geometry": {
                "type": "Point",
                "coordinates": [
                    21.34872,
                    50.80703
                ]
            },
            "properties": {
                "ref:rspo": 18097,
                "official_name": "Specjalny O\u015brodek Szkolno-Wychowawczy w Ja\u0142ow\u0119sach",
                "name": "Specjalny O\u015brodek Szkolno-Wychowawczy w Ja\u0142ow\u0119sach",
                "addr:country": "PL",
                "addr:postcode": "27-500",
                "addr:place": "Ja\u0142ow\u0119sy",
                "addr:housenumber": "124",
                "addr:teryt:simc": 801326,
                "contact:phone": "+48 158682556",
                "contact:email": "sekretariat@soswjalowesy.pl",
                "contact:website": "http:\/\/soswjalowesy.pl",
                "ref:regon": "292429343",
                "ref:vatin": "PL8631019823",
                "operator": "Powiat Opatowski",
                "operator:type": "government",
                "amenity": "school",
                "note": "Children RSPO: 25482;124985;275832;275833"
            }
        },
        {
            "id": 25482,
            "type": "Feature",
            "geometry": {
                "type": "Point",
                "coordinates": [
                    21.34872,
                    50.806999999999995
                ]
            },
            "properties": {
                "isced:level": "1;2",
                "ref:rspo": 25482,
                "official_name": "Szko\u0142a Podstawowa Specjalna w Ja\u0142ow\u0119sach",
                "name": "Szko\u0142a Podstawowa Specjalna w Ja\u0142ow\u0119sach",
                "addr:country": "PL",
                "addr:postcode": "27-500",
                "addr:place": "Ja\u0142ow\u0119sy",
                "addr:housenumber": "124",
                "addr:teryt:simc": 801326,
                "contact:phone": "+48 158682556",
                "contact:email": "sekretariat@soswjalowesy.pl",
                "contact:website": "http:\/\/soswjalowesy.pl",
                "ref:regon": "292429350",
                "ref:vatin": "PL8631019823",
                "operator": "Powiat Opatowski",
                "operator:type": "government",
                "amenity": "school",
                "note": "Parent RSPO: 18097"
            }
        },
        {
            "id": 124985,
            "type": "Feature",
            "geometry": {
                "type": "Point",
                "coordinates": [
                    21.34872,
                    50.80697
                ]
            },
            "properties": {
                "ref:rspo": 124985,
                "official_name": "Szko\u0142a Specjalna Przysposabiaj\u0105ca Do Pracy w Ja\u0142ow\u0119sach",
                "name": "Szko\u0142a Specjalna Przysposabiaj\u0105ca Do Pracy w Ja\u0142ow\u0119sach",
                "addr:country": "PL",
                "addr:postcode": "27-500",
                "addr:place": "Ja\u0142ow\u0119sy",
                "addr:housenumber": "124",
                "addr:teryt:simc": 801326,
                "contact:phone": "+48 158682556",
                "contact:email": "sekretariat@soswjalowesy.pl",
                "contact:website": "http:\/\/soswjalowesy.pl",
                "ref:regon": "260794470",
                "operator": "Powiat Opatowski",
                "operator:type": "government",
                "amenity": "school",
                "note": "Parent RSPO: 18097"
            }
        },
        {
            "id": 275832,
            "type": "Feature",
            "geometry": {
                "type": "Point",
                "coordinates": [
                    21.34872,
                    50.80694
                ]
            },
            "properties": {
                "ref:rspo": 275832,
                "official_name": "Przedszkole Specjalne Wchodz\u0105ce w Sk\u0142ad Specjalnego O\u015brodka Szkolno - Wychowawczego w Ja\u0142ow\u0119sach",
                "name": "Przedszkole Specjalne Wchodz\u0105ce w Sk\u0142ad Specjalnego O\u015brodka Szkolno - Wychowawczego w Ja\u0142ow\u0119sach",
                "addr:country": "PL",
                "addr:postcode": "27-500",
                "addr:place": "Ja\u0142ow\u0119sy",
                "addr:housenumber": "124",
                "addr:teryt:simc": 801326,
                "contact:phone": "+48 158682556",
                "contact:email": "sekretariat@soswjalowesy.pl",
                "contact:website": "http:\/\/soswjalowesy.pl",
                "ref:regon": "386944118",
                "ref:vatin": "PL8631019823",
                "operator": "Powiat Opatowski",
                "operator:type": "government",
                "amenity": "kindergarten",
                "note": "Parent RSPO: 18097"
            }
        },
        {
            "id": 275833,
            "type": "Feature",
            "geometry": {
                "type": "Point",
                "coordinates": [
                    21.34872,
                    50.806909999999995
                ]
            },
            "properties": {
                "isced:level": "3",
                "ref:rspo": 275833,
                "official_name": "Bran\u017cowa Szko\u0142a I Stopnia Specjalna w Ja\u0142ow\u0119sach Wchodz\u0105ca w Sk\u0142ad Specjalnego O\u015brodka Szkolno - Wychowawczego w Ja\u0142ow\u0119sach",
                "name": "Bran\u017cowa Szko\u0142a I Stopnia Specjalna w Ja\u0142ow\u0119sach Wchodz\u0105ca w Sk\u0142ad Specjalnego O\u015brodka Szkolno - Wychowawczego w Ja\u0142ow\u0119sach",
                "addr:country": "PL",
                "addr:postcode": "27-500",
                "addr:place": "Ja\u0142ow\u0119sy",
                "addr:housenumber": "124",
                "addr:teryt:simc": 801326,
                "contact:phone": "+48 158682556",
                "contact:email": "sekretariat@soswjalowesy.pl",
                "contact:website": "http:\/\/soswjalowesy.pl",
                "ref:regon": "386944242",
                "ref:vatin": "PL8631019823",
                "operator": "Powiat Opatowski",
                "operator:type": "government",
                "amenity": "school",
                "note": "Parent RSPO: 18097"
            }
        },
        {
            "id": 18461,
            "type": "Feature",
            "geometry": {
                "type": "Point",
                "coordinates": [
                    21.42141,
                    50.80751
                ]
            },
            "properties": {
                "isced:level": "3",
                "ref:rspo": 18461,
                "official_name": "Niepubliczne Technikum im. Gen. W\u0142adys\u0142awa Andersa w Opatowie",
                "name": "Niepubliczne Technikum",
                "addr:country": "PL",
                "addr:postcode": "27-500",
                "addr:city": "Opat\u00f3w",
                "addr:street": "\u0106mielowska",
                "addr:housenumber": "4",
                "addr:teryt:simc": 980671,
                "addr:teryt:sym_ul": 3538,
                "contact:phone": "+48 158647710",
                "contact:email": "opatow-szkoly@zdz.kielce.pl",
                "contact:website": "http:\/\/www.szkolyopatow.zdz.kielce.pl",
                "ref:regon": "260635910",
                "ref:vatin": "PL6570008869",
                "operator": "Zak\u0142ad Doskonalenia Zawodowego W Kielcach",
                "operator:type": "ngo",
                "amenity": "school"
            }
        },
        {
            "id": 53301,
            "type": "Feature",
            "geometry": {
                "type": "Point",
                "coordinates": [
                    21.42141,
                    50.80748
                ]
            },
            "properties": {
                "ref:rspo": 53301,
                "official_name": "Centrum Kszta\u0142cenia Zawodowego w Opatowie Zak\u0142adu Doskonalenia Zawodowego w Kielcach",
                "name": "Centrum Kszta\u0142cenia Zawodowego w Opatowie Zak\u0142adu Doskonalenia Zawodowego w Kielcach",
                "addr:country": "PL",
                "addr:postcode": "27-500",
                "addr:city": "Opat\u00f3w",
                "addr:street": "\u0106mielowska",
                "addr:housenumber": "4",
                "addr:teryt:simc": 980671,
                "addr:teryt:sym_ul": 3538,
                "contact:phone": "+48 158684156",
                "contact:email": "opatow@zdz.kielce.pl",
                "contact:website": "http:\/\/www.zdz.kielce.pl",
                "ref:regon": "260642955",
                "ref:vatin": "PL6570008869",
                "operator": "Zak\u0142ad Doskonalenia Zawodowego W Kielcach",
                "operator:type": "ngo",
                "fixme": "w zale\u017cno\u015bci od przedmiotu dzia\u0142alno\u015bci (np. amenity=training + training=*, amenity=dancing_school, amenity=language_school, amenity=music_school)"
            }
        }
    ]
}