{
    "type": "FeatureCollection",
    "features": [
        {
            "id": 66202,
            "type": "Feature",
            "geometry": {
                "type": "Point",
                "coordinates": [
                    17.53235,
                    51.60612
                ]
            },
            "properties": {
                "ref:rspo": 66202,
                "official_name": "Publiczne Przedszkole w Sulmierzycach",
                "name": "Publiczne Przedszkole w Sulmierzycach",
                "addr:country": "PL",
                "addr:postcode": "63-750",
                "addr:city": "Sulmierzyce",
                "addr:street": "Aleja Klonowicza",
                "addr:housenumber": "17",
                "addr:teryt:simc": 937333,
                "addr:teryt:sym_ul": 33969,
                "contact:phone": "+48 627223254",
                "contact:email": "przedszkole.sulmierzyce@o2.pl",
                "ref:regon": "251596700",
                "ref:vatin": "PL6211726346",
                "operator": "Gmina Miejska Sulmierzyce",
                "operator:type": "government",
                "amenity": "kindergarten"
            }
        },
        {
            "id": 76135,
            "type": "Feature",
            "geometry": {
                "type": "Point",
                "coordinates": [
                    17.5296,
                    51.60619
                ]
            },
            "properties": {
                "isced:level": "1;2",
                "ref:rspo": 76135,
                "official_name": "Szko\u0142a Podstawowa im. Sebastiana Fabiana Klonowicza w Sulmierzycach",
                "name": "Szko\u0142a Podstawowa",
                "addr:country": "PL",
                "addr:postcode": "63-750",
                "addr:city": "Sulmierzyce",
                "addr:street": "Szkolna",
                "addr:housenumber": "2",
                "addr:teryt:simc": 937333,
                "addr:teryt:sym_ul": 21970,
                "contact:phone": "+48 627223209",
                "contact:email": "zespolszkol@wp.pl",
                "contact:website": "http:\/\/zspsulm.szkolnastrona.pl\/",
                "ref:regon": "000754035",
                "ref:vatin": "PL6211312337",
                "operator": "Gmina Miejska Sulmierzyce",
                "operator:type": "government",
                "amenity": "school"
            }
        }
    ]
}