{
    "type": "FeatureCollection",
    "features": [
        {
            "id": 26183,
            "type": "Feature",
            "geometry": {
                "type": "Point",
                "coordinates": [
                    17.38307,
                    51.64239
                ]
            },
            "properties": {
                "ref:rspo": 26183,
                "official_name": "Zesp\u00f3\u0142 Szk\u00f3\u0142 Ponadpodstawowych w Zdunach",
                "name": "Zesp\u00f3\u0142 Szk\u00f3\u0142 Ponadpodstawowych w Zdunach",
                "addr:country": "PL",
                "addr:postcode": "63-760",
                "addr:city": "Zduny",
                "addr:street": "ul. Strzelecka",
                "addr:housenumber": "10",
                "addr:teryt:simc": 21381,
                "addr:teryt:sym_ul": 937439,
                "contact:phone": "+48 627215723",
                "contact:email": "zspzduny@wp.pl",
                "contact:website": "http:\/\/zsp.zduny.pl",
                "ref:regon": "000405300",
                "ref:vatin": "PL6211110355",
                "operator": "Gmina Zduny",
                "operator:type": "government",
                "landuse": "education",
                "fixme": "amenity=school, amenity=college albo landuse=education w zale\u017cno\u015bci od tego, jakie plac\u00f3wki wchodz\u0105 w sk\u0142ad zespo\u0142u. Sprawd\u017a, kiedy stosowa\u0107 amenity=* a kiedy landuse=education.",
                "note": "Children RSPO: 29434;29651"
            }
        },
        {
            "id": 29434,
            "type": "Feature",
            "geometry": {
                "type": "Point",
                "coordinates": [
                    17.38307,
                    51.64236
                ]
            },
            "properties": {
                "isced:level": "3",
                "ref:rspo": 29434,
                "official_name": "Technikum im.jana Kili\u0144skiego w Zdunach",
                "name": "Technikum im.jana Kili\u0144skiego w Zdunach",
                "addr:country": "PL",
                "addr:postcode": "63-760",
                "addr:city": "Zduny",
                "addr:street": "ul. Strzelecka",
                "addr:housenumber": "10",
                "addr:teryt:simc": 21381,
                "addr:teryt:sym_ul": 937439,
                "contact:phone": "+48 627215723",
                "contact:email": "zspzduny@wp.pl",
                "contact:website": "http:\/\/zsp.zduny.pl",
                "ref:regon": "251538280",
                "operator": "Gmina Zduny",
                "operator:type": "government",
                "amenity": "school",
                "note": "Parent RSPO: 26183"
            }
        },
        {
            "id": 29651,
            "type": "Feature",
            "geometry": {
                "type": "Point",
                "coordinates": [
                    17.38307,
                    51.64233
                ]
            },
            "properties": {
                "isced:level": "3",
                "ref:rspo": 29651,
                "official_name": "Bran\u017cowa Szko\u0142a I Stopnia im. Jana Kili\u0144skiego w Zdunach",
                "name": "Bran\u017cowa Szko\u0142a I Stopnia",
                "addr:country": "PL",
                "addr:postcode": "63-760",
                "addr:city": "Zduny",
                "addr:street": "ul. Strzelecka",
                "addr:housenumber": "10",
                "addr:teryt:simc": 21381,
                "addr:teryt:sym_ul": 937439,
                "contact:phone": "+48 627215723",
                "contact:email": "zspzduny@wp.pl",
                "contact:website": "http:\/\/zsp.zduny.pl",
                "ref:regon": "300434284",
                "operator": "Gmina Zduny",
                "operator:type": "government",
                "amenity": "school",
                "note": "Parent RSPO: 26183"
            }
        },
        {
            "id": 26214,
            "type": "Feature",
            "geometry": {
                "type": "Point",
                "coordinates": [
                    17.37859,
                    51.64437
                ]
            },
            "properties": {
                "ref:rspo": 26214,
                "official_name": "Publiczne Przedszkole w Zdunach",
                "name": "Publiczne Przedszkole w Zdunach",
                "addr:country": "PL",
                "addr:postcode": "63-760",
                "addr:city": "Zduny",
                "addr:street": "ul. \u0141acnowa",
                "addr:housenumber": "25",
                "addr:teryt:simc": 11489,
                "addr:teryt:sym_ul": 937439,
                "contact:phone": "+48 627215225",
                "contact:email": "ppzduny@post.pl",
                "contact:website": "http:\/\/www.przedszkole.zduny.pl",
                "ref:regon": "301450204",
                "ref:vatin": "PL6211797174",
                "operator": "Gmina Zduny",
                "operator:type": "government",
                "amenity": "kindergarten"
            }
        },
        {
            "id": 29248,
            "type": "Feature",
            "geometry": {
                "type": "Point",
                "coordinates": [
                    17.37865,
                    51.64474
                ]
            },
            "properties": {
                "isced:level": "1;2",
                "ref:rspo": 29248,
                "official_name": "Szko\u0142a Podstawowa w Zdunach",
                "name": "Szko\u0142a Podstawowa w Zdunach",
                "addr:country": "PL",
                "addr:postcode": "63-760",
                "addr:city": "Zduny",
                "addr:street": "ul. \u0141acnowa",
                "addr:housenumber": "26",
                "addr:teryt:simc": 11489,
                "addr:teryt:sym_ul": 937439,
                "contact:phone": "+48 627215513",
                "contact:email": "sekretariat@spzduny.pl",
                "contact:website": "http:\/\/www.zs.zduny.pl",
                "ref:regon": "000631396",
                "ref:vatin": "PL6211757051",
                "operator": "Gmina Zduny",
                "operator:type": "government",
                "amenity": "school"
            }
        },
        {
            "id": 26269,
            "type": "Feature",
            "geometry": {
                "type": "Point",
                "coordinates": [
                    17.37347,
                    51.64918
                ]
            },
            "properties": {
                "ref:rspo": 26269,
                "official_name": "Niepubliczne Przedszkole Parafialne w Zdunach",
                "name": "Niepubliczne Przedszkole Parafialne w Zdunach",
                "addr:country": "PL",
                "addr:postcode": "63-760",
                "addr:city": "Zduny",
                "addr:street": "ul. Kobyli\u0144ska",
                "addr:housenumber": "21",
                "addr:teryt:simc": 8703,
                "addr:teryt:sym_ul": 937439,
                "contact:phone": "+48 627214150",
                "contact:email": "przedszkole@parafiazduny.pl",
                "contact:website": "http:\/\/www.przedszkole.parafiazduny.pl",
                "ref:regon": "302241514",
                "ref:vatin": "PL6211306331",
                "operator": "Parafia Rzym.-Kat. Pw. \u015awi\u0119tego Jana Chrzciciela",
                "operator:type": "religious",
                "amenity": "kindergarten"
            }
        },
        {
            "id": 29692,
            "type": "Feature",
            "geometry": {
                "type": "Point",
                "coordinates": [
                    17.284622,
                    51.679896
                ]
            },
            "properties": {
                "isced:level": "1;2",
                "ref:rspo": 29692,
                "official_name": "Szko\u0142a Podstawowa im. Powsta\u0144c\u00f3w Wielkopolskich w Baszkowie",
                "name": "Szko\u0142a Podstawowa",
                "addr:country": "PL",
                "addr:postcode": "63-760",
                "addr:place": "Baszk\u00f3w",
                "addr:housenumber": "34",
                "addr:teryt:sym_ul": 210855,
                "contact:phone": "+48 627211229",
                "contact:email": "spbaszkow@zduny.pl",
                "contact:website": "http:\/\/spbaszkow.zduny.pl",
                "ref:regon": "001228685",
                "ref:vatin": "PL6211504640",
                "operator": "Gmina Zduny",
                "operator:type": "government",
                "amenity": "school"
            }
        },
        {
            "id": 43570,
            "type": "Feature",
            "geometry": {
                "type": "Point",
                "coordinates": [
                    17.38823,
                    51.6809
                ]
            },
            "properties": {
                "ref:rspo": 43570,
                "official_name": "Specjalny O\u015brodek Szkolno-Wychowawczy im. Ks. Jana Twardowskiego w Konarzewie",
                "name": "Specjalny O\u015brodek Szkolno-Wychowawczy",
                "addr:country": "PL",
                "addr:postcode": "63-700",
                "addr:city": "Konarzew",
                "addr:street": "ul. Parkowa",
                "addr:housenumber": "18",
                "addr:teryt:simc": 15710,
                "addr:teryt:sym_ul": 211033,
                "contact:phone": "+48 627228099",
                "contact:email": "sekretariat@soswkonarzew.edu.pl",
                "contact:website": "http:\/\/konarzew.edu.o12.pl",
                "ref:regon": "000805442",
                "ref:vatin": "PL6211105963",
                "operator": "Powiat Krotoszy\u0144ski",
                "operator:type": "government",
                "amenity": "school",
                "note": "Children RSPO: 71626;72298"
            }
        },
        {
            "id": 71626,
            "type": "Feature",
            "geometry": {
                "type": "Point",
                "coordinates": [
                    17.38823,
                    51.68087
                ]
            },
            "properties": {
                "isced:level": "1;2",
                "ref:rspo": 71626,
                "official_name": "Szko\u0142a Podstawowa Specjalna im. Ks. Jana Twardowskiego w Konarzewie",
                "name": "Szko\u0142a Podstawowa Specjalna",
                "addr:country": "PL",
                "addr:postcode": "63-700",
                "addr:city": "Konarzew",
                "addr:street": "ul. Parkowa",
                "addr:housenumber": "18",
                "addr:teryt:simc": 15710,
                "addr:teryt:sym_ul": 211033,
                "contact:phone": "+48 627228099",
                "contact:email": "sekretariat@soswkonarzew.edu.pl",
                "contact:website": "http:\/\/konarzew.edu.o12.pl",
                "ref:regon": "251588467",
                "operator": "Powiat Krotoszy\u0144ski",
                "operator:type": "government",
                "amenity": "school",
                "note": "Parent RSPO: 43570"
            }
        },
        {
            "id": 72298,
            "type": "Feature",
            "geometry": {
                "type": "Point",
                "coordinates": [
                    17.38823,
                    51.68084
                ]
            },
            "properties": {
                "ref:rspo": 72298,
                "official_name": "Szko\u0142a Specjalna Przysposabiajaca Do Pracy im. Ks. Jana Twardowskiego w Konarzewie",
                "name": "Szko\u0142a Specjalna Przysposabiajaca Do Pracy",
                "addr:country": "PL",
                "addr:postcode": "63-700",
                "addr:city": "Konarzew",
                "addr:street": "ul. Parkowa",
                "addr:housenumber": "18",
                "addr:teryt:simc": 15710,
                "addr:teryt:sym_ul": 211033,
                "contact:phone": "+48 627228099",
                "contact:email": "sekretariat@soswkonarzew.edu.pl",
                "contact:website": "http:\/\/konarzew.edu.o12.pl",
                "ref:regon": "300117862",
                "operator": "Powiat Krotoszy\u0144ski",
                "operator:type": "government",
                "amenity": "school",
                "note": "Parent RSPO: 43570"
            }
        }
    ]
}