{
    "type": "FeatureCollection",
    "features": [
        {
            "id": 42388,
            "type": "Feature",
            "geometry": {
                "type": "Point",
                "coordinates": [
                    17.53201,
                    51.64415
                ]
            },
            "properties": {
                "isced:level": "1;2",
                "ref:rspo": 42388,
                "official_name": "Szko\u0142a Podstawowa im. Ksi\u0119dza Jana Twardowskiego w Chwaliszewie",
                "name": "Szko\u0142a Podstawowa",
                "addr:postcode": "63-750",
                "addr:city": "Chwaliszew",
                "addr:street": "Ostrowska",
                "addr:housenumber": "39",
                "addr:city:simc": 201773,
                "addr:street:sym_ul": 15390,
                "phone": "+48 627224540",
                "email": "sp-chwaliszew@krotoszyn.pl",
                "ref:regon": "001046760",
                "operator": "Miasto I Gmina Krotoszyn",
                "operator:type": "government",
                "amenity": "school"
            }
        },
        {
            "id": 29452,
            "type": "Feature",
            "geometry": {
                "type": "Point",
                "coordinates": [
                    17.55315,
                    51.67222
                ]
            },
            "properties": {
                "isced:level": "1;2",
                "ref:rspo": 29452,
                "official_name": "Szko\u0142a Podstawowa im. Miko\u0142aja Kopernika w Biadkach",
                "name": "Szko\u0142a Podstawowa",
                "addr:postcode": "63-714",
                "addr:city": "Biadki",
                "addr:street": "Szkolna",
                "addr:housenumber": "3",
                "addr:city:simc": 201721,
                "addr:street:sym_ul": 21970,
                "phone": "+48 627211322",
                "email": "sp-biadki@krotoszyn.pl",
                "ref:regon": "001046754",
                "ref:vatin": "PL6211777800",
                "operator": "Miasto I Gmina Krotoszyn",
                "operator:type": "government",
                "amenity": "school"
            }
        },
        {
            "id": 29719,
            "type": "Feature",
            "geometry": {
                "type": "Point",
                "coordinates": [
                    17.5931605,
                    51.6875987
                ]
            },
            "properties": {
                "isced:level": "1;2",
                "ref:rspo": 29719,
                "official_name": "Szko\u0142a Podstawowa im. Andrzeja Zalewskiego w \u015awinkowie",
                "name": "Szko\u0142a Podstawowa",
                "addr:postcode": "63-714",
                "addr:place": "\u015awink\u00f3w",
                "addr:housenumber": "39",
                "addr:city:simc": 202258,
                "phone": "+48 627211314",
                "email": "sp-swinkow@krotoszyn.pl",
                "website": "http:\/\/www.sp-swinkow.krotoszyn.pl",
                "ref:regon": "001171590",
                "ref:vatin": "PL6211777728",
                "operator": "Miasto I Gmina Krotoszyn",
                "operator:type": "government",
                "amenity": "school"
            }
        },
        {
            "id": 133865,
            "type": "Feature",
            "geometry": {
                "type": "Point",
                "coordinates": [
                    17.4292,
                    51.68816
                ]
            },
            "properties": {
                "isced:level": "1;2",
                "ref:rspo": 133865,
                "official_name": "Szko\u0142a Podstawowa nr 5 im. Miko\u0142aja Kopernika w Krotoszynie",
                "name": "Szko\u0142a Podstawowa nr 5",
                "addr:postcode": "63-700",
                "addr:city": "Krotoszyn",
                "addr:street": "Zdunowska",
                "addr:housenumber": "83",
                "addr:city:simc": 936931,
                "addr:street:sym_ul": 25957,
                "phone": "+48 627252506",
                "email": "sp5@krotoszyn.pl",
                "website": "http:\/\/www.sp5.krotoszyn.pl",
                "ref:regon": "367698677",
                "operator": "Miasto I Gmina Krotoszyn",
                "operator:type": "government",
                "amenity": "school"
            }
        },
        {
            "id": 64680,
            "type": "Feature",
            "geometry": {
                "type": "Point",
                "coordinates": [
                    17.42977,
                    51.68865
                ]
            },
            "properties": {
                "ref:rspo": 64680,
                "official_name": "Zesp\u00f3\u0142 Szk\u00f3\u0142 Ponadpodstawowych nr 3 im. Jana Paw\u0142a II w Krotoszynie",
                "name": "Zesp\u00f3\u0142 Szk\u00f3\u0142 Ponadpodstawowych nr 3",
                "addr:postcode": "63-700",
                "addr:city": "Krotoszyn",
                "addr:street": "Zdunowska",
                "addr:housenumber": "81",
                "addr:city:simc": 936931,
                "addr:street:sym_ul": 25957,
                "phone": "+48 627252348",
                "email": "sekretariat@zsp3.com.pl",
                "website": "http:\/\/zspnr3.com.pl",
                "ref:regon": "000241502",
                "ref:vatin": "PL6211110409",
                "operator": "Powiat Krotoszy\u0144ski",
                "operator:type": "government",
                "landuse": "education",
                "fixme": "amenity=school, amenity=college albo landuse=education w zale\u017cno\u015bci od tego, jakie plac\u00f3wki wchodz\u0105 w sk\u0142ad zespo\u0142u. Sprawd\u017a, kiedy stosowa\u0107 amenity=* a kiedy landuse=education.",
                "note": "Children RSPO: 80799;80802;276085"
            }
        },
        {
            "id": 80799,
            "type": "Feature",
            "geometry": {
                "type": "Point",
                "coordinates": [
                    17.42977,
                    51.68862
                ]
            },
            "properties": {
                "isced:level": "3",
                "ref:rspo": 80799,
                "official_name": "Bran\u017cowa Szko\u0142a I Stopnia nr 1 im. Jana Paw\u0142a II w Krotoszynie",
                "name": "Bran\u017cowa Szko\u0142a I Stopnia nr 1",
                "addr:postcode": "63-700",
                "addr:city": "Krotoszyn",
                "addr:street": "Zdunowska",
                "addr:housenumber": "81",
                "addr:city:simc": 936931,
                "addr:street:sym_ul": 25957,
                "phone": "+48 627252348",
                "email": "sekretariat@zsp3.com.pl",
                "website": "http:\/\/zspnr3.com.pl",
                "ref:regon": "251537300",
                "operator": "Powiat Krotoszy\u0144ski",
                "operator:type": "government",
                "amenity": "school",
                "note": "Parent RSPO: 64680"
            }
        },
        {
            "id": 80802,
            "type": "Feature",
            "geometry": {
                "type": "Point",
                "coordinates": [
                    17.42977,
                    51.688590000000005
                ]
            },
            "properties": {
                "isced:level": "3",
                "ref:rspo": 80802,
                "official_name": "Technikum nr 3 im. Jana Paw\u0142a II w Krotoszynie",
                "name": "Technikum nr 3",
                "addr:postcode": "63-700",
                "addr:city": "Krotoszyn",
                "addr:street": "Zdunowska",
                "addr:housenumber": "81",
                "addr:city:simc": 936931,
                "addr:street:sym_ul": 25957,
                "phone": "+48 627252348",
                "email": "sekretariat@zsp3.com.pl",
                "website": "http:\/\/zspnr3.com.pl",
                "ref:regon": "251537292",
                "operator": "Powiat Krotoszy\u0144ski",
                "operator:type": "government",
                "amenity": "school",
                "note": "Parent RSPO: 64680"
            }
        },
        {
            "id": 276085,
            "type": "Feature",
            "geometry": {
                "type": "Point",
                "coordinates": [
                    17.42977,
                    51.68856
                ]
            },
            "properties": {
                "isced:level": "3",
                "ref:rspo": 276085,
                "official_name": "Iii Liceum Og\u00f3lnokszta\u0142c\u0105ce dla Doros\u0142ych w Krotoszynie",
                "name": "Iii Liceum Og\u00f3lnokszta\u0142c\u0105ce dla Doros\u0142ych w Krotoszynie",
                "addr:postcode": "63-700",
                "addr:city": "Krotoszyn",
                "addr:street": "Zdunowska",
                "addr:housenumber": "81",
                "addr:city:simc": 936931,
                "addr:street:sym_ul": 25957,
                "phone": "+48 627252348",
                "email": "sekretariat@zsp3.com.pl",
                "website": "http:\/\/zspnr3.com.pl",
                "ref:regon": "386986329",
                "operator": "Powiat Krotoszy\u0144ski",
                "operator:type": "government",
                "amenity": "school",
                "note": "Parent RSPO: 64680"
            }
        },
        {
            "id": 106123,
            "type": "Feature",
            "geometry": {
                "type": "Point",
                "coordinates": [
                    17.42971,
                    51.6893699
                ]
            },
            "properties": {
                "ref:rspo": 106123,
                "official_name": "Przedszkole Prowadzone Przez Zgromadzenie Si\u00f3str \u015aw. El\u017cbiety w Krotoszynie",
                "name": "Przedszkole Prowadzone Przez Zgromadzenie Si\u00f3str \u015aw. El\u017cbiety w Krotoszynie",
                "addr:postcode": "63-700",
                "addr:city": "Krotoszyn",
                "addr:street": "Zdunowska",
                "addr:housenumber": "58",
                "addr:city:simc": 936931,
                "addr:street:sym_ul": 25957,
                "email": "kontakt@esloneczko.pl",
                "website": "https:\/\/esloneczko.pl",
                "ref:regon": "302317045",
                "operator": "Zgromadzenie Si\u00f3str \u015aw. El\u017cbiety Prowincja Pozna\u0144ska",
                "operator:type": "religious",
                "amenity": "kindergarten"
            }
        },
        {
            "id": 262346,
            "type": "Feature",
            "geometry": {
                "type": "Point",
                "coordinates": [
                    17.4303,
                    51.68977
                ]
            },
            "properties": {
                "isced:level": "1;2",
                "ref:rspo": 262346,
                "official_name": "Niepubliczna Szko\u0142a Podstawowa w Krotoszynie",
                "name": "Niepubliczna Szko\u0142a Podstawowa w Krotoszynie",
                "addr:postcode": "63-700",
                "addr:city": "Krotoszyn",
                "addr:street": "Zdunowska",
                "addr:housenumber": "56",
                "addr:city:simc": 936931,
                "addr:street:sym_ul": 25957,
                "phone": "+48 696399240",
                "email": "sekretariat@nspkrotoszyn.pl",
                "website": "http:\/\/nspkrotoszyn.pl\/",
                "ref:regon": "367986590",
                "ref:vatin": "PL6211836454",
                "operator": "Krzysztof Grobelny",
                "operator:type": "private",
                "amenity": "school"
            }
        },
        {
            "id": 30404,
            "type": "Feature",
            "geometry": {
                "type": "Point",
                "coordinates": [
                    17.43199,
                    51.69024
                ]
            },
            "properties": {
                "ref:rspo": 30404,
                "official_name": "Przedszkole nr 2 w Krotoszynie",
                "name": "Przedszkole nr 2 w Krotoszynie",
                "addr:postcode": "63-700",
                "addr:city": "Krotoszyn",
                "addr:street": "Zdunowska",
                "addr:housenumber": "67",
                "addr:city:simc": 936931,
                "addr:street:sym_ul": 25957,
                "phone": "+48 627252982",
                "email": "p2@krotoszyn.pl",
                "ref:regon": "250510612",
                "ref:vatin": "PL6211777616",
                "operator": "Miasto I Gmina Krotoszyn",
                "operator:type": "government",
                "amenity": "kindergarten"
            }
        },
        {
            "id": 40056,
            "type": "Feature",
            "geometry": {
                "type": "Point",
                "coordinates": [
                    17.43113,
                    51.69058
                ]
            },
            "properties": {
                "isced:level": "3",
                "ref:rspo": 40056,
                "official_name": "I Liceum Og\u00f3lnokszta\u0142c\u0105ce im. Hugona Ko\u0142\u0142\u0105taja w Krotoszynie",
                "name": "I Liceum Og\u00f3lnokszta\u0142c\u0105ce",
                "addr:postcode": "63-700",
                "addr:city": "Krotoszyn",
                "addr:street": "Hugona Ko\u0142\u0142\u0105taja",
                "addr:housenumber": "1",
                "addr:city:simc": 936931,
                "addr:street:sym_ul": 9000,
                "phone": "+48 627253649",
                "email": "sekretariat@liceumkollataj.edu.pl",
                "website": "http:\/\/liceumkollataj.edu.pl",
                "ref:regon": "000229056",
                "ref:vatin": "PL6211105911",
                "operator": "Powiat Krotoszy\u0144ski",
                "operator:type": "government",
                "amenity": "school"
            }
        },
        {
            "id": 105446,
            "type": "Feature",
            "geometry": {
                "type": "Point",
                "coordinates": [
                    17.43127,
                    51.69113
                ]
            },
            "properties": {
                "ref:rspo": 105446,
                "official_name": "Przedszkole Montessori w Krotoszynie",
                "name": "Przedszkole Montessori w Krotoszynie",
                "addr:postcode": "63-700",
                "addr:city": "Krotoszyn",
                "addr:street": "Hugona Ko\u0142\u0142\u0105taja",
                "addr:housenumber": "3A",
                "addr:city:simc": 936931,
                "addr:street:sym_ul": 9000,
                "phone": "+48 627220823",
                "email": "papierska@wp.pl",
                "ref:regon": "302305562",
                "ref:vatin": "PL6211798558",
                "operator": "Stowarzyszenie Edukacyjne Integracja - Oddzia\u0142 W Krotoszynie",
                "operator:type": "ngo",
                "amenity": "kindergarten"
            }
        },
        {
            "id": 30406,
            "type": "Feature",
            "geometry": {
                "type": "Point",
                "coordinates": [
                    17.44544,
                    51.6918
                ]
            },
            "properties": {
                "ref:rspo": 30406,
                "official_name": "Przedszkole nr 5 w Krotoszynie",
                "name": "Przedszkole nr 5 w Krotoszynie",
                "addr:postcode": "63-700",
                "addr:city": "Krotoszyn",
                "addr:street": "Ogrodowskiego",
                "addr:housenumber": "26",
                "addr:city:simc": 936931,
                "addr:street:sym_ul": 35058,
                "phone": "+48 627252012",
                "email": "p5@krotoszyn.pl",
                "ref:regon": "250510641",
                "ref:vatin": "PL6211777585",
                "operator": "Miasto I Gmina Krotoszyn",
                "operator:type": "government",
                "amenity": "kindergarten"
            }
        },
        {
            "id": 29453,
            "type": "Feature",
            "geometry": {
                "type": "Point",
                "coordinates": [
                    17.51636,
                    51.69222
                ]
            },
            "properties": {
                "isced:level": "1;2",
                "ref:rspo": 29453,
                "official_name": "Szko\u0142a Podstawowa w Gorzupi",
                "name": "Szko\u0142a Podstawowa w Gorzupi",
                "addr:postcode": "63-714",
                "addr:city": "Gorzupia",
                "addr:street": "Lipowa",
                "addr:housenumber": "2",
                "addr:city:simc": 201856,
                "addr:street:sym_ul": 11139,
                "phone": "+48 627211990",
                "email": "sp-gorzupia@krotoszyn.pl",
                "ref:regon": "001171560",
                "ref:vatin": "PL6211777763",
                "operator": "Miasto I Gmina Krotoszyn",
                "operator:type": "government",
                "amenity": "school"
            }
        },
        {
            "id": 123259,
            "type": "Feature",
            "geometry": {
                "type": "Point",
                "coordinates": [
                    17.43684,
                    51.69367
                ]
            },
            "properties": {
                "isced:level": "1;2",
                "ref:rspo": 123259,
                "official_name": "Spo\u0142eczna Szko\u0142a Podstawowa w Krotoszynie",
                "name": "Spo\u0142eczna Szko\u0142a Podstawowa w Krotoszynie",
                "addr:postcode": "63-700",
                "addr:city": "Krotoszyn",
                "addr:street": "Garncarska",
                "addr:housenumber": "9",
                "addr:city:simc": 936931,
                "addr:street:sym_ul": 5345,
                "phone": "+48 726110101",
                "email": "sekretariat@sspkrotoszyn.pl",
                "ref:regon": "302749922",
                "ref:vatin": "PL6211793414",
                "operator": "Stowarzyszenie Edukacja Dla Przysz\u0142o\u015bci",
                "operator:type": "ngo",
                "amenity": "school"
            }
        },
        {
            "id": 35320,
            "type": "Feature",
            "geometry": {
                "type": "Point",
                "coordinates": [
                    17.45938,
                    51.69367
                ]
            },
            "properties": {
                "isced:level": "1;2",
                "ref:rspo": 35320,
                "official_name": "Szko\u0142a Podstawowa nr 3 z Oddzia\u0142ami Integracyjnymi im. Jana Paw\u0142a II w Krotoszynie",
                "name": "Szko\u0142a Podstawowa nr 3 z Oddzia\u0142ami Integracyjnymi",
                "addr:postcode": "63-700",
                "addr:city": "Krotoszyn",
                "addr:street": "Plac Szkolny",
                "addr:housenumber": "19",
                "addr:city:simc": 936931,
                "addr:street:sym_ul": 21972,
                "phone": "+48 627252678",
                "email": "sp3@krotoszyn.pl",
                "website": "http:\/\/www.sp3.krotoszyn.pl",
                "ref:regon": "000693782",
                "operator": "Miasto I Gmina Krotoszyn",
                "operator:type": "government",
                "amenity": "school"
            }
        },
        {
            "id": 64827,
            "type": "Feature",
            "geometry": {
                "type": "Point",
                "coordinates": [
                    17.44897,
                    51.6936899
                ]
            },
            "properties": {
                "ref:rspo": 64827,
                "official_name": "Zesp\u00f3\u0142 Szk\u00f3\u0142 Specjalnych im. Marii Grzegorzewskiej w Krotoszynie",
                "name": "Zesp\u00f3\u0142 Szk\u00f3\u0142 Specjalnych",
                "addr:postcode": "63-700",
                "addr:city": "Krotoszyn",
                "addr:street": "Ostrowska",
                "addr:housenumber": "49",
                "addr:city:simc": 936931,
                "addr:street:sym_ul": 15390,
                "phone": "+48 627252431",
                "email": "speckrot@wp.pl",
                "website": "http:\/\/speckrot.pl",
                "ref:regon": "000693820",
                "ref:vatin": "PL6211015065",
                "operator": "Powiat Krotoszy\u0144ski",
                "operator:type": "government",
                "landuse": "education",
                "fixme": "amenity=school, amenity=college albo landuse=education w zale\u017cno\u015bci od tego, jakie plac\u00f3wki wchodz\u0105 w sk\u0142ad zespo\u0142u. Sprawd\u017a, kiedy stosowa\u0107 amenity=* a kiedy landuse=education.",
                "note": "Children RSPO: 80672;80804;80810"
            }
        },
        {
            "id": 80672,
            "type": "Feature",
            "geometry": {
                "type": "Point",
                "coordinates": [
                    17.44897,
                    51.6936599
                ]
            },
            "properties": {
                "isced:level": "3",
                "ref:rspo": 80672,
                "official_name": "Bran\u017cowa Szko\u0142a I Stopnia nr 3 Specjalna w Krotoszynie",
                "name": "Bran\u017cowa Szko\u0142a I Stopnia nr 3 Specjalna w Krotoszynie",
                "addr:postcode": "63-700",
                "addr:city": "Krotoszyn",
                "addr:street": "Ostrowska",
                "addr:housenumber": "49",
                "addr:city:simc": 936931,
                "addr:street:sym_ul": 15390,
                "phone": "+48 627252431",
                "email": "speckrot@wp.pl",
                "website": "http:\/\/speckrot.pl",
                "ref:regon": "251545268",
                "operator": "Powiat Krotoszy\u0144ski",
                "operator:type": "government",
                "amenity": "school",
                "note": "Parent RSPO: 64827"
            }
        },
        {
            "id": 80804,
            "type": "Feature",
            "geometry": {
                "type": "Point",
                "coordinates": [
                    17.44897,
                    51.693629900000005
                ]
            },
            "properties": {
                "isced:level": "1;2",
                "ref:rspo": 80804,
                "official_name": "Szko\u0142a Podstawowa nr 6 Specjalna im. Marii Grzegorzewskiej w Krotoszynie",
                "name": "Szko\u0142a Podstawowa nr 6 Specjalna",
                "addr:postcode": "63-700",
                "addr:city": "Krotoszyn",
                "addr:street": "Ostrowska",
                "addr:housenumber": "49",
                "addr:city:simc": 936931,
                "addr:street:sym_ul": 15390,
                "phone": "+48 627252431",
                "email": "speckrot@wp.pl",
                "website": "http:\/\/speckrot.pl",
                "ref:regon": "251174837",
                "operator": "Powiat Krotoszy\u0144ski",
                "operator:type": "government",
                "amenity": "school",
                "note": "Parent RSPO: 64827"
            }
        },
        {
            "id": 80810,
            "type": "Feature",
            "geometry": {
                "type": "Point",
                "coordinates": [
                    17.44897,
                    51.6935999
                ]
            },
            "properties": {
                "ref:rspo": 80810,
                "official_name": "Szko\u0142a Specjalna Przysposabiaj\u0105ca do Pracy w Krotoszynie",
                "name": "Szko\u0142a Specjalna Przysposabiaj\u0105ca do Pracy w Krotoszynie",
                "addr:postcode": "63-700",
                "addr:city": "Krotoszyn",
                "addr:street": "Ostrowska",
                "addr:housenumber": "49",
                "addr:city:simc": 936931,
                "addr:street:sym_ul": 15390,
                "phone": "+48 627252431",
                "email": "speckrot@wp.pl",
                "website": "http:\/\/speckrot.pl",
                "ref:regon": "300081354",
                "operator": "Powiat Krotoszy\u0144ski",
                "operator:type": "government",
                "amenity": "school",
                "note": "Parent RSPO: 64827"
            }
        },
        {
            "id": 26675,
            "type": "Feature",
            "geometry": {
                "type": "Point",
                "coordinates": [
                    17.43089,
                    51.69405
                ]
            },
            "properties": {
                "isced:level": "1;2",
                "ref:rspo": 26675,
                "official_name": "Szko\u0142a Podstawowa nr 4 im. Wojska Polskiego w Krotoszynie",
                "name": "Szko\u0142a Podstawowa nr 4",
                "addr:postcode": "63-700",
                "addr:city": "Krotoszyn",
                "addr:street": "Henryka Sienkiewicza",
                "addr:housenumber": "9",
                "addr:city:simc": 936931,
                "addr:street:sym_ul": 19830,
                "phone": "+48 627252876",
                "email": "sp4@krotoszyn.pl",
                "ref:regon": "000693776",
                "ref:vatin": "PL6211777674",
                "operator": "Miasto I Gmina Krotoszyn",
                "operator:type": "government",
                "amenity": "school"
            }
        },
        {
            "id": 30655,
            "type": "Feature",
            "geometry": {
                "type": "Point",
                "coordinates": [
                    17.43036,
                    51.69473
                ]
            },
            "properties": {
                "ref:rspo": 30655,
                "official_name": "Przedszkole nr 6 z Oddzia\u0142ami Integracyjnymi w Krotoszynie",
                "name": "Przedszkole nr 6 z Oddzia\u0142ami Integracyjnymi w Krotoszynie",
                "addr:postcode": "63-700",
                "addr:city": "Krotoszyn",
                "addr:street": "Henryka Sienkiewicza",
                "addr:housenumber": "10",
                "addr:city:simc": 936931,
                "addr:street:sym_ul": 19830,
                "phone": "+48 627253461",
                "email": "p6@krotoszyn.pl",
                "ref:regon": "250510658",
                "ref:vatin": "PL6211777645",
                "operator": "Miasto I Gmina Krotoszyn",
                "operator:type": "government",
                "amenity": "kindergarten"
            }
        },
        {
            "id": 64715,
            "type": "Feature",
            "geometry": {
                "type": "Point",
                "coordinates": [
                    17.43414,
                    51.69523
                ]
            },
            "properties": {
                "ref:rspo": 64715,
                "official_name": "Zesp\u00f3\u0142 Szk\u00f3\u0142 Ponadpodstawowych nr 2 im. Karola Fryderyka Libelta w Krotoszynie",
                "name": "Zesp\u00f3\u0142 Szk\u00f3\u0142 Ponadpodstawowych nr 2",
                "addr:postcode": "63-700",
                "addr:city": "Krotoszyn",
                "addr:street": "Plac Jana Paw\u0142a II",
                "addr:housenumber": "5",
                "addr:city:simc": 936931,
                "addr:street:sym_ul": 37496,
                "phone": "+48 627252228",
                "email": "sekretariat@zsp2-krotoszyn.pl",
                "website": "http:\/\/zsp2-krotoszyn.pl",
                "ref:regon": "000181970",
                "ref:vatin": "PL6211113916",
                "operator": "Powiat Krotoszy\u0144ski",
                "operator:type": "government",
                "landuse": "education",
                "fixme": "amenity=school, amenity=college albo landuse=education w zale\u017cno\u015bci od tego, jakie plac\u00f3wki wchodz\u0105 w sk\u0142ad zespo\u0142u. Sprawd\u017a, kiedy stosowa\u0107 amenity=* a kiedy landuse=education.",
                "note": "Children RSPO: 82903;130513"
            }
        },
        {
            "id": 82903,
            "type": "Feature",
            "geometry": {
                "type": "Point",
                "coordinates": [
                    17.43414,
                    51.6952
                ]
            },
            "properties": {
                "isced:level": "3",
                "ref:rspo": 82903,
                "official_name": "Technikum nr 2 w Krotoszynie",
                "name": "Technikum nr 2 w Krotoszynie",
                "addr:postcode": "63-700",
                "addr:city": "Krotoszyn",
                "addr:street": "Plac Jana Paw\u0142a II",
                "addr:housenumber": "5",
                "addr:city:simc": 936931,
                "addr:street:sym_ul": 37496,
                "phone": "+48 627252228",
                "email": "sekretariat@zsp2-krotoszyn.pl",
                "website": "http:\/\/zsp2-krotoszyn.pl",
                "ref:regon": "251539687",
                "operator": "Powiat Krotoszy\u0144ski",
                "operator:type": "government",
                "amenity": "school",
                "note": "Parent RSPO: 64715"
            }
        },
        {
            "id": 130513,
            "type": "Feature",
            "geometry": {
                "type": "Point",
                "coordinates": [
                    17.43414,
                    51.695170000000005
                ]
            },
            "properties": {
                "isced:level": "3",
                "ref:rspo": 130513,
                "official_name": "Bran\u017cowa Szko\u0142a I Stopnia nr 2 w Krotoszynie",
                "name": "Bran\u017cowa Szko\u0142a I Stopnia nr 2 w Krotoszynie",
                "addr:postcode": "63-700",
                "addr:city": "Krotoszyn",
                "addr:street": "Plac Jana Paw\u0142a II",
                "addr:housenumber": "5",
                "addr:city:simc": 936931,
                "addr:street:sym_ul": 37496,
                "phone": "+48 627252228",
                "email": "sekretariat@zsp2-krotoszyn.pl",
                "website": "http:\/\/zsp2-krotoszyn.pl",
                "ref:regon": "364132662",
                "operator": "Powiat Krotoszy\u0144ski",
                "operator:type": "government",
                "amenity": "school",
                "note": "Parent RSPO: 64715"
            }
        },
        {
            "id": 30403,
            "type": "Feature",
            "geometry": {
                "type": "Point",
                "coordinates": [
                    17.43219,
                    51.69549
                ]
            },
            "properties": {
                "ref:rspo": 30403,
                "official_name": "Przedszkole nr 1 w Krotoszynie",
                "name": "Przedszkole nr 1 w Krotoszynie",
                "addr:postcode": "63-700",
                "addr:city": "Krotoszyn",
                "addr:street": "Piastowska",
                "addr:housenumber": "32",
                "addr:city:simc": 936931,
                "addr:street:sym_ul": 16046,
                "phone": "+48 627252704",
                "email": "p1@krotoszyn.pl",
                "ref:regon": "250510606",
                "ref:vatin": "PL6211777591",
                "operator": "Miasto I Gmina Krotoszyn",
                "operator:type": "government",
                "amenity": "kindergarten"
            }
        },
        {
            "id": 42360,
            "type": "Feature",
            "geometry": {
                "type": "Point",
                "coordinates": [
                    17.438060760498,
                    51.695888519287
                ]
            },
            "properties": {
                "isced:level": "1;2",
                "ref:rspo": 42360,
                "official_name": "Szko\u0142a Podstawowa nr 1 im. Powsta\u0144c\u00f3w Wielkopolskich w Krotoszynie",
                "name": "Szko\u0142a Podstawowa nr 1",
                "addr:postcode": "63-700",
                "addr:city": "Krotoszyn",
                "addr:street": "Aleja Powsta\u0144c\u00f3w Wielkopolskich",
                "addr:housenumber": "13",
                "addr:city:simc": 936931,
                "addr:street:sym_ul": 34290,
                "phone": "+48 627252923",
                "email": "sp1@krotoszyn.pl",
                "ref:regon": "000693760",
                "operator": "Miasto I Gmina Krotoszyn",
                "operator:type": "government",
                "amenity": "school"
            }
        },
        {
            "id": 119168,
            "type": "Feature",
            "geometry": {
                "type": "Point",
                "coordinates": [
                    17.438060760498,
                    51.695858519287
                ]
            },
            "properties": {
                "ref:rspo": 119168,
                "official_name": "Publiczne Przedszkole \"Bajka\" Przy Rzymskokatolickiej Parafii Pw \u015aw. Jana Chrzciciela w Krotoszynie",
                "name": "Publiczne Przedszkole \"Bajka\" Przy Rzymskokatolickiej Parafii Pw \u015aw. Jana Chrzciciela w Krotoszynie",
                "addr:postcode": "63-700",
                "addr:city": "Krotoszyn",
                "addr:street": "Aleja Powsta\u0144c\u00f3w Wielkopolskich",
                "addr:housenumber": "18",
                "addr:city:simc": 936931,
                "addr:street:sym_ul": 34290,
                "phone": "+48 627252853",
                "email": "kontakt@bajkakrotoszyn.pl",
                "website": "http:\/\/www.bajkakrotoszyn.pl",
                "ref:regon": "302512500",
                "ref:vatin": "PL6211812525",
                "operator": "Parafia Rzym.-Kat. Pw. \u015awi\u0119tego Jana Chrzciciela",
                "operator:type": "religious",
                "amenity": "kindergarten"
            }
        },
        {
            "id": 64892,
            "type": "Feature",
            "geometry": {
                "type": "Point",
                "coordinates": [
                    17.44587,
                    51.69697
                ]
            },
            "properties": {
                "ref:rspo": 64892,
                "official_name": "Plac\u00f3wka Kszta\u0142cenia Ustawicznego \"Omnibus Bhp\"",
                "name": "Plac\u00f3wka Kszta\u0142cenia Ustawicznego \"Omnibus Bhp\"",
                "addr:postcode": "63-700",
                "addr:city": "Krotoszyn",
                "addr:street": "Wrzosowa",
                "addr:housenumber": "18",
                "addr:city:simc": 936931,
                "addr:street:sym_ul": 24870,
                "phone": "+48 605224767",
                "email": "ombhp@poczta.onet.pl",
                "ref:regon": "302259661",
                "operator": "Grzegorz Sobczak",
                "operator:type": "private",
                "fixme": "w zale\u017cno\u015bci od przedmiotu dzia\u0142alno\u015bci (np. amenity=training + training=*, amenity=dancing_school, amenity=language_school, amenity=music_school)"
            }
        },
        {
            "id": 106420,
            "type": "Feature",
            "geometry": {
                "type": "Point",
                "coordinates": [
                    17.43474,
                    51.69706
                ]
            },
            "properties": {
                "ref:rspo": 106420,
                "official_name": "Centrum Kszta\u0142cenia Zawodowego w Krotoszynie",
                "name": "Centrum Kszta\u0142cenia Zawodowego w Krotoszynie",
                "addr:postcode": "63-700",
                "addr:city": "Krotoszyn",
                "addr:street": "Floria\u0144ska",
                "addr:housenumber": "8",
                "addr:city:simc": 936931,
                "addr:street:sym_ul": 5085,
                "phone": "+48 627252594",
                "email": "daria.szpurtacz@cech-krotoszyn.pl",
                "website": "http:\/\/cech-krotoszyn.pl",
                "ref:regon": "302320917",
                "ref:vatin": "PL6211779288",
                "operator": "Cech Rzemios\u0142 R\u00f3\u017cnych W Krotoszynie",
                "operator:type": "ngo",
                "fixme": "w zale\u017cno\u015bci od przedmiotu dzia\u0142alno\u015bci (np. amenity=training + training=*, amenity=dancing_school, amenity=language_school, amenity=music_school) albo amenity=school, amenity=college, albo landuse=education w zale\u017cno\u015bci od tego, jakie plac\u00f3wki wchodz\u0105 w sk\u0142ad zespo\u0142u. Sprawd\u017a, kiedy stosowa\u0107 amenity=* a kiedy landuse=education."
            }
        },
        {
            "id": 42498,
            "type": "Feature",
            "geometry": {
                "type": "Point",
                "coordinates": [
                    17.43479,
                    51.69744
                ]
            },
            "properties": {
                "ref:rspo": 42498,
                "official_name": "Poradnia Psychologiczno-Pedagogiczna w Krotoszynie",
                "name": "Poradnia Psychologiczno-Pedagogiczna w Krotoszynie",
                "addr:postcode": "63-700",
                "addr:city": "Krotoszyn",
                "addr:street": "Floria\u0144ska",
                "addr:housenumber": "10",
                "addr:city:simc": 936931,
                "addr:street:sym_ul": 5085,
                "phone": "+48 627252433",
                "email": "ppp.sekretariat@gmail.com",
                "website": "http:\/\/ppp.krotoszyn.pl",
                "ref:regon": "001061044",
                "ref:vatin": "PL6211670278",
                "operator": "Powiat Krotoszy\u0144ski",
                "operator:type": "government",
                "healthcare": "counselling",
                "counselling_type": "education",
                "fixme": "w zale\u017cno\u015bci od przedmiotu dzia\u0142alno\u015bci (np. healthcare=counselling + counselling_type=education albo healthcare=psychotherapist)"
            }
        },
        {
            "id": 40214,
            "type": "Feature",
            "geometry": {
                "type": "Point",
                "coordinates": [
                    17.43073,
                    51.69829
                ]
            },
            "properties": {
                "ref:rspo": 40214,
                "official_name": "Zesp\u00f3\u0142 Szk\u00f3\u0142 Ponadpodstawowych nr 1 w Krotoszynie",
                "name": "Zesp\u00f3\u0142 Szk\u00f3\u0142 Ponadpodstawowych nr 1 w Krotoszynie",
                "addr:postcode": "63-700",
                "addr:city": "Krotoszyn",
                "addr:street": "Adama Mickiewicza",
                "addr:housenumber": "11",
                "addr:city:simc": 936931,
                "addr:street:sym_ul": 12734,
                "phone": "+48 627253275",
                "email": "zsp1krot@op.pl",
                "website": "http:\/\/zsp1krotoszyn.pl",
                "ref:regon": "000182254",
                "ref:vatin": "PL6211106218",
                "operator": "Powiat Krotoszy\u0144ski",
                "operator:type": "government",
                "landuse": "education",
                "fixme": "amenity=school, amenity=college albo landuse=education w zale\u017cno\u015bci od tego, jakie plac\u00f3wki wchodz\u0105 w sk\u0142ad zespo\u0142u. Sprawd\u017a, kiedy stosowa\u0107 amenity=* a kiedy landuse=education.",
                "note": "Children RSPO: 86317;88597;88659;88721;272607"
            }
        },
        {
            "id": 48677,
            "type": "Feature",
            "geometry": {
                "type": "Point",
                "coordinates": [
                    17.43073,
                    51.69826
                ]
            },
            "properties": {
                "isced:level": "4",
                "ref:rspo": 48677,
                "official_name": "Policealna Szko\u0142a Pracownik\u00f3w S\u0142u\u017cb Spo\u0142ecznych w Krotoszynie",
                "name": "Policealna Szko\u0142a Pracownik\u00f3w S\u0142u\u017cb Spo\u0142ecznych w Krotoszynie",
                "addr:postcode": "63-700",
                "addr:city": "Krotoszyn",
                "addr:street": "Adama Mickiewicza",
                "addr:housenumber": "11",
                "addr:city:simc": 936931,
                "addr:street:sym_ul": 12734,
                "phone": "+48 668129574",
                "email": "sekretariat@policealnaszkola.eu",
                "website": "http:\/\/policealnaszkola.eu",
                "ref:regon": "302261623",
                "ref:vatin": "PL6211088756",
                "operator": "Wanda Kruszczy\u0144ska",
                "operator:type": "private",
                "amenity": "college"
            }
        },
        {
            "id": 50341,
            "type": "Feature",
            "geometry": {
                "type": "Point",
                "coordinates": [
                    17.43073,
                    51.69823
                ]
            },
            "properties": {
                "ref:rspo": 50341,
                "official_name": "Centrum Kszta\u0142cenia I Doskonalenia \"Eskulap\" w Krotoszynie",
                "name": "Centrum Kszta\u0142cenia I Doskonalenia \"Eskulap\" w Krotoszynie",
                "addr:postcode": "63-700",
                "addr:city": "Krotoszyn",
                "addr:street": "Adama Mickiewicza",
                "addr:housenumber": "11",
                "addr:city:simc": 936931,
                "addr:street:sym_ul": 12734,
                "phone": "+48 668129574",
                "email": "sekretariat@policealnaszkola.eu",
                "website": "http:\/\/centrumeskulap.eu\/",
                "ref:regon": "302251010",
                "ref:vatin": "PL6211088756",
                "operator": "Wanda Kruszczy\u0144ska",
                "operator:type": "private",
                "fixme": "w zale\u017cno\u015bci od przedmiotu dzia\u0142alno\u015bci (np. amenity=training + training=*, amenity=dancing_school, amenity=language_school, amenity=music_school)"
            }
        },
        {
            "id": 122973,
            "type": "Feature",
            "geometry": {
                "type": "Point",
                "coordinates": [
                    17.43073,
                    51.6982
                ]
            },
            "properties": {
                "ref:rspo": 122973,
                "official_name": "Centrum Doskonalenia Nauczycieli \"Eskulap\" w Krotoszynie",
                "name": "Centrum Doskonalenia Nauczycieli \"Eskulap\" w Krotoszynie",
                "addr:postcode": "63-700",
                "addr:city": "Krotoszyn",
                "addr:street": "Adama Mickiewicza",
                "addr:housenumber": "11",
                "addr:city:simc": 936931,
                "addr:street:sym_ul": 12734,
                "phone": "+48 668129574",
                "email": "sekretariat@centrumeskulap.eu",
                "website": "http:\/\/centrumeskulap.eu\/",
                "ref:regon": "302716667",
                "operator": "Dane Do Uzupe\u0142nienia",
                "operator:type": "private",
                "amenity": "training"
            }
        },
        {
            "id": 123652,
            "type": "Feature",
            "geometry": {
                "type": "Point",
                "coordinates": [
                    17.43073,
                    51.69817
                ]
            },
            "properties": {
                "isced:level": "4",
                "ref:rspo": 123652,
                "official_name": "Policealna Szko\u0142a Ochrony Zdrowia \"Eskulap\" w Krotoszynie",
                "name": "Policealna Szko\u0142a Ochrony Zdrowia \"Eskulap\" w Krotoszynie",
                "addr:postcode": "63-700",
                "addr:city": "Krotoszyn",
                "addr:street": "Adama Mickiewicza",
                "addr:housenumber": "11",
                "addr:city:simc": 936931,
                "addr:street:sym_ul": 12734,
                "phone": "+48 627253275",
                "email": "policealnaszkola@gmail.com",
                "website": "http:\/\/policealnaszkola.eu",
                "ref:regon": "302779780",
                "ref:vatin": "PL6211088756",
                "operator": "Wanda Kruszczy\u0144ska",
                "operator:type": "private",
                "amenity": "college"
            }
        },
        {
            "id": 128834,
            "type": "Feature",
            "geometry": {
                "type": "Point",
                "coordinates": [
                    17.43073,
                    51.69814
                ]
            },
            "properties": {
                "ref:rspo": 128834,
                "official_name": "Ksi\u0105\u017cnica Pedagogiczna im.alfonsa Parczewskiego w Kaliszu Filia w Krotoszynie",
                "name": "Ksi\u0105\u017cnica Pedagogiczna im.alfonsa Parczewskiego w Kaliszu Filia w Krotoszynie",
                "addr:postcode": "63-700",
                "addr:city": "Krotoszyn",
                "addr:street": "Adama Mickiewicza",
                "addr:housenumber": "11",
                "addr:city:simc": 936931,
                "addr:street:sym_ul": 12734,
                "phone": "+48 627253473",
                "email": "kp.krotoszyn@kp.kalisz.pl",
                "website": "http:\/\/www.kp.kalisz.pl",
                "ref:regon": "694215000",
                "operator": "Wojew\u00f3dztwo Wielkopolskie",
                "operator:type": "government",
                "amenity": "library",
                "note": "Parent RSPO: 30916"
            }
        },
        {
            "id": 86317,
            "type": "Feature",
            "geometry": {
                "type": "Point",
                "coordinates": [
                    17.43073,
                    51.69811
                ]
            },
            "properties": {
                "ref:rspo": 86317,
                "official_name": "Centrum Kszta\u0142cenia Ustawicznego w Krotoszynie",
                "name": "Centrum Kszta\u0142cenia Ustawicznego w Krotoszynie",
                "addr:postcode": "63-700",
                "addr:city": "Krotoszyn",
                "addr:street": "Adama Mickiewicza",
                "addr:housenumber": "11",
                "addr:city:simc": 936931,
                "addr:street:sym_ul": 12734,
                "phone": "+48 627253275",
                "email": "zsp1krot@op.pl",
                "website": "http:\/\/zsp1krotoszyn.pl",
                "ref:regon": "300926432",
                "ref:vatin": "PL6211106218",
                "operator": "Powiat Krotoszy\u0144ski",
                "operator:type": "government",
                "amenity": "school",
                "fixme": "amenity=school lub amenity=college",
                "note": "Children RSPO: 87705;87763Parent RSPO: 40214"
            }
        },
        {
            "id": 88597,
            "type": "Feature",
            "geometry": {
                "type": "Point",
                "coordinates": [
                    17.43073,
                    51.69808
                ]
            },
            "properties": {
                "isced:level": "3",
                "ref:rspo": 88597,
                "official_name": "Technikum nr 1 im. Jana I J\u0119drzeja \u015aniadeckich w Krotoszynie",
                "name": "Technikum nr 1",
                "addr:postcode": "63-700",
                "addr:city": "Krotoszyn",
                "addr:street": "Adama Mickiewicza",
                "addr:housenumber": "11",
                "addr:city:simc": 936931,
                "addr:street:sym_ul": 12734,
                "phone": "+48 627253275",
                "email": "zsp1krot@op.pl",
                "website": "http:\/\/zsp1krotoszyn.pl",
                "ref:regon": "251537145",
                "operator": "Powiat Krotoszy\u0144ski",
                "operator:type": "government",
                "amenity": "school",
                "note": "Parent RSPO: 40214"
            }
        },
        {
            "id": 88659,
            "type": "Feature",
            "geometry": {
                "type": "Point",
                "coordinates": [
                    17.43073,
                    51.69805
                ]
            },
            "properties": {
                "isced:level": "4",
                "ref:rspo": 88659,
                "official_name": "Szko\u0142a Policealna nr 1 w Krotoszynie",
                "name": "Szko\u0142a Policealna nr 1 w Krotoszynie",
                "addr:postcode": "63-700",
                "addr:city": "Krotoszyn",
                "addr:street": "Adama Mickiewicza",
                "addr:housenumber": "11",
                "addr:city:simc": 936931,
                "addr:street:sym_ul": 12734,
                "phone": "+48 627253275",
                "email": "zsp1krot@op.pl",
                "website": "http:\/\/zsp1krotoszyn.pl",
                "ref:regon": "251537197",
                "operator": "Powiat Krotoszy\u0144ski",
                "operator:type": "government",
                "amenity": "college",
                "note": "Parent RSPO: 40214"
            }
        },
        {
            "id": 88721,
            "type": "Feature",
            "geometry": {
                "type": "Point",
                "coordinates": [
                    17.43073,
                    51.69802
                ]
            },
            "properties": {
                "ref:rspo": 88721,
                "official_name": "Szkolne Schronisko M\u0142odzie\u017cowe w Krotoszynie",
                "name": "Szkolne Schronisko M\u0142odzie\u017cowe w Krotoszynie",
                "addr:postcode": "63-700",
                "addr:city": "Krotoszyn",
                "addr:street": "Adama Mickiewicza",
                "addr:housenumber": "11",
                "addr:city:simc": 936931,
                "addr:street:sym_ul": 12734,
                "phone": "+48 627253275",
                "email": "zsp1krot@op.pl",
                "website": "http:\/\/zsp1krotoszyn.pl",
                "ref:regon": "300926640",
                "operator": "Powiat Krotoszy\u0144ski",
                "operator:type": "government",
                "tourism": "hostel",
                "note": "Parent RSPO: 40214"
            }
        },
        {
            "id": 272607,
            "type": "Feature",
            "geometry": {
                "type": "Point",
                "coordinates": [
                    17.43073,
                    51.69799
                ]
            },
            "properties": {
                "isced:level": "3",
                "ref:rspo": 272607,
                "official_name": "Bran\u017cowa Szko\u0142a I Stopnia nr 4 w Krotoszynie",
                "name": "Bran\u017cowa Szko\u0142a I Stopnia nr 4 w Krotoszynie",
                "addr:postcode": "63-700",
                "addr:city": "Krotoszyn",
                "addr:street": "Adama Mickiewicza",
                "addr:housenumber": "11",
                "addr:city:simc": 936931,
                "addr:street:sym_ul": 12734,
                "phone": "+48 627253275",
                "email": "zsp1krot@op.pl",
                "website": "http:\/\/zsp1krotoszyn.pl",
                "ref:regon": "384268707",
                "operator": "Powiat Krotoszy\u0144ski",
                "operator:type": "government",
                "amenity": "school",
                "note": "Parent RSPO: 40214"
            }
        },
        {
            "id": 87705,
            "type": "Feature",
            "geometry": {
                "type": "Point",
                "coordinates": [
                    17.43073,
                    51.69796
                ]
            },
            "properties": {
                "isced:level": "3",
                "ref:rspo": 87705,
                "official_name": "Iv Liceum Og\u00f3lnokszta\u0142c\u0105ce dla Doros\u0142ych w Krotoszynie",
                "name": "Iv Liceum Og\u00f3lnokszta\u0142c\u0105ce dla Doros\u0142ych w Krotoszynie",
                "addr:postcode": "63-700",
                "addr:city": "Krotoszyn",
                "addr:street": "Adama Mickiewicza",
                "addr:housenumber": "11",
                "addr:city:simc": 936931,
                "addr:street:sym_ul": 12734,
                "phone": "+48 627253275",
                "email": "zsp1krot@op.pl",
                "website": "http:\/\/zsp1krotoszyn.pl",
                "ref:regon": "300657015",
                "operator": "Powiat Krotoszy\u0144ski",
                "operator:type": "government",
                "amenity": "school",
                "note": "Parent RSPO: 86317"
            }
        },
        {
            "id": 87763,
            "type": "Feature",
            "geometry": {
                "type": "Point",
                "coordinates": [
                    17.43073,
                    51.69793
                ]
            },
            "properties": {
                "isced:level": "4",
                "ref:rspo": 87763,
                "official_name": "Szko\u0142a Policealna nr 2 w Krotoszynie",
                "name": "Szko\u0142a Policealna nr 2 w Krotoszynie",
                "addr:postcode": "63-700",
                "addr:city": "Krotoszyn",
                "addr:street": "Adama Mickiewicza",
                "addr:housenumber": "11",
                "addr:city:simc": 936931,
                "addr:street:sym_ul": 12734,
                "phone": "+48 627253275",
                "email": "zsp1krot@op.pl",
                "website": "http:\/\/zsp1krotoszyn.pl",
                "ref:regon": "251537263",
                "operator": "Powiat Krotoszy\u0144ski",
                "operator:type": "government",
                "amenity": "college",
                "note": "Parent RSPO: 86317"
            }
        },
        {
            "id": 123341,
            "type": "Feature",
            "geometry": {
                "type": "Point",
                "coordinates": [
                    17.4295699,
                    51.69839
                ]
            },
            "properties": {
                "isced:level": "3",
                "ref:rspo": 123341,
                "official_name": "Erudio Liceum Og\u00f3lnokszta\u0142c\u0105ce dla Doros\u0142ych w Krotoszynie",
                "name": "Erudio Liceum Og\u00f3lnokszta\u0142c\u0105ce dla Doros\u0142ych w Krotoszynie",
                "addr:postcode": "63-700",
                "addr:city": "Krotoszyn",
                "addr:street": "Adama Mickiewicza",
                "addr:housenumber": "9",
                "addr:city:simc": 936931,
                "addr:street:sym_ul": 12734,
                "phone": "+48 625087175",
                "email": "gimnazjum@holding.edu.pl",
                "ref:regon": "302754834",
                "operator": "Holding Edukacyjny Sp\u00f3\u0142ka Z Ograniczon\u0105 Odpowiedzialno\u015bci\u0105",
                "operator:type": "private",
                "amenity": "school"
            }
        },
        {
            "id": 262337,
            "type": "Feature",
            "geometry": {
                "type": "Point",
                "coordinates": [
                    17.4295699,
                    51.69836
                ]
            },
            "properties": {
                "isced:level": "1;2",
                "ref:rspo": 262337,
                "official_name": "Szko\u0142a Podstawowa z Oddzia\u0142ami Przysposabiaj\u0105cymi do Pracy w Krotoszynie",
                "name": "Szko\u0142a Podstawowa z Oddzia\u0142ami Przysposabiaj\u0105cymi do Pracy w Krotoszynie",
                "addr:postcode": "63-700",
                "addr:city": "Krotoszyn",
                "addr:street": "Adama Mickiewicza",
                "addr:housenumber": "9",
                "addr:city:simc": 936931,
                "addr:street:sym_ul": 12734,
                "phone": "+48 625087475",
                "email": "gimnazjum@holding.edu.pl",
                "website": "http:\/\/www.gimnazjum.holding.edu.pl",
                "ref:regon": "367993637",
                "operator": "Holding Edukacyjny Sp\u00f3\u0142ka Z Ograniczon\u0105 Odpowiedzialno\u015bci\u0105",
                "operator:type": "private",
                "amenity": "school"
            }
        },
        {
            "id": 271969,
            "type": "Feature",
            "geometry": {
                "type": "Point",
                "coordinates": [
                    17.4295699,
                    51.698330000000006
                ]
            },
            "properties": {
                "isced:level": "3",
                "ref:rspo": 271969,
                "official_name": "Fachowiec Bran\u017cowa Szko\u0142a I Stopnia w Krotoszynie",
                "name": "Fachowiec Bran\u017cowa Szko\u0142a I Stopnia w Krotoszynie",
                "addr:postcode": "63-700",
                "addr:city": "Krotoszyn",
                "addr:street": "Adama Mickiewicza",
                "addr:housenumber": "9",
                "addr:city:simc": 936931,
                "addr:street:sym_ul": 12734,
                "phone": "+48 625087175",
                "email": "gimnazjum@holding.edu.pl",
                "ref:regon": "383840170",
                "operator": "Holding Edukacyjny Sp\u00f3\u0142ka Z Ograniczon\u0105 Odpowiedzialno\u015bci\u0105",
                "operator:type": "private",
                "amenity": "school"
            }
        },
        {
            "id": 105450,
            "type": "Feature",
            "geometry": {
                "type": "Point",
                "coordinates": [
                    17.44905,
                    51.69953
                ]
            },
            "properties": {
                "ref:rspo": 105450,
                "official_name": "Niepubliczne Przedszkole \"U Zuzi\" w Krotoszynie",
                "name": "Niepubliczne Przedszkole \"U Zuzi\" w Krotoszynie",
                "addr:postcode": "63-700",
                "addr:city": "Krotoszyn",
                "addr:street": "Zielona",
                "addr:housenumber": "4",
                "addr:city:simc": 936931,
                "addr:street:sym_ul": 26081,
                "phone": "+48 692779118",
                "email": "teresa-niskiewicz@o2.pl",
                "ref:regon": "302305600",
                "ref:vatin": "PL6211318883",
                "operator": "Teresa Ni\u015bkiewicz",
                "operator:type": "private",
                "amenity": "kindergarten"
            }
        },
        {
            "id": 64945,
            "type": "Feature",
            "geometry": {
                "type": "Point",
                "coordinates": [
                    17.42346,
                    51.70257
                ]
            },
            "properties": {
                "ref:rspo": 64945,
                "official_name": "Centrum Kszta\u0142cenia Ustawicznego \"Profesja\" w Krotoszynie",
                "name": "Centrum Kszta\u0142cenia Ustawicznego \"Profesja\" w Krotoszynie",
                "addr:postcode": "63-700",
                "addr:city": "Krotoszyn",
                "addr:street": "Osadnicza",
                "addr:housenumber": "2A",
                "addr:city:simc": 936931,
                "addr:street:sym_ul": 15227,
                "phone": "+48 797001656",
                "email": "sekretariat@szkolaprofesja.pl",
                "website": "http:\/\/szkolaprofesja.pl",
                "ref:regon": "302262440",
                "ref:vatin": "PL6211009739",
                "operator": "Dariusz Zaremba",
                "operator:type": "private",
                "fixme": "w zale\u017cno\u015bci od przedmiotu dzia\u0142alno\u015bci (np. amenity=training + training=*, amenity=dancing_school, amenity=language_school, amenity=music_school)"
            }
        },
        {
            "id": 272010,
            "type": "Feature",
            "geometry": {
                "type": "Point",
                "coordinates": [
                    17.42346,
                    51.70254
                ]
            },
            "properties": {
                "ref:rspo": 272010,
                "official_name": "Zesp\u00f3\u0142 Szk\u00f3\u0142 Technicznych I Og\u00f3lnokszta\u0142c\u0105cych w Krotoszynie",
                "name": "Zesp\u00f3\u0142 Szk\u00f3\u0142 Technicznych I Og\u00f3lnokszta\u0142c\u0105cych w Krotoszynie",
                "addr:postcode": "63-700",
                "addr:city": "Krotoszyn",
                "addr:street": "Osadnicza",
                "addr:housenumber": "2a",
                "addr:city:simc": 936931,
                "addr:street:sym_ul": 15227,
                "phone": "+48 798397222",
                "email": "sekretariat@szkolakrotoszyn.pl",
                "website": "http:\/\/szkolakrotoszyn.pl",
                "ref:regon": "383871324",
                "operator": "Dariusz Zaremba",
                "operator:type": "private",
                "landuse": "education",
                "fixme": "amenity=school, amenity=college albo landuse=education w zale\u017cno\u015bci od tego, jakie plac\u00f3wki wchodz\u0105 w sk\u0142ad zespo\u0142u. Sprawd\u017a, kiedy stosowa\u0107 amenity=* a kiedy landuse=education.",
                "note": "Children RSPO: 75193;75201;75202;75203;269991;269992;271306;274805"
            }
        },
        {
            "id": 75193,
            "type": "Feature",
            "geometry": {
                "type": "Point",
                "coordinates": [
                    17.42346,
                    51.702510000000004
                ]
            },
            "properties": {
                "isced:level": "3",
                "ref:rspo": 75193,
                "official_name": "Liceum Og\u00f3lnokszta\u0142c\u0105ce dla Doros\u0142ych w Krotoszynie",
                "name": "Liceum Og\u00f3lnokszta\u0142c\u0105ce dla Doros\u0142ych w Krotoszynie",
                "addr:postcode": "63-700",
                "addr:city": "Krotoszyn",
                "addr:street": "Osadnicza",
                "addr:housenumber": "2A",
                "addr:city:simc": 936931,
                "addr:street:sym_ul": 15227,
                "phone": "+48 797001656",
                "email": "sekretariat@szkolaprofesja.pl",
                "website": "http:\/\/szkolaprofesja.pl",
                "ref:regon": "302262290",
                "operator": "Dariusz Zaremba",
                "operator:type": "private",
                "amenity": "school",
                "note": "Parent RSPO: 272010"
            }
        },
        {
            "id": 75201,
            "type": "Feature",
            "geometry": {
                "type": "Point",
                "coordinates": [
                    17.42346,
                    51.70248
                ]
            },
            "properties": {
                "isced:level": "4",
                "ref:rspo": 75201,
                "official_name": "Policealna Szko\u0142a Zawodowa dla Doros\u0142ych w Krotoszynie",
                "name": "Policealna Szko\u0142a Zawodowa dla Doros\u0142ych w Krotoszynie",
                "addr:postcode": "63-700",
                "addr:city": "Krotoszyn",
                "addr:street": "Osadnicza",
                "addr:housenumber": "2A",
                "addr:city:simc": 936931,
                "addr:street:sym_ul": 15227,
                "phone": "+48 797001656",
                "email": "sekretariat@szkolaprofesja.pl",
                "website": "http:\/\/szkolaprofesja.pl",
                "ref:regon": "302262373",
                "operator": "Dariusz Zaremba",
                "operator:type": "private",
                "amenity": "college",
                "note": "Parent RSPO: 272010"
            }
        },
        {
            "id": 75202,
            "type": "Feature",
            "geometry": {
                "type": "Point",
                "coordinates": [
                    17.42346,
                    51.70245
                ]
            },
            "properties": {
                "isced:level": "4",
                "ref:rspo": 75202,
                "official_name": "Policealna Szko\u0142a Opieki Medycznej w Krotoszynie",
                "name": "Policealna Szko\u0142a Opieki Medycznej w Krotoszynie",
                "addr:postcode": "63-700",
                "addr:city": "Krotoszyn",
                "addr:street": "Osadnicza",
                "addr:housenumber": "2A",
                "addr:city:simc": 936931,
                "addr:street:sym_ul": 15227,
                "phone": "+48 797001656",
                "email": "sekretariat@szkolaprofesja.pl",
                "website": "http:\/\/szkolaprofesja.pl",
                "ref:regon": "302262350",
                "operator": "Dariusz Zaremba",
                "operator:type": "private",
                "amenity": "college",
                "note": "Parent RSPO: 272010"
            }
        },
        {
            "id": 75203,
            "type": "Feature",
            "geometry": {
                "type": "Point",
                "coordinates": [
                    17.42346,
                    51.702420000000004
                ]
            },
            "properties": {
                "isced:level": "4",
                "ref:rspo": 75203,
                "official_name": "Policealna Szko\u0142a Medyczna w Krotoszynie",
                "name": "Policealna Szko\u0142a Medyczna w Krotoszynie",
                "addr:postcode": "63-700",
                "addr:city": "Krotoszyn",
                "addr:street": "Osadnicza",
                "addr:housenumber": "2A",
                "addr:city:simc": 936931,
                "addr:street:sym_ul": 15227,
                "phone": "+48 797001656",
                "email": "sekretariat@szkolaprofesja.pl",
                "website": "http:\/\/szkolaprofesja.pl",
                "ref:regon": "302263912",
                "operator": "Dariusz Zaremba",
                "operator:type": "private",
                "amenity": "college",
                "note": "Parent RSPO: 272010"
            }
        },
        {
            "id": 269991,
            "type": "Feature",
            "geometry": {
                "type": "Point",
                "coordinates": [
                    17.42346,
                    51.70239
                ]
            },
            "properties": {
                "isced:level": "3",
                "ref:rspo": 269991,
                "official_name": "I Niepubliczne Liceum Og\u00f3lnokszta\u0142c\u0105ce dla M\u0142odzie\u017cy w Krotoszynie",
                "name": "I Niepubliczne Liceum Og\u00f3lnokszta\u0142c\u0105ce dla M\u0142odzie\u017cy w Krotoszynie",
                "addr:postcode": "63-700",
                "addr:city": "Krotoszyn",
                "addr:street": "Osadnicza",
                "addr:housenumber": "2a",
                "addr:city:simc": 936931,
                "addr:street:sym_ul": 15227,
                "phone": "+48 798397222",
                "email": "sekretariat@szkolakrotoszyn.pl",
                "website": "http:\/\/szkolakrotoszyn.pl",
                "ref:regon": "381954810",
                "operator": "Dariusz Zaremba",
                "operator:type": "private",
                "amenity": "school",
                "note": "Parent RSPO: 272010"
            }
        },
        {
            "id": 269992,
            "type": "Feature",
            "geometry": {
                "type": "Point",
                "coordinates": [
                    17.42346,
                    51.70236
                ]
            },
            "properties": {
                "isced:level": "3",
                "ref:rspo": 269992,
                "official_name": "I Niepubliczne Technikum dla M\u0142odzie\u017cy w Krotoszynie",
                "name": "I Niepubliczne Technikum dla M\u0142odzie\u017cy w Krotoszynie",
                "addr:postcode": "63-700",
                "addr:city": "Krotoszyn",
                "addr:street": "Osadnicza",
                "addr:housenumber": "2a",
                "addr:city:simc": 936931,
                "addr:street:sym_ul": 15227,
                "phone": "+48 798397222",
                "email": "sekretariat@szkolakrotoszyn.pl",
                "website": "http:\/\/szkolakrotoszyn.pl",
                "ref:regon": "381954840",
                "operator": "Dariusz Zaremba",
                "operator:type": "private",
                "amenity": "school",
                "note": "Parent RSPO: 272010"
            }
        },
        {
            "id": 271306,
            "type": "Feature",
            "geometry": {
                "type": "Point",
                "coordinates": [
                    17.42346,
                    51.70233
                ]
            },
            "properties": {
                "isced:level": "3",
                "ref:rspo": 271306,
                "official_name": "Niepubliczna Bran\u017cowa Szko\u0142a I Stopnia dla M\u0142odzie\u017cy w Krotoszynie",
                "name": "Niepubliczna Bran\u017cowa Szko\u0142a I Stopnia dla M\u0142odzie\u017cy w Krotoszynie",
                "addr:postcode": "63-700",
                "addr:city": "Krotoszyn",
                "addr:street": "Osadnicza",
                "addr:housenumber": "2a",
                "addr:city:simc": 936931,
                "addr:street:sym_ul": 15227,
                "phone": "+48 798397222",
                "email": "sekretariat@szkolakrotoszyn.pl",
                "website": "http:\/\/szkolakrotoszyn.pl",
                "ref:regon": "383281976",
                "operator": "Dariusz Zaremba",
                "operator:type": "private",
                "amenity": "school",
                "note": "Parent RSPO: 272010"
            }
        },
        {
            "id": 274805,
            "type": "Feature",
            "geometry": {
                "type": "Point",
                "coordinates": [
                    17.42346,
                    51.7023
                ]
            },
            "properties": {
                "isced:level": "3",
                "ref:rspo": 274805,
                "official_name": "Niepubliczna Bran\u017cowa Szko\u0142a II Stopnia w Krotoszynie",
                "name": "Niepubliczna Bran\u017cowa Szko\u0142a II Stopnia w Krotoszynie",
                "addr:postcode": "63-700",
                "addr:city": "Krotoszyn",
                "addr:street": "Osadnicza",
                "addr:housenumber": "2A",
                "addr:city:simc": 936931,
                "addr:street:sym_ul": 15227,
                "phone": "+48 798397222",
                "email": "sekretariat@szkolakrotoszyn.pl",
                "website": "http:\/\/szkolakrotoszyn.pl",
                "ref:regon": "386309190",
                "operator": "Dariusz Zaremba",
                "operator:type": "private",
                "amenity": "school",
                "note": "Parent RSPO: 272010"
            }
        },
        {
            "id": 105447,
            "type": "Feature",
            "geometry": {
                "type": "Point",
                "coordinates": [
                    17.41829,
                    51.70312
                ]
            },
            "properties": {
                "ref:rspo": 105447,
                "official_name": "Niepubliczne Przedszkole \"Smerfu\u015b\" w Krotoszynie",
                "name": "Niepubliczne Przedszkole \"Smerfu\u015b\" w Krotoszynie",
                "addr:postcode": "63-700",
                "addr:city": "Krotoszyn",
                "addr:street": "Wojciechowskiego",
                "addr:housenumber": "3",
                "addr:city:simc": 936931,
                "addr:street:sym_ul": 24585,
                "phone": "+48 604987318",
                "email": "haniagorna@wp.pl",
                "ref:regon": "302305622",
                "ref:vatin": "PL6211570335",
                "operator": "Niepubliczny Zak\u0142ad Podstawowej I Specjalistycznej Opieki Zdrowotnej \"Kol-Med\" S.c. Urszula G\u00f3rna,Hanna W\u0142odarczyk",
                "operator:type": "consortium",
                "amenity": "kindergarten"
            }
        },
        {
            "id": 109820,
            "type": "Feature",
            "geometry": {
                "type": "Point",
                "coordinates": [
                    17.43702,
                    51.70441
                ]
            },
            "properties": {
                "ref:rspo": 109820,
                "official_name": "Przedszkole nr 7 z Oddzia\u0142ami Integracyjnymi w Krotoszynie",
                "name": "Przedszkole nr 7 z Oddzia\u0142ami Integracyjnymi w Krotoszynie",
                "addr:postcode": "63-700",
                "addr:city": "Krotoszyn",
                "addr:street": "Osiedle Korczaka",
                "addr:housenumber": "10",
                "addr:city:simc": 936931,
                "addr:street:sym_ul": 35056,
                "phone": "+48 627227737",
                "email": "p7@krotoszyn.pl",
                "ref:regon": "250510664",
                "ref:vatin": "PL6211777639",
                "operator": "Miasto I Gmina Krotoszyn",
                "operator:type": "government",
                "amenity": "kindergarten"
            }
        },
        {
            "id": 31580,
            "type": "Feature",
            "geometry": {
                "type": "Point",
                "coordinates": [
                    17.41963,
                    51.70563
                ]
            },
            "properties": {
                "isced:level": "1;2",
                "ref:rspo": 31580,
                "official_name": "Szko\u0142a Podstawowa nr 7 z Oddzia\u0142ami Integracyjnymi im. Henryka Jordana w Krotoszynie",
                "name": "Szko\u0142a Podstawowa nr 7 z Oddzia\u0142ami Integracyjnymi",
                "addr:postcode": "63-700",
                "addr:city": "Krotoszyn",
                "addr:street": "W\u0142adys\u0142awa Jagie\u0142\u0142y",
                "addr:housenumber": "4",
                "addr:city:simc": 936931,
                "addr:street:sym_ul": 24494,
                "phone": "+48 627252785",
                "email": "sp7@krotoszyn.pl",
                "website": "http:\/\/www.sp7.krotoszyn.pl",
                "ref:regon": "000693807",
                "operator": "Miasto I Gmina Krotoszyn",
                "operator:type": "government",
                "amenity": "school"
            }
        },
        {
            "id": 26814,
            "type": "Feature",
            "geometry": {
                "type": "Point",
                "coordinates": [
                    17.43418,
                    51.70653
                ]
            },
            "properties": {
                "isced:level": "1;2",
                "ref:rspo": 26814,
                "official_name": "Szko\u0142a Podstawowa nr 8 z Oddzia\u0142ami Dwuj\u0119zycznymi im. Marii Sk\u0142odowskiej- Curie w Krotoszynie",
                "name": "Szko\u0142a Podstawowa nr 8 z Oddzia\u0142ami Dwuj\u0119zycznymi",
                "addr:postcode": "63-700",
                "addr:city": "Krotoszyn",
                "addr:street": "23 Stycznia",
                "addr:housenumber": "20",
                "addr:city:simc": 936931,
                "addr:street:sym_ul": 21457,
                "phone": "+48 627226780",
                "email": "sp8@krotoszyn.pl",
                "website": "http:\/\/www.sp8.krotoszyn.pl",
                "ref:regon": "000693813",
                "ref:vatin": "PL6211777711",
                "operator": "Miasto I Gmina Krotoszyn",
                "operator:type": "government",
                "amenity": "school",
                "note": "Children RSPO: 92767"
            }
        },
        {
            "id": 35325,
            "type": "Feature",
            "geometry": {
                "type": "Point",
                "coordinates": [
                    17.60725,
                    51.71664
                ]
            },
            "properties": {
                "isced:level": "1;2",
                "ref:rspo": 35325,
                "official_name": "Szko\u0142a Podstawowa im. Rotmistrza Witolda Pileckiego w Orpiszewie",
                "name": "Szko\u0142a Podstawowa",
                "addr:postcode": "63-714",
                "addr:city": "Orpiszew",
                "addr:street": "Szkolna",
                "addr:housenumber": "6",
                "addr:city:simc": 202005,
                "addr:street:sym_ul": 21970,
                "phone": "+48 627212844",
                "email": "zs-orpiszew@krotoszyn.pl",
                "ref:regon": "001046790",
                "operator": "Miasto I Gmina Krotoszyn",
                "operator:type": "government",
                "amenity": "school"
            }
        },
        {
            "id": 29456,
            "type": "Feature",
            "geometry": {
                "type": "Point",
                "coordinates": [
                    17.3784,
                    51.71743
                ]
            },
            "properties": {
                "isced:level": "1;2",
                "ref:rspo": 29456,
                "official_name": "Szko\u0142a Podstawowa im. Jana Brzechwy w Lutogniewie",
                "name": "Szko\u0142a Podstawowa",
                "addr:postcode": "63-700",
                "addr:city": "Lutogniew",
                "addr:street": "Krotoszy\u0144ska",
                "addr:housenumber": "150",
                "addr:city:simc": 201951,
                "addr:street:sym_ul": 9969,
                "phone": "+48 627211723",
                "email": "sp-lutogniew@krotoszyn.pl",
                "ref:regon": "001046783",
                "ref:vatin": "PL6211777757",
                "operator": "Miasto I Gmina Krotoszyn",
                "operator:type": "government",
                "amenity": "school"
            }
        },
        {
            "id": 29645,
            "type": "Feature",
            "geometry": {
                "type": "Point",
                "coordinates": [
                    17.48483,
                    51.72219
                ]
            },
            "properties": {
                "isced:level": "1;2",
                "ref:rspo": 29645,
                "official_name": "Szko\u0142a Podstawowa im. Biskupa Micha\u0142a Kozala w Kobiernie",
                "name": "Szko\u0142a Podstawowa",
                "addr:postcode": "63-714",
                "addr:city": "Kobierno",
                "addr:street": "Kobierska",
                "addr:housenumber": "3",
                "addr:city:simc": 201916,
                "addr:street:sym_ul": 8689,
                "phone": "+48 627211576",
                "email": "sp-kobierno@krotoszyn.pl",
                "ref:regon": "001046777",
                "ref:vatin": "PL6211777786",
                "operator": "Miasto I Gmina Krotoszyn",
                "operator:type": "government",
                "amenity": "school"
            }
        },
        {
            "id": 29455,
            "type": "Feature",
            "geometry": {
                "type": "Point",
                "coordinates": [
                    17.43673,
                    51.73342
                ]
            },
            "properties": {
                "isced:level": "1;2",
                "ref:rspo": 29455,
                "official_name": "Szko\u0142a Podstawowa w Roszkach",
                "name": "Szko\u0142a Podstawowa w Roszkach",
                "addr:postcode": "63-714",
                "addr:city": "Roszki",
                "addr:street": "Krotoszy\u0144ska",
                "addr:housenumber": "10",
                "addr:city:simc": 202040,
                "addr:street:sym_ul": 9969,
                "phone": "+48 627211418",
                "email": "sp-roszki@krotoszyn.pl",
                "website": "http:\/\/sp-roszki.krotoszyn.pl",
                "ref:regon": "001171608",
                "ref:vatin": "PL6211777734",
                "operator": "Miasto I Gmina Krotoszyn",
                "operator:type": "government",
                "amenity": "school"
            }
        },
        {
            "id": 31565,
            "type": "Feature",
            "geometry": {
                "type": "Point",
                "coordinates": [
                    17.43673,
                    51.73339
                ]
            },
            "properties": {
                "ref:rspo": 31565,
                "official_name": "Pa\u0144stwowa Szko\u0142a Muzyczna I St. w Krotoszynie",
                "name": "Pa\u0144stwowa Szko\u0142a Muzyczna I St. w Krotoszynie",
                "addr:postcode": "63-700",
                "addr:city": "Krotoszyn",
                "addr:street": "Olimpijska",
                "addr:housenumber": "10",
                "addr:city:simc": 936931,
                "addr:street:sym_ul": 14989,
                "phone": "+48 627253441",
                "email": "poczta@psmkrotoszyn.pl",
                "website": "http:\/\/psmkrotoszyn.pl",
                "ref:regon": "000640188",
                "operator": "Ministerstwo Kultury I Dziedzictwa Narodowego",
                "operator:type": "government",
                "amenity": "music_school"
            }
        },
        {
            "id": 92767,
            "type": "Feature",
            "geometry": {
                "type": "Point",
                "coordinates": [
                    17.466859,
                    51.734626
                ]
            },
            "properties": {
                "isced:level": "1;2",
                "ref:rspo": 92767,
                "official_name": "Szko\u0142a Podstawowa nr 8 w Krotoszynie - Szko\u0142a Filialna w Brzozie",
                "name": "Szko\u0142a Podstawowa nr 8 w Krotoszynie - Szko\u0142a Filialna w Brzozie",
                "addr:postcode": "63-700",
                "addr:place": "Brzoza",
                "addr:housenumber": "1",
                "addr:city:simc": 201767,
                "phone": "+48 627211582",
                "email": "filiabrzoza@wp.pl",
                "ref:regon": "693813000",
                "ref:vatin": "PL6211777711",
                "operator": "Miasto I Gmina Krotoszyn",
                "operator:type": "government",
                "amenity": "school",
                "note": "Parent RSPO: 26814"
            }
        },
        {
            "id": 35328,
            "type": "Feature",
            "geometry": {
                "type": "Point",
                "coordinates": [
                    17.3848999,
                    51.74966
                ]
            },
            "properties": {
                "isced:level": "1;2",
                "ref:rspo": 35328,
                "official_name": "Szko\u0142a Podstawowa im. Jana Paw\u0142a II w Benicach",
                "name": "Szko\u0142a Podstawowa",
                "addr:postcode": "63-700",
                "addr:city": "Benice",
                "addr:street": "Armii Krajowej",
                "addr:housenumber": "9",
                "addr:city:simc": 201709,
                "addr:street:sym_ul": 432,
                "phone": "+48 627212624",
                "email": "sp-benice@krotoszyn.pl",
                "website": "http:\/\/www.sp-benice.krotoszyn.pl",
                "ref:regon": "001171577",
                "operator": "Miasto I Gmina Krotoszyn",
                "operator:type": "government",
                "amenity": "school"
            }
        }
    ]
}