{
    "type": "FeatureCollection",
    "features": [
        {
            "id": 79343,
            "type": "Feature",
            "geometry": {
                "type": "Point",
                "coordinates": [
                    17.5069001,
                    51.7492565
                ]
            },
            "properties": {
                "isced:level": "1;2",
                "ref:rspo": 79343,
                "official_name": "Szko\u0142a Filialna w D\u0105browie",
                "name": "Szko\u0142a Filialna w D\u0105browie",
                "addr:country": "PL",
                "addr:postcode": "63-708",
                "addr:place": "D\u0105browa",
                "addr:housenumber": "26",
                "addr:teryt:simc": 207818,
                "contact:phone": "+48 627221301",
                "contact:email": "sekretariat@szkolarozdrazew.edu.pl",
                "ref:regon": "251062630",
                "operator": "Gmina Rozdra\u017cew",
                "operator:type": "government",
                "amenity": "school",
                "note": "Parent RSPO: 61649"
            }
        },
        {
            "id": 79342,
            "type": "Feature",
            "geometry": {
                "type": "Point",
                "coordinates": [
                    17.4550437,
                    51.7587002
                ]
            },
            "properties": {
                "isced:level": "1;2",
                "ref:rspo": 79342,
                "official_name": "Szko\u0142a Filialna w Dzielicach",
                "name": "Szko\u0142a Filialna w Dzielicach",
                "addr:country": "PL",
                "addr:postcode": "63-708",
                "addr:place": "Dzielice",
                "addr:housenumber": "4",
                "addr:teryt:simc": 207824,
                "contact:phone": "+48 625803800",
                "contact:email": "sekretariat@szkolarozdrazew.edu.pl",
                "ref:regon": "251062630",
                "operator": "Gmina Rozdra\u017cew",
                "operator:type": "government",
                "amenity": "school",
                "note": "Parent RSPO: 61649"
            }
        },
        {
            "id": 61649,
            "type": "Feature",
            "geometry": {
                "type": "Point",
                "coordinates": [
                    17.50356,
                    51.77428
                ]
            },
            "properties": {
                "isced:level": "1;2",
                "ref:rspo": 61649,
                "official_name": "Szko\u0142a Podstawowa w Rozdra\u017cewie",
                "name": "Szko\u0142a Podstawowa w Rozdra\u017cewie",
                "addr:country": "PL",
                "addr:postcode": "63-708",
                "addr:city": "Rozdra\u017cew",
                "addr:street": "Krotoszy\u0144ska",
                "addr:housenumber": "42",
                "addr:teryt:simc": 207899,
                "addr:teryt:sym_ul": 9969,
                "contact:phone": "+48 627221301",
                "contact:email": "sekretariat@szkolarozdrazew.edu.pl",
                "contact:website": "http:\/\/szkolarozdrazew.edu.pl",
                "ref:regon": "251062630",
                "operator": "Gmina Rozdra\u017cew",
                "operator:type": "government",
                "amenity": "school",
                "note": "Children RSPO: 79341;79342;79343"
            }
        },
        {
            "id": 44705,
            "type": "Feature",
            "geometry": {
                "type": "Point",
                "coordinates": [
                    17.50606,
                    51.77964
                ]
            },
            "properties": {
                "ref:rspo": 44705,
                "official_name": "Publiczne Przedszkole w Rozdra\u017cewie",
                "name": "Publiczne Przedszkole w Rozdra\u017cewie",
                "addr:country": "PL",
                "addr:postcode": "63-708",
                "addr:city": "Rozdra\u017cew",
                "addr:street": "Krotoszy\u0144ska",
                "addr:housenumber": "9a",
                "addr:teryt:simc": 207899,
                "addr:teryt:sym_ul": 9969,
                "contact:phone": "+48 627221328",
                "contact:email": "danutabala66@wp.pl",
                "ref:regon": "251589060",
                "ref:vatin": "PL6211646239",
                "operator": "Gmina Rozdra\u017cew",
                "operator:type": "government",
                "amenity": "kindergarten"
            }
        },
        {
            "id": 269416,
            "type": "Feature",
            "geometry": {
                "type": "Point",
                "coordinates": [
                    17.50541,
                    51.78064
                ]
            },
            "properties": {
                "ref:rspo": 269416,
                "official_name": "Przedszkole Montessori",
                "name": "Przedszkole Montessori",
                "addr:country": "PL",
                "addr:postcode": "63-708",
                "addr:city": "Rozdra\u017cew",
                "addr:street": "Rynek",
                "addr:housenumber": "3",
                "addr:teryt:simc": 207899,
                "addr:teryt:sym_ul": 19253,
                "contact:phone": "+48 502360866",
                "contact:email": "papierska@wp.pl",
                "ref:regon": "381475854",
                "operator": "Stowarzyszenie Edukacyjne Integracja - Oddzia\u0142 W Krotoszynie",
                "operator:type": "ngo",
                "amenity": "kindergarten"
            }
        },
        {
            "id": 61647,
            "type": "Feature",
            "geometry": {
                "type": "Point",
                "coordinates": [
                    17.566513,
                    51.8122149
                ]
            },
            "properties": {
                "isced:level": "1;2",
                "ref:rspo": 61647,
                "official_name": "Szko\u0142a Podstawowa w Nowej Wsi",
                "name": "Szko\u0142a Podstawowa w Nowej Wsi",
                "addr:country": "PL",
                "addr:postcode": "63-708",
                "addr:place": "Nowa Wie\u015b",
                "addr:housenumber": "36",
                "addr:teryt:simc": 207876,
                "contact:phone": "+48 627221905",
                "contact:email": "zsp_nowa_wies@onet.pl",
                "contact:website": "https:\/\/nowawies.szkola.pl\/",
                "ref:regon": "001172016",
                "operator": "Gmina Rozdra\u017cew",
                "operator:type": "government",
                "amenity": "school"
            }
        },
        {
            "id": 79341,
            "type": "Feature",
            "geometry": {
                "type": "Point",
                "coordinates": [
                    17.51645,
                    51.8151279
                ]
            },
            "properties": {
                "isced:level": "1;2",
                "ref:rspo": 79341,
                "official_name": "Szko\u0142a Filialna w Gr\u0119bowie",
                "name": "Szko\u0142a Filialna w Gr\u0119bowie",
                "addr:country": "PL",
                "addr:postcode": "63-708",
                "addr:place": "Gr\u0119b\u00f3w",
                "addr:housenumber": "33",
                "addr:teryt:simc": 207847,
                "contact:phone": "+48 627221368",
                "contact:email": "sekretariat@szkolarozdrazew.edu.pl",
                "ref:regon": "251062630",
                "operator": "Gmina Rozdra\u017cew",
                "operator:type": "government",
                "amenity": "school",
                "note": "Parent RSPO: 61649"
            }
        },
        {
            "id": 44708,
            "type": "Feature",
            "geometry": {
                "type": "Point",
                "coordinates": [
                    17.5707248,
                    51.8154069
                ]
            },
            "properties": {
                "ref:rspo": 44708,
                "official_name": "Publiczne Przedszkole w Nowej Wsi",
                "name": "Publiczne Przedszkole w Nowej Wsi",
                "addr:country": "PL",
                "addr:postcode": "63-708",
                "addr:place": "Nowa Wie\u015b",
                "addr:housenumber": "48",
                "addr:teryt:simc": 207876,
                "contact:phone": "+48 627222392",
                "contact:email": "przedszkolenowawies@tlen.pl",
                "contact:website": "http:\/\/www.ppnowawies.superszkolna.pl",
                "ref:regon": "251589076",
                "ref:vatin": "PL6211777579",
                "operator": "Gmina Rozdra\u017cew",
                "operator:type": "government",
                "amenity": "kindergarten"
            }
        }
    ]
}