{
    "type": "FeatureCollection",
    "features": [
        {
            "id": 262361,
            "type": "Feature",
            "geometry": {
                "type": "Point",
                "coordinates": [
                    21.5438699,
                    50.88612
                ]
            },
            "properties": {
                "ref:rspo": 262361,
                "official_name": "Zesp\u00f3\u0142 Szkolno - Przedszkolny w Janiku",
                "name": "Zesp\u00f3\u0142 Szkolno - Przedszkolny w Janiku",
                "addr:country": "PL",
                "addr:postcode": "27-415",
                "addr:city": "Janik",
                "addr:street": "ul. Szkolna",
                "addr:housenumber": "21",
                "addr:teryt:simc": 21970,
                "addr:teryt:sym_ul": 247120,
                "contact:phone": "+48 412611225",
                "contact:email": "sekretariat@zspjanik.pl",
                "ref:regon": "367993778",
                "operator": "Gmina Kun\u00f3w",
                "operator:type": "government",
                "landuse": "education",
                "fixme": "amenity=school, amenity=college albo landuse=education w zale\u017cno\u015bci od tego, jakie plac\u00f3wki wchodz\u0105 w sk\u0142ad zespo\u0142u. Sprawd\u017a, kiedy stosowa\u0107 amenity=* a kiedy landuse=education.",
                "note": "Children RSPO: 85087;262258"
            }
        },
        {
            "id": 85087,
            "type": "Feature",
            "geometry": {
                "type": "Point",
                "coordinates": [
                    21.5438699,
                    50.886089999999996
                ]
            },
            "properties": {
                "isced:level": "1;2",
                "ref:rspo": 85087,
                "official_name": "Publiczna Szko\u0142a Podstawowa w Janiku",
                "name": "Publiczna Szko\u0142a Podstawowa w Janiku",
                "addr:country": "PL",
                "addr:postcode": "27-415",
                "addr:city": "Janik",
                "addr:street": "ul. Szkolna",
                "addr:housenumber": "21",
                "addr:teryt:simc": 21970,
                "addr:teryt:sym_ul": 247120,
                "contact:phone": "+48 412611225",
                "contact:email": "sekretariat@zspjanik.pl",
                "contact:website": "http:\/\/www.pspjanik.edupage.org",
                "ref:regon": "001215613",
                "ref:vatin": "PL6611653473",
                "operator": "Gmina Kun\u00f3w",
                "operator:type": "government",
                "amenity": "school",
                "note": "Parent RSPO: 262361"
            }
        },
        {
            "id": 262258,
            "type": "Feature",
            "geometry": {
                "type": "Point",
                "coordinates": [
                    21.5438699,
                    50.88606
                ]
            },
            "properties": {
                "ref:rspo": 262258,
                "official_name": "Publiczne Przedszkole w Janiku",
                "name": "Publiczne Przedszkole w Janiku",
                "addr:country": "PL",
                "addr:postcode": "27-415",
                "addr:city": "Janik",
                "addr:street": "ul. Szkolna",
                "addr:housenumber": "21",
                "addr:teryt:simc": 21970,
                "addr:teryt:sym_ul": 247120,
                "contact:phone": "+48 412611225",
                "contact:email": "sekretariat@zspjanik.pl",
                "contact:website": "http:\/\/www.pspjanik.edupage.org",
                "ref:regon": "367993703",
                "operator": "Gmina Kun\u00f3w",
                "operator:type": "government",
                "amenity": "kindergarten",
                "note": "Parent RSPO: 262361"
            }
        },
        {
            "id": 88294,
            "type": "Feature",
            "geometry": {
                "type": "Point",
                "coordinates": [
                    21.28053,
                    50.95897
                ]
            },
            "properties": {
                "ref:rspo": 88294,
                "official_name": "Publiczne Przedszkole w Kunowie",
                "name": "Publiczne Przedszkole w Kunowie",
                "addr:country": "PL",
                "addr:postcode": "27-415",
                "addr:city": "Kun\u00f3w",
                "addr:street": "ul. Osiedle Dziewulskiego",
                "addr:housenumber": "5",
                "addr:teryt:simc": 53394,
                "addr:teryt:sym_ul": 947202,
                "contact:phone": "+48 412613070",
                "contact:email": "sekretariat@przedszkolekunow.pl",
                "contact:website": "http:\/\/www.przedszkolekunow.edupage.org",
                "ref:regon": "290013680",
                "ref:vatin": "PL6611653421",
                "operator": "Gmina Kun\u00f3w",
                "operator:type": "government",
                "amenity": "kindergarten"
            }
        },
        {
            "id": 272863,
            "type": "Feature",
            "geometry": {
                "type": "Point",
                "coordinates": [
                    21.33587,
                    50.96614
                ]
            },
            "properties": {
                "isced:level": "1;2",
                "ref:rspo": 272863,
                "official_name": "Publiczna Szko\u0142a Podstawowa w Wymys\u0142owie",
                "name": "Publiczna Szko\u0142a Podstawowa w Wymys\u0142owie",
                "addr:country": "PL",
                "addr:postcode": "27-415",
                "addr:city": "Wymys\u0142\u00f3w",
                "addr:street": "ul. Weso\u0142a",
                "addr:housenumber": "43",
                "addr:teryt:simc": 23884,
                "addr:teryt:sym_ul": 247500,
                "contact:phone": "+48 412624781",
                "contact:email": "wesola@szkolawymyslow.pl",
                "contact:website": "https:\/\/pspwymyslow.edupage.org\/",
                "ref:regon": "384317073",
                "ref:vatin": "PL6612378738",
                "operator": "Gmina Kun\u00f3w",
                "operator:type": "government",
                "amenity": "school"
            }
        },
        {
            "id": 88258,
            "type": "Feature",
            "geometry": {
                "type": "Point",
                "coordinates": [
                    21.31364,
                    50.97484
                ]
            },
            "properties": {
                "isced:level": "1;2",
                "ref:rspo": 88258,
                "official_name": "Publiczna Szko\u0142a Podstawowa im. Antoniego Hedy \u201eSzarego\u201d w Kunowie",
                "name": "Publiczna Szko\u0142a Podstawowa",
                "addr:country": "PL",
                "addr:postcode": "27-415",
                "addr:city": "Kun\u00f3w",
                "addr:street": "ul. Szkolna",
                "addr:housenumber": "1",
                "addr:teryt:simc": 21970,
                "addr:teryt:sym_ul": 947202,
                "contact:phone": "+48 412612790",
                "contact:email": "szkolna@szkolakunow.pl",
                "contact:website": "http:\/\/pspkunow.edupage.org",
                "ref:regon": "000270248",
                "ref:vatin": "PL6611653622",
                "operator": "Gmina Kun\u00f3w",
                "operator:type": "government",
                "amenity": "school"
            }
        },
        {
            "id": 279184,
            "type": "Feature",
            "geometry": {
                "type": "Point",
                "coordinates": [
                    21.25824,
                    50.980391
                ]
            },
            "properties": {
                "isced:level": "1;2",
                "ref:rspo": 279184,
                "official_name": "Publiczna Szko\u0142a Podstawowa im. Stanis\u0142awa Staszica w Nietulisku Du\u017cym",
                "name": "Publiczna Szko\u0142a Podstawowa",
                "addr:country": "PL",
                "addr:postcode": "27-415",
                "addr:place": "Nietulisko Du\u017ce",
                "addr:housenumber": "30",
                "addr:teryt:sym_ul": 247309,
                "contact:phone": "+48 412612105",
                "ref:regon": "520819111",
                "ref:vatin": "PL6611653444",
                "operator": "Gmina Kun\u00f3w",
                "operator:type": "government",
                "amenity": "school"
            }
        }
    ]
}