{
    "type": "FeatureCollection",
    "features": [
        {
            "id": 65283,
            "type": "Feature",
            "geometry": {
                "type": "Point",
                "coordinates": [
                    21.319391,
                    50.897801
                ]
            },
            "properties": {
                "isced:level": "1;2",
                "ref:rspo": 65283,
                "official_name": "Publiczna Szko\u0142a Podstawowa w Szwarszowicach",
                "name": "Publiczna Szko\u0142a Podstawowa w Szwarszowicach",
                "addr:postcode": "27-400",
                "addr:place": "Szwarszowice",
                "addr:housenumber": "20a",
                "addr:teryt:simc": 229984,
                "phone": "+48 413341677",
                "email": "pspszwarszowice@gmail.com",
                "website": "http:\/\/szwarszowice.biposwiata.pl",
                "ref:regon": "260648886",
                "ref:vatin": "PL6611665393",
                "operator": "Stowarzyszenie Przyjaci\u00f3\u0142 O\u015bwiaty W Szwarszowicach",
                "operator:type": "ngo",
                "amenity": "school"
            }
        },
        {
            "id": 79278,
            "type": "Feature",
            "geometry": {
                "type": "Point",
                "coordinates": [
                    21.319391,
                    50.897771
                ]
            },
            "properties": {
                "ref:rspo": 79278,
                "official_name": "Publiczne Przedszkole w Szwarszowicach",
                "name": "Publiczne Przedszkole w Szwarszowicach",
                "addr:postcode": "27-400",
                "addr:place": "Szwarszowice",
                "addr:housenumber": "20a",
                "addr:teryt:simc": 229984,
                "phone": "+48 413341677",
                "email": "pspszwarszowice@gmail.com",
                "ref:regon": "260650015",
                "ref:vatin": "PL6612367522",
                "operator": "Stowarzyszenie Przyjaci\u00f3\u0142 O\u015bwiaty W Szwarszowicach",
                "operator:type": "ngo",
                "amenity": "kindergarten"
            }
        },
        {
            "id": 61662,
            "type": "Feature",
            "geometry": {
                "type": "Point",
                "coordinates": [
                    21.43791,
                    50.9106
                ]
            },
            "properties": {
                "isced:level": "1;2",
                "ref:rspo": 61662,
                "official_name": "Publiczna Szko\u0142a Podstawowa im. Walentego Stefa\u0144skiego w Bodzechowie",
                "name": "Publiczna Szko\u0142a Podstawowa",
                "addr:postcode": "27-420",
                "addr:city": "Bodzech\u00f3w",
                "addr:street": "Szkolna",
                "addr:housenumber": "12",
                "addr:teryt:simc": 229205,
                "addr:teryt:sym_ul": 21970,
                "phone": "+48 412653649",
                "email": "zspbodzechow@gmail.com",
                "website": "http:\/\/zspbodzechow.pl",
                "ref:regon": "000558564",
                "ref:vatin": "PL6612371908",
                "operator": "Gmina Bodzech\u00f3w",
                "operator:type": "government",
                "amenity": "school"
            }
        },
        {
            "id": 80488,
            "type": "Feature",
            "geometry": {
                "type": "Point",
                "coordinates": [
                    21.43791,
                    50.91057
                ]
            },
            "properties": {
                "ref:rspo": 80488,
                "official_name": "Niepubliczne Przedszkole \u201eJa\u015b I Ma\u0142gosia\u201d w Bodzechowie",
                "name": "Niepubliczne Przedszkole \u201eJa\u015b I Ma\u0142gosia\u201d w Bodzechowie",
                "addr:postcode": "27-420",
                "addr:city": "Bodzech\u00f3w",
                "addr:street": "Szkolna",
                "addr:housenumber": "12",
                "addr:teryt:simc": 229205,
                "addr:teryt:sym_ul": 21970,
                "phone": "+48 412653649",
                "email": "npbodzechow@wp.pl",
                "ref:regon": "260648490",
                "ref:vatin": "PL6612301144",
                "operator": "Stowarzyszenie O\u015bwiatowe Wsi Bodzech\u00f3w \"Lisiny Bodzechowskie\"",
                "operator:type": "ngo",
                "amenity": "kindergarten"
            }
        },
        {
            "id": 82456,
            "type": "Feature",
            "geometry": {
                "type": "Point",
                "coordinates": [
                    21.36635,
                    50.91658
                ]
            },
            "properties": {
                "ref:rspo": 82456,
                "official_name": "Niepubliczne Przedszkole Przy Parafii \u015aw. Miko\u0142aja w Szewnie",
                "name": "Niepubliczne Przedszkole Przy Parafii \u015aw. Miko\u0142aja w Szewnie",
                "addr:postcode": "27-400",
                "addr:city": "Szewna",
                "addr:street": "Plac Ksi\u0119dza Marcina Popiela",
                "addr:housenumber": "6",
                "addr:teryt:simc": 229978,
                "addr:teryt:sym_ul": 40797,
                "phone": "+48 505547558",
                "email": "przedszkole.szewna@gmail.com",
                "ref:regon": "260650601",
                "ref:vatin": "PL6612322637",
                "operator": "Parafia Rzym.-Kat. Pw.\u015bwi\u0119tego Miko\u0142aja",
                "operator:type": "religious",
                "amenity": "kindergarten"
            }
        },
        {
            "id": 80409,
            "type": "Feature",
            "geometry": {
                "type": "Point",
                "coordinates": [
                    21.36853,
                    50.91809
                ]
            },
            "properties": {
                "ref:rspo": 80409,
                "official_name": "Zesp\u00f3\u0142 Szk\u00f3\u0142 Publicznych w Szewnie",
                "name": "Zesp\u00f3\u0142 Szk\u00f3\u0142 Publicznych w Szewnie",
                "addr:postcode": "27-400",
                "addr:city": "Szewna",
                "addr:street": "Langiewicza",
                "addr:housenumber": "3",
                "addr:teryt:simc": 229978,
                "addr:teryt:sym_ul": 10634,
                "phone": "+48 412656070",
                "email": "zspszewna@wp.pl",
                "website": "http:\/\/www.szewnasp.hekko.pl",
                "ref:regon": "260648484",
                "operator": "Gmina Bodzech\u00f3w",
                "operator:type": "government",
                "landuse": "education",
                "fixme": "amenity=school, amenity=college albo landuse=education w zale\u017cno\u015bci od tego, jakie plac\u00f3wki wchodz\u0105 w sk\u0142ad zespo\u0142u. Sprawd\u017a, kiedy stosowa\u0107 amenity=* a kiedy landuse=education.",
                "note": "Children RSPO: 90536;90543"
            }
        },
        {
            "id": 90536,
            "type": "Feature",
            "geometry": {
                "type": "Point",
                "coordinates": [
                    21.36853,
                    50.91806
                ]
            },
            "properties": {
                "isced:level": "1;2",
                "ref:rspo": 90536,
                "official_name": "Publiczna Szko\u0142a Podstawowa w Szewnie",
                "name": "Publiczna Szko\u0142a Podstawowa w Szewnie",
                "addr:postcode": "27-400",
                "addr:city": "Szewna",
                "addr:street": "Langiewicza",
                "addr:housenumber": "3",
                "addr:teryt:simc": 229978,
                "addr:teryt:sym_ul": 10634,
                "phone": "+48 412656070",
                "email": "zspszewna@wp.pl",
                "website": "http:\/\/szewnasp.hekko.pl",
                "ref:regon": "001190563",
                "ref:vatin": "PL6611665499",
                "operator": "Gmina Bodzech\u00f3w",
                "operator:type": "government",
                "amenity": "school",
                "note": "Parent RSPO: 80409"
            }
        },
        {
            "id": 90543,
            "type": "Feature",
            "geometry": {
                "type": "Point",
                "coordinates": [
                    21.36853,
                    50.91803
                ]
            },
            "properties": {
                "ref:rspo": 90543,
                "official_name": "Publiczne Przedszkole w Szewnie",
                "name": "Publiczne Przedszkole w Szewnie",
                "addr:postcode": "27-400",
                "addr:city": "Szewna",
                "addr:street": "Langiewicza",
                "addr:housenumber": "3",
                "addr:teryt:simc": 229978,
                "addr:teryt:sym_ul": 10634,
                "phone": "+48 412656070",
                "email": "zspszewna@wp.pl",
                "ref:regon": "290013957",
                "ref:vatin": "PL6611667506",
                "operator": "Gmina Bodzech\u00f3w",
                "operator:type": "government",
                "amenity": "kindergarten",
                "note": "Parent RSPO: 80409"
            }
        },
        {
            "id": 61875,
            "type": "Feature",
            "geometry": {
                "type": "Point",
                "coordinates": [
                    21.32593,
                    50.94444
                ]
            },
            "properties": {
                "isced:level": "1;2",
                "ref:rspo": 61875,
                "official_name": "Publiczna Szko\u0142a Podstawowa im. Jana Brzechwy w Chmielowie",
                "name": "Publiczna Szko\u0142a Podstawowa",
                "addr:postcode": "27-400",
                "addr:city": "Chmiel\u00f3w",
                "addr:street": "Spacerowa",
                "addr:housenumber": "2",
                "addr:teryt:simc": 229263,
                "addr:teryt:sym_ul": 20641,
                "phone": "+48 412600734",
                "email": "pspchmielow@gazeta.pl",
                "ref:regon": "001190600",
                "ref:vatin": "PL6611665341",
                "operator": "Gmina Bodzech\u00f3w",
                "operator:type": "government",
                "amenity": "school"
            }
        },
        {
            "id": 79143,
            "type": "Feature",
            "geometry": {
                "type": "Point",
                "coordinates": [
                    21.436512,
                    51.006609
                ]
            },
            "properties": {
                "ref:rspo": 79143,
                "official_name": "Zesp\u00f3\u0142 Szk\u00f3\u0142 Publicznych w Sarn\u00f3wku",
                "name": "Zesp\u00f3\u0142 Szk\u00f3\u0142 Publicznych w Sarn\u00f3wku",
                "addr:postcode": "27-400",
                "addr:place": "Sarn\u00f3wek Du\u017cy",
                "addr:housenumber": "11",
                "addr:teryt:simc": 229837,
                "phone": "+48 412620989",
                "email": "sarnowek@poczta.onet.pl",
                "website": "http:\/\/zspsarnowek.biposwiata.pl",
                "ref:regon": "260648165",
                "operator": "Gmina Bodzech\u00f3w",
                "operator:type": "government",
                "landuse": "education",
                "fixme": "amenity=school, amenity=college albo landuse=education w zale\u017cno\u015bci od tego, jakie plac\u00f3wki wchodz\u0105 w sk\u0142ad zespo\u0142u. Sprawd\u017a, kiedy stosowa\u0107 amenity=* a kiedy landuse=education.",
                "note": "Children RSPO: 87822;90522"
            }
        },
        {
            "id": 87822,
            "type": "Feature",
            "geometry": {
                "type": "Point",
                "coordinates": [
                    21.436512,
                    51.006578999999995
                ]
            },
            "properties": {
                "isced:level": "1;2",
                "ref:rspo": 87822,
                "official_name": "Publiczna Szko\u0142a Podstawowa im. Jana Paw\u0142a II w Sarn\u00f3wku",
                "name": "Publiczna Szko\u0142a Podstawowa",
                "addr:postcode": "27-400",
                "addr:place": "Sarn\u00f3wek Du\u017cy",
                "addr:housenumber": "11",
                "addr:teryt:simc": 229837,
                "phone": "+48 412620989",
                "email": "sarnowek@poczta.onet.pl",
                "website": "http:\/\/www.zspsarnowek.biposwiata.pl",
                "ref:regon": "001190586",
                "ref:vatin": "PL6611665335",
                "operator": "Gmina Bodzech\u00f3w",
                "operator:type": "government",
                "amenity": "school",
                "note": "Parent RSPO: 79143"
            }
        },
        {
            "id": 90522,
            "type": "Feature",
            "geometry": {
                "type": "Point",
                "coordinates": [
                    21.436512,
                    51.006549
                ]
            },
            "properties": {
                "ref:rspo": 90522,
                "official_name": "Publiczne Przedszkole w Sarn\u00f3wku",
                "name": "Publiczne Przedszkole w Sarn\u00f3wku",
                "addr:postcode": "27-400",
                "addr:place": "Sarn\u00f3wek Du\u017cy",
                "addr:housenumber": "11",
                "addr:teryt:simc": 229837,
                "phone": "+48 412620989",
                "email": "sarnowek@poczta.onet.pl",
                "ref:regon": "290013963",
                "ref:vatin": "PL6611667512",
                "operator": "Gmina Bodzech\u00f3w",
                "operator:type": "government",
                "amenity": "kindergarten",
                "note": "Parent RSPO: 79143"
            }
        }
    ]
}