{
    "type": "FeatureCollection",
    "features": [
        {
            "id": 8161,
            "type": "Feature",
            "geometry": {
                "type": "Point",
                "coordinates": [
                    21.39161,
                    50.92343
                ]
            },
            "properties": {
                "isced:level": "1;2",
                "ref:rspo": 8161,
                "official_name": "Publiczna Szko\u0142a Podstawowa Nr 3 im. Boles\u0142awa Chrobrego w Ostrowcu \u015awi\u0119tokrzyskim",
                "name": "Publiczna Szko\u0142a Podstawowa Nr 3",
                "addr:country": "PL",
                "addr:postcode": "27-400",
                "addr:city": "Ostrowiec \u015awi\u0119tokrzyski",
                "addr:street": "Niska",
                "addr:housenumber": "9",
                "addr:teryt:simc": 947308,
                "addr:teryt:sym_ul": 14264,
                "contact:phone": "+48 412654343",
                "contact:email": "psp3@ostrowiec.edu.pl",
                "contact:website": "http:\/\/www.psp3.ostrowiec.pl",
                "ref:regon": "000694959",
                "ref:vatin": "PL6611037030",
                "operator": "Miasto Ostrowiec \u015awi\u0119tokrzyski",
                "operator:type": "government",
                "amenity": "school"
            }
        },
        {
            "id": 7352,
            "type": "Feature",
            "geometry": {
                "type": "Point",
                "coordinates": [
                    21.39384,
                    50.9251999
                ]
            },
            "properties": {
                "ref:rspo": 7352,
                "official_name": "Przedszkole Publiczne Nr 5 w Ostrowcu \u015awi\u0119tokrzyskim",
                "name": "Przedszkole Publiczne Nr 5 w Ostrowcu \u015awi\u0119tokrzyskim",
                "addr:country": "PL",
                "addr:postcode": "27-400",
                "addr:city": "Ostrowiec \u015awi\u0119tokrzyski",
                "addr:street": "Jasna",
                "addr:housenumber": "4",
                "addr:teryt:simc": 947308,
                "addr:teryt:sym_ul": 7335,
                "contact:phone": "+48 412654242",
                "contact:email": "pp5@przedszkole.ostrowiec.pl",
                "contact:website": "http:\/\/przedszkole5.ostrowiec.pl\/",
                "ref:regon": "290530285",
                "ref:vatin": "PL6611507085",
                "operator": "Miasto Ostrowiec \u015awi\u0119tokrzyski",
                "operator:type": "government",
                "amenity": "kindergarten"
            }
        },
        {
            "id": 58866,
            "type": "Feature",
            "geometry": {
                "type": "Point",
                "coordinates": [
                    21.39211,
                    50.92654
                ]
            },
            "properties": {
                "ref:rspo": 58866,
                "official_name": "O\u015brodek Szkolenia Bezpiecze\u0144stwa I Higieny Pracy",
                "name": "O\u015brodek Szkolenia Bezpiecze\u0144stwa I Higieny Pracy",
                "addr:country": "PL",
                "addr:postcode": "27-400",
                "addr:city": "Ostrowiec \u015awi\u0119tokrzyski",
                "addr:street": "Sandomierska",
                "addr:housenumber": "40",
                "addr:teryt:simc": 947308,
                "addr:teryt:sym_ul": 19491,
                "contact:phone": "+48 608208160",
                "contact:email": "biuro@ebzbp.com",
                "contact:website": "http:\/\/www.ebzbp.com",
                "ref:regon": "260644486",
                "ref:vatin": "PL6611308954",
                "operator": "Pawe\u0142 Lisowski",
                "operator:type": "private",
                "fixme": "w zale\u017cno\u015bci od przedmiotu dzia\u0142alno\u015bci (np. amenity=training + training=*, amenity=dancing_school, amenity=language_school, amenity=music_school)"
            }
        },
        {
            "id": 8174,
            "type": "Feature",
            "geometry": {
                "type": "Point",
                "coordinates": [
                    21.39055,
                    50.92657
                ]
            },
            "properties": {
                "ref:rspo": 8174,
                "official_name": "Centrum Kszta\u0142cenia Ustawicznego w Ostrowcu \u015awi\u0119tokrzyskim",
                "name": "Centrum Kszta\u0142cenia Ustawicznego w Ostrowcu \u015awi\u0119tokrzyskim",
                "addr:country": "PL",
                "addr:postcode": "27-400",
                "addr:city": "Ostrowiec \u015awi\u0119tokrzyski",
                "addr:street": "Sandomierska",
                "addr:housenumber": "26A",
                "addr:teryt:simc": 947308,
                "addr:teryt:sym_ul": 19491,
                "contact:phone": "+48 412653467",
                "contact:email": "cku@ostrowiec.edu.pl",
                "contact:website": "http:\/\/www.ckuostrowiec.pl",
                "ref:regon": "292889228",
                "ref:vatin": "PL6612190503",
                "operator": "Miasto Ostrowiec \u015awi\u0119tokrzyski",
                "operator:type": "government",
                "amenity": "school",
                "fixme": "amenity=school lub amenity=college",
                "note": "Children RSPO: 15182;15184"
            }
        },
        {
            "id": 47474,
            "type": "Feature",
            "geometry": {
                "type": "Point",
                "coordinates": [
                    21.39055,
                    50.926539999999996
                ]
            },
            "properties": {
                "isced:level": "4",
                "ref:rspo": 47474,
                "official_name": "Policealne Studium Zawodowe Centrum Kszta\u0142cenia Zawodowego Ekspert",
                "name": "Policealne Studium Zawodowe Centrum Kszta\u0142cenia Zawodowego Ekspert",
                "addr:country": "PL",
                "addr:postcode": "27-400",
                "addr:city": "Ostrowiec \u015awi\u0119tokrzyski",
                "addr:street": "Sandomierska",
                "addr:housenumber": "26a",
                "addr:teryt:simc": 947308,
                "addr:teryt:sym_ul": 19491,
                "contact:phone": "+48 412480248",
                "contact:email": "chamera-ekspert@wp.pl",
                "contact:website": "http:\/\/www.szkola-ekspert.pl",
                "ref:regon": "260645480",
                "ref:vatin": "PL6611048022",
                "operator": "Jacek Chamera",
                "operator:type": "private",
                "amenity": "college"
            }
        },
        {
            "id": 125553,
            "type": "Feature",
            "geometry": {
                "type": "Point",
                "coordinates": [
                    21.39055,
                    50.92651
                ]
            },
            "properties": {
                "ref:rspo": 125553,
                "official_name": "Niepubliczna Poradnia Psychologiczno-Pedagogiczna Kropka",
                "name": "Niepubliczna Poradnia Psychologiczno-Pedagogiczna Kropka",
                "addr:country": "PL",
                "addr:postcode": "27-400",
                "addr:city": "Ostrowiec \u015awi\u0119tokrzyski",
                "addr:street": "Sandomierska",
                "addr:housenumber": "26a",
                "addr:teryt:simc": 947308,
                "addr:teryt:sym_ul": 19491,
                "contact:phone": "+48 507814334",
                "contact:email": "poradniakropka@vp.pl",
                "ref:regon": "260799310",
                "operator": "Aneta Zawadzka",
                "operator:type": "private",
                "healthcare": "counselling",
                "counselling_type": "education",
                "fixme": "w zale\u017cno\u015bci od przedmiotu dzia\u0142alno\u015bci (np. healthcare=counselling + counselling_type=education albo healthcare=psychotherapist)"
            }
        },
        {
            "id": 274014,
            "type": "Feature",
            "geometry": {
                "type": "Point",
                "coordinates": [
                    21.39055,
                    50.92648
                ]
            },
            "properties": {
                "ref:rspo": 274014,
                "official_name": "Centrum Kszta\u0142cenia Zawodowego \u201eEkspert\u201d w Ostrowcu \u015awi\u0119tokrzyskim",
                "name": "Centrum Kszta\u0142cenia Zawodowego \u201eEkspert\u201d w Ostrowcu \u015awi\u0119tokrzyskim",
                "addr:country": "PL",
                "addr:postcode": "27-400",
                "addr:city": "Ostrowiec \u015awi\u0119tokrzyski",
                "addr:street": "Sandomierska",
                "addr:housenumber": "26a",
                "addr:teryt:simc": 947308,
                "addr:teryt:sym_ul": 19491,
                "contact:phone": "+48 412480248",
                "contact:email": "biuro@szkola-ekspert.pl",
                "contact:website": "http:\/\/www.szkola-ekspert.pl",
                "ref:regon": "385015902",
                "operator": "Jacek Chamera",
                "operator:type": "private",
                "fixme": "w zale\u017cno\u015bci od przedmiotu dzia\u0142alno\u015bci (np. amenity=training + training=*, amenity=dancing_school, amenity=language_school, amenity=music_school) albo amenity=school, amenity=college, albo landuse=education w zale\u017cno\u015bci od tego, jakie plac\u00f3wki wchodz\u0105 w sk\u0142ad zespo\u0142u. Sprawd\u017a, kiedy stosowa\u0107 amenity=* a kiedy landuse=education."
            }
        },
        {
            "id": 15182,
            "type": "Feature",
            "geometry": {
                "type": "Point",
                "coordinates": [
                    21.39055,
                    50.926449999999996
                ]
            },
            "properties": {
                "isced:level": "3",
                "ref:rspo": 15182,
                "official_name": "Liceum Og\u00f3lnokszta\u0142c\u0105ce dla Doros\u0142ych w Ostrowcu \u015awi\u0119tokrzyskim",
                "name": "Liceum Og\u00f3lnokszta\u0142c\u0105ce dla Doros\u0142ych w Ostrowcu \u015awi\u0119tokrzyskim",
                "addr:country": "PL",
                "addr:postcode": "27-400",
                "addr:city": "Ostrowiec \u015awi\u0119tokrzyski",
                "addr:street": "Sandomierska",
                "addr:housenumber": "26A",
                "addr:teryt:simc": 947308,
                "addr:teryt:sym_ul": 19491,
                "contact:phone": "+48 412653467",
                "contact:email": "cku@ostrowiec.edu.pl",
                "contact:website": "http:\/\/www.ckuostrowiec.pl",
                "ref:regon": "292899422",
                "ref:vatin": "PL6612190503",
                "operator": "Miasto Ostrowiec \u015awi\u0119tokrzyski",
                "operator:type": "government",
                "amenity": "school",
                "note": "Parent RSPO: 8174"
            }
        },
        {
            "id": 15184,
            "type": "Feature",
            "geometry": {
                "type": "Point",
                "coordinates": [
                    21.39055,
                    50.92642
                ]
            },
            "properties": {
                "isced:level": "4",
                "ref:rspo": 15184,
                "official_name": "Szko\u0142a Policealna w Ostrowcu \u015awi\u0119tokrzyskim",
                "name": "Szko\u0142a Policealna w Ostrowcu \u015awi\u0119tokrzyskim",
                "addr:country": "PL",
                "addr:postcode": "27-400",
                "addr:city": "Ostrowiec \u015awi\u0119tokrzyski",
                "addr:street": "Sandomierska",
                "addr:housenumber": "26A",
                "addr:teryt:simc": 947308,
                "addr:teryt:sym_ul": 19491,
                "contact:phone": "+48 412653467",
                "contact:email": "cku@ostrowiec.edu.pl",
                "contact:website": "http:\/\/www.ckuostrowiec.pl",
                "ref:regon": "292899385",
                "ref:vatin": "PL6612190503",
                "operator": "Miasto Ostrowiec \u015awi\u0119tokrzyski",
                "operator:type": "government",
                "amenity": "college",
                "note": "Parent RSPO: 8174"
            }
        },
        {
            "id": 14379,
            "type": "Feature",
            "geometry": {
                "type": "Point",
                "coordinates": [
                    21.38561,
                    50.92848
                ]
            },
            "properties": {
                "ref:rspo": 14379,
                "official_name": "Zesp\u00f3\u0142 Szk\u00f3\u0142 Nr 3 w Ostrowcu \u015awi\u0119tokrzyskim",
                "name": "Zesp\u00f3\u0142 Szk\u00f3\u0142 Nr 3 w Ostrowcu \u015awi\u0119tokrzyskim",
                "addr:country": "PL",
                "addr:postcode": "27-400",
                "addr:city": "Ostrowiec \u015awi\u0119tokrzyski",
                "addr:street": "Sandomierska",
                "addr:housenumber": "2",
                "addr:teryt:simc": 947308,
                "addr:teryt:sym_ul": 19491,
                "contact:phone": "+48 412654581",
                "contact:email": "zshthm@poczta.onet.pl",
                "contact:website": "http:\/\/www.zs3ostrowiec.pl",
                "ref:regon": "292446695",
                "ref:vatin": "PL6611037001",
                "operator": "Powiat Ostrowiecki",
                "operator:type": "government",
                "landuse": "education",
                "fixme": "amenity=school, amenity=college albo landuse=education w zale\u017cno\u015bci od tego, jakie plac\u00f3wki wchodz\u0105 w sk\u0142ad zespo\u0142u. Sprawd\u017a, kiedy stosowa\u0107 amenity=* a kiedy landuse=education.",
                "note": "Children RSPO: 17445;17446"
            }
        },
        {
            "id": 17445,
            "type": "Feature",
            "geometry": {
                "type": "Point",
                "coordinates": [
                    21.38561,
                    50.92845
                ]
            },
            "properties": {
                "isced:level": "3",
                "ref:rspo": 17445,
                "official_name": "Technikum Nr 3 w Ostrowcu \u015awi\u0119tokrzyskim",
                "name": "Technikum Nr 3 w Ostrowcu \u015awi\u0119tokrzyskim",
                "addr:country": "PL",
                "addr:postcode": "27-400",
                "addr:city": "Ostrowiec \u015awi\u0119tokrzyski",
                "addr:street": "Sandomierska",
                "addr:housenumber": "2",
                "addr:teryt:simc": 947308,
                "addr:teryt:sym_ul": 19491,
                "contact:phone": "+48 412654581",
                "contact:email": "zshthm@poczta.onet.pl",
                "contact:website": "http:\/\/www.zs3ostrowiec.pl",
                "ref:regon": "292445951",
                "ref:vatin": "PL6611037001",
                "operator": "Powiat Ostrowiecki",
                "operator:type": "government",
                "amenity": "school",
                "note": "Parent RSPO: 14379"
            }
        },
        {
            "id": 17446,
            "type": "Feature",
            "geometry": {
                "type": "Point",
                "coordinates": [
                    21.38561,
                    50.92842
                ]
            },
            "properties": {
                "isced:level": "3",
                "ref:rspo": 17446,
                "official_name": "Bran\u017cowa Szko\u0142a I Stopnia Nr 3 w Ostrowcu \u015awi\u0119tokrzyskim",
                "name": "Bran\u017cowa Szko\u0142a I Stopnia Nr 3 w Ostrowcu \u015awi\u0119tokrzyskim",
                "addr:country": "PL",
                "addr:postcode": "27-400",
                "addr:city": "Ostrowiec \u015awi\u0119tokrzyski",
                "addr:street": "Sandomierska",
                "addr:housenumber": "2",
                "addr:teryt:simc": 947308,
                "addr:teryt:sym_ul": 19491,
                "contact:phone": "+48 412654581",
                "contact:email": "zshthm@poczta.onet.pl",
                "contact:website": "http:\/\/www.zs3ostrowiec.pl",
                "ref:regon": "292446689",
                "ref:vatin": "PL6611037001",
                "operator": "Powiat Ostrowiecki",
                "operator:type": "government",
                "amenity": "school",
                "note": "Parent RSPO: 14379"
            }
        },
        {
            "id": 127794,
            "type": "Feature",
            "geometry": {
                "type": "Point",
                "coordinates": [
                    21.35803,
                    50.92889
                ]
            },
            "properties": {
                "isced:level": "1;2",
                "ref:rspo": 127794,
                "official_name": "Szko\u0142a Podstawowa w Cz\u0119stocicach im. Kawaler\u00f3w Orderu U\u015bmiechu",
                "name": "Szko\u0142a Podstawowa w Cz\u0119stocicach",
                "addr:country": "PL",
                "addr:postcode": "27-400",
                "addr:city": "Ostrowiec \u015awi\u0119tokrzyski",
                "addr:street": "G\u00f3rna",
                "addr:housenumber": "3",
                "addr:teryt:simc": 947308,
                "addr:teryt:sym_ul": 5948,
                "contact:phone": "+48 412490101",
                "contact:email": "szkolaczestocice@onet.pl",
                "ref:regon": "361844356",
                "operator": "Stowarzyszenie Na Rzecz Szko\u0142y W Cz\u0119stocicach",
                "operator:type": "ngo",
                "amenity": "school"
            }
        },
        {
            "id": 133937,
            "type": "Feature",
            "geometry": {
                "type": "Point",
                "coordinates": [
                    21.35803,
                    50.92886
                ]
            },
            "properties": {
                "ref:rspo": 133937,
                "official_name": "Przedszkole \u201eS\u0142oneczny U\u015bmiech\u201d w Cz\u0119stocicach",
                "name": "Przedszkole \u201eS\u0142oneczny U\u015bmiech\u201d w Cz\u0119stocicach",
                "addr:country": "PL",
                "addr:postcode": "27-400",
                "addr:city": "Ostrowiec \u015awi\u0119tokrzyski",
                "addr:street": "G\u00f3rna",
                "addr:housenumber": "3",
                "addr:teryt:simc": 947308,
                "addr:teryt:sym_ul": 5948,
                "contact:phone": "+48 412490101",
                "contact:email": "szkolaczestocice@onet.pl",
                "contact:website": "http:\/\/www.szkolaczestocice.kylos.pl",
                "ref:regon": "367738684",
                "operator": "Stowarzyszenie Na Rzecz Szko\u0142y W Cz\u0119stocicach",
                "operator:type": "ngo",
                "amenity": "kindergarten"
            }
        },
        {
            "id": 8165,
            "type": "Feature",
            "geometry": {
                "type": "Point",
                "coordinates": [
                    21.42002,
                    50.93127
                ]
            },
            "properties": {
                "isced:level": "1;2",
                "ref:rspo": 8165,
                "official_name": "Publiczna Szko\u0142a Podstawowa Nr 9 im. Marsza\u0142ka J\u00f3zefa Pi\u0142sudskiego w Ostrowcu \u015awi\u0119tokrzyskim",
                "name": "Publiczna Szko\u0142a Podstawowa Nr 9",
                "addr:country": "PL",
                "addr:postcode": "27-400",
                "addr:city": "Ostrowiec \u015awi\u0119tokrzyski",
                "addr:street": "Niewiadoma",
                "addr:housenumber": "19",
                "addr:teryt:simc": 947308,
                "addr:teryt:sym_ul": 14235,
                "contact:phone": "+48 412652152",
                "contact:email": "psp9@ostrowiec.edu.pl",
                "contact:website": "http:\/\/www.psp9ostrowiec.edupage.org",
                "ref:regon": "000695002",
                "ref:vatin": "PL6611037099",
                "operator": "Miasto Ostrowiec \u015awi\u0119tokrzyski",
                "operator:type": "government",
                "amenity": "school"
            }
        },
        {
            "id": 27208,
            "type": "Feature",
            "geometry": {
                "type": "Point",
                "coordinates": [
                    21.42002,
                    50.931239999999995
                ]
            },
            "properties": {
                "isced:level": "3",
                "ref:rspo": 27208,
                "official_name": "Katolickie Liceum Og\u00f3lnokszta\u0142c\u0105ce im. Ks. Marcina Popiela w Ostrowcu \u015awi\u0119tokrzyskim",
                "name": "Katolickie Liceum Og\u00f3lnokszta\u0142c\u0105ce",
                "addr:country": "PL",
                "addr:postcode": "27-400",
                "addr:city": "Ostrowiec \u015awi\u0119tokrzyski",
                "addr:street": "Niewiadoma",
                "addr:housenumber": "19",
                "addr:teryt:simc": 947308,
                "addr:teryt:sym_ul": 14235,
                "contact:phone": "+48 412651934",
                "contact:email": "sekretariat.klo@gmail.com",
                "contact:website": "http:\/\/www.klo.ostrowiec.pl",
                "ref:regon": "260639278",
                "ref:vatin": "PL6612230875",
                "operator": "Diecezja Sandomierska",
                "operator:type": "religious",
                "amenity": "school"
            }
        },
        {
            "id": 279070,
            "type": "Feature",
            "geometry": {
                "type": "Point",
                "coordinates": [
                    21.38664,
                    50.9313
                ]
            },
            "properties": {
                "ref:rspo": 279070,
                "official_name": "Przedszkole Sosenka",
                "name": "Przedszkole Sosenka",
                "addr:country": "PL",
                "addr:postcode": "27-400",
                "addr:city": "Ostrowiec \u015awi\u0119tokrzyski",
                "addr:street": "Jana Rybkowskiego",
                "addr:housenumber": "2",
                "addr:teryt:simc": 947308,
                "addr:teryt:sym_ul": 56233,
                "contact:email": "sosenka.ostrowiec@gmail.com",
                "ref:regon": "520544329",
                "operator": "Stowarzyszenia Kierunek Rozw\u00f3j",
                "operator:type": "ngo",
                "amenity": "kindergarten"
            }
        },
        {
            "id": 12819,
            "type": "Feature",
            "geometry": {
                "type": "Point",
                "coordinates": [
                    21.39061,
                    50.93295
                ]
            },
            "properties": {
                "ref:rspo": 12819,
                "official_name": "O\u015brodek Doskonalenia Nauczycieli w Ostrowcu \u015awi\u0119tokrzyskim",
                "name": "O\u015brodek Doskonalenia Nauczycieli w Ostrowcu \u015awi\u0119tokrzyskim",
                "addr:country": "PL",
                "addr:postcode": "27-400",
                "addr:city": "Ostrowiec \u015awi\u0119tokrzyski",
                "addr:street": "Juliusza S\u0142owackiego",
                "addr:housenumber": "19",
                "addr:teryt:simc": 947308,
                "addr:teryt:sym_ul": 20291,
                "contact:phone": "+48 412620543",
                "contact:email": "szkola_zarzadzania@poczta.onet.pl",
                "contact:website": "http:\/\/www.szkola-zarzadzania.pl",
                "ref:regon": "260633703",
                "operator": "Szko\u0142a Zarz\u0105dzania Sp\u00f3\u0142ka Z Ograniczon\u0105 Odpowiedzialno\u015bci\u0105",
                "operator:type": "private",
                "amenity": "training"
            }
        },
        {
            "id": 131674,
            "type": "Feature",
            "geometry": {
                "type": "Point",
                "coordinates": [
                    21.39061,
                    50.932919999999996
                ]
            },
            "properties": {
                "ref:rspo": 131674,
                "official_name": "Niepubliczne Przedszkole Specjalne \u201ePromyk\u201d",
                "name": "Niepubliczne Przedszkole Specjalne \u201ePromyk\u201d",
                "addr:country": "PL",
                "addr:postcode": "27-400",
                "addr:city": "Ostrowiec \u015awi\u0119tokrzyski",
                "addr:street": "Juliusza S\u0142owackiego",
                "addr:housenumber": "19",
                "addr:teryt:simc": 947308,
                "addr:teryt:sym_ul": 20291,
                "contact:phone": "+48 412620543",
                "contact:email": "szkola_zarzadzania@poczta.onet.pl",
                "contact:website": "http:\/\/przedszkole-specjalne-promyk.pl\/",
                "ref:regon": "365326291",
                "operator": "Szko\u0142a Zarz\u0105dzania Sp\u00f3\u0142ka Z Ograniczon\u0105 Odpowiedzialno\u015bci\u0105",
                "operator:type": "private",
                "amenity": "kindergarten"
            }
        },
        {
            "id": 132541,
            "type": "Feature",
            "geometry": {
                "type": "Point",
                "coordinates": [
                    21.39061,
                    50.93289
                ]
            },
            "properties": {
                "isced:level": "1;2",
                "ref:rspo": 132541,
                "official_name": "Szko\u0142a Podstawowa Specjalna \u201ePromyk\u201d",
                "name": "Szko\u0142a Podstawowa Specjalna \u201ePromyk\u201d",
                "addr:country": "PL",
                "addr:postcode": "27-400",
                "addr:city": "Ostrowiec \u015awi\u0119tokrzyski",
                "addr:street": "Juliusza S\u0142owackiego",
                "addr:housenumber": "19",
                "addr:teryt:simc": 947308,
                "addr:teryt:sym_ul": 20291,
                "contact:phone": "+48 412620543",
                "contact:email": "szkola_zarzadzania@poczta.onet.pl",
                "contact:website": "http:\/\/fundacja-promyk.com.pl",
                "ref:regon": "365737835",
                "operator": "\"Fundacja Promyk\"",
                "operator:type": "ngo",
                "amenity": "school"
            }
        },
        {
            "id": 34663,
            "type": "Feature",
            "geometry": {
                "type": "Point",
                "coordinates": [
                    21.40223,
                    50.93301
                ]
            },
            "properties": {
                "isced:level": "3",
                "ref:rspo": 34663,
                "official_name": "Niepubliczne Technikum im. T. Ko\u015bciuszki w Ostrowcu \u015awi\u0119tokrzyskim Zak\u0142adu Doskonalenia Zawodowego w Kielcach",
                "name": "Niepubliczne Technikum",
                "addr:country": "PL",
                "addr:postcode": "27-400",
                "addr:city": "Ostrowiec \u015awi\u0119tokrzyski",
                "addr:street": "Jana Kili\u0144skiego",
                "addr:housenumber": "49",
                "addr:teryt:simc": 947308,
                "addr:teryt:sym_ul": 8435,
                "contact:phone": "+48 412653883",
                "contact:email": "ostrowiec@zdz.kielce.pl",
                "contact:website": "http:\/\/www.zdz.kielce.pl",
                "ref:regon": "260642725",
                "ref:vatin": "PL6570008869",
                "operator": "Zak\u0142ad Doskonalenia Zawodowego W Kielcach",
                "operator:type": "ngo",
                "amenity": "school"
            }
        },
        {
            "id": 34666,
            "type": "Feature",
            "geometry": {
                "type": "Point",
                "coordinates": [
                    21.40223,
                    50.93298
                ]
            },
            "properties": {
                "isced:level": "4",
                "ref:rspo": 34666,
                "official_name": "Niepubliczna Szko\u0142a Policealna w Ostrowcu \u015awi\u0119tokrzyskim Zak\u0142adu Doskonalenia Zawodowego w Kielcach",
                "name": "Niepubliczna Szko\u0142a Policealna w Ostrowcu \u015awi\u0119tokrzyskim Zak\u0142adu Doskonalenia Zawodowego w Kielcach",
                "addr:country": "PL",
                "addr:postcode": "27-400",
                "addr:city": "Ostrowiec \u015awi\u0119tokrzyski",
                "addr:street": "Jana Kili\u0144skiego",
                "addr:housenumber": "49",
                "addr:teryt:simc": 947308,
                "addr:teryt:sym_ul": 8435,
                "contact:phone": "+48 412653883",
                "contact:email": "ostrowiec@zdz.kielce.pl",
                "contact:website": "http:\/\/www.zdz.kielce.pl",
                "ref:regon": "260642719",
                "ref:vatin": "PL6570008869",
                "operator": "Zak\u0142ad Doskonalenia Zawodowego W Kielcach",
                "operator:type": "ngo",
                "amenity": "college"
            }
        },
        {
            "id": 39212,
            "type": "Feature",
            "geometry": {
                "type": "Point",
                "coordinates": [
                    21.40223,
                    50.932950000000005
                ]
            },
            "properties": {
                "ref:rspo": 39212,
                "official_name": "Centrum Kszta\u0142cenia Zawodowego w Ostrowcu \u015awi\u0119tokrzyskim Zak\u0142ad Doskonalenia Zawodowego w Kielcach",
                "name": "Centrum Kszta\u0142cenia Zawodowego w Ostrowcu \u015awi\u0119tokrzyskim Zak\u0142ad Doskonalenia Zawodowego w Kielcach",
                "addr:country": "PL",
                "addr:postcode": "27-400",
                "addr:city": "Ostrowiec \u015awi\u0119tokrzyski",
                "addr:street": "Jana Kili\u0144skiego",
                "addr:housenumber": "49",
                "addr:teryt:simc": 947308,
                "addr:teryt:sym_ul": 8435,
                "contact:phone": "+48 412653883",
                "contact:email": "ostrowiec@zdz.kielce.pl",
                "ref:regon": "260640548",
                "ref:vatin": "PL6570008869",
                "operator": "Zak\u0142ad Doskonalenia Zawodowego W Kielcach",
                "operator:type": "ngo",
                "fixme": "w zale\u017cno\u015bci od przedmiotu dzia\u0142alno\u015bci (np. amenity=training + training=*, amenity=dancing_school, amenity=language_school, amenity=music_school) albo amenity=school, amenity=college, albo landuse=education w zale\u017cno\u015bci od tego, jakie plac\u00f3wki wchodz\u0105 w sk\u0142ad zespo\u0142u. Sprawd\u017a, kiedy stosowa\u0107 amenity=* a kiedy landuse=education."
            }
        },
        {
            "id": 124407,
            "type": "Feature",
            "geometry": {
                "type": "Point",
                "coordinates": [
                    21.40223,
                    50.93292
                ]
            },
            "properties": {
                "isced:level": "4",
                "ref:rspo": 124407,
                "official_name": "Niepubliczna Medyczna Szko\u0142a Policealna w Ostrowcu \u015awi\u0119tokrzyskim Zak\u0142adu Doskonalenia Zawodowego w Kielcach",
                "name": "Niepubliczna Medyczna Szko\u0142a Policealna w Ostrowcu \u015awi\u0119tokrzyskim Zak\u0142adu Doskonalenia Zawodowego w Kielcach",
                "addr:country": "PL",
                "addr:postcode": "27-400",
                "addr:city": "Ostrowiec \u015awi\u0119tokrzyski",
                "addr:street": "Jana Kili\u0144skiego",
                "addr:housenumber": "49",
                "addr:teryt:simc": 947308,
                "addr:teryt:sym_ul": 8435,
                "contact:phone": "+48 412653883",
                "contact:email": "ostrowiec@zdz.kielce.pl",
                "contact:website": "http:\/\/www.zdz.kielce.pl",
                "ref:regon": "260791253",
                "ref:vatin": "PL6570008869",
                "operator": "Zak\u0142ad Doskonalenia Zawodowego W Kielcach",
                "operator:type": "ngo",
                "amenity": "college"
            }
        },
        {
            "id": 127793,
            "type": "Feature",
            "geometry": {
                "type": "Point",
                "coordinates": [
                    21.41773,
                    50.93327
                ]
            },
            "properties": {
                "ref:rspo": 127793,
                "official_name": "Zesp\u00f3\u0142 Edukacyjno-Przedszkolny Szko\u0142a Z Pasj\u0105 im. El\u017cbiety So\u0142tys w Ostrowcu \u015awi\u0119tokrzyskim",
                "name": "Zesp\u00f3\u0142 Edukacyjno-Przedszkolny Szko\u0142a Z Pasj\u0105",
                "addr:country": "PL",
                "addr:postcode": "27-400",
                "addr:city": "Ostrowiec \u015awi\u0119tokrzyski",
                "addr:street": "Ferdynanda Focha",
                "addr:housenumber": "3",
                "addr:teryt:simc": 947308,
                "addr:teryt:sym_ul": 5093,
                "contact:phone": "+48 412003012",
                "contact:email": "zep.szkolazpasja@gmail.com",
                "contact:website": "http:\/\/szkolazpasja.edu.pl\/",
                "ref:regon": "361843032",
                "operator": "Stowarzyszenie Przestrze\u0144 Inicjatyw Spo\u0142eczno Kulturalnych Pisk",
                "operator:type": "ngo",
                "landuse": "education",
                "fixme": "amenity=school, amenity=college albo landuse=education w zale\u017cno\u015bci od tego, jakie plac\u00f3wki wchodz\u0105 w sk\u0142ad zespo\u0142u. Sprawd\u017a, kiedy stosowa\u0107 amenity=* a kiedy landuse=education.",
                "note": "Children RSPO: 127799;127800"
            }
        },
        {
            "id": 127799,
            "type": "Feature",
            "geometry": {
                "type": "Point",
                "coordinates": [
                    21.41773,
                    50.93324
                ]
            },
            "properties": {
                "ref:rspo": 127799,
                "official_name": "Zesp\u00f3\u0142 Edukacyjno-Przedszkolny Szko\u0142a Z Pasj\u0105 im. El\u017cbiety So\u0142tys w Ostrowcu \u015awi\u0119tokrzyskim - Niepubliczne Przedszkole",
                "name": "Zesp\u00f3\u0142 Edukacyjno-Przedszkolny Szko\u0142a Z Pasj\u0105",
                "addr:country": "PL",
                "addr:postcode": "27-400",
                "addr:city": "Ostrowiec \u015awi\u0119tokrzyski",
                "addr:street": "Ferdynanda Focha",
                "addr:housenumber": "3",
                "addr:teryt:simc": 947308,
                "addr:teryt:sym_ul": 5093,
                "contact:phone": "+48 412003012",
                "contact:email": "zep.szkolazpasja@gmail.com",
                "contact:website": "http:\/\/zepszkolazpasja.pl\/",
                "ref:regon": "361850428",
                "operator": "Stowarzyszenie Przestrze\u0144 Inicjatyw Spo\u0142eczno Kulturalnych Pisk",
                "operator:type": "ngo",
                "amenity": "kindergarten",
                "note": "Parent RSPO: 127793"
            }
        },
        {
            "id": 127800,
            "type": "Feature",
            "geometry": {
                "type": "Point",
                "coordinates": [
                    21.41773,
                    50.93321
                ]
            },
            "properties": {
                "isced:level": "1;2",
                "ref:rspo": 127800,
                "official_name": "Zesp\u00f3\u0142 Edukacyjno-Przedszkolny Szko\u0142a Z Pasj\u0105 im. El\u017cbiety So\u0142tys w Ostrowcu \u015awi\u0119tokrzyskim-Niepubliczna Szko\u0142a Podstawowa",
                "name": "Zesp\u00f3\u0142 Edukacyjno-Przedszkolny Szko\u0142a Z Pasj\u0105",
                "addr:country": "PL",
                "addr:postcode": "27-400",
                "addr:city": "Ostrowiec \u015awi\u0119tokrzyski",
                "addr:street": "Ferdynanda Focha",
                "addr:housenumber": "3",
                "addr:teryt:simc": 947308,
                "addr:teryt:sym_ul": 5093,
                "contact:phone": "+48 412003012",
                "contact:email": "zep.szkolazpasja@gmail.com",
                "contact:website": "http:\/\/zepszkolazpasja.pl\/",
                "ref:regon": "361850434",
                "operator": "Stowarzyszenie Przestrze\u0144 Inicjatyw Spo\u0142eczno Kulturalnych Pisk",
                "operator:type": "ngo",
                "amenity": "school",
                "note": "Parent RSPO: 127793"
            }
        },
        {
            "id": 11938,
            "type": "Feature",
            "geometry": {
                "type": "Point",
                "coordinates": [
                    21.392,
                    50.93421
                ]
            },
            "properties": {
                "ref:rspo": 11938,
                "official_name": "Zesp\u00f3\u0142 Szk\u00f3\u0142 Og\u00f3lnokszta\u0142c\u0105cych w Ostrowcu \u015awi\u0119tokrzyskim",
                "name": "Zesp\u00f3\u0142 Szk\u00f3\u0142 Og\u00f3lnokszta\u0142c\u0105cych w Ostrowcu \u015awi\u0119tokrzyskim",
                "addr:country": "PL",
                "addr:postcode": "27-400",
                "addr:city": "Ostrowiec \u015awi\u0119tokrzyski",
                "addr:street": "Jana Kili\u0144skiego",
                "addr:housenumber": "19",
                "addr:teryt:simc": 947308,
                "addr:teryt:sym_ul": 8435,
                "contact:phone": "+48 412654432",
                "contact:email": "staszicsekret@poczta.onet.pl",
                "contact:website": "http:\/\/www.staszic.ostrowiec.pl",
                "ref:regon": "292680570",
                "ref:vatin": "PL6611211657",
                "operator": "Powiat Ostrowiecki",
                "operator:type": "government",
                "landuse": "education",
                "fixme": "amenity=school, amenity=college albo landuse=education w zale\u017cno\u015bci od tego, jakie plac\u00f3wki wchodz\u0105 w sk\u0142ad zespo\u0142u. Sprawd\u017a, kiedy stosowa\u0107 amenity=* a kiedy landuse=education.",
                "note": "Children RSPO: 19737;108692"
            }
        },
        {
            "id": 19737,
            "type": "Feature",
            "geometry": {
                "type": "Point",
                "coordinates": [
                    21.392,
                    50.93418
                ]
            },
            "properties": {
                "isced:level": "3",
                "ref:rspo": 19737,
                "official_name": "Liceum Og\u00f3lnokszta\u0142c\u0105ce Nr I im. Stanis\u0142awa Staszica w Ostrowcu \u015awi\u0119tokrzyskim",
                "name": "Liceum Og\u00f3lnokszta\u0142c\u0105ce Nr I",
                "addr:country": "PL",
                "addr:postcode": "27-400",
                "addr:city": "Ostrowiec \u015awi\u0119tokrzyski",
                "addr:street": "Jana Kili\u0144skiego",
                "addr:housenumber": "19",
                "addr:teryt:simc": 947308,
                "addr:teryt:sym_ul": 8435,
                "contact:phone": "+48 412654432",
                "contact:email": "staszicsekret@poczta.onet.pl",
                "contact:website": "http:\/\/www.staszic.ostrowiec.pl",
                "ref:regon": "292383138",
                "ref:vatin": "PL6611211657",
                "operator": "Powiat Ostrowiecki",
                "operator:type": "government",
                "amenity": "school",
                "note": "Parent RSPO: 11938"
            }
        },
        {
            "id": 108692,
            "type": "Feature",
            "geometry": {
                "type": "Point",
                "coordinates": [
                    21.392,
                    50.93415
                ]
            },
            "properties": {
                "isced:level": "3",
                "ref:rspo": 108692,
                "official_name": "Liceum Og\u00f3lnokszta\u0142c\u0105ce dla Doros\u0142ych w Ostrowcu \u015awi\u0119tokrzyskim",
                "name": "Liceum Og\u00f3lnokszta\u0142c\u0105ce dla Doros\u0142ych w Ostrowcu \u015awi\u0119tokrzyskim",
                "addr:country": "PL",
                "addr:postcode": "27-400",
                "addr:city": "Ostrowiec \u015awi\u0119tokrzyski",
                "addr:street": "Jana Kili\u0144skiego",
                "addr:housenumber": "19",
                "addr:teryt:simc": 947308,
                "addr:teryt:sym_ul": 8435,
                "contact:phone": "+48 412654432",
                "contact:email": "staszicsekret@poczta.onet.pl",
                "contact:website": "http:\/\/www.staszic.ostrowiec.pl",
                "ref:regon": "260016241",
                "ref:vatin": "PL6611211657",
                "operator": "Powiat Ostrowiecki",
                "operator:type": "government",
                "amenity": "school",
                "note": "Parent RSPO: 11938"
            }
        },
        {
            "id": 19475,
            "type": "Feature",
            "geometry": {
                "type": "Point",
                "coordinates": [
                    21.38956,
                    50.9343
                ]
            },
            "properties": {
                "ref:rspo": 19475,
                "official_name": "Ognisko Pracy Pozaszkolnej w Ostrowcu \u015awi\u0119tokrzyskim",
                "name": "Ognisko Pracy Pozaszkolnej w Ostrowcu \u015awi\u0119tokrzyskim",
                "addr:country": "PL",
                "addr:postcode": "27-400",
                "addr:city": "Ostrowiec \u015awi\u0119tokrzyski",
                "addr:street": "Jana Kili\u0144skiego",
                "addr:housenumber": "12a",
                "addr:teryt:simc": 947308,
                "addr:teryt:sym_ul": 8435,
                "contact:phone": "+48 412627197",
                "contact:email": "popostrowiec@vp.pl",
                "contact:website": "http:\/\/www.ogniskoplastyczne.wordpress.pl",
                "ref:regon": "260003391",
                "ref:vatin": "PL6611668598",
                "operator": "Powiat Ostrowiecki",
                "operator:type": "government",
                "amenity": "community_centre",
                "community_centre:for": "child;juvenile"
            }
        },
        {
            "id": 22065,
            "type": "Feature",
            "geometry": {
                "type": "Point",
                "coordinates": [
                    21.38859,
                    50.93486
                ]
            },
            "properties": {
                "isced:level": "3",
                "ref:rspo": 22065,
                "official_name": "Liceum Og\u00f3lnokszta\u0142c\u0105ce dla Doros\u0142ych \u201e\u017bak\u201d w Ostrowcu \u015awi\u0119tokrzyskim",
                "name": "Liceum Og\u00f3lnokszta\u0142c\u0105ce dla Doros\u0142ych \u201e\u017bak\u201d w Ostrowcu \u015awi\u0119tokrzyskim",
                "addr:country": "PL",
                "addr:postcode": "27-400",
                "addr:city": "Ostrowiec \u015awi\u0119tokrzyski",
                "addr:street": "Jana Kili\u0144skiego",
                "addr:housenumber": "1",
                "addr:teryt:simc": 947308,
                "addr:teryt:sym_ul": 8435,
                "contact:phone": "+48 412476049",
                "contact:email": "ostrowiecswietokrzyski@zak.edu.pl",
                "contact:website": "http:\/\/www.zak.edu.pl",
                "ref:regon": "260636794",
                "ref:vatin": "PL7292597869",
                "operator": "Centrum Nauki I Biznesu \"\u017bak\" Sp\u00f3\u0142ka Z Ograniczon\u0105 Odpowiedzialno\u015bci\u0105",
                "operator:type": "private",
                "amenity": "school"
            }
        },
        {
            "id": 22066,
            "type": "Feature",
            "geometry": {
                "type": "Point",
                "coordinates": [
                    21.38859,
                    50.93483
                ]
            },
            "properties": {
                "isced:level": "4",
                "ref:rspo": 22066,
                "official_name": "Szko\u0142a Policealna Centrum Nauki I Biznesu \u201e\u017bak\u201d w Ostrowcu \u015awi\u0119tokrzyskim",
                "name": "Szko\u0142a Policealna Centrum Nauki I Biznesu \u201e\u017bak\u201d w Ostrowcu \u015awi\u0119tokrzyskim",
                "addr:country": "PL",
                "addr:postcode": "27-400",
                "addr:city": "Ostrowiec \u015awi\u0119tokrzyski",
                "addr:street": "Jana Kili\u0144skiego",
                "addr:housenumber": "1",
                "addr:teryt:simc": 947308,
                "addr:teryt:sym_ul": 8435,
                "contact:phone": "+48 412476049",
                "contact:email": "ostrowiecswietokrzyski@zak.edu.pl",
                "contact:website": "http:\/\/zak.edu.pl",
                "ref:regon": "260636819",
                "ref:vatin": "PL7292597869",
                "operator": "Centrum Nauki I Biznesu \"\u017bak\" Sp\u00f3\u0142ka Z Ograniczon\u0105 Odpowiedzialno\u015bci\u0105",
                "operator:type": "private",
                "amenity": "college"
            }
        },
        {
            "id": 22158,
            "type": "Feature",
            "geometry": {
                "type": "Point",
                "coordinates": [
                    21.38859,
                    50.9348
                ]
            },
            "properties": {
                "ref:rspo": 22158,
                "official_name": "O\u015brodek Szkoleniowy Centrum Nauki I Biznesu \u201e\u017bak\u201d w Ostrowcu \u015awi\u0119tokrzyskim",
                "name": "O\u015brodek Szkoleniowy Centrum Nauki I Biznesu \u201e\u017bak\u201d w Ostrowcu \u015awi\u0119tokrzyskim",
                "addr:country": "PL",
                "addr:postcode": "27-400",
                "addr:city": "Ostrowiec \u015awi\u0119tokrzyski",
                "addr:street": "Jana Kili\u0144skiego",
                "addr:housenumber": "1",
                "addr:teryt:simc": 947308,
                "addr:teryt:sym_ul": 8435,
                "contact:phone": "+48 412476049",
                "contact:email": "ostrowiecswietokrzyski@zak.edu.pl",
                "contact:website": "http:\/\/zak.edu.pl",
                "ref:regon": "260636825",
                "ref:vatin": "PL7292597869",
                "operator": "Centrum Nauki I Biznesu \"\u017bak\" Sp\u00f3\u0142ka Z Ograniczon\u0105 Odpowiedzialno\u015bci\u0105",
                "operator:type": "private",
                "fixme": "w zale\u017cno\u015bci od przedmiotu dzia\u0142alno\u015bci (np. amenity=training + training=*, amenity=dancing_school, amenity=language_school, amenity=music_school)"
            }
        },
        {
            "id": 124472,
            "type": "Feature",
            "geometry": {
                "type": "Point",
                "coordinates": [
                    21.38859,
                    50.93477
                ]
            },
            "properties": {
                "isced:level": "4",
                "ref:rspo": 124472,
                "official_name": "Szko\u0142a Policealna Medyczna \u201e\u017bak\u201d w Ostrowcu \u015awi\u0119tokrzyskim",
                "name": "Szko\u0142a Policealna Medyczna \u201e\u017bak\u201d w Ostrowcu \u015awi\u0119tokrzyskim",
                "addr:country": "PL",
                "addr:postcode": "27-400",
                "addr:city": "Ostrowiec \u015awi\u0119tokrzyski",
                "addr:street": "Jana Kili\u0144skiego",
                "addr:housenumber": "1",
                "addr:teryt:simc": 947308,
                "addr:teryt:sym_ul": 8435,
                "contact:phone": "+48 412476049",
                "contact:email": "ostrowiecswietokrzyski@zak.edu.pl",
                "contact:website": "http:\/\/zak.edu.pl",
                "ref:regon": "260791508",
                "ref:vatin": "PL7292597869",
                "operator": "Centrum Nauki I Biznesu \"\u017bak\" Sp\u00f3\u0142ka Z Ograniczon\u0105 Odpowiedzialno\u015bci\u0105",
                "operator:type": "private",
                "amenity": "college"
            }
        },
        {
            "id": 263191,
            "type": "Feature",
            "geometry": {
                "type": "Point",
                "coordinates": [
                    21.38859,
                    50.93474
                ]
            },
            "properties": {
                "isced:level": "4",
                "ref:rspo": 263191,
                "official_name": "Szko\u0142a Policealna Opieki Medycznej \u201e\u017bak\u201d w Ostrowcu \u015awi\u0119tokrzyskim",
                "name": "Szko\u0142a Policealna Opieki Medycznej \u201e\u017bak\u201d w Ostrowcu \u015awi\u0119tokrzyskim",
                "addr:country": "PL",
                "addr:postcode": "27-400",
                "addr:city": "Ostrowiec \u015awi\u0119tokrzyski",
                "addr:street": "Jana Kili\u0144skiego",
                "addr:housenumber": "1",
                "addr:teryt:simc": 947308,
                "addr:teryt:sym_ul": 8435,
                "contact:phone": "+48 412476049",
                "contact:email": "ostrowiecswietokrzyski@zak.edu.pl",
                "contact:website": "http:\/\/zak.edu.pl",
                "ref:regon": "368118736",
                "operator": "Centrum Nauki I Biznesu \"\u017bak\" Sp\u00f3\u0142ka Z Ograniczon\u0105 Odpowiedzialno\u015bci\u0105",
                "operator:type": "private",
                "amenity": "college"
            }
        },
        {
            "id": 84342,
            "type": "Feature",
            "geometry": {
                "type": "Point",
                "coordinates": [
                    21.38024,
                    50.93497
                ]
            },
            "properties": {
                "ref:rspo": 84342,
                "official_name": "Niepubliczna Szko\u0142a Muzyczna I I II St. im. Fryderyka Chopina w Ostrowcu \u015awi\u0119tokrzyskim",
                "name": "Niepubliczna Szko\u0142a Muzyczna I I II St.",
                "addr:country": "PL",
                "addr:postcode": "27-400",
                "addr:city": "Ostrowiec \u015awi\u0119tokrzyski",
                "addr:street": "\u017babia",
                "addr:housenumber": "40",
                "addr:teryt:simc": 947308,
                "addr:teryt:sym_ul": 26367,
                "contact:email": "szkola.chopin@wp.pl",
                "contact:website": "http:\/\/szkolachopin.pl",
                "ref:regon": "260648975",
                "operator": "Ewa Pytel",
                "operator:type": "private",
                "landuse": "education",
                "fixme": "amenity=school, amenity=college albo landuse=education w zale\u017cno\u015bci od tego, jakie plac\u00f3wki wchodz\u0105 w sk\u0142ad zespo\u0142u. Sprawd\u017a, kiedy stosowa\u0107 amenity=* a kiedy landuse=education.",
                "note": "Children RSPO: 105840;105841"
            }
        },
        {
            "id": 105840,
            "type": "Feature",
            "geometry": {
                "type": "Point",
                "coordinates": [
                    21.38024,
                    50.93494
                ]
            },
            "properties": {
                "ref:rspo": 105840,
                "official_name": "Niepubliczna Szko\u0142a Muzyczna I St. im. Fryderyka Chopina w Ostrowcu \u015awi\u0119tokrzyskim",
                "name": "Niepubliczna Szko\u0142a Muzyczna I St.",
                "addr:country": "PL",
                "addr:postcode": "27-400",
                "addr:city": "Ostrowiec \u015awi\u0119tokrzyski",
                "addr:street": "\u017babia",
                "addr:housenumber": "40",
                "addr:teryt:simc": 947308,
                "addr:teryt:sym_ul": 26367,
                "contact:email": "szkola.chopin@wp.pl",
                "contact:website": "http:\/\/szkolachopin.pl",
                "ref:regon": "260659157",
                "operator": "Ewa Pytel",
                "operator:type": "private",
                "amenity": "music_school",
                "note": "Parent RSPO: 84342"
            }
        },
        {
            "id": 105841,
            "type": "Feature",
            "geometry": {
                "type": "Point",
                "coordinates": [
                    21.38024,
                    50.93491
                ]
            },
            "properties": {
                "ref:rspo": 105841,
                "official_name": "Niepubliczna Szko\u0142a Muzyczna II St. im. Fryderyka Chopina w Ostrowcu \u015awi\u0119tokrzyskim",
                "name": "Niepubliczna Szko\u0142a Muzyczna II St.",
                "addr:country": "PL",
                "addr:postcode": "27-400",
                "addr:city": "Ostrowiec \u015awi\u0119tokrzyski",
                "addr:street": "\u017babia",
                "addr:housenumber": "40",
                "addr:teryt:simc": 947308,
                "addr:teryt:sym_ul": 26367,
                "contact:email": "szkola.chopin@wp.pl",
                "contact:website": "http:\/\/szkolachopin.pl",
                "ref:regon": "260659163",
                "operator": "Ewa Pytel",
                "operator:type": "private",
                "amenity": "music_school",
                "note": "Parent RSPO: 84342"
            }
        },
        {
            "id": 12816,
            "type": "Feature",
            "geometry": {
                "type": "Point",
                "coordinates": [
                    21.40283,
                    50.94363
                ]
            },
            "properties": {
                "ref:rspo": 12816,
                "official_name": "Centrum Doskonalenia Kadr O\u015bwiatowych w Ostrowcu \u015awi\u0119tokrzyskim",
                "name": "Centrum Doskonalenia Kadr O\u015bwiatowych w Ostrowcu \u015awi\u0119tokrzyskim",
                "addr:country": "PL",
                "addr:postcode": "27-400",
                "addr:city": "Ostrowiec \u015awi\u0119tokrzyski",
                "addr:street": "Osiedle Ogrody",
                "addr:housenumber": "17a",
                "addr:door": "51",
                "addr:teryt:simc": 947308,
                "addr:teryt:sym_ul": 14841,
                "contact:phone": "+48 412740630",
                "contact:email": "poczta@cdko.edu.pl",
                "contact:website": "http:\/\/www.cdko.edu.pl",
                "ref:regon": "260631510",
                "ref:vatin": "PL6611221650",
                "operator": "Wioletta \u0106wik",
                "operator:type": "private",
                "amenity": "training"
            }
        },
        {
            "id": 75362,
            "type": "Feature",
            "geometry": {
                "type": "Point",
                "coordinates": [
                    21.38683,
                    50.94373
                ]
            },
            "properties": {
                "ref:rspo": 75362,
                "official_name": "Pa\u0144stwowa Szko\u0142a Muzyczna I St. w Ostrowcu \u015awi\u0119tokrzyskim",
                "name": "Pa\u0144stwowa Szko\u0142a Muzyczna I St. w Ostrowcu \u015awi\u0119tokrzyskim",
                "addr:country": "PL",
                "addr:postcode": "27-400",
                "addr:city": "Ostrowiec \u015awi\u0119tokrzyski",
                "addr:street": "I\u0142\u017cecka",
                "addr:housenumber": "47",
                "addr:teryt:simc": 947308,
                "addr:teryt:sym_ul": 6887,
                "contact:phone": "+48 412620910",
                "contact:email": "psmostrowiec@wp.pl",
                "contact:website": "http:\/\/psm.ostrowiec.pl",
                "ref:regon": "000276802",
                "operator": "Ministerstwo Kultury I Dziedzictwa Narodowego",
                "operator:type": "public",
                "amenity": "music_school"
            }
        },
        {
            "id": 7356,
            "type": "Feature",
            "geometry": {
                "type": "Point",
                "coordinates": [
                    21.39645,
                    50.944
                ]
            },
            "properties": {
                "ref:rspo": 7356,
                "official_name": "Przedszkole Publiczne Nr 15 im. Janiny Porazi\u0144skiej w Ostrowcu \u015awi\u0119tokrzyskim",
                "name": "Przedszkole Publiczne Nr 15",
                "addr:country": "PL",
                "addr:postcode": "27-400",
                "addr:city": "Ostrowiec \u015awi\u0119tokrzyski",
                "addr:street": "Osiedle Ogrody",
                "addr:housenumber": "27",
                "addr:teryt:simc": 947308,
                "addr:teryt:sym_ul": 14841,
                "contact:phone": "+48 412472273",
                "contact:email": "pp15@przedszkole.ostrowiec.pl",
                "contact:website": "http:\/\/www.pp15ostrowiec.pol.pl",
                "ref:regon": "290014715",
                "ref:vatin": "PL6611505577",
                "operator": "Miasto Ostrowiec \u015awi\u0119tokrzyski",
                "operator:type": "government",
                "amenity": "kindergarten"
            }
        },
        {
            "id": 14714,
            "type": "Feature",
            "geometry": {
                "type": "Point",
                "coordinates": [
                    21.37666,
                    50.94412
                ]
            },
            "properties": {
                "ref:rspo": 14714,
                "official_name": "\u201eZielony Krokodyl\u201d Niepubliczne Przedszkole Integracyjne",
                "name": "\u201eZielony Krokodyl\u201d Niepubliczne Przedszkole Integracyjne",
                "addr:country": "PL",
                "addr:postcode": "27-400",
                "addr:city": "Ostrowiec \u015awi\u0119tokrzyski",
                "addr:street": "S\u0142awomira Czerwi\u0144skiego",
                "addr:housenumber": "3",
                "addr:teryt:simc": 947308,
                "addr:teryt:sym_ul": 3422,
                "contact:phone": "+48 790470414",
                "contact:email": "emilia.mrugala@interia.pl",
                "contact:website": "http:\/\/www.zielony-krokodyl.pl",
                "ref:regon": "260633844",
                "ref:vatin": "PL6612044090",
                "operator": "Emilia Mruga\u0142a",
                "operator:type": "private",
                "amenity": "kindergarten"
            }
        },
        {
            "id": 13998,
            "type": "Feature",
            "geometry": {
                "type": "Point",
                "coordinates": [
                    21.39579,
                    50.94415
                ]
            },
            "properties": {
                "ref:rspo": 13998,
                "official_name": "Pedagogiczna Biblioteka Wojew\u00f3dzka w Kielcach Filia w Ostrowcu \u015awi\u0119tokrzyskim",
                "name": "Pedagogiczna Biblioteka Wojew\u00f3dzka w Kielcach Filia w Ostrowcu \u015awi\u0119tokrzyskim",
                "addr:country": "PL",
                "addr:postcode": "27-400",
                "addr:city": "Ostrowiec \u015awi\u0119tokrzyski",
                "addr:street": "Osiedle Ogrody",
                "addr:housenumber": "26",
                "addr:teryt:simc": 947308,
                "addr:teryt:sym_ul": 14841,
                "contact:email": "ostrowiec@pbw.kielce.pl",
                "contact:website": "http:\/\/www.pbw.kielce.pl",
                "ref:regon": "291170080",
                "operator": "Wojew\u00f3dztwo \u015awi\u0119tokrzyskie",
                "operator:type": "government",
                "amenity": "library",
                "note": "Parent RSPO: 6753"
            }
        },
        {
            "id": 15636,
            "type": "Feature",
            "geometry": {
                "type": "Point",
                "coordinates": [
                    21.3854,
                    50.94417
                ]
            },
            "properties": {
                "ref:rspo": 15636,
                "official_name": "Centrum Kszta\u0142cenia Zawodowego I Ustawicznego w Ostrowcu \u015awi\u0119tokrzyskim",
                "name": "Centrum Kszta\u0142cenia Zawodowego I Ustawicznego w Ostrowcu \u015awi\u0119tokrzyskim",
                "addr:country": "PL",
                "addr:postcode": "27-400",
                "addr:city": "Ostrowiec \u015awi\u0119tokrzyski",
                "addr:street": "Adama Mickiewicza",
                "addr:housenumber": "1",
                "addr:teryt:simc": 947308,
                "addr:teryt:sym_ul": 12740,
                "contact:phone": "+48 412667810",
                "contact:email": "ckziuostrowiec@onet.eu",
                "contact:website": "http:\/\/www.ckziuostrowiec.pl",
                "ref:regon": "292385574",
                "ref:vatin": "PL6611506513",
                "operator": "Powiat Ostrowiecki",
                "operator:type": "government",
                "landuse": "education",
                "fixme": "amenity=school, amenity=college albo landuse=education w zale\u017cno\u015bci od tego, jakie plac\u00f3wki wchodz\u0105 w sk\u0142ad zespo\u0142u. Sprawd\u017a, kiedy stosowa\u0107 amenity=* a kiedy landuse=education.",
                "note": "Children RSPO: 21031;21032;124374;276060"
            }
        },
        {
            "id": 21031,
            "type": "Feature",
            "geometry": {
                "type": "Point",
                "coordinates": [
                    21.3854,
                    50.94414
                ]
            },
            "properties": {
                "isced:level": "3",
                "ref:rspo": 21031,
                "official_name": "Technikum Nr 4 w Ostrowcu \u015awi\u0119tokrzyskim",
                "name": "Technikum Nr 4 w Ostrowcu \u015awi\u0119tokrzyskim",
                "addr:country": "PL",
                "addr:postcode": "27-400",
                "addr:city": "Ostrowiec \u015awi\u0119tokrzyski",
                "addr:street": "Adama Mickiewicza",
                "addr:housenumber": "1",
                "addr:teryt:simc": 947308,
                "addr:teryt:sym_ul": 12740,
                "contact:phone": "+48 412667810",
                "contact:email": "ckziuostrowiec@onet.eu",
                "contact:website": "http:\/\/www.ckziuostrowiec.pl",
                "ref:regon": "292441812",
                "ref:vatin": "PL6611506513",
                "operator": "Powiat Ostrowiecki",
                "operator:type": "government",
                "amenity": "school",
                "note": "Parent RSPO: 15636"
            }
        },
        {
            "id": 21032,
            "type": "Feature",
            "geometry": {
                "type": "Point",
                "coordinates": [
                    21.3854,
                    50.94411
                ]
            },
            "properties": {
                "isced:level": "3",
                "ref:rspo": 21032,
                "official_name": "Bran\u017cowa Szko\u0142a I Stopnia Nr 4",
                "name": "Bran\u017cowa Szko\u0142a I Stopnia Nr 4",
                "addr:country": "PL",
                "addr:postcode": "27-400",
                "addr:city": "Ostrowiec \u015awi\u0119tokrzyski",
                "addr:street": "Adama Mickiewicza",
                "addr:housenumber": "1",
                "addr:teryt:simc": 947308,
                "addr:teryt:sym_ul": 12740,
                "contact:phone": "+48 412667810",
                "contact:email": "ckziuostrowiec@onet.eu",
                "contact:website": "http:\/\/ckziuostrowiec.pl",
                "ref:regon": "292441835",
                "ref:vatin": "PL6611506513",
                "operator": "Powiat Ostrowiecki",
                "operator:type": "government",
                "amenity": "school",
                "note": "Parent RSPO: 15636"
            }
        },
        {
            "id": 124374,
            "type": "Feature",
            "geometry": {
                "type": "Point",
                "coordinates": [
                    21.3854,
                    50.94408
                ]
            },
            "properties": {
                "isced:level": "3",
                "ref:rspo": 124374,
                "official_name": "Liceum Og\u00f3lnokszta\u0142c\u0105ce Nr II dla Doros\u0142ych",
                "name": "Liceum Og\u00f3lnokszta\u0142c\u0105ce Nr II dla Doros\u0142ych",
                "addr:country": "PL",
                "addr:postcode": "27-400",
                "addr:city": "Ostrowiec \u015awi\u0119tokrzyski",
                "addr:street": "Adama Mickiewicza",
                "addr:housenumber": "1",
                "addr:teryt:simc": 947308,
                "addr:teryt:sym_ul": 12740,
                "contact:phone": "+48 412667810",
                "contact:email": "ckziuostrowiec@onet.eu",
                "contact:website": "http:\/\/ckziuostrowiec.pl",
                "ref:regon": "260790822",
                "ref:vatin": "PL6611506513",
                "operator": "Powiat Ostrowiecki",
                "operator:type": "government",
                "amenity": "school",
                "note": "Parent RSPO: 15636"
            }
        },
        {
            "id": 276060,
            "type": "Feature",
            "geometry": {
                "type": "Point",
                "coordinates": [
                    21.3854,
                    50.94405
                ]
            },
            "properties": {
                "isced:level": "3",
                "ref:rspo": 276060,
                "official_name": "Centrum Kszta\u0142cenia Zawodowego I Ustawicznego Bran\u017cowa Szko\u0142a II Stopnia w Ostrowcu \u015awi\u0119tokrzyskim",
                "name": "Centrum Kszta\u0142cenia Zawodowego I Ustawicznego Bran\u017cowa Szko\u0142a II Stopnia w Ostrowcu \u015awi\u0119tokrzyskim",
                "addr:country": "PL",
                "addr:postcode": "27-400",
                "addr:city": "Ostrowiec \u015awi\u0119tokrzyski",
                "addr:street": "Adama Mickiewicza",
                "addr:housenumber": "1",
                "addr:teryt:simc": 947308,
                "addr:teryt:sym_ul": 12740,
                "contact:phone": "+48 412667820",
                "contact:email": "ckziuostrowiec@onet.eu",
                "contact:website": "http:\/\/ckziuostrowiec.pl",
                "ref:regon": "386975656",
                "operator": "Powiat Ostrowiecki",
                "operator:type": "government",
                "amenity": "school",
                "note": "Parent RSPO: 15636"
            }
        },
        {
            "id": 14717,
            "type": "Feature",
            "geometry": {
                "type": "Point",
                "coordinates": [
                    21.40234,
                    50.94421
                ]
            },
            "properties": {
                "ref:rspo": 14717,
                "official_name": "Niepubliczne Przedszkole \u201ePajacyk\u201d",
                "name": "Niepubliczne Przedszkole \u201ePajacyk\u201d",
                "addr:country": "PL",
                "addr:postcode": "27-400",
                "addr:city": "Ostrowiec \u015awi\u0119tokrzyski",
                "addr:street": "Osiedle Ogrody",
                "addr:housenumber": "16",
                "addr:teryt:simc": 947308,
                "addr:teryt:sym_ul": 14841,
                "contact:phone": "+48 412628350",
                "contact:email": "pajacyk2001@gmail.com",
                "contact:website": "http:\/\/pajacyk-ostrowiec.pl",
                "ref:regon": "260641358",
                "ref:vatin": "PL6612078143",
                "operator": "Niepubliczny \u017b\u0142obek I Przedszkole \"Pajacyk\" - Sp\u00f3\u0142ka Cywilna",
                "operator:type": "consortium",
                "amenity": "kindergarten"
            }
        },
        {
            "id": 7357,
            "type": "Feature",
            "geometry": {
                "type": "Point",
                "coordinates": [
                    21.40015,
                    50.94432
                ]
            },
            "properties": {
                "ref:rspo": 7357,
                "official_name": "Przedszkole Publiczne Nr 19 im. Jana Brzechwy w Ostrowcu \u015awi\u0119tokrzyskim",
                "name": "Przedszkole Publiczne Nr 19",
                "addr:country": "PL",
                "addr:postcode": "27-400",
                "addr:city": "Ostrowiec \u015awi\u0119tokrzyski",
                "addr:street": "Osiedle Ogrody",
                "addr:housenumber": "20",
                "addr:teryt:simc": 947308,
                "addr:teryt:sym_ul": 14841,
                "contact:phone": "+48 412471127",
                "contact:email": "pp19@przedszkole.ostrowiec.pl",
                "contact:website": "http:\/\/przedszkole19ostrowiec.pl",
                "ref:regon": "290014744",
                "ref:vatin": "PL6611505910",
                "operator": "Miasto Ostrowiec \u015awi\u0119tokrzyski",
                "operator:type": "government",
                "amenity": "kindergarten"
            }
        },
        {
            "id": 8173,
            "type": "Feature",
            "geometry": {
                "type": "Point",
                "coordinates": [
                    21.40015,
                    50.944289999999995
                ]
            },
            "properties": {
                "ref:rspo": 8173,
                "official_name": "Zesp\u00f3\u0142 Szk\u00f3\u0142 I Plac\u00f3wek Publicznych Nr 3 w Ostrowcu \u015awi\u0119tokrzyskim",
                "name": "Zesp\u00f3\u0142 Szk\u00f3\u0142 I Plac\u00f3wek Publicznych Nr 3 w Ostrowcu \u015awi\u0119tokrzyskim",
                "addr:country": "PL",
                "addr:postcode": "27-400",
                "addr:city": "Ostrowiec \u015awi\u0119tokrzyski",
                "addr:street": "Osiedle Ogrody",
                "addr:housenumber": "20",
                "addr:teryt:simc": 947308,
                "addr:teryt:sym_ul": 14841,
                "contact:phone": "+48 412472042",
                "contact:email": "zsipp3@ostrowiec.edu.pl",
                "contact:website": "http:\/\/www.psp5.eu",
                "ref:regon": "260213540",
                "ref:vatin": "PL6612306638",
                "operator": "Miasto Ostrowiec \u015awi\u0119tokrzyski",
                "operator:type": "government",
                "landuse": "education",
                "fixme": "amenity=school, amenity=college albo landuse=education w zale\u017cno\u015bci od tego, jakie plac\u00f3wki wchodz\u0105 w sk\u0142ad zespo\u0142u. Sprawd\u017a, kiedy stosowa\u0107 amenity=* a kiedy landuse=education.",
                "note": "Children RSPO: 15178;73988"
            }
        },
        {
            "id": 15178,
            "type": "Feature",
            "geometry": {
                "type": "Point",
                "coordinates": [
                    21.40015,
                    50.94426
                ]
            },
            "properties": {
                "isced:level": "1;2",
                "ref:rspo": 15178,
                "official_name": "Publiczna Szko\u0142a Podstawowa Nr 5 im. Stefana \u017beromskiego w Ostrowcu \u015awi\u0119tokrzyskim",
                "name": "Publiczna Szko\u0142a Podstawowa Nr 5",
                "addr:country": "PL",
                "addr:postcode": "27-400",
                "addr:city": "Ostrowiec \u015awi\u0119tokrzyski",
                "addr:street": "Osiedle Ogrody",
                "addr:housenumber": "20",
                "addr:teryt:simc": 947308,
                "addr:teryt:sym_ul": 14841,
                "contact:phone": "+48 412472042",
                "contact:email": "zsipp3@ostrowiec.edu.pl",
                "contact:website": "http:\/\/www.psp5.eu",
                "ref:regon": "001060777",
                "ref:vatin": "PL6611033635",
                "operator": "Miasto Ostrowiec \u015awi\u0119tokrzyski",
                "operator:type": "government",
                "amenity": "school",
                "note": "Parent RSPO: 8173"
            }
        },
        {
            "id": 73988,
            "type": "Feature",
            "geometry": {
                "type": "Point",
                "coordinates": [
                    21.40015,
                    50.94423
                ]
            },
            "properties": {
                "ref:rspo": 73988,
                "official_name": "Mi\u0119dzyszkolny O\u015brodek Gimnastyki Korekcyjno - Kompensacyjnej",
                "name": "Mi\u0119dzyszkolny O\u015brodek Gimnastyki Korekcyjno - Kompensacyjnej",
                "addr:country": "PL",
                "addr:postcode": "27-400",
                "addr:city": "Ostrowiec \u015awi\u0119tokrzyski",
                "addr:street": "Osiedle Ogrody",
                "addr:housenumber": "20",
                "addr:teryt:simc": 947308,
                "addr:teryt:sym_ul": 14841,
                "contact:phone": "+48 412472042",
                "contact:email": "zsipp3@ostrowiec.edu.pl",
                "ref:regon": "290531391",
                "ref:vatin": "PL6611505399",
                "operator": "Miasto Ostrowiec \u015awi\u0119tokrzyski",
                "operator:type": "government",
                "fixme": "w zale\u017cno\u015bci od przedmiotu dzia\u0142alno\u015bci (np. amenity=training + training=*, amenity=dancing_school, amenity=language_school, amenity=music_school)",
                "note": "Parent RSPO: 8173"
            }
        },
        {
            "id": 269463,
            "type": "Feature",
            "geometry": {
                "type": "Point",
                "coordinates": [
                    21.41496,
                    50.94452
                ]
            },
            "properties": {
                "ref:rspo": 269463,
                "official_name": "Niepubliczne Przedszkole \"Ma\u0142y Naukowiec\"",
                "name": "Niepubliczne Przedszkole \"Ma\u0142y Naukowiec\"",
                "addr:country": "PL",
                "addr:postcode": "27-400",
                "addr:city": "Ostrowiec \u015awi\u0119tokrzyski",
                "addr:street": "W\u0142adys\u0142awa Sikorskiego",
                "addr:housenumber": "60",
                "addr:teryt:simc": 947308,
                "addr:teryt:sym_ul": 19914,
                "contact:phone": "+48 608285895",
                "contact:email": "malynaukowiecprzedszkole@gmail.com",
                "ref:regon": "381519126",
                "operator": "Dawid Wtorek",
                "operator:type": "private",
                "amenity": "kindergarten"
            }
        },
        {
            "id": 14720,
            "type": "Feature",
            "geometry": {
                "type": "Point",
                "coordinates": [
                    21.37215,
                    50.94477
                ]
            },
            "properties": {
                "ref:rspo": 14720,
                "official_name": "Niepubliczne Przedszkole \u201eSmyk\u201d",
                "name": "Niepubliczne Przedszkole \u201eSmyk\u201d",
                "addr:country": "PL",
                "addr:postcode": "27-400",
                "addr:city": "Ostrowiec \u015awi\u0119tokrzyski",
                "addr:street": "Henryka Sienkiewicza",
                "addr:housenumber": "65",
                "addr:teryt:simc": 947308,
                "addr:teryt:sym_ul": 19834,
                "contact:phone": "+48 412628320",
                "contact:email": "kontakt@edukacja.org.pl",
                "contact:website": "http:\/\/www.edukacja.org.pl",
                "ref:regon": "260633962",
                "ref:vatin": "PL6612145276",
                "operator": "Kinga Wnuk",
                "operator:type": "private",
                "amenity": "kindergarten"
            }
        },
        {
            "id": 15185,
            "type": "Feature",
            "geometry": {
                "type": "Point",
                "coordinates": [
                    21.37215,
                    50.944739999999996
                ]
            },
            "properties": {
                "isced:level": "1;2",
                "ref:rspo": 15185,
                "official_name": "Niepubliczna Szko\u0142a Podstawowa im. Stanis\u0142awa Konarskiego",
                "name": "Niepubliczna Szko\u0142a Podstawowa",
                "addr:country": "PL",
                "addr:postcode": "27-400",
                "addr:city": "Ostrowiec \u015awi\u0119tokrzyski",
                "addr:street": "Henryka Sienkiewicza",
                "addr:housenumber": "65",
                "addr:teryt:simc": 947308,
                "addr:teryt:sym_ul": 19834,
                "contact:phone": "+48 412628320",
                "contact:email": "kontakt@edukacja.org.pl",
                "contact:website": "http:\/\/www.edukacja.org.pl",
                "ref:regon": "260632997",
                "ref:vatin": "PL6612145276",
                "operator": "Kinga Wnuk",
                "operator:type": "private",
                "amenity": "school"
            }
        },
        {
            "id": 131087,
            "type": "Feature",
            "geometry": {
                "type": "Point",
                "coordinates": [
                    21.37215,
                    50.94471
                ]
            },
            "properties": {
                "isced:level": "3",
                "ref:rspo": 131087,
                "official_name": "Niepubliczne Liceum Og\u00f3lnokszta\u0142c\u0105ce im. Stanis\u0142awa Konarskiego w Ostrowcu \u015awi\u0119tokrzyskim",
                "name": "Niepubliczne Liceum Og\u00f3lnokszta\u0142c\u0105ce",
                "addr:country": "PL",
                "addr:postcode": "27-400",
                "addr:city": "Ostrowiec \u015awi\u0119tokrzyski",
                "addr:street": "Henryka Sienkiewicza",
                "addr:housenumber": "65",
                "addr:teryt:simc": 947308,
                "addr:teryt:sym_ul": 19834,
                "contact:phone": "+48 412628320",
                "contact:email": "kontakt@edukacja.org.pl",
                "contact:website": "http:\/\/www.edukacja.org.pl",
                "ref:regon": "364933706",
                "ref:vatin": "PL6611892002",
                "operator": "Kinga Wnuk",
                "operator:type": "private",
                "amenity": "school"
            }
        },
        {
            "id": 8162,
            "type": "Feature",
            "geometry": {
                "type": "Point",
                "coordinates": [
                    21.3824599,
                    50.94489
                ]
            },
            "properties": {
                "isced:level": "1;2",
                "ref:rspo": 8162,
                "official_name": "Publiczna Szko\u0142a Podstawowa Nr 4 im. Partyzant\u00f3w Ziemi Kieleckiej w Ostrowcu \u015awi\u0119tokrzyskim",
                "name": "Publiczna Szko\u0142a Podstawowa Nr 4",
                "addr:country": "PL",
                "addr:postcode": "27-400",
                "addr:city": "Ostrowiec \u015awi\u0119tokrzyski",
                "addr:street": "Polna",
                "addr:housenumber": "56",
                "addr:teryt:simc": 947308,
                "addr:teryt:sym_ul": 17011,
                "contact:phone": "+48 412631055",
                "contact:email": "dyrektor.psp4@ostrowiec.edu.pl",
                "contact:website": "http:\/\/www.psp4.ostrowiec.edu.pl",
                "ref:regon": "000694965",
                "ref:vatin": "PL6611506878",
                "operator": "Miasto Ostrowiec \u015awi\u0119tokrzyski",
                "operator:type": "government",
                "amenity": "school"
            }
        },
        {
            "id": 5565,
            "type": "Feature",
            "geometry": {
                "type": "Point",
                "coordinates": [
                    21.36946,
                    50.94502
                ]
            },
            "properties": {
                "ref:rspo": 5565,
                "official_name": "Zesp\u00f3\u0142 Szk\u00f3\u0142 Og\u00f3lnokszta\u0142c\u0105cych Mistrzostwa Sportowego",
                "name": "Zesp\u00f3\u0142 Szk\u00f3\u0142 Og\u00f3lnokszta\u0142c\u0105cych Mistrzostwa Sportowego",
                "addr:country": "PL",
                "addr:postcode": "27-400",
                "addr:city": "Ostrowiec \u015awi\u0119tokrzyski",
                "addr:street": "Stefana \u017beromskiego",
                "addr:housenumber": "5",
                "addr:teryt:simc": 947308,
                "addr:teryt:sym_ul": 26469,
                "contact:phone": "+48 412624806",
                "contact:email": "sekretariat@sms.ostrowiec.pl",
                "contact:website": "http:\/\/www.sms.ostrowiec.pl",
                "ref:regon": "260628079",
                "ref:vatin": "PL6612368906",
                "operator": "Powiat Ostrowiecki",
                "operator:type": "government",
                "landuse": "education",
                "fixme": "amenity=school, amenity=college albo landuse=education w zale\u017cno\u015bci od tego, jakie plac\u00f3wki wchodz\u0105 w sk\u0142ad zespo\u0142u. Sprawd\u017a, kiedy stosowa\u0107 amenity=* a kiedy landuse=education.",
                "note": "Children RSPO: 10936;11064;262973"
            }
        },
        {
            "id": 15009,
            "type": "Feature",
            "geometry": {
                "type": "Point",
                "coordinates": [
                    21.36946,
                    50.94499
                ]
            },
            "properties": {
                "ref:rspo": 15009,
                "official_name": "Poradnia Psychologiczno-Pedagogiczna w Ostrowcu \u015awi\u0119tokrzyskim",
                "name": "Poradnia Psychologiczno-Pedagogiczna w Ostrowcu \u015awi\u0119tokrzyskim",
                "addr:country": "PL",
                "addr:postcode": "27-400",
                "addr:city": "Ostrowiec \u015awi\u0119tokrzyski",
                "addr:street": "Stefana \u017beromskiego",
                "addr:housenumber": "5",
                "addr:teryt:simc": 947308,
                "addr:teryt:sym_ul": 26469,
                "contact:phone": "+48 412665944",
                "contact:email": "dyrektor@pp-p.ostrowiec.pl",
                "ref:regon": "291120106",
                "ref:vatin": "PL6611657991",
                "operator": "Powiat Ostrowiecki",
                "operator:type": "government",
                "healthcare": "counselling",
                "counselling_type": "education",
                "fixme": "w zale\u017cno\u015bci od przedmiotu dzia\u0142alno\u015bci (np. healthcare=counselling + counselling_type=education albo healthcare=psychotherapist)"
            }
        },
        {
            "id": 10936,
            "type": "Feature",
            "geometry": {
                "type": "Point",
                "coordinates": [
                    21.36946,
                    50.94496
                ]
            },
            "properties": {
                "isced:level": "3",
                "ref:rspo": 10936,
                "official_name": "Liceum Og\u00f3lnokszta\u0142c\u0105ce Nr IV im. Cypriana Kamila Norwida w Ostrowcu \u015awi\u0119tokrzyskim",
                "name": "Liceum Og\u00f3lnokszta\u0142c\u0105ce Nr IV",
                "addr:country": "PL",
                "addr:postcode": "27-400",
                "addr:city": "Ostrowiec \u015awi\u0119tokrzyski",
                "addr:street": "Stefana \u017beromskiego",
                "addr:housenumber": "5",
                "addr:teryt:simc": 947308,
                "addr:teryt:sym_ul": 26469,
                "contact:phone": "+48 412624806",
                "contact:email": "sekretariat@sms.ostrowiec.pl",
                "contact:website": "http:\/\/www.sms.ostrowiec.pl",
                "ref:regon": "292681019",
                "ref:vatin": "PL6612368906",
                "operator": "Powiat Ostrowiecki",
                "operator:type": "government",
                "amenity": "school",
                "note": "Parent RSPO: 5565"
            }
        },
        {
            "id": 11064,
            "type": "Feature",
            "geometry": {
                "type": "Point",
                "coordinates": [
                    21.36946,
                    50.94493
                ]
            },
            "properties": {
                "isced:level": "3",
                "ref:rspo": 11064,
                "official_name": "Liceum Og\u00f3lnokszta\u0142c\u0105ce Mistrzostwa Sportowego",
                "name": "Liceum Og\u00f3lnokszta\u0142c\u0105ce Mistrzostwa Sportowego",
                "addr:country": "PL",
                "addr:postcode": "27-400",
                "addr:city": "Ostrowiec \u015awi\u0119tokrzyski",
                "addr:street": "Stefana \u017beromskiego",
                "addr:housenumber": "5",
                "addr:teryt:simc": 947308,
                "addr:teryt:sym_ul": 26469,
                "contact:phone": "+48 412624806",
                "contact:email": "sekretariat@sms.ostrowiec.pl",
                "contact:website": "http:\/\/www.sms.ostrowiec.pl",
                "ref:regon": "260599047",
                "ref:vatin": "PL6612368906",
                "operator": "Powiat Ostrowiecki",
                "operator:type": "government",
                "amenity": "school",
                "note": "Parent RSPO: 5565"
            }
        },
        {
            "id": 262973,
            "type": "Feature",
            "geometry": {
                "type": "Point",
                "coordinates": [
                    21.36946,
                    50.9449
                ]
            },
            "properties": {
                "isced:level": "1;2",
                "ref:rspo": 262973,
                "official_name": "Szko\u0142a Podstawowa Mistrzostwa Sportowego",
                "name": "Szko\u0142a Podstawowa Mistrzostwa Sportowego",
                "addr:country": "PL",
                "addr:postcode": "27-400",
                "addr:city": "Ostrowiec \u015awi\u0119tokrzyski",
                "addr:street": "Stefana \u017beromskiego",
                "addr:housenumber": "5",
                "addr:teryt:simc": 947308,
                "addr:teryt:sym_ul": 26469,
                "contact:phone": "+48 412624806",
                "contact:email": "sekretariat@sms.ostrowiec.pl",
                "contact:website": "http:\/\/sms.ostrowiec.pl",
                "ref:regon": "368083587",
                "operator": "Powiat Ostrowiecki",
                "operator:type": "government",
                "amenity": "school",
                "note": "Parent RSPO: 5565"
            }
        },
        {
            "id": 14314,
            "type": "Feature",
            "geometry": {
                "type": "Point",
                "coordinates": [
                    21.38808,
                    50.9457
                ]
            },
            "properties": {
                "ref:rspo": 14314,
                "official_name": "Zesp\u00f3\u0142 Szk\u00f3\u0142 Nr 2 w Ostrowcu \u015awi\u0119tokrzyskim",
                "name": "Zesp\u00f3\u0142 Szk\u00f3\u0142 Nr 2 w Ostrowcu \u015awi\u0119tokrzyskim",
                "addr:country": "PL",
                "addr:postcode": "27-400",
                "addr:city": "Ostrowiec \u015awi\u0119tokrzyski",
                "addr:street": "Osiedle S\u0142oneczne",
                "addr:housenumber": "45",
                "addr:teryt:simc": 947308,
                "addr:teryt:sym_ul": 20256,
                "contact:phone": "+48 412631733",
                "contact:email": "zsnr2@budowlanka.net.pl",
                "contact:website": "http:\/\/www.budowlanka.net.pl",
                "ref:regon": "292386349",
                "ref:vatin": "PL6611037113",
                "operator": "Powiat Ostrowiecki",
                "operator:type": "government",
                "landuse": "education",
                "fixme": "amenity=school, amenity=college albo landuse=education w zale\u017cno\u015bci od tego, jakie plac\u00f3wki wchodz\u0105 w sk\u0142ad zespo\u0142u. Sprawd\u017a, kiedy stosowa\u0107 amenity=* a kiedy landuse=education.",
                "note": "Children RSPO: 17610;17611"
            }
        },
        {
            "id": 17610,
            "type": "Feature",
            "geometry": {
                "type": "Point",
                "coordinates": [
                    21.38808,
                    50.94567
                ]
            },
            "properties": {
                "isced:level": "3",
                "ref:rspo": 17610,
                "official_name": "Technikum Nr 2 w Ostrowcu \u015awi\u0119tokrzyskim",
                "name": "Technikum Nr 2 w Ostrowcu \u015awi\u0119tokrzyskim",
                "addr:country": "PL",
                "addr:postcode": "27-400",
                "addr:city": "Ostrowiec \u015awi\u0119tokrzyski",
                "addr:street": "Osiedle S\u0142oneczne",
                "addr:housenumber": "45",
                "addr:teryt:simc": 947308,
                "addr:teryt:sym_ul": 20256,
                "contact:phone": "+48 412631733",
                "contact:email": "zsnr2@budowlanka.net.pl",
                "contact:website": "http:\/\/www.budowlanka.net.pl",
                "ref:regon": "292445572",
                "ref:vatin": "PL6611037113",
                "operator": "Powiat Ostrowiecki",
                "operator:type": "government",
                "amenity": "school",
                "note": "Parent RSPO: 14314"
            }
        },
        {
            "id": 17611,
            "type": "Feature",
            "geometry": {
                "type": "Point",
                "coordinates": [
                    21.38808,
                    50.945640000000004
                ]
            },
            "properties": {
                "isced:level": "3",
                "ref:rspo": 17611,
                "official_name": "Bran\u017cowa Szko\u0142a I Stopnia Nr 2",
                "name": "Bran\u017cowa Szko\u0142a I Stopnia Nr 2",
                "addr:country": "PL",
                "addr:postcode": "27-400",
                "addr:city": "Ostrowiec \u015awi\u0119tokrzyski",
                "addr:street": "Osiedle S\u0142oneczne",
                "addr:housenumber": "45",
                "addr:teryt:simc": 947308,
                "addr:teryt:sym_ul": 20256,
                "contact:phone": "+48 412631733",
                "contact:email": "zsnr2@budowlanka.net.pl",
                "contact:website": "http:\/\/www.budowlanka.net.pl",
                "ref:regon": "292445514",
                "ref:vatin": "PL6611037113",
                "operator": "Powiat Ostrowiecki",
                "operator:type": "government",
                "amenity": "school",
                "note": "Parent RSPO: 14314"
            }
        },
        {
            "id": 11855,
            "type": "Feature",
            "geometry": {
                "type": "Point",
                "coordinates": [
                    21.39299,
                    50.94577
                ]
            },
            "properties": {
                "ref:rspo": 11855,
                "official_name": "Zesp\u00f3\u0142 Szk\u00f3\u0142 Nr 1 im. Miko\u0142aja Kopernika",
                "name": "Zesp\u00f3\u0142 Szk\u00f3\u0142 Nr 1",
                "addr:country": "PL",
                "addr:postcode": "27-400",
                "addr:city": "Ostrowiec \u015awi\u0119tokrzyski",
                "addr:street": "Osiedle S\u0142oneczne",
                "addr:housenumber": "33",
                "addr:teryt:simc": 947308,
                "addr:teryt:sym_ul": 20256,
                "contact:phone": "+48 412630860",
                "contact:email": "sekretariat@zs1.net",
                "contact:website": "http:\/\/www.zs1.net",
                "ref:regon": "292389313",
                "ref:vatin": "PL6611036964",
                "operator": "Powiat Ostrowiecki",
                "operator:type": "government",
                "landuse": "education",
                "fixme": "amenity=school, amenity=college albo landuse=education w zale\u017cno\u015bci od tego, jakie plac\u00f3wki wchodz\u0105 w sk\u0142ad zespo\u0142u. Sprawd\u017a, kiedy stosowa\u0107 amenity=* a kiedy landuse=education.",
                "note": "Children RSPO: 19434;19435"
            }
        },
        {
            "id": 19434,
            "type": "Feature",
            "geometry": {
                "type": "Point",
                "coordinates": [
                    21.39299,
                    50.94574
                ]
            },
            "properties": {
                "isced:level": "3",
                "ref:rspo": 19434,
                "official_name": "Technikum Nr 1 w Ostrowcu \u015awi\u0119tokrzyskim",
                "name": "Technikum Nr 1 w Ostrowcu \u015awi\u0119tokrzyskim",
                "addr:country": "PL",
                "addr:postcode": "27-400",
                "addr:city": "Ostrowiec \u015awi\u0119tokrzyski",
                "addr:street": "Osiedle S\u0142oneczne",
                "addr:housenumber": "33",
                "addr:teryt:simc": 947308,
                "addr:teryt:sym_ul": 20256,
                "contact:phone": "+48 412630860",
                "contact:email": "sekretariat@zs1.net",
                "contact:website": "http:\/\/www.zs1.net",
                "ref:regon": "292441640",
                "ref:vatin": "PL6611036964",
                "operator": "Powiat Ostrowiecki",
                "operator:type": "government",
                "amenity": "school",
                "note": "Parent RSPO: 11855"
            }
        },
        {
            "id": 19435,
            "type": "Feature",
            "geometry": {
                "type": "Point",
                "coordinates": [
                    21.39299,
                    50.945710000000005
                ]
            },
            "properties": {
                "isced:level": "3",
                "ref:rspo": 19435,
                "official_name": "Bran\u017cowa Szko\u0142a I Stopnia Nr 1",
                "name": "Bran\u017cowa Szko\u0142a I Stopnia Nr 1",
                "addr:country": "PL",
                "addr:postcode": "27-400",
                "addr:city": "Ostrowiec \u015awi\u0119tokrzyski",
                "addr:street": "Osiedle S\u0142oneczne",
                "addr:housenumber": "33",
                "addr:teryt:simc": 947308,
                "addr:teryt:sym_ul": 20256,
                "contact:phone": "+48 412630860",
                "contact:email": "sekretariat@zs1.net",
                "contact:website": "http:\/\/www.zs1.net",
                "ref:regon": "292441670",
                "ref:vatin": "PL6611036964",
                "operator": "Powiat Ostrowiecki",
                "operator:type": "government",
                "amenity": "school",
                "note": "Parent RSPO: 11855"
            }
        },
        {
            "id": 3521,
            "type": "Feature",
            "geometry": {
                "type": "Point",
                "coordinates": [
                    21.38259,
                    50.94629
                ]
            },
            "properties": {
                "isced:level": "3",
                "ref:rspo": 3521,
                "official_name": "Liceum Og\u00f3lnokszta\u0142c\u0105ce Nr II im. Joachima Chreptowicza w Ostrowcu \u015awi\u0119tokrzyskim",
                "name": "Liceum Og\u00f3lnokszta\u0142c\u0105ce Nr II",
                "addr:country": "PL",
                "addr:postcode": "27-400",
                "addr:city": "Ostrowiec \u015awi\u0119tokrzyski",
                "addr:street": "Jana Ros\u0142o\u0144skiego",
                "addr:housenumber": "1",
                "addr:teryt:simc": 947308,
                "addr:teryt:sym_ul": 18872,
                "contact:phone": "+48 412666162",
                "contact:email": "sekretariat.chreptowicz@ostrowiec.edu.pl",
                "contact:website": "http:\/\/www.chreptowicz.ostrowiec.edu.pl",
                "ref:regon": "292382995",
                "ref:vatin": "PL6611654194",
                "operator": "Powiat Ostrowiecki",
                "operator:type": "government",
                "amenity": "school"
            }
        },
        {
            "id": 12158,
            "type": "Feature",
            "geometry": {
                "type": "Point",
                "coordinates": [
                    21.3778,
                    50.94632
                ]
            },
            "properties": {
                "ref:rspo": 12158,
                "official_name": "Niepubliczna \u015awi\u0119tokrzyska Szko\u0142a Muzyki Rozrywkowej I Jazzu II St. im. Miry Kubasi\u0144skiej w Ostrowcu \u015awi\u0119tokrzyskim",
                "name": "Niepubliczna \u015awi\u0119tokrzyska Szko\u0142a Muzyki Rozrywkowej I Jazzu II St.",
                "addr:country": "PL",
                "addr:postcode": "27-400",
                "addr:city": "Ostrowiec \u015awi\u0119tokrzyski",
                "addr:street": "Wsp\u00f3lna",
                "addr:housenumber": "5",
                "addr:teryt:simc": 947308,
                "addr:teryt:sym_ul": 24885,
                "contact:phone": "+48 696267311",
                "contact:email": "stan_art@poczta.fm",
                "ref:regon": "260631182",
                "operator": "Opatowskie Towarzystwo Artystyczne",
                "operator:type": "ngo",
                "amenity": "music_school"
            }
        },
        {
            "id": 7355,
            "type": "Feature",
            "geometry": {
                "type": "Point",
                "coordinates": [
                    21.37848,
                    50.94647
                ]
            },
            "properties": {
                "ref:rspo": 7355,
                "official_name": "Przedszkole Publiczne Nr 11 im. Marii Kownackiej w Ostrowcu \u015awi\u0119tokrzyskim",
                "name": "Przedszkole Publiczne Nr 11",
                "addr:country": "PL",
                "addr:postcode": "27-400",
                "addr:city": "Ostrowiec \u015awi\u0119tokrzyski",
                "addr:street": "Wsp\u00f3lna",
                "addr:housenumber": "20",
                "addr:teryt:simc": 947308,
                "addr:teryt:sym_ul": 24885,
                "contact:phone": "+48 412490131",
                "contact:email": "pp11@przedszkole.ostrowiec.pl",
                "contact:website": "http:\/\/www.plastusiowo.oodn.pl",
                "ref:regon": "290014678",
                "ref:vatin": "PL6611505206",
                "operator": "Miasto Ostrowiec \u015awi\u0119tokrzyski",
                "operator:type": "government",
                "amenity": "kindergarten"
            }
        },
        {
            "id": 4299,
            "type": "Feature",
            "geometry": {
                "type": "Point",
                "coordinates": [
                    21.37243,
                    50.94648
                ]
            },
            "properties": {
                "ref:rspo": 4299,
                "official_name": "M\u0142odzie\u017cowy O\u015brodek Socjoterapii w Ostrowcu \u015awi\u0119tokrzyskim",
                "name": "M\u0142odzie\u017cowy O\u015brodek Socjoterapii w Ostrowcu \u015awi\u0119tokrzyskim",
                "addr:country": "PL",
                "addr:postcode": "27-400",
                "addr:city": "Ostrowiec \u015awi\u0119tokrzyski",
                "addr:street": "Henryka Sienkiewicza",
                "addr:housenumber": "67",
                "addr:teryt:simc": 947308,
                "addr:teryt:sym_ul": 19834,
                "contact:phone": "+48 412482440",
                "contact:email": "pdmsosw@poczta.fm",
                "contact:website": "http:\/\/www.mos.ostrowiec.pl",
                "ref:regon": "292385611",
                "ref:vatin": "PL6611654219",
                "operator": "Powiat Ostrowiecki",
                "operator:type": "government",
                "fixme": "amenity=social_facility + social_facility=group_home + social_facility:for=juvenile",
                "note": "Children RSPO: 9189;9191"
            }
        },
        {
            "id": 9189,
            "type": "Feature",
            "geometry": {
                "type": "Point",
                "coordinates": [
                    21.37243,
                    50.94645
                ]
            },
            "properties": {
                "isced:level": "1;2",
                "ref:rspo": 9189,
                "official_name": "Szko\u0142a Podstawowa Specjalna Nr 21",
                "name": "Szko\u0142a Podstawowa Specjalna Nr 21",
                "addr:country": "PL",
                "addr:postcode": "27-400",
                "addr:city": "Ostrowiec \u015awi\u0119tokrzyski",
                "addr:street": "Henryka Sienkiewicza",
                "addr:housenumber": "67",
                "addr:teryt:simc": 947308,
                "addr:teryt:sym_ul": 19834,
                "contact:phone": "+48 412482440",
                "contact:email": "pdmsosw@poczta.fm",
                "contact:website": "http:\/\/www.mos.ostrowiec.pl",
                "ref:regon": "292391741",
                "ref:vatin": "PL6611654219",
                "operator": "Powiat Ostrowiecki",
                "operator:type": "government",
                "amenity": "school",
                "note": "Parent RSPO: 4299"
            }
        },
        {
            "id": 9191,
            "type": "Feature",
            "geometry": {
                "type": "Point",
                "coordinates": [
                    21.37243,
                    50.94642
                ]
            },
            "properties": {
                "isced:level": "3",
                "ref:rspo": 9191,
                "official_name": "Bran\u017cowa Szko\u0142a I Stopnia Specjalna Nr 2 w Ostrowcu \u015awi\u0119tokrzyskim",
                "name": "Bran\u017cowa Szko\u0142a I Stopnia Specjalna Nr 2 w Ostrowcu \u015awi\u0119tokrzyskim",
                "addr:country": "PL",
                "addr:postcode": "27-400",
                "addr:city": "Ostrowiec \u015awi\u0119tokrzyski",
                "addr:street": "Henryka Sienkiewicza",
                "addr:housenumber": "67",
                "addr:teryt:simc": 947308,
                "addr:teryt:sym_ul": 19834,
                "contact:phone": "+48 412482440",
                "contact:email": "pdmsosw@poczta.fm",
                "contact:website": "http:\/\/www.mos.ostrowiec.pl",
                "ref:regon": "260629713",
                "ref:vatin": "PL6611654219",
                "operator": "Powiat Ostrowiecki",
                "operator:type": "government",
                "amenity": "school",
                "note": "Parent RSPO: 4299"
            }
        },
        {
            "id": 7353,
            "type": "Feature",
            "geometry": {
                "type": "Point",
                "coordinates": [
                    21.3944,
                    50.94681
                ]
            },
            "properties": {
                "ref:rspo": 7353,
                "official_name": "Przedszkole Publiczne Nr 7 w Ostrowcu \u015awi\u0119tokrzyskim",
                "name": "Przedszkole Publiczne Nr 7 w Ostrowcu \u015awi\u0119tokrzyskim",
                "addr:country": "PL",
                "addr:postcode": "27-400",
                "addr:city": "Ostrowiec \u015awi\u0119tokrzyski",
                "addr:street": "Osiedle S\u0142oneczne",
                "addr:housenumber": "28",
                "addr:teryt:simc": 947308,
                "addr:teryt:sym_ul": 20256,
                "contact:phone": "+48 412620928",
                "contact:email": "pp7@przedszkole.ostrowiec.pl",
                "contact:website": "http:\/\/www.pp7oodn.pl",
                "ref:regon": "290014632",
                "ref:vatin": "PL6611507151",
                "operator": "Miasto Ostrowiec \u015awi\u0119tokrzyski",
                "operator:type": "government",
                "amenity": "kindergarten"
            }
        },
        {
            "id": 11427,
            "type": "Feature",
            "geometry": {
                "type": "Point",
                "coordinates": [
                    21.37193,
                    50.94696
                ]
            },
            "properties": {
                "isced:level": "3",
                "ref:rspo": 11427,
                "official_name": "Liceum Og\u00f3lnokszta\u0142c\u0105ce Nr III im. W\u0142adys\u0142awa Broniewskiego w Ostrowcu \u015awi\u0119tokrzyskim",
                "name": "Liceum Og\u00f3lnokszta\u0142c\u0105ce Nr III",
                "addr:country": "PL",
                "addr:postcode": "27-400",
                "addr:city": "Ostrowiec \u015awi\u0119tokrzyski",
                "addr:street": "Henryka Sienkiewicza",
                "addr:housenumber": "67A",
                "addr:teryt:simc": 947308,
                "addr:teryt:sym_ul": 19834,
                "contact:phone": "+48 412621768",
                "contact:email": "lo3sekretariat@broniewski.ostrowiec.pl",
                "contact:website": "http:\/\/www.broniewski.ostrowiec.pl",
                "ref:regon": "292389282",
                "ref:vatin": "PL6611654225",
                "operator": "Powiat Ostrowiecki",
                "operator:type": "government",
                "amenity": "school"
            }
        },
        {
            "id": 7354,
            "type": "Feature",
            "geometry": {
                "type": "Point",
                "coordinates": [
                    21.38635,
                    50.94739
                ]
            },
            "properties": {
                "ref:rspo": 7354,
                "official_name": "Przedszkole Publiczne Nr 12 Z Oddzia\u0142ami Integracyjnymi im. M. Konopnickiej w Ostrowcu \u015awi\u0119tokrzyskim",
                "name": "Przedszkole Publiczne Nr 12 Z Oddzia\u0142ami Integracyjnymi",
                "addr:country": "PL",
                "addr:postcode": "27-400",
                "addr:city": "Ostrowiec \u015awi\u0119tokrzyski",
                "addr:street": "Osiedle S\u0142oneczne",
                "addr:housenumber": "5",
                "addr:teryt:simc": 947308,
                "addr:teryt:sym_ul": 20256,
                "contact:phone": "+48 412475294",
                "contact:email": "pp12@przedszkole.ostrowiec.pl",
                "contact:website": "http:\/\/www.pp12.pl",
                "ref:regon": "290014684",
                "ref:vatin": "PL6611505330",
                "operator": "Miasto Ostrowiec \u015awi\u0119tokrzyski",
                "operator:type": "government",
                "amenity": "kindergarten"
            }
        },
        {
            "id": 16390,
            "type": "Feature",
            "geometry": {
                "type": "Point",
                "coordinates": [
                    21.3904,
                    50.94753
                ]
            },
            "properties": {
                "ref:rspo": 16390,
                "official_name": "Bursa Szkolna w Ostrowcu \u015awi\u0119tokrzyskim",
                "name": "Bursa Szkolna w Ostrowcu \u015awi\u0119tokrzyskim",
                "addr:country": "PL",
                "addr:postcode": "27-400",
                "addr:city": "Ostrowiec \u015awi\u0119tokrzyski",
                "addr:street": "Osiedle S\u0142oneczne",
                "addr:housenumber": "48",
                "addr:teryt:simc": 947308,
                "addr:teryt:sym_ul": 20256,
                "contact:phone": "+48 412476149",
                "contact:email": "sekretariat@bursaostrowiec.pl",
                "contact:website": "http:\/\/www.bursaostrowiec.pl",
                "ref:regon": "292672820",
                "ref:vatin": "PL6612130889",
                "operator": "Powiat Ostrowiecki",
                "operator:type": "government",
                "building": "dormitory"
            }
        },
        {
            "id": 16996,
            "type": "Feature",
            "geometry": {
                "type": "Point",
                "coordinates": [
                    21.3904,
                    50.9475
                ]
            },
            "properties": {
                "ref:rspo": 16996,
                "official_name": "Specjalny O\u015brodek Szkolno-Wychowawczy w Ostrowcu \u015awi\u0119tokrzyskim",
                "name": "Specjalny O\u015brodek Szkolno-Wychowawczy w Ostrowcu \u015awi\u0119tokrzyskim",
                "addr:country": "PL",
                "addr:postcode": "27-400",
                "addr:city": "Ostrowiec \u015awi\u0119tokrzyski",
                "addr:street": "Osiedle S\u0142oneczne",
                "addr:housenumber": "48",
                "addr:teryt:simc": 947308,
                "addr:teryt:sym_ul": 20256,
                "contact:phone": "+48 412474720",
                "contact:email": "sosw-ostrowiec1@wp.pl",
                "contact:website": "http:\/\/www.sosw-ostrowiec.edupage.org",
                "ref:regon": "292367719",
                "ref:vatin": "PL6611654202",
                "operator": "Powiat Ostrowiecki",
                "operator:type": "government",
                "amenity": "school",
                "note": "Children RSPO: 21305;21307;272843"
            }
        },
        {
            "id": 21305,
            "type": "Feature",
            "geometry": {
                "type": "Point",
                "coordinates": [
                    21.3904,
                    50.94747
                ]
            },
            "properties": {
                "isced:level": "1;2",
                "ref:rspo": 21305,
                "official_name": "Szko\u0142a Podstawowa Specjalna Nr 1 w Ostrowcu \u015awi\u0119tokrzyskim",
                "name": "Szko\u0142a Podstawowa Specjalna Nr 1 w Ostrowcu \u015awi\u0119tokrzyskim",
                "addr:country": "PL",
                "addr:postcode": "27-400",
                "addr:city": "Ostrowiec \u015awi\u0119tokrzyski",
                "addr:street": "Osiedle S\u0142oneczne",
                "addr:housenumber": "48",
                "addr:teryt:simc": 947308,
                "addr:teryt:sym_ul": 20256,
                "contact:phone": "+48 412474720",
                "contact:email": "sosw-ostrowiec1@wp.pl",
                "contact:website": "http:\/\/www.soswostrowiec.edupage.org",
                "ref:regon": "292367731",
                "ref:vatin": "PL6611654202",
                "operator": "Powiat Ostrowiecki",
                "operator:type": "government",
                "amenity": "school",
                "note": "Parent RSPO: 16996"
            }
        },
        {
            "id": 21307,
            "type": "Feature",
            "geometry": {
                "type": "Point",
                "coordinates": [
                    21.3904,
                    50.94744
                ]
            },
            "properties": {
                "isced:level": "3",
                "ref:rspo": 21307,
                "official_name": "Bran\u017cowa Szko\u0142a I Stopnia Specjalna",
                "name": "Bran\u017cowa Szko\u0142a I Stopnia Specjalna",
                "addr:country": "PL",
                "addr:postcode": "27-400",
                "addr:city": "Ostrowiec \u015awi\u0119tokrzyski",
                "addr:street": "Osiedle S\u0142oneczne",
                "addr:housenumber": "48",
                "addr:teryt:simc": 947308,
                "addr:teryt:sym_ul": 20256,
                "contact:phone": "+48 412474720",
                "contact:email": "sosw-ostrowiec1@wp.pl",
                "contact:website": "http:\/\/www.soswostrowiec.edupage.org",
                "ref:regon": "292367748",
                "ref:vatin": "PL6611654202",
                "operator": "Powiat Ostrowiecki",
                "operator:type": "government",
                "amenity": "school",
                "note": "Parent RSPO: 16996"
            }
        },
        {
            "id": 272843,
            "type": "Feature",
            "geometry": {
                "type": "Point",
                "coordinates": [
                    21.3904,
                    50.94741
                ]
            },
            "properties": {
                "ref:rspo": 272843,
                "official_name": "Szko\u0142a Specjalna Przysposabiaj\u0105ca Do Pracy w Specjalnym O\u015brodku Szkolno-Wychowawczym w Ostrowcu \u015awi\u0119tokrzyskim",
                "name": "Szko\u0142a Specjalna Przysposabiaj\u0105ca Do Pracy w Specjalnym O\u015brodku Szkolno-Wychowawczym w Ostrowcu \u015awi\u0119tokrzyskim",
                "addr:country": "PL",
                "addr:postcode": "27-400",
                "addr:city": "Ostrowiec \u015awi\u0119tokrzyski",
                "addr:street": "Osiedle S\u0142oneczne",
                "addr:housenumber": "48",
                "addr:teryt:simc": 947308,
                "addr:teryt:sym_ul": 20256,
                "contact:phone": "+48 412474720",
                "contact:email": "sosw-ostrowiec1@wp.pl",
                "contact:website": "http:\/\/soswostrowiec.edupage.org",
                "ref:regon": "384301706",
                "operator": "Powiat Ostrowiecki",
                "operator:type": "government",
                "amenity": "school",
                "note": "Parent RSPO: 16996"
            }
        },
        {
            "id": 30385,
            "type": "Feature",
            "geometry": {
                "type": "Point",
                "coordinates": [
                    21.39019,
                    50.94786
                ]
            },
            "properties": {
                "isced:level": "3",
                "ref:rspo": 30385,
                "official_name": "Niepubliczne Liceum Og\u00f3lnokszta\u0142c\u0105ce dla Doros\u0142ych Centrum Edukacji Zawodowej w Ostrowcu \u015awi\u0119tokrzyskim",
                "name": "Niepubliczne Liceum Og\u00f3lnokszta\u0142c\u0105ce dla Doros\u0142ych Centrum Edukacji Zawodowej w Ostrowcu \u015awi\u0119tokrzyskim",
                "addr:country": "PL",
                "addr:postcode": "27-400",
                "addr:city": "Ostrowiec \u015awi\u0119tokrzyski",
                "addr:street": "Osiedle S\u0142oneczne",
                "addr:housenumber": "14",
                "addr:teryt:simc": 947308,
                "addr:teryt:sym_ul": 20256,
                "contact:phone": "+48 413039491",
                "contact:email": "cezostrowiec@gmail.com",
                "contact:website": "http:\/\/www.cez.edu.pl",
                "ref:regon": "260643417",
                "ref:vatin": "PL6611336301",
                "operator": "Anna Pi\u0119ci\u0144ska",
                "operator:type": "private",
                "amenity": "school"
            }
        },
        {
            "id": 30387,
            "type": "Feature",
            "geometry": {
                "type": "Point",
                "coordinates": [
                    21.39019,
                    50.947829999999996
                ]
            },
            "properties": {
                "isced:level": "4",
                "ref:rspo": 30387,
                "official_name": "Niepubliczna Szko\u0142a Policealna Nr 2 Centrum Edukacji Zawodowej w Ostrowcu \u015awi\u0119tokrzyskim",
                "name": "Niepubliczna Szko\u0142a Policealna Nr 2 Centrum Edukacji Zawodowej w Ostrowcu \u015awi\u0119tokrzyskim",
                "addr:country": "PL",
                "addr:postcode": "27-400",
                "addr:city": "Ostrowiec \u015awi\u0119tokrzyski",
                "addr:street": "Osiedle S\u0142oneczne",
                "addr:housenumber": "14",
                "addr:teryt:simc": 947308,
                "addr:teryt:sym_ul": 20256,
                "contact:phone": "+48 413039491",
                "contact:email": "cezostrowiec@gmail.com",
                "contact:website": "http:\/\/www.cez.edu.pl",
                "ref:regon": "260642694",
                "ref:vatin": "PL6611336301",
                "operator": "Anna Pi\u0119ci\u0144ska",
                "operator:type": "private",
                "amenity": "college"
            }
        },
        {
            "id": 30388,
            "type": "Feature",
            "geometry": {
                "type": "Point",
                "coordinates": [
                    21.39019,
                    50.9478
                ]
            },
            "properties": {
                "isced:level": "4",
                "ref:rspo": 30388,
                "official_name": "Niepubliczna Szko\u0142a Policealna Nr 1 Centrum Edukacji Zawodowej w Ostrowcu \u015awi\u0119tokrzyskim",
                "name": "Niepubliczna Szko\u0142a Policealna Nr 1 Centrum Edukacji Zawodowej w Ostrowcu \u015awi\u0119tokrzyskim",
                "addr:country": "PL",
                "addr:postcode": "27-400",
                "addr:city": "Ostrowiec \u015awi\u0119tokrzyski",
                "addr:street": "Osiedle S\u0142oneczne",
                "addr:housenumber": "14",
                "addr:teryt:simc": 947308,
                "addr:teryt:sym_ul": 20256,
                "contact:phone": "+48 412630531",
                "contact:email": "cezostrowiec@gmail.com",
                "contact:website": "http:\/\/www.cez.edu.pl",
                "ref:regon": "260643423",
                "ref:vatin": "PL6611336301",
                "operator": "Anna Pi\u0119ci\u0144ska",
                "operator:type": "private",
                "amenity": "college"
            }
        },
        {
            "id": 274259,
            "type": "Feature",
            "geometry": {
                "type": "Point",
                "coordinates": [
                    21.39019,
                    50.94777
                ]
            },
            "properties": {
                "ref:rspo": 274259,
                "official_name": "Studium Kszta\u0142cenia Zawodowego I J\u0119zyk\u00f3w Obcych",
                "name": "Studium Kszta\u0142cenia Zawodowego I J\u0119zyk\u00f3w Obcych",
                "addr:country": "PL",
                "addr:postcode": "27-400",
                "addr:city": "Ostrowiec \u015awi\u0119tokrzyski",
                "addr:street": "Osiedle S\u0142oneczne",
                "addr:housenumber": "14",
                "addr:teryt:simc": 947308,
                "addr:teryt:sym_ul": 20256,
                "contact:phone": "+48 412624067",
                "contact:email": "biuro@skzijo.pl",
                "contact:website": "http:\/\/skzijo.pl",
                "ref:regon": "385490023",
                "operator": "Tomasz Krutina",
                "operator:type": "private",
                "fixme": "w zale\u017cno\u015bci od przedmiotu dzia\u0142alno\u015bci (np. amenity=training + training=*, amenity=dancing_school, amenity=language_school, amenity=music_school) albo amenity=school, amenity=college, albo landuse=education w zale\u017cno\u015bci od tego, jakie plac\u00f3wki wchodz\u0105 w sk\u0142ad zespo\u0142u. Sprawd\u017a, kiedy stosowa\u0107 amenity=* a kiedy landuse=education."
            }
        },
        {
            "id": 7359,
            "type": "Feature",
            "geometry": {
                "type": "Point",
                "coordinates": [
                    21.4061,
                    50.94816
                ]
            },
            "properties": {
                "ref:rspo": 7359,
                "official_name": "Przedszkole Publiczne Nr 21 w Ostrowcu \u015awi\u0119tokrzyskim",
                "name": "Przedszkole Publiczne Nr 21 w Ostrowcu \u015awi\u0119tokrzyskim",
                "addr:country": "PL",
                "addr:postcode": "27-400",
                "addr:city": "Ostrowiec \u015awi\u0119tokrzyski",
                "addr:street": "Osiedle Stawki",
                "addr:housenumber": "43",
                "addr:teryt:simc": 947308,
                "addr:teryt:sym_ul": 21095,
                "contact:phone": "+48 412661107",
                "contact:email": "pp21@przedszkole.ostrowiec.pl",
                "contact:website": "http:\/\/pp21ostrowiec.pl",
                "ref:regon": "290014767",
                "ref:vatin": "PL6611506074",
                "operator": "Miasto Ostrowiec \u015awi\u0119tokrzyski",
                "operator:type": "government",
                "amenity": "kindergarten"
            }
        },
        {
            "id": 15176,
            "type": "Feature",
            "geometry": {
                "type": "Point",
                "coordinates": [
                    21.40672,
                    50.94909
                ]
            },
            "properties": {
                "isced:level": "1;2",
                "ref:rspo": 15176,
                "official_name": "Publiczna Szko\u0142a Podstawowa Nr 14 im. Orl\u0105t Lwowskich w Ostrowcu \u015awi\u0119tokrzyskim",
                "name": "Publiczna Szko\u0142a Podstawowa Nr 14",
                "addr:country": "PL",
                "addr:postcode": "27-400",
                "addr:city": "Ostrowiec \u015awi\u0119tokrzyski",
                "addr:street": "Osiedle Stawki",
                "addr:housenumber": "35",
                "addr:teryt:simc": 947308,
                "addr:teryt:sym_ul": 21095,
                "contact:phone": "+48 412470606",
                "contact:email": "sekretariat@psp14.ostrowiec.info",
                "contact:website": "http:\/\/www.psp14.ostrowiec.info",
                "ref:regon": "290018311",
                "ref:vatin": "PL6612303999",
                "operator": "Miasto Ostrowiec \u015awi\u0119tokrzyski",
                "operator:type": "government",
                "amenity": "school"
            }
        },
        {
            "id": 7358,
            "type": "Feature",
            "geometry": {
                "type": "Point",
                "coordinates": [
                    21.38705,
                    50.9505
                ]
            },
            "properties": {
                "ref:rspo": 7358,
                "official_name": "Przedszkole Publiczne Nr 16 im. \u201eKolorowa Akademia\u201d w Ostrowcu \u015awi\u0119tokrzyskim",
                "name": "Przedszkole Publiczne Nr 16",
                "addr:country": "PL",
                "addr:postcode": "27-400",
                "addr:city": "Ostrowiec \u015awi\u0119tokrzyski",
                "addr:street": "Osiedle Pu\u0142anki",
                "addr:housenumber": "6",
                "addr:teryt:simc": 947308,
                "addr:teryt:sym_ul": 18088,
                "contact:phone": "+48 412620976",
                "contact:email": "pp16@przedszkole.ostrowiec.pl",
                "contact:website": "http:\/\/www.pp16.oodn.pl",
                "ref:regon": "290014721",
                "ref:vatin": "PL6611065210",
                "operator": "Miasto Ostrowiec \u015awi\u0119tokrzyski",
                "operator:type": "government",
                "amenity": "kindergarten"
            }
        },
        {
            "id": 133622,
            "type": "Feature",
            "geometry": {
                "type": "Point",
                "coordinates": [
                    21.38993,
                    50.95136
                ]
            },
            "properties": {
                "ref:rspo": 133622,
                "official_name": "Akademicka Niepubliczna Poradnia Psychologiczno-Pedagogiczna w Ostrowcu \u015awi\u0119tokrzyskim",
                "name": "Akademicka Niepubliczna Poradnia Psychologiczno-Pedagogiczna w Ostrowcu \u015awi\u0119tokrzyskim",
                "addr:country": "PL",
                "addr:postcode": "27-400",
                "addr:city": "Ostrowiec \u015awi\u0119tokrzyski",
                "addr:street": "Akademicka",
                "addr:housenumber": "12",
                "addr:teryt:simc": 947308,
                "addr:teryt:sym_ul": 160,
                "contact:phone": "+48 530321866",
                "contact:email": "akademicka.poradnia.ostrowiec@gmail.com",
                "ref:regon": "367498228",
                "operator": "Stowarzyszenie \"Nauka, Edukacja, Rozw\u00f3j\"",
                "operator:type": "ngo",
                "healthcare": "counselling",
                "counselling_type": "education",
                "fixme": "w zale\u017cno\u015bci od przedmiotu dzia\u0142alno\u015bci (np. healthcare=counselling + counselling_type=education albo healthcare=psychotherapist)"
            }
        },
        {
            "id": 271931,
            "type": "Feature",
            "geometry": {
                "type": "Point",
                "coordinates": [
                    21.38993,
                    50.95133
                ]
            },
            "properties": {
                "ref:rspo": 271931,
                "official_name": "Akademickie Centrum Kszta\u0142cenia Zawodowego w Ostrowcu \u015awi\u0119tokrzyskim",
                "name": "Akademickie Centrum Kszta\u0142cenia Zawodowego w Ostrowcu \u015awi\u0119tokrzyskim",
                "addr:country": "PL",
                "addr:postcode": "27-400",
                "addr:city": "Ostrowiec \u015awi\u0119tokrzyski",
                "addr:street": "Akademicka",
                "addr:housenumber": "12A",
                "addr:teryt:simc": 947308,
                "addr:teryt:sym_ul": 160,
                "contact:phone": "+48 412604042",
                "contact:email": "centrum@wsbip.edu.pl",
                "ref:regon": "383807616",
                "operator": "Stowarzyszenie \"Nauka, Edukacja, Rozw\u00f3j\"",
                "operator:type": "ngo",
                "fixme": "w zale\u017cno\u015bci od przedmiotu dzia\u0142alno\u015bci (np. amenity=training + training=*, amenity=dancing_school, amenity=language_school, amenity=music_school) albo amenity=school, amenity=college, albo landuse=education w zale\u017cno\u015bci od tego, jakie plac\u00f3wki wchodz\u0105 w sk\u0142ad zespo\u0142u. Sprawd\u017a, kiedy stosowa\u0107 amenity=* a kiedy landuse=education."
            }
        },
        {
            "id": 278942,
            "type": "Feature",
            "geometry": {
                "type": "Point",
                "coordinates": [
                    21.38993,
                    50.9513
                ]
            },
            "properties": {
                "ref:rspo": 278942,
                "official_name": "Niepubliczne Przedszkole Montessori \"First Step\"",
                "name": "Niepubliczne Przedszkole Montessori \"First Step\"",
                "addr:country": "PL",
                "addr:postcode": "27-400",
                "addr:city": "Ostrowiec \u015awi\u0119tokrzyski",
                "addr:street": "Akademicka",
                "addr:housenumber": "12",
                "addr:teryt:simc": 947308,
                "addr:teryt:sym_ul": 160,
                "contact:email": "montessori.1firststep@gmail.com",
                "ref:regon": "520240285",
                "operator": "Paula Kowalska",
                "operator:type": "private",
                "amenity": "kindergarten"
            }
        },
        {
            "id": 90726,
            "type": "Feature",
            "geometry": {
                "type": "Point",
                "coordinates": [
                    21.37417,
                    50.95162
                ]
            },
            "properties": {
                "isced:level": "1;2",
                "ref:rspo": 90726,
                "official_name": "Publiczna Szko\u0142a Podstawowa Nr 1 w Ostrowcu \u015awi\u0119tokrzyskim",
                "name": "Publiczna Szko\u0142a Podstawowa Nr 1 w Ostrowcu \u015awi\u0119tokrzyskim",
                "addr:country": "PL",
                "addr:postcode": "27-400",
                "addr:city": "Ostrowiec \u015awi\u0119tokrzyski",
                "addr:street": "Trzeciak\u00f3w",
                "addr:housenumber": "35",
                "addr:teryt:simc": 947308,
                "addr:teryt:sym_ul": 23088,
                "contact:phone": "+48 412663693",
                "contact:email": "psp1@ostrowiec.edu.pl",
                "contact:website": "http:\/\/psp1ostrowiec.edupage.org\/",
                "ref:regon": "000694936",
                "ref:vatin": "PL6611036958",
                "operator": "Miasto Ostrowiec \u015awi\u0119tokrzyski",
                "operator:type": "government",
                "amenity": "school"
            }
        },
        {
            "id": 8163,
            "type": "Feature",
            "geometry": {
                "type": "Point",
                "coordinates": [
                    21.3908086,
                    50.9524849
                ]
            },
            "properties": {
                "isced:level": "1;2",
                "ref:rspo": 8163,
                "official_name": "Publiczna Szko\u0142a Podstawowa Nr 7 im. Henryka Sienkiewicza w Ostrowcu \u015awi\u0119tokrzyskim",
                "name": "Publiczna Szko\u0142a Podstawowa Nr 7",
                "addr:country": "PL",
                "addr:postcode": "27-400",
                "addr:city": "Ostrowiec \u015awi\u0119tokrzyski",
                "addr:street": "Akademicka",
                "addr:housenumber": "20",
                "addr:teryt:simc": 947308,
                "addr:teryt:sym_ul": 160,
                "contact:phone": "+48 412632050",
                "contact:email": "psp7@ostrowiec.edu.pl",
                "contact:website": "https:\/\/psp7ostrowiec.edupage.org\/",
                "ref:regon": "001270434",
                "ref:vatin": "PL6611668003",
                "operator": "Miasto Ostrowiec \u015awi\u0119tokrzyski",
                "operator:type": "government",
                "amenity": "school"
            }
        },
        {
            "id": 105129,
            "type": "Feature",
            "geometry": {
                "type": "Point",
                "coordinates": [
                    21.36477,
                    50.95566
                ]
            },
            "properties": {
                "ref:rspo": 105129,
                "official_name": "Zak\u0142ad Poprawczy w Ostrowcu \u015awi\u0119tokrzyskim",
                "name": "Zak\u0142ad Poprawczy w Ostrowcu \u015awi\u0119tokrzyskim",
                "addr:country": "PL",
                "addr:postcode": "27-400",
                "addr:city": "Ostrowiec \u015awi\u0119tokrzyski",
                "addr:street": "D\u0142uga",
                "addr:housenumber": "10",
                "addr:teryt:simc": 947308,
                "addr:teryt:sym_ul": 3839,
                "contact:phone": "+48 412624313",
                "contact:email": "sekretariat@ostrowiec.zp.gov.pl",
                "contact:website": "http:\/\/www.ostrowiec.zp.gov.pl",
                "ref:regon": "000322502",
                "operator": "Ministerstwo Sprawiedliwo\u015bci",
                "operator:type": "public",
                "note": "Children RSPO: 124796;124805"
            }
        },
        {
            "id": 124796,
            "type": "Feature",
            "geometry": {
                "type": "Point",
                "coordinates": [
                    21.36477,
                    50.95563
                ]
            },
            "properties": {
                "isced:level": "1;2",
                "ref:rspo": 124796,
                "official_name": "Szko\u0142a Podstawowa Nr 15 w Zak\u0142adzie Poprawczym w Ostrowcu \u015awi\u0119tokrzyskim",
                "name": "Szko\u0142a Podstawowa Nr 15 w Zak\u0142adzie Poprawczym w Ostrowcu \u015awi\u0119tokrzyskim",
                "addr:country": "PL",
                "addr:postcode": "27-400",
                "addr:city": "Ostrowiec \u015awi\u0119tokrzyski",
                "addr:street": "D\u0142uga",
                "addr:housenumber": "10",
                "addr:teryt:simc": 947308,
                "addr:teryt:sym_ul": 3839,
                "contact:phone": "+48 412624313",
                "contact:email": "sekretariat@ostrowiec.zp.gov.pl",
                "contact:website": "http:\/\/www.ostrowiec.zp.gov.pl",
                "ref:regon": "292430524",
                "operator": "Ministerstwo Sprawiedliwo\u015bci",
                "operator:type": "public",
                "amenity": "school",
                "note": "Parent RSPO: 105129"
            }
        },
        {
            "id": 124805,
            "type": "Feature",
            "geometry": {
                "type": "Point",
                "coordinates": [
                    21.36477,
                    50.955600000000004
                ]
            },
            "properties": {
                "isced:level": "3",
                "ref:rspo": 124805,
                "official_name": "Bran\u017cowa Szko\u0142a I Stopnia Nr 5 w Zak\u0142adzie Poprawczym w Ostrowcu \u015awi\u0119tokrzyskim",
                "name": "Bran\u017cowa Szko\u0142a I Stopnia Nr 5 w Zak\u0142adzie Poprawczym w Ostrowcu \u015awi\u0119tokrzyskim",
                "addr:country": "PL",
                "addr:postcode": "27-400",
                "addr:city": "Ostrowiec \u015awi\u0119tokrzyski",
                "addr:street": "D\u0142uga",
                "addr:housenumber": "10",
                "addr:teryt:simc": 947308,
                "addr:teryt:sym_ul": 3839,
                "contact:phone": "+48 412624313",
                "contact:email": "sekretariat@ostrowiec.zp.gov.pl",
                "contact:website": "http:\/\/www.ostrowiec.zp.gov.pl",
                "ref:regon": "292430493",
                "operator": "Ministerstwo Sprawiedliwo\u015bci",
                "operator:type": "public",
                "amenity": "school",
                "note": "Parent RSPO: 105129"
            }
        },
        {
            "id": 123014,
            "type": "Feature",
            "geometry": {
                "type": "Point",
                "coordinates": [
                    21.36765,
                    50.95639
                ]
            },
            "properties": {
                "ref:rspo": 123014,
                "official_name": "Katolicki Zesp\u00f3\u0142 Edukacyjny w Ostrowcu \u015awi\u0119tokrzyskim",
                "name": "Katolicki Zesp\u00f3\u0142 Edukacyjny w Ostrowcu \u015awi\u0119tokrzyskim",
                "addr:country": "PL",
                "addr:postcode": "27-400",
                "addr:city": "Ostrowiec \u015awi\u0119tokrzyski",
                "addr:street": "Grabowiecka",
                "addr:housenumber": "15",
                "addr:teryt:simc": 947308,
                "addr:teryt:sym_ul": 6035,
                "contact:phone": "+48 412477563",
                "contact:email": "kze.ostrowiec@gmail.com",
                "ref:regon": "260765534",
                "operator": "Zgromadzenie Si\u00f3str Franciszkanek Rodziny Maryi Prowincja Krakowska",
                "operator:type": "religious",
                "landuse": "education",
                "fixme": "amenity=school, amenity=college albo landuse=education w zale\u017cno\u015bci od tego, jakie plac\u00f3wki wchodz\u0105 w sk\u0142ad zespo\u0142u. Sprawd\u017a, kiedy stosowa\u0107 amenity=* a kiedy landuse=education.",
                "note": "Children RSPO: 14715;14716"
            }
        },
        {
            "id": 14715,
            "type": "Feature",
            "geometry": {
                "type": "Point",
                "coordinates": [
                    21.36765,
                    50.95636
                ]
            },
            "properties": {
                "ref:rspo": 14715,
                "official_name": "Przedszkole Nr 1 Si\u00f3str Rodziny Maryi w Ostrowcu \u015awi\u0119tokrzyskim",
                "name": "Przedszkole Nr 1 Si\u00f3str Rodziny Maryi w Ostrowcu \u015awi\u0119tokrzyskim",
                "addr:country": "PL",
                "addr:postcode": "27-400",
                "addr:city": "Ostrowiec \u015awi\u0119tokrzyski",
                "addr:street": "Grabowiecka",
                "addr:housenumber": "15",
                "addr:teryt:simc": 947308,
                "addr:teryt:sym_ul": 6035,
                "contact:phone": "+48 412477563",
                "contact:email": "kze.ostrowiec@gmail.com",
                "contact:website": "http:\/\/przedszkolekatolickie.ostrowiec.pl\/",
                "ref:regon": "260633821",
                "ref:vatin": "PL6612332742",
                "operator": "Zgromadzenie Si\u00f3str Franciszkanek Rodziny Maryi Prowincja Krakowska",
                "operator:type": "religious",
                "amenity": "kindergarten",
                "note": "Parent RSPO: 123014"
            }
        },
        {
            "id": 14716,
            "type": "Feature",
            "geometry": {
                "type": "Point",
                "coordinates": [
                    21.36765,
                    50.95633
                ]
            },
            "properties": {
                "isced:level": "1;2",
                "ref:rspo": 14716,
                "official_name": "Katolicka Publiczna Szko\u0142a Podstawowa im. \u015aw. Zygmunta Szcz\u0119snego Feli\u0144skiego w Ostrowcu \u015awi\u0119tokrzyskim",
                "name": "Katolicka Publiczna Szko\u0142a Podstawowa",
                "addr:country": "PL",
                "addr:postcode": "27-400",
                "addr:city": "Ostrowiec \u015awi\u0119tokrzyski",
                "addr:street": "Grabowiecka",
                "addr:housenumber": "15",
                "addr:teryt:simc": 947308,
                "addr:teryt:sym_ul": 6035,
                "contact:phone": "+48 412477563",
                "contact:email": "kze.ostrowiec@gmail.com",
                "contact:website": "http:\/\/katolickasp.ostrowiec.pl\/",
                "ref:regon": "260642688",
                "ref:vatin": "PL6612361100",
                "operator": "Zgromadzenie Si\u00f3str Franciszkanek Rodziny Maryi Prowincja Krakowska",
                "operator:type": "religious",
                "amenity": "school",
                "note": "Parent RSPO: 123014"
            }
        },
        {
            "id": 127789,
            "type": "Feature",
            "geometry": {
                "type": "Point",
                "coordinates": [
                    21.42543,
                    50.95709
                ]
            },
            "properties": {
                "ref:rspo": 127789,
                "official_name": "Zesp\u00f3\u0142 Edukacyjny \u201eDwunastka\u201d w Ostrowcu \u015awi\u0119tokrzyskim",
                "name": "Zesp\u00f3\u0142 Edukacyjny \u201eDwunastka\u201d w Ostrowcu \u015awi\u0119tokrzyskim",
                "addr:country": "PL",
                "addr:postcode": "27-400",
                "addr:city": "Ostrowiec \u015awi\u0119tokrzyski",
                "addr:street": "Ba\u0142towska",
                "addr:housenumber": "336a",
                "addr:teryt:simc": 947308,
                "addr:teryt:sym_ul": 655,
                "contact:phone": "+48 606789757",
                "contact:email": "dwunastka.szkola@gmail.com",
                "contact:website": "http:\/\/zedwunastka.pl\/",
                "ref:regon": "361841961",
                "operator": "Fundacja Szko\u0142a Bez Barier",
                "operator:type": "ngo",
                "landuse": "education",
                "fixme": "amenity=school, amenity=college albo landuse=education w zale\u017cno\u015bci od tego, jakie plac\u00f3wki wchodz\u0105 w sk\u0142ad zespo\u0142u. Sprawd\u017a, kiedy stosowa\u0107 amenity=* a kiedy landuse=education.",
                "note": "Children RSPO: 127795;127796"
            }
        },
        {
            "id": 127795,
            "type": "Feature",
            "geometry": {
                "type": "Point",
                "coordinates": [
                    21.42543,
                    50.95706
                ]
            },
            "properties": {
                "ref:rspo": 127795,
                "official_name": "Niepubliczne Przedszkole \u201eDwunastka\u201d w Ostrowcu \u015awi\u0119tokrzyskim",
                "name": "Niepubliczne Przedszkole \u201eDwunastka\u201d w Ostrowcu \u015awi\u0119tokrzyskim",
                "addr:country": "PL",
                "addr:postcode": "27-400",
                "addr:city": "Ostrowiec \u015awi\u0119tokrzyski",
                "addr:street": "Ba\u0142towska",
                "addr:housenumber": "336a",
                "addr:teryt:simc": 947308,
                "addr:teryt:sym_ul": 655,
                "contact:phone": "+48 606789757",
                "contact:email": "dwunastka.szkola@gmail.com",
                "contact:website": "http:\/\/zedwunastka.pl\/",
                "ref:regon": "361844439",
                "operator": "Fundacja Szko\u0142a Bez Barier",
                "operator:type": "ngo",
                "amenity": "kindergarten",
                "note": "Parent RSPO: 127789"
            }
        },
        {
            "id": 127796,
            "type": "Feature",
            "geometry": {
                "type": "Point",
                "coordinates": [
                    21.42543,
                    50.95703
                ]
            },
            "properties": {
                "isced:level": "1;2",
                "ref:rspo": 127796,
                "official_name": "Niepubliczna Szko\u0142a Podstawowa \u201eDwunastka\u201d im. Jana Paw\u0142a II w Ostrowcu \u015awi\u0119tokrzyskim",
                "name": "Niepubliczna Szko\u0142a Podstawowa \u201eDwunastka\u201d",
                "addr:country": "PL",
                "addr:postcode": "27-400",
                "addr:city": "Ostrowiec \u015awi\u0119tokrzyski",
                "addr:street": "Ba\u0142towska",
                "addr:housenumber": "336a",
                "addr:teryt:simc": 947308,
                "addr:teryt:sym_ul": 655,
                "contact:phone": "+48 606789757",
                "contact:email": "dwunastka.szkola@gmail.com",
                "contact:website": "http:\/\/zedwunastka.pl\/",
                "ref:regon": "361844451",
                "operator": "Fundacja Szko\u0142a Bez Barier",
                "operator:type": "ngo",
                "amenity": "school",
                "note": "Parent RSPO: 127789"
            }
        },
        {
            "id": 269587,
            "type": "Feature",
            "geometry": {
                "type": "Point",
                "coordinates": [
                    21.42969,
                    50.95978
                ]
            },
            "properties": {
                "ref:rspo": 269587,
                "official_name": "Zesp\u00f3\u0142 Plac\u00f3wek Resocjalizacyjno-Socjoterapeutycznych w Ostrowcu \u015awi\u0119tokrzyskim",
                "name": "Zesp\u00f3\u0142 Plac\u00f3wek Resocjalizacyjno-Socjoterapeutycznych w Ostrowcu \u015awi\u0119tokrzyskim",
                "addr:country": "PL",
                "addr:postcode": "27-400",
                "addr:city": "Ostrowiec \u015awi\u0119tokrzyski",
                "addr:street": "Ba\u0142towska",
                "addr:housenumber": "289",
                "addr:teryt:simc": 947308,
                "addr:teryt:sym_ul": 655,
                "contact:phone": "+48 412629364",
                "contact:email": "zprsostrowiec@interia.pl",
                "ref:regon": "381574473",
                "operator": "Stowarzyszenie Akademia Rozwoju Socjoterapii",
                "operator:type": "ngo",
                "landuse": "education",
                "fixme": "amenity=school, amenity=college albo landuse=education w zale\u017cno\u015bci od tego, jakie plac\u00f3wki wchodz\u0105 w sk\u0142ad zespo\u0142u. Sprawd\u017a, kiedy stosowa\u0107 amenity=* a kiedy landuse=education.",
                "note": "Children RSPO: 125003;269177"
            }
        },
        {
            "id": 262986,
            "type": "Feature",
            "geometry": {
                "type": "Point",
                "coordinates": [
                    21.42969,
                    50.95975
                ]
            },
            "properties": {
                "isced:level": "1;2",
                "ref:rspo": 262986,
                "official_name": "Niepubliczna Specjalna Szko\u0142a Podstawowa w Ostrowcu \u015awi\u0119tokrzyskim",
                "name": "Niepubliczna Specjalna Szko\u0142a Podstawowa w Ostrowcu \u015awi\u0119tokrzyskim",
                "addr:country": "PL",
                "addr:postcode": "27-400",
                "addr:city": "Ostrowiec \u015awi\u0119tokrzyski",
                "addr:street": "Ba\u0142towska",
                "addr:housenumber": "289",
                "addr:teryt:simc": 947308,
                "addr:teryt:sym_ul": 655,
                "contact:phone": "+48 412629364",
                "contact:email": "mowkunow@op.pl",
                "ref:regon": "368083720",
                "operator": "Stowarzyszenie Akademia Rozwoju Socjoterapii",
                "operator:type": "ngo",
                "amenity": "school",
                "note": "Parent RSPO: 125003"
            }
        },
        {
            "id": 125003,
            "type": "Feature",
            "geometry": {
                "type": "Point",
                "coordinates": [
                    21.42969,
                    50.959720000000004
                ]
            },
            "properties": {
                "ref:rspo": 125003,
                "official_name": "M\u0142odzie\u017cowy O\u015brodek Wychowawczy",
                "name": "M\u0142odzie\u017cowy O\u015brodek Wychowawczy",
                "addr:country": "PL",
                "addr:postcode": "27-400",
                "addr:city": "Ostrowiec \u015awi\u0119tokrzyski",
                "addr:street": "Ba\u0142towska",
                "addr:housenumber": "289",
                "addr:teryt:simc": 947308,
                "addr:teryt:sym_ul": 655,
                "contact:phone": "+48 412629364",
                "contact:email": "mowkunow@op.pl",
                "ref:regon": "260794547",
                "ref:vatin": "PL6612370837",
                "operator": "Stowarzyszenie Akademia Rozwoju Socjoterapii",
                "operator:type": "ngo",
                "fixme": "amenity=social_facility + social_facility=group_home + social_facility:for=juvenile",
                "note": "Children RSPO: 262986Parent RSPO: 269587"
            }
        },
        {
            "id": 269177,
            "type": "Feature",
            "geometry": {
                "type": "Point",
                "coordinates": [
                    21.42969,
                    50.95969
                ]
            },
            "properties": {
                "ref:rspo": 269177,
                "official_name": "Niepubliczny M\u0142odzie\u017cowy O\u015brodek Socjoterapii. Ostrowiec \u015awi\u0119tokrzyski",
                "name": "Niepubliczny M\u0142odzie\u017cowy O\u015brodek Socjoterapii. Ostrowiec \u015awi\u0119tokrzyski",
                "addr:country": "PL",
                "addr:postcode": "27-400",
                "addr:city": "Ostrowiec \u015awi\u0119tokrzyski",
                "addr:street": "Ba\u0142towska",
                "addr:housenumber": "289",
                "addr:teryt:simc": 947308,
                "addr:teryt:sym_ul": 655,
                "contact:phone": "+48 412629364",
                "contact:email": "mosostrowiec@wp.pl",
                "ref:regon": "381392559",
                "operator": "Stowarzyszenie Akademia Rozwoju Socjoterapii",
                "operator:type": "ngo",
                "fixme": "amenity=social_facility + social_facility=group_home + social_facility:for=juvenile",
                "note": "Parent RSPO: 269587"
            }
        },
        {
            "id": 8166,
            "type": "Feature",
            "geometry": {
                "type": "Point",
                "coordinates": [
                    21.38392,
                    50.96347
                ]
            },
            "properties": {
                "isced:level": "1;2",
                "ref:rspo": 8166,
                "official_name": "Publiczna Szko\u0142a Podstawowa Nr 10 w Ostrowcu \u015awi\u0119tokrzyskim",
                "name": "Publiczna Szko\u0142a Podstawowa Nr 10 w Ostrowcu \u015awi\u0119tokrzyskim",
                "addr:country": "PL",
                "addr:postcode": "27-400",
                "addr:city": "Ostrowiec \u015awi\u0119tokrzyski",
                "addr:street": "Rzeczki",
                "addr:housenumber": "18A",
                "addr:teryt:simc": 947308,
                "addr:teryt:sym_ul": 19322,
                "contact:phone": "+48 412620013",
                "contact:email": "psp10@ostrowiec.edu.pl",
                "contact:website": "http:\/\/www.psp10.ostrowiec.info\/",
                "ref:regon": "000695019",
                "ref:vatin": "PL6611037053",
                "operator": "Miasto Ostrowiec \u015awi\u0119tokrzyski",
                "operator:type": "government",
                "amenity": "school"
            }
        },
        {
            "id": 15246,
            "type": "Feature",
            "geometry": {
                "type": "Point",
                "coordinates": [
                    21.37005,
                    50.97539
                ]
            },
            "properties": {
                "ref:rspo": 15246,
                "official_name": "Zesp\u00f3\u0142 Szk\u00f3\u0142 Specjalnych w Ostrowcu \u015awi\u0119tokrzyskim",
                "name": "Zesp\u00f3\u0142 Szk\u00f3\u0142 Specjalnych w Ostrowcu \u015awi\u0119tokrzyskim",
                "addr:country": "PL",
                "addr:postcode": "27-400",
                "addr:city": "Ostrowiec \u015awi\u0119tokrzyski",
                "addr:street": "I\u0142\u017cecka",
                "addr:housenumber": "33",
                "addr:teryt:simc": 947308,
                "addr:teryt:sym_ul": 6887,
                "contact:phone": "+48 412634499",
                "contact:email": "sekretariat@zss.ostrowiec.pl",
                "contact:website": "http:\/\/www.zssostrowiec.edupage.org",
                "ref:regon": "292695659",
                "ref:vatin": "PL6612140310",
                "operator": "Powiat Ostrowiecki",
                "operator:type": "government",
                "landuse": "education",
                "fixme": "amenity=school, amenity=college albo landuse=education w zale\u017cno\u015bci od tego, jakie plac\u00f3wki wchodz\u0105 w sk\u0142ad zespo\u0142u. Sprawd\u017a, kiedy stosowa\u0107 amenity=* a kiedy landuse=education.",
                "note": "Children RSPO: 21750;21752"
            }
        },
        {
            "id": 21750,
            "type": "Feature",
            "geometry": {
                "type": "Point",
                "coordinates": [
                    21.37005,
                    50.975359999999995
                ]
            },
            "properties": {
                "isced:level": "1;2",
                "ref:rspo": 21750,
                "official_name": "Szko\u0142a Podstawowa Specjalna Nr 2",
                "name": "Szko\u0142a Podstawowa Specjalna Nr 2",
                "addr:country": "PL",
                "addr:postcode": "27-400",
                "addr:city": "Ostrowiec \u015awi\u0119tokrzyski",
                "addr:street": "I\u0142\u017cecka",
                "addr:housenumber": "33",
                "addr:teryt:simc": 947308,
                "addr:teryt:sym_ul": 6887,
                "contact:phone": "+48 412634499",
                "contact:email": "sekretariat@zss.ostrowiec.pl",
                "contact:website": "http:\/\/www.zssostrowiec.edupage.org",
                "ref:regon": "292382825",
                "ref:vatin": "PL6611623414",
                "operator": "Powiat Ostrowiecki",
                "operator:type": "government",
                "amenity": "school",
                "note": "Parent RSPO: 15246"
            }
        },
        {
            "id": 21752,
            "type": "Feature",
            "geometry": {
                "type": "Point",
                "coordinates": [
                    21.37005,
                    50.97533
                ]
            },
            "properties": {
                "ref:rspo": 21752,
                "official_name": "Szko\u0142a Specjalna Przysposabiaj\u0105ca Do Pracy w Ostrowcu \u015awi\u0119tokrzyskim",
                "name": "Szko\u0142a Specjalna Przysposabiaj\u0105ca Do Pracy w Ostrowcu \u015awi\u0119tokrzyskim",
                "addr:country": "PL",
                "addr:postcode": "27-400",
                "addr:city": "Ostrowiec \u015awi\u0119tokrzyski",
                "addr:street": "I\u0142\u017cecka",
                "addr:housenumber": "33",
                "addr:teryt:simc": 947308,
                "addr:teryt:sym_ul": 6887,
                "contact:phone": "+48 412634499",
                "contact:email": "sekretariat@zss.ostrowiec.pl",
                "contact:website": "http:\/\/www.zssostrowiec.edupage.org",
                "ref:regon": "260106725",
                "ref:vatin": "PL6612270768",
                "operator": "Powiat Ostrowiecki",
                "operator:type": "government",
                "amenity": "school",
                "note": "Parent RSPO: 15246"
            }
        }
    ]
}