{"type":"FeatureCollection","features":[{"id":265214,"type":"Feature","geometry":{"type":"Point","coordinates":[21.5929499,50.42932]},"properties":{"isced:level":"1;2","ref:rspo":265214,"official_name":"Szko\u0142a Filialna im. \u015awi\u0119tej Jadwigi Kr\u00f3lowej","name":"Szko\u0142a Filialna","addr:country":"PL","addr:postcode":"39-451","addr:place":"Durdy","addr:housenumber":"1","addr:teryt:sym_ul":787218,"contact:phone":"+48 158121512","contact:email":"szkoladurdy@interia.pl","ref:regon":"117745600","ref:vatin":"PL8671966395","operator":"Gmina Baran\u00f3w Sandomierski","operator:type":"government","amenity":"school","note":"Parent RSPO: 26790"}},{"id":21906,"type":"Feature","geometry":{"type":"Point","coordinates":[21.56565,50.46247]},"properties":{"ref:rspo":21906,"official_name":"Zesp\u00f3\u0142 Szk\u00f3\u0142","name":"Zesp\u00f3\u0142 Szk\u00f3\u0142","addr:country":"PL","addr:postcode":"39-451","addr:city":"Wola Baranowska","addr:street":"ul. Szkolna","addr:housenumber":"4","addr:teryt:simc":21970,"addr:teryt:sym_ul":787810,"contact:phone":"+48 158121508","contact:email":"spwbar@poczta.onet.pl","ref:regon":"180056423","ref:vatin":"PL8672100054","operator":"Gmina Baran\u00f3w Sandomierski","operator:type":"government","landuse":"education","fixme":"amenity=school, amenity=college albo landuse=education w zale\u017cno\u015bci od tego, jakie plac\u00f3wki wchodz\u0105 w sk\u0142ad zespo\u0142u. Sprawd\u017a, kiedy stosowa\u0107 amenity=* a kiedy landuse=education.","note":"Children RSPO: 26788;26790"}},{"id":26790,"type":"Feature","geometry":{"type":"Point","coordinates":[21.56565,50.46244]},"properties":{"isced:level":"1;2","ref:rspo":26790,"official_name":"Publiczna Szko\u0142a Podstawowa im.gen.w\u0142adys\u0142awa Sikorskiego","name":"Publiczna Szko\u0142a Podstawowa im.gen.w\u0142adys\u0142awa Sikorskiego","addr:country":"PL","addr:postcode":"39-451","addr:city":"Wola Baranowska","addr:street":"ul. Szkolna","addr:housenumber":"4","addr:teryt:simc":21970,"addr:teryt:sym_ul":787810,"contact:phone":"+48 158121508","contact:email":"spwbar@poczta.onet.pl","ref:regon":"001177456","ref:vatin":"PL8672100054","operator":"Gmina Baran\u00f3w Sandomierski","operator:type":"government","amenity":"school","note":"Children RSPO: 265214Parent RSPO: 21906"}},{"id":26788,"type":"Feature","geometry":{"type":"Point","coordinates":[21.56552,50.46307]},"properties":{"ref:rspo":26788,"official_name":"Przedszkole Publiczne","name":"Przedszkole Publiczne","addr:country":"PL","addr:postcode":"39-451","addr:city":"Wola Baranowska","addr:street":"ul. Szkolna","addr:housenumber":"4A","addr:teryt:simc":21970,"addr:teryt:sym_ul":787810,"contact:phone":"+48 158121509","contact:email":"przedszkolewolab@interia.pl","ref:regon":"830025724","ref:vatin":"PL8672100054","operator":"Gmina Baran\u00f3w Sandomierski","operator:type":"government","amenity":"kindergarten","note":"Parent RSPO: 21906"}},{"id":21905,"type":"Feature","geometry":{"type":"Point","coordinates":[21.6397246,50.4646909]},"properties":{"ref:rspo":21905,"official_name":"Zesp\u00f3\u0142 Szkolno-Przedszkolny","name":"Zesp\u00f3\u0142 Szkolno-Przedszkolny","addr:country":"PL","addr:postcode":"39-450","addr:place":"\u015al\u0119zaki","addr:housenumber":"75","addr:teryt:sym_ul":787595,"contact:phone":"+48 158118709","contact:email":"sz.p.slezaki@interia.pl","contact:website":"http:\/\/www.zspslezaki.pl","ref:regon":"831357894","ref:vatin":"PL8672043557","operator":"Gmina Baran\u00f3w Sandomierski","operator:type":"government","landuse":"education","fixme":"amenity=school, amenity=college albo landuse=education w zale\u017cno\u015bci od tego, jakie plac\u00f3wki wchodz\u0105 w sk\u0142ad zespo\u0142u. Sprawd\u017a, kiedy stosowa\u0107 amenity=* a kiedy landuse=education.","note":"Children RSPO: 31110;31113"}},{"id":31110,"type":"Feature","geometry":{"type":"Point","coordinates":[21.6397246,50.4646609]},"properties":{"isced:level":"1;2","ref:rspo":31110,"official_name":"Publiczna Szko\u0142a Podstawowa im. Kardyna\u0142a Stefana Wyszy\u0144skiego","name":"Publiczna Szko\u0142a Podstawowa","addr:country":"PL","addr:postcode":"39-450","addr:place":"\u015al\u0119zaki","addr:housenumber":"75","addr:teryt:sym_ul":787595,"contact:phone":"+48 158118709","contact:email":"sz.p.slezaki@interia.pl","contact:website":"http:\/\/www.zspslezaki.pl","ref:regon":"001177440","ref:vatin":"PL8671966343","operator":"Gmina Baran\u00f3w Sandomierski","operator:type":"government","amenity":"school","note":"Parent RSPO: 21905"}},{"id":31113,"type":"Feature","geometry":{"type":"Point","coordinates":[21.6397246,50.4646309]},"properties":{"ref:rspo":31113,"official_name":"Przedszkole Publiczne","name":"Przedszkole Publiczne","addr:country":"PL","addr:postcode":"39-450","addr:place":"\u015al\u0119zaki","addr:housenumber":"75","addr:teryt:sym_ul":787595,"contact:phone":"+48 158118709","contact:email":"sz.p.slezaki@interia.pl","contact:website":"http:\/\/www.zspslezaki.pl","ref:regon":"830025730","ref:vatin":"PL8671966254","operator":"Gmina Baran\u00f3w Sandomierski","operator:type":"government","amenity":"kindergarten","note":"Parent RSPO: 21905"}},{"id":21907,"type":"Feature","geometry":{"type":"Point","coordinates":[21.574769973755,50.479869842529]},"properties":{"ref:rspo":21907,"official_name":"Zesp\u00f3\u0142 Szk\u00f3\u0142","name":"Zesp\u00f3\u0142 Szk\u00f3\u0142","addr:country":"PL","addr:postcode":"39-451","addr:city":"Skopanie","addr:street":"ul. Kardyna\u0142a Wyszy\u0144skiego","addr:housenumber":"1","addr:teryt:simc":33784,"addr:teryt:sym_ul":787490,"contact:phone":"+48 158121501","contact:email":"spskopanie@onet.pl","contact:website":"http:\/\/www.zsskopanie.cba.pl","ref:regon":"180056481","ref:vatin":"PL8672100060","operator":"Gmina Baran\u00f3w Sandomierski","operator:type":"government","landuse":"education","fixme":"amenity=school, amenity=college albo landuse=education w zale\u017cno\u015bci od tego, jakie plac\u00f3wki wchodz\u0105 w sk\u0142ad zespo\u0142u. Sprawd\u017a, kiedy stosowa\u0107 amenity=* a kiedy landuse=education.","note":"Children RSPO: 26491;26493"}},{"id":26491,"type":"Feature","geometry":{"type":"Point","coordinates":[21.574769973755,50.479839842528996]},"properties":{"isced:level":"1;2","ref:rspo":26491,"official_name":"Publiczna Szko\u0142a Podstawowa im. Jana Paw\u0142a Ii","name":"Publiczna Szko\u0142a Podstawowa","addr:country":"PL","addr:postcode":"39-451","addr:city":"Skopanie","addr:street":"ul. Kardyna\u0142a Wyszy\u0144skiego","addr:housenumber":"1","addr:teryt:simc":33784,"addr:teryt:sym_ul":787490,"contact:phone":"+48 158121501","contact:email":"spskopanie@onet.pl","contact:website":"http:\/\/www.zsskopanie.cba.pl","ref:regon":"001177462","ref:vatin":"PL8672100060","operator":"Gmina Baran\u00f3w Sandomierski","operator:type":"government","amenity":"school","note":"Parent RSPO: 21907"}},{"id":26493,"type":"Feature","geometry":{"type":"Point","coordinates":[21.574769973755,50.479809842529]},"properties":{"ref:rspo":26493,"official_name":"Przedszkole Publiczne","name":"Przedszkole Publiczne","addr:country":"PL","addr:postcode":"39-451","addr:city":"Skopanie","addr:street":"ul. Kardyna\u0142a Wyszy\u0144skiego","addr:housenumber":"1","addr:teryt:simc":33784,"addr:teryt:sym_ul":787490,"contact:phone":"+48 158121505","contact:email":"przed166@onet.eu","contact:website":"http:\/\/www.przedszkoles.baranow.net","ref:regon":"830025718","ref:vatin":"PL8672100060","operator":"Gmina Baran\u00f3w Sandomierski","operator:type":"government","amenity":"kindergarten","note":"Parent RSPO: 21907"}},{"id":27015,"type":"Feature","geometry":{"type":"Point","coordinates":[21.63017,50.4816]},"properties":{"ref:rspo":27015,"official_name":"Przedszkole Publiczne","name":"Przedszkole Publiczne","addr:country":"PL","addr:postcode":"39-450","addr:place":"D\u0105browica","addr:housenumber":"203","addr:teryt:sym_ul":787129,"contact:phone":"+48 158118701","contact:email":"ppdab@interia.pl","ref:regon":"830025701","ref:vatin":"PL8671966283","operator":"Gmina Baran\u00f3w Sandomierski","operator:type":"government","amenity":"kindergarten","note":"Parent RSPO: 21909"}},{"id":21909,"type":"Feature","geometry":{"type":"Point","coordinates":[21.61691,50.4883]},"properties":{"ref:rspo":21909,"official_name":"Zesp\u00f3\u0142 Szkolno-Przedszkolny","name":"Zesp\u00f3\u0142 Szkolno-Przedszkolny","addr:country":"PL","addr:postcode":"39-450","addr:place":"D\u0105browica","addr:housenumber":"78","addr:teryt:sym_ul":787129,"contact:phone":"+48 158118705","contact:email":"pspdab78@interia.pl","ref:regon":"180389366","ref:vatin":"PL8672185903","operator":"Gmina Baran\u00f3w Sandomierski","operator:type":"government","landuse":"education","fixme":"amenity=school, amenity=college albo landuse=education w zale\u017cno\u015bci od tego, jakie plac\u00f3wki wchodz\u0105 w sk\u0142ad zespo\u0142u. Sprawd\u017a, kiedy stosowa\u0107 amenity=* a kiedy landuse=education.","note":"Children RSPO: 27015;27016"}},{"id":27016,"type":"Feature","geometry":{"type":"Point","coordinates":[21.61691,50.48827]},"properties":{"isced:level":"1;2","ref:rspo":27016,"official_name":"Publiczna Szko\u0142a Podstawowa im.batalion\u00f3w Ch\u0142opskich","name":"Publiczna Szko\u0142a Podstawowa im.batalion\u00f3w Ch\u0142opskich","addr:country":"PL","addr:postcode":"38-945","addr:place":"D\u0105browica","addr:housenumber":"78","addr:teryt:sym_ul":787129,"contact:phone":"+48 158118705","contact:email":"pspdab78@interia.pl","ref:regon":"001162638","ref:vatin":"PL8671966366","operator":"Gmina Baran\u00f3w Sandomierski","operator:type":"government","amenity":"school","note":"Parent RSPO: 21909"}},{"id":22493,"type":"Feature","geometry":{"type":"Point","coordinates":[21.54594,50.49601]},"properties":{"ref:rspo":22493,"official_name":"Przedszkole Niepubliczne Zg","name":"Przedszkole Niepubliczne Zg","addr:country":"PL","addr:postcode":"39-450","addr:city":"Baran\u00f3w Sandomierski","addr:street":"ul. Fabryczna","addr:housenumber":"35","addr:teryt:simc":4863,"addr:teryt:sym_ul":980352,"contact:phone":"+48 158118197","contact:email":"ochronkabaranow@tlen.pl","ref:regon":"180896318","ref:vatin":"PL8672100953","operator":"Zgromadzenie Si\u00f3str S\u0142u\u017cebniczek Naj\u015bwi\u0119tszej Maryi Panny Niepokalanie Pocz\u0119tej Prowincja Tarnowska","operator:type":"religious","amenity":"kindergarten"}},{"id":21908,"type":"Feature","geometry":{"type":"Point","coordinates":[21.54026,50.49904]},"properties":{"ref:rspo":21908,"official_name":"Zesp\u00f3\u0142 Szk\u00f3\u0142 I Plac\u00f3wek","name":"Zesp\u00f3\u0142 Szk\u00f3\u0142 I Plac\u00f3wek","addr:country":"PL","addr:postcode":"39-450","addr:city":"Baran\u00f3w Sandomierski","addr:street":"ul. Tadeusza Ko\u015bciuszki","addr:housenumber":"6","addr:teryt:simc":9582,"addr:teryt:sym_ul":980352,"contact:phone":"+48 158118586","contact:email":"sekretariat@zsip.pl","contact:website":"http:\/\/www.zsip.pl","ref:regon":"180056110","ref:vatin":"PL8672099440","operator":"Gmina Baran\u00f3w Sandomierski","operator:type":"government","landuse":"education","fixme":"amenity=school, amenity=college albo landuse=education w zale\u017cno\u015bci od tego, jakie plac\u00f3wki wchodz\u0105 w sk\u0142ad zespo\u0142u. Sprawd\u017a, kiedy stosowa\u0107 amenity=* a kiedy landuse=education.","note":"Children RSPO: 31116;31117;31119;31120"}},{"id":31116,"type":"Feature","geometry":{"type":"Point","coordinates":[21.54026,50.49901]},"properties":{"isced:level":"1;2","ref:rspo":31116,"official_name":"Publiczna Szko\u0142a Podstawowa Im Ksi\u0119dza Jana Twardowskiego","name":"Publiczna Szko\u0142a Podstawowa Im Ksi\u0119dza Jana Twardowskiego","addr:country":"PL","addr:postcode":"39-450","addr:city":"Baran\u00f3w Sandomierski","addr:street":"ul. Tadeusza Ko\u015bciuszki","addr:housenumber":"6","addr:teryt:simc":9582,"addr:teryt:sym_ul":980352,"contact:phone":"+48 158118586","contact:email":"sekretariat@zsip.pl","contact:website":"http:\/\/www.zsip.pl","ref:regon":"000652808","ref:vatin":"PL8671966372","operator":"Gmina Baran\u00f3w Sandomierski","operator:type":"government","amenity":"school","note":"Parent RSPO: 21908"}},{"id":31117,"type":"Feature","geometry":{"type":"Point","coordinates":[21.54026,50.49898]},"properties":{"ref:rspo":31117,"official_name":"Przedszkole Publiczne","name":"Przedszkole Publiczne","addr:country":"PL","addr:postcode":"39-450","addr:city":"Baran\u00f3w Sandomierski","addr:street":"ul. Tadeusza Ko\u015bciuszki","addr:housenumber":"6","addr:teryt:simc":9582,"addr:teryt:sym_ul":980352,"contact:phone":"+48 158118586","contact:email":"sekretariat@zsip.pl","contact:website":"http:\/\/www.zsip.pl","ref:regon":"830025747","operator":"Gmina Baran\u00f3w Sandomierski","operator:type":"government","amenity":"kindergarten","note":"Parent RSPO: 21908"}},{"id":31119,"type":"Feature","geometry":{"type":"Point","coordinates":[21.54026,50.49895]},"properties":{"isced:level":"3","ref:rspo":31119,"official_name":"Liceum Og\u00f3lnokszta\u0142c\u0105ce","name":"Liceum Og\u00f3lnokszta\u0142c\u0105ce","addr:country":"PL","addr:postcode":"39-450","addr:city":"Baran\u00f3w Sandomierski","addr:street":"ul. Tadeusza Ko\u015bciuszki","addr:housenumber":"6","addr:teryt:simc":9582,"addr:teryt:sym_ul":980352,"contact:phone":"+48 158118586","contact:email":"sekretariat@zsip.pl","contact:website":"http:\/\/www.zsip.pl","ref:regon":"831306980","ref:vatin":"PL8672017614","operator":"Gmina Baran\u00f3w Sandomierski","operator:type":"government","amenity":"school","note":"Parent RSPO: 21908"}},{"id":31120,"type":"Feature","geometry":{"type":"Point","coordinates":[21.54026,50.49892]},"properties":{"ref:rspo":31120,"official_name":"Szkolne Schronisko M\u0142odzie\u017cowe","name":"Szkolne Schronisko M\u0142odzie\u017cowe","addr:country":"PL","addr:postcode":"39-450","addr:city":"Baran\u00f3w Sandomierski","addr:street":"ul. Tadeusza Ko\u015bciuszki","addr:housenumber":"6","addr:teryt:simc":9582,"addr:teryt:sym_ul":980352,"contact:phone":"+48 158118586","contact:email":"sekretariat@zsip.pl","contact:website":"http:\/\/www.zsip.pl","ref:regon":"180060790","ref:vatin":"PL8672101697","operator":"Gmina Baran\u00f3w Sandomierski","operator:type":"government","tourism":"hostel","note":"Parent RSPO: 21908"}}]}