{
    "type": "FeatureCollection",
    "features": [
        {
            "id": 76140,
            "type": "Feature",
            "geometry": {
                "type": "Point",
                "coordinates": [
                    21.73311,
                    50.40878
                ]
            },
            "properties": {
                "ref:rspo": 76140,
                "official_name": "Przedszkole Niepubliczne Krasnal",
                "name": "Przedszkole Niepubliczne Krasnal",
                "addr:postcode": "39-460",
                "addr:city": "Nowa D\u0119ba",
                "addr:street": "Jana Szypowskiego",
                "addr:housenumber": "1",
                "addr:teryt:simc": 980636,
                "addr:teryt:sym_ul": 22275,
                "phone": "+48 695990440",
                "email": "sylwia.wojcik@begg.pl",
                "website": "http:\/\/www.krasnal-przedszkole.pl",
                "ref:regon": "180908027",
                "ref:vatin": "PL8672037060",
                "operator": "\"Begg\" Sp\u00f3\u0142ka Z Ograniczon\u0105 Odpowiedzialno\u015bci\u0105",
                "operator:type": "private",
                "amenity": "kindergarten"
            }
        },
        {
            "id": 76137,
            "type": "Feature",
            "geometry": {
                "type": "Point",
                "coordinates": [
                    21.74977,
                    50.41097
                ]
            },
            "properties": {
                "ref:rspo": 76137,
                "official_name": "Przedszkole Nr 5 im. Misia Uszatka w Nowej D\u0119bie",
                "name": "Przedszkole Nr 5",
                "addr:postcode": "39-460",
                "addr:city": "Nowa D\u0119ba",
                "addr:street": "Le\u015bna",
                "addr:housenumber": "28",
                "addr:teryt:simc": 980636,
                "addr:teryt:sym_ul": 10898,
                "phone": "+48 158462044",
                "email": "p.5nd@op.pl",
                "website": "http:\/\/www.p5nowadeba.edupage.org",
                "ref:regon": "830193781",
                "ref:vatin": "PL8671707073",
                "operator": "Gmina Nowa D\u0119ba",
                "operator:type": "government",
                "amenity": "kindergarten"
            }
        },
        {
            "id": 109634,
            "type": "Feature",
            "geometry": {
                "type": "Point",
                "coordinates": [
                    21.75265,
                    50.41321
                ]
            },
            "properties": {
                "ref:rspo": 109634,
                "official_name": "Poradnia Psychologiczno - Pedagogiczna w Nowej D\u0119bie",
                "name": "Poradnia Psychologiczno - Pedagogiczna w Nowej D\u0119bie",
                "addr:postcode": "39-460",
                "addr:city": "Nowa D\u0119ba",
                "addr:street": "Jana Paw\u0142a II",
                "addr:housenumber": "4",
                "addr:teryt:simc": 980636,
                "addr:teryt:sym_ul": 7123,
                "phone": "+48 158462845",
                "email": "sekretariat@pppnd.naszaporadnia.com",
                "website": "https:\/\/pppnd.naszaporadnia.com",
                "ref:regon": "001261760",
                "ref:vatin": "PL8671628468",
                "operator": "Powiat Tarnobrzeski",
                "operator:type": "government",
                "healthcare": "counselling",
                "counselling_type": "education",
                "fixme": "w zale\u017cno\u015bci od przedmiotu dzia\u0142alno\u015bci (np. healthcare=counselling + counselling_type=education albo healthcare=psychotherapist)"
            }
        },
        {
            "id": 76153,
            "type": "Feature",
            "geometry": {
                "type": "Point",
                "coordinates": [
                    21.74603,
                    50.41377
                ]
            },
            "properties": {
                "isced:level": "1;2",
                "ref:rspo": 76153,
                "official_name": "Szko\u0142a Podstawowa Nr 2 im. Henryka Sienkiewicza w Nowej D\u0119bie",
                "name": "Szko\u0142a Podstawowa Nr 2",
                "addr:postcode": "39-460",
                "addr:city": "Nowa D\u0119ba",
                "addr:street": "Le\u015bna",
                "addr:housenumber": "40",
                "addr:teryt:simc": 980636,
                "addr:teryt:sym_ul": 10898,
                "phone": "+48 158462552",
                "email": "sp2nowadeba@epoczta.pl",
                "website": "http:\/\/www.sp2nowadeba.edupage.org",
                "ref:regon": "000262987",
                "ref:vatin": "PL8671871335",
                "operator": "Gmina Nowa D\u0119ba",
                "operator:type": "government",
                "amenity": "school"
            }
        },
        {
            "id": 75947,
            "type": "Feature",
            "geometry": {
                "type": "Point",
                "coordinates": [
                    21.74863,
                    50.41427
                ]
            },
            "properties": {
                "ref:rspo": 75947,
                "official_name": "Przedszkole Nr 1 w Nowej D\u0119bie",
                "name": "Przedszkole Nr 1 w Nowej D\u0119bie",
                "addr:postcode": "39-460",
                "addr:city": "Nowa D\u0119ba",
                "addr:street": "Miko\u0142aja Reja",
                "addr:housenumber": "5",
                "addr:teryt:simc": 980636,
                "addr:teryt:sym_ul": 18565,
                "phone": "+48 158462195",
                "email": "ndp-1@o2.pl",
                "website": "http:\/\/pjedyneczka.edupage.org.pl",
                "ref:regon": "830193806",
                "ref:vatin": "PL8671755273",
                "operator": "Gmina Nowa D\u0119ba",
                "operator:type": "government",
                "amenity": "kindergarten"
            }
        },
        {
            "id": 109632,
            "type": "Feature",
            "geometry": {
                "type": "Point",
                "coordinates": [
                    21.73397,
                    50.41527
                ]
            },
            "properties": {
                "ref:rspo": 109632,
                "official_name": "Zesp\u00f3\u0142 Szk\u00f3\u0142 Nr 2 im. Eugeniusza Kwiatkowskiego w Nowej D\u0119bie",
                "name": "Zesp\u00f3\u0142 Szk\u00f3\u0142 Nr 2",
                "addr:postcode": "39-460",
                "addr:city": "Nowa D\u0119ba",
                "addr:street": "Tadeusza Ko\u015bciuszki",
                "addr:housenumber": "101",
                "addr:teryt:simc": 980636,
                "addr:teryt:sym_ul": 9582,
                "phone": "+48 158462286",
                "email": "sekretariat@zs2nd.pl",
                "website": "http:\/\/www.zs2nd.pl",
                "ref:regon": "000034476",
                "ref:vatin": "PL8671871223",
                "operator": "Powiat Tarnobrzeski",
                "operator:type": "government",
                "landuse": "education",
                "fixme": "amenity=school, amenity=college albo landuse=education w zale\u017cno\u015bci od tego, jakie plac\u00f3wki wchodz\u0105 w sk\u0142ad zespo\u0142u. Sprawd\u017a, kiedy stosowa\u0107 amenity=* a kiedy landuse=education.",
                "note": "Children RSPO: 110175;110176;110177;110178;110179;276130"
            }
        },
        {
            "id": 110175,
            "type": "Feature",
            "geometry": {
                "type": "Point",
                "coordinates": [
                    21.73397,
                    50.41524
                ]
            },
            "properties": {
                "isced:level": "3",
                "ref:rspo": 110175,
                "official_name": "Liceum Og\u00f3lnokszta\u0142c\u0105ce w Nowej D\u0119bie",
                "name": "Liceum Og\u00f3lnokszta\u0142c\u0105ce w Nowej D\u0119bie",
                "addr:postcode": "39-460",
                "addr:city": "Nowa D\u0119ba",
                "addr:street": "Tadeusza Ko\u015bciuszki",
                "addr:housenumber": "101",
                "addr:teryt:simc": 980636,
                "addr:teryt:sym_ul": 9582,
                "phone": "+48 158462286",
                "email": "sekretariat@zs2nd.pl",
                "website": "http:\/\/zs2nd.pl",
                "ref:regon": "831314206",
                "operator": "Powiat Tarnobrzeski",
                "operator:type": "government",
                "amenity": "school",
                "note": "Parent RSPO: 109632"
            }
        },
        {
            "id": 110176,
            "type": "Feature",
            "geometry": {
                "type": "Point",
                "coordinates": [
                    21.73397,
                    50.41521
                ]
            },
            "properties": {
                "isced:level": "3",
                "ref:rspo": 110176,
                "official_name": "Technikum w Nowej D\u0119bie",
                "name": "Technikum w Nowej D\u0119bie",
                "addr:postcode": "39-460",
                "addr:city": "Nowa D\u0119ba",
                "addr:street": "Tadeusza Ko\u015bciuszki",
                "addr:housenumber": "101",
                "addr:teryt:simc": 980636,
                "addr:teryt:sym_ul": 9582,
                "phone": "+48 158462286",
                "email": "sekretariat@zs2nd.pl",
                "website": "http:\/\/zs2nd.pl",
                "ref:regon": "831201815",
                "operator": "Powiat Tarnobrzeski",
                "operator:type": "government",
                "amenity": "school",
                "note": "Parent RSPO: 109632"
            }
        },
        {
            "id": 110177,
            "type": "Feature",
            "geometry": {
                "type": "Point",
                "coordinates": [
                    21.73397,
                    50.41518
                ]
            },
            "properties": {
                "isced:level": "3",
                "ref:rspo": 110177,
                "official_name": "Bran\u017cowa Szko\u0142a I Stopnia w Nowej D\u0119bie",
                "name": "Bran\u017cowa Szko\u0142a I Stopnia w Nowej D\u0119bie",
                "addr:postcode": "39-460",
                "addr:city": "Nowa D\u0119ba",
                "addr:street": "Tadeusza Ko\u015bciuszki",
                "addr:housenumber": "101",
                "addr:teryt:simc": 980636,
                "addr:teryt:sym_ul": 9582,
                "phone": "+48 158462286",
                "email": "sekretariat@zs2nd.pl",
                "website": "http:\/\/www.zs2nd.pl",
                "ref:regon": "831201838",
                "operator": "Powiat Tarnobrzeski",
                "operator:type": "government",
                "amenity": "school",
                "note": "Parent RSPO: 109632"
            }
        },
        {
            "id": 110178,
            "type": "Feature",
            "geometry": {
                "type": "Point",
                "coordinates": [
                    21.73397,
                    50.41515
                ]
            },
            "properties": {
                "isced:level": "3",
                "ref:rspo": 110178,
                "official_name": "Liceum Og\u00f3lnokszta\u0142c\u0105ce dla Doros\u0142ych w Nowej D\u0119bie",
                "name": "Liceum Og\u00f3lnokszta\u0142c\u0105ce dla Doros\u0142ych w Nowej D\u0119bie",
                "addr:postcode": "39-460",
                "addr:city": "Nowa D\u0119ba",
                "addr:street": "Tadeusza Ko\u015bciuszki",
                "addr:housenumber": "101",
                "addr:teryt:simc": 980636,
                "addr:teryt:sym_ul": 9582,
                "phone": "+48 158462286",
                "email": "sekretariat@zs2nd.pl",
                "website": "http:\/\/zs2nd.pl",
                "ref:regon": "831357598",
                "operator": "Powiat Tarnobrzeski",
                "operator:type": "government",
                "amenity": "school",
                "note": "Parent RSPO: 109632"
            }
        },
        {
            "id": 110179,
            "type": "Feature",
            "geometry": {
                "type": "Point",
                "coordinates": [
                    21.73397,
                    50.41512
                ]
            },
            "properties": {
                "isced:level": "4",
                "ref:rspo": 110179,
                "official_name": "Szko\u0142a Policealna w Nowej D\u0119bie",
                "name": "Szko\u0142a Policealna w Nowej D\u0119bie",
                "addr:postcode": "39-460",
                "addr:city": "Nowa D\u0119ba",
                "addr:street": "Tadeusza Ko\u015bciuszki",
                "addr:housenumber": "101",
                "addr:teryt:simc": 980636,
                "addr:teryt:sym_ul": 9582,
                "phone": "+48 158462286",
                "email": "sekretariat@zs2nd.pl",
                "website": "http:\/\/zs2nd.pl",
                "ref:regon": "831357569",
                "operator": "Powiat Tarnobrzeski",
                "operator:type": "government",
                "amenity": "college",
                "note": "Parent RSPO: 109632"
            }
        },
        {
            "id": 276130,
            "type": "Feature",
            "geometry": {
                "type": "Point",
                "coordinates": [
                    21.73397,
                    50.41509
                ]
            },
            "properties": {
                "isced:level": "3",
                "ref:rspo": 276130,
                "official_name": "Bran\u017cowa Szko\u0142a II Stopnia w Nowej D\u0119bie",
                "name": "Bran\u017cowa Szko\u0142a II Stopnia w Nowej D\u0119bie",
                "addr:postcode": "39-460",
                "addr:city": "Nowa D\u0119ba",
                "addr:street": "Tadeusza Ko\u015bciuszki",
                "addr:housenumber": "101",
                "addr:teryt:simc": 980636,
                "addr:teryt:sym_ul": 9582,
                "phone": "+48 158462286",
                "email": "sekretariat@zs2nd.pl",
                "website": "http:\/\/zs2nd.pl",
                "ref:regon": "386996919",
                "operator": "Powiat Tarnobrzeski",
                "operator:type": "government",
                "amenity": "school",
                "note": "Parent RSPO: 109632"
            }
        },
        {
            "id": 109591,
            "type": "Feature",
            "geometry": {
                "type": "Point",
                "coordinates": [
                    21.747480392456,
                    50.417209625244
                ]
            },
            "properties": {
                "ref:rspo": 109591,
                "official_name": "Zesp\u00f3\u0142 Szk\u00f3\u0142 Nr 1 w Nowej D\u0119bie",
                "name": "Zesp\u00f3\u0142 Szk\u00f3\u0142 Nr 1 w Nowej D\u0119bie",
                "addr:postcode": "39-460",
                "addr:city": "Nowa D\u0119ba",
                "addr:street": "Miko\u0142aja Reja",
                "addr:housenumber": "7",
                "addr:teryt:simc": 980636,
                "addr:teryt:sym_ul": 18565,
                "phone": "+48 158462232",
                "email": "zsndeba@poczta.onet.pl",
                "website": "http:\/\/www.zsnowadeba.com",
                "ref:regon": "831207404",
                "ref:vatin": "PL8671633392",
                "operator": "Powiat Tarnobrzeski",
                "operator:type": "government",
                "landuse": "education",
                "fixme": "amenity=school, amenity=college albo landuse=education w zale\u017cno\u015bci od tego, jakie plac\u00f3wki wchodz\u0105 w sk\u0142ad zespo\u0142u. Sprawd\u017a, kiedy stosowa\u0107 amenity=* a kiedy landuse=education.",
                "note": "Children RSPO: 110170;110171;110172;110173"
            }
        },
        {
            "id": 110170,
            "type": "Feature",
            "geometry": {
                "type": "Point",
                "coordinates": [
                    21.747480392456,
                    50.417179625243996
                ]
            },
            "properties": {
                "isced:level": "3",
                "ref:rspo": 110170,
                "official_name": "Liceum Og\u00f3lnokszta\u0142c\u0105ce im. Jana Kochanowskiego w Nowej D\u0119bie",
                "name": "Liceum Og\u00f3lnokszta\u0142c\u0105ce",
                "addr:postcode": "39-460",
                "addr:city": "Nowa D\u0119ba",
                "addr:street": "Miko\u0142aja Reja",
                "addr:housenumber": "7",
                "addr:teryt:simc": 980636,
                "addr:teryt:sym_ul": 18565,
                "phone": "+48 158462232",
                "email": "zsndeba@poczta.onet.pl",
                "website": "http:\/\/www.zsnowadeba.com",
                "ref:regon": "000971063",
                "operator": "Powiat Tarnobrzeski",
                "operator:type": "government",
                "amenity": "school",
                "note": "Parent RSPO: 109591"
            }
        },
        {
            "id": 110171,
            "type": "Feature",
            "geometry": {
                "type": "Point",
                "coordinates": [
                    21.747480392456,
                    50.417149625244
                ]
            },
            "properties": {
                "isced:level": "3",
                "ref:rspo": 110171,
                "official_name": "Technikum w Nowej D\u0119bie",
                "name": "Technikum w Nowej D\u0119bie",
                "addr:postcode": "39-460",
                "addr:city": "Nowa D\u0119ba",
                "addr:street": "Miko\u0142aja Reja",
                "addr:housenumber": "7",
                "addr:teryt:simc": 980636,
                "addr:teryt:sym_ul": 18565,
                "phone": "+48 158462232",
                "email": "zsndeba@poczta.onet.pl",
                "website": "http:\/\/www.zsndeba.info",
                "ref:regon": "180161999",
                "operator": "Powiat Tarnobrzeski",
                "operator:type": "government",
                "amenity": "school",
                "note": "Parent RSPO: 109591"
            }
        },
        {
            "id": 110172,
            "type": "Feature",
            "geometry": {
                "type": "Point",
                "coordinates": [
                    21.747480392456,
                    50.417119625244
                ]
            },
            "properties": {
                "isced:level": "4",
                "ref:rspo": 110172,
                "official_name": "Szko\u0142a Policealna w Nowej D\u0119bie",
                "name": "Szko\u0142a Policealna w Nowej D\u0119bie",
                "addr:postcode": "39-460",
                "addr:city": "Nowa D\u0119ba",
                "addr:street": "Miko\u0142aja Reja",
                "addr:housenumber": "7",
                "addr:teryt:simc": 980636,
                "addr:teryt:sym_ul": 18565,
                "phone": "+48 158462232",
                "email": "zsndeba@poczta.onet.pl",
                "website": "http:\/\/www.zsnowadeba.com",
                "ref:regon": "831310875",
                "operator": "Powiat Tarnobrzeski",
                "operator:type": "government",
                "amenity": "college",
                "note": "Parent RSPO: 109591"
            }
        },
        {
            "id": 110173,
            "type": "Feature",
            "geometry": {
                "type": "Point",
                "coordinates": [
                    21.747480392456,
                    50.417089625243996
                ]
            },
            "properties": {
                "isced:level": "3",
                "ref:rspo": 110173,
                "official_name": "Liceum Og\u00f3lnokszta\u0142c\u0105ce dla Doros\u0142ych w Nowej D\u0119bie",
                "name": "Liceum Og\u00f3lnokszta\u0142c\u0105ce dla Doros\u0142ych w Nowej D\u0119bie",
                "addr:postcode": "39-460",
                "addr:city": "Nowa D\u0119ba",
                "addr:street": "Miko\u0142aja Reja",
                "addr:housenumber": "7",
                "addr:teryt:simc": 980636,
                "addr:teryt:sym_ul": 18565,
                "phone": "+48 158462232",
                "email": "zsndeba@poczta.onet.pl",
                "website": "http:\/\/www.zsndeba.info",
                "ref:regon": "180946996",
                "operator": "Powiat Tarnobrzeski",
                "operator:type": "government",
                "amenity": "school",
                "note": "Parent RSPO: 109591"
            }
        },
        {
            "id": 87020,
            "type": "Feature",
            "geometry": {
                "type": "Point",
                "coordinates": [
                    21.75197,
                    50.42738
                ]
            },
            "properties": {
                "ref:rspo": 87020,
                "official_name": "Przedszkole Nr 4 w Nowej D\u0119bie",
                "name": "Przedszkole Nr 4 w Nowej D\u0119bie",
                "addr:postcode": "39-460",
                "addr:city": "Nowa D\u0119ba",
                "addr:street": "ks. Henryka \u0141agockiego",
                "addr:housenumber": "38",
                "addr:teryt:simc": 980636,
                "addr:teryt:sym_ul": 30525,
                "phone": "+48 158463989",
                "email": "zponowadeba@wp.pl",
                "website": "http:\/\/www.zponowadeba.edupage.org\/",
                "ref:regon": "830193798",
                "ref:vatin": "PL8671755296",
                "operator": "Gmina Nowa D\u0119ba",
                "operator:type": "government",
                "amenity": "kindergarten",
                "note": "Parent RSPO: 76163"
            }
        },
        {
            "id": 76163,
            "type": "Feature",
            "geometry": {
                "type": "Point",
                "coordinates": [
                    21.7529,
                    50.4281
                ]
            },
            "properties": {
                "ref:rspo": 76163,
                "official_name": "Zesp\u00f3\u0142 Plac\u00f3wek O\u015bwiatowych w Nowej D\u0119bie",
                "name": "Zesp\u00f3\u0142 Plac\u00f3wek O\u015bwiatowych w Nowej D\u0119bie",
                "addr:postcode": "39-460",
                "addr:city": "Nowa D\u0119ba",
                "addr:street": "Bronis\u0142awa Zybury",
                "addr:housenumber": "4",
                "addr:teryt:simc": 980636,
                "addr:teryt:sym_ul": 30526,
                "phone": "+48 158462461",
                "email": "zponowadeba@wp.pl",
                "website": "http:\/\/www.zponowadeba.edupage.org\/",
                "ref:regon": "180055984",
                "ref:vatin": "PL8672099428",
                "operator": "Gmina Nowa D\u0119ba",
                "operator:type": "government",
                "landuse": "education",
                "fixme": "amenity=school, amenity=college albo landuse=education w zale\u017cno\u015bci od tego, jakie plac\u00f3wki wchodz\u0105 w sk\u0142ad zespo\u0142u. Sprawd\u017a, kiedy stosowa\u0107 amenity=* a kiedy landuse=education.",
                "note": "Children RSPO: 87020;87025"
            }
        },
        {
            "id": 87025,
            "type": "Feature",
            "geometry": {
                "type": "Point",
                "coordinates": [
                    21.7529,
                    50.42807
                ]
            },
            "properties": {
                "isced:level": "1;2",
                "ref:rspo": 87025,
                "official_name": "Szko\u0142a Podstawowa Nr 3 im. Bronis\u0142awa Zybury w Nowej D\u0119bie",
                "name": "Szko\u0142a Podstawowa Nr 3",
                "addr:postcode": "39-460",
                "addr:city": "Nowa D\u0119ba",
                "addr:street": "Bronis\u0142awa Zybury",
                "addr:housenumber": "4",
                "addr:teryt:simc": 980636,
                "addr:teryt:sym_ul": 30526,
                "phone": "+48 158462461",
                "email": "sp3nowadeba@wp.pl",
                "website": "http:\/\/www.zponowadeba.edupage.org\/",
                "ref:regon": "001178088",
                "ref:vatin": "PL8671706079",
                "operator": "Gmina Nowa D\u0119ba",
                "operator:type": "government",
                "amenity": "school",
                "note": "Parent RSPO: 76163"
            }
        },
        {
            "id": 76147,
            "type": "Feature",
            "geometry": {
                "type": "Point",
                "coordinates": [
                    21.71571,
                    50.44756
                ]
            },
            "properties": {
                "isced:level": "1;2",
                "ref:rspo": 76147,
                "official_name": "Szko\u0142a Podstawowa w Rozalinie",
                "name": "Szko\u0142a Podstawowa w Rozalinie",
                "addr:postcode": "39-460",
                "addr:place": "Rozalin",
                "addr:housenumber": "194",
                "addr:teryt:simc": 800485,
                "phone": "+48 158467104",
                "email": "sptwola@nowadeba.pl",
                "ref:regon": "001178148",
                "ref:vatin": "PL8671618837",
                "operator": "Gmina Nowa D\u0119ba",
                "operator:type": "government",
                "amenity": "school"
            }
        },
        {
            "id": 76167,
            "type": "Feature",
            "geometry": {
                "type": "Point",
                "coordinates": [
                    21.71571,
                    50.44753
                ]
            },
            "properties": {
                "ref:rspo": 76167,
                "official_name": "Zesp\u00f3\u0142 Wychowania Przedszkolnego w Rozalinie",
                "name": "Zesp\u00f3\u0142 Wychowania Przedszkolnego w Rozalinie",
                "addr:postcode": "39-460",
                "addr:place": "Rozalin",
                "addr:housenumber": "NN",
                "addr:teryt:simc": 800485,
                "phone": "+48 158467104",
                "email": "sptwola@nowadeba.pl",
                "ref:regon": "180908056",
                "operator": "Gmina Nowa D\u0119ba",
                "operator:type": "government",
                "amenity": "kindergarten"
            }
        },
        {
            "id": 76171,
            "type": "Feature",
            "geometry": {
                "type": "Point",
                "coordinates": [
                    21.74215,
                    50.45482
                ]
            },
            "properties": {
                "ref:rspo": 76171,
                "official_name": "Zesp\u00f3\u0142 Wychowania Przedszkolnego w Tarnowskiej Woli",
                "name": "Zesp\u00f3\u0142 Wychowania Przedszkolnego w Tarnowskiej Woli",
                "addr:postcode": "39-460",
                "addr:place": "Tarnowska Wola",
                "addr:housenumber": "267",
                "addr:teryt:simc": 800539,
                "phone": "+48 158467104",
                "email": "sptwola@nowadeba.pl",
                "ref:regon": "180908062",
                "operator": "Gmina Nowa D\u0119ba",
                "operator:type": "government",
                "amenity": "kindergarten"
            }
        },
        {
            "id": 79857,
            "type": "Feature",
            "geometry": {
                "type": "Point",
                "coordinates": [
                    21.74215,
                    50.454789999999996
                ]
            },
            "properties": {
                "isced:level": "1;2",
                "ref:rspo": 79857,
                "official_name": "Szko\u0142a Podstawowa im. Hrabiego Stanis\u0142awa Tarnowskiego w Tarnowskiej Woli",
                "name": "Szko\u0142a Podstawowa",
                "addr:postcode": "39-460",
                "addr:place": "Tarnowska Wola",
                "addr:housenumber": "267",
                "addr:teryt:simc": 800539,
                "phone": "+48 158467104",
                "email": "sptwola@nowadeba.pl",
                "website": "https:\/\/sptarnowskawola.edupage.org\/",
                "ref:regon": "001178154",
                "ref:vatin": "PL8671618814",
                "operator": "Gmina Nowa D\u0119ba",
                "operator:type": "government",
                "amenity": "school"
            }
        },
        {
            "id": 76165,
            "type": "Feature",
            "geometry": {
                "type": "Point",
                "coordinates": [
                    21.74114,
                    50.46456
                ]
            },
            "properties": {
                "ref:rspo": 76165,
                "official_name": "Zesp\u00f3\u0142 Wychowania Przedszkolnego w Alfred\u00f3wce",
                "name": "Zesp\u00f3\u0142 Wychowania Przedszkolnego w Alfred\u00f3wce",
                "addr:postcode": "39-460",
                "addr:place": "Alfred\u00f3wka",
                "addr:housenumber": "NN",
                "addr:teryt:simc": 800090,
                "phone": "+48 158467107",
                "email": "pspalfredowka@interia.pl",
                "ref:regon": "180908040",
                "operator": "Gmina Nowa D\u0119ba",
                "operator:type": "government",
                "amenity": "kindergarten"
            }
        },
        {
            "id": 76143,
            "type": "Feature",
            "geometry": {
                "type": "Point",
                "coordinates": [
                    21.75403,
                    50.46743
                ]
            },
            "properties": {
                "isced:level": "1;2",
                "ref:rspo": 76143,
                "official_name": "Publiczna Szko\u0142a Podstawowa im. \u015awi\u0119tej Jadwigi Kr\u00f3lowej w Alfred\u00f3wce",
                "name": "Publiczna Szko\u0142a Podstawowa",
                "addr:postcode": "39-460",
                "addr:place": "Alfred\u00f3wka",
                "addr:housenumber": "192",
                "addr:teryt:simc": 800090,
                "phone": "+48 158467107",
                "email": "pspalfredowka@interia.pl",
                "website": "http:\/\/www.pspalfredowka.jor.pl",
                "ref:regon": "001178102",
                "ref:vatin": "PL8671618843",
                "operator": "Gmina Nowa D\u0119ba",
                "operator:type": "government",
                "amenity": "school"
            }
        },
        {
            "id": 264195,
            "type": "Feature",
            "geometry": {
                "type": "Point",
                "coordinates": [
                    21.75403,
                    50.4674
                ]
            },
            "properties": {
                "ref:rspo": 264195,
                "official_name": "Niepubliczne Przedszkole \"Akademia Marze\u0144\"",
                "name": "Niepubliczne Przedszkole \"Akademia Marze\u0144\"",
                "addr:postcode": "39-460",
                "addr:place": "Alfred\u00f3wka",
                "addr:housenumber": "192",
                "addr:teryt:simc": 800090,
                "phone": "+48 669040088",
                "email": "stowarz.veritasetbonum@interia.pl",
                "website": "http:\/\/www.akademia-marzen.pl",
                "ref:regon": "368282683",
                "operator": "Stowarzyszenie Veritas Et Bonum",
                "operator:type": "ngo",
                "amenity": "kindergarten"
            }
        },
        {
            "id": 76174,
            "type": "Feature",
            "geometry": {
                "type": "Point",
                "coordinates": [
                    21.68311,
                    50.49531
                ]
            },
            "properties": {
                "ref:rspo": 76174,
                "official_name": "Zesp\u00f3\u0142 Wychowania Przedszkolnego w Jadachach",
                "name": "Zesp\u00f3\u0142 Wychowania Przedszkolnego w Jadachach",
                "addr:postcode": "39-442",
                "addr:place": "Jadachy",
                "addr:housenumber": "NN",
                "addr:teryt:simc": 800396,
                "phone": "+48 158461181",
                "email": "spjadachy@npl.pl",
                "ref:regon": "180908091",
                "operator": "Gmina Nowa D\u0119ba",
                "operator:type": "government",
                "amenity": "kindergarten"
            }
        },
        {
            "id": 87016,
            "type": "Feature",
            "geometry": {
                "type": "Point",
                "coordinates": [
                    21.68311,
                    50.49528
                ]
            },
            "properties": {
                "isced:level": "1;2",
                "ref:rspo": 87016,
                "official_name": "Szko\u0142a Podstawowa im. Kardyna\u0142a Stefana Wyszy\u0144skiego w Jadachach",
                "name": "Szko\u0142a Podstawowa",
                "addr:postcode": "39-442",
                "addr:place": "Jadachy",
                "addr:housenumber": "1",
                "addr:teryt:simc": 800396,
                "phone": "+48 158461181",
                "email": "spjadachy@npl.pl",
                "website": "http:\/\/www.zsjadachy.edupage.org",
                "ref:regon": "001178131",
                "ref:vatin": "PL8671618978",
                "operator": "Gmina Nowa D\u0119ba",
                "operator:type": "government",
                "amenity": "school"
            }
        },
        {
            "id": 76173,
            "type": "Feature",
            "geometry": {
                "type": "Point",
                "coordinates": [
                    21.70243,
                    50.51553
                ]
            },
            "properties": {
                "ref:rspo": 76173,
                "official_name": "Zesp\u00f3\u0142 Wychowania Przedszkolnego w Cyganach",
                "name": "Zesp\u00f3\u0142 Wychowania Przedszkolnego w Cyganach",
                "addr:postcode": "39-442",
                "addr:place": "Cygany",
                "addr:housenumber": "NN",
                "addr:teryt:simc": 800309,
                "phone": "+48 158461180",
                "email": "spcygany@poczta.onet.pl",
                "ref:regon": "180908085",
                "operator": "Gmina Nowa D\u0119ba",
                "operator:type": "government",
                "amenity": "kindergarten"
            }
        },
        {
            "id": 87018,
            "type": "Feature",
            "geometry": {
                "type": "Point",
                "coordinates": [
                    21.70243,
                    50.515499999999996
                ]
            },
            "properties": {
                "isced:level": "1;2",
                "ref:rspo": 87018,
                "official_name": "Szko\u0142a Podstawowa im. Jana Paw\u0142a II w Cyganach",
                "name": "Szko\u0142a Podstawowa",
                "addr:postcode": "39-442",
                "addr:place": "Cygany",
                "addr:housenumber": "70",
                "addr:teryt:simc": 800309,
                "phone": "+48 158461180",
                "email": "spcygany@poczta.onet.pl",
                "website": "http:\/\/www.zscygany.edupage.org",
                "ref:regon": "001178125",
                "ref:vatin": "PL8672239912",
                "operator": "Gmina Nowa D\u0119ba",
                "operator:type": "government",
                "amenity": "school"
            }
        },
        {
            "id": 76172,
            "type": "Feature",
            "geometry": {
                "type": "Point",
                "coordinates": [
                    21.6796599,
                    50.5199799
                ]
            },
            "properties": {
                "ref:rspo": 76172,
                "official_name": "Zesp\u00f3\u0142 Wychowania Przedszkolnego w Chmielowie",
                "name": "Zesp\u00f3\u0142 Wychowania Przedszkolnego w Chmielowie",
                "addr:postcode": "39-442",
                "addr:place": "Chmiel\u00f3w",
                "addr:housenumber": "NN",
                "addr:teryt:simc": 800203,
                "phone": "+48 158461568",
                "email": "gchmielow1@o2.pl",
                "ref:regon": "180908079",
                "operator": "Gmina Nowa D\u0119ba",
                "operator:type": "government",
                "amenity": "kindergarten"
            }
        },
        {
            "id": 87023,
            "type": "Feature",
            "geometry": {
                "type": "Point",
                "coordinates": [
                    21.68344,
                    50.52182
                ]
            },
            "properties": {
                "isced:level": "1;2",
                "ref:rspo": 87023,
                "official_name": "Szko\u0142a Podstawowa im. Fabiana Dury w Chmielowie",
                "name": "Szko\u0142a Podstawowa",
                "addr:postcode": "39-442",
                "addr:city": "Chmiel\u00f3w",
                "addr:street": "Kolejowa",
                "addr:housenumber": "6",
                "addr:teryt:simc": 800203,
                "addr:teryt:sym_ul": 8828,
                "phone": "+48 158461568",
                "email": "gchmielow1@o2.pl",
                "website": "http:\/\/www.zschmielow.edupage.org",
                "ref:regon": "001178119",
                "ref:vatin": "PL8672099434",
                "operator": "Gmina Nowa D\u0119ba",
                "operator:type": "government",
                "amenity": "school"
            }
        },
        {
            "id": 276597,
            "type": "Feature",
            "geometry": {
                "type": "Point",
                "coordinates": [
                    21.68344,
                    50.521789999999996
                ]
            },
            "properties": {
                "ref:rspo": 276597,
                "official_name": "Niepubliczne Przedszkole \"Mali Odkrywcy\"",
                "name": "Niepubliczne Przedszkole \"Mali Odkrywcy\"",
                "addr:postcode": "39-442",
                "addr:city": "Chmiel\u00f3w",
                "addr:street": "Kolejowa",
                "addr:housenumber": "6",
                "addr:teryt:simc": 800203,
                "addr:teryt:sym_ul": 8828,
                "email": "przedszkolniodkrywcy@gmail.com",
                "ref:regon": "387258862",
                "operator": "Stowarzyszenie Przyjaci\u00f3\u0142 Chmielowa \"Chmielowianie\"",
                "operator:type": "ngo",
                "amenity": "kindergarten"
            }
        }
    ]
}