{
    "type": "FeatureCollection",
    "features": [
        {
            "id": 68044,
            "type": "Feature",
            "geometry": {
                "type": "Point",
                "coordinates": [
                    21.80277,
                    50.613
                ]
            },
            "properties": {
                "isced:level": "1;2",
                "ref:rspo": 68044,
                "official_name": "Szko\u0142a Podstawowa im. Stanis\u0142awa Jachowicza w Furmanach",
                "name": "Szko\u0142a Podstawowa",
                "addr:postcode": "39-400",
                "addr:city": "Furmany",
                "addr:street": "Ko\u015bcielna",
                "addr:housenumber": "2",
                "addr:city:simc": 791467,
                "addr:street:sym_ul": 9546,
                "phone": "+48 158363604",
                "email": "spfurmany@op.pl",
                "ref:regon": "001187667",
                "ref:vatin": "PL8671994687",
                "operator": "Gmina Gorzyce",
                "operator:type": "government",
                "amenity": "school"
            }
        },
        {
            "id": 66100,
            "type": "Feature",
            "geometry": {
                "type": "Point",
                "coordinates": [
                    21.8047,
                    50.64179
                ]
            },
            "properties": {
                "isced:level": "1;2",
                "ref:rspo": 66100,
                "official_name": "Szko\u0142a Podstawowa im. Ks. Jana Twardowskiego w Sokolnikach",
                "name": "Szko\u0142a Podstawowa",
                "addr:postcode": "39-432",
                "addr:city": "Sokolniki",
                "addr:street": "Szkolna",
                "addr:housenumber": "6",
                "addr:city:simc": 791616,
                "addr:street:sym_ul": 21970,
                "phone": "+48 158363550",
                "email": "spsokolniki@onet.pl",
                "website": "http:\/\/www.spsokolniki.edupage.org",
                "ref:regon": "001187673",
                "ref:vatin": "PL8671994747",
                "operator": "Gmina Gorzyce",
                "operator:type": "government",
                "amenity": "school",
                "note": "Parent RSPO: 127590"
            }
        },
        {
            "id": 127590,
            "type": "Feature",
            "geometry": {
                "type": "Point",
                "coordinates": [
                    21.80747,
                    50.6424499
                ]
            },
            "properties": {
                "ref:rspo": 127590,
                "official_name": "Zesp\u00f3\u0142 Szkolno-Przedszkolny w Sokolnikach",
                "name": "Zesp\u00f3\u0142 Szkolno-Przedszkolny w Sokolnikach",
                "addr:postcode": "39-432",
                "addr:city": "Sokolniki",
                "addr:street": "Sandomierska",
                "addr:housenumber": "80",
                "addr:city:simc": 791616,
                "addr:street:sym_ul": 19491,
                "phone": "+48 158363550",
                "email": "spsokolniki@onet.pl",
                "website": "http:\/\/www.spsokolniki.edupage.org",
                "ref:regon": "361735839",
                "operator": "Gmina Gorzyce",
                "operator:type": "government",
                "landuse": "education",
                "fixme": "amenity=school, amenity=college albo landuse=education w zale\u017cno\u015bci od tego, jakie plac\u00f3wki wchodz\u0105 w sk\u0142ad zespo\u0142u. Sprawd\u017a, kiedy stosowa\u0107 amenity=* a kiedy landuse=education.",
                "note": "Children RSPO: 66100;68332"
            }
        },
        {
            "id": 68332,
            "type": "Feature",
            "geometry": {
                "type": "Point",
                "coordinates": [
                    21.80747,
                    50.6424199
                ]
            },
            "properties": {
                "ref:rspo": 68332,
                "official_name": "Przedszkole w Sokolnikach",
                "name": "Przedszkole w Sokolnikach",
                "addr:postcode": "39-432",
                "addr:city": "Sokolniki",
                "addr:street": "Sandomierska",
                "addr:housenumber": "80",
                "addr:city:simc": 791616,
                "addr:street:sym_ul": 19491,
                "phone": "+48 158363551",
                "email": "przedszkole.sokolniki@op.pl",
                "website": "http:\/\/www.spsokolniki.edupage.org",
                "ref:regon": "180905922",
                "ref:vatin": "PL8671995103",
                "operator": "Gmina Gorzyce",
                "operator:type": "government",
                "amenity": "kindergarten",
                "note": "Parent RSPO: 127590"
            }
        },
        {
            "id": 68042,
            "type": "Feature",
            "geometry": {
                "type": "Point",
                "coordinates": [
                    21.84617,
                    50.65703
                ]
            },
            "properties": {
                "isced:level": "1;2",
                "ref:rspo": 68042,
                "official_name": "Szko\u0142a Podstawowa Nr 2 im. Jana Paw\u0142a II w Gorzycach",
                "name": "Szko\u0142a Podstawowa Nr 2",
                "addr:postcode": "39-432",
                "addr:city": "Gorzyce",
                "addr:street": "Edukacji Narodowej",
                "addr:housenumber": "3",
                "addr:city:simc": 791496,
                "addr:street:sym_ul": 4732,
                "phone": "+48 158361869",
                "email": "sp2gorzyce@poczta.onet.pl",
                "website": "http:\/\/www.zs.egorzyce.pl",
                "ref:regon": "001321663",
                "ref:vatin": "PL8672240499",
                "operator": "Gmina Gorzyce",
                "operator:type": "government",
                "amenity": "school"
            }
        },
        {
            "id": 68419,
            "type": "Feature",
            "geometry": {
                "type": "Point",
                "coordinates": [
                    21.84617,
                    50.657
                ]
            },
            "properties": {
                "ref:rspo": 68419,
                "official_name": "Samorz\u0105dowe Przedszkole w Gorzycach",
                "name": "Samorz\u0105dowe Przedszkole w Gorzycach",
                "addr:postcode": "39-432",
                "addr:city": "Gorzyce",
                "addr:street": "Edukacji Narodowej",
                "addr:housenumber": "3",
                "addr:city:simc": 791496,
                "addr:street:sym_ul": 4732,
                "phone": "+48 158213270",
                "email": "przedszkolegorzyce@interia.pl",
                "website": "http:\/\/przedszkolegorzce.szkolnastrona.pl",
                "ref:regon": "831221083",
                "ref:vatin": "PL8671995184",
                "operator": "Gmina Gorzyce",
                "operator:type": "government",
                "amenity": "kindergarten"
            }
        },
        {
            "id": 109633,
            "type": "Feature",
            "geometry": {
                "type": "Point",
                "coordinates": [
                    21.83973,
                    50.65737
                ]
            },
            "properties": {
                "ref:rspo": 109633,
                "official_name": "Zesp\u00f3\u0142 Szk\u00f3\u0142 im. Por. J\u00f3zefa Sarny w Gorzycach",
                "name": "Zesp\u00f3\u0142 Szk\u00f3\u0142",
                "addr:postcode": "39-432",
                "addr:city": "Gorzyce",
                "addr:street": "\u017bwirki i Wigury",
                "addr:housenumber": "2",
                "addr:city:simc": 791496,
                "addr:street:sym_ul": 26608,
                "phone": "+48 158362087",
                "email": "zsgorzyce@wp.pl",
                "website": "http:\/\/www.zsgorzyce.com.pl",
                "ref:regon": "000037210",
                "ref:vatin": "PL8671875623",
                "operator": "Powiat Tarnobrzeski",
                "operator:type": "government",
                "landuse": "education",
                "fixme": "amenity=school, amenity=college albo landuse=education w zale\u017cno\u015bci od tego, jakie plac\u00f3wki wchodz\u0105 w sk\u0142ad zespo\u0142u. Sprawd\u017a, kiedy stosowa\u0107 amenity=* a kiedy landuse=education.",
                "note": "Children RSPO: 110153;110182;110183;110184;110185;110187;276129"
            }
        },
        {
            "id": 110153,
            "type": "Feature",
            "geometry": {
                "type": "Point",
                "coordinates": [
                    21.83973,
                    50.65734
                ]
            },
            "properties": {
                "ref:rspo": 110153,
                "official_name": "Centrum Kszta\u0142cenia Zawodowego w Gorzycach",
                "name": "Centrum Kszta\u0142cenia Zawodowego w Gorzycach",
                "addr:postcode": "39-432",
                "addr:city": "Gorzyce",
                "addr:street": "\u017bwirki i Wigury",
                "addr:housenumber": "2",
                "addr:city:simc": 791496,
                "addr:street:sym_ul": 26608,
                "phone": "+48 158362087",
                "email": "zsgorzyc@tg.onet.pl",
                "website": "http:\/\/www.zsgorzyce.republika.pl",
                "ref:regon": "831219979",
                "ref:vatin": "PL8671993297",
                "operator": "Powiat Tarnobrzeski",
                "operator:type": "government",
                "fixme": "w zale\u017cno\u015bci od przedmiotu dzia\u0142alno\u015bci (np. amenity=training + training=*, amenity=dancing_school, amenity=language_school, amenity=music_school) albo amenity=school, amenity=college, albo landuse=education w zale\u017cno\u015bci od tego, jakie plac\u00f3wki wchodz\u0105 w sk\u0142ad zespo\u0142u. Sprawd\u017a, kiedy stosowa\u0107 amenity=* a kiedy landuse=education.",
                "note": "Parent RSPO: 109633"
            }
        },
        {
            "id": 110182,
            "type": "Feature",
            "geometry": {
                "type": "Point",
                "coordinates": [
                    21.83973,
                    50.65731
                ]
            },
            "properties": {
                "isced:level": "3",
                "ref:rspo": 110182,
                "official_name": "Liceum Og\u00f3lnokszta\u0142c\u0105ce w Gorzycach",
                "name": "Liceum Og\u00f3lnokszta\u0142c\u0105ce w Gorzycach",
                "addr:postcode": "39-432",
                "addr:city": "Gorzyce",
                "addr:street": "\u017bwirki i Wigury",
                "addr:housenumber": "2",
                "addr:city:simc": 791496,
                "addr:street:sym_ul": 26608,
                "phone": "+48 158362087",
                "email": "zsgorzyce@wp.pl",
                "website": "http:\/\/www.zsgorzyce.pl",
                "ref:regon": "830475290",
                "operator": "Powiat Tarnobrzeski",
                "operator:type": "government",
                "amenity": "school",
                "note": "Parent RSPO: 109633"
            }
        },
        {
            "id": 110183,
            "type": "Feature",
            "geometry": {
                "type": "Point",
                "coordinates": [
                    21.83973,
                    50.65728
                ]
            },
            "properties": {
                "isced:level": "3",
                "ref:rspo": 110183,
                "official_name": "Technikum w Gorzycach",
                "name": "Technikum w Gorzycach",
                "addr:postcode": "39-432",
                "addr:city": "Gorzyce",
                "addr:street": "\u017bwirki i Wigury",
                "addr:housenumber": "2",
                "addr:city:simc": 791496,
                "addr:street:sym_ul": 26608,
                "phone": "+48 158362087",
                "email": "zsgorzyce@wp.pl",
                "website": "http:\/\/www.zsgorzyce.pl",
                "ref:regon": "830475278",
                "operator": "Powiat Tarnobrzeski",
                "operator:type": "government",
                "amenity": "school",
                "note": "Parent RSPO: 109633"
            }
        },
        {
            "id": 110184,
            "type": "Feature",
            "geometry": {
                "type": "Point",
                "coordinates": [
                    21.83973,
                    50.65725
                ]
            },
            "properties": {
                "isced:level": "3",
                "ref:rspo": 110184,
                "official_name": "Bran\u017cowa Szko\u0142a I Stopnia w Gorzycach",
                "name": "Bran\u017cowa Szko\u0142a I Stopnia w Gorzycach",
                "addr:postcode": "39-432",
                "addr:city": "Gorzyce",
                "addr:street": "\u017bwirki i Wigury",
                "addr:housenumber": "2",
                "addr:city:simc": 791496,
                "addr:street:sym_ul": 26608,
                "phone": "+48 158362087",
                "email": "zsgorzyce@wp.pl",
                "website": "http:\/\/www.zsgorzyce.pl",
                "ref:regon": "830475261",
                "operator": "Powiat Tarnobrzeski",
                "operator:type": "government",
                "amenity": "school",
                "note": "Parent RSPO: 109633"
            }
        },
        {
            "id": 110185,
            "type": "Feature",
            "geometry": {
                "type": "Point",
                "coordinates": [
                    21.83973,
                    50.65722
                ]
            },
            "properties": {
                "isced:level": "4",
                "ref:rspo": 110185,
                "official_name": "Szko\u0142a Policealna w Gorzycach",
                "name": "Szko\u0142a Policealna w Gorzycach",
                "addr:postcode": "39-432",
                "addr:city": "Gorzyce",
                "addr:street": "\u017bwirki i Wigury",
                "addr:housenumber": "2",
                "addr:city:simc": 791496,
                "addr:street:sym_ul": 26608,
                "phone": "+48 158362087",
                "email": "zsgorzyce@wp.pl",
                "website": "http:\/\/www.zsgorzyce.pl",
                "ref:regon": "831358014",
                "operator": "Powiat Tarnobrzeski",
                "operator:type": "government",
                "amenity": "college",
                "note": "Parent RSPO: 109633"
            }
        },
        {
            "id": 110187,
            "type": "Feature",
            "geometry": {
                "type": "Point",
                "coordinates": [
                    21.83973,
                    50.65719
                ]
            },
            "properties": {
                "isced:level": "3",
                "ref:rspo": 110187,
                "official_name": "Liceum Og\u00f3lnokszta\u0142c\u0105ce dla Doros\u0142ych w Gorzycach",
                "name": "Liceum Og\u00f3lnokszta\u0142c\u0105ce dla Doros\u0142ych w Gorzycach",
                "addr:postcode": "39-432",
                "addr:city": "Gorzyce",
                "addr:street": "\u017bwirki i Wigury",
                "addr:housenumber": "2",
                "addr:city:simc": 791496,
                "addr:street:sym_ul": 26608,
                "phone": "+48 158362087",
                "email": "zsgorzyce@wp.pl",
                "website": "http:\/\/www.zsgorzyce.pl",
                "ref:regon": "180946855",
                "operator": "Powiat Tarnobrzeski",
                "operator:type": "government",
                "amenity": "school",
                "note": "Parent RSPO: 109633"
            }
        },
        {
            "id": 276129,
            "type": "Feature",
            "geometry": {
                "type": "Point",
                "coordinates": [
                    21.83973,
                    50.65716
                ]
            },
            "properties": {
                "isced:level": "3",
                "ref:rspo": 276129,
                "official_name": "Bran\u017cowa Szko\u0142a II Stopnia w Gorzycach",
                "name": "Bran\u017cowa Szko\u0142a II Stopnia w Gorzycach",
                "addr:postcode": "39-432",
                "addr:city": "Gorzyce",
                "addr:street": "\u017bwirki i Wigury",
                "addr:housenumber": "2",
                "addr:door": "-",
                "addr:city:simc": 791496,
                "addr:street:sym_ul": 26608,
                "phone": "+48 158362087",
                "email": "zsgorzyce@wp.pl",
                "website": "http:\/\/www.zsgorzyce.pl",
                "ref:regon": "386996902",
                "operator": "Powiat Tarnobrzeski",
                "operator:type": "government",
                "amenity": "school",
                "note": "Parent RSPO: 109633"
            }
        },
        {
            "id": 127595,
            "type": "Feature",
            "geometry": {
                "type": "Point",
                "coordinates": [
                    21.78264,
                    50.6585899
                ]
            },
            "properties": {
                "ref:rspo": 127595,
                "official_name": "Zesp\u00f3\u0142 Szkolno-Przedszkolny w Trze\u015bni",
                "name": "Zesp\u00f3\u0142 Szkolno-Przedszkolny w Trze\u015bni",
                "addr:postcode": "39-432",
                "addr:city": "Trze\u015b\u0144",
                "addr:street": "Szkolna",
                "addr:housenumber": "2",
                "addr:city:simc": 791711,
                "addr:street:sym_ul": 21970,
                "phone": "+48 158362912",
                "email": "sptrzesn@op.pl",
                "website": "http:\/\/www.sptrzesn.szkolna.net",
                "ref:regon": "361735868",
                "ref:vatin": "PL8672240536",
                "operator": "Gmina Gorzyce",
                "operator:type": "government",
                "landuse": "education",
                "fixme": "amenity=school, amenity=college albo landuse=education w zale\u017cno\u015bci od tego, jakie plac\u00f3wki wchodz\u0105 w sk\u0142ad zespo\u0142u. Sprawd\u017a, kiedy stosowa\u0107 amenity=* a kiedy landuse=education.",
                "note": "Children RSPO: 66450;68067"
            }
        },
        {
            "id": 66450,
            "type": "Feature",
            "geometry": {
                "type": "Point",
                "coordinates": [
                    21.78264,
                    50.6585599
                ]
            },
            "properties": {
                "isced:level": "1;2",
                "ref:rspo": 66450,
                "official_name": "Szko\u0142a Podstawowa im. Marii Konopnickiej w Trze\u015bni",
                "name": "Szko\u0142a Podstawowa",
                "addr:postcode": "39-432",
                "addr:city": "Trze\u015b\u0144",
                "addr:street": "Szkolna",
                "addr:housenumber": "2",
                "addr:city:simc": 791711,
                "addr:street:sym_ul": 21970,
                "phone": "+48 158362912",
                "email": "sptrzesn@op.pl",
                "website": "http:\/\/www.sptrzesn.szkolna.net",
                "ref:regon": "001187680",
                "ref:vatin": "PL8671994693",
                "operator": "Gmina Gorzyce",
                "operator:type": "government",
                "amenity": "school",
                "note": "Parent RSPO: 127595"
            }
        },
        {
            "id": 68067,
            "type": "Feature",
            "geometry": {
                "type": "Point",
                "coordinates": [
                    21.78264,
                    50.658529900000005
                ]
            },
            "properties": {
                "ref:rspo": 68067,
                "official_name": "Przedszkole w Trze\u015bni",
                "name": "Przedszkole w Trze\u015bni",
                "addr:postcode": "39-432",
                "addr:city": "Trze\u015b\u0144",
                "addr:street": "Szkolna",
                "addr:housenumber": "2",
                "addr:city:simc": 791711,
                "addr:street:sym_ul": 21970,
                "phone": "+48 158361782",
                "email": "przedszkoletrzesn@wp.pl",
                "website": "http:\/\/www.sptrzesn.szkolna.net",
                "ref:regon": "830013514",
                "ref:vatin": "PL8671995103",
                "operator": "Gmina Gorzyce",
                "operator:type": "government",
                "amenity": "kindergarten",
                "note": "Parent RSPO: 127595"
            }
        },
        {
            "id": 68334,
            "type": "Feature",
            "geometry": {
                "type": "Point",
                "coordinates": [
                    21.8313099,
                    50.67152
                ]
            },
            "properties": {
                "isced:level": "1;2",
                "ref:rspo": 68334,
                "official_name": "Szko\u0142a Podstawowa Nr 1 im. Ks. Adama Osetka w Gorzycach",
                "name": "Szko\u0142a Podstawowa Nr 1",
                "addr:postcode": "39-432",
                "addr:city": "Gorzyce",
                "addr:street": "Szkolna",
                "addr:housenumber": "45",
                "addr:city:simc": 791496,
                "addr:street:sym_ul": 21970,
                "phone": "+48 158362814",
                "email": "psp_gorzyce1@interia.pl",
                "ref:regon": "000650376",
                "ref:vatin": "PL8671994701",
                "operator": "Gmina Gorzyce",
                "operator:type": "government",
                "amenity": "school"
            }
        },
        {
            "id": 79871,
            "type": "Feature",
            "geometry": {
                "type": "Point",
                "coordinates": [
                    21.8531,
                    50.7061599
                ]
            },
            "properties": {
                "isced:level": "1;2",
                "ref:rspo": 79871,
                "official_name": "Szko\u0142a Podstawowa we Wrzawach",
                "name": "Szko\u0142a Podstawowa we Wrzawach",
                "addr:postcode": "39-432",
                "addr:place": "Wrzawy",
                "addr:housenumber": "490",
                "addr:city:simc": 791817,
                "phone": "+48 158363628",
                "email": "szkolapodstawowawrzawy@wp.pl",
                "ref:regon": "001187696",
                "ref:vatin": "PL8672196858",
                "operator": "Gmina Gorzyce",
                "operator:type": "government",
                "amenity": "school"
            }
        }
    ]
}