{
    "type": "FeatureCollection",
    "features": [
        {
            "id": 29415,
            "type": "Feature",
            "geometry": {
                "type": "Point",
                "coordinates": [
                    20.4476999,
                    50.304249
                ]
            },
            "properties": {
                "isced:level": "1;2",
                "ref:rspo": 29415,
                "official_name": "Szko\u0142a Podstawowa im. Miko\u0142aja Reja w Topoli",
                "name": "Szko\u0142a Podstawowa",
                "addr:country": "PL",
                "addr:postcode": "28-530",
                "addr:place": "Topola",
                "addr:housenumber": "259",
                "addr:teryt:sym_ul": 268211,
                "contact:phone": "+48 413529175",
                "contact:email": "zstopola@op.pl",
                "ref:regon": "001183149",
                "ref:vatin": "PL6621493143",
                "operator": "Gmina Skalbmierz",
                "operator:type": "government",
                "amenity": "school"
            }
        },
        {
            "id": 9663,
            "type": "Feature",
            "geometry": {
                "type": "Point",
                "coordinates": [
                    20.39516,
                    50.31651
                ]
            },
            "properties": {
                "ref:rspo": 9663,
                "official_name": "Zesp\u00f3\u0142 Szk\u00f3\u0142 Zawodowych w Skalbmierzu",
                "name": "Zesp\u00f3\u0142 Szk\u00f3\u0142 Zawodowych w Skalbmierzu",
                "addr:country": "PL",
                "addr:postcode": "28-530",
                "addr:city": "Skalbmierz",
                "addr:street": "Kanonijska",
                "addr:housenumber": "7B",
                "addr:teryt:simc": 7955,
                "addr:teryt:sym_ul": 947627,
                "contact:phone": "+48 413529037",
                "contact:email": "zsz_skalbmierz@op.pl",
                "contact:website": "http:\/\/www.zszskalbmierz.edu.pl",
                "ref:regon": "000192028",
                "ref:vatin": "PL6621283865",
                "operator": "Powiat Kazimierski",
                "operator:type": "government",
                "landuse": "education",
                "fixme": "amenity=school, amenity=college albo landuse=education w zale\u017cno\u015bci od tego, jakie plac\u00f3wki wchodz\u0105 w sk\u0142ad zespo\u0142u. Sprawd\u017a, kiedy stosowa\u0107 amenity=* a kiedy landuse=education.",
                "note": "Children RSPO: 10545;49068;49100;56396"
            }
        },
        {
            "id": 131877,
            "type": "Feature",
            "geometry": {
                "type": "Point",
                "coordinates": [
                    20.39516,
                    50.31648
                ]
            },
            "properties": {
                "ref:rspo": 131877,
                "official_name": "Zesp\u00f3\u0142 Szk\u00f3\u0142 Centrum Edukacji Ustawicznej w Skalbmierzu",
                "name": "Zesp\u00f3\u0142 Szk\u00f3\u0142 Centrum Edukacji Ustawicznej w Skalbmierzu",
                "addr:country": "PL",
                "addr:postcode": "28-530",
                "addr:city": "Skalbmierz",
                "addr:street": "Kanonijska",
                "addr:housenumber": "7",
                "addr:teryt:simc": 7955,
                "addr:teryt:sym_ul": 947627,
                "contact:phone": "+48 413520039",
                "contact:email": "ceuskalbmierz@poczta.onet.pl",
                "contact:website": "https:\/\/ceuskalbmierz.edu.pl\/",
                "ref:regon": "365372977",
                "operator": "El\u017cbieta M\u0119cina - Bednarek",
                "operator:type": "private",
                "landuse": "education",
                "fixme": "amenity=school, amenity=college albo landuse=education w zale\u017cno\u015bci od tego, jakie plac\u00f3wki wchodz\u0105 w sk\u0142ad zespo\u0142u. Sprawd\u017a, kiedy stosowa\u0107 amenity=* a kiedy landuse=education.",
                "note": "Children RSPO: 68208;68297;120857;279037"
            }
        },
        {
            "id": 278579,
            "type": "Feature",
            "geometry": {
                "type": "Point",
                "coordinates": [
                    20.39516,
                    50.31645
                ]
            },
            "properties": {
                "ref:rspo": 278579,
                "official_name": "Nowe Przedszkole Integracyjne im. Marii Montessori",
                "name": "Nowe Przedszkole Integracyjne",
                "addr:country": "PL",
                "addr:postcode": "28-530",
                "addr:city": "Skalbmierz",
                "addr:street": "Kanonijska",
                "addr:housenumber": "7",
                "addr:teryt:simc": 7955,
                "addr:teryt:sym_ul": 947627,
                "contact:phone": "+48 413520039",
                "contact:email": "przedszkole@ceuskalbmierz.edu.pl",
                "ref:regon": "389985721",
                "operator": "El\u017cbieta M\u0119cina - Bednarek",
                "operator:type": "private",
                "amenity": "kindergarten"
            }
        },
        {
            "id": 10545,
            "type": "Feature",
            "geometry": {
                "type": "Point",
                "coordinates": [
                    20.39516,
                    50.31642
                ]
            },
            "properties": {
                "isced:level": "3",
                "ref:rspo": 10545,
                "official_name": "Liceum Og\u00f3lnokszta\u0142c\u0105ce dla Doros\u0142ych w Zespole Szk\u00f3\u0142 Zawodowych w Skalbmierzu",
                "name": "Liceum Og\u00f3lnokszta\u0142c\u0105ce dla Doros\u0142ych w Zespole Szk\u00f3\u0142 Zawodowych w Skalbmierzu",
                "addr:country": "PL",
                "addr:postcode": "28-530",
                "addr:city": "Skalbmierz",
                "addr:street": "Kanonijska",
                "addr:housenumber": "7B",
                "addr:teryt:simc": 7955,
                "addr:teryt:sym_ul": 947627,
                "contact:phone": "+48 413529037",
                "contact:email": "zsz_skalbmierz@op.pl",
                "contact:website": "http:\/\/www.zszskalbmierz.edu.pl",
                "ref:regon": "260629794",
                "operator": "Powiat Kazimierski",
                "operator:type": "government",
                "amenity": "school",
                "note": "Parent RSPO: 9663"
            }
        },
        {
            "id": 49068,
            "type": "Feature",
            "geometry": {
                "type": "Point",
                "coordinates": [
                    20.39516,
                    50.31639
                ]
            },
            "properties": {
                "isced:level": "3",
                "ref:rspo": 49068,
                "official_name": "Technikum w Zespole Szk\u00f3\u0142 Zawodowych w Skalbmierzu",
                "name": "Technikum w Zespole Szk\u00f3\u0142 Zawodowych w Skalbmierzu",
                "addr:country": "PL",
                "addr:postcode": "28-530",
                "addr:city": "Skalbmierz",
                "addr:street": "Kanonijska",
                "addr:housenumber": "7B",
                "addr:teryt:simc": 7955,
                "addr:teryt:sym_ul": 947627,
                "contact:phone": "+48 413529037",
                "contact:email": "zsz_skalbmierz@op.pl",
                "contact:website": "http:\/\/www.zszskalbmierz.edu.pl",
                "ref:regon": "292440563",
                "operator": "Powiat Kazimierski",
                "operator:type": "government",
                "amenity": "school",
                "note": "Parent RSPO: 9663"
            }
        },
        {
            "id": 49100,
            "type": "Feature",
            "geometry": {
                "type": "Point",
                "coordinates": [
                    20.39516,
                    50.31636
                ]
            },
            "properties": {
                "isced:level": "3",
                "ref:rspo": 49100,
                "official_name": "Bran\u017cowa Szko\u0142a I Stopnia w Zespole Szk\u00f3\u0142 Zawodowych w Skalbmierzu",
                "name": "Bran\u017cowa Szko\u0142a I Stopnia w Zespole Szk\u00f3\u0142 Zawodowych w Skalbmierzu",
                "addr:country": "PL",
                "addr:postcode": "28-530",
                "addr:city": "Skalbmierz",
                "addr:street": "Kanonijska",
                "addr:housenumber": "7B",
                "addr:teryt:simc": 7955,
                "addr:teryt:sym_ul": 947627,
                "contact:phone": "+48 413529037",
                "contact:email": "zsz_skalbmierz@op.pl",
                "contact:website": "http:\/\/www.zszskalbmierz.edu.pl",
                "ref:regon": "292440534",
                "operator": "Powiat Kazimierski",
                "operator:type": "government",
                "amenity": "school",
                "note": "Parent RSPO: 9663"
            }
        },
        {
            "id": 56396,
            "type": "Feature",
            "geometry": {
                "type": "Point",
                "coordinates": [
                    20.39516,
                    50.31633
                ]
            },
            "properties": {
                "isced:level": "4",
                "ref:rspo": 56396,
                "official_name": "Szko\u0142a Policealna w Zespole Szk\u00f3\u0142 Zawodowych w Skalbmierzu",
                "name": "Szko\u0142a Policealna w Zespole Szk\u00f3\u0142 Zawodowych w Skalbmierzu",
                "addr:country": "PL",
                "addr:postcode": "28-530",
                "addr:city": "Skalbmierz",
                "addr:street": "Kanonijska",
                "addr:housenumber": "7B",
                "addr:teryt:simc": 7955,
                "addr:teryt:sym_ul": 947627,
                "contact:phone": "+48 413529037",
                "contact:email": "zsz_skalbmierz@op.pl",
                "contact:website": "http:\/\/www.zszskalbmierz.edu.pl",
                "ref:regon": "260042445",
                "operator": "Powiat Kazimierski",
                "operator:type": "government",
                "amenity": "college",
                "note": "Parent RSPO: 9663"
            }
        },
        {
            "id": 68208,
            "type": "Feature",
            "geometry": {
                "type": "Point",
                "coordinates": [
                    20.39516,
                    50.3163
                ]
            },
            "properties": {
                "isced:level": "4",
                "ref:rspo": 68208,
                "official_name": "Niepubliczna Szko\u0142a Policealna Ul. Kanonijska 7, 28-530 Skalbmierz",
                "name": "Niepubliczna Szko\u0142a Policealna Ul. Kanonijska 7, 28-530 Skalbmierz",
                "addr:country": "PL",
                "addr:postcode": "28-530",
                "addr:city": "Skalbmierz",
                "addr:street": "Kanonijska",
                "addr:housenumber": "7",
                "addr:teryt:simc": 7955,
                "addr:teryt:sym_ul": 947627,
                "contact:phone": "+48 413520039",
                "contact:email": "ceuskalbmierz@poczta.onet.pl",
                "contact:website": "https:\/\/ceuskalbmierz.edu.pl",
                "ref:regon": "260648751",
                "operator": "El\u017cbieta M\u0119cina - Bednarek",
                "operator:type": "private",
                "amenity": "college",
                "note": "Parent RSPO: 131877"
            }
        },
        {
            "id": 68297,
            "type": "Feature",
            "geometry": {
                "type": "Point",
                "coordinates": [
                    20.39516,
                    50.31627
                ]
            },
            "properties": {
                "isced:level": "3",
                "ref:rspo": 68297,
                "official_name": "Niepubliczne Technikum w Skalbmierzu im. Konstytucji 3-Go Maja",
                "name": "Niepubliczne Technikum w Skalbmierzu",
                "addr:country": "PL",
                "addr:postcode": "28-530",
                "addr:city": "Skalbmierz",
                "addr:street": "Kanonijska",
                "addr:housenumber": "7",
                "addr:teryt:simc": 7955,
                "addr:teryt:sym_ul": 947627,
                "contact:phone": "+48 413520039",
                "contact:email": "ceuskalbmierz@poczta.onet.pl",
                "contact:website": "https:\/\/ceuskalbmierz.edu.pl",
                "ref:regon": "260648805",
                "operator": "El\u017cbieta M\u0119cina - Bednarek",
                "operator:type": "private",
                "amenity": "school",
                "note": "Parent RSPO: 131877"
            }
        },
        {
            "id": 120857,
            "type": "Feature",
            "geometry": {
                "type": "Point",
                "coordinates": [
                    20.39516,
                    50.31624
                ]
            },
            "properties": {
                "isced:level": "3",
                "ref:rspo": 120857,
                "official_name": "Niepubliczne Liceum Og\u00f3lnokszta\u0142c\u0105ce dla Doros\u0142ych",
                "name": "Niepubliczne Liceum Og\u00f3lnokszta\u0142c\u0105ce dla Doros\u0142ych",
                "addr:country": "PL",
                "addr:postcode": "28-530",
                "addr:city": "Skalbmierz",
                "addr:street": "Kanonijska",
                "addr:housenumber": "7",
                "addr:teryt:simc": 7955,
                "addr:teryt:sym_ul": 947627,
                "contact:phone": "+48 413520039",
                "contact:email": "ceuskalbmierz@poczta.onet.pl",
                "contact:website": "https:\/\/ceuskalbmierz.edu.pl\/",
                "ref:regon": "260731535",
                "operator": "El\u017cbieta M\u0119cina - Bednarek",
                "operator:type": "private",
                "amenity": "school",
                "note": "Parent RSPO: 131877"
            }
        },
        {
            "id": 279037,
            "type": "Feature",
            "geometry": {
                "type": "Point",
                "coordinates": [
                    20.39516,
                    50.31621
                ]
            },
            "properties": {
                "ref:rspo": 279037,
                "official_name": "O\u015brodek Szkoleniowy Zespo\u0142u Szk\u00f3\u0142 Centrum Edukacji Ustawicznej w Skalbmierzu",
                "name": "O\u015brodek Szkoleniowy Zespo\u0142u Szk\u00f3\u0142 Centrum Edukacji Ustawicznej w Skalbmierzu",
                "addr:country": "PL",
                "addr:postcode": "28-530",
                "addr:city": "Skalbmierz",
                "addr:street": "Kanonijska",
                "addr:housenumber": "7",
                "addr:teryt:simc": 7955,
                "addr:teryt:sym_ul": 947627,
                "contact:phone": "+48 413520039",
                "contact:email": "ceuskalbmierz@poczta.onet.pl",
                "contact:website": "http:\/\/www.ceuskalbmierz.edu.pl",
                "ref:regon": "520460443",
                "operator": "El\u017cbieta M\u0119cina - Bednarek",
                "operator:type": "private",
                "fixme": "w zale\u017cno\u015bci od przedmiotu dzia\u0142alno\u015bci (np. amenity=training + training=*, amenity=dancing_school, amenity=language_school, amenity=music_school)",
                "note": "Parent RSPO: 131877"
            }
        },
        {
            "id": 5916,
            "type": "Feature",
            "geometry": {
                "type": "Point",
                "coordinates": [
                    20.39989,
                    50.31694
                ]
            },
            "properties": {
                "ref:rspo": 5916,
                "official_name": "Niepubliczne Przedszkole Si\u00f3str S\u0142u\u017cebniczek Nmp Np im. Edmunda Bojanowskiego w Skalbmierzu",
                "name": "Niepubliczne Przedszkole Si\u00f3str S\u0142u\u017cebniczek Nmp Np",
                "addr:country": "PL",
                "addr:postcode": "28-530",
                "addr:city": "Skalbmierz",
                "addr:street": "Partyzant\u00f3w",
                "addr:housenumber": "1",
                "addr:teryt:simc": 15733,
                "addr:teryt:sym_ul": 947627,
                "contact:phone": "+48 413529112",
                "contact:email": "przedszkole.skalbmierz@sluzebniczki.kr",
                "ref:regon": "260628174",
                "operator": "Zgromadzenie Si\u00f3str S\u0142u\u017cebniczek Naj\u015bwi\u0119tszej Maryi Panny Niepokalanie Pocz\u0119tej, Prowincja Krakowska",
                "operator:type": "religious",
                "amenity": "kindergarten"
            }
        },
        {
            "id": 5799,
            "type": "Feature",
            "geometry": {
                "type": "Point",
                "coordinates": [
                    20.38975,
                    50.31789
                ]
            },
            "properties": {
                "ref:rspo": 5799,
                "official_name": "Zesp\u00f3\u0142 Plac\u00f3wek O\u015bwiatowych w Skalbmierzu",
                "name": "Zesp\u00f3\u0142 Plac\u00f3wek O\u015bwiatowych w Skalbmierzu",
                "addr:country": "PL",
                "addr:postcode": "28-530",
                "addr:city": "Skalbmierz",
                "addr:street": "Podporucznika Soko\u0142a",
                "addr:housenumber": "55",
                "addr:teryt:simc": 20497,
                "addr:teryt:sym_ul": 947627,
                "contact:phone": "+48 413529010",
                "contact:email": "sekretariat_zpo@go2.pl",
                "contact:website": "http:\/\/www.zposkalbmierz.edu.pl",
                "ref:regon": "260077573",
                "ref:vatin": "PL6050053912",
                "operator": "Gmina Skalbmierz",
                "operator:type": "government",
                "landuse": "education",
                "fixme": "amenity=school, amenity=college albo landuse=education w zale\u017cno\u015bci od tego, jakie plac\u00f3wki wchodz\u0105 w sk\u0142ad zespo\u0142u. Sprawd\u017a, kiedy stosowa\u0107 amenity=* a kiedy landuse=education.",
                "note": "Children RSPO: 25391;25392"
            }
        },
        {
            "id": 25391,
            "type": "Feature",
            "geometry": {
                "type": "Point",
                "coordinates": [
                    20.38975,
                    50.317859999999996
                ]
            },
            "properties": {
                "ref:rspo": 25391,
                "official_name": "Przedszkole Miejskie w Skalbmierzu",
                "name": "Przedszkole Miejskie w Skalbmierzu",
                "addr:country": "PL",
                "addr:postcode": "28-530",
                "addr:city": "Skalbmierz",
                "addr:street": "Podporucznika Soko\u0142a",
                "addr:housenumber": "55",
                "addr:teryt:simc": 20497,
                "addr:teryt:sym_ul": 947627,
                "contact:phone": "+48 413529010",
                "contact:email": "sekretariat_zpo@go2.pl",
                "ref:regon": "290014299",
                "ref:vatin": "PL6621493203",
                "operator": "Gmina Skalbmierz",
                "operator:type": "government",
                "amenity": "kindergarten",
                "note": "Parent RSPO: 5799"
            }
        },
        {
            "id": 25392,
            "type": "Feature",
            "geometry": {
                "type": "Point",
                "coordinates": [
                    20.38975,
                    50.31783
                ]
            },
            "properties": {
                "isced:level": "1;2",
                "ref:rspo": 25392,
                "official_name": "Szko\u0142a Podstawowa im. Stanis\u0142awa Ze Skalbmierza w Skalbmierzu",
                "name": "Szko\u0142a Podstawowa",
                "addr:country": "PL",
                "addr:postcode": "28-530",
                "addr:city": "Skalbmierz",
                "addr:street": "Podporucznika Soko\u0142a",
                "addr:housenumber": "55",
                "addr:teryt:simc": 20497,
                "addr:teryt:sym_ul": 947627,
                "contact:phone": "+48 413529010",
                "contact:email": "sekretariat_zpo@go2.pl",
                "contact:website": "http:\/\/www.zposkalbmierz.edu.pl",
                "ref:regon": "000264041",
                "ref:vatin": "PL6621493137",
                "operator": "Gmina Skalbmierz",
                "operator:type": "government",
                "amenity": "school",
                "note": "Parent RSPO: 5799"
            }
        }
    ]
}