{
    "type": "FeatureCollection",
    "features": [
        {
            "id": 109350,
            "type": "Feature",
            "geometry": {
                "type": "Point",
                "coordinates": [
                    17.67306,
                    54.5112
                ]
            },
            "properties": {
                "isced:level": "1;2",
                "ref:rspo": 109350,
                "official_name": "Szko\u0142a Podstawowa im. Le\u015bnik\u00f3w Polskich w Le\u015bnicach",
                "name": "Szko\u0142a Podstawowa",
                "addr:postcode": "84-300",
                "addr:place": "Le\u015bnice",
                "addr:housenumber": "18A",
                "addr:teryt:simc": 748394,
                "phone": "+48 598612088",
                "email": "szkolalesnice@nwl.pl",
                "website": "http:\/\/szkolalesnice.nwl.pl",
                "ref:regon": "001141168",
                "ref:vatin": "PL8411721544",
                "operator": "Gmina Nowa Wie\u015b L\u0119borska",
                "operator:type": "government",
                "amenity": "school"
            }
        },
        {
            "id": 109315,
            "type": "Feature",
            "geometry": {
                "type": "Point",
                "coordinates": [
                    17.77952,
                    54.54635
                ]
            },
            "properties": {
                "isced:level": "1;2",
                "ref:rspo": 109315,
                "official_name": "Szko\u0142a Podstawowa im. Stra\u017cak\u00f3w Polskich w Nowej Wsi L\u0119borskiej",
                "name": "Szko\u0142a Podstawowa",
                "addr:postcode": "84-351",
                "addr:city": "Nowa Wie\u015b L\u0119borska",
                "addr:street": "Polna",
                "addr:housenumber": "9a",
                "addr:teryt:simc": 748514,
                "addr:teryt:sym_ul": 17011,
                "phone": "+48 598612145",
                "email": "szkolanwl@nwl.pl",
                "website": "http:\/\/www.szkolanwl.nwl.pl",
                "ref:regon": "000647411",
                "ref:vatin": "PL8411721567",
                "operator": "Gmina Nowa Wie\u015b L\u0119borska",
                "operator:type": "government",
                "amenity": "school"
            }
        },
        {
            "id": 40886,
            "type": "Feature",
            "geometry": {
                "type": "Point",
                "coordinates": [
                    17.78707,
                    54.548
                ]
            },
            "properties": {
                "ref:rspo": 40886,
                "official_name": "O\u015brodek Rehabilitacyjno-Edukacyjno-Wychowawczy",
                "name": "O\u015brodek Rehabilitacyjno-Edukacyjno-Wychowawczy",
                "addr:postcode": "84-300",
                "addr:city": "Mosty",
                "addr:street": "\u015bw. Alberta",
                "addr:housenumber": "1",
                "addr:teryt:simc": 748490,
                "addr:teryt:sym_ul": 31579,
                "phone": "+48 598411889",
                "email": "orewlebork@gmail.com",
                "ref:regon": "221760330",
                "ref:vatin": "PL8411699052",
                "operator": "\"Wsp\u00f3lna Droga\" Fundacja Na Rzecz Dzieci I M\u0142odzie\u017cy Niepe\u0142nosprawnej Oraz Pochodz\u0105cej Z Rodzin Patologicznych I Ubogich",
                "operator:type": "ngo",
                "amenity": "school"
            }
        },
        {
            "id": 9623,
            "type": "Feature",
            "geometry": {
                "type": "Point",
                "coordinates": [
                    17.78512,
                    54.54833
                ]
            },
            "properties": {
                "ref:rspo": 9623,
                "official_name": "Niepubliczne Przedszkole \"Micha\u0142kowo\"",
                "name": "Niepubliczne Przedszkole \"Micha\u0142kowo\"",
                "addr:postcode": "84-353",
                "addr:city": "Mosty",
                "addr:street": "D\u0142uga",
                "addr:housenumber": "42a",
                "addr:teryt:simc": 748490,
                "addr:teryt:sym_ul": 3839,
                "phone": "+48 666970439",
                "email": "michalkowo@op.pl",
                "website": "http:\/\/www.michalkowo-mosty.pl",
                "ref:regon": "221736514",
                "ref:vatin": "PL8411528103",
                "operator": "Karolina Skorb-Kustusz",
                "operator:type": "private",
                "amenity": "kindergarten"
            }
        },
        {
            "id": 127935,
            "type": "Feature",
            "geometry": {
                "type": "Point",
                "coordinates": [
                    17.78512,
                    54.5483
                ]
            },
            "properties": {
                "isced:level": "1;2",
                "ref:rspo": 127935,
                "official_name": "Niepubliczna Szko\u0142a Podstawowa \"Azymut\"",
                "name": "Niepubliczna Szko\u0142a Podstawowa \"Azymut\"",
                "addr:postcode": "84-353",
                "addr:city": "Mosty",
                "addr:street": "D\u0142uga",
                "addr:housenumber": "42a",
                "addr:teryt:simc": 748490,
                "addr:teryt:sym_ul": 3839,
                "phone": "+48 666970439",
                "email": "sekretariat@szkola-mosty.pl",
                "website": "https:\/\/szkola-mosty.pl\/",
                "ref:regon": "361979429",
                "ref:vatin": "PL8411528103",
                "operator": "Karolina Skorb-Kustusz",
                "operator:type": "private",
                "amenity": "school"
            }
        },
        {
            "id": 109347,
            "type": "Feature",
            "geometry": {
                "type": "Point",
                "coordinates": [
                    17.63042,
                    54.55494
                ]
            },
            "properties": {
                "isced:level": "1;2",
                "ref:rspo": 109347,
                "official_name": "Szko\u0142a Podstawowa im.tow \"Gryf Pomorski\" w Redkowicach",
                "name": "Szko\u0142a Podstawowa im.tow \"Gryf Pomorski\" w Redkowicach",
                "addr:postcode": "84-351",
                "addr:place": "Redkowice",
                "addr:housenumber": "18",
                "addr:teryt:simc": 748566,
                "phone": "+48 598633469",
                "email": "szkolaredkowice@nwl.pl",
                "website": "http:\/\/szkolaredkowice.nwl.pl",
                "ref:regon": "001141174",
                "ref:vatin": "PL8411721550",
                "operator": "Gmina Nowa Wie\u015b L\u0119borska",
                "operator:type": "government",
                "amenity": "school"
            }
        },
        {
            "id": 9561,
            "type": "Feature",
            "geometry": {
                "type": "Point",
                "coordinates": [
                    17.72518,
                    54.55558
                ]
            },
            "properties": {
                "ref:rspo": 9561,
                "official_name": "Przedszkole w Nowej Wsi L\u0119borskiej",
                "name": "Przedszkole w Nowej Wsi L\u0119borskiej",
                "addr:postcode": "84-351",
                "addr:city": "Nowa Wie\u015b L\u0119borska",
                "addr:street": "Przedszkolna",
                "addr:housenumber": "1",
                "addr:teryt:simc": 748514,
                "addr:teryt:sym_ul": 17683,
                "phone": "+48 597228820",
                "email": "przedszkolenwl@nwl.pl",
                "website": "http:\/\/przedszkolenwl.pl",
                "ref:regon": "000908521",
                "ref:vatin": "PL8411565848",
                "operator": "Gmina Nowa Wie\u015b L\u0119borska",
                "operator:type": "government",
                "amenity": "kindergarten"
            }
        },
        {
            "id": 9603,
            "type": "Feature",
            "geometry": {
                "type": "Point",
                "coordinates": [
                    17.72763,
                    54.59406
                ]
            },
            "properties": {
                "ref:rspo": 9603,
                "official_name": "Zesp\u00f3\u0142 Szk\u00f3\u0142 im. M\u0119czennik\u00f3w Marszu \u015amierci Kl Stutthof w Garczegorzu",
                "name": "Zesp\u00f3\u0142 Szk\u00f3\u0142",
                "addr:postcode": "84-351",
                "addr:place": "Garczegorze",
                "addr:housenumber": "24a",
                "addr:teryt:simc": 748307,
                "phone": "+48 598633447",
                "email": "szkolagarczegorze@nwl.pl",
                "website": "http:\/\/www.szkolagarczegorze.nwl.pl",
                "ref:regon": "771557843",
                "ref:vatin": "PL8411587382",
                "operator": "Gmina Nowa Wie\u015b L\u0119borska",
                "operator:type": "government",
                "landuse": "education",
                "fixme": "amenity=school, amenity=college albo landuse=education w zale\u017cno\u015bci od tego, jakie plac\u00f3wki wchodz\u0105 w sk\u0142ad zespo\u0142u. Sprawd\u017a, kiedy stosowa\u0107 amenity=* a kiedy landuse=education.",
                "note": "Children RSPO: 109333;109335"
            }
        },
        {
            "id": 109333,
            "type": "Feature",
            "geometry": {
                "type": "Point",
                "coordinates": [
                    17.72763,
                    54.59403
                ]
            },
            "properties": {
                "ref:rspo": 109333,
                "official_name": "Zesp\u00f3\u0142 Szk\u00f3\u0142 im.m\u0119czennik\u00f3w Marszu \u015amierci Kl Stutthof w Garczegorzu - Przedszkole",
                "name": "Zesp\u00f3\u0142 Szk\u00f3\u0142 im.m\u0119czennik\u00f3w Marszu \u015amierci Kl Stutthof w Garczegorzu - Przedszkole",
                "addr:postcode": "84-351",
                "addr:place": "Garczegorze",
                "addr:housenumber": "24a",
                "addr:teryt:simc": 748307,
                "phone": "+48 598633447",
                "email": "szkolagarczegorze@nwl.pl",
                "website": "http:\/\/www.szkolagarczegorze.nwl.pl",
                "ref:regon": "771633343",
                "operator": "Gmina Nowa Wie\u015b L\u0119borska",
                "operator:type": "government",
                "amenity": "kindergarten",
                "note": "Parent RSPO: 9603"
            }
        },
        {
            "id": 109335,
            "type": "Feature",
            "geometry": {
                "type": "Point",
                "coordinates": [
                    17.72763,
                    54.594
                ]
            },
            "properties": {
                "isced:level": "1;2",
                "ref:rspo": 109335,
                "official_name": "Zesp\u00f3\u0142 Szk\u00f3\u0142 im.m\u0119czennik\u00f3w Marszu \u015amierci Kl Stutthof w Garczegorzu - Szko\u0142a Podstawowa",
                "name": "Zesp\u00f3\u0142 Szk\u00f3\u0142 im.m\u0119czennik\u00f3w Marszu \u015amierci Kl Stutthof w Garczegorzu - Szko\u0142a Podstawowa",
                "addr:postcode": "84-351",
                "addr:place": "Garczegorze",
                "addr:housenumber": "24a",
                "addr:teryt:simc": 748307,
                "phone": "+48 598633447",
                "email": "szkolagarczegorze@nwl.pl",
                "website": "http:\/\/www.szkolagarczegorze.nwl.pl",
                "ref:regon": "001141843",
                "operator": "Gmina Nowa Wie\u015b L\u0119borska",
                "operator:type": "government",
                "amenity": "school",
                "note": "Parent RSPO: 9603"
            }
        },
        {
            "id": 9574,
            "type": "Feature",
            "geometry": {
                "type": "Point",
                "coordinates": [
                    17.71683,
                    54.64969
                ]
            },
            "properties": {
                "ref:rspo": 9574,
                "official_name": "Zesp\u00f3\u0142 Szk\u00f3\u0142 im. Jana Paw\u0142a II w \u0141ebieniu",
                "name": "Zesp\u00f3\u0142 Szk\u00f3\u0142",
                "addr:postcode": "84-351",
                "addr:place": "\u0141ebie\u0144",
                "addr:housenumber": "93a",
                "addr:teryt:simc": 748460,
                "phone": "+48 598611469",
                "email": "szkolalebien@nwl.pl",
                "website": "http:\/\/szkolalebien.nwl.pl",
                "ref:regon": "771553638",
                "ref:vatin": "PL8411587324",
                "operator": "Gmina Nowa Wie\u015b L\u0119borska",
                "operator:type": "government",
                "landuse": "education",
                "fixme": "amenity=school, amenity=college albo landuse=education w zale\u017cno\u015bci od tego, jakie plac\u00f3wki wchodz\u0105 w sk\u0142ad zespo\u0142u. Sprawd\u017a, kiedy stosowa\u0107 amenity=* a kiedy landuse=education.",
                "note": "Children RSPO: 109324;109327"
            }
        },
        {
            "id": 109324,
            "type": "Feature",
            "geometry": {
                "type": "Point",
                "coordinates": [
                    17.71683,
                    54.64966
                ]
            },
            "properties": {
                "ref:rspo": 109324,
                "official_name": "Zesp\u00f3\u0142 Szk\u00f3\u0142 im. Jana Paw\u0142a II w \u0141ebieniu - Przedszkole",
                "name": "Zesp\u00f3\u0142 Szk\u00f3\u0142",
                "addr:postcode": "84-351",
                "addr:place": "\u0141ebie\u0144",
                "addr:housenumber": "93A",
                "addr:teryt:simc": 748460,
                "phone": "+48 598611946",
                "email": "szkolalebien@nwl.pl",
                "website": "http:\/\/szkolalebien.nwl.pl",
                "ref:regon": "770532108",
                "ref:vatin": "PL8411566227",
                "operator": "Gmina Nowa Wie\u015b L\u0119borska",
                "operator:type": "government",
                "amenity": "kindergarten",
                "note": "Parent RSPO: 9574"
            }
        },
        {
            "id": 109327,
            "type": "Feature",
            "geometry": {
                "type": "Point",
                "coordinates": [
                    17.71683,
                    54.64963
                ]
            },
            "properties": {
                "isced:level": "1;2",
                "ref:rspo": 109327,
                "official_name": "Zesp\u00f3\u0142 Szk\u00f3\u0142 im. Jana Paw\u0142a II w \u0141ebieniu - Szko\u0142a Podstawowa",
                "name": "Zesp\u00f3\u0142 Szk\u00f3\u0142",
                "addr:postcode": "84-351",
                "addr:place": "\u0141ebie\u0144",
                "addr:housenumber": "93a",
                "addr:teryt:simc": 748460,
                "phone": "+48 598611946",
                "email": "szkolalebien@nwl.pl",
                "website": "http:\/\/szkolalebien.nwl.pl",
                "ref:regon": "001141180",
                "ref:vatin": "PL8411565794",
                "operator": "Gmina Nowa Wie\u015b L\u0119borska",
                "operator:type": "government",
                "amenity": "school",
                "note": "Parent RSPO: 9574"
            }
        }
    ]
}