{
    "type": "FeatureCollection",
    "features": [
        {
            "id": 52466,
            "type": "Feature",
            "geometry": {
                "type": "Point",
                "coordinates": [
                    17.61667,
                    54.6702
                ]
            },
            "properties": {
                "ref:rspo": 52466,
                "official_name": "Przedszkole Gminne w Wicku",
                "name": "Przedszkole Gminne w Wicku",
                "addr:postcode": "84-352",
                "addr:city": "Wicko",
                "addr:street": "S\u0142upska",
                "addr:housenumber": "11",
                "addr:city:simc": 752734,
                "addr:street:sym_ul": 20316,
                "phone": "+48 598611176",
                "email": "przedszkolewicko@onet.pl",
                "ref:regon": "000908610",
                "ref:vatin": "PL8411579827",
                "operator": "Gmina Wicko",
                "operator:type": "government",
                "amenity": "kindergarten"
            }
        },
        {
            "id": 52467,
            "type": "Feature",
            "geometry": {
                "type": "Point",
                "coordinates": [
                    17.59529,
                    54.67704
                ]
            },
            "properties": {
                "ref:rspo": 52467,
                "official_name": "Przedszkole Gminne w Charbrowie",
                "name": "Przedszkole Gminne w Charbrowie",
                "addr:postcode": "84-352",
                "addr:city": "Charbrowo",
                "addr:street": "\u0141ebska",
                "addr:housenumber": "9",
                "addr:city:simc": 752480,
                "addr:street:sym_ul": 11600,
                "phone": "+48 598611043",
                "email": "dyrektor@przedszkolecharbrowo.pl",
                "website": "http:\/\/www.przedszkolecharbrowo.pl",
                "ref:regon": "770531830",
                "ref:vatin": "PL8411579810",
                "operator": "Gmina Wicko",
                "operator:type": "government",
                "amenity": "kindergarten"
            }
        },
        {
            "id": 52469,
            "type": "Feature",
            "geometry": {
                "type": "Point",
                "coordinates": [
                    17.59487,
                    54.67731
                ]
            },
            "properties": {
                "ref:rspo": 52469,
                "official_name": "Ewa Staniecka, Niepubliczny Punkt Przedszkolny \"Ewa\" w Charbrowie",
                "name": "Ewa Staniecka, Niepubliczny Punkt Przedszkolny \"Ewa\" w Charbrowie",
                "addr:postcode": "84-352",
                "addr:city": "Charbrowo",
                "addr:street": "Sosnowa",
                "addr:housenumber": "18",
                "addr:city:simc": 752480,
                "addr:street:sym_ul": 20598,
                "phone": "+48 609041501",
                "email": "ewa424@buziaczek.pl",
                "ref:regon": "221763801",
                "ref:vatin": "PL8411093326",
                "operator": "Ewa Staniecka",
                "operator:type": "private",
                "amenity": "kindergarten"
            }
        },
        {
            "id": 52465,
            "type": "Feature",
            "geometry": {
                "type": "Point",
                "coordinates": [
                    17.70577,
                    54.67875
                ]
            },
            "properties": {
                "isced:level": "1;2",
                "ref:rspo": 52465,
                "official_name": "Szko\u0142a Podstawowa w Maszewku",
                "name": "Szko\u0142a Podstawowa w Maszewku",
                "addr:postcode": "84-352",
                "addr:place": "Maszewko",
                "addr:housenumber": "7",
                "addr:city:simc": 752591,
                "phone": "+48 598611989",
                "email": "sekretariat@spmaszewko.pl",
                "website": "http:\/\/www.spmaszewko.pl",
                "ref:regon": "001174334",
                "ref:vatin": "PL8411721679",
                "operator": "Gmina Wicko",
                "operator:type": "government",
                "amenity": "school"
            }
        },
        {
            "id": 60725,
            "type": "Feature",
            "geometry": {
                "type": "Point",
                "coordinates": [
                    17.53036,
                    54.72368
                ]
            },
            "properties": {
                "isced:level": "1;2",
                "ref:rspo": 60725,
                "official_name": "Szko\u0142a Podstawowa im. Jana Brzechwy w Wicku",
                "name": "Szko\u0142a Podstawowa",
                "addr:postcode": "84-352",
                "addr:city": "Wicko",
                "addr:street": "Parkowa",
                "addr:housenumber": "4",
                "addr:city:simc": 752734,
                "addr:street:sym_ul": 15710,
                "phone": "+48 598611167",
                "email": "spwicko@szkolawicko.pl",
                "website": "http:\/\/www.szkolawicko.pl",
                "ref:regon": "000271420",
                "ref:vatin": "PL8411467873",
                "operator": "Gmina Wicko",
                "operator:type": "government",
                "amenity": "school"
            }
        },
        {
            "id": 52464,
            "type": "Feature",
            "geometry": {
                "type": "Point",
                "coordinates": [
                    17.61291,
                    54.72419
                ]
            },
            "properties": {
                "isced:level": "1;2",
                "ref:rspo": 52464,
                "official_name": "Szko\u0142a Podstawowa w Szczenurzy",
                "name": "Szko\u0142a Podstawowa w Szczenurzy",
                "addr:postcode": "84-360",
                "addr:city": "Szczenurze",
                "addr:street": "Szkolna",
                "addr:housenumber": "2",
                "addr:city:simc": 752697,
                "addr:street:sym_ul": 21970,
                "phone": "+48 598663117",
                "email": "sekretariat@szkolaszczenurze.pl",
                "website": "http:\/\/www.szkolaszczenurze.pl",
                "ref:regon": "001174328",
                "ref:vatin": "PL8411519162",
                "operator": "Gmina Wicko",
                "operator:type": "government",
                "amenity": "school"
            }
        }
    ]
}