{
    "type": "FeatureCollection",
    "features": [
        {
            "id": 23650,
            "type": "Feature",
            "geometry": {
                "type": "Point",
                "coordinates": [
                    17.72939,
                    54.52827
                ]
            },
            "properties": {
                "ref:rspo": 23650,
                "official_name": "Niepubliczne Przedszkole \"Ba\u015bniowe\"",
                "name": "Niepubliczne Przedszkole \"Ba\u015bniowe\"",
                "addr:postcode": "84-300",
                "addr:city": "L\u0119bork",
                "addr:street": "Sp\u00f3\u0142dzielcza",
                "addr:housenumber": "12",
                "addr:teryt:simc": 977373,
                "addr:teryt:sym_ul": 20696,
                "phone": "+48 503424552",
                "email": "basniowe@gmail.com",
                "website": "http:\/\/przedszkole.lebork.pl",
                "ref:regon": "221753122",
                "ref:vatin": "PL8411168923",
                "operator": "Krystyna Ko\u0142acz",
                "operator:type": "private",
                "amenity": "kindergarten"
            }
        },
        {
            "id": 18570,
            "type": "Feature",
            "geometry": {
                "type": "Point",
                "coordinates": [
                    17.75472,
                    54.52974
                ]
            },
            "properties": {
                "isced:level": "1;2",
                "ref:rspo": 18570,
                "official_name": "Szko\u0142a Podstawowa Nr 5",
                "name": "Szko\u0142a Podstawowa Nr 5",
                "addr:postcode": "84-300",
                "addr:city": "L\u0119bork",
                "addr:street": "Tadeusza Ko\u015bciuszki",
                "addr:housenumber": "14",
                "addr:teryt:simc": 977373,
                "addr:teryt:sym_ul": 9582,
                "phone": "+48 598631815",
                "email": "sp5lebork@wp.pl",
                "website": "http:\/\/sp5lebork.neostrada.pl",
                "ref:regon": "000257561",
                "ref:vatin": "PL8411338555",
                "operator": "Gmina Miasto L\u0119bork",
                "operator:type": "government",
                "amenity": "school"
            }
        },
        {
            "id": 277582,
            "type": "Feature",
            "geometry": {
                "type": "Point",
                "coordinates": [
                    17.75472,
                    54.529709999999994
                ]
            },
            "properties": {
                "isced:level": "1;2",
                "ref:rspo": 277582,
                "official_name": "Prywatna Szko\u0142a Podstawowa \"T\u0119czowa Kraina\" dla Dzieci Z Orzeczeniem O Potrzebie Kszta\u0142cenia Specjalnego w L\u0119borku",
                "name": "Prywatna Szko\u0142a Podstawowa \"T\u0119czowa Kraina\" dla Dzieci Z Orzeczeniem O Potrzebie Kszta\u0142cenia Specjalnego w L\u0119borku",
                "addr:postcode": "84-300",
                "addr:city": "L\u0119bork",
                "addr:street": "Tadeusza Ko\u015bciuszki",
                "addr:housenumber": "14",
                "addr:teryt:simc": 977373,
                "addr:teryt:sym_ul": 9582,
                "phone": "+48 723282078",
                "email": "teczowaszkola@wp.pl",
                "ref:regon": "389156960",
                "operator": "Agnieszka Caronia",
                "operator:type": "private",
                "amenity": "school"
            }
        },
        {
            "id": 25116,
            "type": "Feature",
            "geometry": {
                "type": "Point",
                "coordinates": [
                    17.75763,
                    54.53124
                ]
            },
            "properties": {
                "ref:rspo": 25116,
                "official_name": "Prywatne Przedszkole J\u0119zykowe-Terapeutyczne \"T\u0119czowa Kraina\"",
                "name": "Prywatne Przedszkole J\u0119zykowe-Terapeutyczne \"T\u0119czowa Kraina\"",
                "addr:postcode": "84-300",
                "addr:city": "L\u0119bork",
                "addr:street": "Tczewska",
                "addr:housenumber": "7a",
                "addr:teryt:simc": 977373,
                "addr:teryt:sym_ul": 22722,
                "phone": "+48 603588366",
                "email": "acaronia@wp.pl",
                "website": "http:\/\/teczowakraina.net",
                "ref:regon": "221755115",
                "ref:vatin": "PL8411377992",
                "operator": "Agnieszka Caronia",
                "operator:type": "private",
                "amenity": "kindergarten"
            }
        },
        {
            "id": 23625,
            "type": "Feature",
            "geometry": {
                "type": "Point",
                "coordinates": [
                    17.7588,
                    54.53321
                ]
            },
            "properties": {
                "ref:rspo": 23625,
                "official_name": "Przedszkole Nr 10",
                "name": "Przedszkole Nr 10",
                "addr:postcode": "84-300",
                "addr:city": "L\u0119bork",
                "addr:street": "Boles\u0142awa Krzywoustego",
                "addr:housenumber": "6",
                "addr:teryt:simc": 977373,
                "addr:teryt:sym_ul": 1749,
                "phone": "+48 598632300",
                "email": "dyrektor@przedszkole10.lebork.pl",
                "website": "http:\/\/www.przedszkole10.lebork.pl",
                "ref:regon": "771601188",
                "ref:vatin": "PL8411601188",
                "operator": "Gmina Miasto L\u0119bork",
                "operator:type": "government",
                "amenity": "kindergarten"
            }
        },
        {
            "id": 17412,
            "type": "Feature",
            "geometry": {
                "type": "Point",
                "coordinates": [
                    17.756759643555,
                    54.533771514893
                ]
            },
            "properties": {
                "ref:rspo": 17412,
                "official_name": "Specjalny O\u015brodek Szkolno - Wychowawczy im. Janusza Korczaka w L\u0119borku",
                "name": "Specjalny O\u015brodek Szkolno - Wychowawczy",
                "addr:postcode": "84-300",
                "addr:city": "L\u0119bork",
                "addr:street": "Miko\u0142aja Reja",
                "addr:housenumber": "18",
                "addr:teryt:simc": 977373,
                "addr:teryt:sym_ul": 18565,
                "phone": "+48 598621577",
                "email": "osw@osw.pl.pl",
                "website": "http:\/\/www.osw.pl.pl",
                "ref:regon": "000204613",
                "ref:vatin": "PL8411266689",
                "operator": "Powiat L\u0119borski",
                "operator:type": "government",
                "amenity": "school",
                "note": "Children RSPO: 21749;21769;21772;129423"
            }
        },
        {
            "id": 21749,
            "type": "Feature",
            "geometry": {
                "type": "Point",
                "coordinates": [
                    17.756759643555,
                    54.533741514892995
                ]
            },
            "properties": {
                "isced:level": "1;2",
                "ref:rspo": 21749,
                "official_name": "Szko\u0142a Podstawowa Specjalna Nr 2 w L\u0119borku",
                "name": "Szko\u0142a Podstawowa Specjalna Nr 2 w L\u0119borku",
                "addr:postcode": "84-300",
                "addr:city": "L\u0119bork",
                "addr:street": "Miko\u0142aja Reja",
                "addr:housenumber": "18",
                "addr:teryt:simc": 977373,
                "addr:teryt:sym_ul": 18565,
                "phone": "+48 598621577",
                "email": "osw@osw.pl.pl",
                "website": "http:\/\/www.osw.pl.pl",
                "ref:regon": "771602265",
                "ref:vatin": "PL8411266689",
                "operator": "Powiat L\u0119borski",
                "operator:type": "government",
                "amenity": "school",
                "note": "Parent RSPO: 17412"
            }
        },
        {
            "id": 21769,
            "type": "Feature",
            "geometry": {
                "type": "Point",
                "coordinates": [
                    17.756759643555,
                    54.533711514893
                ]
            },
            "properties": {
                "isced:level": "3",
                "ref:rspo": 21769,
                "official_name": "Bran\u017cowa Szko\u0142a I Stopnia Specjalna Nr 4 w L\u0119borku",
                "name": "Bran\u017cowa Szko\u0142a I Stopnia Specjalna Nr 4 w L\u0119borku",
                "addr:postcode": "84-300",
                "addr:city": "L\u0119bork",
                "addr:street": "Miko\u0142aja Reja",
                "addr:housenumber": "18",
                "addr:teryt:simc": 977373,
                "addr:teryt:sym_ul": 18565,
                "phone": "+48 598621577",
                "email": "osw@osw.pl.pl",
                "website": "http:\/\/www.osw.pl.pl",
                "ref:regon": "771602259",
                "ref:vatin": "PL8411266689",
                "operator": "Powiat L\u0119borski",
                "operator:type": "government",
                "amenity": "school",
                "note": "Parent RSPO: 17412"
            }
        },
        {
            "id": 21772,
            "type": "Feature",
            "geometry": {
                "type": "Point",
                "coordinates": [
                    17.756759643555,
                    54.533681514893
                ]
            },
            "properties": {
                "ref:rspo": 21772,
                "official_name": "Szko\u0142a Specjalna Przysposobiaj\u0105ca Do Pracy w L\u0119borku",
                "name": "Szko\u0142a Specjalna Przysposobiaj\u0105ca Do Pracy w L\u0119borku",
                "addr:postcode": "84-300",
                "addr:city": "L\u0119bork",
                "addr:street": "Miko\u0142aja Reja",
                "addr:housenumber": "18",
                "addr:teryt:simc": 977373,
                "addr:teryt:sym_ul": 18565,
                "phone": "+48 598621577",
                "email": "osw@osw.pl.pl",
                "website": "http:\/\/www.osw.pl.pl",
                "ref:regon": "220065584",
                "ref:vatin": "PL8411266689",
                "operator": "Powiat L\u0119borski",
                "operator:type": "government",
                "amenity": "school",
                "note": "Parent RSPO: 17412"
            }
        },
        {
            "id": 129423,
            "type": "Feature",
            "geometry": {
                "type": "Point",
                "coordinates": [
                    17.756759643555,
                    54.533651514892995
                ]
            },
            "properties": {
                "ref:rspo": 129423,
                "official_name": "Przedszkole Specjalne",
                "name": "Przedszkole Specjalne",
                "addr:postcode": "84-300",
                "addr:city": "L\u0119bork",
                "addr:street": "Miko\u0142aja Reja",
                "addr:housenumber": "18",
                "addr:teryt:simc": 977373,
                "addr:teryt:sym_ul": 18565,
                "phone": "+48 598621577",
                "email": "osw@osw.pl.pl",
                "website": "http:\/\/www.osw.pl.pl",
                "ref:regon": "362596860",
                "operator": "Powiat L\u0119borski",
                "operator:type": "government",
                "amenity": "kindergarten",
                "note": "Parent RSPO: 17412"
            }
        },
        {
            "id": 127626,
            "type": "Feature",
            "geometry": {
                "type": "Point",
                "coordinates": [
                    17.75522,
                    54.53483
                ]
            },
            "properties": {
                "ref:rspo": 127626,
                "official_name": "Centrum Kszta\u0142cenia Ustawicznego Fundacji Inkubator w L\u0119borku",
                "name": "Centrum Kszta\u0142cenia Ustawicznego Fundacji Inkubator w L\u0119borku",
                "addr:postcode": "84-300",
                "addr:city": "L\u0119bork",
                "addr:street": "Boles\u0142awa Krzywoustego",
                "addr:housenumber": "1",
                "addr:teryt:simc": 977373,
                "addr:teryt:sym_ul": 1749,
                "phone": "+48 730000498",
                "email": "biuro@ifundacja.org.pl",
                "ref:regon": "361782655",
                "operator": "\"Fundacja Edukacji, Rozwoju Gospodarczego I Integracji Spo\u0142ecznej Inkubator\"",
                "operator:type": "ngo",
                "amenity": "school",
                "fixme": "amenity=school lub amenity=college"
            }
        },
        {
            "id": 262387,
            "type": "Feature",
            "geometry": {
                "type": "Point",
                "coordinates": [
                    17.74496,
                    54.53484
                ]
            },
            "properties": {
                "isced:level": "1;2",
                "ref:rspo": 262387,
                "official_name": "Szko\u0142a Podstawowa Nr 1",
                "name": "Szko\u0142a Podstawowa Nr 1",
                "addr:postcode": "84-300",
                "addr:city": "L\u0119bork",
                "addr:street": "Wojska Polskiego",
                "addr:housenumber": "10",
                "addr:teryt:simc": 977373,
                "addr:teryt:sym_ul": 24628,
                "phone": "+48 598622251",
                "email": "sekretariat@sp1lebork.pl",
                "website": "http:\/\/www.sp1lebork.pl",
                "ref:regon": "367996883",
                "operator": "Gmina Miasto L\u0119bork",
                "operator:type": "government",
                "amenity": "school"
            }
        },
        {
            "id": 17376,
            "type": "Feature",
            "geometry": {
                "type": "Point",
                "coordinates": [
                    17.74645,
                    54.53512
                ]
            },
            "properties": {
                "ref:rspo": 17376,
                "official_name": "Zesp\u00f3\u0142 Szk\u00f3\u0142 Gospodarki \u017bywno\u015bciowej I Agrobiznesu",
                "name": "Zesp\u00f3\u0142 Szk\u00f3\u0142 Gospodarki \u017bywno\u015bciowej I Agrobiznesu",
                "addr:postcode": "84-300",
                "addr:city": "L\u0119bork",
                "addr:street": "Warszawska",
                "addr:housenumber": "17",
                "addr:teryt:simc": 977373,
                "addr:teryt:sym_ul": 23682,
                "phone": "+48 598622192",
                "email": "zsgzia@gmail.com",
                "website": "http:\/\/www.zsgzia.lebork.pl",
                "ref:regon": "000095839",
                "ref:vatin": "PL8411349381",
                "operator": "Powiat L\u0119borski",
                "operator:type": "government",
                "landuse": "education",
                "fixme": "amenity=school, amenity=college albo landuse=education w zale\u017cno\u015bci od tego, jakie plac\u00f3wki wchodz\u0105 w sk\u0142ad zespo\u0142u. Sprawd\u017a, kiedy stosowa\u0107 amenity=* a kiedy landuse=education.",
                "note": "Children RSPO: 21647;23449"
            }
        },
        {
            "id": 21647,
            "type": "Feature",
            "geometry": {
                "type": "Point",
                "coordinates": [
                    17.74645,
                    54.53509
                ]
            },
            "properties": {
                "isced:level": "3",
                "ref:rspo": 21647,
                "official_name": "Technikum Nr 3 w L\u0119borku",
                "name": "Technikum Nr 3 w L\u0119borku",
                "addr:postcode": "84-300",
                "addr:city": "L\u0119bork",
                "addr:street": "Warszawska",
                "addr:housenumber": "17",
                "addr:teryt:simc": 977373,
                "addr:teryt:sym_ul": 23682,
                "phone": "+48 598622192",
                "email": "zsgzia@gmail.com",
                "website": "http:\/\/zsgzia.lebork.pl",
                "ref:regon": "771602325",
                "ref:vatin": "PL8411349381",
                "operator": "Powiat L\u0119borski",
                "operator:type": "government",
                "amenity": "school",
                "note": "Parent RSPO: 17376"
            }
        },
        {
            "id": 23449,
            "type": "Feature",
            "geometry": {
                "type": "Point",
                "coordinates": [
                    17.74645,
                    54.53506
                ]
            },
            "properties": {
                "isced:level": "3",
                "ref:rspo": 23449,
                "official_name": "Bran\u017cowa Szko\u0142a I Stopnia Nr 3 w L\u0119borku",
                "name": "Bran\u017cowa Szko\u0142a I Stopnia Nr 3 w L\u0119borku",
                "addr:postcode": "84-300",
                "addr:city": "L\u0119bork",
                "addr:street": "Warszawska",
                "addr:housenumber": "17",
                "addr:teryt:simc": 977373,
                "addr:teryt:sym_ul": 23682,
                "phone": "+48 598622192",
                "email": "zsgzia@gmail.com",
                "ref:regon": "221753139",
                "ref:vatin": "PL8411349381",
                "operator": "Powiat L\u0119borski",
                "operator:type": "government",
                "amenity": "school",
                "note": "Parent RSPO: 17376"
            }
        },
        {
            "id": 262388,
            "type": "Feature",
            "geometry": {
                "type": "Point",
                "coordinates": [
                    17.75622,
                    54.53684
                ]
            },
            "properties": {
                "isced:level": "1;2",
                "ref:rspo": 262388,
                "official_name": "Szko\u0142a Podstawowa Nr 7",
                "name": "Szko\u0142a Podstawowa Nr 7",
                "addr:postcode": "84-300",
                "addr:city": "L\u0119bork",
                "addr:street": "Piotra Skargi",
                "addr:housenumber": "52",
                "addr:teryt:simc": 977373,
                "addr:teryt:sym_ul": 20012,
                "phone": "+48 598621728",
                "email": "sekretariat2@poczta.onet.pl",
                "website": "http:\/\/www.sp7.lebork.pl",
                "ref:regon": "367996920",
                "operator": "Gmina Miasto L\u0119bork",
                "operator:type": "government",
                "amenity": "school"
            }
        },
        {
            "id": 17548,
            "type": "Feature",
            "geometry": {
                "type": "Point",
                "coordinates": [
                    17.74335,
                    54.53704
                ]
            },
            "properties": {
                "ref:rspo": 17548,
                "official_name": "Poradnia Psychologiczno - Pedagogiczna w L\u0119borku",
                "name": "Poradnia Psychologiczno - Pedagogiczna w L\u0119borku",
                "addr:postcode": "84-300",
                "addr:city": "L\u0119bork",
                "addr:street": "Okrzei",
                "addr:housenumber": "15a",
                "addr:teryt:simc": 977373,
                "addr:teryt:sym_ul": 14909,
                "phone": "+48 598621834",
                "email": "ppplebork@poczta.onet.pl",
                "website": "http:\/\/www.poradniapp.lebork.pl",
                "ref:regon": "000908484",
                "ref:vatin": "PL8411348772",
                "operator": "Powiat L\u0119borski",
                "operator:type": "government",
                "healthcare": "counselling",
                "counselling_type": "education",
                "fixme": "w zale\u017cno\u015bci od przedmiotu dzia\u0142alno\u015bci (np. healthcare=counselling + counselling_type=education albo healthcare=psychotherapist)"
            }
        },
        {
            "id": 24761,
            "type": "Feature",
            "geometry": {
                "type": "Point",
                "coordinates": [
                    17.73729,
                    54.53716
                ]
            },
            "properties": {
                "ref:rspo": 24761,
                "official_name": "Przedszkole Nr 2",
                "name": "Przedszkole Nr 2",
                "addr:postcode": "84-300",
                "addr:city": "L\u0119bork",
                "addr:street": "Emilii Plater",
                "addr:housenumber": "12",
                "addr:teryt:simc": 977373,
                "addr:teryt:sym_ul": 16451,
                "phone": "+48 598622289",
                "email": "zp@zp-lebork.koti.pl",
                "website": "http:\/\/przedszkole2.lebork.pl",
                "ref:regon": "770849986",
                "ref:vatin": "PL8411347092",
                "operator": "Gmina Miasto L\u0119bork",
                "operator:type": "government",
                "amenity": "kindergarten"
            }
        },
        {
            "id": 17251,
            "type": "Feature",
            "geometry": {
                "type": "Point",
                "coordinates": [
                    17.75319,
                    54.53728
                ]
            },
            "properties": {
                "ref:rspo": 17251,
                "official_name": "Zesp\u00f3\u0142 Szk\u00f3\u0142 Og\u00f3lnokszta\u0142c\u0105cych Nr 1",
                "name": "Zesp\u00f3\u0142 Szk\u00f3\u0142 Og\u00f3lnokszta\u0142c\u0105cych Nr 1",
                "addr:postcode": "84-300",
                "addr:city": "L\u0119bork",
                "addr:street": "Dygasi\u0144skiego",
                "addr:housenumber": "14",
                "addr:teryt:simc": 977373,
                "addr:teryt:sym_ul": 4491,
                "phone": "+48 598621293",
                "email": "sekretariat@lo1.lebork.pl",
                "website": "http:\/\/www.lo1.lebork.pl",
                "ref:regon": "000205096",
                "ref:vatin": "PL8411338584",
                "operator": "Powiat L\u0119borski",
                "operator:type": "government",
                "landuse": "education",
                "fixme": "amenity=school, amenity=college albo landuse=education w zale\u017cno\u015bci od tego, jakie plac\u00f3wki wchodz\u0105 w sk\u0142ad zespo\u0142u. Sprawd\u017a, kiedy stosowa\u0107 amenity=* a kiedy landuse=education.",
                "note": "Children RSPO: 21234;127597"
            }
        },
        {
            "id": 35010,
            "type": "Feature",
            "geometry": {
                "type": "Point",
                "coordinates": [
                    17.75319,
                    54.53725
                ]
            },
            "properties": {
                "isced:level": "4",
                "ref:rspo": 35010,
                "official_name": "Externus- Studium Zdrowia I Terapii",
                "name": "Externus- Studium Zdrowia I Terapii",
                "addr:postcode": "84-300",
                "addr:city": "L\u0119bork",
                "addr:street": "Dygasi\u0144skiego",
                "addr:housenumber": "14",
                "addr:teryt:simc": 977373,
                "addr:teryt:sym_ul": 4491,
                "phone": "+48 698655207",
                "email": "marzena.rapalska@externus.pl",
                "ref:regon": "221764226",
                "ref:vatin": "PL5860009888",
                "operator": "Marzena Rapalska",
                "operator:type": "private",
                "amenity": "college"
            }
        },
        {
            "id": 122936,
            "type": "Feature",
            "geometry": {
                "type": "Point",
                "coordinates": [
                    17.75319,
                    54.537220000000005
                ]
            },
            "properties": {
                "isced:level": "3",
                "ref:rspo": 122936,
                "official_name": "Liceum Og\u00f3lnokszta\u0142c\u0105ce dla Doros\u0142ych",
                "name": "Liceum Og\u00f3lnokszta\u0142c\u0105ce dla Doros\u0142ych",
                "addr:postcode": "84-300",
                "addr:city": "L\u0119bork",
                "addr:street": "Dygasi\u0144skiego",
                "addr:housenumber": "14",
                "addr:teryt:simc": 977373,
                "addr:teryt:sym_ul": 4491,
                "phone": "+48 698655207",
                "email": "marzena.rapalska@externus.pl",
                "website": "http:\/\/www.lolebork.pl",
                "ref:regon": "222076764",
                "operator": "Marzena Rapalska",
                "operator:type": "private",
                "amenity": "school"
            }
        },
        {
            "id": 111385,
            "type": "Feature",
            "geometry": {
                "type": "Point",
                "coordinates": [
                    17.75319,
                    54.53719
                ]
            },
            "properties": {
                "ref:rspo": 111385,
                "official_name": "Pedagogiczna Biblioteka Wojew\u00f3dzka w S\u0142upsku Filia Nr 3 w L\u0119borku",
                "name": "Pedagogiczna Biblioteka Wojew\u00f3dzka w S\u0142upsku Filia Nr 3 w L\u0119borku",
                "addr:postcode": "84-300",
                "addr:city": "L\u0119bork",
                "addr:street": "Dygasi\u0144skiego",
                "addr:housenumber": "14",
                "addr:teryt:simc": 977373,
                "addr:teryt:sym_ul": 4491,
                "phone": "+48 598621070",
                "email": "filia.lebork@pbw.slupsk.pl",
                "website": "http:\/\/www.pbw.slupsk.pl\/lebork",
                "ref:regon": "786549000",
                "operator": "Wojew\u00f3dztwo Pomorskie",
                "operator:type": "government",
                "amenity": "library",
                "note": "Parent RSPO: 9620"
            }
        },
        {
            "id": 21234,
            "type": "Feature",
            "geometry": {
                "type": "Point",
                "coordinates": [
                    17.75319,
                    54.53716
                ]
            },
            "properties": {
                "isced:level": "3",
                "ref:rspo": 21234,
                "official_name": "I Liceum Og\u00f3lnokszta\u0142c\u0105ce w L\u0119borku",
                "name": "I Liceum Og\u00f3lnokszta\u0142c\u0105ce w L\u0119borku",
                "addr:postcode": "84-300",
                "addr:city": "L\u0119bork",
                "addr:street": "Dygasi\u0144skiego",
                "addr:housenumber": "14",
                "addr:teryt:simc": 977373,
                "addr:teryt:sym_ul": 4491,
                "phone": "+48 598621293",
                "email": "sekretariat@lo1.lebork.pl",
                "website": "http:\/\/www.lo1.lebork.pl",
                "ref:regon": "771603282",
                "ref:vatin": "PL8411338584",
                "operator": "Powiat L\u0119borski",
                "operator:type": "government",
                "amenity": "school",
                "note": "Parent RSPO: 17251"
            }
        },
        {
            "id": 127597,
            "type": "Feature",
            "geometry": {
                "type": "Point",
                "coordinates": [
                    17.75319,
                    54.537130000000005
                ]
            },
            "properties": {
                "isced:level": "3",
                "ref:rspo": 127597,
                "official_name": "I Liceum Og\u00f3lnokszta\u0142c\u0105ce dla Doros\u0142ych w L\u0119borku",
                "name": "I Liceum Og\u00f3lnokszta\u0142c\u0105ce dla Doros\u0142ych w L\u0119borku",
                "addr:postcode": "84-300",
                "addr:city": "L\u0119bork",
                "addr:street": "Dygasi\u0144skiego",
                "addr:housenumber": "14",
                "addr:teryt:simc": 977373,
                "addr:teryt:sym_ul": 4491,
                "phone": "+48 598621293",
                "email": "sekretariat@lo1.lebork.pl",
                "website": "http:\/\/www.lo1.lebork.pl",
                "ref:regon": "361742510",
                "operator": "Powiat L\u0119borski",
                "operator:type": "government",
                "amenity": "school",
                "note": "Parent RSPO: 17251"
            }
        },
        {
            "id": 24835,
            "type": "Feature",
            "geometry": {
                "type": "Point",
                "coordinates": [
                    17.7415999,
                    54.53732
                ]
            },
            "properties": {
                "ref:rspo": 24835,
                "official_name": "Pa\u0144stwowa Szko\u0142a Muzyczna I St. im. Mieczys\u0142awa Michalskiego w L\u0119borku",
                "name": "Pa\u0144stwowa Szko\u0142a Muzyczna I St.",
                "addr:postcode": "84-300",
                "addr:city": "L\u0119bork",
                "addr:street": "Legion\u00f3w Polskich",
                "addr:housenumber": "35",
                "addr:teryt:simc": 977373,
                "addr:teryt:sym_ul": 10775,
                "phone": "+48 598622394",
                "email": "psmlebork@o2.pl",
                "website": "http:\/\/psmlebork.edupage.org",
                "ref:regon": "000278652",
                "operator": "Ministerstwo Kultury I Dziedzictwa Narodowego",
                "operator:type": "public",
                "amenity": "music_school"
            }
        },
        {
            "id": 35334,
            "type": "Feature",
            "geometry": {
                "type": "Point",
                "coordinates": [
                    17.7415999,
                    54.53729
                ]
            },
            "properties": {
                "ref:rspo": 35334,
                "official_name": "Powiatowe Ognisko Artystyczne",
                "name": "Powiatowe Ognisko Artystyczne",
                "addr:postcode": "84-300",
                "addr:city": "L\u0119bork",
                "addr:street": "Legion\u00f3w Polskich",
                "addr:housenumber": "35",
                "addr:teryt:simc": 977373,
                "addr:teryt:sym_ul": 10775,
                "phone": "+48 598622394",
                "email": "iwona_72-72@o2.pl",
                "ref:regon": "770983325",
                "ref:vatin": "PL8411520113",
                "operator": "Powiat L\u0119borski",
                "operator:type": "government",
                "fixme": "w zale\u017cno\u015bci od przedmiotu dzia\u0142alno\u015bci (np. amenity=community_centre + community_centre:for=child;juvenile, amenity=training + training=*, amenity=dancing_school, amenity=music_school),"
            }
        },
        {
            "id": 133144,
            "type": "Feature",
            "geometry": {
                "type": "Point",
                "coordinates": [
                    17.74225,
                    54.53777
                ]
            },
            "properties": {
                "isced:level": "3",
                "ref:rspo": 133144,
                "official_name": "Spo\u0142eczne Liceum Og\u00f3lnokszta\u0142c\u0105ce",
                "name": "Spo\u0142eczne Liceum Og\u00f3lnokszta\u0142c\u0105ce",
                "addr:postcode": "84-300",
                "addr:city": "L\u0119bork",
                "addr:street": "Okrzei",
                "addr:housenumber": "8",
                "addr:teryt:simc": 977373,
                "addr:teryt:sym_ul": 14909,
                "phone": "+48 598628590",
                "email": "slo_lebork@wp.pl",
                "website": "http:\/\/slolebork.pl",
                "ref:regon": "366711393",
                "operator": "L\u0119borskie Towarzystwo O\u015bwiatowe",
                "operator:type": "ngo",
                "amenity": "school"
            }
        },
        {
            "id": 25091,
            "type": "Feature",
            "geometry": {
                "type": "Point",
                "coordinates": [
                    17.73777,
                    54.53822
                ]
            },
            "properties": {
                "ref:rspo": 25091,
                "official_name": "Przedszkole Nr 9",
                "name": "Przedszkole Nr 9",
                "addr:postcode": "84-300",
                "addr:city": "L\u0119bork",
                "addr:street": "Mireckiego",
                "addr:housenumber": "9",
                "addr:teryt:simc": 977373,
                "addr:teryt:sym_ul": 13000,
                "phone": "+48 598621772",
                "email": "przedszkole9@xl.wp.pl",
                "website": "http:\/\/przedszkole9-lebork.pl",
                "ref:regon": "770529796",
                "ref:vatin": "PL8411349487",
                "operator": "Gmina Miasto L\u0119bork",
                "operator:type": "government",
                "amenity": "kindergarten"
            }
        },
        {
            "id": 24755,
            "type": "Feature",
            "geometry": {
                "type": "Point",
                "coordinates": [
                    17.75612,
                    54.53833
                ]
            },
            "properties": {
                "ref:rspo": 24755,
                "official_name": "Przedszkole Nr 5",
                "name": "Przedszkole Nr 5",
                "addr:postcode": "84-300",
                "addr:city": "L\u0119bork",
                "addr:street": "Stanis\u0142awa Wyspia\u0144skiego",
                "addr:housenumber": "1",
                "addr:teryt:simc": 977373,
                "addr:teryt:sym_ul": 25084,
                "phone": "+48 598634276",
                "email": "przedszkolenr5.lebork@interia.pl",
                "website": "http:\/\/pnr5lebork.przedszkolna.net",
                "ref:regon": "770529767",
                "ref:vatin": "PL8411348654",
                "operator": "Gmina Miasto L\u0119bork",
                "operator:type": "government",
                "amenity": "kindergarten"
            }
        },
        {
            "id": 23617,
            "type": "Feature",
            "geometry": {
                "type": "Point",
                "coordinates": [
                    17.73917,
                    54.53898
                ]
            },
            "properties": {
                "isced:level": "1;2",
                "ref:rspo": 23617,
                "official_name": "Szko\u0142a Podstawowa Nr 8",
                "name": "Szko\u0142a Podstawowa Nr 8",
                "addr:postcode": "84-300",
                "addr:city": "L\u0119bork",
                "addr:street": "Mireckiego",
                "addr:housenumber": "10",
                "addr:teryt:simc": 977373,
                "addr:teryt:sym_ul": 13000,
                "phone": "+48 598621245",
                "email": "sp8.lebork@neostrada.pl",
                "website": "http:\/\/sp8lebork.superszkolna.pl",
                "ref:regon": "000209415",
                "ref:vatin": "PL8411338503",
                "operator": "Gmina Miasto L\u0119bork",
                "operator:type": "government",
                "amenity": "school"
            }
        },
        {
            "id": 114939,
            "type": "Feature",
            "geometry": {
                "type": "Point",
                "coordinates": [
                    17.73917,
                    54.53895
                ]
            },
            "properties": {
                "isced:level": "3",
                "ref:rspo": 114939,
                "official_name": "Zaoczne Liceum Og\u00f3lnokszta\u0142c\u0105ce dla Doros\u0142ych",
                "name": "Zaoczne Liceum Og\u00f3lnokszta\u0142c\u0105ce dla Doros\u0142ych",
                "addr:postcode": "84-300",
                "addr:city": "L\u0119bork",
                "addr:street": "Mireckiego",
                "addr:housenumber": "10",
                "addr:teryt:simc": 977373,
                "addr:teryt:sym_ul": 13000,
                "phone": "+48 598624711",
                "email": "prymuslebork.info@wp.pl",
                "ref:regon": "221894377",
                "operator": "O\u015brodek Kszta\u0142cenia Kadr I Biznesu \"Prymus\" S.c. J. Szymaniak, A. Jankowski",
                "operator:type": "private",
                "amenity": "school"
            }
        },
        {
            "id": 114942,
            "type": "Feature",
            "geometry": {
                "type": "Point",
                "coordinates": [
                    17.73917,
                    54.538920000000005
                ]
            },
            "properties": {
                "isced:level": "4",
                "ref:rspo": 114942,
                "official_name": "Szko\u0142a Policealna Prymus",
                "name": "Szko\u0142a Policealna Prymus",
                "addr:postcode": "84-300",
                "addr:city": "L\u0119bork",
                "addr:street": "Mireckiego",
                "addr:housenumber": "10",
                "addr:teryt:simc": 977373,
                "addr:teryt:sym_ul": 13000,
                "phone": "+48 598624711",
                "email": "prymuslebork.info@wp.pl",
                "ref:regon": "221894466",
                "operator": "O\u015brodek Kszta\u0142cenia Kadr I Biznesu \"Prymus\" S.c. J. Szymaniak, A. Jankowski",
                "operator:type": "private",
                "amenity": "college"
            }
        },
        {
            "id": 270460,
            "type": "Feature",
            "geometry": {
                "type": "Point",
                "coordinates": [
                    17.7336,
                    54.53921
                ]
            },
            "properties": {
                "ref:rspo": 270460,
                "official_name": "Przedszkole \"U Majki\"",
                "name": "Przedszkole \"U Majki\"",
                "addr:postcode": "84-300",
                "addr:city": "L\u0119bork",
                "addr:street": "Jesionowa",
                "addr:housenumber": "23",
                "addr:teryt:simc": 977373,
                "addr:teryt:sym_ul": 7506,
                "email": "aniaramczy@o2.pl",
                "ref:regon": "382605106",
                "ref:vatin": "PL8411543752",
                "operator": "Anna Ramczyk- W\u00f3jcik",
                "operator:type": "private",
                "amenity": "kindergarten"
            }
        },
        {
            "id": 18404,
            "type": "Feature",
            "geometry": {
                "type": "Point",
                "coordinates": [
                    17.74384,
                    54.53921
                ]
            },
            "properties": {
                "ref:rspo": 18404,
                "official_name": "Przedszkole Nr 1",
                "name": "Przedszkole Nr 1",
                "addr:postcode": "84-300",
                "addr:city": "L\u0119bork",
                "addr:street": "Czo\u0142gist\u00f3w",
                "addr:housenumber": "37",
                "addr:teryt:simc": 977373,
                "addr:teryt:sym_ul": 3468,
                "phone": "+48 598621078",
                "email": "konopnickam@wp.pl",
                "website": "http:\/\/przedszkole1.lebork.pl",
                "ref:regon": "000893251",
                "ref:vatin": "PL8411349470",
                "operator": "Gmina Miasto L\u0119bork",
                "operator:type": "government",
                "amenity": "kindergarten"
            }
        },
        {
            "id": 119092,
            "type": "Feature",
            "geometry": {
                "type": "Point",
                "coordinates": [
                    17.73102,
                    54.53991
                ]
            },
            "properties": {
                "ref:rspo": 119092,
                "official_name": "Niepubliczne Przedszkole \"Akademia Juniora\"",
                "name": "Niepubliczne Przedszkole \"Akademia Juniora\"",
                "addr:postcode": "84-300",
                "addr:city": "L\u0119bork",
                "addr:street": "Kasztanowa",
                "addr:housenumber": "10",
                "addr:teryt:simc": 977373,
                "addr:teryt:sym_ul": 8171,
                "phone": "+48 669196053",
                "email": "biuro@akademiajuniora.lebork.pl",
                "website": "http:\/\/akademiajuniora.lebork.pl",
                "ref:regon": "221943012",
                "operator": "Miros\u0142awa Babul",
                "operator:type": "private",
                "amenity": "kindergarten"
            }
        },
        {
            "id": 272496,
            "type": "Feature",
            "geometry": {
                "type": "Point",
                "coordinates": [
                    17.74622,
                    54.54011
                ]
            },
            "properties": {
                "isced:level": "1;2",
                "ref:rspo": 272496,
                "official_name": "Niepubliczna Specjalna Szko\u0142a Podstawowa \"Szcz\u0119\u015bliwa Przysta\u0144\"",
                "name": "Niepubliczna Specjalna Szko\u0142a Podstawowa \"Szcz\u0119\u015bliwa Przysta\u0144\"",
                "addr:postcode": "84-300",
                "addr:city": "L\u0119bork",
                "addr:street": "1 Maja",
                "addr:housenumber": "1",
                "addr:teryt:simc": 977373,
                "addr:teryt:sym_ul": 11926,
                "phone": "+48 798599948",
                "email": "fundacja_lebork@wp.pl",
                "ref:regon": "384279071",
                "operator": "Fundacja \"Podaruj Odrobin\u0119 Szcz\u0119\u015bcia\"",
                "operator:type": "ngo",
                "amenity": "school"
            }
        },
        {
            "id": 269288,
            "type": "Feature",
            "geometry": {
                "type": "Point",
                "coordinates": [
                    17.75065,
                    54.54048
                ]
            },
            "properties": {
                "ref:rspo": 269288,
                "official_name": "Niepubliczna Specjalistyczna Poradnia Psychologiczno - Pedagogiczna \"Rybka\"",
                "name": "Niepubliczna Specjalistyczna Poradnia Psychologiczno - Pedagogiczna \"Rybka\"",
                "addr:postcode": "84-300",
                "addr:city": "L\u0119bork",
                "addr:street": "Targowa",
                "addr:housenumber": "10",
                "addr:teryt:simc": 977373,
                "addr:teryt:sym_ul": 22659,
                "phone": "+48 661085985",
                "email": "klaudiaszumanska1@gmail.com",
                "ref:regon": "381426287",
                "operator": "Klaudia Szuma\u0144ska",
                "operator:type": "private",
                "healthcare": "counselling",
                "counselling_type": "education",
                "fixme": "w zale\u017cno\u015bci od przedmiotu dzia\u0142alno\u015bci (np. healthcare=counselling + counselling_type=education albo healthcare=psychotherapist)"
            }
        },
        {
            "id": 269289,
            "type": "Feature",
            "geometry": {
                "type": "Point",
                "coordinates": [
                    17.75065,
                    54.54045
                ]
            },
            "properties": {
                "ref:rspo": 269289,
                "official_name": "Niepubliczna Specjalistyczna Poradnia Psychologiczno - Pedagogiczna \"Bursztynek",
                "name": "Niepubliczna Specjalistyczna Poradnia Psychologiczno - Pedagogiczna \"Bursztynek",
                "addr:postcode": "84-300",
                "addr:city": "L\u0119bork",
                "addr:street": "Targowa",
                "addr:housenumber": "10",
                "addr:teryt:simc": 977373,
                "addr:teryt:sym_ul": 22659,
                "phone": "+48 693561683",
                "email": "dorota.placzek@wp.pl",
                "ref:regon": "381429430",
                "operator": "Dorota P\u0142aczek",
                "operator:type": "private",
                "healthcare": "counselling",
                "counselling_type": "education",
                "fixme": "w zale\u017cno\u015bci od przedmiotu dzia\u0142alno\u015bci (np. healthcare=counselling + counselling_type=education albo healthcare=psychotherapist)"
            }
        },
        {
            "id": 270170,
            "type": "Feature",
            "geometry": {
                "type": "Point",
                "coordinates": [
                    17.75065,
                    54.540420000000005
                ]
            },
            "properties": {
                "ref:rspo": 270170,
                "official_name": "Niepubliczny Terapeutyczny Punkt Przedszkolny \"Rybka\"",
                "name": "Niepubliczny Terapeutyczny Punkt Przedszkolny \"Rybka\"",
                "addr:postcode": "84-300",
                "addr:city": "L\u0119bork",
                "addr:street": "Targowa",
                "addr:housenumber": "10",
                "addr:teryt:simc": 977373,
                "addr:teryt:sym_ul": 22659,
                "email": "klaudiaszumanska1@gmail.com",
                "ref:regon": "382132719",
                "ref:vatin": "PL8411629063",
                "operator": "Klaudia Szuma\u0144ska",
                "operator:type": "private",
                "amenity": "kindergarten"
            }
        },
        {
            "id": 17455,
            "type": "Feature",
            "geometry": {
                "type": "Point",
                "coordinates": [
                    17.7548299,
                    54.54065
                ]
            },
            "properties": {
                "ref:rspo": 17455,
                "official_name": "M\u0142odzie\u017cowy Dom Kultury",
                "name": "M\u0142odzie\u017cowy Dom Kultury",
                "addr:postcode": "84-300",
                "addr:city": "L\u0119bork",
                "addr:street": "R\u00f3\u017cyckiego",
                "addr:housenumber": "2",
                "addr:teryt:simc": 977373,
                "addr:teryt:sym_ul": 19017,
                "phone": "+48 598621645",
                "email": "mdklebork@wp.eu",
                "website": "http:\/\/www.mdklebork.tivi.net.pl",
                "ref:regon": "770689620",
                "ref:vatin": "PL8411349398",
                "operator": "Powiat L\u0119borski",
                "operator:type": "government",
                "amenity": "community_centre",
                "community_centre:for": "juvenile"
            }
        },
        {
            "id": 17369,
            "type": "Feature",
            "geometry": {
                "type": "Point",
                "coordinates": [
                    17.75391,
                    54.54113
                ]
            },
            "properties": {
                "ref:rspo": 17369,
                "official_name": "Zesp\u00f3\u0142 Szk\u00f3\u0142 Og\u00f3lnokszta\u0142c\u0105cych Nr 2",
                "name": "Zesp\u00f3\u0142 Szk\u00f3\u0142 Og\u00f3lnokszta\u0142c\u0105cych Nr 2",
                "addr:postcode": "84-300",
                "addr:city": "L\u0119bork",
                "addr:street": "Marcinkowskiego",
                "addr:housenumber": "1",
                "addr:teryt:simc": 977373,
                "addr:teryt:sym_ul": 12294,
                "phone": "+48 598622297",
                "email": "sekretariat@zso2.com",
                "website": "http:\/\/www.zso2.com",
                "ref:regon": "770703314",
                "ref:vatin": "PL8411338489",
                "operator": "Powiat L\u0119borski",
                "operator:type": "government",
                "landuse": "education",
                "fixme": "amenity=school, amenity=college albo landuse=education w zale\u017cno\u015bci od tego, jakie plac\u00f3wki wchodz\u0105 w sk\u0142ad zespo\u0142u. Sprawd\u017a, kiedy stosowa\u0107 amenity=* a kiedy landuse=education.",
                "note": "Children RSPO: 21556;127598"
            }
        },
        {
            "id": 17375,
            "type": "Feature",
            "geometry": {
                "type": "Point",
                "coordinates": [
                    17.75391,
                    54.5411
                ]
            },
            "properties": {
                "ref:rspo": 17375,
                "official_name": "Zesp\u00f3\u0142 Szk\u00f3\u0142 Mechaniczno-Informatycznych",
                "name": "Zesp\u00f3\u0142 Szk\u00f3\u0142 Mechaniczno-Informatycznych",
                "addr:postcode": "84-300",
                "addr:city": "L\u0119bork",
                "addr:street": "Marcinkowskiego",
                "addr:housenumber": "1",
                "addr:teryt:simc": 977373,
                "addr:teryt:sym_ul": 12294,
                "phone": "+48 598622295",
                "email": "sekretariat@zsmi.pl",
                "website": "http:\/\/zsmi.pl",
                "ref:regon": "000664786",
                "ref:vatin": "PL8411338472",
                "operator": "Powiat L\u0119borski",
                "operator:type": "government",
                "landuse": "education",
                "fixme": "amenity=school, amenity=college albo landuse=education w zale\u017cno\u015bci od tego, jakie plac\u00f3wki wchodz\u0105 w sk\u0142ad zespo\u0142u. Sprawd\u017a, kiedy stosowa\u0107 amenity=* a kiedy landuse=education.",
                "note": "Children RSPO: 21640;21642"
            }
        },
        {
            "id": 26505,
            "type": "Feature",
            "geometry": {
                "type": "Point",
                "coordinates": [
                    17.75391,
                    54.541070000000005
                ]
            },
            "properties": {
                "isced:level": "3",
                "ref:rspo": 26505,
                "official_name": "Prywatne Liceum Og\u00f3lnokszta\u0142c\u0105ce dla Doros\u0142ych",
                "name": "Prywatne Liceum Og\u00f3lnokszta\u0142c\u0105ce dla Doros\u0142ych",
                "addr:postcode": "84-300",
                "addr:city": "L\u0119bork",
                "addr:street": "Marcinkowskiego",
                "addr:housenumber": "1",
                "addr:teryt:simc": 977373,
                "addr:teryt:sym_ul": 12294,
                "phone": "+48 598622552",
                "email": "sekretariatprywatnegolo@interia.pl",
                "website": "http:\/\/czaplowka.pl",
                "ref:regon": "221756860",
                "ref:vatin": "PL6691116658",
                "operator": "Zygmunt Czapla",
                "operator:type": "private",
                "amenity": "school"
            }
        },
        {
            "id": 118669,
            "type": "Feature",
            "geometry": {
                "type": "Point",
                "coordinates": [
                    17.75391,
                    54.54104
                ]
            },
            "properties": {
                "isced:level": "4",
                "ref:rspo": 118669,
                "official_name": "Szko\u0142a Policealna Studium Pracownik\u00f3w Medycznych I Spo\u0142ecznych",
                "name": "Szko\u0142a Policealna Studium Pracownik\u00f3w Medycznych I Spo\u0142ecznych",
                "addr:postcode": "84-300",
                "addr:city": "L\u0119bork",
                "addr:street": "Marcinkowskiego",
                "addr:housenumber": "1",
                "addr:teryt:simc": 977373,
                "addr:teryt:sym_ul": 12294,
                "phone": "+48 501763701",
                "email": "lebork@oswiatalingwista.eu",
                "website": "http:\/\/www.osr.lebork.pl, szkolymedyczne.eu",
                "ref:regon": "221931687",
                "operator": "Ochotnicza S\u0142u\u017cba Ratownicza",
                "operator:type": "ngo",
                "amenity": "college"
            }
        },
        {
            "id": 21556,
            "type": "Feature",
            "geometry": {
                "type": "Point",
                "coordinates": [
                    17.75391,
                    54.54101
                ]
            },
            "properties": {
                "isced:level": "3",
                "ref:rspo": 21556,
                "official_name": "Ii Liceum Og\u00f3lnokszta\u0142c\u0105ce w L\u0119borku",
                "name": "Ii Liceum Og\u00f3lnokszta\u0142c\u0105ce w L\u0119borku",
                "addr:postcode": "84-300",
                "addr:city": "L\u0119bork",
                "addr:street": "Marcinkowskiego",
                "addr:housenumber": "1",
                "addr:teryt:simc": 977373,
                "addr:teryt:sym_ul": 12294,
                "phone": "+48 598622297",
                "email": "sekretariat@zso.com",
                "website": "http:\/\/www.zso2.com",
                "ref:regon": "771604293",
                "ref:vatin": "PL8411338489",
                "operator": "Powiat L\u0119borski",
                "operator:type": "government",
                "amenity": "school",
                "note": "Parent RSPO: 17369"
            }
        },
        {
            "id": 127598,
            "type": "Feature",
            "geometry": {
                "type": "Point",
                "coordinates": [
                    17.75391,
                    54.540980000000005
                ]
            },
            "properties": {
                "isced:level": "3",
                "ref:rspo": 127598,
                "official_name": "Ii Liceum Og\u00f3lnokszta\u0142c\u0105ce dla Doros\u0142ych w L\u0119borku",
                "name": "Ii Liceum Og\u00f3lnokszta\u0142c\u0105ce dla Doros\u0142ych w L\u0119borku",
                "addr:postcode": "84-300",
                "addr:city": "L\u0119bork",
                "addr:street": "Marcinkowskiego",
                "addr:housenumber": "1",
                "addr:teryt:simc": 977373,
                "addr:teryt:sym_ul": 12294,
                "phone": "+48 598622297",
                "email": "sekretariat@zso2.com",
                "ref:regon": "361742555",
                "operator": "Powiat L\u0119borski",
                "operator:type": "government",
                "amenity": "school",
                "note": "Parent RSPO: 17369"
            }
        },
        {
            "id": 21640,
            "type": "Feature",
            "geometry": {
                "type": "Point",
                "coordinates": [
                    17.75391,
                    54.54095
                ]
            },
            "properties": {
                "isced:level": "3",
                "ref:rspo": 21640,
                "official_name": "Technikum Nr 4 w L\u0119borku",
                "name": "Technikum Nr 4 w L\u0119borku",
                "addr:postcode": "84-300",
                "addr:city": "L\u0119bork",
                "addr:street": "Marcinkowskiego",
                "addr:housenumber": "1",
                "addr:teryt:simc": 977373,
                "addr:teryt:sym_ul": 12294,
                "phone": "+48 598622295",
                "email": "sekretariat@zsmi.pl",
                "website": "http:\/\/zsmi.pl",
                "ref:regon": "771602331",
                "ref:vatin": "PL8411338472",
                "operator": "Powiat L\u0119borski",
                "operator:type": "government",
                "amenity": "school",
                "note": "Parent RSPO: 17375"
            }
        },
        {
            "id": 21642,
            "type": "Feature",
            "geometry": {
                "type": "Point",
                "coordinates": [
                    17.75391,
                    54.54092
                ]
            },
            "properties": {
                "isced:level": "3",
                "ref:rspo": 21642,
                "official_name": "Bran\u017cowa Szko\u0142a I Stopnia Nr 1 w L\u0119borku",
                "name": "Bran\u017cowa Szko\u0142a I Stopnia Nr 1 w L\u0119borku",
                "addr:postcode": "84-300",
                "addr:city": "L\u0119bork",
                "addr:street": "Marcinkowskiego",
                "addr:housenumber": "1",
                "addr:teryt:simc": 977373,
                "addr:teryt:sym_ul": 12294,
                "phone": "+48 598622295",
                "email": "sekretariat@zsmi.pl",
                "website": "http:\/\/zsmi.pl",
                "ref:regon": "771602377",
                "ref:vatin": "PL8411338472",
                "operator": "Powiat L\u0119borski",
                "operator:type": "government",
                "amenity": "school",
                "note": "Parent RSPO: 17375"
            }
        },
        {
            "id": 25125,
            "type": "Feature",
            "geometry": {
                "type": "Point",
                "coordinates": [
                    17.73272,
                    54.54115
                ]
            },
            "properties": {
                "ref:rspo": 25125,
                "official_name": "Niepubliczne Przedszkole \"Zielona \u0141\u0105ka\"",
                "name": "Niepubliczne Przedszkole \"Zielona \u0141\u0105ka\"",
                "addr:postcode": "84-300",
                "addr:city": "L\u0119bork",
                "addr:street": "Akacjowa",
                "addr:housenumber": "1",
                "addr:teryt:simc": 977373,
                "addr:teryt:sym_ul": 157,
                "phone": "+48 598626519",
                "email": "szlenk.tadeusz@gmail.com",
                "website": "http:\/\/przedszkolezielona.lebork.pl",
                "ref:regon": "221755144",
                "ref:vatin": "PL8411171138",
                "operator": "Wioletta Szlenk",
                "operator:type": "private",
                "amenity": "kindergarten"
            }
        },
        {
            "id": 19061,
            "type": "Feature",
            "geometry": {
                "type": "Point",
                "coordinates": [
                    17.745,
                    54.54163
                ]
            },
            "properties": {
                "ref:rspo": 19061,
                "official_name": "Pierwsza Niepubliczna Poradnia Psychologiczno-Pedagogiczna Modus-Centrum Rozwoju Osobistego",
                "name": "Pierwsza Niepubliczna Poradnia Psychologiczno-Pedagogiczna Modus-Centrum Rozwoju Osobistego",
                "addr:postcode": "84-300",
                "addr:city": "L\u0119bork",
                "addr:street": "Aleja Wolno\u015bci",
                "addr:housenumber": "32",
                "addr:teryt:simc": 977373,
                "addr:teryt:sym_ul": 24682,
                "phone": "+48 605424257",
                "email": "biuro@neurologopeda.lebork.pl",
                "ref:regon": "221748173",
                "ref:vatin": "PL8411189150",
                "operator": "Ewa Szu\u0142czyk-\u017burawska",
                "operator:type": "private",
                "healthcare": "counselling",
                "counselling_type": "education",
                "fixme": "w zale\u017cno\u015bci od przedmiotu dzia\u0142alno\u015bci (np. healthcare=counselling + counselling_type=education albo healthcare=psychotherapist)"
            }
        },
        {
            "id": 73635,
            "type": "Feature",
            "geometry": {
                "type": "Point",
                "coordinates": [
                    17.74469,
                    54.54189
                ]
            },
            "properties": {
                "ref:rspo": 73635,
                "official_name": "Dwcom O\u015brodek Szkole\u0144",
                "name": "Dwcom O\u015brodek Szkole\u0144",
                "addr:postcode": "84-300",
                "addr:city": "L\u0119bork",
                "addr:street": "Aleja Wolno\u015bci",
                "addr:housenumber": "30",
                "addr:teryt:simc": 977373,
                "addr:teryt:sym_ul": 24682,
                "phone": "+48 598622365",
                "email": "dwcom@dwcom.pl",
                "ref:regon": "221773751",
                "operator": "Dwcom Szkolenia Dorota Wo\u0142osiuk-Kondratowicz",
                "operator:type": "consortium",
                "fixme": "w zale\u017cno\u015bci od przedmiotu dzia\u0142alno\u015bci (np. amenity=training + training=*, amenity=dancing_school, amenity=language_school, amenity=music_school)"
            }
        },
        {
            "id": 268845,
            "type": "Feature",
            "geometry": {
                "type": "Point",
                "coordinates": [
                    17.74927,
                    54.54192
                ]
            },
            "properties": {
                "ref:rspo": 268845,
                "official_name": "Przedszkole Terapeutyczno-Integracyjne \"Szcz\u0119\u015bliwa Przysta\u0144\"",
                "name": "Przedszkole Terapeutyczno-Integracyjne \"Szcz\u0119\u015bliwa Przysta\u0144\"",
                "addr:postcode": "84-300",
                "addr:city": "L\u0119bork",
                "addr:street": "Staromiejska",
                "addr:housenumber": "7c",
                "addr:teryt:simc": 977373,
                "addr:teryt:sym_ul": 20952,
                "email": "fundacja_lebork@wp.pl",
                "ref:regon": "381260303",
                "ref:vatin": "PL8411721432",
                "operator": "Fundacja \"Podaruj Odrobin\u0119 Szcz\u0119\u015bcia\"",
                "operator:type": "ngo",
                "amenity": "kindergarten"
            }
        },
        {
            "id": 29090,
            "type": "Feature",
            "geometry": {
                "type": "Point",
                "coordinates": [
                    17.74418,
                    54.54217
                ]
            },
            "properties": {
                "ref:rspo": 29090,
                "official_name": "Zak\u0142ad Doskonalenia Zawodowego w S\u0142upsku O\u015brodek Kszta\u0142cenia w L\u0119borku",
                "name": "Zak\u0142ad Doskonalenia Zawodowego w S\u0142upsku O\u015brodek Kszta\u0142cenia w L\u0119borku",
                "addr:postcode": "84-300",
                "addr:city": "L\u0119bork",
                "addr:street": "Aleja Wolno\u015bci",
                "addr:housenumber": "26",
                "addr:teryt:simc": 977373,
                "addr:teryt:sym_ul": 24682,
                "phone": "+48 598623237",
                "email": "lebork@zdz.slupsk.pl",
                "ref:regon": "221757812",
                "ref:vatin": "PL8390410223",
                "operator": "Zak\u0142ad Doskonalenia Zawodowego W S\u0142upsku",
                "operator:type": "ngo",
                "fixme": "w zale\u017cno\u015bci od przedmiotu dzia\u0142alno\u015bci (np. amenity=training + training=*, amenity=dancing_school, amenity=language_school, amenity=music_school)"
            }
        },
        {
            "id": 18478,
            "type": "Feature",
            "geometry": {
                "type": "Point",
                "coordinates": [
                    17.75075,
                    54.54279
                ]
            },
            "properties": {
                "ref:rspo": 18478,
                "official_name": "Przedszkole Integracyjne \"Jeste\u015bmy Razem\"",
                "name": "Przedszkole Integracyjne \"Jeste\u015bmy Razem\"",
                "addr:postcode": "84-300",
                "addr:city": "L\u0119bork",
                "addr:street": "Plac Sp\u00f3\u0142dzielczy",
                "addr:housenumber": "1",
                "addr:teryt:simc": 977373,
                "addr:teryt:sym_ul": 20700,
                "phone": "+48 573351203",
                "email": "jestesmyrazemlebork@wp.pl",
                "website": "http:\/\/przedszkole-lebork.pl",
                "ref:regon": "221747417",
                "ref:vatin": "PL8411538372",
                "operator": "Stowarzyszenie Pomocy Dzieciom Niepe\u0142nosprawnym \"Jeste\u015bmy Razem\"",
                "operator:type": "ngo",
                "amenity": "kindergarten"
            }
        },
        {
            "id": 28725,
            "type": "Feature",
            "geometry": {
                "type": "Point",
                "coordinates": [
                    17.75113,
                    54.5436
                ]
            },
            "properties": {
                "ref:rspo": 28725,
                "official_name": "O\u015brodek Szkolenia Zawodowego Powiatowego Cechu Rzemios\u0142a I Przedsi\u0119biorczo\u015bci",
                "name": "O\u015brodek Szkolenia Zawodowego Powiatowego Cechu Rzemios\u0142a I Przedsi\u0119biorczo\u015bci",
                "addr:postcode": "84-300",
                "addr:city": "L\u0119bork",
                "addr:street": "Plac Pokoju",
                "addr:housenumber": "6",
                "addr:teryt:simc": 977373,
                "addr:teryt:sym_ul": 16941,
                "phone": "+48 598621856",
                "email": "pcrr.lebork@wp.pl",
                "ref:regon": "221757686",
                "ref:vatin": "PL8410008531",
                "operator": "Powiatowy Cech Rzemios\u0142a I Przedsi\u0119biorczo\u015bci W L\u0119borku",
                "operator:type": "cooperative",
                "fixme": "w zale\u017cno\u015bci od przedmiotu dzia\u0142alno\u015bci (np. amenity=training + training=*, amenity=dancing_school, amenity=language_school, amenity=music_school)"
            }
        },
        {
            "id": 25809,
            "type": "Feature",
            "geometry": {
                "type": "Point",
                "coordinates": [
                    17.74701,
                    54.54426
                ]
            },
            "properties": {
                "isced:level": "1;2",
                "ref:rspo": 25809,
                "official_name": "Szko\u0142a Podstawowa Nr 4",
                "name": "Szko\u0142a Podstawowa Nr 4",
                "addr:postcode": "84-300",
                "addr:city": "L\u0119bork",
                "addr:street": "Aleja Wolno\u015bci",
                "addr:housenumber": "31",
                "addr:teryt:simc": 977373,
                "addr:teryt:sym_ul": 24682,
                "phone": "+48 598622630",
                "email": "sp4wl@o2.pl",
                "ref:regon": "220033510",
                "operator": "Gmina Miasto L\u0119bork",
                "operator:type": "government",
                "amenity": "school"
            }
        },
        {
            "id": 278646,
            "type": "Feature",
            "geometry": {
                "type": "Point",
                "coordinates": [
                    17.74935,
                    54.54502
                ]
            },
            "properties": {
                "ref:rspo": 278646,
                "official_name": "Przedszkole Katolickie",
                "name": "Przedszkole Katolickie",
                "addr:postcode": "84-300",
                "addr:city": "L\u0119bork",
                "addr:street": "Kardyna\u0142a Stefana Wyszy\u0144skiego",
                "addr:housenumber": "5",
                "addr:teryt:simc": 977373,
                "addr:teryt:sym_ul": 25107,
                "email": "przedszkole@opw.pl",
                "website": "http:\/\/przedszkolekatolickie.lebork.pl",
                "ref:regon": "520018730",
                "ref:vatin": "PL8411730856",
                "operator": "Diecezja Pelpli\u0144ska",
                "operator:type": "religious",
                "amenity": "kindergarten"
            }
        },
        {
            "id": 28230,
            "type": "Feature",
            "geometry": {
                "type": "Point",
                "coordinates": [
                    17.74895,
                    54.54506
                ]
            },
            "properties": {
                "ref:rspo": 28230,
                "official_name": "Przedszkole Nr 6",
                "name": "Przedszkole Nr 6",
                "addr:postcode": "84-300",
                "addr:city": "L\u0119bork",
                "addr:street": "Kardyna\u0142a Stefana Wyszy\u0144skiego",
                "addr:housenumber": "7",
                "addr:teryt:simc": 977373,
                "addr:teryt:sym_ul": 25107,
                "phone": "+48 598634594",
                "email": "p6lebork@o2.pl",
                "website": "http:\/\/p6lebork.szkolnastrona.pl",
                "ref:regon": "770529773",
                "ref:vatin": "PL8411349872",
                "operator": "Gmina Miasto L\u0119bork",
                "operator:type": "government",
                "amenity": "kindergarten"
            }
        },
        {
            "id": 18261,
            "type": "Feature",
            "geometry": {
                "type": "Point",
                "coordinates": [
                    17.7516,
                    54.54596
                ]
            },
            "properties": {
                "isced:level": "1;2",
                "ref:rspo": 18261,
                "official_name": "Szko\u0142a Podstawowa Nr 3",
                "name": "Szko\u0142a Podstawowa Nr 3",
                "addr:postcode": "84-300",
                "addr:city": "L\u0119bork",
                "addr:street": "Kossaka",
                "addr:housenumber": "103",
                "addr:teryt:simc": 977373,
                "addr:teryt:sym_ul": 9459,
                "phone": "+48 598621905",
                "email": "sp3lebo@poczta.onet.pl",
                "website": "http:\/\/sp3.lebork.pl",
                "ref:regon": "000257006",
                "ref:vatin": "PL8411338495",
                "operator": "Gmina Miasto L\u0119bork",
                "operator:type": "government",
                "amenity": "school"
            }
        },
        {
            "id": 268406,
            "type": "Feature",
            "geometry": {
                "type": "Point",
                "coordinates": [
                    17.72346,
                    54.54597
                ]
            },
            "properties": {
                "ref:rspo": 268406,
                "official_name": "Powiatowe Centrum Edukacyjne im. Eugeniusza Kwiatkowskiego",
                "name": "Powiatowe Centrum Edukacyjne",
                "addr:postcode": "84-300",
                "addr:city": "L\u0119bork",
                "addr:street": "Pionier\u00f3w",
                "addr:housenumber": "16",
                "addr:teryt:simc": 977373,
                "addr:teryt:sym_ul": 16290,
                "phone": "+48 598621667",
                "email": "sekretariat@pce.lebork.pl",
                "website": "http:\/\/www.pce.lebork.pl",
                "ref:regon": "381152358",
                "ref:vatin": "PL8411723537",
                "operator": "Powiat L\u0119borski",
                "operator:type": "government",
                "landuse": "education",
                "fixme": "amenity=school, amenity=college albo landuse=education w zale\u017cno\u015bci od tego, jakie plac\u00f3wki wchodz\u0105 w sk\u0142ad zespo\u0142u. Sprawd\u017a, kiedy stosowa\u0107 amenity=* a kiedy landuse=education.",
                "note": "Children RSPO: 23385;23386;80718;118794"
            }
        },
        {
            "id": 23583,
            "type": "Feature",
            "geometry": {
                "type": "Point",
                "coordinates": [
                    17.72346,
                    54.545939999999995
                ]
            },
            "properties": {
                "isced:level": "4",
                "ref:rspo": 23583,
                "official_name": "Szko\u0142a Policealna Nr 2 w L\u0119borku",
                "name": "Szko\u0142a Policealna Nr 2 w L\u0119borku",
                "addr:postcode": "84-300",
                "addr:city": "L\u0119bork",
                "addr:street": "Pionier\u00f3w",
                "addr:housenumber": "16",
                "addr:teryt:simc": 977373,
                "addr:teryt:sym_ul": 16290,
                "phone": "+48 598621667",
                "email": "sekretariat@pce.lebork.pl",
                "website": "http:\/\/www.pce.lebork.pl",
                "ref:regon": "220084914",
                "ref:vatin": "PL8411723537",
                "operator": "Powiat L\u0119borski",
                "operator:type": "government",
                "amenity": "college",
                "note": "Parent RSPO: 80718"
            }
        },
        {
            "id": 119266,
            "type": "Feature",
            "geometry": {
                "type": "Point",
                "coordinates": [
                    17.72346,
                    54.54591
                ]
            },
            "properties": {
                "isced:level": "3",
                "ref:rspo": 119266,
                "official_name": "Iii Liceum Og\u00f3lnokszta\u0142c\u0105ce dla Doros\u0142ych w L\u0119borku",
                "name": "Iii Liceum Og\u00f3lnokszta\u0142c\u0105ce dla Doros\u0142ych w L\u0119borku",
                "addr:postcode": "84-300",
                "addr:city": "L\u0119bork",
                "addr:street": "Pionier\u00f3w",
                "addr:housenumber": "16",
                "addr:teryt:simc": 977373,
                "addr:teryt:sym_ul": 16290,
                "phone": "+48 598621667",
                "email": "sekretariat@pce.lebork.pl",
                "website": "http:\/\/www.pce.lebork.pl",
                "ref:regon": "221944017",
                "ref:vatin": "PL8411723537",
                "operator": "Powiat L\u0119borski",
                "operator:type": "government",
                "amenity": "school",
                "note": "Parent RSPO: 80718"
            }
        },
        {
            "id": 23385,
            "type": "Feature",
            "geometry": {
                "type": "Point",
                "coordinates": [
                    17.72346,
                    54.54588
                ]
            },
            "properties": {
                "isced:level": "3",
                "ref:rspo": 23385,
                "official_name": "Technikum Nr 2 w L\u0119borku",
                "name": "Technikum Nr 2 w L\u0119borku",
                "addr:postcode": "84-300",
                "addr:city": "L\u0119bork",
                "addr:street": "Pionier\u00f3w",
                "addr:housenumber": "16",
                "addr:teryt:simc": 977373,
                "addr:teryt:sym_ul": 16290,
                "phone": "+48 598621667",
                "email": "sekretariat@pce.lebork.pl",
                "website": "http:\/\/www.pce.lebork.pl",
                "ref:regon": "771629011",
                "ref:vatin": "PL8411723537",
                "operator": "Powiat L\u0119borski",
                "operator:type": "government",
                "amenity": "school",
                "note": "Parent RSPO: 268406"
            }
        },
        {
            "id": 23386,
            "type": "Feature",
            "geometry": {
                "type": "Point",
                "coordinates": [
                    17.72346,
                    54.545849999999994
                ]
            },
            "properties": {
                "isced:level": "3",
                "ref:rspo": 23386,
                "official_name": "Bran\u017cowa Szko\u0142a I Stopnia Nr 2 w L\u0119borku",
                "name": "Bran\u017cowa Szko\u0142a I Stopnia Nr 2 w L\u0119borku",
                "addr:postcode": "84-300",
                "addr:city": "L\u0119bork",
                "addr:street": "Pionier\u00f3w",
                "addr:housenumber": "16",
                "addr:teryt:simc": 977373,
                "addr:teryt:sym_ul": 16290,
                "phone": "+48 598621667",
                "email": "sekretariat@pce.lebork.pl",
                "website": "http:\/\/www.pce.lebork.pl",
                "ref:regon": "771629040",
                "ref:vatin": "PL8411723537",
                "operator": "Powiat L\u0119borski",
                "operator:type": "government",
                "amenity": "school",
                "note": "Parent RSPO: 268406"
            }
        },
        {
            "id": 80718,
            "type": "Feature",
            "geometry": {
                "type": "Point",
                "coordinates": [
                    17.72346,
                    54.54582
                ]
            },
            "properties": {
                "ref:rspo": 80718,
                "official_name": "Centrum Kszta\u0142cenia Ustawicznego w L\u0119borku",
                "name": "Centrum Kszta\u0142cenia Ustawicznego w L\u0119borku",
                "addr:postcode": "84-300",
                "addr:city": "L\u0119bork",
                "addr:street": "Pionier\u00f3w",
                "addr:housenumber": "16",
                "addr:teryt:simc": 977373,
                "addr:teryt:sym_ul": 16290,
                "phone": "+48 598621667",
                "email": "sekretariat@pce.lebork.pl",
                "website": "http:\/\/www.pce.lebork.pl",
                "ref:regon": "771629063",
                "ref:vatin": "PL8411338696",
                "operator": "Powiat L\u0119borski",
                "operator:type": "government",
                "amenity": "school",
                "fixme": "amenity=school lub amenity=college",
                "note": "Children RSPO: 23583;119266Parent RSPO: 268406"
            }
        },
        {
            "id": 118794,
            "type": "Feature",
            "geometry": {
                "type": "Point",
                "coordinates": [
                    17.72346,
                    54.54579
                ]
            },
            "properties": {
                "ref:rspo": 118794,
                "official_name": "Centrum Kszta\u0142cenia Zawodowego w L\u0119borku",
                "name": "Centrum Kszta\u0142cenia Zawodowego w L\u0119borku",
                "addr:postcode": "84-300",
                "addr:city": "L\u0119bork",
                "addr:street": "Pionier\u00f3w",
                "addr:housenumber": "16",
                "addr:teryt:simc": 977373,
                "addr:teryt:sym_ul": 16290,
                "phone": "+48 598621667",
                "email": "sekretariat@pce.lebork.pl",
                "website": "http:\/\/www.pce.lebork.pl",
                "ref:regon": "771631440",
                "ref:vatin": "PL8411723537",
                "operator": "Powiat L\u0119borski",
                "operator:type": "government",
                "fixme": "w zale\u017cno\u015bci od przedmiotu dzia\u0142alno\u015bci (np. amenity=training + training=*, amenity=dancing_school, amenity=language_school, amenity=music_school) albo amenity=school, amenity=college, albo landuse=education w zale\u017cno\u015bci od tego, jakie plac\u00f3wki wchodz\u0105 w sk\u0142ad zespo\u0142u. Sprawd\u017a, kiedy stosowa\u0107 amenity=* a kiedy landuse=education.",
                "note": "Parent RSPO: 268406"
            }
        },
        {
            "id": 24612,
            "type": "Feature",
            "geometry": {
                "type": "Point",
                "coordinates": [
                    17.74781,
                    54.54603
                ]
            },
            "properties": {
                "isced:level": "1;2",
                "ref:rspo": 24612,
                "official_name": "Spo\u0142eczna J\u0119zykowa Szko\u0142a Podstawowa Lto",
                "name": "Spo\u0142eczna J\u0119zykowa Szko\u0142a Podstawowa Lto",
                "addr:postcode": "84-300",
                "addr:city": "L\u0119bork",
                "addr:street": "Jacka Malczewskiego",
                "addr:housenumber": "34",
                "addr:teryt:simc": 977373,
                "addr:teryt:sym_ul": 12037,
                "phone": "+48 598625850",
                "email": "sjsp@wp.pl",
                "website": "http:\/\/sjsp.lebork.pl",
                "ref:regon": "221755210",
                "ref:vatin": "PL8411694416",
                "operator": "L\u0119borskie Towarzystwo O\u015bwiatowe",
                "operator:type": "ngo",
                "amenity": "school"
            }
        },
        {
            "id": 278354,
            "type": "Feature",
            "geometry": {
                "type": "Point",
                "coordinates": [
                    17.76563,
                    54.54649
                ]
            },
            "properties": {
                "ref:rspo": 278354,
                "official_name": "Przedszkole Niepubliczne \"Stefek Burczymucha\"",
                "name": "Przedszkole Niepubliczne \"Stefek Burczymucha\"",
                "addr:postcode": "84-300",
                "addr:city": "L\u0119bork",
                "addr:street": "Gda\u0144ska",
                "addr:housenumber": "40",
                "addr:teryt:simc": 977373,
                "addr:teryt:sym_ul": 5431,
                "email": "przedszkole-stefek.l@o2.pl",
                "website": "http:\/\/stefekburczymucha.pl",
                "ref:regon": "389868145",
                "ref:vatin": "PL5882194261",
                "operator": "\"Stalem\" S.c. Jaros\u0142aw Stani Piotr Protasiuk",
                "operator:type": "consortium",
                "amenity": "kindergarten"
            }
        },
        {
            "id": 278653,
            "type": "Feature",
            "geometry": {
                "type": "Point",
                "coordinates": [
                    17.76563,
                    54.546459999999996
                ]
            },
            "properties": {
                "ref:rspo": 278653,
                "official_name": "Poradnia Psychologiczno - Pedagogiczna Sowa",
                "name": "Poradnia Psychologiczno - Pedagogiczna Sowa",
                "addr:postcode": "84-300",
                "addr:city": "L\u0119bork",
                "addr:street": "Gda\u0144ska",
                "addr:housenumber": "40",
                "addr:teryt:simc": 977373,
                "addr:teryt:sym_ul": 5431,
                "phone": "+48 660706186",
                "email": "centrum.sowa.lebork@gmail.com",
                "website": "http:\/\/www.sowa-lebork.pl",
                "ref:regon": "520018842",
                "operator": "Aleksandra Bia\u0142k",
                "operator:type": "private",
                "healthcare": "counselling",
                "counselling_type": "education",
                "fixme": "w zale\u017cno\u015bci od przedmiotu dzia\u0142alno\u015bci (np. healthcare=counselling + counselling_type=education albo healthcare=psychotherapist)"
            }
        }
    ]
}