{
    "type": "FeatureCollection",
    "features": [
        {
            "id": 130065,
            "type": "Feature",
            "geometry": {
                "type": "Point",
                "coordinates": [
                    23.69385,
                    50.8086399
                ]
            },
            "properties": {
                "isced:level": "1;2",
                "ref:rspo": 130065,
                "official_name": "Szko\u0142a Podstawowa im. Marii Konopnickiej w Mo\u0142odiatyczach",
                "name": "Szko\u0142a Podstawowa",
                "addr:postcode": "22-554",
                "addr:place": "Mo\u0142odiatycze",
                "addr:housenumber": "86",
                "addr:teryt:simc": 902820,
                "phone": "+48 846575004",
                "email": "sp_molodiatycze@wp.pl",
                "website": "http:\/\/spmolodiatycze.superszkolna.pl",
                "ref:regon": "363418741",
                "ref:vatin": "PL9191828156",
                "operator": "Stowarzyszenie Bli\u017cej Dzieci",
                "operator:type": "ngo",
                "amenity": "school"
            }
        },
        {
            "id": 131448,
            "type": "Feature",
            "geometry": {
                "type": "Point",
                "coordinates": [
                    23.69385,
                    50.8086099
                ]
            },
            "properties": {
                "ref:rspo": 131448,
                "official_name": "Publiczny Punkt Przedszkolny \"Akademia Skrzata\"",
                "name": "Publiczny Punkt Przedszkolny \"Akademia Skrzata\"",
                "addr:postcode": "22-554",
                "addr:place": "Mo\u0142odiatycze",
                "addr:housenumber": "86",
                "addr:teryt:simc": 902820,
                "phone": "+48 846575004",
                "email": "spmolodiatycze86@gazeta.pl",
                "ref:regon": "365183590",
                "operator": "Stowarzyszenie Bli\u017cej Dzieci",
                "operator:type": "ngo",
                "amenity": "kindergarten"
            }
        },
        {
            "id": 12211,
            "type": "Feature",
            "geometry": {
                "type": "Point",
                "coordinates": [
                    23.73095,
                    50.8193399
                ]
            },
            "properties": {
                "isced:level": "1;2",
                "ref:rspo": 12211,
                "official_name": "Szko\u0142a Podstawowa im. Cypriana Kamila Norwida w Trzeszczanach",
                "name": "Szko\u0142a Podstawowa",
                "addr:postcode": "22-554",
                "addr:place": "Trzeszczany Pierwsze",
                "addr:housenumber": "199",
                "addr:teryt:simc": 902955,
                "phone": "+48 846575010",
                "email": "sptrzeszczany@wp.pl",
                "website": "http:\/\/sptrzeszczany.com",
                "ref:regon": "000677984",
                "ref:vatin": "PL9191559130",
                "operator": "Gmina Trzeszczany",
                "operator:type": "government",
                "amenity": "school"
            }
        },
        {
            "id": 108712,
            "type": "Feature",
            "geometry": {
                "type": "Point",
                "coordinates": [
                    23.73095,
                    50.8193099
                ]
            },
            "properties": {
                "ref:rspo": 108712,
                "official_name": "Centrum Edukacji Przedszkolnej w Gminie Trzeszczany",
                "name": "Centrum Edukacji Przedszkolnej w Gminie Trzeszczany",
                "addr:postcode": "22-554",
                "addr:place": "Trzeszczany Pierwsze",
                "addr:housenumber": "199",
                "addr:teryt:simc": 902955,
                "phone": "+48 694592611",
                "email": "annadianamalec@gmail.com",
                "ref:regon": "061513663",
                "operator": "Stowarzyszenie Kamienie Milowe",
                "operator:type": "ngo",
                "amenity": "kindergarten"
            }
        },
        {
            "id": 12212,
            "type": "Feature",
            "geometry": {
                "type": "Point",
                "coordinates": [
                    23.78925,
                    50.8332
                ]
            },
            "properties": {
                "isced:level": "1;2",
                "ref:rspo": 12212,
                "official_name": "Szko\u0142a Podstawowa im. Stefana \u017beromskiego w Nieledwi",
                "name": "Szko\u0142a Podstawowa",
                "addr:postcode": "22-554",
                "addr:place": "Nieledew",
                "addr:housenumber": "32",
                "addr:teryt:simc": 902850,
                "phone": "+48 846575205",
                "email": "spnieledew@wp.pl",
                "website": "http:\/\/www.spnieledew.superszkolna.pl",
                "ref:regon": "001138440",
                "ref:vatin": "PL9191559118",
                "operator": "Gmina Trzeszczany",
                "operator:type": "government",
                "amenity": "school"
            }
        }
    ]
}