{
    "type": "FeatureCollection",
    "features": [
        {
            "id": 91999,
            "type": "Feature",
            "geometry": {
                "type": "Point",
                "coordinates": [
                    23.87593,
                    50.71222
                ]
            },
            "properties": {
                "isced:level": "1;2",
                "ref:rspo": 91999,
                "official_name": "Publiczna Szko\u0142a Podstawowa w D\u0105browie",
                "name": "Publiczna Szko\u0142a Podstawowa w D\u0105browie",
                "addr:postcode": "22-500",
                "addr:place": "D\u0105browa",
                "addr:housenumber": "31",
                "addr:door": "31",
                "addr:teryt:simc": 889150,
                "phone": "+48 846911161",
                "email": "szkoladobrowa@op.pl",
                "ref:regon": "061501298",
                "ref:vatin": "PL9191826312",
                "operator": "Stowarzyszenie Rozwoju I Promocji Wsi D\u0105browa C.l.",
                "operator:type": "ngo",
                "amenity": "school"
            }
        },
        {
            "id": 128809,
            "type": "Feature",
            "geometry": {
                "type": "Point",
                "coordinates": [
                    23.87593,
                    50.71219
                ]
            },
            "properties": {
                "ref:rspo": 128809,
                "official_name": "Punkt Przedszkolny Przy Publicznej Szkole Podstawowej w D\u0105browie",
                "name": "Punkt Przedszkolny Przy Publicznej Szkole Podstawowej w D\u0105browie",
                "addr:postcode": "22-500",
                "addr:place": "D\u0105browa",
                "addr:housenumber": "31",
                "addr:teryt:simc": 889150,
                "phone": "+48 846911161",
                "email": "szkoladabrowa@op.pl",
                "ref:regon": "362397014",
                "operator": "Stowarzyszenie Rozwoju I Promocji Wsi D\u0105browa C.l.",
                "operator:type": "ngo",
                "amenity": "kindergarten"
            }
        },
        {
            "id": 121833,
            "type": "Feature",
            "geometry": {
                "type": "Point",
                "coordinates": [
                    23.94635,
                    50.73072
                ]
            },
            "properties": {
                "ref:rspo": 121833,
                "official_name": "Zamiejscowy Punkt Przedszkolny Przy Szkole Podstawowej w Mienianach im. Jana Paw\u0142a II Z Siedzib\u0105 w Cichob\u00f3rzu",
                "name": "Zamiejscowy Punkt Przedszkolny Przy Szkole Podstawowej w Mienianach",
                "addr:postcode": "22-500",
                "addr:place": "Mieniany",
                "addr:housenumber": "50",
                "addr:teryt:simc": 889396,
                "phone": "+48 846911002",
                "ref:regon": "061649026",
                "operator": "Gmina Hrubiesz\u00f3w",
                "operator:type": "government",
                "amenity": "kindergarten"
            }
        },
        {
            "id": 122407,
            "type": "Feature",
            "geometry": {
                "type": "Point",
                "coordinates": [
                    23.94635,
                    50.730689999999996
                ]
            },
            "properties": {
                "isced:level": "1;2",
                "ref:rspo": 122407,
                "official_name": "Szko\u0142a Podstawowa im. Jana Paw\u0142a II w Mienianach",
                "name": "Szko\u0142a Podstawowa",
                "addr:postcode": "22-500",
                "addr:place": "Mieniany",
                "addr:housenumber": "50",
                "addr:door": "50",
                "addr:teryt:simc": 889396,
                "phone": "+48 846911002",
                "email": "spmieniany@wp.pl",
                "website": "http:\/\/spmieniany.edupage.org",
                "ref:regon": "001137824",
                "ref:vatin": "PL9191560788",
                "operator": "Gmina Hrubiesz\u00f3w",
                "operator:type": "government",
                "amenity": "school"
            }
        },
        {
            "id": 121835,
            "type": "Feature",
            "geometry": {
                "type": "Point",
                "coordinates": [
                    23.90158,
                    50.75219
                ]
            },
            "properties": {
                "ref:rspo": 121835,
                "official_name": "Punkt Przedszkolny Przy Szkole Podstawowej w Czerniczynie",
                "name": "Punkt Przedszkolny Przy Szkole Podstawowej w Czerniczynie",
                "addr:postcode": "22-500",
                "addr:place": "Czerniczyn",
                "addr:housenumber": "79",
                "addr:teryt:simc": 889090,
                "phone": "+48 846973204",
                "website": "http:\/\/www.kubusiowaakademia.pl",
                "ref:regon": "061649032",
                "operator": "Gmina Hrubiesz\u00f3w",
                "operator:type": "government",
                "amenity": "kindergarten"
            }
        },
        {
            "id": 121838,
            "type": "Feature",
            "geometry": {
                "type": "Point",
                "coordinates": [
                    23.90158,
                    50.752159999999996
                ]
            },
            "properties": {
                "isced:level": "1;2",
                "ref:rspo": 121838,
                "official_name": "Szko\u0142a Podstawowa im.ks. Stanis\u0142awa Staszica w Czerniczynie",
                "name": "Szko\u0142a Podstawowa im.ks. Stanis\u0142awa Staszica w Czerniczynie",
                "addr:postcode": "22-500",
                "addr:place": "Czerniczyn",
                "addr:housenumber": "79",
                "addr:door": "79",
                "addr:teryt:simc": 889090,
                "phone": "+48 846973204",
                "email": "spczerniczyn@o2.pl",
                "website": "https:\/\/spczerniczyn.edupage.org\/",
                "ref:regon": "001137793",
                "ref:vatin": "PL9191560707",
                "operator": "Gmina Hrubiesz\u00f3w",
                "operator:type": "government",
                "amenity": "school"
            }
        },
        {
            "id": 121852,
            "type": "Feature",
            "geometry": {
                "type": "Point",
                "coordinates": [
                    23.93564,
                    50.7590999
                ]
            },
            "properties": {
                "ref:rspo": 121852,
                "official_name": "Punkt Przedszkolny Przy Szkole Podstawowej w \u015alipczu Z Siedzib\u0105 w Kozodawach",
                "name": "Punkt Przedszkolny Przy Szkole Podstawowej w \u015alipczu Z Siedzib\u0105 w Kozodawach",
                "addr:postcode": "22-500",
                "addr:place": "Kozodawy",
                "addr:housenumber": "83",
                "addr:teryt:simc": 889278,
                "phone": "+48 846911040",
                "email": "spslipcze@op.pl",
                "website": "http:\/\/www.spslipcze.szkolnastrona.pl",
                "ref:regon": "061649049",
                "operator": "Gmina Hrubiesz\u00f3w",
                "operator:type": "government",
                "amenity": "kindergarten"
            }
        },
        {
            "id": 122401,
            "type": "Feature",
            "geometry": {
                "type": "Point",
                "coordinates": [
                    23.93564,
                    50.7590699
                ]
            },
            "properties": {
                "isced:level": "1;2",
                "ref:rspo": 122401,
                "official_name": "Szko\u0142a Podstawowa w \u015alipczu Z Siedzib\u0105 w Kozodawach",
                "name": "Szko\u0142a Podstawowa w \u015alipczu Z Siedzib\u0105 w Kozodawach",
                "addr:postcode": "22-500",
                "addr:place": "Kozodawy",
                "addr:housenumber": "83",
                "addr:teryt:simc": 889278,
                "phone": "+48 846911003",
                "email": "spslipcze@op.pl",
                "website": "http:\/\/www.spslipcze.szkolnastrona.pl",
                "ref:regon": "001133980",
                "ref:vatin": "PL9191560713",
                "operator": "Gmina Hrubiesz\u00f3w",
                "operator:type": "government",
                "amenity": "school"
            }
        },
        {
            "id": 128793,
            "type": "Feature",
            "geometry": {
                "type": "Point",
                "coordinates": [
                    23.83053,
                    50.81857
                ]
            },
            "properties": {
                "ref:rspo": 128793,
                "official_name": "Punkt Przedszkolny w Obrowcu",
                "name": "Punkt Przedszkolny w Obrowcu",
                "addr:postcode": "22-500",
                "addr:place": "Obrowiec",
                "addr:housenumber": "44",
                "addr:teryt:simc": 889491,
                "phone": "+48 846941501",
                "email": "srwobrowiec@po.pl",
                "ref:regon": "362396569",
                "operator": "Stowarzyszenie Rozwoju Wsi Obrowiec",
                "operator:type": "ngo",
                "amenity": "kindergarten"
            }
        },
        {
            "id": 121834,
            "type": "Feature",
            "geometry": {
                "type": "Point",
                "coordinates": [
                    23.97615,
                    50.83558
                ]
            },
            "properties": {
                "isced:level": "1;2",
                "ref:rspo": 121834,
                "official_name": "Szko\u0142a Podstawowa im.tadeusza Ko\u015bciuszki w Husynnem",
                "name": "Szko\u0142a Podstawowa im.tadeusza Ko\u015bciuszki w Husynnem",
                "addr:postcode": "22-500",
                "addr:place": "Husynne",
                "addr:housenumber": "118",
                "addr:door": "118",
                "addr:teryt:simc": 889210,
                "phone": "+48 846951768",
                "email": "szkolahusynne@wp.pl",
                "website": "http:\/\/www.sphusynne.edupage.org",
                "ref:regon": "001134027",
                "ref:vatin": "PL9191560759",
                "operator": "Gmina Hrubiesz\u00f3w",
                "operator:type": "government",
                "amenity": "school"
            }
        },
        {
            "id": 122404,
            "type": "Feature",
            "geometry": {
                "type": "Point",
                "coordinates": [
                    23.97615,
                    50.83555
                ]
            },
            "properties": {
                "ref:rspo": 122404,
                "official_name": "Punkt Przedszkolny Przy Szkole Podstawowej im.tadeusza Ko\u015bciuszki w Husynnem",
                "name": "Punkt Przedszkolny Przy Szkole Podstawowej im.tadeusza Ko\u015bciuszki w Husynnem",
                "addr:postcode": "22-500",
                "addr:place": "Husynne",
                "addr:housenumber": "118",
                "addr:teryt:simc": 889210,
                "phone": "+48 846951768",
                "website": "http:\/\/www.kubusiowaakademia.pl",
                "ref:regon": "061660565",
                "operator": "Gmina Hrubiesz\u00f3w",
                "operator:type": "government",
                "amenity": "kindergarten"
            }
        },
        {
            "id": 91736,
            "type": "Feature",
            "geometry": {
                "type": "Point",
                "coordinates": [
                    23.9107999,
                    50.84026
                ]
            },
            "properties": {
                "isced:level": "1;2",
                "ref:rspo": 91736,
                "official_name": "Publiczna Szko\u0142a Podstawowa im. Mieczys\u0142awa Futy w Dziekanowie",
                "name": "Publiczna Szko\u0142a Podstawowa",
                "addr:postcode": "22-500",
                "addr:place": "Dziekan\u00f3w",
                "addr:housenumber": "55",
                "addr:door": "55",
                "addr:teryt:simc": 889172,
                "phone": "+48 846991353",
                "email": "spdz1@op.pl",
                "ref:regon": "061501312",
                "ref:vatin": "PL9191818471",
                "operator": "Stowarzyszenie Rozwoju I Promocji Wsi Dziekan\u00f3w",
                "operator:type": "ngo",
                "amenity": "school"
            }
        },
        {
            "id": 129441,
            "type": "Feature",
            "geometry": {
                "type": "Point",
                "coordinates": [
                    23.9107999,
                    50.84023
                ]
            },
            "properties": {
                "ref:rspo": 129441,
                "official_name": "Punkt Przedszkolny Przy Publicznej Szkole Podstawowej im. M. Futy w Dziekanowie",
                "name": "Punkt Przedszkolny Przy Publicznej Szkole Podstawowej",
                "addr:postcode": "22-500",
                "addr:place": "Dziekan\u00f3w",
                "addr:housenumber": "55",
                "addr:teryt:simc": 889172,
                "phone": "+48 846991353",
                "email": "spdz1@op.pl",
                "ref:regon": "362620535",
                "operator": "Stowarzyszenie Rozwoju I Promocji Wsi Dziekan\u00f3w",
                "operator:type": "ngo",
                "amenity": "kindergarten"
            }
        },
        {
            "id": 122399,
            "type": "Feature",
            "geometry": {
                "type": "Point",
                "coordinates": [
                    23.86985,
                    50.86377
                ]
            },
            "properties": {
                "isced:level": "1;2",
                "ref:rspo": 122399,
                "official_name": "Szko\u0142a Podstawowa im. Papie\u017ca Jana Paw\u0142a II w Moniatyczach",
                "name": "Szko\u0142a Podstawowa",
                "addr:postcode": "22-500",
                "addr:place": "Moniatycze",
                "addr:housenumber": "148",
                "addr:teryt:simc": 889427,
                "phone": "+48 846918034",
                "email": "szkolamoniatycze@wp.pl",
                "website": "http:\/\/www.zspmoniatycze.neostrada.pl",
                "ref:regon": "001137801",
                "ref:vatin": "PL9191829687",
                "operator": "Gmina Hrubiesz\u00f3w",
                "operator:type": "government",
                "amenity": "school"
            }
        },
        {
            "id": 129020,
            "type": "Feature",
            "geometry": {
                "type": "Point",
                "coordinates": [
                    23.86985,
                    50.86374
                ]
            },
            "properties": {
                "ref:rspo": 129020,
                "official_name": "Punkt Przedszkolny Przy Szkole Podstawowej im. Papie\u017ca Jana Paw\u0142a II w Moniatyczach",
                "name": "Punkt Przedszkolny Przy Szkole Podstawowej",
                "addr:postcode": "22-500",
                "addr:place": "Moniatycze",
                "addr:housenumber": "148",
                "addr:teryt:simc": 889427,
                "phone": "+48 846918034",
                "email": "szkolamoniatycze@wp.pl",
                "website": "http:\/\/www.szkolamoniatycze.pl",
                "ref:regon": "362449320",
                "operator": "Gmina Hrubiesz\u00f3w",
                "operator:type": "government",
                "amenity": "kindergarten"
            }
        },
        {
            "id": 122403,
            "type": "Feature",
            "geometry": {
                "type": "Point",
                "coordinates": [
                    23.9273,
                    50.8679599
                ]
            },
            "properties": {
                "isced:level": "1;2",
                "ref:rspo": 122403,
                "official_name": "Publiczna Szko\u0142a Podstawowa w Szpiko\u0142osach",
                "name": "Publiczna Szko\u0142a Podstawowa w Szpiko\u0142osach",
                "addr:postcode": "22-500",
                "addr:place": "Szpiko\u0142osy",
                "addr:housenumber": "34",
                "addr:door": "34",
                "addr:teryt:simc": 889539,
                "phone": "+48 846981489",
                "email": "sekretariat@szkolaszpikolosy.pl",
                "website": "http:\/\/www.szkolaszpikolosy.pl",
                "ref:regon": "061660542",
                "ref:vatin": "PL9191826890",
                "operator": "Krzysztof Czupry\u0144ski",
                "operator:type": "private",
                "amenity": "school"
            }
        },
        {
            "id": 122381,
            "type": "Feature",
            "geometry": {
                "type": "Point",
                "coordinates": [
                    23.84849,
                    50.90553
                ]
            },
            "properties": {
                "isced:level": "1;2",
                "ref:rspo": 122381,
                "official_name": "Szko\u0142a Podstawowa im. 15 Pu\u0142ku Piechoty \"Wilk\u00f3w'' w Stefankowicach",
                "name": "Szko\u0142a Podstawowa",
                "addr:postcode": "22-500",
                "addr:place": "Stefankowice",
                "addr:housenumber": "26",
                "addr:door": "26",
                "addr:teryt:simc": 889516,
                "phone": "+48 846918202",
                "email": "szkolastefankowice@wp.pl",
                "ref:regon": "001133973",
                "ref:vatin": "PL9191560825",
                "operator": "Gmina Hrubiesz\u00f3w",
                "operator:type": "government",
                "amenity": "school"
            }
        },
        {
            "id": 123380,
            "type": "Feature",
            "geometry": {
                "type": "Point",
                "coordinates": [
                    23.84849,
                    50.905499999999996
                ]
            },
            "properties": {
                "ref:rspo": 123380,
                "official_name": "Punkt Przedszkolny ,,Wilcz\u0119ta ''",
                "name": "Punkt Przedszkolny ,,Wilcz\u0119ta ''",
                "addr:postcode": "22-500",
                "addr:place": "Stefankowice",
                "addr:housenumber": "26",
                "addr:teryt:simc": 889516,
                "phone": "+48 846918014",
                "ref:regon": "061704133",
                "operator": "Stowarzyszenie \"Sosenka\"",
                "operator:type": "ngo",
                "amenity": "kindergarten"
            }
        }
    ]
}