{
    "type": "FeatureCollection",
    "features": [
        {
            "id": 278765,
            "type": "Feature",
            "geometry": {
                "type": "Point",
                "coordinates": [
                    23.89487,
                    50.79593
                ]
            },
            "properties": {
                "ref:rspo": 278765,
                "official_name": "Gniazdko Niepubliczne Przedszkole Z Pasj\u0105 Do Natury",
                "name": "Gniazdko Niepubliczne Przedszkole Z Pasj\u0105 Do Natury",
                "addr:postcode": "22-500",
                "addr:city": "Hrubiesz\u00f3w",
                "addr:street": "Basaja \"Rysia\"",
                "addr:housenumber": "12",
                "addr:teryt:simc": 987800,
                "addr:teryt:sym_ul": 845,
                "email": "gniazdko.hrubieszow@gmail.com",
                "website": "https:\/\/przedszkole-gniazdko.pl",
                "ref:regon": "520060212",
                "operator": "Progressio Sp\u00f3\u0142ka Z Ograniczon\u0105 Odpowiedzialno\u015bci\u0105",
                "operator:type": "private",
                "amenity": "kindergarten"
            }
        },
        {
            "id": 54367,
            "type": "Feature",
            "geometry": {
                "type": "Point",
                "coordinates": [
                    23.89051,
                    50.79887
                ]
            },
            "properties": {
                "ref:rspo": 54367,
                "official_name": "Zesp\u00f3\u0142 Szk\u00f3\u0142 Nr 1 w Hrubieszowie",
                "name": "Zesp\u00f3\u0142 Szk\u00f3\u0142 Nr 1 w Hrubieszowie",
                "addr:postcode": "22-500",
                "addr:city": "Hrubiesz\u00f3w",
                "addr:street": "Zamojska",
                "addr:housenumber": "18a",
                "addr:teryt:simc": 987800,
                "addr:teryt:sym_ul": 25557,
                "phone": "+48 846963338",
                "email": "zs1_hrubieszow@poczta.onet.pl",
                "website": "http:\/\/www.zs1hrubieszow.pl",
                "ref:regon": "000184388",
                "operator": "Powiat Hrubieszowski",
                "operator:type": "government",
                "landuse": "education",
                "fixme": "amenity=school, amenity=college albo landuse=education w zale\u017cno\u015bci od tego, jakie plac\u00f3wki wchodz\u0105 w sk\u0142ad zespo\u0142u. Sprawd\u017a, kiedy stosowa\u0107 amenity=* a kiedy landuse=education.",
                "note": "Children RSPO: 55458;107704;120162;266466;275535"
            }
        },
        {
            "id": 55458,
            "type": "Feature",
            "geometry": {
                "type": "Point",
                "coordinates": [
                    23.89051,
                    50.79884
                ]
            },
            "properties": {
                "isced:level": "4",
                "ref:rspo": 55458,
                "official_name": "Szko\u0142a Policealna Nr 1 w Zespole Szk\u00f3\u0142 Nr 1 w Hrubieszowie",
                "name": "Szko\u0142a Policealna Nr 1 w Zespole Szk\u00f3\u0142 Nr 1 w Hrubieszowie",
                "addr:postcode": "22-500",
                "addr:city": "Hrubiesz\u00f3w",
                "addr:street": "Zamojska",
                "addr:housenumber": "18a",
                "addr:teryt:simc": 987800,
                "addr:teryt:sym_ul": 25557,
                "phone": "+48 846963338",
                "email": "zs1_hrubieszow@poczta.onet.pl",
                "website": "http:\/\/www.zs1hrubieszow.pl",
                "ref:regon": "951199844",
                "operator": "Powiat Hrubieszowski",
                "operator:type": "government",
                "amenity": "college",
                "note": "Parent RSPO: 54367"
            }
        },
        {
            "id": 107704,
            "type": "Feature",
            "geometry": {
                "type": "Point",
                "coordinates": [
                    23.89051,
                    50.79881
                ]
            },
            "properties": {
                "isced:level": "3",
                "ref:rspo": 107704,
                "official_name": "Bran\u017cowa Szko\u0142a I Stopnia Nr 1 w Hrubieszowie",
                "name": "Bran\u017cowa Szko\u0142a I Stopnia Nr 1 w Hrubieszowie",
                "addr:postcode": "22-500",
                "addr:city": "Hrubiesz\u00f3w",
                "addr:street": "Zamojska",
                "addr:housenumber": "18a",
                "addr:teryt:simc": 987800,
                "addr:teryt:sym_ul": 25557,
                "phone": "+48 846963338",
                "email": "zs1_hrubieszow@poczta.onet.pl",
                "website": "http:\/\/www.zs1hrubieszow.pl",
                "ref:regon": "060058754",
                "operator": "Powiat Hrubieszowski",
                "operator:type": "government",
                "amenity": "school",
                "note": "Parent RSPO: 54367"
            }
        },
        {
            "id": 120162,
            "type": "Feature",
            "geometry": {
                "type": "Point",
                "coordinates": [
                    23.89051,
                    50.79878
                ]
            },
            "properties": {
                "isced:level": "3",
                "ref:rspo": 120162,
                "official_name": "Technikum Nr 1 w Hrubieszowie",
                "name": "Technikum Nr 1 w Hrubieszowie",
                "addr:postcode": "22-500",
                "addr:city": "Hrubiesz\u00f3w",
                "addr:street": "Zamojska",
                "addr:housenumber": "18A",
                "addr:teryt:simc": 987800,
                "addr:teryt:sym_ul": 25557,
                "phone": "+48 846963338",
                "email": "zs1_hrubieszow@poczta.onet.pl",
                "website": "http:\/\/www.zs1hrubieszow.pl",
                "ref:regon": "951199850",
                "operator": "Powiat Hrubieszowski",
                "operator:type": "government",
                "amenity": "school",
                "note": "Parent RSPO: 54367"
            }
        },
        {
            "id": 266466,
            "type": "Feature",
            "geometry": {
                "type": "Point",
                "coordinates": [
                    23.89051,
                    50.79875
                ]
            },
            "properties": {
                "isced:level": "3",
                "ref:rspo": 266466,
                "official_name": "Liceum Og\u00f3lnokszta\u0142c\u0105ce dla Doros\u0142ych w Zespole Szk\u00f3\u0142 Nr 1 w Hrubieszowie",
                "name": "Liceum Og\u00f3lnokszta\u0142c\u0105ce dla Doros\u0142ych w Zespole Szk\u00f3\u0142 Nr 1 w Hrubieszowie",
                "addr:postcode": "22-500",
                "addr:city": "Hrubiesz\u00f3w",
                "addr:street": "Zamojska",
                "addr:housenumber": "18a",
                "addr:teryt:simc": 987800,
                "addr:teryt:sym_ul": 25557,
                "phone": "+48 846963338",
                "email": "zs1_hrubieszow@poczta.onet.pl",
                "website": "http:\/\/www.zs1hrubieszow.pl",
                "ref:regon": "369509605",
                "operator": "Powiat Hrubieszowski",
                "operator:type": "government",
                "amenity": "school",
                "note": "Parent RSPO: 54367"
            }
        },
        {
            "id": 275535,
            "type": "Feature",
            "geometry": {
                "type": "Point",
                "coordinates": [
                    23.89051,
                    50.79872
                ]
            },
            "properties": {
                "isced:level": "3",
                "ref:rspo": 275535,
                "official_name": "Bran\u017cowa Szko\u0142a II Stopnia Nr 1 w Hrubieszowie",
                "name": "Bran\u017cowa Szko\u0142a II Stopnia Nr 1 w Hrubieszowie",
                "addr:postcode": "22-500",
                "addr:city": "Hrubiesz\u00f3w",
                "addr:street": "Zamojska",
                "addr:housenumber": "18a",
                "addr:teryt:simc": 987800,
                "addr:teryt:sym_ul": 25557,
                "phone": "+48 846963338",
                "email": "zs1_hrubieszow@poczta.onet.pl",
                "website": "http:\/\/www.zs1hrubieszow.pl",
                "ref:regon": "386923270",
                "operator": "Powiat Hrubieszowski",
                "operator:type": "government",
                "amenity": "school",
                "note": "Parent RSPO: 54367"
            }
        },
        {
            "id": 20937,
            "type": "Feature",
            "geometry": {
                "type": "Point",
                "coordinates": [
                    23.89036,
                    50.79967
                ]
            },
            "properties": {
                "ref:rspo": 20937,
                "official_name": "Niepubliczne Przedszkole Specjalne \"Mamy Siebie\" w Hrubieszowie",
                "name": "Niepubliczne Przedszkole Specjalne \"Mamy Siebie\" w Hrubieszowie",
                "addr:postcode": "22-500",
                "addr:city": "Hrubiesz\u00f3w",
                "addr:street": "Zamojska",
                "addr:housenumber": "16A",
                "addr:teryt:simc": 987800,
                "addr:teryt:sym_ul": 25557,
                "phone": "+48 609613609",
                "email": "stowarzyszenie.mamysiebie@gmail.com",
                "website": "http:\/\/www.mamysiebie.pl",
                "ref:regon": "061466509",
                "ref:vatin": "PL9191786009",
                "operator": "Stowarzyszenie Pomocy Osobom Niepe\u0142nosprawnym Oraz Ich Rodzinom\"Mamy Siebie\" Przy Spec.o\u015br.szk.-Wych.w Hrubieszowie",
                "operator:type": "ngo",
                "amenity": "kindergarten"
            }
        },
        {
            "id": 48550,
            "type": "Feature",
            "geometry": {
                "type": "Point",
                "coordinates": [
                    23.89036,
                    50.79964
                ]
            },
            "properties": {
                "isced:level": "1;2",
                "ref:rspo": 48550,
                "official_name": "Szko\u0142a Podstawowa Nr 3 im. Mjr. H. Dobrza\u0144skiego \"Hubala\" w Hrubieszowie",
                "name": "Szko\u0142a Podstawowa Nr 3",
                "addr:postcode": "22-500",
                "addr:city": "Hrubiesz\u00f3w",
                "addr:street": "Zamojska",
                "addr:housenumber": "16",
                "addr:teryt:simc": 987800,
                "addr:teryt:sym_ul": 25557,
                "phone": "+48 846963110",
                "email": "sekretariat@sp3-hrubieszow.pl",
                "website": "http:\/\/sp3-hrubieszow.pl",
                "ref:regon": "001002774",
                "ref:vatin": "PL9191829664",
                "operator": "Gmina Miejska Hrubiesz\u00f3w",
                "operator:type": "government",
                "amenity": "school"
            }
        },
        {
            "id": 54257,
            "type": "Feature",
            "geometry": {
                "type": "Point",
                "coordinates": [
                    23.89036,
                    50.79961
                ]
            },
            "properties": {
                "ref:rspo": 54257,
                "official_name": "Powiatowy Zesp\u00f3\u0142 Plac\u00f3wek Szkolno- Wychowawczych w Hrubieszowie",
                "name": "Powiatowy Zesp\u00f3\u0142 Plac\u00f3wek Szkolno- Wychowawczych w Hrubieszowie",
                "addr:postcode": "22-500",
                "addr:city": "Hrubiesz\u00f3w",
                "addr:street": "Zamojska",
                "addr:housenumber": "16a",
                "addr:teryt:simc": 987800,
                "addr:teryt:sym_ul": 25557,
                "phone": "+48 846962455",
                "email": "sosw.hrubieszow@gmail.com",
                "website": "http:\/\/pzpswhrubieszow.pl\/",
                "ref:regon": "060660913",
                "operator": "Powiat Hrubieszowski",
                "operator:type": "government",
                "landuse": "education",
                "fixme": "amenity=school, amenity=college albo landuse=education w zale\u017cno\u015bci od tego, jakie plac\u00f3wki wchodz\u0105 w sk\u0142ad zespo\u0142u. Sprawd\u017a, kiedy stosowa\u0107 amenity=* a kiedy landuse=education.",
                "note": "Children RSPO: 60609;126471"
            }
        },
        {
            "id": 64911,
            "type": "Feature",
            "geometry": {
                "type": "Point",
                "coordinates": [
                    23.89036,
                    50.79958
                ]
            },
            "properties": {
                "isced:level": "3",
                "ref:rspo": 64911,
                "official_name": "Liceum Ogolnokszta\u0142cace dla Doros\u0142ych Edukacji Innowacyjnej w Hrubieszowie",
                "name": "Liceum Ogolnokszta\u0142cace dla Doros\u0142ych Edukacji Innowacyjnej w Hrubieszowie",
                "addr:postcode": "22-500",
                "addr:city": "Hrubiesz\u00f3w",
                "addr:street": "Zamojska",
                "addr:housenumber": "16",
                "addr:teryt:simc": 987800,
                "addr:teryt:sym_ul": 25557,
                "phone": "+48 846965215",
                "email": "hrubieszow@sei.edu.pl",
                "website": "http:\/\/www.sei.edu.pl",
                "ref:regon": "061489930",
                "operator": "Instytut Post\u0119powania Tw\u00f3rczego Sp\u00f3\u0142ka Z Ograniczon\u0105 Odpowiedzialno\u015bci\u0105",
                "operator:type": "private",
                "amenity": "school"
            }
        },
        {
            "id": 65011,
            "type": "Feature",
            "geometry": {
                "type": "Point",
                "coordinates": [
                    23.89036,
                    50.799549999999996
                ]
            },
            "properties": {
                "isced:level": "4",
                "ref:rspo": 65011,
                "official_name": "Policealna Szko\u0142a Edukacji Innowacyjnej w Hrubieszowie",
                "name": "Policealna Szko\u0142a Edukacji Innowacyjnej w Hrubieszowie",
                "addr:postcode": "22-500",
                "addr:city": "Hrubiesz\u00f3w",
                "addr:street": "Zamojska",
                "addr:housenumber": "16",
                "addr:teryt:simc": 987800,
                "addr:teryt:sym_ul": 25557,
                "phone": "+48 846965215",
                "email": "hrubieszow@sei.edu.pl",
                "website": "http:\/\/www.sei.edu.pl\/hrubieszow",
                "ref:regon": "061480350",
                "operator": "Instytut Post\u0119powania Tw\u00f3rczego Sp\u00f3\u0142ka Z Ograniczon\u0105 Odpowiedzialno\u015bci\u0105",
                "operator:type": "private",
                "amenity": "college"
            }
        },
        {
            "id": 85327,
            "type": "Feature",
            "geometry": {
                "type": "Point",
                "coordinates": [
                    23.89036,
                    50.79952
                ]
            },
            "properties": {
                "ref:rspo": 85327,
                "official_name": "Poradnia Psychologiczno-Pedagogiczna w Hrubieszowie",
                "name": "Poradnia Psychologiczno-Pedagogiczna w Hrubieszowie",
                "addr:postcode": "22-500",
                "addr:city": "Hrubiesz\u00f3w",
                "addr:street": "Zamojska",
                "addr:housenumber": "16a",
                "addr:teryt:simc": 987800,
                "addr:teryt:sym_ul": 25557,
                "phone": "+48 846962907",
                "email": "poradnia@ppphrubieszow.pl",
                "website": "http:\/\/www.ppphrubieszow.pl",
                "ref:regon": "000707828",
                "operator": "Powiat Hrubieszowski",
                "operator:type": "government",
                "healthcare": "counselling",
                "counselling_type": "education",
                "fixme": "w zale\u017cno\u015bci od przedmiotu dzia\u0142alno\u015bci (np. healthcare=counselling + counselling_type=education albo healthcare=psychotherapist)"
            }
        },
        {
            "id": 275750,
            "type": "Feature",
            "geometry": {
                "type": "Point",
                "coordinates": [
                    23.89036,
                    50.79949
                ]
            },
            "properties": {
                "isced:level": "4",
                "ref:rspo": 275750,
                "official_name": "Policealna Szko\u0142a Medyczna Edukacji Innowacyjnej w Hrubieszowie",
                "name": "Policealna Szko\u0142a Medyczna Edukacji Innowacyjnej w Hrubieszowie",
                "addr:postcode": "22-500",
                "addr:city": "Hrubiesz\u00f3w",
                "addr:street": "Zamojska",
                "addr:housenumber": "16",
                "addr:teryt:simc": 987800,
                "addr:teryt:sym_ul": 25557,
                "phone": "+48 846965215",
                "email": "hrubieszow@sei.edu.pl",
                "website": "http:\/\/www.sei.edu.pl\/miasta\/hrubieszow",
                "ref:regon": "386934048",
                "operator": "Instytut Post\u0119powania Tw\u00f3rczego Sp\u00f3\u0142ka Z Ograniczon\u0105 Odpowiedzialno\u015bci\u0105",
                "operator:type": "private",
                "amenity": "college"
            }
        },
        {
            "id": 60609,
            "type": "Feature",
            "geometry": {
                "type": "Point",
                "coordinates": [
                    23.89036,
                    50.799459999999996
                ]
            },
            "properties": {
                "ref:rspo": 60609,
                "official_name": "Bursa Mi\u0119dzyszkolna",
                "name": "Bursa Mi\u0119dzyszkolna",
                "addr:postcode": "22-500",
                "addr:city": "Hrubiesz\u00f3w",
                "addr:street": "Zamojska",
                "addr:housenumber": "16a",
                "addr:teryt:simc": 987800,
                "addr:teryt:sym_ul": 25557,
                "phone": "+48 846962455",
                "email": "pzpsw@pzpswhrubieszow.pl",
                "ref:regon": "001096083",
                "operator": "Powiat Hrubieszowski",
                "operator:type": "government",
                "building": "dormitory",
                "note": "Parent RSPO: 54257"
            }
        },
        {
            "id": 126471,
            "type": "Feature",
            "geometry": {
                "type": "Point",
                "coordinates": [
                    23.89036,
                    50.79943
                ]
            },
            "properties": {
                "ref:rspo": 126471,
                "official_name": "Specjalny O\u015brodek Szkolno-Wychowawczy im. Prof. Zofii S\u0119kowskiej w Hrubieszowie",
                "name": "Specjalny O\u015brodek Szkolno-Wychowawczy",
                "addr:postcode": "22-500",
                "addr:city": "Hrubiesz\u00f3w",
                "addr:street": "Zamojska",
                "addr:housenumber": "16A",
                "addr:teryt:simc": 987800,
                "addr:teryt:sym_ul": 25557,
                "phone": "+48 846962455",
                "email": "pzpsw@pzpswhrubieszow.pl",
                "ref:regon": "000199906",
                "operator": "Powiat Hrubieszowski",
                "operator:type": "government",
                "amenity": "school",
                "note": "Children RSPO: 59636;120161;120167Parent RSPO: 54257"
            }
        },
        {
            "id": 59636,
            "type": "Feature",
            "geometry": {
                "type": "Point",
                "coordinates": [
                    23.89036,
                    50.7994
                ]
            },
            "properties": {
                "isced:level": "1;2",
                "ref:rspo": 59636,
                "official_name": "Szko\u0142a Podstawowa Specjalna",
                "name": "Szko\u0142a Podstawowa Specjalna",
                "addr:postcode": "22-500",
                "addr:city": "Hrubiesz\u00f3w",
                "addr:street": "Zamojska",
                "addr:housenumber": "16a",
                "addr:teryt:simc": 987800,
                "addr:teryt:sym_ul": 25557,
                "phone": "+48 846962455",
                "email": "pzpsw@pzpswhrubieszow.pl",
                "website": "http:\/\/pzpswhrubieszow.pl\/",
                "ref:regon": "951077058",
                "operator": "Powiat Hrubieszowski",
                "operator:type": "government",
                "amenity": "school",
                "note": "Parent RSPO: 126471"
            }
        },
        {
            "id": 120161,
            "type": "Feature",
            "geometry": {
                "type": "Point",
                "coordinates": [
                    23.89036,
                    50.799369999999996
                ]
            },
            "properties": {
                "isced:level": "3",
                "ref:rspo": 120161,
                "official_name": "Bran\u017cowa Szko\u0142a Specjalna I Stopnia w Hrubieszowie",
                "name": "Bran\u017cowa Szko\u0142a Specjalna I Stopnia w Hrubieszowie",
                "addr:postcode": "22-500",
                "addr:city": "Hrubiesz\u00f3w",
                "addr:street": "Zamojska",
                "addr:housenumber": "16A",
                "addr:teryt:simc": 987800,
                "addr:teryt:sym_ul": 25557,
                "phone": "+48 846962455",
                "email": "pzpsw@pzpswhrubieszow.pl",
                "website": "http:\/\/pzpswhrubieszow.pl\/",
                "ref:regon": "951209146",
                "operator": "Powiat Hrubieszowski",
                "operator:type": "government",
                "amenity": "school",
                "note": "Parent RSPO: 126471"
            }
        },
        {
            "id": 120167,
            "type": "Feature",
            "geometry": {
                "type": "Point",
                "coordinates": [
                    23.89036,
                    50.79934
                ]
            },
            "properties": {
                "ref:rspo": 120167,
                "official_name": "Szko\u0142a Specjalna Przysposabiaj\u0105ca Do Pracy",
                "name": "Szko\u0142a Specjalna Przysposabiaj\u0105ca Do Pracy",
                "addr:postcode": "22-500",
                "addr:city": "Hrubiesz\u00f3w",
                "addr:street": "Zamojska",
                "addr:housenumber": "16A",
                "addr:teryt:simc": 987800,
                "addr:teryt:sym_ul": 25557,
                "phone": "+48 846962455",
                "email": "pzpsw@pzpswhrubieszow.pl",
                "website": "http:\/\/pzpswhrubieszow.pl\/",
                "ref:regon": "951217230",
                "operator": "Powiat Hrubieszowski",
                "operator:type": "government",
                "amenity": "school",
                "note": "Parent RSPO: 126471"
            }
        },
        {
            "id": 18048,
            "type": "Feature",
            "geometry": {
                "type": "Point",
                "coordinates": [
                    23.8969999,
                    50.80163
                ]
            },
            "properties": {
                "ref:rspo": 18048,
                "official_name": "Miejskie Przedszkole Nr 5 w Hrubieszowie",
                "name": "Miejskie Przedszkole Nr 5 w Hrubieszowie",
                "addr:postcode": "22-500",
                "addr:city": "Hrubiesz\u00f3w",
                "addr:street": "Listopadowa",
                "addr:housenumber": "4",
                "addr:teryt:simc": 987800,
                "addr:teryt:sym_ul": 11211,
                "phone": "+48 846962688",
                "email": "sloneczna5@interia.pl",
                "website": "http:\/\/www.mp5hrubieszow.szkolnastrona.pl",
                "ref:regon": "060703083",
                "ref:vatin": "PL9191816101",
                "operator": "Gmina Miejska Hrubiesz\u00f3w",
                "operator:type": "government",
                "amenity": "kindergarten"
            }
        },
        {
            "id": 29118,
            "type": "Feature",
            "geometry": {
                "type": "Point",
                "coordinates": [
                    23.9014099,
                    50.80188
                ]
            },
            "properties": {
                "isced:level": "1;2",
                "ref:rspo": 29118,
                "official_name": "Szko\u0142a Podstawowa Nr 1 im. Boles\u0142awa Prusa w Hrubieszowie",
                "name": "Szko\u0142a Podstawowa Nr 1",
                "addr:postcode": "22-500",
                "addr:city": "Hrubiesz\u00f3w",
                "addr:street": "Listopadowa",
                "addr:housenumber": "12",
                "addr:teryt:simc": 987800,
                "addr:teryt:sym_ul": 11211,
                "phone": "+48 846962074",
                "email": "sp1hrubieszow@onet.pl",
                "website": "http:\/\/sp1.hrubieszow.info\/",
                "ref:regon": "000595298",
                "ref:vatin": "PL9191829658",
                "operator": "Gmina Miejska Hrubiesz\u00f3w",
                "operator:type": "government",
                "amenity": "school"
            }
        },
        {
            "id": 277923,
            "type": "Feature",
            "geometry": {
                "type": "Point",
                "coordinates": [
                    23.89255,
                    50.80263
                ]
            },
            "properties": {
                "ref:rspo": 277923,
                "official_name": "Przedszkole Terapeutyczne Le\u015bna Polana",
                "name": "Przedszkole Terapeutyczne Le\u015bna Polana",
                "addr:postcode": "22-500",
                "addr:city": "Hrubiesz\u00f3w",
                "addr:street": "J\u00f3zefa Pi\u0142sudskiego",
                "addr:housenumber": "11",
                "addr:teryt:simc": 987800,
                "addr:teryt:sym_ul": 16264,
                "phone": "+48 661100190",
                "email": "lesnapolana.przedszkole@gmail.com",
                "ref:regon": "389665241",
                "operator": "Hrubieszowska Sp\u00f3\u0142dzielnia Socjalna Im. \"Zo\u015bki\"",
                "operator:type": "cooperative",
                "amenity": "kindergarten"
            }
        },
        {
            "id": 277933,
            "type": "Feature",
            "geometry": {
                "type": "Point",
                "coordinates": [
                    23.89255,
                    50.8026
                ]
            },
            "properties": {
                "ref:rspo": 277933,
                "official_name": "Niepubliczna Poradnia Psychologiczno-Pedagogiczna Nr 1 w Hrubieszowie",
                "name": "Niepubliczna Poradnia Psychologiczno-Pedagogiczna Nr 1 w Hrubieszowie",
                "addr:postcode": "22-500",
                "addr:city": "Hrubiesz\u00f3w",
                "addr:street": "J\u00f3zefa Pi\u0142sudskiego",
                "addr:housenumber": "11",
                "addr:teryt:simc": 987800,
                "addr:teryt:sym_ul": 16264,
                "phone": "+48 790529590",
                "email": "spoldzielnia.zoska@gmail.com",
                "ref:regon": "389697979",
                "operator": "Hrubieszowska Sp\u00f3\u0142dzielnia Socjalna Im. \"Zo\u015bki\"",
                "operator:type": "cooperative",
                "healthcare": "counselling",
                "counselling_type": "education",
                "fixme": "w zale\u017cno\u015bci od przedmiotu dzia\u0142alno\u015bci (np. healthcare=counselling + counselling_type=education albo healthcare=psychotherapist)"
            }
        },
        {
            "id": 18014,
            "type": "Feature",
            "geometry": {
                "type": "Point",
                "coordinates": [
                    23.89479,
                    50.80314
                ]
            },
            "properties": {
                "ref:rspo": 18014,
                "official_name": "Miejskie Przedszkole Nr 1 im. \"Ma\u0142ego Ksi\u0119cia\"",
                "name": "Miejskie Przedszkole Nr 1",
                "addr:postcode": "22-500",
                "addr:city": "Hrubiesz\u00f3w",
                "addr:street": "J\u00f3zefa Pi\u0142sudskiego",
                "addr:housenumber": "59",
                "addr:teryt:simc": 987800,
                "addr:teryt:sym_ul": 16264,
                "phone": "+48 846963129",
                "website": "http:\/\/przedszkolemalegoksiecia.pl\/",
                "ref:regon": "060703077",
                "ref:vatin": "PL9191816130",
                "operator": "Gmina Miejska Hrubiesz\u00f3w",
                "operator:type": "government",
                "amenity": "kindergarten"
            }
        },
        {
            "id": 125735,
            "type": "Feature",
            "geometry": {
                "type": "Point",
                "coordinates": [
                    23.88235,
                    50.80466
                ]
            },
            "properties": {
                "ref:rspo": 125735,
                "official_name": "Biblioteka Pedagogiczna w Zamosciu Filia w Hrubieszowie",
                "name": "Biblioteka Pedagogiczna w Zamosciu Filia w Hrubieszowie",
                "addr:postcode": "22-500",
                "addr:city": "Hrubiesz\u00f3w",
                "addr:street": "Ciesielczuka",
                "addr:housenumber": "1",
                "addr:teryt:simc": 987800,
                "addr:teryt:sym_ul": 3047,
                "phone": "+48 846962938",
                "email": "bphrubieszow@bipe.pl",
                "ref:regon": "583556000",
                "ref:vatin": "PL9221939795",
                "operator": "Wojew\u00f3dztwo Lubelskie",
                "operator:type": "government",
                "amenity": "library",
                "note": "Parent RSPO: 41046"
            }
        },
        {
            "id": 41295,
            "type": "Feature",
            "geometry": {
                "type": "Point",
                "coordinates": [
                    23.891809463501,
                    50.805011749268
                ]
            },
            "properties": {
                "isced:level": "3",
                "ref:rspo": 41295,
                "official_name": "I Liceum Ogolnokszta\u0142c\u0105ce im. Ks. Stanis\u0142awa Staszica w Hrubieszowie",
                "name": "I Liceum Ogolnokszta\u0142c\u0105ce",
                "addr:postcode": "22-500",
                "addr:city": "Hrubiesz\u00f3w",
                "addr:street": "3 Maja",
                "addr:housenumber": "1",
                "addr:teryt:simc": 987800,
                "addr:teryt:sym_ul": 11937,
                "phone": "+48 846963660",
                "email": "poczta@staszic.pl",
                "website": "http:\/\/www.staszic.pl",
                "ref:regon": "951077029",
                "operator": "Powiat Hrubieszowski",
                "operator:type": "government",
                "amenity": "school"
            }
        },
        {
            "id": 18041,
            "type": "Feature",
            "geometry": {
                "type": "Point",
                "coordinates": [
                    23.87214,
                    50.80549
                ]
            },
            "properties": {
                "ref:rspo": 18041,
                "official_name": "Miejskie Przedszkole Nr 3 w Hrubieszowie",
                "name": "Miejskie Przedszkole Nr 3 w Hrubieszowie",
                "addr:postcode": "22-500",
                "addr:city": "Hrubiesz\u00f3w",
                "addr:street": "Grotthus\u00f3w",
                "addr:housenumber": "1",
                "addr:teryt:simc": 987800,
                "addr:teryt:sym_ul": 6207,
                "phone": "+48 846963322",
                "email": "p3hrub@wp.pl",
                "website": "http:\/\/p3hrubieszow.szkolnastrona.pl\/",
                "ref:regon": "060703060",
                "ref:vatin": "PL9191816118",
                "operator": "Gmina Miejska Hrubiesz\u00f3w",
                "operator:type": "government",
                "amenity": "kindergarten"
            }
        },
        {
            "id": 273601,
            "type": "Feature",
            "geometry": {
                "type": "Point",
                "coordinates": [
                    23.89558,
                    50.8061
                ]
            },
            "properties": {
                "ref:rspo": 273601,
                "official_name": "Niepubliczne Przedszkole Integracyjne Fantazja",
                "name": "Niepubliczne Przedszkole Integracyjne Fantazja",
                "addr:postcode": "22-500",
                "addr:city": "Hrubiesz\u00f3w",
                "addr:street": "Targowa",
                "addr:housenumber": "24",
                "addr:teryt:simc": 987800,
                "addr:teryt:sym_ul": 22659,
                "phone": "+48 609374150",
                "email": "biuro@fantazjaprzedszkole.eu",
                "website": "http:\/\/fantazjaprzedszkole.eu",
                "ref:regon": "384511467",
                "operator": "Sp\u00f3\u0142dzielnia Socjalna \"Sperare\"",
                "operator:type": "cooperative",
                "amenity": "kindergarten"
            }
        },
        {
            "id": 18017,
            "type": "Feature",
            "geometry": {
                "type": "Point",
                "coordinates": [
                    23.88635,
                    50.8066699
                ]
            },
            "properties": {
                "ref:rspo": 18017,
                "official_name": "Miejskie Przedszkole Nr 2 w Hrubieszowie",
                "name": "Miejskie Przedszkole Nr 2 w Hrubieszowie",
                "addr:postcode": "22-500",
                "addr:city": "Hrubiesz\u00f3w",
                "addr:street": "\"Majora Henryka Dobrza\u0144skiego \"\"Hubala\"\"\"",
                "addr:housenumber": "11",
                "addr:teryt:simc": 987800,
                "addr:teryt:sym_ul": 3983,
                "phone": "+48 846962541",
                "email": "przedszkole-przedszkole@wp.pl",
                "website": "http:\/\/www.przedszkole2.hrubieszow.info\/",
                "ref:regon": "060703054",
                "ref:vatin": "PL9191816124",
                "operator": "Gmina Miejska Hrubiesz\u00f3w",
                "operator:type": "government",
                "amenity": "kindergarten"
            }
        },
        {
            "id": 68537,
            "type": "Feature",
            "geometry": {
                "type": "Point",
                "coordinates": [
                    23.89127,
                    50.80727
                ]
            },
            "properties": {
                "isced:level": "3",
                "ref:rspo": 68537,
                "official_name": "Technikum Zak\u0142adu Doskonalenia Zawodowego w Hrubieszowie",
                "name": "Technikum Zak\u0142adu Doskonalenia Zawodowego w Hrubieszowie",
                "addr:postcode": "22-500",
                "addr:city": "Hrubiesz\u00f3w",
                "addr:street": "Partyzant\u00f3w",
                "addr:housenumber": "9",
                "addr:teryt:simc": 987800,
                "addr:teryt:sym_ul": 15733,
                "phone": "+48 846963817",
                "email": "zdzhrubieszow@tlen.pl",
                "ref:regon": "061482721",
                "operator": "Zak\u0142ad Doskonalenia Zawodowego W Lublinie",
                "operator:type": "ngo",
                "amenity": "school"
            }
        },
        {
            "id": 61905,
            "type": "Feature",
            "geometry": {
                "type": "Point",
                "coordinates": [
                    23.89098,
                    50.8074299
                ]
            },
            "properties": {
                "ref:rspo": 61905,
                "official_name": "Europejskie Centrum Edukacyjne",
                "name": "Europejskie Centrum Edukacyjne",
                "addr:postcode": "22-500",
                "addr:city": "Hrubiesz\u00f3w",
                "addr:street": "Partyzant\u00f3w",
                "addr:housenumber": "16",
                "addr:door": "3",
                "addr:teryt:simc": 987800,
                "addr:teryt:sym_ul": 15733,
                "phone": "+48 846964595",
                "ref:regon": "061479831",
                "operator": "Arkadiusz Brzozowski",
                "operator:type": "private",
                "fixme": "w zale\u017cno\u015bci od przedmiotu dzia\u0142alno\u015bci (np. amenity=training + training=*, amenity=dancing_school, amenity=language_school, amenity=music_school)"
            }
        },
        {
            "id": 40868,
            "type": "Feature",
            "geometry": {
                "type": "Point",
                "coordinates": [
                    23.86622,
                    50.80908
                ]
            },
            "properties": {
                "ref:rspo": 40868,
                "official_name": "Zesp\u00f3\u0142 Szk\u00f3\u0142 Nr 4 w Hrubieszowie",
                "name": "Zesp\u00f3\u0142 Szk\u00f3\u0142 Nr 4 w Hrubieszowie",
                "addr:postcode": "22-500",
                "addr:city": "Hrubiesz\u00f3w",
                "addr:street": "Grabowiecka",
                "addr:housenumber": "18 J",
                "addr:teryt:simc": 987800,
                "addr:teryt:sym_ul": 6035,
                "phone": "+48 846962986",
                "email": "zs4hrubieszow@op.pl",
                "ref:regon": "950177438",
                "operator": "Powiat Hrubieszowski",
                "operator:type": "government",
                "landuse": "education",
                "fixme": "amenity=school, amenity=college albo landuse=education w zale\u017cno\u015bci od tego, jakie plac\u00f3wki wchodz\u0105 w sk\u0142ad zespo\u0142u. Sprawd\u017a, kiedy stosowa\u0107 amenity=* a kiedy landuse=education.",
                "note": "Children RSPO: 40846;40847;40858"
            }
        },
        {
            "id": 40846,
            "type": "Feature",
            "geometry": {
                "type": "Point",
                "coordinates": [
                    23.86622,
                    50.80905
                ]
            },
            "properties": {
                "isced:level": "3",
                "ref:rspo": 40846,
                "official_name": "Bran\u017cowa Szko\u0142a I Stopnia Nr 2 w Zespole Szk\u00f3\u0142 Nr 4 w Hrubieszowie",
                "name": "Bran\u017cowa Szko\u0142a I Stopnia Nr 2 w Zespole Szk\u00f3\u0142 Nr 4 w Hrubieszowie",
                "addr:postcode": "22-500",
                "addr:city": "Hrubiesz\u00f3w",
                "addr:street": "Grabowiecka",
                "addr:housenumber": "18 J",
                "addr:teryt:simc": 987800,
                "addr:teryt:sym_ul": 6035,
                "phone": "+48 846962986",
                "email": "zs4hrubieszow@op.pl",
                "ref:regon": "951196679",
                "operator": "Powiat Hrubieszowski",
                "operator:type": "government",
                "amenity": "school",
                "note": "Parent RSPO: 40868"
            }
        },
        {
            "id": 40847,
            "type": "Feature",
            "geometry": {
                "type": "Point",
                "coordinates": [
                    23.86622,
                    50.809020000000004
                ]
            },
            "properties": {
                "isced:level": "3",
                "ref:rspo": 40847,
                "official_name": "Technikum Nr 2 w Hrubieszowie",
                "name": "Technikum Nr 2 w Hrubieszowie",
                "addr:postcode": "22-500",
                "addr:city": "Hrubiesz\u00f3w",
                "addr:street": "Grabowiecka",
                "addr:housenumber": "18 J",
                "addr:teryt:simc": 987800,
                "addr:teryt:sym_ul": 6035,
                "phone": "+48 846962986",
                "email": "zs4hrubieszow@op.pl",
                "ref:regon": "951196685",
                "operator": "Powiat Hrubieszowski",
                "operator:type": "government",
                "amenity": "school",
                "note": "Parent RSPO: 40868"
            }
        },
        {
            "id": 104901,
            "type": "Feature",
            "geometry": {
                "type": "Point",
                "coordinates": [
                    23.88535,
                    50.81153
                ]
            },
            "properties": {
                "ref:rspo": 104901,
                "official_name": "Zesp\u00f3\u0142 Szk\u00f3\u0142 Nr 3 w Hrubieszowie",
                "name": "Zesp\u00f3\u0142 Szk\u00f3\u0142 Nr 3 w Hrubieszowie",
                "addr:postcode": "22-500",
                "addr:city": "Hrubiesz\u00f3w",
                "addr:street": "Stefana \u017beromskiego",
                "addr:housenumber": "11",
                "addr:teryt:simc": 987800,
                "addr:teryt:sym_ul": 26464,
                "phone": "+48 846962524",
                "email": "sekretariat@zsnr3.pl",
                "ref:regon": "000180539",
                "operator": "Powiat Hrubieszowski",
                "operator:type": "government",
                "landuse": "education",
                "fixme": "amenity=school, amenity=college albo landuse=education w zale\u017cno\u015bci od tego, jakie plac\u00f3wki wchodz\u0105 w sk\u0142ad zespo\u0142u. Sprawd\u017a, kiedy stosowa\u0107 amenity=* a kiedy landuse=education.",
                "note": "Children RSPO: 104910;104916"
            }
        },
        {
            "id": 104910,
            "type": "Feature",
            "geometry": {
                "type": "Point",
                "coordinates": [
                    23.88535,
                    50.811499999999995
                ]
            },
            "properties": {
                "isced:level": "3",
                "ref:rspo": 104910,
                "official_name": "Ii Liceum Og\u00f3lnokszta\u0142c\u0105ce w Hrubieszowie",
                "name": "Ii Liceum Og\u00f3lnokszta\u0142c\u0105ce w Hrubieszowie",
                "addr:postcode": "22-500",
                "addr:city": "Hrubiesz\u00f3w",
                "addr:street": "Stefana \u017beromskiego",
                "addr:housenumber": "11",
                "addr:teryt:simc": 987800,
                "addr:teryt:sym_ul": 26464,
                "phone": "+48 846962524",
                "email": "sekretariat@zsnr3.pl",
                "website": "http:\/\/www.zsnr3.pl",
                "ref:regon": "951196596",
                "operator": "Powiat Hrubieszowski",
                "operator:type": "government",
                "amenity": "school",
                "note": "Parent RSPO: 104901"
            }
        },
        {
            "id": 104916,
            "type": "Feature",
            "geometry": {
                "type": "Point",
                "coordinates": [
                    23.88535,
                    50.81147
                ]
            },
            "properties": {
                "isced:level": "3",
                "ref:rspo": 104916,
                "official_name": "Technikum Nr 3 w Hrubieszowie",
                "name": "Technikum Nr 3 w Hrubieszowie",
                "addr:postcode": "22-500",
                "addr:city": "Hrubiesz\u00f3w",
                "addr:street": "Stefana \u017beromskiego",
                "addr:housenumber": "11",
                "addr:teryt:simc": 987800,
                "addr:teryt:sym_ul": 26464,
                "phone": "+48 846962524",
                "email": "sekretariat@zsnr3.pl",
                "ref:regon": "951196604",
                "operator": "Powiat Hrubieszowski",
                "operator:type": "government",
                "amenity": "school",
                "note": "Parent RSPO: 104901"
            }
        },
        {
            "id": 27641,
            "type": "Feature",
            "geometry": {
                "type": "Point",
                "coordinates": [
                    23.88322,
                    50.8133
                ]
            },
            "properties": {
                "isced:level": "1;2",
                "ref:rspo": 27641,
                "official_name": "Szko\u0142a Podstawowa Nr 2 im. Kardyna\u0142a Stefana Wyszy\u0144skiego w Hrubieszowie",
                "name": "Szko\u0142a Podstawowa Nr 2",
                "addr:postcode": "22-500",
                "addr:city": "Hrubiesz\u00f3w",
                "addr:street": "Stefana \u017beromskiego",
                "addr:housenumber": "29",
                "addr:teryt:simc": 987800,
                "addr:teryt:sym_ul": 26464,
                "phone": "+48 846972963",
                "email": "dyrektor@sp2hrubieszow.pl",
                "website": "http:\/\/sp2.hrubieszow.info\/",
                "ref:regon": "001015943",
                "ref:vatin": "PL9191829670",
                "operator": "Gmina Miejska Hrubiesz\u00f3w",
                "operator:type": "government",
                "amenity": "school"
            }
        },
        {
            "id": 40858,
            "type": "Feature",
            "geometry": {
                "type": "Point",
                "coordinates": [
                    23.89948,
                    50.81653
                ]
            },
            "properties": {
                "isced:level": "4",
                "ref:rspo": 40858,
                "official_name": "Szko\u0142a Policealna Nr 2 w Zespole Szk\u00f3\u0142 Nr 4 w Hrubieszowie",
                "name": "Szko\u0142a Policealna Nr 2 w Zespole Szk\u00f3\u0142 Nr 4 w Hrubieszowie",
                "addr:postcode": "22-500",
                "addr:city": "Hrubiesz\u00f3w",
                "addr:street": "Dwernickiego",
                "addr:housenumber": "10",
                "addr:teryt:simc": 987800,
                "addr:teryt:sym_ul": 4427,
                "phone": "+48 846962986",
                "email": "zs4hrubieszow@op.pl",
                "ref:regon": "060665833",
                "operator": "Powiat Hrubieszowski",
                "operator:type": "government",
                "amenity": "college",
                "note": "Parent RSPO: 40868"
            }
        }
    ]
}