{
    "type": "FeatureCollection",
    "features": [
        {
            "id": 66188,
            "type": "Feature",
            "geometry": {
                "type": "Point",
                "coordinates": [
                    23.79116,
                    50.67769
                ]
            },
            "properties": {
                "isced:level": "1;2",
                "ref:rspo": 66188,
                "official_name": "Szko\u0142a Podstawowa im. Siostry Wandy Longiny Trudzi\u0144skiej I Siedmiu Wychowank\u00f3w w Sahryniu",
                "name": "Szko\u0142a Podstawowa",
                "addr:country": "PL",
                "addr:postcode": "22-546",
                "addr:place": "Sahry\u0144",
                "addr:housenumber": "62",
                "addr:teryt:sym_ul": 905132,
                "contact:phone": "+48 846571213",
                "contact:email": "zsahryn@gmail.com",
                "contact:website": "http:\/\/spsahryn.werbkowice.pl",
                "ref:regon": "001158453",
                "ref:vatin": "PL9191624382",
                "operator": "Gmina Werbkowice",
                "operator:type": "government",
                "amenity": "school"
            }
        },
        {
            "id": 38577,
            "type": "Feature",
            "geometry": {
                "type": "Point",
                "coordinates": [
                    23.66903,
                    50.69745
                ]
            },
            "properties": {
                "isced:level": "1;2",
                "ref:rspo": 38577,
                "official_name": "Publiczna Szko\u0142a Podstawowa im. Jana Paw\u0142a II w Honiatyczach",
                "name": "Publiczna Szko\u0142a Podstawowa",
                "addr:country": "PL",
                "addr:postcode": "22-550",
                "addr:place": "Honiatycze",
                "addr:housenumber": "104",
                "addr:teryt:sym_ul": 904859,
                "contact:phone": "+48 846610426",
                "contact:email": "szkola.honiatycze@gmail.com",
                "contact:website": "http:\/\/www.szkolahoniatycze.pl",
                "ref:regon": "061480403",
                "ref:vatin": "PL9191783005",
                "operator": "Stowarzyszenie Rozwoju Wsi Honiatycze, Honiatycze Kol., Honiatyczki, Wakij\u00f3w",
                "operator:type": "ngo",
                "amenity": "school"
            }
        },
        {
            "id": 38578,
            "type": "Feature",
            "geometry": {
                "type": "Point",
                "coordinates": [
                    23.66903,
                    50.69742
                ]
            },
            "properties": {
                "ref:rspo": 38578,
                "official_name": "Publiczne Gimnazjum im. Jana Paw\u0142a II w Honiatyczach",
                "name": "Publiczne Gimnazjum",
                "addr:country": "PL",
                "addr:postcode": "22-550",
                "addr:place": "Honiatycze",
                "addr:housenumber": "104",
                "addr:teryt:sym_ul": 904859,
                "contact:phone": "+48 846610426",
                "contact:email": "szkola.honiatycze@gmail.com",
                "contact:website": "http:\/\/www.szkolahoniatycze.neostrada.pl",
                "ref:regon": "061480410",
                "ref:vatin": "PL9191783005",
                "operator": "Stowarzyszenie Rozwoju Wsi Honiatycze, Honiatycze Kol., Honiatyczki, Wakij\u00f3w",
                "operator:type": "ngo",
                "amenity": "school"
            }
        },
        {
            "id": 38579,
            "type": "Feature",
            "geometry": {
                "type": "Point",
                "coordinates": [
                    23.66903,
                    50.697390000000006
                ]
            },
            "properties": {
                "ref:rspo": 38579,
                "official_name": "Publiczny Punkt Przedszkolny w Honiatyczach",
                "name": "Publiczny Punkt Przedszkolny w Honiatyczach",
                "addr:country": "PL",
                "addr:postcode": "22-550",
                "addr:place": "Honiatycze",
                "addr:housenumber": "104",
                "addr:teryt:sym_ul": 904859,
                "contact:phone": "+48 846610426",
                "contact:email": "szkola.honiatycze@gmail.com",
                "contact:website": "http:\/\/www.szkolahoniatycze.neostrada.pl",
                "ref:regon": "061473544",
                "ref:vatin": "PL9191783005",
                "operator": "Stowarzyszenie Rozwoju Wsi Honiatycze, Honiatycze Kol., Honiatyczki, Wakij\u00f3w",
                "operator:type": "ngo",
                "amenity": "kindergarten"
            }
        },
        {
            "id": 38580,
            "type": "Feature",
            "geometry": {
                "type": "Point",
                "coordinates": [
                    23.75075,
                    50.7127
                ]
            },
            "properties": {
                "isced:level": "1;2",
                "ref:rspo": 38580,
                "official_name": "Publiczna Szko\u0142a Podstawowa im. Armii Krajowej w Malicach",
                "name": "Publiczna Szko\u0142a Podstawowa",
                "addr:country": "PL",
                "addr:postcode": "22-550",
                "addr:place": "Malice",
                "addr:housenumber": "37",
                "addr:teryt:sym_ul": 905072,
                "contact:phone": "+48 846574245",
                "contact:email": "pspmalice@wp.pl",
                "contact:website": "http:\/\/www.spmalice.pl",
                "ref:regon": "061473550",
                "ref:vatin": "PL9191826068",
                "operator": "Stowarzyszenie \"Przyjazna Szko\u0142a W Malicach\"",
                "operator:type": "ngo",
                "amenity": "school"
            }
        },
        {
            "id": 38586,
            "type": "Feature",
            "geometry": {
                "type": "Point",
                "coordinates": [
                    23.6823799,
                    50.74711
                ]
            },
            "properties": {
                "isced:level": "1;2",
                "ref:rspo": 38586,
                "official_name": "Publiczna Szko\u0142a Podstawowa im. 30 Pu\u0142ku Strzelc\u00f3w Kaniowskich I Ak w Hostynnem Kolonii",
                "name": "Publiczna Szko\u0142a Podstawowa",
                "addr:country": "PL",
                "addr:postcode": "22-550",
                "addr:place": "Hostynne-Kolonia",
                "addr:housenumber": "30",
                "addr:teryt:sym_ul": 904990,
                "contact:phone": "+48 782778707",
                "contact:email": "sphostynne@op.pl",
                "contact:website": "http:\/\/www.sphostynne.superszkolna.pl",
                "ref:regon": "061473633",
                "operator": "Stowarzyszenie \"Edukacja I Rozw\u00f3j Wsi Hostynne,Hostynne Kolonia,\u0141ot\u00f3w,Dobromierzyce\"",
                "operator:type": "ngo",
                "amenity": "school"
            }
        },
        {
            "id": 126038,
            "type": "Feature",
            "geometry": {
                "type": "Point",
                "coordinates": [
                    23.6823799,
                    50.74708
                ]
            },
            "properties": {
                "ref:rspo": 126038,
                "official_name": "Publiczny Punkt Przedszkolny w Hostynnem Koloni",
                "name": "Publiczny Punkt Przedszkolny w Hostynnem Koloni",
                "addr:country": "PL",
                "addr:postcode": "22-550",
                "addr:place": "Hostynne-Kolonia",
                "addr:housenumber": "30",
                "addr:teryt:sym_ul": 904990,
                "contact:phone": "+48 782778707",
                "ref:regon": "360171808",
                "operator": "Stowarzyszenie \"Edukacja I Rozw\u00f3j Wsi Hostynne,Hostynne Kolonia,\u0141ot\u00f3w,Dobromierzyce\"",
                "operator:type": "ngo",
                "amenity": "kindergarten"
            }
        },
        {
            "id": 128303,
            "type": "Feature",
            "geometry": {
                "type": "Point",
                "coordinates": [
                    23.81826,
                    50.75054
                ]
            },
            "properties": {
                "ref:rspo": 128303,
                "official_name": "O\u015brodek Rehabilitacyjno-Edukacyjno-Wychowawczy w Alojzowie",
                "name": "O\u015brodek Rehabilitacyjno-Edukacyjno-Wychowawczy w Alojzowie",
                "addr:country": "PL",
                "addr:postcode": "22-550",
                "addr:place": "Alojz\u00f3w",
                "addr:housenumber": "39",
                "addr:teryt:sym_ul": 904799,
                "contact:phone": "+48 846274196",
                "contact:email": "zk.werbkowice@psoni.org.pl",
                "ref:regon": "362232388",
                "operator": "Polskie Stowarzyszenie Na Rzecz Os\u00f3b Z Niepe\u0142nosprawno\u015bci\u0105 Intelektualn\u0105 Ko\u0142o W Werbkowicach",
                "operator:type": "ngo",
                "amenity": "school"
            }
        },
        {
            "id": 275900,
            "type": "Feature",
            "geometry": {
                "type": "Point",
                "coordinates": [
                    23.81826,
                    50.75051
                ]
            },
            "properties": {
                "ref:rspo": 275900,
                "official_name": "Niepubliczne Przedszkole Terapeutyczne ,,Lokomotywa\u201d",
                "name": "Niepubliczne Przedszkole Terapeutyczne ,,Lokomotywa\u201d",
                "addr:country": "PL",
                "addr:postcode": "22-550",
                "addr:place": "Alojz\u00f3w",
                "addr:housenumber": "39",
                "addr:teryt:sym_ul": 904799,
                "contact:phone": "+48 846274196",
                "contact:email": "zk.werbkowice@psoni.org.pl",
                "contact:website": "http:\/\/www.werbkowice.psoni.org.pl",
                "ref:regon": "386950892",
                "operator": "Polskie Stowarzyszenie Na Rzecz Os\u00f3b Z Niepe\u0142nosprawno\u015bci\u0105 Intelektualn\u0105 Ko\u0142o W Werbkowicach",
                "operator:type": "ngo",
                "amenity": "kindergarten"
            }
        },
        {
            "id": 279259,
            "type": "Feature",
            "geometry": {
                "type": "Point",
                "coordinates": [
                    23.81826,
                    50.75048
                ]
            },
            "properties": {
                "isced:level": "1;2",
                "ref:rspo": 279259,
                "official_name": "Niepubliczna Szko\u0142a Podstawowa Specjalna w Alojzowie",
                "name": "Niepubliczna Szko\u0142a Podstawowa Specjalna w Alojzowie",
                "addr:country": "PL",
                "addr:postcode": "22-550",
                "addr:place": "Alojz\u00f3w",
                "addr:housenumber": "39",
                "addr:teryt:sym_ul": 904799,
                "contact:phone": "+48 846274196",
                "contact:email": "zk.werbkowice@psoni.org.pl",
                "ref:regon": "521048377",
                "operator": "Polskie Stowarzyszenie Na Rzecz Os\u00f3b Z Niepe\u0142nosprawno\u015bci\u0105 Intelektualn\u0105 Ko\u0142o W Werbkowicach",
                "operator:type": "ngo",
                "amenity": "school"
            }
        },
        {
            "id": 277996,
            "type": "Feature",
            "geometry": {
                "type": "Point",
                "coordinates": [
                    23.7671,
                    50.7513099
                ]
            },
            "properties": {
                "ref:rspo": 277996,
                "official_name": "Zesp\u00f3\u0142 Szkolno-Przedszkolny w Werbkowicach",
                "name": "Zesp\u00f3\u0142 Szkolno-Przedszkolny w Werbkowicach",
                "addr:country": "PL",
                "addr:postcode": "22-550",
                "addr:city": "Werbkowice",
                "addr:street": "Jana Paw\u0142a II",
                "addr:housenumber": "17",
                "addr:teryt:simc": 7123,
                "addr:teryt:sym_ul": 905280,
                "contact:phone": "+48 846572603",
                "contact:email": "sekretariat@sp.werbkowice.pl",
                "contact:website": "https:\/\/sp.werbkowice.pl",
                "ref:regon": "389747275",
                "operator": "Gmina Werbkowice",
                "operator:type": "government",
                "landuse": "education",
                "fixme": "amenity=school, amenity=college albo landuse=education w zale\u017cno\u015bci od tego, jakie plac\u00f3wki wchodz\u0105 w sk\u0142ad zespo\u0142u. Sprawd\u017a, kiedy stosowa\u0107 amenity=* a kiedy landuse=education.",
                "note": "Children RSPO: 38581;60811"
            }
        },
        {
            "id": 60811,
            "type": "Feature",
            "geometry": {
                "type": "Point",
                "coordinates": [
                    23.7671,
                    50.7512799
                ]
            },
            "properties": {
                "isced:level": "1;2",
                "ref:rspo": 60811,
                "official_name": "Szko\u0142a Podstawowa im. Marsza\u0142ka J\u00f3zefa Pi\u0142sudskiego w Werbkowicach",
                "name": "Szko\u0142a Podstawowa",
                "addr:country": "PL",
                "addr:postcode": "22-550",
                "addr:city": "Werbkowice",
                "addr:street": "Jana Paw\u0142a II",
                "addr:housenumber": "17",
                "addr:teryt:simc": 7123,
                "addr:teryt:sym_ul": 905280,
                "contact:phone": "+48 846572603",
                "contact:email": "sekretariat@sp.werbkowice.pl",
                "contact:website": "http:\/\/sp.werbkowice.pl",
                "ref:regon": "000630570",
                "ref:vatin": "PL9191624324",
                "operator": "Gmina Werbkowice",
                "operator:type": "government",
                "amenity": "school",
                "note": "Parent RSPO: 277996"
            }
        },
        {
            "id": 38581,
            "type": "Feature",
            "geometry": {
                "type": "Point",
                "coordinates": [
                    23.7632,
                    50.75242
                ]
            },
            "properties": {
                "ref:rspo": 38581,
                "official_name": "Przedszkole Samorz\u0105dowe \"Bajka\" w Werbkowicach",
                "name": "Przedszkole Samorz\u0105dowe \"Bajka\" w Werbkowicach",
                "addr:country": "PL",
                "addr:postcode": "22-550",
                "addr:city": "Werbkowice",
                "addr:street": "J\u00f3zefa Pi\u0142sudskiego",
                "addr:housenumber": "4",
                "addr:teryt:simc": 57138,
                "addr:teryt:sym_ul": 905280,
                "contact:phone": "+48 846572037",
                "contact:email": "przedszkolebajka1@op.pl",
                "ref:regon": "951080050",
                "ref:vatin": "PL9191368915",
                "operator": "Gmina Werbkowice",
                "operator:type": "government",
                "amenity": "kindergarten",
                "note": "Parent RSPO: 277996"
            }
        },
        {
            "id": 38575,
            "type": "Feature",
            "geometry": {
                "type": "Point",
                "coordinates": [
                    23.81135,
                    50.76589
                ]
            },
            "properties": {
                "isced:level": "1;2",
                "ref:rspo": 38575,
                "official_name": "Publiczna Szko\u0142a Podstawowa im. Kolejarzy Ofiar II Wojny \u015awiatowej w Gozdowie",
                "name": "Publiczna Szko\u0142a Podstawowa",
                "addr:country": "PL",
                "addr:postcode": "22-550",
                "addr:place": "Gozd\u00f3w",
                "addr:housenumber": "141",
                "addr:teryt:sym_ul": 904820,
                "contact:phone": "+48 846572159",
                "contact:email": "pspgozdow@wp.pl",
                "ref:regon": "061480395",
                "operator": "Stowarzyszenie Na Rzecz Rozwoju Wsi Gozd\u00f3w",
                "operator:type": "ngo",
                "amenity": "school"
            }
        },
        {
            "id": 38576,
            "type": "Feature",
            "geometry": {
                "type": "Point",
                "coordinates": [
                    23.81135,
                    50.765859999999996
                ]
            },
            "properties": {
                "ref:rspo": 38576,
                "official_name": "Publiczny Punkt Przedszkolny w Gozdowie",
                "name": "Publiczny Punkt Przedszkolny w Gozdowie",
                "addr:country": "PL",
                "addr:postcode": "22-550",
                "addr:place": "Gozd\u00f3w",
                "addr:housenumber": "141",
                "addr:teryt:sym_ul": 904820,
                "contact:phone": "+48 846572159",
                "contact:email": "pspgozdow@wp.pl",
                "ref:regon": "061473432",
                "operator": "Stowarzyszenie Na Rzecz Rozwoju Wsi Gozd\u00f3w",
                "operator:type": "ngo",
                "amenity": "kindergarten"
            }
        },
        {
            "id": 38582,
            "type": "Feature",
            "geometry": {
                "type": "Point",
                "coordinates": [
                    23.78337,
                    50.78816
                ]
            },
            "properties": {
                "isced:level": "1;2",
                "ref:rspo": 38582,
                "official_name": "Publiczna Szko\u0142a Podstawowa im. Papie\u017ca Jana Paw\u0142a II w Podhorcach",
                "name": "Publiczna Szko\u0142a Podstawowa",
                "addr:country": "PL",
                "addr:postcode": "22-550",
                "addr:place": "Podhorce",
                "addr:housenumber": "110",
                "addr:teryt:sym_ul": 905110,
                "contact:phone": "+48 846572167",
                "contact:email": "sppodhorce@op.pl",
                "ref:regon": "061480426",
                "operator": "Stowarzyszenie Edukacyjne Na Rzecz Rozwoju I Promocji Wsi Podhorce",
                "operator:type": "ngo",
                "amenity": "school"
            }
        },
        {
            "id": 38583,
            "type": "Feature",
            "geometry": {
                "type": "Point",
                "coordinates": [
                    23.78337,
                    50.788129999999995
                ]
            },
            "properties": {
                "ref:rspo": 38583,
                "official_name": "Publiczny Punkt Przedszkolny w Podhorcach",
                "name": "Publiczny Punkt Przedszkolny w Podhorcach",
                "addr:country": "PL",
                "addr:postcode": "22-550",
                "addr:place": "Podhorce",
                "addr:housenumber": "110",
                "addr:teryt:sym_ul": 905110,
                "contact:phone": "+48 846572167",
                "contact:email": "sppodhorce@op.pl",
                "ref:regon": "061473580",
                "operator": "Stowarzyszenie Edukacyjne Na Rzecz Rozwoju I Promocji Wsi Podhorce",
                "operator:type": "ngo",
                "amenity": "kindergarten"
            }
        }
    ]
}