{
    "type": "FeatureCollection",
    "features": [
        {
            "id": 61382,
            "type": "Feature",
            "geometry": {
                "type": "Point",
                "coordinates": [
                    23.88583,
                    50.58597
                ]
            },
            "properties": {
                "isced:level": "1;2",
                "ref:rspo": 61382,
                "official_name": "Szko\u0142a Podstawowa im. Miko\u0142aja Kopernika w Wiszniowie",
                "name": "Szko\u0142a Podstawowa",
                "addr:postcode": "22-530",
                "addr:place": "Wiszni\u00f3w",
                "addr:housenumber": "61",
                "addr:teryt:simc": 895362,
                "phone": "+48 846519703",
                "email": "sp_wiszniow@poczta.fm",
                "website": "http:\/\/www.sp-wiszniow.org",
                "ref:regon": "001135660",
                "ref:vatin": "PL9191678975",
                "operator": "Gmina Mircze",
                "operator:type": "government",
                "amenity": "school"
            }
        },
        {
            "id": 104306,
            "type": "Feature",
            "geometry": {
                "type": "Point",
                "coordinates": [
                    23.88583,
                    50.58594
                ]
            },
            "properties": {
                "ref:rspo": 104306,
                "official_name": "Punkt Predszkolny Przy Szkole Podstawowej im. Miko\u0142aja Kopernika w Wiszniowie",
                "name": "Punkt Predszkolny Przy Szkole Podstawowej",
                "addr:postcode": "22-530",
                "addr:place": "Wiszni\u00f3w",
                "addr:housenumber": "61",
                "addr:teryt:simc": 895362,
                "phone": "+48 846519703",
                "ref:regon": "061503860",
                "operator": "Gmina Mircze",
                "operator:type": "government",
                "amenity": "kindergarten"
            }
        },
        {
            "id": 61381,
            "type": "Feature",
            "geometry": {
                "type": "Point",
                "coordinates": [
                    23.89795,
                    50.65232
                ]
            },
            "properties": {
                "isced:level": "1;2",
                "ref:rspo": 61381,
                "official_name": "Publiczna Szko\u0142a Podstawowa im. Boles\u0142awa Prusa w Mirczu",
                "name": "Publiczna Szko\u0142a Podstawowa",
                "addr:postcode": "22-530",
                "addr:city": "Mircze",
                "addr:street": "Kry\u0142owska",
                "addr:housenumber": "27",
                "addr:teryt:simc": 895161,
                "addr:teryt:sym_ul": 31920,
                "phone": "+48 846519058",
                "email": "mirczeprus@op.pl",
                "website": "http:\/\/pspmircze.superszkolna.pl\/",
                "ref:regon": "000272974",
                "ref:vatin": "PL9191829724",
                "operator": "Gmina Mircze",
                "operator:type": "government",
                "amenity": "school"
            }
        },
        {
            "id": 104289,
            "type": "Feature",
            "geometry": {
                "type": "Point",
                "coordinates": [
                    23.89795,
                    50.65229
                ]
            },
            "properties": {
                "ref:rspo": 104289,
                "official_name": "Punkt Przedszkolny Przy Publicznej Szkole Podstawowej im. Boles\u0142awa Prusa w Mirczu",
                "name": "Punkt Przedszkolny Przy Publicznej Szkole Podstawowej",
                "addr:postcode": "22-530",
                "addr:city": "Mircze",
                "addr:street": "Kry\u0142owska",
                "addr:housenumber": "27",
                "addr:teryt:simc": 895161,
                "addr:teryt:sym_ul": 31920,
                "phone": "+48 846519058",
                "email": "mirczeprus@op.pl",
                "website": "http:\/\/pspmircze.superszkolna.pl",
                "ref:regon": "061503848",
                "operator": "Gmina Mircze",
                "operator:type": "government",
                "amenity": "kindergarten"
            }
        },
        {
            "id": 89855,
            "type": "Feature",
            "geometry": {
                "type": "Point",
                "coordinates": [
                    24.05913,
                    50.6791
                ]
            },
            "properties": {
                "isced:level": "1;2",
                "ref:rspo": 89855,
                "official_name": "Szko\u0142a Podstawowa im. Batalion\u00f3w Ch\u0142opskich w Kry\u0142owie",
                "name": "Szko\u0142a Podstawowa",
                "addr:postcode": "22-500",
                "addr:city": "Kry\u0142\u00f3w",
                "addr:street": "Hrubieszowska",
                "addr:housenumber": "4",
                "addr:teryt:simc": 895050,
                "addr:teryt:sym_ul": 6761,
                "phone": "+48 846519815",
                "email": "spkrylow@poczta.onet.pl",
                "ref:regon": "001135707",
                "ref:vatin": "PL9191679673",
                "operator": "Gmina Mircze",
                "operator:type": "government",
                "amenity": "school"
            }
        },
        {
            "id": 104296,
            "type": "Feature",
            "geometry": {
                "type": "Point",
                "coordinates": [
                    24.05913,
                    50.679069999999996
                ]
            },
            "properties": {
                "ref:rspo": 104296,
                "official_name": "Punkt Przedszkolny Przy Szkole Podstawowej im. Batalion\u00f3w Ch\u0142opskich w Kry\u0142owie",
                "name": "Punkt Przedszkolny Przy Szkole Podstawowej",
                "addr:postcode": "22-530",
                "addr:city": "Kry\u0142\u00f3w",
                "addr:street": "Hrubieszowska",
                "addr:housenumber": "4",
                "addr:teryt:simc": 895050,
                "addr:teryt:sym_ul": 6761,
                "phone": "+48 846519815",
                "ref:regon": "061503854",
                "operator": "Gmina Mircze",
                "operator:type": "government",
                "amenity": "kindergarten"
            }
        },
        {
            "id": 89873,
            "type": "Feature",
            "geometry": {
                "type": "Point",
                "coordinates": [
                    23.96746,
                    50.6883
                ]
            },
            "properties": {
                "isced:level": "1;2",
                "ref:rspo": 89873,
                "official_name": "Szko\u0142a Podstawowa Stowarzyszenia Rozwoju Wsi Szychowice",
                "name": "Szko\u0142a Podstawowa Stowarzyszenia Rozwoju Wsi Szychowice",
                "addr:postcode": "22-530",
                "addr:city": "Szychowice Nowe",
                "addr:street": "Parkowa",
                "addr:housenumber": "39",
                "addr:teryt:simc": 895327,
                "addr:teryt:sym_ul": 15710,
                "phone": "+48 846510241",
                "email": "sp_szychowice@wp.pl",
                "ref:regon": "061496150",
                "ref:vatin": "PL9191641570",
                "operator": "Stowarzyszenie Rozwoju Wsi Szychowice",
                "operator:type": "ngo",
                "amenity": "school"
            }
        }
    ]
}