{
    "type": "FeatureCollection",
    "features": [
        {
            "id": 25375,
            "type": "Feature",
            "geometry": {
                "type": "Point",
                "coordinates": [
                    23.073313,
                    51.265868
                ]
            },
            "properties": {
                "isced:level": "1;2",
                "ref:rspo": 25375,
                "official_name": "Szko\u0142a Podstawowa w Malin\u00f3wce",
                "name": "Szko\u0142a Podstawowa w Malin\u00f3wce",
                "addr:postcode": "21-070",
                "addr:place": "Malin\u00f3wka",
                "addr:housenumber": "62",
                "addr:city:simc": 102025,
                "phone": "+48 825677093",
                "email": "spmalinowka@wp.pl",
                "ref:regon": "001176209",
                "ref:vatin": "PL7132402124",
                "operator": "Gmina Cyc\u00f3w",
                "operator:type": "government",
                "amenity": "school"
            }
        },
        {
            "id": 25376,
            "type": "Feature",
            "geometry": {
                "type": "Point",
                "coordinates": [
                    23.201795,
                    51.276979
                ]
            },
            "properties": {
                "isced:level": "1;2",
                "ref:rspo": 25376,
                "official_name": "Szko\u0142a Podstawowa w Stawku",
                "name": "Szko\u0142a Podstawowa w Stawku",
                "addr:postcode": "21-070",
                "addr:place": "Stawek",
                "addr:housenumber": "5",
                "addr:city:simc": 102137,
                "phone": "+48 825677044",
                "email": "spstawek@poczta.onet.pl",
                "website": "http:\/\/stawek5.jimdo.com",
                "ref:regon": "001176221",
                "ref:vatin": "PL7132402153",
                "operator": "Gmina Cyc\u00f3w",
                "operator:type": "government",
                "amenity": "school"
            }
        },
        {
            "id": 25374,
            "type": "Feature",
            "geometry": {
                "type": "Point",
                "coordinates": [
                    23.1018869,
                    51.289324
                ]
            },
            "properties": {
                "isced:level": "1;2",
                "ref:rspo": 25374,
                "official_name": "Szko\u0142a Podstawowa Nr 1 w G\u0142\u0119bokiem",
                "name": "Szko\u0142a Podstawowa Nr 1 w G\u0142\u0119bokiem",
                "addr:postcode": "21-070",
                "addr:place": "G\u0142\u0119bokie",
                "addr:housenumber": "4",
                "addr:city:simc": 101988,
                "phone": "+48 825677002",
                "email": "spnr1glebokie@wp.pl",
                "website": "http:\/\/spglebokie1.edupage.org",
                "ref:regon": "001176178",
                "ref:vatin": "PL7132402147",
                "operator": "Gmina Cyc\u00f3w",
                "operator:type": "government",
                "amenity": "school"
            }
        },
        {
            "id": 62418,
            "type": "Feature",
            "geometry": {
                "type": "Point",
                "coordinates": [
                    23.1105369,
                    51.2936369
                ]
            },
            "properties": {
                "ref:rspo": 62418,
                "official_name": "M\u0142odzie\u017cowy O\u015brodek Wychowawczy w Podg\u0142\u0119bokiem",
                "name": "M\u0142odzie\u017cowy O\u015brodek Wychowawczy w Podg\u0142\u0119bokiem",
                "addr:postcode": "21-070",
                "addr:place": "Podg\u0142\u0119bokie",
                "addr:housenumber": "1A",
                "addr:city:simc": 102108,
                "phone": "+48 825677074",
                "email": "sekretariat@podglebokie-mow.pl",
                "website": "http:\/\/podglebokie-mow.pl",
                "ref:regon": "432496417",
                "ref:vatin": "PL7132712669",
                "operator": "Powiat \u0141\u0119czy\u0144ski",
                "operator:type": "government",
                "fixme": "amenity=social_facility + social_facility=group_home + social_facility:for=juvenile",
                "note": "Children RSPO: 88938;88940"
            }
        },
        {
            "id": 88938,
            "type": "Feature",
            "geometry": {
                "type": "Point",
                "coordinates": [
                    23.1105369,
                    51.2936069
                ]
            },
            "properties": {
                "isced:level": "3",
                "ref:rspo": 88938,
                "official_name": "Bran\u017cowa Szko\u0142a Specjalna I Stopnia w Podg\u0142\u0119bokiem",
                "name": "Bran\u017cowa Szko\u0142a Specjalna I Stopnia w Podg\u0142\u0119bokiem",
                "addr:postcode": "21-070",
                "addr:place": "Podg\u0142\u0119bokie",
                "addr:housenumber": "1A",
                "addr:city:simc": 102108,
                "phone": "+48 825677026",
                "email": "sekretarz.szkola@podglebokie-mow.pl",
                "website": "http:\/\/podglebokie-mow.pl",
                "ref:regon": "000814406",
                "operator": "Powiat \u0141\u0119czy\u0144ski",
                "operator:type": "government",
                "amenity": "school",
                "note": "Parent RSPO: 62418"
            }
        },
        {
            "id": 88940,
            "type": "Feature",
            "geometry": {
                "type": "Point",
                "coordinates": [
                    23.1105369,
                    51.293576900000005
                ]
            },
            "properties": {
                "isced:level": "1;2",
                "ref:rspo": 88940,
                "official_name": "Szkola Podstawowa Specjalna w Podg\u0142\u0119bokiem",
                "name": "Szkola Podstawowa Specjalna w Podg\u0142\u0119bokiem",
                "addr:postcode": "21-070",
                "addr:place": "Podg\u0142\u0119bokie",
                "addr:housenumber": "1A",
                "addr:city:simc": 102108,
                "phone": "+48 825677026",
                "email": "sekretarz.szkola@podglebokie-mow.pl",
                "website": "http:\/\/podglebokie-mow.pl",
                "ref:regon": "000712700",
                "operator": "Powiat \u0141\u0119czy\u0144ski",
                "operator:type": "government",
                "amenity": "school",
                "note": "Parent RSPO: 62418"
            }
        },
        {
            "id": 25529,
            "type": "Feature",
            "geometry": {
                "type": "Point",
                "coordinates": [
                    23.205524,
                    51.301846
                ]
            },
            "properties": {
                "ref:rspo": 25529,
                "official_name": "Punkt Przedszkolny w Bekieszy",
                "name": "Punkt Przedszkolny w Bekieszy",
                "addr:postcode": "21-070",
                "addr:place": "Bekiesza",
                "addr:housenumber": "31",
                "addr:city:simc": 101913,
                "phone": "+48 825677009",
                "email": "szkola@zs-cycow.pl",
                "ref:regon": "061468572",
                "operator": "Gmina Cyc\u00f3w",
                "operator:type": "government",
                "amenity": "kindergarten",
                "note": "Parent RSPO: 25371"
            }
        },
        {
            "id": 25371,
            "type": "Feature",
            "geometry": {
                "type": "Point",
                "coordinates": [
                    23.13543,
                    51.30238
                ]
            },
            "properties": {
                "ref:rspo": 25371,
                "official_name": "Zesp\u00f3\u0142 Szk\u00f3\u0142 Z Oddzia\u0142ami Integracyjnymi im. 7 Pu\u0142ku U\u0142an\u00f3w Lubelskich w Cycowie",
                "name": "Zesp\u00f3\u0142 Szk\u00f3\u0142 Z Oddzia\u0142ami Integracyjnymi",
                "addr:postcode": "21-070",
                "addr:city": "Cyc\u00f3w",
                "addr:street": "Che\u0142mska",
                "addr:housenumber": "44",
                "addr:city:simc": 101936,
                "addr:street:sym_ul": 2709,
                "phone": "+48 825677009",
                "email": "szkola@zs-cycow.pl",
                "website": "http:\/\/www.zs-cycow.pl",
                "ref:regon": "431161420",
                "ref:vatin": "PL7132468212",
                "operator": "Gmina Cyc\u00f3w",
                "operator:type": "government",
                "landuse": "education",
                "fixme": "amenity=school, amenity=college albo landuse=education w zale\u017cno\u015bci od tego, jakie plac\u00f3wki wchodz\u0105 w sk\u0142ad zespo\u0142u. Sprawd\u017a, kiedy stosowa\u0107 amenity=* a kiedy landuse=education.",
                "note": "Children RSPO: 25529;25532;25533;48808;48809"
            }
        },
        {
            "id": 48808,
            "type": "Feature",
            "geometry": {
                "type": "Point",
                "coordinates": [
                    23.13543,
                    51.30235
                ]
            },
            "properties": {
                "ref:rspo": 48808,
                "official_name": "Przedszkole Samorz\u0105dowe w Zespole Szk\u00f3\u0142 Z Oddzia\u0142ami Integracyjnymi im. 7 Pu\u0142ku U\u0142an\u00f3w Lubelskich w Cycowie",
                "name": "Przedszkole Samorz\u0105dowe w Zespole Szk\u00f3\u0142 Z Oddzia\u0142ami Integracyjnymi",
                "addr:postcode": "21-070",
                "addr:city": "Cyc\u00f3w",
                "addr:street": "Che\u0142mska",
                "addr:housenumber": "44",
                "addr:city:simc": 101936,
                "addr:street:sym_ul": 2709,
                "phone": "+48 825677009",
                "email": "szkola@zs-cycow.pl",
                "website": "http:\/\/www.zs-cycow.pl",
                "ref:regon": "110200308",
                "ref:vatin": "PL7132402182",
                "operator": "Gmina Cyc\u00f3w",
                "operator:type": "government",
                "amenity": "kindergarten",
                "note": "Parent RSPO: 25371"
            }
        },
        {
            "id": 48809,
            "type": "Feature",
            "geometry": {
                "type": "Point",
                "coordinates": [
                    23.13543,
                    51.30232
                ]
            },
            "properties": {
                "isced:level": "1;2",
                "ref:rspo": 48809,
                "official_name": "Szko\u0142a Podstawowa w Zespole Szk\u00f3\u0142 Z Oddzia\u0142ami Integracyjnymi im. 7 Pu\u0142ku U\u0142an\u00f3w Lubelskich w Cycowie",
                "name": "Szko\u0142a Podstawowa w Zespole Szk\u00f3\u0142 Z Oddzia\u0142ami Integracyjnymi",
                "addr:postcode": "21-070",
                "addr:city": "Cyc\u00f3w",
                "addr:street": "Che\u0142mska",
                "addr:housenumber": "44",
                "addr:city:simc": 101936,
                "addr:street:sym_ul": 2709,
                "phone": "+48 825677009",
                "email": "szkola@zs-cycow.pl",
                "website": "http:\/\/www.zs-cycow.pl",
                "ref:regon": "431256272",
                "operator": "Gmina Cyc\u00f3w",
                "operator:type": "government",
                "amenity": "school",
                "note": "Parent RSPO: 25371"
            }
        },
        {
            "id": 25532,
            "type": "Feature",
            "geometry": {
                "type": "Point",
                "coordinates": [
                    23.0754619,
                    51.3159019
                ]
            },
            "properties": {
                "ref:rspo": 25532,
                "official_name": "Punkt Przedszkolny w Janowicy",
                "name": "Punkt Przedszkolny w Janowicy",
                "addr:postcode": "21-070",
                "addr:place": "Janowica",
                "addr:housenumber": "17a",
                "addr:city:simc": 101994,
                "phone": "+48 825677009",
                "email": "szkola@zs-cycow.pl",
                "ref:regon": "061468603",
                "operator": "Gmina Cyc\u00f3w",
                "operator:type": "government",
                "amenity": "kindergarten",
                "note": "Parent RSPO: 25371"
            }
        },
        {
            "id": 25533,
            "type": "Feature",
            "geometry": {
                "type": "Point",
                "coordinates": [
                    23.122615,
                    51.331033
                ]
            },
            "properties": {
                "ref:rspo": 25533,
                "official_name": "Punkt Przedszkolny w Kopinie",
                "name": "Punkt Przedszkolny w Kopinie",
                "addr:postcode": "21-070",
                "addr:place": "Kopina",
                "addr:housenumber": "60",
                "addr:city:simc": 102002,
                "phone": "+48 825677009",
                "email": "szkola@zs-cycow.pl",
                "ref:regon": "061468649",
                "operator": "Gmina Cyc\u00f3w",
                "operator:type": "government",
                "amenity": "kindergarten",
                "note": "Parent RSPO: 25371"
            }
        },
        {
            "id": 275309,
            "type": "Feature",
            "geometry": {
                "type": "Point",
                "coordinates": [
                    23.17607,
                    51.33791
                ]
            },
            "properties": {
                "isced:level": "1;2",
                "ref:rspo": 275309,
                "official_name": "Szko\u0142a Podstawowa w \u015awierszczowie",
                "name": "Szko\u0142a Podstawowa w \u015awierszczowie",
                "addr:postcode": "21-070",
                "addr:place": "\u015awierszcz\u00f3w",
                "addr:housenumber": "15",
                "addr:city:simc": 102189,
                "phone": "+48 825757018",
                "email": "szkolaswierszczow@op.pl",
                "ref:regon": "386801241",
                "ref:vatin": "PL5050130670",
                "operator": "Gmina Cyc\u00f3w",
                "operator:type": "government",
                "amenity": "school"
            }
        },
        {
            "id": 25372,
            "type": "Feature",
            "geometry": {
                "type": "Point",
                "coordinates": [
                    23.1133,
                    51.357788
                ]
            },
            "properties": {
                "isced:level": "1;2",
                "ref:rspo": 25372,
                "official_name": "Szko\u0142a Podstawowa w Garbat\u00f3wce",
                "name": "Szko\u0142a Podstawowa w Garbat\u00f3wce",
                "addr:postcode": "21-070",
                "addr:place": "Garbat\u00f3wka",
                "addr:housenumber": "9",
                "addr:city:simc": 101965,
                "phone": "+48 825678393",
                "email": "garbatowka@wp.pl",
                "ref:regon": "001176161",
                "ref:vatin": "PL7132400071",
                "operator": "Gmina Cyc\u00f3w",
                "operator:type": "government",
                "amenity": "school"
            }
        }
    ]
}