{
    "type": "FeatureCollection",
    "features": [
        {
            "id": 51281,
            "type": "Feature",
            "geometry": {
                "type": "Point",
                "coordinates": [
                    23.05482,
                    51.24435
                ]
            },
            "properties": {
                "isced:level": "1;2",
                "ref:rspo": 51281,
                "official_name": "Szko\u0142a Filialna w Zawadowie",
                "name": "Szko\u0142a Filialna w Zawadowie",
                "addr:country": "PL",
                "addr:postcode": "21-013",
                "addr:place": "Zawad\u00f3w",
                "addr:housenumber": "158",
                "addr:teryt:sym_ul": 389877,
                "contact:phone": "+48 817576490",
                "ref:regon": "431243074",
                "operator": "Gmina Puchacz\u00f3w",
                "operator:type": "government",
                "amenity": "school",
                "note": "Parent RSPO: 19377"
            }
        },
        {
            "id": 130822,
            "type": "Feature",
            "geometry": {
                "type": "Point",
                "coordinates": [
                    22.98414,
                    51.26742
                ]
            },
            "properties": {
                "ref:rspo": 130822,
                "official_name": "Zesp\u00f3\u0142 Szkolno - Przedszkolny w Ostr\u00f3wku",
                "name": "Zesp\u00f3\u0142 Szkolno - Przedszkolny w Ostr\u00f3wku",
                "addr:country": "PL",
                "addr:postcode": "21-013",
                "addr:place": "Ostr\u00f3wek",
                "addr:housenumber": "154",
                "addr:teryt:sym_ul": 389788,
                "contact:phone": "+48 817576485",
                "contact:email": "ostroweksp@op.pl",
                "ref:regon": "364545810",
                "operator": "Gmina Puchacz\u00f3w",
                "operator:type": "government",
                "landuse": "education",
                "fixme": "amenity=school, amenity=college albo landuse=education w zale\u017cno\u015bci od tego, jakie plac\u00f3wki wchodz\u0105 w sk\u0142ad zespo\u0142u. Sprawd\u017a, kiedy stosowa\u0107 amenity=* a kiedy landuse=education.",
                "note": "Children RSPO: 19377;130888"
            }
        },
        {
            "id": 19377,
            "type": "Feature",
            "geometry": {
                "type": "Point",
                "coordinates": [
                    22.98414,
                    51.26739
                ]
            },
            "properties": {
                "isced:level": "1;2",
                "ref:rspo": 19377,
                "official_name": "Szko\u0142a Podstawowa w Ostr\u00f3wku im. Bohater\u00f3w Armii Krajowej",
                "name": "Szko\u0142a Podstawowa w Ostr\u00f3wku",
                "addr:country": "PL",
                "addr:postcode": "21-013",
                "addr:place": "Ostr\u00f3wek",
                "addr:housenumber": "154",
                "addr:teryt:sym_ul": 389788,
                "contact:phone": "+48 817576485",
                "contact:email": "ostroweksp@op.pl",
                "ref:regon": "431243074",
                "ref:vatin": "PL7132570790",
                "operator": "Gmina Puchacz\u00f3w",
                "operator:type": "government",
                "amenity": "school",
                "note": "Children RSPO: 51281Parent RSPO: 130822"
            }
        },
        {
            "id": 130888,
            "type": "Feature",
            "geometry": {
                "type": "Point",
                "coordinates": [
                    22.95298,
                    51.27643
                ]
            },
            "properties": {
                "ref:rspo": 130888,
                "official_name": "Przedszkole w Ciechankach",
                "name": "Przedszkole w Ciechankach",
                "addr:country": "PL",
                "addr:postcode": "21-013",
                "addr:place": "Ciechanki",
                "addr:housenumber": "66",
                "addr:teryt:sym_ul": 389720,
                "contact:phone": "+48 817576486",
                "ref:regon": "364669333",
                "operator": "Gmina Puchacz\u00f3w",
                "operator:type": "government",
                "amenity": "kindergarten",
                "note": "Parent RSPO: 130822"
            }
        },
        {
            "id": 89993,
            "type": "Feature",
            "geometry": {
                "type": "Point",
                "coordinates": [
                    23.06431,
                    51.29201
                ]
            },
            "properties": {
                "isced:level": "1;2",
                "ref:rspo": 89993,
                "official_name": "Zesp\u00f3\u0142 Szk\u00f3\u0142 w Puchaczowie Szko\u0142a Podstawowa im. Adama Mickiewicza Szko\u0142a Filialna w Albertowie",
                "name": "Zesp\u00f3\u0142 Szk\u00f3\u0142 w Puchaczowie Szko\u0142a Podstawowa",
                "addr:country": "PL",
                "addr:postcode": "21-013",
                "addr:place": "Albert\u00f3w",
                "addr:housenumber": "4",
                "addr:teryt:sym_ul": 389699,
                "contact:phone": "+48 817575103",
                "ref:regon": "431243105",
                "operator": "Gmina Puchacz\u00f3w",
                "operator:type": "government",
                "amenity": "school",
                "note": "Parent RSPO: 29596"
            }
        },
        {
            "id": 15384,
            "type": "Feature",
            "geometry": {
                "type": "Point",
                "coordinates": [
                    22.97382,
                    51.30791
                ]
            },
            "properties": {
                "ref:rspo": 15384,
                "official_name": "Zesp\u00f3\u0142 Szk\u00f3\u0142 w Puchaczowie",
                "name": "Zesp\u00f3\u0142 Szk\u00f3\u0142 w Puchaczowie",
                "addr:country": "PL",
                "addr:postcode": "21-013",
                "addr:city": "Puchacz\u00f3w",
                "addr:street": "Adama Mickiewicza",
                "addr:housenumber": "19",
                "addr:teryt:simc": 12740,
                "addr:teryt:sym_ul": 389794,
                "contact:phone": "+48 817575154",
                "contact:email": "zspuchaczow@wp.pl",
                "ref:regon": "432515557",
                "ref:vatin": "PL7132744103",
                "operator": "Gmina Puchacz\u00f3w",
                "operator:type": "government",
                "landuse": "education",
                "fixme": "amenity=school, amenity=college albo landuse=education w zale\u017cno\u015bci od tego, jakie plac\u00f3wki wchodz\u0105 w sk\u0142ad zespo\u0142u. Sprawd\u017a, kiedy stosowa\u0107 amenity=* a kiedy landuse=education.",
                "note": "Children RSPO: 17208;29596"
            }
        },
        {
            "id": 17097,
            "type": "Feature",
            "geometry": {
                "type": "Point",
                "coordinates": [
                    22.97382,
                    51.30788
                ]
            },
            "properties": {
                "ref:rspo": 17097,
                "official_name": "Przedszkole w Puchaczowie",
                "name": "Przedszkole w Puchaczowie",
                "addr:country": "PL",
                "addr:postcode": "21-013",
                "addr:city": "Puchacz\u00f3w",
                "addr:street": "Adama Mickiewicza",
                "addr:housenumber": "19",
                "addr:teryt:simc": 12740,
                "addr:teryt:sym_ul": 389794,
                "contact:phone": "+48 817575037",
                "contact:email": "przedszkolepuchaczow@interia.pl",
                "ref:regon": "060711266",
                "ref:vatin": "PL5050115914",
                "operator": "Gmina Puchacz\u00f3w",
                "operator:type": "government",
                "amenity": "kindergarten"
            }
        },
        {
            "id": 17208,
            "type": "Feature",
            "geometry": {
                "type": "Point",
                "coordinates": [
                    22.97382,
                    51.30785
                ]
            },
            "properties": {
                "isced:level": "3",
                "ref:rspo": 17208,
                "official_name": "Liceum Og\u00f3lnokszta\u0142c\u0105ce w Puchaczowie",
                "name": "Liceum Og\u00f3lnokszta\u0142c\u0105ce w Puchaczowie",
                "addr:country": "PL",
                "addr:postcode": "21-013",
                "addr:city": "Puchacz\u00f3w",
                "addr:street": "Adama Mickiewicza",
                "addr:housenumber": "19",
                "addr:teryt:simc": 12740,
                "addr:teryt:sym_ul": 389794,
                "contact:phone": "+48 817575154",
                "contact:email": "zspuchaczow@wp.pl",
                "contact:website": "http:\/\/www.puchaczow.com",
                "ref:regon": "432515563",
                "operator": "Gmina Puchacz\u00f3w",
                "operator:type": "government",
                "amenity": "school",
                "note": "Parent RSPO: 15384"
            }
        },
        {
            "id": 29596,
            "type": "Feature",
            "geometry": {
                "type": "Point",
                "coordinates": [
                    22.97382,
                    51.30782
                ]
            },
            "properties": {
                "isced:level": "1;2",
                "ref:rspo": 29596,
                "official_name": "Zesp\u00f3L Szk\u00f3\u0142 w Puchaczowie Szko\u0142a Podstawowa im. Adama Mickiewicza",
                "name": "Zesp\u00f3L Szk\u00f3\u0142 w Puchaczowie Szko\u0142a Podstawowa",
                "addr:country": "PL",
                "addr:postcode": "21-013",
                "addr:city": "Puchacz\u00f3w",
                "addr:street": "Adama Mickiewicza",
                "addr:housenumber": "19",
                "addr:teryt:simc": 12740,
                "addr:teryt:sym_ul": 389794,
                "contact:phone": "+48 817575004",
                "contact:email": "zspuchaczow@wp.pl",
                "contact:website": "http:\/\/www.puchaczow.com",
                "ref:regon": "431243105",
                "operator": "Gmina Puchacz\u00f3w",
                "operator:type": "government",
                "amenity": "school",
                "note": "Children RSPO: 89993Parent RSPO: 15384"
            }
        },
        {
            "id": 130821,
            "type": "Feature",
            "geometry": {
                "type": "Point",
                "coordinates": [
                    23.0456,
                    51.34413
                ]
            },
            "properties": {
                "ref:rspo": 130821,
                "official_name": "Zesp\u00f3\u0142 Szkolno - Przedszkolny w Nadrybiu",
                "name": "Zesp\u00f3\u0142 Szkolno - Przedszkolny w Nadrybiu",
                "addr:country": "PL",
                "addr:postcode": "21-013",
                "addr:place": "Nadrybie-Dw\u00f3r",
                "addr:housenumber": "88",
                "addr:teryt:sym_ul": 389759,
                "contact:phone": "+48 817575102",
                "contact:email": "spnadrybie@wp.pl",
                "ref:regon": "364545772",
                "operator": "Gmina Puchacz\u00f3w",
                "operator:type": "government",
                "landuse": "education",
                "fixme": "amenity=school, amenity=college albo landuse=education w zale\u017cno\u015bci od tego, jakie plac\u00f3wki wchodz\u0105 w sk\u0142ad zespo\u0142u. Sprawd\u017a, kiedy stosowa\u0107 amenity=* a kiedy landuse=education.",
                "note": "Children RSPO: 19146;130886"
            }
        },
        {
            "id": 19146,
            "type": "Feature",
            "geometry": {
                "type": "Point",
                "coordinates": [
                    23.0456,
                    51.3441
                ]
            },
            "properties": {
                "isced:level": "1;2",
                "ref:rspo": 19146,
                "official_name": "Szko\u0142a Podstawowa w Nadrybiu im.jana I Kazimierza Bogdanowicz\u00f3w",
                "name": "Szko\u0142a Podstawowa w Nadrybiu im.jana I Kazimierza Bogdanowicz\u00f3w",
                "addr:country": "PL",
                "addr:postcode": "21-013",
                "addr:place": "Nadrybie-Dw\u00f3r",
                "addr:housenumber": "88",
                "addr:teryt:sym_ul": 389759,
                "contact:phone": "+48 817575102",
                "contact:email": "sekretariat@zspnadrybie.pl",
                "ref:regon": "431244381",
                "ref:vatin": "PL7132570809",
                "operator": "Gmina Puchacz\u00f3w",
                "operator:type": "government",
                "amenity": "school",
                "note": "Parent RSPO: 130821"
            }
        },
        {
            "id": 130886,
            "type": "Feature",
            "geometry": {
                "type": "Point",
                "coordinates": [
                    23.0456,
                    51.34407
                ]
            },
            "properties": {
                "ref:rspo": 130886,
                "official_name": "Przedszkole w Nadrybiu",
                "name": "Przedszkole w Nadrybiu",
                "addr:country": "PL",
                "addr:postcode": "21-013",
                "addr:place": "Nadrybie-Dw\u00f3r",
                "addr:housenumber": "88",
                "addr:teryt:sym_ul": 389759,
                "contact:phone": "+48 817575102",
                "ref:regon": "364669280",
                "operator": "Gmina Puchacz\u00f3w",
                "operator:type": "government",
                "amenity": "kindergarten",
                "note": "Parent RSPO: 130821"
            }
        }
    ]
}