{
    "type": "FeatureCollection",
    "features": [
        {
            "id": 18473,
            "type": "Feature",
            "geometry": {
                "type": "Point",
                "coordinates": [
                    22.88282,
                    51.29181
                ]
            },
            "properties": {
                "isced:level": "1;2",
                "ref:rspo": 18473,
                "official_name": "Szko\u0142a Podstawowa Nr 4 im. Papie\u017ca Jana Paw\u0142a II w \u0141\u0119cznej",
                "name": "Szko\u0142a Podstawowa Nr 4",
                "addr:postcode": "21-010",
                "addr:city": "\u0141\u0119czna",
                "addr:street": "Ja\u015bminowa",
                "addr:housenumber": "6",
                "addr:city:simc": 956388,
                "addr:street:sym_ul": 7380,
                "phone": "+48 814627003",
                "email": "sekretariat@sp4leczna.pl",
                "website": "http:\/\/www.sp4leczna.pl",
                "ref:regon": "430332769",
                "ref:vatin": "PL5050083290",
                "operator": "Gmina \u0141\u0119czna",
                "operator:type": "government",
                "amenity": "school"
            }
        },
        {
            "id": 81686,
            "type": "Feature",
            "geometry": {
                "type": "Point",
                "coordinates": [
                    22.89055,
                    51.29357
                ]
            },
            "properties": {
                "isced:level": "4",
                "ref:rspo": 81686,
                "official_name": "Szko\u0142a Policealna w \u0141\u0119cznej",
                "name": "Szko\u0142a Policealna w \u0141\u0119cznej",
                "addr:postcode": "21-010",
                "addr:city": "\u0141\u0119czna",
                "addr:street": "Bogdanowicza",
                "addr:housenumber": "5",
                "addr:city:simc": 956388,
                "addr:street:sym_ul": 33261,
                "phone": "+48 815315464",
                "email": "zsleczna@gmail.com",
                "website": "http:\/\/kkjagiellonczyk.pl",
                "ref:regon": "431278090",
                "operator": "Powiat \u0141\u0119czy\u0144ski",
                "operator:type": "government",
                "amenity": "college",
                "note": "Parent RSPO: 50367"
            }
        },
        {
            "id": 50367,
            "type": "Feature",
            "geometry": {
                "type": "Point",
                "coordinates": [
                    22.8898459,
                    51.2938902
                ]
            },
            "properties": {
                "ref:rspo": 50367,
                "official_name": "Zesp\u00f3\u0142 Szk\u00f3\u0142 im. Kr\u00f3la Kazimierza Jagiello\u0144czyka w \u0141\u0119cznej",
                "name": "Zesp\u00f3\u0142 Szk\u00f3\u0142",
                "addr:postcode": "21-010",
                "addr:city": "\u0141\u0119czna",
                "addr:street": "Bogdanowicza",
                "addr:housenumber": "9",
                "addr:city:simc": 956388,
                "addr:street:sym_ul": 33261,
                "phone": "+48 815315464",
                "email": "zsleczna@gmail.com",
                "website": "http:\/\/kkjagiellonczyk.pl",
                "ref:regon": "430132421",
                "ref:vatin": "PL7132386359",
                "operator": "Powiat \u0141\u0119czy\u0144ski",
                "operator:type": "government",
                "landuse": "education",
                "fixme": "amenity=school, amenity=college albo landuse=education w zale\u017cno\u015bci od tego, jakie plac\u00f3wki wchodz\u0105 w sk\u0142ad zespo\u0142u. Sprawd\u017a, kiedy stosowa\u0107 amenity=* a kiedy landuse=education.",
                "note": "Children RSPO: 19246;81681;81682;81685;81686"
            }
        },
        {
            "id": 50368,
            "type": "Feature",
            "geometry": {
                "type": "Point",
                "coordinates": [
                    22.8898459,
                    51.2938602
                ]
            },
            "properties": {
                "ref:rspo": 50368,
                "official_name": "Zesp\u00f3\u0142 Szk\u00f3\u0142 G\u00f3rniczych w \u0141\u0119cznej",
                "name": "Zesp\u00f3\u0142 Szk\u00f3\u0142 G\u00f3rniczych w \u0141\u0119cznej",
                "addr:postcode": "21-010",
                "addr:city": "\u0141\u0119czna",
                "addr:street": "Bogdanowicza",
                "addr:housenumber": "9",
                "addr:city:simc": 956388,
                "addr:street:sym_ul": 33261,
                "phone": "+48 817521257",
                "email": "zsg@zsg-leczna.pl",
                "website": "http:\/\/zsg-leczna.pl",
                "ref:regon": "060433324",
                "ref:vatin": "PL5050089619",
                "operator": "Powiat \u0141\u0119czy\u0144ski",
                "operator:type": "government",
                "landuse": "education",
                "fixme": "amenity=school, amenity=college albo landuse=education w zale\u017cno\u015bci od tego, jakie plac\u00f3wki wchodz\u0105 w sk\u0142ad zespo\u0142u. Sprawd\u017a, kiedy stosowa\u0107 amenity=* a kiedy landuse=education.",
                "note": "Children RSPO: 81677;122631"
            }
        },
        {
            "id": 268899,
            "type": "Feature",
            "geometry": {
                "type": "Point",
                "coordinates": [
                    22.8898459,
                    51.2938302
                ]
            },
            "properties": {
                "isced:level": "3",
                "ref:rspo": 268899,
                "official_name": "Liceum Og\u00f3lnokszta\u0142c\u0105ce Mistrzostwa Sportowego G\u00f3rnika \u0141\u0119czna",
                "name": "Liceum Og\u00f3lnokszta\u0142c\u0105ce Mistrzostwa Sportowego G\u00f3rnika \u0141\u0119czna",
                "addr:postcode": "21-010",
                "addr:city": "\u0141\u0119czna",
                "addr:street": "Bogdanowicza",
                "addr:housenumber": "9",
                "addr:city:simc": 956388,
                "addr:street:sym_ul": 33261,
                "phone": "+48 507002855",
                "email": "szkola@gornik.leczna.pl",
                "website": "http:\/\/szkola.gornik.leczna.pl",
                "ref:regon": "381277108",
                "operator": "\"Fundacja Akademia Sportu G\u00f3rnika \u0141\u0119czna\"",
                "operator:type": "ngo",
                "amenity": "school"
            }
        },
        {
            "id": 19246,
            "type": "Feature",
            "geometry": {
                "type": "Point",
                "coordinates": [
                    22.8898459,
                    51.2938002
                ]
            },
            "properties": {
                "isced:level": "3",
                "ref:rspo": 19246,
                "official_name": "I Liceum Og\u00f3lnokszta\u0142c\u0105ce im. Jana Zamoyskiego w \u0141\u0119cznej",
                "name": "I Liceum Og\u00f3lnokszta\u0142c\u0105ce",
                "addr:postcode": "21-010",
                "addr:city": "\u0141\u0119czna",
                "addr:street": "Bogdanowicza",
                "addr:housenumber": "9",
                "addr:city:simc": 956388,
                "addr:street:sym_ul": 33261,
                "phone": "+48 815315464",
                "email": "zsleczna@gmail.com",
                "website": "http:\/\/kkjagiellonczyk.pl",
                "ref:regon": "000907480",
                "operator": "Powiat \u0141\u0119czy\u0144ski",
                "operator:type": "government",
                "amenity": "school",
                "note": "Parent RSPO: 50367"
            }
        },
        {
            "id": 81681,
            "type": "Feature",
            "geometry": {
                "type": "Point",
                "coordinates": [
                    22.8898459,
                    51.2937702
                ]
            },
            "properties": {
                "isced:level": "3",
                "ref:rspo": 81681,
                "official_name": "Bran\u017cowa Szko\u0142a I Stopnia w \u0141\u0119cznej",
                "name": "Bran\u017cowa Szko\u0142a I Stopnia w \u0141\u0119cznej",
                "addr:postcode": "21-010",
                "addr:city": "\u0141\u0119czna",
                "addr:street": "Bogdanowicza",
                "addr:housenumber": "9",
                "addr:city:simc": 956388,
                "addr:street:sym_ul": 33261,
                "phone": "+48 815315464",
                "email": "zsleczna@gmail.com",
                "website": "http:\/\/kkjagiellonczyk.pl",
                "ref:regon": "431278078",
                "operator": "Powiat \u0141\u0119czy\u0144ski",
                "operator:type": "government",
                "amenity": "school",
                "note": "Parent RSPO: 50367"
            }
        },
        {
            "id": 81682,
            "type": "Feature",
            "geometry": {
                "type": "Point",
                "coordinates": [
                    22.8898459,
                    51.2937402
                ]
            },
            "properties": {
                "isced:level": "3",
                "ref:rspo": 81682,
                "official_name": "Technikum w \u0141\u0119cznej",
                "name": "Technikum w \u0141\u0119cznej",
                "addr:postcode": "21-010",
                "addr:city": "\u0141\u0119czna",
                "addr:street": "Bogdanowicza",
                "addr:housenumber": "9",
                "addr:city:simc": 956388,
                "addr:street:sym_ul": 33261,
                "phone": "+48 815315464",
                "email": "zsleczna@gmail.com",
                "website": "http:\/\/kkjagiellonczyk.pl",
                "ref:regon": "431278055",
                "operator": "Powiat \u0141\u0119czy\u0144ski",
                "operator:type": "government",
                "amenity": "school",
                "note": "Parent RSPO: 50367"
            }
        },
        {
            "id": 81685,
            "type": "Feature",
            "geometry": {
                "type": "Point",
                "coordinates": [
                    22.8898459,
                    51.2937102
                ]
            },
            "properties": {
                "isced:level": "3",
                "ref:rspo": 81685,
                "official_name": "Liceum Og\u00f3lnokszta\u0142c\u0105ce dla Doros\u0142ych w \u0141\u0119cznej",
                "name": "Liceum Og\u00f3lnokszta\u0142c\u0105ce dla Doros\u0142ych w \u0141\u0119cznej",
                "addr:postcode": "21-010",
                "addr:city": "\u0141\u0119czna",
                "addr:street": "Bogdanowicza",
                "addr:housenumber": "9",
                "addr:city:simc": 956388,
                "addr:street:sym_ul": 33261,
                "phone": "+48 815315464",
                "email": "zsleczna@gmail.com",
                "website": "http:\/\/kkjagiellonczyk.pl",
                "ref:regon": "061485027",
                "operator": "Powiat \u0141\u0119czy\u0144ski",
                "operator:type": "government",
                "amenity": "school",
                "note": "Parent RSPO: 50367"
            }
        },
        {
            "id": 81677,
            "type": "Feature",
            "geometry": {
                "type": "Point",
                "coordinates": [
                    22.8898459,
                    51.2936802
                ]
            },
            "properties": {
                "isced:level": "3",
                "ref:rspo": 81677,
                "official_name": "Technikum G\u00f3rnicze I Politechniczne w \u0141\u0119cznej",
                "name": "Technikum G\u00f3rnicze I Politechniczne w \u0141\u0119cznej",
                "addr:postcode": "21-010",
                "addr:city": "\u0141\u0119czna",
                "addr:street": "Bogdanowicza",
                "addr:housenumber": "9",
                "addr:city:simc": 956388,
                "addr:street:sym_ul": 33261,
                "phone": "+48 817521257",
                "email": "zsg@zsg-leczna.pl",
                "website": "http:\/\/zsg-leczna.pl",
                "ref:regon": "060433347",
                "operator": "Powiat \u0141\u0119czy\u0144ski",
                "operator:type": "government",
                "amenity": "school",
                "note": "Parent RSPO: 50368"
            }
        },
        {
            "id": 122631,
            "type": "Feature",
            "geometry": {
                "type": "Point",
                "coordinates": [
                    22.8898459,
                    51.2936502
                ]
            },
            "properties": {
                "isced:level": "3",
                "ref:rspo": 122631,
                "official_name": "Bran\u017cowa Szko\u0142a G\u00f3rnicza I Stopnia w Zespole Szk\u00f3\u0142 G\u00f3rniczych w \u0141\u0119cznej",
                "name": "Bran\u017cowa Szko\u0142a G\u00f3rnicza I Stopnia w Zespole Szk\u00f3\u0142 G\u00f3rniczych w \u0141\u0119cznej",
                "addr:postcode": "21-010",
                "addr:city": "\u0141\u0119czna",
                "addr:street": "Bogdanowicza",
                "addr:housenumber": "9",
                "addr:city:simc": 956388,
                "addr:street:sym_ul": 33261,
                "phone": "+48 817521257",
                "email": "zsg@zsg-leczna.pl",
                "ref:regon": "061665960",
                "operator": "Powiat \u0141\u0119czy\u0144ski",
                "operator:type": "government",
                "amenity": "school",
                "note": "Parent RSPO: 50368"
            }
        },
        {
            "id": 128781,
            "type": "Feature",
            "geometry": {
                "type": "Point",
                "coordinates": [
                    22.89258,
                    51.29501
                ]
            },
            "properties": {
                "ref:rspo": 128781,
                "official_name": "Prywatna Poradnia Psychologiczno-Pedagogiczna \"Sto Pociech\"",
                "name": "Prywatna Poradnia Psychologiczno-Pedagogiczna \"Sto Pociech\"",
                "addr:postcode": "21-010",
                "addr:city": "\u0141\u0119czna",
                "addr:street": "Obro\u0144c\u00f3w Pokoju",
                "addr:housenumber": "7",
                "addr:city:simc": 956388,
                "addr:street:sym_ul": 14642,
                "phone": "+48 695139150",
                "email": "stopociech.leczna@gmail.com",
                "ref:regon": "362392910",
                "operator": "Joanna Mirowska-Wieczorek",
                "operator:type": "private",
                "healthcare": "counselling",
                "counselling_type": "education",
                "fixme": "w zale\u017cno\u015bci od przedmiotu dzia\u0142alno\u015bci (np. healthcare=counselling + counselling_type=education albo healthcare=psychotherapist)"
            }
        },
        {
            "id": 8778,
            "type": "Feature",
            "geometry": {
                "type": "Point",
                "coordinates": [
                    22.8906,
                    51.29551
                ]
            },
            "properties": {
                "ref:rspo": 8778,
                "official_name": "Przedszkole Publiczne Nr 4 w \u0141\u0119cznej",
                "name": "Przedszkole Publiczne Nr 4 w \u0141\u0119cznej",
                "addr:postcode": "21-010",
                "addr:city": "\u0141\u0119czna",
                "addr:street": "Obro\u0144c\u00f3w Pokoju",
                "addr:housenumber": "13",
                "addr:city:simc": 956388,
                "addr:street:sym_ul": 14642,
                "phone": "+48 817521637",
                "email": "pp4@przedszkole.leczna.pl",
                "website": "http:\/\/www.przedszkole.leczna.pl",
                "ref:regon": "060700245",
                "ref:vatin": "PL5050115334",
                "operator": "Gmina \u0141\u0119czna",
                "operator:type": "government",
                "amenity": "kindergarten"
            }
        },
        {
            "id": 8777,
            "type": "Feature",
            "geometry": {
                "type": "Point",
                "coordinates": [
                    22.89599,
                    51.29589
                ]
            },
            "properties": {
                "ref:rspo": 8777,
                "official_name": "Przedszkole Publiczne Nr 3 w \u0141\u0119cznej",
                "name": "Przedszkole Publiczne Nr 3 w \u0141\u0119cznej",
                "addr:postcode": "21-010",
                "addr:city": "\u0141\u0119czna",
                "addr:street": "Braci W\u00f3jcickich",
                "addr:housenumber": "29",
                "addr:city:simc": 956388,
                "addr:street:sym_ul": 29316,
                "phone": "+48 817521369",
                "email": "przedszkole3leczna@onet.pl",
                "website": "http:\/\/www.przedszkolenr3.leczna.pl",
                "ref:regon": "060700222",
                "ref:vatin": "PL5050115311",
                "operator": "Gmina \u0141\u0119czna",
                "operator:type": "government",
                "amenity": "kindergarten"
            }
        },
        {
            "id": 17077,
            "type": "Feature",
            "geometry": {
                "type": "Point",
                "coordinates": [
                    22.88072,
                    51.29966
                ]
            },
            "properties": {
                "ref:rspo": 17077,
                "official_name": "Przedszkole Prywatne Casper w \u0141\u0119cznej",
                "name": "Przedszkole Prywatne Casper w \u0141\u0119cznej",
                "addr:postcode": "21-010",
                "addr:city": "\u0141\u0119czna",
                "addr:street": "Magnoliowa",
                "addr:housenumber": "4",
                "addr:city:simc": 956388,
                "addr:street:sym_ul": 11908,
                "phone": "+48 513727291",
                "email": "kamila@przedszkolecasper.eu",
                "website": "http:\/\/leczna.przedszkolecasper.eu",
                "ref:regon": "061462813",
                "ref:vatin": "PL7122807322",
                "operator": "Kamila Skrzypczy\u0144ska",
                "operator:type": "private",
                "amenity": "kindergarten"
            }
        },
        {
            "id": 50364,
            "type": "Feature",
            "geometry": {
                "type": "Point",
                "coordinates": [
                    22.8901499,
                    51.29983
                ]
            },
            "properties": {
                "ref:rspo": 50364,
                "official_name": "Poradnia Psychologiczno-Pedagogiczna w \u0141\u0119cznej",
                "name": "Poradnia Psychologiczno-Pedagogiczna w \u0141\u0119cznej",
                "addr:postcode": "21-010",
                "addr:city": "\u0141\u0119czna",
                "addr:street": "Aleja Jana Paw\u0142a II",
                "addr:housenumber": "95",
                "addr:city:simc": 956388,
                "addr:street:sym_ul": 33262,
                "phone": "+48 815315337",
                "email": "ppp.leczna@op.pl",
                "website": "http:\/\/www.pppleczna.pl",
                "ref:regon": "430411233",
                "ref:vatin": "PL7131045900",
                "operator": "Powiat \u0141\u0119czy\u0144ski",
                "operator:type": "government",
                "healthcare": "counselling",
                "counselling_type": "education",
                "fixme": "w zale\u017cno\u015bci od przedmiotu dzia\u0142alno\u015bci (np. healthcare=counselling + counselling_type=education albo healthcare=psychotherapist)"
            }
        },
        {
            "id": 132169,
            "type": "Feature",
            "geometry": {
                "type": "Point",
                "coordinates": [
                    22.89314,
                    51.30262
                ]
            },
            "properties": {
                "ref:rspo": 132169,
                "official_name": "Przedszkole Niepubliczne \"Mali Odkrywcy\"",
                "name": "Przedszkole Niepubliczne \"Mali Odkrywcy\"",
                "addr:postcode": "21-010",
                "addr:city": "\u0141\u0119czna",
                "addr:street": "Stanis\u0142awa Staszica",
                "addr:housenumber": "15",
                "addr:city:simc": 956388,
                "addr:street:sym_ul": 21065,
                "phone": "+48 509221386",
                "email": "wiki5544@wp.pl",
                "website": "http:\/\/www.maliodkrywcyleczna.pl",
                "ref:regon": "365491498",
                "operator": "Miros\u0142aw Go\u0142\u0119biowski",
                "operator:type": "private",
                "amenity": "kindergarten"
            }
        },
        {
            "id": 8776,
            "type": "Feature",
            "geometry": {
                "type": "Point",
                "coordinates": [
                    22.8936802,
                    51.302644
                ]
            },
            "properties": {
                "ref:rspo": 8776,
                "official_name": "Przedszkole Publiczne Nr 2 w \u0141\u0119cznej",
                "name": "Przedszkole Publiczne Nr 2 w \u0141\u0119cznej",
                "addr:postcode": "21-010",
                "addr:city": "\u0141\u0119czna",
                "addr:street": "Stanis\u0142awa Staszica",
                "addr:housenumber": "19",
                "addr:city:simc": 956388,
                "addr:street:sym_ul": 21065,
                "phone": "+48 817520378",
                "email": "przedszkole2leczna@onet.pl",
                "website": "http:\/\/www.przedszkolenr2.leczna.pl",
                "ref:regon": "060700251",
                "ref:vatin": "PL5050115305",
                "operator": "Gmina \u0141\u0119czna",
                "operator:type": "government",
                "amenity": "kindergarten"
            }
        },
        {
            "id": 19120,
            "type": "Feature",
            "geometry": {
                "type": "Point",
                "coordinates": [
                    22.8895,
                    51.3055499
                ]
            },
            "properties": {
                "isced:level": "1;2",
                "ref:rspo": 19120,
                "official_name": "Szko\u0142a Podstawowa Nr 2 w \u0141\u0119cznej im. Tadeusza Ko\u015bciuszki",
                "name": "Szko\u0142a Podstawowa Nr 2 w \u0141\u0119cznej",
                "addr:postcode": "21-010",
                "addr:city": "\u0141\u0119czna",
                "addr:street": "Szkolna",
                "addr:housenumber": "53",
                "addr:city:simc": 956388,
                "addr:street:sym_ul": 21970,
                "phone": "+48 815315593",
                "email": "info@sp2leczna.pl",
                "website": "http:\/\/www.sp2leczna.pl",
                "ref:regon": "430396427",
                "ref:vatin": "PL5050125309",
                "operator": "Gmina \u0141\u0119czna",
                "operator:type": "government",
                "amenity": "school"
            }
        },
        {
            "id": 128779,
            "type": "Feature",
            "geometry": {
                "type": "Point",
                "coordinates": [
                    22.8895,
                    51.3055199
                ]
            },
            "properties": {
                "isced:level": "4",
                "ref:rspo": 128779,
                "official_name": "Policealna Szko\u0142a Zawodowa \"Edukator\"",
                "name": "Policealna Szko\u0142a Zawodowa \"Edukator\"",
                "addr:postcode": "21-010",
                "addr:city": "\u0141\u0119czna",
                "addr:street": "Szkolna",
                "addr:housenumber": "53",
                "addr:city:simc": 956388,
                "addr:street:sym_ul": 21970,
                "ref:regon": "362392749",
                "operator": "Grzegorz Turewicz",
                "operator:type": "private",
                "amenity": "college"
            }
        },
        {
            "id": 17076,
            "type": "Feature",
            "geometry": {
                "type": "Point",
                "coordinates": [
                    22.88663,
                    51.30581
                ]
            },
            "properties": {
                "ref:rspo": 17076,
                "official_name": "Przedszkole Niepubliczne Anio\u0142ek w \u0141\u0119cznej",
                "name": "Przedszkole Niepubliczne Anio\u0142ek w \u0141\u0119cznej",
                "addr:postcode": "21-010",
                "addr:city": "\u0141\u0119czna",
                "addr:street": "\u015awi\u0119toduska",
                "addr:housenumber": "2",
                "addr:city:simc": 956388,
                "addr:street:sym_ul": 22546,
                "phone": "+48 814448894",
                "email": "biuro@przedszkole-aniolek.pl",
                "website": "http:\/\/www.przedszkole-aniolek.pl",
                "ref:regon": "061462718",
                "operator": "Anna Skrzypek-Wo\u017aniacka",
                "operator:type": "private",
                "amenity": "kindergarten"
            }
        },
        {
            "id": 50370,
            "type": "Feature",
            "geometry": {
                "type": "Point",
                "coordinates": [
                    22.88478,
                    51.31027
                ]
            },
            "properties": {
                "ref:rspo": 50370,
                "official_name": "O\u015brodek Rewalidacyjno-Wychowawczy w \u0141\u0119cznej",
                "name": "O\u015brodek Rewalidacyjno-Wychowawczy w \u0141\u0119cznej",
                "addr:postcode": "21-010",
                "addr:city": "\u0141\u0119czna",
                "addr:street": "Litewska",
                "addr:housenumber": "16",
                "addr:city:simc": 956388,
                "addr:street:sym_ul": 11223,
                "phone": "+48 817522655",
                "email": "p.wawer@orw.powiatleczynski.pl",
                "website": "http:\/\/www.orw-leczna.pl",
                "ref:regon": "061115916",
                "ref:vatin": "PL5050121010",
                "operator": "Powiat \u0141\u0119czy\u0144ski",
                "operator:type": "government",
                "amenity": "school"
            }
        },
        {
            "id": 8775,
            "type": "Feature",
            "geometry": {
                "type": "Point",
                "coordinates": [
                    22.97169,
                    51.31071
                ]
            },
            "properties": {
                "ref:rspo": 8775,
                "official_name": "Przedszkole Publiczne Nr 1 w \u0141\u0119cznej",
                "name": "Przedszkole Publiczne Nr 1 w \u0141\u0119cznej",
                "addr:postcode": "21-010",
                "addr:city": "\u0141\u0119czna",
                "addr:street": "Tysi\u0105clecia",
                "addr:housenumber": "12",
                "addr:city:simc": 956388,
                "addr:street:sym_ul": 23270,
                "phone": "+48 817520521",
                "email": "przedszkole1leczna@onet.pl",
                "website": "http:\/\/www.przedszkolenr1.leczna.pl",
                "ref:regon": "060700239",
                "ref:vatin": "PL5050115328",
                "operator": "Gmina \u0141\u0119czna",
                "operator:type": "government",
                "amenity": "kindergarten"
            }
        },
        {
            "id": 17589,
            "type": "Feature",
            "geometry": {
                "type": "Point",
                "coordinates": [
                    22.826341,
                    51.313592
                ]
            },
            "properties": {
                "isced:level": "1;2",
                "ref:rspo": 17589,
                "official_name": "Szko\u0142a Podstawowa w Zofi\u00f3wce",
                "name": "Szko\u0142a Podstawowa w Zofi\u00f3wce",
                "addr:postcode": "21-010",
                "addr:place": "Zofi\u00f3wka",
                "addr:housenumber": "85",
                "addr:city:simc": 385655,
                "phone": "+48 817521603",
                "email": "spzofiowka@vp.pl",
                "website": "http:\/\/szkolyleczna.szkolnastrona.pl\/",
                "ref:regon": "061463474",
                "operator": "Stowarzyszenie Nauczycieli I Wychowawc\u00f3w \"Przyjazna Szko\u0142a\"",
                "operator:type": "ngo",
                "amenity": "school"
            }
        }
    ]
}