{
    "type": "FeatureCollection",
    "features": [
        {
            "id": 78998,
            "type": "Feature",
            "geometry": {
                "type": "Point",
                "coordinates": [
                    22.90514,
                    51.34482
                ]
            },
            "properties": {
                "ref:rspo": 78998,
                "official_name": "Zesp\u00f3\u0142 Szk\u00f3\u0142 Nr 1 w Ludwinie",
                "name": "Zesp\u00f3\u0142 Szk\u00f3\u0142 Nr 1 w Ludwinie",
                "addr:postcode": "21-075",
                "addr:place": "Ludwin-Kolonia",
                "addr:housenumber": "20",
                "addr:city:simc": 384940,
                "phone": "+48 817570088",
                "email": "szkolaludwin@gmail.com",
                "website": "http:\/\/www.zs1ludwin.szkolnastrona.pl",
                "ref:regon": "060013728",
                "ref:vatin": "PL5050026547",
                "operator": "Gmina Ludwin",
                "operator:type": "government",
                "landuse": "education",
                "fixme": "amenity=school, amenity=college albo landuse=education w zale\u017cno\u015bci od tego, jakie plac\u00f3wki wchodz\u0105 w sk\u0142ad zespo\u0142u. Sprawd\u017a, kiedy stosowa\u0107 amenity=* a kiedy landuse=education.",
                "note": "Children RSPO: 91610;91624"
            }
        },
        {
            "id": 91610,
            "type": "Feature",
            "geometry": {
                "type": "Point",
                "coordinates": [
                    22.90514,
                    51.344789999999996
                ]
            },
            "properties": {
                "isced:level": "1;2",
                "ref:rspo": 91610,
                "official_name": "Zesp\u00f3\u0142 Szk\u00f3\u0142 Nr 1 Szko\u0142a Podstawowa w Ludwinie",
                "name": "Zesp\u00f3\u0142 Szk\u00f3\u0142 Nr 1 Szko\u0142a Podstawowa w Ludwinie",
                "addr:postcode": "21-075",
                "addr:place": "Ludwin-Kolonia",
                "addr:housenumber": "20",
                "addr:city:simc": 384940,
                "phone": "+48 817570088",
                "email": "szkolaludwin@gmail.com",
                "website": "http:\/\/www.zs1ludwin.szkolnastrona.pl",
                "ref:regon": "000639972",
                "ref:vatin": "PL7132420955",
                "operator": "Gmina Ludwin",
                "operator:type": "government",
                "amenity": "school",
                "note": "Parent RSPO: 78998"
            }
        },
        {
            "id": 91624,
            "type": "Feature",
            "geometry": {
                "type": "Point",
                "coordinates": [
                    22.90514,
                    51.34476
                ]
            },
            "properties": {
                "ref:rspo": 91624,
                "official_name": "Zesp\u00f3\u0142 Szk\u00f3\u0142 Nr 1 Przedszkole Publiczne w Ludwinie",
                "name": "Zesp\u00f3\u0142 Szk\u00f3\u0142 Nr 1 Przedszkole Publiczne w Ludwinie",
                "addr:postcode": "21-075",
                "addr:place": "Ludwin-Kolonia",
                "addr:housenumber": "20",
                "addr:city:simc": 384940,
                "phone": "+48 817570088",
                "email": "szkolaludwin@gmail.com",
                "website": "http:\/\/www.zs1ludwin.szkolnastrona.pl",
                "ref:regon": "060000832",
                "ref:vatin": "PL5050019843",
                "operator": "Gmina Ludwin",
                "operator:type": "government",
                "amenity": "kindergarten",
                "note": "Parent RSPO: 78998"
            }
        },
        {
            "id": 80348,
            "type": "Feature",
            "geometry": {
                "type": "Point",
                "coordinates": [
                    22.95075,
                    51.34484
                ]
            },
            "properties": {
                "isced:level": "1;2",
                "ref:rspo": 80348,
                "official_name": "Szko\u0142a Podstawowa im. Jana Brzechwy w Dratowie",
                "name": "Szko\u0142a Podstawowa",
                "addr:postcode": "21-075",
                "addr:place": "Drat\u00f3w",
                "addr:housenumber": "84",
                "addr:city:simc": 384839,
                "phone": "+48 817570016",
                "email": "szkoladratow@wp.pl",
                "website": "http:\/\/spdratow.szkolna.net",
                "ref:regon": "001180694",
                "ref:vatin": "PL7132420949",
                "operator": "Gmina Ludwin",
                "operator:type": "government",
                "amenity": "school"
            }
        },
        {
            "id": 50369,
            "type": "Feature",
            "geometry": {
                "type": "Point",
                "coordinates": [
                    22.91234,
                    51.34626
                ]
            },
            "properties": {
                "ref:rspo": 50369,
                "official_name": "Zesp\u00f3\u0142 Szk\u00f3\u0142 w Ludwinie",
                "name": "Zesp\u00f3\u0142 Szk\u00f3\u0142 w Ludwinie",
                "addr:postcode": "21-075",
                "addr:place": "Ludwin",
                "addr:housenumber": "30a",
                "addr:city:simc": 384934,
                "phone": "+48 817570043",
                "email": "zsludwin@zsludwin.pl",
                "website": "http:\/\/zsludwin.pl",
                "ref:regon": "431172581",
                "ref:vatin": "PL7131781094",
                "operator": "Powiat \u0141\u0119czy\u0144ski",
                "operator:type": "government",
                "landuse": "education",
                "fixme": "amenity=school, amenity=college albo landuse=education w zale\u017cno\u015bci od tego, jakie plac\u00f3wki wchodz\u0105 w sk\u0142ad zespo\u0142u. Sprawd\u017a, kiedy stosowa\u0107 amenity=* a kiedy landuse=education.",
                "note": "Children RSPO: 81689;81691;81696;125184"
            }
        },
        {
            "id": 275302,
            "type": "Feature",
            "geometry": {
                "type": "Point",
                "coordinates": [
                    22.91234,
                    51.34623
                ]
            },
            "properties": {
                "ref:rspo": 275302,
                "official_name": "Przedszkole Specjalne w Ludwinie",
                "name": "Przedszkole Specjalne w Ludwinie",
                "addr:postcode": "21-075",
                "addr:place": "Ludwin",
                "addr:housenumber": "30A",
                "addr:city:simc": 384934,
                "phone": "+48 815317001",
                "email": "przedszkole.leczna@wp.pl",
                "website": "http:\/\/razemwarto.edu.pl",
                "ref:regon": "386799018",
                "operator": "Powiat \u0141\u0119czy\u0144ski",
                "operator:type": "government",
                "amenity": "kindergarten"
            }
        },
        {
            "id": 81689,
            "type": "Feature",
            "geometry": {
                "type": "Point",
                "coordinates": [
                    22.91234,
                    51.3462
                ]
            },
            "properties": {
                "isced:level": "3",
                "ref:rspo": 81689,
                "official_name": "Technikum w Ludwinie",
                "name": "Technikum w Ludwinie",
                "addr:postcode": "21-075",
                "addr:place": "Ludwin",
                "addr:housenumber": "30a",
                "addr:city:simc": 384934,
                "phone": "+48 817570043",
                "email": "zsludwin@zsludwin.pl",
                "website": "http:\/\/zsludwin.pl",
                "ref:regon": "431225716",
                "operator": "Powiat \u0141\u0119czy\u0144ski",
                "operator:type": "government",
                "amenity": "school",
                "note": "Parent RSPO: 50369"
            }
        },
        {
            "id": 81691,
            "type": "Feature",
            "geometry": {
                "type": "Point",
                "coordinates": [
                    22.91234,
                    51.34617
                ]
            },
            "properties": {
                "isced:level": "3",
                "ref:rspo": 81691,
                "official_name": "Bran\u017cowa Szko\u0142a I Stopnia w Ludwinie",
                "name": "Bran\u017cowa Szko\u0142a I Stopnia w Ludwinie",
                "addr:postcode": "21-075",
                "addr:place": "Ludwin",
                "addr:housenumber": "30a",
                "addr:city:simc": 384934,
                "phone": "+48 817570043",
                "email": "zsludwin@zsludwin.pl",
                "website": "http:\/\/zsludwin.pl",
                "ref:regon": "432520015",
                "operator": "Powiat \u0141\u0119czy\u0144ski",
                "operator:type": "government",
                "amenity": "school",
                "note": "Parent RSPO: 50369"
            }
        },
        {
            "id": 81696,
            "type": "Feature",
            "geometry": {
                "type": "Point",
                "coordinates": [
                    22.91234,
                    51.34614
                ]
            },
            "properties": {
                "isced:level": "4",
                "ref:rspo": 81696,
                "official_name": "Szko\u0142a Policealna w Ludwinie",
                "name": "Szko\u0142a Policealna w Ludwinie",
                "addr:postcode": "21-075",
                "addr:place": "Ludwin",
                "addr:housenumber": "30a",
                "addr:city:simc": 384934,
                "phone": "+48 817570043",
                "email": "zsludwin@zsludwin.pl",
                "website": "http:\/\/zsludwin.pl",
                "ref:regon": "431225691",
                "operator": "Powiat \u0141\u0119czy\u0144ski",
                "operator:type": "government",
                "amenity": "college",
                "note": "Parent RSPO: 50369"
            }
        },
        {
            "id": 125184,
            "type": "Feature",
            "geometry": {
                "type": "Point",
                "coordinates": [
                    22.91234,
                    51.34611
                ]
            },
            "properties": {
                "isced:level": "3",
                "ref:rspo": 125184,
                "official_name": "Liceum Og\u00f3lnokszta\u0142c\u0105ce dla Doros\u0142ych",
                "name": "Liceum Og\u00f3lnokszta\u0142c\u0105ce dla Doros\u0142ych",
                "addr:postcode": "21-075",
                "addr:place": "Ludwin",
                "addr:housenumber": "30a",
                "addr:city:simc": 384934,
                "phone": "+48 817570043",
                "email": "zsludwin@zsludwin.pl",
                "website": "http:\/\/zsludwin.pl",
                "ref:regon": "061730892",
                "operator": "Powiat \u0141\u0119czy\u0144ski",
                "operator:type": "government",
                "amenity": "school",
                "note": "Parent RSPO: 50369"
            }
        },
        {
            "id": 80572,
            "type": "Feature",
            "geometry": {
                "type": "Point",
                "coordinates": [
                    22.8453,
                    51.35331
                ]
            },
            "properties": {
                "isced:level": "1;2",
                "ref:rspo": 80572,
                "official_name": "Szko\u0142a Podstawowa im.ks. Jana Twardowskiego w Zezulinie",
                "name": "Szko\u0142a Podstawowa im.ks. Jana Twardowskiego w Zezulinie",
                "addr:postcode": "21-075",
                "addr:place": "Zezulin Ni\u017cszy",
                "addr:housenumber": "70",
                "addr:city:simc": 385023,
                "phone": "+48 817570006",
                "email": "sp.zezulin@wp.pl",
                "website": "http:\/\/www.spzezulin.szkolnastrona.pl",
                "ref:regon": "001180702",
                "ref:vatin": "PL7132420961",
                "operator": "Gmina Ludwin",
                "operator:type": "government",
                "amenity": "school"
            }
        },
        {
            "id": 81812,
            "type": "Feature",
            "geometry": {
                "type": "Point",
                "coordinates": [
                    23.00939,
                    51.39973
                ]
            },
            "properties": {
                "isced:level": "1;2",
                "ref:rspo": 81812,
                "official_name": "Szko\u0142a Podstawowa im.marii Konopnickiej w Piasecznie",
                "name": "Szko\u0142a Podstawowa im.marii Konopnickiej w Piasecznie",
                "addr:postcode": "21-075",
                "addr:place": "Piaseczno",
                "addr:housenumber": "37",
                "addr:city:simc": 384957,
                "phone": "+48 817570815",
                "email": "sp.piaseczno@wp.pl",
                "website": "http:\/\/www.piaseczno.ugu.pl",
                "ref:regon": "001180719",
                "ref:vatin": "PL7132420984",
                "operator": "Gmina Ludwin",
                "operator:type": "government",
                "amenity": "school"
            }
        }
    ]
}