{
    "type": "FeatureCollection",
    "features": [
        {
            "id": 118714,
            "type": "Feature",
            "geometry": {
                "type": "Point",
                "coordinates": [
                    22.72031,
                    51.33197
                ]
            },
            "properties": {
                "isced:level": "1;2",
                "ref:rspo": 118714,
                "official_name": "Szko\u0142a Podstawowa im. Marii Konopnickiej w Charl\u0119\u017cu",
                "name": "Szko\u0142a Podstawowa",
                "addr:country": "PL",
                "addr:postcode": "21-077",
                "addr:place": "Charl\u0119\u017c-Kolonia",
                "addr:housenumber": "17",
                "addr:teryt:simc": 994466,
                "contact:phone": "+48 817577045",
                "contact:email": "spcharlez@gmail.com",
                "contact:website": "http:\/\/www.spcharlez.pl",
                "ref:regon": "061588514",
                "ref:vatin": "PL7132430882",
                "operator": "Stowarzyszenie O\u015bwiatowe \"Cjz\"",
                "operator:type": "ngo",
                "amenity": "school"
            }
        },
        {
            "id": 50365,
            "type": "Feature",
            "geometry": {
                "type": "Point",
                "coordinates": [
                    22.77954,
                    51.33484
                ]
            },
            "properties": {
                "ref:rspo": 50365,
                "official_name": "Zesp\u00f3\u0142 Szk\u00f3\u0142 Rolniczych w Kijanach",
                "name": "Zesp\u00f3\u0142 Szk\u00f3\u0142 Rolniczych w Kijanach",
                "addr:country": "PL",
                "addr:postcode": "21-077",
                "addr:place": "Kijany",
                "addr:housenumber": "19",
                "addr:teryt:simc": 391271,
                "contact:phone": "+48 817527561",
                "contact:email": "sekretariat@zsrkijany.pl",
                "contact:website": "http:\/\/zsrkijany.pl",
                "ref:regon": "000095012",
                "ref:vatin": "PL7131007383",
                "operator": "Powiat \u0141\u0119czy\u0144ski",
                "operator:type": "government",
                "landuse": "education",
                "fixme": "amenity=school, amenity=college albo landuse=education w zale\u017cno\u015bci od tego, jakie plac\u00f3wki wchodz\u0105 w sk\u0142ad zespo\u0142u. Sprawd\u017a, kiedy stosowa\u0107 amenity=* a kiedy landuse=education.",
                "note": "Children RSPO: 88924;88926;88927;88931;88933;88935;122630;129351"
            }
        },
        {
            "id": 88439,
            "type": "Feature",
            "geometry": {
                "type": "Point",
                "coordinates": [
                    22.77954,
                    51.33481
                ]
            },
            "properties": {
                "ref:rspo": 88439,
                "official_name": "Przedszkole Niepubliczne Anio\u0142ek w Kijanach",
                "name": "Przedszkole Niepubliczne Anio\u0142ek w Kijanach",
                "addr:country": "PL",
                "addr:postcode": "21-077",
                "addr:place": "Kijany",
                "addr:housenumber": "19",
                "addr:teryt:simc": 391271,
                "contact:phone": "+48 502056124",
                "contact:email": "biuro@przedszkole-aniolek.pl",
                "contact:website": "http:\/\/przedszkole-aniolek.pl",
                "ref:regon": "061490005",
                "operator": "Anna Skrzypek-Wo\u017aniacka",
                "operator:type": "private",
                "amenity": "kindergarten"
            }
        },
        {
            "id": 88924,
            "type": "Feature",
            "geometry": {
                "type": "Point",
                "coordinates": [
                    22.77954,
                    51.33478
                ]
            },
            "properties": {
                "isced:level": "3",
                "ref:rspo": 88924,
                "official_name": "Liceum Og\u00f3lnokszta\u0142cace w Kijanach",
                "name": "Liceum Og\u00f3lnokszta\u0142cace w Kijanach",
                "addr:country": "PL",
                "addr:postcode": "21-077",
                "addr:place": "Kijany",
                "addr:housenumber": "19",
                "addr:teryt:simc": 391271,
                "contact:phone": "+48 817577063",
                "contact:email": "sekretariat@zsrkijany.pl",
                "contact:website": "http:\/\/zsrkijany.pl",
                "ref:regon": "430529644",
                "operator": "Powiat \u0141\u0119czy\u0144ski",
                "operator:type": "government",
                "amenity": "school",
                "note": "Parent RSPO: 50365"
            }
        },
        {
            "id": 88926,
            "type": "Feature",
            "geometry": {
                "type": "Point",
                "coordinates": [
                    22.77954,
                    51.33475
                ]
            },
            "properties": {
                "isced:level": "3",
                "ref:rspo": 88926,
                "official_name": "Bran\u017cowa Szko\u0142a I Stopnia w Kijanach",
                "name": "Bran\u017cowa Szko\u0142a I Stopnia w Kijanach",
                "addr:country": "PL",
                "addr:postcode": "21-077",
                "addr:place": "Kijany",
                "addr:housenumber": "19",
                "addr:teryt:simc": 391271,
                "contact:phone": "+48 817577063",
                "contact:email": "sekretariat@zsrkijany.pl",
                "contact:website": "http:\/\/zsrkijany.pl",
                "ref:regon": "431258667",
                "operator": "Powiat \u0141\u0119czy\u0144ski",
                "operator:type": "government",
                "amenity": "school",
                "note": "Parent RSPO: 50365"
            }
        },
        {
            "id": 88927,
            "type": "Feature",
            "geometry": {
                "type": "Point",
                "coordinates": [
                    22.77954,
                    51.33472
                ]
            },
            "properties": {
                "isced:level": "3",
                "ref:rspo": 88927,
                "official_name": "Technikum w Kijanach",
                "name": "Technikum w Kijanach",
                "addr:country": "PL",
                "addr:postcode": "21-077",
                "addr:place": "Kijany",
                "addr:housenumber": "19",
                "addr:teryt:simc": 391271,
                "contact:phone": "+48 817527561",
                "contact:email": "sekretariat@zsrkijany.pl",
                "contact:website": "http:\/\/zsrkijany.pl",
                "ref:regon": "432517830",
                "operator": "Powiat \u0141\u0119czy\u0144ski",
                "operator:type": "government",
                "amenity": "school",
                "note": "Parent RSPO: 50365"
            }
        },
        {
            "id": 88931,
            "type": "Feature",
            "geometry": {
                "type": "Point",
                "coordinates": [
                    22.77954,
                    51.33469
                ]
            },
            "properties": {
                "isced:level": "3",
                "ref:rspo": 88931,
                "official_name": "Liceum Og\u00f3lnokszta\u0142c\u0105ce dla Doros\u0142ych w Kijanach",
                "name": "Liceum Og\u00f3lnokszta\u0142c\u0105ce dla Doros\u0142ych w Kijanach",
                "addr:country": "PL",
                "addr:postcode": "21-077",
                "addr:place": "Kijany",
                "addr:housenumber": "19",
                "addr:teryt:simc": 391271,
                "contact:phone": "+48 817577063",
                "contact:email": "sekretariat@zsrkijany.pl",
                "contact:website": "http:\/\/zsrkijany.pl",
                "ref:regon": "061490695",
                "operator": "Powiat \u0141\u0119czy\u0144ski",
                "operator:type": "government",
                "amenity": "school",
                "note": "Parent RSPO: 50365"
            }
        },
        {
            "id": 88933,
            "type": "Feature",
            "geometry": {
                "type": "Point",
                "coordinates": [
                    22.77954,
                    51.33466
                ]
            },
            "properties": {
                "isced:level": "4",
                "ref:rspo": 88933,
                "official_name": "Szko\u0142a Policealna w Kijanach",
                "name": "Szko\u0142a Policealna w Kijanach",
                "addr:country": "PL",
                "addr:postcode": "21-077",
                "addr:place": "Kijany",
                "addr:housenumber": "19",
                "addr:teryt:simc": 391271,
                "contact:phone": "+48 817577063",
                "contact:email": "sekretariat@zsrkijany.pl",
                "contact:website": "http:\/\/zsrkijany.pl",
                "ref:regon": "431258615",
                "operator": "Powiat \u0141\u0119czy\u0144ski",
                "operator:type": "government",
                "amenity": "college",
                "note": "Parent RSPO: 50365"
            }
        },
        {
            "id": 88935,
            "type": "Feature",
            "geometry": {
                "type": "Point",
                "coordinates": [
                    22.77954,
                    51.33463
                ]
            },
            "properties": {
                "ref:rspo": 88935,
                "official_name": "Centrum Kszta\u0142cenia Ustawicznego w Kijanach",
                "name": "Centrum Kszta\u0142cenia Ustawicznego w Kijanach",
                "addr:country": "PL",
                "addr:postcode": "21-077",
                "addr:place": "Kijany",
                "addr:housenumber": "19",
                "addr:teryt:simc": 391271,
                "contact:phone": "+48 817577063",
                "contact:email": "sekretariat@zsrkijany.pl",
                "contact:website": "http:\/\/zsrkijany.pl",
                "ref:regon": "060686605",
                "operator": "Powiat \u0141\u0119czy\u0144ski",
                "operator:type": "government",
                "fixme": "w zale\u017cno\u015bci od przedmiotu dzia\u0142alno\u015bci (np. amenity=training + training=*, amenity=dancing_school, amenity=language_school, amenity=music_school)",
                "note": "Parent RSPO: 50365"
            }
        },
        {
            "id": 122630,
            "type": "Feature",
            "geometry": {
                "type": "Point",
                "coordinates": [
                    22.77954,
                    51.3346
                ]
            },
            "properties": {
                "ref:rspo": 122630,
                "official_name": "Szkolne Schronisko M\u0142odzie\u017cowe w Zespole Szk\u00f3\u0142 Rolniczych w Kijanach",
                "name": "Szkolne Schronisko M\u0142odzie\u017cowe w Zespole Szk\u00f3\u0142 Rolniczych w Kijanach",
                "addr:country": "PL",
                "addr:postcode": "21-077",
                "addr:place": "Kijany",
                "addr:housenumber": "19",
                "addr:teryt:simc": 391271,
                "contact:phone": "+48 817577063",
                "ref:regon": "061665953",
                "operator": "Powiat \u0141\u0119czy\u0144ski",
                "operator:type": "government",
                "tourism": "hostel",
                "note": "Parent RSPO: 50365"
            }
        },
        {
            "id": 129351,
            "type": "Feature",
            "geometry": {
                "type": "Point",
                "coordinates": [
                    22.77954,
                    51.33457
                ]
            },
            "properties": {
                "ref:rspo": 129351,
                "official_name": "Centrum Kszta\u0142cenia Zawodowego w Zespole Szk\u00f3\u0142 Rolniczych w Kijanach",
                "name": "Centrum Kszta\u0142cenia Zawodowego w Zespole Szk\u00f3\u0142 Rolniczych w Kijanach",
                "addr:country": "PL",
                "addr:postcode": "21-077",
                "addr:place": "Kijany",
                "addr:housenumber": "19",
                "addr:teryt:simc": 391271,
                "contact:phone": "+48 817577063",
                "contact:email": "sekretariat@zsrkijany.pl",
                "ref:regon": "362565842",
                "operator": "Powiat \u0141\u0119czy\u0144ski",
                "operator:type": "government",
                "fixme": "w zale\u017cno\u015bci od przedmiotu dzia\u0142alno\u015bci (np. amenity=training + training=*, amenity=dancing_school, amenity=language_school, amenity=music_school) albo amenity=school, amenity=college, albo landuse=education w zale\u017cno\u015bci od tego, jakie plac\u00f3wki wchodz\u0105 w sk\u0142ad zespo\u0142u. Sprawd\u017a, kiedy stosowa\u0107 amenity=* a kiedy landuse=education.",
                "note": "Parent RSPO: 50365"
            }
        },
        {
            "id": 21984,
            "type": "Feature",
            "geometry": {
                "type": "Point",
                "coordinates": [
                    22.7554,
                    51.33972
                ]
            },
            "properties": {
                "isced:level": "1;2",
                "ref:rspo": 21984,
                "official_name": "Szko\u0142a Podstawowa w Spiczynie",
                "name": "Szko\u0142a Podstawowa w Spiczynie",
                "addr:country": "PL",
                "addr:postcode": "21-077",
                "addr:place": "Spiczyn",
                "addr:housenumber": "8",
                "addr:teryt:simc": 391325,
                "contact:phone": "+48 817578294",
                "contact:email": "spspiczyn@o2.pl",
                "ref:regon": "000648847",
                "ref:vatin": "PL7132434526",
                "operator": "Gmina Spiczyn",
                "operator:type": "government",
                "amenity": "school"
            }
        },
        {
            "id": 53398,
            "type": "Feature",
            "geometry": {
                "type": "Point",
                "coordinates": [
                    22.75592,
                    51.34031
                ]
            },
            "properties": {
                "ref:rspo": 53398,
                "official_name": "Gminne Przedszkole w Spiczynie",
                "name": "Gminne Przedszkole w Spiczynie",
                "addr:country": "PL",
                "addr:postcode": "21-077",
                "addr:place": "Spiczyn",
                "addr:housenumber": "8a",
                "addr:teryt:simc": 391325,
                "contact:phone": "+48 817577249",
                "contact:email": "przedszkole.spiczyn@onet.pl",
                "ref:regon": "060711378",
                "ref:vatin": "PL5050115860",
                "operator": "Gmina Spiczyn",
                "operator:type": "government",
                "amenity": "kindergarten"
            }
        },
        {
            "id": 118721,
            "type": "Feature",
            "geometry": {
                "type": "Point",
                "coordinates": [
                    22.79308,
                    51.35096
                ]
            },
            "properties": {
                "isced:level": "1;2",
                "ref:rspo": 118721,
                "official_name": "Szko\u0142a Podstawowa Im Boles\u0142awa Prusa w Janusz\u00f3wce",
                "name": "Szko\u0142a Podstawowa Im Boles\u0142awa Prusa w Janusz\u00f3wce",
                "addr:country": "PL",
                "addr:postcode": "21-077",
                "addr:place": "Janusz\u00f3wka",
                "addr:housenumber": "33a",
                "addr:teryt:simc": 391182,
                "contact:phone": "+48 817577356",
                "contact:email": "spjanuszowka@op.pl",
                "ref:regon": "061588537",
                "ref:vatin": "PL7132434489",
                "operator": "Stowarzyszenie O\u015bwiatowe \"Cjz\"",
                "operator:type": "ngo",
                "amenity": "school"
            }
        },
        {
            "id": 21947,
            "type": "Feature",
            "geometry": {
                "type": "Point",
                "coordinates": [
                    22.75722,
                    51.35724
                ]
            },
            "properties": {
                "ref:rspo": 21947,
                "official_name": "Szkolne Schronisko M\u0142odzie\u017cowe",
                "name": "Szkolne Schronisko M\u0142odzie\u017cowe",
                "addr:country": "PL",
                "addr:postcode": "21-077",
                "addr:place": "Zawieprzyce",
                "addr:housenumber": "121",
                "addr:teryt:simc": 391377,
                "contact:phone": "+48 817577012",
                "contact:email": "edyta1989.19@o2.pl",
                "contact:website": "http:\/\/www.spzawieprzyce.pl",
                "ref:regon": "432297221",
                "ref:vatin": "PL7132685599",
                "operator": "Gmina Spiczyn",
                "operator:type": "government",
                "tourism": "hostel"
            }
        },
        {
            "id": 118782,
            "type": "Feature",
            "geometry": {
                "type": "Point",
                "coordinates": [
                    22.75722,
                    51.357209999999995
                ]
            },
            "properties": {
                "isced:level": "1;2",
                "ref:rspo": 118782,
                "official_name": "Szko\u0142a Podstawowa Im Marii Sk\u0142odowskiej-Curie w Zawieprzycach",
                "name": "Szko\u0142a Podstawowa Im Marii Sk\u0142odowskiej-Curie w Zawieprzycach",
                "addr:country": "PL",
                "addr:postcode": "21-077",
                "addr:place": "Zawieprzyce",
                "addr:housenumber": "121",
                "addr:teryt:simc": 391377,
                "contact:phone": "+48 817577012",
                "contact:email": "sekretariat@spzawieprzyce.pl",
                "contact:website": "http:\/\/www.spzawieprzyce.pl",
                "ref:regon": "061589465",
                "ref:vatin": "PL7132434503",
                "operator": "Stowarzyszenie O\u015bwiatowe \"Cjz\"",
                "operator:type": "ngo",
                "amenity": "school"
            }
        },
        {
            "id": 53401,
            "type": "Feature",
            "geometry": {
                "type": "Point",
                "coordinates": [
                    22.72201,
                    51.37052
                ]
            },
            "properties": {
                "isced:level": "1;2",
                "ref:rspo": 53401,
                "official_name": "Szko\u0142a Podstawowa im. Hansa Christiana Andersena w Jawidzu",
                "name": "Szko\u0142a Podstawowa",
                "addr:country": "PL",
                "addr:postcode": "21-077",
                "addr:place": "Jawidz",
                "addr:housenumber": "109B",
                "addr:teryt:simc": 391199,
                "contact:phone": "+48 817577044",
                "contact:email": "sp_jawidz@interia.pl",
                "contact:website": "http:\/\/spjawidz.pl",
                "ref:regon": "001151280",
                "ref:vatin": "PL7132487356",
                "operator": "Gmina Spiczyn",
                "operator:type": "government",
                "amenity": "school"
            }
        }
    ]
}