{
    "type": "FeatureCollection",
    "features": [
        {
            "id": 61621,
            "type": "Feature",
            "geometry": {
                "type": "Point",
                "coordinates": [
                    21.34156,
                    52.29905
                ]
            },
            "properties": {
                "ref:rspo": 61621,
                "official_name": "Punkt Przedszkolny \"Tajemniczy Ogr\u00f3d\"",
                "name": "Punkt Przedszkolny \"Tajemniczy Ogr\u00f3d\"",
                "addr:postcode": "05-079",
                "addr:city": "Zabraniec",
                "addr:street": "D\u0142uga",
                "addr:housenumber": "21",
                "addr:city:simc": 684369,
                "addr:street:sym_ul": 3839,
                "phone": "+48 507191169",
                "email": "tajemniczyogrog44@gmail.com",
                "website": "http:\/\/www.tajemniczyogrod.net",
                "ref:regon": "146391533",
                "operator": "Dane Do Uzupe\u0142nienia",
                "operator:type": "private",
                "amenity": "kindergarten"
            }
        },
        {
            "id": 275329,
            "type": "Feature",
            "geometry": {
                "type": "Point",
                "coordinates": [
                    21.34133,
                    52.30023
                ]
            },
            "properties": {
                "ref:rspo": 275329,
                "official_name": "Zesp\u00f3\u0142 Szkolno-Przedszkolny w Po\u015bwi\u0119tnem",
                "name": "Zesp\u00f3\u0142 Szkolno-Przedszkolny w Po\u015bwi\u0119tnem",
                "addr:postcode": "05-326",
                "addr:city": "Po\u015bwi\u0119tne",
                "addr:street": "Szkolna",
                "addr:housenumber": "-",
                "addr:city:simc": 684286,
                "addr:street:sym_ul": 21970,
                "phone": "+48 257520363",
                "email": "sekretariat.zsposwietne@interia.pl",
                "website": "http:\/\/spposwietne.edupage.org",
                "ref:regon": "386825017",
                "operator": "Gmina Po\u015bwi\u0119tne",
                "operator:type": "government",
                "landuse": "education",
                "fixme": "amenity=school, amenity=college albo landuse=education w zale\u017cno\u015bci od tego, jakie plac\u00f3wki wchodz\u0105 w sk\u0142ad zespo\u0142u. Sprawd\u017a, kiedy stosowa\u0107 amenity=* a kiedy landuse=education.",
                "note": "Children RSPO: 54433;275326"
            }
        },
        {
            "id": 275326,
            "type": "Feature",
            "geometry": {
                "type": "Point",
                "coordinates": [
                    21.34133,
                    52.3002
                ]
            },
            "properties": {
                "ref:rspo": 275326,
                "official_name": "Przedszkole w Po\u015bwi\u0119tnem",
                "name": "Przedszkole w Po\u015bwi\u0119tnem",
                "addr:postcode": "05-326",
                "addr:city": "Po\u015bwi\u0119tne",
                "addr:street": "Szkolna",
                "addr:housenumber": "-",
                "addr:city:simc": 684286,
                "addr:street:sym_ul": 21970,
                "phone": "+48 257520363",
                "email": "sekretariat.zsposwietne@interia.pl",
                "website": "http:\/\/spposwietne.edupage.org",
                "ref:regon": "386824897",
                "operator": "Gmina Po\u015bwi\u0119tne",
                "operator:type": "government",
                "amenity": "kindergarten",
                "note": "Parent RSPO: 275329"
            }
        },
        {
            "id": 275328,
            "type": "Feature",
            "geometry": {
                "type": "Point",
                "coordinates": [
                    21.33737,
                    52.30086
                ]
            },
            "properties": {
                "ref:rspo": 275328,
                "official_name": "Zesp\u00f3\u0142 Szkolno-Przedszkolny w Zabra\u0144cu",
                "name": "Zesp\u00f3\u0142 Szkolno-Przedszkolny w Zabra\u0144cu",
                "addr:postcode": "05-079",
                "addr:city": "Zabraniec",
                "addr:street": "Ksi\u0119dza W\u0142odzimierza Skonieckiego",
                "addr:housenumber": "8",
                "addr:city:simc": 684369,
                "addr:street:sym_ul": 37314,
                "phone": "+48 227999482",
                "email": "sekretariat921@gmail.com",
                "website": "http:\/\/www.spzabraniec.szkolnastrona.pl",
                "ref:regon": "386824986",
                "operator": "Gmina Po\u015bwi\u0119tne",
                "operator:type": "government",
                "landuse": "education",
                "fixme": "amenity=school, amenity=college albo landuse=education w zale\u017cno\u015bci od tego, jakie plac\u00f3wki wchodz\u0105 w sk\u0142ad zespo\u0142u. Sprawd\u017a, kiedy stosowa\u0107 amenity=* a kiedy landuse=education.",
                "note": "Children RSPO: 56423;275324"
            }
        },
        {
            "id": 56423,
            "type": "Feature",
            "geometry": {
                "type": "Point",
                "coordinates": [
                    21.33737,
                    52.30083
                ]
            },
            "properties": {
                "isced:level": "1;2",
                "ref:rspo": 56423,
                "official_name": "Szko\u0142a Podstawowa im. Mjr. Henryka Dobrza\u0144skiego \"Hubala\" w Zabra\u0144cu",
                "name": "Szko\u0142a Podstawowa",
                "addr:postcode": "05-079",
                "addr:city": "Zabraniec",
                "addr:street": "Ksi\u0119dza W\u0142odzimierza Skonieckiego",
                "addr:housenumber": "8",
                "addr:city:simc": 684369,
                "addr:street:sym_ul": 37314,
                "phone": "+48 227999482",
                "email": "sekretariat921@gmail.com",
                "ref:regon": "001123911",
                "ref:vatin": "PL1251066215",
                "operator": "Gmina Po\u015bwi\u0119tne",
                "operator:type": "government",
                "amenity": "school",
                "note": "Parent RSPO: 275328"
            }
        },
        {
            "id": 275324,
            "type": "Feature",
            "geometry": {
                "type": "Point",
                "coordinates": [
                    21.33737,
                    52.3008
                ]
            },
            "properties": {
                "ref:rspo": 275324,
                "official_name": "Przedszkole w Zabra\u0144cu",
                "name": "Przedszkole w Zabra\u0144cu",
                "addr:postcode": "05-079",
                "addr:city": "Zabraniec",
                "addr:street": "Ksi\u0119dza W\u0142odzimierza Skonieckiego",
                "addr:housenumber": "8",
                "addr:city:simc": 684369,
                "addr:street:sym_ul": 37314,
                "phone": "+48 227999482",
                "email": "sp_zabraniec8@gazeta.pl",
                "website": "http:\/\/www.spzabraniec.szkolnastrona.pl",
                "ref:regon": "386824874",
                "operator": "Gmina Po\u015bwi\u0119tne",
                "operator:type": "government",
                "amenity": "kindergarten",
                "note": "Parent RSPO: 275328"
            }
        },
        {
            "id": 88275,
            "type": "Feature",
            "geometry": {
                "type": "Point",
                "coordinates": [
                    21.3908099,
                    52.31647
                ]
            },
            "properties": {
                "ref:rspo": 88275,
                "official_name": "Zesp\u00f3\u0142 Wychowania Przedszkolnego \"Przedszkolny Zak\u0105tek w Kielczykowi\u017anie\"",
                "name": "Zesp\u00f3\u0142 Wychowania Przedszkolnego \"Przedszkolny Zak\u0105tek w Kielczykowi\u017anie\"",
                "addr:postcode": "05-326",
                "addr:place": "Kielczykowizna",
                "addr:housenumber": "1A",
                "addr:city:simc": 684151,
                "phone": "+48 504393334",
                "email": "jtsawicka@wp.pl",
                "ref:regon": "146448701",
                "ref:vatin": "PL8671520222",
                "operator": "Dane Do Uzupe\u0142nienia",
                "operator:type": "private",
                "amenity": "kindergarten"
            }
        },
        {
            "id": 55890,
            "type": "Feature",
            "geometry": {
                "type": "Point",
                "coordinates": [
                    21.47526,
                    52.3250699
                ]
            },
            "properties": {
                "isced:level": "1;2",
                "ref:rspo": 55890,
                "official_name": "Szko\u0142a Podstawowa w Turzu",
                "name": "Szko\u0142a Podstawowa w Turzu",
                "addr:postcode": "05-326",
                "addr:place": "Rojk\u00f3w",
                "addr:housenumber": "10",
                "addr:city:simc": 684300,
                "phone": "+48 257520464",
                "email": "sp_turze@interia.pl",
                "website": "http:\/\/www.spturze.szkolnastrona.pl",
                "ref:regon": "001124690",
                "ref:vatin": "PL1251044142",
                "operator": "Gmina Po\u015bwi\u0119tne",
                "operator:type": "government",
                "amenity": "school"
            }
        },
        {
            "id": 118592,
            "type": "Feature",
            "geometry": {
                "type": "Point",
                "coordinates": [
                    21.45196,
                    52.32627
                ]
            },
            "properties": {
                "isced:level": "3",
                "ref:rspo": 118592,
                "official_name": "Liceum Og\u00f3lnokszta\u0142c\u0105ce dla Doros\u0142ych w Po\u015bwi\u0119tnem",
                "name": "Liceum Og\u00f3lnokszta\u0142c\u0105ce dla Doros\u0142ych w Po\u015bwi\u0119tnem",
                "addr:postcode": "05-326",
                "addr:place": "Jadwiniew",
                "addr:housenumber": "10",
                "addr:city:simc": 684091,
                "email": "i.nagraba@wp.pl",
                "website": "http:\/\/www.liceumposwietne.letnet.pl",
                "ref:regon": "146810622",
                "operator": "Nnh Sp\u00f3\u0142ka Z Ograniczon\u0105 Odpowiedzialno\u015bci\u0105",
                "operator:type": "private",
                "amenity": "school"
            }
        },
        {
            "id": 131401,
            "type": "Feature",
            "geometry": {
                "type": "Point",
                "coordinates": [
                    21.44189,
                    52.32859
                ]
            },
            "properties": {
                "ref:rspo": 131401,
                "official_name": "Punkt Przedszkolny \"Klub Malucha\"",
                "name": "Punkt Przedszkolny \"Klub Malucha\"",
                "addr:postcode": "05-326",
                "addr:place": "Jadwiniew",
                "addr:housenumber": "33 B",
                "addr:city:simc": 684091,
                "phone": "+48 510890250",
                "ref:regon": "365166746",
                "ref:vatin": "PL7010153074",
                "operator": "Maciej Kobus",
                "operator:type": "private",
                "amenity": "kindergarten"
            }
        },
        {
            "id": 54433,
            "type": "Feature",
            "geometry": {
                "type": "Point",
                "coordinates": [
                    21.42171,
                    52.3314
                ]
            },
            "properties": {
                "isced:level": "1;2",
                "ref:rspo": 54433,
                "official_name": "Szko\u0142a Podstawowa im. Porucznika Stanis\u0142awa Lecha w Po\u015bwi\u0119tnem",
                "name": "Szko\u0142a Podstawowa",
                "addr:postcode": "05-326",
                "addr:city": "Po\u015bwi\u0119tne",
                "addr:street": "Szkolna",
                "addr:housenumber": "1",
                "addr:city:simc": 684286,
                "addr:street:sym_ul": 21970,
                "phone": "+48 257520363",
                "email": "sekretariat.zsposwietne@interia.pl",
                "website": "http:\/\/www.spposwietne.edupage.org",
                "ref:regon": "000664332",
                "ref:vatin": "PL1251041451",
                "operator": "Gmina Po\u015bwi\u0119tne",
                "operator:type": "government",
                "amenity": "school",
                "note": "Parent RSPO: 275329"
            }
        },
        {
            "id": 58527,
            "type": "Feature",
            "geometry": {
                "type": "Point",
                "coordinates": [
                    21.36029,
                    52.3387699
                ]
            },
            "properties": {
                "ref:rspo": 58527,
                "official_name": "Zesp\u00f3\u0142 Szkolno Przedszkolny w Nowych R\u0119czajach",
                "name": "Zesp\u00f3\u0142 Szkolno Przedszkolny w Nowych R\u0119czajach",
                "addr:postcode": "05-326",
                "addr:place": "Nowe R\u0119czaje",
                "addr:housenumber": "20A",
                "addr:city:simc": 684240,
                "phone": "+48 227999479",
                "email": "sekretariat@zspreczaje.edu.pl",
                "website": "http:\/\/www.zspreczaje.edu.pl",
                "ref:regon": "142543450",
                "ref:vatin": "PL1251577364",
                "operator": "Gmina Po\u015bwi\u0119tne",
                "operator:type": "government",
                "landuse": "education",
                "fixme": "amenity=school, amenity=college albo landuse=education w zale\u017cno\u015bci od tego, jakie plac\u00f3wki wchodz\u0105 w sk\u0142ad zespo\u0142u. Sprawd\u017a, kiedy stosowa\u0107 amenity=* a kiedy landuse=education.",
                "note": "Children RSPO: 58672;64491"
            }
        },
        {
            "id": 58672,
            "type": "Feature",
            "geometry": {
                "type": "Point",
                "coordinates": [
                    21.36029,
                    52.3387399
                ]
            },
            "properties": {
                "isced:level": "1;2",
                "ref:rspo": 58672,
                "official_name": "Szko\u0142a Podstawowa im. Wojska Polskiego w Nowych R\u0119czajach",
                "name": "Szko\u0142a Podstawowa",
                "addr:postcode": "05-326",
                "addr:place": "Nowe R\u0119czaje",
                "addr:housenumber": "20A",
                "addr:city:simc": 684240,
                "phone": "+48 227999479",
                "email": "sekretariat@zspreczaje.edu.pl",
                "website": "http:\/\/www.reczajeszkolnastrona.pl",
                "ref:regon": "001124709",
                "ref:vatin": "PL1251031748",
                "operator": "Gmina Po\u015bwi\u0119tne",
                "operator:type": "government",
                "amenity": "school",
                "note": "Parent RSPO: 58527"
            }
        },
        {
            "id": 64491,
            "type": "Feature",
            "geometry": {
                "type": "Point",
                "coordinates": [
                    21.36029,
                    52.338709900000005
                ]
            },
            "properties": {
                "ref:rspo": 64491,
                "official_name": "Samorz\u0105dowe Przedszkole w Nowych R\u0119czajach",
                "name": "Samorz\u0105dowe Przedszkole w Nowych R\u0119czajach",
                "addr:postcode": "05-326",
                "addr:place": "Nowe R\u0119czaje",
                "addr:housenumber": "20A",
                "addr:city:simc": 684240,
                "phone": "+48 227999479",
                "email": "sekretariat@zspreczaje.edu.pl",
                "website": "http:\/\/www.reczajeszkolnastrona.pl",
                "ref:regon": "142543408",
                "ref:vatin": "PL1251577358",
                "operator": "Gmina Po\u015bwi\u0119tne",
                "operator:type": "government",
                "amenity": "kindergarten",
                "note": "Parent RSPO: 58527"
            }
        },
        {
            "id": 59603,
            "type": "Feature",
            "geometry": {
                "type": "Point",
                "coordinates": [
                    21.40987,
                    52.33878
                ]
            },
            "properties": {
                "ref:rspo": 59603,
                "official_name": "Punkt Przedszkolny \"Tajemniczy Ogr\u00f3d\"",
                "name": "Punkt Przedszkolny \"Tajemniczy Ogr\u00f3d\"",
                "addr:postcode": "05-326",
                "addr:place": "Choiny",
                "addr:housenumber": "21",
                "addr:city:simc": 684079,
                "phone": "+48 507191169",
                "email": "tajemniczyogrod44@gmail.com",
                "website": "http:\/\/www.tajemniczyogrod.net",
                "ref:regon": "146441076",
                "ref:vatin": "PL1250902655",
                "operator": "Dane Do Uzupe\u0142nienia",
                "operator:type": "private",
                "amenity": "kindergarten"
            }
        },
        {
            "id": 133900,
            "type": "Feature",
            "geometry": {
                "type": "Point",
                "coordinates": [
                    21.45945,
                    52.34527
                ]
            },
            "properties": {
                "ref:rspo": 133900,
                "official_name": "Zesp\u00f3\u0142 Szkolno-Przedszkolny w W\u00f3lce D\u0105browickiej",
                "name": "Zesp\u00f3\u0142 Szkolno-Przedszkolny w W\u00f3lce D\u0105browickiej",
                "addr:postcode": "05-326",
                "addr:place": "W\u00f3lka D\u0105browicka",
                "addr:housenumber": "41A",
                "addr:city:simc": 684352,
                "phone": "+48 257991566",
                "email": "szkolawolka@poczta.fm",
                "website": "http:\/\/spwolkadabrowicka.szkolnastrona.pl",
                "ref:regon": "367718670",
                "operator": "Gmina Po\u015bwi\u0119tne",
                "operator:type": "government",
                "landuse": "education",
                "fixme": "amenity=school, amenity=college albo landuse=education w zale\u017cno\u015bci od tego, jakie plac\u00f3wki wchodz\u0105 w sk\u0142ad zespo\u0142u. Sprawd\u017a, kiedy stosowa\u0107 amenity=* a kiedy landuse=education.",
                "note": "Children RSPO: 55669;131299"
            }
        },
        {
            "id": 278600,
            "type": "Feature",
            "geometry": {
                "type": "Point",
                "coordinates": [
                    21.45945,
                    52.34524
                ]
            },
            "properties": {
                "isced:level": "1;2",
                "ref:rspo": 278600,
                "official_name": "Niepubliczna Szko\u0142a Podstawowa w W\u00f3lce D\u0105browickiej",
                "name": "Niepubliczna Szko\u0142a Podstawowa w W\u00f3lce D\u0105browickiej",
                "addr:postcode": "05-326",
                "addr:place": "W\u00f3lka D\u0105browicka",
                "addr:housenumber": "41A",
                "addr:city:simc": 684352,
                "email": "niepublicznaspwolka@gmail.com",
                "ref:regon": "389993614",
                "operator": "Stowarzyszenie Rozwoju Wsi W\u00f3lka D\u0105browicka",
                "operator:type": "ngo",
                "amenity": "school"
            }
        },
        {
            "id": 55669,
            "type": "Feature",
            "geometry": {
                "type": "Point",
                "coordinates": [
                    21.45945,
                    52.34521
                ]
            },
            "properties": {
                "isced:level": "1;2",
                "ref:rspo": 55669,
                "official_name": "Szko\u0142a Podstawowa w W\u00f3lce D\u0105browickiej",
                "name": "Szko\u0142a Podstawowa w W\u00f3lce D\u0105browickiej",
                "addr:postcode": "05-326",
                "addr:place": "W\u00f3lka D\u0105browicka",
                "addr:housenumber": "41A",
                "addr:city:simc": 684352,
                "phone": "+48 257991566",
                "email": "szkolawolka@poczta.fm",
                "website": "http:\/\/www.sp.wolkadab.edu.pl",
                "ref:regon": "710018683",
                "ref:vatin": "PL1251031010",
                "operator": "Gmina Po\u015bwi\u0119tne",
                "operator:type": "government",
                "amenity": "school",
                "note": "Parent RSPO: 133900"
            }
        },
        {
            "id": 131299,
            "type": "Feature",
            "geometry": {
                "type": "Point",
                "coordinates": [
                    21.45945,
                    52.34518
                ]
            },
            "properties": {
                "ref:rspo": 131299,
                "official_name": "Przedszkole Samorz\u0105dowe Przy Szkole Podstawowej im. \u015aw. Jana Paw\u0142a II w W\u00f3lce D\u0105browickiej",
                "name": "Przedszkole Samorz\u0105dowe Przy Szkole Podstawowej",
                "addr:postcode": "05-326",
                "addr:place": "W\u00f3lka D\u0105browicka",
                "addr:housenumber": "41A",
                "addr:city:simc": 684352,
                "phone": "+48 257991566",
                "email": "szkolawolka@poczta.fm",
                "ref:regon": "365107695",
                "ref:vatin": "PL1251645048",
                "operator": "Gmina Po\u015bwi\u0119tne",
                "operator:type": "government",
                "amenity": "kindergarten",
                "note": "Parent RSPO: 133900"
            }
        },
        {
            "id": 132697,
            "type": "Feature",
            "geometry": {
                "type": "Point",
                "coordinates": [
                    21.4839678,
                    52.357811
                ]
            },
            "properties": {
                "ref:rspo": 132697,
                "official_name": "Punkt Przedszkolny \"Tajemniczy Ogr\u00f3d\"",
                "name": "Punkt Przedszkolny \"Tajemniczy Ogr\u00f3d\"",
                "addr:postcode": "05-326",
                "addr:place": "Mi\u0119dzyle\u015b",
                "addr:housenumber": "101",
                "addr:city:simc": 684205,
                "phone": "+48 607886812",
                "ref:regon": "366061601",
                "operator": "Dane Do Uzupe\u0142nienia",
                "operator:type": "private",
                "amenity": "kindergarten"
            }
        },
        {
            "id": 277911,
            "type": "Feature",
            "geometry": {
                "type": "Point",
                "coordinates": [
                    21.4732,
                    52.36417
                ]
            },
            "properties": {
                "ref:rspo": 277911,
                "official_name": "Zesp\u00f3\u0142 Szkolno-Przedszkolny w Mi\u0119dzylesiu",
                "name": "Zesp\u00f3\u0142 Szkolno-Przedszkolny w Mi\u0119dzylesiu",
                "addr:postcode": "05-326",
                "addr:place": "Mi\u0119dzyle\u015b",
                "addr:housenumber": "12A",
                "addr:city:simc": 684205,
                "phone": "+48 257991656",
                "email": "sp_miedzyles@o2.pl",
                "website": "https:\/\/spmiedzyles.szkolnastrona.pl\/",
                "ref:regon": "389658123",
                "operator": "Gmina Po\u015bwi\u0119tne",
                "operator:type": "government",
                "landuse": "education",
                "fixme": "amenity=school, amenity=college albo landuse=education w zale\u017cno\u015bci od tego, jakie plac\u00f3wki wchodz\u0105 w sk\u0142ad zespo\u0142u. Sprawd\u017a, kiedy stosowa\u0107 amenity=* a kiedy landuse=education.",
                "note": "Children RSPO: 55342;277912"
            }
        },
        {
            "id": 55342,
            "type": "Feature",
            "geometry": {
                "type": "Point",
                "coordinates": [
                    21.4732,
                    52.36414
                ]
            },
            "properties": {
                "isced:level": "1;2",
                "ref:rspo": 55342,
                "official_name": "Szko\u0142a Podstawowa w Mi\u0119dzylesiu",
                "name": "Szko\u0142a Podstawowa w Mi\u0119dzylesiu",
                "addr:postcode": "05-326",
                "addr:place": "Mi\u0119dzyle\u015b",
                "addr:housenumber": "12A",
                "addr:city:simc": 684205,
                "phone": "+48 257991656",
                "email": "aandrzejczuk@op.pl",
                "website": "http:\/\/www.spmiedzyles.szkolnastrona.pl",
                "ref:regon": "001124715",
                "ref:vatin": "PL1251031027",
                "operator": "Gmina Po\u015bwi\u0119tne",
                "operator:type": "government",
                "amenity": "school",
                "note": "Parent RSPO: 277911"
            }
        },
        {
            "id": 277912,
            "type": "Feature",
            "geometry": {
                "type": "Point",
                "coordinates": [
                    21.4732,
                    52.364110000000004
                ]
            },
            "properties": {
                "ref:rspo": 277912,
                "official_name": "Przedszkole w Mi\u0119dzylesiu",
                "name": "Przedszkole w Mi\u0119dzylesiu",
                "addr:postcode": "05-326",
                "addr:place": "Mi\u0119dzyle\u015b",
                "addr:housenumber": "12A",
                "addr:city:simc": 684205,
                "phone": "+48 257991656",
                "ref:regon": "389658130",
                "operator": "Gmina Po\u015bwi\u0119tne",
                "operator:type": "government",
                "amenity": "kindergarten",
                "note": "Parent RSPO: 277911"
            }
        }
    ]
}