{
    "type": "FeatureCollection",
    "features": [
        {
            "id": 92544,
            "type": "Feature",
            "geometry": {
                "type": "Point",
                "coordinates": [
                    21.15621,
                    52.29432
                ]
            },
            "properties": {
                "ref:rspo": 92544,
                "official_name": "Przedszkole Niepubliczne \"Abecad\u0142o\"",
                "name": "Przedszkole Niepubliczne \"Abecad\u0142o\"",
                "addr:country": "PL",
                "addr:postcode": "05-220",
                "addr:city": "Zielonka",
                "addr:street": "Armii Krajowej",
                "addr:housenumber": "37",
                "addr:teryt:simc": 921970,
                "addr:teryt:sym_ul": 432,
                "contact:phone": "+48 227819461",
                "contact:email": "przedszkoleabecadlo1@gmail.com",
                "contact:website": "http:\/\/www.przedszkole-abecadlo.pl",
                "ref:regon": "146414429",
                "ref:vatin": "PL1250025906",
                "operator": "Robert Nesterowicz",
                "operator:type": "private",
                "amenity": "kindergarten"
            }
        },
        {
            "id": 29813,
            "type": "Feature",
            "geometry": {
                "type": "Point",
                "coordinates": [
                    21.1619029,
                    52.3017706
                ]
            },
            "properties": {
                "ref:rspo": 29813,
                "official_name": "Miejskie Przedszkole Nr 5",
                "name": "Miejskie Przedszkole Nr 5",
                "addr:country": "PL",
                "addr:postcode": "05-220",
                "addr:city": "Zielonka",
                "addr:street": "Prymasa Stefana Wyszy\u0144skiego",
                "addr:housenumber": "7",
                "addr:teryt:simc": 921970,
                "addr:teryt:sym_ul": 25119,
                "contact:phone": "+48 227610483",
                "contact:email": "wjprzedszkole5@zielonka.pl",
                "ref:regon": "142548890",
                "ref:vatin": "PL1251579630",
                "operator": "Miasto Zielonka",
                "operator:type": "government",
                "amenity": "kindergarten"
            }
        },
        {
            "id": 27612,
            "type": "Feature",
            "geometry": {
                "type": "Point",
                "coordinates": [
                    21.15484,
                    52.3055499
                ]
            },
            "properties": {
                "isced:level": "1;2",
                "ref:rspo": 27612,
                "official_name": "Szko\u0142a Podstawowa Nr 1 im. Boles\u0142awa Prusa",
                "name": "Szko\u0142a Podstawowa Nr 1",
                "addr:country": "PL",
                "addr:postcode": "05-220",
                "addr:city": "Zielonka",
                "addr:street": "Stanis\u0142awa Staszica",
                "addr:housenumber": "56",
                "addr:teryt:simc": 921970,
                "addr:teryt:sym_ul": 21071,
                "contact:phone": "+48 227810011",
                "contact:email": "sekretariatsp1@zielonka.pl",
                "contact:website": "http:\/\/www.sp1.zielonka.pl",
                "ref:regon": "016076137",
                "operator": "Miasto Zielonka",
                "operator:type": "government",
                "amenity": "school"
            }
        },
        {
            "id": 127112,
            "type": "Feature",
            "geometry": {
                "type": "Point",
                "coordinates": [
                    21.16348,
                    52.30562
                ]
            },
            "properties": {
                "ref:rspo": 127112,
                "official_name": "\"Zaczarowana Wyspa\"",
                "name": "\"Zaczarowana Wyspa\"",
                "addr:country": "PL",
                "addr:postcode": "05-220",
                "addr:city": "Zielonka",
                "addr:street": "Ksi\u0119dza Ignacego Skorupki",
                "addr:housenumber": "5a",
                "addr:teryt:simc": 921970,
                "addr:teryt:sym_ul": 20100,
                "contact:phone": "+48 603853053",
                "contact:email": "kontakt@zaczarowana-wyspa.edu.pl",
                "contact:website": "http:\/\/www.zaczarowana-wyspa.edu.pl",
                "ref:regon": "361121920",
                "ref:vatin": "PL1251557924",
                "operator": "Oskar Marciniuk",
                "operator:type": "private",
                "amenity": "kindergarten"
            }
        },
        {
            "id": 92616,
            "type": "Feature",
            "geometry": {
                "type": "Point",
                "coordinates": [
                    21.15814,
                    52.3064899
                ]
            },
            "properties": {
                "ref:rspo": 92616,
                "official_name": "Przedszkole Niepublicze w Zielonce\"Pod D\u0119bami\"Anna Konopka",
                "name": "Przedszkole Niepublicze w Zielonce\"Pod D\u0119bami\"Anna Konopka",
                "addr:country": "PL",
                "addr:postcode": "05-220",
                "addr:city": "Zielonka",
                "addr:street": "Adama Mickiewicza",
                "addr:housenumber": "27",
                "addr:teryt:simc": 921970,
                "addr:teryt:sym_ul": 12740,
                "contact:phone": "+48 227719671",
                "contact:email": "poczta@przedszkolepoddebami.com",
                "contact:website": "http:\/\/www.przedszkolepoddebami.com",
                "ref:regon": "146453688",
                "ref:vatin": "PL1250622884",
                "operator": "Anna Konopka",
                "operator:type": "private",
                "amenity": "kindergarten"
            }
        },
        {
            "id": 29523,
            "type": "Feature",
            "geometry": {
                "type": "Point",
                "coordinates": [
                    21.15312,
                    52.30692
                ]
            },
            "properties": {
                "ref:rspo": 29523,
                "official_name": "Miejskie Przedszkole Nr 4",
                "name": "Miejskie Przedszkole Nr 4",
                "addr:country": "PL",
                "addr:postcode": "05-220",
                "addr:city": "Zielonka",
                "addr:street": "Stanis\u0142awa Staszica",
                "addr:housenumber": "16",
                "addr:teryt:simc": 921970,
                "addr:teryt:sym_ul": 21071,
                "contact:website": "http:\/\/www.przedszkolenr4zielonka.szkolnastrona.pl",
                "ref:regon": "142548883",
                "operator": "Miasto Zielonka",
                "operator:type": "government",
                "amenity": "kindergarten"
            }
        },
        {
            "id": 60479,
            "type": "Feature",
            "geometry": {
                "type": "Point",
                "coordinates": [
                    21.14783,
                    52.30877
                ]
            },
            "properties": {
                "ref:rspo": 60479,
                "official_name": "Poradnia Psychologiczno-Pedagogiczna w Zielonce",
                "name": "Poradnia Psychologiczno-Pedagogiczna w Zielonce",
                "addr:country": "PL",
                "addr:postcode": "05-220",
                "addr:city": "Zielonka",
                "addr:street": "In\u017cynierska",
                "addr:housenumber": "1",
                "addr:teryt:simc": 921970,
                "addr:teryt:sym_ul": 6923,
                "contact:phone": "+48 227602497",
                "contact:email": "sekretariat@pppzielonka.pl",
                "contact:website": "http:\/\/www.pppzielonka.pl",
                "ref:regon": "001009859",
                "operator": "Powiat Wo\u0142omi\u0144ski",
                "operator:type": "government",
                "healthcare": "counselling",
                "counselling_type": "education",
                "fixme": "w zale\u017cno\u015bci od przedmiotu dzia\u0142alno\u015bci (np. healthcare=counselling + counselling_type=education albo healthcare=psychotherapist)"
            }
        },
        {
            "id": 72724,
            "type": "Feature",
            "geometry": {
                "type": "Point",
                "coordinates": [
                    21.14783,
                    52.30874
                ]
            },
            "properties": {
                "ref:rspo": 72724,
                "official_name": "Zesp\u00f3\u0142 Szk\u00f3\u0142 im. Prezydenta Ignacego Mo\u015bcickiego w Zielonce",
                "name": "Zesp\u00f3\u0142 Szk\u00f3\u0142",
                "addr:country": "PL",
                "addr:postcode": "05-220",
                "addr:city": "Zielonka",
                "addr:street": "In\u017cynierska",
                "addr:housenumber": "1",
                "addr:teryt:simc": 921970,
                "addr:teryt:sym_ul": 6923,
                "contact:phone": "+48 227810250",
                "contact:email": "zs@zielonka.edu.pl",
                "contact:website": "http:\/\/moscicki.edu.pl",
                "ref:regon": "000201750",
                "operator": "Powiat Wo\u0142omi\u0144ski",
                "operator:type": "government",
                "landuse": "education",
                "fixme": "amenity=school, amenity=college albo landuse=education w zale\u017cno\u015bci od tego, jakie plac\u00f3wki wchodz\u0105 w sk\u0142ad zespo\u0142u. Sprawd\u017a, kiedy stosowa\u0107 amenity=* a kiedy landuse=education.",
                "note": "Children RSPO: 104069;104070;104071"
            }
        },
        {
            "id": 104069,
            "type": "Feature",
            "geometry": {
                "type": "Point",
                "coordinates": [
                    21.14783,
                    52.308710000000005
                ]
            },
            "properties": {
                "isced:level": "3",
                "ref:rspo": 104069,
                "official_name": "Liceum Og\u00f3lnokszta\u0142c\u0105ce Z Oddzia\u0142ami Integracyjnymi",
                "name": "Liceum Og\u00f3lnokszta\u0142c\u0105ce Z Oddzia\u0142ami Integracyjnymi",
                "addr:country": "PL",
                "addr:postcode": "05-220",
                "addr:city": "Zielonka",
                "addr:street": "In\u017cynierska",
                "addr:housenumber": "1",
                "addr:teryt:simc": 921970,
                "addr:teryt:sym_ul": 6923,
                "contact:phone": "+48 227810250",
                "contact:email": "zs@zielonka.edu.pl",
                "contact:website": "http:\/\/moscicki.edu.pl",
                "ref:regon": "015555440",
                "operator": "Powiat Wo\u0142omi\u0144ski",
                "operator:type": "government",
                "amenity": "school",
                "note": "Parent RSPO: 72724"
            }
        },
        {
            "id": 104070,
            "type": "Feature",
            "geometry": {
                "type": "Point",
                "coordinates": [
                    21.14783,
                    52.30868
                ]
            },
            "properties": {
                "isced:level": "3",
                "ref:rspo": 104070,
                "official_name": "Technikum",
                "name": "Technikum",
                "addr:country": "PL",
                "addr:postcode": "05-220",
                "addr:city": "Zielonka",
                "addr:street": "In\u017cynierska",
                "addr:housenumber": "1",
                "addr:teryt:simc": 921970,
                "addr:teryt:sym_ul": 6923,
                "contact:phone": "+48 227810250",
                "contact:email": "zs@zielonka.edu.pl",
                "contact:website": "http:\/\/moscicki.edu.pl",
                "ref:regon": "015555574",
                "operator": "Powiat Wo\u0142omi\u0144ski",
                "operator:type": "government",
                "amenity": "school",
                "note": "Parent RSPO: 72724"
            }
        },
        {
            "id": 104071,
            "type": "Feature",
            "geometry": {
                "type": "Point",
                "coordinates": [
                    21.14783,
                    52.30865
                ]
            },
            "properties": {
                "isced:level": "3",
                "ref:rspo": 104071,
                "official_name": "Liceum Og\u00f3lnokszta\u0142c\u0105ce dla Doros\u0142ych",
                "name": "Liceum Og\u00f3lnokszta\u0142c\u0105ce dla Doros\u0142ych",
                "addr:country": "PL",
                "addr:postcode": "05-220",
                "addr:city": "Zielonka",
                "addr:street": "In\u017cynierska",
                "addr:housenumber": "1",
                "addr:teryt:simc": 921970,
                "addr:teryt:sym_ul": 6923,
                "contact:phone": "+48 227810250",
                "contact:email": "zs@zielonka.edu.pl",
                "contact:website": "http:\/\/moscicki.edu.pl",
                "ref:regon": "146465415",
                "operator": "Powiat Wo\u0142omi\u0144ski",
                "operator:type": "government",
                "amenity": "school",
                "note": "Parent RSPO: 72724"
            }
        },
        {
            "id": 262923,
            "type": "Feature",
            "geometry": {
                "type": "Point",
                "coordinates": [
                    21.15762,
                    52.30994
                ]
            },
            "properties": {
                "isced:level": "1;2",
                "ref:rspo": 262923,
                "official_name": "Szko\u0142a Podstawowa Nr 4 im. Stefana Kardyna\u0142a Wyszy\u0144skiego",
                "name": "Szko\u0142a Podstawowa Nr 4",
                "addr:country": "PL",
                "addr:postcode": "05-220",
                "addr:city": "Zielonka",
                "addr:street": "Waleriana \u0141ukasi\u0144skiego",
                "addr:housenumber": "1\/3",
                "addr:teryt:simc": 921970,
                "addr:teryt:sym_ul": 11755,
                "contact:phone": "+48 227710520",
                "contact:email": "sp4.zielonka@gmail.com",
                "contact:website": "http:\/\/www.sp4zielonka.edu.pl",
                "ref:regon": "368075406",
                "operator": "Miasto Zielonka",
                "operator:type": "government",
                "amenity": "school"
            }
        },
        {
            "id": 279293,
            "type": "Feature",
            "geometry": {
                "type": "Point",
                "coordinates": [
                    21.15672,
                    52.31016
                ]
            },
            "properties": {
                "ref:rspo": 279293,
                "official_name": "Niepubliczna Poradnia Psychologiczno-Pedagogiczna w Zielonce",
                "name": "Niepubliczna Poradnia Psychologiczno-Pedagogiczna w Zielonce",
                "addr:country": "PL",
                "addr:postcode": "05-220",
                "addr:city": "Zielonka",
                "addr:street": "Waleriana \u0141ukasi\u0144skiego",
                "addr:housenumber": "1",
                "addr:door": "3",
                "addr:teryt:simc": 921970,
                "addr:teryt:sym_ul": 11755,
                "contact:email": "npzielonka@gmail.com",
                "ref:regon": "521170411",
                "operator": "Katarzyna \u017bywia\u0142kowska",
                "operator:type": "private",
                "healthcare": "counselling",
                "counselling_type": "education",
                "fixme": "w zale\u017cno\u015bci od przedmiotu dzia\u0142alno\u015bci (np. healthcare=counselling + counselling_type=education albo healthcare=psychotherapist)"
            }
        },
        {
            "id": 88770,
            "type": "Feature",
            "geometry": {
                "type": "Point",
                "coordinates": [
                    21.13293,
                    52.31032
                ]
            },
            "properties": {
                "ref:rspo": 88770,
                "official_name": "Centrum Kszta\u0142cenia Edukator w Zielonce Dorota Ol\u0119dzka",
                "name": "Centrum Kszta\u0142cenia Edukator w Zielonce Dorota Ol\u0119dzka",
                "addr:country": "PL",
                "addr:postcode": "05-220",
                "addr:city": "Zielonka",
                "addr:street": "Wiejska",
                "addr:housenumber": "22A",
                "addr:teryt:simc": 921970,
                "addr:teryt:sym_ul": 24048,
                "contact:email": "zielonka@ckedukator.pl",
                "contact:website": "http:\/\/www.ckedukator.pl",
                "ref:regon": "146448813",
                "operator": "Dorota Ol\u0119dzka",
                "operator:type": "private",
                "fixme": "w zale\u017cno\u015bci od przedmiotu dzia\u0142alno\u015bci (np. amenity=training + training=*, amenity=dancing_school, amenity=language_school, amenity=music_school) albo amenity=school, amenity=college, albo landuse=education w zale\u017cno\u015bci od tego, jakie plac\u00f3wki wchodz\u0105 w sk\u0142ad zespo\u0142u. Sprawd\u017a, kiedy stosowa\u0107 amenity=* a kiedy landuse=education."
            }
        },
        {
            "id": 263416,
            "type": "Feature",
            "geometry": {
                "type": "Point",
                "coordinates": [
                    21.16582,
                    52.31056
                ]
            },
            "properties": {
                "isced:level": "4",
                "ref:rspo": 263416,
                "official_name": "Szko\u0142a Policealna Nr 1 w Zielonce",
                "name": "Szko\u0142a Policealna Nr 1 w Zielonce",
                "addr:country": "PL",
                "addr:postcode": "05-220",
                "addr:city": "Zielonka",
                "addr:street": "Dziennikarska",
                "addr:housenumber": "51B",
                "addr:teryt:simc": 921970,
                "addr:teryt:sym_ul": 4631,
                "contact:phone": "+48 227998088",
                "contact:email": "jolantajakubiakkaczorowska@gmail.com",
                "ref:regon": "368188286",
                "operator": "Jolanta Jakubiak-Kaczorowska",
                "operator:type": "private",
                "amenity": "college"
            }
        },
        {
            "id": 273618,
            "type": "Feature",
            "geometry": {
                "type": "Point",
                "coordinates": [
                    21.16582,
                    52.31053
                ]
            },
            "properties": {
                "isced:level": "3",
                "ref:rspo": 273618,
                "official_name": "Ii Liceum Og\u00f3lnokszta\u0142c\u0105ce dla Doros\u0142ych w Zielonce",
                "name": "Ii Liceum Og\u00f3lnokszta\u0142c\u0105ce dla Doros\u0142ych w Zielonce",
                "addr:country": "PL",
                "addr:postcode": "05-220",
                "addr:city": "Zielonka",
                "addr:street": "Dziennikarska",
                "addr:housenumber": "51 B",
                "addr:teryt:simc": 921970,
                "addr:teryt:sym_ul": 4631,
                "contact:phone": "+48 227998088",
                "contact:email": "jolantajakubiakkaczorowska@gmail.com",
                "ref:regon": "384520727",
                "operator": "Jolanta Jakubiak-Kaczorowska",
                "operator:type": "private",
                "amenity": "school"
            }
        },
        {
            "id": 12893,
            "type": "Feature",
            "geometry": {
                "type": "Point",
                "coordinates": [
                    21.13644,
                    52.3118399
                ]
            },
            "properties": {
                "ref:rspo": 12893,
                "official_name": "M\u0142odzie\u017cowy O\u015brodek Socjoterapii w Zielonce im. Kpt. Jerzego Bartnika",
                "name": "M\u0142odzie\u017cowy O\u015brodek Socjoterapii w Zielonce",
                "addr:country": "PL",
                "addr:postcode": "05-220",
                "addr:city": "Zielonka",
                "addr:street": "Marecka",
                "addr:housenumber": "76",
                "addr:teryt:simc": 921970,
                "addr:teryt:sym_ul": 12317,
                "contact:phone": "+48 227718740",
                "contact:email": "sekretariat@moszielonka.pl",
                "contact:website": "http:\/\/www.moszielonka.pl",
                "ref:regon": "146309230",
                "ref:vatin": "PL5321064495",
                "operator": "Jacek Pac",
                "operator:type": "private",
                "fixme": "amenity=social_facility + social_facility=group_home + social_facility:for=juvenile",
                "note": "Children RSPO: 124060;124097"
            }
        },
        {
            "id": 124060,
            "type": "Feature",
            "geometry": {
                "type": "Point",
                "coordinates": [
                    21.13644,
                    52.3118099
                ]
            },
            "properties": {
                "isced:level": "1;2",
                "ref:rspo": 124060,
                "official_name": "Niepubliczna Szko\u0142a Podstawowa Specjalna w Zielonce",
                "name": "Niepubliczna Szko\u0142a Podstawowa Specjalna w Zielonce",
                "addr:country": "PL",
                "addr:postcode": "05-220",
                "addr:city": "Zielonka",
                "addr:street": "Marecka",
                "addr:housenumber": "76",
                "addr:teryt:simc": 921970,
                "addr:teryt:sym_ul": 12317,
                "contact:phone": "+48 227718740",
                "contact:email": "sekretariat@moszielonka.pl",
                "contact:website": "http:\/\/www.moszielonka.pl",
                "ref:regon": "147370987",
                "operator": "Jacek Pac",
                "operator:type": "private",
                "amenity": "school",
                "note": "Parent RSPO: 12893"
            }
        },
        {
            "id": 124097,
            "type": "Feature",
            "geometry": {
                "type": "Point",
                "coordinates": [
                    21.13644,
                    52.311779900000005
                ]
            },
            "properties": {
                "isced:level": "3",
                "ref:rspo": 124097,
                "official_name": "Niepubliczna Szko\u0142a Bran\u017cowa I Stopnia Specjalna w Zielonce",
                "name": "Niepubliczna Szko\u0142a Bran\u017cowa I Stopnia Specjalna w Zielonce",
                "addr:country": "PL",
                "addr:postcode": "05-220",
                "addr:city": "Zielonka",
                "addr:street": "Marecka",
                "addr:housenumber": "76",
                "addr:teryt:simc": 921970,
                "addr:teryt:sym_ul": 12317,
                "contact:phone": "+48 227718740",
                "contact:email": "sekretariat@moszielonka.pl",
                "contact:website": "http:\/\/www.moszielonka.pl",
                "ref:regon": "147374301",
                "operator": "Jacek Pac",
                "operator:type": "private",
                "amenity": "school",
                "note": "Parent RSPO: 12893"
            }
        },
        {
            "id": 27614,
            "type": "Feature",
            "geometry": {
                "type": "Point",
                "coordinates": [
                    21.153280258179,
                    52.311840057373
                ]
            },
            "properties": {
                "isced:level": "1;2",
                "ref:rspo": 27614,
                "official_name": "Szko\u0142a Podstawowa Nr 3 im. Janusza Korczaka",
                "name": "Szko\u0142a Podstawowa Nr 3",
                "addr:country": "PL",
                "addr:postcode": "05-220",
                "addr:city": "Zielonka",
                "addr:street": "Woodrowa Wilsona",
                "addr:housenumber": "34\/36",
                "addr:teryt:simc": 921970,
                "addr:teryt:sym_ul": 24327,
                "contact:phone": "+48 227819993",
                "contact:email": "sp3zielonka@poczta.onet.pl",
                "contact:website": "http:\/\/www.sp3.zielonka.pl",
                "ref:regon": "011186306",
                "operator": "Miasto Zielonka",
                "operator:type": "government",
                "amenity": "school"
            }
        },
        {
            "id": 27613,
            "type": "Feature",
            "geometry": {
                "type": "Point",
                "coordinates": [
                    21.15197,
                    52.31384
                ]
            },
            "properties": {
                "isced:level": "1;2",
                "ref:rspo": 27613,
                "official_name": "Szko\u0142a Podstawowa Nr 2 im. Miko\u0142aja Kopernika",
                "name": "Szko\u0142a Podstawowa Nr 2",
                "addr:country": "PL",
                "addr:postcode": "05-220",
                "addr:city": "Zielonka",
                "addr:street": "Powsta\u0144c\u00f3w",
                "addr:housenumber": "3",
                "addr:teryt:simc": 921970,
                "addr:teryt:sym_ul": 17354,
                "contact:phone": "+48 227810134",
                "contact:email": "sp2@zielonka.pl",
                "contact:website": "http:\/\/www.sp2.zielonka.pl",
                "ref:regon": "015222051",
                "operator": "Miasto Zielonka",
                "operator:type": "government",
                "amenity": "school"
            }
        },
        {
            "id": 92610,
            "type": "Feature",
            "geometry": {
                "type": "Point",
                "coordinates": [
                    21.13864,
                    52.31424
                ]
            },
            "properties": {
                "ref:rspo": 92610,
                "official_name": "Przedszkole Niepubliczne \"Malowany Domek\" El\u017cbieta D\u0105bkowska",
                "name": "Przedszkole Niepubliczne \"Malowany Domek\" El\u017cbieta D\u0105bkowska",
                "addr:country": "PL",
                "addr:postcode": "05-220",
                "addr:city": "Zielonka",
                "addr:street": "Mazurska",
                "addr:housenumber": "11a",
                "addr:teryt:simc": 921970,
                "addr:teryt:sym_ul": 12555,
                "contact:phone": "+48 502893111",
                "ref:regon": "146453702",
                "ref:vatin": "PL1250339409",
                "operator": "El\u017cbieta D\u0105bkowska",
                "operator:type": "private",
                "amenity": "kindergarten"
            }
        },
        {
            "id": 47613,
            "type": "Feature",
            "geometry": {
                "type": "Point",
                "coordinates": [
                    21.16291,
                    52.31815
                ]
            },
            "properties": {
                "isced:level": "1;2",
                "ref:rspo": 47613,
                "official_name": "Niepubliczna Szko\u0142a Podstawowa Przysta\u0144 Montessori",
                "name": "Niepubliczna Szko\u0142a Podstawowa Przysta\u0144 Montessori",
                "addr:country": "PL",
                "addr:postcode": "05-220",
                "addr:city": "Zielonka",
                "addr:street": "Krzywa",
                "addr:housenumber": "10",
                "addr:teryt:simc": 921970,
                "addr:teryt:sym_ul": 10157,
                "contact:email": "kaczmarska@pedagogikamontessori.pl",
                "contact:website": "http:\/\/www.pedagogikamontessori.pl",
                "ref:regon": "146365560",
                "ref:vatin": "PL1250491844",
                "operator": "Katarzyna Kaczmarska-Kr\u00fcger",
                "operator:type": "private",
                "amenity": "school"
            }
        },
        {
            "id": 29812,
            "type": "Feature",
            "geometry": {
                "type": "Point",
                "coordinates": [
                    21.16038,
                    52.3193
                ]
            },
            "properties": {
                "ref:rspo": 29812,
                "official_name": "Miejskie Przedszkole Nr 3",
                "name": "Miejskie Przedszkole Nr 3",
                "addr:country": "PL",
                "addr:postcode": "05-220",
                "addr:city": "Zielonka",
                "addr:street": "Prosta",
                "addr:housenumber": "24",
                "addr:teryt:simc": 921970,
                "addr:teryt:sym_ul": 17547,
                "contact:phone": "+48 227810262",
                "contact:email": "e.flaga@zielonka.pl",
                "contact:website": "http:\/\/www.p3.zielonka.pl",
                "ref:regon": "142548943",
                "ref:vatin": "PL1251579624",
                "operator": "Miasto Zielonka",
                "operator:type": "government",
                "amenity": "kindergarten"
            }
        }
    ]
}