{"type":"FeatureCollection","features":[{"id":47495,"type":"Feature","geometry":{"type":"Point","coordinates":[21.43829,52.39683]},"properties":{"ref:rspo":47495,"official_name":"Zesp\u00f3\u0142 Szk\u00f3\u0142 im. Zofii Solarzowej w Mi\u0105sem","name":"Zesp\u00f3\u0142 Szk\u00f3\u0142","addr:country":"PL","addr:postcode":"05-240","addr:city":"Mi\u0105se","addr:street":"ul. Kardyna\u0142a Wyszy\u0144skiego","addr:housenumber":"44","addr:teryt:simc":33784,"addr:teryt:sym_ul":521740,"contact:phone":"+48 297573050","contact:email":"miase@op.pl","contact:website":"http:\/\/zsmiase.edupage.org","ref:regon":"015548829","ref:vatin":"PL1251274385","operator":"Gmina T\u0142uszcz","operator:type":"government","landuse":"education","fixme":"amenity=school, amenity=college albo landuse=education w zale\u017cno\u015bci od tego, jakie plac\u00f3wki wchodz\u0105 w sk\u0142ad zespo\u0142u. Sprawd\u017a, kiedy stosowa\u0107 amenity=* a kiedy landuse=education.","note":"Children RSPO: 84733;84735"}},{"id":84733,"type":"Feature","geometry":{"type":"Point","coordinates":[21.43829,52.3968]},"properties":{"isced:level":"1;2","ref:rspo":84733,"official_name":"Szko\u0142a Podstawowa im. Zofii Solarzowej w Mi\u0105sem","name":"Szko\u0142a Podstawowa","addr:country":"PL","addr:postcode":"05-240","addr:city":"Mi\u0105se","addr:street":"ul. Kardyna\u0142a Wyszy\u0144skiego","addr:housenumber":"44","addr:teryt:simc":33784,"addr:teryt:sym_ul":521740,"contact:phone":"+48 297573050","contact:email":"miase@op.pl","contact:website":"http:\/\/zsmiase.edupage.org","ref:regon":"001220583","ref:vatin":"PL1251139173","operator":"Gmina T\u0142uszcz","operator:type":"government","amenity":"school","note":"Parent RSPO: 47495"}},{"id":84735,"type":"Feature","geometry":{"type":"Point","coordinates":[21.43829,52.396770000000004]},"properties":{"ref:rspo":84735,"official_name":"Przedszkole Samorz\u0105dowe w Zespole Szk\u00f3\u0142 im. Zofii Solarzowej w Mi\u0105sem","name":"Przedszkole Samorz\u0105dowe w Zespole Szk\u00f3\u0142","addr:country":"PL","addr:postcode":"05-240","addr:city":"Mi\u0105se","addr:street":"ul. Kardyna\u0142a Wyszy\u0144skiego","addr:housenumber":"44","addr:teryt:simc":33784,"addr:teryt:sym_ul":521740,"contact:phone":"+48 297573050","contact:email":"miase@op.pl","contact:website":"http:\/\/zsmiase.edupage.org","ref:regon":"146065609","ref:vatin":"PL1251274385","operator":"Gmina T\u0142uszcz","operator:type":"government","amenity":"kindergarten","note":"Parent RSPO: 47495"}},{"id":47498,"type":"Feature","geometry":{"type":"Point","coordinates":[21.40246,52.41191]},"properties":{"ref:rspo":47498,"official_name":"Zesp\u00f3\u0142 Szk\u00f3\u0142 w Jasienicy","name":"Zesp\u00f3\u0142 Szk\u00f3\u0142 w Jasienicy","addr:country":"PL","addr:postcode":"05-240","addr:city":"Jasienica","addr:street":"ul. Szkolna","addr:housenumber":"8","addr:teryt:simc":21970,"addr:teryt:sym_ul":521609,"contact:phone":"+48 297573113","contact:email":"zsjasienica@wp.pl","contact:website":"http:\/\/zsjasienica.pl","ref:regon":"140660392","ref:vatin":"PL1251396208","operator":"Gmina T\u0142uszcz","operator:type":"government","landuse":"education","fixme":"amenity=school, amenity=college albo landuse=education w zale\u017cno\u015bci od tego, jakie plac\u00f3wki wchodz\u0105 w sk\u0142ad zespo\u0142u. Sprawd\u017a, kiedy stosowa\u0107 amenity=* a kiedy landuse=education.","note":"Children RSPO: 83801;83805"}},{"id":83801,"type":"Feature","geometry":{"type":"Point","coordinates":[21.40246,52.41188]},"properties":{"isced:level":"1;2","ref:rspo":83801,"official_name":"Szko\u0142a Podstawowa im. Janusza Korczaka w Jasienicy","name":"Szko\u0142a Podstawowa","addr:country":"PL","addr:postcode":"05-240","addr:city":"Jasienica","addr:street":"ul. Szkolna","addr:housenumber":"8","addr:teryt:simc":21970,"addr:teryt:sym_ul":521609,"contact:phone":"+48 297573113","contact:email":"zsjasienica@wp.pl","contact:website":"http:\/\/zsjasienica.pl","ref:regon":"001106380","ref:vatin":"PL1251139204","operator":"Gmina T\u0142uszcz","operator:type":"government","amenity":"school","note":"Parent RSPO: 47498"}},{"id":83805,"type":"Feature","geometry":{"type":"Point","coordinates":[21.40246,52.41185]},"properties":{"ref:rspo":83805,"official_name":"Przedszkole Samorz\u0105dowe im. Kr\u00f3la Maciusia Pierwszego w Jasienicy","name":"Przedszkole Samorz\u0105dowe","addr:country":"PL","addr:postcode":"05-240","addr:city":"Jasienica","addr:street":"ul. Szkolna","addr:housenumber":"8","addr:teryt:simc":21970,"addr:teryt:sym_ul":521609,"contact:phone":"+48 297573113","contact:email":"zsjasienica@wp.pl","contact:website":"http:\/\/zsjasienica.pl","ref:regon":"141109874","ref:vatin":"PL1251396208","operator":"Gmina T\u0142uszcz","operator:type":"government","amenity":"kindergarten","note":"Parent RSPO: 47498"}},{"id":51806,"type":"Feature","geometry":{"type":"Point","coordinates":[21.39722,52.41698]},"properties":{"ref:rspo":51806,"official_name":"Przedszkole Samorz\u0105dowe Ba\u015bniowa Kraina w T\u0142uszczu","name":"Przedszkole Samorz\u0105dowe Ba\u015bniowa Kraina w T\u0142uszczu","addr:country":"PL","addr:postcode":"05-240","addr:city":"T\u0142uszcz","addr:street":"ul. Adama Mickiewicza","addr:housenumber":"7","addr:teryt:simc":12740,"addr:teryt:sym_ul":966441,"contact:phone":"+48 297573237","contact:email":"basniowakraina@poczta.onet.pl","ref:regon":"000912988","ref:vatin":"PL1251142896","operator":"Gmina T\u0142uszcz","operator:type":"government","amenity":"kindergarten"}},{"id":84731,"type":"Feature","geometry":{"type":"Point","coordinates":[21.49299,52.41937]},"properties":{"isced:level":"1;2","ref:rspo":84731,"official_name":"Szko\u0142a Podstawowa im. Ks.jana Twardowskiego w Stryjkach","name":"Szko\u0142a Podstawowa","addr:country":"PL","addr:postcode":"05-240","addr:place":"Stryjki","addr:housenumber":"2","addr:teryt:sym_ul":521928,"contact:phone":"+48 297573030","contact:email":"szkolastryjki@o2.pl","contact:website":"http:\/\/szkolastryjki.pl","ref:regon":"001106404","ref:vatin":"PL1251274391","operator":"Gmina T\u0142uszcz","operator:type":"government","amenity":"school"}},{"id":50375,"type":"Feature","geometry":{"type":"Point","coordinates":[21.43568,52.42722]},"properties":{"ref:rspo":50375,"official_name":"Prywatne Przedszkole 'Zuch'","name":"Prywatne Przedszkole 'Zuch'","addr:country":"PL","addr:postcode":"05-240","addr:city":"T\u0142uszcz","addr:street":"ul. Adama Mickiewicza","addr:housenumber":"16","addr:teryt:simc":12740,"addr:teryt:sym_ul":966441,"contact:phone":"+48 606446279","contact:email":"zuch.tluszcz@gmail.com","ref:regon":"146404537","ref:vatin":"PL1251594598","operator":"Aleksandra Zajdenc","operator:type":"private","amenity":"kindergarten"}},{"id":50379,"type":"Feature","geometry":{"type":"Point","coordinates":[21.44301,52.42837]},"properties":{"ref:rspo":50379,"official_name":"Przedszkole Niepubliczne Zgromadzenia Si\u00f3str Od Anio\u0142\u00f3w w T\u0142uszczu","name":"Przedszkole Niepubliczne Zgromadzenia Si\u00f3str Od Anio\u0142\u00f3w w T\u0142uszczu","addr:country":"PL","addr:postcode":"05-240","addr:city":"T\u0142uszcz","addr:street":"ul. Rac\u0142awicka","addr:housenumber":"9","addr:teryt:simc":18273,"addr:teryt:sym_ul":966441,"contact:email":"anielskie.przedszkole.tluszcz@gmail.com","ref:regon":"146404595","operator":"Zgromadzenie Si\u00f3str Od Anio\u0142\u00f3w Dom Generalny","operator:type":"religious","amenity":"kindergarten"}},{"id":278971,"type":"Feature","geometry":{"type":"Point","coordinates":[21.43253,52.42883]},"properties":{"ref:rspo":278971,"official_name":"Niepubliczna Poradnia Psychologiczno - Pedagogiczna Manufaktura Terapii","name":"Niepubliczna Poradnia Psychologiczno - Pedagogiczna Manufaktura Terapii","addr:country":"PL","addr:postcode":"05-240","addr:city":"T\u0142uszcz","addr:street":"ul. Warszawska","addr:housenumber":"21","addr:teryt:simc":23682,"addr:teryt:sym_ul":966441,"contact:phone":"+48 602397036","contact:email":"manufaktura.terapii@gmail.com","contact:website":"http:\/\/www.manufaktura-terapii.pl","ref:regon":"520321010","operator":"Hanna Szyszkowska","operator:type":"private","healthcare":"councelling","counselling_type":"education","fixme":"w zale\u017cno\u015bci od przedmiotu dzia\u0142alno\u015bci (np. healthcare=councelling + counselling_type=education albo healthcare=psychotherapist)"}},{"id":72723,"type":"Feature","geometry":{"type":"Point","coordinates":[21.42935,52.42963]},"properties":{"ref:rspo":72723,"official_name":"Zesp\u00f3\u0142 Szk\u00f3\u0142 w T\u0142uszczu","name":"Zesp\u00f3\u0142 Szk\u00f3\u0142 w T\u0142uszczu","addr:country":"PL","addr:postcode":"05-240","addr:city":"T\u0142uszcz","addr:street":"ul. Radzymi\u0144ska","addr:housenumber":"2","addr:teryt:simc":18373,"addr:teryt:sym_ul":966441,"contact:phone":"+48 297774200","contact:email":"zsztluszcz@poczta.onet.pl","contact:website":"http:\/\/www.zstluszcz.pl","ref:regon":"015185841","operator":"Powiat Wo\u0142omi\u0144ski","operator:type":"government","landuse":"education","fixme":"amenity=school, amenity=college albo landuse=education w zale\u017cno\u015bci od tego, jakie plac\u00f3wki wchodz\u0105 w sk\u0142ad zespo\u0142u. Sprawd\u017a, kiedy stosowa\u0107 amenity=* a kiedy landuse=education.","note":"Children RSPO: 103546;103551;103552"}},{"id":196291,"type":"Feature","geometry":{"type":"Point","coordinates":[21.42935,52.4296]},"properties":{"isced:level":"1;2","ref:rspo":196291,"official_name":"Szko\u0142a Podstawowa im.kr\u00f3lowej Jadwigi w T\u0142uszczu","name":"Szko\u0142a Podstawowa im.kr\u00f3lowej Jadwigi w T\u0142uszczu","addr:country":"PL","addr:postcode":"05-240","addr:city":"T\u0142uszcz","addr:street":"ul. Radzymi\u0144ska","addr:housenumber":"2","addr:teryt:simc":18373,"addr:teryt:sym_ul":966441,"contact:phone":"+48 297774166","contact:email":"gimntluszcz@wp.pl","contact:website":"http:\/\/sp2tluszcz.edu.pl","ref:regon":"367991153","operator":"Gmina T\u0142uszcz","operator:type":"government","amenity":"school"}},{"id":103546,"type":"Feature","geometry":{"type":"Point","coordinates":[21.42935,52.429570000000005]},"properties":{"isced:level":"3","ref:rspo":103546,"official_name":"Liceum Og\u00f3lnokszta\u0142c\u0105ce im. Krzysztofa Kamila Baczy\u0144skiego","name":"Liceum Og\u00f3lnokszta\u0142c\u0105ce","addr:country":"PL","addr:postcode":"05-240","addr:city":"T\u0142uszcz","addr:street":"ul. Radzymi\u0144ska","addr:housenumber":"2","addr:teryt:simc":18373,"addr:teryt:sym_ul":966441,"contact:phone":"+48 297774200","contact:email":"zsztluszcz@poczta.onet.pl","contact:website":"http:\/\/www.zstluszcz.pl","ref:regon":"015532120","operator":"Powiat Wo\u0142omi\u0144ski","operator:type":"government","amenity":"school","note":"Parent RSPO: 72723"}},{"id":103551,"type":"Feature","geometry":{"type":"Point","coordinates":[21.42935,52.42954]},"properties":{"isced:level":"3","ref:rspo":103551,"official_name":"Bran\u017cowa Szko\u0142a I Stopnia im. Krzysztofa Kamila Baczy\u0144skiego","name":"Bran\u017cowa Szko\u0142a I Stopnia","addr:country":"PL","addr:postcode":"05-240","addr:city":"T\u0142uszcz","addr:street":"ul. Radzymi\u0144ska","addr:housenumber":"2","addr:teryt:simc":18373,"addr:teryt:sym_ul":966441,"contact:phone":"+48 297774200","contact:email":"zawtluszcz@wp.pl","contact:website":"http:\/\/www.zstluszcz.pl","ref:regon":"015532159","operator":"Powiat Wo\u0142omi\u0144ski","operator:type":"government","amenity":"school","note":"Parent RSPO: 72723"}},{"id":103552,"type":"Feature","geometry":{"type":"Point","coordinates":[21.42935,52.42951]},"properties":{"isced:level":"3","ref:rspo":103552,"official_name":"Technikum im. Krzysztofa Kamila Baczy\u0144skiego","name":"Technikum","addr:country":"PL","addr:postcode":"05-240","addr:city":"T\u0142uszcz","addr:street":"ul. Radzymi\u0144ska","addr:housenumber":"2","addr:teryt:simc":18373,"addr:teryt:sym_ul":966441,"contact:phone":"+48 297774200","contact:email":"tmtluszcz@wp.pl","contact:website":"http:\/\/www.zstluszcz.pl","ref:regon":"015532188","operator":"Powiat Wo\u0142omi\u0144ski","operator:type":"government","amenity":"school","note":"Parent RSPO: 72723"}},{"id":123787,"type":"Feature","geometry":{"type":"Point","coordinates":[21.43748,52.4299899]},"properties":{"ref:rspo":123787,"official_name":"Niepubliczne Przedszkole Spo\u0142eczne J\u0119zykowo-Artystyczne \"Galileo\" Stowarzyszenia \"Kastor - Inicjatywa dla Rozwoju\"","name":"Niepubliczne Przedszkole Spo\u0142eczne J\u0119zykowo-Artystyczne \"Galileo\" Stowarzyszenia \"Kastor - Inicjatywa dla Rozwoju\"","addr:country":"PL","addr:postcode":"05-240","addr:city":"T\u0142uszcz","addr:street":"ul. Powsta\u0144c\u00f3w","addr:housenumber":"9","addr:teryt:simc":17354,"addr:teryt:sym_ul":966441,"contact:phone":"+48 608179795","contact:email":"przedszkole@kastor.org.pl","contact:website":"http:\/\/przedszkole-galileo.pl","ref:regon":"147351843","operator":"Stowarzyszenie Kastor - Inicjatywa Dla Rozwoju","operator:type":"ngo","amenity":"kindergarten"}},{"id":51804,"type":"Feature","geometry":{"type":"Point","coordinates":[21.4426,52.43099]},"properties":{"isced:level":"1;2","ref:rspo":51804,"official_name":"Szko\u0142a Podstawowa im. Jana Paw\u0142a II w T\u0142uszczu","name":"Szko\u0142a Podstawowa","addr:country":"PL","addr:postcode":"05-240","addr:city":"T\u0142uszcz","addr:street":"ul. Ko\u015bcielna","addr:housenumber":"1","addr:teryt:simc":9546,"addr:teryt:sym_ul":966441,"contact:phone":"+48 297573002","contact:email":"sp_tl_1@op.pl","contact:website":"http:\/\/sptluszcz.pl","ref:regon":"017215204","ref:vatin":"PL1251142873","operator":"Gmina T\u0142uszcz","operator:type":"government","amenity":"school"}},{"id":61567,"type":"Feature","geometry":{"type":"Point","coordinates":[21.44323,52.43119]},"properties":{"ref:rspo":61567,"official_name":"Poradnia Psychologiczno-Pedagogiczna w T\u0142uszczu","name":"Poradnia Psychologiczno-Pedagogiczna w T\u0142uszczu","addr:country":"PL","addr:postcode":"05-240","addr:city":"T\u0142uszcz","addr:street":"ul. Ko\u015bcielna","addr:housenumber":"1a","addr:teryt:simc":9546,"addr:teryt:sym_ul":966441,"contact:phone":"+48 297573897","contact:email":"ppptluszcz@op.pl","contact:website":"http:\/\/www.ppptluszcz.pl","ref:regon":"001222091","operator":"Powiat Wo\u0142omi\u0144ski","operator:type":"government","healthcare":"councelling","counselling_type":"education","fixme":"w zale\u017cno\u015bci od przedmiotu dzia\u0142alno\u015bci (np. healthcare=councelling + counselling_type=education albo healthcare=psychotherapist)"}},{"id":43349,"type":"Feature","geometry":{"type":"Point","coordinates":[21.46775,52.44753]},"properties":{"ref:rspo":43349,"official_name":"Zesp\u00f3\u0142 Szk\u00f3\u0142 w Postoliskach","name":"Zesp\u00f3\u0142 Szk\u00f3\u0142 w Postoliskach","addr:country":"PL","addr:postcode":"05-240","addr:city":"Postoliska","addr:street":"pl. Plac 3-go Maja","addr:housenumber":"18","addr:teryt:simc":48850,"addr:teryt:sym_ul":521822,"contact:phone":"+48 297573025","contact:email":"zspszpp@interia.pl","contact:website":"http:\/\/zspostoliska.szkolnastrona.pl","ref:regon":"015548812","ref:vatin":"PL1251274379","operator":"Gmina T\u0142uszcz","operator:type":"government","landuse":"education","fixme":"amenity=school, amenity=college albo landuse=education w zale\u017cno\u015bci od tego, jakie plac\u00f3wki wchodz\u0105 w sk\u0142ad zespo\u0142u. Sprawd\u017a, kiedy stosowa\u0107 amenity=* a kiedy landuse=education.","note":"Children RSPO: 69349;262299"}},{"id":69349,"type":"Feature","geometry":{"type":"Point","coordinates":[21.46775,52.4475]},"properties":{"isced:level":"1;2","ref:rspo":69349,"official_name":"Szko\u0142a Podstawowa im. Jana Kielaka w Postoliskach","name":"Szko\u0142a Podstawowa","addr:country":"PL","addr:postcode":"05-240","addr:city":"Postoliska","addr:street":"pl. Plac 3-go Maja","addr:housenumber":"18","addr:teryt:simc":48850,"addr:teryt:sym_ul":521822,"contact:phone":"+48 297573025","contact:email":"zspszpp@interia.pl","contact:website":"http:\/\/zspostoliska.szkolnastrona.pl","ref:regon":"001106396","ref:vatin":"PL1251136921","operator":"Gmina T\u0142uszcz","operator:type":"government","amenity":"school","note":"Parent RSPO: 43349"}},{"id":262299,"type":"Feature","geometry":{"type":"Point","coordinates":[21.46775,52.44747]},"properties":{"ref:rspo":262299,"official_name":"Przedszkole Samorz\u0105dowe w Postoliskach","name":"Przedszkole Samorz\u0105dowe w Postoliskach","addr:country":"PL","addr:postcode":"05-240","addr:city":"Postoliska","addr:street":"pl. Plac 3-go Maja","addr:housenumber":"18","addr:teryt:simc":48850,"addr:teryt:sym_ul":521822,"contact:phone":"+48 297573025","contact:email":"zspszpp@interia.pl","ref:regon":"368000207","operator":"Gmina T\u0142uszcz","operator:type":"government","amenity":"kindergarten","note":"Parent RSPO: 43349"}},{"id":47500,"type":"Feature","geometry":{"type":"Point","coordinates":[21.40008,52.45179]},"properties":{"ref:rspo":47500,"official_name":"Zesp\u00f3\u0142 Szko\u0142 w Koz\u0142ach","name":"Zesp\u00f3\u0142 Szko\u0142 w Koz\u0142ach","addr:country":"PL","addr:postcode":"05-240","addr:place":"Koz\u0142y","addr:housenumber":"27","addr:teryt:sym_ul":521680,"contact:phone":"+48 297771667","contact:email":"szkolawkozlach@wp.pl","contact:website":"http:\/\/spkozly.edupage.org","ref:regon":"141653833","ref:vatin":"PL1251514576","operator":"Gmina T\u0142uszcz","operator:type":"government","landuse":"education","fixme":"amenity=school, amenity=college albo landuse=education w zale\u017cno\u015bci od tego, jakie plac\u00f3wki wchodz\u0105 w sk\u0142ad zespo\u0142u. Sprawd\u017a, kiedy stosowa\u0107 amenity=* a kiedy landuse=education.","note":"Children RSPO: 84738;84739"}},{"id":84738,"type":"Feature","geometry":{"type":"Point","coordinates":[21.40008,52.45176]},"properties":{"isced:level":"1;2","ref:rspo":84738,"official_name":"Szko\u0142a Podstawowa Z Oddzia\u0142ami Integracyjnymi im. Wac\u0142awa Sieroszewskiego w Koz\u0142ach","name":"Szko\u0142a Podstawowa Z Oddzia\u0142ami Integracyjnymi","addr:country":"PL","addr:postcode":"05-240","addr:place":"Koz\u0142y","addr:housenumber":"27","addr:teryt:sym_ul":521680,"contact:phone":"+48 297771667","contact:email":"szkolawkozlach@wp.pl","contact:website":"http:\/\/spkozly.edupage.org","ref:regon":"001244827","ref:vatin":"PL1251143068","operator":"Gmina T\u0142uszcz","operator:type":"government","amenity":"school","note":"Parent RSPO: 47500"}},{"id":84739,"type":"Feature","geometry":{"type":"Point","coordinates":[21.40008,52.451730000000005]},"properties":{"ref:rspo":84739,"official_name":"Przedszkole Samorz\u0105dowe w Koz\u0142ach","name":"Przedszkole Samorz\u0105dowe w Koz\u0142ach","addr:country":"PL","addr:postcode":"05-240","addr:place":"Koz\u0142y","addr:housenumber":"27","addr:teryt:sym_ul":521680,"contact:phone":"+48 297771667","contact:email":"szkolawkozlach@wp.pl","contact:website":"http:\/\/spkozly.edupage.org","ref:regon":"141516160","ref:vatin":"PL1251502047","operator":"Gmina T\u0142uszcz","operator:type":"government","amenity":"kindergarten","note":"Parent RSPO: 47500"}},{"id":47493,"type":"Feature","geometry":{"type":"Point","coordinates":[21.50198,52.4680899]},"properties":{"ref:rspo":47493,"official_name":"Zesp\u00f3\u0142 Szk\u00f3\u0142 im. W\u0142adys\u0142awa Podkowi\u0144skiego w Mokrej Wsi","name":"Zesp\u00f3\u0142 Szk\u00f3\u0142","addr:country":"PL","addr:postcode":"05-240","addr:city":"Mokra Wie\u015b","addr:street":"ul. Marii Konopnickiej","addr:housenumber":"12","addr:teryt:simc":9186,"addr:teryt:sym_ul":521762,"contact:phone":"+48 295910017","contact:email":"zsmokrawies@wp.pl","contact:website":"http:\/\/zsmokrawies.edupage.org","ref:regon":"015552995","ref:vatin":"PL1251280598","operator":"Gmina T\u0142uszcz","operator:type":"government","landuse":"education","fixme":"amenity=school, amenity=college albo landuse=education w zale\u017cno\u015bci od tego, jakie plac\u00f3wki wchodz\u0105 w sk\u0142ad zespo\u0142u. Sprawd\u017a, kiedy stosowa\u0107 amenity=* a kiedy landuse=education.","note":"Children RSPO: 84737;87210"}},{"id":84737,"type":"Feature","geometry":{"type":"Point","coordinates":[21.50198,52.4680599]},"properties":{"ref:rspo":84737,"official_name":"Przedszkole Samorz\u0105dowe w Mokrej Wsi","name":"Przedszkole Samorz\u0105dowe w Mokrej Wsi","addr:country":"PL","addr:postcode":"05-240","addr:city":"Mokra Wie\u015b","addr:street":"ul. Marii Konopnickiej","addr:housenumber":"12","addr:teryt:simc":9186,"addr:teryt:sym_ul":521762,"contact:phone":"+48 295910017","contact:email":"zsmokrawies@wp.pl","contact:website":"http:\/\/zsmokrawies.edupage.org","ref:regon":"146423032","ref:vatin":"PL1251280598","operator":"Gmina T\u0142uszcz","operator:type":"government","amenity":"kindergarten","note":"Parent RSPO: 47493"}},{"id":87210,"type":"Feature","geometry":{"type":"Point","coordinates":[21.50198,52.468029900000005]},"properties":{"isced:level":"1;2","ref:rspo":87210,"official_name":"Szko\u0142a Podstawowa w Mokrej Wsi","name":"Szko\u0142a Podstawowa w Mokrej Wsi","addr:country":"PL","addr:postcode":"05-240","addr:city":"Mokra Wie\u015b","addr:street":"ul. Marii Konopnickiej","addr:housenumber":"12","addr:teryt:simc":9186,"addr:teryt:sym_ul":521762,"contact:phone":"+48 295910017","contact:email":"zsmokrawies@wp.pl","contact:website":"http:\/\/zsmokrawies.edupage.org","ref:regon":"001106410","ref:vatin":"PL1251280598","operator":"Gmina T\u0142uszcz","operator:type":"government","amenity":"school","note":"Parent RSPO: 47493"}}]}