{
    "type": "FeatureCollection",
    "features": [
        {
            "id": 19635,
            "type": "Feature",
            "geometry": {
                "type": "Point",
                "coordinates": [
                    21.2184199,
                    52.30895
                ]
            },
            "properties": {
                "isced:level": "1;2",
                "ref:rspo": 19635,
                "official_name": "Szko\u0142a Podstawowa im. Ks. Ignacego Skorupki w Ossowie",
                "name": "Szko\u0142a Podstawowa",
                "addr:postcode": "05-230",
                "addr:city": "Oss\u00f3w",
                "addr:street": "Matarewicza",
                "addr:housenumber": "148",
                "addr:city:simc": 10292,
                "addr:street:sym_ul": 35242,
                "phone": "+48 227861018",
                "ref:regon": "000799813",
                "ref:vatin": "PL1251368005",
                "operator": "Gmina Wo\u0142omin",
                "operator:type": "government",
                "amenity": "school"
            }
        },
        {
            "id": 123757,
            "type": "Feature",
            "geometry": {
                "type": "Point",
                "coordinates": [
                    21.2713,
                    52.31783
                ]
            },
            "properties": {
                "ref:rspo": 123757,
                "official_name": "Zesp\u00f3\u0142 Szkolno - Przedszkolny w Le\u015bniakowi\u017anie",
                "name": "Zesp\u00f3\u0142 Szkolno - Przedszkolny w Le\u015bniakowi\u017anie",
                "addr:postcode": "05-200",
                "addr:city": "Le\u015bniakowizna",
                "addr:street": "Kasprzykiewicza",
                "addr:housenumber": "153",
                "addr:city:simc": 10234,
                "addr:street:sym_ul": 35243,
                "phone": "+48 222019011",
                "email": "zsplesniakowizna@gmail.com",
                "ref:regon": "147349013",
                "operator": "Gmina Wo\u0142omin",
                "operator:type": "government",
                "landuse": "education",
                "fixme": "amenity=school, amenity=college albo landuse=education w zale\u017cno\u015bci od tego, jakie plac\u00f3wki wchodz\u0105 w sk\u0142ad zespo\u0142u. Sprawd\u017a, kiedy stosowa\u0107 amenity=* a kiedy landuse=education.",
                "note": "Children RSPO: 15225;123841"
            }
        },
        {
            "id": 15225,
            "type": "Feature",
            "geometry": {
                "type": "Point",
                "coordinates": [
                    21.2713,
                    52.3178
                ]
            },
            "properties": {
                "isced:level": "1;2",
                "ref:rspo": 15225,
                "official_name": "Szko\u0142a Podstawowa w Le\u015bniakowi\u017anie",
                "name": "Szko\u0142a Podstawowa w Le\u015bniakowi\u017anie",
                "addr:postcode": "05-200",
                "addr:city": "Le\u015bniakowizna",
                "addr:street": "Kasprzykiewicza",
                "addr:housenumber": "153",
                "addr:city:simc": 10234,
                "addr:street:sym_ul": 35243,
                "phone": "+48 222019011",
                "email": "zsplesniakowizna@gmail.com",
                "ref:regon": "017227911",
                "ref:vatin": "PL1251141276",
                "operator": "Gmina Wo\u0142omin",
                "operator:type": "government",
                "amenity": "school",
                "note": "Parent RSPO: 123757"
            }
        },
        {
            "id": 123841,
            "type": "Feature",
            "geometry": {
                "type": "Point",
                "coordinates": [
                    21.2713,
                    52.31777
                ]
            },
            "properties": {
                "ref:rspo": 123841,
                "official_name": "Przedszkole w Le\u015bniakowi\u017anie",
                "name": "Przedszkole w Le\u015bniakowi\u017anie",
                "addr:postcode": "05-200",
                "addr:city": "Le\u015bniakowizna",
                "addr:street": "Kasprzykiewicza",
                "addr:housenumber": "153",
                "addr:city:simc": 10234,
                "addr:street:sym_ul": 35243,
                "phone": "+48 227879477",
                "ref:regon": "147355692",
                "operator": "Gmina Wo\u0142omin",
                "operator:type": "government",
                "amenity": "kindergarten",
                "note": "Parent RSPO: 123757"
            }
        },
        {
            "id": 54438,
            "type": "Feature",
            "geometry": {
                "type": "Point",
                "coordinates": [
                    21.29422,
                    52.31821
                ]
            },
            "properties": {
                "ref:rspo": 54438,
                "official_name": "Akademia Dzieci\u0119ca Promyk",
                "name": "Akademia Dzieci\u0119ca Promyk",
                "addr:postcode": "05-200",
                "addr:city": "Wo\u0142omin",
                "addr:street": "Mazowiecka",
                "addr:housenumber": "17",
                "addr:city:simc": 921792,
                "addr:street:sym_ul": 12540,
                "phone": "+48 227871596",
                "email": "akademia.promyk@gmail.com",
                "ref:regon": "146379911",
                "ref:vatin": "PL1250200628",
                "operator": "Dane Do Uzupe\u0142nienia",
                "operator:type": "private",
                "amenity": "kindergarten"
            }
        },
        {
            "id": 54435,
            "type": "Feature",
            "geometry": {
                "type": "Point",
                "coordinates": [
                    21.28448,
                    52.32578
                ]
            },
            "properties": {
                "ref:rspo": 54435,
                "official_name": "Niepubliczny Punkt Przedszkolny Klub Radosnego Przedszkolaka",
                "name": "Niepubliczny Punkt Przedszkolny Klub Radosnego Przedszkolaka",
                "addr:postcode": "05-200",
                "addr:city": "Majdan",
                "addr:street": "Watyka\u0144ska",
                "addr:housenumber": "49",
                "addr:city:simc": 10257,
                "addr:street:sym_ul": 23745,
                "phone": "+48 503097486",
                "email": "mkmajdan@wp.pl",
                "ref:regon": "146378811",
                "ref:vatin": "PL1250926897",
                "operator": "Dane Do Uzupe\u0142nienia",
                "operator:type": "private",
                "amenity": "kindergarten"
            }
        },
        {
            "id": 127715,
            "type": "Feature",
            "geometry": {
                "type": "Point",
                "coordinates": [
                    21.25037,
                    52.33481
                ]
            },
            "properties": {
                "ref:rspo": 127715,
                "official_name": "Niepubliczne Przedszkole Le\u015bny Zak\u0105tek",
                "name": "Niepubliczne Przedszkole Le\u015bny Zak\u0105tek",
                "addr:postcode": "05-200",
                "addr:city": "Wo\u0142omin",
                "addr:street": "Sikorskiego",
                "addr:housenumber": "82A",
                "addr:city:simc": 921792,
                "addr:street:sym_ul": 19900,
                "phone": "+48 784051831",
                "email": "andrzejszulc3@gmail.com",
                "ref:regon": "361806551",
                "ref:vatin": "PL1250370690",
                "operator": "Niepubliczne Przedszkole Le\u015bny Zak\u0105tek Sp\u00f3\u0142ka Z Ograniczon\u0105 Odpowiedzialno\u015bci\u0105",
                "operator:type": "private",
                "amenity": "kindergarten"
            }
        },
        {
            "id": 60813,
            "type": "Feature",
            "geometry": {
                "type": "Point",
                "coordinates": [
                    21.24309,
                    52.33583
                ]
            },
            "properties": {
                "ref:rspo": 60813,
                "official_name": "Poradnia Psychologiczno-Pedagogiczna w Wo\u0142ominie",
                "name": "Poradnia Psychologiczno-Pedagogiczna w Wo\u0142ominie",
                "addr:postcode": "05-200",
                "addr:city": "Wo\u0142omin",
                "addr:street": "Legion\u00f3w",
                "addr:housenumber": "85",
                "addr:city:simc": 921792,
                "addr:street:sym_ul": 10769,
                "phone": "+48 227762785",
                "email": "pppwolomin@wp.pl",
                "website": "http:\/\/ppp.wolomin.pl",
                "ref:regon": "000837821",
                "operator": "Powiat Wo\u0142omi\u0144ski",
                "operator:type": "government",
                "healthcare": "counselling",
                "counselling_type": "education",
                "fixme": "w zale\u017cno\u015bci od przedmiotu dzia\u0142alno\u015bci (np. healthcare=counselling + counselling_type=education albo healthcare=psychotherapist)"
            }
        },
        {
            "id": 72859,
            "type": "Feature",
            "geometry": {
                "type": "Point",
                "coordinates": [
                    21.24309,
                    52.3358
                ]
            },
            "properties": {
                "ref:rspo": 72859,
                "official_name": "Zesp\u00f3\u0142 Szk\u00f3\u0142 w Wo\u0142ominie",
                "name": "Zesp\u00f3\u0142 Szk\u00f3\u0142 w Wo\u0142ominie",
                "addr:postcode": "05-200",
                "addr:city": "Wo\u0142omin",
                "addr:street": "Legion\u00f3w",
                "addr:housenumber": "85",
                "addr:city:simc": 921792,
                "addr:street:sym_ul": 10769,
                "phone": "+48 227762753",
                "email": "sekretariat@zs-wolomin.pl",
                "website": "http:\/\/www.zs-wolomin.edupage.org",
                "ref:regon": "000829810",
                "operator": "Powiat Wo\u0142omi\u0144ski",
                "operator:type": "government",
                "landuse": "education",
                "fixme": "amenity=school, amenity=college albo landuse=education w zale\u017cno\u015bci od tego, jakie plac\u00f3wki wchodz\u0105 w sk\u0142ad zespo\u0142u. Sprawd\u017a, kiedy stosowa\u0107 amenity=* a kiedy landuse=education.",
                "note": "Children RSPO: 103985;103986;103988;122901"
            }
        },
        {
            "id": 106018,
            "type": "Feature",
            "geometry": {
                "type": "Point",
                "coordinates": [
                    21.24309,
                    52.335770000000004
                ]
            },
            "properties": {
                "ref:rspo": 106018,
                "official_name": "Prywatna Szko\u0142a Muzyczna I I II St. im. W. Lutos\u0142awskiego w Wo\u0142ominie",
                "name": "Prywatna Szko\u0142a Muzyczna I I II St.",
                "addr:postcode": "05-200",
                "addr:city": "Wo\u0142omin",
                "addr:street": "Legion\u00f3w",
                "addr:housenumber": "85",
                "addr:city:simc": 921792,
                "addr:street:sym_ul": 10769,
                "phone": "+48 227872100",
                "email": "szkola@muzyczna.wolomin.pl",
                "website": "http:\/\/www.muzyczna.wolomin.pl",
                "ref:regon": "146467680",
                "operator": "\u0141ukasz Rozbicki",
                "operator:type": "private",
                "landuse": "education",
                "fixme": "amenity=school, amenity=college albo landuse=education w zale\u017cno\u015bci od tego, jakie plac\u00f3wki wchodz\u0105 w sk\u0142ad zespo\u0142u. Sprawd\u017a, kiedy stosowa\u0107 amenity=* a kiedy landuse=education.",
                "note": "Children RSPO: 43341;106561"
            }
        },
        {
            "id": 103985,
            "type": "Feature",
            "geometry": {
                "type": "Point",
                "coordinates": [
                    21.24309,
                    52.33574
                ]
            },
            "properties": {
                "isced:level": "3",
                "ref:rspo": 103985,
                "official_name": "Technikum",
                "name": "Technikum",
                "addr:postcode": "05-200",
                "addr:city": "Wo\u0142omin",
                "addr:street": "Legion\u00f3w",
                "addr:housenumber": "85",
                "addr:city:simc": 921792,
                "addr:street:sym_ul": 10769,
                "phone": "+48 227762753",
                "email": "sekretariat@zs-wolomin.pl",
                "website": "http:\/\/www.zs-wolomin.edupage.org",
                "ref:regon": "141473404",
                "operator": "Powiat Wo\u0142omi\u0144ski",
                "operator:type": "government",
                "amenity": "school",
                "note": "Parent RSPO: 72859"
            }
        },
        {
            "id": 103986,
            "type": "Feature",
            "geometry": {
                "type": "Point",
                "coordinates": [
                    21.24309,
                    52.33571
                ]
            },
            "properties": {
                "isced:level": "3",
                "ref:rspo": 103986,
                "official_name": "Bran\u017cowa Szko\u0142a I Stopnia Z Oddzia\u0142ami Integracyjnymi",
                "name": "Bran\u017cowa Szko\u0142a I Stopnia Z Oddzia\u0142ami Integracyjnymi",
                "addr:postcode": "05-200",
                "addr:city": "Wo\u0142omin",
                "addr:street": "Legion\u00f3w",
                "addr:housenumber": "85",
                "addr:city:simc": 921792,
                "addr:street:sym_ul": 10769,
                "phone": "+48 227762753",
                "email": "sekretariat@zs-wolomin.pl",
                "website": "http:\/\/www.zs-wolomin.edupage.org",
                "ref:regon": "015546262",
                "operator": "Powiat Wo\u0142omi\u0144ski",
                "operator:type": "government",
                "amenity": "school",
                "note": "Parent RSPO: 72859"
            }
        },
        {
            "id": 103988,
            "type": "Feature",
            "geometry": {
                "type": "Point",
                "coordinates": [
                    21.24309,
                    52.33568
                ]
            },
            "properties": {
                "isced:level": "3",
                "ref:rspo": 103988,
                "official_name": "Liceum Og\u00f3lnokszta\u0142c\u0105ce dla Doros\u0142ych",
                "name": "Liceum Og\u00f3lnokszta\u0142c\u0105ce dla Doros\u0142ych",
                "addr:postcode": "05-200",
                "addr:city": "Wo\u0142omin",
                "addr:street": "Legion\u00f3w",
                "addr:housenumber": "85",
                "addr:city:simc": 921792,
                "addr:street:sym_ul": 10769,
                "phone": "+48 227762753",
                "email": "sekretariat@zs-wolomin.pl",
                "website": "http:\/\/www.zs-wolomin.edupage.org",
                "ref:regon": "146460369",
                "operator": "Powiat Wo\u0142omi\u0144ski",
                "operator:type": "government",
                "amenity": "school",
                "note": "Parent RSPO: 72859"
            }
        },
        {
            "id": 122901,
            "type": "Feature",
            "geometry": {
                "type": "Point",
                "coordinates": [
                    21.24309,
                    52.33565
                ]
            },
            "properties": {
                "isced:level": "4",
                "ref:rspo": 122901,
                "official_name": "Szko\u0142a Policealna",
                "name": "Szko\u0142a Policealna",
                "addr:postcode": "05-200",
                "addr:city": "Wo\u0142omin",
                "addr:street": "Legion\u00f3w",
                "addr:housenumber": "85",
                "addr:city:simc": 921792,
                "addr:street:sym_ul": 10769,
                "phone": "+48 227762753",
                "email": "sekretariat@zs-wolomin.pl",
                "website": "http:\/\/www.zs-wolomin.edupage.org",
                "ref:regon": "147207951",
                "operator": "Powiat Wo\u0142omi\u0144ski",
                "operator:type": "government",
                "amenity": "college",
                "note": "Parent RSPO: 72859"
            }
        },
        {
            "id": 43341,
            "type": "Feature",
            "geometry": {
                "type": "Point",
                "coordinates": [
                    21.24309,
                    52.33562
                ]
            },
            "properties": {
                "ref:rspo": 43341,
                "official_name": "Prywatna Szko\u0142a Muzyczna I St. im. Witolda Lutos\u0142awskiego w Wo\u0142ominie",
                "name": "Prywatna Szko\u0142a Muzyczna I St.",
                "addr:postcode": "05-200",
                "addr:city": "Wo\u0142omin",
                "addr:street": "Legion\u00f3w",
                "addr:housenumber": "85",
                "addr:city:simc": 921792,
                "addr:street:sym_ul": 10769,
                "phone": "+48 227872100",
                "email": "szkola@muzyczna.wolomin.pl",
                "website": "http:\/\/www.muzyczna.wolomin.pl",
                "ref:regon": "146364269",
                "operator": "\u0141ukasz Rozbicki",
                "operator:type": "private",
                "amenity": "music_school",
                "note": "Parent RSPO: 106018"
            }
        },
        {
            "id": 106561,
            "type": "Feature",
            "geometry": {
                "type": "Point",
                "coordinates": [
                    21.24309,
                    52.33559
                ]
            },
            "properties": {
                "ref:rspo": 106561,
                "official_name": "Prywatna Szko\u0142a Muzyczna II St. im. Witolda Lutos\u0142awskiego w Wo\u0142ominie",
                "name": "Prywatna Szko\u0142a Muzyczna II St.",
                "addr:postcode": "05-200",
                "addr:city": "Wo\u0142omin",
                "addr:street": "Legion\u00f3w",
                "addr:housenumber": "85",
                "addr:city:simc": 921792,
                "addr:street:sym_ul": 10769,
                "phone": "+48 227872100",
                "email": "szkola@muzyczna.wolomin.pl",
                "website": "http:\/\/www.muzyczna.wolomin.pl",
                "ref:regon": "146485820",
                "operator": "\u0141ukasz Rozbicki",
                "operator:type": "private",
                "amenity": "music_school",
                "note": "Parent RSPO: 106018"
            }
        },
        {
            "id": 128855,
            "type": "Feature",
            "geometry": {
                "type": "Point",
                "coordinates": [
                    21.2354999,
                    52.33817
                ]
            },
            "properties": {
                "ref:rspo": 128855,
                "official_name": "Przedszkole Publiczne \"Kraina Przedszkolak\u00f3w\"",
                "name": "Przedszkole Publiczne \"Kraina Przedszkolak\u00f3w\"",
                "addr:postcode": "05-200",
                "addr:city": "Wo\u0142omin",
                "addr:street": "Kurkowa",
                "addr:housenumber": "15",
                "addr:city:simc": 921792,
                "addr:street:sym_ul": 10444,
                "phone": "+48 516086088",
                "email": "dyrektor@krainaprzedszkolakow.pl",
                "website": "http:\/\/krainaprzedszkolakow.pl",
                "ref:regon": "362408829",
                "ref:vatin": "PL1251543885",
                "operator": "Anna Pietrzak",
                "operator:type": "private",
                "amenity": "kindergarten"
            }
        },
        {
            "id": 106606,
            "type": "Feature",
            "geometry": {
                "type": "Point",
                "coordinates": [
                    21.2420699,
                    52.33849
                ]
            },
            "properties": {
                "ref:rspo": 106606,
                "official_name": "Niepubliczne Przedszkole Krasnal",
                "name": "Niepubliczne Przedszkole Krasnal",
                "addr:postcode": "05-200",
                "addr:city": "Wo\u0142omin",
                "addr:street": "Kurkowa",
                "addr:housenumber": "41",
                "addr:city:simc": 921792,
                "addr:street:sym_ul": 10444,
                "phone": "+48 608327005",
                "email": "przedszkole@krasnal.wolomin.pl",
                "website": "http:\/\/www.krasnal.wolomin",
                "ref:regon": "146476927",
                "ref:vatin": "PL1251581710",
                "operator": "Janina Cholewska",
                "operator:type": "private",
                "amenity": "kindergarten"
            }
        },
        {
            "id": 128113,
            "type": "Feature",
            "geometry": {
                "type": "Point",
                "coordinates": [
                    21.24713,
                    52.3386
                ]
            },
            "properties": {
                "ref:rspo": 128113,
                "official_name": "Niepubliczne Przedszkole Integracyjne Abc...",
                "name": "Niepubliczne Przedszkole Integracyjne Abc...",
                "addr:postcode": "05-200",
                "addr:city": "Wo\u0142omin",
                "addr:street": "Jana Matejki",
                "addr:housenumber": "25",
                "addr:city:simc": 921792,
                "addr:street:sym_ul": 12485,
                "phone": "+48 505482882",
                "email": "abcprzedszkole@wp.pl",
                "website": "http:\/\/abcprzedszkole.pl",
                "ref:regon": "362145146",
                "ref:vatin": "PL1250232746",
                "operator": "Anna Bodel",
                "operator:type": "private",
                "amenity": "kindergarten"
            }
        },
        {
            "id": 127925,
            "type": "Feature",
            "geometry": {
                "type": "Point",
                "coordinates": [
                    21.24268,
                    52.33873
                ]
            },
            "properties": {
                "ref:rspo": 127925,
                "official_name": "Dwuj\u0119zyczne Niepubliczne Przedszkole Novum",
                "name": "Dwuj\u0119zyczne Niepubliczne Przedszkole Novum",
                "addr:postcode": "05-200",
                "addr:city": "Wo\u0142omin",
                "addr:street": "Legion\u00f3w",
                "addr:housenumber": "63",
                "addr:city:simc": 921792,
                "addr:street:sym_ul": 10769,
                "phone": "+48 505448460",
                "email": "sekretariat-novum@wp.pl",
                "ref:regon": "361977270",
                "ref:vatin": "PL6971539986",
                "operator": "Szko\u0142a-Novum Sp\u00f3\u0142ka Z Ograniczon\u0105 Odpowiedzialno\u015bci\u0105",
                "operator:type": "private",
                "amenity": "kindergarten"
            }
        },
        {
            "id": 127926,
            "type": "Feature",
            "geometry": {
                "type": "Point",
                "coordinates": [
                    21.24268,
                    52.338699999999996
                ]
            },
            "properties": {
                "isced:level": "1;2",
                "ref:rspo": 127926,
                "official_name": "Dwuj\u0119zyczna Niepubliczna Szko\u0142a Podstawowa Novum",
                "name": "Dwuj\u0119zyczna Niepubliczna Szko\u0142a Podstawowa Novum",
                "addr:postcode": "05-200",
                "addr:city": "Wo\u0142omin",
                "addr:street": "Legion\u00f3w",
                "addr:housenumber": "63",
                "addr:city:simc": 921792,
                "addr:street:sym_ul": 10769,
                "phone": "+48 505448460",
                "email": "sekretariat-novum@wp.pl",
                "website": "http:\/\/www.szko\u0142a-novum.pl",
                "ref:regon": "361977318",
                "ref:vatin": "PL6971539986",
                "operator": "Szko\u0142a-Novum Sp\u00f3\u0142ka Z Ograniczon\u0105 Odpowiedzialno\u015bci\u0105",
                "operator:type": "private",
                "amenity": "school"
            }
        },
        {
            "id": 19627,
            "type": "Feature",
            "geometry": {
                "type": "Point",
                "coordinates": [
                    21.24405,
                    52.33949
                ]
            },
            "properties": {
                "isced:level": "1;2",
                "ref:rspo": 19627,
                "official_name": "Szko\u0142a Podstawowa Nr 4 Z Oddzia\u0142ami Integracyjnymi im. Marynarki Wojennej Rp w Wo\u0142ominie",
                "name": "Szko\u0142a Podstawowa Nr 4 Z Oddzia\u0142ami Integracyjnymi",
                "addr:postcode": "05-200",
                "addr:city": "Wo\u0142omin",
                "addr:street": "1 Maja",
                "addr:housenumber": "19",
                "addr:city:simc": 921792,
                "addr:street:sym_ul": 11926,
                "phone": "+48 227764251",
                "email": "sekretariat@zs4-wolomin.pl",
                "ref:regon": "017357973",
                "ref:vatin": "PL1251173595",
                "operator": "Gmina Wo\u0142omin",
                "operator:type": "government",
                "amenity": "school"
            }
        },
        {
            "id": 22023,
            "type": "Feature",
            "geometry": {
                "type": "Point",
                "coordinates": [
                    21.25318,
                    52.33959
                ]
            },
            "properties": {
                "ref:rspo": 22023,
                "official_name": "Niepubliczne Przedszkole Artystyczno - J\u0119zykowe \"Pszcz\u00f3\u0142ka Maja\"",
                "name": "Niepubliczne Przedszkole Artystyczno - J\u0119zykowe \"Pszcz\u00f3\u0142ka Maja\"",
                "addr:postcode": "05-200",
                "addr:city": "Wo\u0142omin",
                "addr:street": "1 Maja",
                "addr:housenumber": "70",
                "addr:city:simc": 921792,
                "addr:street:sym_ul": 11926,
                "phone": "+48 607886812",
                "email": "marcinskoniecznyprzedszkole@gmail.com",
                "ref:regon": "146327736",
                "ref:vatin": "PL1251518611",
                "operator": "Marcin Skonieczny",
                "operator:type": "private",
                "amenity": "kindergarten"
            }
        },
        {
            "id": 126352,
            "type": "Feature",
            "geometry": {
                "type": "Point",
                "coordinates": [
                    21.24646,
                    52.33983
                ]
            },
            "properties": {
                "ref:rspo": 126352,
                "official_name": "Niepubliczne Przedszkole Integracyjne Kolorowe Kredki",
                "name": "Niepubliczne Przedszkole Integracyjne Kolorowe Kredki",
                "addr:postcode": "05-200",
                "addr:city": "Wo\u0142omin",
                "addr:street": "Jana Matejki",
                "addr:housenumber": "16",
                "addr:city:simc": 921792,
                "addr:street:sym_ul": 12485,
                "phone": "+48 698874211",
                "email": "kontakt@kolorowekredkiwolomin.pl",
                "ref:regon": "360256717",
                "ref:vatin": "PL1250028336",
                "operator": "Alicja Tlaga",
                "operator:type": "private",
                "amenity": "kindergarten"
            }
        },
        {
            "id": 128784,
            "type": "Feature",
            "geometry": {
                "type": "Point",
                "coordinates": [
                    21.23798,
                    52.3399
                ]
            },
            "properties": {
                "ref:rspo": 128784,
                "official_name": "Publiczne Przedszkole \"Weso\u0142e Nutki\"",
                "name": "Publiczne Przedszkole \"Weso\u0142e Nutki\"",
                "addr:postcode": "05-200",
                "addr:city": "Wo\u0142omin",
                "addr:street": "Pr\u0105dzy\u0144skiego",
                "addr:housenumber": "22",
                "addr:city:simc": 921792,
                "addr:street:sym_ul": 17472,
                "phone": "+48 601957566",
                "ref:regon": "362397190",
                "ref:vatin": "PL1250378898",
                "operator": "Hanna Karpi\u0144ska",
                "operator:type": "private",
                "amenity": "kindergarten"
            }
        },
        {
            "id": 262959,
            "type": "Feature",
            "geometry": {
                "type": "Point",
                "coordinates": [
                    21.25204,
                    52.34114
                ]
            },
            "properties": {
                "isced:level": "1;2",
                "ref:rspo": 262959,
                "official_name": "Niepubliczna Szko\u0142a Podstawowa Proeducado",
                "name": "Niepubliczna Szko\u0142a Podstawowa Proeducado",
                "addr:postcode": "05-200",
                "addr:city": "Wo\u0142omin",
                "addr:street": "Ole\u0144ki",
                "addr:housenumber": "9",
                "addr:city:simc": 921792,
                "addr:street:sym_ul": 14969,
                "email": "sekretariat@proeducado.pl",
                "website": "http:\/\/www.proeducado.pl",
                "ref:regon": "368078505",
                "ref:vatin": "PL1251650575",
                "operator": "\"Pro Educado\"",
                "operator:type": "ngo",
                "amenity": "school"
            }
        },
        {
            "id": 122362,
            "type": "Feature",
            "geometry": {
                "type": "Point",
                "coordinates": [
                    21.23242,
                    52.34174
                ]
            },
            "properties": {
                "isced:level": "1;2",
                "ref:rspo": 122362,
                "official_name": "Prywatna Szko\u0142a Podstawowa Ico",
                "name": "Prywatna Szko\u0142a Podstawowa Ico",
                "addr:postcode": "05-200",
                "addr:city": "Wo\u0142omin",
                "addr:street": "Orwida",
                "addr:housenumber": "22",
                "addr:city:simc": 921792,
                "addr:street:sym_ul": 15198,
                "phone": "+48 227870042",
                "email": "info.przedszkole@vp.pl",
                "ref:regon": "147136872",
                "operator": "Integracyjne Centrum O\u015bwiatowe Sp\u00f3\u0142ka Z Ograniczon\u0105 Odpowiedzialno\u015bci\u0105 Sp\u00f3\u0142ka Komandytowa",
                "operator:type": "private",
                "amenity": "school"
            }
        },
        {
            "id": 128807,
            "type": "Feature",
            "geometry": {
                "type": "Point",
                "coordinates": [
                    21.23242,
                    52.34171
                ]
            },
            "properties": {
                "ref:rspo": 128807,
                "official_name": "Publiczne Przedszkole \"Ba\u015bniowa Kraina\" Z Oddzia\u0142ami Integracyjnymi",
                "name": "Publiczne Przedszkole \"Ba\u015bniowa Kraina\" Z Oddzia\u0142ami Integracyjnymi",
                "addr:postcode": "05-200",
                "addr:city": "Wo\u0142omin",
                "addr:street": "Orwida",
                "addr:housenumber": "22",
                "addr:city:simc": 921792,
                "addr:street:sym_ul": 15198,
                "phone": "+48 227870042",
                "email": "info.przedszkole@vp.pl",
                "ref:regon": "362397385",
                "ref:vatin": "PL5711711956",
                "operator": "Integracyjne Centrum O\u015bwiatowe Sp\u00f3\u0142ka Z Ograniczon\u0105 Odpowiedzialno\u015bci\u0105 Sp\u00f3\u0142ka Komandytowa",
                "operator:type": "private",
                "amenity": "kindergarten"
            }
        },
        {
            "id": 129246,
            "type": "Feature",
            "geometry": {
                "type": "Point",
                "coordinates": [
                    21.23242,
                    52.341680000000004
                ]
            },
            "properties": {
                "ref:rspo": 129246,
                "official_name": "Niepubliczne Przedszkole \"Ba\u015bniowa Kraina\" I Oddzia\u0142 Integracyjnego Centrum O\u015bwiatowego Sp. Z O.o. Sp. K. w Wo\u0142ominie",
                "name": "Niepubliczne Przedszkole \"Ba\u015bniowa Kraina\" I Oddzia\u0142 Integracyjnego Centrum O\u015bwiatowego Sp. Z O.o. Sp. K. w Wo\u0142ominie",
                "addr:postcode": "05-200",
                "addr:city": "Wo\u0142omin",
                "addr:street": "Orwida",
                "addr:housenumber": "22",
                "addr:city:simc": 921792,
                "addr:street:sym_ul": 15198,
                "phone": "+48 227870042",
                "email": "info.przedszkole@vp.pl",
                "ref:regon": "362527155",
                "ref:vatin": "PL5711711956",
                "operator": "Integracyjne Centrum O\u015bwiatowe Sp\u00f3\u0142ka Z Ograniczon\u0105 Odpowiedzialno\u015bci\u0105 Sp\u00f3\u0142ka Komandytowa",
                "operator:type": "private",
                "amenity": "kindergarten"
            }
        },
        {
            "id": 19629,
            "type": "Feature",
            "geometry": {
                "type": "Point",
                "coordinates": [
                    21.23724,
                    52.3420599
                ]
            },
            "properties": {
                "isced:level": "1;2",
                "ref:rspo": 19629,
                "official_name": "Sportowa Szko\u0142a Podstawowa Nr 5 im. Polskich Olimpijczyk\u00f3w w Wo\u0142ominie",
                "name": "Sportowa Szko\u0142a Podstawowa Nr 5",
                "addr:postcode": "05-200",
                "addr:city": "Wo\u0142omin",
                "addr:street": "Lipi\u0144ska",
                "addr:housenumber": "16",
                "addr:city:simc": 921792,
                "addr:street:sym_ul": 11123,
                "phone": "+48 227762152",
                "email": "sekretariat@sp5.wolomin.org",
                "ref:regon": "000799569",
                "ref:vatin": "PL1250559097",
                "operator": "Gmina Wo\u0142omin",
                "operator:type": "government",
                "amenity": "school"
            }
        },
        {
            "id": 15046,
            "type": "Feature",
            "geometry": {
                "type": "Point",
                "coordinates": [
                    21.2487299,
                    52.34291
                ]
            },
            "properties": {
                "ref:rspo": 15046,
                "official_name": "Przedszkole Nr 2 Im Pyzy W\u0119drowniczki",
                "name": "Przedszkole Nr 2 Im Pyzy W\u0119drowniczki",
                "addr:postcode": "05-200",
                "addr:city": "Wo\u0142omin",
                "addr:street": "Polna",
                "addr:housenumber": "32",
                "addr:city:simc": 921792,
                "addr:street:sym_ul": 17011,
                "phone": "+48 227762173",
                "email": "przedszkole2wolomin@wp.pl",
                "website": "http:\/\/przedszkole2wolomin.eprzedszkola.pl",
                "ref:regon": "142658732",
                "ref:vatin": "PL1251584068",
                "operator": "Gmina Wo\u0142omin",
                "operator:type": "government",
                "amenity": "kindergarten"
            }
        },
        {
            "id": 124340,
            "type": "Feature",
            "geometry": {
                "type": "Point",
                "coordinates": [
                    21.25074,
                    52.34434
                ]
            },
            "properties": {
                "ref:rspo": 124340,
                "official_name": "Niepubliczny Terapeutyczny Punkt Przedszkolny \"Vitautia\"",
                "name": "Niepubliczny Terapeutyczny Punkt Przedszkolny \"Vitautia\"",
                "addr:postcode": "05-200",
                "addr:city": "Wo\u0142omin",
                "addr:street": "Sikorskiego",
                "addr:housenumber": "29C",
                "addr:city:simc": 921792,
                "addr:street:sym_ul": 19900,
                "phone": "+48 535767744",
                "email": "przedszkole@vitautia.pl",
                "ref:regon": "147387717",
                "operator": "Przemys\u0142aw Kr\u00f3l",
                "operator:type": "private",
                "amenity": "kindergarten"
            }
        },
        {
            "id": 125341,
            "type": "Feature",
            "geometry": {
                "type": "Point",
                "coordinates": [
                    21.25074,
                    52.34431
                ]
            },
            "properties": {
                "ref:rspo": 125341,
                "official_name": "Niepubliczna Poradnia Psychologiczno - Pedagogiczna Vitautia",
                "name": "Niepubliczna Poradnia Psychologiczno - Pedagogiczna Vitautia",
                "addr:postcode": "05-200",
                "addr:city": "Wo\u0142omin",
                "addr:street": "Sikorskiego",
                "addr:housenumber": "29 C",
                "addr:city:simc": 921792,
                "addr:street:sym_ul": 19900,
                "phone": "+48 538178195",
                "email": "poradnia@vitautia.pl",
                "website": "http:\/\/www.vitautia.pl",
                "ref:regon": "147438596",
                "operator": "Katarzyna Ko\u0142draszewska",
                "operator:type": "private",
                "healthcare": "counselling",
                "counselling_type": "education",
                "fixme": "w zale\u017cno\u015bci od przedmiotu dzia\u0142alno\u015bci (np. healthcare=counselling + counselling_type=education albo healthcare=psychotherapist)"
            }
        },
        {
            "id": 106674,
            "type": "Feature",
            "geometry": {
                "type": "Point",
                "coordinates": [
                    21.24471,
                    52.34481
                ]
            },
            "properties": {
                "ref:rspo": 106674,
                "official_name": "O\u015brodek Edukacji Zawodowej - Powiatowego Cechu Rzemios\u0142 I Przedsi\u0119biorczo\u015bci",
                "name": "O\u015brodek Edukacji Zawodowej - Powiatowego Cechu Rzemios\u0142 I Przedsi\u0119biorczo\u015bci",
                "addr:postcode": "05-200",
                "addr:city": "Wo\u0142omin",
                "addr:street": "Stanis\u0142awa Moniuszki",
                "addr:housenumber": "11",
                "addr:city:simc": 921792,
                "addr:street:sym_ul": 13242,
                "phone": "+48 227762141",
                "email": "cechwolomin@wp.pl",
                "ref:regon": "146484105",
                "operator": "Powiatowy Cech Rzemios\u0142 I Przedsi\u0119biorczo\u015bci",
                "operator:type": "ngo",
                "fixme": "w zale\u017cno\u015bci od przedmiotu dzia\u0142alno\u015bci (np. amenity=training + training=*, amenity=dancing_school, amenity=language_school, amenity=music_school) albo amenity=school, amenity=college, albo landuse=education w zale\u017cno\u015bci od tego, jakie plac\u00f3wki wchodz\u0105 w sk\u0142ad zespo\u0142u. Sprawd\u017a, kiedy stosowa\u0107 amenity=* a kiedy landuse=education."
            }
        },
        {
            "id": 106694,
            "type": "Feature",
            "geometry": {
                "type": "Point",
                "coordinates": [
                    21.22997,
                    52.34504
                ]
            },
            "properties": {
                "ref:rspo": 106694,
                "official_name": "Ad Astra Szko\u0142a J\u0119zyk\u00f3w Obcych Jolanta Chudy",
                "name": "Ad Astra Szko\u0142a J\u0119zyk\u00f3w Obcych Jolanta Chudy",
                "addr:postcode": "05-200",
                "addr:city": "Wo\u0142omin",
                "addr:street": "Sasina",
                "addr:housenumber": "1B",
                "addr:city:simc": 921792,
                "addr:street:sym_ul": 35240,
                "phone": "+48 227873451",
                "email": "adastra7@wp.pl",
                "website": "http:\/\/www.adastra.wwl.pl",
                "ref:regon": "146484223",
                "operator": "Jolanta Chudy",
                "operator:type": "private",
                "fixme": "w zale\u017cno\u015bci od przedmiotu dzia\u0142alno\u015bci (np. amenity=training + training=*, amenity=dancing_school, amenity=language_school, amenity=music_school)"
            }
        },
        {
            "id": 106749,
            "type": "Feature",
            "geometry": {
                "type": "Point",
                "coordinates": [
                    21.23988,
                    52.34537
                ]
            },
            "properties": {
                "ref:rspo": 106749,
                "official_name": "Centrum Edukacji Filmowej",
                "name": "Centrum Edukacji Filmowej",
                "addr:postcode": "05-200",
                "addr:city": "Wo\u0142omin",
                "addr:street": "Wile\u0144ska",
                "addr:housenumber": "51",
                "addr:city:simc": 921792,
                "addr:street:sym_ul": 24289,
                "phone": "+48 227639649",
                "email": "mark.kaczkowski@lekcje.info.pl",
                "website": "http:\/\/www.lekcje.info.pl",
                "ref:regon": "146488557",
                "operator": "Marek Kaczkowski",
                "operator:type": "private",
                "fixme": "w zale\u017cno\u015bci od przedmiotu dzia\u0142alno\u015bci (np. amenity=training + training=*, amenity=dancing_school, amenity=language_school, amenity=music_school)"
            }
        },
        {
            "id": 279257,
            "type": "Feature",
            "geometry": {
                "type": "Point",
                "coordinates": [
                    21.23988,
                    52.34534
                ]
            },
            "properties": {
                "ref:rspo": 279257,
                "official_name": "Niepubliczna Plac\u00f3wka O\u015bwiatowo - Wychowawcza \"Giganci Programowania\"",
                "name": "Niepubliczna Plac\u00f3wka O\u015bwiatowo - Wychowawcza \"Giganci Programowania\"",
                "addr:postcode": "05-200",
                "addr:city": "Wo\u0142omin",
                "addr:street": "Wile\u0144ska",
                "addr:housenumber": "51",
                "addr:door": "b",
                "addr:city:simc": 921792,
                "addr:street:sym_ul": 24289,
                "phone": "+48 223784948",
                "email": "biuro@giganci.edu.pl",
                "website": "http:\/\/www.giganciprogramowania.edu.pl",
                "ref:regon": "521039680",
                "operator": "For Kids Sp\u00f3\u0142ka Z Ograniczon\u0105 Odpowiedzialno\u015bci\u0105",
                "operator:type": "private",
                "fixme": "w zale\u017cno\u015bci od przedmiotu dzia\u0142alno\u015bci (np. amenity=training + training=*, amenity=dancing_school, amenity=language_school, amenity=music_school)"
            }
        },
        {
            "id": 5256,
            "type": "Feature",
            "geometry": {
                "type": "Point",
                "coordinates": [
                    21.24917,
                    52.34542
                ]
            },
            "properties": {
                "ref:rspo": 5256,
                "official_name": "Niepubliczna Poradnia Psychologiczno- Pedagogiczna I Rehabilitacyjna Asq",
                "name": "Niepubliczna Poradnia Psychologiczno- Pedagogiczna I Rehabilitacyjna Asq",
                "addr:postcode": "05-200",
                "addr:city": "Wo\u0142omin",
                "addr:street": "Ko\u015bcielna",
                "addr:housenumber": "38",
                "addr:city:simc": 921792,
                "addr:street:sym_ul": 9546,
                "phone": "+48 790029028",
                "email": "poradnia@asqporadnia.pl",
                "ref:regon": "146264119",
                "operator": "Joanna Sopi\u0144ska-Stanek",
                "operator:type": "private",
                "healthcare": "counselling",
                "counselling_type": "education",
                "fixme": "w zale\u017cno\u015bci od przedmiotu dzia\u0142alno\u015bci (np. healthcare=counselling + counselling_type=education albo healthcare=psychotherapist)"
            }
        },
        {
            "id": 128403,
            "type": "Feature",
            "geometry": {
                "type": "Point",
                "coordinates": [
                    21.25178,
                    52.34557
                ]
            },
            "properties": {
                "ref:rspo": 128403,
                "official_name": "Niepubliczny Punkt Przedszkolny \"T\u0119czowa Kraina\"",
                "name": "Niepubliczny Punkt Przedszkolny \"T\u0119czowa Kraina\"",
                "addr:postcode": "05-200",
                "addr:city": "Wo\u0142omin",
                "addr:street": "Ko\u015bcielna",
                "addr:housenumber": "48A",
                "addr:city:simc": 921792,
                "addr:street:sym_ul": 9546,
                "phone": "+48 227764441",
                "email": "marlena@teczowakraina.com.pl",
                "ref:regon": "362274263",
                "ref:vatin": "PL1250957219",
                "operator": "Marlena Zalewska - Dobrenko",
                "operator:type": "private",
                "amenity": "kindergarten"
            }
        },
        {
            "id": 86274,
            "type": "Feature",
            "geometry": {
                "type": "Point",
                "coordinates": [
                    21.24778,
                    52.34635
                ]
            },
            "properties": {
                "ref:rspo": 86274,
                "official_name": "Zesp\u00f3\u0142 Szk\u00f3\u0142 Specjalnych w Wo\u0142ominie",
                "name": "Zesp\u00f3\u0142 Szk\u00f3\u0142 Specjalnych w Wo\u0142ominie",
                "addr:postcode": "05-200",
                "addr:city": "Wo\u0142omin",
                "addr:street": "Mi\u0142a",
                "addr:housenumber": "22",
                "addr:city:simc": 921792,
                "addr:street:sym_ul": 12947,
                "phone": "+48 227874787",
                "email": "sekretariat@zsswolomin.edu.pl",
                "website": "http:\/\/zsswolomin.szkolnastrona.pl",
                "ref:regon": "016187173",
                "operator": "Powiat Wo\u0142omi\u0144ski",
                "operator:type": "government",
                "landuse": "education",
                "fixme": "amenity=school, amenity=college albo landuse=education w zale\u017cno\u015bci od tego, jakie plac\u00f3wki wchodz\u0105 w sk\u0142ad zespo\u0142u. Sprawd\u017a, kiedy stosowa\u0107 amenity=* a kiedy landuse=education.",
                "note": "Children RSPO: 91929;91932"
            }
        },
        {
            "id": 91929,
            "type": "Feature",
            "geometry": {
                "type": "Point",
                "coordinates": [
                    21.24778,
                    52.34632
                ]
            },
            "properties": {
                "isced:level": "1;2",
                "ref:rspo": 91929,
                "official_name": "Szko\u0142a Podstawowa Specjalna im. Ks. Jana Twardowskiego w Wo\u0142ominie",
                "name": "Szko\u0142a Podstawowa Specjalna",
                "addr:postcode": "05-200",
                "addr:city": "Wo\u0142omin",
                "addr:street": "Mi\u0142a",
                "addr:housenumber": "22",
                "addr:city:simc": 921792,
                "addr:street:sym_ul": 12947,
                "phone": "+48 227874787",
                "email": "sekretariat@zss-wolomin.edl.pl",
                "website": "http:\/\/www.zss-wolomin.edl.pl",
                "ref:regon": "016187227",
                "operator": "Powiat Wo\u0142omi\u0144ski",
                "operator:type": "government",
                "amenity": "school",
                "note": "Parent RSPO: 86274"
            }
        },
        {
            "id": 91932,
            "type": "Feature",
            "geometry": {
                "type": "Point",
                "coordinates": [
                    21.24778,
                    52.34629
                ]
            },
            "properties": {
                "ref:rspo": 91932,
                "official_name": "Szko\u0142a Specjalna Przysposabiaj\u0105ca Do Pracy im. Ks Jana Twardowskiego w Wo\u0142ominie",
                "name": "Szko\u0142a Specjalna Przysposabiaj\u0105ca Do Pracy",
                "addr:postcode": "05-200",
                "addr:city": "Wo\u0142omin",
                "addr:street": "Mi\u0142a",
                "addr:housenumber": "22",
                "addr:city:simc": 921792,
                "addr:street:sym_ul": 12947,
                "phone": "+48 227874787",
                "email": "sekretariat@zss-wolomin.edl.pl",
                "website": "http:\/\/www.zss-wolomin.edl.pl",
                "ref:regon": "140255770",
                "operator": "Powiat Wo\u0142omi\u0144ski",
                "operator:type": "government",
                "amenity": "school",
                "note": "Parent RSPO: 86274"
            }
        },
        {
            "id": 15049,
            "type": "Feature",
            "geometry": {
                "type": "Point",
                "coordinates": [
                    21.242210388184,
                    52.346370697021
                ]
            },
            "properties": {
                "ref:rspo": 15049,
                "official_name": "Przedszkole Nr 8 im. Czerwonego Kapturka",
                "name": "Przedszkole Nr 8",
                "addr:postcode": "05-200",
                "addr:city": "Wo\u0142omin",
                "addr:street": "Fieldorfa",
                "addr:housenumber": "22",
                "addr:city:simc": 921792,
                "addr:street:sym_ul": 35238,
                "phone": "+48 227873321",
                "email": "przedszkolenr-8@neostrada.pl",
                "website": "http:\/\/p8wolomin.edupage.org",
                "ref:regon": "142645244",
                "ref:vatin": "PL1251583442",
                "operator": "Gmina Wo\u0142omin",
                "operator:type": "government",
                "amenity": "kindergarten"
            }
        },
        {
            "id": 74499,
            "type": "Feature",
            "geometry": {
                "type": "Point",
                "coordinates": [
                    21.23246,
                    52.34667
                ]
            },
            "properties": {
                "ref:rspo": 74499,
                "official_name": "Zesp\u00f3\u0142 Szk\u00f3\u0142 Ekonomicznych im. Stanis\u0142awa Staszica w Wo\u0142ominie",
                "name": "Zesp\u00f3\u0142 Szk\u00f3\u0142 Ekonomicznych",
                "addr:postcode": "05-200",
                "addr:city": "Wo\u0142omin",
                "addr:street": "Aleja Armii Krajowej",
                "addr:housenumber": "38",
                "addr:city:simc": 921792,
                "addr:street:sym_ul": 35012,
                "phone": "+48 227763956",
                "email": "zsewolomin@wp.pl",
                "website": "http:\/\/www.zsewolomin.edupage.org",
                "ref:regon": "000829796",
                "operator": "Powiat Wo\u0142omi\u0144ski",
                "operator:type": "government",
                "landuse": "education",
                "fixme": "amenity=school, amenity=college albo landuse=education w zale\u017cno\u015bci od tego, jakie plac\u00f3wki wchodz\u0105 w sk\u0142ad zespo\u0142u. Sprawd\u017a, kiedy stosowa\u0107 amenity=* a kiedy landuse=education.",
                "note": "Children RSPO: 92751;92753;92755"
            }
        },
        {
            "id": 92751,
            "type": "Feature",
            "geometry": {
                "type": "Point",
                "coordinates": [
                    21.23246,
                    52.34664
                ]
            },
            "properties": {
                "isced:level": "3",
                "ref:rspo": 92751,
                "official_name": "Iv Liceum Og\u00f3lnokszta\u0142c\u0105ce",
                "name": "Iv Liceum Og\u00f3lnokszta\u0142c\u0105ce",
                "addr:postcode": "05-200",
                "addr:city": "Wo\u0142omin",
                "addr:street": "Aleja Armii Krajowej",
                "addr:housenumber": "38",
                "addr:city:simc": 921792,
                "addr:street:sym_ul": 35012,
                "phone": "+48 227763954",
                "email": "zsewolomin@wp.pl",
                "website": "http:\/\/www.zsewolomin.edupage.org",
                "ref:regon": "146118381",
                "operator": "Powiat Wo\u0142omi\u0144ski",
                "operator:type": "government",
                "amenity": "school",
                "note": "Parent RSPO: 74499"
            }
        },
        {
            "id": 92753,
            "type": "Feature",
            "geometry": {
                "type": "Point",
                "coordinates": [
                    21.23246,
                    52.346610000000005
                ]
            },
            "properties": {
                "isced:level": "3",
                "ref:rspo": 92753,
                "official_name": "Technikum Ekonomiczne",
                "name": "Technikum Ekonomiczne",
                "addr:postcode": "05-200",
                "addr:city": "Wo\u0142omin",
                "addr:street": "Aleja Armii Krajowej",
                "addr:housenumber": "38",
                "addr:city:simc": 921792,
                "addr:street:sym_ul": 35012,
                "phone": "+48 227763954",
                "email": "technikumeko@wp.pl",
                "website": "http:\/\/www.zsewolomin.edupage.org",
                "ref:regon": "015828983",
                "operator": "Powiat Wo\u0142omi\u0144ski",
                "operator:type": "government",
                "amenity": "school",
                "note": "Parent RSPO: 74499"
            }
        },
        {
            "id": 92755,
            "type": "Feature",
            "geometry": {
                "type": "Point",
                "coordinates": [
                    21.23246,
                    52.34658
                ]
            },
            "properties": {
                "isced:level": "4",
                "ref:rspo": 92755,
                "official_name": "Szko\u0142a Policealna",
                "name": "Szko\u0142a Policealna",
                "addr:postcode": "05-200",
                "addr:city": "Wo\u0142omin",
                "addr:street": "Aleja Armii Krajowej",
                "addr:housenumber": "38",
                "addr:city:simc": 921792,
                "addr:street:sym_ul": 35012,
                "phone": "+48 227763954",
                "email": "zsewolomin@wp.pl",
                "website": "http:\/\/www.zsewolomin.edupage.org",
                "ref:regon": "146462776",
                "operator": "Powiat Wo\u0142omi\u0144ski",
                "operator:type": "government",
                "amenity": "college",
                "note": "Parent RSPO: 74499"
            }
        },
        {
            "id": 275841,
            "type": "Feature",
            "geometry": {
                "type": "Point",
                "coordinates": [
                    21.26554,
                    52.34702
                ]
            },
            "properties": {
                "ref:rspo": 275841,
                "official_name": "Vitautia - Niepubliczny Punkt Przedszkolny Do Zada\u0144 Specjalnych",
                "name": "Vitautia - Niepubliczny Punkt Przedszkolny Do Zada\u0144 Specjalnych",
                "addr:postcode": "05-200",
                "addr:city": "Wo\u0142omin",
                "addr:street": "Lipi\u0144ska",
                "addr:housenumber": "188",
                "addr:city:simc": 921792,
                "addr:street:sym_ul": 11123,
                "phone": "+48 538178195",
                "email": "przedszkole@vitautia.pl",
                "ref:regon": "386942190",
                "operator": "Katarzyna Ko\u0142draszewska",
                "operator:type": "private",
                "amenity": "kindergarten"
            }
        },
        {
            "id": 278362,
            "type": "Feature",
            "geometry": {
                "type": "Point",
                "coordinates": [
                    21.26554,
                    52.34699
                ]
            },
            "properties": {
                "isced:level": "1;2",
                "ref:rspo": 278362,
                "official_name": "Niepubliczna Szko\u0142a Podstawowa Specjalna Vitautia",
                "name": "Niepubliczna Szko\u0142a Podstawowa Specjalna Vitautia",
                "addr:postcode": "05-200",
                "addr:city": "Wo\u0142omin",
                "addr:street": "Lipi\u0144ska",
                "addr:housenumber": "188",
                "addr:city:simc": 921792,
                "addr:street:sym_ul": 11123,
                "phone": "+48 538178195",
                "email": "szkola@vitautia.pl",
                "website": "http:\/\/www.vitautia.pl",
                "ref:regon": "389869908",
                "operator": "Katarzyna Ko\u0142draszewska",
                "operator:type": "private",
                "amenity": "school"
            }
        },
        {
            "id": 15047,
            "type": "Feature",
            "geometry": {
                "type": "Point",
                "coordinates": [
                    21.24559,
                    52.34713
                ]
            },
            "properties": {
                "ref:rspo": 15047,
                "official_name": "Przedszkole Nr 5 im. Kota w Butach",
                "name": "Przedszkole Nr 5",
                "addr:postcode": "05-200",
                "addr:city": "Wo\u0142omin",
                "addr:street": "W\u0142adys\u0142awa Broniewskiego",
                "addr:housenumber": "2",
                "addr:city:simc": 921792,
                "addr:street:sym_ul": 2120,
                "phone": "+48 227762933",
                "email": "przedszkole5wolomin@op.pl",
                "ref:regon": "142629038",
                "ref:vatin": "PL1251583867",
                "operator": "Gmina Wo\u0142omin",
                "operator:type": "government",
                "amenity": "kindergarten"
            }
        },
        {
            "id": 87136,
            "type": "Feature",
            "geometry": {
                "type": "Point",
                "coordinates": [
                    21.2445999,
                    52.34716
                ]
            },
            "properties": {
                "isced:level": "4",
                "ref:rspo": 87136,
                "official_name": "Szko\u0142a Policelana Centrum Nauki I Biznesu \"\u017bak\"",
                "name": "Szko\u0142a Policelana Centrum Nauki I Biznesu \"\u017bak\"",
                "addr:postcode": "05-200",
                "addr:city": "Wo\u0142omin",
                "addr:street": "Wile\u0144ska",
                "addr:housenumber": "44",
                "addr:city:simc": 921792,
                "addr:street:sym_ul": 24289,
                "phone": "+48 224281209",
                "email": "wolomin@zak.edu.pl",
                "website": "http:\/\/www.zak.edu.pl",
                "ref:regon": "146463439",
                "operator": "Centrum Nauki I Biznesu \"\u017bak\" Sp\u00f3\u0142ka Z Ograniczon\u0105 Odpowiedzialno\u015bci\u0105",
                "operator:type": "private",
                "amenity": "college"
            }
        },
        {
            "id": 87250,
            "type": "Feature",
            "geometry": {
                "type": "Point",
                "coordinates": [
                    21.2445999,
                    52.34713
                ]
            },
            "properties": {
                "isced:level": "3",
                "ref:rspo": 87250,
                "official_name": "Liceum Og\u00f3lnokszta\u0142c\u0105ce dla Doros\u0142ych '\u017bak\"",
                "name": "Liceum Og\u00f3lnokszta\u0142c\u0105ce dla Doros\u0142ych '\u017bak\"",
                "addr:postcode": "05-200",
                "addr:city": "Wo\u0142omin",
                "addr:street": "Wile\u0144ska",
                "addr:housenumber": "44",
                "addr:city:simc": 921792,
                "addr:street:sym_ul": 24289,
                "phone": "+48 224281209",
                "email": "wolomin@zak.edu.pl",
                "website": "http:\/\/www.zak.edu.pl",
                "ref:regon": "146464545",
                "operator": "Centrum Nauki I Biznesu \"\u017bak\" Sp\u00f3\u0142ka Z Ograniczon\u0105 Odpowiedzialno\u015bci\u0105",
                "operator:type": "private",
                "amenity": "school"
            }
        },
        {
            "id": 87933,
            "type": "Feature",
            "geometry": {
                "type": "Point",
                "coordinates": [
                    21.2445999,
                    52.347100000000005
                ]
            },
            "properties": {
                "ref:rspo": 87933,
                "official_name": "O\u015brodek Szkoleniowy Centrum Nauki I Biznesu \"\u017bak\" w Wo\u0142ominie",
                "name": "O\u015brodek Szkoleniowy Centrum Nauki I Biznesu \"\u017bak\" w Wo\u0142ominie",
                "addr:postcode": "05-200",
                "addr:city": "Wo\u0142omin",
                "addr:street": "Wile\u0144ska",
                "addr:housenumber": "44",
                "addr:city:simc": 921792,
                "addr:street:sym_ul": 24289,
                "phone": "+48 224281209",
                "email": "wolomin@zak.edu.pl",
                "website": "http:\/\/www.zak.edu.pl",
                "ref:regon": "146464516",
                "operator": "Centrum Nauki I Biznesu \"\u017bak\" Sp\u00f3\u0142ka Z Ograniczon\u0105 Odpowiedzialno\u015bci\u0105",
                "operator:type": "private",
                "fixme": "w zale\u017cno\u015bci od przedmiotu dzia\u0142alno\u015bci (np. amenity=training + training=*, amenity=dancing_school, amenity=language_school, amenity=music_school) albo amenity=school, amenity=college, albo landuse=education w zale\u017cno\u015bci od tego, jakie plac\u00f3wki wchodz\u0105 w sk\u0142ad zespo\u0142u. Sprawd\u017a, kiedy stosowa\u0107 amenity=* a kiedy landuse=education."
            }
        },
        {
            "id": 124168,
            "type": "Feature",
            "geometry": {
                "type": "Point",
                "coordinates": [
                    21.2445999,
                    52.34707
                ]
            },
            "properties": {
                "isced:level": "4",
                "ref:rspo": 124168,
                "official_name": "Szko\u0142a Policealna Opieki Medycznej \"\u017bak\" w Wo\u0142ominie",
                "name": "Szko\u0142a Policealna Opieki Medycznej \"\u017bak\" w Wo\u0142ominie",
                "addr:postcode": "05-200",
                "addr:city": "Wo\u0142omin",
                "addr:street": "Wile\u0144ska",
                "addr:housenumber": "44",
                "addr:city:simc": 921792,
                "addr:street:sym_ul": 24289,
                "phone": "+48 224281209",
                "email": "wolomin@zak.edu.pl",
                "website": "http:\/\/www.wolomin.zak.edu.pl",
                "ref:regon": "147379110",
                "operator": "Centrum Nauki I Biznesu \"\u017bak\" Sp\u00f3\u0142ka Z Ograniczon\u0105 Odpowiedzialno\u015bci\u0105",
                "operator:type": "private",
                "amenity": "college"
            }
        },
        {
            "id": 15050,
            "type": "Feature",
            "geometry": {
                "type": "Point",
                "coordinates": [
                    21.23358,
                    52.34723
                ]
            },
            "properties": {
                "ref:rspo": 15050,
                "official_name": "Przedszkole Nr 9 im. \"Jasia I Ma\u0142gosi\"",
                "name": "Przedszkole Nr 9",
                "addr:postcode": "05-200",
                "addr:city": "Wo\u0142omin",
                "addr:street": "J\u00f3zefa Pi\u0142sudskiego",
                "addr:housenumber": "15",
                "addr:city:simc": 921792,
                "addr:street:sym_ul": 16252,
                "phone": "+48 227763730",
                "email": "przedszkole9wolomin@gmail.com",
                "website": "http:\/\/www.przedszkole9wolomin.pl",
                "ref:regon": "142658703",
                "ref:vatin": "PL1251584163",
                "operator": "Gmina Wo\u0142omin",
                "operator:type": "government",
                "amenity": "kindergarten"
            }
        },
        {
            "id": 106675,
            "type": "Feature",
            "geometry": {
                "type": "Point",
                "coordinates": [
                    21.23303,
                    52.34745
                ]
            },
            "properties": {
                "ref:rspo": 106675,
                "official_name": "Mazowiecki Oddzia\u0142 Terenowy T.r.a.d. \"Szansa\" Centrum Szkoleniowe",
                "name": "Mazowiecki Oddzia\u0142 Terenowy T.r.a.d. \"Szansa\" Centrum Szkoleniowe",
                "addr:postcode": "05-200",
                "addr:city": "Wo\u0142omin",
                "addr:street": "Aleja Armii Krajowej",
                "addr:housenumber": "43",
                "addr:city:simc": 921792,
                "addr:street:sym_ul": 35012,
                "phone": "+48 600804680",
                "ref:regon": "146484128",
                "operator": "Mazowiecki Oddzia\u0142 Terenowy Towarzystwa Rozwijania Aktywno\u015bci Dzieci \"Szansa\"",
                "operator:type": "ngo",
                "fixme": "w zale\u017cno\u015bci od przedmiotu dzia\u0142alno\u015bci (np. amenity=training + training=*, amenity=dancing_school, amenity=language_school, amenity=music_school) albo amenity=school, amenity=college, albo landuse=education w zale\u017cno\u015bci od tego, jakie plac\u00f3wki wchodz\u0105 w sk\u0142ad zespo\u0142u. Sprawd\u017a, kiedy stosowa\u0107 amenity=* a kiedy landuse=education."
            }
        },
        {
            "id": 15051,
            "type": "Feature",
            "geometry": {
                "type": "Point",
                "coordinates": [
                    21.23876,
                    52.34893
                ]
            },
            "properties": {
                "ref:rspo": 15051,
                "official_name": "Przedszkole Nr 10 im. Misia Uszatka",
                "name": "Przedszkole Nr 10",
                "addr:postcode": "05-200",
                "addr:city": "Wo\u0142omin",
                "addr:street": "Aleja Armii Krajowej",
                "addr:housenumber": "56",
                "addr:city:simc": 921792,
                "addr:street:sym_ul": 35012,
                "phone": "+48 227875936",
                "email": "p10.misuszatek@gmail.com",
                "ref:regon": "142652741",
                "ref:vatin": "PL1251583873",
                "operator": "Gmina Wo\u0142omin",
                "operator:type": "government",
                "amenity": "kindergarten"
            }
        },
        {
            "id": 54434,
            "type": "Feature",
            "geometry": {
                "type": "Point",
                "coordinates": [
                    21.24794,
                    52.34901
                ]
            },
            "properties": {
                "ref:rspo": 54434,
                "official_name": "Przedszkole Niepubliczne Weso\u0142a Chatka",
                "name": "Przedszkole Niepubliczne Weso\u0142a Chatka",
                "addr:postcode": "05-200",
                "addr:city": "Wo\u0142omin",
                "addr:street": "Wile\u0144ska",
                "addr:housenumber": "53B",
                "addr:city:simc": 921792,
                "addr:street:sym_ul": 24289,
                "email": "biuro@wesolachatka.pl",
                "ref:regon": "146432568",
                "ref:vatin": "PL1250579823",
                "operator": "Dane Do Uzupe\u0142nienia",
                "operator:type": "private",
                "amenity": "kindergarten"
            }
        },
        {
            "id": 15442,
            "type": "Feature",
            "geometry": {
                "type": "Point",
                "coordinates": [
                    21.25747,
                    52.34942
                ]
            },
            "properties": {
                "ref:rspo": 15442,
                "official_name": "Zesp\u00f3\u0142 Szk\u00f3\u0142 Nr 3",
                "name": "Zesp\u00f3\u0142 Szk\u00f3\u0142 Nr 3",
                "addr:postcode": "05-200",
                "addr:city": "Wo\u0142omin",
                "addr:street": "Kazimierza Wielkiego",
                "addr:housenumber": "1",
                "addr:city:simc": 921792,
                "addr:street:sym_ul": 8265,
                "phone": "+48 227876547",
                "email": "sekretariat@zs3.wolomin.org",
                "ref:regon": "010788530",
                "ref:vatin": "PL1250196565",
                "operator": "Gmina Wo\u0142omin",
                "operator:type": "government",
                "landuse": "education",
                "fixme": "amenity=school, amenity=college albo landuse=education w zale\u017cno\u015bci od tego, jakie plac\u00f3wki wchodz\u0105 w sk\u0142ad zespo\u0142u. Sprawd\u017a, kiedy stosowa\u0107 amenity=* a kiedy landuse=education.",
                "note": "Children RSPO: 19626;263819"
            }
        },
        {
            "id": 19626,
            "type": "Feature",
            "geometry": {
                "type": "Point",
                "coordinates": [
                    21.25747,
                    52.34939
                ]
            },
            "properties": {
                "isced:level": "3",
                "ref:rspo": 19626,
                "official_name": "Iii Liceum Og\u00f3lnokszta\u0142c\u0105ce im. Jana Paw\u0142a II w Wo\u0142ominie",
                "name": "Iii Liceum Og\u00f3lnokszta\u0142c\u0105ce",
                "addr:postcode": "05-200",
                "addr:city": "Wo\u0142omin",
                "addr:street": "Kazimierza Wielkiego",
                "addr:housenumber": "1",
                "addr:city:simc": 921792,
                "addr:street:sym_ul": 8265,
                "phone": "+48 227876547",
                "email": "sekretariat@zs3.wolomin.org",
                "ref:regon": "015547600",
                "operator": "Gmina Wo\u0142omin",
                "operator:type": "government",
                "amenity": "school",
                "note": "Parent RSPO: 15442"
            }
        },
        {
            "id": 263819,
            "type": "Feature",
            "geometry": {
                "type": "Point",
                "coordinates": [
                    21.25747,
                    52.349360000000004
                ]
            },
            "properties": {
                "isced:level": "1;2",
                "ref:rspo": 263819,
                "official_name": "Szko\u0142a Podstawowa Nr 1 im. Jana Paw\u0142a II w Wo\u0142ominie",
                "name": "Szko\u0142a Podstawowa Nr 1",
                "addr:postcode": "05-200",
                "addr:city": "Wo\u0142omin",
                "addr:street": "Kazimierza Wielkiego",
                "addr:housenumber": "1",
                "addr:city:simc": 921792,
                "addr:street:sym_ul": 8265,
                "phone": "+48 227876547",
                "email": "sekretariat@zs3.wolomin.org",
                "ref:regon": "368229275",
                "operator": "Gmina Wo\u0142omin",
                "operator:type": "government",
                "amenity": "school",
                "note": "Parent RSPO: 15442"
            }
        },
        {
            "id": 19622,
            "type": "Feature",
            "geometry": {
                "type": "Point",
                "coordinates": [
                    21.2244,
                    52.34943
                ]
            },
            "properties": {
                "isced:level": "3",
                "ref:rspo": 19622,
                "official_name": "I Liceum Og\u00f3lnokszta\u0142c\u0105ce im. Wac\u0142awa Na\u0142kowskiego",
                "name": "I Liceum Og\u00f3lnokszta\u0142c\u0105ce",
                "addr:postcode": "05-200",
                "addr:city": "Wo\u0142omin",
                "addr:street": "Sasina",
                "addr:housenumber": "33",
                "addr:city:simc": 921792,
                "addr:street:sym_ul": 35240,
                "phone": "+48 227763446",
                "email": "1lo_wolomin@interia.pl",
                "website": "http:\/\/1lo.wolomin.pl",
                "ref:regon": "016071097",
                "ref:vatin": "PL1250583977",
                "operator": "Gmina Wo\u0142omin",
                "operator:type": "government",
                "amenity": "school"
            }
        },
        {
            "id": 114250,
            "type": "Feature",
            "geometry": {
                "type": "Point",
                "coordinates": [
                    21.2244,
                    52.349399999999996
                ]
            },
            "properties": {
                "isced:level": "3",
                "ref:rspo": 114250,
                "official_name": "I Liceum Og\u00f3lnokszta\u0142c\u0105ce Pul im. 111 Eskadry My\u015bliwskiej w Wo\u0142ominie",
                "name": "I Liceum Og\u00f3lnokszta\u0142c\u0105ce Pul",
                "addr:postcode": "05-200",
                "addr:city": "Wo\u0142omin",
                "addr:street": "Sasina",
                "addr:housenumber": "33",
                "addr:city:simc": 921792,
                "addr:street:sym_ul": 35240,
                "phone": "+48 695898740",
                "email": "wolomin@pulliceum.edu.pl",
                "website": "http:\/\/www.pulliceum.edu.pl",
                "ref:regon": "146653068",
                "operator": "P\u0142ocki Uniwersytet Ludowy Im.wincentego Witosa",
                "operator:type": "ngo",
                "amenity": "school"
            }
        },
        {
            "id": 15223,
            "type": "Feature",
            "geometry": {
                "type": "Point",
                "coordinates": [
                    21.23006,
                    52.35023
                ]
            },
            "properties": {
                "isced:level": "1;2",
                "ref:rspo": 15223,
                "official_name": "Szko\u0142a Podstawowa Nr 3 im. M.j. Pi\u0142sudskiego",
                "name": "Szko\u0142a Podstawowa Nr 3",
                "addr:postcode": "05-200",
                "addr:city": "Wo\u0142omin",
                "addr:street": "J\u00f3zefa Pi\u0142sudskiego",
                "addr:housenumber": "51",
                "addr:city:simc": 921792,
                "addr:street:sym_ul": 16252,
                "phone": "+48 227762245",
                "email": "sekretariat@sp3.wolomin.org",
                "website": "http:\/\/sp3-wolomin.edupage.org",
                "ref:regon": "016071045",
                "ref:vatin": "PL1251112346",
                "operator": "Gmina Wo\u0142omin",
                "operator:type": "government",
                "amenity": "school"
            }
        },
        {
            "id": 88749,
            "type": "Feature",
            "geometry": {
                "type": "Point",
                "coordinates": [
                    21.23757,
                    52.35034
                ]
            },
            "properties": {
                "ref:rspo": 88749,
                "official_name": "Centrum Edukacji \"Edus\"",
                "name": "Centrum Edukacji \"Edus\"",
                "addr:postcode": "05-200",
                "addr:city": "Wo\u0142omin",
                "addr:street": "Laskowa",
                "addr:housenumber": "4",
                "addr:city:simc": 921792,
                "addr:street:sym_ul": 10666,
                "phone": "+48 227763647",
                "email": "biuro@lo29.edu.pl",
                "website": "http:\/\/www.lo29.edu.pl",
                "ref:regon": "146451471",
                "operator": "Jerzy Ku\u015b",
                "operator:type": "private",
                "fixme": "w zale\u017cno\u015bci od przedmiotu dzia\u0142alno\u015bci (np. amenity=training + training=*, amenity=dancing_school, amenity=language_school, amenity=music_school) albo amenity=school, amenity=college, albo landuse=education w zale\u017cno\u015bci od tego, jakie plac\u00f3wki wchodz\u0105 w sk\u0142ad zespo\u0142u. Sprawd\u017a, kiedy stosowa\u0107 amenity=* a kiedy landuse=education."
            }
        },
        {
            "id": 104632,
            "type": "Feature",
            "geometry": {
                "type": "Point",
                "coordinates": [
                    21.23757,
                    52.35031
                ]
            },
            "properties": {
                "isced:level": "3",
                "ref:rspo": 104632,
                "official_name": "Niepubliczne Lo dla Doros\u0142ych Nr 29",
                "name": "Niepubliczne Lo dla Doros\u0142ych Nr 29",
                "addr:postcode": "05-200",
                "addr:city": "Wo\u0142omin",
                "addr:street": "Laskowa",
                "addr:housenumber": "4",
                "addr:city:simc": 921792,
                "addr:street:sym_ul": 10666,
                "phone": "+48 608503828",
                "email": "biuro@edus.edu.pl",
                "website": "http:\/\/www.edus.edu.pl",
                "ref:regon": "146463103",
                "operator": "Jerzy Ku\u015b",
                "operator:type": "private",
                "amenity": "school"
            }
        },
        {
            "id": 124267,
            "type": "Feature",
            "geometry": {
                "type": "Point",
                "coordinates": [
                    21.23333,
                    52.3506
                ]
            },
            "properties": {
                "ref:rspo": 124267,
                "official_name": "Niepubliczny Punkt Przedszkolny \"Akademia Malucha\"",
                "name": "Niepubliczny Punkt Przedszkolny \"Akademia Malucha\"",
                "addr:postcode": "05-200",
                "addr:city": "Wo\u0142omin",
                "addr:street": "Gdy\u0144ska",
                "addr:housenumber": "44",
                "addr:city:simc": 921792,
                "addr:street:sym_ul": 5441,
                "phone": "+48 506688599",
                "email": "beata733@poczta.onet.pl",
                "ref:regon": "147383493",
                "ref:vatin": "PL1250909462",
                "operator": "Beata Wasilk\u00f3w",
                "operator:type": "private",
                "amenity": "kindergarten"
            }
        },
        {
            "id": 19623,
            "type": "Feature",
            "geometry": {
                "type": "Point",
                "coordinates": [
                    21.242,
                    52.35061
                ]
            },
            "properties": {
                "isced:level": "1;2",
                "ref:rspo": 19623,
                "official_name": "Szko\u0142a Podstawowa Nr 2",
                "name": "Szko\u0142a Podstawowa Nr 2",
                "addr:postcode": "05-200",
                "addr:city": "Wo\u0142omin",
                "addr:street": "Aleja Armii Krajowej",
                "addr:housenumber": "81",
                "addr:city:simc": 921792,
                "addr:street:sym_ul": 35012,
                "phone": "+48 227875943",
                "email": "sekretariat@sp2.wolomin.org",
                "ref:regon": "000799530",
                "ref:vatin": "PL1251124007",
                "operator": "Gmina Wo\u0142omin",
                "operator:type": "government",
                "amenity": "school"
            }
        },
        {
            "id": 121495,
            "type": "Feature",
            "geometry": {
                "type": "Point",
                "coordinates": [
                    21.25474,
                    52.35327
                ]
            },
            "properties": {
                "ref:rspo": 121495,
                "official_name": "W\u0105ska 22. Niepubliczne Przedszkole Przyrodniczo-J\u0119zykowe",
                "name": "W\u0105ska 22. Niepubliczne Przedszkole Przyrodniczo-J\u0119zykowe",
                "addr:postcode": "05-200",
                "addr:city": "Wo\u0142omin",
                "addr:street": "W\u0105ska",
                "addr:housenumber": "22",
                "addr:city:simc": 921792,
                "addr:street:sym_ul": 23795,
                "email": "nataliadabrowska.przedszkole@gmail.com",
                "ref:regon": "147053979",
                "operator": "Natalia D\u0105browska",
                "operator:type": "private",
                "amenity": "kindergarten"
            }
        },
        {
            "id": 268240,
            "type": "Feature",
            "geometry": {
                "type": "Point",
                "coordinates": [
                    21.26463,
                    52.35465
                ]
            },
            "properties": {
                "ref:rspo": 268240,
                "official_name": "Zesp\u00f3\u0142 Szkolno - Przedszkolny w Duczkach",
                "name": "Zesp\u00f3\u0142 Szkolno - Przedszkolny w Duczkach",
                "addr:postcode": "05-200",
                "addr:city": "Duczki",
                "addr:street": "Szosa Jadowska",
                "addr:housenumber": "37",
                "addr:city:simc": 10205,
                "addr:street:sym_ul": 22042,
                "phone": "+48 227877266",
                "email": "zszduczki@op.pl",
                "ref:regon": "381036592",
                "ref:vatin": "PL1251679857",
                "operator": "Gmina Wo\u0142omin",
                "operator:type": "government",
                "landuse": "education",
                "fixme": "amenity=school, amenity=college albo landuse=education w zale\u017cno\u015bci od tego, jakie plac\u00f3wki wchodz\u0105 w sk\u0142ad zespo\u0142u. Sprawd\u017a, kiedy stosowa\u0107 amenity=* a kiedy landuse=education.",
                "note": "Children RSPO: 15052;19631"
            }
        },
        {
            "id": 15052,
            "type": "Feature",
            "geometry": {
                "type": "Point",
                "coordinates": [
                    21.26463,
                    52.35462
                ]
            },
            "properties": {
                "ref:rspo": 15052,
                "official_name": "Przedszkole im. Pszcz\u00f3\u0142ki Mai w Duczkach",
                "name": "Przedszkole",
                "addr:postcode": "05-200",
                "addr:city": "Duczki",
                "addr:street": "Szosa Jadowska",
                "addr:housenumber": "37",
                "addr:city:simc": 10205,
                "addr:street:sym_ul": 22042,
                "phone": "+48 227877269",
                "email": "publiczne.przedszkole.w.duczkach@neostrada.pl",
                "ref:regon": "142652646",
                "ref:vatin": "PL1251584536",
                "operator": "Gmina Wo\u0142omin",
                "operator:type": "government",
                "amenity": "kindergarten",
                "note": "Parent RSPO: 268240"
            }
        },
        {
            "id": 19631,
            "type": "Feature",
            "geometry": {
                "type": "Point",
                "coordinates": [
                    21.26463,
                    52.35459
                ]
            },
            "properties": {
                "isced:level": "1;2",
                "ref:rspo": 19631,
                "official_name": "Szko\u0142a Podstawowa im. Jana Paw\u0142a II w Duczkach",
                "name": "Szko\u0142a Podstawowa",
                "addr:postcode": "05-200",
                "addr:city": "Duczki",
                "addr:street": "Szosa Jadowska",
                "addr:housenumber": "37",
                "addr:city:simc": 10205,
                "addr:street:sym_ul": 22042,
                "phone": "+48 227877266",
                "email": "zszduczki@op.pl",
                "ref:regon": "000649752",
                "ref:vatin": "PL1251173572",
                "operator": "Gmina Wo\u0142omin",
                "operator:type": "government",
                "amenity": "school",
                "note": "Parent RSPO: 268240"
            }
        },
        {
            "id": 51422,
            "type": "Feature",
            "geometry": {
                "type": "Point",
                "coordinates": [
                    21.25419,
                    52.35579
                ]
            },
            "properties": {
                "ref:rspo": 51422,
                "official_name": "Niepubliczne Przedszkole Asqlandia",
                "name": "Niepubliczne Przedszkole Asqlandia",
                "addr:postcode": "05-200",
                "addr:city": "Wo\u0142omin",
                "addr:street": "Aleja Armii Krajowej",
                "addr:housenumber": "133",
                "addr:city:simc": 921792,
                "addr:street:sym_ul": 38499,
                "phone": "+48 790029028",
                "email": "przedszkole@asqprzedszkole.pl",
                "ref:regon": "146381730",
                "ref:vatin": "PL7282518495",
                "operator": "Asq Sp\u00f3\u0142ka Z Ograniczon\u0105 Odpowiedzialno\u015bci\u0105",
                "operator:type": "private",
                "amenity": "kindergarten"
            }
        },
        {
            "id": 126509,
            "type": "Feature",
            "geometry": {
                "type": "Point",
                "coordinates": [
                    21.25419,
                    52.35576
                ]
            },
            "properties": {
                "ref:rspo": 126509,
                "official_name": "Terapeutyczny Punkt Przedszkolny Asq",
                "name": "Terapeutyczny Punkt Przedszkolny Asq",
                "addr:postcode": "05-200",
                "addr:city": "Wo\u0142omin",
                "addr:street": "Aleja Armii Krajowej",
                "addr:housenumber": "133",
                "addr:city:simc": 921792,
                "addr:street:sym_ul": 38499,
                "phone": "+48 790029028",
                "email": "przedszkole@asqprzedszkole.pl",
                "ref:regon": "360402171",
                "ref:vatin": "PL5213252828",
                "operator": "W\u0142adys\u0142aw Stanek",
                "operator:type": "private",
                "amenity": "kindergarten"
            }
        },
        {
            "id": 132526,
            "type": "Feature",
            "geometry": {
                "type": "Point",
                "coordinates": [
                    21.25437,
                    52.35583
                ]
            },
            "properties": {
                "isced:level": "1;2",
                "ref:rspo": 132526,
                "official_name": "Niepubliczna Szko\u0142a Podstawowa Asq",
                "name": "Niepubliczna Szko\u0142a Podstawowa Asq",
                "addr:postcode": "05-200",
                "addr:city": "Wo\u0142omin",
                "addr:street": "Aleja Armii Krajowej",
                "addr:housenumber": "133",
                "addr:city:simc": 921792,
                "addr:street:sym_ul": 35012,
                "phone": "+48 790029028",
                "email": "szkola@asqszkola.pl",
                "ref:regon": "365724867",
                "operator": "W\u0142adys\u0142aw Stanek",
                "operator:type": "private",
                "amenity": "school"
            }
        },
        {
            "id": 133476,
            "type": "Feature",
            "geometry": {
                "type": "Point",
                "coordinates": [
                    21.25438,
                    52.35686
                ]
            },
            "properties": {
                "ref:rspo": 133476,
                "official_name": "Niepubliczne Przedszkole \"Olinkowo\"",
                "name": "Niepubliczne Przedszkole \"Olinkowo\"",
                "addr:postcode": "05-200",
                "addr:city": "Wo\u0142omin",
                "addr:street": "Geodet\u00f3w",
                "addr:housenumber": "7A",
                "addr:city:simc": 921792,
                "addr:street:sym_ul": 5452,
                "phone": "+48 570070320",
                "email": "olinkowe.przedszkole@o2.pl",
                "website": "http:\/\/www.olinkowo.com.pl",
                "ref:regon": "367344146",
                "operator": "Emilia Sikorska",
                "operator:type": "private",
                "amenity": "kindergarten"
            }
        },
        {
            "id": 106607,
            "type": "Feature",
            "geometry": {
                "type": "Point",
                "coordinates": [
                    21.25104,
                    52.35775
                ]
            },
            "properties": {
                "ref:rspo": 106607,
                "official_name": "Niepubliczne Przedszkole Krasnal",
                "name": "Niepubliczne Przedszkole Krasnal",
                "addr:postcode": "05-200",
                "addr:city": "Wo\u0142omin",
                "addr:street": "G\u0142owackiego",
                "addr:housenumber": "89A",
                "addr:city:simc": 921792,
                "addr:street:sym_ul": 5623,
                "phone": "+48 608327005",
                "email": "przedszkole@krasnal.wolomin.pl",
                "website": "http:\/\/www.krasnal.wolomin",
                "ref:regon": "146476896",
                "ref:vatin": "PL1251581710",
                "operator": "Janina Cholewska",
                "operator:type": "private",
                "amenity": "kindergarten"
            }
        },
        {
            "id": 128574,
            "type": "Feature",
            "geometry": {
                "type": "Point",
                "coordinates": [
                    21.28999,
                    52.36205
                ]
            },
            "properties": {
                "ref:rspo": 128574,
                "official_name": "Przedszkole Publiczne \"Bambi\"",
                "name": "Przedszkole Publiczne \"Bambi\"",
                "addr:postcode": "05-200",
                "addr:city": "Duczki",
                "addr:street": "Szosa Jadowska",
                "addr:housenumber": "9",
                "addr:city:simc": 10205,
                "addr:street:sym_ul": 22042,
                "phone": "+48 792155023",
                "email": "przedszkolebambi@gmail.com",
                "website": "http:\/\/www.przedszkole-bambi.pl",
                "ref:regon": "362323694",
                "ref:vatin": "PL1250071125",
                "operator": "Aneta Barszczewska-Jujka",
                "operator:type": "private",
                "amenity": "kindergarten"
            }
        },
        {
            "id": 15224,
            "type": "Feature",
            "geometry": {
                "type": "Point",
                "coordinates": [
                    21.28726,
                    52.36427
                ]
            },
            "properties": {
                "isced:level": "1;2",
                "ref:rspo": 15224,
                "official_name": "Szko\u0142a Podstawowa Nr 7 Z Oddzia\u0142ami Integracyjnymi im. Kr\u00f3lowej Jadwigi w Wo\u0142ominie",
                "name": "Szko\u0142a Podstawowa Nr 7 Z Oddzia\u0142ami Integracyjnymi",
                "addr:postcode": "05-200",
                "addr:city": "Wo\u0142omin",
                "addr:street": "Poprzeczna",
                "addr:housenumber": "6",
                "addr:city:simc": 921792,
                "addr:street:sym_ul": 17171,
                "phone": "+48 227764221",
                "email": "sekretariat@sp7wolomin.pl",
                "ref:regon": "016037982",
                "ref:vatin": "PL1251011183",
                "operator": "Gmina Wo\u0142omin",
                "operator:type": "government",
                "amenity": "school"
            }
        },
        {
            "id": 128573,
            "type": "Feature",
            "geometry": {
                "type": "Point",
                "coordinates": [
                    21.28166,
                    52.36605
                ]
            },
            "properties": {
                "ref:rspo": 128573,
                "official_name": "Przedszkole Publiczne \"Bambi\"",
                "name": "Przedszkole Publiczne \"Bambi\"",
                "addr:postcode": "05-200",
                "addr:city": "Lipinki",
                "addr:street": "Wi\u015bniowa",
                "addr:housenumber": "1",
                "addr:city:simc": 10240,
                "addr:street:sym_ul": 24412,
                "phone": "+48 792155023",
                "email": "przedszkolebambi@gmail.com",
                "ref:regon": "362323671",
                "ref:vatin": "PL1250071125",
                "operator": "Aneta Barszczewska-Jujka",
                "operator:type": "private",
                "amenity": "kindergarten"
            }
        },
        {
            "id": 19633,
            "type": "Feature",
            "geometry": {
                "type": "Point",
                "coordinates": [
                    21.22631,
                    52.36885
                ]
            },
            "properties": {
                "isced:level": "1;2",
                "ref:rspo": 19633,
                "official_name": "Szko\u0142a Podstawowa im. Gen. Jana Henryka D\u0105browskiego w Czarnej",
                "name": "Szko\u0142a Podstawowa",
                "addr:postcode": "05-200",
                "addr:city": "Czarna",
                "addr:street": "Wincentego Witosa",
                "addr:housenumber": "52",
                "addr:city:simc": 10197,
                "addr:street:sym_ul": 24454,
                "phone": "+48 227878151",
                "email": "zsczarna@gmail.com",
                "website": "http:\/\/www.zsczarna.pl",
                "ref:regon": "016975901",
                "ref:vatin": "PL1251407478",
                "operator": "Gmina Wo\u0142omin",
                "operator:type": "government",
                "amenity": "school"
            }
        },
        {
            "id": 120082,
            "type": "Feature",
            "geometry": {
                "type": "Point",
                "coordinates": [
                    21.22338,
                    52.36901
                ]
            },
            "properties": {
                "ref:rspo": 120082,
                "official_name": "Publiczne Przedszkole Zaczarowany Zamek",
                "name": "Publiczne Przedszkole Zaczarowany Zamek",
                "addr:postcode": "05-200",
                "addr:city": "Czarna",
                "addr:street": "Czarnieckiego",
                "addr:housenumber": "112a",
                "addr:city:simc": 10197,
                "addr:street:sym_ul": 3279,
                "phone": "+48 228645421",
                "email": "j.pytel@agencja-ckid.pl",
                "ref:regon": "146882662",
                "ref:vatin": "PL5260151980",
                "operator": "Dane Do Uzupe\u0142nienia",
                "operator:type": "private",
                "amenity": "kindergarten"
            }
        },
        {
            "id": 15226,
            "type": "Feature",
            "geometry": {
                "type": "Point",
                "coordinates": [
                    21.31652,
                    52.3706699
                ]
            },
            "properties": {
                "isced:level": "1;2",
                "ref:rspo": 15226,
                "official_name": "Szko\u0142a Podstawowa im. Fryderyka Chopina w Starym Grabiu",
                "name": "Szko\u0142a Podstawowa",
                "addr:postcode": "05-200",
                "addr:city": "Stare Grabie",
                "addr:street": "Cichorackiej",
                "addr:housenumber": "8",
                "addr:city:simc": 10300,
                "addr:street:sym_ul": 35244,
                "phone": "+48 227877288",
                "email": "spstaregrabie@gmail.com",
                "website": "http:\/\/szkolastaregrabie.szkolnastrona.pl",
                "ref:regon": "016982284",
                "ref:vatin": "PL1251130410",
                "operator": "Gmina Wo\u0142omin",
                "operator:type": "government",
                "amenity": "school"
            }
        },
        {
            "id": 15227,
            "type": "Feature",
            "geometry": {
                "type": "Point",
                "coordinates": [
                    21.26945,
                    52.37262
                ]
            },
            "properties": {
                "isced:level": "1;2",
                "ref:rspo": 15227,
                "official_name": "Szko\u0142a Podstawowa im. Ignacego Jana Paderewskiego w Zago\u015bci\u0144cu",
                "name": "Szko\u0142a Podstawowa",
                "addr:postcode": "05-200",
                "addr:city": "Zago\u015bciniec",
                "addr:street": "Szkolna",
                "addr:housenumber": "1",
                "addr:city:simc": 10330,
                "addr:street:sym_ul": 21970,
                "phone": "+48 227877145",
                "email": "spzag@wp.pl",
                "website": "https:\/\/www.spzagosciniec.wolomin.org\/",
                "ref:regon": "017209340",
                "ref:vatin": "PL1251141342",
                "operator": "Gmina Wo\u0142omin",
                "operator:type": "government",
                "amenity": "school"
            }
        },
        {
            "id": 129412,
            "type": "Feature",
            "geometry": {
                "type": "Point",
                "coordinates": [
                    21.5109,
                    52.47948
                ]
            },
            "properties": {
                "ref:rspo": 129412,
                "official_name": "Niepubliczne Przedszkole \"Weso\u0142y Skrzat\"",
                "name": "Niepubliczne Przedszkole \"Weso\u0142y Skrzat\"",
                "addr:postcode": "05-200",
                "addr:city": "Duczki",
                "addr:street": "D\u0142uga",
                "addr:housenumber": "53a",
                "addr:city:simc": 10205,
                "addr:street:sym_ul": 3839,
                "phone": "+48 660433914",
                "email": "przedszkolewesolyskrzat@wp.pl",
                "website": "http:\/\/www.przedszkoleduczki.com.pl",
                "ref:regon": "362596759",
                "ref:vatin": "PL8241231863",
                "operator": "Jaros\u0142aw Flak",
                "operator:type": "private",
                "amenity": "kindergarten"
            }
        },
        {
            "id": 15048,
            "type": "Feature",
            "geometry": {
                "type": "Point",
                "coordinates": [
                    21.1469875,
                    52.4839428
                ]
            },
            "properties": {
                "ref:rspo": 15048,
                "official_name": "Przedszkole Nr 6 im. Bajka",
                "name": "Przedszkole Nr 6",
                "addr:postcode": "05-200",
                "addr:city": "Wo\u0142omin",
                "addr:street": "Ko\u015bcielna",
                "addr:housenumber": "70",
                "addr:city:simc": 921792,
                "addr:street:sym_ul": 9546,
                "phone": "+48 227762637",
                "email": "przedszkolebajka6@wp.pl",
                "website": "http:\/\/www.przedszkole.wolomin.pl",
                "ref:regon": "142629073",
                "ref:vatin": "PL1251583399",
                "operator": "Gmina Wo\u0142omin",
                "operator:type": "government",
                "amenity": "kindergarten"
            }
        }
    ]
}