{
    "type": "FeatureCollection",
    "features": [
        {
            "id": 48035,
            "type": "Feature",
            "geometry": {
                "type": "Point",
                "coordinates": [
                    21.18864,
                    52.32048
                ]
            },
            "properties": {
                "ref:rspo": 48035,
                "official_name": "Ognisko Przedszkolne Kubu\u015b",
                "name": "Ognisko Przedszkolne Kubu\u015b",
                "addr:country": "PL",
                "addr:postcode": "05-230",
                "addr:city": "Koby\u0142ka",
                "addr:street": "Ksi\u0119dza J\u00f3zefa Poniatowskiego",
                "addr:housenumber": "56a",
                "addr:teryt:simc": 33487,
                "addr:teryt:sym_ul": 920539,
                "contact:phone": "+48 227990777",
                "ref:regon": "146413520",
                "operator": "Andrzej Welskop",
                "operator:type": "private",
                "amenity": "kindergarten"
            }
        },
        {
            "id": 107250,
            "type": "Feature",
            "geometry": {
                "type": "Point",
                "coordinates": [
                    21.21521,
                    52.32456
                ]
            },
            "properties": {
                "ref:rspo": 107250,
                "official_name": "Akademia Pi\u0119knych W\u0142os\u00f3w",
                "name": "Akademia Pi\u0119knych W\u0142os\u00f3w",
                "addr:country": "PL",
                "addr:postcode": "05-230",
                "addr:city": "Koby\u0142ka",
                "addr:street": "Gabriela Narutowicza",
                "addr:housenumber": "16",
                "addr:teryt:simc": 14018,
                "addr:teryt:sym_ul": 920539,
                "contact:phone": "+48 227737444",
                "contact:email": "k.pasiak@catzy.pl",
                "ref:regon": "146497935",
                "operator": "Przedsi\u0119biorstwo Zagraniczne \"Catzy Of Poland\" Jan Blom",
                "operator:type": "consortium",
                "fixme": "w zale\u017cno\u015bci od przedmiotu dzia\u0142alno\u015bci (np. amenity=training + training=*, amenity=dancing_school, amenity=language_school, amenity=music_school)"
            }
        },
        {
            "id": 47146,
            "type": "Feature",
            "geometry": {
                "type": "Point",
                "coordinates": [
                    21.21751,
                    52.32475
                ]
            },
            "properties": {
                "ref:rspo": 47146,
                "official_name": "Zesp\u00f3\u0142 Szk\u00f3\u0142 Publicznych Nr 2 w Koby\u0142ce",
                "name": "Zesp\u00f3\u0142 Szk\u00f3\u0142 Publicznych Nr 2 w Koby\u0142ce",
                "addr:country": "PL",
                "addr:postcode": "05-230",
                "addr:city": "Koby\u0142ka",
                "addr:street": "Elizy Orzeszkowej",
                "addr:housenumber": "3\/5",
                "addr:teryt:simc": 15211,
                "addr:teryt:sym_ul": 920539,
                "contact:phone": "+48 227861026",
                "contact:email": "szkola@zsp2.kobylka.pl",
                "contact:website": "http:\/\/zsp2kobylka.szkolnastrona.pl",
                "ref:regon": "000799612",
                "ref:vatin": "PL1250559269",
                "operator": "Miasto Koby\u0142ka",
                "operator:type": "government",
                "landuse": "education",
                "fixme": "amenity=school, amenity=college albo landuse=education w zale\u017cno\u015bci od tego, jakie plac\u00f3wki wchodz\u0105 w sk\u0142ad zespo\u0142u. Sprawd\u017a, kiedy stosowa\u0107 amenity=* a kiedy landuse=education.",
                "note": "Children RSPO: 87771;87778"
            }
        },
        {
            "id": 87771,
            "type": "Feature",
            "geometry": {
                "type": "Point",
                "coordinates": [
                    21.21751,
                    52.32472
                ]
            },
            "properties": {
                "isced:level": "1;2",
                "ref:rspo": 87771,
                "official_name": "Publiczna Szko\u0142a Podstawowa Z Oddzia\u0142ami Integrcyjnymi Nr 2 im. Bohater\u00f3w Bitwy Ossowskiej w Koby\u0142ce",
                "name": "Publiczna Szko\u0142a Podstawowa Z Oddzia\u0142ami Integrcyjnymi Nr 2",
                "addr:country": "PL",
                "addr:postcode": "05-230",
                "addr:city": "Koby\u0142ka",
                "addr:street": "Elizy Orzeszkowej",
                "addr:housenumber": "3\/5",
                "addr:teryt:simc": 15211,
                "addr:teryt:sym_ul": 920539,
                "contact:phone": "+48 227861026",
                "contact:email": "szkola@zsp2.kobylka.pl",
                "ref:regon": "015552297",
                "operator": "Miasto Koby\u0142ka",
                "operator:type": "government",
                "amenity": "school",
                "note": "Parent RSPO: 47146"
            }
        },
        {
            "id": 87778,
            "type": "Feature",
            "geometry": {
                "type": "Point",
                "coordinates": [
                    21.21751,
                    52.324690000000004
                ]
            },
            "properties": {
                "ref:rspo": 87778,
                "official_name": "Publiczne Przedszkole Z Oddzia\u0142ami Integracyjnymi Nr 2 w Koby\u0142ce",
                "name": "Publiczne Przedszkole Z Oddzia\u0142ami Integracyjnymi Nr 2 w Koby\u0142ce",
                "addr:country": "PL",
                "addr:postcode": "05-230",
                "addr:city": "Koby\u0142ka",
                "addr:street": "Elizy Orzeszkowej",
                "addr:housenumber": "3\/5",
                "addr:teryt:simc": 15211,
                "addr:teryt:sym_ul": 920539,
                "contact:phone": "+48 227861026",
                "contact:email": "szkola@zsp2.kobylka.pl",
                "contact:website": "http:\/\/zsp2kobylka.szkolnastrona.pl",
                "ref:regon": "015552280",
                "operator": "Miasto Koby\u0142ka",
                "operator:type": "government",
                "amenity": "kindergarten",
                "note": "Parent RSPO: 47146"
            }
        },
        {
            "id": 121693,
            "type": "Feature",
            "geometry": {
                "type": "Point",
                "coordinates": [
                    21.16772,
                    52.32583
                ]
            },
            "properties": {
                "ref:rspo": 121693,
                "official_name": "Centrum Kszta\u0142cenia Zawodowego I Artystycznego",
                "name": "Centrum Kszta\u0142cenia Zawodowego I Artystycznego",
                "addr:country": "PL",
                "addr:postcode": "05-230",
                "addr:city": "Koby\u0142ka",
                "addr:street": "Szeroka",
                "addr:housenumber": "44b",
                "addr:door": "2",
                "addr:teryt:simc": 21925,
                "addr:teryt:sym_ul": 920539,
                "contact:phone": "+48 787100777",
                "ref:regon": "147078258",
                "operator": "Krzysztof Maszota",
                "operator:type": "private",
                "fixme": "w zale\u017cno\u015bci od przedmiotu dzia\u0142alno\u015bci (np. amenity=training + training=*, amenity=dancing_school, amenity=language_school, amenity=music_school) albo amenity=school, amenity=college, albo landuse=education w zale\u017cno\u015bci od tego, jakie plac\u00f3wki wchodz\u0105 w sk\u0142ad zespo\u0142u. Sprawd\u017a, kiedy stosowa\u0107 amenity=* a kiedy landuse=education."
            }
        },
        {
            "id": 121695,
            "type": "Feature",
            "geometry": {
                "type": "Point",
                "coordinates": [
                    21.16772,
                    52.3258
                ]
            },
            "properties": {
                "ref:rspo": 121695,
                "official_name": "Centrum Kszta\u0142cenia Muzycznego - Ognisko w Z\u0105bkach",
                "name": "Centrum Kszta\u0142cenia Muzycznego - Ognisko w Z\u0105bkach",
                "addr:country": "PL",
                "addr:postcode": "05-230",
                "addr:city": "Koby\u0142ka",
                "addr:street": "Szeroka",
                "addr:housenumber": "44b",
                "addr:door": "2",
                "addr:teryt:simc": 21925,
                "addr:teryt:sym_ul": 920539,
                "contact:phone": "+48 787100777",
                "ref:regon": "147078353",
                "operator": "Krzysztof Maszota",
                "operator:type": "private",
                "fixme": "w zale\u017cno\u015bci od przedmiotu dzia\u0142alno\u015bci (np. amenity=community_centre + community_centre:for=child;juvenile, amenity=training + training=*, amenity=dancing_school, amenity=music_school),"
            }
        },
        {
            "id": 130914,
            "type": "Feature",
            "geometry": {
                "type": "Point",
                "coordinates": [
                    21.2200099,
                    52.32829
                ]
            },
            "properties": {
                "ref:rspo": 130914,
                "official_name": "Niepubliczny Punkt Przedszkolny \"T\u0119czowa Kraina\"",
                "name": "Niepubliczny Punkt Przedszkolny \"T\u0119czowa Kraina\"",
                "addr:country": "PL",
                "addr:postcode": "05-230",
                "addr:city": "Koby\u0142ka",
                "addr:street": "Juliana Tuwima",
                "addr:housenumber": "10",
                "addr:teryt:simc": 23196,
                "addr:teryt:sym_ul": 920539,
                "contact:phone": "+48 227868651",
                "contact:email": "marlena@teczowakraina.com.pl",
                "contact:website": "http:\/\/teczowakraina.com.pl",
                "ref:regon": "364735410",
                "ref:vatin": "PL1250957219",
                "operator": "Marlena Zalewska - Dobrenko",
                "operator:type": "private",
                "amenity": "kindergarten"
            }
        },
        {
            "id": 124375,
            "type": "Feature",
            "geometry": {
                "type": "Point",
                "coordinates": [
                    21.16857,
                    52.32946
                ]
            },
            "properties": {
                "ref:rspo": 124375,
                "official_name": "Publiczne Przedszkole Nr 3 w Koby\u0142ce",
                "name": "Publiczne Przedszkole Nr 3 w Koby\u0142ce",
                "addr:country": "PL",
                "addr:postcode": "05-230",
                "addr:city": "Koby\u0142ka",
                "addr:street": "Ceramiczna",
                "addr:housenumber": "49",
                "addr:teryt:simc": 2629,
                "addr:teryt:sym_ul": 920539,
                "contact:phone": "+48 227810179",
                "ref:regon": "147390731",
                "operator": "Mariusz Stefaniak",
                "operator:type": "private",
                "amenity": "kindergarten"
            }
        },
        {
            "id": 131708,
            "type": "Feature",
            "geometry": {
                "type": "Point",
                "coordinates": [
                    21.2165399,
                    52.33063
                ]
            },
            "properties": {
                "ref:rspo": 131708,
                "official_name": "Niepubliczne Przedszkole \"Tabaluga\"",
                "name": "Niepubliczne Przedszkole \"Tabaluga\"",
                "addr:country": "PL",
                "addr:postcode": "05-230",
                "addr:city": "Koby\u0142ka",
                "addr:street": "Bohater\u00f3w Ossowa",
                "addr:housenumber": "1c",
                "addr:teryt:simc": 1657,
                "addr:teryt:sym_ul": 920539,
                "contact:phone": "+48 732777700",
                "contact:email": "przedszkoletabaluga@wp.pl",
                "contact:website": "http:\/\/www.kobylka.przedszkoletabaluga.pl",
                "ref:regon": "365337691",
                "operator": "Ma\u0142gorzata Karpi\u0144ska",
                "operator:type": "private",
                "amenity": "kindergarten"
            }
        },
        {
            "id": 131166,
            "type": "Feature",
            "geometry": {
                "type": "Point",
                "coordinates": [
                    21.2182,
                    52.33195
                ]
            },
            "properties": {
                "ref:rspo": 131166,
                "official_name": "Punkt Przedszkolny \" Domini\u015b\"",
                "name": "Punkt Przedszkolny \" Domini\u015b\"",
                "addr:country": "PL",
                "addr:postcode": "05-230",
                "addr:city": "Koby\u0142ka",
                "addr:street": "Przemys\u0142owa",
                "addr:housenumber": "5",
                "addr:teryt:simc": 17742,
                "addr:teryt:sym_ul": 920539,
                "contact:phone": "+48 781319027",
                "contact:email": "etwm.79@gmail.com",
                "ref:regon": "365003470",
                "operator": "Ewa \u015alusarz-Dom\u017ca\u0142",
                "operator:type": "private",
                "amenity": "kindergarten"
            }
        },
        {
            "id": 106072,
            "type": "Feature",
            "geometry": {
                "type": "Point",
                "coordinates": [
                    21.20073,
                    52.33395
                ]
            },
            "properties": {
                "ref:rspo": 106072,
                "official_name": "O\u015brodek Szkolenia I Us\u0142ug Bhp",
                "name": "O\u015brodek Szkolenia I Us\u0142ug Bhp",
                "addr:country": "PL",
                "addr:postcode": "05-230",
                "addr:city": "Koby\u0142ka",
                "addr:street": "Belgijska",
                "addr:housenumber": "16",
                "addr:teryt:simc": 979,
                "addr:teryt:sym_ul": 920539,
                "contact:phone": "+48 604452555",
                "ref:regon": "146465071",
                "operator": "Tadeusz Tomal",
                "operator:type": "private",
                "fixme": "w zale\u017cno\u015bci od przedmiotu dzia\u0142alno\u015bci (np. amenity=training + training=*, amenity=dancing_school, amenity=language_school, amenity=music_school)"
            }
        },
        {
            "id": 273466,
            "type": "Feature",
            "geometry": {
                "type": "Point",
                "coordinates": [
                    21.22044,
                    52.33682
                ]
            },
            "properties": {
                "ref:rspo": 273466,
                "official_name": "Niepubliczny Punkt Przedszkolny \"Dom Na G\u00f3rze\"",
                "name": "Niepubliczny Punkt Przedszkolny \"Dom Na G\u00f3rze\"",
                "addr:country": "PL",
                "addr:postcode": "05-230",
                "addr:city": "Koby\u0142ka",
                "addr:street": "Poprzeczna",
                "addr:housenumber": "10b",
                "addr:teryt:simc": 17171,
                "addr:teryt:sym_ul": 920539,
                "contact:email": "domnagorze@gmail.com",
                "ref:regon": "384474810",
                "operator": "Agnieszka  Radko",
                "operator:type": "private",
                "amenity": "kindergarten"
            }
        },
        {
            "id": 47130,
            "type": "Feature",
            "geometry": {
                "type": "Point",
                "coordinates": [
                    21.19359,
                    52.33788
                ]
            },
            "properties": {
                "ref:rspo": 47130,
                "official_name": "Publiczne Przedszkole Nr 1 im. Krasnala Ha\u0142aba\u0142y w Koby\u0142ce",
                "name": "Publiczne Przedszkole Nr 1",
                "addr:country": "PL",
                "addr:postcode": "05-230",
                "addr:city": "Koby\u0142ka",
                "addr:street": "Genera\u0142a Tadeusza Ko\u015bciuszki",
                "addr:housenumber": "6",
                "addr:teryt:simc": 9574,
                "addr:teryt:sym_ul": 920539,
                "contact:phone": "+48 227861218",
                "ref:regon": "013003296",
                "ref:vatin": "PL1250902945",
                "operator": "Miasto Koby\u0142ka",
                "operator:type": "government",
                "amenity": "kindergarten"
            }
        },
        {
            "id": 133803,
            "type": "Feature",
            "geometry": {
                "type": "Point",
                "coordinates": [
                    21.1781,
                    52.338
                ]
            },
            "properties": {
                "ref:rspo": 133803,
                "official_name": "Niepubliczne Przedszkole \"Akademia Dzieci Tw\u00f3rczych\"",
                "name": "Niepubliczne Przedszkole \"Akademia Dzieci Tw\u00f3rczych\"",
                "addr:country": "PL",
                "addr:postcode": "05-230",
                "addr:city": "Koby\u0142ka",
                "addr:street": "Zag\u0142oby",
                "addr:housenumber": "5",
                "addr:teryt:simc": 25353,
                "addr:teryt:sym_ul": 920539,
                "contact:phone": "+48 664979615",
                "contact:email": "sekretariat@akademia-dzieci-tworczych.pl",
                "contact:website": "http:\/\/www.akademia-dzieci-tworczych.pl",
                "ref:regon": "367657402",
                "operator": "Akademia Dzieci Tw\u00f3rczych Sp\u00f3\u0142ka Z Ograniczon\u0105 Odpowiedzialno\u015bci\u0105",
                "operator:type": "private",
                "amenity": "kindergarten"
            }
        },
        {
            "id": 270001,
            "type": "Feature",
            "geometry": {
                "type": "Point",
                "coordinates": [
                    21.1781,
                    52.33797
                ]
            },
            "properties": {
                "ref:rspo": 270001,
                "official_name": "Publiczne Przedszkole Akademia Dzieci Tw\u00f3rczych",
                "name": "Publiczne Przedszkole Akademia Dzieci Tw\u00f3rczych",
                "addr:country": "PL",
                "addr:postcode": "05-230",
                "addr:city": "Koby\u0142ka",
                "addr:street": "Zag\u0142oby",
                "addr:housenumber": "5",
                "addr:teryt:simc": 25353,
                "addr:teryt:sym_ul": 920539,
                "ref:regon": "381970281",
                "operator": "Akademia Dzieci Tw\u00f3rczych Sp\u00f3\u0142ka Z Ograniczon\u0105 Odpowiedzialno\u015bci\u0105",
                "operator:type": "private",
                "amenity": "kindergarten"
            }
        },
        {
            "id": 46550,
            "type": "Feature",
            "geometry": {
                "type": "Point",
                "coordinates": [
                    21.19857,
                    52.33865
                ]
            },
            "properties": {
                "ref:rspo": 46550,
                "official_name": "Katolickie Publiczne Przedszkole im. \u015aw. Franciszka Z Asy\u017cu w Koby\u0142ce",
                "name": "Katolickie Publiczne Przedszkole",
                "addr:country": "PL",
                "addr:postcode": "05-230",
                "addr:city": "Koby\u0142ka",
                "addr:street": "Genera\u0142a Franciszka \u017bymirskiego",
                "addr:housenumber": "5",
                "addr:teryt:simc": 26629,
                "addr:teryt:sym_ul": 920539,
                "contact:phone": "+48 227862548",
                "contact:email": "info@przedszkoleswfranciszka.edu.pl",
                "ref:regon": "146404394",
                "operator": "Zgromadzenie Si\u00f3str S\u0142u\u017cek Naj\u015bwi\u0119tszej Maryi Panny Niepokalanej Prowincja P\u0142ocka",
                "operator:type": "religious",
                "amenity": "kindergarten"
            }
        },
        {
            "id": 86844,
            "type": "Feature",
            "geometry": {
                "type": "Point",
                "coordinates": [
                    21.19488,
                    52.33905
                ]
            },
            "properties": {
                "isced:level": "1;2",
                "ref:rspo": 86844,
                "official_name": "Publiczna Szko\u0142a Podstawowa Z Oddzia\u0142ami Dwuj\u0119zycznymi Nr 1 im. Zofii Na\u0142kowskiej w Koby\u0142ce",
                "name": "Publiczna Szko\u0142a Podstawowa Z Oddzia\u0142ami Dwuj\u0119zycznymi Nr 1",
                "addr:country": "PL",
                "addr:postcode": "05-230",
                "addr:city": "Koby\u0142ka",
                "addr:street": "Jezuicka",
                "addr:housenumber": "1",
                "addr:teryt:simc": 7542,
                "addr:teryt:sym_ul": 920539,
                "contact:phone": "+48 227861010",
                "contact:email": "sekretariat@sp1kobylka.edu.pl",
                "contact:website": "http:\/\/sp1.kobylka.szkolnastrona.pl",
                "ref:regon": "000799606",
                "operator": "Miasto Koby\u0142ka",
                "operator:type": "government",
                "amenity": "school"
            }
        },
        {
            "id": 279172,
            "type": "Feature",
            "geometry": {
                "type": "Point",
                "coordinates": [
                    21.21261,
                    52.34088
                ]
            },
            "properties": {
                "ref:rspo": 279172,
                "official_name": "Niepubliczne Przedszkole Akademia Malucha",
                "name": "Niepubliczne Przedszkole Akademia Malucha",
                "addr:country": "PL",
                "addr:postcode": "05-230",
                "addr:city": "Koby\u0142ka",
                "addr:street": "Wincentego Pola",
                "addr:housenumber": "25",
                "addr:teryt:simc": 16961,
                "addr:teryt:sym_ul": 920539,
                "contact:phone": "+48 609451225",
                "contact:email": "avon35@o2.pl",
                "ref:regon": "520802671",
                "operator": "Beata Wasilk\u00f3w",
                "operator:type": "private",
                "amenity": "kindergarten"
            }
        },
        {
            "id": 82336,
            "type": "Feature",
            "geometry": {
                "type": "Point",
                "coordinates": [
                    21.20869,
                    52.34123
                ]
            },
            "properties": {
                "isced:level": "1;2",
                "ref:rspo": 82336,
                "official_name": "Publiczna Szko\u0142a Podstawowa Z Oddzia\u0142ami Sportowymi Nr 3 im. Karola Wojty\u0142y w Koby\u0142ce",
                "name": "Publiczna Szko\u0142a Podstawowa Z Oddzia\u0142ami Sportowymi Nr 3",
                "addr:country": "PL",
                "addr:postcode": "05-230",
                "addr:city": "Koby\u0142ka",
                "addr:street": "Ksi\u0119dza Marcina Za\u0142uskiego",
                "addr:housenumber": "57",
                "addr:teryt:simc": 25522,
                "addr:teryt:sym_ul": 920539,
                "contact:phone": "+48 227861572",
                "contact:email": "szkola@zsp3.kobylka.pl",
                "contact:website": "http:\/\/zsp3.edu.pl",
                "ref:regon": "010899903",
                "operator": "Miasto Koby\u0142ka",
                "operator:type": "government",
                "amenity": "school"
            }
        },
        {
            "id": 277885,
            "type": "Feature",
            "geometry": {
                "type": "Point",
                "coordinates": [
                    21.20869,
                    52.3412
                ]
            },
            "properties": {
                "ref:rspo": 277885,
                "official_name": "Publiczne Przedszkole Koby\u0142kowo",
                "name": "Publiczne Przedszkole Koby\u0142kowo",
                "addr:country": "PL",
                "addr:postcode": "05-230",
                "addr:city": "Koby\u0142ka",
                "addr:street": "Ksi\u0119dza Marcina Za\u0142uskiego",
                "addr:housenumber": "21",
                "addr:teryt:simc": 25522,
                "addr:teryt:sym_ul": 920539,
                "contact:email": "przedszkole@kobylkowo.pl",
                "contact:website": "http:\/\/kobylkowo.pl",
                "ref:regon": "389628599",
                "operator": "Koby\u0142kowo Sp\u00f3\u0142ka Z Ograniczon\u0105 Odpowiedzialno\u015bci\u0105",
                "operator:type": "private",
                "amenity": "kindergarten"
            }
        },
        {
            "id": 265132,
            "type": "Feature",
            "geometry": {
                "type": "Point",
                "coordinates": [
                    21.20097,
                    52.34128
                ]
            },
            "properties": {
                "ref:rspo": 265132,
                "official_name": "Niepubliczne Przedszkole Przysta\u0144 Montessori",
                "name": "Niepubliczne Przedszkole Przysta\u0144 Montessori",
                "addr:country": "PL",
                "addr:postcode": "05-230",
                "addr:city": "Koby\u0142ka",
                "addr:street": "Ksi\u0119dza W\u0142adys\u0142awa Ros\u0142ana",
                "addr:housenumber": "11",
                "addr:teryt:simc": 38053,
                "addr:teryt:sym_ul": 920539,
                "contact:email": "przedszkole@montessori.pl",
                "contact:website": "http:\/\/www.pedagogikamontessori.pl",
                "ref:regon": "368631103",
                "operator": "Fundacja Wspierania Rozwoju Dziecka I Rodziny \"Empatia\"",
                "operator:type": "ngo",
                "amenity": "kindergarten"
            }
        },
        {
            "id": 279240,
            "type": "Feature",
            "geometry": {
                "type": "Point",
                "coordinates": [
                    21.20097,
                    52.341249999999995
                ]
            },
            "properties": {
                "isced:level": "1;2",
                "ref:rspo": 279240,
                "official_name": "Niepubliczna Ma\u0142a Szko\u0142a Podstawowa Przysta\u0144 Montessori",
                "name": "Niepubliczna Ma\u0142a Szko\u0142a Podstawowa Przysta\u0144 Montessori",
                "addr:country": "PL",
                "addr:postcode": "05-230",
                "addr:city": "Koby\u0142ka",
                "addr:street": "Ksi\u0119dza W\u0142adys\u0142awa Ros\u0142ana",
                "addr:housenumber": "11",
                "addr:teryt:simc": 38053,
                "addr:teryt:sym_ul": 920539,
                "contact:email": "szkola@montessori",
                "contact:website": "http:\/\/pedagogikamontessori.pl",
                "ref:regon": "520958137",
                "operator": "Katarzyna Kaczmarska-Kr\u00fcger",
                "operator:type": "private",
                "amenity": "school"
            }
        },
        {
            "id": 264792,
            "type": "Feature",
            "geometry": {
                "type": "Point",
                "coordinates": [
                    21.17344,
                    52.34251
                ]
            },
            "properties": {
                "ref:rspo": 264792,
                "official_name": "Publiczne Przedszkole Ptasie Radio",
                "name": "Publiczne Przedszkole Ptasie Radio",
                "addr:country": "PL",
                "addr:postcode": "05-230",
                "addr:city": "Koby\u0142ka",
                "addr:street": "Ole\u0144ki",
                "addr:housenumber": "3",
                "addr:teryt:simc": 14969,
                "addr:teryt:sym_ul": 920539,
                "contact:phone": "+48 600214746",
                "contact:email": "biuro@przedszkole-kobylka.pl",
                "contact:website": "http:\/\/www.przedszkole-kobylka.pl",
                "ref:regon": "368453274",
                "operator": "Luiza Sk\u0142odowska",
                "operator:type": "private",
                "amenity": "kindergarten"
            }
        },
        {
            "id": 70392,
            "type": "Feature",
            "geometry": {
                "type": "Point",
                "coordinates": [
                    21.18455,
                    52.34479
                ]
            },
            "properties": {
                "ref:rspo": 70392,
                "official_name": "O\u015brodek Rehabilitacyjno-Edukacyjno-Wychowawczy",
                "name": "O\u015brodek Rehabilitacyjno-Edukacyjno-Wychowawczy",
                "addr:country": "PL",
                "addr:postcode": "05-230",
                "addr:city": "Koby\u0142ka",
                "addr:street": "Nadme\u0144ska",
                "addr:housenumber": "8",
                "addr:door": "H",
                "addr:teryt:simc": 13884,
                "addr:teryt:sym_ul": 920539,
                "contact:phone": "+48 227879560",
                "contact:email": "zk.wolomin@psoni.org.pl",
                "contact:website": "http:\/\/www.psoni.org.pl",
                "ref:regon": "146395956",
                "operator": "Polskie Stowarzyszenie Na Rzecz Os\u00f3b Z Niepe\u0142nosprawno\u015bci\u0105 Intelektualn\u0105 Ko\u0142o W Koby\u0142ce",
                "operator:type": "ngo",
                "amenity": "school"
            }
        },
        {
            "id": 47681,
            "type": "Feature",
            "geometry": {
                "type": "Point",
                "coordinates": [
                    21.20742,
                    52.34613
                ]
            },
            "properties": {
                "ref:rspo": 47681,
                "official_name": "Niepubliczne Przedszkole Nr 1 w Koby\u0142ce",
                "name": "Niepubliczne Przedszkole Nr 1 w Koby\u0142ce",
                "addr:country": "PL",
                "addr:postcode": "05-230",
                "addr:city": "Koby\u0142ka",
                "addr:street": "Natoli\u0144ska",
                "addr:housenumber": "11",
                "addr:teryt:simc": 14046,
                "addr:teryt:sym_ul": 920539,
                "contact:phone": "+48 508117870",
                "ref:regon": "146404744",
                "operator": "Violetta Gr\u0105dzka-Stefaniak",
                "operator:type": "private",
                "amenity": "kindergarten"
            }
        },
        {
            "id": 129800,
            "type": "Feature",
            "geometry": {
                "type": "Point",
                "coordinates": [
                    21.20742,
                    52.3461
                ]
            },
            "properties": {
                "ref:rspo": 129800,
                "official_name": "Publiczne Przedszkole Nr 4 w Koby\u0142ce",
                "name": "Publiczne Przedszkole Nr 4 w Koby\u0142ce",
                "addr:country": "PL",
                "addr:postcode": "05-230",
                "addr:city": "Koby\u0142ka",
                "addr:street": "Natoli\u0144ska",
                "addr:housenumber": "11",
                "addr:teryt:simc": 14046,
                "addr:teryt:sym_ul": 920539,
                "contact:phone": "+48 222961070",
                "contact:email": "przedszkolekobylka@tlen.pl",
                "contact:website": "http:\/\/www.przedszkolekobylka.pl",
                "ref:regon": "362915934",
                "operator": "Violetta Gr\u0105dzka-Stefaniak",
                "operator:type": "private",
                "amenity": "kindergarten"
            }
        },
        {
            "id": 265051,
            "type": "Feature",
            "geometry": {
                "type": "Point",
                "coordinates": [
                    21.19052,
                    52.34658
                ]
            },
            "properties": {
                "ref:rspo": 265051,
                "official_name": "Publiczne Przedszkole Zielony Wiatraczek",
                "name": "Publiczne Przedszkole Zielony Wiatraczek",
                "addr:country": "PL",
                "addr:postcode": "05-230",
                "addr:city": "Koby\u0142ka",
                "addr:street": "Mieszka I",
                "addr:housenumber": "51",
                "addr:teryt:simc": 12832,
                "addr:teryt:sym_ul": 920539,
                "contact:phone": "+48 888111149",
                "contact:email": "przedszkole@zielonywiatraczek.pl",
                "contact:website": "http:\/\/www.zielonywiatraczek.pl",
                "ref:regon": "368568310",
                "operator": "Anna Mucha",
                "operator:type": "private",
                "amenity": "kindergarten"
            }
        },
        {
            "id": 87818,
            "type": "Feature",
            "geometry": {
                "type": "Point",
                "coordinates": [
                    21.20921,
                    52.34979
                ]
            },
            "properties": {
                "ref:rspo": 87818,
                "official_name": "Przedszkole S\u0142oneczna Polana",
                "name": "Przedszkole S\u0142oneczna Polana",
                "addr:country": "PL",
                "addr:postcode": "05-230",
                "addr:city": "Koby\u0142ka",
                "addr:street": "Jana Brzechwy",
                "addr:housenumber": "5",
                "addr:teryt:simc": 2225,
                "addr:teryt:sym_ul": 920539,
                "contact:phone": "+48 227860070",
                "contact:email": "przedszkole@slonecznapolana.edu.pl",
                "contact:website": "http:\/\/www.slonecznapolana.edu.pl",
                "ref:regon": "146440036",
                "ref:vatin": "PL1251237272",
                "operator": "Aneta Topczewska-Scrivo",
                "operator:type": "private",
                "amenity": "kindergarten"
            }
        },
        {
            "id": 127702,
            "type": "Feature",
            "geometry": {
                "type": "Point",
                "coordinates": [
                    21.20921,
                    52.349759999999996
                ]
            },
            "properties": {
                "isced:level": "1;2",
                "ref:rspo": 127702,
                "official_name": "S\u0142oneczna Szko\u0142a Podstawowa",
                "name": "S\u0142oneczna Szko\u0142a Podstawowa",
                "addr:country": "PL",
                "addr:postcode": "05-230",
                "addr:city": "Koby\u0142ka",
                "addr:street": "Jana Brzechwy",
                "addr:housenumber": "5",
                "addr:teryt:simc": 2225,
                "addr:teryt:sym_ul": 920539,
                "contact:phone": "+48 227860070",
                "contact:email": "sekretariat@szkolasloneczna.edu.pl",
                "contact:website": "http:\/\/www.szkolasloneczna.edu.pl",
                "ref:regon": "361806491",
                "operator": "Aneta Topczewska-Scrivo",
                "operator:type": "private",
                "amenity": "school"
            }
        },
        {
            "id": 272387,
            "type": "Feature",
            "geometry": {
                "type": "Point",
                "coordinates": [
                    21.20921,
                    52.34973
                ]
            },
            "properties": {
                "ref:rspo": 272387,
                "official_name": "Niepubliczna Poradnia Psychologiczno - Pedagogiczna Vivo",
                "name": "Niepubliczna Poradnia Psychologiczno - Pedagogiczna Vivo",
                "addr:country": "PL",
                "addr:postcode": "05-230",
                "addr:city": "Koby\u0142ka",
                "addr:street": "Jana Brzechwy",
                "addr:housenumber": "5",
                "addr:teryt:simc": 2225,
                "addr:teryt:sym_ul": 920539,
                "ref:regon": "384163144",
                "operator": "Fundacja Rovere",
                "operator:type": "ngo",
                "healthcare": "counselling",
                "counselling_type": "education",
                "fixme": "w zale\u017cno\u015bci od przedmiotu dzia\u0142alno\u015bci (np. healthcare=counselling + counselling_type=education albo healthcare=psychotherapist)"
            }
        },
        {
            "id": 276423,
            "type": "Feature",
            "geometry": {
                "type": "Point",
                "coordinates": [
                    21.20921,
                    52.3497
                ]
            },
            "properties": {
                "ref:rspo": 276423,
                "official_name": "Przedszkole Publiczne Bajka",
                "name": "Przedszkole Publiczne Bajka",
                "addr:country": "PL",
                "addr:postcode": "05-230",
                "addr:city": "Koby\u0142ka",
                "addr:street": "Jana Brzechwy",
                "addr:housenumber": "5",
                "addr:teryt:simc": 2225,
                "addr:teryt:sym_ul": 920539,
                "contact:phone": "+48 227860070",
                "contact:email": "sekretariat@slonecznapolana.edu.pl",
                "ref:regon": "387127930",
                "operator": "Fundacja Edukacyjna S\u0142oneczna Polana",
                "operator:type": "ngo",
                "amenity": "kindergarten"
            }
        }
    ]
}