{
    "type": "FeatureCollection",
    "features": [
        {
            "id": 21109,
            "type": "Feature",
            "geometry": {
                "type": "Point",
                "coordinates": [
                    21.1273,
                    52.27775
                ]
            },
            "properties": {
                "isced:level": "1;2",
                "ref:rspo": 21109,
                "official_name": "Szko\u0142a Podstawowa Nr 3 Imienia Ma\u0142ego Powsta\u0144ca",
                "name": "Szko\u0142a Podstawowa Nr 3 Imienia Ma\u0142ego Powsta\u0144ca",
                "addr:postcode": "05-091",
                "addr:city": "Z\u0105bki",
                "addr:street": "Ko\u015bcielna",
                "addr:housenumber": "2",
                "addr:teryt:simc": 921958,
                "addr:teryt:sym_ul": 9546,
                "phone": "+48 223644404",
                "email": "sekretariat@sp3zabki.pl",
                "website": "http:\/\/www.sp3zabki.pl",
                "ref:regon": "142430561",
                "ref:vatin": "PL1251568052",
                "operator": "Miasto Z\u0105bki",
                "operator:type": "government",
                "amenity": "school"
            }
        },
        {
            "id": 276048,
            "type": "Feature",
            "geometry": {
                "type": "Point",
                "coordinates": [
                    21.1273,
                    52.277719999999995
                ]
            },
            "properties": {
                "isced:level": "3",
                "ref:rspo": 276048,
                "official_name": "Liceum Og\u00f3lnokszta\u0142c\u0105ce im. Rtm. Witolda Pileckiego",
                "name": "Liceum Og\u00f3lnokszta\u0142c\u0105ce",
                "addr:postcode": "05-091",
                "addr:city": "Z\u0105bki",
                "addr:street": "Ko\u015bcielna",
                "addr:housenumber": "2",
                "addr:teryt:simc": 921958,
                "addr:teryt:sym_ul": 9546,
                "phone": "+48 518051547",
                "email": "grazyna.sobierajska@gmail.com",
                "ref:regon": "386974987",
                "operator": "Wzrastaj Edukacja Kultura Sport",
                "operator:type": "ngo",
                "amenity": "school"
            }
        },
        {
            "id": 278372,
            "type": "Feature",
            "geometry": {
                "type": "Point",
                "coordinates": [
                    21.11571,
                    52.27798
                ]
            },
            "properties": {
                "ref:rspo": 278372,
                "official_name": "O\u015brodek Szkolenia Kierowcow Bory",
                "name": "O\u015brodek Szkolenia Kierowcow Bory",
                "addr:postcode": "05-091",
                "addr:city": "Z\u0105bki",
                "addr:street": "J\u00f3zefa Pi\u0142sudskiego",
                "addr:housenumber": "101",
                "addr:teryt:simc": 921958,
                "addr:teryt:sym_ul": 16264,
                "phone": "+48 694694693",
                "email": "oskbory@gmail.com",
                "website": "http:\/\/www.bory.waw.pl",
                "ref:regon": "389870113",
                "operator": "Bory Sp\u00f3\u0142ka Z Ograniczon\u0105 Odpowiedzialno\u015bci\u0105",
                "operator:type": "private",
                "fixme": "w zale\u017cno\u015bci od przedmiotu dzia\u0142alno\u015bci (np. amenity=training + training=*, amenity=dancing_school, amenity=language_school, amenity=music_school)"
            }
        },
        {
            "id": 91571,
            "type": "Feature",
            "geometry": {
                "type": "Point",
                "coordinates": [
                    21.1276699,
                    52.27829
                ]
            },
            "properties": {
                "ref:rspo": 91571,
                "official_name": "Przedszkole Niepubliczne Smyk",
                "name": "Przedszkole Niepubliczne Smyk",
                "addr:postcode": "05-091",
                "addr:city": "Z\u0105bki",
                "addr:street": "Ko\u015bcielna",
                "addr:housenumber": "9",
                "addr:teryt:simc": 921958,
                "addr:teryt:sym_ul": 9546,
                "phone": "+48 604575859",
                "email": "biuro@smyk.waw.pl",
                "website": "http:\/\/www.smyk.waw.pl",
                "ref:regon": "146414085",
                "ref:vatin": "PL1250142730",
                "operator": "Jadwiga Koc",
                "operator:type": "private",
                "amenity": "kindergarten"
            }
        },
        {
            "id": 129222,
            "type": "Feature",
            "geometry": {
                "type": "Point",
                "coordinates": [
                    21.13563,
                    52.27914
                ]
            },
            "properties": {
                "ref:rspo": 129222,
                "official_name": "Niepubliczne Przedszkole Akademia Odkrywcy",
                "name": "Niepubliczne Przedszkole Akademia Odkrywcy",
                "addr:postcode": "05-091",
                "addr:city": "Z\u0105bki",
                "addr:street": "Powsta\u0144c\u00f3w",
                "addr:housenumber": "68G",
                "addr:teryt:simc": 921958,
                "addr:teryt:sym_ul": 17354,
                "phone": "+48 507287808",
                "email": "zapisy@akademiaodkrywcy.eu",
                "website": "http:\/\/www.akademiaodkrywcy.eu",
                "ref:regon": "362525890",
                "operator": "Aneta Stobiecka",
                "operator:type": "private",
                "amenity": "kindergarten"
            }
        },
        {
            "id": 72177,
            "type": "Feature",
            "geometry": {
                "type": "Point",
                "coordinates": [
                    21.11446,
                    52.27915
                ]
            },
            "properties": {
                "isced:level": "1;2",
                "ref:rspo": 72177,
                "official_name": "Szko\u0142a Podstawowa im. Ks. Jerzego Popie\u0142uszki",
                "name": "Szko\u0142a Podstawowa",
                "addr:postcode": "05-091",
                "addr:city": "Z\u0105bki",
                "addr:street": "J\u00f3zefa Pi\u0142sudskiego",
                "addr:housenumber": "95c",
                "addr:teryt:simc": 921958,
                "addr:teryt:sym_ul": 16264,
                "phone": "+48 518051547",
                "email": "szkola95@op.pl",
                "website": "http:\/\/www.szkola95.edu.pl",
                "ref:regon": "146405293",
                "ref:vatin": "PL1251220449",
                "operator": "Wzrastaj Edukacja Kultura Sport",
                "operator:type": "ngo",
                "amenity": "school"
            }
        },
        {
            "id": 119326,
            "type": "Feature",
            "geometry": {
                "type": "Point",
                "coordinates": [
                    21.12731,
                    52.27932
                ]
            },
            "properties": {
                "ref:rspo": 119326,
                "official_name": "Niepubliczne Przedszkole Ma\u0142ego Kopernika",
                "name": "Niepubliczne Przedszkole Ma\u0142ego Kopernika",
                "addr:postcode": "05-091",
                "addr:city": "Z\u0105bki",
                "addr:street": "Powsta\u0144c\u00f3w",
                "addr:housenumber": "34",
                "addr:teryt:simc": 921958,
                "addr:teryt:sym_ul": 17354,
                "phone": "+48 512014904",
                "email": "przedszkole@malykopernik.pl",
                "website": "http:\/\/www.malykopernik.pl",
                "ref:regon": "146844153",
                "ref:vatin": "PL1250914598",
                "operator": "Aneta Grzeszczuk",
                "operator:type": "private",
                "amenity": "kindergarten"
            }
        },
        {
            "id": 272521,
            "type": "Feature",
            "geometry": {
                "type": "Point",
                "coordinates": [
                    21.12762,
                    52.27936
                ]
            },
            "properties": {
                "ref:rspo": 272521,
                "official_name": "Przedszkole Publiczne Lawendowa Marina",
                "name": "Przedszkole Publiczne Lawendowa Marina",
                "addr:postcode": "05-091",
                "addr:city": "Z\u0105bki",
                "addr:street": "Powsta\u0144c\u00f3w",
                "addr:housenumber": "36",
                "addr:teryt:simc": 921958,
                "addr:teryt:sym_ul": 17354,
                "phone": "+48 793921777",
                "email": "biuro@lawendowamarina.pl",
                "website": "http:\/\/lawendowamarina.pl",
                "ref:regon": "384261540",
                "operator": "Lawendowa Marina Sp\u00f3\u0142ka Z Ograniczon\u0105 Odpowiedzialno\u015bci\u0105",
                "operator:type": "private",
                "amenity": "kindergarten"
            }
        },
        {
            "id": 263485,
            "type": "Feature",
            "geometry": {
                "type": "Point",
                "coordinates": [
                    21.12943,
                    52.27986
                ]
            },
            "properties": {
                "ref:rspo": 263485,
                "official_name": "Przedszkole Niepubliczne Ma\u0142a Akademia Odkrywcy",
                "name": "Przedszkole Niepubliczne Ma\u0142a Akademia Odkrywcy",
                "addr:postcode": "05-091",
                "addr:city": "Z\u0105bki",
                "addr:street": "Powsta\u0144c\u00f3w",
                "addr:housenumber": "25 68 68F",
                "addr:teryt:simc": 921958,
                "addr:teryt:sym_ul": 17354,
                "phone": "+48 504301239",
                "email": "zapisy@akademiaodkrywcy.eu",
                "website": "http:\/\/www.akademiaodkrywcy.eu",
                "ref:regon": "368193979",
                "operator": "Wioletta Prucnal",
                "operator:type": "private",
                "amenity": "kindergarten"
            }
        },
        {
            "id": 128431,
            "type": "Feature",
            "geometry": {
                "type": "Point",
                "coordinates": [
                    21.1359299,
                    52.27995
                ]
            },
            "properties": {
                "ref:rspo": 128431,
                "official_name": "Publiczne Przedszkole Zozoland",
                "name": "Publiczne Przedszkole Zozoland",
                "addr:postcode": "05-091",
                "addr:city": "Z\u0105bki",
                "addr:street": "Powsta\u0144c\u00f3w",
                "addr:housenumber": "70A",
                "addr:teryt:simc": 921958,
                "addr:teryt:sym_ul": 17354,
                "ref:regon": "362276500",
                "operator": "Zozoland Sp\u00f3\u0142ka Z Ograniczon\u0105 Odpowiedzialno\u015bci\u0105",
                "operator:type": "private",
                "amenity": "kindergarten"
            }
        },
        {
            "id": 264422,
            "type": "Feature",
            "geometry": {
                "type": "Point",
                "coordinates": [
                    21.1323638,
                    52.2801153
                ]
            },
            "properties": {
                "ref:rspo": 264422,
                "official_name": "Publiczne Przedszkole \"Wyspa Przyg\u00f3d\"",
                "name": "Publiczne Przedszkole \"Wyspa Przyg\u00f3d\"",
                "addr:postcode": "05-091",
                "addr:city": "Z\u0105bki",
                "addr:street": "Powsta\u0144c\u00f3w",
                "addr:housenumber": "29",
                "addr:teryt:simc": 921958,
                "addr:teryt:sym_ul": 17354,
                "email": "dominikazbiciak@wp.pl",
                "website": "http:\/\/www.wyspaprzygod.edu.pl",
                "ref:regon": "368337421",
                "operator": "Wyspa Przyg\u00f3d Sp\u00f3\u0142ka Z Ograniczon\u0105 Odpowiedzialno\u015bci\u0105",
                "operator:type": "private",
                "amenity": "kindergarten"
            }
        },
        {
            "id": 277719,
            "type": "Feature",
            "geometry": {
                "type": "Point",
                "coordinates": [
                    21.12744,
                    52.28059
                ]
            },
            "properties": {
                "isced:level": "1;2",
                "ref:rspo": 277719,
                "official_name": "Szko\u0142a Podstawowa Nr 6 w Z\u0105bkach",
                "name": "Szko\u0142a Podstawowa Nr 6 w Z\u0105bkach",
                "addr:postcode": "05-091",
                "addr:city": "Z\u0105bki",
                "addr:street": "Dzika",
                "addr:housenumber": "36",
                "addr:teryt:simc": 921958,
                "addr:teryt:sym_ul": 4686,
                "phone": "+48 603047505",
                "email": "sekretariat@sp6zabki.pl",
                "website": "http:\/\/sp6zabki.szkolnastrona.pl",
                "ref:regon": "389379446",
                "ref:vatin": "PL1251720933",
                "operator": "Miasto Z\u0105bki",
                "operator:type": "government",
                "amenity": "school"
            }
        },
        {
            "id": 30649,
            "type": "Feature",
            "geometry": {
                "type": "Point",
                "coordinates": [
                    21.12968,
                    52.28188
                ]
            },
            "properties": {
                "ref:rspo": 30649,
                "official_name": "Niepubliczne Przedszkole Bezpieczny Przedszkolak",
                "name": "Niepubliczne Przedszkole Bezpieczny Przedszkolak",
                "addr:postcode": "05-091",
                "addr:city": "Z\u0105bki",
                "addr:street": "Ignacego Krasickiego",
                "addr:housenumber": "14",
                "addr:teryt:simc": 921958,
                "addr:teryt:sym_ul": 9830,
                "phone": "+48 505235841",
                "email": "marzenna-m@wp.pl",
                "website": "http:\/\/www.przedszkolezabki.edu.pl",
                "ref:regon": "146348968",
                "ref:vatin": "PL8241147803",
                "operator": "Marzenna Mazurek",
                "operator:type": "private",
                "amenity": "kindergarten"
            }
        },
        {
            "id": 276231,
            "type": "Feature",
            "geometry": {
                "type": "Point",
                "coordinates": [
                    21.13504,
                    52.28256
                ]
            },
            "properties": {
                "ref:rspo": 276231,
                "official_name": "Niepubliczne Przedszkole Ba\u015bniowa Akademia",
                "name": "Niepubliczne Przedszkole Ba\u015bniowa Akademia",
                "addr:postcode": "05-091",
                "addr:city": "Z\u0105bki",
                "addr:street": "Hansa Christiana Andersena",
                "addr:housenumber": "30",
                "addr:teryt:simc": 921958,
                "addr:teryt:sym_ul": 289,
                "email": "akademiaandersena@gmail.com",
                "ref:regon": "387045936",
                "operator": "Ba\u015bniowa Akademia Sp\u00f3\u0142ka Z Ograniczon\u0105 Odpowiedzialno\u015bci\u0105",
                "operator:type": "private",
                "amenity": "kindergarten"
            }
        },
        {
            "id": 47633,
            "type": "Feature",
            "geometry": {
                "type": "Point",
                "coordinates": [
                    21.11065,
                    52.28544
                ]
            },
            "properties": {
                "ref:rspo": 47633,
                "official_name": "Publiczne Przedszkole Nr 3 Skrzat",
                "name": "Publiczne Przedszkole Nr 3 Skrzat",
                "addr:postcode": "05-091",
                "addr:city": "Z\u0105bki",
                "addr:street": "Westerplatte",
                "addr:housenumber": "1\/11",
                "addr:teryt:simc": 921958,
                "addr:teryt:sym_ul": 23897,
                "phone": "+48 227624010",
                "email": "sekretariat@eskrzat.pl",
                "website": "http:\/\/www.eskrzat.pl",
                "ref:regon": "013003741",
                "ref:vatin": "PL1250966388",
                "operator": "Miasto Z\u0105bki",
                "operator:type": "government",
                "amenity": "kindergarten"
            }
        },
        {
            "id": 73827,
            "type": "Feature",
            "geometry": {
                "type": "Point",
                "coordinates": [
                    21.12745,
                    52.28544
                ]
            },
            "properties": {
                "ref:rspo": 73827,
                "official_name": "Niepubliczne Przedszkole Jag\u00f3dka",
                "name": "Niepubliczne Przedszkole Jag\u00f3dka",
                "addr:postcode": "05-091",
                "addr:city": "Z\u0105bki",
                "addr:street": "\u015awierkowa",
                "addr:housenumber": "6",
                "addr:teryt:simc": 921958,
                "addr:teryt:sym_ul": 22508,
                "phone": "+48 792887771",
                "email": "biuro@jagodkaprzedszkole.pl",
                "website": "http:\/\/www.jagodkaprzedszkole.pl",
                "ref:regon": "146403006",
                "ref:vatin": "PL1250436087",
                "operator": "Ewa Jab\u0142o\u0144ska",
                "operator:type": "private",
                "amenity": "kindergarten"
            }
        },
        {
            "id": 72165,
            "type": "Feature",
            "geometry": {
                "type": "Point",
                "coordinates": [
                    21.11656,
                    52.2856499
                ]
            },
            "properties": {
                "ref:rspo": 72165,
                "official_name": "Przedszkole Niepubliczne Pod Muchomorkiem",
                "name": "Przedszkole Niepubliczne Pod Muchomorkiem",
                "addr:postcode": "05-091",
                "addr:city": "Z\u0105bki",
                "addr:street": "Saper\u00f3w",
                "addr:housenumber": "8",
                "addr:teryt:simc": 921958,
                "addr:teryt:sym_ul": 19506,
                "email": "przedszkole.saperow@gmail.com",
                "website": "http:\/\/www.podmuchomorkiem.edu.pl",
                "ref:regon": "146401421",
                "ref:vatin": "PL1251610966",
                "operator": "Wzrastaj Edukacja Kultura Sport",
                "operator:type": "ngo",
                "amenity": "kindergarten"
            }
        },
        {
            "id": 274902,
            "type": "Feature",
            "geometry": {
                "type": "Point",
                "coordinates": [
                    21.11187,
                    52.2866799
                ]
            },
            "properties": {
                "isced:level": "1;2",
                "ref:rspo": 274902,
                "official_name": "Szko\u0142a Podstawowa Nr 4 im. \u015aw. Jana Paw\u0142a Ii",
                "name": "Szko\u0142a Podstawowa Nr 4",
                "addr:postcode": "05-091",
                "addr:city": "Z\u0105bki",
                "addr:street": "Harcerska",
                "addr:housenumber": "9",
                "addr:teryt:simc": 921958,
                "addr:teryt:sym_ul": 6523,
                "phone": "+48 227776222",
                "email": "sekretariat@sp4zabki.pl",
                "website": "http:\/\/wwwsp4zabki.szkolnastrona.pl",
                "ref:regon": "386375436",
                "ref:vatin": "PL1251707542",
                "operator": "Miasto Z\u0105bki",
                "operator:type": "government",
                "amenity": "school"
            }
        },
        {
            "id": 71970,
            "type": "Feature",
            "geometry": {
                "type": "Point",
                "coordinates": [
                    21.1088099,
                    52.28707
                ]
            },
            "properties": {
                "isced:level": "1;2",
                "ref:rspo": 71970,
                "official_name": "Szkola Podstawowa Nr 1 im.gen. Franciszka Kleeberga",
                "name": "Szkola Podstawowa Nr 1 im.gen. Franciszka Kleeberga",
                "addr:postcode": "05-091",
                "addr:city": "Z\u0105bki",
                "addr:street": "J\u00f3zefa Pi\u0142sudskiego",
                "addr:housenumber": "35",
                "addr:teryt:simc": 921958,
                "addr:teryt:sym_ul": 16264,
                "phone": "+48 227816193",
                "email": "sekretariat@sp1zabki.szkolnastrona.pl",
                "website": "http:\/\/www.sp1zabki.szkolnastrona.pl",
                "ref:regon": "000799629",
                "ref:vatin": "PL1250559157",
                "operator": "Miasto Z\u0105bki",
                "operator:type": "government",
                "amenity": "school"
            }
        },
        {
            "id": 118998,
            "type": "Feature",
            "geometry": {
                "type": "Point",
                "coordinates": [
                    21.1088099,
                    52.28704
                ]
            },
            "properties": {
                "ref:rspo": 118998,
                "official_name": "Niepubliczna Szko\u0142a Muzyczna I St. Consonare w Z\u0105bkach",
                "name": "Niepubliczna Szko\u0142a Muzyczna I St. Consonare w Z\u0105bkach",
                "addr:postcode": "05-091",
                "addr:city": "Z\u0105bki",
                "addr:street": "J\u00f3zefa Pi\u0142sudskiego",
                "addr:housenumber": "35",
                "addr:teryt:simc": 921958,
                "addr:teryt:sym_ul": 16264,
                "email": "artur.pachlewski@interia.pl",
                "ref:regon": "146830257",
                "operator": "Artur Pachlewski",
                "operator:type": "private",
                "amenity": "music_school"
            }
        },
        {
            "id": 128413,
            "type": "Feature",
            "geometry": {
                "type": "Point",
                "coordinates": [
                    21.13966,
                    52.28757
                ]
            },
            "properties": {
                "ref:rspo": 128413,
                "official_name": "Publiczne Przedszkole American Kids College",
                "name": "Publiczne Przedszkole American Kids College",
                "addr:postcode": "05-091",
                "addr:city": "Z\u0105bki",
                "addr:street": "J\u00f3zefa Pi\u0142sudskiego",
                "addr:housenumber": "152",
                "addr:teryt:simc": 921958,
                "addr:teryt:sym_ul": 16264,
                "phone": "+48 792998761",
                "email": "dyrektor@przedszkole-amerykanskie.edu.pl",
                "ref:regon": "362275883",
                "operator": "Przedszkole Sp\u00f3\u0142ka Z Ograniczon\u0105 Odpowiedzialno\u015bci\u0105",
                "operator:type": "private",
                "amenity": "kindergarten"
            }
        },
        {
            "id": 131403,
            "type": "Feature",
            "geometry": {
                "type": "Point",
                "coordinates": [
                    21.10825,
                    52.28776
                ]
            },
            "properties": {
                "ref:rspo": 131403,
                "official_name": "Publiczne Przedszkole Akademia Fantazji",
                "name": "Publiczne Przedszkole Akademia Fantazji",
                "addr:postcode": "05-091",
                "addr:city": "Z\u0105bki",
                "addr:street": "J\u00f3zefa Pi\u0142sudskiego",
                "addr:housenumber": "46",
                "addr:teryt:simc": 921958,
                "addr:teryt:sym_ul": 16264,
                "phone": "+48 531586227",
                "email": "biuro@akademiafantazji.pl",
                "ref:regon": "365168834",
                "operator": "Micha\u0142 Wawry\u0142o",
                "operator:type": "private",
                "amenity": "kindergarten"
            }
        },
        {
            "id": 106797,
            "type": "Feature",
            "geometry": {
                "type": "Point",
                "coordinates": [
                    21.11019,
                    52.2892
                ]
            },
            "properties": {
                "ref:rspo": 106797,
                "official_name": "English Language Course \"Enlanco\"",
                "name": "English Language Course \"Enlanco\"",
                "addr:postcode": "05-091",
                "addr:city": "Z\u0105bki",
                "addr:street": "J\u00f3zefa Pi\u0142sudskiego",
                "addr:housenumber": "28",
                "addr:teryt:simc": 921958,
                "addr:teryt:sym_ul": 16264,
                "phone": "+48 227816602",
                "email": "jklecznar@poczta.onet.pl",
                "ref:regon": "146491878",
                "operator": "Zofia L\u0119cznar",
                "operator:type": "private",
                "fixme": "w zale\u017cno\u015bci od przedmiotu dzia\u0142alno\u015bci (np. amenity=training + training=*, amenity=dancing_school, amenity=language_school, amenity=music_school)"
            }
        },
        {
            "id": 131898,
            "type": "Feature",
            "geometry": {
                "type": "Point",
                "coordinates": [
                    21.1271099,
                    52.29283
                ]
            },
            "properties": {
                "ref:rspo": 131898,
                "official_name": "Niepubliczne Przedszkole Terapeutyczne \"Happy Kids Place\"",
                "name": "Niepubliczne Przedszkole Terapeutyczne \"Happy Kids Place\"",
                "addr:postcode": "05-091",
                "addr:city": "Z\u0105bki",
                "addr:street": "Lipowa",
                "addr:housenumber": "21",
                "addr:teryt:simc": 921958,
                "addr:teryt:sym_ul": 11139,
                "email": "happykidsplace@wp.pl",
                "website": "http:\/\/www.happykidsplace.pl",
                "ref:regon": "365375013",
                "operator": "Aleksandra D\u0105browska",
                "operator:type": "private",
                "amenity": "kindergarten"
            }
        },
        {
            "id": 91656,
            "type": "Feature",
            "geometry": {
                "type": "Point",
                "coordinates": [
                    21.13116,
                    52.2933
                ]
            },
            "properties": {
                "ref:rspo": 91656,
                "official_name": "Przedszkole Niepubliczne Nasza Lokomotywa",
                "name": "Przedszkole Niepubliczne Nasza Lokomotywa",
                "addr:postcode": "05-091",
                "addr:city": "Z\u0105bki",
                "addr:street": "Wyzwolenia",
                "addr:housenumber": "63",
                "addr:teryt:simc": 921958,
                "addr:teryt:sym_ul": 25133,
                "phone": "+48 227624241",
                "email": "biuro@nasza-lokomotywa.edu.pl",
                "website": "http:\/\/www.nasza-lokomotywa.edu.pl",
                "ref:regon": "146414079",
                "ref:vatin": "PL1251513973",
                "operator": "Barbara Kurowska",
                "operator:type": "private",
                "amenity": "kindergarten"
            }
        },
        {
            "id": 71420,
            "type": "Feature",
            "geometry": {
                "type": "Point",
                "coordinates": [
                    21.11005,
                    52.29345
                ]
            },
            "properties": {
                "isced:level": "1;2",
                "ref:rspo": 71420,
                "official_name": "Szko\u0142a Podstawowa Nr 2 im. Jana Kochanowskiego",
                "name": "Szko\u0142a Podstawowa Nr 2",
                "addr:postcode": "05-091",
                "addr:city": "Z\u0105bki",
                "addr:street": "Stefana Batorego",
                "addr:housenumber": "11",
                "addr:teryt:simc": 921958,
                "addr:teryt:sym_ul": 891,
                "phone": "+48 227816066",
                "email": "sp2zabki@idsl.pl",
                "website": "http:\/\/www.sp2zabki.pl",
                "ref:regon": "000799635",
                "ref:vatin": "PL1250559281",
                "operator": "Miasto Z\u0105bki",
                "operator:type": "government",
                "amenity": "school"
            }
        },
        {
            "id": 109150,
            "type": "Feature",
            "geometry": {
                "type": "Point",
                "coordinates": [
                    21.11902,
                    52.29363
                ]
            },
            "properties": {
                "ref:rspo": 109150,
                "official_name": "\"School Of English\"",
                "name": "\"School Of English\"",
                "addr:postcode": "05-091",
                "addr:city": "Z\u0105bki",
                "addr:street": "Fryderyka Chopina",
                "addr:housenumber": "9",
                "addr:teryt:simc": 921958,
                "addr:teryt:sym_ul": 2849,
                "phone": "+48 227814611",
                "email": "mw@soe.com.pl",
                "website": "http:\/\/www.soe.com.pl",
                "ref:regon": "146522219",
                "operator": "Magdalena Wakulicz-Jaczy\u0144ska",
                "operator:type": "private",
                "fixme": "w zale\u017cno\u015bci od przedmiotu dzia\u0142alno\u015bci (np. amenity=training + training=*, amenity=dancing_school, amenity=language_school, amenity=music_school)"
            }
        },
        {
            "id": 274903,
            "type": "Feature",
            "geometry": {
                "type": "Point",
                "coordinates": [
                    21.10341,
                    52.2945
                ]
            },
            "properties": {
                "isced:level": "1;2",
                "ref:rspo": 274903,
                "official_name": "Szko\u0142a Podstawowa Nr 5 im. B\u0142. Ks. Jerzego Popie\u0142uszki",
                "name": "Szko\u0142a Podstawowa Nr 5",
                "addr:postcode": "05-091",
                "addr:city": "Z\u0105bki",
                "addr:street": "Stefana Batorego",
                "addr:housenumber": "37",
                "addr:teryt:simc": 921958,
                "addr:teryt:sym_ul": 891,
                "phone": "+48 227997492",
                "email": "kontakt@sp5zabki.pl",
                "ref:regon": "386375459",
                "ref:vatin": "PL1251707536",
                "operator": "Miasto Z\u0105bki",
                "operator:type": "government",
                "amenity": "school"
            }
        },
        {
            "id": 73823,
            "type": "Feature",
            "geometry": {
                "type": "Point",
                "coordinates": [
                    21.11668,
                    52.29501
                ]
            },
            "properties": {
                "ref:rspo": 73823,
                "official_name": "Publiczne Przedszkole Nr 2 Le\u015bny Zak\u0105tek",
                "name": "Publiczne Przedszkole Nr 2 Le\u015bny Zak\u0105tek",
                "addr:postcode": "05-091",
                "addr:city": "Z\u0105bki",
                "addr:street": "Boles\u0142awa Prusa",
                "addr:housenumber": "3\/5",
                "addr:teryt:simc": 921958,
                "addr:teryt:sym_ul": 17577,
                "phone": "+48 227816268",
                "email": "pp2@zabki.pl",
                "website": "http:\/\/www.pp2.zabki.pl",
                "ref:regon": "013003735",
                "ref:vatin": "PL1250966365",
                "operator": "Miasto Z\u0105bki",
                "operator:type": "government",
                "amenity": "kindergarten"
            }
        },
        {
            "id": 130343,
            "type": "Feature",
            "geometry": {
                "type": "Point",
                "coordinates": [
                    21.09232,
                    52.29506
                ]
            },
            "properties": {
                "ref:rspo": 130343,
                "official_name": "Zielona Poradnia",
                "name": "Zielona Poradnia",
                "addr:postcode": "05-091",
                "addr:city": "Z\u0105bki",
                "addr:street": "Stefana Batorego",
                "addr:housenumber": "62A",
                "addr:teryt:simc": 921958,
                "addr:teryt:sym_ul": 891,
                "phone": "+48 608151105",
                "email": "zielona.poradnia@gmail.com",
                "ref:regon": "363893867",
                "operator": "Olga Krajewska",
                "operator:type": "private",
                "healthcare": "counselling",
                "counselling_type": "education",
                "fixme": "w zale\u017cno\u015bci od przedmiotu dzia\u0142alno\u015bci (np. healthcare=counselling + counselling_type=education albo healthcare=psychotherapist)"
            }
        },
        {
            "id": 131717,
            "type": "Feature",
            "geometry": {
                "type": "Point",
                "coordinates": [
                    21.09232,
                    52.29503
                ]
            },
            "properties": {
                "ref:rspo": 131717,
                "official_name": "Publiczna Poradnia Psychologiczno - Pedagogiczna w Z\u0105bkach",
                "name": "Publiczna Poradnia Psychologiczno - Pedagogiczna w Z\u0105bkach",
                "addr:postcode": "05-091",
                "addr:city": "Z\u0105bki",
                "addr:street": "Stefana Batorego",
                "addr:housenumber": "62A",
                "addr:teryt:simc": 921958,
                "addr:teryt:sym_ul": 891,
                "phone": "+48 224088080",
                "ref:regon": "365338911",
                "operator": "Olga Krajewska",
                "operator:type": "private",
                "healthcare": "counselling",
                "counselling_type": "education",
                "fixme": "w zale\u017cno\u015bci od przedmiotu dzia\u0142alno\u015bci (np. healthcare=counselling + counselling_type=education albo healthcare=psychotherapist)"
            }
        },
        {
            "id": 128433,
            "type": "Feature",
            "geometry": {
                "type": "Point",
                "coordinates": [
                    21.09166,
                    52.29585
                ]
            },
            "properties": {
                "ref:rspo": 128433,
                "official_name": "Publiczne Przedszkole \"Marzenia Do Spe\u0142nienia\"",
                "name": "Publiczne Przedszkole \"Marzenia Do Spe\u0142nienia\"",
                "addr:postcode": "05-091",
                "addr:city": "Z\u0105bki",
                "addr:street": "11 Listopada",
                "addr:housenumber": "85",
                "addr:teryt:simc": 921958,
                "addr:teryt:sym_ul": 11205,
                "phone": "+48 790570131",
                "email": "przedszkole.mds@interia.eu",
                "website": "http:\/\/www.marzeniadospelnienia.edu.pl",
                "ref:regon": "362276606",
                "operator": "\"Marzenia Do Spe\u0142nienia\" Sp\u00f3\u0142ka Z Ograniczon\u0105 Odpowiedzialno\u015bci\u0105",
                "operator:type": "private",
                "amenity": "kindergarten"
            }
        },
        {
            "id": 73824,
            "type": "Feature",
            "geometry": {
                "type": "Point",
                "coordinates": [
                    21.10395,
                    52.29719
                ]
            },
            "properties": {
                "ref:rspo": 73824,
                "official_name": "Publiczne Przedszkole Nr 1 Zielony Dinek",
                "name": "Publiczne Przedszkole Nr 1 Zielony Dinek",
                "addr:postcode": "05-091",
                "addr:city": "Z\u0105bki",
                "addr:street": "Stanis\u0142awa Wyspia\u0144skiego",
                "addr:housenumber": "22",
                "addr:teryt:simc": 921958,
                "addr:teryt:sym_ul": 25084,
                "phone": "+48 227816196",
                "email": "pp1@zabki.pl",
                "website": "http:\/\/zielonydinek.zabki.pl",
                "ref:regon": "013003729",
                "ref:vatin": "PL1250966394",
                "operator": "Miasto Z\u0105bki",
                "operator:type": "government",
                "amenity": "kindergarten"
            }
        },
        {
            "id": 91305,
            "type": "Feature",
            "geometry": {
                "type": "Point",
                "coordinates": [
                    21.10209,
                    52.298
                ]
            },
            "properties": {
                "ref:rspo": 91305,
                "official_name": "Przedszkole Niepubliczne im. Jana Paw\u0142a",
                "name": "Przedszkole Niepubliczne",
                "addr:postcode": "05-091",
                "addr:city": "Z\u0105bki",
                "addr:street": "11 Listopada",
                "addr:housenumber": "4A",
                "addr:teryt:simc": 921958,
                "addr:teryt:sym_ul": 11205,
                "phone": "+48 227814138",
                "email": "przedszkolejp2@poczta.onet.pl",
                "website": "http:\/\/www.przedszkolejp2.edu.pl",
                "ref:regon": "146413387",
                "ref:vatin": "PL1251073422",
                "operator": "Zgromadzenie Si\u00f3str \u015aw. Micha\u0142a Archanio\u0142a W Miejscu Piastowym",
                "operator:type": "religious",
                "amenity": "kindergarten"
            }
        },
        {
            "id": 105796,
            "type": "Feature",
            "geometry": {
                "type": "Point",
                "coordinates": [
                    21.1046,
                    52.29822
                ]
            },
            "properties": {
                "isced:level": "1;2",
                "ref:rspo": 105796,
                "official_name": "Publiczna Katolicka Szko\u0142a Podstawowa im. Ks. Jana Twardowskiego",
                "name": "Publiczna Katolicka Szko\u0142a Podstawowa",
                "addr:postcode": "05-091",
                "addr:city": "Z\u0105bki",
                "addr:street": "11 Listopada",
                "addr:housenumber": "4",
                "addr:teryt:simc": 921958,
                "addr:teryt:sym_ul": 11205,
                "phone": "+48 227624044",
                "email": "sekretariat.pksp@gmail.com",
                "website": "http:\/\/www.pksp.edupage.org",
                "ref:regon": "146469689",
                "ref:vatin": "PL1251323327",
                "operator": "Parafia Rzym.-Kat. Pw. Mi\u0142osierdzia Bo\u017cego",
                "operator:type": "religious",
                "amenity": "school"
            }
        },
        {
            "id": 91472,
            "type": "Feature",
            "geometry": {
                "type": "Point",
                "coordinates": [
                    21.09904,
                    52.29953
                ]
            },
            "properties": {
                "ref:rspo": 91472,
                "official_name": "Przedszkole Niepubliczne Pinokio",
                "name": "Przedszkole Niepubliczne Pinokio",
                "addr:postcode": "05-091",
                "addr:city": "Z\u0105bki",
                "addr:street": "Konstantego Budkiewicza",
                "addr:housenumber": "20",
                "addr:teryt:simc": 921958,
                "addr:teryt:sym_ul": 30080,
                "phone": "+48 796308323",
                "email": "przedszkole.pinokio@onet.eu",
                "website": "http:\/\/www.przedszkole-pinokio.pl",
                "ref:regon": "146412761",
                "ref:vatin": "PL1250492720",
                "operator": "Danuta Go\u015bciniak",
                "operator:type": "private",
                "amenity": "kindergarten"
            }
        },
        {
            "id": 131402,
            "type": "Feature",
            "geometry": {
                "type": "Point",
                "coordinates": [
                    21.10549,
                    52.3006699
                ]
            },
            "properties": {
                "ref:rspo": 131402,
                "official_name": "Publiczne Przedszkole \"Przysta\u0144 Elf\u00f3w\"",
                "name": "Publiczne Przedszkole \"Przysta\u0144 Elf\u00f3w\"",
                "addr:postcode": "05-091",
                "addr:city": "Z\u0105bki",
                "addr:street": "Ksi\u0119dza Wac\u0142awa Kuleszy",
                "addr:housenumber": "24",
                "addr:teryt:simc": 921958,
                "addr:teryt:sym_ul": 31688,
                "phone": "+48 602494406",
                "email": "biuro@przedszkole-przystanelfow.pl",
                "website": "http:\/\/www.przedszkole-przystanelfow.pl",
                "ref:regon": "365168805",
                "operator": "Publiczne Przedszkole Przysta\u0144 Elf\u00f3w Sp\u00f3\u0142ka Z Ograniczon\u0105 Odpowiedzialno\u015bci\u0105",
                "operator:type": "private",
                "amenity": "kindergarten"
            }
        }
    ]
}