{
    "type": "FeatureCollection",
    "features": [
        {
            "id": 44114,
            "type": "Feature",
            "geometry": {
                "type": "Point",
                "coordinates": [
                    21.1668999,
                    52.35857
                ]
            },
            "properties": {
                "isced:level": "1;2",
                "ref:rspo": 44114,
                "official_name": "Szko\u0142a Podstawowa im.prymasa Tysi\u0105clecia w Nadmie",
                "name": "Szko\u0142a Podstawowa im.prymasa Tysi\u0105clecia w Nadmie",
                "addr:postcode": "05-270",
                "addr:city": "Nadma",
                "addr:street": "Szkolna",
                "addr:housenumber": "7",
                "addr:city:simc": 7670,
                "addr:street:sym_ul": 21970,
                "phone": "+48 227813393",
                "email": "spnadma@radzymin.pl",
                "website": "http:\/\/spnadma.radzymin.pl",
                "ref:regon": "016435122",
                "ref:vatin": "PL1251124094",
                "operator": "Gmina Radzymin",
                "operator:type": "government",
                "amenity": "school"
            }
        },
        {
            "id": 72714,
            "type": "Feature",
            "geometry": {
                "type": "Point",
                "coordinates": [
                    21.15436,
                    52.3835
                ]
            },
            "properties": {
                "isced:level": "1;2",
                "ref:rspo": 72714,
                "official_name": "Szko\u0142a Podstawowa nr 1 im. Marii Konopnickiej w S\u0142upnie",
                "name": "Szko\u0142a Podstawowa nr 1",
                "addr:postcode": "05-250",
                "addr:city": "S\u0142upno",
                "addr:street": "Aleja Jana Paw\u0142a II",
                "addr:housenumber": "14",
                "addr:city:simc": 7812,
                "addr:street:sym_ul": 37675,
                "phone": "+48 227865010",
                "email": "sp1slupno@radzymin.pl",
                "website": "http:\/\/sp1slupno.radzymin.pl",
                "ref:regon": "016342248",
                "ref:vatin": "PL1251506039",
                "operator": "Gmina Radzymin",
                "operator:type": "government",
                "amenity": "school"
            }
        },
        {
            "id": 272755,
            "type": "Feature",
            "geometry": {
                "type": "Point",
                "coordinates": [
                    21.15776,
                    52.38575
                ]
            },
            "properties": {
                "ref:rspo": 272755,
                "official_name": "Publiczne Przedszkole Calineczka",
                "name": "Publiczne Przedszkole Calineczka",
                "addr:postcode": "05-250",
                "addr:city": "S\u0142upno",
                "addr:street": "Aleja Jana Paw\u0142a II",
                "addr:housenumber": "64",
                "addr:city:simc": 7812,
                "addr:street:sym_ul": 37675,
                "phone": "+48 227866728",
                "email": "biuro@calineczka.edu.pl",
                "website": "http:\/\/www.calineczka.edu.pl.",
                "ref:regon": "384284149",
                "operator": "Franciszek Kozielec",
                "operator:type": "private",
                "amenity": "kindergarten"
            }
        },
        {
            "id": 16866,
            "type": "Feature",
            "geometry": {
                "type": "Point",
                "coordinates": [
                    21.2025599,
                    52.38882
                ]
            },
            "properties": {
                "ref:rspo": 16866,
                "official_name": "Zesp\u00f3\u0142 Szkolno-Przedszkolny im. Janiny Januszewskiej w Ciemnem",
                "name": "Zesp\u00f3\u0142 Szkolno-Przedszkolny",
                "addr:postcode": "05-250",
                "addr:city": "Ciemne",
                "addr:street": "Wo\u0142omi\u0144ska",
                "addr:housenumber": "208",
                "addr:city:simc": 7605,
                "addr:street:sym_ul": 24722,
                "phone": "+48 227630780",
                "email": "spciemne@radzymin.pl",
                "website": "http:\/\/www.ciemne.radzymin.pl",
                "ref:regon": "016360559",
                "ref:vatin": "PL1251108770",
                "operator": "Gmina Radzymin",
                "operator:type": "government",
                "landuse": "education",
                "fixme": "amenity=school, amenity=college albo landuse=education w zale\u017cno\u015bci od tego, jakie plac\u00f3wki wchodz\u0105 w sk\u0142ad zespo\u0142u. Sprawd\u017a, kiedy stosowa\u0107 amenity=* a kiedy landuse=education.",
                "note": "Children RSPO: 56358;57236"
            }
        },
        {
            "id": 56358,
            "type": "Feature",
            "geometry": {
                "type": "Point",
                "coordinates": [
                    21.2025599,
                    52.38879
                ]
            },
            "properties": {
                "ref:rspo": 56358,
                "official_name": "Przedszkole w Zespole Szkolno-Przedszkolnym w Ciemnem",
                "name": "Przedszkole w Zespole Szkolno-Przedszkolnym w Ciemnem",
                "addr:postcode": "05-250",
                "addr:city": "Ciemne",
                "addr:street": "Wo\u0142omi\u0144ska",
                "addr:housenumber": "208",
                "addr:city:simc": 7605,
                "addr:street:sym_ul": 24722,
                "phone": "+48 227630780",
                "email": "spciemne@radzymin.pl",
                "website": "http:\/\/www.ciemne.radzymin.pl",
                "ref:regon": "013003971",
                "operator": "Gmina Radzymin",
                "operator:type": "government",
                "amenity": "kindergarten",
                "note": "Parent RSPO: 16866"
            }
        },
        {
            "id": 57236,
            "type": "Feature",
            "geometry": {
                "type": "Point",
                "coordinates": [
                    21.2025599,
                    52.388760000000005
                ]
            },
            "properties": {
                "isced:level": "1;2",
                "ref:rspo": 57236,
                "official_name": "Szko\u0142a Podstawowa w Zespole Szkolno-Przedszkolnym w Ciemnem",
                "name": "Szko\u0142a Podstawowa w Zespole Szkolno-Przedszkolnym w Ciemnem",
                "addr:postcode": "05-250",
                "addr:city": "Ciemne",
                "addr:street": "Wo\u0142omi\u0144ska",
                "addr:housenumber": "208",
                "addr:city:simc": 7605,
                "addr:street:sym_ul": 24722,
                "phone": "+48 227630780",
                "email": "spciemne@radzymin.pl",
                "website": "http:\/\/www.ciemne.radzymin.pl",
                "ref:regon": "001146674",
                "operator": "Gmina Radzymin",
                "operator:type": "government",
                "amenity": "school",
                "note": "Parent RSPO: 16866"
            }
        },
        {
            "id": 53691,
            "type": "Feature",
            "geometry": {
                "type": "Point",
                "coordinates": [
                    21.14546,
                    52.39937
                ]
            },
            "properties": {
                "isced:level": "1;2",
                "ref:rspo": 53691,
                "official_name": "Szko\u0142a Podstawowa nr 2 im. Michaliny Che\u0142mo\u0144skiej-Szczepankowskiej w S\u0142upnie",
                "name": "Szko\u0142a Podstawowa nr 2",
                "addr:postcode": "05-250",
                "addr:city": "S\u0142upno",
                "addr:street": "Szkolna",
                "addr:housenumber": "3",
                "addr:city:simc": 7812,
                "addr:street:sym_ul": 21970,
                "phone": "+48 224282863",
                "email": "sp2slupno@radzymin.pl",
                "website": "http:\/\/www.sp2slupno.radzymin.pl",
                "ref:regon": "016342254",
                "ref:vatin": "PL1251095553",
                "operator": "Gmina Radzymin",
                "operator:type": "government",
                "amenity": "school"
            }
        },
        {
            "id": 131957,
            "type": "Feature",
            "geometry": {
                "type": "Point",
                "coordinates": [
                    21.17083,
                    52.40291
                ]
            },
            "properties": {
                "ref:rspo": 131957,
                "official_name": "Publiczne Przedszkole Ma\u0142ego Kopernika",
                "name": "Publiczne Przedszkole Ma\u0142ego Kopernika",
                "addr:postcode": "05-250",
                "addr:city": "Radzymin",
                "addr:street": "Aleja Jana Paw\u0142a II",
                "addr:housenumber": "54 A",
                "addr:city:simc": 921591,
                "addr:street:sym_ul": 37675,
                "phone": "+48 576170553",
                "email": "radzymin@malykopernik.pl",
                "website": "http:\/\/www.malykopernik.pl",
                "ref:regon": "365391199",
                "ref:vatin": "PL1251644600",
                "operator": "Ewelina Antoniuk",
                "operator:type": "private",
                "amenity": "kindergarten"
            }
        },
        {
            "id": 262259,
            "type": "Feature",
            "geometry": {
                "type": "Point",
                "coordinates": [
                    21.17064,
                    52.41053
                ]
            },
            "properties": {
                "ref:rspo": 262259,
                "official_name": "Niepubliczne Przedszkole \"Moje Montessori\"",
                "name": "Niepubliczne Przedszkole \"Moje Montessori\"",
                "addr:postcode": "05-250",
                "addr:city": "Radzymin",
                "addr:street": "Platynowa",
                "addr:housenumber": "4",
                "addr:city:simc": 921591,
                "addr:street:sym_ul": 16455,
                "phone": "+48 516170132",
                "email": "biuro@mojemontessori.pl",
                "website": "http:\/\/www.mojemontessori.pl",
                "ref:regon": "367999953",
                "ref:vatin": "PL5361556690",
                "operator": "Magdalena Pastewka-Ciok",
                "operator:type": "private",
                "amenity": "kindergarten"
            }
        },
        {
            "id": 133821,
            "type": "Feature",
            "geometry": {
                "type": "Point",
                "coordinates": [
                    21.19583,
                    52.41257
                ]
            },
            "properties": {
                "ref:rspo": 133821,
                "official_name": "Przedszkole Publiczne Piotru\u015b Pan",
                "name": "Przedszkole Publiczne Piotru\u015b Pan",
                "addr:postcode": "05-250",
                "addr:city": "Radzymin",
                "addr:street": "Juliusza S\u0142owackiego",
                "addr:housenumber": "11",
                "addr:city:simc": 921591,
                "addr:street:sym_ul": 20291,
                "phone": "+48 601700996",
                "email": "przedszkole-piotruspan@o2.pl",
                "website": "http:\/\/www.przedszkole-piotruspan.pl",
                "ref:regon": "367674949",
                "ref:vatin": "PL1251647892",
                "operator": "\"Przedszkole Piotru\u015b Pan Sp\u00f3\u0142ka Z Ograniczon\u0105 Odpowiedzialno\u015bci\u0105\"",
                "operator:type": "private",
                "amenity": "kindergarten"
            }
        },
        {
            "id": 74114,
            "type": "Feature",
            "geometry": {
                "type": "Point",
                "coordinates": [
                    21.1799,
                    52.41314
                ]
            },
            "properties": {
                "ref:rspo": 74114,
                "official_name": "Przedszkole Niepubliczne \"Akademia Przedszkolaka\"",
                "name": "Przedszkole Niepubliczne \"Akademia Przedszkolaka\"",
                "addr:postcode": "05-250",
                "addr:city": "Radzymin",
                "addr:street": "Genera\u0142a Lucjana \u017beligowskiego",
                "addr:housenumber": "10",
                "addr:city:simc": 921591,
                "addr:street:sym_ul": 26446,
                "phone": "+48 227860606",
                "email": "akademia@akademia-przedszkolaka.pl",
                "website": "http:\/\/akademiaprzedszkolaka.pl",
                "ref:regon": "146379207",
                "ref:vatin": "PL1251130835",
                "operator": "S\u0142awomir Wardak",
                "operator:type": "private",
                "amenity": "kindergarten"
            }
        },
        {
            "id": 53711,
            "type": "Feature",
            "geometry": {
                "type": "Point",
                "coordinates": [
                    21.18393,
                    52.41379
                ]
            },
            "properties": {
                "isced:level": "1;2",
                "ref:rspo": 53711,
                "official_name": "Szko\u0142a Podstawowa nr 1 im. Pp\u0142ka Pil. Mariana Pisarka w Radzyminie",
                "name": "Szko\u0142a Podstawowa nr 1",
                "addr:postcode": "05-250",
                "addr:city": "Radzymin",
                "addr:street": "11 Listopada",
                "addr:housenumber": "2",
                "addr:city:simc": 921591,
                "addr:street:sym_ul": 11205,
                "phone": "+48 227867279",
                "email": "sp1radzymin@radzymin.pl",
                "website": "http:\/\/www.sp1radzymin.radzymin.pl",
                "ref:regon": "000799925",
                "ref:vatin": "PL1250559341",
                "operator": "Gmina Radzymin",
                "operator:type": "government",
                "amenity": "school"
            }
        },
        {
            "id": 44052,
            "type": "Feature",
            "geometry": {
                "type": "Point",
                "coordinates": [
                    21.18217,
                    52.414
                ]
            },
            "properties": {
                "ref:rspo": 44052,
                "official_name": "Przedszkole nr 1 w Radzyminie",
                "name": "Przedszkole nr 1 w Radzyminie",
                "addr:postcode": "05-250",
                "addr:city": "Radzymin",
                "addr:street": "Stefana Batorego",
                "addr:housenumber": "10",
                "addr:city:simc": 921591,
                "addr:street:sym_ul": 891,
                "phone": "+48 227865019",
                "email": "przedszkole1@radzymin.pl",
                "website": "http:\/\/www.przedszkole1.radzymin.pl",
                "ref:regon": "013003959",
                "ref:vatin": "PL1251095576",
                "operator": "Gmina Radzymin",
                "operator:type": "government",
                "amenity": "kindergarten"
            }
        },
        {
            "id": 60483,
            "type": "Feature",
            "geometry": {
                "type": "Point",
                "coordinates": [
                    21.18744,
                    52.41472
                ]
            },
            "properties": {
                "isced:level": "3",
                "ref:rspo": 60483,
                "official_name": "Liceum Og\u00f3lnokszta\u0142c\u0105ce im. Cypriana Kamila Norwida w Radzyminie",
                "name": "Liceum Og\u00f3lnokszta\u0142c\u0105ce",
                "addr:postcode": "05-250",
                "addr:city": "Radzymin",
                "addr:street": "Konstytucji 3 Maja",
                "addr:housenumber": "26",
                "addr:city:simc": 921591,
                "addr:street:sym_ul": 9213,
                "phone": "+48 227865015",
                "email": "lo_radzymin@op.pl",
                "website": "http:\/\/www.norwid.com.pl",
                "ref:regon": "010754004",
                "operator": "Powiat Wo\u0142omi\u0144ski",
                "operator:type": "government",
                "amenity": "school"
            }
        },
        {
            "id": 118995,
            "type": "Feature",
            "geometry": {
                "type": "Point",
                "coordinates": [
                    21.18744,
                    52.41469
                ]
            },
            "properties": {
                "ref:rspo": 118995,
                "official_name": "Niepubliczna Szko\u0142a Muzyczna I St. w Radzyminie",
                "name": "Niepubliczna Szko\u0142a Muzyczna I St. w Radzyminie",
                "addr:postcode": "05-250",
                "addr:city": "Radzymin",
                "addr:street": "Konstytucji 3 Maja",
                "addr:housenumber": "26",
                "addr:city:simc": 921591,
                "addr:street:sym_ul": 9213,
                "phone": "+48 601214646",
                "email": "renata.kardas@wp.pl",
                "ref:regon": "146830240",
                "operator": "Renata Kardas",
                "operator:type": "private",
                "amenity": "music_school"
            }
        },
        {
            "id": 131522,
            "type": "Feature",
            "geometry": {
                "type": "Point",
                "coordinates": [
                    21.18281,
                    52.41589
                ]
            },
            "properties": {
                "ref:rspo": 131522,
                "official_name": "Niepubliczny Terapeutyczny Punkt Przedszkolny \"Progresso\"",
                "name": "Niepubliczny Terapeutyczny Punkt Przedszkolny \"Progresso\"",
                "addr:postcode": "05-250",
                "addr:city": "Radzymin",
                "addr:street": "Ignacego Paderewskiego",
                "addr:housenumber": "4",
                "addr:city:simc": 921591,
                "addr:street:sym_ul": 15529,
                "phone": "+48 575824334",
                "email": "progressoradzymin@o2.pl",
                "ref:regon": "365222261",
                "ref:vatin": "PL1251360110",
                "operator": "Karolina P\u0142\u00f3cienniczak",
                "operator:type": "private",
                "amenity": "kindergarten"
            }
        },
        {
            "id": 131532,
            "type": "Feature",
            "geometry": {
                "type": "Point",
                "coordinates": [
                    21.18281,
                    52.415859999999995
                ]
            },
            "properties": {
                "ref:rspo": 131532,
                "official_name": "Niepubliczna Poradnia Psychologiczno-Pedagogiczna \"Progresso\"",
                "name": "Niepubliczna Poradnia Psychologiczno-Pedagogiczna \"Progresso\"",
                "addr:postcode": "05-250",
                "addr:city": "Radzymin",
                "addr:street": "Ignacego Paderewskiego",
                "addr:housenumber": "4",
                "addr:city:simc": 921591,
                "addr:street:sym_ul": 15529,
                "phone": "+48 575824334",
                "email": "progressoradzymin@o2.pl",
                "website": "http:\/\/www.progressoradzymin.pl",
                "ref:regon": "365222960",
                "operator": "Karolina P\u0142\u00f3cienniczak",
                "operator:type": "private",
                "healthcare": "counselling",
                "counselling_type": "education",
                "fixme": "w zale\u017cno\u015bci od przedmiotu dzia\u0142alno\u015bci (np. healthcare=counselling + counselling_type=education albo healthcare=psychotherapist)"
            }
        },
        {
            "id": 62368,
            "type": "Feature",
            "geometry": {
                "type": "Point",
                "coordinates": [
                    21.17885,
                    52.416
                ]
            },
            "properties": {
                "ref:rspo": 62368,
                "official_name": "Zesp\u00f3\u0142 Szk\u00f3\u0142 Techniczno-Zawodowych im. In\u017c. Czes\u0142awa Nowaka w Radzyminie",
                "name": "Zesp\u00f3\u0142 Szk\u00f3\u0142 Techniczno-Zawodowych",
                "addr:postcode": "05-250",
                "addr:city": "Radzymin",
                "addr:street": "Aleja Jana Paw\u0142a II",
                "addr:housenumber": "18",
                "addr:city:simc": 921591,
                "addr:street:sym_ul": 37675,
                "phone": "+48 227866302",
                "email": "zstz.radzymin@gmail.com",
                "website": "http:\/\/www.zstz.radzymin.pl",
                "ref:regon": "000812867",
                "operator": "Powiat Wo\u0142omi\u0144ski",
                "operator:type": "government",
                "landuse": "education",
                "fixme": "amenity=school, amenity=college albo landuse=education w zale\u017cno\u015bci od tego, jakie plac\u00f3wki wchodz\u0105 w sk\u0142ad zespo\u0142u. Sprawd\u017a, kiedy stosowa\u0107 amenity=* a kiedy landuse=education.",
                "note": "Children RSPO: 104369;104370;104371"
            }
        },
        {
            "id": 104369,
            "type": "Feature",
            "geometry": {
                "type": "Point",
                "coordinates": [
                    21.17885,
                    52.415969999999994
                ]
            },
            "properties": {
                "isced:level": "3",
                "ref:rspo": 104369,
                "official_name": "Technikum Zawodowe",
                "name": "Technikum Zawodowe",
                "addr:postcode": "05-250",
                "addr:city": "Radzymin",
                "addr:street": "Aleja Jana Paw\u0142a II",
                "addr:housenumber": "18",
                "addr:city:simc": 921591,
                "addr:street:sym_ul": 37675,
                "phone": "+48 227866302",
                "email": "zstz.radzymin@gmail.com",
                "website": "http:\/\/www.zstz-radzymin.pl",
                "ref:regon": "142031370",
                "operator": "Powiat Wo\u0142omi\u0144ski",
                "operator:type": "government",
                "amenity": "school",
                "note": "Parent RSPO: 62368"
            }
        },
        {
            "id": 104370,
            "type": "Feature",
            "geometry": {
                "type": "Point",
                "coordinates": [
                    21.17885,
                    52.41594
                ]
            },
            "properties": {
                "isced:level": "4",
                "ref:rspo": 104370,
                "official_name": "Szko\u0142a Policealna",
                "name": "Szko\u0142a Policealna",
                "addr:postcode": "05-250",
                "addr:city": "Radzymin",
                "addr:street": "Aleja Jana Paw\u0142a II",
                "addr:housenumber": "18",
                "addr:city:simc": 921591,
                "addr:street:sym_ul": 37675,
                "phone": "+48 227866302",
                "email": "zstz.radzymin@gmail.com",
                "website": "http:\/\/www.zstz-radzymin.pl",
                "ref:regon": "140602414",
                "operator": "Powiat Wo\u0142omi\u0144ski",
                "operator:type": "government",
                "amenity": "college",
                "note": "Parent RSPO: 62368"
            }
        },
        {
            "id": 104371,
            "type": "Feature",
            "geometry": {
                "type": "Point",
                "coordinates": [
                    21.17885,
                    52.41591
                ]
            },
            "properties": {
                "isced:level": "3",
                "ref:rspo": 104371,
                "official_name": "Bran\u017cowa Szko\u0142a I Stopnia",
                "name": "Bran\u017cowa Szko\u0142a I Stopnia",
                "addr:postcode": "05-250",
                "addr:city": "Radzymin",
                "addr:street": "Aleja Jana Paw\u0142a II",
                "addr:housenumber": "18",
                "addr:city:simc": 921591,
                "addr:street:sym_ul": 37675,
                "phone": "+48 227866302",
                "email": "zstz.radzymin@gmail.com",
                "website": "http:\/\/www.zstz-radzymin.pl",
                "ref:regon": "015555226",
                "operator": "Powiat Wo\u0142omi\u0144ski",
                "operator:type": "government",
                "amenity": "school",
                "note": "Parent RSPO: 62368"
            }
        },
        {
            "id": 268672,
            "type": "Feature",
            "geometry": {
                "type": "Point",
                "coordinates": [
                    21.15536,
                    52.4162
                ]
            },
            "properties": {
                "ref:rspo": 268672,
                "official_name": "Publiczne Przedszkole \"Wyspa Malucha\" w Radzyminie",
                "name": "Publiczne Przedszkole \"Wyspa Malucha\" w Radzyminie",
                "addr:postcode": "05-250",
                "addr:city": "Radzymin",
                "addr:street": "Nowa",
                "addr:housenumber": "76 B",
                "addr:city:simc": 921591,
                "addr:street:sym_ul": 14330,
                "phone": "+48 609819702",
                "email": "biuro@wyspamalucha.net.pl",
                "website": "http:\/\/www.wyspamalucha.net.pl",
                "ref:regon": "381228831",
                "operator": "Anna Go\u0142embiewska",
                "operator:type": "private",
                "amenity": "kindergarten"
            }
        },
        {
            "id": 133824,
            "type": "Feature",
            "geometry": {
                "type": "Point",
                "coordinates": [
                    21.18336,
                    52.41641
                ]
            },
            "properties": {
                "ref:rspo": 133824,
                "official_name": "Przedszkole Publiczne Piotru\u015b Pan - Nibylandia",
                "name": "Przedszkole Publiczne Piotru\u015b Pan - Nibylandia",
                "addr:postcode": "05-250",
                "addr:city": "Radzymin",
                "addr:street": "Konstytucji 3 Maja",
                "addr:housenumber": "10",
                "addr:city:simc": 921591,
                "addr:street:sym_ul": 9213,
                "phone": "+48 227731321",
                "email": "przedszkole-piotruspan@o2.pl",
                "website": "http:\/\/www.przedszkole-piotruspan.pl",
                "ref:regon": "367674850",
                "ref:vatin": "PL1251647892",
                "operator": "\"Przedszkole Piotru\u015b Pan Sp\u00f3\u0142ka Z Ograniczon\u0105 Odpowiedzialno\u015bci\u0105\"",
                "operator:type": "private",
                "amenity": "kindergarten"
            }
        },
        {
            "id": 73306,
            "type": "Feature",
            "geometry": {
                "type": "Point",
                "coordinates": [
                    21.1673,
                    52.41663
                ]
            },
            "properties": {
                "isced:level": "1;2",
                "ref:rspo": 73306,
                "official_name": "Szko\u0142a Podstawowa nr 2 im. Ksi\u0119\u017cnej Eleonory Czartoryskiej w Radzyminie",
                "name": "Szko\u0142a Podstawowa nr 2",
                "addr:postcode": "05-250",
                "addr:city": "Radzymin",
                "addr:street": "Marii Konopnickiej",
                "addr:housenumber": "24",
                "addr:city:simc": 921591,
                "addr:street:sym_ul": 9186,
                "phone": "+48 227865030",
                "email": "sp2radzymin@radzymin.pl",
                "website": "http:\/\/sp2radzymin.radzymin.pl",
                "ref:regon": "016063117",
                "ref:vatin": "PL1250559192",
                "operator": "Gmina Radzymin",
                "operator:type": "government",
                "amenity": "school"
            }
        },
        {
            "id": 81073,
            "type": "Feature",
            "geometry": {
                "type": "Point",
                "coordinates": [
                    21.16504,
                    52.41668
                ]
            },
            "properties": {
                "ref:rspo": 81073,
                "official_name": "Przedszkole Niepubliczne Little Antbee",
                "name": "Przedszkole Niepubliczne Little Antbee",
                "addr:postcode": "05-250",
                "addr:city": "Radzymin",
                "addr:street": "Marii Sk\u0142odowskiej-Curie",
                "addr:housenumber": "9",
                "addr:door": "11",
                "addr:city:simc": 921591,
                "addr:street:sym_ul": 20068,
                "phone": "+48 227630602",
                "email": "biuro@antbee.eu",
                "website": "http:\/\/www.antbee.eu",
                "ref:regon": "146379199",
                "ref:vatin": "PL1180239883",
                "operator": "Dorota G\u00f3\u017ad\u017a",
                "operator:type": "private",
                "amenity": "kindergarten"
            }
        },
        {
            "id": 130875,
            "type": "Feature",
            "geometry": {
                "type": "Point",
                "coordinates": [
                    21.1843499,
                    52.41715
                ]
            },
            "properties": {
                "ref:rspo": 130875,
                "official_name": "Publiczne Przedszkole Kraina Przedszkolaka",
                "name": "Publiczne Przedszkole Kraina Przedszkolaka",
                "addr:postcode": "05-250",
                "addr:city": "Radzymin",
                "addr:street": "Jana Kili\u0144skiego",
                "addr:housenumber": "7",
                "addr:city:simc": 921591,
                "addr:street:sym_ul": 8435,
                "email": "krainaprzedszkolaka.radzymin@gmail.com",
                "ref:regon": "364646674",
                "ref:vatin": "PL1251637155",
                "operator": "Aleksandra Sulejewska",
                "operator:type": "private",
                "amenity": "kindergarten"
            }
        },
        {
            "id": 269321,
            "type": "Feature",
            "geometry": {
                "type": "Point",
                "coordinates": [
                    21.18456,
                    52.41755
                ]
            },
            "properties": {
                "ref:rspo": 269321,
                "official_name": "Centrum Edukacyjno Szkoleniowe Lektor",
                "name": "Centrum Edukacyjno Szkoleniowe Lektor",
                "addr:postcode": "05-250",
                "addr:city": "Radzymin",
                "addr:street": "1 Maja",
                "addr:housenumber": "7",
                "addr:city:simc": 921591,
                "addr:street:sym_ul": 11926,
                "phone": "+48 227867502",
                "email": "dyrektor@kursylektor.pl",
                "ref:regon": "381436630",
                "operator": "Wioletta Stefankowska-Sk\u00f3rka",
                "operator:type": "private",
                "fixme": "w zale\u017cno\u015bci od przedmiotu dzia\u0142alno\u015bci (np. amenity=training + training=*, amenity=dancing_school, amenity=language_school, amenity=music_school) albo amenity=school, amenity=college, albo landuse=education w zale\u017cno\u015bci od tego, jakie plac\u00f3wki wchodz\u0105 w sk\u0142ad zespo\u0142u. Sprawd\u017a, kiedy stosowa\u0107 amenity=* a kiedy landuse=education."
            }
        },
        {
            "id": 268671,
            "type": "Feature",
            "geometry": {
                "type": "Point",
                "coordinates": [
                    21.181520462036,
                    52.418800354004
                ]
            },
            "properties": {
                "ref:rspo": 268671,
                "official_name": "Publiczne Przedszkole Ma\u0142ego Kopernika nr 2 w Radzymnie",
                "name": "Publiczne Przedszkole Ma\u0142ego Kopernika nr 2 w Radzymnie",
                "addr:postcode": "05-250",
                "addr:city": "Radzymin",
                "addr:street": "Polskiej Organizacji Wojskowej",
                "addr:housenumber": "20",
                "addr:city:simc": 921591,
                "addr:street:sym_ul": 17049,
                "phone": "+48 510625301",
                "email": "radzymin2@malykopernik.pl",
                "website": "http:\/\/www.malykopernik.pl",
                "ref:regon": "381228794",
                "ref:vatin": "PL1251644600",
                "operator": "Ewelina Antoniuk",
                "operator:type": "private",
                "amenity": "kindergarten"
            }
        },
        {
            "id": 133836,
            "type": "Feature",
            "geometry": {
                "type": "Point",
                "coordinates": [
                    21.17043,
                    52.42125
                ]
            },
            "properties": {
                "ref:rspo": 133836,
                "official_name": "Publiczne Przedszkole Integracyjne Pluszowy Mi\u015b",
                "name": "Publiczne Przedszkole Integracyjne Pluszowy Mi\u015b",
                "addr:postcode": "05-250",
                "addr:city": "Radzymin",
                "addr:street": "Marii Konopnickiej",
                "addr:housenumber": "8 B",
                "addr:city:simc": 921591,
                "addr:street:sym_ul": 9186,
                "phone": "+48 606484373",
                "email": "pluszowymis@przedszkole.net.pl",
                "website": "http:\/\/www.pluszowymis.pl",
                "ref:regon": "367678232",
                "ref:vatin": "PL1251191469",
                "operator": "Anna Marchewka",
                "operator:type": "private",
                "amenity": "kindergarten"
            }
        },
        {
            "id": 86703,
            "type": "Feature",
            "geometry": {
                "type": "Point",
                "coordinates": [
                    21.1813499,
                    52.42158
                ]
            },
            "properties": {
                "isced:level": "3",
                "ref:rspo": 86703,
                "official_name": "Bran\u017cowa Szko\u0142a I Stopnia im. Kpt. Stefana Pogonowskiego",
                "name": "Bran\u017cowa Szko\u0142a I Stopnia",
                "addr:postcode": "05-250",
                "addr:city": "Radzymin",
                "addr:street": "Komunalna",
                "addr:housenumber": "6",
                "addr:city:simc": 921591,
                "addr:street:sym_ul": 9095,
                "phone": "+48 227865144",
                "email": "szkola@zdz-radzymin.pl",
                "website": "https:\/\/szkolyzdz-radzymin.edupage.org",
                "ref:regon": "146453406",
                "operator": "Zak\u0142ad Doskonalenia Zawodowego W Warszawie",
                "operator:type": "ngo",
                "amenity": "school"
            }
        },
        {
            "id": 106741,
            "type": "Feature",
            "geometry": {
                "type": "Point",
                "coordinates": [
                    21.1813499,
                    52.421549999999996
                ]
            },
            "properties": {
                "ref:rspo": 106741,
                "official_name": "Zak\u0142ad Doskonalenia Zawodowego w Warszawie Oddzia\u0142 w Radzyminie",
                "name": "Zak\u0142ad Doskonalenia Zawodowego w Warszawie Oddzia\u0142 w Radzyminie",
                "addr:postcode": "05-250",
                "addr:city": "Radzymin",
                "addr:street": "Komunalna",
                "addr:housenumber": "6",
                "addr:city:simc": 921591,
                "addr:street:sym_ul": 9095,
                "phone": "+48 227866310",
                "email": "sekretariat@zdz-radzymin.pl",
                "website": "http:\/\/wwww.zdz-radzymin.pl",
                "ref:regon": "146491832",
                "operator": "Zak\u0142ad Doskonalenia Zawodowego W Warszawie",
                "operator:type": "ngo",
                "fixme": "w zale\u017cno\u015bci od przedmiotu dzia\u0142alno\u015bci (np. amenity=training + training=*, amenity=dancing_school, amenity=language_school, amenity=music_school) albo amenity=school, amenity=college, albo landuse=education w zale\u017cno\u015bci od tego, jakie plac\u00f3wki wchodz\u0105 w sk\u0142ad zespo\u0142u. Sprawd\u017a, kiedy stosowa\u0107 amenity=* a kiedy landuse=education."
            }
        },
        {
            "id": 275997,
            "type": "Feature",
            "geometry": {
                "type": "Point",
                "coordinates": [
                    21.1813499,
                    52.42152
                ]
            },
            "properties": {
                "isced:level": "3",
                "ref:rspo": 275997,
                "official_name": "Niepubliczne Liceum Og\u00f3lnokszta\u0142c\u0105ce dla Doros\u0142ych w Radzyminie",
                "name": "Niepubliczne Liceum Og\u00f3lnokszta\u0142c\u0105ce dla Doros\u0142ych w Radzyminie",
                "addr:postcode": "05-250",
                "addr:city": "Radzymin",
                "addr:street": "Komunalna",
                "addr:housenumber": "6",
                "addr:city:simc": 921591,
                "addr:street:sym_ul": 9095,
                "phone": "+48 227865144",
                "email": "szkola@zdz-radzymin.pl",
                "website": "http:\/\/szkolyzdz-radzymin.edupage.org",
                "ref:regon": "386963995",
                "operator": "Zak\u0142ad Doskonalenia Zawodowego W Warszawie",
                "operator:type": "ngo",
                "amenity": "school"
            }
        },
        {
            "id": 104696,
            "type": "Feature",
            "geometry": {
                "type": "Point",
                "coordinates": [
                    21.1804967,
                    52.421593
                ]
            },
            "properties": {
                "isced:level": "1;2",
                "ref:rspo": 104696,
                "official_name": "Szko\u0142a Podstawowa Specjalna im. Marii Konopnickiej w Radzyminie",
                "name": "Szko\u0142a Podstawowa Specjalna",
                "addr:postcode": "05-250",
                "addr:city": "Radzymin",
                "addr:street": "Komunalna",
                "addr:housenumber": "8",
                "addr:city:simc": 921591,
                "addr:street:sym_ul": 9095,
                "phone": "+48 227811317",
                "email": "spsradzymin@powiat-wolominski.pl",
                "website": "http:\/\/www.spsradzymin.szkolnastrona.pl",
                "ref:regon": "010088659",
                "operator": "Powiat Wo\u0142omi\u0144ski",
                "operator:type": "government",
                "amenity": "school"
            }
        },
        {
            "id": 268532,
            "type": "Feature",
            "geometry": {
                "type": "Point",
                "coordinates": [
                    21.1711,
                    52.42192
                ]
            },
            "properties": {
                "ref:rspo": 268532,
                "official_name": "Publiczne Przedszkole Czary Mary w Radzyminie",
                "name": "Publiczne Przedszkole Czary Mary w Radzyminie",
                "addr:postcode": "05-250",
                "addr:city": "Radzymin",
                "addr:street": "Weteran\u00f3w",
                "addr:housenumber": "77",
                "addr:city:simc": 921591,
                "addr:street:sym_ul": 23901,
                "phone": "+48 607566303",
                "email": "czarymary3@onet.pl",
                "website": "http:\/\/www.czarymary.edu.pl",
                "ref:regon": "381200442",
                "ref:vatin": "PL1251528360",
                "operator": "Marzena Getka",
                "operator:type": "private",
                "amenity": "kindergarten"
            }
        },
        {
            "id": 268520,
            "type": "Feature",
            "geometry": {
                "type": "Point",
                "coordinates": [
                    21.2191,
                    52.4257599
                ]
            },
            "properties": {
                "ref:rspo": 268520,
                "official_name": "Publiczne Przedszkole Teddy w Starym Dybowie",
                "name": "Publiczne Przedszkole Teddy w Starym Dybowie",
                "addr:postcode": "05-250",
                "addr:city": "Stary Dyb\u00f3w",
                "addr:street": "My\u015bliwska",
                "addr:housenumber": "27",
                "addr:city:simc": 7864,
                "addr:street:sym_ul": 13563,
                "phone": "+48 531704405",
                "email": "przedszkoleteddy@wp.pl",
                "website": "http:\/\/www.przedszkoleteddy.pl",
                "ref:regon": "381198870",
                "ref:vatin": "PL5272271135",
                "operator": "Edyta Marczuk",
                "operator:type": "private",
                "amenity": "kindergarten"
            }
        },
        {
            "id": 27608,
            "type": "Feature",
            "geometry": {
                "type": "Point",
                "coordinates": [
                    21.17681,
                    52.42936
                ]
            },
            "properties": {
                "ref:rspo": 27608,
                "official_name": "Przedszkole nr 2 im. Czerwonego Kapturka w Radzyminie",
                "name": "Przedszkole nr 2",
                "addr:postcode": "05-250",
                "addr:city": "Radzymin",
                "addr:street": "Wincentego Witosa",
                "addr:housenumber": "78",
                "addr:city:simc": 921591,
                "addr:street:sym_ul": 24459,
                "phone": "+48 735039559",
                "email": "przedszkole2@radzymin.pl",
                "website": "http:\/\/pp2.przedszkola.net.pl",
                "ref:regon": "013003965",
                "ref:vatin": "PL1251108729",
                "operator": "Gmina Radzymin",
                "operator:type": "government",
                "amenity": "kindergarten"
            }
        },
        {
            "id": 118381,
            "type": "Feature",
            "geometry": {
                "type": "Point",
                "coordinates": [
                    21.14147,
                    52.43921
                ]
            },
            "properties": {
                "isced:level": "1;2",
                "ref:rspo": 118381,
                "official_name": "Niepubliczna Szko\u0142a Podstawowa \"Praxis\"",
                "name": "Niepubliczna Szko\u0142a Podstawowa \"Praxis\"",
                "addr:postcode": "05-250",
                "addr:city": "\u0141\u0105ki",
                "addr:street": "Weteran\u00f3w",
                "addr:housenumber": "207",
                "addr:city:simc": 7640,
                "addr:street:sym_ul": 23901,
                "phone": "+48 227865860",
                "email": "sekretariat@praxis.edu.pl",
                "website": "http:\/\/www.praxis.edu.pl",
                "ref:regon": "146797471",
                "ref:vatin": "PL8921319953",
                "operator": "Beata Nadratowska-Grala",
                "operator:type": "private",
                "amenity": "school"
            }
        },
        {
            "id": 275090,
            "type": "Feature",
            "geometry": {
                "type": "Point",
                "coordinates": [
                    21.1237299,
                    52.48127
                ]
            },
            "properties": {
                "ref:rspo": 275090,
                "official_name": "Zesp\u00f3\u0142 Szkolno-Przedszkolny w Starych Za\u0142ubicach",
                "name": "Zesp\u00f3\u0142 Szkolno-Przedszkolny w Starych Za\u0142ubicach",
                "addr:postcode": "05-255",
                "addr:city": "Stare Za\u0142ubice",
                "addr:street": "Mazowiecka",
                "addr:housenumber": "40",
                "addr:city:simc": 7841,
                "addr:street:sym_ul": 12540,
                "phone": "+48 227617122",
                "email": "spzalubice@radzymin.pl",
                "website": "http:\/\/www.spzalubice.radzymin.pl",
                "ref:regon": "386562434",
                "ref:vatin": "PL1251707660",
                "operator": "Gmina Radzymin",
                "operator:type": "government",
                "landuse": "education",
                "fixme": "amenity=school, amenity=college albo landuse=education w zale\u017cno\u015bci od tego, jakie plac\u00f3wki wchodz\u0105 w sk\u0142ad zespo\u0142u. Sprawd\u017a, kiedy stosowa\u0107 amenity=* a kiedy landuse=education.",
                "note": "Children RSPO: 52351;275089"
            }
        },
        {
            "id": 52351,
            "type": "Feature",
            "geometry": {
                "type": "Point",
                "coordinates": [
                    21.1237299,
                    52.48124
                ]
            },
            "properties": {
                "isced:level": "1;2",
                "ref:rspo": 52351,
                "official_name": "Szko\u0142a Podstawowa im. Armii Krajowej w Starych Za\u0142ubicach w Zespole Szkolno-Przedszkolnym w Starych Za\u0142ubicach",
                "name": "Szko\u0142a Podstawowa",
                "addr:postcode": "05-255",
                "addr:city": "Stare Za\u0142ubice",
                "addr:street": "Mazowiecka",
                "addr:housenumber": "40",
                "addr:city:simc": 7841,
                "addr:street:sym_ul": 12540,
                "phone": "+48 227617122",
                "email": "spzalubice@radzymin.pl",
                "website": "http:\/\/www.spzalubice.radzymin.pl",
                "ref:regon": "001146929",
                "ref:vatin": "PL1251224200",
                "operator": "Gmina Radzymin",
                "operator:type": "government",
                "amenity": "school",
                "note": "Parent RSPO: 275090"
            }
        },
        {
            "id": 275089,
            "type": "Feature",
            "geometry": {
                "type": "Point",
                "coordinates": [
                    21.1237299,
                    52.481210000000004
                ]
            },
            "properties": {
                "ref:rspo": 275089,
                "official_name": "Przedszkole w Starych Za\u0142ubicach w Zespole Szkolno-Przedszkolnym w Starych Za\u0142ubicach",
                "name": "Przedszkole w Starych Za\u0142ubicach w Zespole Szkolno-Przedszkolnym w Starych Za\u0142ubicach",
                "addr:postcode": "05-255",
                "addr:city": "Stare Za\u0142ubice",
                "addr:street": "Mazowiecka",
                "addr:housenumber": "40",
                "addr:city:simc": 7841,
                "addr:street:sym_ul": 12540,
                "phone": "+48 227617122",
                "email": "spzalubice@radzymin.pl",
                "website": "http:\/\/www.spzalubice.radzymin.pl",
                "ref:regon": "386562428",
                "ref:vatin": "PL1251707677",
                "operator": "Gmina Radzymin",
                "operator:type": "government",
                "amenity": "kindergarten",
                "note": "Parent RSPO: 275090"
            }
        }
    ]
}