{
    "type": "FeatureCollection",
    "features": [
        {
            "id": 48898,
            "type": "Feature",
            "geometry": {
                "type": "Point",
                "coordinates": [
                    21.24647,
                    52.35151
                ]
            },
            "properties": {
                "isced:level": "1;2",
                "ref:rspo": 48898,
                "official_name": "Szko\u0142a Podstawowa Im Jana Paw\u0142a II w Kruszu",
                "name": "Szko\u0142a Podstawowa Im Jana Paw\u0142a II w Kruszu",
                "addr:postcode": "05-240",
                "addr:city": "Krusze",
                "addr:street": "Kryszta\u0142owa",
                "addr:housenumber": "99 A",
                "addr:teryt:simc": 511491,
                "addr:teryt:sym_ul": 10081,
                "phone": "+48 295910066",
                "email": "spkrusze@klembow.pl",
                "website": "http:\/\/www.spkrusze.nogard.pl",
                "ref:regon": "001106315",
                "ref:vatin": "PL1251134537",
                "operator": "Gmina Klemb\u00f3w",
                "operator:type": "government",
                "amenity": "school"
            }
        },
        {
            "id": 48897,
            "type": "Feature",
            "geometry": {
                "type": "Point",
                "coordinates": [
                    21.29975,
                    52.38707
                ]
            },
            "properties": {
                "isced:level": "1;2",
                "ref:rspo": 48897,
                "official_name": "Szko\u0142a Podstawowa im.janusza Korczaka w Dobczynie",
                "name": "Szko\u0142a Podstawowa im.janusza Korczaka w Dobczynie",
                "addr:postcode": "05-205",
                "addr:city": "Dobczyn",
                "addr:street": "Mazowiecka",
                "addr:housenumber": "67",
                "addr:teryt:simc": 511462,
                "addr:teryt:sym_ul": 12540,
                "phone": "+48 227999332",
                "email": "spdobczyn@klembow.pl",
                "website": "http:\/\/spdobczyn.pl",
                "ref:regon": "001106290",
                "ref:vatin": "PL1251134520",
                "operator": "Gmina Klemb\u00f3w",
                "operator:type": "government",
                "amenity": "school"
            }
        },
        {
            "id": 81330,
            "type": "Feature",
            "geometry": {
                "type": "Point",
                "coordinates": [
                    21.37296,
                    52.38777
                ]
            },
            "properties": {
                "isced:level": "1;2",
                "ref:rspo": 81330,
                "official_name": "Publiczna Szko\u0142a Podstawowa im. Pow w Ostr\u00f3wku",
                "name": "Publiczna Szko\u0142a Podstawowa",
                "addr:postcode": "05-205",
                "addr:city": "Ostr\u00f3wek",
                "addr:street": "Warszawska",
                "addr:housenumber": "2",
                "addr:teryt:simc": 511551,
                "addr:teryt:sym_ul": 23682,
                "phone": "+48 297770318",
                "email": "spostrowek@klembow.pl",
                "website": "http:\/\/www.spostrowek.klembow.pl",
                "ref:regon": "001106321",
                "operator": "Gmina Klemb\u00f3w",
                "operator:type": "government",
                "amenity": "school"
            }
        },
        {
            "id": 63280,
            "type": "Feature",
            "geometry": {
                "type": "Point",
                "coordinates": [
                    21.37413,
                    52.3951
                ]
            },
            "properties": {
                "ref:rspo": 63280,
                "official_name": "Zesp\u00f3\u0142 Szk\u00f3\u0142 Specjalnych im. Marii Grzegorzewskiej w Ostr\u00f3wku",
                "name": "Zesp\u00f3\u0142 Szk\u00f3\u0142 Specjalnych",
                "addr:postcode": "05-205",
                "addr:city": "Ostr\u00f3wek",
                "addr:street": "Arcybiskupa Zygmunta Feli\u0144skiego",
                "addr:housenumber": "1",
                "addr:teryt:simc": 511551,
                "addr:teryt:sym_ul": 38040,
                "phone": "+48 297770306",
                "email": "sekretariat@zssostrowek.edu.pl",
                "website": "http:\/\/www.zssostrowek.edu.pl",
                "ref:regon": "015226675",
                "operator": "Powiat Wo\u0142omi\u0144ski",
                "operator:type": "government",
                "landuse": "education",
                "fixme": "amenity=school, amenity=college albo landuse=education w zale\u017cno\u015bci od tego, jakie plac\u00f3wki wchodz\u0105 w sk\u0142ad zespo\u0142u. Sprawd\u017a, kiedy stosowa\u0107 amenity=* a kiedy landuse=education.",
                "note": "Children RSPO: 90390;90392"
            }
        },
        {
            "id": 90390,
            "type": "Feature",
            "geometry": {
                "type": "Point",
                "coordinates": [
                    21.37413,
                    52.39507
                ]
            },
            "properties": {
                "isced:level": "1;2",
                "ref:rspo": 90390,
                "official_name": "Szko\u0142a Podstawowa Specjalna w Ostr\u00f3wku",
                "name": "Szko\u0142a Podstawowa Specjalna w Ostr\u00f3wku",
                "addr:postcode": "05-205",
                "addr:city": "Ostr\u00f3wek",
                "addr:street": "Arcybiskupa Zygmunta Feli\u0144skiego",
                "addr:housenumber": "1",
                "addr:teryt:simc": 511551,
                "addr:teryt:sym_ul": 38040,
                "phone": "+48 297770306",
                "email": "sekretariat@zssostrowek.edu.pl",
                "website": "http:\/\/www.zssostrowek.edu.pl",
                "ref:regon": "000932198",
                "operator": "Powiat Wo\u0142omi\u0144ski",
                "operator:type": "government",
                "amenity": "school",
                "note": "Parent RSPO: 63280"
            }
        },
        {
            "id": 90392,
            "type": "Feature",
            "geometry": {
                "type": "Point",
                "coordinates": [
                    21.37413,
                    52.39504
                ]
            },
            "properties": {
                "ref:rspo": 90392,
                "official_name": "Szko\u0142a Specjalna Przysposabiaj\u0105ca Do Pracy w Ostr\u00f3wku",
                "name": "Szko\u0142a Specjalna Przysposabiaj\u0105ca Do Pracy w Ostr\u00f3wku",
                "addr:postcode": "05-205",
                "addr:city": "Ostr\u00f3wek",
                "addr:street": "Arcybiskupa Zygmunta Feli\u0144skiego",
                "addr:housenumber": "1",
                "addr:teryt:simc": 511551,
                "addr:teryt:sym_ul": 38040,
                "phone": "+48 297770306",
                "email": "sekretariat@zssostrowek.edu.pl",
                "website": "http:\/\/www.zssostrowek.edu.pl",
                "ref:regon": "141980897",
                "operator": "Powiat Wo\u0142omi\u0144ski",
                "operator:type": "government",
                "amenity": "school",
                "note": "Parent RSPO: 63280"
            }
        },
        {
            "id": 70337,
            "type": "Feature",
            "geometry": {
                "type": "Point",
                "coordinates": [
                    21.37149,
                    52.3952699
                ]
            },
            "properties": {
                "ref:rspo": 70337,
                "official_name": "O\u015brodek Wychowawczy Dzieci Niepe\u0142nosprawnych Zgromadzenia Si\u00f3str Franciszkanek Rodziny Maryi",
                "name": "O\u015brodek Wychowawczy Dzieci Niepe\u0142nosprawnych Zgromadzenia Si\u00f3str Franciszkanek Rodziny Maryi",
                "addr:postcode": "05-205",
                "addr:city": "Ostr\u00f3wek",
                "addr:street": "Piotra Skargi",
                "addr:housenumber": "1",
                "addr:teryt:simc": 511551,
                "addr:teryt:sym_ul": 20012,
                "phone": "+48 297770310",
                "email": "owdnrmostrowek@wp.pl",
                "ref:regon": "146434248",
                "operator": "Zgromadzenie Si\u00f3str Franciszkanek Rodziny Maryi Prowincja Niepokalanej-Warszawska",
                "operator:type": "religious",
                "amenity": "social_facility",
                "social_facility": "group_home",
                "social_facility:for": "child;juvenile"
            }
        },
        {
            "id": 81332,
            "type": "Feature",
            "geometry": {
                "type": "Point",
                "coordinates": [
                    21.32813,
                    52.40598
                ]
            },
            "properties": {
                "isced:level": "1;2",
                "ref:rspo": 81332,
                "official_name": "Publiczna Szko\u0142a Podstawowa im. Mariana Gotowca w Klembowie",
                "name": "Publiczna Szko\u0142a Podstawowa",
                "addr:postcode": "05-205",
                "addr:city": "Klemb\u00f3w",
                "addr:street": "Genera\u0142a Franciszka \u017bymirskiego",
                "addr:housenumber": "68",
                "addr:teryt:simc": 511485,
                "addr:teryt:sym_ul": 26629,
                "phone": "+48 227999379",
                "email": "zsklembow@klembow.pl",
                "website": "http:\/\/spklembow.nogard.pl",
                "ref:regon": "000557582",
                "operator": "Gmina Klemb\u00f3w",
                "operator:type": "government",
                "amenity": "school"
            }
        },
        {
            "id": 48900,
            "type": "Feature",
            "geometry": {
                "type": "Point",
                "coordinates": [
                    21.25471,
                    52.40833
                ]
            },
            "properties": {
                "isced:level": "1;2",
                "ref:rspo": 48900,
                "official_name": "Szko\u0142a Podstawowa w Starym Kraszewie",
                "name": "Szko\u0142a Podstawowa w Starym Kraszewie",
                "addr:postcode": "05-205",
                "addr:city": "Stary Kraszew",
                "addr:street": "Szkolna",
                "addr:housenumber": "5",
                "addr:teryt:simc": 511628,
                "addr:teryt:sym_ul": 21970,
                "phone": "+48 297778585",
                "email": "spstarykraszew@klembow.pl",
                "website": "http:\/\/www.spstarykraszew.szkolnastrona.pl\/",
                "ref:regon": "001106309",
                "ref:vatin": "PL1251134508",
                "operator": "Gmina Klemb\u00f3w",
                "operator:type": "government",
                "amenity": "school"
            }
        },
        {
            "id": 48899,
            "type": "Feature",
            "geometry": {
                "type": "Point",
                "coordinates": [
                    21.28169,
                    52.44304
                ]
            },
            "properties": {
                "isced:level": "1;2",
                "ref:rspo": 48899,
                "official_name": "Szko\u0142a Podstawowa im. Jana III Sobieskiego w Woli Rasztowskiej",
                "name": "Szko\u0142a Podstawowa",
                "addr:postcode": "05-205",
                "addr:city": "Wola Rasztowska",
                "addr:street": "Szkolna",
                "addr:housenumber": "9",
                "addr:teryt:simc": 511640,
                "addr:teryt:sym_ul": 21970,
                "phone": "+48 297778201",
                "email": "spwolarasztowska@klembow.pl",
                "website": "http:\/\/www.spwolarasztowska.pl",
                "ref:regon": "001106338",
                "ref:vatin": "PL1251136832",
                "operator": "Gmina Klemb\u00f3w",
                "operator:type": "government",
                "amenity": "school"
            }
        }
    ]
}