{
    "type": "FeatureCollection",
    "features": [
        {
            "id": 40135,
            "type": "Feature",
            "geometry": {
                "type": "Point",
                "coordinates": [
                    21.10798,
                    52.30969
                ]
            },
            "properties": {
                "ref:rspo": 40135,
                "official_name": "Niepubliczne Przedszkole Nr 6 \"Bambi\"",
                "name": "Niepubliczne Przedszkole Nr 6 \"Bambi\"",
                "addr:country": "PL",
                "addr:postcode": "05-270",
                "addr:city": "Marki",
                "addr:street": "Z\u0105bkowska",
                "addr:housenumber": "18A",
                "addr:teryt:simc": 920901,
                "addr:teryt:sym_ul": 25882,
                "contact:phone": "+48 501279925",
                "ref:regon": "146355158",
                "ref:vatin": "PL8251226645",
                "operator": "Dane Do Uzupe\u0142nienia",
                "operator:type": "private",
                "amenity": "kindergarten"
            }
        },
        {
            "id": 124626,
            "type": "Feature",
            "geometry": {
                "type": "Point",
                "coordinates": [
                    21.10798,
                    52.30966
                ]
            },
            "properties": {
                "ref:rspo": 124626,
                "official_name": "Niepubliczne Przedszkole Nr 19 \"Bambi\"",
                "name": "Niepubliczne Przedszkole Nr 19 \"Bambi\"",
                "addr:country": "PL",
                "addr:postcode": "05-270",
                "addr:city": "Marki",
                "addr:street": "Z\u0105bkowska",
                "addr:housenumber": "18A",
                "addr:teryt:simc": 920901,
                "addr:teryt:sym_ul": 25882,
                "contact:phone": "+48 501389454",
                "ref:regon": "147401771",
                "ref:vatin": "PL8251226645",
                "operator": "Krzysztof Pietryka",
                "operator:type": "private",
                "amenity": "kindergarten"
            }
        },
        {
            "id": 106815,
            "type": "Feature",
            "geometry": {
                "type": "Point",
                "coordinates": [
                    21.0991,
                    52.31038
                ]
            },
            "properties": {
                "ref:rspo": 106815,
                "official_name": "Niepubliczne Przedszkole Nr 2 \"Smerfy\"",
                "name": "Niepubliczne Przedszkole Nr 2 \"Smerfy\"",
                "addr:country": "PL",
                "addr:postcode": "05-270",
                "addr:city": "Marki",
                "addr:street": "Szpitalna",
                "addr:housenumber": "3B",
                "addr:teryt:simc": 920901,
                "addr:teryt:sym_ul": 22073,
                "contact:phone": "+48 507308731",
                "contact:email": "biuro@smerfymarki.pl",
                "contact:website": "http:\/\/www.smerfymarki.pl",
                "ref:regon": "146490011",
                "ref:vatin": "PL1250946061",
                "operator": "Dane Do Uzupe\u0142nienia",
                "operator:type": "private",
                "amenity": "kindergarten"
            }
        },
        {
            "id": 124394,
            "type": "Feature",
            "geometry": {
                "type": "Point",
                "coordinates": [
                    21.09935,
                    52.31062
                ]
            },
            "properties": {
                "ref:rspo": 124394,
                "official_name": "Niepubliczne Przedszkole Nr 17 \"Smerfusie\"",
                "name": "Niepubliczne Przedszkole Nr 17 \"Smerfusie\"",
                "addr:country": "PL",
                "addr:postcode": "05-270",
                "addr:city": "Marki",
                "addr:street": "Szpitalna",
                "addr:housenumber": "5",
                "addr:teryt:simc": 920901,
                "addr:teryt:sym_ul": 22073,
                "contact:phone": "+48 507308731",
                "contact:website": "http:\/\/smerfymarki.pl",
                "ref:regon": "147391162",
                "operator": "Mariola Opali\u0144ska",
                "operator:type": "private",
                "amenity": "kindergarten"
            }
        },
        {
            "id": 123928,
            "type": "Feature",
            "geometry": {
                "type": "Point",
                "coordinates": [
                    21.12632,
                    52.31688
                ]
            },
            "properties": {
                "ref:rspo": 123928,
                "official_name": "Przedszkole Niepubliczne Nr 15 \"Bratek\"",
                "name": "Przedszkole Niepubliczne Nr 15 \"Bratek\"",
                "addr:country": "PL",
                "addr:postcode": "05-270",
                "addr:city": "Marki",
                "addr:street": "Leopolda Lisa-Kuli",
                "addr:housenumber": "99",
                "addr:teryt:simc": 920901,
                "addr:teryt:sym_ul": 11169,
                "contact:email": "przedszkole.bratek.marki@onet.pl",
                "ref:regon": "147363473",
                "ref:vatin": "PL7231569040",
                "operator": "Kamil Radomski",
                "operator:type": "private",
                "amenity": "kindergarten"
            }
        },
        {
            "id": 106384,
            "type": "Feature",
            "geometry": {
                "type": "Point",
                "coordinates": [
                    21.10386,
                    52.31714
                ]
            },
            "properties": {
                "isced:level": "1;2",
                "ref:rspo": 106384,
                "official_name": "Szko\u0142a Podstawowa Nr 2 Z Oddzia\u0142ami Integracyjnymi im. \u017bo\u0142nierzy A.k. II Rejonu Celk\u00f3w w Markach",
                "name": "Szko\u0142a Podstawowa Nr 2 Z Oddzia\u0142ami Integracyjnymi",
                "addr:country": "PL",
                "addr:postcode": "05-270",
                "addr:city": "Marki",
                "addr:street": "Szkolna",
                "addr:housenumber": "9",
                "addr:teryt:simc": 920901,
                "addr:teryt:sym_ul": 21970,
                "contact:phone": "+48 227811129",
                "contact:email": "sp2@marki.pl",
                "contact:website": "http:\/\/sp2.marki.pl",
                "ref:regon": "000800634",
                "ref:vatin": "PL1250936795",
                "operator": "Gmina Miasto Marki",
                "operator:type": "government",
                "amenity": "school"
            }
        },
        {
            "id": 106389,
            "type": "Feature",
            "geometry": {
                "type": "Point",
                "coordinates": [
                    21.0993299,
                    52.3186
                ]
            },
            "properties": {
                "ref:rspo": 106389,
                "official_name": "Niepubliczne Przedszkole Nr 8 \"Weso\u0142y Teletubi\u015b\"",
                "name": "Niepubliczne Przedszkole Nr 8 \"Weso\u0142y Teletubi\u015b\"",
                "addr:country": "PL",
                "addr:postcode": "05-270",
                "addr:city": "Marki",
                "addr:street": "Sosnowa",
                "addr:housenumber": "2B",
                "addr:teryt:simc": 920901,
                "addr:teryt:sym_ul": 20598,
                "contact:phone": "+48 222434346",
                "contact:email": "bewer1@wp.pl",
                "contact:website": "http:\/\/www.wesolyteletubis.pl",
                "ref:regon": "146472036",
                "ref:vatin": "PL1251534490",
                "operator": "Dane Do Uzupe\u0142nienia",
                "operator:type": "private",
                "amenity": "kindergarten"
            }
        },
        {
            "id": 125200,
            "type": "Feature",
            "geometry": {
                "type": "Point",
                "coordinates": [
                    21.0993299,
                    52.31857
                ]
            },
            "properties": {
                "ref:rspo": 125200,
                "official_name": "Niepubliczne Przedszkole Nr 20 \"Weso\u0142y Teletubi\u015b\"",
                "name": "Niepubliczne Przedszkole Nr 20 \"Weso\u0142y Teletubi\u015b\"",
                "addr:country": "PL",
                "addr:postcode": "05-270",
                "addr:city": "Marki",
                "addr:street": "Sosnowa",
                "addr:housenumber": "2B",
                "addr:teryt:simc": 920901,
                "addr:teryt:sym_ul": 20598,
                "contact:phone": "+48 222434346",
                "ref:regon": "147430548",
                "ref:vatin": "PL1251534490",
                "operator": "Ma\u0142gorzata K\u0119dzierska",
                "operator:type": "private",
                "amenity": "kindergarten"
            }
        },
        {
            "id": 277882,
            "type": "Feature",
            "geometry": {
                "type": "Point",
                "coordinates": [
                    21.08995,
                    52.31928
                ]
            },
            "properties": {
                "ref:rspo": 277882,
                "official_name": "Music&You",
                "name": "Music&You",
                "addr:country": "PL",
                "addr:postcode": "05-270",
                "addr:city": "Marki",
                "addr:street": "Micha\u0142a Wo\u0142odyjowskiego",
                "addr:housenumber": "33",
                "addr:teryt:simc": 920901,
                "addr:teryt:sym_ul": 24715,
                "contact:email": "mroz.pianist@gmail.com",
                "ref:regon": "389628582",
                "operator": "Katarzyna Mr\u00f3z-Borucka",
                "operator:type": "private",
                "fixme": "w zale\u017cno\u015bci od przedmiotu dzia\u0142alno\u015bci (np. amenity=training + training=*, amenity=dancing_school, amenity=language_school, amenity=music_school)"
            }
        },
        {
            "id": 278357,
            "type": "Feature",
            "geometry": {
                "type": "Point",
                "coordinates": [
                    21.08995,
                    52.31925
                ]
            },
            "properties": {
                "ref:rspo": 278357,
                "official_name": "Music & You",
                "name": "Music & You",
                "addr:country": "PL",
                "addr:postcode": "05-270",
                "addr:city": "Marki",
                "addr:street": "Micha\u0142a Wo\u0142odyjowskiego",
                "addr:housenumber": "33",
                "addr:teryt:simc": 920901,
                "addr:teryt:sym_ul": 24715,
                "contact:phone": "+48 575866927",
                "contact:email": "biuro@musicandyou.pl",
                "contact:website": "http:\/\/www.musicandyou.pl",
                "ref:regon": "389868719",
                "operator": "Katarzyna Mr\u00f3z-Borucka",
                "operator:type": "private",
                "fixme": "w zale\u017cno\u015bci od przedmiotu dzia\u0142alno\u015bci (np. amenity=training + training=*, amenity=dancing_school, amenity=language_school, amenity=music_school)"
            }
        },
        {
            "id": 68385,
            "type": "Feature",
            "geometry": {
                "type": "Point",
                "coordinates": [
                    21.08875,
                    52.31929
                ]
            },
            "properties": {
                "ref:rspo": 68385,
                "official_name": "Przedszkole Niepubliczne Nr 7 \"Z\u0142ota Rybka\"",
                "name": "Przedszkole Niepubliczne Nr 7 \"Z\u0142ota Rybka\"",
                "addr:country": "PL",
                "addr:postcode": "05-270",
                "addr:city": "Marki",
                "addr:street": "Ksi\u0119dza Augustyna Kordeckiego",
                "addr:housenumber": "5",
                "addr:teryt:simc": 920901,
                "addr:teryt:sym_ul": 44555,
                "contact:phone": "+48 698444302",
                "contact:email": "monika_szczepanska@op.pl",
                "ref:regon": "146438447",
                "ref:vatin": "PL1251535265",
                "operator": "Monika Szczepa\u0144ska-Duda",
                "operator:type": "private",
                "amenity": "kindergarten"
            }
        },
        {
            "id": 125202,
            "type": "Feature",
            "geometry": {
                "type": "Point",
                "coordinates": [
                    21.07875,
                    52.3207499
                ]
            },
            "properties": {
                "ref:rspo": 125202,
                "official_name": "Niepubliczne Przedszkole Nr 18 \"Tabaluga\"",
                "name": "Niepubliczne Przedszkole Nr 18 \"Tabaluga\"",
                "addr:country": "PL",
                "addr:postcode": "05-270",
                "addr:city": "Marki",
                "addr:street": "Rocha Kowalskiego",
                "addr:housenumber": "59A",
                "addr:teryt:simc": 920901,
                "addr:teryt:sym_ul": 9679,
                "contact:phone": "+48 732777700",
                "ref:regon": "147430620",
                "ref:vatin": "PL1250613170",
                "operator": "Ma\u0142gorzata Karpi\u0144ska",
                "operator:type": "private",
                "amenity": "kindergarten"
            }
        },
        {
            "id": 128495,
            "type": "Feature",
            "geometry": {
                "type": "Point",
                "coordinates": [
                    21.07875,
                    52.3207199
                ]
            },
            "properties": {
                "ref:rspo": 128495,
                "official_name": "Niepubliczne Przedszkole Nr 26 \"Tabaluga II\"",
                "name": "Niepubliczne Przedszkole Nr 26 \"Tabaluga II\"",
                "addr:country": "PL",
                "addr:postcode": "05-270",
                "addr:city": "Marki",
                "addr:street": "Rocha Kowalskiego",
                "addr:housenumber": "59A",
                "addr:teryt:simc": 920901,
                "addr:teryt:sym_ul": 9679,
                "contact:phone": "+48 506826033",
                "ref:regon": "362301511",
                "ref:vatin": "PL1250613170",
                "operator": "Ma\u0142gorzata Karpi\u0144ska",
                "operator:type": "private",
                "amenity": "kindergarten"
            }
        },
        {
            "id": 106743,
            "type": "Feature",
            "geometry": {
                "type": "Point",
                "coordinates": [
                    21.10461,
                    52.32103
                ]
            },
            "properties": {
                "ref:rspo": 106743,
                "official_name": "Niepubliczna Poradania Psychologiczno-Pedagogiczna \"Sowa\"",
                "name": "Niepubliczna Poradania Psychologiczno-Pedagogiczna \"Sowa\"",
                "addr:country": "PL",
                "addr:postcode": "05-270",
                "addr:city": "Marki",
                "addr:street": "Fabryczna",
                "addr:housenumber": "1",
                "addr:teryt:simc": 920901,
                "addr:teryt:sym_ul": 4863,
                "contact:phone": "+48 227619035",
                "contact:email": "alina.esculap@orange.pl",
                "ref:regon": "146488528",
                "operator": "\"Esculap\" Sp\u00f3\u0142ka Z Ograniczon\u0105 Odpowiedzialno\u015bci\u0105",
                "operator:type": "private",
                "healthcare": "counselling",
                "counselling_type": "education",
                "fixme": "w zale\u017cno\u015bci od przedmiotu dzia\u0142alno\u015bci (np. healthcare=counselling + counselling_type=education albo healthcare=psychotherapist)"
            }
        },
        {
            "id": 106809,
            "type": "Feature",
            "geometry": {
                "type": "Point",
                "coordinates": [
                    21.08761,
                    52.32121
                ]
            },
            "properties": {
                "ref:rspo": 106809,
                "official_name": "Niepubliczne Przedszkole Nr 1 \"Pluszowy Mi\u015b\"",
                "name": "Niepubliczne Przedszkole Nr 1 \"Pluszowy Mi\u015b\"",
                "addr:country": "PL",
                "addr:postcode": "05-270",
                "addr:city": "Marki",
                "addr:street": "Tadeusza Ko\u015bciuszki",
                "addr:housenumber": "41G",
                "addr:door": "7",
                "addr:teryt:simc": 920901,
                "addr:teryt:sym_ul": 9582,
                "contact:phone": "+48 227992306",
                "contact:email": "biuro@pluszowymis.edu.pl",
                "ref:regon": "146491884",
                "ref:vatin": "PL1251191469",
                "operator": "Gra\u017cyna Kaliszewska",
                "operator:type": "private",
                "amenity": "kindergarten"
            }
        },
        {
            "id": 124518,
            "type": "Feature",
            "geometry": {
                "type": "Point",
                "coordinates": [
                    21.08761,
                    52.32118
                ]
            },
            "properties": {
                "ref:rspo": 124518,
                "official_name": "Niepubliczne Przedszkole Nr 16 \"Pluszowy Mi\u015b\"",
                "name": "Niepubliczne Przedszkole Nr 16 \"Pluszowy Mi\u015b\"",
                "addr:country": "PL",
                "addr:postcode": "05-270",
                "addr:city": "Marki",
                "addr:street": "Tadeusza Ko\u015bciuszki",
                "addr:housenumber": "41G",
                "addr:door": "7",
                "addr:teryt:simc": 920901,
                "addr:teryt:sym_ul": 9582,
                "contact:phone": "+48 227992306",
                "contact:email": "biuro@pluszowymis.edu.pl",
                "ref:regon": "147398158",
                "ref:vatin": "PL1251191469",
                "operator": "Anna Marchewka",
                "operator:type": "private",
                "amenity": "kindergarten"
            }
        },
        {
            "id": 106829,
            "type": "Feature",
            "geometry": {
                "type": "Point",
                "coordinates": [
                    21.08979,
                    52.32136
                ]
            },
            "properties": {
                "ref:rspo": 106829,
                "official_name": "Niepubliczne Przedszkole Nr 3 \"Dzieci\u0119cy Raj\"",
                "name": "Niepubliczne Przedszkole Nr 3 \"Dzieci\u0119cy Raj\"",
                "addr:country": "PL",
                "addr:postcode": "05-260",
                "addr:city": "Marki",
                "addr:street": "Tadeusza Ko\u015bciuszki",
                "addr:housenumber": "40A",
                "addr:teryt:simc": 920901,
                "addr:teryt:sym_ul": 9582,
                "contact:phone": "+48 227714805",
                "ref:regon": "146490040",
                "ref:vatin": "PL1250041880",
                "operator": "Jacek Koz\u0142owski",
                "operator:type": "private",
                "amenity": "kindergarten"
            }
        },
        {
            "id": 106747,
            "type": "Feature",
            "geometry": {
                "type": "Point",
                "coordinates": [
                    21.08588,
                    52.32145
                ]
            },
            "properties": {
                "ref:rspo": 106747,
                "official_name": "Sk\u0142odowscy Wiedza I Finanse Sp. Z O.o. Niepubliczne Forum Kszta\u0142cenia",
                "name": "Sk\u0142odowscy Wiedza I Finanse Sp. Z O.o. Niepubliczne Forum Kszta\u0142cenia",
                "addr:country": "PL",
                "addr:postcode": "05-270",
                "addr:city": "Marki",
                "addr:street": "Tadeusza Ko\u015bciuszki",
                "addr:housenumber": "43",
                "addr:teryt:simc": 920901,
                "addr:teryt:sym_ul": 9582,
                "contact:phone": "+48 222426000",
                "contact:email": "tadeusz.sklodowski@sklodowscy.pl",
                "contact:website": "http:\/\/www.sklodowscy.pl",
                "ref:regon": "146486110",
                "operator": "Sk\u0142odowscy Wiedza I Finanse Sp\u00f3\u0142ka Z Ograniczon\u0105 Odpowiedzialno\u015bci\u0105",
                "operator:type": "private",
                "fixme": "w zale\u017cno\u015bci od przedmiotu dzia\u0142alno\u015bci (np. amenity=training + training=*, amenity=dancing_school, amenity=language_school, amenity=music_school) albo amenity=school, amenity=college, albo landuse=education w zale\u017cno\u015bci od tego, jakie plac\u00f3wki wchodz\u0105 w sk\u0142ad zespo\u0142u. Sprawd\u017a, kiedy stosowa\u0107 amenity=* a kiedy landuse=education."
            }
        },
        {
            "id": 130999,
            "type": "Feature",
            "geometry": {
                "type": "Point",
                "coordinates": [
                    21.10021,
                    52.32206
                ]
            },
            "properties": {
                "ref:rspo": 130999,
                "official_name": "O\u015brodek Szkole\u0144 Zawodowych S.e.o.m. Praktyka Grup",
                "name": "O\u015brodek Szkole\u0144 Zawodowych S.e.o.m. Praktyka Grup",
                "addr:country": "PL",
                "addr:postcode": "05-270",
                "addr:city": "Marki",
                "addr:street": "R\u00f3wna",
                "addr:housenumber": "11",
                "addr:teryt:simc": 920901,
                "addr:teryt:sym_ul": 18985,
                "contact:phone": "+48 510955512",
                "contact:email": "maciek.ochrona@gmail.com",
                "ref:regon": "364856727",
                "operator": "Lidia R\u00f3\u017ca\u0144ska",
                "operator:type": "private",
                "fixme": "w zale\u017cno\u015bci od przedmiotu dzia\u0142alno\u015bci (np. amenity=training + training=*, amenity=dancing_school, amenity=language_school, amenity=music_school) albo amenity=school, amenity=college, albo landuse=education w zale\u017cno\u015bci od tego, jakie plac\u00f3wki wchodz\u0105 w sk\u0142ad zespo\u0142u. Sprawd\u017a, kiedy stosowa\u0107 amenity=* a kiedy landuse=education."
            }
        },
        {
            "id": 128168,
            "type": "Feature",
            "geometry": {
                "type": "Point",
                "coordinates": [
                    21.09325,
                    52.32232
                ]
            },
            "properties": {
                "ref:rspo": 128168,
                "official_name": "Niepubliczny Punkt Przedszkolny Nr 4 \"Garden Kids\"",
                "name": "Niepubliczny Punkt Przedszkolny Nr 4 \"Garden Kids\"",
                "addr:country": "PL",
                "addr:postcode": "05-270",
                "addr:city": "Marki",
                "addr:street": "Adama Mickiewicza",
                "addr:housenumber": "11",
                "addr:teryt:simc": 920901,
                "addr:teryt:sym_ul": 12740,
                "contact:email": "biuro@gardenkids.pl",
                "contact:website": "http:\/\/www.gardenkids.pl",
                "ref:regon": "362147464",
                "ref:vatin": "PL1250800601",
                "operator": "Agnieszka Wa\u015b",
                "operator:type": "private",
                "amenity": "kindergarten"
            }
        },
        {
            "id": 10635,
            "type": "Feature",
            "geometry": {
                "type": "Point",
                "coordinates": [
                    21.10513,
                    52.32244
                ]
            },
            "properties": {
                "ref:rspo": 10635,
                "official_name": "Zesp\u00f3\u0142 Szk\u00f3\u0142 Nr 1 im. Jana Paw\u0142a Ii",
                "name": "Zesp\u00f3\u0142 Szk\u00f3\u0142 Nr 1",
                "addr:country": "PL",
                "addr:postcode": "05-270",
                "addr:city": "Marki",
                "addr:street": "al. Marsza\u0142ka J\u00f3zefa Pi\u0142sudskiego",
                "addr:housenumber": "96",
                "addr:teryt:simc": 920901,
                "addr:teryt:sym_ul": 40017,
                "contact:phone": "+48 227811017",
                "contact:email": "zs1@marki.pl",
                "contact:website": "http:\/\/www.zs1marki.eu",
                "ref:regon": "000788927",
                "ref:vatin": "PL1250584037",
                "operator": "Gmina Miasto Marki",
                "operator:type": "government",
                "landuse": "education",
                "fixme": "amenity=school, amenity=college albo landuse=education w zale\u017cno\u015bci od tego, jakie plac\u00f3wki wchodz\u0105 w sk\u0142ad zespo\u0142u. Sprawd\u017a, kiedy stosowa\u0107 amenity=* a kiedy landuse=education.",
                "note": "Children RSPO: 12163"
            }
        },
        {
            "id": 12163,
            "type": "Feature",
            "geometry": {
                "type": "Point",
                "coordinates": [
                    21.10513,
                    52.32241
                ]
            },
            "properties": {
                "isced:level": "3",
                "ref:rspo": 12163,
                "official_name": "Liceum Og\u00f3lnokszta\u0142c\u0105ce",
                "name": "Liceum Og\u00f3lnokszta\u0142c\u0105ce",
                "addr:country": "PL",
                "addr:postcode": "05-270",
                "addr:city": "Marki",
                "addr:street": "al. Marsza\u0142ka J\u00f3zefa Pi\u0142sudskiego",
                "addr:housenumber": "96",
                "addr:teryt:simc": 920901,
                "addr:teryt:sym_ul": 40017,
                "contact:phone": "+48 227811017",
                "contact:email": "zs1@marki.pl",
                "contact:website": "http:\/\/www.zs1marki.eu",
                "ref:regon": "146293351",
                "operator": "Gmina Miasto Marki",
                "operator:type": "government",
                "amenity": "school",
                "note": "Parent RSPO: 10635"
            }
        },
        {
            "id": 56134,
            "type": "Feature",
            "geometry": {
                "type": "Point",
                "coordinates": [
                    21.10485,
                    52.32352
                ]
            },
            "properties": {
                "ref:rspo": 56134,
                "official_name": "Przedszkole Miejskie Nr 1 \"Weso\u0142y Skrzat\" w Markach",
                "name": "Przedszkole Miejskie Nr 1 \"Weso\u0142y Skrzat\" w Markach",
                "addr:country": "PL",
                "addr:postcode": "05-270",
                "addr:city": "Marki",
                "addr:street": "al. Marsza\u0142ka J\u00f3zefa Pi\u0142sudskiego",
                "addr:housenumber": "77",
                "addr:teryt:simc": 920901,
                "addr:teryt:sym_ul": 40017,
                "contact:phone": "+48 227811466",
                "contact:email": "pm1@marki.pl",
                "ref:regon": "013003385",
                "ref:vatin": "PL1250945624",
                "operator": "Gmina Miasto Marki",
                "operator:type": "government",
                "amenity": "kindergarten"
            }
        },
        {
            "id": 55331,
            "type": "Feature",
            "geometry": {
                "type": "Point",
                "coordinates": [
                    21.0982,
                    52.32368
                ]
            },
            "properties": {
                "isced:level": "1;2",
                "ref:rspo": 55331,
                "official_name": "Szko\u0142a Podstawowa Nr 1 im. Kornela Makuszy\u0144skiego w Markach",
                "name": "Szko\u0142a Podstawowa Nr 1",
                "addr:country": "PL",
                "addr:postcode": "05-270",
                "addr:city": "Marki",
                "addr:street": "Ok\u00f3lna",
                "addr:housenumber": "14",
                "addr:teryt:simc": 920901,
                "addr:teryt:sym_ul": 14890,
                "contact:phone": "+48 227811026",
                "contact:email": "sp1@marki.pl",
                "contact:website": "http:\/\/sp1marki.edupage.org",
                "ref:regon": "000800628",
                "ref:vatin": "PL1250934508",
                "operator": "Gmina Miasto Marki",
                "operator:type": "government",
                "amenity": "school"
            }
        },
        {
            "id": 120490,
            "type": "Feature",
            "geometry": {
                "type": "Point",
                "coordinates": [
                    21.10953,
                    52.32471
                ]
            },
            "properties": {
                "ref:rspo": 120490,
                "official_name": "Przedszkole Niepubliczne Nr 13 \"Kajtu\u015b Czarodziej\"",
                "name": "Przedszkole Niepubliczne Nr 13 \"Kajtu\u015b Czarodziej\"",
                "addr:country": "PL",
                "addr:postcode": "05-270",
                "addr:city": "Marki",
                "addr:street": "Sportowa",
                "addr:housenumber": "8A",
                "addr:teryt:simc": 920901,
                "addr:teryt:sym_ul": 20683,
                "contact:email": "kajtus-czarodziej@wp.pl",
                "ref:regon": "146909591",
                "ref:vatin": "PL8762020324",
                "operator": "Anna Lewandowska-S\u0119dek",
                "operator:type": "private",
                "amenity": "kindergarten"
            }
        },
        {
            "id": 124561,
            "type": "Feature",
            "geometry": {
                "type": "Point",
                "coordinates": [
                    21.10953,
                    52.32468
                ]
            },
            "properties": {
                "ref:rspo": 124561,
                "official_name": "Niepubliczne Przedszkole Nr 23 \"Kajtu\u015b Czarodziej\"",
                "name": "Niepubliczne Przedszkole Nr 23 \"Kajtu\u015b Czarodziej\"",
                "addr:country": "PL",
                "addr:postcode": "05-270",
                "addr:city": "Marki",
                "addr:street": "Sportowa",
                "addr:housenumber": "8A",
                "addr:teryt:simc": 920901,
                "addr:teryt:sym_ul": 20683,
                "contact:phone": "+48 668663425",
                "ref:regon": "147399034",
                "ref:vatin": "PL8762020324",
                "operator": "Anna Lewandowska-S\u0119dek",
                "operator:type": "private",
                "amenity": "kindergarten"
            }
        },
        {
            "id": 273928,
            "type": "Feature",
            "geometry": {
                "type": "Point",
                "coordinates": [
                    21.10953,
                    52.324650000000005
                ]
            },
            "properties": {
                "ref:rspo": 273928,
                "official_name": "Publiczne Przedszkole Nr 7 Kajtu\u015b Czarodziej",
                "name": "Publiczne Przedszkole Nr 7 Kajtu\u015b Czarodziej",
                "addr:country": "PL",
                "addr:postcode": "05-270",
                "addr:city": "Marki",
                "addr:street": "Sportowa",
                "addr:housenumber": "8A",
                "addr:teryt:simc": 920901,
                "addr:teryt:sym_ul": 20683,
                "contact:phone": "+48 668663425",
                "contact:email": "kajtus-czarodziej@wp.pl",
                "ref:regon": "384889540",
                "ref:vatin": "PL8762020324",
                "operator": "Anna Lewandowska-S\u0119dek",
                "operator:type": "private",
                "amenity": "kindergarten"
            }
        },
        {
            "id": 278462,
            "type": "Feature",
            "geometry": {
                "type": "Point",
                "coordinates": [
                    21.12212,
                    52.32529
                ]
            },
            "properties": {
                "ref:rspo": 278462,
                "official_name": "Niepubliczne Przedszkole Nr 31 \"My Way\"",
                "name": "Niepubliczne Przedszkole Nr 31 \"My Way\"",
                "addr:country": "PL",
                "addr:postcode": "05-270",
                "addr:city": "Marki",
                "addr:street": "Wilcza",
                "addr:housenumber": "26",
                "addr:teryt:simc": 920901,
                "addr:teryt:sym_ul": 24261,
                "contact:email": "biuro@my-way.edu.pl",
                "contact:website": "https:\/\/www.my-way.edu.pl\/",
                "ref:regon": "389905975",
                "operator": "Centrum Rozwoju I Edukacji Sp\u00f3\u0142ka Z Ograniczon\u0105 Odpowiedzialno\u015bci\u0105",
                "operator:type": "private",
                "amenity": "kindergarten"
            }
        },
        {
            "id": 278905,
            "type": "Feature",
            "geometry": {
                "type": "Point",
                "coordinates": [
                    21.12212,
                    52.32526
                ]
            },
            "properties": {
                "ref:rspo": 278905,
                "official_name": "Niepubliczne Przedszkole Nr 32 \"My Way II\"",
                "name": "Niepubliczne Przedszkole Nr 32 \"My Way II\"",
                "addr:country": "PL",
                "addr:postcode": "05-270",
                "addr:city": "Marki",
                "addr:street": "Wilcza",
                "addr:housenumber": "26",
                "addr:teryt:simc": 920901,
                "addr:teryt:sym_ul": 24261,
                "contact:email": "biuro@my-way.edu.pl",
                "ref:regon": "520175004",
                "operator": "Centrum Rozwoju I Edukacji Sp\u00f3\u0142ka Z Ograniczon\u0105 Odpowiedzialno\u015bci\u0105",
                "operator:type": "private",
                "amenity": "kindergarten"
            }
        },
        {
            "id": 128068,
            "type": "Feature",
            "geometry": {
                "type": "Point",
                "coordinates": [
                    21.12219,
                    52.326
                ]
            },
            "properties": {
                "ref:rspo": 128068,
                "official_name": "Niepubliczne Przedszkole Nr 25 \"Domowe Przedszkole\"",
                "name": "Niepubliczne Przedszkole Nr 25 \"Domowe Przedszkole\"",
                "addr:country": "PL",
                "addr:postcode": "05-270",
                "addr:city": "Marki",
                "addr:street": "Wilcza",
                "addr:housenumber": "30A",
                "addr:teryt:simc": 920901,
                "addr:teryt:sym_ul": 24261,
                "contact:phone": "+48 507220773",
                "ref:regon": "362066100",
                "ref:vatin": "PL1180466834",
                "operator": "Iwona Wilczak",
                "operator:type": "private",
                "amenity": "kindergarten"
            }
        },
        {
            "id": 131361,
            "type": "Feature",
            "geometry": {
                "type": "Point",
                "coordinates": [
                    21.12219,
                    52.32597
                ]
            },
            "properties": {
                "ref:rspo": 131361,
                "official_name": "Niepubliczne Przedszkole Nr 28 \"Domowe Przedszkole II\"",
                "name": "Niepubliczne Przedszkole Nr 28 \"Domowe Przedszkole II\"",
                "addr:country": "PL",
                "addr:postcode": "05-270",
                "addr:city": "Marki",
                "addr:street": "Wilcza",
                "addr:housenumber": "30A",
                "addr:teryt:simc": 920901,
                "addr:teryt:sym_ul": 24261,
                "contact:phone": "+48 695101450",
                "ref:regon": "365137377",
                "ref:vatin": "PL1180466834",
                "operator": "Iwona Wilczak",
                "operator:type": "private",
                "amenity": "kindergarten"
            }
        },
        {
            "id": 106832,
            "type": "Feature",
            "geometry": {
                "type": "Point",
                "coordinates": [
                    21.10612,
                    52.32626
                ]
            },
            "properties": {
                "isced:level": "1;2",
                "ref:rspo": 106832,
                "official_name": "Prywatna Szko\u0142a Podstawowa Nr 1 \"...Ad Astra\"",
                "name": "Prywatna Szko\u0142a Podstawowa Nr 1 \"...Ad Astra\"",
                "addr:country": "PL",
                "addr:postcode": "05-270",
                "addr:city": "Marki",
                "addr:street": "al. Marsza\u0142ka J\u00f3zefa Pi\u0142sudskiego",
                "addr:housenumber": "93",
                "addr:teryt:simc": 920901,
                "addr:teryt:sym_ul": 40017,
                "contact:phone": "+48 227812903",
                "contact:email": "adastramarki@wp.pl",
                "ref:regon": "146490092",
                "ref:vatin": "PL1131020529",
                "operator": "Joanna Go\u0142\u0119biewska",
                "operator:type": "private",
                "amenity": "school"
            }
        },
        {
            "id": 272388,
            "type": "Feature",
            "geometry": {
                "type": "Point",
                "coordinates": [
                    21.10612,
                    52.326229999999995
                ]
            },
            "properties": {
                "isced:level": "3",
                "ref:rspo": 272388,
                "official_name": "Niepubliczne Liceum Og\u00f3lnokszta\u0142c\u0105ce ,,...Ad Astra\"",
                "name": "Niepubliczne Liceum Og\u00f3lnokszta\u0142c\u0105ce ,,...Ad Astra\"",
                "addr:country": "PL",
                "addr:postcode": "05-270",
                "addr:city": "Marki",
                "addr:street": "al. Marsza\u0142ka J\u00f3zefa Pi\u0142sudskiego",
                "addr:housenumber": "93",
                "addr:teryt:simc": 920901,
                "addr:teryt:sym_ul": 40017,
                "contact:phone": "+48 227812903",
                "contact:email": "adastramarki@wp.pl",
                "contact:website": "http:\/\/adastramarki.edu.pl",
                "ref:regon": "384339092",
                "operator": "Joanna Go\u0142\u0119biewska",
                "operator:type": "private",
                "amenity": "school"
            }
        },
        {
            "id": 124414,
            "type": "Feature",
            "geometry": {
                "type": "Point",
                "coordinates": [
                    21.10182,
                    52.32944
                ]
            },
            "properties": {
                "ref:rspo": 124414,
                "official_name": "Niepubliczne Przedszkole Nr 24 \"Dzieci\u0119cy Raj II\"",
                "name": "Niepubliczne Przedszkole Nr 24 \"Dzieci\u0119cy Raj II\"",
                "addr:country": "PL",
                "addr:postcode": "05-270",
                "addr:city": "Marki",
                "addr:street": "Ok\u00f3lna",
                "addr:housenumber": "39A",
                "addr:teryt:simc": 920901,
                "addr:teryt:sym_ul": 14890,
                "contact:phone": "+48 502148238",
                "ref:regon": "147393184",
                "ref:vatin": "PL1251625413",
                "operator": "Krystian Koz\u0142owski",
                "operator:type": "private",
                "amenity": "kindergarten"
            }
        },
        {
            "id": 122902,
            "type": "Feature",
            "geometry": {
                "type": "Point",
                "coordinates": [
                    21.10105,
                    52.33028
                ]
            },
            "properties": {
                "ref:rspo": 122902,
                "official_name": "Poradnia Psychologiczno-Pedagogiczna I Rehabilitacyjna \"Ortosensis\"",
                "name": "Poradnia Psychologiczno-Pedagogiczna I Rehabilitacyjna \"Ortosensis\"",
                "addr:country": "PL",
                "addr:postcode": "05-270",
                "addr:city": "Marki",
                "addr:street": "Ok\u00f3lna",
                "addr:housenumber": "43",
                "addr:teryt:simc": 920901,
                "addr:teryt:sym_ul": 14890,
                "contact:phone": "+48 503322500",
                "contact:email": "centrum@ortosensis.pl",
                "contact:website": "http:\/\/www.ortosensis.pl",
                "ref:regon": "147208005",
                "operator": "Maria Kwiatkowska",
                "operator:type": "private",
                "healthcare": "counselling",
                "counselling_type": "education",
                "fixme": "w zale\u017cno\u015bci od przedmiotu dzia\u0142alno\u015bci (np. healthcare=counselling + counselling_type=education albo healthcare=psychotherapist)"
            }
        },
        {
            "id": 268852,
            "type": "Feature",
            "geometry": {
                "type": "Point",
                "coordinates": [
                    21.13033,
                    52.33079
                ]
            },
            "properties": {
                "ref:rspo": 268852,
                "official_name": "Niepubliczne Przedszkole Nr 29 \"Krasnal\"",
                "name": "Niepubliczne Przedszkole Nr 29 \"Krasnal\"",
                "addr:country": "PL",
                "addr:postcode": "05-270",
                "addr:city": "Marki",
                "addr:street": "\u017babia",
                "addr:housenumber": "7",
                "addr:teryt:simc": 920901,
                "addr:teryt:sym_ul": 26367,
                "contact:email": "krasnalmarki@gmail.com",
                "contact:website": "http:\/\/www.krasnalmarki.pl",
                "ref:regon": "381262928",
                "ref:vatin": "PL1251679219",
                "operator": "Karolina Zych",
                "operator:type": "private",
                "amenity": "kindergarten"
            }
        },
        {
            "id": 273930,
            "type": "Feature",
            "geometry": {
                "type": "Point",
                "coordinates": [
                    21.13033,
                    52.33076
                ]
            },
            "properties": {
                "ref:rspo": 273930,
                "official_name": "Niepubliczne Przedszkole Nr 30 Krasnal Ii",
                "name": "Niepubliczne Przedszkole Nr 30 Krasnal Ii",
                "addr:country": "PL",
                "addr:postcode": "05-270",
                "addr:city": "Marki",
                "addr:street": "\u017babia",
                "addr:housenumber": "7",
                "addr:teryt:simc": 920901,
                "addr:teryt:sym_ul": 26367,
                "contact:phone": "+48 695478046",
                "contact:email": "krasnalmarki@gmail.com",
                "ref:regon": "384889579",
                "ref:vatin": "PL1251679219",
                "operator": "Karolina Zych",
                "operator:type": "private",
                "amenity": "kindergarten"
            }
        },
        {
            "id": 55835,
            "type": "Feature",
            "geometry": {
                "type": "Point",
                "coordinates": [
                    21.12557,
                    52.33294
                ]
            },
            "properties": {
                "isced:level": "1;2",
                "ref:rspo": 55835,
                "official_name": "Szko\u0142a Podstawowa Nr 4 im. Stefana Roweckiego \"Grota\"",
                "name": "Szko\u0142a Podstawowa Nr 4",
                "addr:country": "PL",
                "addr:postcode": "05-270",
                "addr:city": "Marki",
                "addr:street": "Wsp\u00f3lna",
                "addr:housenumber": "42",
                "addr:teryt:simc": 920901,
                "addr:teryt:sym_ul": 24885,
                "contact:phone": "+48 221002308",
                "contact:email": "sp4@marki.pl",
                "ref:regon": "000800657",
                "ref:vatin": "PL1250934483",
                "operator": "Gmina Miasto Marki",
                "operator:type": "government",
                "amenity": "school"
            }
        },
        {
            "id": 51782,
            "type": "Feature",
            "geometry": {
                "type": "Point",
                "coordinates": [
                    21.11929,
                    52.33838
                ]
            },
            "properties": {
                "ref:rspo": 51782,
                "official_name": "Przedszkole Miejskie Nr 2",
                "name": "Przedszkole Miejskie Nr 2",
                "addr:country": "PL",
                "addr:postcode": "05-270",
                "addr:city": "Marki",
                "addr:street": "Du\u017ca",
                "addr:housenumber": "1A",
                "addr:teryt:simc": 920901,
                "addr:teryt:sym_ul": 4418,
                "contact:phone": "+48 784365394",
                "contact:email": "pm2@marki.pl",
                "contact:website": "http:\/\/pm2.marki.pl",
                "ref:regon": "013003379",
                "ref:vatin": "PL1250908528",
                "operator": "Gmina Miasto Marki",
                "operator:type": "government",
                "amenity": "kindergarten"
            }
        },
        {
            "id": 123927,
            "type": "Feature",
            "geometry": {
                "type": "Point",
                "coordinates": [
                    21.11936,
                    52.33965
                ]
            },
            "properties": {
                "ref:rspo": 123927,
                "official_name": "Niepubliczne Przedszkole Nr 14 Dzieci\u0119cy Raj Ii",
                "name": "Niepubliczne Przedszkole Nr 14 Dzieci\u0119cy Raj Ii",
                "addr:country": "PL",
                "addr:postcode": "05-270",
                "addr:city": "Marki",
                "addr:street": "al. Marsza\u0142ka J\u00f3zefa Pi\u0142sudskiego",
                "addr:housenumber": "180",
                "addr:teryt:simc": 920901,
                "addr:teryt:sym_ul": 40017,
                "contact:phone": "+48 227714805",
                "ref:regon": "147363444",
                "ref:vatin": "PL1251625413",
                "operator": "Krystian Koz\u0142owski",
                "operator:type": "private",
                "amenity": "kindergarten"
            }
        },
        {
            "id": 53788,
            "type": "Feature",
            "geometry": {
                "type": "Point",
                "coordinates": [
                    21.11365,
                    52.34031
                ]
            },
            "properties": {
                "isced:level": "1;2",
                "ref:rspo": 53788,
                "official_name": "Szko\u0142a Podstawowa Nr 3 im. Pomnik Zwyci\u0119stwa 1920 Roku",
                "name": "Szko\u0142a Podstawowa Nr 3",
                "addr:country": "PL",
                "addr:postcode": "05-260",
                "addr:city": "Marki",
                "addr:street": "Pomnikowa",
                "addr:housenumber": "21",
                "addr:teryt:simc": 920901,
                "addr:teryt:sym_ul": 17084,
                "contact:phone": "+48 227811291",
                "contact:email": "sp3@marki.pl",
                "contact:website": "http:\/\/www.sp3marki.edupage.org",
                "ref:regon": "000800640",
                "ref:vatin": "PL1250926590",
                "operator": "Gmina Miasto Marki",
                "operator:type": "government",
                "amenity": "school"
            }
        },
        {
            "id": 106808,
            "type": "Feature",
            "geometry": {
                "type": "Point",
                "coordinates": [
                    21.12561,
                    52.34202
                ]
            },
            "properties": {
                "ref:rspo": 106808,
                "official_name": "Niepubliczne Przedszkole Nr 4 \"Chatka Puchatka\"",
                "name": "Niepubliczne Przedszkole Nr 4 \"Chatka Puchatka\"",
                "addr:country": "PL",
                "addr:postcode": "05-260",
                "addr:city": "Marki",
                "addr:street": "Cicha",
                "addr:housenumber": "16A",
                "addr:teryt:simc": 920901,
                "addr:teryt:sym_ul": 2974,
                "contact:phone": "+48 227812108",
                "ref:regon": "146489930",
                "ref:vatin": "PL1250056812",
                "operator": "Marlena Stosio",
                "operator:type": "private",
                "amenity": "kindergarten"
            }
        },
        {
            "id": 3583,
            "type": "Feature",
            "geometry": {
                "type": "Point",
                "coordinates": [
                    21.11499,
                    52.34211
                ]
            },
            "properties": {
                "ref:rspo": 3583,
                "official_name": "Przedszkole Niepubliczne Nr 11 Si\u00f3str Rodziny Maryi",
                "name": "Przedszkole Niepubliczne Nr 11 Si\u00f3str Rodziny Maryi",
                "addr:country": "PL",
                "addr:postcode": "05-270",
                "addr:city": "Marki",
                "addr:street": "Kasztanowa",
                "addr:housenumber": "21",
                "addr:teryt:simc": 920901,
                "addr:teryt:sym_ul": 8171,
                "contact:phone": "+48 227811030",
                "contact:email": "przedszkole@rodzinamaryi.pl",
                "contact:website": "http:\/\/www.rodzinamaryi.pl",
                "ref:regon": "146251447",
                "ref:vatin": "PL1251617974",
                "operator": "Zgromadzenie Si\u00f3str Franciszkanek Rodziny Maryi Prowincja Niepokalanej-Warszawska",
                "operator:type": "religious",
                "amenity": "kindergarten"
            }
        },
        {
            "id": 131373,
            "type": "Feature",
            "geometry": {
                "type": "Point",
                "coordinates": [
                    21.11499,
                    52.342079999999996
                ]
            },
            "properties": {
                "isced:level": "1;2",
                "ref:rspo": 131373,
                "official_name": "Szko\u0142a Podstawowa Si\u00f3str Rodziny Maryi",
                "name": "Szko\u0142a Podstawowa Si\u00f3str Rodziny Maryi",
                "addr:country": "PL",
                "addr:postcode": "05-270",
                "addr:city": "Marki",
                "addr:street": "Kasztanowa",
                "addr:housenumber": "21",
                "addr:teryt:simc": 920901,
                "addr:teryt:sym_ul": 8171,
                "contact:phone": "+48 227811030",
                "contact:email": "szkola@rodzinamaryi.pl",
                "contact:website": "http:\/\/szkola.rodzinamaryi.pl",
                "ref:regon": "365150136",
                "ref:vatin": "PL1251645083",
                "operator": "Dane Do Uzupe\u0142nienia",
                "operator:type": "private",
                "amenity": "school"
            }
        },
        {
            "id": 124037,
            "type": "Feature",
            "geometry": {
                "type": "Point",
                "coordinates": [
                    21.11983,
                    52.3430899
                ]
            },
            "properties": {
                "ref:rspo": 124037,
                "official_name": "Niepubliczna Poradnia Psychologiczno-Pedagogiczna \"Neuronis\" Agnieszka Kowalczyk",
                "name": "Niepubliczna Poradnia Psychologiczno-Pedagogiczna \"Neuronis\" Agnieszka Kowalczyk",
                "addr:country": "PL",
                "addr:postcode": "05-260",
                "addr:city": "Marki",
                "addr:street": "Jutrzenki",
                "addr:housenumber": "6A",
                "addr:teryt:simc": 920901,
                "addr:teryt:sym_ul": 7699,
                "contact:phone": "+48 539975579",
                "contact:email": "centrum@neuronis.pl",
                "ref:regon": "147370757",
                "operator": "Agnieszka Kowalczyk",
                "operator:type": "private",
                "healthcare": "counselling",
                "counselling_type": "education",
                "fixme": "w zale\u017cno\u015bci od przedmiotu dzia\u0142alno\u015bci (np. healthcare=counselling + counselling_type=education albo healthcare=psychotherapist)"
            }
        },
        {
            "id": 106810,
            "type": "Feature",
            "geometry": {
                "type": "Point",
                "coordinates": [
                    21.1152,
                    52.34456
                ]
            },
            "properties": {
                "ref:rspo": 106810,
                "official_name": "Przedszkole Niepubliczne Nr 5 \"Jutrzenka\"",
                "name": "Przedszkole Niepubliczne Nr 5 \"Jutrzenka\"",
                "addr:country": "PL",
                "addr:postcode": "05-260",
                "addr:city": "Marki",
                "addr:street": "Jutrzenki",
                "addr:housenumber": "32",
                "addr:teryt:simc": 920901,
                "addr:teryt:sym_ul": 7699,
                "contact:phone": "+48 227812932",
                "contact:email": "jutrzenka@przedszkolemarki.pl",
                "contact:website": "http:\/\/www.przedszkolemarki.pl",
                "ref:regon": "146491890",
                "ref:vatin": "PL8221085476",
                "operator": "Dane Do Uzupe\u0142nienia",
                "operator:type": "private",
                "amenity": "kindergarten"
            }
        },
        {
            "id": 120489,
            "type": "Feature",
            "geometry": {
                "type": "Point",
                "coordinates": [
                    21.11056,
                    52.34841
                ]
            },
            "properties": {
                "ref:rspo": 120489,
                "official_name": "Przedszkole Niepubliczne Nr 12 \"Artedoo\"",
                "name": "Przedszkole Niepubliczne Nr 12 \"Artedoo\"",
                "addr:country": "PL",
                "addr:postcode": "05-270",
                "addr:city": "Marki",
                "addr:street": "Rydza-\u015amig\u0142ego",
                "addr:housenumber": "71",
                "addr:teryt:simc": 920901,
                "addr:teryt:sym_ul": 19220,
                "contact:phone": "+48 602761556",
                "ref:regon": "146909556",
                "ref:vatin": "PL1250070485",
                "operator": "Danuta Adamczyk",
                "operator:type": "private",
                "amenity": "kindergarten"
            }
        },
        {
            "id": 124477,
            "type": "Feature",
            "geometry": {
                "type": "Point",
                "coordinates": [
                    21.11056,
                    52.34838
                ]
            },
            "properties": {
                "ref:rspo": 124477,
                "official_name": "Niepubliczne Przedszkole Nr 22 \"Artedoo\"",
                "name": "Niepubliczne Przedszkole Nr 22 \"Artedoo\"",
                "addr:country": "PL",
                "addr:postcode": "05-270",
                "addr:city": "Marki",
                "addr:street": "Rydza-\u015amig\u0142ego",
                "addr:housenumber": "71",
                "addr:teryt:simc": 920901,
                "addr:teryt:sym_ul": 19220,
                "contact:phone": "+48 602761556",
                "contact:email": "kontakt@artedoo.pl",
                "contact:website": "http:\/\/www.artedoo.pl",
                "ref:regon": "147394485",
                "ref:vatin": "PL1250070485",
                "operator": "Danuta Adamczyk",
                "operator:type": "private",
                "amenity": "kindergarten"
            }
        },
        {
            "id": 124395,
            "type": "Feature",
            "geometry": {
                "type": "Point",
                "coordinates": [
                    21.1076,
                    52.3495599
                ]
            },
            "properties": {
                "ref:rspo": 124395,
                "official_name": "Niepubliczne Przedszkole Nr 21 \"Weso\u0142a Lokomotywa\"",
                "name": "Niepubliczne Przedszkole Nr 21 \"Weso\u0142a Lokomotywa\"",
                "addr:country": "PL",
                "addr:postcode": "05-270",
                "addr:city": "Marki",
                "addr:street": "Tadeusza Jasi\u0144skiego",
                "addr:housenumber": "19",
                "addr:teryt:simc": 920901,
                "addr:teryt:sym_ul": 41595,
                "contact:phone": "+48 502369289",
                "contact:website": "http:\/\/www.wesolalokomotywa.pl",
                "ref:regon": "147391185",
                "ref:vatin": "PL1250425244",
                "operator": "Halina Ku\u015bnierz",
                "operator:type": "private",
                "amenity": "kindergarten"
            }
        },
        {
            "id": 128493,
            "type": "Feature",
            "geometry": {
                "type": "Point",
                "coordinates": [
                    21.1076,
                    52.3495299
                ]
            },
            "properties": {
                "ref:rspo": 128493,
                "official_name": "Publiczne Przedszkole Nr 6 \"Weso\u0142a Lokomotywa\"",
                "name": "Publiczne Przedszkole Nr 6 \"Weso\u0142a Lokomotywa\"",
                "addr:country": "PL",
                "addr:postcode": "05-270",
                "addr:city": "Marki",
                "addr:street": "Tadeusza Jasi\u0144skiego",
                "addr:housenumber": "19",
                "addr:teryt:simc": 920901,
                "addr:teryt:sym_ul": 41595,
                "contact:phone": "+48 502369289",
                "ref:regon": "362301445",
                "ref:vatin": "PL1250425244",
                "operator": "Halina Ku\u015bnierz",
                "operator:type": "private",
                "amenity": "kindergarten"
            }
        },
        {
            "id": 49133,
            "type": "Feature",
            "geometry": {
                "type": "Point",
                "coordinates": [
                    21.13635,
                    52.35809
                ]
            },
            "properties": {
                "ref:rspo": 49133,
                "official_name": "Zesp\u00f3\u0142 Szk\u00f3\u0142 Nr 2 im. Prymasa Tysi\u0105clecia",
                "name": "Zesp\u00f3\u0142 Szk\u00f3\u0142 Nr 2",
                "addr:country": "PL",
                "addr:postcode": "05-270",
                "addr:city": "Marki",
                "addr:street": "Wczasowa",
                "addr:housenumber": "5",
                "addr:teryt:simc": 920901,
                "addr:teryt:sym_ul": 23814,
                "contact:phone": "+48 227811857",
                "contact:email": "zs2@marki.pl",
                "ref:regon": "016074026",
                "ref:vatin": "PL1251018788",
                "operator": "Gmina Miasto Marki",
                "operator:type": "government",
                "landuse": "education",
                "fixme": "amenity=school, amenity=college albo landuse=education w zale\u017cno\u015bci od tego, jakie plac\u00f3wki wchodz\u0105 w sk\u0142ad zespo\u0142u. Sprawd\u017a, kiedy stosowa\u0107 amenity=* a kiedy landuse=education.",
                "note": "Children RSPO: 82700;130227"
            }
        },
        {
            "id": 82700,
            "type": "Feature",
            "geometry": {
                "type": "Point",
                "coordinates": [
                    21.13635,
                    52.358059999999995
                ]
            },
            "properties": {
                "isced:level": "1;2",
                "ref:rspo": 82700,
                "official_name": "Szko\u0142a Podstawowa Nr 5",
                "name": "Szko\u0142a Podstawowa Nr 5",
                "addr:country": "PL",
                "addr:postcode": "05-261",
                "addr:city": "Marki",
                "addr:street": "Wczasowa",
                "addr:housenumber": "5",
                "addr:teryt:simc": 920901,
                "addr:teryt:sym_ul": 23814,
                "contact:phone": "+48 227811857",
                "contact:email": "zs2@marki.pl",
                "ref:regon": "000800663",
                "ref:vatin": "PL1251018788",
                "operator": "Gmina Miasto Marki",
                "operator:type": "government",
                "amenity": "school",
                "note": "Parent RSPO: 49133"
            }
        },
        {
            "id": 130227,
            "type": "Feature",
            "geometry": {
                "type": "Point",
                "coordinates": [
                    21.13635,
                    52.35803
                ]
            },
            "properties": {
                "ref:rspo": 130227,
                "official_name": "Przedszkole Miejskie Nr 5 w Markach",
                "name": "Przedszkole Miejskie Nr 5 w Markach",
                "addr:country": "PL",
                "addr:postcode": "05-270",
                "addr:city": "Marki",
                "addr:street": "Wczasowa",
                "addr:housenumber": "5",
                "addr:teryt:simc": 920901,
                "addr:teryt:sym_ul": 23814,
                "contact:phone": "+48 227811857",
                "contact:email": "zs2@marki.pl",
                "ref:regon": "363679884",
                "ref:vatin": "PL1251018788",
                "operator": "Gmina Miasto Marki",
                "operator:type": "government",
                "amenity": "kindergarten",
                "note": "Parent RSPO: 49133"
            }
        },
        {
            "id": 106380,
            "type": "Feature",
            "geometry": {
                "type": "Point",
                "coordinates": [
                    21.13778,
                    52.36112
                ]
            },
            "properties": {
                "ref:rspo": 106380,
                "official_name": "Przedszkole Miejskie Nr 3 \"Bajkowy \u015awiat\" w Markach",
                "name": "Przedszkole Miejskie Nr 3 \"Bajkowy \u015awiat\" w Markach",
                "addr:country": "PL",
                "addr:postcode": "05-261",
                "addr:city": "Marki",
                "addr:street": "al. Marsza\u0142ka J\u00f3zefa Pi\u0142sudskiego",
                "addr:housenumber": "246",
                "addr:teryt:simc": 920901,
                "addr:teryt:sym_ul": 40017,
                "contact:phone": "+48 227811482",
                "contact:email": "pm3@marki.pl",
                "contact:website": "http:\/\/www.pm3marki.edupage.org",
                "ref:regon": "013003362",
                "ref:vatin": "PL1250940466",
                "operator": "Gmina Miasto Marki",
                "operator:type": "government",
                "amenity": "kindergarten"
            }
        },
        {
            "id": 124055,
            "type": "Feature",
            "geometry": {
                "type": "Point",
                "coordinates": [
                    21.13804,
                    52.36135
                ]
            },
            "properties": {
                "isced:level": "3",
                "ref:rspo": 124055,
                "official_name": "Katolickie Liceum Og\u00f3lnokszta\u0142c\u0105ce im. B\u0142. Bronis\u0142awa Markiewicza",
                "name": "Katolickie Liceum Og\u00f3lnokszta\u0142c\u0105ce",
                "addr:country": "PL",
                "addr:postcode": "05-270",
                "addr:city": "Marki",
                "addr:street": "al. Marsza\u0142ka J\u00f3zefa Pi\u0142sudskiego",
                "addr:housenumber": "248",
                "addr:door": "252",
                "addr:teryt:simc": 920901,
                "addr:teryt:sym_ul": 40017,
                "contact:phone": "+48 227811485",
                "contact:email": "sekretariat@szkolawmarkach.pl",
                "contact:website": "http:\/\/www.liceumwmarkach.pl",
                "ref:regon": "147374347",
                "operator": "Zgromadzenie \u015aw. Micha\u0142a Archanio\u0142a",
                "operator:type": "religious",
                "amenity": "school"
            }
        },
        {
            "id": 262417,
            "type": "Feature",
            "geometry": {
                "type": "Point",
                "coordinates": [
                    21.13734,
                    52.36146
                ]
            },
            "properties": {
                "isced:level": "1;2",
                "ref:rspo": 262417,
                "official_name": "Katolicka Szko\u0142a Podstawowa Ksi\u0119\u017cy Michalit\u00f3w im. Ks.bronis\u0142awa Markiewicza w Markach",
                "name": "Katolicka Szko\u0142a Podstawowa Ksi\u0119\u017cy Michalit\u00f3w",
                "addr:country": "PL",
                "addr:postcode": "05-270",
                "addr:city": "Marki",
                "addr:street": "al. Marsza\u0142ka J\u00f3zefa Pi\u0142sudskiego",
                "addr:housenumber": "248\/252",
                "addr:teryt:simc": 920901,
                "addr:teryt:sym_ul": 40017,
                "contact:phone": "+48 227811485",
                "contact:email": "sekretariat@szkolawmarkach.pl",
                "contact:website": "http:\/\/www.szkolawmarkach.pl",
                "ref:regon": "368005535",
                "ref:vatin": "PL1251660332",
                "operator": "Zgromadzenie \u015aw. Micha\u0142a Archanio\u0142a",
                "operator:type": "religious",
                "amenity": "school"
            }
        },
        {
            "id": 128206,
            "type": "Feature",
            "geometry": {
                "type": "Point",
                "coordinates": [
                    21.12184,
                    52.36669
                ]
            },
            "properties": {
                "ref:rspo": 128206,
                "official_name": "Publiczne Przedszkole Nr 4 'Le\u015bny Domek\"",
                "name": "Publiczne Przedszkole Nr 4 'Le\u015bny Domek\"",
                "addr:country": "PL",
                "addr:postcode": "05-270",
                "addr:city": "Marki",
                "addr:street": "Spacerowa",
                "addr:housenumber": "178",
                "addr:teryt:simc": 920901,
                "addr:teryt:sym_ul": 20641,
                "contact:phone": "+48 515353422",
                "contact:email": "przedszkole4.lesnydomek@gmail.com",
                "ref:regon": "362183721",
                "ref:vatin": "PL7251306875",
                "operator": "Katarzyna Klich",
                "operator:type": "private",
                "amenity": "kindergarten"
            }
        }
    ]
}