{
    "type": "FeatureCollection",
    "features": [
        {
            "id": 106252,
            "type": "Feature",
            "geometry": {
                "type": "Point",
                "coordinates": [
                    21.26615,
                    52.46183
                ]
            },
            "properties": {
                "ref:rspo": 106252,
                "official_name": "Niepubliczne Przedszkole \"Bajkowy \u015awiat\" w Chaj\u0119tach",
                "name": "Niepubliczne Przedszkole \"Bajkowy \u015awiat\" w Chaj\u0119tach",
                "addr:country": "PL",
                "addr:postcode": "05-252",
                "addr:city": "Chaj\u0119ty",
                "addr:street": "Wsp\u00f3lna",
                "addr:housenumber": "103",
                "addr:door": "-",
                "addr:teryt:simc": 508862,
                "addr:teryt:sym_ul": 24885,
                "contact:phone": "+48 602639525",
                "contact:email": "ab005521@op.pl",
                "contact:website": "http:\/\/www.chajety-przedszkole.pl",
                "ref:regon": "146474124",
                "ref:vatin": "PL1180112214",
                "operator": "Agnieszka Nowak",
                "operator:type": "private",
                "amenity": "kindergarten"
            }
        },
        {
            "id": 83819,
            "type": "Feature",
            "geometry": {
                "type": "Point",
                "coordinates": [
                    21.22384,
                    52.47405
                ]
            },
            "properties": {
                "isced:level": "1;2",
                "ref:rspo": 83819,
                "official_name": "Publiczna Szko\u0142a Podstawowa im. Jana Paw\u0142a II w Guzowatce",
                "name": "Publiczna Szko\u0142a Podstawowa",
                "addr:country": "PL",
                "addr:postcode": "05-252",
                "addr:place": "Guzowatka",
                "addr:housenumber": "81",
                "addr:teryt:simc": 508945,
                "contact:phone": "+48 297578465",
                "contact:email": "szkola.guzowatka@poczta.onet.pl",
                "contact:website": "http:\/\/www.spwg.dabrowka.net.pl",
                "ref:regon": "001105907",
                "ref:vatin": "PL1251154600",
                "operator": "Gmina D\u0105br\u00f3wka",
                "operator:type": "government",
                "amenity": "school"
            }
        },
        {
            "id": 271768,
            "type": "Feature",
            "geometry": {
                "type": "Point",
                "coordinates": [
                    21.35607,
                    52.47645
                ]
            },
            "properties": {
                "ref:rspo": 271768,
                "official_name": "Przedszkole Niepubliczne \" Wyspa Malucha\" we Wszeborach",
                "name": "Przedszkole Niepubliczne \" Wyspa Malucha\" we Wszeborach",
                "addr:country": "PL",
                "addr:postcode": "05-252",
                "addr:city": "Wszebory",
                "addr:street": "Graniczna",
                "addr:housenumber": "4",
                "addr:teryt:simc": 509146,
                "addr:teryt:sym_ul": 6075,
                "contact:phone": "+48 609819702",
                "contact:email": "biuro@wyspamalucha.net.pl",
                "contact:website": "http:\/\/www.wyspamalucha.net.pl",
                "ref:regon": "383634096",
                "operator": "Anna Go\u0142embiewska",
                "operator:type": "private",
                "amenity": "kindergarten"
            }
        },
        {
            "id": 83818,
            "type": "Feature",
            "geometry": {
                "type": "Point",
                "coordinates": [
                    21.36092,
                    52.4774699
                ]
            },
            "properties": {
                "isced:level": "1;2",
                "ref:rspo": 83818,
                "official_name": "Publiczna Szko\u0142a Podstawowa im. Adeli Goszczy\u0144skiej we Wszeborach",
                "name": "Publiczna Szko\u0142a Podstawowa",
                "addr:country": "PL",
                "addr:postcode": "05-252",
                "addr:city": "Wszebory",
                "addr:street": "Trakt Napoleo\u0144ski",
                "addr:housenumber": "45",
                "addr:teryt:simc": 509146,
                "addr:teryt:sym_ul": 27438,
                "contact:phone": "+48 297578018",
                "contact:email": "dyrektor@spwszebory.edu.pl",
                "contact:website": "https:\/\/spww.dabrowka.net.pl\/",
                "ref:regon": "001105899",
                "ref:vatin": "PL1251148284",
                "operator": "Gmina D\u0105br\u00f3wka",
                "operator:type": "government",
                "amenity": "school"
            }
        },
        {
            "id": 83774,
            "type": "Feature",
            "geometry": {
                "type": "Point",
                "coordinates": [
                    21.29742,
                    52.48681
                ]
            },
            "properties": {
                "isced:level": "1;2",
                "ref:rspo": 83774,
                "official_name": "Szko\u0142a Podstawowa im. C.k. Norwida",
                "name": "Szko\u0142a Podstawowa",
                "addr:country": "PL",
                "addr:postcode": "05-252",
                "addr:city": "D\u0105br\u00f3wka",
                "addr:street": "Tadeusza Ko\u015bciuszki",
                "addr:housenumber": "20",
                "addr:teryt:simc": 508916,
                "addr:teryt:sym_ul": 9582,
                "contact:phone": "+48 297578013",
                "contact:email": "szkola.podstawowa@dabrowka.net.pl",
                "contact:website": "http:\/\/www.szkola.podstawowa@dabrowka.net.pl",
                "ref:regon": "000557599",
                "ref:vatin": "PL1251148278",
                "operator": "Gmina D\u0105br\u00f3wka",
                "operator:type": "government",
                "amenity": "school"
            }
        },
        {
            "id": 103714,
            "type": "Feature",
            "geometry": {
                "type": "Point",
                "coordinates": [
                    21.20818,
                    52.50089
                ]
            },
            "properties": {
                "isced:level": "1;2",
                "ref:rspo": 103714,
                "official_name": "Publiczna Szko\u0142a Podstawowa im. Bitwy Warszawskiej 1920 Roku",
                "name": "Publiczna Szko\u0142a Podstawowa",
                "addr:country": "PL",
                "addr:postcode": "05-254",
                "addr:city": "J\u00f3zef\u00f3w",
                "addr:street": "Ko\u015bcielna",
                "addr:housenumber": "2",
                "addr:teryt:simc": 508951,
                "addr:teryt:sym_ul": 9546,
                "contact:phone": "+48 297579304",
                "contact:email": "pgwj@op.pl",
                "contact:website": "http:\/\/www.zswj.dabrowka.net.pl",
                "ref:regon": "001105882",
                "ref:vatin": "PL1251395025",
                "operator": "Gmina D\u0105br\u00f3wka",
                "operator:type": "government",
                "amenity": "school"
            }
        },
        {
            "id": 83822,
            "type": "Feature",
            "geometry": {
                "type": "Point",
                "coordinates": [
                    21.28907,
                    52.51591
                ]
            },
            "properties": {
                "ref:rspo": 83822,
                "official_name": "Przedszkole Samorz\u0105dowe \"Pod Weso\u0142ym Ekoludkiem\" w Dr\u0119szewie",
                "name": "Przedszkole Samorz\u0105dowe \"Pod Weso\u0142ym Ekoludkiem\" w Dr\u0119szewie",
                "addr:country": "PL",
                "addr:postcode": "05-252",
                "addr:city": "Dr\u0119szew",
                "addr:street": "Szkolna",
                "addr:housenumber": "4",
                "addr:teryt:simc": 508922,
                "addr:teryt:sym_ul": 21970,
                "contact:phone": "+48 297578084",
                "contact:email": "ekoludek13@wp.pl",
                "contact:website": "http:\/\/www.ekoprzedszkole.dabrowka.net.pl",
                "ref:regon": "000912899",
                "ref:vatin": "PL1251154729",
                "operator": "Gmina D\u0105br\u00f3wka",
                "operator:type": "government",
                "amenity": "kindergarten"
            }
        }
    ]
}