{"type":"FeatureCollection","features":[{"id":13244,"type":"Feature","geometry":{"type":"Point","coordinates":[21.28269,50.42613]},"properties":{"isced:level":"1;2","ref:rspo":13244,"official_name":"Szko\u0142a Podstawowa im. Tadeusza Ko\u015bciuszki w Po\u0142a\u0144cu","name":"Szko\u0142a Podstawowa","addr:country":"PL","addr:postcode":"28-230","addr:city":"Po\u0142aniec","addr:street":"ul. \u017bapniowska","addr:housenumber":"1","addr:teryt:simc":26398,"addr:teryt:sym_ul":980783,"contact:phone":"+48 158650731","contact:email":"psppolaniec@poczta.onet.pl","contact:website":"http:\/\/www.podstawowa.polaniec.pl","ref:regon":"000267915","ref:vatin":"PL8661521680","operator":"Gmina Po\u0142aniec","operator:type":"government","amenity":"school"}},{"id":13094,"type":"Feature","geometry":{"type":"Point","coordinates":[21.28379,50.4271699]},"properties":{"ref:rspo":13094,"official_name":"Przedszkole Publiczne Przy Ul. Madali\u0144skiego 1 w Po\u0142a\u0144cu","name":"Przedszkole Publiczne Przy Ul. Madali\u0144skiego 1 w Po\u0142a\u0144cu","addr:country":"PL","addr:postcode":"28-230","addr:city":"Po\u0142aniec","addr:street":"ul. gen. Antoniego J\u00f3zefa Madali\u0144skiego","addr:housenumber":"1","addr:teryt:simc":11879,"addr:teryt:sym_ul":980783,"contact:phone":"+48 158650916","contact:email":"przedszkole.polaniec@interia.pl","contact:website":"http:\/\/www.przedszkola.polaniec.pl","ref:regon":"830258084","ref:vatin":"PL8661521757","operator":"Gmina Po\u0142aniec","operator:type":"government","amenity":"kindergarten"}},{"id":41808,"type":"Feature","geometry":{"type":"Point","coordinates":[21.27792,50.42995]},"properties":{"ref:rspo":41808,"official_name":"Zesp\u00f3\u0142 Szk\u00f3\u0142 im. Oddzia\u0142u Partyzanckiego Ak \u201eJ\u0119drusie\u201d w Po\u0142a\u0144cu","name":"Zesp\u00f3\u0142 Szk\u00f3\u0142","addr:country":"PL","addr:postcode":"28-230","addr:city":"Po\u0142aniec","addr:street":"ul. Ruszcza\u0144ska","addr:housenumber":"23","addr:teryt:simc":19123,"addr:teryt:sym_ul":980783,"contact:phone":"+48 158650325","contact:email":"zspolan@poczta.fm","contact:website":"http:\/\/www.zspolaniec.pl","ref:regon":"292440675","ref:vatin":"PL8661017958","operator":"Powiat Staszowski","operator:type":"government","landuse":"education","fixme":"amenity=school, amenity=college albo landuse=education w zale\u017cno\u015bci od tego, jakie plac\u00f3wki wchodz\u0105 w sk\u0142ad zespo\u0142u. Sprawd\u017a, kiedy stosowa\u0107 amenity=* a kiedy landuse=education.","note":"Children RSPO: 62294;62295;64747"}},{"id":62294,"type":"Feature","geometry":{"type":"Point","coordinates":[21.27792,50.429919999999996]},"properties":{"isced:level":"3","ref:rspo":62294,"official_name":"Technikum w Zespole Szk\u00f3\u0142 im. Oddzia\u0142u Partyzanckiego Ak \u201eJ\u0119drusie\u201d w Po\u0142a\u0144cu","name":"Technikum w Zespole Szk\u00f3\u0142","addr:country":"PL","addr:postcode":"28-230","addr:city":"Po\u0142aniec","addr:street":"ul. Ruszcza\u0144ska","addr:housenumber":"23","addr:teryt:simc":19123,"addr:teryt:sym_ul":980783,"contact:phone":"+48 158650325","contact:email":"zspolan@poczta.fm","contact:website":"http:\/\/www.zspolaniec.pl","ref:regon":"292438135","ref:vatin":"PL8661017958","operator":"Powiat Staszowski","operator:type":"government","amenity":"school","note":"Parent RSPO: 41808"}},{"id":62295,"type":"Feature","geometry":{"type":"Point","coordinates":[21.27792,50.42989]},"properties":{"isced:level":"3","ref:rspo":62295,"official_name":"Bran\u017cowa Szko\u0142a I Stopnia w Zespole Szk\u00f3\u0142 im. Oddzia\u0142u Partyzanckiego Ak \u201eJ\u0119drusie\u201d w Po\u0142a\u0144cu","name":"Bran\u017cowa Szko\u0142a I Stopnia w Zespole Szk\u00f3\u0142","addr:country":"PL","addr:postcode":"28-230","addr:city":"Po\u0142aniec","addr:street":"ul. Ruszcza\u0144ska","addr:housenumber":"23","addr:teryt:simc":19123,"addr:teryt:sym_ul":980783,"contact:phone":"+48 158650325","contact:email":"zspolan@poczta.fm","contact:website":"http:\/\/www.zspolaniec.pl","ref:regon":"292438129","ref:vatin":"PL8661017958","operator":"Powiat Staszowski","operator:type":"government","amenity":"school","note":"Parent RSPO: 41808"}},{"id":64747,"type":"Feature","geometry":{"type":"Point","coordinates":[21.27792,50.42986]},"properties":{"isced:level":"3","ref:rspo":64747,"official_name":"Liceum Og\u00f3lnokszta\u0142c\u0105ce w Zespole Szk\u00f3\u0142 im. Oddzia\u0142u Partyzanckiego Ak \u201eJ\u0119drusie\u201d w Po\u0142a\u0144cu","name":"Liceum Og\u00f3lnokszta\u0142c\u0105ce w Zespole Szk\u00f3\u0142","addr:country":"PL","addr:postcode":"28-230","addr:city":"Po\u0142aniec","addr:street":"ul. Ruszcza\u0144ska","addr:housenumber":"23","addr:teryt:simc":19123,"addr:teryt:sym_ul":980783,"contact:phone":"+48 158650325","contact:email":"zspolan@poczta.fm","contact:website":"http:\/\/www.zspolaniec.pl","ref:regon":"292438075","ref:vatin":"PL8661017958","operator":"Powiat Staszowski","operator:type":"government","amenity":"school","note":"Parent RSPO: 41808"}},{"id":13549,"type":"Feature","geometry":{"type":"Point","coordinates":[21.24213,50.44194]},"properties":{"isced:level":"1;2","ref:rspo":13549,"official_name":"Szko\u0142a Podstawowa w Zr\u0119binie","name":"Szko\u0142a Podstawowa w Zr\u0119binie","addr:country":"PL","addr:postcode":"28-230","addr:place":"Zr\u0119bin","addr:housenumber":"38","addr:teryt:sym_ul":803800,"contact:phone":"+48 158650091","contact:email":"pspzrebin@poczta.fm","contact:website":"http:\/\/www.spzrebin.polaniec.eu","ref:regon":"001187762","ref:vatin":"PL8661521763","operator":"Gmina Po\u0142aniec","operator:type":"government","amenity":"school"}},{"id":13027,"type":"Feature","geometry":{"type":"Point","coordinates":[21.20615,50.52606]},"properties":{"ref:rspo":13027,"official_name":"Zesp\u00f3\u0142 Plac\u00f3wek O\u015bwiatowych w Ruszczy","name":"Zesp\u00f3\u0142 Plac\u00f3wek O\u015bwiatowych w Ruszczy","addr:country":"PL","addr:postcode":"28-230","addr:city":"Ruszcza","addr:street":"ul. Szkolna","addr:housenumber":"2","addr:teryt:simc":21970,"addr:teryt:sym_ul":803756,"contact:phone":"+48 158655888","contact:email":"zs_ruszcza@poczta.onet.pl","contact:website":"http:\/\/www.zporuszcza.polaniec.pl","ref:regon":"260037148","ref:vatin":"PL8661697551","operator":"Gmina Po\u0142aniec","operator:type":"government","landuse":"education","fixme":"amenity=school, amenity=college albo landuse=education w zale\u017cno\u015bci od tego, jakie plac\u00f3wki wchodz\u0105 w sk\u0142ad zespo\u0142u. Sprawd\u017a, kiedy stosowa\u0107 amenity=* a kiedy landuse=education.","note":"Children RSPO: 17364;17399"}},{"id":17364,"type":"Feature","geometry":{"type":"Point","coordinates":[21.20615,50.52603]},"properties":{"isced:level":"1;2","ref:rspo":17364,"official_name":"Szko\u0142a Podstawowa w Ruszczy","name":"Szko\u0142a Podstawowa w Ruszczy","addr:country":"PL","addr:postcode":"28-230","addr:city":"Ruszcza","addr:street":"ul. Szkolna","addr:housenumber":"2","addr:teryt:simc":21970,"addr:teryt:sym_ul":803756,"contact:phone":"+48 158655888","contact:email":"zs_ruszcza@poczta.onet.pl","contact:website":"http:\/\/www.zporuszcza.polaniec.pl","ref:regon":"001187756","operator":"Gmina Po\u0142aniec","operator:type":"government","amenity":"school","note":"Parent RSPO: 13027"}},{"id":17399,"type":"Feature","geometry":{"type":"Point","coordinates":[21.20615,50.526]},"properties":{"ref:rspo":17399,"official_name":"Przedszkole w Ruszczy","name":"Przedszkole w Ruszczy","addr:country":"PL","addr:postcode":"28-230","addr:city":"Ruszcza","addr:street":"ul. Szkolna","addr:housenumber":"2","addr:teryt:simc":21970,"addr:teryt:sym_ul":803756,"contact:phone":"+48 158655888","contact:email":"zs_ruszcza@poczta.onet.pl","contact:website":"http:\/\/www.zporuszcza.polaniec.pl","ref:regon":"830258121","operator":"Gmina Po\u0142aniec","operator:type":"government","amenity":"kindergarten","note":"Parent RSPO: 13027"}}]}