{
    "type": "FeatureCollection",
    "features": [
        {
            "id": 41122,
            "type": "Feature",
            "geometry": {
                "type": "Point",
                "coordinates": [
                    20.99523,
                    50.58838
                ]
            },
            "properties": {
                "ref:rspo": 41122,
                "official_name": "Publiczne Przedszkole w Szyd\u0142owie",
                "name": "Publiczne Przedszkole w Szyd\u0142owie",
                "addr:postcode": "28-225",
                "addr:city": "Szyd\u0142\u00f3w",
                "addr:street": "Kielecka",
                "addr:housenumber": "17",
                "addr:teryt:simc": 275062,
                "addr:teryt:sym_ul": 8379,
                "phone": "+48 609202248",
                "email": "szydlowprzedszkole@gmail.com",
                "website": "http:\/\/www.przedszkoleszydlow.szkolnastrona.pl",
                "ref:regon": "290012969",
                "ref:vatin": "PL8661712003",
                "operator": "Gmina Szyd\u0142\u00f3w",
                "operator:type": "government",
                "amenity": "kindergarten"
            }
        },
        {
            "id": 41119,
            "type": "Feature",
            "geometry": {
                "type": "Point",
                "coordinates": [
                    21.00003,
                    50.59116
                ]
            },
            "properties": {
                "isced:level": "1;2",
                "ref:rspo": 41119,
                "official_name": "Szko\u0142a Podstawowa im. Jana Kaczorowskiego w Szyd\u0142owie",
                "name": "Szko\u0142a Podstawowa",
                "addr:postcode": "28-225",
                "addr:city": "Szyd\u0142\u00f3w",
                "addr:street": "Szkolna",
                "addr:housenumber": "10 i 12",
                "addr:teryt:simc": 275062,
                "addr:teryt:sym_ul": 21970,
                "phone": "+48 413545114",
                "email": "szkolaszydlow@wp.pl",
                "ref:regon": "000586402",
                "ref:vatin": "PL8661528802",
                "operator": "Gmina Szyd\u0142\u00f3w",
                "operator:type": "government",
                "amenity": "school"
            }
        },
        {
            "id": 275484,
            "type": "Feature",
            "geometry": {
                "type": "Point",
                "coordinates": [
                    20.95566,
                    50.65276
                ]
            },
            "properties": {
                "ref:rspo": 275484,
                "official_name": "Punkt Przedszkolny \u201eKraina U\u015bmiechu\u201d w Potoku",
                "name": "Punkt Przedszkolny \u201eKraina U\u015bmiechu\u201d w Potoku",
                "addr:postcode": "28-225",
                "addr:place": "Potok",
                "addr:housenumber": "99",
                "addr:teryt:simc": 274938,
                "phone": "+48 725879501",
                "email": "krainausmiechu.stow@wp.pl",
                "ref:regon": "386933988",
                "operator": "Stowarzyszenie \"Kraina U\u015bmiechu\"",
                "operator:type": "ngo",
                "amenity": "kindergarten"
            }
        },
        {
            "id": 41120,
            "type": "Feature",
            "geometry": {
                "type": "Point",
                "coordinates": [
                    21.27344,
                    50.72852
                ]
            },
            "properties": {
                "isced:level": "1;2",
                "ref:rspo": 41120,
                "official_name": "Szko\u0142a Podstawowa w Solcu Starym",
                "name": "Szko\u0142a Podstawowa w Solcu Starym",
                "addr:postcode": "28-225",
                "addr:place": "Solec",
                "addr:housenumber": "22",
                "addr:teryt:simc": 1067012,
                "phone": "+48 698700494",
                "email": "spsolec@szydlow.pl",
                "ref:regon": "290418967",
                "ref:vatin": "PL8661528794",
                "operator": "Gmina Szyd\u0142\u00f3w",
                "operator:type": "government",
                "amenity": "school"
            }
        },
        {
            "id": 111181,
            "type": "Feature",
            "geometry": {
                "type": "Point",
                "coordinates": [
                    21.27344,
                    50.72849
                ]
            },
            "properties": {
                "ref:rspo": 111181,
                "official_name": "Publiczne Przedszkole \u201eKraina U\u015bmiechu\u201d w Solcu",
                "name": "Publiczne Przedszkole \u201eKraina U\u015bmiechu\u201d w Solcu",
                "addr:postcode": "28-225",
                "addr:place": "Solec",
                "addr:housenumber": "22",
                "addr:teryt:simc": 1067012,
                "phone": "+48 725879501",
                "email": "krainausmiechu.stow@wp.pl",
                "ref:regon": "260675334",
                "operator": "Stowarzyszenie \"Kraina U\u015bmiechu\"",
                "operator:type": "ngo",
                "amenity": "kindergarten"
            }
        }
    ]
}