{
    "type": "FeatureCollection",
    "features": [
        {
            "id": 12891,
            "type": "Feature",
            "geometry": {
                "type": "Point",
                "coordinates": [
                    21.37032,
                    50.63508
                ]
            },
            "properties": {
                "ref:rspo": 12891,
                "official_name": "Zesp\u00f3\u0142 Plac\u00f3wek O\u015bwiatowych - Publiczna Szko\u0142a Podstawowa I Przedszkole w Jurkowicach",
                "name": "Zesp\u00f3\u0142 Plac\u00f3wek O\u015bwiatowych - Publiczna Szko\u0142a Podstawowa I Przedszkole w Jurkowicach",
                "addr:postcode": "28-210",
                "addr:place": "Jurkowice",
                "addr:housenumber": "80",
                "addr:city:simc": 788229,
                "phone": "+48 158675210",
                "email": "szkolajurkowice@op.pl",
                "website": "http:\/\/www.zpojurkowice.szkolnastrona.pl",
                "ref:regon": "260035758",
                "ref:vatin": "PL8661712902",
                "operator": "Gmina Bogoria",
                "operator:type": "government",
                "landuse": "education",
                "fixme": "amenity=school, amenity=college albo landuse=education w zale\u017cno\u015bci od tego, jakie plac\u00f3wki wchodz\u0105 w sk\u0142ad zespo\u0142u. Sprawd\u017a, kiedy stosowa\u0107 amenity=* a kiedy landuse=education.",
                "note": "Children RSPO: 17394;17395"
            }
        },
        {
            "id": 17394,
            "type": "Feature",
            "geometry": {
                "type": "Point",
                "coordinates": [
                    21.37032,
                    50.63505
                ]
            },
            "properties": {
                "isced:level": "1;2",
                "ref:rspo": 17394,
                "official_name": "Publiczna Szko\u0142a Podstawowa w Jurkowicach",
                "name": "Publiczna Szko\u0142a Podstawowa w Jurkowicach",
                "addr:postcode": "28-210",
                "addr:place": "Jurkowice",
                "addr:housenumber": "80",
                "addr:city:simc": 788229,
                "phone": "+48 158675210",
                "email": "szkolajurkowice@op.pl",
                "website": "http:\/\/www.zpojurkowice.szkolnastrona.pl",
                "ref:regon": "001184597",
                "ref:vatin": "PL8661576557",
                "operator": "Gmina Bogoria",
                "operator:type": "government",
                "amenity": "school",
                "note": "Parent RSPO: 12891"
            }
        },
        {
            "id": 17395,
            "type": "Feature",
            "geometry": {
                "type": "Point",
                "coordinates": [
                    21.37032,
                    50.635020000000004
                ]
            },
            "properties": {
                "ref:rspo": 17395,
                "official_name": "Publiczne Przedszkole w Jurkowicach",
                "name": "Publiczne Przedszkole w Jurkowicach",
                "addr:postcode": "28-210",
                "addr:place": "Jurkowice",
                "addr:housenumber": "80",
                "addr:city:simc": 788229,
                "phone": "+48 158675210",
                "email": "szkolajurkowice@op.pl",
                "website": "http:\/\/zpojurkowice.szkolnastrona.pl",
                "ref:regon": "292424890",
                "ref:vatin": "PL8661653105",
                "operator": "Gmina Bogoria",
                "operator:type": "government",
                "amenity": "kindergarten",
                "note": "Parent RSPO: 12891"
            }
        },
        {
            "id": 271857,
            "type": "Feature",
            "geometry": {
                "type": "Point",
                "coordinates": [
                    21.2579,
                    50.64868
                ]
            },
            "properties": {
                "ref:rspo": 271857,
                "official_name": "Zesp\u00f3\u0142 Plac\u00f3wek O\u015bwiatowych w Bogorii",
                "name": "Zesp\u00f3\u0142 Plac\u00f3wek O\u015bwiatowych w Bogorii",
                "addr:postcode": "28-210",
                "addr:city": "Bogoria",
                "addr:street": "Po\u0142udniowa",
                "addr:housenumber": "2",
                "addr:city:simc": 788070,
                "addr:street:sym_ul": 17070,
                "phone": "+48 158674026",
                "email": "pspbog@gazeta.pl",
                "ref:regon": "383700551",
                "ref:vatin": "PL8661741743",
                "operator": "Gmina Bogoria",
                "operator:type": "government",
                "landuse": "education",
                "fixme": "amenity=school, amenity=college albo landuse=education w zale\u017cno\u015bci od tego, jakie plac\u00f3wki wchodz\u0105 w sk\u0142ad zespo\u0142u. Sprawd\u017a, kiedy stosowa\u0107 amenity=* a kiedy landuse=education.",
                "note": "Children RSPO: 12782;12866;17397;272019"
            }
        },
        {
            "id": 12782,
            "type": "Feature",
            "geometry": {
                "type": "Point",
                "coordinates": [
                    21.2579,
                    50.648649999999996
                ]
            },
            "properties": {
                "ref:rspo": 12782,
                "official_name": "Publiczne Przedszkole w Bogorii",
                "name": "Publiczne Przedszkole w Bogorii",
                "addr:postcode": "28-210",
                "addr:city": "Bogoria",
                "addr:street": "Po\u0142udniowa",
                "addr:housenumber": "2",
                "addr:city:simc": 788070,
                "addr:street:sym_ul": 17070,
                "phone": "+48 158674026",
                "email": "pspbog@gazeta.pl",
                "website": "http:\/\/www.zpobogoria.pl",
                "ref:regon": "830006744",
                "ref:vatin": "PL8661577108",
                "operator": "Gmina Bogoria",
                "operator:type": "government",
                "amenity": "kindergarten",
                "note": "Parent RSPO: 271857"
            }
        },
        {
            "id": 12866,
            "type": "Feature",
            "geometry": {
                "type": "Point",
                "coordinates": [
                    21.2579,
                    50.64862
                ]
            },
            "properties": {
                "isced:level": "1;2",
                "ref:rspo": 12866,
                "official_name": "Publiczna Szko\u0142a Podstawowa w Bogorii",
                "name": "Publiczna Szko\u0142a Podstawowa w Bogorii",
                "addr:postcode": "28-210",
                "addr:city": "Bogoria",
                "addr:street": "Po\u0142udniowa",
                "addr:housenumber": "2",
                "addr:city:simc": 788070,
                "addr:street:sym_ul": 17070,
                "phone": "+48 158674026",
                "email": "pspbog@gazeta.pl",
                "website": "http:\/\/www.zpobogoria.pl",
                "ref:regon": "000265359",
                "ref:vatin": "PL8661575954",
                "operator": "Gmina Bogoria",
                "operator:type": "government",
                "amenity": "school",
                "note": "Parent RSPO: 271857"
            }
        },
        {
            "id": 17397,
            "type": "Feature",
            "geometry": {
                "type": "Point",
                "coordinates": [
                    21.2579,
                    50.64859
                ]
            },
            "properties": {
                "isced:level": "3",
                "ref:rspo": 17397,
                "official_name": "Liceum Og\u00f3lnokszta\u0142c\u0105ce im. Jana Paw\u0142a II w Bogorii",
                "name": "Liceum Og\u00f3lnokszta\u0142c\u0105ce",
                "addr:postcode": "28-210",
                "addr:city": "Bogoria",
                "addr:street": "Po\u0142udniowa",
                "addr:housenumber": "2",
                "addr:city:simc": 788070,
                "addr:street:sym_ul": 17070,
                "phone": "+48 158674026",
                "email": "pspbog@gazeta.pl",
                "website": "http:\/\/www.zpobogoria.pl",
                "ref:regon": "292676805",
                "ref:vatin": "PL8661617084",
                "operator": "Gmina Bogoria",
                "operator:type": "government",
                "amenity": "school",
                "note": "Parent RSPO: 271857"
            }
        },
        {
            "id": 272019,
            "type": "Feature",
            "geometry": {
                "type": "Point",
                "coordinates": [
                    21.2579,
                    50.648559999999996
                ]
            },
            "properties": {
                "isced:level": "3",
                "ref:rspo": 272019,
                "official_name": "Szko\u0142a Bran\u017cowa I Stopnia w Zespole Plac\u00f3wek O\u015bwiatowych w Bogorii",
                "name": "Szko\u0142a Bran\u017cowa I Stopnia w Zespole Plac\u00f3wek O\u015bwiatowych w Bogorii",
                "addr:postcode": "28-210",
                "addr:city": "Bogoria",
                "addr:street": "Po\u0142udniowa",
                "addr:housenumber": "2",
                "addr:city:simc": 788070,
                "addr:street:sym_ul": 17070,
                "phone": "+48 158674026",
                "email": "pspbog@gazeta.pl",
                "website": "http:\/\/www.zpobogoria.pl",
                "ref:regon": "383877002",
                "operator": "Gmina Bogoria",
                "operator:type": "government",
                "amenity": "school",
                "note": "Parent RSPO: 271857"
            }
        },
        {
            "id": 12984,
            "type": "Feature",
            "geometry": {
                "type": "Point",
                "coordinates": [
                    21.31514,
                    50.67779
                ]
            },
            "properties": {
                "ref:rspo": 12984,
                "official_name": "Zesp\u00f3\u0142 Plac\u00f3wek O\u015bwiatowych - Publiczna Szko\u0142a Podstawowa I Przedszkole w Szczeglicach",
                "name": "Zesp\u00f3\u0142 Plac\u00f3wek O\u015bwiatowych - Publiczna Szko\u0142a Podstawowa I Przedszkole w Szczeglicach",
                "addr:postcode": "28-210",
                "addr:place": "Szczeglice",
                "addr:housenumber": "48",
                "addr:city:simc": 788554,
                "phone": "+48 158603121",
                "email": "szczeglice@o2.pl",
                "website": "http:\/\/www.szczeglice.szkolnastrona.pl",
                "ref:regon": "260035741",
                "ref:vatin": "PL8661712888",
                "operator": "Gmina Bogoria",
                "operator:type": "government",
                "landuse": "education",
                "fixme": "amenity=school, amenity=college albo landuse=education w zale\u017cno\u015bci od tego, jakie plac\u00f3wki wchodz\u0105 w sk\u0142ad zespo\u0142u. Sprawd\u017a, kiedy stosowa\u0107 amenity=* a kiedy landuse=education.",
                "note": "Children RSPO: 17392;17393"
            }
        },
        {
            "id": 17392,
            "type": "Feature",
            "geometry": {
                "type": "Point",
                "coordinates": [
                    21.31514,
                    50.67776
                ]
            },
            "properties": {
                "isced:level": "1;2",
                "ref:rspo": 17392,
                "official_name": "Publiczna Szko\u0142a Podstawowa w Szczeglicach",
                "name": "Publiczna Szko\u0142a Podstawowa w Szczeglicach",
                "addr:postcode": "28-210",
                "addr:place": "Szczeglice",
                "addr:housenumber": "48",
                "addr:city:simc": 788554,
                "phone": "+48 158603121",
                "email": "szczeglice@o2.pl",
                "website": "http:\/\/www.szczeglice.szkolnastrona.pl",
                "ref:regon": "001184580",
                "ref:vatin": "PL8661576540",
                "operator": "Gmina Bogoria",
                "operator:type": "government",
                "amenity": "school",
                "note": "Parent RSPO: 12984"
            }
        },
        {
            "id": 17393,
            "type": "Feature",
            "geometry": {
                "type": "Point",
                "coordinates": [
                    21.31514,
                    50.677730000000004
                ]
            },
            "properties": {
                "ref:rspo": 17393,
                "official_name": "Publiczne Przedszkole w Szczeglicach",
                "name": "Publiczne Przedszkole w Szczeglicach",
                "addr:postcode": "28-210",
                "addr:place": "Szczeglice",
                "addr:housenumber": "48",
                "addr:city:simc": 788554,
                "phone": "+48 158603121",
                "email": "szczeglice@o2.pl",
                "website": "http:\/\/www.szczeglice.szkolnastrona.pl",
                "ref:regon": "292424914",
                "ref:vatin": "PL8661617581",
                "operator": "Gmina Bogoria",
                "operator:type": "government",
                "amenity": "kindergarten",
                "note": "Parent RSPO: 12984"
            }
        },
        {
            "id": 12876,
            "type": "Feature",
            "geometry": {
                "type": "Point",
                "coordinates": [
                    21.15737,
                    50.67946
                ]
            },
            "properties": {
                "isced:level": "1;2",
                "ref:rspo": 12876,
                "official_name": "Publiczna Szko\u0142a Podstawowa w Nied\u017awiedziu",
                "name": "Publiczna Szko\u0142a Podstawowa w Nied\u017awiedziu",
                "addr:postcode": "28-210",
                "addr:place": "Nied\u017awied\u017a",
                "addr:housenumber": "24",
                "addr:city:simc": 788442,
                "phone": "+48 158677111",
                "email": "pspniedzwiedz@gmail.com",
                "website": "http:\/\/www.pspniedzwiedz.szkolnastrona.pl",
                "ref:regon": "001184568",
                "ref:vatin": "PL8661572996",
                "operator": "Gmina Bogoria",
                "operator:type": "government",
                "amenity": "school"
            }
        }
    ]
}