{
    "type": "FeatureCollection",
    "features": [
        {
            "id": 17661,
            "type": "Feature",
            "geometry": {
                "type": "Point",
                "coordinates": [
                    21.11605,
                    50.52119
                ]
            },
            "properties": {
                "ref:rspo": 17661,
                "official_name": "Zesp\u00f3\u0142 Plac\u00f3wek O\u015bwiatowych - Publiczna Szko\u0142a Podstawowa im. Tadeusza Ko\u015bciuszki I Przedszkole w Koniem\u0142otach",
                "name": "Zesp\u00f3\u0142 Plac\u00f3wek O\u015bwiatowych - Publiczna Szko\u0142a Podstawowa",
                "addr:postcode": "28-200",
                "addr:city": "Koniem\u0142oty",
                "addr:street": "Staszowska",
                "addr:housenumber": "7",
                "addr:city:simc": 807412,
                "addr:street:sym_ul": 21073,
                "phone": "+48 158667181",
                "email": "zpokoniemloty@wp.pl",
                "website": "http:\/\/zpokoniemloty.staszow.pl",
                "ref:regon": "260042876",
                "ref:vatin": "PL8661712807",
                "operator": "Gmina Stasz\u00f3w",
                "operator:type": "government",
                "landuse": "education",
                "fixme": "amenity=school, amenity=college albo landuse=education w zale\u017cno\u015bci od tego, jakie plac\u00f3wki wchodz\u0105 w sk\u0142ad zespo\u0142u. Sprawd\u017a, kiedy stosowa\u0107 amenity=* a kiedy landuse=education.",
                "note": "Children RSPO: 19457;19481"
            }
        },
        {
            "id": 19457,
            "type": "Feature",
            "geometry": {
                "type": "Point",
                "coordinates": [
                    21.11605,
                    50.521159999999995
                ]
            },
            "properties": {
                "isced:level": "1;2",
                "ref:rspo": 19457,
                "official_name": "Publiczna Szko\u0142a Podstawowa im. Tadeusza Ko\u015bciuszki w Koniem\u0142otach",
                "name": "Publiczna Szko\u0142a Podstawowa",
                "addr:postcode": "28-200",
                "addr:city": "Koniem\u0142oty",
                "addr:street": "Staszowska",
                "addr:housenumber": "7",
                "addr:city:simc": 807412,
                "addr:street:sym_ul": 21073,
                "phone": "+48 158667181",
                "email": "zpokoniemloty@wp.pl",
                "website": "http:\/\/zpokoniemloty.staszow.pl",
                "ref:regon": "001187874",
                "operator": "Gmina Stasz\u00f3w",
                "operator:type": "government",
                "amenity": "school",
                "note": "Parent RSPO: 17661"
            }
        },
        {
            "id": 19481,
            "type": "Feature",
            "geometry": {
                "type": "Point",
                "coordinates": [
                    21.11605,
                    50.52113
                ]
            },
            "properties": {
                "ref:rspo": 19481,
                "official_name": "Przedszkole w Koniem\u0142otach",
                "name": "Przedszkole w Koniem\u0142otach",
                "addr:postcode": "28-200",
                "addr:city": "Koniem\u0142oty",
                "addr:street": "Staszowska",
                "addr:housenumber": "7",
                "addr:city:simc": 807412,
                "addr:street:sym_ul": 21073,
                "phone": "+48 158667181",
                "email": "zpokoniemloty@wp.pl",
                "website": "http:\/\/zpokoniemloty.staszow.pl",
                "ref:regon": "291179281",
                "operator": "Gmina Stasz\u00f3w",
                "operator:type": "government",
                "amenity": "kindergarten",
                "note": "Parent RSPO: 17661"
            }
        },
        {
            "id": 17401,
            "type": "Feature",
            "geometry": {
                "type": "Point",
                "coordinates": [
                    21.18007,
                    50.55765
                ]
            },
            "properties": {
                "isced:level": "1;2",
                "ref:rspo": 17401,
                "official_name": "Publiczna Szko\u0142a Podstawowa nr 3 im. Hieronima \u0141askiego w Staszowie",
                "name": "Publiczna Szko\u0142a Podstawowa nr 3",
                "addr:postcode": "28-200",
                "addr:city": "Stasz\u00f3w",
                "addr:street": "Adama Mickiewicza",
                "addr:housenumber": "40",
                "addr:city:simc": 981274,
                "addr:street:sym_ul": 12740,
                "phone": "+48 158645460",
                "email": "psp3staszow@op.pl",
                "website": "http:\/\/www.sp3.staszow.pl",
                "ref:regon": "830027870",
                "ref:vatin": "PL8661539906",
                "operator": "Gmina Stasz\u00f3w",
                "operator:type": "government",
                "amenity": "school"
            }
        },
        {
            "id": 18193,
            "type": "Feature",
            "geometry": {
                "type": "Point",
                "coordinates": [
                    21.17709,
                    50.55845
                ]
            },
            "properties": {
                "ref:rspo": 18193,
                "official_name": "Przedszkole nr 8 im. Jana Christiana Andersena z Oddzia\u0142ami Integracyjnymi w Staszowie",
                "name": "Przedszkole nr 8",
                "addr:postcode": "28-200",
                "addr:city": "Stasz\u00f3w",
                "addr:street": "Jana Kili\u0144skiego",
                "addr:housenumber": "20",
                "addr:city:simc": 981274,
                "addr:street:sym_ul": 8435,
                "phone": "+48 158641484",
                "email": "pnr_8@vp.pl",
                "website": "http:\/\/www.przedszkole8.staszow.pl",
                "ref:regon": "291178360",
                "ref:vatin": "PL8661545982",
                "operator": "Gmina Stasz\u00f3w",
                "operator:type": "government",
                "amenity": "kindergarten"
            }
        },
        {
            "id": 18484,
            "type": "Feature",
            "geometry": {
                "type": "Point",
                "coordinates": [
                    21.1682099,
                    50.55878
                ]
            },
            "properties": {
                "ref:rspo": 18484,
                "official_name": "Zesp\u00f3\u0142 Plac\u00f3wek O\u015bwiatowych - Publiczna Szko\u0142a Podstawowa nr 1 im. Tadeusza Ko\u015bciuszki I Przedszkole nr 4 im. Tadeusza Ko\u015bciuszki w Staszowie",
                "name": "Zesp\u00f3\u0142 Plac\u00f3wek O\u015bwiatowych - Publiczna Szko\u0142a Podstawowa nr 1",
                "addr:postcode": "28-200",
                "addr:city": "Stasz\u00f3w",
                "addr:street": "Wysoka",
                "addr:housenumber": "39",
                "addr:city:simc": 981274,
                "addr:street:sym_ul": 25067,
                "phone": "+48 158642206",
                "email": "sp1.staszow@op.pl",
                "website": "http:\/\/www.kosciuszko.edu.pl",
                "ref:regon": "260042497",
                "ref:vatin": "PL8661712925",
                "operator": "Gmina Stasz\u00f3w",
                "operator:type": "government",
                "landuse": "education",
                "fixme": "amenity=school, amenity=college albo landuse=education w zale\u017cno\u015bci od tego, jakie plac\u00f3wki wchodz\u0105 w sk\u0142ad zespo\u0142u. Sprawd\u017a, kiedy stosowa\u0107 amenity=* a kiedy landuse=education.",
                "note": "Children RSPO: 20512;20592"
            }
        },
        {
            "id": 20512,
            "type": "Feature",
            "geometry": {
                "type": "Point",
                "coordinates": [
                    21.1682099,
                    50.558749999999996
                ]
            },
            "properties": {
                "isced:level": "1;2",
                "ref:rspo": 20512,
                "official_name": "Publiczna Szko\u0142a Podstawowa nr 1 im. Tadeusza Ko\u015bciuszki w Staszowie",
                "name": "Publiczna Szko\u0142a Podstawowa nr 1",
                "addr:postcode": "28-200",
                "addr:city": "Stasz\u00f3w",
                "addr:street": "Wysoka",
                "addr:housenumber": "39",
                "addr:city:simc": 981274,
                "addr:street:sym_ul": 25067,
                "phone": "+48 158642206",
                "email": "sp1.staszow@op.pl",
                "website": "http:\/\/www.kosciuszko.edu.pl",
                "ref:regon": "000586394",
                "operator": "Gmina Stasz\u00f3w",
                "operator:type": "government",
                "amenity": "school",
                "note": "Parent RSPO: 18484"
            }
        },
        {
            "id": 20592,
            "type": "Feature",
            "geometry": {
                "type": "Point",
                "coordinates": [
                    21.1682099,
                    50.55872
                ]
            },
            "properties": {
                "ref:rspo": 20592,
                "official_name": "Przedszkole nr 4 im. Tadeusza Ko\u015bciuszki w Staszowie",
                "name": "Przedszkole nr 4",
                "addr:postcode": "28-200",
                "addr:city": "Stasz\u00f3w",
                "addr:street": "Wysoka",
                "addr:housenumber": "39",
                "addr:city:simc": 981274,
                "addr:street:sym_ul": 25067,
                "phone": "+48 158642206",
                "email": "sp1.staszow@op.pl",
                "website": "http:\/\/www.kosciuszko.edu.pl",
                "ref:regon": "291178399",
                "operator": "Gmina Stasz\u00f3w",
                "operator:type": "government",
                "amenity": "kindergarten",
                "note": "Parent RSPO: 18484"
            }
        },
        {
            "id": 40165,
            "type": "Feature",
            "geometry": {
                "type": "Point",
                "coordinates": [
                    21.16062,
                    50.56042
                ]
            },
            "properties": {
                "ref:rspo": 40165,
                "official_name": "Publiczna Poradnia Psychologiczno-Pedagogiczna w Staszowie",
                "name": "Publiczna Poradnia Psychologiczno-Pedagogiczna w Staszowie",
                "addr:postcode": "28-200",
                "addr:city": "Stasz\u00f3w",
                "addr:street": "Koszarowa",
                "addr:housenumber": "7",
                "addr:city:simc": 981274,
                "addr:street:sym_ul": 9512,
                "phone": "+48 158643759",
                "email": "staszpor@op.pl",
                "website": "http:\/\/pppstaszow.staszowski.eu\/",
                "ref:regon": "292696200",
                "ref:vatin": "PL8661040851",
                "operator": "Powiat Staszowski",
                "operator:type": "government",
                "healthcare": "counselling",
                "counselling_type": "education",
                "fixme": "w zale\u017cno\u015bci od przedmiotu dzia\u0142alno\u015bci (np. healthcare=counselling + counselling_type=education albo healthcare=psychotherapist)"
            }
        },
        {
            "id": 40167,
            "type": "Feature",
            "geometry": {
                "type": "Point",
                "coordinates": [
                    21.16062,
                    50.56039
                ]
            },
            "properties": {
                "ref:rspo": 40167,
                "official_name": "Centrum Kszta\u0142cenia Zawodowego w Staszowie Zdz w Kielcach",
                "name": "Centrum Kszta\u0142cenia Zawodowego w Staszowie Zdz w Kielcach",
                "addr:postcode": "28-200",
                "addr:city": "Stasz\u00f3w",
                "addr:street": "Koszarowa",
                "addr:housenumber": "7",
                "addr:city:simc": 981274,
                "addr:street:sym_ul": 9512,
                "phone": "+48 158644055",
                "email": "staszow@zdz.kielce.pl",
                "ref:regon": "260640672",
                "operator": "Zak\u0142ad Doskonalenia Zawodowego W Kielcach",
                "operator:type": "ngo",
                "amenity": "school",
                "fixme": "amenity=school lub amenity=college",
                "note": "Children RSPO: 82563;82565;275739"
            }
        },
        {
            "id": 41806,
            "type": "Feature",
            "geometry": {
                "type": "Point",
                "coordinates": [
                    21.16062,
                    50.56036
                ]
            },
            "properties": {
                "ref:rspo": 41806,
                "official_name": "Zesp\u00f3\u0142 Szk\u00f3\u0142 im. Stanis\u0142awa Staszica w Staszowie",
                "name": "Zesp\u00f3\u0142 Szk\u00f3\u0142",
                "addr:postcode": "28-200",
                "addr:city": "Stasz\u00f3w",
                "addr:street": "Koszarowa",
                "addr:housenumber": "7",
                "addr:city:simc": 981274,
                "addr:street:sym_ul": 9512,
                "phone": "+48 158642539",
                "email": "zsstaszow@poczta.fm",
                "website": "http:\/\/www.zsstaszow.pl",
                "ref:regon": "292030693",
                "ref:vatin": "PL8661085977",
                "operator": "Powiat Staszowski",
                "operator:type": "government",
                "landuse": "education",
                "fixme": "amenity=school, amenity=college albo landuse=education w zale\u017cno\u015bci od tego, jakie plac\u00f3wki wchodz\u0105 w sk\u0142ad zespo\u0142u. Sprawd\u017a, kiedy stosowa\u0107 amenity=* a kiedy landuse=education.",
                "note": "Children RSPO: 64743;64744;64746;277335;278353"
            }
        },
        {
            "id": 82563,
            "type": "Feature",
            "geometry": {
                "type": "Point",
                "coordinates": [
                    21.16062,
                    50.56033
                ]
            },
            "properties": {
                "isced:level": "4",
                "ref:rspo": 82563,
                "official_name": "Niepubliczna Szko\u0142a Policealna w Staszowie Zdz w Kielcach",
                "name": "Niepubliczna Szko\u0142a Policealna w Staszowie Zdz w Kielcach",
                "addr:postcode": "28-200",
                "addr:city": "Stasz\u00f3w",
                "addr:street": "Koszarowa",
                "addr:housenumber": "7",
                "addr:city:simc": 981274,
                "addr:street:sym_ul": 9512,
                "phone": "+48 158644055",
                "email": "staszow@zdz.kielce.pl",
                "ref:regon": "260650593",
                "operator": "Zak\u0142ad Doskonalenia Zawodowego W Kielcach",
                "operator:type": "ngo",
                "amenity": "college",
                "note": "Parent RSPO: 40167"
            }
        },
        {
            "id": 82565,
            "type": "Feature",
            "geometry": {
                "type": "Point",
                "coordinates": [
                    21.16062,
                    50.5603
                ]
            },
            "properties": {
                "isced:level": "3",
                "ref:rspo": 82565,
                "official_name": "Niepubliczne Liceum Og\u00f3lnokszta\u0142c\u0105ce dla Doros\u0142ych w Staszowie Zdz w Kielcach",
                "name": "Niepubliczne Liceum Og\u00f3lnokszta\u0142c\u0105ce dla Doros\u0142ych w Staszowie Zdz w Kielcach",
                "addr:postcode": "28-200",
                "addr:city": "Stasz\u00f3w",
                "addr:street": "Koszarowa",
                "addr:housenumber": "7",
                "addr:city:simc": 981274,
                "addr:street:sym_ul": 9512,
                "phone": "+48 158644055",
                "email": "staszow@zdz.kielce.pl",
                "ref:regon": "260650535",
                "operator": "Zak\u0142ad Doskonalenia Zawodowego W Kielcach",
                "operator:type": "ngo",
                "amenity": "school",
                "note": "Parent RSPO: 40167"
            }
        },
        {
            "id": 275739,
            "type": "Feature",
            "geometry": {
                "type": "Point",
                "coordinates": [
                    21.16062,
                    50.56027
                ]
            },
            "properties": {
                "isced:level": "3",
                "ref:rspo": 275739,
                "official_name": "Niepubliczna Bran\u017cowa Szko\u0142a II Stopnia w Staszowie",
                "name": "Niepubliczna Bran\u017cowa Szko\u0142a II Stopnia w Staszowie",
                "addr:postcode": "28-200",
                "addr:city": "Stasz\u00f3w",
                "addr:street": "Koszarowa",
                "addr:housenumber": "7",
                "addr:city:simc": 981274,
                "addr:street:sym_ul": 9512,
                "phone": "+48 158644055",
                "email": "staszow@zdz.kielce.pl",
                "ref:regon": "386937650",
                "operator": "Zak\u0142ad Doskonalenia Zawodowego W Kielcach",
                "operator:type": "ngo",
                "amenity": "school",
                "note": "Parent RSPO: 40167"
            }
        },
        {
            "id": 64743,
            "type": "Feature",
            "geometry": {
                "type": "Point",
                "coordinates": [
                    21.16062,
                    50.56024
                ]
            },
            "properties": {
                "isced:level": "3",
                "ref:rspo": 64743,
                "official_name": "Liceum Og\u00f3lnokszta\u0142c\u0105ce w Zespole Szk\u00f3\u0142 im. Stanis\u0142awa Staszica w Staszowie",
                "name": "Liceum Og\u00f3lnokszta\u0142c\u0105ce w Zespole Szk\u00f3\u0142",
                "addr:postcode": "28-200",
                "addr:city": "Stasz\u00f3w",
                "addr:street": "Koszarowa",
                "addr:housenumber": "7",
                "addr:city:simc": 981274,
                "addr:street:sym_ul": 9512,
                "phone": "+48 158642539",
                "email": "zsstaszow@poczta.fm",
                "website": "http:\/\/www.zsstaszow.pl",
                "ref:regon": "292451118",
                "ref:vatin": "PL8661085977",
                "operator": "Powiat Staszowski",
                "operator:type": "government",
                "amenity": "school",
                "note": "Parent RSPO: 41806"
            }
        },
        {
            "id": 64744,
            "type": "Feature",
            "geometry": {
                "type": "Point",
                "coordinates": [
                    21.16062,
                    50.56021
                ]
            },
            "properties": {
                "isced:level": "3",
                "ref:rspo": 64744,
                "official_name": "Technikum w Zespole Szk\u00f3\u0142 im. Stanis\u0142awa Staszica w Staszowie",
                "name": "Technikum w Zespole Szk\u00f3\u0142",
                "addr:postcode": "28-200",
                "addr:city": "Stasz\u00f3w",
                "addr:street": "Koszarowa",
                "addr:housenumber": "7",
                "addr:city:simc": 981274,
                "addr:street:sym_ul": 9512,
                "phone": "+48 158642539",
                "email": "zsstaszow@poczta.fm",
                "website": "http:\/\/www.zsstaszow.pl",
                "ref:regon": "292451124",
                "ref:vatin": "PL8661085977",
                "operator": "Powiat Staszowski",
                "operator:type": "government",
                "amenity": "school",
                "note": "Parent RSPO: 41806"
            }
        },
        {
            "id": 64746,
            "type": "Feature",
            "geometry": {
                "type": "Point",
                "coordinates": [
                    21.16062,
                    50.56018
                ]
            },
            "properties": {
                "isced:level": "3",
                "ref:rspo": 64746,
                "official_name": "Bran\u017cowa Szko\u0142a I Stopnia w Zespole Szk\u00f3\u0142 im. Stanis\u0142awa Staszica w Staszowie",
                "name": "Bran\u017cowa Szko\u0142a I Stopnia w Zespole Szk\u00f3\u0142",
                "addr:postcode": "28-200",
                "addr:city": "Stasz\u00f3w",
                "addr:street": "Koszarowa",
                "addr:housenumber": "7",
                "addr:city:simc": 981274,
                "addr:street:sym_ul": 9512,
                "phone": "+48 158642539",
                "email": "zsstaszow@poczta.fm",
                "website": "http:\/\/www.zsstaszow.pl",
                "ref:regon": "292451147",
                "ref:vatin": "PL8661085977",
                "operator": "Powiat Staszowski",
                "operator:type": "government",
                "amenity": "school",
                "note": "Parent RSPO: 41806"
            }
        },
        {
            "id": 277335,
            "type": "Feature",
            "geometry": {
                "type": "Point",
                "coordinates": [
                    21.16062,
                    50.56015
                ]
            },
            "properties": {
                "ref:rspo": 277335,
                "official_name": "Centrum Kszta\u0142cenia Zawodowego",
                "name": "Centrum Kszta\u0142cenia Zawodowego",
                "addr:postcode": "28-200",
                "addr:city": "Stasz\u00f3w",
                "addr:street": "Koszarowa",
                "addr:housenumber": "7",
                "addr:city:simc": 981274,
                "addr:street:sym_ul": 9512,
                "phone": "+48 158642539",
                "email": "zsstaszow@poczta.fm",
                "website": "https:\/\/zsstaszow.pl\/",
                "ref:regon": "388644981",
                "operator": "Powiat Staszowski",
                "operator:type": "government",
                "fixme": "w zale\u017cno\u015bci od przedmiotu dzia\u0142alno\u015bci (np. amenity=training + training=*, amenity=dancing_school, amenity=language_school, amenity=music_school) albo amenity=school, amenity=college, albo landuse=education w zale\u017cno\u015bci od tego, jakie plac\u00f3wki wchodz\u0105 w sk\u0142ad zespo\u0142u. Sprawd\u017a, kiedy stosowa\u0107 amenity=* a kiedy landuse=education.",
                "note": "Parent RSPO: 41806"
            }
        },
        {
            "id": 278353,
            "type": "Feature",
            "geometry": {
                "type": "Point",
                "coordinates": [
                    21.16062,
                    50.56012
                ]
            },
            "properties": {
                "isced:level": "3",
                "ref:rspo": 278353,
                "official_name": "Bran\u017cowa Szko\u0142a II Stopnia",
                "name": "Bran\u017cowa Szko\u0142a II Stopnia",
                "addr:postcode": "28-200",
                "addr:city": "Stasz\u00f3w",
                "addr:street": "Koszarowa",
                "addr:housenumber": "7",
                "addr:city:simc": 981274,
                "addr:street:sym_ul": 9512,
                "phone": "+48 158642539",
                "email": "zsstaszow@poczta.fm",
                "website": "http:\/\/www.zsstaszow.pl",
                "ref:regon": "389864704",
                "operator": "Powiat Staszowski",
                "operator:type": "government",
                "amenity": "school",
                "note": "Parent RSPO: 41806"
            }
        },
        {
            "id": 133861,
            "type": "Feature",
            "geometry": {
                "type": "Point",
                "coordinates": [
                    21.16426,
                    50.56196
                ]
            },
            "properties": {
                "ref:rspo": 133861,
                "official_name": "Niepubliczna Szko\u0142a Muzyczna I St. im. Stanis\u0142awa Moniuszki w Staszowie",
                "name": "Niepubliczna Szko\u0142a Muzyczna I St.",
                "addr:postcode": "28-200",
                "addr:city": "Stasz\u00f3w",
                "addr:street": "Parkowa",
                "addr:housenumber": "6",
                "addr:city:simc": 981274,
                "addr:street:sym_ul": 15710,
                "phone": "+48 669414823",
                "email": "gogolaanna92@gmail.com",
                "ref:regon": "367716599",
                "operator": "\u015awi\u0119tokrzyskie Stowarzyszenie Spo\u0142ecznych Szk\u00f3\u0142 I Ognisk Artystycznych",
                "operator:type": "ngo",
                "amenity": "music_school"
            }
        },
        {
            "id": 43726,
            "type": "Feature",
            "geometry": {
                "type": "Point",
                "coordinates": [
                    21.17076,
                    50.56284
                ]
            },
            "properties": {
                "ref:rspo": 43726,
                "official_name": "O\u015brodek Rehabilitacyjno-Edukacyjno-Wychowawczy w Staszowie",
                "name": "O\u015brodek Rehabilitacyjno-Edukacyjno-Wychowawczy w Staszowie",
                "addr:postcode": "28-200",
                "addr:city": "Stasz\u00f3w",
                "addr:street": "Rytwia\u0144ska",
                "addr:housenumber": "23",
                "addr:city:simc": 981274,
                "addr:street:sym_ul": 19308,
                "phone": "+48 158643709",
                "email": "orew.staszow@psouu.org.pl",
                "ref:regon": "260644925",
                "operator": "Polskie Stowarzyszenie Na Rzecz Os\u00f3b Z Niepe\u0142nosprawno\u015bci\u0105 Intelektualn\u0105 Ko\u0142o W Staszowie",
                "operator:type": "ngo",
                "amenity": "school"
            }
        },
        {
            "id": 130797,
            "type": "Feature",
            "geometry": {
                "type": "Point",
                "coordinates": [
                    21.17076,
                    50.56281
                ]
            },
            "properties": {
                "ref:rspo": 130797,
                "official_name": "Niepubliczne Przedszkole Specjalne \u201ePromyk S\u0142o\u0144ca\u201d w Staszowie",
                "name": "Niepubliczne Przedszkole Specjalne \u201ePromyk S\u0142o\u0144ca\u201d w Staszowie",
                "addr:postcode": "28-200",
                "addr:city": "Stasz\u00f3w",
                "addr:street": "Rytwia\u0144ska",
                "addr:housenumber": "23",
                "addr:city:simc": 981274,
                "addr:street:sym_ul": 19308,
                "phone": "+48 158643709",
                "email": "nps.promyk@psouu-staszow.org",
                "ref:regon": "364518108",
                "operator": "Polskie Stowarzyszenie Na Rzecz Os\u00f3b Z Niepe\u0142nosprawno\u015bci\u0105 Intelektualn\u0105 Ko\u0142o W Staszowie",
                "operator:type": "ngo",
                "amenity": "kindergarten"
            }
        },
        {
            "id": 40155,
            "type": "Feature",
            "geometry": {
                "type": "Point",
                "coordinates": [
                    21.1637,
                    50.56395
                ]
            },
            "properties": {
                "ref:rspo": 40155,
                "official_name": "Zesp\u00f3\u0142 Szk\u00f3\u0142 Ekonomicznych im. Jana Paw\u0142a II w Staszowie",
                "name": "Zesp\u00f3\u0142 Szk\u00f3\u0142 Ekonomicznych",
                "addr:postcode": "28-200",
                "addr:city": "Stasz\u00f3w",
                "addr:street": "Szkolna",
                "addr:housenumber": "11",
                "addr:city:simc": 981274,
                "addr:street:sym_ul": 21970,
                "phone": "+48 158643118",
                "email": "ekonomik@staszowski.eu",
                "website": "http:\/\/www.zsestaszow.eu",
                "ref:regon": "292442020",
                "ref:vatin": "PL8661046339",
                "operator": "Powiat Staszowski",
                "operator:type": "government",
                "landuse": "education",
                "fixme": "amenity=school, amenity=college albo landuse=education w zale\u017cno\u015bci od tego, jakie plac\u00f3wki wchodz\u0105 w sk\u0142ad zespo\u0142u. Sprawd\u017a, kiedy stosowa\u0107 amenity=* a kiedy landuse=education.",
                "note": "Children RSPO: 64741;64742"
            }
        },
        {
            "id": 64741,
            "type": "Feature",
            "geometry": {
                "type": "Point",
                "coordinates": [
                    21.1637,
                    50.563919999999996
                ]
            },
            "properties": {
                "isced:level": "3",
                "ref:rspo": 64741,
                "official_name": "Technikum w Zespole Szk\u00f3\u0142 Ekonomicznych im. Jana Paw\u0142a II w Staszowie",
                "name": "Technikum w Zespole Szk\u00f3\u0142 Ekonomicznych",
                "addr:postcode": "28-200",
                "addr:city": "Stasz\u00f3w",
                "addr:street": "Szkolna",
                "addr:housenumber": "11",
                "addr:city:simc": 981274,
                "addr:street:sym_ul": 21970,
                "phone": "+48 158643118",
                "email": "ekonomik@staszowski.eu",
                "website": "http:\/\/www.zsestaszow.eu",
                "ref:regon": "292442042",
                "ref:vatin": "PL8661046339",
                "operator": "Powiat Staszowski",
                "operator:type": "government",
                "amenity": "school",
                "note": "Parent RSPO: 40155"
            }
        },
        {
            "id": 64742,
            "type": "Feature",
            "geometry": {
                "type": "Point",
                "coordinates": [
                    21.1637,
                    50.56389
                ]
            },
            "properties": {
                "isced:level": "3",
                "ref:rspo": 64742,
                "official_name": "Bran\u017cowa Szko\u0142a I Stopnia w Zespole Szk\u00f3\u0142 Ekonomicznych im. Jana Paw\u0142a II w Staszowie",
                "name": "Bran\u017cowa Szko\u0142a I Stopnia w Zespole Szk\u00f3\u0142 Ekonomicznych",
                "addr:postcode": "28-200",
                "addr:city": "Stasz\u00f3w",
                "addr:street": "Szkolna",
                "addr:housenumber": "11",
                "addr:city:simc": 981274,
                "addr:street:sym_ul": 21970,
                "phone": "+48 158643118",
                "email": "ekonomik@staszowski.eu",
                "website": "http:\/\/www.zsestaszow.eu",
                "ref:regon": "260180874",
                "ref:vatin": "PL8661046339",
                "operator": "Powiat Staszowski",
                "operator:type": "government",
                "amenity": "school",
                "note": "Parent RSPO: 40155"
            }
        },
        {
            "id": 40153,
            "type": "Feature",
            "geometry": {
                "type": "Point",
                "coordinates": [
                    21.17246,
                    50.56421
                ]
            },
            "properties": {
                "isced:level": "3",
                "ref:rspo": 40153,
                "official_name": "Liceum Og\u00f3lnokszta\u0142c\u0105ce im. Ks. Kard. Stefana Wyszy\u0144skiego w Staszowie",
                "name": "Liceum Og\u00f3lnokszta\u0142c\u0105ce",
                "addr:postcode": "28-200",
                "addr:city": "Stasz\u00f3w",
                "addr:street": "11 Listopada",
                "addr:housenumber": "3",
                "addr:city:simc": 981274,
                "addr:street:sym_ul": 11205,
                "phone": "+48 158642583",
                "email": "liceum@staszowski.com",
                "website": "http:\/\/lo.staszowski.com\/",
                "ref:regon": "292674769",
                "ref:vatin": "PL8661016634",
                "operator": "Powiat Staszowski",
                "operator:type": "government",
                "amenity": "school"
            }
        },
        {
            "id": 17469,
            "type": "Feature",
            "geometry": {
                "type": "Point",
                "coordinates": [
                    21.35146,
                    50.56764
                ]
            },
            "properties": {
                "ref:rspo": 17469,
                "official_name": "Zesp\u00f3\u0142 Plac\u00f3wek O\u015bwiatowych - Publiczna Szko\u0142a Podstawowa I Przedszkole w Wi\u0105zownicy Du\u017cej",
                "name": "Zesp\u00f3\u0142 Plac\u00f3wek O\u015bwiatowych - Publiczna Szko\u0142a Podstawowa I Przedszkole w Wi\u0105zownicy Du\u017cej",
                "addr:postcode": "28-200",
                "addr:place": "Wi\u0105zownica Du\u017ca",
                "addr:housenumber": "135",
                "addr:city:simc": 807613,
                "phone": "+48 158666107",
                "email": "pspwd@poczta.fm",
                "website": "http:\/\/www.spwiazownica.pl",
                "ref:regon": "260042623",
                "ref:vatin": "PL8661711995",
                "operator": "Gmina Stasz\u00f3w",
                "operator:type": "government",
                "landuse": "education",
                "fixme": "amenity=school, amenity=college albo landuse=education w zale\u017cno\u015bci od tego, jakie plac\u00f3wki wchodz\u0105 w sk\u0142ad zespo\u0142u. Sprawd\u017a, kiedy stosowa\u0107 amenity=* a kiedy landuse=education.",
                "note": "Children RSPO: 19305;19316"
            }
        },
        {
            "id": 19305,
            "type": "Feature",
            "geometry": {
                "type": "Point",
                "coordinates": [
                    21.35146,
                    50.567609999999995
                ]
            },
            "properties": {
                "isced:level": "1;2",
                "ref:rspo": 19305,
                "official_name": "Publiczna Szko\u0142a Podstawowa w Wi\u0105zownicy Du\u017cej",
                "name": "Publiczna Szko\u0142a Podstawowa w Wi\u0105zownicy Du\u017cej",
                "addr:postcode": "28-200",
                "addr:place": "Wi\u0105zownica Du\u017ca",
                "addr:housenumber": "135",
                "addr:city:simc": 807613,
                "phone": "+48 158666107",
                "email": "pspwd@poczta.fm",
                "website": "http:\/\/zpowiazownica.staszow.pl",
                "ref:regon": "001177568",
                "operator": "Gmina Stasz\u00f3w",
                "operator:type": "government",
                "amenity": "school",
                "note": "Parent RSPO: 17469"
            }
        },
        {
            "id": 19316,
            "type": "Feature",
            "geometry": {
                "type": "Point",
                "coordinates": [
                    21.35146,
                    50.56758
                ]
            },
            "properties": {
                "ref:rspo": 19316,
                "official_name": "Przedszkole w Wi\u0105zownicy Du\u017cej",
                "name": "Przedszkole w Wi\u0105zownicy Du\u017cej",
                "addr:postcode": "28-200",
                "addr:place": "Wi\u0105zownica Du\u017ca",
                "addr:housenumber": "135",
                "addr:city:simc": 807613,
                "phone": "+48 158666107",
                "email": "pspwd@poczta.fm",
                "ref:regon": "291179453",
                "operator": "Gmina Stasz\u00f3w",
                "operator:type": "government",
                "amenity": "kindergarten",
                "note": "Parent RSPO: 17469"
            }
        },
        {
            "id": 131687,
            "type": "Feature",
            "geometry": {
                "type": "Point",
                "coordinates": [
                    21.16052,
                    50.5689
                ]
            },
            "properties": {
                "ref:rspo": 131687,
                "official_name": "Niepubliczny Specjalny Punkt Przedszkolny Stowarzyszenia Pomocy Niepe\u0142nosprawnym \u201eMy I \u015awiat\u201d",
                "name": "Niepubliczny Specjalny Punkt Przedszkolny Stowarzyszenia Pomocy Niepe\u0142nosprawnym \u201eMy I \u015awiat\u201d",
                "addr:postcode": "28-200",
                "addr:city": "Stasz\u00f3w",
                "addr:street": "D\u0142uga",
                "addr:housenumber": "78",
                "addr:door": "44",
                "addr:city:simc": 981274,
                "addr:street:sym_ul": 3839,
                "phone": "+48 695315916",
                "email": "stowarzyszeniemis@interia.pl",
                "website": "http:\/\/www.myiswiat.pl",
                "ref:regon": "365328249",
                "operator": "Stowarzyszenie Pomocy Niepe\u0142nosprawnym \"My I \u015awiat\"",
                "operator:type": "ngo",
                "amenity": "kindergarten"
            }
        },
        {
            "id": 18021,
            "type": "Feature",
            "geometry": {
                "type": "Point",
                "coordinates": [
                    21.17204,
                    50.56892
                ]
            },
            "properties": {
                "ref:rspo": 18021,
                "official_name": "Przedszkole nr 3 im. Papie\u017ca Jana Paw\u0142a II w Staszowie",
                "name": "Przedszkole nr 3",
                "addr:postcode": "28-200",
                "addr:city": "Stasz\u00f3w",
                "addr:street": "Jana Paw\u0142a II",
                "addr:housenumber": "17a",
                "addr:city:simc": 981274,
                "addr:street:sym_ul": 7123,
                "phone": "+48 158642121",
                "email": "przedszkole3staszow@op.pl",
                "ref:regon": "291178407",
                "ref:vatin": "PL8661545893",
                "operator": "Gmina Stasz\u00f3w",
                "operator:type": "government",
                "amenity": "kindergarten"
            }
        },
        {
            "id": 19932,
            "type": "Feature",
            "geometry": {
                "type": "Point",
                "coordinates": [
                    21.28732,
                    50.57324
                ]
            },
            "properties": {
                "isced:level": "1;2",
                "ref:rspo": 19932,
                "official_name": "Publiczna Szko\u0142a Podstawowa im. Papie\u017ca Jana Paw\u0142a II w Czajkowie",
                "name": "Publiczna Szko\u0142a Podstawowa",
                "addr:postcode": "28-200",
                "addr:place": "Czajk\u00f3w Po\u0142udniowy",
                "addr:housenumber": "133",
                "addr:city:simc": 807300,
                "phone": "+48 158668614",
                "email": "zsczajkow@o2.pl",
                "website": "http:\/\/zsczajkow.staszow.pl",
                "ref:regon": "001187845",
                "operator": "Gmina Stasz\u00f3w",
                "operator:type": "government",
                "amenity": "school"
            }
        },
        {
            "id": 14003,
            "type": "Feature",
            "geometry": {
                "type": "Point",
                "coordinates": [
                    21.10932,
                    50.58746
                ]
            },
            "properties": {
                "ref:rspo": 14003,
                "official_name": "Pedagogiczna Biblioteka Wojew\u00f3dzka w Kielcach Filia w Staszowie",
                "name": "Pedagogiczna Biblioteka Wojew\u00f3dzka w Kielcach Filia w Staszowie",
                "addr:postcode": "28-200",
                "addr:city": "Stasz\u00f3w",
                "addr:street": "J\u00f3zefa Pi\u0142sudskiego",
                "addr:housenumber": "7",
                "addr:city:simc": 981274,
                "addr:street:sym_ul": 16264,
                "phone": "+48 158642511",
                "email": "staszow@pbw.kielce.pl",
                "website": "http:\/\/www.pbw.kielce.pl",
                "ref:regon": "291170080",
                "operator": "Wojew\u00f3dztwo \u015awi\u0119tokrzyskie",
                "operator:type": "government",
                "amenity": "library",
                "note": "Parent RSPO: 6753"
            }
        },
        {
            "id": 20061,
            "type": "Feature",
            "geometry": {
                "type": "Point",
                "coordinates": [
                    21.10892,
                    50.58983
                ]
            },
            "properties": {
                "isced:level": "1;2",
                "ref:rspo": 20061,
                "official_name": "Publiczna Szko\u0142a Podstawowa nr 2 im. Ignacego Jana Paderewskiego w Staszowie",
                "name": "Publiczna Szko\u0142a Podstawowa nr 2",
                "addr:postcode": "28-200",
                "addr:city": "Stasz\u00f3w",
                "addr:street": "Niepodleg\u0142o\u015bci",
                "addr:housenumber": "4",
                "addr:city:simc": 981274,
                "addr:street:sym_ul": 14203,
                "phone": "+48 158644149",
                "email": "sekretariat212@wp.pl",
                "website": "http:\/\/www.zs2.staszow.pl",
                "ref:regon": "000719300",
                "operator": "Gmina Stasz\u00f3w",
                "operator:type": "government",
                "amenity": "school"
            }
        },
        {
            "id": 18417,
            "type": "Feature",
            "geometry": {
                "type": "Point",
                "coordinates": [
                    21.09693,
                    50.59059
                ]
            },
            "properties": {
                "ref:rspo": 18417,
                "official_name": "Zesp\u00f3\u0142 Plac\u00f3wek O\u015bwiatowych - Publiczna Szko\u0142a Podstawowa im. Stefana \u017beromskiego I Przedszkole w Kurozw\u0119kach",
                "name": "Zesp\u00f3\u0142 Plac\u00f3wek O\u015bwiatowych - Publiczna Szko\u0142a Podstawowa",
                "addr:postcode": "28-200",
                "addr:city": "Kurozw\u0119ki",
                "addr:street": "Szyd\u0142owska",
                "addr:housenumber": "9",
                "addr:city:simc": 807458,
                "addr:street:sym_ul": 22222,
                "phone": "+48 158667390",
                "email": "spkurozweki@wp.pl",
                "website": "http:\/\/www.zpokurozweki.staszow.pl",
                "ref:regon": "260042847",
                "ref:vatin": "PL8661712569",
                "operator": "Gmina Stasz\u00f3w",
                "operator:type": "government",
                "landuse": "education",
                "fixme": "amenity=school, amenity=college albo landuse=education w zale\u017cno\u015bci od tego, jakie plac\u00f3wki wchodz\u0105 w sk\u0142ad zespo\u0142u. Sprawd\u017a, kiedy stosowa\u0107 amenity=* a kiedy landuse=education.",
                "note": "Children RSPO: 20308;20339"
            }
        },
        {
            "id": 20308,
            "type": "Feature",
            "geometry": {
                "type": "Point",
                "coordinates": [
                    21.09693,
                    50.590559999999996
                ]
            },
            "properties": {
                "isced:level": "1;2",
                "ref:rspo": 20308,
                "official_name": "Publiczna Szko\u0142a Podstawowa im. Stefana \u017beromskiego w Kurozw\u0119kach",
                "name": "Publiczna Szko\u0142a Podstawowa",
                "addr:postcode": "28-200",
                "addr:city": "Kurozw\u0119ki",
                "addr:street": "Szyd\u0142owska",
                "addr:housenumber": "9",
                "addr:city:simc": 807458,
                "addr:street:sym_ul": 22222,
                "phone": "+48 158667390",
                "email": "spkurozweki@wp.pl",
                "website": "http:\/\/www.zpokurozweki.staszow.pl",
                "ref:regon": "001187880",
                "operator": "Gmina Stasz\u00f3w",
                "operator:type": "government",
                "amenity": "school",
                "note": "Parent RSPO: 18417"
            }
        },
        {
            "id": 20339,
            "type": "Feature",
            "geometry": {
                "type": "Point",
                "coordinates": [
                    21.09693,
                    50.59053
                ]
            },
            "properties": {
                "ref:rspo": 20339,
                "official_name": "Przedszkole w Kurozw\u0119kach",
                "name": "Przedszkole w Kurozw\u0119kach",
                "addr:postcode": "28-200",
                "addr:city": "Kurozw\u0119ki",
                "addr:street": "Szyd\u0142owska",
                "addr:housenumber": "9",
                "addr:city:simc": 807458,
                "addr:street:sym_ul": 22222,
                "phone": "+48 158667390",
                "email": "spkurozweki@wp.pl",
                "website": "http:\/\/www.zpokurozweki.staszow.pl",
                "ref:regon": "291178442",
                "operator": "Gmina Stasz\u00f3w",
                "operator:type": "government",
                "amenity": "kindergarten",
                "note": "Parent RSPO: 18417"
            }
        },
        {
            "id": 131066,
            "type": "Feature",
            "geometry": {
                "type": "Point",
                "coordinates": [
                    21.3189,
                    50.59207
                ]
            },
            "properties": {
                "ref:rspo": 131066,
                "official_name": "Zesp\u00f3\u0142 Plac\u00f3wek O\u015bwiatowych - Publiczna Szko\u0142a Podstawowa im. Oddzia\u0142u Partyzanckiego Ak \u201eJ\u0119drusie\u201d I Przedszkole w Smerdynie",
                "name": "Zesp\u00f3\u0142 Plac\u00f3wek O\u015bwiatowych - Publiczna Szko\u0142a Podstawowa",
                "addr:postcode": "28-200",
                "addr:place": "Smerdyna",
                "addr:housenumber": "100",
                "addr:city:simc": 807582,
                "phone": "+48 158666143",
                "email": "szkolasmerdyna@interia.pl",
                "website": "http:\/\/www.smerdyna.szkola.pl",
                "ref:regon": "364924417",
                "operator": "Gmina Stasz\u00f3w",
                "operator:type": "government",
                "landuse": "education",
                "fixme": "amenity=school, amenity=college albo landuse=education w zale\u017cno\u015bci od tego, jakie plac\u00f3wki wchodz\u0105 w sk\u0142ad zespo\u0142u. Sprawd\u017a, kiedy stosowa\u0107 amenity=* a kiedy landuse=education.",
                "note": "Children RSPO: 129333;129340"
            }
        },
        {
            "id": 129333,
            "type": "Feature",
            "geometry": {
                "type": "Point",
                "coordinates": [
                    21.3189,
                    50.59204
                ]
            },
            "properties": {
                "isced:level": "1;2",
                "ref:rspo": 129333,
                "official_name": "Publiczna Szko\u0142a Podstawowa im. Oddzia\u0142u Partyzanckiego Ak \u201eJ\u0119drusie\u201d w Smerdynie",
                "name": "Publiczna Szko\u0142a Podstawowa",
                "addr:postcode": "28-200",
                "addr:place": "Smerdyna",
                "addr:housenumber": "100",
                "addr:city:simc": 807582,
                "phone": "+48 158666143",
                "email": "szkolasmerdyna@interia.pl",
                "website": "http:\/\/www.smerdyna.staszow.pl",
                "ref:regon": "362562542",
                "operator": "Gmina Stasz\u00f3w",
                "operator:type": "government",
                "amenity": "school",
                "note": "Parent RSPO: 131066"
            }
        },
        {
            "id": 129340,
            "type": "Feature",
            "geometry": {
                "type": "Point",
                "coordinates": [
                    21.3189,
                    50.59201
                ]
            },
            "properties": {
                "ref:rspo": 129340,
                "official_name": "Przedszkole w Smerdynie",
                "name": "Przedszkole w Smerdynie",
                "addr:postcode": "28-200",
                "addr:place": "Smerdyna",
                "addr:housenumber": "100",
                "addr:city:simc": 807582,
                "phone": "+48 158666143",
                "email": "szkolasmerdyna@interia.pl",
                "ref:regon": "362563702",
                "operator": "Gmina Stasz\u00f3w",
                "operator:type": "government",
                "amenity": "kindergarten",
                "note": "Parent RSPO: 131066"
            }
        },
        {
            "id": 119114,
            "type": "Feature",
            "geometry": {
                "type": "Point",
                "coordinates": [
                    21.24758,
                    50.59349
                ]
            },
            "properties": {
                "isced:level": "1;2",
                "ref:rspo": 119114,
                "official_name": "Publiczna Szko\u0142a Podstawowa im. Hugona Ko\u0142\u0142\u0105taja w Wi\u015bniowej",
                "name": "Publiczna Szko\u0142a Podstawowa",
                "addr:postcode": "28-200",
                "addr:place": "Wi\u015bniowa",
                "addr:housenumber": "111",
                "addr:city:simc": 807642,
                "phone": "+48 158668610",
                "email": "spwisniowa1@o2.pl",
                "ref:regon": "260716085",
                "operator": "El\u017cbieta Ciuk",
                "operator:type": "private",
                "amenity": "school"
            }
        },
        {
            "id": 119115,
            "type": "Feature",
            "geometry": {
                "type": "Point",
                "coordinates": [
                    21.24758,
                    50.59346
                ]
            },
            "properties": {
                "ref:rspo": 119115,
                "official_name": "Przedszkole w Wi\u015bniowej",
                "name": "Przedszkole w Wi\u015bniowej",
                "addr:postcode": "28-200",
                "addr:place": "Wi\u015bniowa",
                "addr:housenumber": "111",
                "addr:city:simc": 807642,
                "phone": "+48 158668610",
                "email": "spwisniowa1@o2.pl",
                "ref:regon": "260716091",
                "operator": "El\u017cbieta Ciuk",
                "operator:type": "private",
                "amenity": "kindergarten"
            }
        },
        {
            "id": 17404,
            "type": "Feature",
            "geometry": {
                "type": "Point",
                "coordinates": [
                    21.2029,
                    50.61812
                ]
            },
            "properties": {
                "ref:rspo": 17404,
                "official_name": "Zesp\u00f3\u0142 Plac\u00f3wek O\u015bwiatowych - Publiczna Szko\u0142a Podstawowa I Przedszkole w Mostkach",
                "name": "Zesp\u00f3\u0142 Plac\u00f3wek O\u015bwiatowych - Publiczna Szko\u0142a Podstawowa I Przedszkole w Mostkach",
                "addr:postcode": "28-200",
                "addr:place": "Mostki",
                "addr:housenumber": "56",
                "addr:city:simc": 807518,
                "phone": "+48 158645176",
                "email": "szkolamostki@poczta.onet.pl",
                "website": "http:\/\/www.szkolamostki.szkolnastrona.pl",
                "ref:regon": "260042652",
                "ref:vatin": "PL8661712718",
                "operator": "Gmina Stasz\u00f3w",
                "operator:type": "government",
                "landuse": "education",
                "fixme": "amenity=school, amenity=college albo landuse=education w zale\u017cno\u015bci od tego, jakie plac\u00f3wki wchodz\u0105 w sk\u0142ad zespo\u0142u. Sprawd\u017a, kiedy stosowa\u0107 amenity=* a kiedy landuse=education.",
                "note": "Children RSPO: 19230;19250"
            }
        },
        {
            "id": 19230,
            "type": "Feature",
            "geometry": {
                "type": "Point",
                "coordinates": [
                    21.2029,
                    50.618089999999995
                ]
            },
            "properties": {
                "isced:level": "1;2",
                "ref:rspo": 19230,
                "official_name": "Publiczna Szko\u0142a Podstawowa w Mostkach",
                "name": "Publiczna Szko\u0142a Podstawowa w Mostkach",
                "addr:postcode": "28-200",
                "addr:place": "Mostki",
                "addr:housenumber": "56",
                "addr:city:simc": 807518,
                "phone": "+48 158645176",
                "email": "zpomostki@staszow.pl",
                "website": "http:\/\/zpomostki.staszow.pl\/",
                "ref:regon": "001187897",
                "operator": "Gmina Stasz\u00f3w",
                "operator:type": "government",
                "amenity": "school",
                "note": "Parent RSPO: 17404"
            }
        },
        {
            "id": 19250,
            "type": "Feature",
            "geometry": {
                "type": "Point",
                "coordinates": [
                    21.2029,
                    50.61806
                ]
            },
            "properties": {
                "ref:rspo": 19250,
                "official_name": "Przedszkole w Mostkach",
                "name": "Przedszkole w Mostkach",
                "addr:postcode": "28-200",
                "addr:place": "Mostki",
                "addr:housenumber": "56",
                "addr:city:simc": 807518,
                "phone": "+48 158645176",
                "email": "szkolamostki@poczta.onet.pl",
                "ref:regon": "291179306",
                "operator": "Gmina Stasz\u00f3w",
                "operator:type": "government",
                "amenity": "kindergarten",
                "note": "Parent RSPO: 17404"
            }
        }
    ]
}