{
    "type": "FeatureCollection",
    "features": [
        {
            "id": 26426,
            "type": "Feature",
            "geometry": {
                "type": "Point",
                "coordinates": [
                    23.87393,
                    52.7023
                ]
            },
            "properties": {
                "isced:level": "3",
                "ref:rspo": 26426,
                "official_name": "Technikum Le\u015bne w Bia\u0142owie\u017cy",
                "name": "Technikum Le\u015bne w Bia\u0142owie\u017cy",
                "addr:country": "PL",
                "addr:postcode": "17-230",
                "addr:city": "Bia\u0142owie\u017ca",
                "addr:street": "Park Dyrekcyjny",
                "addr:housenumber": "1A",
                "addr:teryt:simc": 4527,
                "addr:teryt:sym_ul": 23076,
                "contact:phone": "+48 856812404",
                "contact:email": "dyrektor@tl.bialowieza.pl",
                "contact:website": "http:\/\/www.tl.bialowieza.pl\/",
                "ref:regon": "052207516",
                "operator": "Ministerstwo \u015arodowiska",
                "operator:type": "public",
                "amenity": "school"
            }
        },
        {
            "id": 23031,
            "type": "Feature",
            "geometry": {
                "type": "Point",
                "coordinates": [
                    23.85338,
                    52.70554
                ]
            },
            "properties": {
                "ref:rspo": 23031,
                "official_name": "Przedszkole w Bia\u0142owie\u017cy",
                "name": "Przedszkole w Bia\u0142owie\u017cy",
                "addr:country": "PL",
                "addr:postcode": "17-230",
                "addr:city": "Bia\u0142owie\u017ca",
                "addr:street": "Sportowa",
                "addr:housenumber": "10",
                "addr:teryt:simc": 20683,
                "addr:teryt:sym_ul": 23076,
                "contact:phone": "+48 856812397",
                "contact:email": "zsp@ug.bialowieza.pl",
                "contact:website": "http:\/\/zspbialowieza.edupage.org",
                "ref:regon": "200225827",
                "operator": "Gmina Bia\u0142owie\u017ca",
                "operator:type": "government",
                "amenity": "kindergarten",
                "note": "Parent RSPO: 7486"
            }
        },
        {
            "id": 7486,
            "type": "Feature",
            "geometry": {
                "type": "Point",
                "coordinates": [
                    23.75125,
                    52.83274
                ]
            },
            "properties": {
                "ref:rspo": 7486,
                "official_name": "Zesp\u00f3\u0142 Szkolno-Przedszkolny w Bia\u0142owie\u017cy",
                "name": "Zesp\u00f3\u0142 Szkolno-Przedszkolny w Bia\u0142owie\u017cy",
                "addr:country": "PL",
                "addr:postcode": "17-230",
                "addr:city": "Bia\u0142owie\u017ca",
                "addr:street": "Stoczek",
                "addr:housenumber": "2",
                "addr:teryt:simc": 30489,
                "addr:teryt:sym_ul": 23076,
                "contact:phone": "+48 856812397",
                "contact:email": "zsp@ug.bialowieza.pl",
                "contact:website": "http:\/\/zspbialowieza.edupage.org",
                "ref:regon": "200225810",
                "ref:vatin": "PL6030053866",
                "operator": "Gmina Bia\u0142owie\u017ca",
                "operator:type": "government",
                "landuse": "education",
                "fixme": "amenity=school, amenity=college albo landuse=education w zale\u017cno\u015bci od tego, jakie plac\u00f3wki wchodz\u0105 w sk\u0142ad zespo\u0142u. Sprawd\u017a, kiedy stosowa\u0107 amenity=* a kiedy landuse=education.",
                "note": "Children RSPO: 23014;23031"
            }
        },
        {
            "id": 23014,
            "type": "Feature",
            "geometry": {
                "type": "Point",
                "coordinates": [
                    23.75125,
                    52.83271
                ]
            },
            "properties": {
                "isced:level": "1;2",
                "ref:rspo": 23014,
                "official_name": "Szko\u0142a Podstawowa w Bia\u0142owie\u017cy",
                "name": "Szko\u0142a Podstawowa w Bia\u0142owie\u017cy",
                "addr:country": "PL",
                "addr:postcode": "17-230",
                "addr:city": "Bia\u0142owie\u017ca",
                "addr:street": "Stoczek",
                "addr:housenumber": "2",
                "addr:teryt:simc": 30489,
                "addr:teryt:sym_ul": 23076,
                "contact:phone": "+48 856812397",
                "contact:email": "zsp@ug.bialowieza.pl",
                "contact:website": "http:\/\/zspbialowieza.edupage.org",
                "ref:regon": "000265164",
                "operator": "Gmina Bia\u0142owie\u017ca",
                "operator:type": "government",
                "amenity": "school",
                "note": "Parent RSPO: 7486"
            }
        }
    ]
}