{
    "type": "FeatureCollection",
    "features": [
        {
            "id": 29979,
            "type": "Feature",
            "geometry": {
                "type": "Point",
                "coordinates": [
                    23.57246,
                    52.72084
                ]
            },
            "properties": {
                "isced:level": "1;2",
                "ref:rspo": 29979,
                "official_name": "Szko\u0142a Podstawowa Nr 3 im. Dr. Kazimierza Ptaszy\u0144skiego w Hajn\u00f3wce",
                "name": "Szko\u0142a Podstawowa Nr 3",
                "addr:country": "PL",
                "addr:postcode": "17-200",
                "addr:city": "Hajn\u00f3wka",
                "addr:street": "ul. Dzia\u0142owa",
                "addr:housenumber": "1",
                "addr:teryt:simc": 4581,
                "addr:teryt:sym_ul": 923035,
                "contact:phone": "+48 856832705",
                "contact:email": "sp3_hajnowka@wp.pl",
                "contact:website": "http:\/\/www.sp3hajnowka.edupage.org",
                "ref:regon": "001037360",
                "ref:vatin": "PL6030009032",
                "operator": "Gmina Miejska Hajn\u00f3wka",
                "operator:type": "government",
                "amenity": "school"
            }
        },
        {
            "id": 121263,
            "type": "Feature",
            "geometry": {
                "type": "Point",
                "coordinates": [
                    23.59125,
                    52.73177
                ]
            },
            "properties": {
                "ref:rspo": 121263,
                "official_name": "Przedszkole Niepubliczne Le\u015bna Kraina",
                "name": "Przedszkole Niepubliczne Le\u015bna Kraina",
                "addr:country": "PL",
                "addr:postcode": "17-200",
                "addr:city": "Hajn\u00f3wka",
                "addr:street": "ul. Elizy Orzeszkowej",
                "addr:housenumber": "18",
                "addr:teryt:simc": 15211,
                "addr:teryt:sym_ul": 923035,
                "contact:email": "lesnakraina@gmail.com",
                "contact:website": "http:\/\/lesnakraina.eu",
                "ref:regon": "200825616",
                "ref:vatin": "PL6711578038",
                "operator": "Dagmara Cwity\u0144ska",
                "operator:type": "private",
                "amenity": "kindergarten"
            }
        },
        {
            "id": 90065,
            "type": "Feature",
            "geometry": {
                "type": "Point",
                "coordinates": [
                    23.59278,
                    52.73296
                ]
            },
            "properties": {
                "isced:level": "3",
                "ref:rspo": 90065,
                "official_name": "I Liceum Og\u00f3lnokszta\u0142c\u0105ce im. Marii Sk\u0142odowskiej Curie w Hajn\u00f3wce",
                "name": "I Liceum Og\u00f3lnokszta\u0142c\u0105ce",
                "addr:country": "PL",
                "addr:postcode": "17-200",
                "addr:city": "Hajn\u00f3wka",
                "addr:street": "ul. Marsza\u0142ka J\u00f3zefa Pi\u0142sudskiego",
                "addr:housenumber": "7",
                "addr:teryt:simc": 36029,
                "addr:teryt:sym_ul": 923035,
                "contact:phone": "+48 856822780",
                "contact:email": "sekretariat@zsohajnowka.pl",
                "contact:website": "http:\/\/www.zsohajnowka.pl",
                "ref:regon": "000735090",
                "operator": "Powiat Hajnowski",
                "operator:type": "government",
                "amenity": "school"
            }
        },
        {
            "id": 121750,
            "type": "Feature",
            "geometry": {
                "type": "Point",
                "coordinates": [
                    23.59278,
                    52.732929999999996
                ]
            },
            "properties": {
                "isced:level": "4",
                "ref:rspo": 121750,
                "official_name": "Policealna Szko\u0142a 'Edukator\" w Hajn\u00f3wce",
                "name": "Policealna Szko\u0142a 'Edukator\" w Hajn\u00f3wce",
                "addr:country": "PL",
                "addr:postcode": "17-200",
                "addr:city": "Hajn\u00f3wka",
                "addr:street": "ul. Marsza\u0142ka J\u00f3zefa Pi\u0142sudskiego",
                "addr:housenumber": "7",
                "addr:teryt:simc": 36029,
                "addr:teryt:sym_ul": 923035,
                "contact:phone": "+48 733799783",
                "contact:email": "hajnowka@ckedukator.pl",
                "contact:website": "http:\/\/www.hajnowka.ckedukator.pl",
                "ref:regon": "200833805",
                "operator": "Rados\u0142aw Mulawa",
                "operator:type": "private",
                "amenity": "college"
            }
        },
        {
            "id": 114483,
            "type": "Feature",
            "geometry": {
                "type": "Point",
                "coordinates": [
                    23.59795,
                    52.73439
                ]
            },
            "properties": {
                "isced:level": "4",
                "ref:rspo": 114483,
                "official_name": "Prawos\u0142awne Studium Psalmist\u00f3w w Hajn\u00f3wce",
                "name": "Prawos\u0142awne Studium Psalmist\u00f3w w Hajn\u00f3wce",
                "addr:country": "PL",
                "addr:postcode": "17-200",
                "addr:city": "Hajn\u00f3wka",
                "addr:street": "ul. 3 Maja",
                "addr:housenumber": "63",
                "addr:teryt:simc": 11937,
                "addr:teryt:sym_ul": 923035,
                "contact:phone": "+48 856822819",
                "ref:regon": "050477648",
                "operator": "Polski Autokefaliczny Ko\u015bci\u00f3\u0142 Prawos\u0142awny Kancelaria Prawos\u0142awnego Metropolity Warszawskiego I Ca\u0142ej Polski",
                "operator:type": "religious",
                "amenity": "college"
            }
        },
        {
            "id": 128747,
            "type": "Feature",
            "geometry": {
                "type": "Point",
                "coordinates": [
                    23.5947,
                    52.73468
                ]
            },
            "properties": {
                "ref:rspo": 128747,
                "official_name": "Niepubliczne Przedszkole Specjalne dla Dzieci Niepe\u0142nosprawnych \"Mini - Mini\"",
                "name": "Niepubliczne Przedszkole Specjalne dla Dzieci Niepe\u0142nosprawnych \"Mini - Mini\"",
                "addr:country": "PL",
                "addr:postcode": "17-200",
                "addr:city": "Hajn\u00f3wka",
                "addr:street": "ul. Armii Krajowej",
                "addr:housenumber": "20",
                "addr:teryt:simc": 432,
                "addr:teryt:sym_ul": 923035,
                "contact:phone": "+48 502153927",
                "contact:email": "mzab6@wp.pl",
                "contact:website": "http:\/\/www.mini-mini.edu.pl\/",
                "ref:regon": "362394056",
                "ref:vatin": "PL5431108443",
                "operator": "Marek Zaborowski",
                "operator:type": "private",
                "amenity": "kindergarten"
            }
        },
        {
            "id": 272809,
            "type": "Feature",
            "geometry": {
                "type": "Point",
                "coordinates": [
                    23.5947,
                    52.734649999999995
                ]
            },
            "properties": {
                "isced:level": "1;2",
                "ref:rspo": 272809,
                "official_name": "Niepubliczna Szko\u0142a Podstawowa Specjalna w Hajn\u00f3wce",
                "name": "Niepubliczna Szko\u0142a Podstawowa Specjalna w Hajn\u00f3wce",
                "addr:country": "PL",
                "addr:postcode": "17-200",
                "addr:city": "Hajn\u00f3wka",
                "addr:street": "ul. Armii Krajowej",
                "addr:housenumber": "20",
                "addr:teryt:simc": 432,
                "addr:teryt:sym_ul": 923035,
                "contact:phone": "+48 502153927",
                "contact:email": "mzab6@wp.pl",
                "ref:regon": "384310929",
                "operator": "Marek Zaborowski",
                "operator:type": "private",
                "amenity": "school"
            }
        },
        {
            "id": 38735,
            "type": "Feature",
            "geometry": {
                "type": "Point",
                "coordinates": [
                    23.59453,
                    52.73538
                ]
            },
            "properties": {
                "isced:level": "1;2",
                "ref:rspo": 38735,
                "official_name": "Szko\u0142a Podstawowa Nr 1 im. Janusza Kusoci\u0144skiego w Hajn\u00f3wce",
                "name": "Szko\u0142a Podstawowa Nr 1",
                "addr:country": "PL",
                "addr:postcode": "17-200",
                "addr:city": "Hajn\u00f3wka",
                "addr:street": "ul. 3 Maja",
                "addr:housenumber": "54",
                "addr:teryt:simc": 11937,
                "addr:teryt:sym_ul": 923035,
                "contact:phone": "+48 856822078",
                "contact:email": "sp1hajnowka@wp.pl",
                "contact:website": "http:\/\/sp1hajnowka.edupage.org",
                "ref:regon": "001037123",
                "ref:vatin": "PL6030009026",
                "operator": "Gmina Miejska Hajn\u00f3wka",
                "operator:type": "government",
                "amenity": "school"
            }
        },
        {
            "id": 88859,
            "type": "Feature",
            "geometry": {
                "type": "Point",
                "coordinates": [
                    23.59082,
                    52.73564
                ]
            },
            "properties": {
                "ref:rspo": 88859,
                "official_name": "Poradnia Psychologiczno Pedagogiczna w Hajn\u00f3wce",
                "name": "Poradnia Psychologiczno Pedagogiczna w Hajn\u00f3wce",
                "addr:country": "PL",
                "addr:postcode": "17-200",
                "addr:city": "Hajn\u00f3wka",
                "addr:street": "ul. Marsza\u0142ka J\u00f3zefa Pi\u0142sudskiego",
                "addr:housenumber": "10A",
                "addr:teryt:simc": 36029,
                "addr:teryt:sym_ul": 923035,
                "contact:phone": "+48 856822305",
                "contact:email": "poradnia@poradniahajnowka.hekko.pl",
                "contact:website": "http:\/\/www.poradniahajnowka.hekko.pl",
                "ref:regon": "000739082",
                "ref:vatin": "PL5431836007",
                "operator": "Powiat Hajnowski",
                "operator:type": "government",
                "healthcare": "counselling",
                "counselling_type": "education",
                "fixme": "w zale\u017cno\u015bci od przedmiotu dzia\u0142alno\u015bci (np. healthcare=counselling + counselling_type=education albo healthcare=psychotherapist)"
            }
        },
        {
            "id": 90104,
            "type": "Feature",
            "geometry": {
                "type": "Point",
                "coordinates": [
                    23.59211,
                    52.73586
                ]
            },
            "properties": {
                "isced:level": "3",
                "ref:rspo": 90104,
                "official_name": "Ii Liceum Og\u00f3lnokszta\u0142c\u0105ce Z Dodatkow\u0105 Nauk\u0105 J\u0119zyka Bia\u0142oruskiego w Hajn\u00f3wce",
                "name": "Ii Liceum Og\u00f3lnokszta\u0142c\u0105ce Z Dodatkow\u0105 Nauk\u0105 J\u0119zyka Bia\u0142oruskiego w Hajn\u00f3wce",
                "addr:country": "PL",
                "addr:postcode": "17-200",
                "addr:city": "Hajn\u00f3wka",
                "addr:street": "ul. Marsza\u0142ka J\u00f3zefa Pi\u0142sudskiego",
                "addr:housenumber": "3",
                "addr:teryt:simc": 36029,
                "addr:teryt:sym_ul": 923035,
                "contact:phone": "+48 856822496",
                "contact:email": "sekretariat@bialorushajnowka.pl",
                "contact:website": "http:\/\/www.bialorus.hajnowka.pl",
                "ref:regon": "000735109",
                "operator": "Powiat Hajnowski",
                "operator:type": "government",
                "amenity": "school"
            }
        },
        {
            "id": 131501,
            "type": "Feature",
            "geometry": {
                "type": "Point",
                "coordinates": [
                    23.59211,
                    52.73583
                ]
            },
            "properties": {
                "ref:rspo": 131501,
                "official_name": "Niepubliczne Przedszkole im. \u015aw. \u015aw. Cyryla I Metodego w Hajn\u00f3wce",
                "name": "Niepubliczne Przedszkole",
                "addr:country": "PL",
                "addr:postcode": "17-200",
                "addr:city": "Hajn\u00f3wka",
                "addr:street": "ul. Marsza\u0142ka J\u00f3zefa Pi\u0142sudskiego",
                "addr:housenumber": "3",
                "addr:teryt:simc": 36029,
                "addr:teryt:sym_ul": 923035,
                "contact:email": "biuro@przedszkolecim.pl",
                "contact:website": "http:\/\/www.przedszkolecim.pl",
                "ref:regon": "365210683",
                "ref:vatin": "PL9660787821",
                "operator": "Stowarzyszenie Bractwo Prawos\u0142awne \u015aw. \u015aw. Cyryla I Metodego",
                "operator:type": "ngo",
                "amenity": "kindergarten"
            }
        },
        {
            "id": 85288,
            "type": "Feature",
            "geometry": {
                "type": "Point",
                "coordinates": [
                    23.60014,
                    52.73637
                ]
            },
            "properties": {
                "isced:level": "3",
                "ref:rspo": 85288,
                "official_name": "Liceum Og\u00f3lnokszta\u0142c\u0105ce w Hajn\u00f3wce Zak\u0142adu Doskonalenia Zawodowego w Bia\u0142ymstoku",
                "name": "Liceum Og\u00f3lnokszta\u0142c\u0105ce w Hajn\u00f3wce Zak\u0142adu Doskonalenia Zawodowego w Bia\u0142ymstoku",
                "addr:country": "PL",
                "addr:postcode": "17-200",
                "addr:city": "Hajn\u00f3wka",
                "addr:street": "ul. Armii Krajowej",
                "addr:housenumber": "52",
                "addr:teryt:simc": 432,
                "addr:teryt:sym_ul": 923035,
                "contact:phone": "+48 856822485",
                "contact:email": "hajnowka@zdz.bialystok.pl",
                "contact:website": "http:\/\/www.zdz.bialystok.pl",
                "ref:regon": "200743404",
                "operator": "Zak\u0142ad Doskonalenia Zawodowego",
                "operator:type": "ngo",
                "amenity": "school"
            }
        },
        {
            "id": 85436,
            "type": "Feature",
            "geometry": {
                "type": "Point",
                "coordinates": [
                    23.60014,
                    52.73634
                ]
            },
            "properties": {
                "isced:level": "3",
                "ref:rspo": 85436,
                "official_name": "Liceum Og\u00f3lnokszta\u0142c\u0105ce dla Doros\u0142ych w Hajn\u00f3wce Zak\u0142adu Doskonalenia Zawodowego w Bia\u0142ymstoku",
                "name": "Liceum Og\u00f3lnokszta\u0142c\u0105ce dla Doros\u0142ych w Hajn\u00f3wce Zak\u0142adu Doskonalenia Zawodowego w Bia\u0142ymstoku",
                "addr:country": "PL",
                "addr:postcode": "17-200",
                "addr:city": "Hajn\u00f3wka",
                "addr:street": "ul. Armii Krajowej",
                "addr:housenumber": "52",
                "addr:teryt:simc": 432,
                "addr:teryt:sym_ul": 923035,
                "contact:phone": "+48 856822485",
                "contact:email": "hajnowka@zdz.bialystok.pl",
                "contact:website": "http:\/\/www.zdz.bialystok.pl",
                "ref:regon": "200743396",
                "operator": "Zak\u0142ad Doskonalenia Zawodowego",
                "operator:type": "ngo",
                "amenity": "school"
            }
        },
        {
            "id": 88860,
            "type": "Feature",
            "geometry": {
                "type": "Point",
                "coordinates": [
                    23.60014,
                    52.73631
                ]
            },
            "properties": {
                "isced:level": "4",
                "ref:rspo": 88860,
                "official_name": "Szko\u0142a Policealna w Hajn\u00f3wce Zak\u0142adu Doskonalenia Zawodowego w Bia\u0142ymstoku",
                "name": "Szko\u0142a Policealna w Hajn\u00f3wce Zak\u0142adu Doskonalenia Zawodowego w Bia\u0142ymstoku",
                "addr:country": "PL",
                "addr:postcode": "17-200",
                "addr:city": "Hajn\u00f3wka",
                "addr:street": "ul. Armii Krajowej",
                "addr:housenumber": "52",
                "addr:teryt:simc": 432,
                "addr:teryt:sym_ul": 923035,
                "contact:phone": "+48 856822485",
                "contact:email": "hajnowka@zdz.bialystok.pl",
                "contact:website": "http:\/\/www.zdz.bialystok.pl",
                "ref:regon": "200744332",
                "operator": "Zak\u0142ad Doskonalenia Zawodowego",
                "operator:type": "ngo",
                "amenity": "college"
            }
        },
        {
            "id": 90500,
            "type": "Feature",
            "geometry": {
                "type": "Point",
                "coordinates": [
                    23.60014,
                    52.73628
                ]
            },
            "properties": {
                "ref:rspo": 90500,
                "official_name": "O\u015brodek Kszta\u0142cenia Zawodowego w Hajn\u00f3wce Zak\u0142adu Doskonalenia Zawodowego w Bia\u0142ymstoku",
                "name": "O\u015brodek Kszta\u0142cenia Zawodowego w Hajn\u00f3wce Zak\u0142adu Doskonalenia Zawodowego w Bia\u0142ymstoku",
                "addr:country": "PL",
                "addr:postcode": "17-200",
                "addr:city": "Hajn\u00f3wka",
                "addr:street": "ul. Armii Krajowej",
                "addr:housenumber": "52",
                "addr:teryt:simc": 432,
                "addr:teryt:sym_ul": 923035,
                "contact:phone": "+48 856822485",
                "contact:email": "hajnowka@zdz.bialystok.pl",
                "contact:website": "http:\/\/www.zdz.bialystok.pl",
                "ref:regon": "200744823",
                "ref:vatin": "PL5420000305",
                "operator": "Zak\u0142ad Doskonalenia Zawodowego",
                "operator:type": "ngo",
                "fixme": "w zale\u017cno\u015bci od przedmiotu dzia\u0142alno\u015bci (np. amenity=training + training=*, amenity=dancing_school, amenity=language_school, amenity=music_school)"
            }
        },
        {
            "id": 30078,
            "type": "Feature",
            "geometry": {
                "type": "Point",
                "coordinates": [
                    23.57896,
                    52.73919
                ]
            },
            "properties": {
                "ref:rspo": 30078,
                "official_name": "Przedszkole Nr 2 im. Kubusia Puchatka w Hajn\u00f3wce",
                "name": "Przedszkole Nr 2",
                "addr:country": "PL",
                "addr:postcode": "17-200",
                "addr:city": "Hajn\u00f3wka",
                "addr:street": "ul. Warszawska",
                "addr:housenumber": "2",
                "addr:teryt:simc": 23682,
                "addr:teryt:sym_ul": 923035,
                "contact:phone": "+48 856822148",
                "contact:email": "przedsz2@wp.pl",
                "contact:website": "http:\/\/www.przedszkole2.fc.pl",
                "ref:regon": "050255273",
                "ref:vatin": "PL5431724886",
                "operator": "Gmina Miejska Hajn\u00f3wka",
                "operator:type": "government",
                "amenity": "kindergarten"
            }
        },
        {
            "id": 30057,
            "type": "Feature",
            "geometry": {
                "type": "Point",
                "coordinates": [
                    23.58574,
                    52.73978
                ]
            },
            "properties": {
                "ref:rspo": 30057,
                "official_name": "Przedszkole Nr 1 w Hajn\u00f3wce",
                "name": "Przedszkole Nr 1 w Hajn\u00f3wce",
                "addr:country": "PL",
                "addr:postcode": "17-200",
                "addr:city": "Hajn\u00f3wka",
                "addr:street": "ul. W\u0142adys\u0142awa Jagie\u0142\u0142y",
                "addr:housenumber": "7",
                "addr:teryt:simc": 24494,
                "addr:teryt:sym_ul": 923035,
                "contact:phone": "+48 856822580",
                "contact:email": "przedszkole1@adres.pl",
                "contact:website": "http:\/\/przedszkole1.hajnowka.pl\/",
                "ref:regon": "050255267",
                "ref:vatin": "PL5431772425",
                "operator": "Gmina Miejska Hajn\u00f3wka",
                "operator:type": "government",
                "amenity": "kindergarten"
            }
        },
        {
            "id": 90001,
            "type": "Feature",
            "geometry": {
                "type": "Point",
                "coordinates": [
                    23.58175,
                    52.74002
                ]
            },
            "properties": {
                "ref:rspo": 90001,
                "official_name": "Specjalny O\u015brodek Szkolno- Wychowawczy w Hajn\u00f3wce",
                "name": "Specjalny O\u015brodek Szkolno- Wychowawczy w Hajn\u00f3wce",
                "addr:country": "PL",
                "addr:postcode": "17-200",
                "addr:city": "Hajn\u00f3wka",
                "addr:street": "ul. 3 Maja",
                "addr:housenumber": "27",
                "addr:teryt:simc": 11937,
                "addr:teryt:sym_ul": 923035,
                "contact:phone": "+48 856796960",
                "contact:email": "sekretariat@sosw.hajnowka.pl",
                "contact:website": "http:\/\/www.sosw.hajnowka.pl",
                "ref:regon": "200710965",
                "ref:vatin": "PL6030074845",
                "operator": "Powiat Hajnowski",
                "operator:type": "government",
                "amenity": "school",
                "note": "Children RSPO: 91333;91381"
            }
        },
        {
            "id": 91333,
            "type": "Feature",
            "geometry": {
                "type": "Point",
                "coordinates": [
                    23.58175,
                    52.73999
                ]
            },
            "properties": {
                "isced:level": "1;2",
                "ref:rspo": 91333,
                "official_name": "Szko\u0142a Podstawowa Specjalna w Hajn\u00f3wce",
                "name": "Szko\u0142a Podstawowa Specjalna w Hajn\u00f3wce",
                "addr:country": "PL",
                "addr:postcode": "17-200",
                "addr:city": "Hajn\u00f3wka",
                "addr:street": "ul. 3 Maja",
                "addr:housenumber": "27",
                "addr:teryt:simc": 11937,
                "addr:teryt:sym_ul": 923035,
                "contact:phone": "+48 856796960",
                "contact:email": "sekretariat@sosw.hajnowka.pl",
                "contact:website": "http:\/\/www.sosw.hajnowka.pl",
                "ref:regon": "052202619",
                "operator": "Powiat Hajnowski",
                "operator:type": "government",
                "amenity": "school",
                "note": "Parent RSPO: 90001"
            }
        },
        {
            "id": 91381,
            "type": "Feature",
            "geometry": {
                "type": "Point",
                "coordinates": [
                    23.58175,
                    52.73996
                ]
            },
            "properties": {
                "ref:rspo": 91381,
                "official_name": "Szko\u0142a Specjalna Przysposabiaj\u0105ca Do Pracy w Hajn\u00f3wce",
                "name": "Szko\u0142a Specjalna Przysposabiaj\u0105ca Do Pracy w Hajn\u00f3wce",
                "addr:country": "PL",
                "addr:postcode": "17-200",
                "addr:city": "Hajn\u00f3wka",
                "addr:street": "ul. 3 Maja",
                "addr:housenumber": "27",
                "addr:teryt:simc": 11937,
                "addr:teryt:sym_ul": 923035,
                "contact:phone": "+48 856796960",
                "contact:email": "sekretariat@sosw.hajnowka.pl",
                "contact:website": "http:\/\/www.sosw.hajnowka.pl",
                "ref:regon": "200034429",
                "operator": "Powiat Hajnowski",
                "operator:type": "government",
                "amenity": "school",
                "note": "Parent RSPO: 90001"
            }
        },
        {
            "id": 81654,
            "type": "Feature",
            "geometry": {
                "type": "Point",
                "coordinates": [
                    23.58147,
                    52.74034
                ]
            },
            "properties": {
                "ref:rspo": 81654,
                "official_name": "Zesp\u00f3\u0142 Szk\u00f3\u0142 Zawodowych w Hajn\u00f3wce",
                "name": "Zesp\u00f3\u0142 Szk\u00f3\u0142 Zawodowych w Hajn\u00f3wce",
                "addr:country": "PL",
                "addr:postcode": "17-200",
                "addr:city": "Hajn\u00f3wka",
                "addr:street": "ul. 3 Maja",
                "addr:housenumber": "25",
                "addr:teryt:simc": 11937,
                "addr:teryt:sym_ul": 923035,
                "contact:phone": "+48 856822071",
                "contact:email": "zsz_hajnowka@op.pl",
                "contact:website": "http:\/\/www.zszhajnowka.pl",
                "ref:regon": "000181881",
                "ref:vatin": "PL5431757590",
                "operator": "Powiat Hajnowski",
                "operator:type": "government",
                "landuse": "education",
                "fixme": "amenity=school, amenity=college albo landuse=education w zale\u017cno\u015bci od tego, jakie plac\u00f3wki wchodz\u0105 w sk\u0142ad zespo\u0142u. Sprawd\u017a, kiedy stosowa\u0107 amenity=* a kiedy landuse=education.",
                "note": "Children RSPO: 90115;90130;90506"
            }
        },
        {
            "id": 90115,
            "type": "Feature",
            "geometry": {
                "type": "Point",
                "coordinates": [
                    23.58147,
                    52.74031
                ]
            },
            "properties": {
                "isced:level": "3",
                "ref:rspo": 90115,
                "official_name": "Technikum im. Tadeusza Ko\u015bciuszki w Hajn\u00f3wce",
                "name": "Technikum",
                "addr:country": "PL",
                "addr:postcode": "17-200",
                "addr:city": "Hajn\u00f3wka",
                "addr:street": "ul. 3 Maja",
                "addr:housenumber": "25",
                "addr:teryt:simc": 11937,
                "addr:teryt:sym_ul": 923035,
                "contact:phone": "+48 856822071",
                "contact:email": "zsz_hajnowka@op.pl",
                "contact:website": "http:\/\/www.zszhajnowka.pl",
                "ref:regon": "052125534",
                "operator": "Powiat Hajnowski",
                "operator:type": "government",
                "amenity": "school",
                "note": "Parent RSPO: 81654"
            }
        },
        {
            "id": 90130,
            "type": "Feature",
            "geometry": {
                "type": "Point",
                "coordinates": [
                    23.58147,
                    52.740280000000006
                ]
            },
            "properties": {
                "isced:level": "3",
                "ref:rspo": 90130,
                "official_name": "Bran\u017cowa Szko\u0142a I Stopnia",
                "name": "Bran\u017cowa Szko\u0142a I Stopnia",
                "addr:country": "PL",
                "addr:postcode": "17-200",
                "addr:city": "Hajn\u00f3wka",
                "addr:street": "ul. 3 Maja",
                "addr:housenumber": "25",
                "addr:teryt:simc": 11937,
                "addr:teryt:sym_ul": 923035,
                "contact:phone": "+48 856822071",
                "contact:email": "zsz_hajnowka@op.pl",
                "contact:website": "http:\/\/www.zszhajnowka.pl",
                "ref:regon": "052125528",
                "operator": "Powiat Hajnowski",
                "operator:type": "government",
                "amenity": "school",
                "note": "Parent RSPO: 81654"
            }
        },
        {
            "id": 90506,
            "type": "Feature",
            "geometry": {
                "type": "Point",
                "coordinates": [
                    23.58147,
                    52.74025
                ]
            },
            "properties": {
                "ref:rspo": 90506,
                "official_name": "Centrum Kszta\u0142cenia Zawodowego w Hajn\u00f3wce",
                "name": "Centrum Kszta\u0142cenia Zawodowego w Hajn\u00f3wce",
                "addr:country": "PL",
                "addr:postcode": "17-200",
                "addr:city": "Hajn\u00f3wka",
                "addr:street": "ul. 3 Maja",
                "addr:housenumber": "25",
                "addr:teryt:simc": 11937,
                "addr:teryt:sym_ul": 923035,
                "contact:phone": "+48 856822071",
                "contact:email": "zsz_hajnowka@op.pl",
                "contact:website": "http:\/\/www.zszhajnowka.pl",
                "ref:regon": "050693760",
                "operator": "Powiat Hajnowski",
                "operator:type": "government",
                "fixme": "w zale\u017cno\u015bci od przedmiotu dzia\u0142alno\u015bci (np. amenity=training + training=*, amenity=dancing_school, amenity=language_school, amenity=music_school) albo amenity=school, amenity=college, albo landuse=education w zale\u017cno\u015bci od tego, jakie plac\u00f3wki wchodz\u0105 w sk\u0142ad zespo\u0142u. Sprawd\u017a, kiedy stosowa\u0107 amenity=* a kiedy landuse=education.",
                "note": "Parent RSPO: 81654"
            }
        },
        {
            "id": 126212,
            "type": "Feature",
            "geometry": {
                "type": "Point",
                "coordinates": [
                    23.58459,
                    52.74129
                ]
            },
            "properties": {
                "ref:rspo": 126212,
                "official_name": "Red Bus w Hajn\u00f3wce",
                "name": "Red Bus w Hajn\u00f3wce",
                "addr:country": "PL",
                "addr:postcode": "17-200",
                "addr:city": "Hajn\u00f3wka",
                "addr:street": "ul. ks. Ignacego Wierobieja",
                "addr:housenumber": "30",
                "addr:door": "17",
                "addr:teryt:simc": 28193,
                "addr:teryt:sym_ul": 923035,
                "contact:phone": "+48 856825270",
                "contact:email": "hajnowka@redbus.com.pl",
                "contact:website": "http:\/\/www.redbus.com.pl",
                "ref:regon": "360175812",
                "ref:vatin": "PL5431818914",
                "operator": "El\u017cbieta Moroz",
                "operator:type": "private",
                "fixme": "w zale\u017cno\u015bci od przedmiotu dzia\u0142alno\u015bci (np. amenity=training + training=*, amenity=dancing_school, amenity=language_school, amenity=music_school)"
            }
        },
        {
            "id": 41012,
            "type": "Feature",
            "geometry": {
                "type": "Point",
                "coordinates": [
                    23.57603,
                    52.74184
                ]
            },
            "properties": {
                "isced:level": "1;2",
                "ref:rspo": 41012,
                "official_name": "Szko\u0142a Podstawowa Nr 4 im. Henryka Sienkiewicza w Hajn\u00f3wce",
                "name": "Szko\u0142a Podstawowa Nr 4",
                "addr:country": "PL",
                "addr:postcode": "17-200",
                "addr:city": "Hajn\u00f3wka",
                "addr:street": "ul. Nowowarszawska",
                "addr:housenumber": "20",
                "addr:teryt:simc": 14492,
                "addr:teryt:sym_ul": 923035,
                "contact:phone": "+48 856832508",
                "contact:email": "sp4hajnowka@wp.pl",
                "contact:website": "http:\/\/sp4hajnowka.edupage.org",
                "ref:regon": "050293240",
                "ref:vatin": "PL5432011131",
                "operator": "Gmina Miejska Hajn\u00f3wka",
                "operator:type": "government",
                "amenity": "school"
            }
        },
        {
            "id": 68608,
            "type": "Feature",
            "geometry": {
                "type": "Point",
                "coordinates": [
                    23.57603,
                    52.74181
                ]
            },
            "properties": {
                "ref:rspo": 68608,
                "official_name": "Spo\u0142eczna Szko\u0142a Muzyczna I St. w Hajn\u00f3wce",
                "name": "Spo\u0142eczna Szko\u0142a Muzyczna I St. w Hajn\u00f3wce",
                "addr:country": "PL",
                "addr:postcode": "17-200",
                "addr:city": "Hajn\u00f3wka",
                "addr:street": "ul. Nowowarszawska",
                "addr:housenumber": "20",
                "addr:teryt:simc": 14492,
                "addr:teryt:sym_ul": 923035,
                "contact:email": "stowunisono@poczta.fm",
                "contact:website": "http:\/\/www.unisono.hajnowka.pl",
                "ref:regon": "200739058",
                "operator": "Stowarzyszenie Wspierania Edukacji Muzycznej Unisono",
                "operator:type": "ngo",
                "amenity": "music_school"
            }
        },
        {
            "id": 277524,
            "type": "Feature",
            "geometry": {
                "type": "Point",
                "coordinates": [
                    23.58618,
                    52.74212
                ]
            },
            "properties": {
                "ref:rspo": 277524,
                "official_name": "Inter-Edu Niepubliczna Plac\u00f3wka Kszta\u0142cenia Ustawicznego",
                "name": "Inter-Edu Niepubliczna Plac\u00f3wka Kszta\u0142cenia Ustawicznego",
                "addr:country": "PL",
                "addr:postcode": "17-200",
                "addr:city": "Hajn\u00f3wka",
                "addr:street": "ul. 11 Listopada",
                "addr:housenumber": "3",
                "addr:teryt:simc": 11205,
                "addr:teryt:sym_ul": 923035,
                "contact:phone": "+48 600667865",
                "contact:email": "biuro@inter-edu.pl",
                "contact:website": "http:\/\/www.inter-edu.pl",
                "ref:regon": "389041836",
                "operator": "El\u017cbieta Morda\u0144",
                "operator:type": "private",
                "fixme": "w zale\u017cno\u015bci od przedmiotu dzia\u0142alno\u015bci (np. amenity=training + training=*, amenity=dancing_school, amenity=language_school, amenity=music_school)"
            }
        },
        {
            "id": 30645,
            "type": "Feature",
            "geometry": {
                "type": "Point",
                "coordinates": [
                    23.58472,
                    52.7457
                ]
            },
            "properties": {
                "ref:rspo": 30645,
                "official_name": "Przedszkole Nr 3 Z Oddzia\u0142ami Integracyjnymi im. \u017bubra Pompika w Hajn\u00f3wce",
                "name": "Przedszkole Nr 3 Z Oddzia\u0142ami Integracyjnymi",
                "addr:country": "PL",
                "addr:postcode": "17-200",
                "addr:city": "Hajn\u00f3wka",
                "addr:street": "ul. Rzeczna",
                "addr:housenumber": "3",
                "addr:teryt:simc": 19326,
                "addr:teryt:sym_ul": 923035,
                "contact:phone": "+48 856843505",
                "contact:email": "przedszkole3@hajnowka.pl",
                "contact:website": "http:\/\/www.przedszkole3.hajnowka.pl",
                "ref:regon": "050255280",
                "ref:vatin": "PL5431541447",
                "operator": "Gmina Miejska Hajn\u00f3wka",
                "operator:type": "government",
                "amenity": "kindergarten"
            }
        },
        {
            "id": 40216,
            "type": "Feature",
            "geometry": {
                "type": "Point",
                "coordinates": [
                    23.58418,
                    52.74833
                ]
            },
            "properties": {
                "isced:level": "1;2",
                "ref:rspo": 40216,
                "official_name": "Szko\u0142a Podstawowa Nr 2 im. W\u0142adys\u0142awa Jagie\u0142\u0142y w Hajn\u00f3wce",
                "name": "Szko\u0142a Podstawowa Nr 2",
                "addr:country": "PL",
                "addr:postcode": "17-200",
                "addr:city": "Hajn\u00f3wka",
                "addr:street": "ul. Walerego Wr\u00f3blewskiego",
                "addr:housenumber": "2",
                "addr:teryt:simc": 24838,
                "addr:teryt:sym_ul": 923035,
                "contact:phone": "+48 856822866",
                "contact:email": "sph_nr2@poczta.onet.pl",
                "contact:website": "http:\/\/www.zsznr2hajnowka.edupage.org",
                "ref:regon": "000735121",
                "ref:vatin": "PL5432047459",
                "operator": "Gmina Miejska Hajn\u00f3wka",
                "operator:type": "government",
                "amenity": "school"
            }
        },
        {
            "id": 30132,
            "type": "Feature",
            "geometry": {
                "type": "Point",
                "coordinates": [
                    23.59963,
                    52.74888
                ]
            },
            "properties": {
                "ref:rspo": 30132,
                "official_name": "Przedszkole Nr 5 w Hajn\u00f3wce",
                "name": "Przedszkole Nr 5 w Hajn\u00f3wce",
                "addr:country": "PL",
                "addr:postcode": "17-200",
                "addr:city": "Hajn\u00f3wka",
                "addr:street": "ul. Miko\u0142aja Reja",
                "addr:housenumber": "2",
                "addr:teryt:simc": 18565,
                "addr:teryt:sym_ul": 923035,
                "contact:phone": "+48 856822999",
                "contact:email": "przedszkole5@o2.pl",
                "contact:website": "http:\/\/www.przedszkole5.hajnowka.pl",
                "ref:regon": "050255327",
                "ref:vatin": "PL5431754686",
                "operator": "Gmina Miejska Hajn\u00f3wka",
                "operator:type": "government",
                "amenity": "kindergarten"
            }
        },
        {
            "id": 121261,
            "type": "Feature",
            "geometry": {
                "type": "Point",
                "coordinates": [
                    23.58355,
                    52.75489
                ]
            },
            "properties": {
                "ref:rspo": 121261,
                "official_name": "Niepubliczne Przedszkole J\u0119zykowe Red Bus Kids w Hajn\u00f3wce",
                "name": "Niepubliczne Przedszkole J\u0119zykowe Red Bus Kids w Hajn\u00f3wce",
                "addr:country": "PL",
                "addr:postcode": "17-200",
                "addr:city": "Hajn\u00f3wka",
                "addr:street": "ul. Bia\u0142ostocka",
                "addr:housenumber": "9",
                "addr:teryt:simc": 1184,
                "addr:teryt:sym_ul": 923035,
                "contact:phone": "+48 856551013",
                "contact:email": "biuro@redbus.com.pl",
                "contact:website": "http:\/\/www.przedszkole.redbus.com.pl",
                "ref:regon": "200825600",
                "ref:vatin": "PL5431818914",
                "operator": "El\u017cbieta Moroz",
                "operator:type": "private",
                "amenity": "kindergarten"
            }
        }
    ]
}