{
    "type": "FeatureCollection",
    "features": [
        {
            "id": 55354,
            "type": "Feature",
            "geometry": {
                "type": "Point",
                "coordinates": [
                    19.60337,
                    50.33649
                ]
            },
            "properties": {
                "isced:level": "1;2",
                "ref:rspo": 55354,
                "official_name": "Szko\u0142a Podstawowa im. Or\u0142a Bia\u0142ego w Jaroszowcu",
                "name": "Szko\u0142a Podstawowa",
                "addr:postcode": "32-310",
                "addr:city": "Jaroszowiec",
                "addr:street": "Kolejowa",
                "addr:housenumber": "18",
                "addr:city:simc": 214988,
                "addr:street:sym_ul": 8828,
                "phone": "+48 326457097",
                "email": "spjar2@poczta.onet.pl",
                "website": "http:\/\/www.spjaroszowiec.pl",
                "ref:regon": "000736480",
                "operator": "Gmina Klucze",
                "operator:type": "government",
                "amenity": "school"
            }
        },
        {
            "id": 40755,
            "type": "Feature",
            "geometry": {
                "type": "Point",
                "coordinates": [
                    19.5966999,
                    50.33658
                ]
            },
            "properties": {
                "ref:rspo": 40755,
                "official_name": "Przedszkole im. Marii Konopnickiej w Jaroszowcu",
                "name": "Przedszkole",
                "addr:postcode": "32-310",
                "addr:city": "Jaroszowiec",
                "addr:street": "Le\u015bna",
                "addr:housenumber": "23",
                "addr:city:simc": 214988,
                "addr:street:sym_ul": 10898,
                "phone": "+48 326428006",
                "email": "przedszkole-jaroszowiec@wp.pl",
                "ref:regon": "271511986",
                "ref:vatin": "PL6371925439",
                "operator": "Gmina Klucze",
                "operator:type": "government",
                "amenity": "kindergarten"
            }
        },
        {
            "id": 55357,
            "type": "Feature",
            "geometry": {
                "type": "Point",
                "coordinates": [
                    19.56218,
                    50.35263
                ]
            },
            "properties": {
                "isced:level": "1;2",
                "ref:rspo": 55357,
                "official_name": "Szko\u0142a Podstawowa im. Jana Paw\u0142a II w Kluczach",
                "name": "Szko\u0142a Podstawowa",
                "addr:postcode": "32-310",
                "addr:city": "Klucze",
                "addr:street": "Zawiercia\u0144ska",
                "addr:housenumber": "30",
                "addr:city:simc": 214994,
                "addr:street:sym_ul": 25841,
                "phone": "+48 326428519",
                "email": "spklucz@op.pl",
                "ref:regon": "001192763",
                "operator": "Gmina Klucze",
                "operator:type": "government",
                "amenity": "school"
            }
        },
        {
            "id": 53441,
            "type": "Feature",
            "geometry": {
                "type": "Point",
                "coordinates": [
                    19.51964,
                    50.36709
                ]
            },
            "properties": {
                "ref:rspo": 53441,
                "official_name": "Zesp\u00f3\u0142 Szkolno-Przedszkolny w Chechle",
                "name": "Zesp\u00f3\u0142 Szkolno-Przedszkolny w Chechle",
                "addr:postcode": "32-310",
                "addr:city": "Chech\u0142o",
                "addr:street": "Kluczewska",
                "addr:housenumber": "56",
                "addr:city:simc": 214882,
                "addr:street:sym_ul": 8590,
                "phone": "+48 326420002",
                "email": "spchechlo@wp.pl",
                "ref:regon": "122597710",
                "operator": "Gmina Klucze",
                "operator:type": "government",
                "landuse": "education",
                "fixme": "amenity=school, amenity=college albo landuse=education w zale\u017cno\u015bci od tego, jakie plac\u00f3wki wchodz\u0105 w sk\u0142ad zespo\u0142u. Sprawd\u017a, kiedy stosowa\u0107 amenity=* a kiedy landuse=education.",
                "note": "Children RSPO: 60453;60454"
            }
        },
        {
            "id": 60453,
            "type": "Feature",
            "geometry": {
                "type": "Point",
                "coordinates": [
                    19.51964,
                    50.367059999999995
                ]
            },
            "properties": {
                "isced:level": "1;2",
                "ref:rspo": 60453,
                "official_name": "Szko\u0142a Podstawowa im. Tadeusza Ko\u015bciuszki w Chechle",
                "name": "Szko\u0142a Podstawowa",
                "addr:postcode": "32-310",
                "addr:city": "Chech\u0142o",
                "addr:street": "Kluczewska",
                "addr:housenumber": "56",
                "addr:city:simc": 214882,
                "addr:street:sym_ul": 8590,
                "phone": "+48 326420002",
                "email": "spchechlo@wp.pl",
                "ref:regon": "001192757",
                "ref:vatin": "PL6371925540",
                "operator": "Gmina Klucze",
                "operator:type": "government",
                "amenity": "school",
                "note": "Parent RSPO: 53441"
            }
        },
        {
            "id": 60454,
            "type": "Feature",
            "geometry": {
                "type": "Point",
                "coordinates": [
                    19.51964,
                    50.36703
                ]
            },
            "properties": {
                "ref:rspo": 60454,
                "official_name": "Przedszkole w Chechle",
                "name": "Przedszkole w Chechle",
                "addr:postcode": "32-310",
                "addr:city": "Chech\u0142o",
                "addr:street": "Kluczewska",
                "addr:housenumber": "56",
                "addr:city:simc": 214882,
                "addr:street:sym_ul": 8590,
                "phone": "+48 326420002",
                "email": "spchechlo@wp.pl",
                "ref:regon": "271511970",
                "ref:vatin": "PL6371925422",
                "operator": "Gmina Klucze",
                "operator:type": "government",
                "amenity": "kindergarten",
                "note": "Parent RSPO: 53441"
            }
        },
        {
            "id": 40753,
            "type": "Feature",
            "geometry": {
                "type": "Point",
                "coordinates": [
                    19.65516,
                    50.37688
                ]
            },
            "properties": {
                "ref:rspo": 40753,
                "official_name": "Przedszkole im. Jasia I Ma\u0142gosi w Kluczach",
                "name": "Przedszkole",
                "addr:postcode": "32-310",
                "addr:city": "Klucze",
                "addr:street": "Sosnowa",
                "addr:housenumber": "13",
                "addr:city:simc": 214994,
                "addr:street:sym_ul": 20598,
                "phone": "+48 326428525",
                "email": "przedszkoleklucze@interia.pl",
                "ref:regon": "271511940",
                "ref:vatin": "PL6371925445",
                "operator": "Gmina Klucze",
                "operator:type": "government",
                "amenity": "kindergarten"
            }
        },
        {
            "id": 53442,
            "type": "Feature",
            "geometry": {
                "type": "Point",
                "coordinates": [
                    19.585420608521,
                    50.380409240723
                ]
            },
            "properties": {
                "ref:rspo": 53442,
                "official_name": "Zesp\u00f3\u0142 Szkolno-Przedszkolny w Kwa\u015bniowie Dolnym",
                "name": "Zesp\u00f3\u0142 Szkolno-Przedszkolny w Kwa\u015bniowie Dolnym",
                "addr:postcode": "32-310",
                "addr:city": "Kwa\u015bni\u00f3w Dolny",
                "addr:street": "Basztowa",
                "addr:housenumber": "2",
                "addr:city:simc": 215108,
                "addr:street:sym_ul": 861,
                "phone": "+48 326426003",
                "email": "sp_kwasniow5@wp.pl",
                "website": "http:\/\/www.spkwasniow.szkolnastrona.pl",
                "ref:regon": "356885860",
                "operator": "Gmina Klucze",
                "operator:type": "government",
                "landuse": "education",
                "fixme": "amenity=school, amenity=college albo landuse=education w zale\u017cno\u015bci od tego, jakie plac\u00f3wki wchodz\u0105 w sk\u0142ad zespo\u0142u. Sprawd\u017a, kiedy stosowa\u0107 amenity=* a kiedy landuse=education.",
                "note": "Children RSPO: 61822;61823"
            }
        },
        {
            "id": 61822,
            "type": "Feature",
            "geometry": {
                "type": "Point",
                "coordinates": [
                    19.585420608521,
                    50.380379240722995
                ]
            },
            "properties": {
                "isced:level": "1;2",
                "ref:rspo": 61822,
                "official_name": "Szko\u0142a Podstawowa im. Unii Europejskiej w Kwa\u015bniowie Dolnym",
                "name": "Szko\u0142a Podstawowa",
                "addr:postcode": "32-310",
                "addr:city": "Kwa\u015bni\u00f3w Dolny",
                "addr:street": "Basztowa",
                "addr:housenumber": "2",
                "addr:city:simc": 215108,
                "addr:street:sym_ul": 861,
                "phone": "+48 326426003",
                "email": "sp_kwasniow5@wp.pl",
                "ref:regon": "001192711",
                "ref:vatin": "PL6371925617",
                "operator": "Gmina Klucze",
                "operator:type": "government",
                "amenity": "school",
                "note": "Parent RSPO: 53442"
            }
        },
        {
            "id": 61823,
            "type": "Feature",
            "geometry": {
                "type": "Point",
                "coordinates": [
                    19.585420608521,
                    50.380349240723
                ]
            },
            "properties": {
                "ref:rspo": 61823,
                "official_name": "Przedszkole w Kwa\u015bniowie Dolnym",
                "name": "Przedszkole w Kwa\u015bniowie Dolnym",
                "addr:postcode": "32-310",
                "addr:city": "Kwa\u015bni\u00f3w Dolny",
                "addr:street": "Basztowa",
                "addr:housenumber": "2",
                "addr:city:simc": 215108,
                "addr:street:sym_ul": 861,
                "phone": "+48 326426003",
                "email": "sp_kwasniow5@wp.pl",
                "ref:regon": "271512017",
                "ref:vatin": "PL6371925451",
                "operator": "Gmina Klucze",
                "operator:type": "government",
                "amenity": "kindergarten",
                "note": "Parent RSPO: 53442"
            }
        },
        {
            "id": 53162,
            "type": "Feature",
            "geometry": {
                "type": "Point",
                "coordinates": [
                    19.6429,
                    50.38413
                ]
            },
            "properties": {
                "ref:rspo": 53162,
                "official_name": "Zesp\u00f3\u0142 Szkolno-Przedszkolny w Bydlinie",
                "name": "Zesp\u00f3\u0142 Szkolno-Przedszkolny w Bydlinie",
                "addr:postcode": "32-310",
                "addr:city": "Bydlin",
                "addr:street": "Legion\u00f3w",
                "addr:housenumber": "32",
                "addr:city:simc": 214818,
                "addr:street:sym_ul": 10769,
                "phone": "+48 326426005",
                "email": "spbydlin@interia.pl",
                "website": "http:\/\/www.spbydlin.szkolnastrona.pl",
                "ref:regon": "122597673",
                "operator": "Gmina Klucze",
                "operator:type": "government",
                "landuse": "education",
                "fixme": "amenity=school, amenity=college albo landuse=education w zale\u017cno\u015bci od tego, jakie plac\u00f3wki wchodz\u0105 w sk\u0142ad zespo\u0142u. Sprawd\u017a, kiedy stosowa\u0107 amenity=* a kiedy landuse=education.",
                "note": "Children RSPO: 60241;60242"
            }
        },
        {
            "id": 60241,
            "type": "Feature",
            "geometry": {
                "type": "Point",
                "coordinates": [
                    19.6429,
                    50.3841
                ]
            },
            "properties": {
                "isced:level": "1;2",
                "ref:rspo": 60241,
                "official_name": "Szko\u0142a Podstawowa im. Marsza\u0142ka J\u00f3zefa Pi\u0142sudskiego w Bydlinie",
                "name": "Szko\u0142a Podstawowa",
                "addr:postcode": "32-310",
                "addr:city": "Bydlin",
                "addr:street": "Legion\u00f3w",
                "addr:housenumber": "32",
                "addr:city:simc": 214818,
                "addr:street:sym_ul": 10769,
                "phone": "+48 326426005",
                "email": "spbydlin@interia.pl",
                "ref:regon": "001192728",
                "ref:vatin": "PL6371925534",
                "operator": "Gmina Klucze",
                "operator:type": "government",
                "amenity": "school",
                "note": "Parent RSPO: 53162"
            }
        },
        {
            "id": 60242,
            "type": "Feature",
            "geometry": {
                "type": "Point",
                "coordinates": [
                    19.6429,
                    50.38407
                ]
            },
            "properties": {
                "ref:rspo": 60242,
                "official_name": "Przedszkole w Bydlinie",
                "name": "Przedszkole w Bydlinie",
                "addr:postcode": "32-310",
                "addr:city": "Bydlin",
                "addr:street": "Legion\u00f3w",
                "addr:housenumber": "32",
                "addr:city:simc": 214818,
                "addr:street:sym_ul": 10769,
                "phone": "+48 326426005",
                "email": "spbydlin@interia.pl",
                "website": "http:\/\/www.spbydlin.pl",
                "ref:regon": "271511963",
                "ref:vatin": "PL6371925416",
                "operator": "Gmina Klucze",
                "operator:type": "government",
                "amenity": "kindergarten",
                "note": "Parent RSPO: 53162"
            }
        },
        {
            "id": 53443,
            "type": "Feature",
            "geometry": {
                "type": "Point",
                "coordinates": [
                    19.56019,
                    50.38806
                ]
            },
            "properties": {
                "ref:rspo": 53443,
                "official_name": "Zesp\u00f3\u0142 Szkolno-Przedszkolny w Rycz\u00f3wku",
                "name": "Zesp\u00f3\u0142 Szkolno-Przedszkolny w Rycz\u00f3wku",
                "addr:postcode": "32-310",
                "addr:city": "Rycz\u00f3wek",
                "addr:street": "Dolna",
                "addr:housenumber": "12",
                "addr:city:simc": 215226,
                "addr:street:sym_ul": 4034,
                "phone": "+48 326420107",
                "email": "zsp.ryczowek@gmail.com",
                "ref:regon": "122597650",
                "operator": "Gmina Klucze",
                "operator:type": "government",
                "landuse": "education",
                "fixme": "amenity=school, amenity=college albo landuse=education w zale\u017cno\u015bci od tego, jakie plac\u00f3wki wchodz\u0105 w sk\u0142ad zespo\u0142u. Sprawd\u017a, kiedy stosowa\u0107 amenity=* a kiedy landuse=education.",
                "note": "Children RSPO: 63317;63319"
            }
        },
        {
            "id": 63317,
            "type": "Feature",
            "geometry": {
                "type": "Point",
                "coordinates": [
                    19.56019,
                    50.38803
                ]
            },
            "properties": {
                "isced:level": "1;2",
                "ref:rspo": 63317,
                "official_name": "Szko\u0142a Podstawowa w Rycz\u00f3wku",
                "name": "Szko\u0142a Podstawowa w Rycz\u00f3wku",
                "addr:postcode": "32-310",
                "addr:city": "Rycz\u00f3wek",
                "addr:street": "Dolna",
                "addr:housenumber": "12",
                "addr:city:simc": 215226,
                "addr:street:sym_ul": 4034,
                "phone": "+48 326420107",
                "email": "zsp.ryczowek@gmail.com",
                "ref:regon": "001192734",
                "ref:vatin": "PL6371925646",
                "operator": "Gmina Klucze",
                "operator:type": "government",
                "amenity": "school",
                "note": "Parent RSPO: 53443"
            }
        },
        {
            "id": 63319,
            "type": "Feature",
            "geometry": {
                "type": "Point",
                "coordinates": [
                    19.56019,
                    50.388000000000005
                ]
            },
            "properties": {
                "ref:rspo": 63319,
                "official_name": "Przedszkole w Rycz\u00f3wku",
                "name": "Przedszkole w Rycz\u00f3wku",
                "addr:postcode": "32-310",
                "addr:city": "Rycz\u00f3wek",
                "addr:street": "Dolna",
                "addr:housenumber": "12",
                "addr:city:simc": 215226,
                "addr:street:sym_ul": 4034,
                "phone": "+48 326420107",
                "email": "zsp.ryczowek@gmail.com",
                "ref:regon": "271512030",
                "ref:vatin": "PL6371925468",
                "operator": "Gmina Klucze",
                "operator:type": "government",
                "amenity": "kindergarten",
                "note": "Parent RSPO: 53443"
            }
        },
        {
            "id": 55356,
            "type": "Feature",
            "geometry": {
                "type": "Point",
                "coordinates": [
                    19.53453,
                    50.3949
                ]
            },
            "properties": {
                "isced:level": "1;2",
                "ref:rspo": 55356,
                "official_name": "Szko\u0142a Podstawowa im. Miko\u0142aja Kopernika w Rodakach",
                "name": "Szko\u0142a Podstawowa",
                "addr:postcode": "32-310",
                "addr:city": "Rodaki",
                "addr:street": "Stra\u017cacka",
                "addr:housenumber": "11",
                "addr:city:simc": 215195,
                "addr:street:sym_ul": 21271,
                "phone": "+48 326420121",
                "email": "szkolapodstawowarodaki@gmail.com",
                "website": "http:\/\/sp.rodaki.pl",
                "ref:regon": "001192740",
                "operator": "Gmina Klucze",
                "operator:type": "government",
                "amenity": "school"
            }
        }
    ]
}