{
    "type": "FeatureCollection",
    "features": [
        {
            "id": 128683,
            "type": "Feature",
            "geometry": {
                "type": "Point",
                "coordinates": [
                    19.6799468,
                    50.345433
                ]
            },
            "properties": {
                "ref:rspo": 128683,
                "official_name": "Niepubliczne Przedszkole \"Krasnoludek\" w Chrz\u0105stowicach",
                "name": "Niepubliczne Przedszkole \"Krasnoludek\" w Chrz\u0105stowicach",
                "addr:country": "PL",
                "addr:postcode": "32-340",
                "addr:place": "Chrz\u0105stowice",
                "addr:housenumber": "15",
                "addr:teryt:sym_ul": 223792,
                "contact:phone": "+48 604998174",
                "contact:email": "azurek@przedszkolekrasnoludek.pl",
                "ref:regon": "362361128",
                "operator": "Stowarzyszenie Chrz\u0105stowice Razem",
                "operator:type": "ngo",
                "amenity": "kindergarten"
            }
        },
        {
            "id": 6347,
            "type": "Feature",
            "geometry": {
                "type": "Point",
                "coordinates": [
                    19.7889589,
                    50.3540269
                ]
            },
            "properties": {
                "isced:level": "1;2",
                "ref:rspo": 6347,
                "official_name": "Niepubliczna Szko\u0142a Podstawowa w Por\u0119bie G\u00f3rnej",
                "name": "Niepubliczna Szko\u0142a Podstawowa w Por\u0119bie G\u00f3rnej",
                "addr:country": "PL",
                "addr:postcode": "32-340",
                "addr:place": "Por\u0119ba G\u00f3rna",
                "addr:housenumber": "62",
                "addr:teryt:sym_ul": 224691,
                "contact:phone": "+48 326464921",
                "contact:email": "nsppg@interia.pl",
                "contact:website": "https:\/\/nspporebagorna.szkolna.net\/",
                "ref:regon": "122647112",
                "operator": "Stowarzyszenie Rozwoju Wsi Por\u0119ba G\u00f3rna I Wsi Przyleg\u0142ych",
                "operator:type": "ngo",
                "amenity": "school"
            }
        },
        {
            "id": 130059,
            "type": "Feature",
            "geometry": {
                "type": "Point",
                "coordinates": [
                    19.7889589,
                    50.3539969
                ]
            },
            "properties": {
                "ref:rspo": 130059,
                "official_name": "Niepubliczne Przedszkole w Por\u0119bie G\u00f3rnej",
                "name": "Niepubliczne Przedszkole w Por\u0119bie G\u00f3rnej",
                "addr:country": "PL",
                "addr:postcode": "32-340",
                "addr:place": "Por\u0119ba G\u00f3rna",
                "addr:housenumber": "62",
                "addr:teryt:sym_ul": 224691,
                "contact:phone": "+48 326464921",
                "contact:email": "nsppg@interia.pl",
                "contact:website": "https:\/\/nspporebagorna.szkolna.net\/",
                "ref:regon": "363378852",
                "operator": "Stowarzyszenie Rozwoju Wsi Por\u0119ba G\u00f3rna I Wsi Przyleg\u0142ych",
                "operator:type": "ngo",
                "amenity": "kindergarten"
            }
        },
        {
            "id": 39710,
            "type": "Feature",
            "geometry": {
                "type": "Point",
                "coordinates": [
                    19.711380004883,
                    50.355171203613
                ]
            },
            "properties": {
                "ref:rspo": 39710,
                "official_name": "Zesp\u00f3\u0142 Szk\u00f3\u0142 w Go\u0142aczewach",
                "name": "Zesp\u00f3\u0142 Szk\u00f3\u0142 w Go\u0142aczewach",
                "addr:country": "PL",
                "addr:postcode": "32-340",
                "addr:city": "Go\u0142aczewy",
                "addr:street": "Che\u0142mska",
                "addr:housenumber": "8",
                "addr:teryt:simc": 2709,
                "addr:teryt:sym_ul": 223970,
                "contact:phone": "+48 326465646",
                "contact:email": "szkolagolaczewy@op.pl",
                "contact:website": "http:\/\/www.zsgolaczewy.pl",
                "ref:regon": "356737673",
                "ref:vatin": "PL6372006545",
                "operator": "Gmina Wolbrom",
                "operator:type": "government",
                "landuse": "education",
                "fixme": "amenity=school, amenity=college albo landuse=education w zale\u017cno\u015bci od tego, jakie plac\u00f3wki wchodz\u0105 w sk\u0142ad zespo\u0142u. Sprawd\u017a, kiedy stosowa\u0107 amenity=* a kiedy landuse=education.",
                "note": "Children RSPO: 69261;85194"
            }
        },
        {
            "id": 69261,
            "type": "Feature",
            "geometry": {
                "type": "Point",
                "coordinates": [
                    19.711380004883,
                    50.355141203612995
                ]
            },
            "properties": {
                "ref:rspo": 69261,
                "official_name": "Przedszkole Publiczne w Go\u0142aczewach",
                "name": "Przedszkole Publiczne w Go\u0142aczewach",
                "addr:country": "PL",
                "addr:postcode": "32-340",
                "addr:city": "Go\u0142aczewy",
                "addr:street": "Che\u0142mska",
                "addr:housenumber": "1",
                "addr:teryt:simc": 2709,
                "addr:teryt:sym_ul": 223970,
                "contact:phone": "+48 326465646",
                "contact:email": "szkolagolaczewy@op.pl",
                "ref:regon": "271510857",
                "ref:vatin": "PL6371893426",
                "operator": "Gmina Wolbrom",
                "operator:type": "government",
                "amenity": "kindergarten",
                "note": "Parent RSPO: 39710"
            }
        },
        {
            "id": 85194,
            "type": "Feature",
            "geometry": {
                "type": "Point",
                "coordinates": [
                    19.711380004883,
                    50.355111203613
                ]
            },
            "properties": {
                "isced:level": "1;2",
                "ref:rspo": 85194,
                "official_name": "Szko\u0142a Podstawowa w Go\u0142aczewach",
                "name": "Szko\u0142a Podstawowa w Go\u0142aczewach",
                "addr:country": "PL",
                "addr:postcode": "32-340",
                "addr:city": "Go\u0142aczewy",
                "addr:street": "Che\u0142mska",
                "addr:housenumber": "8",
                "addr:teryt:simc": 2709,
                "addr:teryt:sym_ul": 223970,
                "contact:phone": "+48 326465646",
                "contact:email": "szkolagolaczewy@op.pl",
                "contact:website": "http:\/\/www.zsgolaczewy.pl",
                "ref:regon": "000729920",
                "ref:vatin": "PL6371893389",
                "operator": "Gmina Wolbrom",
                "operator:type": "government",
                "amenity": "school",
                "note": "Parent RSPO: 39710"
            }
        },
        {
            "id": 39715,
            "type": "Feature",
            "geometry": {
                "type": "Point",
                "coordinates": [
                    19.75792,
                    50.35931
                ]
            },
            "properties": {
                "isced:level": "1;2",
                "ref:rspo": 39715,
                "official_name": "Szko\u0142a Podstawowa w Che\u0142mie",
                "name": "Szko\u0142a Podstawowa w Che\u0142mie",
                "addr:country": "PL",
                "addr:postcode": "32-340",
                "addr:city": "Che\u0142m",
                "addr:street": "Wolbromska",
                "addr:housenumber": "21",
                "addr:teryt:simc": 24664,
                "addr:teryt:sym_ul": 223734,
                "contact:phone": "+48 326441014",
                "contact:email": "s.p.chelm@interia.pl",
                "ref:regon": "000729994",
                "ref:vatin": "PL6371893449",
                "operator": "Gmina Wolbrom",
                "operator:type": "government",
                "amenity": "school"
            }
        },
        {
            "id": 18632,
            "type": "Feature",
            "geometry": {
                "type": "Point",
                "coordinates": [
                    19.76821,
                    50.37017
                ]
            },
            "properties": {
                "ref:rspo": 18632,
                "official_name": "Kompleksowa Obs\u0142uga Firm w Zakresie Bhp \"Puls\" Piotr Borowiecki",
                "name": "Kompleksowa Obs\u0142uga Firm w Zakresie Bhp \"Puls\" Piotr Borowiecki",
                "addr:country": "PL",
                "addr:postcode": "32-340",
                "addr:city": "Wolbrom",
                "addr:street": "Osiedle \u0141ukasi\u0144skiego",
                "addr:housenumber": "31",
                "addr:teryt:simc": 11751,
                "addr:teryt:sym_ul": 945315,
                "contact:phone": "+48 606685750",
                "contact:email": "bhp.puls@op.pl",
                "contact:website": "http:\/\/www.bhppuls.pl",
                "ref:regon": "122667066",
                "ref:vatin": "PL6371367413",
                "operator": "Piotr Borowiecki",
                "operator:type": "private",
                "fixme": "w zale\u017cno\u015bci od przedmiotu dzia\u0142alno\u015bci (np. amenity=training + training=*, amenity=dancing_school, amenity=language_school, amenity=music_school)"
            }
        },
        {
            "id": 125465,
            "type": "Feature",
            "geometry": {
                "type": "Point",
                "coordinates": [
                    19.76803,
                    50.37166
                ]
            },
            "properties": {
                "ref:rspo": 125465,
                "official_name": "Filia Poradni Psychologiczno-Pedagogicznej w Olkuszu Z Siedzib\u0105 w Wolbromiu",
                "name": "Filia Poradni Psychologiczno-Pedagogicznej w Olkuszu Z Siedzib\u0105 w Wolbromiu",
                "addr:country": "PL",
                "addr:postcode": "32-340",
                "addr:city": "Wolbrom",
                "addr:street": "\u0141ukasi\u0144skiego",
                "addr:housenumber": "6",
                "addr:teryt:simc": 11752,
                "addr:teryt:sym_ul": 945315,
                "contact:phone": "+48 326441355",
                "contact:email": "pppwolbrom@op.pl",
                "ref:regon": "730448000",
                "operator": "Powiat Olkuski",
                "operator:type": "government",
                "healthcare": "counselling",
                "counselling_type": "education",
                "fixme": "w zale\u017cno\u015bci od przedmiotu dzia\u0142alno\u015bci (np. healthcare=counselling + counselling_type=education albo healthcare=psychotherapist)",
                "note": "Parent RSPO: 13365"
            }
        },
        {
            "id": 272184,
            "type": "Feature",
            "geometry": {
                "type": "Point",
                "coordinates": [
                    19.69466,
                    50.37276
                ]
            },
            "properties": {
                "ref:rspo": 272184,
                "official_name": "Zesp\u00f3\u0142 Szkolno-Przedszkolny w Zarzeczu",
                "name": "Zesp\u00f3\u0142 Szkolno-Przedszkolny w Zarzeczu",
                "addr:country": "PL",
                "addr:postcode": "32-340",
                "addr:city": "Zarzecze",
                "addr:street": "Szkolna",
                "addr:housenumber": "2",
                "addr:teryt:simc": 21970,
                "addr:teryt:sym_ul": 224892,
                "contact:phone": "+48 326465185",
                "contact:email": "zszarzecze@op.pl",
                "contact:website": "http:\/\/www.zszarzecze.edupage.org",
                "ref:regon": "384002487",
                "ref:vatin": "PL6372208243",
                "operator": "Gmina Wolbrom",
                "operator:type": "government",
                "landuse": "education",
                "fixme": "amenity=school, amenity=college albo landuse=education w zale\u017cno\u015bci od tego, jakie plac\u00f3wki wchodz\u0105 w sk\u0142ad zespo\u0142u. Sprawd\u017a, kiedy stosowa\u0107 amenity=* a kiedy landuse=education.",
                "note": "Children RSPO: 66214;272166"
            }
        },
        {
            "id": 66214,
            "type": "Feature",
            "geometry": {
                "type": "Point",
                "coordinates": [
                    19.69466,
                    50.37273
                ]
            },
            "properties": {
                "isced:level": "1;2",
                "ref:rspo": 66214,
                "official_name": "Szko\u0142a Podstawowa w Zarzeczu",
                "name": "Szko\u0142a Podstawowa w Zarzeczu",
                "addr:country": "PL",
                "addr:postcode": "32-340",
                "addr:city": "Zarzecze",
                "addr:street": "Szkolna",
                "addr:housenumber": "2",
                "addr:teryt:simc": 21970,
                "addr:teryt:sym_ul": 224892,
                "contact:phone": "+48 326465185",
                "contact:email": "zszarzecze@op.pl",
                "ref:regon": "000729942",
                "ref:vatin": "PL6372005623",
                "operator": "Gmina Wolbrom",
                "operator:type": "government",
                "amenity": "school",
                "note": "Parent RSPO: 272184"
            }
        },
        {
            "id": 272166,
            "type": "Feature",
            "geometry": {
                "type": "Point",
                "coordinates": [
                    19.69466,
                    50.3727
                ]
            },
            "properties": {
                "ref:rspo": 272166,
                "official_name": "Pprzedszkole Publiczne w Zarzeczu",
                "name": "Pprzedszkole Publiczne w Zarzeczu",
                "addr:country": "PL",
                "addr:postcode": "32-340",
                "addr:city": "Zarzecze",
                "addr:street": "Szkolna",
                "addr:housenumber": "2",
                "addr:teryt:simc": 21970,
                "addr:teryt:sym_ul": 224892,
                "contact:phone": "+48 326465185",
                "contact:email": "zszarzecze@op.pl",
                "ref:regon": "383991985",
                "operator": "Gmina Wolbrom",
                "operator:type": "government",
                "amenity": "kindergarten",
                "note": "Parent RSPO: 272184"
            }
        },
        {
            "id": 35213,
            "type": "Feature",
            "geometry": {
                "type": "Point",
                "coordinates": [
                    19.77151,
                    50.37324
                ]
            },
            "properties": {
                "ref:rspo": 35213,
                "official_name": "Zesp\u00f3\u0142 Szk\u00f3\u0142 w Wolbromiu",
                "name": "Zesp\u00f3\u0142 Szk\u00f3\u0142 w Wolbromiu",
                "addr:country": "PL",
                "addr:postcode": "32-340",
                "addr:city": "Wolbrom",
                "addr:street": "Pod Lasem",
                "addr:housenumber": "1",
                "addr:teryt:simc": 16634,
                "addr:teryt:sym_ul": 945315,
                "contact:phone": "+48 326464710",
                "contact:email": "poczta@zespolszkol.wolbrom.pl",
                "contact:website": "http:\/\/www.zs.wolbrom.pl",
                "ref:regon": "356737779",
                "ref:vatin": "PL6372005652",
                "operator": "Gmina Wolbrom",
                "operator:type": "government",
                "landuse": "education",
                "fixme": "amenity=school, amenity=college albo landuse=education w zale\u017cno\u015bci od tego, jakie plac\u00f3wki wchodz\u0105 w sk\u0142ad zespo\u0142u. Sprawd\u017a, kiedy stosowa\u0107 amenity=* a kiedy landuse=education.",
                "note": "Children RSPO: 39728;69353"
            }
        },
        {
            "id": 69353,
            "type": "Feature",
            "geometry": {
                "type": "Point",
                "coordinates": [
                    19.77151,
                    50.37321
                ]
            },
            "properties": {
                "isced:level": "1;2",
                "ref:rspo": 69353,
                "official_name": "Szko\u0142a Podstawowa Nr 2 w Wolbromiu",
                "name": "Szko\u0142a Podstawowa Nr 2 w Wolbromiu",
                "addr:country": "PL",
                "addr:postcode": "32-340",
                "addr:city": "Wolbrom",
                "addr:street": "Pod Lasem",
                "addr:housenumber": "1",
                "addr:teryt:simc": 16634,
                "addr:teryt:sym_ul": 945315,
                "contact:phone": "+48 326464710",
                "contact:email": "poczta@zespolszkol.wolbrom.pl",
                "ref:regon": "000729882",
                "ref:vatin": "PL6371893314",
                "operator": "Gmina Wolbrom",
                "operator:type": "government",
                "amenity": "school",
                "note": "Parent RSPO: 35213"
            }
        },
        {
            "id": 39728,
            "type": "Feature",
            "geometry": {
                "type": "Point",
                "coordinates": [
                    19.76591,
                    50.3753
                ]
            },
            "properties": {
                "ref:rspo": 39728,
                "official_name": "Przedszkole Publiczne Nr 2 w Wolbromiu",
                "name": "Przedszkole Publiczne Nr 2 w Wolbromiu",
                "addr:country": "PL",
                "addr:postcode": "32-340",
                "addr:city": "Wolbrom",
                "addr:street": "M\u0142y\u0144ska",
                "addr:housenumber": "1",
                "addr:teryt:simc": 13132,
                "addr:teryt:sym_ul": 945315,
                "contact:phone": "+48 326464710",
                "contact:email": "poczta@zespolszkol.wolbrom.pl",
                "ref:regon": "271510828",
                "ref:vatin": "PL6371893455",
                "operator": "Gmina Wolbrom",
                "operator:type": "government",
                "amenity": "kindergarten",
                "note": "Parent RSPO: 35213"
            }
        },
        {
            "id": 39717,
            "type": "Feature",
            "geometry": {
                "type": "Point",
                "coordinates": [
                    19.7412951,
                    50.3754352
                ]
            },
            "properties": {
                "isced:level": "1;2",
                "ref:rspo": 39717,
                "official_name": "Szko\u0142a Podstawowa w Je\u017c\u00f3wce",
                "name": "Szko\u0142a Podstawowa w Je\u017c\u00f3wce",
                "addr:country": "PL",
                "addr:postcode": "32-340",
                "addr:place": "Je\u017c\u00f3wka",
                "addr:housenumber": "253",
                "addr:teryt:sym_ul": 224076,
                "contact:phone": "+48 326461761",
                "contact:email": "spj0@op.pl",
                "contact:website": "http:\/\/www.spjezowka.szkolnastrona.pl",
                "ref:regon": "000729913",
                "ref:vatin": "PL6371893343",
                "operator": "Gmina Wolbrom",
                "operator:type": "government",
                "amenity": "school"
            }
        },
        {
            "id": 69350,
            "type": "Feature",
            "geometry": {
                "type": "Point",
                "coordinates": [
                    19.812596,
                    50.3756269
                ]
            },
            "properties": {
                "isced:level": "1;2",
                "ref:rspo": 69350,
                "official_name": "Szko\u0142a Podstawowa w Wierzchowisku",
                "name": "Szko\u0142a Podstawowa w Wierzchowisku",
                "addr:country": "PL",
                "addr:postcode": "32-340",
                "addr:place": "Wierzchowisko",
                "addr:housenumber": "32B",
                "addr:teryt:sym_ul": 224805,
                "contact:phone": "+48 326441603",
                "contact:email": "gim5spw@szkola.wp.pl",
                "contact:website": "http:\/\/www.spwierzchowisko.itcom.pl",
                "ref:regon": "270207884",
                "ref:vatin": "PL6372005586",
                "operator": "Gmina Wolbrom",
                "operator:type": "government",
                "amenity": "school"
            }
        },
        {
            "id": 34433,
            "type": "Feature",
            "geometry": {
                "type": "Point",
                "coordinates": [
                    19.75651,
                    50.37641
                ]
            },
            "properties": {
                "ref:rspo": 34433,
                "official_name": "O\u015brodek Rehabilitacyjno-Edukacyjno-Wychowawczy Polskiego Stowarzyszenia Na Rzecz Os\u00f3b Z Niepe\u0142nosprawno\u015bci\u0105 Intelektualn\u0105 Ko\u0142a w Wolbromiu",
                "name": "O\u015brodek Rehabilitacyjno-Edukacyjno-Wychowawczy Polskiego Stowarzyszenia Na Rzecz Os\u00f3b Z Niepe\u0142nosprawno\u015bci\u0105 Intelektualn\u0105 Ko\u0142a w Wolbromiu",
                "addr:country": "PL",
                "addr:postcode": "32-340",
                "addr:city": "Wolbrom",
                "addr:street": "Skalska",
                "addr:housenumber": "22",
                "addr:teryt:simc": 19976,
                "addr:teryt:sym_ul": 945315,
                "contact:phone": "+48 326472880",
                "contact:email": "zg@psoni-wolbrom.pl",
                "contact:website": "http:\/\/www.psoni-wolbrom.pl",
                "ref:regon": "122691076",
                "ref:vatin": "PL6371992720",
                "operator": "Polskie Stowarzyszenie Na Rzecz Os\u00f3b Z Niepe\u0142nosprawno\u015bci\u0105 Intelektualn\u0105 Ko\u0142o W Wolbromiu",
                "operator:type": "ngo",
                "amenity": "school"
            }
        },
        {
            "id": 132329,
            "type": "Feature",
            "geometry": {
                "type": "Point",
                "coordinates": [
                    19.76446,
                    50.37748
                ]
            },
            "properties": {
                "ref:rspo": 132329,
                "official_name": "Przedszkole Niepubliczne \"Zdolne \u0141apki\" w Wolbromiu",
                "name": "Przedszkole Niepubliczne \"Zdolne \u0141apki\" w Wolbromiu",
                "addr:country": "PL",
                "addr:postcode": "32-340",
                "addr:city": "Wolbrom",
                "addr:street": "3 Maja",
                "addr:housenumber": "14",
                "addr:teryt:simc": 11937,
                "addr:teryt:sym_ul": 945315,
                "contact:phone": "+48 697812162",
                "contact:email": "zdolnelapki@interia.pl",
                "ref:regon": "365551088",
                "operator": "Monika Sowula",
                "operator:type": "private",
                "amenity": "kindergarten"
            }
        },
        {
            "id": 12692,
            "type": "Feature",
            "geometry": {
                "type": "Point",
                "coordinates": [
                    19.7561399,
                    50.37773
                ]
            },
            "properties": {
                "ref:rspo": 12692,
                "official_name": "Zesp\u00f3\u0142 Szk\u00f3\u0142 w Wolbromiu",
                "name": "Zesp\u00f3\u0142 Szk\u00f3\u0142 w Wolbromiu",
                "addr:country": "PL",
                "addr:postcode": "32-340",
                "addr:city": "Wolbrom",
                "addr:street": "Skalska",
                "addr:housenumber": "18",
                "addr:teryt:simc": 19976,
                "addr:teryt:sym_ul": 945315,
                "contact:phone": "+48 326441055",
                "contact:email": "zswolbrom@poczta.onet.pl",
                "contact:website": "http:\/\/www.zswolbrom.pl",
                "ref:regon": "000835911",
                "ref:vatin": "PL6371763675",
                "operator": "Powiat Olkuski",
                "operator:type": "government",
                "landuse": "education",
                "fixme": "amenity=school, amenity=college albo landuse=education w zale\u017cno\u015bci od tego, jakie plac\u00f3wki wchodz\u0105 w sk\u0142ad zespo\u0142u. Sprawd\u017a, kiedy stosowa\u0107 amenity=* a kiedy landuse=education.",
                "note": "Children RSPO: 79180;79193;79258;79277;83109"
            }
        },
        {
            "id": 79180,
            "type": "Feature",
            "geometry": {
                "type": "Point",
                "coordinates": [
                    19.7561399,
                    50.3777
                ]
            },
            "properties": {
                "isced:level": "4",
                "ref:rspo": 79180,
                "official_name": "Szko\u0142a Policealna w Wolbromiu",
                "name": "Szko\u0142a Policealna w Wolbromiu",
                "addr:country": "PL",
                "addr:postcode": "32-340",
                "addr:city": "Wolbrom",
                "addr:street": "Skalska",
                "addr:housenumber": "18",
                "addr:teryt:simc": 19976,
                "addr:teryt:sym_ul": 945315,
                "contact:phone": "+48 326441055",
                "contact:email": "zswolbrom@poczta.onet.pl",
                "contact:website": "http:\/\/www.zswolbrom.pl",
                "ref:regon": "122703135",
                "ref:vatin": "PL6371763675",
                "operator": "Powiat Olkuski",
                "operator:type": "government",
                "amenity": "college",
                "note": "Parent RSPO: 12692"
            }
        },
        {
            "id": 79193,
            "type": "Feature",
            "geometry": {
                "type": "Point",
                "coordinates": [
                    19.7561399,
                    50.37767
                ]
            },
            "properties": {
                "isced:level": "3",
                "ref:rspo": 79193,
                "official_name": "Liceum Og\u00f3lnokszta\u0142c\u0105ce dla Doros\u0142ych w Wolbromiu",
                "name": "Liceum Og\u00f3lnokszta\u0142c\u0105ce dla Doros\u0142ych w Wolbromiu",
                "addr:country": "PL",
                "addr:postcode": "32-340",
                "addr:city": "Wolbrom",
                "addr:street": "Skalska",
                "addr:housenumber": "18",
                "addr:teryt:simc": 19976,
                "addr:teryt:sym_ul": 945315,
                "contact:phone": "+48 326441055",
                "contact:email": "zswolbrom@zswolbrom.pl",
                "contact:website": "http:\/\/www.zswolbrom.pl",
                "ref:regon": "122703187",
                "ref:vatin": "PL6371763675",
                "operator": "Powiat Olkuski",
                "operator:type": "government",
                "amenity": "school",
                "note": "Parent RSPO: 12692"
            }
        },
        {
            "id": 79258,
            "type": "Feature",
            "geometry": {
                "type": "Point",
                "coordinates": [
                    19.7561399,
                    50.37764
                ]
            },
            "properties": {
                "isced:level": "3",
                "ref:rspo": 79258,
                "official_name": "Technikum im. Romualda Traugutta w Wolbromiu",
                "name": "Technikum",
                "addr:country": "PL",
                "addr:postcode": "32-340",
                "addr:city": "Wolbrom",
                "addr:street": "Skalska",
                "addr:housenumber": "18",
                "addr:teryt:simc": 19976,
                "addr:teryt:sym_ul": 945315,
                "contact:phone": "+48 326441055",
                "contact:email": "zswolbrom@zswolbrom.pl",
                "contact:website": "http:\/\/www.zswolbrom.pl",
                "ref:regon": "356722418",
                "ref:vatin": "PL6371763675",
                "operator": "Powiat Olkuski",
                "operator:type": "government",
                "amenity": "school",
                "note": "Parent RSPO: 12692"
            }
        },
        {
            "id": 79277,
            "type": "Feature",
            "geometry": {
                "type": "Point",
                "coordinates": [
                    19.7561399,
                    50.37761
                ]
            },
            "properties": {
                "isced:level": "3",
                "ref:rspo": 79277,
                "official_name": "Liceum Og\u00f3lnokszta\u0142c\u0105ce im. Romualda Traugutta w Wolbromiu",
                "name": "Liceum Og\u00f3lnokszta\u0142c\u0105ce",
                "addr:country": "PL",
                "addr:postcode": "32-340",
                "addr:city": "Wolbrom",
                "addr:street": "Skalska",
                "addr:housenumber": "18",
                "addr:teryt:simc": 19976,
                "addr:teryt:sym_ul": 945315,
                "contact:phone": "+48 326441055",
                "contact:email": "zswolbrom@zswolbrom.pl",
                "contact:website": "http:\/\/www.zswolbrom.pl",
                "ref:regon": "356722447",
                "ref:vatin": "PL6371763675",
                "operator": "Powiat Olkuski",
                "operator:type": "government",
                "amenity": "school",
                "note": "Parent RSPO: 12692"
            }
        },
        {
            "id": 83109,
            "type": "Feature",
            "geometry": {
                "type": "Point",
                "coordinates": [
                    19.7561399,
                    50.37758
                ]
            },
            "properties": {
                "isced:level": "3",
                "ref:rspo": 83109,
                "official_name": "Bran\u017cowa Szko\u0142a I Stopnia im. Romualda Traugutta w Wolbromiu",
                "name": "Bran\u017cowa Szko\u0142a I Stopnia",
                "addr:country": "PL",
                "addr:postcode": "32-340",
                "addr:city": "Wolbrom",
                "addr:street": "Skalska",
                "addr:housenumber": "18",
                "addr:teryt:simc": 19976,
                "addr:teryt:sym_ul": 945315,
                "contact:phone": "+48 326441055",
                "contact:email": "zswolbrom@zswolbrom.pl",
                "contact:website": "http:\/\/www.zswolbrom.pl",
                "ref:regon": "272141391",
                "ref:vatin": "PL6371763675",
                "operator": "Powiat Olkuski",
                "operator:type": "government",
                "amenity": "school",
                "note": "Parent RSPO: 12692"
            }
        },
        {
            "id": 39727,
            "type": "Feature",
            "geometry": {
                "type": "Point",
                "coordinates": [
                    19.76155,
                    50.38399
                ]
            },
            "properties": {
                "ref:rspo": 39727,
                "official_name": "Przedszkole Publiczne Nr 1 w Wolbromiu",
                "name": "Przedszkole Publiczne Nr 1 w Wolbromiu",
                "addr:country": "PL",
                "addr:postcode": "32-340",
                "addr:city": "Wolbrom",
                "addr:street": "Marsza\u0142ka Pi\u0142sudskiego",
                "addr:housenumber": "25",
                "addr:teryt:simc": 37694,
                "addr:teryt:sym_ul": 945315,
                "contact:phone": "+48 326441104",
                "contact:email": "sekretariat@zsp.wolbrom.pl",
                "ref:regon": "271510811",
                "ref:vatin": "PL6371893461",
                "operator": "Gmina Wolbrom",
                "operator:type": "government",
                "amenity": "kindergarten",
                "note": "Parent RSPO: 130623"
            }
        },
        {
            "id": 17072,
            "type": "Feature",
            "geometry": {
                "type": "Point",
                "coordinates": [
                    19.7668399,
                    50.38463
                ]
            },
            "properties": {
                "ref:rspo": 17072,
                "official_name": "\"Mistrzowie Zabawy\" Niepubliczne Przedszkole Integracyjne",
                "name": "\"Mistrzowie Zabawy\" Niepubliczne Przedszkole Integracyjne",
                "addr:country": "PL",
                "addr:postcode": "32-340",
                "addr:city": "Wolbrom",
                "addr:street": "Miechowska",
                "addr:housenumber": "50A",
                "addr:teryt:simc": 12748,
                "addr:teryt:sym_ul": 945315,
                "contact:phone": "+48 519557414",
                "contact:email": "przedszkolewolbrom@onet.pl",
                "contact:website": "http:\/\/przedszkolewolbrom.pl",
                "ref:regon": "122665765",
                "ref:vatin": "PL6591173289",
                "operator": "Kazimierz Popiel",
                "operator:type": "private",
                "amenity": "kindergarten"
            }
        },
        {
            "id": 130623,
            "type": "Feature",
            "geometry": {
                "type": "Point",
                "coordinates": [
                    19.76141,
                    50.38736
                ]
            },
            "properties": {
                "ref:rspo": 130623,
                "official_name": "Zesp\u00f3\u0142 Szkolno-Przedszkolny w Wolbromiu",
                "name": "Zesp\u00f3\u0142 Szkolno-Przedszkolny w Wolbromiu",
                "addr:country": "PL",
                "addr:postcode": "32-340",
                "addr:city": "Wolbrom",
                "addr:street": "Mariacka",
                "addr:housenumber": "28",
                "addr:teryt:simc": 12327,
                "addr:teryt:sym_ul": 945315,
                "contact:phone": "+48 326441069",
                "contact:email": "sekretariat@zsp.wolbrom.pl",
                "contact:website": "http:\/\/www.sp1wolbrom.edupage.org\/",
                "ref:regon": "364259871",
                "ref:vatin": "PL6372198421",
                "operator": "Gmina Wolbrom",
                "operator:type": "government",
                "landuse": "education",
                "fixme": "amenity=school, amenity=college albo landuse=education w zale\u017cno\u015bci od tego, jakie plac\u00f3wki wchodz\u0105 w sk\u0142ad zespo\u0142u. Sprawd\u017a, kiedy stosowa\u0107 amenity=* a kiedy landuse=education.",
                "note": "Children RSPO: 39709;39727"
            }
        },
        {
            "id": 39709,
            "type": "Feature",
            "geometry": {
                "type": "Point",
                "coordinates": [
                    19.76141,
                    50.38733
                ]
            },
            "properties": {
                "isced:level": "1;2",
                "ref:rspo": 39709,
                "official_name": "Szko\u0142a Podstawowa Nr 1 w Wolbromiu",
                "name": "Szko\u0142a Podstawowa Nr 1 w Wolbromiu",
                "addr:country": "PL",
                "addr:postcode": "32-340",
                "addr:city": "Wolbrom",
                "addr:street": "Mariacka",
                "addr:housenumber": "28",
                "addr:teryt:simc": 12327,
                "addr:teryt:sym_ul": 945315,
                "contact:phone": "+48 327065460",
                "contact:email": "sekretariat@zsp.wolbrom.pl",
                "ref:regon": "000729876",
                "ref:vatin": "PL6371893277",
                "operator": "Gmina Wolbrom",
                "operator:type": "government",
                "amenity": "school",
                "note": "Parent RSPO: 130623"
            }
        },
        {
            "id": 72836,
            "type": "Feature",
            "geometry": {
                "type": "Point",
                "coordinates": [
                    19.7116481,
                    50.4033831
                ]
            },
            "properties": {
                "isced:level": "1;2",
                "ref:rspo": 72836,
                "official_name": "Szko\u0142a Podstawowa w D\u0142u\u017ccu",
                "name": "Szko\u0142a Podstawowa w D\u0142u\u017ccu",
                "addr:country": "PL",
                "addr:postcode": "32-340",
                "addr:place": "D\u0142u\u017cec",
                "addr:housenumber": "7",
                "addr:teryt:sym_ul": 223830,
                "contact:phone": "+48 326447002",
                "contact:email": "zsdluzec@gmail.com",
                "contact:website": "http:\/\/www.zsdluzec.pl\/",
                "ref:regon": "000729907",
                "ref:vatin": "PL6372005600",
                "operator": "Gmina Wolbrom",
                "operator:type": "government",
                "amenity": "school"
            }
        },
        {
            "id": 128158,
            "type": "Feature",
            "geometry": {
                "type": "Point",
                "coordinates": [
                    19.768051,
                    50.4074539
                ]
            },
            "properties": {
                "ref:rspo": 128158,
                "official_name": "Zesp\u00f3\u0142 Szkolno-Przedszkolny w \u0141obzowie",
                "name": "Zesp\u00f3\u0142 Szkolno-Przedszkolny w \u0141obzowie",
                "addr:country": "PL",
                "addr:postcode": "32-340",
                "addr:place": "\u0141obz\u00f3w",
                "addr:housenumber": "220",
                "addr:teryt:sym_ul": 224432,
                "contact:phone": "+48 326441060",
                "contact:email": "splobzow@poczta.onet.pl",
                "contact:website": "http:\/\/zsplobzow.wolbrom.pl",
                "ref:regon": "362134088",
                "ref:vatin": "PL6372196184",
                "operator": "Gmina Wolbrom",
                "operator:type": "government",
                "landuse": "education",
                "fixme": "amenity=school, amenity=college albo landuse=education w zale\u017cno\u015bci od tego, jakie plac\u00f3wki wchodz\u0105 w sk\u0142ad zespo\u0142u. Sprawd\u017a, kiedy stosowa\u0107 amenity=* a kiedy landuse=education.",
                "note": "Children RSPO: 39721;128146"
            }
        },
        {
            "id": 39721,
            "type": "Feature",
            "geometry": {
                "type": "Point",
                "coordinates": [
                    19.768051,
                    50.4074239
                ]
            },
            "properties": {
                "isced:level": "1;2",
                "ref:rspo": 39721,
                "official_name": "Szko\u0142a Podstawowa w \u0141obzowie",
                "name": "Szko\u0142a Podstawowa w \u0141obzowie",
                "addr:country": "PL",
                "addr:postcode": "32-340",
                "addr:place": "\u0141obz\u00f3w",
                "addr:housenumber": "220",
                "addr:teryt:sym_ul": 224432,
                "contact:phone": "+48 326441060",
                "contact:email": "splobzow@poczta.onet.pl",
                "contact:website": "http:\/\/www.zsplobzow.wolbrom.pl",
                "ref:regon": "000729899",
                "ref:vatin": "PL6371893395",
                "operator": "Gmina Wolbrom",
                "operator:type": "government",
                "amenity": "school",
                "note": "Parent RSPO: 128158"
            }
        },
        {
            "id": 128146,
            "type": "Feature",
            "geometry": {
                "type": "Point",
                "coordinates": [
                    19.768051,
                    50.4073939
                ]
            },
            "properties": {
                "ref:rspo": 128146,
                "official_name": "Przedszkole Publiczne w \u0141obzowie",
                "name": "Przedszkole Publiczne w \u0141obzowie",
                "addr:country": "PL",
                "addr:postcode": "32-340",
                "addr:place": "\u0141obz\u00f3w",
                "addr:housenumber": "220",
                "addr:teryt:sym_ul": 224432,
                "contact:phone": "+48 326441060",
                "contact:email": "splobzow@poczta.onet.pl",
                "contact:website": "http:\/\/www.zsplobzow.wolbrom.pl",
                "ref:regon": "362130498",
                "operator": "Gmina Wolbrom",
                "operator:type": "government",
                "amenity": "kindergarten",
                "note": "Parent RSPO: 128158"
            }
        },
        {
            "id": 131063,
            "type": "Feature",
            "geometry": {
                "type": "Point",
                "coordinates": [
                    19.73215,
                    50.4280459
                ]
            },
            "properties": {
                "ref:rspo": 131063,
                "official_name": "Zesp\u00f3\u0142 Szkolno-Przedszkolny w K\u0105pielach Wielkich",
                "name": "Zesp\u00f3\u0142 Szkolno-Przedszkolny w K\u0105pielach Wielkich",
                "addr:country": "PL",
                "addr:postcode": "32-340",
                "addr:place": "K\u0105piele Wielkie",
                "addr:housenumber": "75A",
                "addr:teryt:sym_ul": 224231,
                "contact:phone": "+48 326447004",
                "contact:email": "kapielesp@wp.pl",
                "contact:website": "http:\/\/www.kapielewielkie.szkolna.net",
                "ref:regon": "364929060",
                "ref:vatin": "PL6372198444",
                "operator": "Gmina Wolbrom",
                "operator:type": "government",
                "landuse": "education",
                "fixme": "amenity=school, amenity=college albo landuse=education w zale\u017cno\u015bci od tego, jakie plac\u00f3wki wchodz\u0105 w sk\u0142ad zespo\u0142u. Sprawd\u017a, kiedy stosowa\u0107 amenity=* a kiedy landuse=education.",
                "note": "Children RSPO: 39720;130631"
            }
        },
        {
            "id": 39720,
            "type": "Feature",
            "geometry": {
                "type": "Point",
                "coordinates": [
                    19.73215,
                    50.4280159
                ]
            },
            "properties": {
                "isced:level": "1;2",
                "ref:rspo": 39720,
                "official_name": "Szko\u0142a Podstawowa w K\u0105pielach Wielkich",
                "name": "Szko\u0142a Podstawowa w K\u0105pielach Wielkich",
                "addr:country": "PL",
                "addr:postcode": "32-340",
                "addr:place": "K\u0105piele Wielkie",
                "addr:housenumber": "75a",
                "addr:teryt:sym_ul": 224231,
                "contact:phone": "+48 326447004",
                "contact:email": "kapielesp@wp.pl",
                "contact:website": "http:\/\/www.kapielewielkie.szkolna.net",
                "ref:regon": "000729936",
                "ref:vatin": "PL6371893254",
                "operator": "Gmina Wolbrom",
                "operator:type": "government",
                "amenity": "school",
                "note": "Parent RSPO: 131063"
            }
        },
        {
            "id": 130631,
            "type": "Feature",
            "geometry": {
                "type": "Point",
                "coordinates": [
                    19.73215,
                    50.4279859
                ]
            },
            "properties": {
                "ref:rspo": 130631,
                "official_name": "Przedszkole Publiczne w K\u0105pielach Wielkich",
                "name": "Przedszkole Publiczne w K\u0105pielach Wielkich",
                "addr:country": "PL",
                "addr:postcode": "32-340",
                "addr:place": "K\u0105piele Wielkie",
                "addr:housenumber": "75A",
                "addr:teryt:sym_ul": 224231,
                "contact:phone": "+48 326447004",
                "contact:email": "kapielesp@wp.pl",
                "contact:website": "http:\/\/www.kapielewielkie.szkolna.net",
                "ref:regon": "364267391",
                "operator": "Gmina Wolbrom",
                "operator:type": "government",
                "amenity": "kindergarten",
                "note": "Parent RSPO: 131063"
            }
        },
        {
            "id": 6348,
            "type": "Feature",
            "geometry": {
                "type": "Point",
                "coordinates": [
                    19.7902889,
                    50.4302299
                ]
            },
            "properties": {
                "isced:level": "1;2",
                "ref:rspo": 6348,
                "official_name": "Niepubliczna Szko\u0142a Podstawowa w Por\u0119bie Dzier\u017cnej",
                "name": "Niepubliczna Szko\u0142a Podstawowa w Por\u0119bie Dzier\u017cnej",
                "addr:country": "PL",
                "addr:postcode": "32-340",
                "addr:place": "Por\u0119ba Dzier\u017cna",
                "addr:housenumber": "148",
                "addr:teryt:sym_ul": 224573,
                "contact:phone": "+48 604173897",
                "contact:email": "nsppd@interia.pl",
                "ref:regon": "122647141",
                "operator": "Stowarzyszenie Kulturalno-O\u015bwiatowe W Wolbromiu",
                "operator:type": "ngo",
                "amenity": "school"
            }
        },
        {
            "id": 132622,
            "type": "Feature",
            "geometry": {
                "type": "Point",
                "coordinates": [
                    19.7902889,
                    50.4301999
                ]
            },
            "properties": {
                "ref:rspo": 132622,
                "official_name": "Przedszkole Niepubliczne \"Mi\u015b\" w Por\u0119bie Dzier\u017cnej",
                "name": "Przedszkole Niepubliczne \"Mi\u015b\" w Por\u0119bie Dzier\u017cnej",
                "addr:country": "PL",
                "addr:postcode": "32-340",
                "addr:place": "Por\u0119ba Dzier\u017cna",
                "addr:housenumber": "148",
                "addr:teryt:sym_ul": 224573,
                "contact:phone": "+48 604173897",
                "contact:email": "nsppd@interia.pl",
                "ref:regon": "365931626",
                "operator": "Stowarzyszenie Kulturalno-O\u015bwiatowe W Wolbromiu",
                "operator:type": "ngo",
                "amenity": "kindergarten"
            }
        }
    ]
}