{
    "type": "FeatureCollection",
    "features": [
        {
            "id": 263901,
            "type": "Feature",
            "geometry": {
                "type": "Point",
                "coordinates": [
                    19.4343524,
                    50.2937769
                ]
            },
            "properties": {
                "ref:rspo": 263901,
                "official_name": "Zesp\u00f3\u0142 Przedszkolno-Szkolny w Podlipiu",
                "name": "Zesp\u00f3\u0142 Przedszkolno-Szkolny w Podlipiu",
                "addr:country": "PL",
                "addr:postcode": "32-329",
                "addr:place": "Podlipie",
                "addr:housenumber": "153",
                "addr:teryt:sym_ul": 213084,
                "contact:phone": "+48 326424177",
                "contact:email": "zpsgpodlipe@gminaboleslaw.pl",
                "contact:website": "http:\/\/zpsgpodlipie.edupage.org",
                "ref:regon": "368235206",
                "ref:vatin": "PL6372077775",
                "operator": "Gmina Boles\u0142aw",
                "operator:type": "government",
                "landuse": "education",
                "fixme": "amenity=school, amenity=college albo landuse=education w zale\u017cno\u015bci od tego, jakie plac\u00f3wki wchodz\u0105 w sk\u0142ad zespo\u0142u. Sprawd\u017a, kiedy stosowa\u0107 amenity=* a kiedy landuse=education.",
                "note": "Children RSPO: 88566;263894"
            }
        },
        {
            "id": 88566,
            "type": "Feature",
            "geometry": {
                "type": "Point",
                "coordinates": [
                    19.4343524,
                    50.293746899999995
                ]
            },
            "properties": {
                "isced:level": "1;2",
                "ref:rspo": 88566,
                "official_name": "Szko\u0142a Podstawowa im.j.brzechwy w Podlipiu",
                "name": "Szko\u0142a Podstawowa im.j.brzechwy w Podlipiu",
                "addr:country": "PL",
                "addr:postcode": "32-329",
                "addr:place": "Podlipie",
                "addr:housenumber": "153",
                "addr:teryt:sym_ul": 213084,
                "contact:phone": "+48 326424177",
                "contact:email": "zpsgpodlipie@gminaboleslaw.pl",
                "contact:website": "http:\/\/www.zpsgpodlipie.edupage.org",
                "ref:regon": "001205840",
                "ref:vatin": "PL6371893633",
                "operator": "Gmina Boles\u0142aw",
                "operator:type": "government",
                "amenity": "school",
                "note": "Parent RSPO: 263901"
            }
        },
        {
            "id": 263894,
            "type": "Feature",
            "geometry": {
                "type": "Point",
                "coordinates": [
                    19.4343524,
                    50.2937169
                ]
            },
            "properties": {
                "ref:rspo": 263894,
                "official_name": "Przedszkole w Podlipiu",
                "name": "Przedszkole w Podlipiu",
                "addr:country": "PL",
                "addr:postcode": "32-329",
                "addr:place": "Podlipie",
                "addr:housenumber": "153",
                "addr:teryt:sym_ul": 213084,
                "contact:phone": "+48 326424177",
                "contact:email": "zpsgpodlipie@gminaboleslaw.pl",
                "contact:website": "http:\/\/zpsgpodlipie.edupage.org",
                "ref:regon": "368234106",
                "ref:vatin": "PL6371893550",
                "operator": "Gmina Boles\u0142aw",
                "operator:type": "government",
                "amenity": "kindergarten",
                "note": "Parent RSPO: 263901"
            }
        },
        {
            "id": 85228,
            "type": "Feature",
            "geometry": {
                "type": "Point",
                "coordinates": [
                    19.4689799,
                    50.29595
                ]
            },
            "properties": {
                "isced:level": "1;2",
                "ref:rspo": 85228,
                "official_name": "Szko\u0142a Podstawowa im. Stanis\u0142awa Staszica w Boles\u0142awiu",
                "name": "Szko\u0142a Podstawowa",
                "addr:country": "PL",
                "addr:postcode": "32-329",
                "addr:city": "Boles\u0142aw",
                "addr:street": "ul. G\u0142\u00f3wna",
                "addr:housenumber": "96",
                "addr:teryt:simc": 5635,
                "addr:teryt:sym_ul": 212759,
                "contact:phone": "+48 326471700",
                "contact:email": "spboleslaw@gminaboleslaw.pl",
                "contact:website": "http:\/\/spboleslaw.edupage.org",
                "ref:regon": "000736468",
                "ref:vatin": "PL6371893573",
                "operator": "Gmina Boles\u0142aw",
                "operator:type": "government",
                "amenity": "school"
            }
        },
        {
            "id": 85231,
            "type": "Feature",
            "geometry": {
                "type": "Point",
                "coordinates": [
                    19.48478,
                    50.29632
                ]
            },
            "properties": {
                "ref:rspo": 85231,
                "official_name": "Przedszkole im. Barb\u00f3rki w Boles\u0142awiu",
                "name": "Przedszkole",
                "addr:country": "PL",
                "addr:postcode": "32-329",
                "addr:city": "Boles\u0142aw",
                "addr:street": "ul. G\u0142\u00f3wna",
                "addr:housenumber": "18",
                "addr:teryt:simc": 5635,
                "addr:teryt:sym_ul": 212759,
                "contact:phone": "+48 326424017",
                "contact:email": "przedszkoleboleslaw@gminaboleslaw.pl",
                "contact:website": "http:\/\/barborka.dziensmyka.pl",
                "ref:regon": "271505081",
                "ref:vatin": "PL6371893596",
                "operator": "Gmina Boles\u0142aw",
                "operator:type": "government",
                "amenity": "kindergarten"
            }
        },
        {
            "id": 263875,
            "type": "Feature",
            "geometry": {
                "type": "Point",
                "coordinates": [
                    19.4264246,
                    50.3125464
                ]
            },
            "properties": {
                "ref:rspo": 263875,
                "official_name": "Zesp\u00f3\u0142 Przedszkolno-Szkolny w Krzykawie",
                "name": "Zesp\u00f3\u0142 Przedszkolno-Szkolny w Krzykawie",
                "addr:country": "PL",
                "addr:postcode": "32-329",
                "addr:place": "Krzykawa",
                "addr:housenumber": "54",
                "addr:teryt:sym_ul": 212890,
                "contact:phone": "+48 326493040",
                "contact:email": "zpskrzykawa@gminaboleslaw.pl",
                "ref:regon": "368232426",
                "ref:vatin": "PL6372201123",
                "operator": "Gmina Boles\u0142aw",
                "operator:type": "government",
                "landuse": "education",
                "fixme": "amenity=school, amenity=college albo landuse=education w zale\u017cno\u015bci od tego, jakie plac\u00f3wki wchodz\u0105 w sk\u0142ad zespo\u0142u. Sprawd\u017a, kiedy stosowa\u0107 amenity=* a kiedy landuse=education.",
                "note": "Children RSPO: 85230;88570"
            }
        },
        {
            "id": 85230,
            "type": "Feature",
            "geometry": {
                "type": "Point",
                "coordinates": [
                    19.4264246,
                    50.3125164
                ]
            },
            "properties": {
                "ref:rspo": 85230,
                "official_name": "Przedszkole w Krzykawie",
                "name": "Przedszkole w Krzykawie",
                "addr:country": "PL",
                "addr:postcode": "32-329",
                "addr:place": "Krzykawa",
                "addr:housenumber": "54",
                "addr:teryt:sym_ul": 212890,
                "contact:phone": "+48 326493040",
                "contact:email": "zpskrzykawa@gminaboleslaw.pl",
                "contact:website": "http:\/\/www.krzykawa.polskieprzedszkole.pl",
                "ref:regon": "271505098",
                "ref:vatin": "PL6371893610",
                "operator": "Gmina Boles\u0142aw",
                "operator:type": "government",
                "amenity": "kindergarten",
                "note": "Parent RSPO: 263875"
            }
        },
        {
            "id": 88570,
            "type": "Feature",
            "geometry": {
                "type": "Point",
                "coordinates": [
                    19.4264246,
                    50.312486400000004
                ]
            },
            "properties": {
                "isced:level": "1;2",
                "ref:rspo": 88570,
                "official_name": "Szko\u0142a Podstawowa im.plk.fr.nullo w Krzykawie",
                "name": "Szko\u0142a Podstawowa im.plk.fr.nullo w Krzykawie",
                "addr:country": "PL",
                "addr:postcode": "32-329",
                "addr:place": "Krzykawa",
                "addr:housenumber": "54",
                "addr:teryt:sym_ul": 212890,
                "contact:phone": "+48 326493040",
                "contact:email": "zpskrzykawa@gminaboleslaw.pl",
                "contact:website": "http:\/\/www.spkrzykawa.szkolnastrona.pl",
                "ref:regon": "001205833",
                "ref:vatin": "PL6371893604",
                "operator": "Gmina Boles\u0142aw",
                "operator:type": "government",
                "amenity": "school",
                "note": "Parent RSPO: 263875"
            }
        },
        {
            "id": 88568,
            "type": "Feature",
            "geometry": {
                "type": "Point",
                "coordinates": [
                    19.46259,
                    50.32027
                ]
            },
            "properties": {
                "ref:rspo": 88568,
                "official_name": "Przedszkole w Laskach",
                "name": "Przedszkole w Laskach",
                "addr:country": "PL",
                "addr:postcode": "32-329",
                "addr:city": "Laski",
                "addr:street": "ul. B\u0142\u0119dowska",
                "addr:housenumber": "13",
                "addr:teryt:simc": 1456,
                "addr:teryt:sym_ul": 212995,
                "contact:phone": "+48 326424543",
                "contact:email": "zpslaski@gminaboleslaw.pl",
                "ref:regon": "271505106",
                "ref:vatin": "PL6371893567",
                "operator": "Gmina Boles\u0142aw",
                "operator:type": "government",
                "amenity": "kindergarten"
            }
        }
    ]
}