{"type":"FeatureCollection","features":[{"id":48576,"type":"Feature","geometry":{"type":"Point","coordinates":[22.23347,49.78048]},"properties":{"isced:level":"1;2","ref:rspo":48576,"official_name":"Szko\u0142a Podstawowa w D\u0105br\u00f3wce Starze\u0144skiej","name":"Szko\u0142a Podstawowa w D\u0105br\u00f3wce Starze\u0144skiej","addr:country":"PL","addr:postcode":"36-065","addr:place":"D\u0105br\u00f3wka Starze\u0144ska","addr:housenumber":"131","addr:teryt:sym_ul":601290,"contact:phone":"+48 166521017","contact:email":"szkoladabrowka@poczta.onet.pl","ref:regon":"001207000","ref:vatin":"PL8133147982","operator":"Gmina Dyn\u00f3w","operator:type":"government","amenity":"school"}},{"id":72296,"type":"Feature","geometry":{"type":"Point","coordinates":[22.29811,49.7806]},"properties":{"isced:level":"1;2","ref:rspo":72296,"official_name":"Szko\u0142a Podstawowa w Dyl\u0105gowej","name":"Szko\u0142a Podstawowa w Dyl\u0105gowej","addr:country":"PL","addr:postcode":"36-069","addr:place":"Dyl\u0105gowa","addr:housenumber":"44","addr:teryt:sym_ul":601337,"contact:phone":"+48 166522850","contact:email":"zs5dylagowa@o2.pl","contact:website":"http:\/\/spdylagowa.szkolna.net","ref:regon":"001206979","ref:vatin":"PL8133147976","operator":"Gmina Dyn\u00f3w","operator:type":"government","amenity":"school"}},{"id":49138,"type":"Feature","geometry":{"type":"Point","coordinates":[22.16857,49.8108]},"properties":{"isced:level":"1;2","ref:rspo":49138,"official_name":"Szko\u0142a Podstawowa w \u0141ubnie","name":"Szko\u0142a Podstawowa w \u0141ubnie","addr:country":"PL","addr:postcode":"36-065","addr:place":"\u0141ubno","addr:housenumber":"82","addr:teryt:sym_ul":601768,"contact:phone":"+48 166521039","contact:email":"lubnoszkola3@poczta.onet.pl","contact:website":"http:\/\/www.zslubno3.pl","ref:regon":"691678847","ref:vatin":"PL8133147999","operator":"Gmina Dyn\u00f3w","operator:type":"government","amenity":"school"}},{"id":49238,"type":"Feature","geometry":{"type":"Point","coordinates":[22.28554,49.81517]},"properties":{"isced:level":"1;2","ref:rspo":49238,"official_name":"Szko\u0142a Podstawowa w Paw\u0142okomie","name":"Szko\u0142a Podstawowa w Paw\u0142okomie","addr:country":"PL","addr:postcode":"36-065","addr:place":"Paw\u0142okoma","addr:housenumber":"24","addr:teryt:sym_ul":602006,"contact:phone":"+48 166522030","contact:email":"sp.pawlokoma@gmail.com","contact:website":"http:\/\/www.szkola-pawlokoma.pl","ref:regon":"691678860","ref:vatin":"PL8133754280","operator":"Gmina Dyn\u00f3w","operator:type":"government","amenity":"school"}},{"id":48854,"type":"Feature","geometry":{"type":"Point","coordinates":[22.1865099,49.8342699]},"properties":{"isced:level":"1;2","ref:rspo":48854,"official_name":"Szko\u0142a Podstawowa w Ulanicy","name":"Szko\u0142a Podstawowa w Ulanicy","addr:country":"PL","addr:postcode":"36-065","addr:place":"Ulanica","addr:housenumber":"28","addr:teryt:sym_ul":602041,"contact:phone":"+48 166521063","contact:email":"ulanicasp@o2.pl","contact:website":"http:\/\/www.spulanica.pl","ref:regon":"001207039","ref:vatin":"PL8133147930","operator":"Gmina Dyn\u00f3w","operator:type":"government","amenity":"school"}},{"id":49097,"type":"Feature","geometry":{"type":"Point","coordinates":[22.28006,49.83586]},"properties":{"isced:level":"1;2","ref:rspo":49097,"official_name":"Szko\u0142a Podstawowa w Bach\u00f3rzu","name":"Szko\u0142a Podstawowa w Bach\u00f3rzu","addr:country":"PL","addr:postcode":"36-068","addr:place":"Bach\u00f3rz","addr:housenumber":"187 i 184","addr:teryt:sym_ul":601202,"contact:phone":"+48 166523011","contact:email":"gimbachorz@poczta.onet.pl","contact:website":"http:\/\/www.bachorz-szkola.pl","ref:regon":"691678824","ref:vatin":"PL8133148013","operator":"Gmina Dyn\u00f3w","operator:type":"government","amenity":"school"}},{"id":49098,"type":"Feature","geometry":{"type":"Point","coordinates":[22.21713,49.85385]},"properties":{"isced:level":"1;2","ref:rspo":49098,"official_name":"Szko\u0142a Podstawowa Nr 1 im. Bohater\u00f3w Walk Ch\u0142opskich w Harcie","name":"Szko\u0142a Podstawowa Nr 1","addr:country":"PL","addr:postcode":"36-067","addr:place":"Harta","addr:housenumber":"106","addr:teryt:sym_ul":601484,"contact:phone":"+48 166521766","contact:email":"kedzk@wp.pl","contact:website":"http:\/\/www.zsharta.superszkolna.pl","ref:regon":"691678830","ref:vatin":"PL8133148007","operator":"Gmina Dyn\u00f3w","operator:type":"government","amenity":"school"}},{"id":273113,"type":"Feature","geometry":{"type":"Point","coordinates":[22.21713,49.85382]},"properties":{"ref:rspo":273113,"official_name":"Prywatne T\u0119czowe Przedszkole Zofia Zwoli\u0144ska","name":"Prywatne T\u0119czowe Przedszkole Zofia Zwoli\u0144ska","addr:country":"PL","addr:postcode":"37-067","addr:place":"Harta","addr:housenumber":"106","addr:teryt:sym_ul":601484,"contact:email":"tereska.argasinska@tlen.pl","ref:regon":"384379000","ref:vatin":"PL7951207589","operator":"Zofia Zwoli\u0144ska","operator:type":"private","amenity":"kindergarten"}},{"id":42188,"type":"Feature","geometry":{"type":"Point","coordinates":[22.2886099,49.8558499]},"properties":{"isced:level":"1;2","ref:rspo":42188,"official_name":"Szko\u0142a Podstawowa im. Kpt. Gracjana Fr\u00f3ga w Lask\u00f3wce","name":"Szko\u0142a Podstawowa","addr:country":"PL","addr:postcode":"36-068","addr:place":"Lask\u00f3wka","addr:housenumber":"69","addr:teryt:sym_ul":601656,"contact:phone":"+48 166523004","contact:email":"szkola.laskowka@vp.pl","contact:website":"http:\/\/splaskowka.net","ref:regon":"001207016","ref:vatin":"PL8133147947","operator":"Gmina Dyn\u00f3w","operator:type":"government","amenity":"school"}},{"id":48790,"type":"Feature","geometry":{"type":"Point","coordinates":[22.187,49.86995]},"properties":{"isced:level":"1;2","ref:rspo":48790,"official_name":"Szko\u0142a Podstawowa Nr 2 im. Ks. Bronis\u0142awa Markiewicza w Harcie","name":"Szko\u0142a Podstawowa Nr 2","addr:country":"PL","addr:postcode":"36-067","addr:place":"Harta","addr:housenumber":"337","addr:teryt:sym_ul":601484,"contact:phone":"+48 172301193","contact:email":"harta2@op.pl","contact:website":"http:\/\/www.spharta2.szkolna.net","ref:regon":"001397063","ref:vatin":"PL8133147953","operator":"Gmina Dyn\u00f3w","operator:type":"government","amenity":"school"}}]}