{
    "type": "FeatureCollection",
    "features": [
        {
            "id": 17210,
            "type": "Feature",
            "geometry": {
                "type": "Point",
                "coordinates": [
                    22.04035,
                    50.0779799
                ]
            },
            "properties": {
                "isced:level": "1;2",
                "ref:rspo": 17210,
                "official_name": "Szko\u0142a Podstawowa Z Oddzia\u0142ami Dwuj\u0119zycznymi im. Bpa Wojciecha Tomaki w Trzebownisku",
                "name": "Szko\u0142a Podstawowa Z Oddzia\u0142ami Dwuj\u0119zycznymi",
                "addr:postcode": "36-001",
                "addr:place": "Trzebownisko",
                "addr:housenumber": "965",
                "addr:city:simc": 664651,
                "phone": "+48 177722616",
                "email": "sptrzebownisko@o2.pl",
                "website": "http:\/\/sptrzebownisko.eu.org",
                "ref:regon": "000273838",
                "ref:vatin": "PL8132764939",
                "operator": "Gmina Trzebownisko",
                "operator:type": "government",
                "amenity": "school"
            }
        },
        {
            "id": 17161,
            "type": "Feature",
            "geometry": {
                "type": "Point",
                "coordinates": [
                    22.04181,
                    50.07804
                ]
            },
            "properties": {
                "ref:rspo": 17161,
                "official_name": "Przedszkole w Trzebownisku",
                "name": "Przedszkole w Trzebownisku",
                "addr:postcode": "36-001",
                "addr:place": "Trzebownisko",
                "addr:housenumber": "968",
                "addr:city:simc": 664651,
                "phone": "+48 177722453",
                "email": "przedszkoletrzebownisko@interia.pl",
                "ref:regon": "180053040",
                "ref:vatin": "PL5170135871",
                "operator": "Gmina Trzebownisko",
                "operator:type": "government",
                "amenity": "kindergarten"
            }
        },
        {
            "id": 41874,
            "type": "Feature",
            "geometry": {
                "type": "Point",
                "coordinates": [
                    22.037280116297,
                    50.080109712027
                ]
            },
            "properties": {
                "ref:rspo": 41874,
                "official_name": "Przedszkole Piccolo",
                "name": "Przedszkole Piccolo",
                "addr:postcode": "36-001",
                "addr:place": "Trzebownisko",
                "addr:housenumber": "930",
                "addr:city:simc": 664651,
                "phone": "+48 178532015",
                "email": "poczta@piccolo.edu.pl",
                "website": "http:\/\/www.piccolo.edu.pl",
                "ref:regon": "180898910",
                "operator": "Jacek Trzci\u0144ski",
                "operator:type": "private",
                "amenity": "kindergarten"
            }
        },
        {
            "id": 276024,
            "type": "Feature",
            "geometry": {
                "type": "Point",
                "coordinates": [
                    22.0415,
                    50.08068
                ]
            },
            "properties": {
                "ref:rspo": 276024,
                "official_name": "Niepubliczne Przedszkole Parafialne \"Wojtusiowe Przedszkole\" w Trzebownisku",
                "name": "Niepubliczne Przedszkole Parafialne \"Wojtusiowe Przedszkole\" w Trzebownisku",
                "addr:postcode": "36-001",
                "addr:place": "Trzebownisko",
                "addr:housenumber": "995",
                "addr:city:simc": 664651,
                "phone": "+48 177722608",
                "email": "wojtusioweprzedszkole@gmail.com",
                "ref:regon": "386969064",
                "operator": "Parafia Rzym.-Kat. Pw. \u015awi\u0119tego Wojciecha",
                "operator:type": "religious",
                "amenity": "kindergarten"
            }
        },
        {
            "id": 42973,
            "type": "Feature",
            "geometry": {
                "type": "Point",
                "coordinates": [
                    21.98959,
                    50.08173
                ]
            },
            "properties": {
                "ref:rspo": 42973,
                "official_name": "Niepubliczne Przedszkole \"Magiczny Domek\"",
                "name": "Niepubliczne Przedszkole \"Magiczny Domek\"",
                "addr:postcode": "36-062",
                "addr:place": "Zaczernie",
                "addr:housenumber": "965c",
                "addr:city:simc": 664800,
                "phone": "+48 601986052",
                "email": "biuro@magicznydomek.edu.pl",
                "ref:regon": "180898949",
                "operator": "Magdalena Sawicka",
                "operator:type": "private",
                "amenity": "kindergarten"
            }
        },
        {
            "id": 16999,
            "type": "Feature",
            "geometry": {
                "type": "Point",
                "coordinates": [
                    22.11085,
                    50.08788
                ]
            },
            "properties": {
                "ref:rspo": 16999,
                "official_name": "Zesp\u00f3\u0142 Szk\u00f3\u0142 w \u0141\u0105ce",
                "name": "Zesp\u00f3\u0142 Szk\u00f3\u0142 w \u0141\u0105ce",
                "addr:postcode": "36-004",
                "addr:place": "\u0141\u0105ka",
                "addr:housenumber": "224b",
                "addr:city:simc": 664310,
                "phone": "+48 177721267",
                "email": "zslaka@wp.pl",
                "ref:regon": "691752087",
                "ref:vatin": "PL5170051542",
                "operator": "Gmina Trzebownisko",
                "operator:type": "government",
                "landuse": "education",
                "fixme": "amenity=school, amenity=college albo landuse=education w zale\u017cno\u015bci od tego, jakie plac\u00f3wki wchodz\u0105 w sk\u0142ad zespo\u0142u. Sprawd\u017a, kiedy stosowa\u0107 amenity=* a kiedy landuse=education.",
                "note": "Children RSPO: 34832;35117"
            }
        },
        {
            "id": 34832,
            "type": "Feature",
            "geometry": {
                "type": "Point",
                "coordinates": [
                    22.11085,
                    50.087849999999996
                ]
            },
            "properties": {
                "isced:level": "1;2",
                "ref:rspo": 34832,
                "official_name": "Szko\u0142a Podstawowa w \u0141\u0105ce",
                "name": "Szko\u0142a Podstawowa w \u0141\u0105ce",
                "addr:postcode": "36-004",
                "addr:place": "\u0141\u0105ka",
                "addr:housenumber": "224b",
                "addr:city:simc": 664310,
                "phone": "+48 177721267",
                "email": "zslaka@wp.pl",
                "ref:regon": "001139697",
                "operator": "Gmina Trzebownisko",
                "operator:type": "government",
                "amenity": "school",
                "note": "Parent RSPO: 16999"
            }
        },
        {
            "id": 35117,
            "type": "Feature",
            "geometry": {
                "type": "Point",
                "coordinates": [
                    22.11085,
                    50.08782
                ]
            },
            "properties": {
                "ref:rspo": 35117,
                "official_name": "Przedszkole w \u0141\u0105ce",
                "name": "Przedszkole w \u0141\u0105ce",
                "addr:postcode": "36-004",
                "addr:place": "\u0141\u0105ka",
                "addr:housenumber": "224b",
                "addr:city:simc": 664310,
                "phone": "+48 177721267",
                "email": "zslaka@wp.pl",
                "ref:regon": "691752093",
                "operator": "Gmina Trzebownisko",
                "operator:type": "government",
                "amenity": "kindergarten",
                "note": "Parent RSPO: 16999"
            }
        },
        {
            "id": 38510,
            "type": "Feature",
            "geometry": {
                "type": "Point",
                "coordinates": [
                    21.99431,
                    50.09084
                ]
            },
            "properties": {
                "ref:rspo": 38510,
                "official_name": "Przedszkole Parafialne \"U Dominikanek\"",
                "name": "Przedszkole Parafialne \"U Dominikanek\"",
                "addr:postcode": "36-062",
                "addr:place": "Zaczernie",
                "addr:housenumber": "732A",
                "addr:city:simc": 664800,
                "phone": "+48 178552068",
                "email": "przedszkoleop@wp.pl",
                "ref:regon": "180899239",
                "ref:vatin": "PL5170113556",
                "operator": "Parafia Rzymsko-Katolicka Pw.narodzenia Naj\u015bwi\u0119tszej Maryi Panny",
                "operator:type": "religious",
                "amenity": "kindergarten"
            }
        },
        {
            "id": 270382,
            "type": "Feature",
            "geometry": {
                "type": "Point",
                "coordinates": [
                    21.99431,
                    50.09081
                ]
            },
            "properties": {
                "ref:rspo": 270382,
                "official_name": "Przedszkole Niepubliczne \"U Dominikanek\"",
                "name": "Przedszkole Niepubliczne \"U Dominikanek\"",
                "addr:postcode": "36-062",
                "addr:place": "Zaczernie",
                "addr:housenumber": "732a",
                "addr:city:simc": 664800,
                "phone": "+48 178552068",
                "email": "przedszkoleop@wp.pl",
                "ref:regon": "382498521",
                "operator": "Parafia Rzymsko-Katolicka Pw.narodzenia Naj\u015bwi\u0119tszej Maryi Panny",
                "operator:type": "religious",
                "amenity": "kindergarten"
            }
        },
        {
            "id": 17063,
            "type": "Feature",
            "geometry": {
                "type": "Point",
                "coordinates": [
                    21.9959,
                    50.09497
                ]
            },
            "properties": {
                "ref:rspo": 17063,
                "official_name": "Zesp\u00f3\u0142 Szk\u00f3\u0142 w Zaczerniu im. Armii Krajowej",
                "name": "Zesp\u00f3\u0142 Szk\u00f3\u0142 w Zaczerniu",
                "addr:postcode": "36-062",
                "addr:place": "Zaczernie",
                "addr:housenumber": "249a",
                "addr:city:simc": 664800,
                "phone": "+48 178596684",
                "email": "zaczerniegimn@wp.pl",
                "ref:regon": "001139740",
                "ref:vatin": "PL8132764738",
                "operator": "Gmina Trzebownisko",
                "operator:type": "government",
                "landuse": "education",
                "fixme": "amenity=school, amenity=college albo landuse=education w zale\u017cno\u015bci od tego, jakie plac\u00f3wki wchodz\u0105 w sk\u0142ad zespo\u0142u. Sprawd\u017a, kiedy stosowa\u0107 amenity=* a kiedy landuse=education.",
                "note": "Children RSPO: 38506;38508"
            }
        },
        {
            "id": 274024,
            "type": "Feature",
            "geometry": {
                "type": "Point",
                "coordinates": [
                    21.9959,
                    50.09494
                ]
            },
            "properties": {
                "ref:rspo": 274024,
                "official_name": "Niepubliczna Plac\u00f3wka Kszta\u0142cenia Ustawicznego Kokoroe",
                "name": "Niepubliczna Plac\u00f3wka Kszta\u0142cenia Ustawicznego Kokoroe",
                "addr:postcode": "36-062",
                "addr:place": "Zaczernie",
                "addr:housenumber": "249a",
                "addr:city:simc": 664800,
                "ref:regon": "385023936",
                "operator": "Fundacja Na Rzecz Promocji Nauki I Kultury: Kokoroe",
                "operator:type": "ngo",
                "fixme": "w zale\u017cno\u015bci od przedmiotu dzia\u0142alno\u015bci (np. amenity=training + training=*, amenity=dancing_school, amenity=language_school, amenity=music_school)"
            }
        },
        {
            "id": 38506,
            "type": "Feature",
            "geometry": {
                "type": "Point",
                "coordinates": [
                    21.9959,
                    50.094910000000006
                ]
            },
            "properties": {
                "isced:level": "1;2",
                "ref:rspo": 38506,
                "official_name": "Szko\u0142a Podstawowa w Zaczerniu",
                "name": "Szko\u0142a Podstawowa w Zaczerniu",
                "addr:postcode": "36-062",
                "addr:place": "Zaczernie",
                "addr:housenumber": "249a",
                "addr:city:simc": 664800,
                "phone": "+48 178596684",
                "email": "zaczerniegimn@wp.pl",
                "website": "http:\/\/www.zs.zaczernie.pl",
                "ref:regon": "691679798",
                "operator": "Gmina Trzebownisko",
                "operator:type": "government",
                "amenity": "school",
                "note": "Parent RSPO: 17063"
            }
        },
        {
            "id": 38508,
            "type": "Feature",
            "geometry": {
                "type": "Point",
                "coordinates": [
                    21.9959,
                    50.09488
                ]
            },
            "properties": {
                "ref:rspo": 38508,
                "official_name": "Przedszkole w Zaczerniu",
                "name": "Przedszkole w Zaczerniu",
                "addr:postcode": "36-062",
                "addr:place": "Zaczernie",
                "addr:housenumber": "249a",
                "addr:city:simc": 664800,
                "phone": "+48 178596684",
                "email": "zaczerniegimn@wp.pl",
                "ref:regon": "691679812",
                "operator": "Gmina Trzebownisko",
                "operator:type": "government",
                "amenity": "kindergarten",
                "note": "Parent RSPO: 17063"
            }
        },
        {
            "id": 17023,
            "type": "Feature",
            "geometry": {
                "type": "Point",
                "coordinates": [
                    22.04497,
                    50.09658
                ]
            },
            "properties": {
                "ref:rspo": 17023,
                "official_name": "Zesp\u00f3\u0142 Szk\u00f3\u0142 - Szko\u0142a w Nowej Wsi",
                "name": "Zesp\u00f3\u0142 Szk\u00f3\u0142 - Szko\u0142a w Nowej Wsi",
                "addr:postcode": "36-001",
                "addr:place": "Nowa Wie\u015b",
                "addr:housenumber": "200",
                "addr:city:simc": 664444,
                "phone": "+48 177722154",
                "email": "sp_nw@wist.com.pl",
                "website": "https:\/\/zsnowawies.edupage.org\/",
                "ref:regon": "001139711",
                "ref:vatin": "PL8132953445",
                "operator": "Gmina Trzebownisko",
                "operator:type": "government",
                "landuse": "education",
                "fixme": "amenity=school, amenity=college albo landuse=education w zale\u017cno\u015bci od tego, jakie plac\u00f3wki wchodz\u0105 w sk\u0142ad zespo\u0142u. Sprawd\u017a, kiedy stosowa\u0107 amenity=* a kiedy landuse=education.",
                "note": "Children RSPO: 38499;42968"
            }
        },
        {
            "id": 68685,
            "type": "Feature",
            "geometry": {
                "type": "Point",
                "coordinates": [
                    22.04497,
                    50.09655
                ]
            },
            "properties": {
                "ref:rspo": 68685,
                "official_name": "Prywatna Szko\u0142a Muzyczna I St. w Nowej Wsi",
                "name": "Prywatna Szko\u0142a Muzyczna I St. w Nowej Wsi",
                "addr:postcode": "36-001",
                "addr:place": "Nowa Wie\u015b",
                "addr:housenumber": "200",
                "addr:city:simc": 664444,
                "phone": "+48 178642017",
                "email": "mazurbarbara@interia.pl",
                "website": "http:\/\/psmnowawies.pl",
                "ref:regon": "180902102",
                "operator": "Barbara Mazur",
                "operator:type": "private",
                "amenity": "music_school"
            }
        },
        {
            "id": 38499,
            "type": "Feature",
            "geometry": {
                "type": "Point",
                "coordinates": [
                    22.04497,
                    50.096520000000005
                ]
            },
            "properties": {
                "isced:level": "1;2",
                "ref:rspo": 38499,
                "official_name": "Szko\u0142a Podstawowa w Nowej Wsi",
                "name": "Szko\u0142a Podstawowa w Nowej Wsi",
                "addr:postcode": "36-001",
                "addr:place": "Nowa Wie\u015b",
                "addr:housenumber": "200",
                "addr:city:simc": 664444,
                "phone": "+48 177722154",
                "email": "sp_nw@wist.com.pl",
                "ref:regon": "691679775",
                "operator": "Gmina Trzebownisko",
                "operator:type": "government",
                "amenity": "school",
                "note": "Parent RSPO: 17023"
            }
        },
        {
            "id": 42968,
            "type": "Feature",
            "geometry": {
                "type": "Point",
                "coordinates": [
                    22.04497,
                    50.09649
                ]
            },
            "properties": {
                "ref:rspo": 42968,
                "official_name": "Przedszkole w Nowej Wsi",
                "name": "Przedszkole w Nowej Wsi",
                "addr:postcode": "36-001",
                "addr:place": "Nowa Wie\u015b",
                "addr:housenumber": "200",
                "addr:city:simc": 664444,
                "phone": "+48 177722154",
                "email": "sp_nw@wist.com.pl",
                "ref:regon": "691679781",
                "operator": "Gmina Trzebownisko",
                "operator:type": "government",
                "amenity": "kindergarten",
                "note": "Parent RSPO: 17023"
            }
        },
        {
            "id": 17019,
            "type": "Feature",
            "geometry": {
                "type": "Point",
                "coordinates": [
                    22.11821,
                    50.10257
                ]
            },
            "properties": {
                "ref:rspo": 17019,
                "official_name": "Zesp\u00f3\u0142 Szk\u00f3\u0142 w \u0141ukawcu",
                "name": "Zesp\u00f3\u0142 Szk\u00f3\u0142 w \u0141ukawcu",
                "addr:postcode": "36-004",
                "addr:place": "\u0141ukawiec",
                "addr:housenumber": "423",
                "addr:city:simc": 664378,
                "phone": "+48 177715549",
                "email": "zs.lukawiec@wp.pl",
                "ref:regon": "691752070",
                "ref:vatin": "PL5170051559",
                "operator": "Gmina Trzebownisko",
                "operator:type": "government",
                "landuse": "education",
                "fixme": "amenity=school, amenity=college albo landuse=education w zale\u017cno\u015bci od tego, jakie plac\u00f3wki wchodz\u0105 w sk\u0142ad zespo\u0142u. Sprawd\u017a, kiedy stosowa\u0107 amenity=* a kiedy landuse=education.",
                "note": "Children RSPO: 17127;35255"
            }
        },
        {
            "id": 17127,
            "type": "Feature",
            "geometry": {
                "type": "Point",
                "coordinates": [
                    22.11821,
                    50.10254
                ]
            },
            "properties": {
                "ref:rspo": 17127,
                "official_name": "Przedszkole w \u0141ukawcu",
                "name": "Przedszkole w \u0141ukawcu",
                "addr:postcode": "36-004",
                "addr:place": "\u0141ukawiec",
                "addr:housenumber": "423",
                "addr:city:simc": 664378,
                "phone": "+48 177715549",
                "email": "zs.lukawiec@wp.pl",
                "website": "http:\/\/www.szkolalukawiec.pl",
                "ref:regon": "180053063",
                "operator": "Gmina Trzebownisko",
                "operator:type": "government",
                "amenity": "kindergarten",
                "note": "Parent RSPO: 17019"
            }
        },
        {
            "id": 35255,
            "type": "Feature",
            "geometry": {
                "type": "Point",
                "coordinates": [
                    22.11821,
                    50.10251
                ]
            },
            "properties": {
                "isced:level": "1;2",
                "ref:rspo": 35255,
                "official_name": "Szko\u0142a Podstawowa w \u0141ukawcu",
                "name": "Szko\u0142a Podstawowa w \u0141ukawcu",
                "addr:postcode": "36-004",
                "addr:place": "\u0141ukawiec",
                "addr:housenumber": "423",
                "addr:city:simc": 664378,
                "phone": "+48 177715549",
                "email": "zs.lukawiec@wp.pl",
                "website": "http:\/\/www.szkolalukawiec.pl",
                "ref:regon": "001139705",
                "operator": "Gmina Trzebownisko",
                "operator:type": "government",
                "amenity": "school",
                "note": "Parent RSPO: 17019"
            }
        },
        {
            "id": 38509,
            "type": "Feature",
            "geometry": {
                "type": "Point",
                "coordinates": [
                    22.0535,
                    50.11318
                ]
            },
            "properties": {
                "ref:rspo": 38509,
                "official_name": "Przedszkole Niepubliczne Pw. Ochronka \u015aw. S. Kostki",
                "name": "Przedszkole Niepubliczne Pw. Ochronka \u015aw. S. Kostki",
                "addr:postcode": "36-002",
                "addr:place": "Jasionka",
                "addr:housenumber": "75",
                "addr:city:simc": 664237,
                "phone": "+48 177723060",
                "email": "st.kostka@interia.pl",
                "ref:regon": "180899200",
                "ref:vatin": "PL8133176742",
                "operator": "Zg. Ss. S\u0142u\u017cebniczek Nmp Niepokalanie Pocz\u0119tej, Prowincja Przemyska",
                "operator:type": "religious",
                "amenity": "kindergarten"
            }
        },
        {
            "id": 15389,
            "type": "Feature",
            "geometry": {
                "type": "Point",
                "coordinates": [
                    22.11383,
                    50.11772
                ]
            },
            "properties": {
                "ref:rspo": 15389,
                "official_name": "Zesp\u00f3\u0142 Szk\u00f3\u0142 w W\u00f3lce Podle\u015bnej",
                "name": "Zesp\u00f3\u0142 Szk\u00f3\u0142 w W\u00f3lce Podle\u015bnej",
                "addr:postcode": "36-002",
                "addr:place": "W\u00f3lka Podle\u015bna",
                "addr:housenumber": "438",
                "addr:city:simc": 664740,
                "phone": "+48 177714556",
                "email": "szkolawp@wist.com.pl",
                "ref:regon": "691752101",
                "ref:vatin": "PL5170051565",
                "operator": "Gmina Trzebownisko",
                "operator:type": "government",
                "landuse": "education",
                "fixme": "amenity=school, amenity=college albo landuse=education w zale\u017cno\u015bci od tego, jakie plac\u00f3wki wchodz\u0105 w sk\u0142ad zespo\u0142u. Sprawd\u017a, kiedy stosowa\u0107 amenity=* a kiedy landuse=education.",
                "note": "Children RSPO: 17273;38511"
            }
        },
        {
            "id": 17273,
            "type": "Feature",
            "geometry": {
                "type": "Point",
                "coordinates": [
                    22.11383,
                    50.117689999999996
                ]
            },
            "properties": {
                "ref:rspo": 17273,
                "official_name": "Przedszkole w W\u00f3lce Podle\u015bnej",
                "name": "Przedszkole w W\u00f3lce Podle\u015bnej",
                "addr:postcode": "36-002",
                "addr:place": "W\u00f3lka Podle\u015bna",
                "addr:housenumber": "438",
                "addr:city:simc": 664740,
                "phone": "+48 177714556",
                "email": "szkolawp@wist.com.pl",
                "ref:regon": "180890215",
                "operator": "Gmina Trzebownisko",
                "operator:type": "government",
                "amenity": "kindergarten",
                "note": "Parent RSPO: 15389"
            }
        },
        {
            "id": 38511,
            "type": "Feature",
            "geometry": {
                "type": "Point",
                "coordinates": [
                    22.11383,
                    50.11766
                ]
            },
            "properties": {
                "isced:level": "1;2",
                "ref:rspo": 38511,
                "official_name": "Szko\u0142a Podstawowa w W\u00f3lce Podle\u015bnej im. \u015awi\u0119tej Kr\u00f3lowej Jadwigi",
                "name": "Szko\u0142a Podstawowa w W\u00f3lce Podle\u015bnej",
                "addr:postcode": "36-002",
                "addr:place": "W\u00f3lka Podle\u015bna",
                "addr:housenumber": "438",
                "addr:city:simc": 664740,
                "phone": "+48 177714556",
                "email": "szkolawp@wist.com.pl",
                "ref:regon": "690032959",
                "operator": "Gmina Trzebownisko",
                "operator:type": "government",
                "amenity": "school",
                "note": "Parent RSPO: 15389"
            }
        },
        {
            "id": 133002,
            "type": "Feature",
            "geometry": {
                "type": "Point",
                "coordinates": [
                    22.01108,
                    50.12166
                ]
            },
            "properties": {
                "ref:rspo": 133002,
                "official_name": "Niepubliczne Integracyjne Przedszkole \u015awi\u0119tego J\u00f3zefa",
                "name": "Niepubliczne Integracyjne Przedszkole \u015awi\u0119tego J\u00f3zefa",
                "addr:postcode": "36-002",
                "addr:place": "Taj\u0119cina",
                "addr:housenumber": "30b",
                "addr:city:simc": 664600,
                "phone": "+48 790765837",
                "email": "tajecina@przedszkolejozefa.pl",
                "ref:regon": "366494458",
                "operator": "Micha\u0142 Krempa",
                "operator:type": "private",
                "amenity": "kindergarten"
            }
        },
        {
            "id": 16985,
            "type": "Feature",
            "geometry": {
                "type": "Point",
                "coordinates": [
                    22.0575,
                    50.12317
                ]
            },
            "properties": {
                "ref:rspo": 16985,
                "official_name": "Zesp\u00f3\u0142 Szk\u00f3\u0142 w Jasionce\nIm. Jana Paw\u0142a Ii",
                "name": "Zesp\u00f3\u0142 Szk\u00f3\u0142 w Jasionce\nIm. Jana Paw\u0142a Ii",
                "addr:postcode": "36-002",
                "addr:place": "Jasionka",
                "addr:housenumber": "301",
                "addr:city:simc": 664237,
                "phone": "+48 177723017",
                "email": "zs_jas@wist.com.pl",
                "ref:regon": "001139680",
                "ref:vatin": "PL8132764709",
                "operator": "Gmina Trzebownisko",
                "operator:type": "government",
                "landuse": "education",
                "fixme": "amenity=school, amenity=college albo landuse=education w zale\u017cno\u015bci od tego, jakie plac\u00f3wki wchodz\u0105 w sk\u0142ad zespo\u0142u. Sprawd\u017a, kiedy stosowa\u0107 amenity=* a kiedy landuse=education.",
                "note": "Children RSPO: 34602;34661"
            }
        },
        {
            "id": 34602,
            "type": "Feature",
            "geometry": {
                "type": "Point",
                "coordinates": [
                    22.0575,
                    50.12314
                ]
            },
            "properties": {
                "isced:level": "1;2",
                "ref:rspo": 34602,
                "official_name": "Szko\u0142a Podstawowa w Jasionce",
                "name": "Szko\u0142a Podstawowa w Jasionce",
                "addr:postcode": "36-002",
                "addr:place": "Jasionka",
                "addr:housenumber": "301",
                "addr:city:simc": 664237,
                "phone": "+48 177723017",
                "email": "zs_jas@wist.com.pl",
                "ref:regon": "691679700",
                "operator": "Gmina Trzebownisko",
                "operator:type": "government",
                "amenity": "school",
                "note": "Parent RSPO: 16985"
            }
        },
        {
            "id": 34661,
            "type": "Feature",
            "geometry": {
                "type": "Point",
                "coordinates": [
                    22.0575,
                    50.123110000000004
                ]
            },
            "properties": {
                "ref:rspo": 34661,
                "official_name": "Przedszkole w Jasionce",
                "name": "Przedszkole w Jasionce",
                "addr:postcode": "36-002",
                "addr:place": "Jasionka",
                "addr:housenumber": "301",
                "addr:city:simc": 664237,
                "phone": "+48 177723017",
                "email": "zs_jas@wist.com.pl",
                "ref:regon": "691679723",
                "operator": "Gmina Trzebownisko",
                "operator:type": "government",
                "amenity": "kindergarten",
                "note": "Parent RSPO: 16985"
            }
        },
        {
            "id": 17034,
            "type": "Feature",
            "geometry": {
                "type": "Point",
                "coordinates": [
                    22.07059,
                    50.13951
                ]
            },
            "properties": {
                "ref:rspo": 17034,
                "official_name": "Zesp\u00f3\u0142 Szk\u00f3\u0142 Nr 1 w Stobiernej",
                "name": "Zesp\u00f3\u0142 Szk\u00f3\u0142 Nr 1 w Stobiernej",
                "addr:postcode": "36-002",
                "addr:place": "Stobierna",
                "addr:housenumber": "357",
                "addr:city:simc": 664504,
                "phone": "+48 177723838",
                "email": "sp_stob1@wist.com.pl",
                "website": "http:\/\/zs1stobierna.edu.pl",
                "ref:regon": "001139728",
                "ref:vatin": "PL8132764744",
                "operator": "Gmina Trzebownisko",
                "operator:type": "government",
                "landuse": "education",
                "fixme": "amenity=school, amenity=college albo landuse=education w zale\u017cno\u015bci od tego, jakie plac\u00f3wki wchodz\u0105 w sk\u0142ad zespo\u0142u. Sprawd\u017a, kiedy stosowa\u0107 amenity=* a kiedy landuse=education.",
                "note": "Children RSPO: 38501;38503"
            }
        },
        {
            "id": 38501,
            "type": "Feature",
            "geometry": {
                "type": "Point",
                "coordinates": [
                    22.07059,
                    50.13948
                ]
            },
            "properties": {
                "isced:level": "1;2",
                "ref:rspo": 38501,
                "official_name": "Szko\u0142a Podstawowa Nr 1 w Stobiernej",
                "name": "Szko\u0142a Podstawowa Nr 1 w Stobiernej",
                "addr:postcode": "36-002",
                "addr:place": "Stobierna",
                "addr:housenumber": "357",
                "addr:city:simc": 664504,
                "phone": "+48 177723838",
                "email": "sp_stob1@wist.com.pl",
                "ref:regon": "691679730",
                "operator": "Gmina Trzebownisko",
                "operator:type": "government",
                "amenity": "school",
                "note": "Parent RSPO: 17034"
            }
        },
        {
            "id": 38503,
            "type": "Feature",
            "geometry": {
                "type": "Point",
                "coordinates": [
                    22.07059,
                    50.139450000000004
                ]
            },
            "properties": {
                "ref:rspo": 38503,
                "official_name": "Przedszkole w Stobiernej",
                "name": "Przedszkole w Stobiernej",
                "addr:postcode": "36-002",
                "addr:place": "Stobierna",
                "addr:housenumber": "357",
                "addr:city:simc": 664504,
                "phone": "+48 177723838",
                "email": "sp_stob1@wist.com.pl",
                "website": "http:\/\/zs1stobierna.edu.pl",
                "ref:regon": "691679769",
                "operator": "Gmina Trzebownisko",
                "operator:type": "government",
                "amenity": "kindergarten",
                "note": "Parent RSPO: 17034"
            }
        },
        {
            "id": 277762,
            "type": "Feature",
            "geometry": {
                "type": "Point",
                "coordinates": [
                    22.0755,
                    50.16014
                ]
            },
            "properties": {
                "ref:rspo": 277762,
                "official_name": "Zesp\u00f3\u0142 Szkolno-Przedszkolny w Stobiernej",
                "name": "Zesp\u00f3\u0142 Szkolno-Przedszkolny w Stobiernej",
                "addr:postcode": "36-002",
                "addr:place": "Stobierna",
                "addr:housenumber": "954",
                "addr:city:simc": 664504,
                "phone": "+48 177714047",
                "email": "zs2stob@gmail.com",
                "website": "http:\/\/sp2stobierna.edupage.org",
                "ref:regon": "389458157",
                "ref:vatin": "PL5170418014",
                "operator": "Gmina Trzebownisko",
                "operator:type": "government",
                "landuse": "education",
                "fixme": "amenity=school, amenity=college albo landuse=education w zale\u017cno\u015bci od tego, jakie plac\u00f3wki wchodz\u0105 w sk\u0142ad zespo\u0142u. Sprawd\u017a, kiedy stosowa\u0107 amenity=* a kiedy landuse=education.",
                "note": "Children RSPO: 38546;277779"
            }
        },
        {
            "id": 38546,
            "type": "Feature",
            "geometry": {
                "type": "Point",
                "coordinates": [
                    22.0755,
                    50.160109999999996
                ]
            },
            "properties": {
                "isced:level": "1;2",
                "ref:rspo": 38546,
                "official_name": "Szko\u0142a Podstawowa Nr 2 im. Ludwika Nabielaka w Stobiernej",
                "name": "Szko\u0142a Podstawowa Nr 2",
                "addr:postcode": "36-002",
                "addr:place": "Stobierna",
                "addr:housenumber": "954",
                "addr:city:simc": 664504,
                "phone": "+48 177714047",
                "email": "sp2stobierna@op.pl",
                "website": "http:\/\/sp2stobierna.edupage.org",
                "ref:regon": "001139734",
                "operator": "Gmina Trzebownisko",
                "operator:type": "government",
                "amenity": "school",
                "note": "Parent RSPO: 277762"
            }
        },
        {
            "id": 277779,
            "type": "Feature",
            "geometry": {
                "type": "Point",
                "coordinates": [
                    22.0755,
                    50.16008
                ]
            },
            "properties": {
                "ref:rspo": 277779,
                "official_name": "Przedszkole Nr 2 w Stobiernej",
                "name": "Przedszkole Nr 2 w Stobiernej",
                "addr:postcode": "36-002",
                "addr:place": "Stobierna",
                "addr:housenumber": "954",
                "addr:city:simc": 664504,
                "phone": "+48 177714047",
                "email": "sp2stobierna@op.pl",
                "ref:regon": "389490391",
                "operator": "Gmina Trzebownisko",
                "operator:type": "government",
                "amenity": "kindergarten",
                "note": "Parent RSPO: 277762"
            }
        }
    ]
}