{"type":"FeatureCollection","features":[{"id":75675,"type":"Feature","geometry":{"type":"Point","coordinates":[22.01937,49.94165]},"properties":{"isced:level":"1;2","ref:rspo":75675,"official_name":"Szko\u0142a Podstawowa im. \u015aw. Kr\u00f3lowej Jadwigi w Hermanowej","name":"Szko\u0142a Podstawowa","addr:country":"PL","addr:postcode":"36-020","addr:place":"Hermanowa","addr:housenumber":"212","addr:teryt:sym_ul":665870,"contact:phone":"+48 172219260","contact:email":"szkolahermanowa@gmail.com","contact:website":"http:\/\/tyczyn.sphermanowa.ogicom.pl\/","ref:regon":"001131773","ref:vatin":"PL8132785752","operator":"Gmina Tyczyn","operator:type":"government","amenity":"school"}},{"id":69773,"type":"Feature","geometry":{"type":"Point","coordinates":[22.10316,49.95569]},"properties":{"ref:rspo":69773,"official_name":"Punkt Przedszkolny Przy Szkole Podstawowej w Borku Starym","name":"Punkt Przedszkolny Przy Szkole Podstawowej w Borku Starym","addr:country":"PL","addr:postcode":"36-020","addr:place":"Borek Stary","addr:housenumber":"67","addr:teryt:sym_ul":666087,"contact:phone":"+48 172298039","contact:email":"szkola@intertele.pl","contact:website":"http:\/\/www.spborek.itl.pl","ref:regon":"180903923","operator":"Gmina Tyczyn","operator:type":"government","amenity":"kindergarten"}},{"id":75671,"type":"Feature","geometry":{"type":"Point","coordinates":[22.10316,49.955659999999995]},"properties":{"isced:level":"1;2","ref:rspo":75671,"official_name":"Szko\u0142a Podstawowa im. Wojska Polskiego w Borku Starym","name":"Szko\u0142a Podstawowa","addr:country":"PL","addr:postcode":"36-020","addr:place":"Borek Stary","addr:housenumber":"67","addr:teryt:sym_ul":666087,"contact:phone":"+48 172298039","contact:email":"szkola@intertele.pl","contact:website":"http:\/\/www.spborek.itl.pl","ref:regon":"001131750","ref:vatin":"PL8132698562","operator":"Gmina Tyczyn","operator:type":"government","amenity":"school"}},{"id":75709,"type":"Feature","geometry":{"type":"Point","coordinates":[22.02748,49.96158]},"properties":{"isced:level":"1;2","ref:rspo":75709,"official_name":"Szko\u0142a Podstawowa im. Stanis\u0142awa Staszica w Tyczynie","name":"Szko\u0142a Podstawowa","addr:country":"PL","addr:postcode":"36-020","addr:city":"Tyczyn","addr:street":"ul. Pu\u0142anek","addr:housenumber":"4","addr:teryt:simc":18087,"addr:teryt:sym_ul":975078,"contact:phone":"+48 172219393","contact:email":"sptycz@intertele.pl","contact:website":"http:\/\/sptyczyn.pl","ref:regon":"000264153","ref:vatin":"PL8132865557","operator":"Gmina Tyczyn","operator:type":"government","amenity":"school"}},{"id":25677,"type":"Feature","geometry":{"type":"Point","coordinates":[22.032209396362,49.96395111084]},"properties":{"ref:rspo":25677,"official_name":"Niepubliczne Przedszkole J\u0119zykowo-Ekologiczne \"Weso\u0142e Misie U Speakera\"","name":"Niepubliczne Przedszkole J\u0119zykowo-Ekologiczne \"Weso\u0142e Misie U Speakera\"","addr:country":"PL","addr:postcode":"36-020","addr:city":"Tyczyn","addr:street":"ul. Tycznera","addr:housenumber":"2A","addr:teryt:simc":23228,"addr:teryt:sym_ul":975078,"contact:phone":"+48 172302295","contact:email":"wesolemisie@o2.pl","contact:website":"http:\/\/www.speaker-tyczyn.pl","ref:regon":"180896040","ref:vatin":"PL8131666732","operator":"Marzena Wianecka-Kusy","operator:type":"private","amenity":"kindergarten"}},{"id":25678,"type":"Feature","geometry":{"type":"Point","coordinates":[22.032209396362,49.96392111084]},"properties":{"ref:rspo":25678,"official_name":"Przedszkole Publiczne Zgromadzenia Si\u00f3str \u015aw.dominika","name":"Przedszkole Publiczne Zgromadzenia Si\u00f3str \u015aw.dominika","addr:country":"PL","addr:postcode":"36-020","addr:city":"Tyczyn","addr:street":"ul. \u015awi\u0119tego Krzy\u017ca","addr:housenumber":"3","addr:teryt:simc":42010,"addr:teryt:sym_ul":975078,"contact:phone":"+48 172219387","contact:email":"przedsztyczyn@interia.pl","contact:website":"http:\/\/www.pptyczyn.szkolnastrona.pl","ref:regon":"180896347","ref:vatin":"PL8132897758","operator":"Zgromadzenie Si\u00f3str \u015aw. Dominika","operator:type":"religious","amenity":"kindergarten"}},{"id":10290,"type":"Feature","geometry":{"type":"Point","coordinates":[22.02515,49.9646199]},"properties":{"ref:rspo":10290,"official_name":"Zesp\u00f3\u0142 Szk\u00f3\u0142 w Tyczynie","name":"Zesp\u00f3\u0142 Szk\u00f3\u0142 w Tyczynie","addr:country":"PL","addr:postcode":"36-020","addr:city":"Tyczyn","addr:street":"ul. Grunwaldzka","addr:housenumber":"25","addr:teryt:simc":6260,"addr:teryt:sym_ul":975078,"contact:phone":"+48 172219362","contact:email":"zespols@intertele.pl","contact:website":"http:\/\/www.zs-tyczyn.szkoly.itl.pl","ref:regon":"000252500","ref:vatin":"PL8132675443","operator":"Powiat Rzeszowski","operator:type":"government","landuse":"education","fixme":"amenity=school, amenity=college albo landuse=education w zale\u017cno\u015bci od tego, jakie plac\u00f3wki wchodz\u0105 w sk\u0142ad zespo\u0142u. Sprawd\u017a, kiedy stosowa\u0107 amenity=* a kiedy landuse=education.","note":"Children RSPO: 12515;74963"}},{"id":12515,"type":"Feature","geometry":{"type":"Point","coordinates":[22.02515,49.9645899]},"properties":{"isced:level":"3","ref:rspo":12515,"official_name":"Liceum Og\u00f3lnokszta\u0142c\u0105ce w Tyczynie","name":"Liceum Og\u00f3lnokszta\u0142c\u0105ce w Tyczynie","addr:country":"PL","addr:postcode":"36-020","addr:city":"Tyczyn","addr:street":"ul. Grunwaldzka","addr:housenumber":"25","addr:teryt:simc":6260,"addr:teryt:sym_ul":975078,"contact:phone":"+48 172219362","contact:email":"zespols@intertele.pl","contact:website":"http:\/\/www.zs-tyczyn.szkoly.itl.pl\/","ref:regon":"691681074","operator":"Powiat Rzeszowski","operator:type":"government","amenity":"school","note":"Parent RSPO: 10290"}},{"id":74963,"type":"Feature","geometry":{"type":"Point","coordinates":[22.02515,49.964559900000005]},"properties":{"isced:level":"3","ref:rspo":74963,"official_name":"Technikum w Tyczynie","name":"Technikum w Tyczynie","addr:country":"PL","addr:postcode":"36-020","addr:city":"Tyczyn","addr:street":"ul. Grunwaldzka","addr:housenumber":"25","addr:teryt:simc":6260,"addr:teryt:sym_ul":975078,"contact:phone":"+48 172219362","ref:regon":"180907105","operator":"Powiat Rzeszowski","operator:type":"government","amenity":"school","note":"Parent RSPO: 10290"}},{"id":69774,"type":"Feature","geometry":{"type":"Point","coordinates":[22.06526,49.96589]},"properties":{"ref:rspo":69774,"official_name":"Punkt Przedszkolny Przy Szkole Podstawowowej w Kielnarowej","name":"Punkt Przedszkolny Przy Szkole Podstawowowej w Kielnarowej","addr:country":"PL","addr:postcode":"36-020","addr:place":"Kielnarowa","addr:housenumber":"53","addr:teryt:sym_ul":665952,"contact:phone":"+48 172219344","contact:email":"spkielnarowa@gmail.com","contact:website":"http:\/\/spkielnarowa.pl\/","ref:regon":"180903930","operator":"Gmina Tyczyn","operator:type":"government","amenity":"kindergarten"}},{"id":75707,"type":"Feature","geometry":{"type":"Point","coordinates":[22.06526,49.96586]},"properties":{"isced:level":"1;2","ref:rspo":75707,"official_name":"Szko\u0142a Podstawowa w Kielnarowej","name":"Szko\u0142a Podstawowa w Kielnarowej","addr:country":"PL","addr:postcode":"36-020","addr:place":"Kielnarowa","addr:housenumber":"53","addr:teryt:sym_ul":665952,"contact:phone":"+48 172219344","contact:email":"spkielnarowa@gmail.com","contact:website":"http:\/\/spkielnarowa.pl\/","ref:regon":"001131780","ref:vatin":"PL8132643503","operator":"Gmina Tyczyn","operator:type":"government","amenity":"school"}},{"id":267135,"type":"Feature","geometry":{"type":"Point","coordinates":[22.06526,49.965830000000004]},"properties":{"ref:rspo":267135,"official_name":"Niepubliczna Poradnia Psychologiczno-Pedagogiczna Przy Edusensum Sp. Z O.o. Sp. K.","name":"Niepubliczna Poradnia Psychologiczno-Pedagogiczna Przy Edusensum Sp. Z O.o. Sp. K.","addr:country":"PL","addr:postcode":"36-020","addr:place":"Kielnarowa","addr:housenumber":"53","addr:teryt:sym_ul":665952,"ref:regon":"369951873","operator":"Iwona Jab\u0142o\u0144ska-Mesku\u0142a","operator:type":"private","healthcare":"councelling","counselling_type":"education","fixme":"w zale\u017cno\u015bci od przedmiotu dzia\u0142alno\u015bci (np. healthcare=councelling + counselling_type=education albo healthcare=psychotherapist)"}},{"id":263537,"type":"Feature","geometry":{"type":"Point","coordinates":[22.02888,49.96785]},"properties":{"ref:rspo":263537,"official_name":"Przedszkole Maluszkowo 2","name":"Przedszkole Maluszkowo 2","addr:country":"PL","addr:postcode":"36-020","addr:city":"Tyczyn","addr:street":"ul. Grunwaldzka","addr:housenumber":"35","addr:teryt:simc":6260,"addr:teryt:sym_ul":975078,"contact:phone":"+48 517525555","contact:email":"alk@op.pl","contact:website":"http:\/\/www.tyczyn.maluszkowo.com.pl","ref:regon":"368198570","ref:vatin":"PL6842307742","operator":"Anna Luba\u015b","operator:type":"private","amenity":"kindergarten"}},{"id":131711,"type":"Feature","geometry":{"type":"Point","coordinates":[21.93143,49.99235]},"properties":{"ref:rspo":131711,"official_name":"Przedszkole Maluszkowo","name":"Przedszkole Maluszkowo","addr:country":"PL","addr:postcode":"36-020","addr:city":"Tyczyn","addr:street":"ul. S\u0142oneczna","addr:housenumber":"1","addr:teryt:simc":20254,"addr:teryt:sym_ul":975078,"contact:phone":"+48 509911055","contact:email":"alk@op.pl","contact:website":"http:\/\/www.tyczyn.maluszkowo.com.pl","ref:regon":"365332802","ref:vatin":"PL6842307742","operator":"Anna Luba\u015b","operator:type":"private","amenity":"kindergarten"}}]}