{
    "type": "FeatureCollection",
    "features": [
        {
            "id": 113628,
            "type": "Feature",
            "geometry": {
                "type": "Point",
                "coordinates": [
                    22.09606,
                    50.1924
                ]
            },
            "properties": {
                "ref:rspo": 113628,
                "official_name": "Przedszkole Zgromadzenia Ss. S\u0142u\u017cebniczek Nmp Np Pw. \u015aw. J\u00f3zefa",
                "name": "Przedszkole Zgromadzenia Ss. S\u0142u\u017cebniczek Nmp Np Pw. \u015aw. J\u00f3zefa",
                "addr:country": "PL",
                "addr:postcode": "36-052",
                "addr:place": "Nienad\u00f3wka",
                "addr:housenumber": "268",
                "addr:teryt:simc": 661470,
                "contact:phone": "+48 177712257",
                "contact:email": "ss_nienadowka@onet.pl",
                "contact:website": "http:\/\/www.ochronkanienadowka.pl",
                "ref:regon": "180962363",
                "ref:vatin": "PL8133240546",
                "operator": "Zg. Ss. S\u0142u\u017cebniczek Nmp Niepokalanie Pocz\u0119tej, Prowincja Przemyska",
                "operator:type": "religious",
                "amenity": "kindergarten"
            }
        },
        {
            "id": 105016,
            "type": "Feature",
            "geometry": {
                "type": "Point",
                "coordinates": [
                    22.1812045,
                    50.1936375
                ]
            },
            "properties": {
                "isced:level": "1;2",
                "ref:rspo": 105016,
                "official_name": "Szko\u0142a Podstawowa Nr 2 im. \u015aw. Stanis\u0142awa Kostki w Trzebosi",
                "name": "Szko\u0142a Podstawowa Nr 2",
                "addr:country": "PL",
                "addr:postcode": "36-050",
                "addr:city": "Trzebo\u015b",
                "addr:street": "Podlas",
                "addr:housenumber": "29",
                "addr:teryt:simc": 661530,
                "addr:teryt:sym_ul": 16788,
                "contact:phone": "+48 177727333",
                "contact:email": "sp2trzebos@wp.pl",
                "contact:website": "http:\/\/sp2trzebos.edupage.org",
                "ref:regon": "001131595",
                "ref:vatin": "PL8133198258",
                "operator": "Gmina Soko\u0142\u00f3w Ma\u0142opolski",
                "operator:type": "government",
                "amenity": "school"
            }
        },
        {
            "id": 104573,
            "type": "Feature",
            "geometry": {
                "type": "Point",
                "coordinates": [
                    22.11171,
                    50.19516
                ]
            },
            "properties": {
                "ref:rspo": 104573,
                "official_name": "Zesp\u00f3\u0142 Szk\u00f3\u0142 Nr 1 w Nienad\u00f3wce",
                "name": "Zesp\u00f3\u0142 Szk\u00f3\u0142 Nr 1 w Nienad\u00f3wce",
                "addr:country": "PL",
                "addr:postcode": "36-052",
                "addr:place": "Nienad\u00f3wka",
                "addr:housenumber": "686",
                "addr:teryt:simc": 661470,
                "contact:phone": "+48 177712319",
                "contact:email": "zs1_nka@wp.pl",
                "ref:regon": "691684919",
                "ref:vatin": "PL5170022316",
                "operator": "Gmina Soko\u0142\u00f3w Ma\u0142opolski",
                "operator:type": "government",
                "landuse": "education",
                "fixme": "amenity=school, amenity=college albo landuse=education w zale\u017cno\u015bci od tego, jakie plac\u00f3wki wchodz\u0105 w sk\u0142ad zespo\u0142u. Sprawd\u017a, kiedy stosowa\u0107 amenity=* a kiedy landuse=education.",
                "note": "Children RSPO: 104771;104772"
            }
        },
        {
            "id": 104771,
            "type": "Feature",
            "geometry": {
                "type": "Point",
                "coordinates": [
                    22.11171,
                    50.19513
                ]
            },
            "properties": {
                "ref:rspo": 104771,
                "official_name": "Przedszkole Samorz\u0105dowe Nr 1 w Nienad\u00f3wce",
                "name": "Przedszkole Samorz\u0105dowe Nr 1 w Nienad\u00f3wce",
                "addr:country": "PL",
                "addr:postcode": "36-052",
                "addr:place": "Nienad\u00f3wka",
                "addr:housenumber": "686",
                "addr:teryt:simc": 661470,
                "contact:phone": "+48 177712319",
                "contact:email": "zs1_nka@wp.pl",
                "contact:website": "http:\/\/www.zs1nienadowka.edu.pl\/",
                "ref:regon": "691684865",
                "ref:vatin": "PL5170022351",
                "operator": "Gmina Soko\u0142\u00f3w Ma\u0142opolski",
                "operator:type": "government",
                "amenity": "kindergarten",
                "note": "Parent RSPO: 104573"
            }
        },
        {
            "id": 104772,
            "type": "Feature",
            "geometry": {
                "type": "Point",
                "coordinates": [
                    22.11171,
                    50.195100000000004
                ]
            },
            "properties": {
                "isced:level": "1;2",
                "ref:rspo": 104772,
                "official_name": "Szko\u0142a Podstawowa Nr 1 w Nienad\u00f3wce",
                "name": "Szko\u0142a Podstawowa Nr 1 w Nienad\u00f3wce",
                "addr:country": "PL",
                "addr:postcode": "36-052",
                "addr:place": "Nienad\u00f3wka",
                "addr:housenumber": "686",
                "addr:teryt:simc": 661470,
                "contact:phone": "+48 177712319",
                "contact:email": "zs1_nka@wp.pl",
                "contact:website": "http:\/\/www.zs1nienadowka.edu.pl\/",
                "ref:regon": "001131566",
                "ref:vatin": "PL8133198241",
                "operator": "Gmina Soko\u0142\u00f3w Ma\u0142opolski",
                "operator:type": "government",
                "amenity": "school",
                "note": "Parent RSPO: 104573"
            }
        },
        {
            "id": 104637,
            "type": "Feature",
            "geometry": {
                "type": "Point",
                "coordinates": [
                    22.07495,
                    50.19708
                ]
            },
            "properties": {
                "ref:rspo": 104637,
                "official_name": "Zesp\u00f3\u0142 Szk\u00f3\u0142 Nr 2 w Nienad\u00f3wce",
                "name": "Zesp\u00f3\u0142 Szk\u00f3\u0142 Nr 2 w Nienad\u00f3wce",
                "addr:country": "PL",
                "addr:postcode": "36-052",
                "addr:place": "Nienad\u00f3wka",
                "addr:housenumber": "788",
                "addr:teryt:simc": 661470,
                "contact:phone": "+48 177725341",
                "contact:email": "zs2_nka@wp.pl",
                "contact:website": "https:\/\/zs2nka.szkolna.net\/",
                "ref:regon": "001131572",
                "ref:vatin": "PL5170022291",
                "operator": "Gmina Soko\u0142\u00f3w Ma\u0142opolski",
                "operator:type": "government",
                "landuse": "education",
                "fixme": "amenity=school, amenity=college albo landuse=education w zale\u017cno\u015bci od tego, jakie plac\u00f3wki wchodz\u0105 w sk\u0142ad zespo\u0142u. Sprawd\u017a, kiedy stosowa\u0107 amenity=* a kiedy landuse=education.",
                "note": "Children RSPO: 105525;105526"
            }
        },
        {
            "id": 105525,
            "type": "Feature",
            "geometry": {
                "type": "Point",
                "coordinates": [
                    22.07495,
                    50.19705
                ]
            },
            "properties": {
                "ref:rspo": 105525,
                "official_name": "Przedszkole Samorz\u0105dowe w Nienad\u00f3wce",
                "name": "Przedszkole Samorz\u0105dowe w Nienad\u00f3wce",
                "addr:country": "PL",
                "addr:postcode": "36-052",
                "addr:place": "Nienad\u00f3wka",
                "addr:housenumber": "788",
                "addr:teryt:simc": 661470,
                "contact:phone": "+48 177725341",
                "contact:email": "zs2_nka@wp.pl",
                "contact:website": "https:\/\/zs2nka.szkolna.net\/",
                "ref:regon": "691679172",
                "operator": "Gmina Soko\u0142\u00f3w Ma\u0142opolski",
                "operator:type": "government",
                "amenity": "kindergarten",
                "note": "Parent RSPO: 104637"
            }
        },
        {
            "id": 105526,
            "type": "Feature",
            "geometry": {
                "type": "Point",
                "coordinates": [
                    22.07495,
                    50.19702
                ]
            },
            "properties": {
                "isced:level": "1;2",
                "ref:rspo": 105526,
                "official_name": "Szko\u0142a Podstawowa Nr 2 w Nienad\u00f3wce",
                "name": "Szko\u0142a Podstawowa Nr 2 w Nienad\u00f3wce",
                "addr:country": "PL",
                "addr:postcode": "36-052",
                "addr:place": "Nienad\u00f3wka",
                "addr:housenumber": "788",
                "addr:teryt:simc": 661470,
                "contact:phone": "+48 177725341",
                "contact:email": "zs2_nka@wp.pl",
                "contact:website": "https:\/\/zs2nka.szkolna.net\/",
                "ref:regon": "691679166",
                "operator": "Gmina Soko\u0142\u00f3w Ma\u0142opolski",
                "operator:type": "government",
                "amenity": "school",
                "note": "Parent RSPO: 104637"
            }
        },
        {
            "id": 267887,
            "type": "Feature",
            "geometry": {
                "type": "Point",
                "coordinates": [
                    22.06834,
                    50.20346
                ]
            },
            "properties": {
                "ref:rspo": 267887,
                "official_name": "Zesp\u00f3\u0142 Szk\u00f3\u0142 w Trzebusce",
                "name": "Zesp\u00f3\u0142 Szk\u00f3\u0142 w Trzebusce",
                "addr:country": "PL",
                "addr:postcode": "36-050",
                "addr:place": "Trzebuska",
                "addr:housenumber": "196",
                "addr:teryt:simc": 661606,
                "contact:phone": "+48 177729051",
                "contact:email": "trzebuska.szkola@gmail.com",
                "ref:regon": "380731440",
                "operator": "Gmina Soko\u0142\u00f3w Ma\u0142opolski",
                "operator:type": "government",
                "landuse": "education",
                "fixme": "amenity=school, amenity=college albo landuse=education w zale\u017cno\u015bci od tego, jakie plac\u00f3wki wchodz\u0105 w sk\u0142ad zespo\u0142u. Sprawd\u017a, kiedy stosowa\u0107 amenity=* a kiedy landuse=education.",
                "note": "Children RSPO: 110525;267898"
            }
        },
        {
            "id": 110525,
            "type": "Feature",
            "geometry": {
                "type": "Point",
                "coordinates": [
                    22.06834,
                    50.20343
                ]
            },
            "properties": {
                "isced:level": "1;2",
                "ref:rspo": 110525,
                "official_name": "Szko\u0142a Podstawowa im. \u015aw. Kr\u00f3lowej Jadwigi w Trzebusce",
                "name": "Szko\u0142a Podstawowa",
                "addr:country": "PL",
                "addr:postcode": "36-050",
                "addr:place": "Trzebuska",
                "addr:housenumber": "196",
                "addr:teryt:simc": 661606,
                "contact:phone": "+48 177729051",
                "contact:email": "trzebuska.szkola@gmail.com",
                "ref:regon": "001131603",
                "operator": "Gmina Soko\u0142\u00f3w Ma\u0142opolski",
                "operator:type": "government",
                "amenity": "school",
                "note": "Parent RSPO: 267887"
            }
        },
        {
            "id": 267898,
            "type": "Feature",
            "geometry": {
                "type": "Point",
                "coordinates": [
                    22.06834,
                    50.2034
                ]
            },
            "properties": {
                "ref:rspo": 267898,
                "official_name": "Przedszkole w Trzebusce",
                "name": "Przedszkole w Trzebusce",
                "addr:country": "PL",
                "addr:postcode": "36-050",
                "addr:place": "Trzebuska",
                "addr:housenumber": "196",
                "addr:teryt:simc": 661606,
                "contact:phone": "+48 177729051",
                "contact:email": "trzebuska.szkola@gmail.com",
                "ref:regon": "380733455",
                "operator": "Gmina Soko\u0142\u00f3w Ma\u0142opolski",
                "operator:type": "government",
                "amenity": "kindergarten",
                "note": "Parent RSPO: 267887"
            }
        },
        {
            "id": 105430,
            "type": "Feature",
            "geometry": {
                "type": "Point",
                "coordinates": [
                    22.1479399,
                    50.21092
                ]
            },
            "properties": {
                "ref:rspo": 105430,
                "official_name": "Zesp\u00f3\u0142 Szk\u00f3\u0142 w Trzebosi",
                "name": "Zesp\u00f3\u0142 Szk\u00f3\u0142 w Trzebosi",
                "addr:country": "PL",
                "addr:postcode": "36-050",
                "addr:city": "Trzebo\u015b",
                "addr:street": "Ko\u015bcielna",
                "addr:housenumber": "1",
                "addr:teryt:simc": 661530,
                "addr:teryt:sym_ul": 9546,
                "contact:phone": "+48 177727324",
                "contact:email": "zs_trzebos@op.pl",
                "contact:website": "http:\/\/www.zstrzebos.edupage.org",
                "ref:regon": "691684888",
                "ref:vatin": "PL5170022322",
                "operator": "Gmina Soko\u0142\u00f3w Ma\u0142opolski",
                "operator:type": "government",
                "landuse": "education",
                "fixme": "amenity=school, amenity=college albo landuse=education w zale\u017cno\u015bci od tego, jakie plac\u00f3wki wchodz\u0105 w sk\u0142ad zespo\u0142u. Sprawd\u017a, kiedy stosowa\u0107 amenity=* a kiedy landuse=education.",
                "note": "Children RSPO: 105696;105697"
            }
        },
        {
            "id": 105696,
            "type": "Feature",
            "geometry": {
                "type": "Point",
                "coordinates": [
                    22.1479399,
                    50.21089
                ]
            },
            "properties": {
                "ref:rspo": 105696,
                "official_name": "Przedszkole Samorz\u0105dowe w Trzebosi",
                "name": "Przedszkole Samorz\u0105dowe w Trzebosi",
                "addr:country": "PL",
                "addr:postcode": "36-050",
                "addr:city": "Trzebo\u015b",
                "addr:street": "Ko\u015bcielna",
                "addr:housenumber": "1",
                "addr:teryt:simc": 661530,
                "addr:teryt:sym_ul": 9546,
                "contact:phone": "+48 177727324",
                "contact:email": "zs_trzebos@op.pl",
                "contact:website": "http:\/\/www.zstrzebos.edupage.org",
                "ref:regon": "180155823",
                "operator": "Gmina Soko\u0142\u00f3w Ma\u0142opolski",
                "operator:type": "government",
                "amenity": "kindergarten",
                "note": "Parent RSPO: 105430"
            }
        },
        {
            "id": 105697,
            "type": "Feature",
            "geometry": {
                "type": "Point",
                "coordinates": [
                    22.1479399,
                    50.210860000000004
                ]
            },
            "properties": {
                "isced:level": "1;2",
                "ref:rspo": 105697,
                "official_name": "Szko\u0142a Podstawowa Nr 1 im. B\u0142. Bronis\u0142awa Markiewicza w Trzebosi",
                "name": "Szko\u0142a Podstawowa Nr 1",
                "addr:country": "PL",
                "addr:postcode": "36-050",
                "addr:city": "Trzebo\u015b",
                "addr:street": "Ko\u015bcielna",
                "addr:housenumber": "1",
                "addr:teryt:simc": 661530,
                "addr:teryt:sym_ul": 9546,
                "contact:phone": "+48 177727324",
                "contact:email": "zs_trzebos@op.pl",
                "contact:website": "http:\/\/www.zstrzebos.edupage.org",
                "ref:regon": "001131589",
                "ref:vatin": "PL8133198376",
                "operator": "Gmina Soko\u0142\u00f3w Ma\u0142opolski",
                "operator:type": "government",
                "amenity": "school",
                "note": "Parent RSPO: 105430"
            }
        },
        {
            "id": 105073,
            "type": "Feature",
            "geometry": {
                "type": "Point",
                "coordinates": [
                    22.16801,
                    50.22669
                ]
            },
            "properties": {
                "isced:level": "1;2",
                "ref:rspo": 105073,
                "official_name": "Szko\u0142a Podstawowa Nr 3 im. \u015aw. Faustyny Kowalskiej w Trzebosi",
                "name": "Szko\u0142a Podstawowa Nr 3",
                "addr:country": "PL",
                "addr:postcode": "36-050",
                "addr:city": "Trzebo\u015b",
                "addr:street": "Dolna",
                "addr:housenumber": "240",
                "addr:teryt:simc": 661530,
                "addr:teryt:sym_ul": 4034,
                "contact:phone": "+48 177727332",
                "contact:email": "sp3trzebos@gmail.com",
                "contact:website": "http:\/\/www.sp3trzebos.szkolna.net",
                "ref:regon": "690032936",
                "ref:vatin": "PL8133198264",
                "operator": "Gmina Soko\u0142\u00f3w Ma\u0142opolski",
                "operator:type": "government",
                "amenity": "school"
            }
        },
        {
            "id": 264145,
            "type": "Feature",
            "geometry": {
                "type": "Point",
                "coordinates": [
                    22.13021,
                    50.23125
                ]
            },
            "properties": {
                "ref:rspo": 264145,
                "official_name": "Logopedyczny Punkt Przedszkolny I \u017b\u0142obek \"Sokolik\" Iwona Dziak",
                "name": "Logopedyczny Punkt Przedszkolny I \u017b\u0142obek \"Sokolik\" Iwona Dziak",
                "addr:country": "PL",
                "addr:postcode": "36-050",
                "addr:city": "Soko\u0142\u00f3w Ma\u0142opolski",
                "addr:street": "Tysi\u0105clecia",
                "addr:housenumber": "39",
                "addr:teryt:simc": 974966,
                "addr:teryt:sym_ul": 23270,
                "contact:email": "biuro@sokolik.edu.pl",
                "ref:regon": "368271283",
                "operator": "Iwona Dziak",
                "operator:type": "private",
                "amenity": "kindergarten"
            }
        },
        {
            "id": 113622,
            "type": "Feature",
            "geometry": {
                "type": "Point",
                "coordinates": [
                    22.1204,
                    50.23281
                ]
            },
            "properties": {
                "ref:rspo": 113622,
                "official_name": "Przedszkole Niepubliczne Pn. \"Ochronka Ducha \u015awi\u0119tego\"",
                "name": "Przedszkole Niepubliczne Pn. \"Ochronka Ducha \u015awi\u0119tego\"",
                "addr:country": "PL",
                "addr:postcode": "36-050",
                "addr:city": "Soko\u0142\u00f3w Ma\u0142opolski",
                "addr:street": "Jakuba Darochy",
                "addr:housenumber": "4",
                "addr:teryt:simc": 974966,
                "addr:teryt:sym_ul": 3618,
                "contact:phone": "+48 177712865",
                "contact:email": "przedszkole.sokolow@wp.pl",
                "ref:regon": "180962357",
                "ref:vatin": "PL8133105908",
                "operator": "Zg. Ss. S\u0142u\u017cebniczek Nmp Niepokalanie Pocz\u0119tej, Prowincja Przemyska",
                "operator:type": "religious",
                "amenity": "kindergarten"
            }
        },
        {
            "id": 11105,
            "type": "Feature",
            "geometry": {
                "type": "Point",
                "coordinates": [
                    22.12191,
                    50.23455
                ]
            },
            "properties": {
                "ref:rspo": 11105,
                "official_name": "Zesp\u00f3\u0142 Szk\u00f3\u0142 w Soko\u0142owie M\u0142p.",
                "name": "Zesp\u00f3\u0142 Szk\u00f3\u0142 w Soko\u0142owie M\u0142p.",
                "addr:country": "PL",
                "addr:postcode": "36-050",
                "addr:city": "Soko\u0142\u00f3w Ma\u0142opolski",
                "addr:street": "Lubelska",
                "addr:housenumber": "37",
                "addr:teryt:simc": 974966,
                "addr:teryt:sym_ul": 11307,
                "contact:phone": "+48 177729009",
                "contact:email": "zssokolow@wp.pl",
                "contact:website": "http:\/\/www.zssokolow.edu.pl",
                "ref:regon": "000263886",
                "ref:vatin": "PL8141258667",
                "operator": "Powiat Rzeszowski",
                "operator:type": "government",
                "landuse": "education",
                "fixme": "amenity=school, amenity=college albo landuse=education w zale\u017cno\u015bci od tego, jakie plac\u00f3wki wchodz\u0105 w sk\u0142ad zespo\u0142u. Sprawd\u017a, kiedy stosowa\u0107 amenity=* a kiedy landuse=education.",
                "note": "Children RSPO: 27746;35175;35176;74870"
            }
        },
        {
            "id": 27746,
            "type": "Feature",
            "geometry": {
                "type": "Point",
                "coordinates": [
                    22.12191,
                    50.234519999999996
                ]
            },
            "properties": {
                "isced:level": "3",
                "ref:rspo": 27746,
                "official_name": "Bran\u017cowa Szko\u0142a I Stopnia w Soko\u0142owie M\u0142p.",
                "name": "Bran\u017cowa Szko\u0142a I Stopnia w Soko\u0142owie M\u0142p.",
                "addr:country": "PL",
                "addr:postcode": "36-050",
                "addr:city": "Soko\u0142\u00f3w Ma\u0142opolski",
                "addr:street": "Lubelska",
                "addr:housenumber": "37",
                "addr:teryt:simc": 974966,
                "addr:teryt:sym_ul": 11307,
                "contact:phone": "+48 177729009",
                "contact:email": "zssokolow@wp.pl",
                "contact:website": "http:\/\/www.zssokolow.edu.pl",
                "ref:regon": "691681157",
                "operator": "Powiat Rzeszowski",
                "operator:type": "government",
                "amenity": "school",
                "note": "Parent RSPO: 11105"
            }
        },
        {
            "id": 35175,
            "type": "Feature",
            "geometry": {
                "type": "Point",
                "coordinates": [
                    22.12191,
                    50.23449
                ]
            },
            "properties": {
                "isced:level": "3",
                "ref:rspo": 35175,
                "official_name": "Liceum Og\u00f3lnokszta\u0142c\u0105ce im. T. Ko\u015bciuszki w Soko\u0142owie M\u0142p.",
                "name": "Liceum Og\u00f3lnokszta\u0142c\u0105ce",
                "addr:country": "PL",
                "addr:postcode": "36-050",
                "addr:city": "Soko\u0142\u00f3w Ma\u0142opolski",
                "addr:street": "Lubelska",
                "addr:housenumber": "37",
                "addr:teryt:simc": 974966,
                "addr:teryt:sym_ul": 11307,
                "contact:phone": "+48 177729009",
                "contact:email": "zssokolow@wp.pl",
                "contact:website": "http:\/\/zssokolow.edu.pl",
                "ref:regon": "691681128",
                "operator": "Powiat Rzeszowski",
                "operator:type": "government",
                "amenity": "school",
                "note": "Parent RSPO: 11105"
            }
        },
        {
            "id": 35176,
            "type": "Feature",
            "geometry": {
                "type": "Point",
                "coordinates": [
                    22.12191,
                    50.23446
                ]
            },
            "properties": {
                "isced:level": "3",
                "ref:rspo": 35176,
                "official_name": "Technikum w Soko\u0142owie M\u0142p.",
                "name": "Technikum w Soko\u0142owie M\u0142p.",
                "addr:country": "PL",
                "addr:postcode": "36-050",
                "addr:city": "Soko\u0142\u00f3w Ma\u0142opolski",
                "addr:street": "Lubelska",
                "addr:housenumber": "37",
                "addr:teryt:simc": 974966,
                "addr:teryt:sym_ul": 11307,
                "contact:phone": "+48 177729009",
                "contact:email": "zssokolow@wp.pl",
                "contact:website": "http:\/\/zssokolow.edu.pl",
                "ref:regon": "691681140",
                "operator": "Powiat Rzeszowski",
                "operator:type": "government",
                "amenity": "school",
                "note": "Parent RSPO: 11105"
            }
        },
        {
            "id": 74870,
            "type": "Feature",
            "geometry": {
                "type": "Point",
                "coordinates": [
                    22.12191,
                    50.234429999999996
                ]
            },
            "properties": {
                "isced:level": "4",
                "ref:rspo": 74870,
                "official_name": "Szko\u0142a Policealna w Soko\u0142owie M\u0142p.",
                "name": "Szko\u0142a Policealna w Soko\u0142owie M\u0142p.",
                "addr:country": "PL",
                "addr:postcode": "36-050",
                "addr:city": "Soko\u0142\u00f3w Ma\u0142opolski",
                "addr:street": "Lubelska",
                "addr:housenumber": "37",
                "addr:teryt:simc": 974966,
                "addr:teryt:sym_ul": 11307,
                "contact:phone": "+48 177729009",
                "contact:email": "zssokolow@wp.pl",
                "ref:regon": "180160066",
                "operator": "Powiat Rzeszowski",
                "operator:type": "government",
                "amenity": "college",
                "note": "Parent RSPO: 11105"
            }
        },
        {
            "id": 103676,
            "type": "Feature",
            "geometry": {
                "type": "Point",
                "coordinates": [
                    22.12049,
                    50.23474
                ]
            },
            "properties": {
                "ref:rspo": 103676,
                "official_name": "Przedszkole Samorz\u0105dowe w Soko\u0142owie Ma\u0142opolskim",
                "name": "Przedszkole Samorz\u0105dowe w Soko\u0142owie Ma\u0142opolskim",
                "addr:country": "PL",
                "addr:postcode": "36-050",
                "addr:city": "Soko\u0142\u00f3w Ma\u0142opolski",
                "addr:street": "Partyzant\u00f3w",
                "addr:housenumber": "2",
                "addr:teryt:simc": 974966,
                "addr:teryt:sym_ul": 15733,
                "contact:phone": "+48 177729165",
                "contact:email": "zsjp2sokolowmlp@wp.pl",
                "contact:website": "http:\/\/www.przedszkole-sokolow.pl",
                "ref:regon": "690007861",
                "operator": "Gmina Soko\u0142\u00f3w Ma\u0142opolski",
                "operator:type": "government",
                "amenity": "kindergarten",
                "note": "Parent RSPO: 92929"
            }
        },
        {
            "id": 92929,
            "type": "Feature",
            "geometry": {
                "type": "Point",
                "coordinates": [
                    22.12337,
                    50.23677
                ]
            },
            "properties": {
                "ref:rspo": 92929,
                "official_name": "Zesp\u00f3\u0142 Szk\u00f3\u0142 im. Jana Paw\u0142a II w Soko\u0142owie Ma\u0142polskim",
                "name": "Zesp\u00f3\u0142 Szk\u00f3\u0142",
                "addr:country": "PL",
                "addr:postcode": "36-050",
                "addr:city": "Soko\u0142\u00f3w Ma\u0142opolski",
                "addr:street": "Lubelska",
                "addr:housenumber": "41",
                "addr:teryt:simc": 974966,
                "addr:teryt:sym_ul": 11307,
                "contact:phone": "+48 177729039",
                "contact:email": "zsjp2sokolowmlp@wp.pl",
                "contact:website": "http:\/\/www.zsjp2sokolowmlp.pl",
                "ref:regon": "691684931",
                "ref:vatin": "PL5170022339",
                "operator": "Gmina Soko\u0142\u00f3w Ma\u0142opolski",
                "operator:type": "government",
                "landuse": "education",
                "fixme": "amenity=school, amenity=college albo landuse=education w zale\u017cno\u015bci od tego, jakie plac\u00f3wki wchodz\u0105 w sk\u0142ad zespo\u0142u. Sprawd\u017a, kiedy stosowa\u0107 amenity=* a kiedy landuse=education.",
                "note": "Children RSPO: 103674;103676"
            }
        },
        {
            "id": 103674,
            "type": "Feature",
            "geometry": {
                "type": "Point",
                "coordinates": [
                    22.12337,
                    50.23674
                ]
            },
            "properties": {
                "isced:level": "1;2",
                "ref:rspo": 103674,
                "official_name": "Szko\u0142a Podstawowa w Soko\u0142owie Ma\u0142opolskim",
                "name": "Szko\u0142a Podstawowa w Soko\u0142owie Ma\u0142opolskim",
                "addr:country": "PL",
                "addr:postcode": "36-050",
                "addr:city": "Soko\u0142\u00f3w Ma\u0142opolski",
                "addr:street": "Lubelska",
                "addr:housenumber": "41",
                "addr:teryt:simc": 974966,
                "addr:teryt:sym_ul": 11307,
                "contact:phone": "+48 177729039",
                "contact:email": "zsjp2sokolowmlp@wp.pl",
                "contact:website": "http:\/\/www.zsjp2sokolowmlp.pl",
                "ref:regon": "000576964",
                "operator": "Gmina Soko\u0142\u00f3w Ma\u0142opolski",
                "operator:type": "government",
                "amenity": "school",
                "note": "Parent RSPO: 92929"
            }
        },
        {
            "id": 106187,
            "type": "Feature",
            "geometry": {
                "type": "Point",
                "coordinates": [
                    22.12337,
                    50.23671
                ]
            },
            "properties": {
                "ref:rspo": 106187,
                "official_name": "Niepa\u0144stwowa Szko\u0142a Muzyczna I St. w Soko\u0142owie Ma\u0142opolskim",
                "name": "Niepa\u0144stwowa Szko\u0142a Muzyczna I St. w Soko\u0142owie Ma\u0142opolskim",
                "addr:country": "PL",
                "addr:postcode": "36-050",
                "addr:city": "Soko\u0142\u00f3w Ma\u0142opolski",
                "addr:street": "Lubelska",
                "addr:housenumber": "41",
                "addr:teryt:simc": 974966,
                "addr:teryt:sym_ul": 11307,
                "contact:email": "szkola@muzyczna.com.pl",
                "ref:regon": "180930624",
                "operator": "Grzegorz W\u00f3jcikiewicz",
                "operator:type": "private",
                "amenity": "music_school",
                "note": "Parent RSPO: 119161"
            }
        },
        {
            "id": 105057,
            "type": "Feature",
            "geometry": {
                "type": "Point",
                "coordinates": [
                    22.20683,
                    50.23926
                ]
            },
            "properties": {
                "ref:rspo": 105057,
                "official_name": "Zesp\u00f3\u0142 Szk\u00f3\u0142 im. Prymasa Tysi\u0105clecia Kardyna\u0142a Stefana Wyszy\u0144skiego w W\u00f3lce Nied\u017awiedzkiej",
                "name": "Zesp\u00f3\u0142 Szk\u00f3\u0142",
                "addr:country": "PL",
                "addr:postcode": "36-050",
                "addr:place": "W\u00f3lka Nied\u017awiedzka",
                "addr:housenumber": "400",
                "addr:teryt:simc": 661724,
                "contact:phone": "+48 177728210",
                "contact:email": "zswn1@op.pl",
                "ref:regon": "691684871",
                "ref:vatin": "PL5170022345",
                "operator": "Gmina Soko\u0142\u00f3w Ma\u0142opolski",
                "operator:type": "government",
                "landuse": "education",
                "fixme": "amenity=school, amenity=college albo landuse=education w zale\u017cno\u015bci od tego, jakie plac\u00f3wki wchodz\u0105 w sk\u0142ad zespo\u0142u. Sprawd\u017a, kiedy stosowa\u0107 amenity=* a kiedy landuse=education.",
                "note": "Children RSPO: 105200;105201"
            }
        },
        {
            "id": 105200,
            "type": "Feature",
            "geometry": {
                "type": "Point",
                "coordinates": [
                    22.20683,
                    50.23923
                ]
            },
            "properties": {
                "ref:rspo": 105200,
                "official_name": "Przedszkole Samorz\u0105dowe w W\u00f3lce Nied\u017awiedzkiej",
                "name": "Przedszkole Samorz\u0105dowe w W\u00f3lce Nied\u017awiedzkiej",
                "addr:country": "PL",
                "addr:postcode": "36-050",
                "addr:place": "W\u00f3lka Nied\u017awiedzka",
                "addr:housenumber": "400",
                "addr:teryt:simc": 661724,
                "contact:phone": "+48 177728210",
                "contact:email": "zswn1@op.pl",
                "ref:regon": "691789676",
                "operator": "Gmina Soko\u0142\u00f3w Ma\u0142opolski",
                "operator:type": "government",
                "amenity": "kindergarten",
                "note": "Parent RSPO: 105057"
            }
        },
        {
            "id": 105201,
            "type": "Feature",
            "geometry": {
                "type": "Point",
                "coordinates": [
                    22.20683,
                    50.239200000000004
                ]
            },
            "properties": {
                "isced:level": "1;2",
                "ref:rspo": 105201,
                "official_name": "Szko\u0142a Podstawowa w W\u00f3lce Nied\u017awiedzkiej",
                "name": "Szko\u0142a Podstawowa w W\u00f3lce Nied\u017awiedzkiej",
                "addr:country": "PL",
                "addr:postcode": "36-050",
                "addr:place": "W\u00f3lka Nied\u017awiedzka",
                "addr:housenumber": "400",
                "addr:teryt:simc": 661724,
                "contact:phone": "+48 177728210",
                "contact:email": "zswn1@op.pl",
                "ref:regon": "001131626",
                "ref:vatin": "PL8133198270",
                "operator": "Gmina Soko\u0142\u00f3w Ma\u0142opolski",
                "operator:type": "government",
                "amenity": "school",
                "note": "Parent RSPO: 105057"
            }
        },
        {
            "id": 104594,
            "type": "Feature",
            "geometry": {
                "type": "Point",
                "coordinates": [
                    22.16189,
                    50.25656
                ]
            },
            "properties": {
                "isced:level": "1;2",
                "ref:rspo": 104594,
                "official_name": "Szko\u0142a Podstawowa w W\u00f3lce Soko\u0142owskiej",
                "name": "Szko\u0142a Podstawowa w W\u00f3lce Soko\u0142owskiej",
                "addr:country": "PL",
                "addr:postcode": "36-050",
                "addr:place": "W\u00f3lka Soko\u0142owska",
                "addr:housenumber": "107",
                "addr:teryt:simc": 661813,
                "contact:phone": "+48 177728886",
                "contact:email": "spwolkasokolowska@vp.pl",
                "contact:website": "http:\/\/spwolka.szkolna.net",
                "ref:regon": "691537650",
                "ref:vatin": "PL8133198235",
                "operator": "Gmina Soko\u0142\u00f3w Ma\u0142opolski",
                "operator:type": "government",
                "amenity": "school"
            }
        },
        {
            "id": 105061,
            "type": "Feature",
            "geometry": {
                "type": "Point",
                "coordinates": [
                    22.11865,
                    50.26488
                ]
            },
            "properties": {
                "isced:level": "1;2",
                "ref:rspo": 105061,
                "official_name": "Szko\u0142a Podstawowa w Turzy",
                "name": "Szko\u0142a Podstawowa w Turzy",
                "addr:country": "PL",
                "addr:postcode": "36-050",
                "addr:place": "Turza",
                "addr:housenumber": "229",
                "addr:teryt:simc": 661670,
                "contact:phone": "+48 177729101",
                "contact:email": "spturza1@wp.pl",
                "ref:regon": "001131610",
                "ref:vatin": "PL8133198353",
                "operator": "Gmina Soko\u0142\u00f3w Ma\u0142opolski",
                "operator:type": "government",
                "amenity": "school"
            }
        },
        {
            "id": 104815,
            "type": "Feature",
            "geometry": {
                "type": "Point",
                "coordinates": [
                    22.18488,
                    50.26709
                ]
            },
            "properties": {
                "isced:level": "1;2",
                "ref:rspo": 104815,
                "official_name": "Szko\u0142a Podstawowa Nr 2 im. Ignacego Partyki w G\u00f3rnie",
                "name": "Szko\u0142a Podstawowa Nr 2",
                "addr:country": "PL",
                "addr:postcode": "36-051",
                "addr:city": "G\u00f3rno",
                "addr:street": "Zaborze",
                "addr:housenumber": "51",
                "addr:teryt:simc": 661380,
                "addr:teryt:sym_ul": 25278,
                "contact:phone": "+48 177728652",
                "contact:email": "szkolazaborze@op.pl",
                "contact:website": "http:\/\/www.sp2gorno.wist.com.pl",
                "ref:regon": "001131550",
                "ref:vatin": "PL8133198301",
                "operator": "Gmina Soko\u0142\u00f3w Ma\u0142opolski",
                "operator:type": "government",
                "amenity": "school"
            }
        },
        {
            "id": 104904,
            "type": "Feature",
            "geometry": {
                "type": "Point",
                "coordinates": [
                    22.15359,
                    50.27476
                ]
            },
            "properties": {
                "ref:rspo": 104904,
                "official_name": "Zesp\u00f3\u0142 Szk\u00f3\u0142 im. Ks. M. Lachora w G\u00f3rnie",
                "name": "Zesp\u00f3\u0142 Szk\u00f3\u0142",
                "addr:country": "PL",
                "addr:postcode": "36-051",
                "addr:city": "G\u00f3rno",
                "addr:street": "Centralna",
                "addr:housenumber": "14",
                "addr:teryt:simc": 661380,
                "addr:teryt:sym_ul": 2614,
                "contact:phone": "+48 177728559",
                "contact:email": "zsgorno@wp.pl",
                "contact:website": "http:\/\/www.szkolagorno.eu",
                "ref:regon": "001131543",
                "ref:vatin": "PL8133198293",
                "operator": "Gmina Soko\u0142\u00f3w Ma\u0142opolski",
                "operator:type": "government",
                "landuse": "education",
                "fixme": "amenity=school, amenity=college albo landuse=education w zale\u017cno\u015bci od tego, jakie plac\u00f3wki wchodz\u0105 w sk\u0142ad zespo\u0142u. Sprawd\u017a, kiedy stosowa\u0107 amenity=* a kiedy landuse=education.",
                "note": "Children RSPO: 105046;105047"
            }
        },
        {
            "id": 105046,
            "type": "Feature",
            "geometry": {
                "type": "Point",
                "coordinates": [
                    22.15359,
                    50.27473
                ]
            },
            "properties": {
                "ref:rspo": 105046,
                "official_name": "Przedszkole Samorz\u0105dowe w Zespole Szk\u00f3\u0142 im. Ks. M. Lachora w G\u00f3rnie",
                "name": "Przedszkole Samorz\u0105dowe w Zespole Szk\u00f3\u0142",
                "addr:country": "PL",
                "addr:postcode": "36-051",
                "addr:city": "G\u00f3rno",
                "addr:street": "Centralna",
                "addr:housenumber": "14",
                "addr:teryt:simc": 661380,
                "addr:teryt:sym_ul": 2614,
                "contact:phone": "+48 177728559",
                "contact:email": "zsgorno@wp.pl",
                "contact:website": "http:\/\/www.szkolagorno.eu",
                "ref:regon": "691679203",
                "operator": "Gmina Soko\u0142\u00f3w Ma\u0142opolski",
                "operator:type": "government",
                "amenity": "kindergarten",
                "note": "Parent RSPO: 104904"
            }
        },
        {
            "id": 105047,
            "type": "Feature",
            "geometry": {
                "type": "Point",
                "coordinates": [
                    22.15359,
                    50.2747
                ]
            },
            "properties": {
                "isced:level": "1;2",
                "ref:rspo": 105047,
                "official_name": "Szko\u0142a Podstawowa Nr 1 w Zespole Szk\u00f3\u0142 im. Ks. M. Lachora w G\u00f3rnie",
                "name": "Szko\u0142a Podstawowa Nr 1 w Zespole Szk\u00f3\u0142",
                "addr:country": "PL",
                "addr:postcode": "36-051",
                "addr:city": "G\u00f3rno",
                "addr:street": "Centralna",
                "addr:housenumber": "14",
                "addr:teryt:simc": 661380,
                "addr:teryt:sym_ul": 2614,
                "contact:phone": "+48 177728559",
                "contact:email": "zsgorno@wp.pl",
                "contact:website": "http:\/\/www.szkolagorno.eu",
                "ref:regon": "691679195",
                "operator": "Gmina Soko\u0142\u00f3w Ma\u0142opolski",
                "operator:type": "government",
                "amenity": "school",
                "note": "Parent RSPO: 104904"
            }
        }
    ]
}