{
    "type": "FeatureCollection",
    "features": [
        {
            "id": 17103,
            "type": "Feature",
            "geometry": {
                "type": "Point",
                "coordinates": [
                    22.24608,
                    49.87506
                ]
            },
            "properties": {
                "isced:level": "1;2",
                "ref:rspo": 17103,
                "official_name": "Szko\u0142a Podstawowa w Szklarach",
                "name": "Szko\u0142a Podstawowa w Szklarach",
                "addr:postcode": "36-025",
                "addr:place": "Szklary",
                "addr:housenumber": "148",
                "addr:teryt:simc": 651312,
                "phone": "+48 172295380",
                "email": "spszklary@op.pl",
                "website": "http:\/\/www.spszklary.ostnet.pl",
                "ref:regon": "001131098",
                "ref:vatin": "PL8132458094",
                "operator": "Gmina Hy\u017cne",
                "operator:type": "government",
                "amenity": "school"
            }
        },
        {
            "id": 17322,
            "type": "Feature",
            "geometry": {
                "type": "Point",
                "coordinates": [
                    22.19644,
                    49.90998
                ]
            },
            "properties": {
                "isced:level": "1;2",
                "ref:rspo": 17322,
                "official_name": "Szko\u0142a Podstawowa im. Polskiego Czerwonego Krzy\u017ca w Dyl\u0105g\u00f3wce",
                "name": "Szko\u0142a Podstawowa",
                "addr:postcode": "36-025",
                "addr:place": "Dyl\u0105g\u00f3wka",
                "addr:housenumber": "29",
                "addr:teryt:simc": 650991,
                "phone": "+48 172295479",
                "email": "spdyl@intertele.pl",
                "website": "http:\/\/www.spdylagowka.itl.pl",
                "ref:regon": "001131075",
                "ref:vatin": "PL8132458013",
                "operator": "Gmina Hy\u017cne",
                "operator:type": "government",
                "amenity": "school"
            }
        },
        {
            "id": 70091,
            "type": "Feature",
            "geometry": {
                "type": "Point",
                "coordinates": [
                    22.19644,
                    49.909949999999995
                ]
            },
            "properties": {
                "ref:rspo": 70091,
                "official_name": "Punkt Przedszkolny Przy Szkole Podstawowej im. Polskiego Czerwonego Krzy\u017ca w Dyl\u0105g\u00f3wce",
                "name": "Punkt Przedszkolny Przy Szkole Podstawowej",
                "addr:postcode": "36-025",
                "addr:place": "Dyl\u0105g\u00f3wka",
                "addr:housenumber": "29",
                "addr:teryt:simc": 650991,
                "phone": "+48 172295479",
                "email": "spdyl@intertele.pl",
                "ref:regon": "180903981",
                "ref:vatin": "PL8132458013",
                "operator": "Gmina Hy\u017cne",
                "operator:type": "government",
                "amenity": "kindergarten"
            }
        },
        {
            "id": 17033,
            "type": "Feature",
            "geometry": {
                "type": "Point",
                "coordinates": [
                    22.21684,
                    49.91958
                ]
            },
            "properties": {
                "isced:level": "1;2",
                "ref:rspo": 17033,
                "official_name": "Szko\u0142a Podstawowa im. \u015aw. Jana Paw\u0142a II w W\u00f3lce Hy\u017cne\u0144skiej",
                "name": "Szko\u0142a Podstawowa",
                "addr:postcode": "36-025",
                "addr:place": "W\u00f3lka Hy\u017cne\u0144ska",
                "addr:housenumber": "28",
                "addr:teryt:simc": 651447,
                "phone": "+48 172295451",
                "email": "spwolka@poczta.fm",
                "website": "http:\/\/www.spwh.hyzne.net",
                "ref:regon": "001131106",
                "ref:vatin": "PL8132457976",
                "operator": "Gmina Hy\u017cne",
                "operator:type": "government",
                "amenity": "school"
            }
        },
        {
            "id": 17276,
            "type": "Feature",
            "geometry": {
                "type": "Point",
                "coordinates": [
                    22.1598599,
                    49.92504
                ]
            },
            "properties": {
                "isced:level": "1;2",
                "ref:rspo": 17276,
                "official_name": "Szko\u0142a Podstawowa im. Gen. W\u0142.sikorskiego w Hy\u017cnem",
                "name": "Szko\u0142a Podstawowa",
                "addr:postcode": "36-024",
                "addr:place": "Hy\u017cne",
                "addr:housenumber": "615a",
                "addr:teryt:simc": 651170,
                "phone": "+48 172295168",
                "email": "sphyzne@intertele.pl",
                "website": "http:\/\/www.sp.hyzne.net",
                "ref:regon": "000270627",
                "ref:vatin": "PL8132458349",
                "operator": "Gmina Hy\u017cne",
                "operator:type": "government",
                "amenity": "school"
            }
        },
        {
            "id": 70061,
            "type": "Feature",
            "geometry": {
                "type": "Point",
                "coordinates": [
                    22.1598599,
                    49.92501
                ]
            },
            "properties": {
                "ref:rspo": 70061,
                "official_name": "Punkt Przedszkolny Przy Szkole Podstawowej im.gen. W\u0142. Sikorskiego w Hy\u017cnem",
                "name": "Punkt Przedszkolny Przy Szkole Podstawowej im.gen. W\u0142. Sikorskiego w Hy\u017cnem",
                "addr:postcode": "36-024",
                "addr:place": "Hy\u017cne",
                "addr:housenumber": "615a",
                "addr:teryt:simc": 651170,
                "phone": "+48 172295168",
                "email": "sphyzne@intertele.pl",
                "ref:regon": "180903969",
                "ref:vatin": "PL8132458349",
                "operator": "Gmina Hy\u017cne",
                "operator:type": "government",
                "amenity": "kindergarten"
            }
        },
        {
            "id": 17129,
            "type": "Feature",
            "geometry": {
                "type": "Point",
                "coordinates": [
                    22.13889,
                    49.92916
                ]
            },
            "properties": {
                "isced:level": "1;2",
                "ref:rspo": 17129,
                "official_name": "Szko\u0142a Podstawowa im. 21 Brygady Strzelc\u00f3w Podhala\u0144skich w Brzez\u00f3wce",
                "name": "Szko\u0142a Podstawowa",
                "addr:postcode": "36-024",
                "addr:place": "Brzez\u00f3wka",
                "addr:housenumber": "111",
                "addr:teryt:simc": 650933,
                "phone": "+48 172295247",
                "email": "spbrzezowka@hyzne.pl",
                "ref:regon": "001131069",
                "ref:vatin": "PL8132457315",
                "operator": "Gmina Hy\u017cne",
                "operator:type": "government",
                "amenity": "school"
            }
        },
        {
            "id": 17232,
            "type": "Feature",
            "geometry": {
                "type": "Point",
                "coordinates": [
                    22.20618,
                    49.93224
                ]
            },
            "properties": {
                "isced:level": "1;2",
                "ref:rspo": 17232,
                "official_name": "Szko\u0142a Podstawowa im. \u015aw. Jana Kantego w Grzegorz\u00f3wce",
                "name": "Szko\u0142a Podstawowa",
                "addr:postcode": "36-025",
                "addr:place": "Grzegorz\u00f3wka",
                "addr:housenumber": "173",
                "addr:teryt:simc": 651105,
                "phone": "+48 172295558",
                "email": "szkolag@intertele.pl",
                "website": "http:\/\/www.spgrzegorzowka.pl",
                "ref:regon": "001131081",
                "ref:vatin": "PL8132457108",
                "operator": "Gmina Hy\u017cne",
                "operator:type": "government",
                "amenity": "school"
            }
        }
    ]
}