{
    "type": "FeatureCollection",
    "features": [
        {
            "id": 88796,
            "type": "Feature",
            "geometry": {
                "type": "Point",
                "coordinates": [
                    21.9828,
                    49.89932
                ]
            },
            "properties": {
                "isced:level": "1;2",
                "ref:rspo": 88796,
                "official_name": "Szko\u0142a Podstawowa im. Jana Paw\u0142a II w Straszydlu",
                "name": "Szko\u0142a Podstawowa",
                "addr:country": "PL",
                "addr:postcode": "36-043",
                "addr:place": "Straszydle",
                "addr:housenumber": "155",
                "addr:teryt:simc": 654486,
                "contact:phone": "+48 178710054",
                "contact:email": "spstraszydle@gmail.com",
                "ref:regon": "001133424",
                "ref:vatin": "PL8191280433",
                "operator": "Gmina Lubenia",
                "operator:type": "government",
                "amenity": "school"
            }
        },
        {
            "id": 5487,
            "type": "Feature",
            "geometry": {
                "type": "Point",
                "coordinates": [
                    21.94982,
                    49.89981
                ]
            },
            "properties": {
                "isced:level": "1;2",
                "ref:rspo": 5487,
                "official_name": "Niepubliczna Szko\u0142a Podstawowa w So\u0142once",
                "name": "Niepubliczna Szko\u0142a Podstawowa w So\u0142once",
                "addr:country": "PL",
                "addr:postcode": "36-043",
                "addr:place": "So\u0142onka",
                "addr:housenumber": "23",
                "addr:teryt:simc": 654405,
                "contact:phone": "+48 178710046",
                "contact:email": "nspsolonka@gmail.com",
                "contact:website": "https:\/\/solanka.itl.pl",
                "ref:regon": "180880375",
                "operator": "Stowarzyszenie Rozwoju Wsi So\u0142onka - \"Solanka\"",
                "operator:type": "ngo",
                "amenity": "school"
            }
        },
        {
            "id": 264095,
            "type": "Feature",
            "geometry": {
                "type": "Point",
                "coordinates": [
                    21.94982,
                    49.89978
                ]
            },
            "properties": {
                "ref:rspo": 264095,
                "official_name": "Niepubliczne Przedszkole w So\u0142once",
                "name": "Niepubliczne Przedszkole w So\u0142once",
                "addr:country": "PL",
                "addr:postcode": "36-043",
                "addr:place": "So\u0142onka",
                "addr:housenumber": "23",
                "addr:teryt:simc": 654405,
                "contact:phone": "+48 882171777",
                "contact:email": "nspsolonka@gmail.com",
                "ref:regon": "368262580",
                "operator": "Stowarzyszenie Rozwoju Wsi So\u0142onka - \"Solanka\"",
                "operator:type": "ngo",
                "amenity": "kindergarten"
            }
        },
        {
            "id": 264099,
            "type": "Feature",
            "geometry": {
                "type": "Point",
                "coordinates": [
                    21.94982,
                    49.899750000000004
                ]
            },
            "properties": {
                "ref:rspo": 264099,
                "official_name": "Niepubliczny Zesp\u00f3\u0142 Szkolno-Przedszkolny w So\u0142once",
                "name": "Niepubliczny Zesp\u00f3\u0142 Szkolno-Przedszkolny w So\u0142once",
                "addr:country": "PL",
                "addr:postcode": "36-043",
                "addr:place": "So\u0142onka",
                "addr:housenumber": "23",
                "addr:teryt:simc": 654405,
                "contact:phone": "+48 821171777",
                "contact:email": "nsspsolonka@gmail.com",
                "ref:regon": "368262769",
                "operator": "Stowarzyszenie Rozwoju Wsi So\u0142onka - \"Solanka\"",
                "operator:type": "ngo",
                "landuse": "education",
                "fixme": "amenity=school, amenity=college albo landuse=education w zale\u017cno\u015bci od tego, jakie plac\u00f3wki wchodz\u0105 w sk\u0142ad zespo\u0142u. Sprawd\u017a, kiedy stosowa\u0107 amenity=* a kiedy landuse=education."
            }
        },
        {
            "id": 277684,
            "type": "Feature",
            "geometry": {
                "type": "Point",
                "coordinates": [
                    21.94982,
                    49.89972
                ]
            },
            "properties": {
                "isced:level": "3",
                "ref:rspo": 277684,
                "official_name": "Niepubliczne Liceum Og\u00f3lnokszta\u0142c\u0105ce w So\u0142once",
                "name": "Niepubliczne Liceum Og\u00f3lnokszta\u0142c\u0105ce w So\u0142once",
                "addr:country": "PL",
                "addr:postcode": "36-043",
                "addr:place": "So\u0142onka",
                "addr:housenumber": "23",
                "addr:teryt:simc": 654405,
                "contact:phone": "+48 178710046",
                "contact:email": "nspsolonka@gmail.com",
                "contact:website": "https:\/\/solanka.itl.pl \u203a szkola",
                "ref:regon": "389329046",
                "operator": "Stowarzyszenie Rozwoju Wsi So\u0142onka - \"Solanka\"",
                "operator:type": "ngo",
                "amenity": "school"
            }
        },
        {
            "id": 5555,
            "type": "Feature",
            "geometry": {
                "type": "Point",
                "coordinates": [
                    21.93371,
                    49.92683
                ]
            },
            "properties": {
                "isced:level": "1;2",
                "ref:rspo": 5555,
                "official_name": "Szko\u0142a Podstawowa im.ks.mjr.franciszka \u0141uszczki w Lubeni",
                "name": "Szko\u0142a Podstawowa im.ks.mjr.franciszka \u0141uszczki w Lubeni",
                "addr:country": "PL",
                "addr:postcode": "36-042",
                "addr:place": "Lubenia",
                "addr:housenumber": "100",
                "addr:teryt:simc": 654138,
                "contact:phone": "+48 178710007",
                "contact:email": "splubenia@wp.pl",
                "contact:website": "http:\/\/www.splubenia.edupage.org",
                "ref:regon": "000640060",
                "ref:vatin": "PL8191280404",
                "operator": "Gmina Lubenia",
                "operator:type": "government",
                "amenity": "school"
            }
        },
        {
            "id": 263661,
            "type": "Feature",
            "geometry": {
                "type": "Point",
                "coordinates": [
                    21.94542,
                    49.95196
                ]
            },
            "properties": {
                "isced:level": "1;2",
                "ref:rspo": 263661,
                "official_name": "Szko\u0142a Podstawowa im.b\u0142.ks. J\u00f3zefa Kowalskiego w Siedliskach",
                "name": "Szko\u0142a Podstawowa im.b\u0142.ks. J\u00f3zefa Kowalskiego w Siedliskach",
                "addr:country": "PL",
                "addr:postcode": "36-042",
                "addr:place": "Siedliska",
                "addr:housenumber": "355",
                "addr:teryt:simc": 654300,
                "contact:phone": "+48 178710257",
                "contact:email": "kontakt@szkolapodstawowasiedliska.pl",
                "contact:website": "http:\/\/www.szkolapodstawowasiedliska.pl",
                "ref:regon": "368212040",
                "operator": "Gmina Lubenia",
                "operator:type": "government",
                "amenity": "school"
            }
        }
    ]
}