{
    "type": "FeatureCollection",
    "features": [
        {
            "id": 47531,
            "type": "Feature",
            "geometry": {
                "type": "Point",
                "coordinates": [
                    22.20519,
                    49.95397
                ]
            },
            "properties": {
                "isced:level": "1;2",
                "ref:rspo": 47531,
                "official_name": "Szko\u0142a Podstawowa im. Orl\u0105t Lwowskich w Zabrat\u00f3wce",
                "name": "Szko\u0142a Podstawowa",
                "addr:postcode": "36-017",
                "addr:place": "Zabrat\u00f3wka",
                "addr:housenumber": "47",
                "addr:city:simc": 646570,
                "phone": "+48 172296618",
                "email": "sz.zabratowka@gmail.com",
                "website": "https:\/\/spzabrat.edupage.org",
                "ref:regon": "001130868",
                "ref:vatin": "PL8131472962",
                "operator": "Gmina Chmielnik",
                "operator:type": "government",
                "amenity": "school"
            }
        },
        {
            "id": 47278,
            "type": "Feature",
            "geometry": {
                "type": "Point",
                "coordinates": [
                    22.15342,
                    49.96763
                ]
            },
            "properties": {
                "isced:level": "1;2",
                "ref:rspo": 47278,
                "official_name": "Szko\u0142a Podstawowa nr 3 im. \u015aw. Maksymiliana Marii Kolbego w Chmielniku",
                "name": "Szko\u0142a Podstawowa nr 3",
                "addr:postcode": "36-016",
                "addr:place": "Chmielnik",
                "addr:housenumber": "169A",
                "addr:city:simc": 646239,
                "phone": "+48 172296615",
                "email": "sp3.chmielnik@intertele.pl",
                "website": "http:\/\/www.sp3chmielnik.szkolna.net",
                "ref:regon": "001130845",
                "ref:vatin": "PL8131472548",
                "operator": "Gmina Chmielnik",
                "operator:type": "government",
                "amenity": "school"
            }
        },
        {
            "id": 51244,
            "type": "Feature",
            "geometry": {
                "type": "Point",
                "coordinates": [
                    22.12496,
                    49.98052
                ]
            },
            "properties": {
                "isced:level": "1;2",
                "ref:rspo": 51244,
                "official_name": "Szko\u0142a Podstawowa nr 1 im. Por. Jana Ba\u0142dy w Chmielniku",
                "name": "Szko\u0142a Podstawowa nr 1",
                "addr:postcode": "36-016",
                "addr:place": "Chmielnik",
                "addr:housenumber": "41",
                "addr:city:simc": 646239,
                "phone": "+48 172296649",
                "email": "zschmiel@intertele.pl",
                "website": "http:\/\/www.sp1chmielnik.szkolna.net",
                "ref:regon": "000268270",
                "ref:vatin": "PL8131472318",
                "operator": "Gmina Chmielnik",
                "operator:type": "government",
                "amenity": "school"
            }
        },
        {
            "id": 271745,
            "type": "Feature",
            "geometry": {
                "type": "Point",
                "coordinates": [
                    22.11646,
                    49.98395
                ]
            },
            "properties": {
                "isced:level": "3",
                "ref:rspo": 271745,
                "official_name": "Bran\u017cowa Szko\u0142a I Stopnia w Chmielniku",
                "name": "Bran\u017cowa Szko\u0142a I Stopnia w Chmielniku",
                "addr:postcode": "36-016",
                "addr:place": "Chmielnik",
                "addr:housenumber": "4b",
                "addr:city:simc": 646239,
                "phone": "+48 172305577",
                "email": "poczta@ekocentrum.edu.pl",
                "ref:regon": "383589792",
                "operator": "Regionalne Towarzystwo Rolno-Przemys\u0142owe \"Dolina Strugu\"",
                "operator:type": "ngo",
                "amenity": "school"
            }
        },
        {
            "id": 47626,
            "type": "Feature",
            "geometry": {
                "type": "Point",
                "coordinates": [
                    22.16533,
                    49.99031
                ]
            },
            "properties": {
                "isced:level": "1;2",
                "ref:rspo": 47626,
                "official_name": "Szko\u0142a Podstawowa im. Stefana Kard. Wyszy\u0144skiego w Woli Rafa\u0142owskiej",
                "name": "Szko\u0142a Podstawowa",
                "addr:postcode": "36-017",
                "addr:place": "Wola Rafa\u0142owska",
                "addr:housenumber": "139",
                "addr:city:simc": 646446,
                "phone": "+48 172296617",
                "email": "wola@spwr.chmielnik.pl",
                "website": "http:\/\/www.spwr.chmielnik.pl",
                "ref:regon": "001130851",
                "ref:vatin": "PL8131473625",
                "operator": "Gmina Chmielnik",
                "operator:type": "government",
                "amenity": "school"
            }
        },
        {
            "id": 46650,
            "type": "Feature",
            "geometry": {
                "type": "Point",
                "coordinates": [
                    22.10689,
                    49.9927599
                ]
            },
            "properties": {
                "isced:level": "1;2",
                "ref:rspo": 46650,
                "official_name": "Szko\u0142a Podstawowa nr 2 im. Ojca \u015awi\u0119tego Jana Paw\u0142a II w Chmielniku",
                "name": "Szko\u0142a Podstawowa nr 2",
                "addr:postcode": "36-016",
                "addr:place": "Chmielnik",
                "addr:housenumber": "316",
                "addr:city:simc": 646239,
                "phone": "+48 172296614",
                "email": "splisi@intertele.pl",
                "website": "http:\/\/sp2chmielnik.szkolna.net",
                "ref:regon": "001132034",
                "ref:vatin": "PL8131472206",
                "operator": "Gmina Chmielnik",
                "operator:type": "government",
                "amenity": "school"
            }
        }
    ]
}