{
    "type": "FeatureCollection",
    "features": [
        {
            "id": 60801,
            "type": "Feature",
            "geometry": {
                "type": "Point",
                "coordinates": [
                    22.25024,
                    49.80643
                ]
            },
            "properties": {
                "isced:level": "1;2",
                "ref:rspo": 60801,
                "official_name": "Publiczna Szko\u0142a Podstawowa Nr 2 w Dynowie Z Oddzia\u0142em Przedszkolnym",
                "name": "Publiczna Szko\u0142a Podstawowa Nr 2 w Dynowie Z Oddzia\u0142em Przedszkolnym",
                "addr:postcode": "36-065",
                "addr:city": "Dyn\u00f3w",
                "addr:street": "Bartk\u00f3wka",
                "addr:housenumber": "105",
                "addr:teryt:simc": 972080,
                "addr:teryt:sym_ul": 791,
                "phone": "+48 166521161",
                "email": "sp2dynow@wp.pl",
                "website": "http:\/\/www.psp2.dynow.pl",
                "ref:regon": "001206962",
                "ref:vatin": "PL7951813769",
                "operator": "Gmina Miejska Dyn\u00f3w",
                "operator:type": "government",
                "amenity": "school"
            }
        },
        {
            "id": 85365,
            "type": "Feature",
            "geometry": {
                "type": "Point",
                "coordinates": [
                    22.22956,
                    49.81261
                ]
            },
            "properties": {
                "isced:level": "1;2",
                "ref:rspo": 85365,
                "official_name": "Publiczna Szko\u0142a Podstawowa Nr 1 w Dynowie im. Tw\u00f3rc\u00f3w Niepodleg\u0142ej Polski",
                "name": "Publiczna Szko\u0142a Podstawowa Nr 1 w Dynowie",
                "addr:postcode": "36-065",
                "addr:city": "Dyn\u00f3w",
                "addr:street": "Szkolna",
                "addr:housenumber": "11",
                "addr:teryt:simc": 972080,
                "addr:teryt:sym_ul": 21970,
                "phone": "+48 166521251",
                "email": "zsdynow@op.pl",
                "website": "http:\/\/psp1.dynow.pl",
                "ref:regon": "691678563",
                "ref:vatin": "PL8133755322",
                "operator": "Gmina Miejska Dyn\u00f3w",
                "operator:type": "government",
                "amenity": "school"
            }
        },
        {
            "id": 118713,
            "type": "Feature",
            "geometry": {
                "type": "Point",
                "coordinates": [
                    22.22956,
                    49.81258
                ]
            },
            "properties": {
                "ref:rspo": 118713,
                "official_name": "Szko\u0142a Muzyczna I Stopnia w Dynowie",
                "name": "Szko\u0142a Muzyczna I Stopnia w Dynowie",
                "addr:postcode": "36-065",
                "addr:city": "Dyn\u00f3w",
                "addr:street": "Szkolna",
                "addr:housenumber": "11",
                "addr:teryt:simc": 972080,
                "addr:teryt:sym_ul": 21970,
                "phone": "+48 166521251",
                "email": "szkolamuzyczna@dynow.pl",
                "website": "http:\/\/www.szkolamuzyczna.dynow.pl",
                "ref:regon": "181006769",
                "operator": "Gmina Miejska Dyn\u00f3w",
                "operator:type": "government",
                "amenity": "music_school"
            }
        },
        {
            "id": 264176,
            "type": "Feature",
            "geometry": {
                "type": "Point",
                "coordinates": [
                    22.23177,
                    49.81409
                ]
            },
            "properties": {
                "ref:rspo": 264176,
                "official_name": "Niepubliczne Przedszkole J\u0119zykowe \"Akademia Przedszkolaka\"",
                "name": "Niepubliczne Przedszkole J\u0119zykowe \"Akademia Przedszkolaka\"",
                "addr:postcode": "36-065",
                "addr:city": "Dyn\u00f3w",
                "addr:street": "Adama Mickiewicza",
                "addr:housenumber": "16",
                "addr:teryt:simc": 972080,
                "addr:teryt:sym_ul": 12734,
                "phone": "+48 575225311",
                "email": "kontakt@przedszkoledynow.pl",
                "website": "http:\/\/przedszkoledynow.pl",
                "ref:regon": "368279586",
                "operator": "Konrad Czach",
                "operator:type": "private",
                "amenity": "kindergarten"
            }
        },
        {
            "id": 9097,
            "type": "Feature",
            "geometry": {
                "type": "Point",
                "coordinates": [
                    22.2322879,
                    49.8188963
                ]
            },
            "properties": {
                "isced:level": "3",
                "ref:rspo": 9097,
                "official_name": "Liceum Og\u00f3lnokszta\u0142c\u0105ce im. Komisji Edukacji Narodowej w Dynowie",
                "name": "Liceum Og\u00f3lnokszta\u0142c\u0105ce",
                "addr:postcode": "36-065",
                "addr:city": "Dyn\u00f3w",
                "addr:street": "1 Maja",
                "addr:housenumber": "17",
                "addr:teryt:simc": 972080,
                "addr:teryt:sym_ul": 11926,
                "phone": "+48 166521077",
                "email": "lodyn9@poczta.onet.pl",
                "website": "http:\/\/www.lodynow.pl",
                "ref:regon": "690700527",
                "operator": "Powiat Rzeszowski",
                "operator:type": "government",
                "amenity": "school"
            }
        },
        {
            "id": 82790,
            "type": "Feature",
            "geometry": {
                "type": "Point",
                "coordinates": [
                    22.2170577,
                    49.8194985
                ]
            },
            "properties": {
                "ref:rspo": 82790,
                "official_name": "Przedszkole Miejskie Dyn\u00f3w",
                "name": "Przedszkole Miejskie Dyn\u00f3w",
                "addr:postcode": "36-065",
                "addr:city": "Dyn\u00f3w",
                "addr:street": "Jana Paw\u0142a II",
                "addr:housenumber": "15",
                "addr:teryt:simc": 972080,
                "addr:teryt:sym_ul": 7123,
                "phone": "+48 166521014",
                "email": "przedszkole@dynow.pl",
                "website": "http:\/\/www.przedszkoledynow.edupage.org",
                "ref:regon": "180652013",
                "ref:vatin": "PL8133643014",
                "operator": "Gmina Miejska Dyn\u00f3w",
                "operator:type": "government",
                "amenity": "kindergarten"
            }
        },
        {
            "id": 10697,
            "type": "Feature",
            "geometry": {
                "type": "Point",
                "coordinates": [
                    22.22712,
                    49.82035
                ]
            },
            "properties": {
                "ref:rspo": 10697,
                "official_name": "Zesp\u00f3\u0142 Szk\u00f3\u0142 Zawodowych w Dynowie",
                "name": "Zesp\u00f3\u0142 Szk\u00f3\u0142 Zawodowych w Dynowie",
                "addr:postcode": "36-065",
                "addr:city": "Dyn\u00f3w",
                "addr:street": "Polna",
                "addr:housenumber": "3",
                "addr:teryt:simc": 972080,
                "addr:teryt:sym_ul": 17011,
                "phone": "+48 166521045",
                "email": "zsz1dynow@poczta.onet.pl",
                "website": "http:\/\/www.zsz1dynow.republika.pl",
                "ref:regon": "690700094",
                "ref:vatin": "PL7951828564",
                "operator": "Powiat Rzeszowski",
                "operator:type": "government",
                "landuse": "education",
                "fixme": "amenity=school, amenity=college albo landuse=education w zale\u017cno\u015bci od tego, jakie plac\u00f3wki wchodz\u0105 w sk\u0142ad zespo\u0142u. Sprawd\u017a, kiedy stosowa\u0107 amenity=* a kiedy landuse=education.",
                "note": "Children RSPO: 39222;39223;58504"
            }
        },
        {
            "id": 39222,
            "type": "Feature",
            "geometry": {
                "type": "Point",
                "coordinates": [
                    22.22712,
                    49.820319999999995
                ]
            },
            "properties": {
                "isced:level": "3",
                "ref:rspo": 39222,
                "official_name": "Technikum w Dynowie",
                "name": "Technikum w Dynowie",
                "addr:postcode": "36-065",
                "addr:city": "Dyn\u00f3w",
                "addr:street": "Polna",
                "addr:housenumber": "3",
                "addr:teryt:simc": 972080,
                "addr:teryt:sym_ul": 17011,
                "phone": "+48 166521045",
                "email": "zsz1dynow@poczta.onet.pl",
                "ref:regon": "691681217",
                "operator": "Powiat Rzeszowski",
                "operator:type": "government",
                "amenity": "school",
                "note": "Parent RSPO: 10697"
            }
        },
        {
            "id": 39223,
            "type": "Feature",
            "geometry": {
                "type": "Point",
                "coordinates": [
                    22.22712,
                    49.82029
                ]
            },
            "properties": {
                "isced:level": "3",
                "ref:rspo": 39223,
                "official_name": "Bran\u017cowa Szko\u0142a I Stopnia w Dynowie",
                "name": "Bran\u017cowa Szko\u0142a I Stopnia w Dynowie",
                "addr:postcode": "36-065",
                "addr:city": "Dyn\u00f3w",
                "addr:street": "Polna",
                "addr:housenumber": "3",
                "addr:teryt:simc": 972080,
                "addr:teryt:sym_ul": 17011,
                "phone": "+48 166521043",
                "email": "zsz1dynow@poczta.onet.pl",
                "ref:regon": "691681230",
                "operator": "Powiat Rzeszowski",
                "operator:type": "government",
                "amenity": "school",
                "note": "Parent RSPO: 10697"
            }
        },
        {
            "id": 58504,
            "type": "Feature",
            "geometry": {
                "type": "Point",
                "coordinates": [
                    22.22712,
                    49.82026
                ]
            },
            "properties": {
                "isced:level": "4",
                "ref:rspo": 58504,
                "official_name": "Szko\u0142a Policealna dla Doros\u0142ych w Dynowie",
                "name": "Szko\u0142a Policealna dla Doros\u0142ych w Dynowie",
                "addr:postcode": "36-065",
                "addr:city": "Dyn\u00f3w",
                "addr:street": "Polna",
                "addr:housenumber": "3",
                "addr:teryt:simc": 972080,
                "addr:teryt:sym_ul": 17011,
                "phone": "+48 166521045",
                "email": "dynowzsz@poczta.onet.pl",
                "website": "http:\/\/www.zsz1dynow.republika.pl",
                "ref:regon": "180158922",
                "operator": "Powiat Rzeszowski",
                "operator:type": "government",
                "amenity": "college",
                "note": "Parent RSPO: 10697"
            }
        }
    ]
}