{
    "type": "FeatureCollection",
    "features": [
        {
            "id": 262932,
            "type": "Feature",
            "geometry": {
                "type": "Point",
                "coordinates": [
                    21.84166,
                    50.03756
                ]
            },
            "properties": {
                "isced:level": "1;2",
                "ref:rspo": 262932,
                "official_name": "Niepubliczna Szko\u0142a Podstawowa w B\u0142\u0119dowej Zg\u0142obie\u0144skiej",
                "name": "Niepubliczna Szko\u0142a Podstawowa w B\u0142\u0119dowej Zg\u0142obie\u0144skiej",
                "addr:country": "PL",
                "addr:postcode": "36-071",
                "addr:place": "B\u0142\u0119dowa Zg\u0142obie\u0144ska",
                "addr:housenumber": "99",
                "addr:teryt:simc": 663551,
                "contact:phone": "+48 177101794",
                "contact:email": "szkola@bledowazglobienska.pl",
                "contact:website": "http:\/\/www.szkola.bledowazglobienska.pl",
                "ref:regon": "368074826",
                "ref:vatin": "PL5170356922",
                "operator": "Stowarzyszenie Na Rzecz Rozwoju B\u0142\u0119dowej Zg\u0142obie\u0144skiej",
                "operator:type": "ngo",
                "amenity": "school"
            }
        },
        {
            "id": 264560,
            "type": "Feature",
            "geometry": {
                "type": "Point",
                "coordinates": [
                    21.84166,
                    50.03753
                ]
            },
            "properties": {
                "ref:rspo": 264560,
                "official_name": "Niepubliczne Przedszkole \"Kolorowy \u015awiat Maluszka\" w B\u0142\u0119dowej Zg\u0142obie\u0144skiej",
                "name": "Niepubliczne Przedszkole \"Kolorowy \u015awiat Maluszka\" w B\u0142\u0119dowej Zg\u0142obie\u0144skiej",
                "addr:country": "PL",
                "addr:postcode": "36-071",
                "addr:place": "B\u0142\u0119dowa Zg\u0142obie\u0144ska",
                "addr:housenumber": "99",
                "addr:teryt:simc": 663551,
                "contact:phone": "+48 177101794",
                "contact:email": "przedszkole@bledowazglobienska.pl",
                "contact:website": "http:\/\/www.przedszkole.bledowazglobienska.pl",
                "ref:regon": "368376970",
                "operator": "Stowarzyszenie Na Rzecz Rozwoju B\u0142\u0119dowej Zg\u0142obie\u0144skiej",
                "operator:type": "ngo",
                "amenity": "kindergarten"
            }
        },
        {
            "id": 16768,
            "type": "Feature",
            "geometry": {
                "type": "Point",
                "coordinates": [
                    21.8101539,
                    50.0576919
                ]
            },
            "properties": {
                "ref:rspo": 16768,
                "official_name": "Zesp\u00f3\u0142 Szk\u00f3\u0142 w D\u0105browie",
                "name": "Zesp\u00f3\u0142 Szk\u00f3\u0142 w D\u0105browie",
                "addr:country": "PL",
                "addr:postcode": "36-071",
                "addr:place": "D\u0105browa",
                "addr:housenumber": "51",
                "addr:teryt:simc": 663781,
                "contact:phone": "+48 178514028",
                "contact:email": "zs.dabrowa@swilcza.com.pl",
                "contact:website": "http:\/\/www.zs-dabrowa.pl",
                "ref:regon": "005150690",
                "ref:vatin": "PL8132742530",
                "operator": "Gmina \u015awilcza",
                "operator:type": "government",
                "landuse": "education",
                "fixme": "amenity=school, amenity=college albo landuse=education w zale\u017cno\u015bci od tego, jakie plac\u00f3wki wchodz\u0105 w sk\u0142ad zespo\u0142u. Sprawd\u017a, kiedy stosowa\u0107 amenity=* a kiedy landuse=education.",
                "note": "Children RSPO: 113640;122705"
            }
        },
        {
            "id": 113640,
            "type": "Feature",
            "geometry": {
                "type": "Point",
                "coordinates": [
                    21.8101539,
                    50.0576619
                ]
            },
            "properties": {
                "ref:rspo": 113640,
                "official_name": "Przedszkole w D\u0105browie",
                "name": "Przedszkole w D\u0105browie",
                "addr:country": "PL",
                "addr:postcode": "36-071",
                "addr:place": "D\u0105browa",
                "addr:housenumber": "51",
                "addr:teryt:simc": 663781,
                "contact:phone": "+48 178514028",
                "contact:email": "zs.dabrowa@swilcza.com.pl",
                "contact:website": "http:\/\/www.zs-dabrowa.pl",
                "ref:regon": "691681690",
                "operator": "Gmina \u015awilcza",
                "operator:type": "government",
                "amenity": "kindergarten",
                "note": "Parent RSPO: 16768"
            }
        },
        {
            "id": 122705,
            "type": "Feature",
            "geometry": {
                "type": "Point",
                "coordinates": [
                    21.8101539,
                    50.057631900000004
                ]
            },
            "properties": {
                "isced:level": "1;2",
                "ref:rspo": 122705,
                "official_name": "Szko\u0142a Podstawowa im. Konstytucji 3 Maja w D\u0105browie",
                "name": "Szko\u0142a Podstawowa",
                "addr:country": "PL",
                "addr:postcode": "36-071",
                "addr:place": "D\u0105browa",
                "addr:housenumber": "51",
                "addr:teryt:simc": 663781,
                "contact:phone": "+48 178514028",
                "contact:email": "zs.dabrowa@swilcza.com.pl",
                "contact:website": "http:\/\/zs-dabrowa.pl",
                "ref:regon": "691681683",
                "ref:vatin": "PL8132742530",
                "operator": "Gmina \u015awilcza",
                "operator:type": "government",
                "amenity": "school",
                "note": "Parent RSPO: 16768"
            }
        },
        {
            "id": 16763,
            "type": "Feature",
            "geometry": {
                "type": "Point",
                "coordinates": [
                    21.9020699,
                    50.06949
                ]
            },
            "properties": {
                "ref:rspo": 16763,
                "official_name": "Przedszkole w \u015awilczy",
                "name": "Przedszkole w \u015awilczy",
                "addr:country": "PL",
                "addr:postcode": "36-072",
                "addr:place": "\u015awilcza",
                "addr:housenumber": "116A",
                "addr:teryt:simc": 664013,
                "contact:phone": "+48 178560776",
                "contact:email": "przedszkole@swilcza.com.pl",
                "ref:regon": "690588131",
                "ref:vatin": "PL8132981973",
                "operator": "Gmina \u015awilcza",
                "operator:type": "government",
                "amenity": "kindergarten"
            }
        },
        {
            "id": 20725,
            "type": "Feature",
            "geometry": {
                "type": "Point",
                "coordinates": [
                    21.89759,
                    50.07137
                ]
            },
            "properties": {
                "isced:level": "1;2",
                "ref:rspo": 20725,
                "official_name": "Szko\u0142a Podstawowa im. \u015aw. Jana Kantego w \u015awilczy",
                "name": "Szko\u0142a Podstawowa",
                "addr:country": "PL",
                "addr:postcode": "36-072",
                "addr:place": "\u015awilcza",
                "addr:housenumber": "336",
                "addr:teryt:simc": 664013,
                "contact:phone": "+48 178560795",
                "contact:email": "sp.swilcza@swilcza.com.pl",
                "contact:website": "http:\/\/spswilcza.pl",
                "ref:regon": "691681594",
                "ref:vatin": "PL8133008217",
                "operator": "Gmina \u015awilcza",
                "operator:type": "government",
                "amenity": "school"
            }
        },
        {
            "id": 20723,
            "type": "Feature",
            "geometry": {
                "type": "Point",
                "coordinates": [
                    21.842,
                    50.07147
                ]
            },
            "properties": {
                "isced:level": "1;2",
                "ref:rspo": 20723,
                "official_name": "Szko\u0142a Podstawowa w Trzcianie",
                "name": "Szko\u0142a Podstawowa w Trzcianie",
                "addr:country": "PL",
                "addr:postcode": "36-071",
                "addr:place": "Trzciana",
                "addr:housenumber": "168",
                "addr:teryt:simc": 664102,
                "contact:phone": "+48 178514094",
                "contact:email": "sp.trzciana@swilcza.com.pl",
                "contact:website": "http:\/\/www.zst.itl.pl",
                "ref:regon": "691681654",
                "ref:vatin": "PL8133009553",
                "operator": "Gmina \u015awilcza",
                "operator:type": "government",
                "amenity": "school"
            }
        },
        {
            "id": 16762,
            "type": "Feature",
            "geometry": {
                "type": "Point",
                "coordinates": [
                    21.83958,
                    50.07402
                ]
            },
            "properties": {
                "ref:rspo": 16762,
                "official_name": "Przedszkole w Trzcianie",
                "name": "Przedszkole w Trzcianie",
                "addr:country": "PL",
                "addr:postcode": "36-071",
                "addr:place": "Trzciana",
                "addr:housenumber": "193 B",
                "addr:teryt:simc": 664102,
                "contact:phone": "+48 178514024",
                "contact:email": "przedszkole.trzciana@swilcza.com.pl",
                "ref:regon": "690588148",
                "ref:vatin": "PL8132981950",
                "operator": "Gmina \u015awilcza",
                "operator:type": "government",
                "amenity": "kindergarten"
            }
        },
        {
            "id": 272454,
            "type": "Feature",
            "geometry": {
                "type": "Point",
                "coordinates": [
                    21.90046,
                    50.0749
                ]
            },
            "properties": {
                "ref:rspo": 272454,
                "official_name": "Niepubliczne Przedszkole \" Bajkowy Zak\u0105tek\" Wioletta Cabaj",
                "name": "Niepubliczne Przedszkole \" Bajkowy Zak\u0105tek\" Wioletta Cabaj",
                "addr:country": "PL",
                "addr:postcode": "36-072",
                "addr:place": "\u015awilcza",
                "addr:housenumber": "466",
                "addr:teryt:simc": 664013,
                "contact:phone": "+48 693462302",
                "contact:email": "wcabaj@vp.pl",
                "ref:regon": "384177011",
                "operator": "Wioletta Cabaj",
                "operator:type": "private",
                "amenity": "kindergarten"
            }
        },
        {
            "id": 26258,
            "type": "Feature",
            "geometry": {
                "type": "Point",
                "coordinates": [
                    21.84722,
                    50.07514
                ]
            },
            "properties": {
                "ref:rspo": 26258,
                "official_name": "Zesp\u00f3\u0142 Szk\u00f3\u0142 Techniczno-Weterynaryjnych im. Bohater\u00f3w Westerplatte w Trzcianie",
                "name": "Zesp\u00f3\u0142 Szk\u00f3\u0142 Techniczno-Weterynaryjnych",
                "addr:country": "PL",
                "addr:postcode": "36-071",
                "addr:place": "Trzciana",
                "addr:housenumber": "193",
                "addr:teryt:simc": 664102,
                "contact:phone": "+48 178514077",
                "contact:email": "zstw-trzciana@wp.pl",
                "contact:website": "http:\/\/www.zstw.pl",
                "ref:regon": "000098677",
                "ref:vatin": "PL8132405347",
                "operator": "Powiat Rzeszowski",
                "operator:type": "government",
                "landuse": "education",
                "fixme": "amenity=school, amenity=college albo landuse=education w zale\u017cno\u015bci od tego, jakie plac\u00f3wki wchodz\u0105 w sk\u0142ad zespo\u0142u. Sprawd\u017a, kiedy stosowa\u0107 amenity=* a kiedy landuse=education.",
                "note": "Children RSPO: 35178;35179;60510;128670"
            }
        },
        {
            "id": 35178,
            "type": "Feature",
            "geometry": {
                "type": "Point",
                "coordinates": [
                    21.84722,
                    50.075109999999995
                ]
            },
            "properties": {
                "isced:level": "3",
                "ref:rspo": 35178,
                "official_name": "Technikum w Trzcianie",
                "name": "Technikum w Trzcianie",
                "addr:country": "PL",
                "addr:postcode": "36-071",
                "addr:place": "Trzciana",
                "addr:housenumber": "193",
                "addr:teryt:simc": 664102,
                "contact:phone": "+48 178514077",
                "contact:email": "zstw-trzciana@wp.pl",
                "contact:website": "http:\/\/www.zstw.pl",
                "ref:regon": "691681298",
                "operator": "Powiat Rzeszowski",
                "operator:type": "government",
                "amenity": "school",
                "note": "Parent RSPO: 26258"
            }
        },
        {
            "id": 35179,
            "type": "Feature",
            "geometry": {
                "type": "Point",
                "coordinates": [
                    21.84722,
                    50.07508
                ]
            },
            "properties": {
                "isced:level": "3",
                "ref:rspo": 35179,
                "official_name": "Liceum Og\u00f3lnokszta\u0142c\u0105ce w Trzcianie",
                "name": "Liceum Og\u00f3lnokszta\u0142c\u0105ce w Trzcianie",
                "addr:country": "PL",
                "addr:postcode": "36-071",
                "addr:place": "Trzciana",
                "addr:housenumber": "193",
                "addr:teryt:simc": 664102,
                "contact:phone": "+48 178514077",
                "contact:email": "zstw-trzciana@wp.pl",
                "ref:regon": "691750668",
                "operator": "Powiat Rzeszowski",
                "operator:type": "government",
                "amenity": "school",
                "note": "Parent RSPO: 26258"
            }
        },
        {
            "id": 60510,
            "type": "Feature",
            "geometry": {
                "type": "Point",
                "coordinates": [
                    21.84722,
                    50.07505
                ]
            },
            "properties": {
                "isced:level": "3",
                "ref:rspo": 60510,
                "official_name": "Bran\u017cowa Szko\u0142a I Stopnia w Trzcianie",
                "name": "Bran\u017cowa Szko\u0142a I Stopnia w Trzcianie",
                "addr:country": "PL",
                "addr:postcode": "36-071",
                "addr:place": "Trzciana",
                "addr:housenumber": "193",
                "addr:teryt:simc": 664102,
                "contact:phone": "+48 178514077",
                "contact:email": "zstw-trzciana@wp.pl",
                "contact:website": "http:\/\/www.zstw.pl",
                "ref:regon": "691681281",
                "operator": "Powiat Rzeszowski",
                "operator:type": "government",
                "amenity": "school",
                "note": "Parent RSPO: 26258"
            }
        },
        {
            "id": 128670,
            "type": "Feature",
            "geometry": {
                "type": "Point",
                "coordinates": [
                    21.84722,
                    50.075019999999995
                ]
            },
            "properties": {
                "isced:level": "4",
                "ref:rspo": 128670,
                "official_name": "Szko\u0142a Policealna w Trzcianie",
                "name": "Szko\u0142a Policealna w Trzcianie",
                "addr:country": "PL",
                "addr:postcode": "36-071",
                "addr:place": "Trzciana",
                "addr:housenumber": "193",
                "addr:teryt:simc": 664102,
                "contact:phone": "+48 178514077",
                "contact:email": "zstw-trzciana@wp.pl",
                "contact:website": "http:\/\/www.zstw.pl",
                "ref:regon": "362349297",
                "operator": "Powiat Rzeszowski",
                "operator:type": "government",
                "amenity": "college",
                "note": "Parent RSPO: 26258"
            }
        },
        {
            "id": 51821,
            "type": "Feature",
            "geometry": {
                "type": "Point",
                "coordinates": [
                    21.8199599,
                    50.07969
                ]
            },
            "properties": {
                "ref:rspo": 51821,
                "official_name": "Niepubliczna Szko\u0142a Muzyczna I St.im. J\u00f3zefa Barlika w Trzcianie",
                "name": "Niepubliczna Szko\u0142a Muzyczna I St.im. J\u00f3zefa Barlika w Trzcianie",
                "addr:country": "PL",
                "addr:postcode": "36-071",
                "addr:place": "Trzciana",
                "addr:housenumber": "193 a",
                "addr:teryt:simc": 664102,
                "contact:phone": "+48 178514131",
                "ref:regon": "180899989",
                "operator": "Izabela Ziemi\u0144ska",
                "operator:type": "private",
                "amenity": "music_school"
            }
        },
        {
            "id": 21528,
            "type": "Feature",
            "geometry": {
                "type": "Point",
                "coordinates": [
                    21.95374,
                    50.08719
                ]
            },
            "properties": {
                "isced:level": "1;2",
                "ref:rspo": 21528,
                "official_name": "Szko\u0142a Podstawowa im.stanis\u0142awa D\u0105mbskiego w Rudnej Wielkiej",
                "name": "Szko\u0142a Podstawowa im.stanis\u0142awa D\u0105mbskiego w Rudnej Wielkiej",
                "addr:country": "PL",
                "addr:postcode": "36-054",
                "addr:place": "Rudna Wielka",
                "addr:housenumber": "60",
                "addr:teryt:simc": 663999,
                "contact:phone": "+48 178553245",
                "contact:email": "sp.rudna.wielka@swilcza.com.pl",
                "contact:website": "https:\/\/sprudnawielka.pl\/",
                "ref:regon": "691681631",
                "ref:vatin": "PL8133012472",
                "operator": "Gmina \u015awilcza",
                "operator:type": "government",
                "amenity": "school"
            }
        },
        {
            "id": 8788,
            "type": "Feature",
            "geometry": {
                "type": "Point",
                "coordinates": [
                    21.91875,
                    50.094
                ]
            },
            "properties": {
                "ref:rspo": 8788,
                "official_name": "Specjalny O\u015brodek Szkolno-Wychowawczy w Mrowli",
                "name": "Specjalny O\u015brodek Szkolno-Wychowawczy w Mrowli",
                "addr:country": "PL",
                "addr:postcode": "36-054",
                "addr:place": "Mrowla",
                "addr:housenumber": "79 C",
                "addr:teryt:simc": 663864,
                "contact:phone": "+48 178553576",
                "contact:email": "soswmrowla@o2.pl",
                "ref:regon": "000198427",
                "ref:vatin": "PL8132641355",
                "operator": "Powiat Rzeszowski",
                "operator:type": "government",
                "amenity": "school",
                "note": "Children RSPO: 8789;8790;27565"
            }
        },
        {
            "id": 27565,
            "type": "Feature",
            "geometry": {
                "type": "Point",
                "coordinates": [
                    21.91875,
                    50.09397
                ]
            },
            "properties": {
                "isced:level": "1;2",
                "ref:rspo": 27565,
                "official_name": "Szko\u0142a Podstawowa Nr 2 w Mrowli",
                "name": "Szko\u0142a Podstawowa Nr 2 w Mrowli",
                "addr:country": "PL",
                "addr:postcode": "36-054",
                "addr:place": "Mrowla",
                "addr:housenumber": "79c",
                "addr:teryt:simc": 663864,
                "contact:phone": "+48 178553576",
                "contact:email": "soswmrowla@o2.pl",
                "ref:regon": "691680985",
                "operator": "Powiat Rzeszowski",
                "operator:type": "government",
                "amenity": "school",
                "note": "Parent RSPO: 8788"
            }
        },
        {
            "id": 8789,
            "type": "Feature",
            "geometry": {
                "type": "Point",
                "coordinates": [
                    21.9234,
                    50.09509
                ]
            },
            "properties": {
                "ref:rspo": 8789,
                "official_name": "Szko\u0142a Specjalna Przysposabiaj\u0105ca Do Pracy w Mrowli",
                "name": "Szko\u0142a Specjalna Przysposabiaj\u0105ca Do Pracy w Mrowli",
                "addr:country": "PL",
                "addr:postcode": "36-054",
                "addr:place": "Mrowla",
                "addr:housenumber": "52",
                "addr:teryt:simc": 663864,
                "contact:phone": "+48 178553576",
                "contact:email": "soswmrowla@o2.pl",
                "ref:regon": "180053100",
                "operator": "Powiat Rzeszowski",
                "operator:type": "government",
                "amenity": "school",
                "note": "Parent RSPO: 8788"
            }
        },
        {
            "id": 8790,
            "type": "Feature",
            "geometry": {
                "type": "Point",
                "coordinates": [
                    21.9234,
                    50.09506
                ]
            },
            "properties": {
                "ref:rspo": 8790,
                "official_name": "Przedszkole Specjalne w Mrowli",
                "name": "Przedszkole Specjalne w Mrowli",
                "addr:country": "PL",
                "addr:postcode": "36-054",
                "addr:place": "Mrowla",
                "addr:housenumber": "52",
                "addr:teryt:simc": 663864,
                "contact:phone": "+48 178553576",
                "contact:email": "soswmrowla@o2.pl",
                "ref:regon": "180883296",
                "operator": "Powiat Rzeszowski",
                "operator:type": "government",
                "amenity": "kindergarten",
                "note": "Parent RSPO: 8788"
            }
        },
        {
            "id": 15901,
            "type": "Feature",
            "geometry": {
                "type": "Point",
                "coordinates": [
                    21.92266,
                    50.0951
                ]
            },
            "properties": {
                "isced:level": "1;2",
                "ref:rspo": 15901,
                "official_name": "Szko\u0142a Podstawowa Nr 1 im. Marii Konopnickiej w Mrowli",
                "name": "Szko\u0142a Podstawowa Nr 1",
                "addr:country": "PL",
                "addr:postcode": "36-054",
                "addr:place": "Mrowla",
                "addr:housenumber": "51",
                "addr:teryt:simc": 663864,
                "contact:phone": "+48 178553591",
                "contact:email": "sp1.mrowla@swilcza.com.pl",
                "contact:website": "http:\/\/www.spmrowla.pl",
                "ref:regon": "001139645",
                "ref:vatin": "PL8132643673",
                "operator": "Gmina \u015awilcza",
                "operator:type": "government",
                "amenity": "school"
            }
        },
        {
            "id": 20721,
            "type": "Feature",
            "geometry": {
                "type": "Point",
                "coordinates": [
                    21.8595996,
                    50.1143729
                ]
            },
            "properties": {
                "isced:level": "1;2",
                "ref:rspo": 20721,
                "official_name": "Szko\u0142a Podstawowa Nr 1 Im Kardyna\u0142a Stefana Wyszy\u0144skiego w Bratkowicach",
                "name": "Szko\u0142a Podstawowa Nr 1 Im Kardyna\u0142a Stefana Wyszy\u0144skiego w Bratkowicach",
                "addr:country": "PL",
                "addr:postcode": "36-055",
                "addr:place": "Bratkowice",
                "addr:housenumber": "398",
                "addr:teryt:simc": 663611,
                "contact:phone": "+48 178551007",
                "contact:email": "sp1.bratkowice@swilcza.com.pl",
                "contact:website": "http:\/\/sp1-bratkowice.pl",
                "ref:regon": "001139616",
                "ref:vatin": "PL5170299584",
                "operator": "Gmina \u015awilcza",
                "operator:type": "government",
                "amenity": "school"
            }
        },
        {
            "id": 114701,
            "type": "Feature",
            "geometry": {
                "type": "Point",
                "coordinates": [
                    21.89875,
                    50.11477
                ]
            },
            "properties": {
                "isced:level": "1;2",
                "ref:rspo": 114701,
                "official_name": "Niepubliczna Szko\u0142a Podstawowa w Bratkowicach",
                "name": "Niepubliczna Szko\u0142a Podstawowa w Bratkowicach",
                "addr:country": "PL",
                "addr:postcode": "36-055",
                "addr:place": "Bratkowice",
                "addr:housenumber": "150",
                "addr:teryt:simc": 663611,
                "contact:phone": "+48 178551004",
                "contact:email": "sp3bratkowice@o2.pl",
                "contact:website": "http:\/\/www.nspbratkowice.pl",
                "ref:regon": "180978460",
                "operator": "Stowarzyszenie Przyjaci\u00f3\u0142 Szko\u0142y \"Nasza Tr\u00f3jka\" W Bratkowicach",
                "operator:type": "ngo",
                "amenity": "school"
            }
        },
        {
            "id": 16761,
            "type": "Feature",
            "geometry": {
                "type": "Point",
                "coordinates": [
                    21.85951,
                    50.11661
                ]
            },
            "properties": {
                "ref:rspo": 16761,
                "official_name": "Przedszkole im.jana Paw\u0142a II w Bratkowicach",
                "name": "Przedszkole im.jana Paw\u0142a II w Bratkowicach",
                "addr:country": "PL",
                "addr:postcode": "36-055",
                "addr:place": "Bratkowice",
                "addr:housenumber": "407A",
                "addr:teryt:simc": 663611,
                "contact:phone": "+48 178551434",
                "contact:email": "przedszkole.bratkowice@swilcza.com.pl",
                "contact:website": "http:\/\/www.przedszkolebratkowice.edupage.org",
                "ref:regon": "690588154",
                "ref:vatin": "PL8133008602",
                "operator": "Gmina \u015awilcza",
                "operator:type": "government",
                "amenity": "kindergarten"
            }
        },
        {
            "id": 15900,
            "type": "Feature",
            "geometry": {
                "type": "Point",
                "coordinates": [
                    21.83623,
                    50.12153
                ]
            },
            "properties": {
                "isced:level": "1;2",
                "ref:rspo": 15900,
                "official_name": "Szko\u0142a Podstawowa Nr 2 im. Jana Paw\u0142a II w Bratkowicach",
                "name": "Szko\u0142a Podstawowa Nr 2",
                "addr:country": "PL",
                "addr:postcode": "36-055",
                "addr:place": "Bratkowice",
                "addr:housenumber": "606",
                "addr:teryt:simc": 663611,
                "contact:phone": "+48 178551009",
                "contact:email": "sp2.bratkowice@swilcza.com.pl",
                "contact:website": "http:\/\/sp2bratkowice.szkolna.net",
                "ref:regon": "001139622",
                "ref:vatin": "PL8132158647",
                "operator": "Gmina \u015awilcza",
                "operator:type": "government",
                "amenity": "school"
            }
        }
    ]
}