{
    "type": "FeatureCollection",
    "features": [
        {
            "id": 129197,
            "type": "Feature",
            "geometry": {
                "type": "Point",
                "coordinates": [
                    21.92441,
                    49.95102
                ]
            },
            "properties": {
                "ref:rspo": 129197,
                "official_name": "Punkt Przedszkolny Mali Odkrywcy w Zarzeczu",
                "name": "Punkt Przedszkolny Mali Odkrywcy w Zarzeczu",
                "addr:postcode": "36-041",
                "addr:place": "Zarzecze",
                "addr:housenumber": "133",
                "addr:city:simc": 645300,
                "phone": "+48 668144855",
                "email": "srogb@boguchwala.pl",
                "website": "http:\/\/www.srogb.pl",
                "ref:regon": "362507750",
                "operator": "Stowarzyszenie Rozwoju O\u015bwiaty Gminy Boguchwa\u0142a",
                "operator:type": "ngo",
                "amenity": "kindergarten"
            }
        },
        {
            "id": 109582,
            "type": "Feature",
            "geometry": {
                "type": "Point",
                "coordinates": [
                    21.91903,
                    49.96476
                ]
            },
            "properties": {
                "isced:level": "1;2",
                "ref:rspo": 109582,
                "official_name": "Szko\u0142a Podstwowa im.ksi\u0119dza Czes\u0142awa Przystasia w Lutory\u017cu",
                "name": "Szko\u0142a Podstwowa im.ksi\u0119dza Czes\u0142awa Przystasia w Lutory\u017cu",
                "addr:postcode": "36-040",
                "addr:place": "Lutory\u017c",
                "addr:housenumber": "432",
                "addr:city:simc": 644915,
                "phone": "+48 178714132",
                "email": "sp.lutoryz@boguchwala.pl",
                "website": "http:\/\/splutoryz.szkolnastrona.pl",
                "ref:regon": "001131879",
                "ref:vatin": "PL8131099865",
                "operator": "Gmina Boguchwa\u0142a",
                "operator:type": "government",
                "amenity": "school"
            }
        },
        {
            "id": 272707,
            "type": "Feature",
            "geometry": {
                "type": "Point",
                "coordinates": [
                    21.91903,
                    49.964729999999996
                ]
            },
            "properties": {
                "ref:rspo": 272707,
                "official_name": "Punkt Przedszkolny \"Zaczarowana Kraina\" w Lutory\u017cu",
                "name": "Punkt Przedszkolny \"Zaczarowana Kraina\" w Lutory\u017cu",
                "addr:postcode": "36-040",
                "addr:place": "Lutory\u017c",
                "addr:housenumber": "432",
                "addr:city:simc": 644915,
                "phone": "+48 668144855",
                "email": "srogb@boguchwala.pl",
                "website": "http:\/\/www.srogb.pl",
                "ref:regon": "384278870",
                "operator": "Stowarzyszenie Rozwoju O\u015bwiaty Gminy Boguchwa\u0142a",
                "operator:type": "ngo",
                "amenity": "kindergarten"
            }
        },
        {
            "id": 109585,
            "type": "Feature",
            "geometry": {
                "type": "Point",
                "coordinates": [
                    21.85361,
                    49.9788
                ]
            },
            "properties": {
                "isced:level": "1;2",
                "ref:rspo": 109585,
                "official_name": "Szko\u0142a Podstawowa Nr 2 im. Kr\u00f3lowej Jadwigi w Niechobrzu",
                "name": "Szko\u0142a Podstawowa Nr 2",
                "addr:postcode": "36-047",
                "addr:place": "Niechobrz",
                "addr:housenumber": "549",
                "addr:city:simc": 645056,
                "phone": "+48 178718224",
                "email": "sp2.niechobrz@boguchwala.pl",
                "website": "http:\/\/sp2niechobrz.szkolnastrona.pl",
                "ref:regon": "001131900",
                "ref:vatin": "PL8132292564",
                "operator": "Gmina Boguchwa\u0142a",
                "operator:type": "government",
                "amenity": "school"
            }
        },
        {
            "id": 112087,
            "type": "Feature",
            "geometry": {
                "type": "Point",
                "coordinates": [
                    21.85361,
                    49.97877
                ]
            },
            "properties": {
                "ref:rspo": 112087,
                "official_name": "Punkt Przedszkolny Kubusiowa Polana w Niechobrzu",
                "name": "Punkt Przedszkolny Kubusiowa Polana w Niechobrzu",
                "addr:postcode": "36-047",
                "addr:place": "Niechobrz",
                "addr:housenumber": "549",
                "addr:city:simc": 645056,
                "phone": "+48 668144855",
                "email": "srogb@boguchwala.pl",
                "website": "http:\/\/www.srogb.pl",
                "ref:regon": "180954910",
                "operator": "Stowarzyszenie Rozwoju O\u015bwiaty Gminy Boguchwa\u0142a",
                "operator:type": "ngo",
                "amenity": "kindergarten"
            }
        },
        {
            "id": 109581,
            "type": "Feature",
            "geometry": {
                "type": "Point",
                "coordinates": [
                    21.892,
                    49.9789699
                ]
            },
            "properties": {
                "isced:level": "1;2",
                "ref:rspo": 109581,
                "official_name": "Szko\u0142a Podstawowa im. Jana Paw\u0142a II w Mogielnicy",
                "name": "Szko\u0142a Podstawowa",
                "addr:postcode": "36-040",
                "addr:place": "Mogielnica",
                "addr:housenumber": "167",
                "addr:city:simc": 645004,
                "phone": "+48 178715360",
                "email": "sp.mogielnica@boguchwala.pl",
                "website": "http:\/\/spmogielnica.pl",
                "ref:regon": "001131885",
                "ref:vatin": "PL8131099977",
                "operator": "Gmina Boguchwa\u0142a",
                "operator:type": "government",
                "amenity": "school"
            }
        },
        {
            "id": 263176,
            "type": "Feature",
            "geometry": {
                "type": "Point",
                "coordinates": [
                    21.892,
                    49.9789399
                ]
            },
            "properties": {
                "ref:rspo": 263176,
                "official_name": "Punkt Przedszkolny w Mogielnicy",
                "name": "Punkt Przedszkolny w Mogielnicy",
                "addr:postcode": "36-040",
                "addr:place": "Mogielnica",
                "addr:housenumber": "167",
                "addr:city:simc": 645004,
                "phone": "+48 668144855",
                "email": "srogb@boguchwala.pl",
                "website": "http:\/\/www.srogb.pl",
                "ref:regon": "368113489",
                "operator": "Stowarzyszenie Rozwoju O\u015bwiaty Gminy Boguchwa\u0142a",
                "operator:type": "ngo",
                "amenity": "kindergarten"
            }
        },
        {
            "id": 109488,
            "type": "Feature",
            "geometry": {
                "type": "Point",
                "coordinates": [
                    21.943370819092,
                    49.984111785889
                ]
            },
            "properties": {
                "isced:level": "1;2",
                "ref:rspo": 109488,
                "official_name": "Szko\u0142a Podstawowa im. Gen.stanis\u0142awa Maczka w Boguchwale",
                "name": "Szko\u0142a Podstawowa",
                "addr:postcode": "36-040",
                "addr:city": "Boguchwa\u0142a",
                "addr:street": "Teodora Lubomirskiego",
                "addr:housenumber": "2",
                "addr:city:simc": 644750,
                "addr:street:sym_ul": 52261,
                "phone": "+48 178714438",
                "email": "sp.boguchwala@boguchwala.pl",
                "website": "http:\/\/spboguchwala.pl",
                "ref:regon": "000266933",
                "ref:vatin": "PL8131099931",
                "operator": "Gmina Boguchwa\u0142a",
                "operator:type": "government",
                "amenity": "school"
            }
        },
        {
            "id": 109583,
            "type": "Feature",
            "geometry": {
                "type": "Point",
                "coordinates": [
                    21.943370819092,
                    49.984081785888996
                ]
            },
            "properties": {
                "isced:level": "3",
                "ref:rspo": 109583,
                "official_name": "Liceum Og\u00f3lnokszta\u0142c\u0105ce Z Oddzia\u0142ami Dwuj\u0119zycznymi w Boguchwale",
                "name": "Liceum Og\u00f3lnokszta\u0142c\u0105ce Z Oddzia\u0142ami Dwuj\u0119zycznymi w Boguchwale",
                "addr:postcode": "36-040",
                "addr:city": "Boguchwa\u0142a",
                "addr:street": "Suszyckich",
                "addr:housenumber": "11",
                "addr:city:simc": 644750,
                "addr:street:sym_ul": 52260,
                "phone": "+48 178714421",
                "email": "liceum@boguchwala.pl",
                "website": "http:\/\/liceum.boguchwala.pl",
                "ref:regon": "180554747",
                "ref:vatin": "PL5170319482",
                "operator": "Gmina Boguchwa\u0142a",
                "operator:type": "government",
                "amenity": "school"
            }
        },
        {
            "id": 129198,
            "type": "Feature",
            "geometry": {
                "type": "Point",
                "coordinates": [
                    21.943370819092,
                    49.984051785889
                ]
            },
            "properties": {
                "ref:rspo": 129198,
                "official_name": "Punkt Przedszkolny Kraina U\u015bmiechu w Boguchwale",
                "name": "Punkt Przedszkolny Kraina U\u015bmiechu w Boguchwale",
                "addr:postcode": "36-040",
                "addr:city": "Boguchwa\u0142a",
                "addr:street": "Teodora Lubomirskiego",
                "addr:housenumber": "2",
                "addr:city:simc": 644750,
                "addr:street:sym_ul": 52261,
                "phone": "+48 668144855",
                "email": "srogb@boguchwala.pl",
                "website": "http:\/\/www.srogb.pl",
                "ref:regon": "362507715",
                "operator": "Stowarzyszenie Rozwoju O\u015bwiaty Gminy Boguchwa\u0142a",
                "operator:type": "ngo",
                "amenity": "kindergarten"
            }
        },
        {
            "id": 263178,
            "type": "Feature",
            "geometry": {
                "type": "Point",
                "coordinates": [
                    21.943370819092,
                    49.984021785889
                ]
            },
            "properties": {
                "isced:level": "1;2",
                "ref:rspo": 263178,
                "official_name": "Szko\u0142a Podstawowa Montessori Z Oddzia\u0142ami Dwuj\u0119zycznymi w Boguchwale",
                "name": "Szko\u0142a Podstawowa Montessori Z Oddzia\u0142ami Dwuj\u0119zycznymi w Boguchwale",
                "addr:postcode": "36-040",
                "addr:city": "Boguchwa\u0142a",
                "addr:street": "Suszyckich",
                "addr:housenumber": "9",
                "addr:city:simc": 644750,
                "addr:street:sym_ul": 52260,
                "phone": "+48 172305250",
                "email": "spm.boguchwala@gmail.com",
                "website": "http:\/\/sp.montessori.boguchwala.pl",
                "ref:regon": "368115258",
                "operator": "Towarzystwo Przyjaci\u00f3\u0142 Liceum Og\u00f3lnokszta\u0142c\u0105cego W Boguchwale",
                "operator:type": "ngo",
                "amenity": "school"
            }
        },
        {
            "id": 269745,
            "type": "Feature",
            "geometry": {
                "type": "Point",
                "coordinates": [
                    21.9379,
                    49.98528
                ]
            },
            "properties": {
                "ref:rspo": 269745,
                "official_name": "Niepubliczne Przedszkole Terapeutyczne Zuzia w Boguchwale",
                "name": "Niepubliczne Przedszkole Terapeutyczne Zuzia w Boguchwale",
                "addr:postcode": "36-040",
                "addr:city": "Boguchwa\u0142a",
                "addr:street": "Sportowa",
                "addr:housenumber": "12",
                "addr:city:simc": 644750,
                "addr:street:sym_ul": 20683,
                "phone": "+48 606943436",
                "email": "biuro@grupampd.pl",
                "website": "http:\/\/www.przedszkolezuzia.pl",
                "ref:regon": "381747844",
                "operator": "Grupa Mpd Sp\u00f3\u0142ka Z Ograniczon\u0105 Odpowiedzialno\u015bci\u0105",
                "operator:type": "private",
                "amenity": "kindergarten"
            }
        },
        {
            "id": 109580,
            "type": "Feature",
            "geometry": {
                "type": "Point",
                "coordinates": [
                    21.93653,
                    49.9896
                ]
            },
            "properties": {
                "ref:rspo": 109580,
                "official_name": "Przedszkole Publiczne w Boguchwale",
                "name": "Przedszkole Publiczne w Boguchwale",
                "addr:postcode": "36-040",
                "addr:city": "Boguchwa\u0142a",
                "addr:street": "Techniczna",
                "addr:housenumber": "1a",
                "addr:city:simc": 644750,
                "addr:street:sym_ul": 22727,
                "phone": "+48 178714330",
                "email": "przedszkole@boguchwala.pl",
                "website": "http:\/\/przedszkole-boguchwala.edupege.org",
                "ref:regon": "690007588",
                "ref:vatin": "PL8132859396",
                "operator": "Gmina Boguchwa\u0142a",
                "operator:type": "government",
                "amenity": "kindergarten"
            }
        },
        {
            "id": 263723,
            "type": "Feature",
            "geometry": {
                "type": "Point",
                "coordinates": [
                    21.9348,
                    49.991
                ]
            },
            "properties": {
                "ref:rspo": 263723,
                "official_name": "Niepubliczne Przedszkole Z Oddzia\u0142ami Integracyjnymi Sikorki",
                "name": "Niepubliczne Przedszkole Z Oddzia\u0142ami Integracyjnymi Sikorki",
                "addr:postcode": "36-040",
                "addr:city": "Boguchwa\u0142a",
                "addr:street": "Techniczna",
                "addr:housenumber": "2B",
                "addr:city:simc": 644750,
                "addr:street:sym_ul": 22727,
                "email": "sikorki@sikorki.edu.pl",
                "website": "http:\/\/www.sikorki.edu.pl",
                "ref:regon": "368217295",
                "operator": "Aleksandra Kwasek",
                "operator:type": "private",
                "amenity": "kindergarten"
            }
        },
        {
            "id": 111618,
            "type": "Feature",
            "geometry": {
                "type": "Point",
                "coordinates": [
                    21.8745,
                    49.99546
                ]
            },
            "properties": {
                "isced:level": "1;2",
                "ref:rspo": 111618,
                "official_name": "Szko\u0142a Podstawowa Nr 1 im. Kr\u00f3la W\u0142adys\u0142awa Jagie\u0142\u0142y",
                "name": "Szko\u0142a Podstawowa Nr 1",
                "addr:postcode": "36-047",
                "addr:place": "Dolny Niechobrz",
                "addr:housenumber": "679",
                "addr:city:simc": 645062,
                "phone": "+48 178718007",
                "email": "zs.niechobrz@boguchwala.pl",
                "website": "http:\/\/sp1niechobrz.pl",
                "ref:regon": "691679404",
                "ref:vatin": "PL8133004509",
                "operator": "Gmina Boguchwa\u0142a",
                "operator:type": "government",
                "amenity": "school"
            }
        },
        {
            "id": 129195,
            "type": "Feature",
            "geometry": {
                "type": "Point",
                "coordinates": [
                    21.8745,
                    49.99543
                ]
            },
            "properties": {
                "ref:rspo": 129195,
                "official_name": "Punkt Przedszkolny Chatka Puchatka w Niechobrzu",
                "name": "Punkt Przedszkolny Chatka Puchatka w Niechobrzu",
                "addr:postcode": "36-047",
                "addr:place": "Niechobrz",
                "addr:housenumber": "679",
                "addr:city:simc": 645056,
                "phone": "+48 668144855",
                "email": "srogb@boguchwala.pl",
                "website": "http:\/\/www.srogb.pl",
                "ref:regon": "362507721",
                "operator": "Stowarzyszenie Rozwoju O\u015bwiaty Gminy Boguchwa\u0142a",
                "operator:type": "ngo",
                "amenity": "kindergarten"
            }
        },
        {
            "id": 109584,
            "type": "Feature",
            "geometry": {
                "type": "Point",
                "coordinates": [
                    21.80957,
                    49.9960499
                ]
            },
            "properties": {
                "isced:level": "1;2",
                "ref:rspo": 109584,
                "official_name": "Szko\u0142a Podstwowa im. B\u0142. Ks. Jerzego Popie\u0142uszki w Woli Zg\u0142obie\u0144skiej",
                "name": "Szko\u0142a Podstwowa",
                "addr:postcode": "36-046",
                "addr:place": "Wola Zg\u0142obie\u0144ska",
                "addr:housenumber": "140",
                "addr:city:simc": 645257,
                "phone": "+48 178716027",
                "email": "sp.wzglob@boguchwala.pl",
                "website": "http:\/\/www.spwolazglobienska.pl",
                "ref:regon": "001131939",
                "ref:vatin": "PL8132186566",
                "operator": "Gmina Boguchwa\u0142a",
                "operator:type": "government",
                "amenity": "school"
            }
        },
        {
            "id": 129201,
            "type": "Feature",
            "geometry": {
                "type": "Point",
                "coordinates": [
                    21.80957,
                    49.9960199
                ]
            },
            "properties": {
                "ref:rspo": 129201,
                "official_name": "Punkt Przedszkolny Gumisiowa Dolina w Woli Zg\u0142obie\u0144skiej",
                "name": "Punkt Przedszkolny Gumisiowa Dolina w Woli Zg\u0142obie\u0144skiej",
                "addr:postcode": "36-046",
                "addr:place": "Wola Zg\u0142obie\u0144ska",
                "addr:housenumber": "140",
                "addr:city:simc": 645257,
                "phone": "+48 668144855",
                "email": "srogb@boguchwala.pl",
                "website": "http:\/\/www.srogb.pl",
                "ref:regon": "362508100",
                "operator": "Stowarzyszenie Rozwoju O\u015bwiaty Gminy Boguchwa\u0142a",
                "operator:type": "ngo",
                "amenity": "kindergarten"
            }
        },
        {
            "id": 111616,
            "type": "Feature",
            "geometry": {
                "type": "Point",
                "coordinates": [
                    21.9044199,
                    50.00848
                ]
            },
            "properties": {
                "isced:level": "1;2",
                "ref:rspo": 111616,
                "official_name": "Szko\u0142a Podstawowa im. Marii Konopnickiej",
                "name": "Szko\u0142a Podstawowa",
                "addr:postcode": "36-047",
                "addr:place": "Rac\u0142aw\u00f3wka",
                "addr:housenumber": "215",
                "addr:city:simc": 645211,
                "phone": "+48 178717525",
                "email": "zs.raclawowka@boguchwala.pl",
                "website": "http:\/\/spraclawowka.edupage.org",
                "ref:regon": "001131922",
                "ref:vatin": "PL5170138326",
                "operator": "Gmina Boguchwa\u0142a",
                "operator:type": "government",
                "amenity": "school"
            }
        },
        {
            "id": 112083,
            "type": "Feature",
            "geometry": {
                "type": "Point",
                "coordinates": [
                    21.9044199,
                    50.008449999999996
                ]
            },
            "properties": {
                "ref:rspo": 112083,
                "official_name": "Punkt Przedszkolny \"Kraina Krasnoludk\u00f3w\" w Rac\u0142aw\u00f3wce",
                "name": "Punkt Przedszkolny \"Kraina Krasnoludk\u00f3w\" w Rac\u0142aw\u00f3wce",
                "addr:postcode": "36-047",
                "addr:place": "Rac\u0142aw\u00f3wka",
                "addr:housenumber": "215",
                "addr:city:simc": 645211,
                "phone": "+48 668144855",
                "email": "srogb@boguchwala.pl",
                "website": "http:\/\/www.srogb.pl",
                "ref:regon": "180954889",
                "operator": "Stowarzyszenie Rozwoju O\u015bwiaty Gminy Boguchwa\u0142a",
                "operator:type": "ngo",
                "amenity": "kindergarten"
            }
        },
        {
            "id": 112116,
            "type": "Feature",
            "geometry": {
                "type": "Point",
                "coordinates": [
                    21.85831,
                    50.01251
                ]
            },
            "properties": {
                "ref:rspo": 112116,
                "official_name": "Punkt Przedszkolny Smerfolandia w Zg\u0142obniu",
                "name": "Punkt Przedszkolny Smerfolandia w Zg\u0142obniu",
                "addr:postcode": "36-046",
                "addr:place": "Zg\u0142obie\u0144",
                "addr:housenumber": "70",
                "addr:city:simc": 645330,
                "phone": "+48 668144855",
                "email": "srogb@boguchwala.pl",
                "website": "http:\/\/www.srogb.pl",
                "ref:regon": "180955009",
                "operator": "Stowarzyszenie Rozwoju O\u015bwiaty Gminy Boguchwa\u0142a",
                "operator:type": "ngo",
                "amenity": "kindergarten"
            }
        },
        {
            "id": 109587,
            "type": "Feature",
            "geometry": {
                "type": "Point",
                "coordinates": [
                    21.85846,
                    50.01258
                ]
            },
            "properties": {
                "isced:level": "1;2",
                "ref:rspo": 109587,
                "official_name": "Szko\u0142a Podstawowa im. Kardyna\u0142a Stefana Wyszy\u0144skiego w Zg\u0142obniu",
                "name": "Szko\u0142a Podstawowa",
                "addr:postcode": "36-046",
                "addr:place": "Zg\u0142obie\u0144",
                "addr:housenumber": "71",
                "addr:city:simc": 645330,
                "phone": "+48 178506575",
                "email": "sp.zglobien@boguchwala.pl",
                "website": "http:\/\/www.spzglobien.pl",
                "ref:regon": "001131945",
                "ref:vatin": "PL8132186537",
                "operator": "Gmina Boguchwa\u0142a",
                "operator:type": "government",
                "amenity": "school"
            }
        },
        {
            "id": 109586,
            "type": "Feature",
            "geometry": {
                "type": "Point",
                "coordinates": [
                    21.8826,
                    50.02281
                ]
            },
            "properties": {
                "isced:level": "1;2",
                "ref:rspo": 109586,
                "official_name": "Szko\u0142a Podstawowa im. Wincentego Witosa w Nos\u00f3wce",
                "name": "Szko\u0142a Podstawowa",
                "addr:postcode": "36-046",
                "addr:place": "Nos\u00f3wka",
                "addr:housenumber": "186",
                "addr:city:simc": 645139,
                "phone": "+48 178716719",
                "email": "sp.nosowka@boguchwala.pl",
                "website": "http:\/\/www.sp.nosowka.pl",
                "ref:regon": "001131916",
                "ref:vatin": "PL8132186359",
                "operator": "Gmina Boguchwa\u0142a",
                "operator:type": "government",
                "amenity": "school"
            }
        },
        {
            "id": 112088,
            "type": "Feature",
            "geometry": {
                "type": "Point",
                "coordinates": [
                    21.8826,
                    50.02278
                ]
            },
            "properties": {
                "ref:rspo": 112088,
                "official_name": "Punkt Przedszkolny T\u0119czowy Zak\u0105tek w Nos\u00f3wce",
                "name": "Punkt Przedszkolny T\u0119czowy Zak\u0105tek w Nos\u00f3wce",
                "addr:postcode": "36-046",
                "addr:place": "Nos\u00f3wka",
                "addr:housenumber": "186",
                "addr:city:simc": 645139,
                "phone": "+48 668144855",
                "email": "srogb@boguchwala.pl",
                "website": "http:\/\/www.srogb.pl",
                "ref:regon": "180954926",
                "operator": "Stowarzyszenie Rozwoju O\u015bwiaty Gminy Boguchwa\u0142a",
                "operator:type": "ngo",
                "amenity": "kindergarten"
            }
        },
        {
            "id": 109577,
            "type": "Feature",
            "geometry": {
                "type": "Point",
                "coordinates": [
                    21.92903,
                    50.02718
                ]
            },
            "properties": {
                "ref:rspo": 109577,
                "official_name": "Zesp\u00f3\u0142 Szk\u00f3\u0142 w Kielan\u00f3wce",
                "name": "Zesp\u00f3\u0142 Szk\u00f3\u0142 w Kielan\u00f3wce",
                "addr:postcode": "35-106",
                "addr:place": "Kielan\u00f3wka",
                "addr:housenumber": "111",
                "addr:city:simc": 644855,
                "phone": "+48 178592634",
                "email": "sp.kielanowka@boguchwala.pl",
                "website": "http:\/\/zs.kielanowka.szkolnastrona.pl",
                "ref:regon": "001131862",
                "ref:vatin": "PL8132200349",
                "operator": "Gmina Boguchwa\u0142a",
                "operator:type": "government",
                "landuse": "education",
                "fixme": "amenity=school, amenity=college albo landuse=education w zale\u017cno\u015bci od tego, jakie plac\u00f3wki wchodz\u0105 w sk\u0142ad zespo\u0142u. Sprawd\u017a, kiedy stosowa\u0107 amenity=* a kiedy landuse=education.",
                "note": "Children RSPO: 111631;111636"
            }
        },
        {
            "id": 111631,
            "type": "Feature",
            "geometry": {
                "type": "Point",
                "coordinates": [
                    21.92903,
                    50.02715
                ]
            },
            "properties": {
                "isced:level": "1;2",
                "ref:rspo": 111631,
                "official_name": "Szko\u0142a Podstawowa im.armii Krajowej",
                "name": "Szko\u0142a Podstawowa im.armii Krajowej",
                "addr:postcode": "35-106",
                "addr:place": "Kielan\u00f3wka",
                "addr:housenumber": "111",
                "addr:city:simc": 644855,
                "phone": "+48 178592634",
                "email": "sp.kielanowka@boguchwala.pl",
                "website": "http:\/\/www.zskielanowka.pl",
                "ref:regon": "180152598",
                "ref:vatin": "PL8132200349",
                "operator": "Gmina Boguchwa\u0142a",
                "operator:type": "government",
                "amenity": "school",
                "note": "Parent RSPO: 109577"
            }
        },
        {
            "id": 111636,
            "type": "Feature",
            "geometry": {
                "type": "Point",
                "coordinates": [
                    21.92903,
                    50.027120000000004
                ]
            },
            "properties": {
                "ref:rspo": 111636,
                "official_name": "Przedszkole Publiczne",
                "name": "Przedszkole Publiczne",
                "addr:postcode": "35-106",
                "addr:place": "Kielan\u00f3wka",
                "addr:housenumber": "111",
                "addr:city:simc": 644855,
                "phone": "+48 178592634",
                "email": "sp.kielanowka@boguchwala.pl",
                "ref:regon": "180152581",
                "ref:vatin": "PL8132200349",
                "operator": "Gmina Boguchwa\u0142a",
                "operator:type": "government",
                "amenity": "kindergarten",
                "note": "Parent RSPO: 109577"
            }
        }
    ]
}