{"type":"FeatureCollection","features":[{"id":113608,"type":"Feature","geometry":{"type":"Point","coordinates":[22.10995,50.30032]},"properties":{"isced:level":"1;2","ref:rspo":113608,"official_name":"Szko\u0142a Podstawowa im. B\u0142ogos\u0142awionego Ksi\u0119dza Jerzego Popie\u0142uszki w Kamieniu Krzywej Wsi","name":"Szko\u0142a Podstawowa","addr:country":"PL","addr:postcode":"36-053","addr:city":"Kamie\u0144","addr:street":"ul. Krzywa Wie\u015b","addr:housenumber":"127","addr:teryt:simc":48977,"addr:teryt:sym_ul":651967,"contact:phone":"+48 178556035","contact:email":"sp_krzywawies@poczta.onet.pl","contact:website":"https:\/\/spkrzywawies.edupage.org\/","ref:regon":"001131371","ref:vatin":"PL8141444950","operator":"Gmina Kamie\u0144","operator:type":"government","amenity":"school"}},{"id":113456,"type":"Feature","geometry":{"type":"Point","coordinates":[22.1803713,50.3029237]},"properties":{"ref:rspo":113456,"official_name":"Zesp\u00f3\u0142 Szk\u00f3\u0142 im.jana Paw\u0142a II w \u0141owisku","name":"Zesp\u00f3\u0142 Szk\u00f3\u0142 im.jana Paw\u0142a II w \u0141owisku","addr:country":"PL","addr:postcode":"36-053","addr:place":"\u0141owisko","addr:housenumber":"181","addr:teryt:sym_ul":652122,"contact:phone":"+48 178556011","contact:email":"zslowisko@wp.pl","contact:website":"http:\/\/www.zslowisko.neostrada.pl","ref:regon":"691757529","ref:vatin":"PL5170055190","operator":"Gmina Kamie\u0144","operator:type":"government","landuse":"education","fixme":"amenity=school, amenity=college albo landuse=education w zale\u017cno\u015bci od tego, jakie plac\u00f3wki wchodz\u0105 w sk\u0142ad zespo\u0142u. Sprawd\u017a, kiedy stosowa\u0107 amenity=* a kiedy landuse=education.","note":"Children RSPO: 113966;114020"}},{"id":113966,"type":"Feature","geometry":{"type":"Point","coordinates":[22.1803713,50.3028937]},"properties":{"isced:level":"1;2","ref:rspo":113966,"official_name":"Szko\u0142a Podstawowa im. Jana Paw\u0142a II w \u0141owisku","name":"Szko\u0142a Podstawowa","addr:country":"PL","addr:postcode":"36-053","addr:place":"\u0141owisko","addr:housenumber":"181","addr:teryt:sym_ul":652122,"contact:phone":"+48 178556011","contact:email":"zslowisko@wp.pl","ref:regon":"001131388","operator":"Gmina Kamie\u0144","operator:type":"government","amenity":"school","note":"Parent RSPO: 113456"}},{"id":114020,"type":"Feature","geometry":{"type":"Point","coordinates":[22.1803713,50.3028637]},"properties":{"ref:rspo":114020,"official_name":"Przedszkole Publiczne w \u0141owisku","name":"Przedszkole Publiczne w \u0141owisku","addr:country":"PL","addr:postcode":"36-053","addr:place":"\u0141owisko","addr:housenumber":"181","addr:teryt:sym_ul":652122,"contact:phone":"+48 178556011","contact:email":"zslowisko@wp.pl","ref:regon":"690010580","operator":"Gmina Kamie\u0144","operator:type":"government","amenity":"kindergarten","note":"Parent RSPO: 113456"}},{"id":263117,"type":"Feature","geometry":{"type":"Point","coordinates":[22.13628,50.32129]},"properties":{"ref:rspo":263117,"official_name":"Przedszkole Samorz\u0105dowe w Kamieniu","name":"Przedszkole Samorz\u0105dowe w Kamieniu","addr:country":"PL","addr:postcode":"36-053","addr:place":"Kamie\u0144","addr:housenumber":"383A","addr:teryt:sym_ul":651967,"contact:phone":"+48 177720360","contact:email":"pskamien@wp.pl","ref:regon":"368108123","operator":"Gmina Kamie\u0144","operator:type":"government","amenity":"kindergarten","note":"Parent RSPO: 113457"}},{"id":113556,"type":"Feature","geometry":{"type":"Point","coordinates":[22.09058,50.32531]},"properties":{"isced:level":"1;2","ref:rspo":113556,"official_name":"Szko\u0142a Podstawowa im. \u015aw. Floriana w Kamieniu Podlesiu","name":"Szko\u0142a Podstawowa","addr:country":"PL","addr:postcode":"36-053","addr:city":"Kamie\u0144","addr:street":"ul. Podlesie","addr:housenumber":"151","addr:teryt:simc":16795,"addr:teryt:sym_ul":651967,"contact:phone":"+48 178556036","contact:email":"sp_podlesie@poczta.fm","contact:website":"http:\/\/sppodlesie.edupage.org","ref:regon":"001131359","ref:vatin":"PL8141444967","operator":"Gmina Kamie\u0144","operator:type":"government","amenity":"school"}},{"id":118649,"type":"Feature","geometry":{"type":"Point","coordinates":[22.1381799,50.32853]},"properties":{"ref:rspo":118649,"official_name":"Szko\u0142a Muzyczna I Stopnia w Kamieniu","name":"Szko\u0142a Muzyczna I Stopnia w Kamieniu","addr:country":"PL","addr:postcode":"36-053","addr:place":"Kamie\u0144","addr:housenumber":"376","addr:teryt:sym_ul":651967,"contact:phone":"+48 175831542","contact:email":"smkamien@poczta.fm","contact:website":"http:\/\/www.muzyczna.net","ref:regon":"181005630","ref:vatin":"PL5170363520","operator":"Gmina Kamie\u0144","operator:type":"government","amenity":"music_school"}},{"id":113784,"type":"Feature","geometry":{"type":"Point","coordinates":[22.13141,50.34286]},"properties":{"ref:rspo":113784,"official_name":"Przedszkole Parafialne w Kamieniu","name":"Przedszkole Parafialne w Kamieniu","addr:country":"PL","addr:postcode":"36-053","addr:place":"Kamie\u0144","addr:housenumber":"202","addr:teryt:sym_ul":651967,"contact:phone":"+48 720834391","contact:email":"przedszkolekamien@gmail.com","contact:website":"http:\/\/www.kamien.edl.pl","ref:regon":"180963606","ref:vatin":"PL8141430652","operator":"Parafia Rzymsko-Katolicka P.w. Naj\u015bwi\u0119tszego Serca Pana Jezusa","operator:type":"religious","amenity":"kindergarten"}},{"id":113455,"type":"Feature","geometry":{"type":"Point","coordinates":[22.13142,50.34415]},"properties":{"isced:level":"1;2","ref:rspo":113455,"official_name":"Szko\u0142a Podstawowa im. \u015aw. Jadwigi Kr\u00f3lowej w Kamieniu Prusinie","name":"Szko\u0142a Podstawowa","addr:country":"PL","addr:postcode":"36-053","addr:place":"Kamie\u0144","addr:housenumber":"119","addr:teryt:sym_ul":651967,"contact:phone":"+48 178556019","contact:email":"36053s@gazeta.pl","contact:website":"http:\/\/www.spprusina.edupage.org","ref:regon":"001131365","ref:vatin":"PL8141444996","operator":"Gmina Kamie\u0144","operator:type":"government","amenity":"school"}},{"id":113457,"type":"Feature","geometry":{"type":"Point","coordinates":[22.11867,50.35795]},"properties":{"ref:rspo":113457,"official_name":"Zesp\u00f3\u0142 Szk\u00f3\u0142 im.\u015bw.stanis\u0142awa Kostki w Kamieniu","name":"Zesp\u00f3\u0142 Szk\u00f3\u0142 im.\u015bw.stanis\u0142awa Kostki w Kamieniu","addr:country":"PL","addr:postcode":"36-053","addr:place":"Nowy Kamie\u0144","addr:housenumber":"26","addr:teryt:sym_ul":652145,"contact:phone":"+48 178556516","contact:email":"zskamien@gmail.com","contact:website":"http:\/\/www.zskamien.edupage.org","ref:regon":"691791992","ref:vatin":"PL5170096102","operator":"Gmina Kamie\u0144","operator:type":"government","landuse":"education","fixme":"amenity=school, amenity=college albo landuse=education w zale\u017cno\u015bci od tego, jakie plac\u00f3wki wchodz\u0105 w sk\u0142ad zespo\u0142u. Sprawd\u017a, kiedy stosowa\u0107 amenity=* a kiedy landuse=education.","note":"Children RSPO: 114068;114069;114253;126328;263117;272717;275485"}},{"id":114068,"type":"Feature","geometry":{"type":"Point","coordinates":[22.11867,50.35792]},"properties":{"isced:level":"3","ref:rspo":114068,"official_name":"Liceum Og\u00f3lnokszta\u0142c\u0105ce w Kamieniu","name":"Liceum Og\u00f3lnokszta\u0142c\u0105ce w Kamieniu","addr:country":"PL","addr:postcode":"36-053","addr:place":"Nowy Kamie\u0144","addr:housenumber":"26","addr:teryt:sym_ul":652145,"contact:phone":"+48 178556516","contact:email":"zskamien@gmail.com","contact:website":"http:\/\/www.zskamien.com\/","ref:regon":"691791970","operator":"Gmina Kamie\u0144","operator:type":"government","amenity":"school","note":"Parent RSPO: 113457"}},{"id":114069,"type":"Feature","geometry":{"type":"Point","coordinates":[22.11867,50.357890000000005]},"properties":{"isced:level":"3","ref:rspo":114069,"official_name":"Bran\u017cowa Szko\u0142a I Stopnia","name":"Bran\u017cowa Szko\u0142a I Stopnia","addr:country":"PL","addr:postcode":"36-053","addr:place":"Nowy Kamie\u0144","addr:housenumber":"26","addr:teryt:sym_ul":652145,"contact:phone":"+48 178556516","contact:email":"zskamien@gmail.com","contact:website":"http:\/\/www.zskamien.com\/","ref:regon":"180607107","operator":"Gmina Kamie\u0144","operator:type":"government","amenity":"school","note":"Parent RSPO: 113457"}},{"id":114253,"type":"Feature","geometry":{"type":"Point","coordinates":[22.11867,50.35786]},"properties":{"isced:level":"1;2","ref:rspo":114253,"official_name":"Szko\u0142a Podstawowa im. \u015aw. Stanis\u0142awa Kostki w Kamieniu","name":"Szko\u0142a Podstawowa","addr:country":"PL","addr:postcode":"36-053","addr:place":"Nowy Kamie\u0144","addr:housenumber":"26","addr:teryt:sym_ul":652145,"contact:phone":"+48 178556516","contact:email":"zskamien@gmail.com","contact:website":"http:\/\/www.zskamien.com","ref:regon":"000640053","operator":"Gmina Kamie\u0144","operator:type":"government","amenity":"school","note":"Parent RSPO: 113457"}},{"id":126328,"type":"Feature","geometry":{"type":"Point","coordinates":[22.11867,50.35783]},"properties":{"ref:rspo":126328,"official_name":"Szkolne Schronisko M\u0142odzie\u017cowe w Kamieniu","name":"Szkolne Schronisko M\u0142odzie\u017cowe w Kamieniu","addr:country":"PL","addr:postcode":"36-053","addr:place":"Nowy Kamie\u0144","addr:housenumber":"26","addr:teryt:sym_ul":652145,"contact:phone":"+48 178556516","contact:email":"zskamien@gmail.com","contact:website":"http:\/\/www.zskamien.com","ref:regon":"180007360","operator":"Gmina Kamie\u0144","operator:type":"government","tourism":"hostel","note":"Parent RSPO: 113457"}},{"id":272717,"type":"Feature","geometry":{"type":"Point","coordinates":[22.11867,50.357800000000005]},"properties":{"isced:level":"3","ref:rspo":272717,"official_name":"Liceum Og\u00f3lnokszta\u0142c\u0105ce dla Doros\u0142ych","name":"Liceum Og\u00f3lnokszta\u0142c\u0105ce dla Doros\u0142ych","addr:country":"PL","addr:postcode":"36-053","addr:place":"Nowy Kamie\u0144","addr:housenumber":"26","addr:teryt:sym_ul":652145,"contact:phone":"+48 178556516","contact:email":"zskamien@gmail.com.pl","ref:regon":"384280648","operator":"Gmina Kamie\u0144","operator:type":"government","amenity":"school","note":"Parent RSPO: 113457"}},{"id":275485,"type":"Feature","geometry":{"type":"Point","coordinates":[22.11867,50.35777]},"properties":{"isced:level":"3","ref:rspo":275485,"official_name":"Bran\u017cowa Szko\u0142a II Stopnia","name":"Bran\u017cowa Szko\u0142a II Stopnia","addr:country":"PL","addr:postcode":"36-053","addr:place":"Nowy Kamie\u0144","addr:housenumber":"26","addr:teryt:sym_ul":652145,"contact:phone":"+48 178556516","contact:email":"zskamien@gmail.com","contact:website":"http:\/\/www.zskamien.com","ref:regon":"386919630","operator":"Gmina Kamie\u0144","operator:type":"government","amenity":"school","note":"Parent RSPO: 113457"}}]}