{
    "type": "FeatureCollection",
    "features": [
        {
            "id": 106190,
            "type": "Feature",
            "geometry": {
                "type": "Point",
                "coordinates": [
                    22.13151,
                    49.85615
                ]
            },
            "properties": {
                "isced:level": "1;2",
                "ref:rspo": 106190,
                "official_name": "Szko\u0142a Podstawowa im.\u015bw. Jana Kantego w Futomie",
                "name": "Szko\u0142a Podstawowa im.\u015bw. Jana Kantego w Futomie",
                "addr:country": "PL",
                "addr:postcode": "36-030",
                "addr:place": "Futoma",
                "addr:housenumber": "168",
                "addr:teryt:sym_ul": 644068,
                "contact:phone": "+48 172297446",
                "contact:email": "spfut@spfutoma.ostnet.pl",
                "contact:website": "http:\/\/www.spfutoma.ostnet.pl",
                "ref:regon": "001132175",
                "ref:vatin": "PL8132675673",
                "operator": "Gmina B\u0142a\u017cowa",
                "operator:type": "government",
                "amenity": "school"
            }
        },
        {
            "id": 106636,
            "type": "Feature",
            "geometry": {
                "type": "Point",
                "coordinates": [
                    22.068,
                    49.85854
                ]
            },
            "properties": {
                "isced:level": "1;2",
                "ref:rspo": 106636,
                "official_name": "Szko\u0142a Podstawowa im.marii Konopnickiej w K\u0105kol\u00f3wce",
                "name": "Szko\u0142a Podstawowa im.marii Konopnickiej w K\u0105kol\u00f3wce",
                "addr:country": "PL",
                "addr:postcode": "36-030",
                "addr:place": "K\u0105kol\u00f3wka",
                "addr:housenumber": "466",
                "addr:teryt:sym_ul": 644200,
                "contact:phone": "+48 172297774",
                "contact:email": "spkakolowka@gmail.com",
                "contact:website": "http:\/\/www.spkakolowka.pl",
                "ref:regon": "001132181",
                "ref:vatin": "PL8132675762",
                "operator": "Gmina B\u0142a\u017cowa",
                "operator:type": "government",
                "amenity": "school"
            }
        },
        {
            "id": 105988,
            "type": "Feature",
            "geometry": {
                "type": "Point",
                "coordinates": [
                    22.03994,
                    49.86998
                ]
            },
            "properties": {
                "isced:level": "1;2",
                "ref:rspo": 105988,
                "official_name": "Szko\u0142a Podstawowa w Bia\u0142ce",
                "name": "Szko\u0142a Podstawowa w Bia\u0142ce",
                "addr:country": "PL",
                "addr:postcode": "36-030",
                "addr:place": "Bia\u0142ka",
                "addr:housenumber": "175",
                "addr:teryt:sym_ul": 643880,
                "contact:phone": "+48 172297782",
                "contact:email": "sp_bialka2@wp.pl",
                "contact:website": "http:\/\/www.spbialka2.szkolnastrona.pl",
                "ref:regon": "001132146",
                "ref:vatin": "PL8132675271",
                "operator": "Gmina B\u0142a\u017cowa",
                "operator:type": "government",
                "amenity": "school"
            }
        },
        {
            "id": 106643,
            "type": "Feature",
            "geometry": {
                "type": "Point",
                "coordinates": [
                    22.15381,
                    49.8768
                ]
            },
            "properties": {
                "isced:level": "1;2",
                "ref:rspo": 106643,
                "official_name": "Szko\u0142a Podstawowa im.jana Paw\u0142a II w Pi\u0105tkowej",
                "name": "Szko\u0142a Podstawowa im.jana Paw\u0142a II w Pi\u0105tkowej",
                "addr:country": "PL",
                "addr:postcode": "36-030",
                "addr:place": "Pi\u0105tkowa",
                "addr:housenumber": "429",
                "addr:teryt:sym_ul": 644588,
                "contact:phone": "+48 172297682",
                "contact:email": "sp.piatkowa429@gmail.com",
                "contact:website": "https:\/\/sp-piatkowa.edupage.org\/",
                "ref:regon": "001132206",
                "ref:vatin": "PL8132727772",
                "operator": "Gmina B\u0142a\u017cowa",
                "operator:type": "government",
                "amenity": "school"
            }
        },
        {
            "id": 106315,
            "type": "Feature",
            "geometry": {
                "type": "Point",
                "coordinates": [
                    22.01429,
                    49.8781899
                ]
            },
            "properties": {
                "isced:level": "1;2",
                "ref:rspo": 106315,
                "official_name": "Szko\u0142a Podstawowa im. Kardyna\u0142a Stefana Wyszynskiego w Lecce",
                "name": "Szko\u0142a Podstawowa",
                "addr:country": "PL",
                "addr:postcode": "36-030",
                "addr:place": "Lecka",
                "addr:housenumber": "230",
                "addr:teryt:sym_ul": 644312,
                "contact:phone": "+48 172290212",
                "contact:email": "splecka230@wp.pl",
                "contact:website": "http:\/\/www.splecka.pl",
                "ref:regon": "001132198",
                "ref:vatin": "PL8132675733",
                "operator": "Gmina B\u0142a\u017cowa",
                "operator:type": "government",
                "amenity": "school"
            }
        },
        {
            "id": 106646,
            "type": "Feature",
            "geometry": {
                "type": "Point",
                "coordinates": [
                    22.1024299,
                    49.88554
                ]
            },
            "properties": {
                "ref:rspo": 106646,
                "official_name": "Zesp\u00f3\u0142 Szk\u00f3\u0142 w B\u0142a\u017cowej",
                "name": "Zesp\u00f3\u0142 Szk\u00f3\u0142 w B\u0142a\u017cowej",
                "addr:country": "PL",
                "addr:postcode": "36-030",
                "addr:city": "B\u0142a\u017cowa",
                "addr:street": "Plac Ksi\u0119dza Adolfa Kowala",
                "addr:housenumber": "3",
                "addr:teryt:simc": 39475,
                "addr:teryt:sym_ul": 974280,
                "contact:phone": "+48 172301100",
                "contact:email": "dyrektor.zsblazowa@gmail.com",
                "ref:regon": "690681617",
                "ref:vatin": "PL8132857664",
                "operator": "Gmina B\u0142a\u017cowa",
                "operator:type": "government",
                "landuse": "education",
                "fixme": "amenity=school, amenity=college albo landuse=education w zale\u017cno\u015bci od tego, jakie plac\u00f3wki wchodz\u0105 w sk\u0142ad zespo\u0142u. Sprawd\u017a, kiedy stosowa\u0107 amenity=* a kiedy landuse=education.",
                "note": "Children RSPO: 107354;107377"
            }
        },
        {
            "id": 119086,
            "type": "Feature",
            "geometry": {
                "type": "Point",
                "coordinates": [
                    22.1024299,
                    49.88551
                ]
            },
            "properties": {
                "ref:rspo": 119086,
                "official_name": "Szko\u0142a Muzyczna I Stopnia w B\u0142a\u017cowej",
                "name": "Szko\u0142a Muzyczna I Stopnia w B\u0142a\u017cowej",
                "addr:country": "PL",
                "addr:postcode": "36-030",
                "addr:city": "B\u0142a\u017cowa",
                "addr:street": "Plac Ksi\u0119dza Adolfa Kowala",
                "addr:housenumber": "3",
                "addr:teryt:simc": 39475,
                "addr:teryt:sym_ul": 974280,
                "contact:phone": "+48 172297063",
                "contact:email": "smblazowa@gmail.com",
                "contact:website": "http:\/\/www.szkolamuzyczna.blazowa.net",
                "ref:regon": "181013367",
                "ref:vatin": "PL8133680191",
                "operator": "Gmina B\u0142a\u017cowa",
                "operator:type": "government",
                "amenity": "music_school"
            }
        },
        {
            "id": 107377,
            "type": "Feature",
            "geometry": {
                "type": "Point",
                "coordinates": [
                    22.1024299,
                    49.88548
                ]
            },
            "properties": {
                "isced:level": "3",
                "ref:rspo": 107377,
                "official_name": "Liceum Og\u00f3lnokszta\u0142c\u0105ce w B\u0142a\u017cowej",
                "name": "Liceum Og\u00f3lnokszta\u0142c\u0105ce w B\u0142a\u017cowej",
                "addr:country": "PL",
                "addr:postcode": "36-030",
                "addr:city": "B\u0142a\u017cowa",
                "addr:street": "Plac Ksi\u0119dza Adolfa Kowala",
                "addr:housenumber": "3",
                "addr:teryt:simc": 39475,
                "addr:teryt:sym_ul": 974280,
                "contact:phone": "+48 172297063",
                "contact:email": "dyrektor.zsblazowa@gmail.com",
                "contact:website": "http:\/\/www.lo.blazowa.net",
                "ref:regon": "691681000",
                "ref:vatin": "PL8132857664",
                "operator": "Gmina B\u0142a\u017cowa",
                "operator:type": "government",
                "amenity": "school",
                "note": "Parent RSPO: 106646"
            }
        },
        {
            "id": 105964,
            "type": "Feature",
            "geometry": {
                "type": "Point",
                "coordinates": [
                    22.10303,
                    49.88597
                ]
            },
            "properties": {
                "ref:rspo": 105964,
                "official_name": "Przedszkole Publiczne w B\u0142a\u017cowej",
                "name": "Przedszkole Publiczne w B\u0142a\u017cowej",
                "addr:country": "PL",
                "addr:postcode": "36-030",
                "addr:city": "B\u0142a\u017cowa",
                "addr:street": "Kapitana J\u00f3zefa Lutaka",
                "addr:housenumber": "14",
                "addr:teryt:simc": 11427,
                "addr:teryt:sym_ul": 974280,
                "contact:phone": "+48 172297003",
                "contact:email": "przedszkole_blazowa@poczta.onet.pl",
                "contact:website": "http:\/\/www.przedszkole.blazowa.net",
                "ref:regon": "690007370",
                "ref:vatin": "PL8132899817",
                "operator": "Gmina B\u0142a\u017cowa",
                "operator:type": "government",
                "amenity": "kindergarten"
            }
        },
        {
            "id": 107354,
            "type": "Feature",
            "geometry": {
                "type": "Point",
                "coordinates": [
                    22.1,
                    49.88741
                ]
            },
            "properties": {
                "isced:level": "1;2",
                "ref:rspo": 107354,
                "official_name": "Publiczna Szko\u0142a Podstawowa im.kr\u00f3la W\u0142adys\u0142awa Jagie\u0142\u0142y I Anny Jenke w B\u0142a\u017cowej",
                "name": "Publiczna Szko\u0142a Podstawowa im.kr\u00f3la W\u0142adys\u0142awa Jagie\u0142\u0142y I Anny Jenke w B\u0142a\u017cowej",
                "addr:country": "PL",
                "addr:postcode": "36-030",
                "addr:city": "B\u0142a\u017cowa",
                "addr:street": "Armii Krajowej",
                "addr:housenumber": "11",
                "addr:teryt:simc": 432,
                "addr:teryt:sym_ul": 974280,
                "contact:phone": "+48 172297015",
                "contact:email": "zs.spblazowa@gmail.com",
                "contact:website": "http:\/\/www.sp.blazowa.net",
                "ref:regon": "000261781",
                "ref:vatin": "PL8132857641",
                "operator": "Gmina B\u0142a\u017cowa",
                "operator:type": "government",
                "amenity": "school",
                "note": "Parent RSPO: 106646"
            }
        },
        {
            "id": 106075,
            "type": "Feature",
            "geometry": {
                "type": "Point",
                "coordinates": [
                    22.09588,
                    49.90387
                ]
            },
            "properties": {
                "isced:level": "1;2",
                "ref:rspo": 106075,
                "official_name": "Szko\u0142a Podstawowa im.armii Krajowej w B\u0142a\u017cowej Dolnej",
                "name": "Szko\u0142a Podstawowa im.armii Krajowej w B\u0142a\u017cowej Dolnej",
                "addr:country": "PL",
                "addr:postcode": "36-030",
                "addr:place": "B\u0142a\u017cowa Dolna",
                "addr:housenumber": "196",
                "addr:teryt:sym_ul": 643956,
                "contact:phone": "+48 172297033",
                "contact:email": "spdolna@intertele.pl",
                "contact:website": "http:\/\/www.spdolna.itl.pl",
                "ref:regon": "001132152",
                "ref:vatin": "PL8132858793",
                "operator": "Gmina B\u0142a\u017cowa",
                "operator:type": "government",
                "amenity": "school"
            }
        },
        {
            "id": 106639,
            "type": "Feature",
            "geometry": {
                "type": "Point",
                "coordinates": [
                    22.08121,
                    49.92866
                ]
            },
            "properties": {
                "isced:level": "1;2",
                "ref:rspo": 106639,
                "official_name": "Szko\u0142a Podstawowa im.genera\u0142a Brygady Mieczys\u0142awa Boruty-Spiechowicza w Nowym Borku",
                "name": "Szko\u0142a Podstawowa im.genera\u0142a Brygady Mieczys\u0142awa Boruty-Spiechowicza w Nowym Borku",
                "addr:country": "PL",
                "addr:postcode": "36-030",
                "addr:place": "Nowy Borek",
                "addr:housenumber": "331",
                "addr:teryt:sym_ul": 644401,
                "contact:phone": "+48 172298235",
                "contact:email": "spnborek@gmail.com",
                "contact:website": "http:\/\/www.spnborek.ostnet.pl",
                "ref:regon": "001132169",
                "ref:vatin": "PL8132294190",
                "operator": "Gmina B\u0142a\u017cowa",
                "operator:type": "government",
                "amenity": "school"
            }
        }
    ]
}