{
    "type": "FeatureCollection",
    "features": [
        {
            "id": 24909,
            "type": "Feature",
            "geometry": {
                "type": "Point",
                "coordinates": [
                    19.17152,
                    52.83863
                ]
            },
            "properties": {
                "ref:rspo": 24909,
                "official_name": "Przedszkole Miejskie nr 3",
                "name": "Przedszkole Miejskie nr 3",
                "addr:postcode": "87-600",
                "addr:city": "Lipno",
                "addr:street": "W\u0142oc\u0142awska",
                "addr:housenumber": "18A",
                "addr:city:simc": 985830,
                "addr:street:sym_ul": 24504,
                "phone": "+48 542872443",
                "email": "pm3lipno@wp.pl",
                "ref:regon": "910004730",
                "ref:vatin": "PL8931297816",
                "operator": "Gmina Miasta Lipna",
                "operator:type": "government",
                "amenity": "kindergarten"
            }
        },
        {
            "id": 42039,
            "type": "Feature",
            "geometry": {
                "type": "Point",
                "coordinates": [
                    19.16358,
                    52.8393299
                ]
            },
            "properties": {
                "ref:rspo": 42039,
                "official_name": "Niepubliczne Przedszkole ,,Klub Malucha''",
                "name": "Niepubliczne Przedszkole ,,Klub Malucha''",
                "addr:postcode": "87-600",
                "addr:city": "Lipno",
                "addr:street": "Sierakowskiego",
                "addr:housenumber": "59",
                "addr:city:simc": 985830,
                "addr:street:sym_ul": 19849,
                "ref:regon": "341340973",
                "ref:vatin": "PL4660210958",
                "operator": "Iwona Kwa\u015bniewska",
                "operator:type": "private",
                "amenity": "kindergarten"
            }
        },
        {
            "id": 15070,
            "type": "Feature",
            "geometry": {
                "type": "Point",
                "coordinates": [
                    19.17882,
                    52.83971
                ]
            },
            "properties": {
                "ref:rspo": 15070,
                "official_name": "Poradnia Psychologiczno-Pedagogiczna w Lipnie",
                "name": "Poradnia Psychologiczno-Pedagogiczna w Lipnie",
                "addr:postcode": "87-600",
                "addr:city": "Lipno",
                "addr:street": "Plac 11 Listopada",
                "addr:housenumber": "9",
                "addr:city:simc": 985830,
                "addr:street:sym_ul": 52699,
                "phone": "+48 542872492",
                "email": "sekretariat@poradnialipno.pl",
                "website": "http:\/\/poradnialipno.pl",
                "ref:regon": "001058421",
                "ref:vatin": "PL4660225865",
                "operator": "Powiat Lipnowski",
                "operator:type": "government",
                "healthcare": "counselling",
                "counselling_type": "education",
                "fixme": "w zale\u017cno\u015bci od przedmiotu dzia\u0142alno\u015bci (np. healthcare=counselling + counselling_type=education albo healthcare=psychotherapist)"
            }
        },
        {
            "id": 75465,
            "type": "Feature",
            "geometry": {
                "type": "Point",
                "coordinates": [
                    19.17831,
                    52.84078
                ]
            },
            "properties": {
                "isced:level": "1;2",
                "ref:rspo": 75465,
                "official_name": "Szko\u0142a Podstawowa nr 5Im. Jana Paw\u0142a Ii",
                "name": "Szko\u0142a Podstawowa nr 5Im. Jana Paw\u0142a Ii",
                "addr:postcode": "87-600",
                "addr:city": "Lipno",
                "addr:street": "Plac 11 Listopada",
                "addr:housenumber": "13",
                "addr:city:simc": 985830,
                "addr:street:sym_ul": 52699,
                "phone": "+48 542872484",
                "email": "sp5_lipno@op.pl",
                "website": "http:\/\/sp5lipno.pl",
                "ref:regon": "005874270",
                "ref:vatin": "PL8931168510",
                "operator": "Gmina Miasta Lipna",
                "operator:type": "government",
                "amenity": "school"
            }
        },
        {
            "id": 276645,
            "type": "Feature",
            "geometry": {
                "type": "Point",
                "coordinates": [
                    19.17831,
                    52.84075
                ]
            },
            "properties": {
                "ref:rspo": 276645,
                "official_name": "Niepubliczna Plac\u00f3wka Kszta\u0142cenia Ustawicznego Lipnowskiego Wopr w Lipnie",
                "name": "Niepubliczna Plac\u00f3wka Kszta\u0142cenia Ustawicznego Lipnowskiego Wopr w Lipnie",
                "addr:postcode": "87-600",
                "addr:city": "Lipno",
                "addr:street": "Plac 11 Listopada",
                "addr:housenumber": "13A",
                "addr:city:simc": 985830,
                "addr:street:sym_ul": 52699,
                "email": "biurowoprlipno@wp.pl",
                "website": "http:\/\/woprlipno.pl\/",
                "ref:regon": "387332506",
                "operator": "Lipnowskie Wodne Ochotnicze Pogotowie Ratunkowe",
                "operator:type": "ngo",
                "fixme": "w zale\u017cno\u015bci od przedmiotu dzia\u0142alno\u015bci (np. amenity=training + training=*, amenity=dancing_school, amenity=language_school, amenity=music_school)"
            }
        },
        {
            "id": 272009,
            "type": "Feature",
            "geometry": {
                "type": "Point",
                "coordinates": [
                    19.18724,
                    52.84084
                ]
            },
            "properties": {
                "ref:rspo": 272009,
                "official_name": "Zesp\u00f3\u0142 Szk\u00f3\u0142 Specjalnych",
                "name": "Zesp\u00f3\u0142 Szk\u00f3\u0142 Specjalnych",
                "addr:postcode": "87-600",
                "addr:city": "Lipno",
                "addr:street": "Stefana Okrzei",
                "addr:housenumber": "4",
                "addr:city:simc": 985830,
                "addr:street:sym_ul": 14914,
                "phone": "+48 542874390",
                "email": "zsslipno@op.pl",
                "website": "http:\/\/www.zsslipno.pl",
                "ref:regon": "383871353",
                "operator": "Powiat Lipnowski",
                "operator:type": "government",
                "landuse": "education",
                "fixme": "amenity=school, amenity=college albo landuse=education w zale\u017cno\u015bci od tego, jakie plac\u00f3wki wchodz\u0105 w sk\u0142ad zespo\u0142u. Sprawd\u017a, kiedy stosowa\u0107 amenity=* a kiedy landuse=education.",
                "note": "Children RSPO: 11051;271555"
            }
        },
        {
            "id": 11051,
            "type": "Feature",
            "geometry": {
                "type": "Point",
                "coordinates": [
                    19.18724,
                    52.84081
                ]
            },
            "properties": {
                "isced:level": "1;2",
                "ref:rspo": 11051,
                "official_name": "Szko\u0142a Podstawowa Specjalna nr 4 im. Janusza Korczaka w Lipnie",
                "name": "Szko\u0142a Podstawowa Specjalna nr 4",
                "addr:postcode": "87-600",
                "addr:city": "Lipno",
                "addr:street": "Stefana Okrzei",
                "addr:housenumber": "4",
                "addr:city:simc": 985830,
                "addr:street:sym_ul": 14914,
                "phone": "+48 542874390",
                "email": "zsslipno@op.pl",
                "website": "http:\/\/zsslipno.pl",
                "ref:regon": "000772263",
                "ref:vatin": "PL4660210987",
                "operator": "Powiat Lipnowski",
                "operator:type": "government",
                "amenity": "school",
                "note": "Parent RSPO: 272009"
            }
        },
        {
            "id": 271555,
            "type": "Feature",
            "geometry": {
                "type": "Point",
                "coordinates": [
                    19.18724,
                    52.84078
                ]
            },
            "properties": {
                "ref:rspo": 271555,
                "official_name": "Szko\u0142a Specjalna Przysposabiaj\u0105ca do Pracy",
                "name": "Szko\u0142a Specjalna Przysposabiaj\u0105ca do Pracy",
                "addr:postcode": "87-600",
                "addr:city": "Lipno",
                "addr:street": "Stefana Okrzei",
                "addr:housenumber": "4",
                "addr:city:simc": 985830,
                "addr:street:sym_ul": 14914,
                "phone": "+48 542874390",
                "email": "zsslipno@op.pl",
                "website": "http:\/\/www.zsslipno.pl",
                "ref:regon": "383409057",
                "operator": "Powiat Lipnowski",
                "operator:type": "government",
                "amenity": "school",
                "note": "Parent RSPO: 272009"
            }
        },
        {
            "id": 6688,
            "type": "Feature",
            "geometry": {
                "type": "Point",
                "coordinates": [
                    19.18834,
                    52.84138
                ]
            },
            "properties": {
                "ref:rspo": 6688,
                "official_name": "Zesp\u00f3\u0142 Szk\u00f3\u0142 Technicznych im. Ziemi Dobrzy\u0144skiej w Lipnie",
                "name": "Zesp\u00f3\u0142 Szk\u00f3\u0142 Technicznych",
                "addr:postcode": "87-600",
                "addr:city": "Lipno",
                "addr:street": "Stefana Okrzei",
                "addr:housenumber": "3",
                "addr:city:simc": 985830,
                "addr:street:sym_ul": 14914,
                "phone": "+48 542873321",
                "email": "zstlipno@op.pl",
                "website": "http:\/\/www.zstlipno.edu.pl",
                "ref:regon": "000189256",
                "ref:vatin": "PL8931280508",
                "operator": "Powiat Lipnowski",
                "operator:type": "government",
                "landuse": "education",
                "fixme": "amenity=school, amenity=college albo landuse=education w zale\u017cno\u015bci od tego, jakie plac\u00f3wki wchodz\u0105 w sk\u0142ad zespo\u0142u. Sprawd\u017a, kiedy stosowa\u0107 amenity=* a kiedy landuse=education.",
                "note": "Children RSPO: 15013;15432;15472;16471;16472"
            }
        },
        {
            "id": 6724,
            "type": "Feature",
            "geometry": {
                "type": "Point",
                "coordinates": [
                    19.18834,
                    52.84135
                ]
            },
            "properties": {
                "ref:rspo": 6724,
                "official_name": "Publiczna Szko\u0142a Muzyczna I Stopnia w Lipnie",
                "name": "Publiczna Szko\u0142a Muzyczna I Stopnia w Lipnie",
                "addr:postcode": "87-600",
                "addr:city": "Lipno",
                "addr:street": "Stefana Okrzei",
                "addr:housenumber": "3",
                "addr:city:simc": 985830,
                "addr:street:sym_ul": 14914,
                "phone": "+48 542343389",
                "email": "sekretariat@muzycznalipno.pl",
                "website": "http:\/\/www.muzycznalipno.pl\/",
                "ref:regon": "341320829",
                "ref:vatin": "PL4660417719",
                "operator": "Powiat Lipnowski",
                "operator:type": "government",
                "amenity": "music_school"
            }
        },
        {
            "id": 89600,
            "type": "Feature",
            "geometry": {
                "type": "Point",
                "coordinates": [
                    19.18834,
                    52.84132
                ]
            },
            "properties": {
                "isced:level": "3",
                "ref:rspo": 89600,
                "official_name": "Prywatne Wieczorowe Liceum Og\u00f3lnokszta\u0142c\u0105ce w Lipnie",
                "name": "Prywatne Wieczorowe Liceum Og\u00f3lnokszta\u0142c\u0105ce w Lipnie",
                "addr:postcode": "87-600",
                "addr:city": "Lipno",
                "addr:street": "Stefana Okrzei",
                "addr:housenumber": "3",
                "addr:city:simc": 985830,
                "addr:street:sym_ul": 14914,
                "phone": "+48 542884757",
                "ref:regon": "341354834",
                "operator": "O\u015brodek Szkolenia Zawodowego \"Edukacja\" - Anna Radzka - Krystyna Warzy\u0144ska",
                "operator:type": "consortium",
                "amenity": "school"
            }
        },
        {
            "id": 15013,
            "type": "Feature",
            "geometry": {
                "type": "Point",
                "coordinates": [
                    19.18834,
                    52.84129
                ]
            },
            "properties": {
                "isced:level": "3",
                "ref:rspo": 15013,
                "official_name": "Bran\u017cowa Szko\u0142a Specjalna I Stopnia",
                "name": "Bran\u017cowa Szko\u0142a Specjalna I Stopnia",
                "addr:postcode": "87-600",
                "addr:city": "Lipno",
                "addr:street": "Stefana Okrzei",
                "addr:housenumber": "3",
                "addr:city:simc": 985830,
                "addr:street:sym_ul": 14914,
                "phone": "+48 542873321",
                "email": "zstlipno@op.pl",
                "website": "http:\/\/www.zstlipno.edu.pl",
                "ref:regon": "911306521",
                "operator": "Powiat Lipnowski",
                "operator:type": "government",
                "amenity": "school",
                "note": "Parent RSPO: 6688"
            }
        },
        {
            "id": 15432,
            "type": "Feature",
            "geometry": {
                "type": "Point",
                "coordinates": [
                    19.18834,
                    52.84126
                ]
            },
            "properties": {
                "isced:level": "3",
                "ref:rspo": 15432,
                "official_name": "Technikum",
                "name": "Technikum",
                "addr:postcode": "87-600",
                "addr:city": "Lipno",
                "addr:street": "Stefana Okrzei",
                "addr:housenumber": "3",
                "addr:city:simc": 985830,
                "addr:street:sym_ul": 14914,
                "phone": "+48 542873321",
                "email": "zstlipno@op.pl",
                "website": "http:\/\/www.zstlipno.edu.pl",
                "ref:regon": "911306550",
                "operator": "Powiat Lipnowski",
                "operator:type": "government",
                "amenity": "school",
                "note": "Parent RSPO: 6688"
            }
        },
        {
            "id": 15472,
            "type": "Feature",
            "geometry": {
                "type": "Point",
                "coordinates": [
                    19.18834,
                    52.84123
                ]
            },
            "properties": {
                "isced:level": "3",
                "ref:rspo": 15472,
                "official_name": "Liceum Og\u00f3lnokszta\u0142c\u0105ce dla Doros\u0142ych",
                "name": "Liceum Og\u00f3lnokszta\u0142c\u0105ce dla Doros\u0142ych",
                "addr:postcode": "87-600",
                "addr:city": "Lipno",
                "addr:street": "Stefana Okrzei",
                "addr:housenumber": "3",
                "addr:city:simc": 985830,
                "addr:street:sym_ul": 14914,
                "phone": "+48 542873321",
                "email": "zstlipno@op.pl",
                "website": "http:\/\/www.zstlipno.edu.pl",
                "ref:regon": "341328682",
                "operator": "Powiat Lipnowski",
                "operator:type": "government",
                "amenity": "school",
                "note": "Parent RSPO: 6688"
            }
        },
        {
            "id": 16471,
            "type": "Feature",
            "geometry": {
                "type": "Point",
                "coordinates": [
                    19.18834,
                    52.8412
                ]
            },
            "properties": {
                "ref:rspo": 16471,
                "official_name": "Centrum Kszta\u0142cenia Zawodowego",
                "name": "Centrum Kszta\u0142cenia Zawodowego",
                "addr:postcode": "87-600",
                "addr:city": "Lipno",
                "addr:street": "Stefana Okrzei",
                "addr:housenumber": "3",
                "addr:city:simc": 985830,
                "addr:street:sym_ul": 14914,
                "phone": "+48 542872793",
                "email": "zstlipno@op.pl",
                "website": "http:\/\/www.zstlipno.edu.pl",
                "ref:regon": "340472490",
                "operator": "Powiat Lipnowski",
                "operator:type": "government",
                "fixme": "w zale\u017cno\u015bci od przedmiotu dzia\u0142alno\u015bci (np. amenity=training + training=*, amenity=dancing_school, amenity=language_school, amenity=music_school) albo amenity=school, amenity=college, albo landuse=education w zale\u017cno\u015bci od tego, jakie plac\u00f3wki wchodz\u0105 w sk\u0142ad zespo\u0142u. Sprawd\u017a, kiedy stosowa\u0107 amenity=* a kiedy landuse=education.",
                "note": "Parent RSPO: 6688"
            }
        },
        {
            "id": 16472,
            "type": "Feature",
            "geometry": {
                "type": "Point",
                "coordinates": [
                    19.18834,
                    52.84117
                ]
            },
            "properties": {
                "isced:level": "3",
                "ref:rspo": 16472,
                "official_name": "Bran\u017cowa Szko\u0142a I Stopnia",
                "name": "Bran\u017cowa Szko\u0142a I Stopnia",
                "addr:postcode": "87-600",
                "addr:city": "Lipno",
                "addr:street": "Stefana Okrzei",
                "addr:housenumber": "3",
                "addr:city:simc": 985830,
                "addr:street:sym_ul": 14914,
                "phone": "+48 542873321",
                "email": "zstlipno@op.pl",
                "website": "http:\/\/www.zstlipno.edu.pl",
                "ref:regon": "911306544",
                "operator": "Powiat Lipnowski",
                "operator:type": "government",
                "amenity": "school",
                "note": "Parent RSPO: 6688"
            }
        },
        {
            "id": 42086,
            "type": "Feature",
            "geometry": {
                "type": "Point",
                "coordinates": [
                    19.1814,
                    52.84263
                ]
            },
            "properties": {
                "ref:rspo": 42086,
                "official_name": "Przedszkole w Parku",
                "name": "Przedszkole w Parku",
                "addr:postcode": "87-600",
                "addr:city": "Lipno",
                "addr:street": "J\u00f3zefa Pi\u0142sudskiego",
                "addr:housenumber": "23",
                "addr:city:simc": 985830,
                "addr:street:sym_ul": 16264,
                "phone": "+48 542872515",
                "email": "przedszkolewparku@gmail.com",
                "website": "http:\/\/www.przedszkolewparku.pl",
                "ref:regon": "341341040",
                "ref:vatin": "PL6891042692",
                "operator": "Krzysztof Mr\u00f3z",
                "operator:type": "private",
                "amenity": "kindergarten"
            }
        },
        {
            "id": 75463,
            "type": "Feature",
            "geometry": {
                "type": "Point",
                "coordinates": [
                    19.18519,
                    52.84298
                ]
            },
            "properties": {
                "isced:level": "1;2",
                "ref:rspo": 75463,
                "official_name": "Szko\u0142a Podstawowa nr 2Im.w\u0142adyslawa Broniewskiego",
                "name": "Szko\u0142a Podstawowa nr 2Im.w\u0142adyslawa Broniewskiego",
                "addr:postcode": "87-600",
                "addr:city": "Lipno",
                "addr:street": "Stefana Okrzei",
                "addr:housenumber": "1",
                "addr:city:simc": 985830,
                "addr:street:sym_ul": 14914,
                "phone": "+48 542872478",
                "email": "sp2lipno@wp.pl",
                "website": "http:\/\/www.sp2lipno.superszkolna.pl",
                "ref:regon": "000271390",
                "ref:vatin": "PL8931167568",
                "operator": "Gmina Miasta Lipna",
                "operator:type": "government",
                "amenity": "school"
            }
        },
        {
            "id": 278893,
            "type": "Feature",
            "geometry": {
                "type": "Point",
                "coordinates": [
                    19.18041,
                    52.84423
                ]
            },
            "properties": {
                "ref:rspo": 278893,
                "official_name": "Niepubliczna Plac\u00f3wka Kszta\u0142cenia Ustawicznego Linkowski",
                "name": "Niepubliczna Plac\u00f3wka Kszta\u0142cenia Ustawicznego Linkowski",
                "addr:postcode": "87-600",
                "addr:city": "Lipno",
                "addr:street": "Przekop",
                "addr:housenumber": "3A",
                "addr:city:simc": 985830,
                "addr:street:sym_ul": 17707,
                "email": "centralny1@wp.pl",
                "ref:regon": "520181476",
                "operator": "Mariusz Linkowski",
                "operator:type": "private",
                "fixme": "w zale\u017cno\u015bci od przedmiotu dzia\u0142alno\u015bci (np. amenity=training + training=*, amenity=dancing_school, amenity=language_school, amenity=music_school)"
            }
        },
        {
            "id": 14320,
            "type": "Feature",
            "geometry": {
                "type": "Point",
                "coordinates": [
                    19.18178,
                    52.84541
                ]
            },
            "properties": {
                "isced:level": "4",
                "ref:rspo": 14320,
                "official_name": "Niepubliczna Szko\u0142a Policealna w Lipnie",
                "name": "Niepubliczna Szko\u0142a Policealna w Lipnie",
                "addr:postcode": "87-600",
                "addr:city": "Lipno",
                "addr:street": "J\u00f3zefa Pi\u0142sudskiego",
                "addr:housenumber": "2",
                "addr:city:simc": 985830,
                "addr:street:sym_ul": 16264,
                "phone": "+48 542873670",
                "email": "oswiatalipno1@o2.pl",
                "ref:regon": "341327547",
                "operator": "Hanna Szajerska",
                "operator:type": "private",
                "amenity": "college"
            }
        },
        {
            "id": 106626,
            "type": "Feature",
            "geometry": {
                "type": "Point",
                "coordinates": [
                    19.18178,
                    52.84538
                ]
            },
            "properties": {
                "isced:level": "3",
                "ref:rspo": 106626,
                "official_name": "Niepubliczne Liceum Og\u00f3lnokszta\u0142c\u0105ce w Lipnie",
                "name": "Niepubliczne Liceum Og\u00f3lnokszta\u0142c\u0105ce w Lipnie",
                "addr:postcode": "87-600",
                "addr:city": "Lipno",
                "addr:street": "J\u00f3zefa Pi\u0142sudskiego",
                "addr:housenumber": "2",
                "addr:city:simc": 985830,
                "addr:street:sym_ul": 16264,
                "phone": "+48 542873670",
                "email": "oswiatalipno1@o2.pl",
                "ref:regon": "341349744",
                "operator": "Hanna Szajerska",
                "operator:type": "private",
                "amenity": "school"
            }
        },
        {
            "id": 129008,
            "type": "Feature",
            "geometry": {
                "type": "Point",
                "coordinates": [
                    19.17912,
                    52.84569
                ]
            },
            "properties": {
                "ref:rspo": 129008,
                "official_name": "Niepubliczne Przedszkole \"Promyczek\"",
                "name": "Niepubliczne Przedszkole \"Promyczek\"",
                "addr:postcode": "87-600",
                "addr:city": "Lipno",
                "addr:street": "Adama Mickiewicza",
                "addr:housenumber": "10",
                "addr:city:simc": 985830,
                "addr:street:sym_ul": 12734,
                "phone": "+48 668380542",
                "ref:regon": "362450719",
                "ref:vatin": "PL8792349678",
                "operator": "Dominika Pop\u0142awska",
                "operator:type": "private",
                "amenity": "kindergarten"
            }
        },
        {
            "id": 128285,
            "type": "Feature",
            "geometry": {
                "type": "Point",
                "coordinates": [
                    19.18309,
                    52.84809
                ]
            },
            "properties": {
                "ref:rspo": 128285,
                "official_name": "Niepubliczne Przedszkole Rodzinne",
                "name": "Niepubliczne Przedszkole Rodzinne",
                "addr:postcode": "87-600",
                "addr:city": "Lipno",
                "addr:street": "22 Stycznia 1863 roku",
                "addr:housenumber": "16",
                "addr:city:simc": 985830,
                "addr:street:sym_ul": 52466,
                "phone": "+48 695465802",
                "email": "biuro@przedszkole-rodzinne.pl",
                "website": "https:\/\/www.facebook.com\/przedszkolerodzinnelipno\/",
                "ref:regon": "362227335",
                "ref:vatin": "PL8931181812",
                "operator": "Aleksander Bober",
                "operator:type": "private",
                "amenity": "kindergarten"
            }
        },
        {
            "id": 24908,
            "type": "Feature",
            "geometry": {
                "type": "Point",
                "coordinates": [
                    19.1784,
                    52.84951
                ]
            },
            "properties": {
                "ref:rspo": 24908,
                "official_name": "Przedszkole Miejskie nr 2 w Lipnie",
                "name": "Przedszkole Miejskie nr 2 w Lipnie",
                "addr:postcode": "87-600",
                "addr:city": "Lipno",
                "addr:street": "Osiedle Genera\u0142a W\u0142adys\u0142awa Sikorskiego",
                "addr:housenumber": "17",
                "addr:city:simc": 985830,
                "addr:street:sym_ul": 52698,
                "phone": "+48 542874273",
                "email": "przedszkole2lipno@wp.pl",
                "ref:regon": "910278410",
                "ref:vatin": "PL8931291587",
                "operator": "Gmina Miasta Lipna",
                "operator:type": "government",
                "amenity": "kindergarten",
                "note": "Parent RSPO: 131325"
            }
        },
        {
            "id": 8680,
            "type": "Feature",
            "geometry": {
                "type": "Point",
                "coordinates": [
                    19.17903,
                    52.85065
                ]
            },
            "properties": {
                "ref:rspo": 8680,
                "official_name": "Zesp\u00f3\u0142 Szk\u00f3\u0142 im. Romualda Traugutta w Lipnie",
                "name": "Zesp\u00f3\u0142 Szk\u00f3\u0142",
                "addr:postcode": "87-600",
                "addr:city": "Lipno",
                "addr:street": "Romualda Traugutta",
                "addr:housenumber": "1",
                "addr:city:simc": 985830,
                "addr:street:sym_ul": 22961,
                "phone": "+48 542872562",
                "email": "lolipno@pro.onet.pl",
                "website": "http:\/\/lolipno.oswiata.org.pl",
                "ref:regon": "000715259",
                "ref:vatin": "PL8931272816",
                "operator": "Powiat Lipnowski",
                "operator:type": "government",
                "landuse": "education",
                "fixme": "amenity=school, amenity=college albo landuse=education w zale\u017cno\u015bci od tego, jakie plac\u00f3wki wchodz\u0105 w sk\u0142ad zespo\u0142u. Sprawd\u017a, kiedy stosowa\u0107 amenity=* a kiedy landuse=education.",
                "note": "Children RSPO: 18449;41419;42938"
            }
        },
        {
            "id": 18449,
            "type": "Feature",
            "geometry": {
                "type": "Point",
                "coordinates": [
                    19.17903,
                    52.85062
                ]
            },
            "properties": {
                "isced:level": "3",
                "ref:rspo": 18449,
                "official_name": "Liceum Og\u00f3lnokszta\u0142c\u0105ce",
                "name": "Liceum Og\u00f3lnokszta\u0142c\u0105ce",
                "addr:postcode": "87-600",
                "addr:city": "Lipno",
                "addr:street": "Romualda Traugutta",
                "addr:housenumber": "1",
                "addr:city:simc": 985830,
                "addr:street:sym_ul": 22961,
                "phone": "+48 542872562",
                "email": "lolipno@pro.onet.pl",
                "website": "http:\/\/lolipno.oswiata.org.pl",
                "ref:regon": "911239150",
                "operator": "Powiat Lipnowski",
                "operator:type": "government",
                "amenity": "school",
                "note": "Parent RSPO: 8680"
            }
        },
        {
            "id": 41419,
            "type": "Feature",
            "geometry": {
                "type": "Point",
                "coordinates": [
                    19.17903,
                    52.850590000000004
                ]
            },
            "properties": {
                "isced:level": "3",
                "ref:rspo": 41419,
                "official_name": "Liceum Og\u00f3lnokszta\u0142c\u0105ce dla Doros\u0142ych",
                "name": "Liceum Og\u00f3lnokszta\u0142c\u0105ce dla Doros\u0142ych",
                "addr:postcode": "87-600",
                "addr:city": "Lipno",
                "addr:street": "Romualda Traugutta",
                "addr:housenumber": "1",
                "addr:city:simc": 985830,
                "addr:street:sym_ul": 22961,
                "phone": "+48 542872562",
                "email": "lolipno@pro.onet.pl",
                "website": "http:\/\/lolipno.oswiata.org.pl",
                "ref:regon": "341342430",
                "operator": "Powiat Lipnowski",
                "operator:type": "government",
                "amenity": "school",
                "note": "Parent RSPO: 8680"
            }
        },
        {
            "id": 42938,
            "type": "Feature",
            "geometry": {
                "type": "Point",
                "coordinates": [
                    19.17903,
                    52.85056
                ]
            },
            "properties": {
                "isced:level": "4",
                "ref:rspo": 42938,
                "official_name": "Szko\u0142a Policealna",
                "name": "Szko\u0142a Policealna",
                "addr:postcode": "87-600",
                "addr:city": "Lipno",
                "addr:street": "Romualda Traugutta",
                "addr:housenumber": "1",
                "addr:city:simc": 985830,
                "addr:street:sym_ul": 22961,
                "phone": "+48 542872562",
                "email": "lolipno@pro.onet.pl",
                "website": "http:\/\/lolipno.oswiata.org.pl",
                "ref:regon": "910950183",
                "operator": "Powiat Lipnowski",
                "operator:type": "government",
                "amenity": "college",
                "note": "Parent RSPO: 8680"
            }
        },
        {
            "id": 131325,
            "type": "Feature",
            "geometry": {
                "type": "Point",
                "coordinates": [
                    19.17993,
                    52.851
                ]
            },
            "properties": {
                "ref:rspo": 131325,
                "official_name": "Zesp\u00f3\u0142 Przedszkoli Miejskich nr 1 w Lipnie im. Czes\u0142awa Janczarskiego",
                "name": "Zesp\u00f3\u0142 Przedszkoli Miejskich nr 1 w Lipnie",
                "addr:postcode": "87-600",
                "addr:city": "Lipno",
                "addr:street": "Kazimierza R\u00f3\u017cyckiego",
                "addr:housenumber": "8",
                "addr:city:simc": 985830,
                "addr:street:sym_ul": 40600,
                "phone": "+48 542874504",
                "email": "pm4lipno@wp.pl",
                "ref:regon": "365117133",
                "ref:vatin": "PL4660420561",
                "operator": "Gmina Miasta Lipna",
                "operator:type": "government",
                "landuse": "education",
                "fixme": "amenity=school, amenity=college albo landuse=education w zale\u017cno\u015bci od tego, jakie plac\u00f3wki wchodz\u0105 w sk\u0142ad zespo\u0142u. Sprawd\u017a, kiedy stosowa\u0107 amenity=* a kiedy landuse=education.",
                "note": "Children RSPO: 24908;42085"
            }
        },
        {
            "id": 42085,
            "type": "Feature",
            "geometry": {
                "type": "Point",
                "coordinates": [
                    19.17993,
                    52.85097
                ]
            },
            "properties": {
                "ref:rspo": 42085,
                "official_name": "Przedszkole Miejskie nr 4 w Lipnie",
                "name": "Przedszkole Miejskie nr 4 w Lipnie",
                "addr:postcode": "87-600",
                "addr:city": "Lipno",
                "addr:street": "Kazimierza R\u00f3\u017cyckiego",
                "addr:housenumber": "8",
                "addr:city:simc": 985830,
                "addr:street:sym_ul": 40600,
                "email": "pm4lipno@wp.pl",
                "ref:regon": "910004746",
                "ref:vatin": "PL8931294031",
                "operator": "Gmina Miasta Lipna",
                "operator:type": "government",
                "amenity": "kindergarten",
                "note": "Parent RSPO: 131325"
            }
        },
        {
            "id": 75464,
            "type": "Feature",
            "geometry": {
                "type": "Point",
                "coordinates": [
                    19.17956,
                    52.8519099
                ]
            },
            "properties": {
                "isced:level": "1;2",
                "ref:rspo": 75464,
                "official_name": "Szko\u0142a Podstawowa nr 3 w Lipnie Im Miko\u0142aja Kopernika",
                "name": "Szko\u0142a Podstawowa nr 3 w Lipnie Im Miko\u0142aja Kopernika",
                "addr:postcode": "87-600",
                "addr:city": "Lipno",
                "addr:street": "Romualda Traugutta",
                "addr:housenumber": "2",
                "addr:city:simc": 985830,
                "addr:street:sym_ul": 22961,
                "email": "sekretariat@sp3lipno.pl",
                "ref:regon": "000767977",
                "ref:vatin": "PL8930003089",
                "operator": "Gmina Miasta Lipna",
                "operator:type": "government",
                "amenity": "school"
            }
        },
        {
            "id": 279230,
            "type": "Feature",
            "geometry": {
                "type": "Point",
                "coordinates": [
                    19.17422,
                    52.85197
                ]
            },
            "properties": {
                "ref:rspo": 279230,
                "official_name": "Przedszkole Katolickie Oaza",
                "name": "Przedszkole Katolickie Oaza",
                "addr:postcode": "87-600",
                "addr:city": "Lipno",
                "addr:street": "3 Maja",
                "addr:housenumber": "43",
                "addr:city:simc": 985830,
                "addr:street:sym_ul": 11937,
                "ref:regon": "520944419",
                "operator": "Parafia Rzym.-Kat. Pw. B\u0142ogos\u0142awionego Biskupa Micha\u0142a Kozala",
                "operator:type": "religious",
                "amenity": "kindergarten"
            }
        }
    ]
}