{
    "type": "FeatureCollection",
    "features": [
        {
            "id": 48709,
            "type": "Feature",
            "geometry": {
                "type": "Point",
                "coordinates": [
                    19.47115,
                    52.74654
                ]
            },
            "properties": {
                "isced:level": "1;2",
                "ref:rspo": 48709,
                "official_name": "Publiczna Szko\u0142a Podstawowa im. Bohater\u00f3w Westerplatte w T\u0142uchowie",
                "name": "Publiczna Szko\u0142a Podstawowa",
                "addr:country": "PL",
                "addr:postcode": "87-605",
                "addr:city": "T\u0142uchowo",
                "addr:street": "Szkolna",
                "addr:housenumber": "3",
                "addr:teryt:simc": 870273,
                "addr:teryt:sym_ul": 21970,
                "contact:phone": "+48 542876289",
                "contact:email": "tluchowo_szkolapodst@wp.pl",
                "contact:website": "http:\/\/www.sptluchowo.szkolnastrona.pl",
                "ref:regon": "000272862",
                "ref:vatin": "PL4660420578",
                "operator": "Gmina T\u0142uchowo",
                "operator:type": "government",
                "amenity": "school"
            }
        },
        {
            "id": 48711,
            "type": "Feature",
            "geometry": {
                "type": "Point",
                "coordinates": [
                    19.47042,
                    52.74777
                ]
            },
            "properties": {
                "ref:rspo": 48711,
                "official_name": "Przedszkole Publiczne Bajkowa Kraina w T\u0142uchowie",
                "name": "Przedszkole Publiczne Bajkowa Kraina w T\u0142uchowie",
                "addr:country": "PL",
                "addr:postcode": "87-605",
                "addr:city": "T\u0142uchowo",
                "addr:street": "Sierpecka",
                "addr:housenumber": "26",
                "addr:teryt:simc": 870273,
                "addr:teryt:sym_ul": 19865,
                "contact:phone": "+48 542876239",
                "contact:email": "przedszkole.tluchowo1@op.pl",
                "ref:regon": "910000530",
                "ref:vatin": "PL4660369995",
                "operator": "Gmina T\u0142uchowo",
                "operator:type": "government",
                "amenity": "kindergarten"
            }
        },
        {
            "id": 44706,
            "type": "Feature",
            "geometry": {
                "type": "Point",
                "coordinates": [
                    19.45893,
                    52.78852
                ]
            },
            "properties": {
                "isced:level": "1;2",
                "ref:rspo": 44706,
                "official_name": "Publiczna Szko\u0142a Podstawowa im. Adama Mickiewicza w Mys\u0142ak\u00f3wku",
                "name": "Publiczna Szko\u0142a Podstawowa",
                "addr:country": "PL",
                "addr:postcode": "87-605",
                "addr:place": "Mys\u0142ak\u00f3wko",
                "addr:housenumber": "12",
                "addr:teryt:simc": 870221,
                "contact:phone": "+48 542876292",
                "contact:email": "spmyslakowko@wp.pl",
                "ref:regon": "001138829",
                "ref:vatin": "PL4660369860",
                "operator": "Gmina T\u0142uchowo",
                "operator:type": "government",
                "amenity": "school"
            }
        }
    ]
}