{"type":"FeatureCollection","features":[{"id":74297,"type":"Feature","geometry":{"type":"Point","coordinates":[19.43574,52.85421]},"properties":{"isced:level":"1;2","ref:rspo":74297,"official_name":"Szko\u0142a Podstawowa w Czermnie","name":"Szko\u0142a Podstawowa w Czermnie","addr:country":"PL","addr:postcode":"87-630","addr:place":"Czermno","addr:housenumber":"19A","addr:teryt:sym_ul":869293,"contact:phone":"+48 542877742","contact:email":"spczermno@vp.pl","contact:website":"http:\/\/www.spczermno.szkolnastrona.pl","ref:regon":"001138150","ref:vatin":"PL4660197146","operator":"Miasto I Gmina Sk\u0119pe","operator:type":"government","amenity":"school"}},{"id":74298,"type":"Feature","geometry":{"type":"Point","coordinates":[19.32191,52.86071]},"properties":{"ref:rspo":74298,"official_name":"Przedszkole Publiczne w Wiosce \"Przedszkole Pod Lipami\"","name":"Przedszkole Publiczne w Wiosce \"Przedszkole Pod Lipami\"","addr:country":"PL","addr:postcode":"87-630","addr:place":"Wioska","addr:housenumber":"5","addr:teryt:sym_ul":869637,"contact:phone":"+48 542877656","contact:email":"przedszkolepodlipami@tlen.pl","contact:website":"http:\/\/www.przedszkole-pod-lipami.cba.pl","ref:regon":"910921862","ref:vatin":"PL4660197063","operator":"Miasto I Gmina Sk\u0119pe","operator:type":"government","amenity":"kindergarten"}},{"id":74295,"type":"Feature","geometry":{"type":"Point","coordinates":[19.3469,52.86633]},"properties":{"isced:level":"1;2","ref:rspo":74295,"official_name":"Szko\u0142a Podstawowa im. Gustawa Zieli\u0144skiego w Sk\u0119pem","name":"Szko\u0142a Podstawowa","addr:country":"PL","addr:postcode":"87-630","addr:city":"Sk\u0119pe","addr:street":"ul. Al. 1 Maja","addr:housenumber":"89","addr:teryt:simc":47313,"addr:teryt:sym_ul":869583,"contact:phone":"+48 542877637","contact:email":"szkola@spskepe.szkolnastrona.pl","contact:website":"http:\/\/spskepe.szkolnastrona.pl\/","ref:regon":"000272767","ref:vatin":"PL4660419569","operator":"Miasto I Gmina Sk\u0119pe","operator:type":"government","amenity":"school"}},{"id":17283,"type":"Feature","geometry":{"type":"Point","coordinates":[19.33412,52.86733]},"properties":{"ref:rspo":17283,"official_name":"Zesp\u00f3\u0142 Szk\u00f3\u0142 im. Waleriana \u0141ukasi\u0144skiego w Sk\u0119pem","name":"Zesp\u00f3\u0142 Szk\u00f3\u0142","addr:country":"PL","addr:postcode":"87-630","addr:city":"Sk\u0119pe","addr:street":"ul. Wymy\u015bli\u0144ska","addr:housenumber":"2","addr:teryt:simc":29998,"addr:teryt:sym_ul":869583,"contact:phone":"+48 542877006","contact:email":"zsskepe@gmail.com","contact:website":"http:\/\/zsskepe.pl","ref:regon":"000097732","ref:vatin":"PL8930003103","operator":"Powiat Lipnowski","operator:type":"government","landuse":"education","fixme":"amenity=school, amenity=college albo landuse=education w zale\u017cno\u015bci od tego, jakie plac\u00f3wki wchodz\u0105 w sk\u0142ad zespo\u0142u. Sprawd\u017a, kiedy stosowa\u0107 amenity=* a kiedy landuse=education.","note":"Children RSPO: 30398;30698;64910;64914;64915"}},{"id":68188,"type":"Feature","geometry":{"type":"Point","coordinates":[19.33412,52.8673]},"properties":{"ref:rspo":68188,"official_name":"Klub Malucha","name":"Klub Malucha","addr:country":"PL","addr:postcode":"87-630","addr:city":"Sk\u0119pe","addr:street":"ul. Wymy\u015bli\u0144ska","addr:housenumber":"2","addr:teryt:simc":29998,"addr:teryt:sym_ul":869583,"contact:phone":"+48 510420616","contact:email":"wampirek3@op.pl","ref:regon":"341348093","ref:vatin":"PL4660210958","operator":"Iwona Kwa\u015bniewska","operator:type":"private","amenity":"kindergarten"}},{"id":30398,"type":"Feature","geometry":{"type":"Point","coordinates":[19.33412,52.867270000000005]},"properties":{"isced:level":"3","ref:rspo":30398,"official_name":"Liceum Og\u00f3lnokszta\u0142c\u0105ce","name":"Liceum Og\u00f3lnokszta\u0142c\u0105ce","addr:country":"PL","addr:postcode":"87-630","addr:city":"Sk\u0119pe","addr:street":"ul. Wymy\u015bli\u0144ska","addr:housenumber":"2","addr:teryt:simc":29998,"addr:teryt:sym_ul":869583,"contact:phone":"+48 542877006","contact:email":"zsskepe@gmail.com","contact:website":"http:\/\/zsskepe.pl","ref:regon":"910953201","operator":"Powiat Lipnowski","operator:type":"government","amenity":"school","note":"Parent RSPO: 17283"}},{"id":30698,"type":"Feature","geometry":{"type":"Point","coordinates":[19.33412,52.86724]},"properties":{"isced:level":"3","ref:rspo":30698,"official_name":"Technikum","name":"Technikum","addr:country":"PL","addr:postcode":"87-630","addr:city":"Sk\u0119pe","addr:street":"ul. Wymy\u015bli\u0144ska","addr:housenumber":"2","addr:teryt:simc":29998,"addr:teryt:sym_ul":869583,"contact:phone":"+48 542877537","contact:email":"zsskepe@gmail.com","contact:website":"http:\/\/zsskepe.pl","ref:regon":"910953193","operator":"Powiat Lipnowski","operator:type":"government","amenity":"school","note":"Parent RSPO: 17283"}},{"id":64910,"type":"Feature","geometry":{"type":"Point","coordinates":[19.33412,52.86721]},"properties":{"isced:level":"3","ref:rspo":64910,"official_name":"Bran\u017cowa Szko\u0142a I Stopnia","name":"Bran\u017cowa Szko\u0142a I Stopnia","addr:country":"PL","addr:postcode":"87-630","addr:city":"Sk\u0119pe","addr:street":"ul. Wymy\u015bli\u0144ska","addr:housenumber":"2","addr:teryt:simc":29998,"addr:teryt:sym_ul":869583,"contact:phone":"+48 542877537","contact:email":"zsskepe@gmail.com","contact:website":"http:\/\/zsskepe.pl","ref:regon":"341348070","operator":"Powiat Lipnowski","operator:type":"government","amenity":"school","note":"Parent RSPO: 17283"}},{"id":64914,"type":"Feature","geometry":{"type":"Point","coordinates":[19.33412,52.867180000000005]},"properties":{"isced:level":"3","ref:rspo":64914,"official_name":"Liceum Og\u00f3lnokszta\u0142c\u0105ce dla Doros\u0142ych","name":"Liceum Og\u00f3lnokszta\u0142c\u0105ce dla Doros\u0142ych","addr:country":"PL","addr:postcode":"87-630","addr:city":"Sk\u0119pe","addr:street":"ul. Wymy\u015bli\u0144ska","addr:housenumber":"2","addr:teryt:simc":29998,"addr:teryt:sym_ul":869583,"contact:phone":"+48 542877006","contact:email":"zsskepe@gmail.com","contact:website":"http:\/\/zsskepe.pl","ref:regon":"341346668","operator":"Powiat Lipnowski","operator:type":"government","amenity":"school","note":"Parent RSPO: 17283"}},{"id":64915,"type":"Feature","geometry":{"type":"Point","coordinates":[19.33412,52.86715]},"properties":{"isced:level":"4","ref:rspo":64915,"official_name":"Szko\u0142a Policealna","name":"Szko\u0142a Policealna","addr:country":"PL","addr:postcode":"87-630","addr:city":"Sk\u0119pe","addr:street":"ul. Wymy\u015bli\u0144ska","addr:housenumber":"2","addr:teryt:simc":29998,"addr:teryt:sym_ul":869583,"contact:phone":"+48 542877006","contact:email":"zsskepe@gmail.com","contact:website":"http:\/\/zsskepe.pl","ref:regon":"911333274","operator":"Powiat Lipnowski","operator:type":"government","amenity":"college","note":"Parent RSPO: 17283"}},{"id":68187,"type":"Feature","geometry":{"type":"Point","coordinates":[19.3417,52.8703999]},"properties":{"ref:rspo":68187,"official_name":"Publiczne Przedszkole im. Ewy Szelburg-Zarembiny","name":"Publiczne Przedszkole","addr:country":"PL","addr:postcode":"87-630","addr:city":"Sk\u0119pe","addr:street":"ul. Dworcowa","addr:housenumber":"21","addr:teryt:simc":4434,"addr:teryt:sym_ul":869583,"contact:phone":"+48 542877216","contact:email":"jedyneczka21@wp.pl","contact:website":"http:\/\/www.ezarembinaskepe.pl\/","ref:regon":"910004657","ref:vatin":"PL4660197040","operator":"Miasto I Gmina Sk\u0119pe","operator:type":"government","amenity":"kindergarten"}},{"id":68296,"type":"Feature","geometry":{"type":"Point","coordinates":[19.42162,52.89213]},"properties":{"isced:level":"1;2","ref:rspo":68296,"official_name":"Szko\u0142a Podstawowa w W\u00f3lce","name":"Szko\u0142a Podstawowa w W\u00f3lce","addr:country":"PL","addr:postcode":"87-630","addr:place":"W\u00f3lka","addr:housenumber":"133B","addr:teryt:sym_ul":869643,"contact:phone":"+48 542877022","contact:email":"wolka.sp@wp.pl","ref:regon":"001138166","ref:vatin":"PL4660197100","operator":"Miasto I Gmina Sk\u0119pe","operator:type":"government","amenity":"school"}}]}