{"type":"FeatureCollection","features":[{"id":87621,"type":"Feature","geometry":{"type":"Point","coordinates":[19.316,52.63768]},"properties":{"isced:level":"1;2","ref:rspo":87621,"official_name":"Szko\u0142a Podstawowa im. Marii Konopnickiej w Dobrzyniu Nad Wis\u0142\u0105","name":"Szko\u0142a Podstawowa","addr:country":"PL","addr:postcode":"87-610","addr:city":"Dobrzy\u0144 nad Wis\u0142\u0105","addr:street":"ul. Licealna","addr:housenumber":"1","addr:teryt:simc":11033,"addr:teryt:sym_ul":985651,"contact:phone":"+48 542531069","contact:email":"sp.dobrzyn@spdobrzyn.pl","contact:website":"http:\/\/spdobrzyn.pl","ref:regon":"000262651","ref:vatin":"PL8931294025","operator":"Gmina Dobrzy\u0144 Nad Wis\u0142\u0105","operator:type":"government","amenity":"school"}},{"id":88946,"type":"Feature","geometry":{"type":"Point","coordinates":[19.31938,52.63865]},"properties":{"ref:rspo":88946,"official_name":"Przedszkole Samorz\u0105dowe im. Kubusia Puchatka w Dobrzyniu Nad Wis\u0142\u0105","name":"Przedszkole Samorz\u0105dowe","addr:country":"PL","addr:postcode":"87-610","addr:city":"Dobrzy\u0144 nad Wis\u0142\u0105","addr:street":"ul. Lipnowska","addr:housenumber":"6","addr:teryt:simc":11136,"addr:teryt:sym_ul":985651,"contact:phone":"+48 542531045","contact:email":"przedszkoledobrzyn@op.pl","contact:website":"http:\/\/przedszkoledobrzyn.edupage.org","ref:regon":"910004574","ref:vatin":"PL8931294025","operator":"Gmina Dobrzy\u0144 Nad Wis\u0142\u0105","operator:type":"government","amenity":"kindergarten"}},{"id":8800,"type":"Feature","geometry":{"type":"Point","coordinates":[19.31542,52.63951]},"properties":{"ref:rspo":8800,"official_name":"Zesp\u00f3\u0142 Szk\u00f3\u0142 im. Zwi\u0105zku M\u0142odzie\u017cy Wiejskiej w Dobrzyniu Nad Wis\u0142\u0105","name":"Zesp\u00f3\u0142 Szk\u00f3\u0142","addr:country":"PL","addr:postcode":"87-610","addr:city":"Dobrzy\u0144 nad Wis\u0142\u0105","addr:street":"ul. Szkolna","addr:housenumber":"5","addr:teryt:simc":21970,"addr:teryt:sym_ul":985651,"contact:phone":"+48 542531105","contact:email":"sekretariat@zs-dobrzyn.pl","contact:website":"http:\/\/www.zs-dobrzyn.pl","ref:regon":"000099889","ref:vatin":"PL8931236074","operator":"Powiat Lipnowski","operator:type":"government","landuse":"education","fixme":"amenity=school, amenity=college albo landuse=education w zale\u017cno\u015bci od tego, jakie plac\u00f3wki wchodz\u0105 w sk\u0142ad zespo\u0142u. Sprawd\u017a, kiedy stosowa\u0107 amenity=* a kiedy landuse=education.","note":"Children RSPO: 17778;35257"}},{"id":17778,"type":"Feature","geometry":{"type":"Point","coordinates":[19.31542,52.63948]},"properties":{"isced:level":"3","ref:rspo":17778,"official_name":"Technikum","name":"Technikum","addr:country":"PL","addr:postcode":"87-610","addr:city":"Dobrzy\u0144 nad Wis\u0142\u0105","addr:street":"ul. Szkolna","addr:housenumber":"5","addr:teryt:simc":21970,"addr:teryt:sym_ul":985651,"contact:phone":"+48 542531105","contact:email":"sekretariat@zs-dobrzyn.pl","contact:website":"http:\/\/zs-dobrzyn.pl","ref:regon":"911305326","operator":"Powiat Lipnowski","operator:type":"government","amenity":"school","note":"Parent RSPO: 8800"}},{"id":35257,"type":"Feature","geometry":{"type":"Point","coordinates":[19.31542,52.639450000000004]},"properties":{"isced:level":"3","ref:rspo":35257,"official_name":"Bran\u017cowa Szko\u0142a I Stopnia","name":"Bran\u017cowa Szko\u0142a I Stopnia","addr:country":"PL","addr:postcode":"87-610","addr:city":"Dobrzy\u0144 nad Wis\u0142\u0105","addr:street":"ul. Szkolna","addr:housenumber":"5","addr:teryt:simc":21970,"addr:teryt:sym_ul":985651,"contact:phone":"+48 542531105","contact:email":"sekretariat@zs-dobrzyn.pl","contact:website":"http:\/\/zsdobrzyn.pl","ref:regon":"340060065","operator":"Powiat Lipnowski","operator:type":"government","amenity":"school","note":"Parent RSPO: 8800"}},{"id":119980,"type":"Feature","geometry":{"type":"Point","coordinates":[19.32253,52.64072]},"properties":{"ref:rspo":119980,"official_name":"Akademia Przedszolaka Marlena Doli\u0144ska","name":"Akademia Przedszolaka Marlena Doli\u0144ska","addr:country":"PL","addr:postcode":"87-610","addr:city":"Dobrzy\u0144 nad Wis\u0142\u0105","addr:street":"ul. Polna","addr:housenumber":"43A","addr:teryt:simc":17011,"addr:teryt:sym_ul":985651,"contact:phone":"+48 601720267","contact:email":"marlena.bartnicka@gmail.com","ref:regon":"341480585","ref:vatin":"PL7742966026","operator":"Marlena Doli\u0144ska","operator:type":"private","amenity":"kindergarten"}},{"id":87622,"type":"Feature","geometry":{"type":"Point","coordinates":[19.27524,52.6753]},"properties":{"isced:level":"1;2","ref:rspo":87622,"official_name":"Szko\u0142a Podstawowa im. Jana Kochanowskiego w Dyblinie","name":"Szko\u0142a Podstawowa","addr:country":"PL","addr:postcode":"87-610","addr:place":"Dyblin","addr:housenumber":"1","addr:teryt:sym_ul":862233,"contact:phone":"+48 542541640","contact:email":"sp_dyblin@wp.pl","ref:regon":"001142506","ref:vatin":"PL8931294025","operator":"Gmina Dobrzy\u0144 Nad Wis\u0142\u0105","operator:type":"government","amenity":"school"}},{"id":90221,"type":"Feature","geometry":{"type":"Point","coordinates":[19.19508,52.68446]},"properties":{"ref:rspo":90221,"official_name":"Niepubliczne Przedszkole \"Zielona Kraina\" Krojczyn","name":"Niepubliczne Przedszkole \"Zielona Kraina\" Krojczyn","addr:country":"PL","addr:postcode":"87-610","addr:place":"Krojczyn","addr:housenumber":"19A","addr:teryt:sym_ul":862345,"contact:email":"a.szczepanska@zielonakraina.edu.pl","ref:regon":"341355667","ref:vatin":"PL8931164050","operator":"Aleksandra Szczepa\u0144ska","operator:type":"private","amenity":"kindergarten"}},{"id":268736,"type":"Feature","geometry":{"type":"Point","coordinates":[19.38601,52.68954]},"properties":{"ref:rspo":268736,"official_name":"Zesp\u00f3\u0142 Szkolno-Przedszkolny w Chalinie","name":"Zesp\u00f3\u0142 Szkolno-Przedszkolny w Chalinie","addr:country":"PL","addr:postcode":"87-610","addr:place":"Chalin","addr:housenumber":"36","addr:teryt:sym_ul":862204,"contact:phone":"+48 542531945","contact:email":"zsp@spchalin.pl","ref:regon":"381238150","operator":"Gmina Dobrzy\u0144 Nad Wis\u0142\u0105","operator:type":"government","landuse":"education","fixme":"amenity=school, amenity=college albo landuse=education w zale\u017cno\u015bci od tego, jakie plac\u00f3wki wchodz\u0105 w sk\u0142ad zespo\u0142u. Sprawd\u017a, kiedy stosowa\u0107 amenity=* a kiedy landuse=education.","note":"Children RSPO: 87625;268740"}},{"id":87625,"type":"Feature","geometry":{"type":"Point","coordinates":[19.38601,52.68951]},"properties":{"isced:level":"1;2","ref:rspo":87625,"official_name":"Szko\u0142a Podstawowa im. Polskich Noblist\u00f3w w Chalinie","name":"Szko\u0142a Podstawowa","addr:country":"PL","addr:postcode":"87-606","addr:place":"Chalin","addr:housenumber":"36","addr:teryt:sym_ul":862204,"contact:phone":"+48 542531945","contact:email":"zsp@spchalin.pl","contact:website":"http:\/\/www.spchalin.pl","ref:regon":"001142512","ref:vatin":"PL8931294025","operator":"Gmina Dobrzy\u0144 Nad Wis\u0142\u0105","operator:type":"government","amenity":"school","note":"Parent RSPO: 268736"}},{"id":268740,"type":"Feature","geometry":{"type":"Point","coordinates":[19.38601,52.68948]},"properties":{"ref:rspo":268740,"official_name":"Przedszkole w Chalinie","name":"Przedszkole w Chalinie","addr:country":"PL","addr:postcode":"87-610","addr:place":"Chalin","addr:housenumber":"36","addr:teryt:sym_ul":862204,"contact:phone":"+48 542531945","contact:email":"zsp@spchalin.pl","ref:regon":"381238924","operator":"Gmina Dobrzy\u0144 Nad Wis\u0142\u0105","operator:type":"government","amenity":"kindergarten","note":"Parent RSPO: 268736"}},{"id":87627,"type":"Feature","geometry":{"type":"Point","coordinates":[19.19272,52.69883]},"properties":{"isced:level":"1;2","ref:rspo":87627,"official_name":"Szko\u0142a Podstawowa im. Tadeusza Ko\u015bciuszki w Krojczynie","name":"Szko\u0142a Podstawowa","addr:country":"PL","addr:postcode":"87-610","addr:place":"Krojczyn","addr:housenumber":"17","addr:teryt:sym_ul":862345,"contact:phone":"+48 542541704","contact:email":"spkrojczyn@op.pl","ref:regon":"001142529","ref:vatin":"PL8931294025","operator":"Gmina Dobrzy\u0144 Nad Wis\u0142\u0105","operator:type":"government","amenity":"school"}}]}