{
    "type": "FeatureCollection",
    "features": [
        {
            "id": 120015,
            "type": "Feature",
            "geometry": {
                "type": "Point",
                "coordinates": [
                    19.11749,
                    52.91199
                ]
            },
            "properties": {
                "ref:rspo": 120015,
                "official_name": "Prywatne Przedszkole O Profilu Artystycznym \"Kujawiaczek\" Marzena J\u0119drzejewska",
                "name": "Prywatne Przedszkole O Profilu Artystycznym \"Kujawiaczek\" Marzena J\u0119drzejewska",
                "addr:postcode": "87-620",
                "addr:city": "Kik\u00f3\u0142",
                "addr:street": "Toru\u0144ska",
                "addr:housenumber": "14A",
                "addr:door": "-",
                "addr:teryt:simc": 863480,
                "addr:teryt:sym_ul": 22902,
                "phone": "+48 576801252",
                "email": "kikolandia2011@wp.pl",
                "ref:regon": "341481159",
                "operator": "Marzena J\u0119drzejewska",
                "operator:type": "private",
                "amenity": "kindergarten"
            }
        },
        {
            "id": 277944,
            "type": "Feature",
            "geometry": {
                "type": "Point",
                "coordinates": [
                    19.12872,
                    52.91216
                ]
            },
            "properties": {
                "ref:rspo": 277944,
                "official_name": "Zesp\u00f3\u0142 Szkolno-Przedszkolny w Kikole",
                "name": "Zesp\u00f3\u0142 Szkolno-Przedszkolny w Kikole",
                "addr:postcode": "87-620",
                "addr:city": "Kik\u00f3\u0142",
                "addr:street": "Targowa",
                "addr:housenumber": "6",
                "addr:teryt:simc": 863480,
                "addr:teryt:sym_ul": 22659,
                "phone": "+48 542894162",
                "ref:regon": "389696980",
                "operator": "Gmina Kik\u00f3\u0142",
                "operator:type": "government",
                "landuse": "education",
                "fixme": "amenity=school, amenity=college albo landuse=education w zale\u017cno\u015bci od tego, jakie plac\u00f3wki wchodz\u0105 w sk\u0142ad zespo\u0142u. Sprawd\u017a, kiedy stosowa\u0107 amenity=* a kiedy landuse=education.",
                "note": "Children RSPO: 43698;43727"
            }
        },
        {
            "id": 43698,
            "type": "Feature",
            "geometry": {
                "type": "Point",
                "coordinates": [
                    19.12872,
                    52.91213
                ]
            },
            "properties": {
                "isced:level": "1;2",
                "ref:rspo": 43698,
                "official_name": "Szko\u0142a Podstawowa im.a.I. Zboi\u0144skiego w Kikole",
                "name": "Szko\u0142a Podstawowa im.a.I. Zboi\u0144skiego w Kikole",
                "addr:postcode": "87-620",
                "addr:city": "Kik\u00f3\u0142",
                "addr:street": "Targowa",
                "addr:housenumber": "6",
                "addr:teryt:simc": 863480,
                "addr:teryt:sym_ul": 22659,
                "phone": "+48 542894162",
                "email": "sp.sekretariat@interia.pl",
                "ref:regon": "000271093",
                "ref:vatin": "PL4660417665",
                "operator": "Gmina Kik\u00f3\u0142",
                "operator:type": "government",
                "amenity": "school",
                "note": "Parent RSPO: 277944"
            }
        },
        {
            "id": 265652,
            "type": "Feature",
            "geometry": {
                "type": "Point",
                "coordinates": [
                    19.1162791,
                    52.9128573
                ]
            },
            "properties": {
                "ref:rspo": 265652,
                "official_name": "Niepubliczne Przedszkole \"Fantazja\"",
                "name": "Niepubliczne Przedszkole \"Fantazja\"",
                "addr:postcode": "87-620",
                "addr:city": "Kik\u00f3\u0142",
                "addr:street": "Toru\u0144ska",
                "addr:housenumber": "25",
                "addr:teryt:simc": 863480,
                "addr:teryt:sym_ul": 22902,
                "email": "mika92.92.92@o2.pl",
                "ref:regon": "368827409",
                "operator": "Michalina Rumi\u0144ska",
                "operator:type": "private",
                "amenity": "kindergarten"
            }
        },
        {
            "id": 125365,
            "type": "Feature",
            "geometry": {
                "type": "Point",
                "coordinates": [
                    19.1296,
                    52.91348
                ]
            },
            "properties": {
                "ref:rspo": 125365,
                "official_name": "\"Promyczek\"Przedszkole Niepubliczne Dominika Pop\u0142awska-Oleszczuk",
                "name": "\"Promyczek\"Przedszkole Niepubliczne Dominika Pop\u0142awska-Oleszczuk",
                "addr:postcode": "87-620",
                "addr:city": "Kik\u00f3\u0142",
                "addr:street": "Targowa",
                "addr:housenumber": "31",
                "addr:teryt:simc": 863480,
                "addr:teryt:sym_ul": 22659,
                "phone": "+48 668380542",
                "email": "oleszczukd@onet.pl",
                "ref:regon": "341628830",
                "ref:vatin": "PL8792349678",
                "operator": "Dominika Pop\u0142awska",
                "operator:type": "private",
                "amenity": "kindergarten"
            }
        },
        {
            "id": 43727,
            "type": "Feature",
            "geometry": {
                "type": "Point",
                "coordinates": [
                    19.1225,
                    52.91369
                ]
            },
            "properties": {
                "ref:rspo": 43727,
                "official_name": "Przedszkole Publiczne Kraina Bajek w Kikole",
                "name": "Przedszkole Publiczne Kraina Bajek w Kikole",
                "addr:postcode": "87-620",
                "addr:city": "Kik\u00f3\u0142",
                "addr:street": "Zboi\u0144skiego",
                "addr:housenumber": "1",
                "addr:teryt:simc": 863480,
                "addr:teryt:sym_ul": 25898,
                "phone": "+48 542894081",
                "email": "przedszkolekikol@op.pl",
                "ref:regon": "910005355",
                "ref:vatin": "PL4660417642",
                "operator": "Gmina Kik\u00f3\u0142",
                "operator:type": "government",
                "amenity": "kindergarten",
                "note": "Parent RSPO: 277944"
            }
        },
        {
            "id": 43719,
            "type": "Feature",
            "geometry": {
                "type": "Point",
                "coordinates": [
                    19.16207,
                    52.9316699
                ]
            },
            "properties": {
                "isced:level": "1;2",
                "ref:rspo": 43719,
                "official_name": "Szko\u0142a Podstawowa w Cie\u0142uchowie",
                "name": "Szko\u0142a Podstawowa w Cie\u0142uchowie",
                "addr:postcode": "87-620",
                "addr:place": "Cie\u0142uchowo",
                "addr:housenumber": "8",
                "addr:teryt:simc": 863400,
                "phone": "+48 542894351",
                "email": "sp.cieluchowo@wp.pl",
                "ref:regon": "001142630",
                "ref:vatin": "PL4660417613",
                "operator": "Gmina Kik\u00f3\u0142",
                "operator:type": "government",
                "amenity": "school"
            }
        },
        {
            "id": 25773,
            "type": "Feature",
            "geometry": {
                "type": "Point",
                "coordinates": [
                    19.0661099,
                    52.93915
                ]
            },
            "properties": {
                "isced:level": "1;2",
                "ref:rspo": 25773,
                "official_name": "Szko\u0142a Podstawowa im. Ireny Sendlerowej w Woli",
                "name": "Szko\u0142a Podstawowa",
                "addr:postcode": "87-620",
                "addr:place": "Wola",
                "addr:housenumber": "71a",
                "addr:teryt:simc": 863681,
                "phone": "+48 542894484",
                "email": "sekretariat@spwola.eu",
                "ref:regon": "001142713",
                "ref:vatin": "PL4660417659",
                "operator": "Gmina Kik\u00f3\u0142",
                "operator:type": "government",
                "amenity": "school"
            }
        },
        {
            "id": 132211,
            "type": "Feature",
            "geometry": {
                "type": "Point",
                "coordinates": [
                    19.06118,
                    52.93927
                ]
            },
            "properties": {
                "ref:rspo": 132211,
                "official_name": "\"Promyczek\" Przedszkole Niepubliczne Dominika Pop\u0142awska-Oleszczuk",
                "name": "\"Promyczek\" Przedszkole Niepubliczne Dominika Pop\u0142awska-Oleszczuk",
                "addr:postcode": "87-620",
                "addr:place": "Wola",
                "addr:housenumber": "6",
                "addr:teryt:simc": 863681,
                "phone": "+48 668380542",
                "email": "oleszczukd@onet.pl",
                "ref:regon": "365509206",
                "ref:vatin": "PL8792349678",
                "operator": "Dominika Pop\u0142awska",
                "operator:type": "private",
                "amenity": "kindergarten"
            }
        },
        {
            "id": 47288,
            "type": "Feature",
            "geometry": {
                "type": "Point",
                "coordinates": [
                    19.14242,
                    52.95695
                ]
            },
            "properties": {
                "isced:level": "1;2",
                "ref:rspo": 47288,
                "official_name": "Szko\u0142a Podstawowa w Zajeziorzu",
                "name": "Szko\u0142a Podstawowa w Zajeziorzu",
                "addr:postcode": "87-620",
                "addr:place": "Zajeziorze",
                "addr:housenumber": "38",
                "addr:teryt:simc": 863729,
                "phone": "+48 609516900",
                "email": "zbogoski@o2.pl",
                "website": "http:\/\/www.spzajeziorze.pl",
                "ref:regon": "341341487",
                "operator": "Stowarzyszenie Na Rzecz Pe\u0142nego Rozwoju Dzieci I M\u0142odzie\u017cy",
                "operator:type": "ngo",
                "amenity": "school"
            }
        }
    ]
}