{
    "type": "FeatureCollection",
    "features": [
        {
            "id": 129030,
            "type": "Feature",
            "geometry": {
                "type": "Point",
                "coordinates": [
                    16.317088,
                    53.899501
                ]
            },
            "properties": {
                "ref:rspo": 129030,
                "official_name": "Niepubliczny O\u015brodek Rehabilitacyjno- Edukacyjno-Wychowawczy w Kowalkach",
                "name": "Niepubliczny O\u015brodek Rehabilitacyjno- Edukacyjno-Wychowawczy w Kowalkach",
                "addr:postcode": "78-220",
                "addr:place": "Kowalki",
                "addr:housenumber": "12",
                "addr:city:simc": 313609,
                "phone": "+48 531696763",
                "ref:regon": "362453787",
                "operator": "Stowarzyszenie \"Ecce Homo\"",
                "operator:type": "ngo",
                "amenity": "school"
            }
        },
        {
            "id": 132064,
            "type": "Feature",
            "geometry": {
                "type": "Point",
                "coordinates": [
                    16.3612371,
                    53.9216628
                ]
            },
            "properties": {
                "ref:rspo": 132064,
                "official_name": "Niepubliczna Szko\u0142a Specjalna Przysposabiaj\u0105ca do Pracy w Kowalkach",
                "name": "Niepubliczna Szko\u0142a Specjalna Przysposabiaj\u0105ca do Pracy w Kowalkach",
                "addr:postcode": "78-220",
                "addr:place": "Kowalki",
                "addr:housenumber": "21",
                "addr:city:simc": 313609,
                "email": "norewkowalki21@wp.pl",
                "ref:regon": "365442287",
                "operator": "Stowarzyszenie \"Ecce Homo\"",
                "operator:type": "ngo",
                "amenity": "school"
            }
        },
        {
            "id": 21014,
            "type": "Feature",
            "geometry": {
                "type": "Point",
                "coordinates": [
                    16.25296,
                    53.92345
                ]
            },
            "properties": {
                "ref:rspo": 21014,
                "official_name": "Gminne Przedszkole \"D\u0119bowa Chatka\" w Tychowie",
                "name": "Gminne Przedszkole \"D\u0119bowa Chatka\" w Tychowie",
                "addr:postcode": "78-220",
                "addr:city": "Tychowo",
                "addr:street": "Adama Mickiewicza",
                "addr:housenumber": "1",
                "addr:city:simc": 313839,
                "addr:street:sym_ul": 12740,
                "phone": "+48 943115045",
                "email": "dyrektor.przedszkole@tychowo.pl",
                "ref:regon": "330283927",
                "ref:vatin": "PL6721844085",
                "operator": "Gmina Tychowo",
                "operator:type": "government",
                "amenity": "kindergarten"
            }
        },
        {
            "id": 21080,
            "type": "Feature",
            "geometry": {
                "type": "Point",
                "coordinates": [
                    16.25197,
                    53.92522
                ]
            },
            "properties": {
                "isced:level": "1;2",
                "ref:rspo": 21080,
                "official_name": "Szko\u0142a Podstawowa im. Adama Mickiewicza w Tychowie",
                "name": "Szko\u0142a Podstawowa",
                "addr:postcode": "78-220",
                "addr:city": "Tychowo",
                "addr:street": "Dworcowa",
                "addr:housenumber": "11",
                "addr:city:simc": 313839,
                "addr:street:sym_ul": 4434,
                "phone": "+48 943439380",
                "email": "sptychowo@interia.pl",
                "website": "http:\/\/sptychowo.edupage.org",
                "ref:regon": "000270320",
                "ref:vatin": "PL6721844116",
                "operator": "Gmina Tychowo",
                "operator:type": "government",
                "amenity": "school"
            }
        },
        {
            "id": 29579,
            "type": "Feature",
            "geometry": {
                "type": "Point",
                "coordinates": [
                    16.26359,
                    53.92722
                ]
            },
            "properties": {
                "isced:level": "3",
                "ref:rspo": 29579,
                "official_name": "Liceum Og\u00f3lnokszta\u0142c\u0105ce w Tychowie",
                "name": "Liceum Og\u00f3lnokszta\u0142c\u0105ce w Tychowie",
                "addr:postcode": "78-220",
                "addr:city": "Tychowo",
                "addr:street": "Parkowa",
                "addr:housenumber": "20",
                "addr:city:simc": 313839,
                "addr:street:sym_ul": 15710,
                "phone": "+48 943115506",
                "email": "zs-t@wp.pl",
                "website": "http:\/\/zsptychowo.pl",
                "ref:regon": "331372946",
                "ref:vatin": "PL6721131238",
                "operator": "Powiat Bia\u0142ogardzki",
                "operator:type": "government",
                "amenity": "school"
            }
        },
        {
            "id": 71103,
            "type": "Feature",
            "geometry": {
                "type": "Point",
                "coordinates": [
                    16.142129,
                    53.930636
                ]
            },
            "properties": {
                "ref:rspo": 71103,
                "official_name": "M\u0142odzie\u017cowy O\u015brodek Wychowawczy w Podborsku",
                "name": "M\u0142odzie\u017cowy O\u015brodek Wychowawczy w Podborsku",
                "addr:postcode": "78-220",
                "addr:place": "Podborsko",
                "addr:housenumber": "12",
                "addr:city:simc": 313495,
                "phone": "+48 943422090",
                "email": "mow47podborsko@wp.pl",
                "website": "http:\/\/mowpodborsko.pl",
                "ref:regon": "331453515",
                "ref:vatin": "PL6721919297",
                "operator": "Powiat Bia\u0142ogardzki",
                "operator:type": "government",
                "fixme": "amenity=social_facility + social_facility=group_home + social_facility:for=juvenile",
                "note": "Children RSPO: 264470;275968"
            }
        },
        {
            "id": 264470,
            "type": "Feature",
            "geometry": {
                "type": "Point",
                "coordinates": [
                    16.142129,
                    53.930606
                ]
            },
            "properties": {
                "isced:level": "1;2",
                "ref:rspo": 264470,
                "official_name": "Szko\u0142a Podstawowa Specjalna w Podborsku",
                "name": "Szko\u0142a Podstawowa Specjalna w Podborsku",
                "addr:postcode": "78-220",
                "addr:place": "Podborsko",
                "addr:housenumber": "12",
                "addr:city:simc": 313495,
                "phone": "+48 943422090",
                "email": "mow47podborsko@wp.pl",
                "website": "http:\/\/www.mowpodborsko.pl",
                "ref:regon": "368357748",
                "operator": "Powiat Bia\u0142ogardzki",
                "operator:type": "government",
                "amenity": "school",
                "note": "Parent RSPO: 71103"
            }
        },
        {
            "id": 275968,
            "type": "Feature",
            "geometry": {
                "type": "Point",
                "coordinates": [
                    16.142129,
                    53.930576
                ]
            },
            "properties": {
                "isced:level": "3",
                "ref:rspo": 275968,
                "official_name": "Bran\u017cowa Szko\u0142a Specjalna I Stopnia w Podborsku",
                "name": "Bran\u017cowa Szko\u0142a Specjalna I Stopnia w Podborsku",
                "addr:postcode": "78-220",
                "addr:place": "Podborsko",
                "addr:housenumber": "12",
                "addr:city:simc": 313495,
                "phone": "+48 943422090",
                "email": "mow47podborsko@wp.pl",
                "ref:regon": "386960063",
                "operator": "Powiat Bia\u0142ogardzki",
                "operator:type": "government",
                "amenity": "school",
                "note": "Parent RSPO: 71103"
            }
        },
        {
            "id": 22602,
            "type": "Feature",
            "geometry": {
                "type": "Point",
                "coordinates": [
                    16.1216264,
                    53.987384
                ]
            },
            "properties": {
                "isced:level": "1;2",
                "ref:rspo": 22602,
                "official_name": "Szko\u0142a Podstawowa w Dobrowie",
                "name": "Szko\u0142a Podstawowa w Dobrowie",
                "addr:postcode": "78-220",
                "addr:place": "Dobrowo",
                "addr:housenumber": "24",
                "addr:city:simc": 313526,
                "phone": "+48 943111650",
                "email": "zsdobrowo@interia.pl",
                "ref:regon": "001176729",
                "operator": "Gmina Tychowo",
                "operator:type": "government",
                "amenity": "school"
            }
        }
    ]
}