{"type":"FeatureCollection","features":[{"id":86311,"type":"Feature","geometry":{"type":"Point","coordinates":[15.763705,53.99128]},"properties":{"isced:level":"1;2","ref:rspo":86311,"official_name":"Szko\u0142a Podstawowa w Karwinie Imienia Macieja Rataja","name":"Szko\u0142a Podstawowa w Karwinie Imienia Macieja Rataja","addr:country":"PL","addr:postcode":"78-230","addr:place":"Karwin","addr:housenumber":"23","addr:teryt:sym_ul":307170,"contact:phone":"+48 943117428","contact:email":"sekretariat@spkarwin.pl","contact:website":"http:\/\/www.spkarwin.pl","ref:regon":"001175078","operator":"Gmina Karlino","operator:type":"government","amenity":"school"}},{"id":86595,"type":"Feature","geometry":{"type":"Point","coordinates":[15.763705,53.99125]},"properties":{"ref:rspo":86595,"official_name":"Ma\u0142e Przedszkole Przy Szkole Podstawowej w Karwinie","name":"Ma\u0142e Przedszkole Przy Szkole Podstawowej w Karwinie","addr:country":"PL","addr:postcode":"78-230","addr:place":"Karwin","addr:housenumber":"23","addr:teryt:sym_ul":307170,"contact:phone":"+48 943117428","contact:email":"sekretariat@spkarwin.pl","contact:website":"http:\/\/www.spkarwin.pl","ref:regon":"321301339","operator":"Gmina Karlino","operator:type":"government","amenity":"kindergarten"}},{"id":86308,"type":"Feature","geometry":{"type":"Point","coordinates":[15.87553,54.03594]},"properties":{"isced:level":"1;2","ref:rspo":86308,"official_name":"Szko\u0142a Podstawowa w Karlinie Imienia Bohater\u00f3w 6 Pomorskiej Dywizji Piechoty","name":"Szko\u0142a Podstawowa w Karlinie Imienia Bohater\u00f3w 6 Pomorskiej Dywizji Piechoty","addr:country":"PL","addr:postcode":"78-230","addr:city":"Karlino","addr:street":"ul. Traugutta","addr:housenumber":"2","addr:teryt:simc":22961,"addr:teryt:sym_ul":949968,"contact:phone":"+48 943117417","contact:email":"dyrektor@spkarlino.pl","contact:website":"http:\/\/spkarlino.pl","ref:regon":"000266614","operator":"Gmina Karlino","operator:type":"government","amenity":"school"}},{"id":19454,"type":"Feature","geometry":{"type":"Point","coordinates":[15.87413,54.03725]},"properties":{"ref:rspo":19454,"official_name":"Zesp\u00f3\u0142 Szk\u00f3\u0142 w Karlinie","name":"Zesp\u00f3\u0142 Szk\u00f3\u0142 w Karlinie","addr:country":"PL","addr:postcode":"78-230","addr:city":"Karlino","addr:street":"ul. Ksi\u0119dza Brz\u00f3ski","addr:housenumber":"6","addr:teryt:simc":37401,"addr:teryt:sym_ul":949968,"contact:phone":"+48 943117844","contact:email":"zskarlino@zskarlino.pl","contact:website":"http:\/\/zskarlino.pl","ref:regon":"331451120","ref:vatin":"PL6721208946","operator":"Gmina Karlino","operator:type":"government","landuse":"education","fixme":"amenity=school, amenity=college albo landuse=education w zale\u017cno\u015bci od tego, jakie plac\u00f3wki wchodz\u0105 w sk\u0142ad zespo\u0142u. Sprawd\u017a, kiedy stosowa\u0107 amenity=* a kiedy landuse=education.","note":"Children RSPO: 71048;71100;71109;263595"}},{"id":71048,"type":"Feature","geometry":{"type":"Point","coordinates":[15.87413,54.03722]},"properties":{"isced:level":"3","ref:rspo":71048,"official_name":"Liceum Og\u00f3lnokszta\u0142c\u0105ce w Karlinie","name":"Liceum Og\u00f3lnokszta\u0142c\u0105ce w Karlinie","addr:country":"PL","addr:postcode":"78-230","addr:city":"Karlino","addr:street":"ul. Ksi\u0119dza Brz\u00f3ski","addr:housenumber":"6","addr:teryt:simc":37401,"addr:teryt:sym_ul":949968,"contact:phone":"+48 943117844","contact:email":"zskarlino@zskarlino.pl","contact:website":"http:\/\/zskarlino.pl","ref:regon":"331451137","ref:vatin":"PL6721917772","operator":"Gmina Karlino","operator:type":"government","amenity":"school","note":"Parent RSPO: 19454"}},{"id":71100,"type":"Feature","geometry":{"type":"Point","coordinates":[15.87413,54.03719]},"properties":{"isced:level":"3","ref:rspo":71100,"official_name":"Bran\u017cowa Szko\u0142a I Stopnia w Karlinie","name":"Bran\u017cowa Szko\u0142a I Stopnia w Karlinie","addr:country":"PL","addr:postcode":"78-230","addr:city":"Karlino","addr:street":"ul. Ksi\u0119dza Brz\u00f3ski","addr:housenumber":"6","addr:teryt:simc":37401,"addr:teryt:sym_ul":949968,"contact:phone":"+48 943117844","contact:email":"zskarlino@zskarlino.pl","contact:website":"http:\/\/www.zskarlino.pl","ref:regon":"320400772","ref:vatin":"PL6721917772","operator":"Gmina Karlino","operator:type":"government","amenity":"school","note":"Parent RSPO: 19454"}},{"id":71109,"type":"Feature","geometry":{"type":"Point","coordinates":[15.87413,54.03716]},"properties":{"isced:level":"3","ref:rspo":71109,"official_name":"Liceum Og\u00f3lnokszta\u0142c\u0105ce dla Doros\u0142ych w Karlinie","name":"Liceum Og\u00f3lnokszta\u0142c\u0105ce dla Doros\u0142ych w Karlinie","addr:country":"PL","addr:postcode":"78-230","addr:city":"Karlino","addr:street":"ul. Ksi\u0119dza Brz\u00f3ski","addr:housenumber":"6","addr:teryt:simc":37401,"addr:teryt:sym_ul":949968,"contact:phone":"+48 943117844","contact:email":"zskarlino@zskarlino.pl","contact:website":"http:\/\/www.zskarlino.pl","ref:regon":"321294214","ref:vatin":"PL6721917772","operator":"Gmina Karlino","operator:type":"government","amenity":"school","note":"Parent RSPO: 19454"}},{"id":263595,"type":"Feature","geometry":{"type":"Point","coordinates":[15.87413,54.03713]},"properties":{"isced:level":"3","ref:rspo":263595,"official_name":"Technikum w Karlinie w Zespole Szk\u00f3\u0142 w Karlinie Przy Ul. Ks. Brz\u00f3ski 6","name":"Technikum w Karlinie w Zespole Szk\u00f3\u0142 w Karlinie Przy Ul. Ks. Brz\u00f3ski 6","addr:country":"PL","addr:postcode":"78-230","addr:city":"Karlino","addr:street":"ul. Ksi\u0119dza Brz\u00f3ski","addr:housenumber":"6","addr:teryt:simc":37401,"addr:teryt:sym_ul":949968,"contact:phone":"+48 943117844","contact:email":"zskarlino@zskarlino.pl","contact:website":"http:\/\/zskarlino.pl","ref:regon":"368207925","operator":"Gmina Karlino","operator:type":"government","amenity":"school","note":"Parent RSPO: 19454"}},{"id":86314,"type":"Feature","geometry":{"type":"Point","coordinates":[15.87898,54.03862]},"properties":{"ref:rspo":86314,"official_name":"Przedszkole Miejskie w Karlinie Imienia Kubusia Puchatka","name":"Przedszkole Miejskie w Karlinie Imienia Kubusia Puchatka","addr:country":"PL","addr:postcode":"78-230","addr:city":"Karlino","addr:street":"ul. Moniuszki","addr:housenumber":"8","addr:teryt:simc":13242,"addr:teryt:sym_ul":949968,"contact:phone":"+48 943070600","contact:email":"karlinoprzedszkole@onet.pl","ref:regon":"331435463","operator":"Gmina Karlino","operator:type":"government","amenity":"kindergarten"}},{"id":22570,"type":"Feature","geometry":{"type":"Point","coordinates":[15.88405,54.04188]},"properties":{"ref:rspo":22570,"official_name":"Niepubliczna Szko\u0142a Specjalna Przysposabiaj\u0105ca Do Pracy w Karlinie","name":"Niepubliczna Szko\u0142a Specjalna Przysposabiaj\u0105ca Do Pracy w Karlinie","addr:country":"PL","addr:postcode":"78-230","addr:city":"Karlino","addr:street":"ul. Koszali\u0144ska","addr:housenumber":"96A","addr:teryt:simc":9509,"addr:teryt:sym_ul":949968,"contact:phone":"+48 947216426","contact:email":"viociel@wp.pl","contact:website":"http:\/\/norew-droga.pl","ref:regon":"321281482","ref:vatin":"PL6722030456","operator":"Stowarzyszenie Integracji Spo\u0142ecznej \"Droga\"","operator:type":"ngo","amenity":"school"}},{"id":22584,"type":"Feature","geometry":{"type":"Point","coordinates":[15.88405,54.04185]},"properties":{"ref:rspo":22584,"official_name":"Niepubliczny O\u015brodek Rehabilitacyjno-Edukacyjno- Wychowawczy w Karlinie","name":"Niepubliczny O\u015brodek Rehabilitacyjno-Edukacyjno- Wychowawczy w Karlinie","addr:country":"PL","addr:postcode":"78-230","addr:city":"Karlino","addr:street":"ul. Koszali\u0144ska","addr:housenumber":"96A","addr:teryt:simc":9509,"addr:teryt:sym_ul":949968,"contact:phone":"+48 947216426","contact:email":"viociel@wp.pl","contact:website":"http:\/\/norew-droga.pl","ref:regon":"321281520","ref:vatin":"PL6721985756","operator":"Stowarzyszenie Integracji Spo\u0142ecznej \"Droga\"","operator:type":"ngo","amenity":"school"}},{"id":86309,"type":"Feature","geometry":{"type":"Point","coordinates":[15.78836,54.055813]},"properties":{"isced:level":"1;2","ref:rspo":86309,"official_name":"Szko\u0142a Podstawowa w Kar\u015bcinie","name":"Szko\u0142a Podstawowa w Kar\u015bcinie","addr:country":"PL","addr:postcode":"78-230","addr:place":"Kar\u015bcino","addr:housenumber":"18","addr:teryt:sym_ul":307141,"contact:phone":"+48 943117462","contact:email":"a.maciejewski@spkarscino.pl","contact:website":"http:\/\/spkarscino.superszkolna.pl","ref:regon":"001175055","operator":"Gmina Karlino","operator:type":"government","amenity":"school"}},{"id":86593,"type":"Feature","geometry":{"type":"Point","coordinates":[15.78836,54.055783]},"properties":{"ref:rspo":86593,"official_name":"Ma\u0142e Przedszkole Przy Szkole Podstawowej w Kar\u015bcinie","name":"Ma\u0142e Przedszkole Przy Szkole Podstawowej w Kar\u015bcinie","addr:country":"PL","addr:postcode":"78-230","addr:place":"Kar\u015bcino","addr:housenumber":"18","addr:teryt:sym_ul":307141,"contact:phone":"+48 943117462","contact:email":"a.maciejewski@spkarscino.karlino.pl","ref:regon":"321301300","operator":"Gmina Karlino","operator:type":"government","amenity":"kindergarten"}},{"id":86310,"type":"Feature","geometry":{"type":"Point","coordinates":[15.8812841,54.081214]},"properties":{"isced:level":"1;2","ref:rspo":86310,"official_name":"Szko\u0142a Podstawowa w Daszewie","name":"Szko\u0142a Podstawowa w Daszewie","addr:country":"PL","addr:postcode":"78-230","addr:place":"Daszewo","addr:housenumber":"56","addr:teryt:sym_ul":307030,"contact:phone":"+48 943117450","contact:email":"daszewo@wp.pl","contact:website":"http:\/\/spdaszewo.edupage.org","ref:regon":"001175061","operator":"Gmina Karlino","operator:type":"government","amenity":"school"}},{"id":86594,"type":"Feature","geometry":{"type":"Point","coordinates":[15.8812841,54.081184]},"properties":{"ref:rspo":86594,"official_name":"Ma\u0142e Przedszkole Przy Szkole Podstawowej w Daszewie","name":"Ma\u0142e Przedszkole Przy Szkole Podstawowej w Daszewie","addr:country":"PL","addr:postcode":"78-230","addr:place":"Daszewo","addr:housenumber":"56","addr:teryt:sym_ul":307030,"contact:phone":"+48 943117450","contact:email":"a.plichta@sp-daszewo.pl","contact:website":"http:\/\/sp-daszewo.pl","ref:regon":"321301316","operator":"Gmina Karlino","operator:type":"government","amenity":"kindergarten"}}]}