{"type":"FeatureCollection","features":[{"id":24411,"type":"Feature","geometry":{"type":"Point","coordinates":[22.7793369,51.8742329]},"properties":{"isced:level":"1;2","ref:rspo":24411,"official_name":"Szko\u0142a Podstawowa im. Ks. Kard. Stefana Wyszy\u0144skiego w Sz\u00f3stce","name":"Szko\u0142a Podstawowa","addr:country":"PL","addr:postcode":"21-570","addr:place":"Sz\u00f3stka","addr:housenumber":"8","addr:teryt:sym_ul":11854,"contact:phone":"+48 833721164","contact:email":"szkola.pl@wp.pl","ref:regon":"001119737","ref:vatin":"PL5372153292","operator":"Gmina Drel\u00f3w","operator:type":"government","amenity":"school"}},{"id":24358,"type":"Feature","geometry":{"type":"Point","coordinates":[22.86962,51.91032]},"properties":{"isced:level":"1;2","ref:rspo":24358,"official_name":"Szko\u0142a Podstawowa im.unit\u00f3w Drelowskich w Drelowie","name":"Szko\u0142a Podstawowa im.unit\u00f3w Drelowskich w Drelowie","addr:country":"PL","addr:postcode":"21-570","addr:city":"Drel\u00f3w","addr:street":"ul. Szkolna","addr:housenumber":"11","addr:teryt:simc":21970,"addr:teryt:sym_ul":11653,"contact:phone":"+48 833720012","contact:email":"sp.drelow@vp.pl","contact:website":"http:\/\/www.sp.drelow.pl","ref:regon":"000689622","ref:vatin":"PL5372153234","operator":"Gmina Drel\u00f3w","operator:type":"government","amenity":"school"}},{"id":24538,"type":"Feature","geometry":{"type":"Point","coordinates":[22.86938,51.9192899]},"properties":{"ref:rspo":24538,"official_name":"Samorz\u0105dowe Przedszkole w Drelowie","name":"Samorz\u0105dowe Przedszkole w Drelowie","addr:country":"PL","addr:postcode":"21-570","addr:city":"Drel\u00f3w","addr:street":"ul. Bankowa","addr:housenumber":"17","addr:teryt:simc":692,"addr:teryt:sym_ul":11653,"contact:phone":"+48 833720160","contact:email":"przedszkoledrelow@interia.pl","ref:regon":"000966665","ref:vatin":"PL5372486697","operator":"Gmina Drel\u00f3w","operator:type":"government","amenity":"kindergarten"}},{"id":24752,"type":"Feature","geometry":{"type":"Point","coordinates":[22.9918928,51.920786]},"properties":{"isced:level":"1;2","ref:rspo":24752,"official_name":"Publiczna Szko\u0142a Podstawowa w Witoro\u017cu","name":"Publiczna Szko\u0142a Podstawowa w Witoro\u017cu","addr:country":"PL","addr:postcode":"21-570","addr:place":"Witoro\u017c","addr:housenumber":"2A","addr:teryt:sym_ul":11877,"contact:phone":"+48 833729037","contact:email":"spwitoroz@poczta.onet.pl","ref:regon":"061467437","ref:vatin":"PL5372618035","operator":"Stowarzyszenie Kulturalno-O\u015bwiatowe \"Jeste\u015bmy I Trwamy!\" Z Siedzib\u0105 W Witoro\u017cu","operator:type":"ngo","amenity":"school"}},{"id":24453,"type":"Feature","geometry":{"type":"Point","coordinates":[22.912088,51.9498169]},"properties":{"isced:level":"1;2","ref:rspo":24453,"official_name":"Szko\u0142a Podstawowa im. Legion\u00f3w Polskich w \u017berocinie","name":"Szko\u0142a Podstawowa","addr:country":"PL","addr:postcode":"21-570","addr:place":"\u017berocin","addr:housenumber":"32","addr:teryt:sym_ul":11989,"contact:phone":"+48 833721312","contact:email":"spzerocin@wp.pl","ref:regon":"001119714","ref:vatin":"PL5372153228","operator":"Gmina Drel\u00f3w","operator:type":"government","amenity":"school"}},{"id":31428,"type":"Feature","geometry":{"type":"Point","coordinates":[22.91208,52.00554]},"properties":{"isced:level":"1;2","ref:rspo":31428,"official_name":"Szko\u0142a Podstawowa im. Ks. Jana Twardowskiego w Do\u0142dze","name":"Szko\u0142a Podstawowa","addr:country":"PL","addr:postcode":"21-570","addr:place":"Do\u0142ha","addr:housenumber":"1","addr:teryt:sym_ul":11618,"contact:phone":"+48 833711524","contact:email":"dolha@wp.pl","contact:website":"http:\/\/zsdolhaszkolnastrona.pl\/","ref:regon":"001119743","ref:vatin":"PL5372153211","operator":"Gmina Drel\u00f3w","operator:type":"government","amenity":"school"}}]}