{
    "type": "FeatureCollection",
    "features": [
        {
            "id": 34814,
            "type": "Feature",
            "geometry": {
                "type": "Point",
                "coordinates": [
                    23.53371,
                    52.02387
                ]
            },
            "properties": {
                "ref:rspo": 34814,
                "official_name": "Zesp\u00f3\u0142 Szk\u00f3\u0142 im.kornela Makuszy\u0144skiego w Ma\u0142aszewiczach",
                "name": "Zesp\u00f3\u0142 Szk\u00f3\u0142 im.kornela Makuszy\u0144skiego w Ma\u0142aszewiczach",
                "addr:postcode": "21-540",
                "addr:city": "Ma\u0142aszewicze",
                "addr:street": "Wiejska",
                "addr:housenumber": "7a",
                "addr:city:simc": 20847,
                "addr:street:sym_ul": 24048,
                "phone": "+48 833751406",
                "email": "szkolamalaszewicze@wp.pl",
                "ref:regon": "060084243",
                "ref:vatin": "PL5371050093",
                "operator": "Gmina Terespol",
                "operator:type": "government",
                "landuse": "education",
                "fixme": "amenity=school, amenity=college albo landuse=education w zale\u017cno\u015bci od tego, jakie plac\u00f3wki wchodz\u0105 w sk\u0142ad zespo\u0142u. Sprawd\u017a, kiedy stosowa\u0107 amenity=* a kiedy landuse=education.",
                "note": "Children RSPO: 104086;104087"
            }
        },
        {
            "id": 104086,
            "type": "Feature",
            "geometry": {
                "type": "Point",
                "coordinates": [
                    23.53371,
                    52.02384
                ]
            },
            "properties": {
                "isced:level": "1;2",
                "ref:rspo": 104086,
                "official_name": "Zesp\u00f3\u0142 Szk\u00f3\u0142 im.kornela Makuszy\u0144skiego Szko\u0142a Podstawowa w Ma\u0142aszewiczach",
                "name": "Zesp\u00f3\u0142 Szk\u00f3\u0142 im.kornela Makuszy\u0144skiego Szko\u0142a Podstawowa w Ma\u0142aszewiczach",
                "addr:postcode": "21-540",
                "addr:city": "Ma\u0142aszewicze",
                "addr:street": "Wiejska",
                "addr:housenumber": "7A",
                "addr:city:simc": 20847,
                "addr:street:sym_ul": 24048,
                "phone": "+48 833751406",
                "email": "szkolamalaszewicze@wp.pl",
                "ref:regon": "001121183",
                "operator": "Gmina Terespol",
                "operator:type": "government",
                "amenity": "school",
                "note": "Parent RSPO: 34814"
            }
        },
        {
            "id": 104087,
            "type": "Feature",
            "geometry": {
                "type": "Point",
                "coordinates": [
                    23.53371,
                    52.023810000000005
                ]
            },
            "properties": {
                "ref:rspo": 104087,
                "official_name": "Zesp\u00f3\u0142 Szk\u00f3\u0142 im.kornela Makuszy\u0144skiego Przedszkole w Ma\u0142aszewiczach",
                "name": "Zesp\u00f3\u0142 Szk\u00f3\u0142 im.kornela Makuszy\u0144skiego Przedszkole w Ma\u0142aszewiczach",
                "addr:postcode": "21-540",
                "addr:city": "Ma\u0142aszewicze",
                "addr:street": "Wiejska",
                "addr:housenumber": "7A",
                "addr:city:simc": 20847,
                "addr:street:sym_ul": 24048,
                "phone": "+48 833751406",
                "email": "szkolamalaszewicze@wp.pl",
                "ref:regon": "030185186",
                "operator": "Gmina Terespol",
                "operator:type": "government",
                "amenity": "kindergarten",
                "note": "Parent RSPO: 34814"
            }
        },
        {
            "id": 7853,
            "type": "Feature",
            "geometry": {
                "type": "Point",
                "coordinates": [
                    23.53271,
                    52.02592
                ]
            },
            "properties": {
                "ref:rspo": 7853,
                "official_name": "Zesp\u00f3\u0142 Szk\u00f3\u0142 im. W\u0142. St. Reymonta w Ma\u0142aszewiczach",
                "name": "Zesp\u00f3\u0142 Szk\u00f3\u0142",
                "addr:postcode": "21-540",
                "addr:city": "Ma\u0142aszewicze",
                "addr:street": "Kolejarzy",
                "addr:housenumber": "16",
                "addr:city:simc": 20847,
                "addr:street:sym_ul": 8823,
                "phone": "+48 833751438",
                "email": "zsmal@poczta.fm",
                "website": "http:\/\/malaszewicze.com",
                "ref:regon": "000127226",
                "ref:vatin": "PL5371687318",
                "operator": "Powiat Bialski",
                "operator:type": "government",
                "landuse": "education",
                "fixme": "amenity=school, amenity=college albo landuse=education w zale\u017cno\u015bci od tego, jakie plac\u00f3wki wchodz\u0105 w sk\u0142ad zespo\u0142u. Sprawd\u017a, kiedy stosowa\u0107 amenity=* a kiedy landuse=education.",
                "note": "Children RSPO: 11011;11019;277328"
            }
        },
        {
            "id": 11011,
            "type": "Feature",
            "geometry": {
                "type": "Point",
                "coordinates": [
                    23.53271,
                    52.02589
                ]
            },
            "properties": {
                "isced:level": "3",
                "ref:rspo": 11011,
                "official_name": "Technikum w Ma\u0142aszewiczach",
                "name": "Technikum w Ma\u0142aszewiczach",
                "addr:postcode": "21-540",
                "addr:city": "Ma\u0142aszewicze",
                "addr:street": "Kolejarzy",
                "addr:housenumber": "16",
                "addr:city:simc": 20847,
                "addr:street:sym_ul": 8823,
                "phone": "+48 833751438",
                "email": "zsmal@poczta.fm",
                "website": "http:\/\/malaszewicze.com",
                "ref:regon": "030313827",
                "operator": "Powiat Bialski",
                "operator:type": "government",
                "amenity": "school",
                "note": "Parent RSPO: 7853"
            }
        },
        {
            "id": 11019,
            "type": "Feature",
            "geometry": {
                "type": "Point",
                "coordinates": [
                    23.53271,
                    52.02586
                ]
            },
            "properties": {
                "isced:level": "3",
                "ref:rspo": 11019,
                "official_name": "Liceum Og\u00f3lnokszta\u0142c\u0105ce w Ma\u0142aszewiczach",
                "name": "Liceum Og\u00f3lnokszta\u0142c\u0105ce w Ma\u0142aszewiczach",
                "addr:postcode": "21-540",
                "addr:city": "Ma\u0142aszewicze",
                "addr:street": "Kolejarzy",
                "addr:housenumber": "16",
                "addr:city:simc": 20847,
                "addr:street:sym_ul": 8823,
                "phone": "+48 833751438",
                "email": "zsmal@poczta.fm",
                "website": "http:\/\/malaszewicze.com",
                "ref:regon": "030312271",
                "operator": "Powiat Bialski",
                "operator:type": "government",
                "amenity": "school",
                "note": "Parent RSPO: 7853"
            }
        },
        {
            "id": 277328,
            "type": "Feature",
            "geometry": {
                "type": "Point",
                "coordinates": [
                    23.53271,
                    52.02583
                ]
            },
            "properties": {
                "isced:level": "3",
                "ref:rspo": 277328,
                "official_name": "Bran\u017cowa Szko\u0142a I Stopnia w Ma\u0142aszewiczach w Zespole Szk\u00f3\u0142 im. W\u0142adys\u0142awa Stanis\u0142awa Reymonta w Ma\u0142aszewiczach",
                "name": "Bran\u017cowa Szko\u0142a I Stopnia w Ma\u0142aszewiczach w Zespole Szk\u00f3\u0142",
                "addr:postcode": "21-540",
                "addr:city": "Ma\u0142aszewicze",
                "addr:street": "Kolejarzy",
                "addr:housenumber": "16",
                "addr:city:simc": 20847,
                "addr:street:sym_ul": 8823,
                "phone": "+48 833751438",
                "email": "zsmal@poczta.fm",
                "website": "http:\/\/malaszewicze.com",
                "ref:regon": "388625788",
                "operator": "Powiat Bialski",
                "operator:type": "government",
                "amenity": "school",
                "note": "Parent RSPO: 7853"
            }
        },
        {
            "id": 69769,
            "type": "Feature",
            "geometry": {
                "type": "Point",
                "coordinates": [
                    23.5659,
                    52.0495
                ]
            },
            "properties": {
                "isced:level": "1;2",
                "ref:rspo": 69769,
                "official_name": "Szko\u0142a Podstawowa im.or\u0142a Bia\u0142ego w Kobylanach",
                "name": "Szko\u0142a Podstawowa im.or\u0142a Bia\u0142ego w Kobylanach",
                "addr:postcode": "21-540",
                "addr:city": "Kobylany",
                "addr:street": "S\u0142oneczna",
                "addr:housenumber": "11",
                "addr:city:simc": 20652,
                "addr:street:sym_ul": 20254,
                "phone": "+48 834112070",
                "email": "dyrektor@kobylany.pl",
                "ref:regon": "001121208",
                "ref:vatin": "PL5372227694",
                "operator": "Gmina Terespol",
                "operator:type": "government",
                "amenity": "school"
            }
        },
        {
            "id": 59698,
            "type": "Feature",
            "geometry": {
                "type": "Point",
                "coordinates": [
                    23.09155,
                    52.20941
                ]
            },
            "properties": {
                "isced:level": "1;2",
                "ref:rspo": 59698,
                "official_name": "Szko\u0142a Podstawowa im.juliana Ursyna Niemcewicza w Neplach",
                "name": "Szko\u0142a Podstawowa im.juliana Ursyna Niemcewicza w Neplach",
                "addr:postcode": "21-550",
                "addr:city": "Neple",
                "addr:street": "Parkowa",
                "addr:housenumber": "22",
                "addr:city:simc": 20907,
                "addr:street:sym_ul": 15710,
                "phone": "+48 833751831",
                "email": "spneple@poczta.fm",
                "website": "http:\/\/www.spneple.gminaterespol.pl",
                "ref:regon": "001119915",
                "ref:vatin": "PL5371611367",
                "operator": "Gmina Terespol",
                "operator:type": "government",
                "amenity": "school"
            }
        }
    ]
}