{
    "type": "FeatureCollection",
    "features": [
        {
            "id": 22048,
            "type": "Feature",
            "geometry": {
                "type": "Point",
                "coordinates": [
                    23.4372679,
                    51.945042
                ]
            },
            "properties": {
                "isced:level": "1;2",
                "ref:rspo": 22048,
                "official_name": "Szko\u0142a Podstawowa im. Jana Paw\u0142a II w Po\u0142oskach",
                "name": "Szko\u0142a Podstawowa",
                "addr:country": "PL",
                "addr:postcode": "21-530",
                "addr:place": "Po\u0142oski",
                "addr:housenumber": "45A",
                "addr:teryt:sym_ul": 17220,
                "contact:phone": "+48 833778156",
                "contact:email": "sppoloski@piszczac.pl",
                "ref:regon": "001117299",
                "operator": "Gmina Piszczac",
                "operator:type": "government",
                "amenity": "school"
            }
        },
        {
            "id": 21892,
            "type": "Feature",
            "geometry": {
                "type": "Point",
                "coordinates": [
                    23.37131,
                    51.98216
                ]
            },
            "properties": {
                "ref:rspo": 21892,
                "official_name": "Zesp\u00f3\u0142 Plac\u00f3wek O\u015bwiatowych w Piszczacu",
                "name": "Zesp\u00f3\u0142 Plac\u00f3wek O\u015bwiatowych w Piszczacu",
                "addr:country": "PL",
                "addr:postcode": "21-530",
                "addr:city": "Piszczac",
                "addr:street": "ul. Sp\u00f3\u0142dzielcza",
                "addr:housenumber": "15",
                "addr:teryt:simc": 20696,
                "addr:teryt:sym_ul": 17124,
                "contact:phone": "+48 833778025",
                "contact:email": "zpopiszczac@piszczac.pl",
                "contact:website": "http:\/\/www.zpo.piszczac.pl",
                "ref:regon": "061465266",
                "operator": "Gmina Piszczac",
                "operator:type": "government",
                "landuse": "education",
                "fixme": "amenity=school, amenity=college albo landuse=education w zale\u017cno\u015bci od tego, jakie plac\u00f3wki wchodz\u0105 w sk\u0142ad zespo\u0142u. Sprawd\u017a, kiedy stosowa\u0107 amenity=* a kiedy landuse=education.",
                "note": "Children RSPO: 81067;85754"
            }
        },
        {
            "id": 81067,
            "type": "Feature",
            "geometry": {
                "type": "Point",
                "coordinates": [
                    23.37131,
                    51.98213
                ]
            },
            "properties": {
                "ref:rspo": 81067,
                "official_name": "Przedszkole Samorz\u0105dowe w Piszczacu",
                "name": "Przedszkole Samorz\u0105dowe w Piszczacu",
                "addr:country": "PL",
                "addr:postcode": "21-530",
                "addr:city": "Piszczac",
                "addr:street": "ul. Sp\u00f3\u0142dzielcza",
                "addr:housenumber": "15",
                "addr:teryt:simc": 20696,
                "addr:teryt:sym_ul": 17124,
                "contact:phone": "+48 833778025",
                "contact:email": "zpopiszczac@piszczac.pl",
                "contact:website": "http:\/\/www.zpo.piszczac.pl",
                "ref:regon": "000967972",
                "operator": "Gmina Piszczac",
                "operator:type": "government",
                "amenity": "kindergarten",
                "note": "Parent RSPO: 21892"
            }
        },
        {
            "id": 85754,
            "type": "Feature",
            "geometry": {
                "type": "Point",
                "coordinates": [
                    23.37131,
                    51.9821
                ]
            },
            "properties": {
                "isced:level": "1;2",
                "ref:rspo": 85754,
                "official_name": "Szko\u0142a Podstawowa im. K.makuszy\u0144skiego w Piszczacu",
                "name": "Szko\u0142a Podstawowa",
                "addr:country": "PL",
                "addr:postcode": "21-530",
                "addr:city": "Piszczac",
                "addr:street": "ul. Sp\u00f3\u0142dzielcza",
                "addr:housenumber": "15",
                "addr:teryt:simc": 20696,
                "addr:teryt:sym_ul": 17124,
                "contact:phone": "+48 833778025",
                "contact:email": "zpopiszczac@piszczac.pl",
                "contact:website": "http:\/\/www.zpo.piszczac.pl",
                "ref:regon": "000713177",
                "operator": "Gmina Piszczac",
                "operator:type": "government",
                "amenity": "school",
                "note": "Children RSPO: 278434Parent RSPO: 21892"
            }
        },
        {
            "id": 22490,
            "type": "Feature",
            "geometry": {
                "type": "Point",
                "coordinates": [
                    23.3509427,
                    51.9844873
                ]
            },
            "properties": {
                "ref:rspo": 22490,
                "official_name": "Specjalny O\u015brodek Szkolno-Wychowawczy w Zalutyniu",
                "name": "Specjalny O\u015brodek Szkolno-Wychowawczy w Zalutyniu",
                "addr:country": "PL",
                "addr:postcode": "21-530",
                "addr:place": "Zaluty\u0144",
                "addr:housenumber": "25",
                "addr:teryt:sym_ul": 17348,
                "contact:phone": "+48 833778022",
                "contact:email": "sosw@piszczac.pl",
                "ref:regon": "030932708",
                "ref:vatin": "PL5372273174",
                "operator": "Gmina Piszczac",
                "operator:type": "government",
                "amenity": "school",
                "note": "Children RSPO: 81068;81070"
            }
        },
        {
            "id": 81068,
            "type": "Feature",
            "geometry": {
                "type": "Point",
                "coordinates": [
                    23.3509427,
                    51.984457299999995
                ]
            },
            "properties": {
                "isced:level": "1;2",
                "ref:rspo": 81068,
                "official_name": "Szko\u0142a Podstawowa Specjalna w Zalutyniu",
                "name": "Szko\u0142a Podstawowa Specjalna w Zalutyniu",
                "addr:country": "PL",
                "addr:postcode": "21-530",
                "addr:place": "Zaluty\u0144",
                "addr:housenumber": "25",
                "addr:teryt:sym_ul": 17348,
                "contact:phone": "+48 833778022",
                "contact:email": "sosw@piszczac.pl",
                "ref:regon": "030932737",
                "operator": "Gmina Piszczac",
                "operator:type": "government",
                "amenity": "school",
                "note": "Parent RSPO: 22490"
            }
        },
        {
            "id": 81070,
            "type": "Feature",
            "geometry": {
                "type": "Point",
                "coordinates": [
                    23.3509427,
                    51.9844273
                ]
            },
            "properties": {
                "ref:rspo": 81070,
                "official_name": "Szko\u0142a Specjalna Przysposabiaj\u0105ca Do Pracy w Zalutyniu",
                "name": "Szko\u0142a Specjalna Przysposabiaj\u0105ca Do Pracy w Zalutyniu",
                "addr:country": "PL",
                "addr:postcode": "21-530",
                "addr:place": "Zaluty\u0144",
                "addr:housenumber": "25",
                "addr:teryt:sym_ul": 17348,
                "contact:phone": "+48 833778022",
                "contact:email": "sosw@piszczac.pl",
                "ref:regon": "030948170",
                "operator": "Gmina Piszczac",
                "operator:type": "government",
                "amenity": "school",
                "note": "Parent RSPO: 22490"
            }
        },
        {
            "id": 81071,
            "type": "Feature",
            "geometry": {
                "type": "Point",
                "coordinates": [
                    23.36698,
                    51.99432
                ]
            },
            "properties": {
                "ref:rspo": 81071,
                "official_name": "Przedszkole Samorz\u0105dowe w Choty\u0142owie",
                "name": "Przedszkole Samorz\u0105dowe w Choty\u0142owie",
                "addr:country": "PL",
                "addr:postcode": "21-530",
                "addr:city": "Choty\u0142\u00f3w",
                "addr:street": "ul. Piszczacka",
                "addr:housenumber": "50",
                "addr:teryt:simc": 16357,
                "addr:teryt:sym_ul": 17006,
                "contact:phone": "+48 833778428",
                "contact:email": "zpochotylow@piszczac.pl",
                "contact:website": "http:\/\/www.chotylow.com.pl",
                "ref:regon": "030002814",
                "operator": "Gmina Piszczac",
                "operator:type": "government",
                "amenity": "kindergarten",
                "note": "Parent RSPO: 21891"
            }
        },
        {
            "id": 81072,
            "type": "Feature",
            "geometry": {
                "type": "Point",
                "coordinates": [
                    23.36698,
                    51.99429
                ]
            },
            "properties": {
                "isced:level": "1;2",
                "ref:rspo": 81072,
                "official_name": "Szko\u0142a Podstawowa im. T>Ko\u015bciuszki w Choty\u0142owie",
                "name": "Szko\u0142a Podstawowa",
                "addr:country": "PL",
                "addr:postcode": "21-530",
                "addr:city": "Choty\u0142\u00f3w",
                "addr:street": "ul. Piszczacka",
                "addr:housenumber": "50",
                "addr:teryt:simc": 16357,
                "addr:teryt:sym_ul": 17006,
                "contact:phone": "+48 833778428",
                "contact:email": "zpochotylow@piszczac.pl",
                "contact:website": "http:\/\/www.chotylow.com.pl",
                "ref:regon": "001117260",
                "operator": "Gmina Piszczac",
                "operator:type": "government",
                "amenity": "school",
                "note": "Parent RSPO: 21891"
            }
        },
        {
            "id": 278434,
            "type": "Feature",
            "geometry": {
                "type": "Point",
                "coordinates": [
                    23.4768519,
                    51.996848
                ]
            },
            "properties": {
                "isced:level": "1;2",
                "ref:rspo": 278434,
                "official_name": "Szko\u0142a Filialna w Dobrynce Szko\u0142y Podstawowej im. Kornela Makuszy\u0144skiego w Piszczacu",
                "name": "Szko\u0142a Filialna w Dobrynce Szko\u0142y Podstawowej",
                "addr:country": "PL",
                "addr:postcode": "21-530",
                "addr:place": "Dobrynka",
                "addr:housenumber": "28",
                "addr:teryt:sym_ul": 17029,
                "contact:phone": "+48 833778110",
                "contact:email": "spdobrynka@piszczac.pl",
                "ref:regon": "713177000",
                "operator": "Gmina Piszczac",
                "operator:type": "government",
                "amenity": "school",
                "note": "Parent RSPO: 85754"
            }
        },
        {
            "id": 21891,
            "type": "Feature",
            "geometry": {
                "type": "Point",
                "coordinates": [
                    23.35821,
                    51.99917
                ]
            },
            "properties": {
                "ref:rspo": 21891,
                "official_name": "Zesp\u00f3\u0142 Plac\u00f3wek O\u015bwiatowych w Choty\u0142owie",
                "name": "Zesp\u00f3\u0142 Plac\u00f3wek O\u015bwiatowych w Choty\u0142owie",
                "addr:country": "PL",
                "addr:postcode": "21-530",
                "addr:city": "Choty\u0142\u00f3w",
                "addr:street": "ul. Zaleska",
                "addr:housenumber": "2",
                "addr:teryt:simc": 25487,
                "addr:teryt:sym_ul": 17006,
                "contact:phone": "+48 833778428",
                "contact:email": "zpochotylow@piszczac.pl",
                "ref:regon": "061465243",
                "operator": "Gmina Piszczac",
                "operator:type": "government",
                "landuse": "education",
                "fixme": "amenity=school, amenity=college albo landuse=education w zale\u017cno\u015bci od tego, jakie plac\u00f3wki wchodz\u0105 w sk\u0142ad zespo\u0142u. Sprawd\u017a, kiedy stosowa\u0107 amenity=* a kiedy landuse=education.",
                "note": "Children RSPO: 81071;81072"
            }
        }
    ]
}