{
    "type": "FeatureCollection",
    "features": [
        {
            "id": 4352,
            "type": "Feature",
            "geometry": {
                "type": "Point",
                "coordinates": [
                    23.246066,
                    51.7265019
                ]
            },
            "properties": {
                "isced:level": "1;2",
                "ref:rspo": 4352,
                "official_name": "Szko\u0142a Podstawowa im. Tadeusza Ko\u015bciuszki w Do\u0142holisce",
                "name": "Szko\u0142a Podstawowa",
                "addr:postcode": "21-580",
                "addr:place": "Do\u0142holiska",
                "addr:housenumber": "1",
                "addr:teryt:simc": 21686,
                "phone": "+48 502372029",
                "email": "dolholiskasp@wp.pl",
                "ref:regon": "061448753",
                "operator": "Stowarzyszenie Rozwoju Wsi Do\u0142holiska, \u0141yniew, Marylin, Polubicze, Ratajewicze \"Integracja\"",
                "operator:type": "ngo",
                "amenity": "school"
            }
        },
        {
            "id": 4381,
            "type": "Feature",
            "geometry": {
                "type": "Point",
                "coordinates": [
                    23.1810699,
                    51.75386
                ]
            },
            "properties": {
                "ref:rspo": 4381,
                "official_name": "Zesp\u00f3\u0142 Przedszkolny",
                "name": "Zesp\u00f3\u0142 Przedszkolny",
                "addr:postcode": "21-580",
                "addr:city": "Horodyszcze",
                "addr:street": "Rynek",
                "addr:housenumber": "6",
                "addr:teryt:simc": 21730,
                "addr:teryt:sym_ul": 19253,
                "phone": "+48 502372029",
                "ref:regon": "061449008",
                "operator": "Stowarzyszenie Rozwoju Wsi Do\u0142holiska, \u0141yniew, Marylin, Polubicze, Ratajewicze \"Integracja\"",
                "operator:type": "ngo",
                "amenity": "kindergarten"
            }
        },
        {
            "id": 10885,
            "type": "Feature",
            "geometry": {
                "type": "Point",
                "coordinates": [
                    23.1810699,
                    51.75383
                ]
            },
            "properties": {
                "isced:level": "1;2",
                "ref:rspo": 10885,
                "official_name": "Szko\u0142a Podstawowa w Horodyszczu",
                "name": "Szko\u0142a Podstawowa w Horodyszczu",
                "addr:postcode": "21-580",
                "addr:city": "Horodyszcze",
                "addr:street": "Rynek",
                "addr:housenumber": "6",
                "addr:teryt:simc": 21730,
                "addr:teryt:sym_ul": 19253,
                "phone": "+48 833781289",
                "email": "sphorodyszcze@interia.pl",
                "website": "http:\/\/sphorodyszcze.pl.tl",
                "ref:regon": "001123124",
                "ref:vatin": "PL5372162285",
                "operator": "Gmina Wisznice",
                "operator:type": "government",
                "amenity": "school"
            }
        },
        {
            "id": 4367,
            "type": "Feature",
            "geometry": {
                "type": "Point",
                "coordinates": [
                    23.15431,
                    51.7694199
                ]
            },
            "properties": {
                "isced:level": "1;2",
                "ref:rspo": 4367,
                "official_name": "Szko\u0142a Podstawowa w Polubiczach",
                "name": "Szko\u0142a Podstawowa w Polubiczach",
                "addr:postcode": "21-580",
                "addr:place": "Polubicze Wiejskie Pierwsze",
                "addr:housenumber": "100",
                "addr:teryt:simc": 1061593,
                "phone": "+48 693372339",
                "email": "sp-polubicze@wp.pl",
                "website": "https:\/\/integracja.szkolna.net",
                "ref:regon": "061448919",
                "operator": "Stowarzyszenie Rozwoju Wsi Do\u0142holiska, \u0141yniew, Marylin, Polubicze, Ratajewicze \"Integracja\"",
                "operator:type": "ngo",
                "amenity": "school"
            }
        },
        {
            "id": 7915,
            "type": "Feature",
            "geometry": {
                "type": "Point",
                "coordinates": [
                    23.20544,
                    51.7897
                ]
            },
            "properties": {
                "isced:level": "1;2",
                "ref:rspo": 7915,
                "official_name": "Szko\u0142a Podstawowa Z Oddzia\u0142ami Przedszkola im. J.I. Kraszewskiego w Wisznicach",
                "name": "Szko\u0142a Podstawowa Z Oddzia\u0142ami Przedszkola",
                "addr:postcode": "21-580",
                "addr:city": "Wisznice",
                "addr:street": "Warszawska",
                "addr:housenumber": "19",
                "addr:teryt:simc": 22013,
                "addr:teryt:sym_ul": 23682,
                "phone": "+48 833782006",
                "email": "spwisznice@wp.pl",
                "website": "http:\/\/spwisznice.edu.pl",
                "ref:regon": "000273005",
                "ref:vatin": "PL5372162256",
                "operator": "Gmina Wisznice",
                "operator:type": "government",
                "amenity": "school"
            }
        },
        {
            "id": 8865,
            "type": "Feature",
            "geometry": {
                "type": "Point",
                "coordinates": [
                    23.20429,
                    51.79184
                ]
            },
            "properties": {
                "isced:level": "3",
                "ref:rspo": 8865,
                "official_name": "Liceum Og\u00f3lnokszta\u0142c\u0105ce im. W\u0142. Zawadzkiego w Wisznicach",
                "name": "Liceum Og\u00f3lnokszta\u0142c\u0105ce",
                "addr:postcode": "21-580",
                "addr:city": "Wisznice",
                "addr:street": "Warszawska",
                "addr:housenumber": "44",
                "addr:teryt:simc": 22013,
                "addr:teryt:sym_ul": 23682,
                "phone": "+48 833782010",
                "email": "lozawadzki@op.pl",
                "website": "http:\/\/lowisznice.pl",
                "ref:regon": "000960007",
                "ref:vatin": "PL5391042458",
                "operator": "Powiat Bialski",
                "operator:type": "government",
                "amenity": "school"
            }
        },
        {
            "id": 13897,
            "type": "Feature",
            "geometry": {
                "type": "Point",
                "coordinates": [
                    23.20429,
                    51.79181
                ]
            },
            "properties": {
                "ref:rspo": 13897,
                "official_name": "Szkolne Schronisko M\u0142odzie\u017cowe w Wisznicach",
                "name": "Szkolne Schronisko M\u0142odzie\u017cowe w Wisznicach",
                "addr:postcode": "21-580",
                "addr:city": "Wisznice",
                "addr:street": "Warszawska",
                "addr:housenumber": "44",
                "addr:teryt:simc": 22013,
                "addr:teryt:sym_ul": 23682,
                "phone": "+48 535343525",
                "email": "lo_w@interia.pl",
                "website": "http:\/\/www.lowisznice.pl",
                "ref:regon": "061458823",
                "operator": "Powiat Bialski",
                "operator:type": "government",
                "tourism": "hostel"
            }
        },
        {
            "id": 118877,
            "type": "Feature",
            "geometry": {
                "type": "Point",
                "coordinates": [
                    23.20429,
                    51.79178
                ]
            },
            "properties": {
                "ref:rspo": 118877,
                "official_name": "Powiatowa Poradnia Psychologiczno-Pedagogiczna w Bia\u0142ej Podlaskiej\nFilia w Wisznicach",
                "name": "Powiatowa Poradnia Psychologiczno-Pedagogiczna w Bia\u0142ej Podlaskiej\nFilia w Wisznicach",
                "addr:postcode": "21-580",
                "addr:city": "Wisznice",
                "addr:street": "Warszawska",
                "addr:housenumber": "44",
                "addr:teryt:simc": 22013,
                "addr:teryt:sym_ul": 23682,
                "phone": "+48 833782237",
                "email": "poradniapp@poczta.fm",
                "ref:regon": "615787860",
                "operator": "Powiat Bialski",
                "operator:type": "government",
                "healthcare": "counselling",
                "counselling_type": "education",
                "fixme": "w zale\u017cno\u015bci od przedmiotu dzia\u0142alno\u015bci (np. healthcare=counselling + counselling_type=education albo healthcare=psychotherapist)",
                "note": "Parent RSPO: 115561"
            }
        },
        {
            "id": 129194,
            "type": "Feature",
            "geometry": {
                "type": "Point",
                "coordinates": [
                    23.1993699,
                    51.7943799
                ]
            },
            "properties": {
                "ref:rspo": 129194,
                "official_name": "Niepubliczne Przedszkole Integracyjne Sasanka w Wisznicach",
                "name": "Niepubliczne Przedszkole Integracyjne Sasanka w Wisznicach",
                "addr:postcode": "21-580",
                "addr:city": "Wisznice",
                "addr:street": "Warszawska",
                "addr:housenumber": "88",
                "addr:teryt:simc": 22013,
                "addr:teryt:sym_ul": 23682,
                "phone": "+48 833545883",
                "email": "biuro@sasanka.edu.pl",
                "website": "http:\/\/www.sasanka.edu.pl",
                "ref:regon": "362514313",
                "ref:vatin": "PL5372320933",
                "operator": "Rafa\u0142 Szpilewicz",
                "operator:type": "private",
                "amenity": "kindergarten"
            }
        },
        {
            "id": 129779,
            "type": "Feature",
            "geometry": {
                "type": "Point",
                "coordinates": [
                    23.1993699,
                    51.7943499
                ]
            },
            "properties": {
                "ref:rspo": 129779,
                "official_name": "Niepubliczna Poradnia Psychologiczno-Pedagogiczna w Wisznicach",
                "name": "Niepubliczna Poradnia Psychologiczno-Pedagogiczna w Wisznicach",
                "addr:postcode": "21-580",
                "addr:city": "Wisznice",
                "addr:street": "Warszawska",
                "addr:housenumber": "88",
                "addr:teryt:simc": 22013,
                "addr:teryt:sym_ul": 23682,
                "phone": "+48 503102287",
                "email": "r.szpilewicz@wp.pl",
                "ref:regon": "362903894",
                "operator": "Rafa\u0142 Szpilewicz",
                "operator:type": "private",
                "healthcare": "counselling",
                "counselling_type": "education",
                "fixme": "w zale\u017cno\u015bci od przedmiotu dzia\u0142alno\u015bci (np. healthcare=counselling + counselling_type=education albo healthcare=psychotherapist)"
            }
        },
        {
            "id": 121584,
            "type": "Feature",
            "geometry": {
                "type": "Point",
                "coordinates": [
                    23.152727,
                    51.7967669
                ]
            },
            "properties": {
                "isced:level": "1;2",
                "ref:rspo": 121584,
                "official_name": "Niepubliczna Szko\u0142a Podstawowa",
                "name": "Niepubliczna Szko\u0142a Podstawowa",
                "addr:postcode": "21-580",
                "addr:place": "Dubica Dolna",
                "addr:housenumber": "32",
                "addr:teryt:simc": 21692,
                "phone": "+48 833782053",
                "email": "dubica@op.pl",
                "ref:regon": "061642165",
                "operator": "Stowarzyszenie Rozwoju Wsi \"Osp Jedna Dubica\"",
                "operator:type": "ngo",
                "amenity": "school"
            }
        }
    ]
}