{
    "type": "FeatureCollection",
    "features": [
        {
            "id": 80734,
            "type": "Feature",
            "geometry": {
                "type": "Point",
                "coordinates": [
                    22.74876,
                    51.95869
                ]
            },
            "properties": {
                "isced:level": "1;2",
                "ref:rspo": 80734,
                "official_name": "Publiczna Szko\u0142a Podstawowa im. Kornela Makuszy\u0144skiego w Rzeczycy",
                "name": "Publiczna Szko\u0142a Podstawowa",
                "addr:country": "PL",
                "addr:postcode": "21-560",
                "addr:city": "Rzeczyca",
                "addr:street": "ul. Go\u015bciniec",
                "addr:housenumber": "74",
                "addr:teryt:simc": 5875,
                "addr:teryt:sym_ul": 16142,
                "contact:phone": "+48 833714497",
                "contact:email": "szkola_rzeczyca@miedzyrzecgmina.pl",
                "contact:website": "http:\/\/psprzeczyca.szkolnastrona.pl",
                "ref:regon": "001117359",
                "ref:vatin": "PL5381062531",
                "operator": "Gmina Mi\u0119dzyrzec Podlaski",
                "operator:type": "government",
                "amenity": "school"
            }
        },
        {
            "id": 267883,
            "type": "Feature",
            "geometry": {
                "type": "Point",
                "coordinates": [
                    22.74876,
                    51.958659999999995
                ]
            },
            "properties": {
                "ref:rspo": 267883,
                "official_name": "Przedszkole w Rzeczycy",
                "name": "Przedszkole w Rzeczycy",
                "addr:country": "PL",
                "addr:postcode": "21-560",
                "addr:city": "Rzeczyca",
                "addr:street": "ul. Go\u015bciniec",
                "addr:housenumber": "74",
                "addr:teryt:simc": 5875,
                "addr:teryt:sym_ul": 16142,
                "contact:phone": "+48 833510099",
                "contact:email": "przedszkole_rzeczyca@miedzyrzecgmina.pl",
                "contact:website": "http:\/\/przedszkole-rzeczyca.edupage.org",
                "ref:regon": "380736548",
                "operator": "Gmina Mi\u0119dzyrzec Podlaski",
                "operator:type": "government",
                "amenity": "kindergarten"
            }
        },
        {
            "id": 80731,
            "type": "Feature",
            "geometry": {
                "type": "Point",
                "coordinates": [
                    22.7717742,
                    51.9820663
                ]
            },
            "properties": {
                "isced:level": "1;2",
                "ref:rspo": 80731,
                "official_name": "Publiczna Szko\u0142a Podstawowa im. Marii Konopnickiej w Misiach",
                "name": "Publiczna Szko\u0142a Podstawowa",
                "addr:country": "PL",
                "addr:postcode": "21-560",
                "addr:place": "Misie",
                "addr:housenumber": "118",
                "addr:teryt:sym_ul": 15906,
                "contact:phone": "+48 833711171",
                "contact:email": "szkola_misie@miedzyrzecgmina.pl",
                "contact:website": "http:\/\/sp.misie.org.pl",
                "ref:regon": "001117336",
                "ref:vatin": "PL5381062749",
                "operator": "Gmina Mi\u0119dzyrzec Podlaski",
                "operator:type": "government",
                "amenity": "school"
            }
        },
        {
            "id": 80730,
            "type": "Feature",
            "geometry": {
                "type": "Point",
                "coordinates": [
                    22.7793631,
                    51.9828929
                ]
            },
            "properties": {
                "isced:level": "1;2",
                "ref:rspo": 80730,
                "official_name": "Publiczna Szko\u0142a Podstawowa im. Henryka Sienkiewicza w Halasach",
                "name": "Publiczna Szko\u0142a Podstawowa",
                "addr:country": "PL",
                "addr:postcode": "21-560",
                "addr:place": "Halasy",
                "addr:housenumber": "41",
                "addr:teryt:sym_ul": 15705,
                "contact:phone": "+48 833733015",
                "contact:email": "szkola_halasy@miedzyrzecgmina.pl",
                "ref:regon": "001117394",
                "ref:vatin": "PL5381062212",
                "operator": "Gmina Mi\u0119dzyrzec Podlaski",
                "operator:type": "government",
                "amenity": "school"
            }
        },
        {
            "id": 88101,
            "type": "Feature",
            "geometry": {
                "type": "Point",
                "coordinates": [
                    22.73038,
                    51.98806
                ]
            },
            "properties": {
                "isced:level": "1;2",
                "ref:rspo": 88101,
                "official_name": "Publiczna Szko\u0142a Podstawowa im. \u015aw. Jana Paw\u0142a II w Tuli\u0142owie",
                "name": "Publiczna Szko\u0142a Podstawowa",
                "addr:country": "PL",
                "addr:postcode": "21-560",
                "addr:city": "Tuli\u0142\u00f3w",
                "addr:street": "ul. \u0141ukowska",
                "addr:housenumber": "61A",
                "addr:teryt:simc": 11774,
                "addr:teryt:sym_ul": 16290,
                "contact:phone": "+48 833711241",
                "contact:email": "sp_tulilow@wp.pl",
                "contact:website": "https:\/\/sptulilow.pl\/",
                "ref:regon": "061489864",
                "operator": "Stowarzyszenie Rozwoju Wsi Po\u015bcisze I Tuli\u0142\u00f3w",
                "operator:type": "ngo",
                "amenity": "school"
            }
        },
        {
            "id": 80733,
            "type": "Feature",
            "geometry": {
                "type": "Point",
                "coordinates": [
                    22.8391859,
                    51.9978689
                ]
            },
            "properties": {
                "isced:level": "1;2",
                "ref:rspo": 80733,
                "official_name": "Publiczna Szko\u0142a Podstawowa im. Karola Krysi\u0144skiego w Rudnikach",
                "name": "Publiczna Szko\u0142a Podstawowa",
                "addr:country": "PL",
                "addr:postcode": "21-560",
                "addr:place": "Rudniki",
                "addr:housenumber": "2",
                "addr:teryt:sym_ul": 16136,
                "contact:phone": "+48 833733982",
                "contact:email": "szkola_rudniki@miedzyrzecgmina.pl",
                "contact:website": "http:\/\/www.psprudniki.edupage.org",
                "ref:regon": "001252494",
                "ref:vatin": "PL5381062577",
                "operator": "Gmina Mi\u0119dzyrzec Podlaski",
                "operator:type": "government",
                "amenity": "school"
            }
        },
        {
            "id": 80735,
            "type": "Feature",
            "geometry": {
                "type": "Point",
                "coordinates": [
                    22.70235,
                    52.03037
                ]
            },
            "properties": {
                "isced:level": "1;2",
                "ref:rspo": 80735,
                "official_name": "Publiczna Szko\u0142a Podstawowa im. Miko\u0142aja Kopernika w T\u0142u\u015b\u0107cu",
                "name": "Publiczna Szko\u0142a Podstawowa",
                "addr:country": "PL",
                "addr:postcode": "21-560",
                "addr:place": "T\u0142u\u015bciec",
                "addr:housenumber": "112",
                "addr:teryt:sym_ul": 16260,
                "contact:phone": "+48 833733033",
                "contact:email": "sp-mk@wp.pl",
                "contact:website": "http:\/\/sp-mk.szkolnastrona.pl\/",
                "ref:regon": "001117365",
                "ref:vatin": "PL5381062666",
                "operator": "Gmina Mi\u0119dzyrzec Podlaski",
                "operator:type": "government",
                "amenity": "school"
            }
        },
        {
            "id": 31645,
            "type": "Feature",
            "geometry": {
                "type": "Point",
                "coordinates": [
                    22.8644362,
                    52.0306259
                ]
            },
            "properties": {
                "isced:level": "1;2",
                "ref:rspo": 31645,
                "official_name": "Publiczna Szko\u0142a Podstawowa im. Janusza Kusoci\u0144skiego w Rogo\u017anicy",
                "name": "Publiczna Szko\u0142a Podstawowa",
                "addr:country": "PL",
                "addr:postcode": "21-560",
                "addr:place": "Rogo\u017anica",
                "addr:housenumber": "96",
                "addr:teryt:sym_ul": 16060,
                "contact:phone": "+48 833711793",
                "contact:email": "zespol_rogoznica@miedzyrzecgmina.pl",
                "contact:website": "https:\/\/sprogoznica.edupage.org\/",
                "ref:regon": "001117342",
                "ref:vatin": "PL5372628186",
                "operator": "Gmina Mi\u0119dzyrzec Podlaski",
                "operator:type": "government",
                "amenity": "school"
            }
        },
        {
            "id": 80732,
            "type": "Feature",
            "geometry": {
                "type": "Point",
                "coordinates": [
                    22.6844259,
                    52.1008999
                ]
            },
            "properties": {
                "isced:level": "1;2",
                "ref:rspo": 80732,
                "official_name": "Publiczna Szko\u0142a Podstawowa im. Kardyna\u0142a Stefana Wyszy\u0144skiego w Ko\u017cuszkach",
                "name": "Publiczna Szko\u0142a Podstawowa",
                "addr:country": "PL",
                "addr:postcode": "21-560",
                "addr:place": "Ko\u017cuszki",
                "addr:housenumber": "37",
                "addr:teryt:sym_ul": 15786,
                "contact:phone": "+48 833730192",
                "contact:email": "szkola_kozuszki@miedzyrzecgmina.pl",
                "contact:website": "http:\/\/spkozuszki.edupage.org",
                "ref:regon": "030311863",
                "ref:vatin": "PL5381158449",
                "operator": "Gmina Mi\u0119dzyrzec Podlaski",
                "operator:type": "government",
                "amenity": "school"
            }
        }
    ]
}