{
    "type": "FeatureCollection",
    "features": [
        {
            "id": 263355,
            "type": "Feature",
            "geometry": {
                "type": "Point",
                "coordinates": [
                    23.20852,
                    52.19545
                ]
            },
            "properties": {
                "ref:rspo": 263355,
                "official_name": "Zesp\u00f3\u0142 Plac\u00f3wek O\u015bwiatowych w Janowie Podlaskim",
                "name": "Zesp\u00f3\u0142 Plac\u00f3wek O\u015bwiatowych w Janowie Podlaskim",
                "addr:postcode": "21-505",
                "addr:city": "Jan\u00f3w Podlaski",
                "addr:street": "1 Maja",
                "addr:housenumber": "5",
                "addr:teryt:simc": 12960,
                "addr:teryt:sym_ul": 11926,
                "phone": "+48 833412141",
                "email": "zpo@janowpodlaski.pl",
                "website": "http:\/\/zpo.janowpodlaski.pl",
                "ref:regon": "368182102",
                "ref:vatin": "PL5372639362",
                "operator": "Gmina Jan\u00f3w Podlaski",
                "operator:type": "government",
                "landuse": "education",
                "fixme": "amenity=school, amenity=college albo landuse=education w zale\u017cno\u015bci od tego, jakie plac\u00f3wki wchodz\u0105 w sk\u0142ad zespo\u0142u. Sprawd\u017a, kiedy stosowa\u0107 amenity=* a kiedy landuse=education.",
                "note": "Children RSPO: 89630;89663"
            }
        },
        {
            "id": 89630,
            "type": "Feature",
            "geometry": {
                "type": "Point",
                "coordinates": [
                    23.20852,
                    52.19542
                ]
            },
            "properties": {
                "isced:level": "1;2",
                "ref:rspo": 89630,
                "official_name": "Zesp\u00f3\u0142 Plac\u00f3wek O\u015bwiatowych Szko\u0142a Podstawowa im. Czes\u0142awa Ta\u0144skiego w Janowie Podlaskim",
                "name": "Zesp\u00f3\u0142 Plac\u00f3wek O\u015bwiatowych Szko\u0142a Podstawowa",
                "addr:postcode": "21-505",
                "addr:city": "Jan\u00f3w Podlaski",
                "addr:street": "1 Maja",
                "addr:housenumber": "5",
                "addr:teryt:simc": 12960,
                "addr:teryt:sym_ul": 11926,
                "phone": "+48 833413030",
                "email": "zpo@janowpodlaski.pl",
                "website": "http:\/\/www.zpo.janowpodlaski.pl",
                "ref:regon": "000267453",
                "operator": "Gmina Jan\u00f3w Podlaski",
                "operator:type": "government",
                "amenity": "school",
                "note": "Parent RSPO: 263355"
            }
        },
        {
            "id": 89663,
            "type": "Feature",
            "geometry": {
                "type": "Point",
                "coordinates": [
                    23.20852,
                    52.19539
                ]
            },
            "properties": {
                "ref:rspo": 89663,
                "official_name": "Zesp\u00f3\u0142 Plac\u00f3wek O\u015bwiatowych Przedszkole Samorz\u0105dowe w Janowie Podlaskim",
                "name": "Zesp\u00f3\u0142 Plac\u00f3wek O\u015bwiatowych Przedszkole Samorz\u0105dowe w Janowie Podlaskim",
                "addr:postcode": "21-505",
                "addr:city": "Jan\u00f3w Podlaski",
                "addr:street": "1 Maja",
                "addr:housenumber": "5A",
                "addr:teryt:simc": 12960,
                "addr:teryt:sym_ul": 11926,
                "phone": "+48 833412141",
                "email": "przedszkolejanow@op.pl",
                "website": "http:\/\/www.zpo.janowpodlaski.pl",
                "ref:regon": "000966790",
                "operator": "Gmina Jan\u00f3w Podlaski",
                "operator:type": "government",
                "amenity": "kindergarten",
                "note": "Parent RSPO: 263355"
            }
        },
        {
            "id": 6206,
            "type": "Feature",
            "geometry": {
                "type": "Point",
                "coordinates": [
                    23.20648,
                    52.1971599
                ]
            },
            "properties": {
                "ref:rspo": 6206,
                "official_name": "Zesp\u00f3\u0142 Szk\u00f3\u0142 im. A. Naruszewicza w Janowie Podlaskim",
                "name": "Zesp\u00f3\u0142 Szk\u00f3\u0142",
                "addr:postcode": "21-505",
                "addr:city": "Jan\u00f3w Podlaski",
                "addr:street": "Siedlecka",
                "addr:housenumber": "1",
                "addr:teryt:simc": 12960,
                "addr:teryt:sym_ul": 19769,
                "email": "sekretariat@zsjp.janowpodlaski.net",
                "website": "http:\/\/zsjp.janowpodlaski.net",
                "ref:regon": "000179683",
                "ref:vatin": "PL5371916256",
                "operator": "Powiat Bialski",
                "operator:type": "government",
                "landuse": "education",
                "fixme": "amenity=school, amenity=college albo landuse=education w zale\u017cno\u015bci od tego, jakie plac\u00f3wki wchodz\u0105 w sk\u0142ad zespo\u0142u. Sprawd\u017a, kiedy stosowa\u0107 amenity=* a kiedy landuse=education.",
                "note": "Children RSPO: 7917;8895;9636"
            }
        },
        {
            "id": 7917,
            "type": "Feature",
            "geometry": {
                "type": "Point",
                "coordinates": [
                    23.20648,
                    52.1971299
                ]
            },
            "properties": {
                "isced:level": "3",
                "ref:rspo": 7917,
                "official_name": "Liceum Og\u00f3lnokszta\u0142c\u0105ce w Janowie Podlaskim",
                "name": "Liceum Og\u00f3lnokszta\u0142c\u0105ce w Janowie Podlaskim",
                "addr:postcode": "21-505",
                "addr:city": "Jan\u00f3w Podlaski",
                "addr:street": "Siedlecka",
                "addr:housenumber": "1",
                "addr:teryt:simc": 12960,
                "addr:teryt:sym_ul": 19769,
                "phone": "+48 833413056",
                "email": "sekretariat@zsjp.janowpodlaski.net",
                "website": "http:\/\/zsjp.janowpodlaski.net",
                "ref:regon": "000967015",
                "operator": "Powiat Bialski",
                "operator:type": "government",
                "amenity": "school",
                "note": "Parent RSPO: 6206"
            }
        },
        {
            "id": 8895,
            "type": "Feature",
            "geometry": {
                "type": "Point",
                "coordinates": [
                    23.20648,
                    52.197099900000005
                ]
            },
            "properties": {
                "isced:level": "3",
                "ref:rspo": 8895,
                "official_name": "Technikum w Janowie Podlaskim",
                "name": "Technikum w Janowie Podlaskim",
                "addr:postcode": "21-505",
                "addr:city": "Jan\u00f3w Podlaski",
                "addr:street": "Siedlecka",
                "addr:housenumber": "1",
                "addr:teryt:simc": 12960,
                "addr:teryt:sym_ul": 19769,
                "phone": "+48 833413056",
                "email": "sekretariat@zsjp.janowpodlaski.net",
                "website": "http:\/\/zsjp.janowpodlaski.net",
                "ref:regon": "030313968",
                "operator": "Powiat Bialski",
                "operator:type": "government",
                "amenity": "school",
                "note": "Parent RSPO: 6206"
            }
        },
        {
            "id": 9636,
            "type": "Feature",
            "geometry": {
                "type": "Point",
                "coordinates": [
                    23.20648,
                    52.1970699
                ]
            },
            "properties": {
                "ref:rspo": 9636,
                "official_name": "Szkolne Schronisko M\u0142odzie\u017cowe w Janowie Podlaskim",
                "name": "Szkolne Schronisko M\u0142odzie\u017cowe w Janowie Podlaskim",
                "addr:postcode": "21-505",
                "addr:city": "Jan\u00f3w Podlaski",
                "addr:street": "Siedlecka",
                "addr:housenumber": "1",
                "addr:teryt:simc": 12960,
                "addr:teryt:sym_ul": 19769,
                "email": "sekretariat@zsjp.janowpodlaski.net",
                "website": "http:\/\/zsjp.janowpodlaski.net",
                "ref:regon": "061455776",
                "operator": "Powiat Bialski",
                "operator:type": "government",
                "tourism": "hostel",
                "note": "Parent RSPO: 6206"
            }
        }
    ]
}