{
    "type": "FeatureCollection",
    "features": [
        {
            "id": 6027,
            "type": "Feature",
            "geometry": {
                "type": "Point",
                "coordinates": [
                    22.78019,
                    51.97645
                ]
            },
            "properties": {
                "ref:rspo": 6027,
                "official_name": "Samorz\u0105dowe Przedszkole Nr 4 im. Czes\u0142awa Janczarskiego w Mi\u0119dzyrzecu Podlaskim",
                "name": "Samorz\u0105dowe Przedszkole Nr 4",
                "addr:postcode": "21-560",
                "addr:city": "Mi\u0119dzyrzec Podlaski",
                "addr:street": "Wita Stwosza",
                "addr:housenumber": "1",
                "addr:teryt:simc": 922159,
                "addr:teryt:sym_ul": 21435,
                "phone": "+48 833717801",
                "email": "przedszkole4mcp@gmail.com",
                "ref:regon": "030002524",
                "ref:vatin": "PL5381517517",
                "operator": "Miasto Mi\u0119dzyrzec Podlaski",
                "operator:type": "government",
                "amenity": "kindergarten",
                "note": "Parent RSPO: 3438"
            }
        },
        {
            "id": 3438,
            "type": "Feature",
            "geometry": {
                "type": "Point",
                "coordinates": [
                    22.78198,
                    51.97818
                ]
            },
            "properties": {
                "ref:rspo": 3438,
                "official_name": "Zesp\u00f3\u0142 Plac\u00f3wek O\u015bwiatowych Nr 2 w Mi\u0119dzyrzecu Podlaskim",
                "name": "Zesp\u00f3\u0142 Plac\u00f3wek O\u015bwiatowych Nr 2 w Mi\u0119dzyrzecu Podlaskim",
                "addr:postcode": "21-560",
                "addr:city": "Mi\u0119dzyrzec Podlaski",
                "addr:street": "Partyzant\u00f3w",
                "addr:housenumber": "8",
                "addr:teryt:simc": 922159,
                "addr:teryt:sym_ul": 15733,
                "phone": "+48 833712967",
                "email": "zpo2mc@hotmail.com",
                "website": "http:\/\/www.zpo2.miedzyrzec.pl",
                "ref:regon": "061446286",
                "operator": "Miasto Mi\u0119dzyrzec Podlaski",
                "operator:type": "government",
                "landuse": "education",
                "fixme": "amenity=school, amenity=college albo landuse=education w zale\u017cno\u015bci od tego, jakie plac\u00f3wki wchodz\u0105 w sk\u0142ad zespo\u0142u. Sprawd\u017a, kiedy stosowa\u0107 amenity=* a kiedy landuse=education.",
                "note": "Children RSPO: 6027;6735"
            }
        },
        {
            "id": 6735,
            "type": "Feature",
            "geometry": {
                "type": "Point",
                "coordinates": [
                    22.78198,
                    51.97815
                ]
            },
            "properties": {
                "isced:level": "1;2",
                "ref:rspo": 6735,
                "official_name": "Szko\u0142a Podstawowa Nr 2 Z Oddzia\u0142ami Integracyjnymi, Sportowymi I Dwuj\u0119zycznymi im. Boles\u0142awa Prusa w Mi\u0119dzyrzecu Podlaskim",
                "name": "Szko\u0142a Podstawowa Nr 2 Z Oddzia\u0142ami Integracyjnymi, Sportowymi I Dwuj\u0119zycznymi",
                "addr:postcode": "21-560",
                "addr:city": "Mi\u0119dzyrzec Podlaski",
                "addr:street": "Partyzant\u00f3w",
                "addr:housenumber": "8",
                "addr:teryt:simc": 922159,
                "addr:teryt:sym_ul": 15733,
                "phone": "+48 833712967",
                "email": "zpo2mc@hotmail.com",
                "website": "http:\/\/zpo2.miedzyrzec.pl\/",
                "ref:regon": "000258862",
                "ref:vatin": "PL5381025808",
                "operator": "Miasto Mi\u0119dzyrzec Podlaski",
                "operator:type": "government",
                "amenity": "school",
                "note": "Parent RSPO: 3438"
            }
        },
        {
            "id": 75566,
            "type": "Feature",
            "geometry": {
                "type": "Point",
                "coordinates": [
                    22.77055,
                    51.98081
                ]
            },
            "properties": {
                "ref:rspo": 75566,
                "official_name": "Pa\u0144stwowa Szko\u0142a Muzyczna I St. im. Karola Kurpi\u0144skiego w Mi\u0119dzyrzecu Podlaskim",
                "name": "Pa\u0144stwowa Szko\u0142a Muzyczna I St.",
                "addr:postcode": "21-560",
                "addr:city": "Mi\u0119dzyrzec Podlaski",
                "addr:street": "Lubelska",
                "addr:housenumber": "67",
                "addr:teryt:simc": 922159,
                "addr:teryt:sym_ul": 11307,
                "phone": "+48 833712115",
                "email": "sekretariat1202@muzyczna.edu.pl",
                "website": "http:\/\/muzyczna.edu.pl",
                "ref:regon": "002302171",
                "operator": "Ministerstwo Kultury I Dziedzictwa Narodowego",
                "operator:type": "public",
                "amenity": "music_school"
            }
        },
        {
            "id": 7892,
            "type": "Feature",
            "geometry": {
                "type": "Point",
                "coordinates": [
                    22.7764963,
                    51.9823099
                ]
            },
            "properties": {
                "isced:level": "3",
                "ref:rspo": 7892,
                "official_name": "Liceum Og\u00f3lnokszta\u0142c\u0105ce im. Gen. W\u0142. Sikorskiego w Mi\u0119dzyrzecu Podlaskim",
                "name": "Liceum Og\u00f3lnokszta\u0142c\u0105ce",
                "addr:postcode": "21-560",
                "addr:city": "Mi\u0119dzyrzec Podlaski",
                "addr:street": "Lubelska",
                "addr:housenumber": "57",
                "addr:door": "59",
                "addr:teryt:simc": 922159,
                "addr:teryt:sym_ul": 11307,
                "phone": "+48 833714766",
                "email": "sikorski.lo@wp.pl",
                "website": "http:\/\/www.lo-sikorski.pl",
                "ref:regon": "000231225",
                "ref:vatin": "PL5381029545",
                "operator": "Powiat Bialski",
                "operator:type": "government",
                "amenity": "school"
            }
        },
        {
            "id": 106360,
            "type": "Feature",
            "geometry": {
                "type": "Point",
                "coordinates": [
                    22.78016,
                    51.98333
                ]
            },
            "properties": {
                "ref:rspo": 106360,
                "official_name": "Niepubliczne Przedszkole \"Mi\u015b\"",
                "name": "Niepubliczne Przedszkole \"Mi\u015b\"",
                "addr:postcode": "21-560",
                "addr:city": "Mi\u0119dzyrzec Podlaski",
                "addr:street": "Lubelska",
                "addr:housenumber": "54",
                "addr:teryt:simc": 922159,
                "addr:teryt:sym_ul": 11307,
                "phone": "+48 509331625",
                "email": "mirelka.witkowska@wp.pl",
                "ref:regon": "061508350",
                "ref:vatin": "PL5381326102",
                "operator": "Miros\u0142awa Witkowska-Hawryluk",
                "operator:type": "private",
                "amenity": "kindergarten"
            }
        },
        {
            "id": 6025,
            "type": "Feature",
            "geometry": {
                "type": "Point",
                "coordinates": [
                    22.78799,
                    51.98359
                ]
            },
            "properties": {
                "ref:rspo": 6025,
                "official_name": "Samorz\u0105dowe Przedszkole Nr 2 w Mi\u0119dzyrzecu Podlaskim",
                "name": "Samorz\u0105dowe Przedszkole Nr 2 w Mi\u0119dzyrzecu Podlaskim",
                "addr:postcode": "21-560",
                "addr:city": "Mi\u0119dzyrzec Podlaski",
                "addr:street": "Przedszkolna",
                "addr:housenumber": "2",
                "addr:teryt:simc": 922159,
                "addr:teryt:sym_ul": 17683,
                "phone": "+48 833717799",
                "email": "mc-podl-przedszkole2@wp.pl",
                "website": "http:\/\/www.przedszkole2mc.przedszkolowo.pl",
                "ref:regon": "030002501",
                "ref:vatin": "PL5381517463",
                "operator": "Miasto Mi\u0119dzyrzec Podlaski",
                "operator:type": "government",
                "amenity": "kindergarten",
                "note": "Parent RSPO: 3437"
            }
        },
        {
            "id": 6984,
            "type": "Feature",
            "geometry": {
                "type": "Point",
                "coordinates": [
                    22.78249,
                    51.98694
                ]
            },
            "properties": {
                "ref:rspo": 6984,
                "official_name": "Zesp\u00f3\u0142 Szk\u00f3\u0142 Technicznych im. Unit\u00f3w Podlaskich w Mi\u0119dzyrzecu Podlaskim",
                "name": "Zesp\u00f3\u0142 Szk\u00f3\u0142 Technicznych",
                "addr:postcode": "21-560",
                "addr:city": "Mi\u0119dzyrzec Podlaski",
                "addr:street": "Warszawska",
                "addr:housenumber": "30",
                "addr:teryt:simc": 922159,
                "addr:teryt:sym_ul": 23682,
                "phone": "+48 833712015",
                "email": "zst.miedzyrzec@onet.pl",
                "website": "http:\/\/www.zst.szkola.pl",
                "ref:regon": "000198380",
                "ref:vatin": "PL5381029580",
                "operator": "Powiat Bialski",
                "operator:type": "government",
                "landuse": "education",
                "fixme": "amenity=school, amenity=college albo landuse=education w zale\u017cno\u015bci od tego, jakie plac\u00f3wki wchodz\u0105 w sk\u0142ad zespo\u0142u. Sprawd\u017a, kiedy stosowa\u0107 amenity=* a kiedy landuse=education.",
                "note": "Children RSPO: 9728;10525;10967"
            }
        },
        {
            "id": 9728,
            "type": "Feature",
            "geometry": {
                "type": "Point",
                "coordinates": [
                    22.78249,
                    51.986909999999995
                ]
            },
            "properties": {
                "isced:level": "3",
                "ref:rspo": 9728,
                "official_name": "Technikum w Mi\u0119dzyrzecu Podlaskim",
                "name": "Technikum w Mi\u0119dzyrzecu Podlaskim",
                "addr:postcode": "21-560",
                "addr:city": "Mi\u0119dzyrzec Podlaski",
                "addr:street": "Warszawska",
                "addr:housenumber": "30",
                "addr:teryt:simc": 922159,
                "addr:teryt:sym_ul": 23682,
                "phone": "+48 833712015",
                "email": "zst.miedzyrzec@onet.pl",
                "website": "http:\/\/www.zst.szkola.pl",
                "ref:regon": "030312414",
                "operator": "Powiat Bialski",
                "operator:type": "government",
                "amenity": "school",
                "note": "Parent RSPO: 6984"
            }
        },
        {
            "id": 10525,
            "type": "Feature",
            "geometry": {
                "type": "Point",
                "coordinates": [
                    22.78249,
                    51.98688
                ]
            },
            "properties": {
                "isced:level": "3",
                "ref:rspo": 10525,
                "official_name": "Bran\u017cowa Szko\u0142a I Stopnia w Mi\u0119dzyrzecu Podlaskim",
                "name": "Bran\u017cowa Szko\u0142a I Stopnia w Mi\u0119dzyrzecu Podlaskim",
                "addr:postcode": "21-560",
                "addr:city": "Mi\u0119dzyrzec Podlaski",
                "addr:street": "Warszawska",
                "addr:housenumber": "30",
                "addr:teryt:simc": 922159,
                "addr:teryt:sym_ul": 23682,
                "phone": "+48 833712015",
                "email": "zst.miedzyrzec@onet.pl",
                "website": "http:\/\/www.zst.szkola.pl",
                "ref:regon": "030312408",
                "operator": "Powiat Bialski",
                "operator:type": "government",
                "amenity": "school",
                "note": "Parent RSPO: 6984"
            }
        },
        {
            "id": 10967,
            "type": "Feature",
            "geometry": {
                "type": "Point",
                "coordinates": [
                    22.78249,
                    51.98685
                ]
            },
            "properties": {
                "ref:rspo": 10967,
                "official_name": "Centrum Kszta\u0142cenia Zawodowego w Mi\u0119dzyrzecu Podlaskim",
                "name": "Centrum Kszta\u0142cenia Zawodowego w Mi\u0119dzyrzecu Podlaskim",
                "addr:postcode": "21-560",
                "addr:city": "Mi\u0119dzyrzec Podlaski",
                "addr:street": "Warszawska",
                "addr:housenumber": "30",
                "addr:teryt:simc": 922159,
                "addr:teryt:sym_ul": 23682,
                "phone": "+48 833712015",
                "email": "zst.miedzyrzec@onet.pl",
                "website": "http:\/\/www.zst.szkola.pl",
                "ref:regon": "030312489",
                "operator": "Powiat Bialski",
                "operator:type": "government",
                "fixme": "w zale\u017cno\u015bci od przedmiotu dzia\u0142alno\u015bci (np. amenity=training + training=*, amenity=dancing_school, amenity=language_school, amenity=music_school) albo amenity=school, amenity=college, albo landuse=education w zale\u017cno\u015bci od tego, jakie plac\u00f3wki wchodz\u0105 w sk\u0142ad zespo\u0142u. Sprawd\u017a, kiedy stosowa\u0107 amenity=* a kiedy landuse=education.",
                "note": "Parent RSPO: 6984"
            }
        },
        {
            "id": 118976,
            "type": "Feature",
            "geometry": {
                "type": "Point",
                "coordinates": [
                    22.77286,
                    51.98803
                ]
            },
            "properties": {
                "ref:rspo": 118976,
                "official_name": "Powiatowa Poradnia Psychologiczno-Pedagogiczna w Bia\u0142ej Podlaskiej\nFilia w Mi\u0119dzyrzecu Podlaskim",
                "name": "Powiatowa Poradnia Psychologiczno-Pedagogiczna w Bia\u0142ej Podlaskiej\nFilia w Mi\u0119dzyrzecu Podlaskim",
                "addr:postcode": "21-560",
                "addr:city": "Mi\u0119dzyrzec Podlaski",
                "addr:street": "Czysta",
                "addr:housenumber": "11",
                "addr:teryt:simc": 922159,
                "addr:teryt:sym_ul": 3513,
                "phone": "+48 833716989",
                "email": "ppp_miedzyrzec.podl@wp.pl",
                "ref:regon": "615787860",
                "operator": "Powiat Bialski",
                "operator:type": "government",
                "healthcare": "counselling",
                "counselling_type": "education",
                "fixme": "w zale\u017cno\u015bci od przedmiotu dzia\u0142alno\u015bci (np. healthcare=counselling + counselling_type=education albo healthcare=psychotherapist)",
                "note": "Parent RSPO: 115561"
            }
        },
        {
            "id": 26574,
            "type": "Feature",
            "geometry": {
                "type": "Point",
                "coordinates": [
                    22.77192,
                    51.9882
                ]
            },
            "properties": {
                "ref:rspo": 26574,
                "official_name": "Zesp\u00f3\u0142 Szk\u00f3\u0142 Ekonomicznych im. Marii D\u0105browskiej w Mi\u0119dzyrzecu Podlaskim",
                "name": "Zesp\u00f3\u0142 Szk\u00f3\u0142 Ekonomicznych",
                "addr:postcode": "21-560",
                "addr:city": "Mi\u0119dzyrzec Podlaski",
                "addr:street": "3 Maja",
                "addr:housenumber": "40\/42",
                "addr:teryt:simc": 922159,
                "addr:teryt:sym_ul": 11937,
                "phone": "+48 833717880",
                "email": "szkola@zse.miedzyrzec.pl",
                "website": "http:\/\/www.zse.miedzyrzec.pl",
                "ref:regon": "000333210",
                "ref:vatin": "PL5381029462",
                "operator": "Powiat Bialski",
                "operator:type": "government",
                "landuse": "education",
                "fixme": "amenity=school, amenity=college albo landuse=education w zale\u017cno\u015bci od tego, jakie plac\u00f3wki wchodz\u0105 w sk\u0142ad zespo\u0142u. Sprawd\u017a, kiedy stosowa\u0107 amenity=* a kiedy landuse=education.",
                "note": "Children RSPO: 29988;30044;30113;266403"
            }
        },
        {
            "id": 29988,
            "type": "Feature",
            "geometry": {
                "type": "Point",
                "coordinates": [
                    22.77192,
                    51.98817
                ]
            },
            "properties": {
                "isced:level": "3",
                "ref:rspo": 29988,
                "official_name": "Technikum Zespo\u0142u Szk\u00f3\u0142 Ekonomicznych w Mi\u0119dzyrzecu Podlaskim",
                "name": "Technikum Zespo\u0142u Szk\u00f3\u0142 Ekonomicznych w Mi\u0119dzyrzecu Podlaskim",
                "addr:postcode": "21-560",
                "addr:city": "Mi\u0119dzyrzec Podlaski",
                "addr:street": "3 Maja",
                "addr:housenumber": "40\/42",
                "addr:teryt:simc": 922159,
                "addr:teryt:sym_ul": 11937,
                "phone": "+48 833717880",
                "email": "szkola@zse.miedzyrzec.pl",
                "website": "http:\/\/www.zse.miedzyrzec.pl",
                "ref:regon": "030928730",
                "operator": "Powiat Bialski",
                "operator:type": "government",
                "amenity": "school",
                "note": "Parent RSPO: 26574"
            }
        },
        {
            "id": 30044,
            "type": "Feature",
            "geometry": {
                "type": "Point",
                "coordinates": [
                    22.77192,
                    51.98814
                ]
            },
            "properties": {
                "isced:level": "3",
                "ref:rspo": 30044,
                "official_name": "Liceum Og\u00f3lnokszta\u0142c\u0105ce Zespo\u0142u Szk\u00f3\u0142 Ekonomicznych w Mi\u0119dzyrzecu Podlaskim",
                "name": "Liceum Og\u00f3lnokszta\u0142c\u0105ce Zespo\u0142u Szk\u00f3\u0142 Ekonomicznych w Mi\u0119dzyrzecu Podlaskim",
                "addr:postcode": "21-560",
                "addr:city": "Mi\u0119dzyrzec Podlaski",
                "addr:street": "3 Maja",
                "addr:housenumber": "40\/42",
                "addr:teryt:simc": 922159,
                "addr:teryt:sym_ul": 11937,
                "phone": "+48 833717880",
                "email": "szkola@zse.miedzyrzec.pl",
                "website": "http:\/\/www.zse.miedzyrzec.pl",
                "ref:regon": "030949070",
                "operator": "Powiat Bialski",
                "operator:type": "government",
                "amenity": "school",
                "note": "Parent RSPO: 26574"
            }
        },
        {
            "id": 266403,
            "type": "Feature",
            "geometry": {
                "type": "Point",
                "coordinates": [
                    22.77192,
                    51.98811
                ]
            },
            "properties": {
                "isced:level": "3",
                "ref:rspo": 266403,
                "official_name": "Trzyletnia Bran\u017cowa Szko\u0142a I Stopnia w Zespole Szk\u00f3\u0142 Ekonomicznych im. Marii D\u0105browskiej w Mi\u0119dzyrzecu Podlaskim",
                "name": "Trzyletnia Bran\u017cowa Szko\u0142a I Stopnia w Zespole Szk\u00f3\u0142 Ekonomicznych",
                "addr:postcode": "21-560",
                "addr:city": "Mi\u0119dzyrzec Podlaski",
                "addr:street": "3 Maja",
                "addr:housenumber": "40\/42",
                "addr:teryt:simc": 922159,
                "addr:teryt:sym_ul": 11937,
                "phone": "+48 833717880",
                "email": "szkola@zse.miedzyrzec.pl",
                "website": "http:\/\/www.zse.miedzyrzec.pl",
                "ref:regon": "369479838",
                "operator": "Powiat Bialski",
                "operator:type": "government",
                "amenity": "school",
                "note": "Parent RSPO: 26574"
            }
        },
        {
            "id": 30113,
            "type": "Feature",
            "geometry": {
                "type": "Point",
                "coordinates": [
                    22.77289,
                    51.98989
                ]
            },
            "properties": {
                "ref:rspo": 30113,
                "official_name": "Szkolne Schronisko M\u0142odzie\u017cowe Nr2 w Mi\u0119dzyrzecu Podlaskim",
                "name": "Szkolne Schronisko M\u0142odzie\u017cowe Nr2 w Mi\u0119dzyrzecu Podlaskim",
                "addr:postcode": "21-560",
                "addr:city": "Mi\u0119dzyrzec Podlaski",
                "addr:street": "Czysta",
                "addr:housenumber": "25",
                "addr:teryt:simc": 922159,
                "addr:teryt:sym_ul": 3513,
                "phone": "+48 833717879",
                "email": "zbucka@wp.pl",
                "ref:regon": "060346855",
                "operator": "Powiat Bialski",
                "operator:type": "government",
                "tourism": "hostel",
                "note": "Parent RSPO: 26574"
            }
        },
        {
            "id": 3437,
            "type": "Feature",
            "geometry": {
                "type": "Point",
                "coordinates": [
                    22.77671,
                    51.99017
                ]
            },
            "properties": {
                "ref:rspo": 3437,
                "official_name": "Zesp\u00f3\u0142 Plac\u00f3wek O\u015bwiatowych Nr 1 w Mi\u0119dzyrzecu Podlaskim",
                "name": "Zesp\u00f3\u0142 Plac\u00f3wek O\u015bwiatowych Nr 1 w Mi\u0119dzyrzecu Podlaskim",
                "addr:postcode": "21-560",
                "addr:city": "Mi\u0119dzyrzec Podlaski",
                "addr:street": "Warszawska",
                "addr:housenumber": "40",
                "addr:teryt:simc": 922159,
                "addr:teryt:sym_ul": 23682,
                "phone": "+48 833714337",
                "email": "zpo1mc@o2.pl",
                "website": "http:\/\/www.zpo1.miedzyrzec.pl",
                "ref:regon": "061446270",
                "operator": "Miasto Mi\u0119dzyrzec Podlaski",
                "operator:type": "government",
                "landuse": "education",
                "fixme": "amenity=school, amenity=college albo landuse=education w zale\u017cno\u015bci od tego, jakie plac\u00f3wki wchodz\u0105 w sk\u0142ad zespo\u0142u. Sprawd\u017a, kiedy stosowa\u0107 amenity=* a kiedy landuse=education.",
                "note": "Children RSPO: 5989;6025"
            }
        },
        {
            "id": 5989,
            "type": "Feature",
            "geometry": {
                "type": "Point",
                "coordinates": [
                    22.77671,
                    51.99014
                ]
            },
            "properties": {
                "isced:level": "1;2",
                "ref:rspo": 5989,
                "official_name": "Szko\u0142a Podstawowa Nr 1 Z Oddzia\u0142ami Integracyjnymi I Sportowymi im. Henryka Sienkiewicza w Mi\u0119dzyrzecu Podlaskim",
                "name": "Szko\u0142a Podstawowa Nr 1 Z Oddzia\u0142ami Integracyjnymi I Sportowymi",
                "addr:postcode": "21-560",
                "addr:city": "Mi\u0119dzyrzec Podlaski",
                "addr:street": "Warszawska",
                "addr:housenumber": "40",
                "addr:teryt:simc": 922159,
                "addr:teryt:sym_ul": 23682,
                "phone": "+48 833714337",
                "email": "zpo1mc@o2.pl",
                "website": "http:\/\/www.zpo1.miedzyrzec.pl",
                "ref:regon": "060274601",
                "ref:vatin": "PL5372469351",
                "operator": "Miasto Mi\u0119dzyrzec Podlaski",
                "operator:type": "government",
                "amenity": "school",
                "note": "Parent RSPO: 3437"
            }
        },
        {
            "id": 3440,
            "type": "Feature",
            "geometry": {
                "type": "Point",
                "coordinates": [
                    22.78465,
                    51.99184
                ]
            },
            "properties": {
                "ref:rspo": 3440,
                "official_name": "Specjalny O\u015brodek Szkolno-Wychowawczy w Mi\u0119dzyrzecu Podlaskim",
                "name": "Specjalny O\u015brodek Szkolno-Wychowawczy w Mi\u0119dzyrzecu Podlaskim",
                "addr:postcode": "21-560",
                "addr:city": "Mi\u0119dzyrzec Podlaski",
                "addr:street": "Le\u015bna",
                "addr:housenumber": "2A",
                "addr:teryt:simc": 922159,
                "addr:teryt:sym_ul": 10898,
                "phone": "+48 833119208",
                "email": "sosw1@onet.pl",
                "website": "https:\/\/sosw.miedzyrzec.pl",
                "ref:regon": "060095057",
                "ref:vatin": "PL5372392789",
                "operator": "Miasto Mi\u0119dzyrzec Podlaski",
                "operator:type": "government",
                "amenity": "school",
                "note": "Children RSPO: 4944;127334;127335"
            }
        },
        {
            "id": 4944,
            "type": "Feature",
            "geometry": {
                "type": "Point",
                "coordinates": [
                    22.78465,
                    51.99181
                ]
            },
            "properties": {
                "ref:rspo": 4944,
                "official_name": "Specjalny O\u015brodek Szkolno-Wychowawczy - Szko\u0142a Specjalna Przysposabiaj\u0105ca Do Pracy w Mi\u0119dzyrzecu Podlaskim",
                "name": "Specjalny O\u015brodek Szkolno-Wychowawczy - Szko\u0142a Specjalna Przysposabiaj\u0105ca Do Pracy w Mi\u0119dzyrzecu Podlaskim",
                "addr:postcode": "21-560",
                "addr:city": "Mi\u0119dzyrzec Podlaski",
                "addr:street": "Le\u015bna",
                "addr:housenumber": "2A",
                "addr:teryt:simc": 922159,
                "addr:teryt:sym_ul": 10898,
                "phone": "+48 833119208",
                "email": "sosw1@onet.pl",
                "website": "http:\/\/www.sosw-miedzyrzec.pl\/",
                "ref:regon": "061449876",
                "operator": "Miasto Mi\u0119dzyrzec Podlaski",
                "operator:type": "government",
                "amenity": "school",
                "note": "Parent RSPO: 3440"
            }
        },
        {
            "id": 127334,
            "type": "Feature",
            "geometry": {
                "type": "Point",
                "coordinates": [
                    22.78465,
                    51.991780000000006
                ]
            },
            "properties": {
                "ref:rspo": 127334,
                "official_name": "Specjalny O\u015brodek Szkolno-Wychowawczy - Przedszkole Specjalne Nr 1 w Mi\u0119dzyrzecu Podlaskim",
                "name": "Specjalny O\u015brodek Szkolno-Wychowawczy - Przedszkole Specjalne Nr 1 w Mi\u0119dzyrzecu Podlaskim",
                "addr:postcode": "21-560",
                "addr:city": "Mi\u0119dzyrzec Podlaski",
                "addr:street": "Le\u015bna",
                "addr:housenumber": "2A",
                "addr:teryt:simc": 922159,
                "addr:teryt:sym_ul": 10898,
                "phone": "+48 833119208",
                "email": "sosw1@onet.pl",
                "website": "http:\/\/www.sosw-miedzyrzec.pl\/",
                "ref:regon": "060095809",
                "operator": "Miasto Mi\u0119dzyrzec Podlaski",
                "operator:type": "government",
                "amenity": "kindergarten",
                "note": "Parent RSPO: 3440"
            }
        },
        {
            "id": 127335,
            "type": "Feature",
            "geometry": {
                "type": "Point",
                "coordinates": [
                    22.78465,
                    51.99175
                ]
            },
            "properties": {
                "isced:level": "1;2",
                "ref:rspo": 127335,
                "official_name": "Specjalny O\u015brodek Szkolno-Wychowawczy - Szko\u0142a Podstawowa Specjalna Nr 4 w Mi\u0119dzyrzecu Podlaskim",
                "name": "Specjalny O\u015brodek Szkolno-Wychowawczy - Szko\u0142a Podstawowa Specjalna Nr 4 w Mi\u0119dzyrzecu Podlaskim",
                "addr:postcode": "21-560",
                "addr:city": "Mi\u0119dzyrzec Podlaski",
                "addr:street": "Le\u015bna",
                "addr:housenumber": "2A",
                "addr:teryt:simc": 922159,
                "addr:teryt:sym_ul": 10898,
                "phone": "+48 833119208",
                "email": "sosw1@onet.pl",
                "website": "http:\/\/www.sosw-miedzyrzec.pl\/",
                "ref:regon": "060095850",
                "operator": "Miasto Mi\u0119dzyrzec Podlaski",
                "operator:type": "government",
                "amenity": "school",
                "note": "Parent RSPO: 3440"
            }
        },
        {
            "id": 3439,
            "type": "Feature",
            "geometry": {
                "type": "Point",
                "coordinates": [
                    22.78385,
                    51.99186
                ]
            },
            "properties": {
                "ref:rspo": 3439,
                "official_name": "Zesp\u00f3\u0142 Plac\u00f3wek O\u015bwiatowych Nr 3 w Mi\u0119dzyrzecu Podlaskim",
                "name": "Zesp\u00f3\u0142 Plac\u00f3wek O\u015bwiatowych Nr 3 w Mi\u0119dzyrzecu Podlaskim",
                "addr:postcode": "21-560",
                "addr:city": "Mi\u0119dzyrzec Podlaski",
                "addr:street": "Le\u015bna",
                "addr:housenumber": "2",
                "addr:teryt:simc": 922159,
                "addr:teryt:sym_ul": 10898,
                "phone": "+48 833717835",
                "email": "zpo3@o2.pl",
                "ref:regon": "061160503",
                "ref:vatin": "PL5372618325",
                "operator": "Miasto Mi\u0119dzyrzec Podlaski",
                "operator:type": "government",
                "landuse": "education",
                "fixme": "amenity=school, amenity=college albo landuse=education w zale\u017cno\u015bci od tego, jakie plac\u00f3wki wchodz\u0105 w sk\u0142ad zespo\u0142u. Sprawd\u017a, kiedy stosowa\u0107 amenity=* a kiedy landuse=education.",
                "note": "Children RSPO: 6812;7039"
            }
        },
        {
            "id": 6812,
            "type": "Feature",
            "geometry": {
                "type": "Point",
                "coordinates": [
                    22.78385,
                    51.99183
                ]
            },
            "properties": {
                "ref:rspo": 6812,
                "official_name": "Samorz\u0105dowe Przedszkole Nr 3 Z Oddzia\u0142ami Integracyjnymi w Mi\u0119dzyrzecu Podlaskim",
                "name": "Samorz\u0105dowe Przedszkole Nr 3 Z Oddzia\u0142ami Integracyjnymi w Mi\u0119dzyrzecu Podlaskim",
                "addr:postcode": "21-560",
                "addr:city": "Mi\u0119dzyrzec Podlaski",
                "addr:street": "Le\u015bna",
                "addr:housenumber": "2",
                "addr:teryt:simc": 922159,
                "addr:teryt:sym_ul": 10898,
                "phone": "+48 833717835",
                "email": "przedszkole_nr3@tlen.pl",
                "ref:regon": "030002518",
                "ref:vatin": "PL5381517500",
                "operator": "Miasto Mi\u0119dzyrzec Podlaski",
                "operator:type": "government",
                "amenity": "kindergarten",
                "note": "Parent RSPO: 3439"
            }
        },
        {
            "id": 7039,
            "type": "Feature",
            "geometry": {
                "type": "Point",
                "coordinates": [
                    22.78385,
                    51.991800000000005
                ]
            },
            "properties": {
                "isced:level": "1;2",
                "ref:rspo": 7039,
                "official_name": "Szko\u0142a Podstawowa Nr 3 Z Oddzia\u0142ami Integracyjnymi I Sportowymi im. Jana Paw\u0142a II w Mi\u0119dzyrzecu Podlaskim",
                "name": "Szko\u0142a Podstawowa Nr 3 Z Oddzia\u0142ami Integracyjnymi I Sportowymi",
                "addr:postcode": "21-560",
                "addr:city": "Mi\u0119dzyrzec Podlaski",
                "addr:street": "Le\u015bna",
                "addr:housenumber": "2",
                "addr:teryt:simc": 922159,
                "addr:teryt:sym_ul": 10898,
                "phone": "+48 833717835",
                "email": "zpo3@o2.pl",
                "website": "https:\/\/sp3miedzyrzec.edupage.org",
                "ref:regon": "030004724",
                "ref:vatin": "PL5372470271",
                "operator": "Miasto Mi\u0119dzyrzec Podlaski",
                "operator:type": "government",
                "amenity": "school",
                "note": "Parent RSPO: 3439"
            }
        },
        {
            "id": 276157,
            "type": "Feature",
            "geometry": {
                "type": "Point",
                "coordinates": [
                    22.7846699,
                    51.9931399
                ]
            },
            "properties": {
                "ref:rspo": 276157,
                "official_name": "Niepubliczne Przedszkole J\u0119zykowe \"Ma\u0142y Poliglota\"",
                "name": "Niepubliczne Przedszkole J\u0119zykowe \"Ma\u0142y Poliglota\"",
                "addr:postcode": "21-560",
                "addr:city": "Mi\u0119dzyrzec Podlaski",
                "addr:street": "Le\u015bna",
                "addr:housenumber": "19",
                "addr:teryt:simc": 922159,
                "addr:teryt:sym_ul": 10898,
                "phone": "+48 533320885",
                "email": "przedszkole.malypoliglota.olimp@gmail.com",
                "ref:regon": "387006416",
                "operator": "Mariusz Zasadzi\u0144ski",
                "operator:type": "private",
                "amenity": "kindergarten"
            }
        },
        {
            "id": 131481,
            "type": "Feature",
            "geometry": {
                "type": "Point",
                "coordinates": [
                    22.7898299,
                    51.99347
                ]
            },
            "properties": {
                "ref:rspo": 131481,
                "official_name": "Akademia U\u015bmiechu Przedszkole Niepubliczne",
                "name": "Akademia U\u015bmiechu Przedszkole Niepubliczne",
                "addr:postcode": "21-560",
                "addr:city": "Mi\u0119dzyrzec Podlaski",
                "addr:street": "Lecha Kaczy\u0144skiego",
                "addr:housenumber": "6",
                "addr:teryt:simc": 922159,
                "addr:teryt:sym_ul": 43728,
                "phone": "+48 570004632",
                "email": "akademia.mp@wp.pl",
                "website": "http:\/\/www.akademiamp.pl",
                "ref:regon": "365196983",
                "operator": "Marzena Kole\u015bnicka",
                "operator:type": "private",
                "amenity": "kindergarten"
            }
        }
    ]
}