{
    "type": "FeatureCollection",
    "features": [
        {
            "id": 14024,
            "type": "Feature",
            "geometry": {
                "type": "Point",
                "coordinates": [
                    23.2144729,
                    51.959607
                ]
            },
            "properties": {
                "isced:level": "1;2",
                "ref:rspo": 14024,
                "official_name": "Szko\u0142a Podstawowa im.ks.stanis\u0142awa Brz\u00f3ski w Dokudowie",
                "name": "Szko\u0142a Podstawowa im.ks.stanis\u0142awa Brz\u00f3ski w Dokudowie",
                "addr:country": "PL",
                "addr:postcode": "21-500",
                "addr:place": "Dokud\u00f3w Pierwszy",
                "addr:housenumber": "37A",
                "addr:teryt:simc": 10582,
                "contact:phone": "+48 833411014",
                "contact:email": "spdokudow@op.pl",
                "contact:website": "http:\/\/www.szkola.dokudow.pl",
                "ref:regon": "061458852",
                "ref:vatin": "PL5372181779",
                "operator": "Stowarzyszenie Spo\u0142eczno O\u015bwiatowe \"Nasza Szko\u0142a\"",
                "operator:type": "ngo",
                "amenity": "school"
            }
        },
        {
            "id": 14026,
            "type": "Feature",
            "geometry": {
                "type": "Point",
                "coordinates": [
                    23.26927,
                    51.98349
                ]
            },
            "properties": {
                "isced:level": "1;2",
                "ref:rspo": 14026,
                "official_name": "Szko\u0142a Podstawowa im.wandy Chotomskiej w Ortelu Ksi\u0105\u017c\u0119cym Drugim",
                "name": "Szko\u0142a Podstawowa im.wandy Chotomskiej w Ortelu Ksi\u0105\u017c\u0119cym Drugim",
                "addr:country": "PL",
                "addr:postcode": "21-500",
                "addr:place": "Ortel Ksi\u0105\u017c\u0119cy Drugi",
                "addr:housenumber": "14A",
                "addr:teryt:simc": 10820,
                "contact:phone": "+48 833421737",
                "contact:email": "sportel@o2.pl",
                "contact:website": "http:\/\/www.szkola-ortel.podlasie.pl",
                "ref:regon": "001121349",
                "ref:vatin": "PL5371684248",
                "operator": "Gmina Bia\u0142a Podlaska",
                "operator:type": "government",
                "amenity": "school"
            }
        },
        {
            "id": 115675,
            "type": "Feature",
            "geometry": {
                "type": "Point",
                "coordinates": [
                    23.26927,
                    51.98346
                ]
            },
            "properties": {
                "ref:rspo": 115675,
                "official_name": "Punkt Przedszkolny w Szkole Podstawowej w Ortelu Ksi\u0105\u017c\u0119cym Drugim",
                "name": "Punkt Przedszkolny w Szkole Podstawowej w Ortelu Ksi\u0105\u017c\u0119cym Drugim",
                "addr:country": "PL",
                "addr:postcode": "21-500",
                "addr:place": "Ortel Ksi\u0105\u017c\u0119cy Drugi",
                "addr:housenumber": "14A",
                "addr:teryt:simc": 10820,
                "contact:phone": "+48 833421737",
                "contact:email": "sportel@o2.pl",
                "contact:website": "http:\/\/www.szkola-ortel.az.pl",
                "ref:regon": "061579410",
                "operator": "Gmina Bia\u0142a Podlaska",
                "operator:type": "government",
                "amenity": "kindergarten"
            }
        },
        {
            "id": 265140,
            "type": "Feature",
            "geometry": {
                "type": "Point",
                "coordinates": [
                    23.22738,
                    52.01128
                ]
            },
            "properties": {
                "ref:rspo": 265140,
                "official_name": "Centrum Szkole\u0144 Sashooting",
                "name": "Centrum Szkole\u0144 Sashooting",
                "addr:country": "PL",
                "addr:postcode": "21-500",
                "addr:city": "Czosn\u00f3wka",
                "addr:street": "Topolowa",
                "addr:housenumber": "4e",
                "addr:teryt:simc": 10553,
                "addr:teryt:sym_ul": 22880,
                "contact:phone": "+48 509656204",
                "contact:email": "adam.smolinski@wp.pl",
                "contact:website": "http:\/\/sashooting.pl",
                "ref:regon": "368638200",
                "operator": "Adam Smoli\u0144ski",
                "operator:type": "private",
                "fixme": "w zale\u017cno\u015bci od przedmiotu dzia\u0142alno\u015bci (np. amenity=training + training=*, amenity=dancing_school, amenity=language_school, amenity=music_school) albo amenity=school, amenity=college, albo landuse=education w zale\u017cno\u015bci od tego, jakie plac\u00f3wki wchodz\u0105 w sk\u0142ad zespo\u0142u. Sprawd\u017a, kiedy stosowa\u0107 amenity=* a kiedy landuse=education."
            }
        },
        {
            "id": 268390,
            "type": "Feature",
            "geometry": {
                "type": "Point",
                "coordinates": [
                    23.21864,
                    52.01133
                ]
            },
            "properties": {
                "ref:rspo": 268390,
                "official_name": "Niepubliczne Przedszkole Dolina Mumink\u00f3w w Czosn\u00f3wce",
                "name": "Niepubliczne Przedszkole Dolina Mumink\u00f3w w Czosn\u00f3wce",
                "addr:country": "PL",
                "addr:postcode": "21-500",
                "addr:city": "Czosn\u00f3wka",
                "addr:street": "Bialska",
                "addr:housenumber": "51",
                "addr:teryt:simc": 10553,
                "addr:teryt:sym_ul": 1131,
                "contact:phone": "+48 793088555",
                "contact:email": "biuro@dolinamuminkow.com.pl",
                "ref:regon": "381135970",
                "operator": "Agnieszka Dawidziuk",
                "operator:type": "private",
                "amenity": "kindergarten"
            }
        },
        {
            "id": 14016,
            "type": "Feature",
            "geometry": {
                "type": "Point",
                "coordinates": [
                    22.99819,
                    52.0224
                ]
            },
            "properties": {
                "isced:level": "1;2",
                "ref:rspo": 14016,
                "official_name": "Szko\u0142a Podstawowa im.janiny Porazi\u0144skiej w Styrzy\u0144cu",
                "name": "Szko\u0142a Podstawowa im.janiny Porazi\u0144skiej w Styrzy\u0144cu",
                "addr:country": "PL",
                "addr:postcode": "21-500",
                "addr:city": "Styrzyniec",
                "addr:street": "Dworska",
                "addr:housenumber": "29A",
                "addr:teryt:simc": 10949,
                "addr:teryt:sym_ul": 4446,
                "contact:phone": "+48 833435843",
                "contact:email": "spstyrzyniec@wp.pl",
                "contact:website": "http:\/\/www.spstyrzyniec.pl",
                "ref:regon": "001121326",
                "ref:vatin": "PL5371684314",
                "operator": "Gmina Bia\u0142a Podlaska",
                "operator:type": "government",
                "amenity": "school"
            }
        },
        {
            "id": 93162,
            "type": "Feature",
            "geometry": {
                "type": "Point",
                "coordinates": [
                    22.99819,
                    52.022369999999995
                ]
            },
            "properties": {
                "ref:rspo": 93162,
                "official_name": "Punkt Przedszkolny w Szkole Podstawowej w Styrzy\u0144cu",
                "name": "Punkt Przedszkolny w Szkole Podstawowej w Styrzy\u0144cu",
                "addr:country": "PL",
                "addr:postcode": "21-500",
                "addr:city": "Styrzyniec",
                "addr:street": "Dworska",
                "addr:housenumber": "29A",
                "addr:teryt:simc": 10949,
                "addr:teryt:sym_ul": 4446,
                "contact:phone": "+48 833435843",
                "contact:email": "spstyrzyniec@wp.pl",
                "contact:website": "http:\/\/www.spstyrzyniec.pl",
                "ref:regon": "061497295",
                "operator": "Gmina Bia\u0142a Podlaska",
                "operator:type": "government",
                "amenity": "kindergarten"
            }
        },
        {
            "id": 14015,
            "type": "Feature",
            "geometry": {
                "type": "Point",
                "coordinates": [
                    23.075094,
                    52.030896
                ]
            },
            "properties": {
                "isced:level": "1;2",
                "ref:rspo": 14015,
                "official_name": "Szko\u0142a Podstawowa im.henryka Sienkiewicza w S\u0142awacinku Starym",
                "name": "Szko\u0142a Podstawowa im.henryka Sienkiewicza w S\u0142awacinku Starym",
                "addr:country": "PL",
                "addr:postcode": "21-500",
                "addr:place": "S\u0142awacinek Stary",
                "addr:housenumber": "72",
                "addr:teryt:simc": 10932,
                "contact:phone": "+48 833436804",
                "contact:email": "slawacinekdyrektor@onet.eu",
                "contact:website": "http:\/\/spslawacinek.pl",
                "ref:regon": "001071083",
                "ref:vatin": "PL5371684277",
                "operator": "Gmina Bia\u0142a Podlaska",
                "operator:type": "government",
                "amenity": "school"
            }
        },
        {
            "id": 93161,
            "type": "Feature",
            "geometry": {
                "type": "Point",
                "coordinates": [
                    23.075094,
                    52.030865999999996
                ]
            },
            "properties": {
                "ref:rspo": 93161,
                "official_name": "Punkt Przedszkolny w Szkole Podstawowej w S\u0142awacinku Starym",
                "name": "Punkt Przedszkolny w Szkole Podstawowej w S\u0142awacinku Starym",
                "addr:country": "PL",
                "addr:postcode": "21-500",
                "addr:place": "S\u0142awacinek Stary",
                "addr:housenumber": "72",
                "addr:teryt:simc": 10932,
                "contact:phone": "+48 833436804",
                "contact:email": "slawacinekdyrektor@onet.eu",
                "contact:website": "http:\/\/www.spslawacinekstary.blogspot.com",
                "ref:regon": "061497289",
                "operator": "Gmina Bia\u0142a Podlaska",
                "operator:type": "government",
                "amenity": "kindergarten"
            }
        },
        {
            "id": 14017,
            "type": "Feature",
            "geometry": {
                "type": "Point",
                "coordinates": [
                    23.2616519,
                    52.043431
                ]
            },
            "properties": {
                "isced:level": "1;2",
                "ref:rspo": 14017,
                "official_name": "Szko\u0142a Podstawowa Pomnik 1000-Lecia Nr 1235 im.bohater\u00f3w II Wojny \u015awiatowej w Woskrzenicach Du\u017cych",
                "name": "Szko\u0142a Podstawowa Pomnik 1000-Lecia Nr 1235 im.bohater\u00f3w II Wojny \u015awiatowej w Woskrzenicach Du\u017cych",
                "addr:country": "PL",
                "addr:postcode": "21-500",
                "addr:place": "Woskrzenice Du\u017ce",
                "addr:housenumber": "91",
                "addr:teryt:simc": 11050,
                "contact:phone": "+48 833411106",
                "contact:email": "spwoskrzenice@interia.pl",
                "contact:website": "http:\/\/www.spwoskrzeniceduze.pl.tl",
                "ref:regon": "001121303",
                "ref:vatin": "PL5371684219",
                "operator": "Gmina Bia\u0142a Podlaska",
                "operator:type": "government",
                "amenity": "school"
            }
        },
        {
            "id": 93157,
            "type": "Feature",
            "geometry": {
                "type": "Point",
                "coordinates": [
                    23.2616519,
                    52.043400999999996
                ]
            },
            "properties": {
                "ref:rspo": 93157,
                "official_name": "Punkt Przedszkolny w Szkole Podstawowej w Woskrzenicach Du\u017cych",
                "name": "Punkt Przedszkolny w Szkole Podstawowej w Woskrzenicach Du\u017cych",
                "addr:country": "PL",
                "addr:postcode": "21-500",
                "addr:place": "Woskrzenice Du\u017ce",
                "addr:housenumber": "91",
                "addr:teryt:simc": 11050,
                "contact:phone": "+48 833411106",
                "contact:email": "spwoskrzenice@interia.pl",
                "contact:website": "http:\/\/www.spwoskrzeniceduze.pl.tl",
                "ref:regon": "061496261",
                "operator": "Gmina Bia\u0142a Podlaska",
                "operator:type": "government",
                "amenity": "kindergarten"
            }
        },
        {
            "id": 121953,
            "type": "Feature",
            "geometry": {
                "type": "Point",
                "coordinates": [
                    23.09891,
                    52.05735
                ]
            },
            "properties": {
                "ref:rspo": 121953,
                "official_name": "Niepubliczne Przedszkole ''Smerfowe Przedszkolaki\" w Rakowiskach",
                "name": "Niepubliczne Przedszkole ''Smerfowe Przedszkolaki\" w Rakowiskach",
                "addr:country": "PL",
                "addr:postcode": "21-500",
                "addr:city": "Rakowiska",
                "addr:street": "Amelin",
                "addr:housenumber": "18",
                "addr:teryt:simc": 10872,
                "addr:teryt:sym_ul": 42129,
                "contact:phone": "+48 506168486",
                "contact:email": "smerfy17@onet.pl",
                "contact:website": "http:\/\/smerfoweprzedszkolaki.pl",
                "ref:regon": "061650472",
                "operator": "Anna \u015awiderek",
                "operator:type": "private",
                "amenity": "kindergarten"
            }
        },
        {
            "id": 14020,
            "type": "Feature",
            "geometry": {
                "type": "Point",
                "coordinates": [
                    23.1695671,
                    52.059956
                ]
            },
            "properties": {
                "isced:level": "1;2",
                "ref:rspo": 14020,
                "official_name": "Szko\u0142a Podstawowa im.30 Poleskiej Dywizji Piechoty Ak w Grabanowie",
                "name": "Szko\u0142a Podstawowa im.30 Poleskiej Dywizji Piechoty Ak w Grabanowie",
                "addr:country": "PL",
                "addr:postcode": "21-500",
                "addr:place": "Graban\u00f3w",
                "addr:housenumber": "49A",
                "addr:teryt:simc": 10599,
                "contact:phone": "+48 833420118",
                "contact:email": "spgrabanow@interia.pl",
                "contact:website": "http:\/\/www.grabanow.tau.pl",
                "ref:regon": "030112715",
                "ref:vatin": "PL5372102248",
                "operator": "Gmina Bia\u0142a Podlaska",
                "operator:type": "government",
                "amenity": "school"
            }
        },
        {
            "id": 277940,
            "type": "Feature",
            "geometry": {
                "type": "Point",
                "coordinates": [
                    23.1695671,
                    52.059926
                ]
            },
            "properties": {
                "ref:rspo": 277940,
                "official_name": "Punkt Przedszkolny w Szkole Podstawowej w Grabanowie",
                "name": "Punkt Przedszkolny w Szkole Podstawowej w Grabanowie",
                "addr:country": "PL",
                "addr:postcode": "21-500",
                "addr:place": "Graban\u00f3w",
                "addr:housenumber": "49A",
                "addr:teryt:simc": 10599,
                "contact:phone": "+48 833420118",
                "contact:email": "spgrabanow@interia.pl",
                "contact:website": "http:\/\/www.grabanow.tau.pl",
                "ref:regon": "389698039",
                "operator": "Gmina Bia\u0142a Podlaska",
                "operator:type": "government",
                "amenity": "kindergarten"
            }
        },
        {
            "id": 267969,
            "type": "Feature",
            "geometry": {
                "type": "Point",
                "coordinates": [
                    23.06916,
                    52.06612
                ]
            },
            "properties": {
                "ref:rspo": 267969,
                "official_name": "Przedszkole im. Zaczarowana Kraina w Rakowiskach",
                "name": "Przedszkole",
                "addr:country": "PL",
                "addr:postcode": "21-500",
                "addr:city": "Rakowiska",
                "addr:street": "Wsp\u00f3lna",
                "addr:housenumber": "74",
                "addr:teryt:simc": 10872,
                "addr:teryt:sym_ul": 24885,
                "contact:phone": "+48 834111260",
                "contact:email": "przedszkole.rakowiska@gmina-bialapodlaska.pl",
                "ref:regon": "380799112",
                "operator": "Gmina Bia\u0142a Podlaska",
                "operator:type": "government",
                "amenity": "kindergarten"
            }
        },
        {
            "id": 14014,
            "type": "Feature",
            "geometry": {
                "type": "Point",
                "coordinates": [
                    23.0186129,
                    52.070828
                ]
            },
            "properties": {
                "isced:level": "1;2",
                "ref:rspo": 14014,
                "official_name": "Szko\u0142a Podstawowa im.jana Brzechwy w Sitniku",
                "name": "Szko\u0142a Podstawowa im.jana Brzechwy w Sitniku",
                "addr:country": "PL",
                "addr:postcode": "21-500",
                "addr:place": "Sitnik",
                "addr:housenumber": "47",
                "addr:teryt:simc": 10910,
                "contact:phone": "+48 833410941",
                "contact:email": "spsitnik@interia.pl",
                "contact:website": "http:\/\/spsitnik.pl",
                "ref:regon": "001121332",
                "ref:vatin": "PL5371684308",
                "operator": "Gmina Bia\u0142a Podlaska",
                "operator:type": "government",
                "amenity": "school"
            }
        },
        {
            "id": 93160,
            "type": "Feature",
            "geometry": {
                "type": "Point",
                "coordinates": [
                    23.0186129,
                    52.070797999999996
                ]
            },
            "properties": {
                "ref:rspo": 93160,
                "official_name": "Punkt Przedszkolny w Szkole Podstawowej w Sitniku",
                "name": "Punkt Przedszkolny w Szkole Podstawowej w Sitniku",
                "addr:country": "PL",
                "addr:postcode": "21-500",
                "addr:place": "Sitnik",
                "addr:housenumber": "47",
                "addr:teryt:simc": 10910,
                "contact:phone": "+48 833410941",
                "contact:email": "spsitnik@interia.pl",
                "contact:website": "http:\/\/www.spsitnik.pl",
                "ref:regon": "061497272",
                "operator": "Gmina Bia\u0142a Podlaska",
                "operator:type": "government",
                "amenity": "kindergarten"
            }
        },
        {
            "id": 14018,
            "type": "Feature",
            "geometry": {
                "type": "Point",
                "coordinates": [
                    22.9372599,
                    52.0737499
                ]
            },
            "properties": {
                "isced:level": "1;2",
                "ref:rspo": 14018,
                "official_name": "Szko\u0142a Podstawowa im.1000-Lecia Pa\u0144stwa Polskiego w Sworach",
                "name": "Szko\u0142a Podstawowa im.1000-Lecia Pa\u0144stwa Polskiego w Sworach",
                "addr:country": "PL",
                "addr:postcode": "21-500",
                "addr:city": "Swory",
                "addr:street": "Szkolna",
                "addr:housenumber": "34",
                "addr:teryt:simc": 10961,
                "addr:teryt:sym_ul": 21970,
                "contact:phone": "+48 833433529",
                "contact:email": "spswory@gmail.com",
                "contact:website": "http:\/\/www.spswory.pl",
                "ref:regon": "001121310",
                "ref:vatin": "PL5371684260",
                "operator": "Gmina Bia\u0142a Podlaska",
                "operator:type": "government",
                "amenity": "school"
            }
        },
        {
            "id": 93163,
            "type": "Feature",
            "geometry": {
                "type": "Point",
                "coordinates": [
                    22.9372599,
                    52.0737199
                ]
            },
            "properties": {
                "ref:rspo": 93163,
                "official_name": "Punkt Przedszkolny w Szkole Podstawowej w Sworach",
                "name": "Punkt Przedszkolny w Szkole Podstawowej w Sworach",
                "addr:country": "PL",
                "addr:postcode": "21-500",
                "addr:city": "Swory",
                "addr:street": "Szkolna",
                "addr:housenumber": "34",
                "addr:teryt:simc": 10961,
                "addr:teryt:sym_ul": 21970,
                "contact:phone": "+48 833433529",
                "contact:email": "spswory@gmail.com",
                "contact:website": "http:\/\/www.spswory.pl",
                "ref:regon": "061497303",
                "operator": "Gmina Bia\u0142a Podlaska",
                "operator:type": "government",
                "amenity": "kindergarten"
            }
        },
        {
            "id": 14019,
            "type": "Feature",
            "geometry": {
                "type": "Point",
                "coordinates": [
                    23.119526,
                    52.0756159
                ]
            },
            "properties": {
                "isced:level": "1;2",
                "ref:rspo": 14019,
                "official_name": "Szko\u0142a Podstawowa im.marii Konopnickiej w Ciciborze Du\u017cym",
                "name": "Szko\u0142a Podstawowa im.marii Konopnickiej w Ciciborze Du\u017cym",
                "addr:country": "PL",
                "addr:postcode": "21-500",
                "addr:place": "Cicib\u00f3r Du\u017cy",
                "addr:housenumber": "1A",
                "addr:teryt:simc": 10530,
                "contact:phone": "+48 833115078",
                "contact:email": "spcd@poczta.fm",
                "contact:website": "http:\/\/www.spcicibor.blogspot.com",
                "ref:regon": "001120278",
                "ref:vatin": "PL5371684320",
                "operator": "Gmina Bia\u0142a Podlaska",
                "operator:type": "government",
                "amenity": "school"
            }
        },
        {
            "id": 93158,
            "type": "Feature",
            "geometry": {
                "type": "Point",
                "coordinates": [
                    23.118997,
                    52.076212
                ]
            },
            "properties": {
                "ref:rspo": 93158,
                "official_name": "Punkt Przedszkolny w Szkole Podstawowej w Ciciborze Du\u017cym",
                "name": "Punkt Przedszkolny w Szkole Podstawowej w Ciciborze Du\u017cym",
                "addr:country": "PL",
                "addr:postcode": "21-500",
                "addr:place": "Cicib\u00f3r Du\u017cy",
                "addr:housenumber": "1",
                "addr:teryt:simc": 10530,
                "contact:phone": "+48 833115078",
                "contact:email": "spcd@poczta.fm",
                "contact:website": "http:\/\/www.spcicibor.blogspot.com",
                "ref:regon": "061497059",
                "operator": "Gmina Bia\u0142a Podlaska",
                "operator:type": "government",
                "amenity": "kindergarten"
            }
        },
        {
            "id": 14021,
            "type": "Feature",
            "geometry": {
                "type": "Point",
                "coordinates": [
                    23.1318109,
                    52.0981839
                ]
            },
            "properties": {
                "isced:level": "1;2",
                "ref:rspo": 14021,
                "official_name": "Szko\u0142a Podstawowa im.b\u0142ogos\u0142awionych M\u0119czennik\u00f3w Podlaskich w Hrudzie",
                "name": "Szko\u0142a Podstawowa im.b\u0142ogos\u0142awionych M\u0119czennik\u00f3w Podlaskich w Hrudzie",
                "addr:country": "PL",
                "addr:postcode": "21-500",
                "addr:place": "Hrud",
                "addr:housenumber": "33",
                "addr:teryt:simc": 10636,
                "contact:phone": "+48 833441734",
                "contact:email": "szkhrud@op.pl",
                "contact:website": "http:\/\/www.hrud.tau.pl",
                "ref:regon": "001121361",
                "ref:vatin": "PL5371684202",
                "operator": "Gmina Bia\u0142a Podlaska",
                "operator:type": "government",
                "amenity": "school"
            }
        },
        {
            "id": 93159,
            "type": "Feature",
            "geometry": {
                "type": "Point",
                "coordinates": [
                    23.1318109,
                    52.0981539
                ]
            },
            "properties": {
                "ref:rspo": 93159,
                "official_name": "Punkt Przedszkolny w Szkole Podstawowej w Hrudzie",
                "name": "Punkt Przedszkolny w Szkole Podstawowej w Hrudzie",
                "addr:country": "PL",
                "addr:postcode": "21-500",
                "addr:place": "Hrud",
                "addr:housenumber": "33",
                "addr:teryt:simc": 10636,
                "contact:phone": "+48 833441734",
                "contact:email": "szkhrud@op.pl",
                "contact:website": "http:\/\/www.hrud.tau.pl",
                "ref:regon": "061497065",
                "operator": "Gmina Bia\u0142a Podlaska",
                "operator:type": "government",
                "amenity": "kindergarten"
            }
        }
    ]
}