{
    "type": "FeatureCollection",
    "features": [
        {
            "id": 26289,
            "type": "Feature",
            "geometry": {
                "type": "Point",
                "coordinates": [
                    16.43862,
                    52.06208
                ]
            },
            "properties": {
                "isced:level": "1;2",
                "ref:rspo": 26289,
                "official_name": "Szko\u0142a Podstawowa im. Kompanii Wilkowskiej Powsta\u0144c\u00f3w Wielkopolskich w Wilkowie Polskim",
                "name": "Szko\u0142a Podstawowa",
                "addr:country": "PL",
                "addr:postcode": "64-050",
                "addr:city": "Wilkowo Polskie",
                "addr:street": "ul. Ko\u015bcia\u0144ska",
                "addr:housenumber": "2",
                "addr:teryt:simc": 9539,
                "addr:teryt:sym_ul": 597630,
                "contact:phone": "+48 614434096",
                "contact:email": "sekretariat@spwilkowopolskie.eu",
                "contact:website": "http:\/\/www.spwilkowopolskie.eu",
                "ref:regon": "001225184",
                "ref:vatin": "PL9950105250",
                "operator": "Gmina Wielichowo",
                "operator:type": "government",
                "amenity": "school"
            }
        },
        {
            "id": 26755,
            "type": "Feature",
            "geometry": {
                "type": "Point",
                "coordinates": [
                    16.43336,
                    52.06384
                ]
            },
            "properties": {
                "ref:rspo": 26755,
                "official_name": "Przedszkole w Wilkowie Polskim",
                "name": "Przedszkole w Wilkowie Polskim",
                "addr:country": "PL",
                "addr:postcode": "64-050",
                "addr:city": "Wilkowo Polskie",
                "addr:street": "ul. G\u0142\u00f3wna",
                "addr:housenumber": "1",
                "addr:teryt:simc": 5635,
                "addr:teryt:sym_ul": 597630,
                "contact:phone": "+48 614434273",
                "contact:email": "marzennaskrzypczak@wp.pl",
                "ref:regon": "630680487",
                "ref:vatin": "PL9950105215",
                "operator": "Gmina Wielichowo",
                "operator:type": "government",
                "amenity": "kindergarten"
            }
        },
        {
            "id": 26754,
            "type": "Feature",
            "geometry": {
                "type": "Point",
                "coordinates": [
                    16.39664,
                    52.0666
                ]
            },
            "properties": {
                "ref:rspo": 26754,
                "official_name": "Przedszkole\"Gacek\" w \u015aniatach",
                "name": "Przedszkole\"Gacek\" w \u015aniatach",
                "addr:country": "PL",
                "addr:postcode": "64-050",
                "addr:city": "\u015aniaty",
                "addr:street": "ul. Ratajczaka",
                "addr:housenumber": "8",
                "addr:teryt:simc": 18471,
                "addr:teryt:sym_ul": 597564,
                "contact:phone": "+48 614434207",
                "contact:email": "przedszkolegaceksniaty@wp.pl",
                "ref:regon": "630680470",
                "ref:vatin": "PL9950105221",
                "operator": "Gmina Wielichowo",
                "operator:type": "government",
                "amenity": "kindergarten"
            }
        },
        {
            "id": 26753,
            "type": "Feature",
            "geometry": {
                "type": "Point",
                "coordinates": [
                    16.35349,
                    52.11455
                ]
            },
            "properties": {
                "ref:rspo": 26753,
                "official_name": "Przedszkole \"\u015awiat Bajek\" w Wielichowie",
                "name": "Przedszkole \"\u015awiat Bajek\" w Wielichowie",
                "addr:country": "PL",
                "addr:postcode": "64-050",
                "addr:city": "Wielichowo",
                "addr:street": "ul. \u0141\u0105kowa",
                "addr:housenumber": "66",
                "addr:teryt:simc": 11596,
                "addr:teryt:sym_ul": 971620,
                "contact:phone": "+48 614433049",
                "contact:email": "przedszkole.wielichowo@wp.pl",
                "ref:regon": "630680458",
                "ref:vatin": "PL9950105190",
                "operator": "Gmina Wielichowo",
                "operator:type": "government",
                "amenity": "kindergarten"
            }
        },
        {
            "id": 55470,
            "type": "Feature",
            "geometry": {
                "type": "Point",
                "coordinates": [
                    16.34729,
                    52.11739
                ]
            },
            "properties": {
                "isced:level": "1;2",
                "ref:rspo": 55470,
                "official_name": "Szko\u0142a Podstawowa im. Polskich Noblist\u00f3w w Wielichowie",
                "name": "Szko\u0142a Podstawowa",
                "addr:country": "PL",
                "addr:postcode": "64-050",
                "addr:city": "Wielichowo",
                "addr:street": "ul. Ko\u015bcielna",
                "addr:housenumber": "7a",
                "addr:teryt:simc": 9546,
                "addr:teryt:sym_ul": 971620,
                "contact:phone": "+48 614433016",
                "contact:email": "zswiel@wp.pl",
                "contact:website": "http:\/\/www.spwielichowo.pl",
                "ref:regon": "000657562",
                "ref:vatin": "PL9950105238",
                "operator": "Gmina Wielichowo",
                "operator:type": "government",
                "amenity": "school"
            }
        },
        {
            "id": 26291,
            "type": "Feature",
            "geometry": {
                "type": "Point",
                "coordinates": [
                    16.33831,
                    52.15023
                ]
            },
            "properties": {
                "isced:level": "1;2",
                "ref:rspo": 26291,
                "official_name": "Szko\u0142a Podstawowa w Gradowicach",
                "name": "Szko\u0142a Podstawowa w Gradowicach",
                "addr:country": "PL",
                "addr:postcode": "64-050",
                "addr:city": "Gradowice",
                "addr:street": "ul. Szkolna",
                "addr:housenumber": "20",
                "addr:teryt:simc": 21970,
                "addr:teryt:sym_ul": 597498,
                "contact:email": "gradowicesp@wp.pl",
                "ref:regon": "302238080",
                "ref:vatin": "PL9950150351",
                "operator": "Stowarzyszenie Gospodarczo-Edukacyjne \"Dobro Dziecka\"",
                "operator:type": "ngo",
                "amenity": "school"
            }
        },
        {
            "id": 132148,
            "type": "Feature",
            "geometry": {
                "type": "Point",
                "coordinates": [
                    16.33831,
                    52.1502
                ]
            },
            "properties": {
                "ref:rspo": 132148,
                "official_name": "Przedszkole w Gradowicach",
                "name": "Przedszkole w Gradowicach",
                "addr:country": "PL",
                "addr:postcode": "64-050",
                "addr:city": "Gradowice",
                "addr:street": "ul. Szkolna",
                "addr:housenumber": "20",
                "addr:teryt:simc": 21970,
                "addr:teryt:sym_ul": 597498,
                "contact:email": "przedszkolegradowice@gmail.com",
                "ref:regon": "365484104",
                "operator": "Stowarzyszenie Gospodarczo-Edukacyjne \"Dobro Dziecka\"",
                "operator:type": "ngo",
                "amenity": "kindergarten"
            }
        },
        {
            "id": 26293,
            "type": "Feature",
            "geometry": {
                "type": "Point",
                "coordinates": [
                    16.37186,
                    52.1512
                ]
            },
            "properties": {
                "isced:level": "1;2",
                "ref:rspo": 26293,
                "official_name": "Szko\u0142a Podstawowa im. Polskich Poet\u00f3w w \u0141ubnicy",
                "name": "Szko\u0142a Podstawowa",
                "addr:country": "PL",
                "addr:postcode": "64-050",
                "addr:city": "\u0141ubnica",
                "addr:street": "ul. Szkolna",
                "addr:housenumber": "4",
                "addr:teryt:simc": 21970,
                "addr:teryt:sym_ul": 597506,
                "contact:phone": "+48 614433072",
                "contact:email": "splubnica@interia.pl",
                "ref:regon": "001225209",
                "ref:vatin": "PL9950105267",
                "operator": "Gmina Wielichowo",
                "operator:type": "government",
                "amenity": "school"
            }
        },
        {
            "id": 26752,
            "type": "Feature",
            "geometry": {
                "type": "Point",
                "coordinates": [
                    16.3718499,
                    52.15433
                ]
            },
            "properties": {
                "ref:rspo": 26752,
                "official_name": "Przedszkole w \u0141ubnicy",
                "name": "Przedszkole w \u0141ubnicy",
                "addr:country": "PL",
                "addr:postcode": "64-050",
                "addr:city": "\u0141ubnica",
                "addr:street": "ul. Do\u017cynkowa",
                "addr:housenumber": "4",
                "addr:teryt:simc": 4151,
                "addr:teryt:sym_ul": 597506,
                "contact:phone": "+48 614433137",
                "contact:email": "przedszkolelubnica@op.pl",
                "contact:website": "http:\/\/www.plubnica.szkolnastrona.pl",
                "ref:regon": "630680464",
                "ref:vatin": "PL9950105209",
                "operator": "Gmina Wielichowo",
                "operator:type": "government",
                "amenity": "kindergarten"
            }
        }
    ]
}