{
    "type": "FeatureCollection",
    "features": [
        {
            "id": 18111,
            "type": "Feature",
            "geometry": {
                "type": "Point",
                "coordinates": [
                    16.5346699,
                    52.21919
                ]
            },
            "properties": {
                "ref:rspo": 18111,
                "official_name": "Zesp\u00f3\u0142 Szkolno-Przedszkolny w Granowie",
                "name": "Zesp\u00f3\u0142 Szkolno-Przedszkolny w Granowie",
                "addr:country": "PL",
                "addr:postcode": "62-066",
                "addr:city": "Granowo",
                "addr:street": "Konstytucji 3 Maja",
                "addr:housenumber": "1A",
                "addr:teryt:simc": 583757,
                "addr:teryt:sym_ul": 9213,
                "contact:phone": "+48 614472040",
                "contact:email": "zspgranowo@granowozsp.szkolawchmurze.pl",
                "contact:website": "http:\/\/www.zspgranowo.pl",
                "ref:regon": "411492479",
                "ref:vatin": "PL9950119074",
                "operator": "Gmina Granowo",
                "operator:type": "government",
                "landuse": "education",
                "fixme": "amenity=school, amenity=college albo landuse=education w zale\u017cno\u015bci od tego, jakie plac\u00f3wki wchodz\u0105 w sk\u0142ad zespo\u0142u. Sprawd\u017a, kiedy stosowa\u0107 amenity=* a kiedy landuse=education.",
                "note": "Children RSPO: 40989;120929"
            }
        },
        {
            "id": 40989,
            "type": "Feature",
            "geometry": {
                "type": "Point",
                "coordinates": [
                    16.5346699,
                    52.219159999999995
                ]
            },
            "properties": {
                "isced:level": "1;2",
                "ref:rspo": 40989,
                "official_name": "Zesp\u00f3\u0142 Szkolno-Przedszkolny w Granowie - Szko\u0142a Podstawowa",
                "name": "Zesp\u00f3\u0142 Szkolno-Przedszkolny w Granowie - Szko\u0142a Podstawowa",
                "addr:country": "PL",
                "addr:postcode": "62-066",
                "addr:city": "Granowo",
                "addr:street": "Konstytucji 3 Maja",
                "addr:housenumber": "1A",
                "addr:teryt:simc": 583757,
                "addr:teryt:sym_ul": 9213,
                "contact:phone": "+48 614472020",
                "contact:email": "zspgranowo@granowozsp.szkolawchmurze.pl",
                "contact:website": "http:\/\/www.zspgranowo.pl",
                "ref:regon": "000564553",
                "ref:vatin": "PL9950081319",
                "operator": "Gmina Granowo",
                "operator:type": "government",
                "amenity": "school",
                "note": "Parent RSPO: 18111"
            }
        },
        {
            "id": 120929,
            "type": "Feature",
            "geometry": {
                "type": "Point",
                "coordinates": [
                    16.5346699,
                    52.21913
                ]
            },
            "properties": {
                "ref:rspo": 120929,
                "official_name": "Zesp\u00f3\u0142 Szkolno-Przedszkolny w Granowie - Przedszkole",
                "name": "Zesp\u00f3\u0142 Szkolno-Przedszkolny w Granowie - Przedszkole",
                "addr:country": "PL",
                "addr:postcode": "62-066",
                "addr:city": "Granowo",
                "addr:street": "Konstytucji 3 Maja",
                "addr:housenumber": "1A",
                "addr:teryt:simc": 583757,
                "addr:teryt:sym_ul": 9213,
                "contact:phone": "+48 614472040",
                "contact:email": "zspgranowo@granowozsp.szkolawchmurze.pl",
                "contact:website": "http:\/\/www.zspgranowo.pl",
                "ref:regon": "630729093",
                "ref:vatin": "PL9950081294",
                "operator": "Gmina Granowo",
                "operator:type": "government",
                "amenity": "kindergarten",
                "note": "Parent RSPO: 18111"
            }
        },
        {
            "id": 11097,
            "type": "Feature",
            "geometry": {
                "type": "Point",
                "coordinates": [
                    16.57547,
                    52.2558099
                ]
            },
            "properties": {
                "isced:level": "1;2",
                "ref:rspo": 11097,
                "official_name": "Szko\u0142a Podstawowa Z Oddzia\u0142ami Przedszkolnymi im. Janusza Korczaka w Bielawach",
                "name": "Szko\u0142a Podstawowa Z Oddzia\u0142ami Przedszkolnymi",
                "addr:country": "PL",
                "addr:postcode": "62-066",
                "addr:place": "Bielawy",
                "addr:housenumber": "3",
                "addr:teryt:simc": 583734,
                "contact:phone": "+48 614472041",
                "contact:email": "dyrektor@spbielawy.pl",
                "contact:website": "http:\/\/www.spbielawy.pl",
                "ref:regon": "302205926",
                "operator": "Stowarzyszenie \"Wsp\u00f3lnie Z Pasj\u0105\"",
                "operator:type": "ngo",
                "amenity": "school"
            }
        }
    ]
}