{
    "type": "FeatureCollection",
    "features": [
        {
            "id": 52918,
            "type": "Feature",
            "geometry": {
                "type": "Point",
                "coordinates": [
                    16.57469,
                    52.2102999
                ]
            },
            "properties": {
                "isced:level": "1;2",
                "ref:rspo": 52918,
                "official_name": "Szko\u0142a Podstawowa im. Andrzeja Grubby w K\u0105kolewie",
                "name": "Szko\u0142a Podstawowa",
                "addr:country": "PL",
                "addr:postcode": "62-065",
                "addr:place": "K\u0105kolewo",
                "addr:housenumber": "64",
                "addr:teryt:sym_ul": 583993,
                "contact:phone": "+48 614411625",
                "contact:email": "spkakolewo@edugrodzisk.pl",
                "contact:website": "https:\/\/szkolaag.edupage.org\/",
                "ref:regon": "001226930",
                "ref:vatin": "PL9950080886",
                "operator": "Gmina Grodzisk Wielkopolski",
                "operator:type": "government",
                "amenity": "school"
            }
        },
        {
            "id": 52908,
            "type": "Feature",
            "geometry": {
                "type": "Point",
                "coordinates": [
                    16.3403199,
                    52.21676
                ]
            },
            "properties": {
                "isced:level": "1;2",
                "ref:rspo": 52908,
                "official_name": "Szko\u0142a Podstawowa Nr 4 im. Kpt. J\u00f3zefa Rejdycha w Grodzisku Wielkopolskim",
                "name": "Szko\u0142a Podstawowa Nr 4",
                "addr:country": "PL",
                "addr:postcode": "62-065",
                "addr:city": "Grodzisk Wielkopolski",
                "addr:street": "ul. \u015arodkowa",
                "addr:housenumber": "56",
                "addr:teryt:simc": 22419,
                "addr:teryt:sym_ul": 970810,
                "contact:phone": "+48 612271275",
                "contact:email": "sp4@edugrodzisk.pl",
                "contact:website": "http:\/\/www.sp4grodziskwlkp.edupage.org",
                "ref:regon": "001226901",
                "ref:vatin": "PL9950080811",
                "operator": "Gmina Grodzisk Wielkopolski",
                "operator:type": "government",
                "amenity": "school"
            }
        },
        {
            "id": 51269,
            "type": "Feature",
            "geometry": {
                "type": "Point",
                "coordinates": [
                    16.3569,
                    52.2173299
                ]
            },
            "properties": {
                "ref:rspo": 51269,
                "official_name": "Centrum Szkolenia Nauczycieli Praktycznej Nauki Zawodu Aurelia,Miros\u0142aw Re\u015bLI\u0144scy",
                "name": "Centrum Szkolenia Nauczycieli Praktycznej Nauki Zawodu Aurelia,Miros\u0142aw Re\u015bLI\u0144scy",
                "addr:country": "PL",
                "addr:postcode": "62-065",
                "addr:city": "Grodzisk Wielkopolski",
                "addr:street": "ul. Nowa",
                "addr:housenumber": "20",
                "addr:teryt:simc": 14330,
                "addr:teryt:sym_ul": 970810,
                "contact:phone": "+48 614421139",
                "ref:regon": "302249697",
                "ref:vatin": "PL7880026129",
                "operator": "Dane Do Uzupe\u0142nienia",
                "operator:type": "private",
                "amenity": "training"
            }
        },
        {
            "id": 66336,
            "type": "Feature",
            "geometry": {
                "type": "Point",
                "coordinates": [
                    16.43951,
                    52.2249
                ]
            },
            "properties": {
                "isced:level": "1;2",
                "ref:rspo": 66336,
                "official_name": "Szko\u0142a Podstawowa im. Jana Paw\u0142a II w Ptaszkowie",
                "name": "Szko\u0142a Podstawowa",
                "addr:country": "PL",
                "addr:postcode": "62-065",
                "addr:place": "Ptaszkowo",
                "addr:housenumber": "31A",
                "addr:teryt:sym_ul": 584053,
                "contact:phone": "+48 614445702",
                "contact:email": "spptaszkowo@edugrodzisk.pl",
                "contact:website": "http:\/\/www.spptaszkowo.szkolna.net\/",
                "ref:regon": "001226893",
                "ref:vatin": "PL9950080863",
                "operator": "Gmina Grodzisk Wielkopolski",
                "operator:type": "government",
                "amenity": "school"
            }
        },
        {
            "id": 10238,
            "type": "Feature",
            "geometry": {
                "type": "Point",
                "coordinates": [
                    16.36045,
                    52.22565
                ]
            },
            "properties": {
                "ref:rspo": 10238,
                "official_name": "Poradnia Psychologiczno - Pedagogiczna w Grodzisku Wielkopolskim",
                "name": "Poradnia Psychologiczno - Pedagogiczna w Grodzisku Wielkopolskim",
                "addr:country": "PL",
                "addr:postcode": "62-065",
                "addr:city": "Grodzisk Wielkopolski",
                "addr:street": "ul. Zb\u0105szy\u0144ska",
                "addr:housenumber": "11",
                "addr:teryt:simc": 25888,
                "addr:teryt:sym_ul": 970810,
                "contact:phone": "+48 614445560",
                "contact:email": "pppgrodzisk@wp.pl",
                "ref:regon": "000717287",
                "ref:vatin": "PL7881020264",
                "operator": "Powiat Grodziski",
                "operator:type": "government",
                "healthcare": "counselling",
                "counselling_type": "education",
                "fixme": "w zale\u017cno\u015bci od przedmiotu dzia\u0142alno\u015bci (np. healthcare=counselling + counselling_type=education albo healthcare=psychotherapist)"
            }
        },
        {
            "id": 133960,
            "type": "Feature",
            "geometry": {
                "type": "Point",
                "coordinates": [
                    16.36401,
                    52.22628
                ]
            },
            "properties": {
                "isced:level": "1;2",
                "ref:rspo": 133960,
                "official_name": "Szko\u0142a Podstawowa Nr 2 im. Powsta\u0144c\u00f3w Wielkopolskich w Grodzisku Wielkopolskim",
                "name": "Szko\u0142a Podstawowa Nr 2",
                "addr:country": "PL",
                "addr:postcode": "62-065",
                "addr:city": "Grodzisk Wielkopolski",
                "addr:street": "ul. 3 Maja",
                "addr:housenumber": "5",
                "addr:teryt:simc": 11937,
                "addr:teryt:sym_ul": 970810,
                "contact:phone": "+48 612271260",
                "contact:email": "sp2@sp2-grodzisk.pl",
                "contact:website": "http:\/\/www.sp2-grodzisk.pl",
                "ref:regon": "367749601",
                "ref:vatin": "PL9950245844",
                "operator": "Gmina Grodzisk Wielkopolski",
                "operator:type": "government",
                "amenity": "school"
            }
        },
        {
            "id": 50561,
            "type": "Feature",
            "geometry": {
                "type": "Point",
                "coordinates": [
                    16.37391,
                    52.2266199
                ]
            },
            "properties": {
                "isced:level": "1;2",
                "ref:rspo": 50561,
                "official_name": "Szko\u0142a Podstawowa Nr 1 im.polskich Olimpijczyk\u00f3w w Grodzisku Wielkopolskim",
                "name": "Szko\u0142a Podstawowa Nr 1 im.polskich Olimpijczyk\u00f3w w Grodzisku Wielkopolskim",
                "addr:country": "PL",
                "addr:postcode": "62-065",
                "addr:city": "Grodzisk Wielkopolski",
                "addr:street": "ul. Chopina",
                "addr:housenumber": "26",
                "addr:teryt:simc": 2844,
                "addr:teryt:sym_ul": 970810,
                "contact:phone": "+48 612271240",
                "contact:email": "sp1@edugrodzisk.pl",
                "contact:website": "https:\/\/sp1grodzisk.edupage.org\/",
                "ref:regon": "000717270",
                "ref:vatin": "PL9950080834",
                "operator": "Gmina Grodzisk Wielkopolski",
                "operator:type": "government",
                "amenity": "school"
            }
        },
        {
            "id": 11483,
            "type": "Feature",
            "geometry": {
                "type": "Point",
                "coordinates": [
                    16.364,
                    52.22675
                ]
            },
            "properties": {
                "isced:level": "3",
                "ref:rspo": 11483,
                "official_name": "Liceum Og\u00f3lnokszta\u0142cace",
                "name": "Liceum Og\u00f3lnokszta\u0142cace",
                "addr:country": "PL",
                "addr:postcode": "62-065",
                "addr:city": "Grodzisk Wielkopolski",
                "addr:street": "ul. 3 Maja",
                "addr:housenumber": "7",
                "addr:teryt:simc": 11937,
                "addr:teryt:sym_ul": 970810,
                "contact:phone": "+48 614445398",
                "contact:email": "sekretariat@logw.pl",
                "contact:website": "http:\/\/www.logw.pl",
                "ref:regon": "000231449",
                "ref:vatin": "PL7881020241",
                "operator": "Powiat Grodziski",
                "operator:type": "government",
                "amenity": "school"
            }
        },
        {
            "id": 52926,
            "type": "Feature",
            "geometry": {
                "type": "Point",
                "coordinates": [
                    16.37248,
                    52.22681
                ]
            },
            "properties": {
                "ref:rspo": 52926,
                "official_name": "Przedszkole Gminne im. Krasnala Ha\u0142aba\u0142y w Grodzisku Wielkopolskim",
                "name": "Przedszkole Gminne",
                "addr:country": "PL",
                "addr:postcode": "62-065",
                "addr:city": "Grodzisk Wielkopolski",
                "addr:street": "ul. Chopina",
                "addr:housenumber": "24",
                "addr:teryt:simc": 2844,
                "addr:teryt:sym_ul": 970810,
                "contact:phone": "+48 612271230",
                "contact:email": "przedszkolegminne@edugrodzisk.pl",
                "contact:website": "http:\/\/www.przedszkole-grodzisk.pl\/",
                "ref:regon": "411485522",
                "ref:vatin": "PL7881020519",
                "operator": "Gmina Grodzisk Wielkopolski",
                "operator:type": "government",
                "amenity": "kindergarten"
            }
        },
        {
            "id": 9617,
            "type": "Feature",
            "geometry": {
                "type": "Point",
                "coordinates": [
                    16.36442,
                    52.22759
                ]
            },
            "properties": {
                "ref:rspo": 9617,
                "official_name": "Zesp\u00f3\u0142 Szk\u00f3\u0142 Technicznych Imienia Eugeniusza Kwiatkowskiego Grodzisk Wielkopolski",
                "name": "Zesp\u00f3\u0142 Szk\u00f3\u0142 Technicznych Imienia Eugeniusza Kwiatkowskiego Grodzisk Wielkopolski",
                "addr:country": "PL",
                "addr:postcode": "62-065",
                "addr:city": "Grodzisk Wielkopolski",
                "addr:street": "ul. \u017bwirki i Wigury",
                "addr:housenumber": "2",
                "addr:teryt:simc": 26608,
                "addr:teryt:sym_ul": 970810,
                "contact:phone": "+48 614445401",
                "contact:email": "zst@zst-grodzisk.pl",
                "contact:website": "http:\/\/www.zst-grodzisk.pl",
                "ref:regon": "000832002",
                "ref:vatin": "PL7881020531",
                "operator": "Powiat Grodziski",
                "operator:type": "government",
                "landuse": "education",
                "fixme": "amenity=school, amenity=college albo landuse=education w zale\u017cno\u015bci od tego, jakie plac\u00f3wki wchodz\u0105 w sk\u0142ad zespo\u0142u. Sprawd\u017a, kiedy stosowa\u0107 amenity=* a kiedy landuse=education.",
                "note": "Children RSPO: 42553;42556;132990"
            }
        },
        {
            "id": 29399,
            "type": "Feature",
            "geometry": {
                "type": "Point",
                "coordinates": [
                    16.36442,
                    52.22756
                ]
            },
            "properties": {
                "isced:level": "3",
                "ref:rspo": 29399,
                "official_name": "Liceum Og\u00f3lnokszta\u0142c\u0105ce dla Doros\u0142ych",
                "name": "Liceum Og\u00f3lnokszta\u0142c\u0105ce dla Doros\u0142ych",
                "addr:country": "PL",
                "addr:postcode": "62-065",
                "addr:city": "Grodzisk Wielkopolski",
                "addr:street": "ul. \u017bwirki i Wigury",
                "addr:housenumber": "2",
                "addr:teryt:simc": 26608,
                "addr:teryt:sym_ul": 970810,
                "contact:phone": "+48 614440137",
                "contact:email": "poczta@ckdgrodzisk.pl",
                "contact:website": "http:\/\/www.ckdgrodzisk.pl",
                "ref:regon": "302249728",
                "ref:vatin": "PL7881419210",
                "operator": "Janina Musia\u0142",
                "operator:type": "private",
                "amenity": "school"
            }
        },
        {
            "id": 29403,
            "type": "Feature",
            "geometry": {
                "type": "Point",
                "coordinates": [
                    16.36442,
                    52.22753
                ]
            },
            "properties": {
                "isced:level": "4",
                "ref:rspo": 29403,
                "official_name": "Szko\u0142a Policealna w Grodzisku Wielkopolskim",
                "name": "Szko\u0142a Policealna w Grodzisku Wielkopolskim",
                "addr:country": "PL",
                "addr:postcode": "62-065",
                "addr:city": "Grodzisk Wielkopolski",
                "addr:street": "ul. \u017bwirki i Wigury",
                "addr:housenumber": "2",
                "addr:teryt:simc": 26608,
                "addr:teryt:sym_ul": 970810,
                "contact:phone": "+48 614440137",
                "contact:email": "poczta@ckdgrodzisk.pl",
                "contact:website": "http:\/\/www.ckdgrodzisk.pl",
                "ref:regon": "302245713",
                "ref:vatin": "PL7881419210",
                "operator": "Janina Musia\u0142",
                "operator:type": "private",
                "amenity": "college"
            }
        },
        {
            "id": 126882,
            "type": "Feature",
            "geometry": {
                "type": "Point",
                "coordinates": [
                    16.36442,
                    52.2275
                ]
            },
            "properties": {
                "ref:rspo": 126882,
                "official_name": "Centrum Kszta\u0142cenia dla Doros\u0142ych",
                "name": "Centrum Kszta\u0142cenia dla Doros\u0142ych",
                "addr:country": "PL",
                "addr:postcode": "62-065",
                "addr:city": "Grodzisk Wielkopolski",
                "addr:street": "ul. \u017bwirki i Wigury",
                "addr:housenumber": "2",
                "addr:teryt:simc": 26608,
                "addr:teryt:sym_ul": 970810,
                "contact:phone": "+48 614440137",
                "contact:website": "http:\/\/www.ckdgrodzisk.pl",
                "ref:regon": "360847625",
                "operator": "Janina Musia\u0142",
                "operator:type": "private",
                "fixme": "w zale\u017cno\u015bci od przedmiotu dzia\u0142alno\u015bci (np. amenity=training + training=*, amenity=dancing_school, amenity=language_school, amenity=music_school)"
            }
        },
        {
            "id": 42553,
            "type": "Feature",
            "geometry": {
                "type": "Point",
                "coordinates": [
                    16.36442,
                    52.22747
                ]
            },
            "properties": {
                "isced:level": "3",
                "ref:rspo": 42553,
                "official_name": "Bran\u017cowa Szko\u0142a I Stopnia",
                "name": "Bran\u017cowa Szko\u0142a I Stopnia",
                "addr:country": "PL",
                "addr:postcode": "62-065",
                "addr:city": "Grodzisk Wielkopolski",
                "addr:street": "ul. \u017bwirki i Wigury",
                "addr:housenumber": "2",
                "addr:teryt:simc": 26608,
                "addr:teryt:sym_ul": 970810,
                "contact:phone": "+48 614445401",
                "contact:email": "zst@zst-grodzisk.pl",
                "contact:website": "http:\/\/zst-grodzisk.pl",
                "ref:regon": "411493473",
                "ref:vatin": "PL7881020531",
                "operator": "Powiat Grodziski",
                "operator:type": "government",
                "amenity": "school",
                "note": "Parent RSPO: 9617"
            }
        },
        {
            "id": 42556,
            "type": "Feature",
            "geometry": {
                "type": "Point",
                "coordinates": [
                    16.36442,
                    52.22744
                ]
            },
            "properties": {
                "isced:level": "3",
                "ref:rspo": 42556,
                "official_name": "Technikum Nr 1",
                "name": "Technikum Nr 1",
                "addr:country": "PL",
                "addr:postcode": "62-065",
                "addr:city": "Grodzisk Wielkopolski",
                "addr:street": "ul. \u017bwirki i Wigury",
                "addr:housenumber": "2",
                "addr:teryt:simc": 26608,
                "addr:teryt:sym_ul": 970810,
                "contact:phone": "+48 614445401",
                "contact:email": "zst@zst-grodzisk.pl",
                "contact:website": "http:\/\/zst-grodzisk.pl",
                "ref:regon": "411493438",
                "ref:vatin": "PL7881020531",
                "operator": "Powiat Grodziski",
                "operator:type": "government",
                "amenity": "school",
                "note": "Parent RSPO: 9617"
            }
        },
        {
            "id": 132990,
            "type": "Feature",
            "geometry": {
                "type": "Point",
                "coordinates": [
                    16.36442,
                    52.22741
                ]
            },
            "properties": {
                "ref:rspo": 132990,
                "official_name": "Centrum Kszta\u0142cenia Praktycznego",
                "name": "Centrum Kszta\u0142cenia Praktycznego",
                "addr:country": "PL",
                "addr:postcode": "62-065",
                "addr:city": "Grodzisk Wielkopolski",
                "addr:street": "ul. \u017bwirki i Wigury",
                "addr:housenumber": "2",
                "addr:teryt:simc": 26608,
                "addr:teryt:sym_ul": 970810,
                "contact:phone": "+48 614445401",
                "contact:email": "zst@zst-grodzisk.pl",
                "ref:regon": "366468722",
                "operator": "Powiat Grodziski",
                "operator:type": "government",
                "fixme": "w zale\u017cno\u015bci od przedmiotu dzia\u0142alno\u015bci (np. amenity=training + training=*, amenity=dancing_school, amenity=language_school, amenity=music_school) albo amenity=school, amenity=college, albo landuse=education w zale\u017cno\u015bci od tego, jakie plac\u00f3wki wchodz\u0105 w sk\u0142ad zespo\u0142u. Sprawd\u017a, kiedy stosowa\u0107 amenity=* a kiedy landuse=education.",
                "note": "Parent RSPO: 9617"
            }
        },
        {
            "id": 120388,
            "type": "Feature",
            "geometry": {
                "type": "Point",
                "coordinates": [
                    16.3613399,
                    52.2298
                ]
            },
            "properties": {
                "ref:rspo": 120388,
                "official_name": "Prywatne Przedszkole \"Akademia Maluch\u00f3w\" Nr 2 w Grodzisku Wielkopolskim",
                "name": "Prywatne Przedszkole \"Akademia Maluch\u00f3w\" Nr 2 w Grodzisku Wielkopolskim",
                "addr:country": "PL",
                "addr:postcode": "62-065",
                "addr:city": "Grodzisk Wielkopolski",
                "addr:street": "ul. \u017bwirowa",
                "addr:housenumber": "15a",
                "addr:teryt:simc": 26611,
                "addr:teryt:sym_ul": 970810,
                "contact:phone": "+48 697427500",
                "contact:email": "halinamikolajczak50@wp.pl",
                "ref:regon": "302543267",
                "ref:vatin": "PL7881290213",
                "operator": "\"Nauka Plus\" Sp\u00f3\u0142ka Z Ograniczon\u0105 Odpowiedzialno\u015bci\u0105",
                "operator:type": "private",
                "amenity": "kindergarten"
            }
        },
        {
            "id": 124174,
            "type": "Feature",
            "geometry": {
                "type": "Point",
                "coordinates": [
                    16.3613399,
                    52.229769999999995
                ]
            },
            "properties": {
                "isced:level": "1;2",
                "ref:rspo": 124174,
                "official_name": "Niepubliczna Szko\u0142a Podstawowa w Grodzisku Wielkopolskim",
                "name": "Niepubliczna Szko\u0142a Podstawowa w Grodzisku Wielkopolskim",
                "addr:country": "PL",
                "addr:postcode": "62-065",
                "addr:city": "Grodzisk Wielkopolski",
                "addr:street": "ul. \u017bwirowa",
                "addr:housenumber": "15a",
                "addr:teryt:simc": 26611,
                "addr:teryt:sym_ul": 970810,
                "contact:phone": "+48 661623681",
                "contact:email": "sekretariat@naukaplus.pl",
                "contact:website": "http:\/\/www.naukaplus.pl",
                "ref:regon": "302801143",
                "ref:vatin": "PL9950227898",
                "operator": "\"Nauka Plus\" Sp\u00f3\u0142ka Z Ograniczon\u0105 Odpowiedzialno\u015bci\u0105",
                "operator:type": "private",
                "amenity": "school"
            }
        },
        {
            "id": 30097,
            "type": "Feature",
            "geometry": {
                "type": "Point",
                "coordinates": [
                    16.35979,
                    52.23062
                ]
            },
            "properties": {
                "isced:level": "4",
                "ref:rspo": 30097,
                "official_name": "Policealna Szko\u0142a Kosmetyczna w Grodzisku Wielkopolskim",
                "name": "Policealna Szko\u0142a Kosmetyczna w Grodzisku Wielkopolskim",
                "addr:country": "PL",
                "addr:postcode": "62-065",
                "addr:city": "Grodzisk Wielkopolski",
                "addr:street": "ul. \u017bwirowa",
                "addr:housenumber": "31",
                "addr:teryt:simc": 26611,
                "addr:teryt:sym_ul": 970810,
                "contact:phone": "+48 614445352",
                "contact:email": "szkolanowinka@wp.pl",
                "contact:website": "http:\/\/szkolanowinka.pl",
                "ref:regon": "302240271",
                "ref:vatin": "PL7881016989",
                "operator": "Miros\u0142awa Nowinka",
                "operator:type": "private",
                "amenity": "college"
            }
        },
        {
            "id": 120056,
            "type": "Feature",
            "geometry": {
                "type": "Point",
                "coordinates": [
                    16.35979,
                    52.23059
                ]
            },
            "properties": {
                "ref:rspo": 120056,
                "official_name": "O\u015brodek Kszta\u0142cenia Ustawicznego Miros\u0142awa Nowinka",
                "name": "O\u015brodek Kszta\u0142cenia Ustawicznego Miros\u0142awa Nowinka",
                "addr:country": "PL",
                "addr:postcode": "62-065",
                "addr:city": "Grodzisk Wielkopolski",
                "addr:street": "ul. \u017bwirowa",
                "addr:housenumber": "31",
                "addr:teryt:simc": 26611,
                "addr:teryt:sym_ul": 970810,
                "contact:phone": "+48 504559224",
                "contact:email": "szkola_nowinka@interia.pl",
                "ref:regon": "302533122",
                "operator": "Miros\u0142awa Nowinka",
                "operator:type": "private",
                "fixme": "w zale\u017cno\u015bci od przedmiotu dzia\u0142alno\u015bci (np. amenity=training + training=*, amenity=dancing_school, amenity=language_school, amenity=music_school)"
            }
        },
        {
            "id": 52932,
            "type": "Feature",
            "geometry": {
                "type": "Point",
                "coordinates": [
                    16.35376,
                    52.2329999
                ]
            },
            "properties": {
                "ref:rspo": 52932,
                "official_name": "Prywatne Przedszkole Wiercipi\u0119ta",
                "name": "Prywatne Przedszkole Wiercipi\u0119ta",
                "addr:country": "PL",
                "addr:postcode": "62-065",
                "addr:city": "Grodzisk Wielkopolski",
                "addr:street": "os. Osiedle Wojska Polskiego",
                "addr:housenumber": "110",
                "addr:teryt:simc": 47859,
                "addr:teryt:sym_ul": 970810,
                "contact:phone": "+48 697082149",
                "contact:email": "przedszkolewiercipieta@gmail.com",
                "contact:website": "http:\/\/www.przedszkolewiercipieta.pl\/",
                "ref:regon": "302250690",
                "ref:vatin": "PL7881221198",
                "operator": "Przedszkole Wiercipi\u0119ta Sp\u00f3\u0142ka Cywilna Violetta Cudak   Dorota Gertchen",
                "operator:type": "consortium",
                "amenity": "kindergarten"
            }
        },
        {
            "id": 121502,
            "type": "Feature",
            "geometry": {
                "type": "Point",
                "coordinates": [
                    16.34819,
                    52.23633
                ]
            },
            "properties": {
                "ref:rspo": 121502,
                "official_name": "Prywatne Przedszkole Bobo Wiercipi\u0119ta",
                "name": "Prywatne Przedszkole Bobo Wiercipi\u0119ta",
                "addr:country": "PL",
                "addr:postcode": "62-065",
                "addr:city": "Grodzisk Wielkopolski",
                "addr:street": "ul. Winna",
                "addr:housenumber": "30",
                "addr:teryt:simc": 24348,
                "addr:teryt:sym_ul": 970810,
                "contact:phone": "+48 605254686",
                "contact:email": "bobowiercipieta@gmail.com",
                "ref:regon": "302625048",
                "ref:vatin": "PL7881221198",
                "operator": "Violetta Cudak",
                "operator:type": "private",
                "amenity": "kindergarten"
            }
        },
        {
            "id": 131760,
            "type": "Feature",
            "geometry": {
                "type": "Point",
                "coordinates": [
                    16.34819,
                    52.2363
                ]
            },
            "properties": {
                "ref:rspo": 131760,
                "official_name": "Przedszkole Publiczne Chatka Puchatka",
                "name": "Przedszkole Publiczne Chatka Puchatka",
                "addr:country": "PL",
                "addr:postcode": "62-065",
                "addr:city": "Grodzisk Wielkopolski",
                "addr:street": "ul. Winna",
                "addr:housenumber": "12",
                "addr:teryt:simc": 24348,
                "addr:teryt:sym_ul": 970810,
                "contact:phone": "+48 605734734",
                "contact:email": "biuro@chatkapuchatka-grodzisk.pl",
                "contact:website": "http:\/\/www.chatkapuchatka-grodzisk.pl",
                "ref:regon": "365340598",
                "ref:vatin": "PL9542292015",
                "operator": "Aida Stec",
                "operator:type": "private",
                "amenity": "kindergarten"
            }
        },
        {
            "id": 52924,
            "type": "Feature",
            "geometry": {
                "type": "Point",
                "coordinates": [
                    16.3935299,
                    52.23823
                ]
            },
            "properties": {
                "isced:level": "1;2",
                "ref:rspo": 52924,
                "official_name": "Szko\u0142a Podstawowa w Gr\u0105blewie",
                "name": "Szko\u0142a Podstawowa w Gr\u0105blewie",
                "addr:country": "PL",
                "addr:postcode": "62-065",
                "addr:place": "Gr\u0105blewo",
                "addr:housenumber": "22",
                "addr:teryt:sym_ul": 583958,
                "contact:phone": "+48 612271278",
                "contact:email": "spgrablewo@edugrodzisk.pl",
                "contact:website": "https:\/\/spgrablewo.edupage.org\/",
                "ref:regon": "001226918",
                "ref:vatin": "PL9950080840",
                "operator": "Gmina Grodzisk Wielkopolski",
                "operator:type": "government",
                "amenity": "school"
            }
        },
        {
            "id": 105154,
            "type": "Feature",
            "geometry": {
                "type": "Point",
                "coordinates": [
                    16.36816,
                    52.24714
                ]
            },
            "properties": {
                "ref:rspo": 105154,
                "official_name": "Zak\u0142ad Poprawczy w Grodzisku Wielkopolskim",
                "name": "Zak\u0142ad Poprawczy w Grodzisku Wielkopolskim",
                "addr:country": "PL",
                "addr:postcode": "62-065",
                "addr:city": "Grodzisk Wielkopolski",
                "addr:street": "ul. Bukowska",
                "addr:housenumber": "18",
                "addr:teryt:simc": 2396,
                "addr:teryt:sym_ul": 970810,
                "contact:phone": "+48 614445571",
                "contact:email": "sekretariat@grodzisk.zp.gov.pl",
                "contact:website": "http:\/\/www.grodzisk.zp.gov.pl",
                "ref:regon": "000668778",
                "operator": "Ministerstwo Sprawiedliwo\u015bci",
                "operator:type": "public",
                "note": "Children RSPO: 124451;124454"
            }
        },
        {
            "id": 124451,
            "type": "Feature",
            "geometry": {
                "type": "Point",
                "coordinates": [
                    16.36816,
                    52.24711
                ]
            },
            "properties": {
                "isced:level": "1;2",
                "ref:rspo": 124451,
                "official_name": "Szko\u0142a Podstawowa Nr 3 w Zak\u0142adzie Poprawczym w Grodzisku Wielkopolskim",
                "name": "Szko\u0142a Podstawowa Nr 3 w Zak\u0142adzie Poprawczym w Grodzisku Wielkopolskim",
                "addr:country": "PL",
                "addr:postcode": "62-065",
                "addr:city": "Grodzisk Wielkopolski",
                "addr:street": "ul. Bukowska",
                "addr:housenumber": "18",
                "addr:teryt:simc": 2396,
                "addr:teryt:sym_ul": 970810,
                "contact:phone": "+48 614445581",
                "contact:email": "sekretariat@grodzisk.zp.gov.pl",
                "contact:website": "http:\/\/www.grodzisk.zp.gov.pl",
                "ref:regon": "302809647",
                "operator": "Ministerstwo Sprawiedliwo\u015bci",
                "operator:type": "public",
                "amenity": "school",
                "note": "Parent RSPO: 105154"
            }
        },
        {
            "id": 124454,
            "type": "Feature",
            "geometry": {
                "type": "Point",
                "coordinates": [
                    16.36816,
                    52.247080000000004
                ]
            },
            "properties": {
                "isced:level": "3",
                "ref:rspo": 124454,
                "official_name": "Bran\u017cowa Szko\u0142a I Stopnia Nr 2 w Zak\u0142adzie Poprawczym w Grodzisku Wlkp.grodzisku Wielkopolskim",
                "name": "Bran\u017cowa Szko\u0142a I Stopnia Nr 2 w Zak\u0142adzie Poprawczym w Grodzisku Wlkp.grodzisku Wielkopolskim",
                "addr:country": "PL",
                "addr:postcode": "62-065",
                "addr:city": "Grodzisk Wielkopolski",
                "addr:street": "ul. Bukowska",
                "addr:housenumber": "18",
                "addr:teryt:simc": 2396,
                "addr:teryt:sym_ul": 970810,
                "contact:phone": "+48 614445571",
                "contact:email": "sekretariat@grodzisk.zp.gov.pl",
                "contact:website": "http:\/\/www.grodzisk.zp.gov.pl",
                "ref:regon": "302809707",
                "operator": "Ministerstwo Sprawiedliwo\u015bci",
                "operator:type": "public",
                "amenity": "school",
                "note": "Parent RSPO: 105154"
            }
        },
        {
            "id": 265800,
            "type": "Feature",
            "geometry": {
                "type": "Point",
                "coordinates": [
                    16.36928,
                    52.24724
                ]
            },
            "properties": {
                "ref:rspo": 265800,
                "official_name": "Akademia Aseguro",
                "name": "Akademia Aseguro",
                "addr:country": "PL",
                "addr:postcode": "62-065",
                "addr:city": "Grodzisk Wielkopolski",
                "addr:street": "ul. Bukowska",
                "addr:housenumber": "114",
                "addr:teryt:simc": 2396,
                "addr:teryt:sym_ul": 970810,
                "contact:email": "biuro@aseguro.pl",
                "contact:website": "http:\/\/www.aseguro.pl",
                "ref:regon": "368916350",
                "operator": "Anna Kope\u0107",
                "operator:type": "private",
                "fixme": "w zale\u017cno\u015bci od przedmiotu dzia\u0142alno\u015bci (np. amenity=training + training=*, amenity=dancing_school, amenity=language_school, amenity=music_school)"
            }
        },
        {
            "id": 52915,
            "type": "Feature",
            "geometry": {
                "type": "Point",
                "coordinates": [
                    16.35353,
                    52.25705
                ]
            },
            "properties": {
                "isced:level": "1;2",
                "ref:rspo": 52915,
                "official_name": "Szko\u0142a Podstawowa w S\u0142ocinie",
                "name": "Szko\u0142a Podstawowa w S\u0142ocinie",
                "addr:country": "PL",
                "addr:postcode": "62-065",
                "addr:place": "S\u0142ocin",
                "addr:housenumber": "106",
                "addr:teryt:sym_ul": 584099,
                "contact:phone": "+48 614445790",
                "contact:email": "spslocin@edugrodzisk.pl",
                "contact:website": "http:\/\/www.spslocinslocin1.edupage.org",
                "ref:regon": "001226924",
                "ref:vatin": "PL9950080828",
                "operator": "Gmina Grodzisk Wielkopolski",
                "operator:type": "government",
                "amenity": "school"
            }
        }
    ]
}