{
    "type": "FeatureCollection",
    "features": [
        {
            "id": 4133,
            "type": "Feature",
            "geometry": {
                "type": "Point",
                "coordinates": [
                    16.22952,
                    52.09985
                ]
            },
            "properties": {
                "ref:rspo": 4133,
                "official_name": "Zesp\u00f3\u0142 Przedszkolno - Szkolny \u0141\u0105kie",
                "name": "Zesp\u00f3\u0142 Przedszkolno - Szkolny \u0141\u0105kie",
                "addr:postcode": "62-068",
                "addr:place": "\u0141\u0105kie",
                "addr:housenumber": "81",
                "addr:city:simc": 593744,
                "phone": "+48 614442484",
                "email": "zps.szkola@wp.pl",
                "website": "http:\/\/zps-lakie.cba.pl",
                "ref:regon": "411526540",
                "ref:vatin": "PL9950129115",
                "operator": "Gmina Rakoniewice",
                "operator:type": "government",
                "landuse": "education",
                "fixme": "amenity=school, amenity=college albo landuse=education w zale\u017cno\u015bci od tego, jakie plac\u00f3wki wchodz\u0105 w sk\u0142ad zespo\u0142u. Sprawd\u017a, kiedy stosowa\u0107 amenity=* a kiedy landuse=education.",
                "note": "Children RSPO: 12991;12992"
            }
        },
        {
            "id": 12991,
            "type": "Feature",
            "geometry": {
                "type": "Point",
                "coordinates": [
                    16.22952,
                    52.09982
                ]
            },
            "properties": {
                "ref:rspo": 12991,
                "official_name": "Przedszkole w \u0141\u0105kiem",
                "name": "Przedszkole w \u0141\u0105kiem",
                "addr:postcode": "62-068",
                "addr:place": "\u0141\u0105kie",
                "addr:housenumber": "81",
                "addr:city:simc": 593744,
                "phone": "+48 614442484",
                "email": "zps.szkola@wp.pl",
                "website": "http:\/\/zps-lakie.cba.pl",
                "ref:regon": "411526557",
                "ref:vatin": "PL9950129121",
                "operator": "Gmina Rakoniewice",
                "operator:type": "government",
                "amenity": "kindergarten",
                "note": "Parent RSPO: 4133"
            }
        },
        {
            "id": 12992,
            "type": "Feature",
            "geometry": {
                "type": "Point",
                "coordinates": [
                    16.22952,
                    52.099790000000006
                ]
            },
            "properties": {
                "isced:level": "1;2",
                "ref:rspo": 12992,
                "official_name": "Szko\u0142a Podstawowa im. Marii Konopnickiej w \u0141\u0105kiem",
                "name": "Szko\u0142a Podstawowa",
                "addr:postcode": "62-068",
                "addr:place": "\u0141\u0105kie",
                "addr:housenumber": "81",
                "addr:city:simc": 593744,
                "phone": "+48 614442484",
                "email": "zps.szkola@wp.pl",
                "website": "http:\/\/zps-lakie.cba.pl",
                "ref:regon": "001225505",
                "ref:vatin": "PL9950109880",
                "operator": "Gmina Rakoniewice",
                "operator:type": "government",
                "amenity": "school",
                "note": "Parent RSPO: 4133"
            }
        },
        {
            "id": 4119,
            "type": "Feature",
            "geometry": {
                "type": "Point",
                "coordinates": [
                    16.20279,
                    52.13434
                ]
            },
            "properties": {
                "ref:rspo": 4119,
                "official_name": "Zesp\u00f3\u0142 Przedszkolno - Szkolny w Rostarzewie",
                "name": "Zesp\u00f3\u0142 Przedszkolno - Szkolny w Rostarzewie",
                "addr:postcode": "62-068",
                "addr:city": "Rostarzewo",
                "addr:street": "Rakoniewicka",
                "addr:housenumber": "23",
                "addr:city:simc": 593840,
                "addr:street:sym_ul": 18422,
                "phone": "+48 614442523",
                "email": "zsrostarzewo1@wp.pl",
                "website": "http:\/\/www.szkolarostarzewo.pl",
                "ref:regon": "411526853",
                "ref:vatin": "PL9950129552",
                "operator": "Gmina Rakoniewice",
                "operator:type": "government",
                "landuse": "education",
                "fixme": "amenity=school, amenity=college albo landuse=education w zale\u017cno\u015bci od tego, jakie plac\u00f3wki wchodz\u0105 w sk\u0142ad zespo\u0142u. Sprawd\u017a, kiedy stosowa\u0107 amenity=* a kiedy landuse=education.",
                "note": "Children RSPO: 12633;12634"
            }
        },
        {
            "id": 12633,
            "type": "Feature",
            "geometry": {
                "type": "Point",
                "coordinates": [
                    16.20279,
                    52.13431
                ]
            },
            "properties": {
                "isced:level": "1;2",
                "ref:rspo": 12633,
                "official_name": "Szko\u0142a Podstawowa im. Krzysztofa \u017begockiego w Rostarzewie",
                "name": "Szko\u0142a Podstawowa",
                "addr:postcode": "62-068",
                "addr:city": "Rostarzewo",
                "addr:street": "Rakoniewicka",
                "addr:housenumber": "23",
                "addr:city:simc": 593840,
                "addr:street:sym_ul": 18422,
                "phone": "+48 614442523",
                "email": "zsrostarzewo1@wp.pl",
                "website": "http:\/\/szkolarostarzewo.pl",
                "ref:regon": "001225497",
                "ref:vatin": "PL9950110682",
                "operator": "Gmina Rakoniewice",
                "operator:type": "government",
                "amenity": "school",
                "note": "Parent RSPO: 4119"
            }
        },
        {
            "id": 12634,
            "type": "Feature",
            "geometry": {
                "type": "Point",
                "coordinates": [
                    16.20279,
                    52.134280000000004
                ]
            },
            "properties": {
                "ref:rspo": 12634,
                "official_name": "Przedszkole w Rostarzewie",
                "name": "Przedszkole w Rostarzewie",
                "addr:postcode": "62-068",
                "addr:city": "Rostarzewo",
                "addr:street": "Rakoniewicka",
                "addr:housenumber": "23",
                "addr:city:simc": 593840,
                "addr:street:sym_ul": 18422,
                "phone": "+48 614442523",
                "email": "zsrostarzewo1@wp.pl",
                "website": "http:\/\/szkolarostarzewo.pl",
                "ref:regon": "411526876",
                "ref:vatin": "PL9950129569",
                "operator": "Gmina Rakoniewice",
                "operator:type": "government",
                "amenity": "kindergarten",
                "note": "Parent RSPO: 4119"
            }
        },
        {
            "id": 4385,
            "type": "Feature",
            "geometry": {
                "type": "Point",
                "coordinates": [
                    16.27071,
                    52.13899
                ]
            },
            "properties": {
                "ref:rspo": 4385,
                "official_name": "Przedszkole z Oddzia\u0142ami Integracyjnymi w Rakoniewicach",
                "name": "Przedszkole z Oddzia\u0142ami Integracyjnymi w Rakoniewicach",
                "addr:postcode": "62-067",
                "addr:city": "Rakoniewice",
                "addr:street": "Garbary",
                "addr:housenumber": "8",
                "addr:city:simc": 971413,
                "addr:street:sym_ul": 5321,
                "phone": "+48 614441076",
                "email": "plerakoniewice@wp.pl",
                "ref:regon": "411435547",
                "ref:vatin": "PL9950109549",
                "operator": "Gmina Rakoniewice",
                "operator:type": "government",
                "amenity": "kindergarten"
            }
        },
        {
            "id": 12989,
            "type": "Feature",
            "geometry": {
                "type": "Point",
                "coordinates": [
                    16.27413,
                    52.14133
                ]
            },
            "properties": {
                "isced:level": "1;2",
                "ref:rspo": 12989,
                "official_name": "Szko\u0142a Podstawowa im. Powsta\u0144c\u00f3w Wielkopolskich w Rakoniewicach",
                "name": "Szko\u0142a Podstawowa",
                "addr:postcode": "62-067",
                "addr:city": "Rakoniewice",
                "addr:street": "Nowotomyska",
                "addr:housenumber": "1",
                "addr:city:simc": 971413,
                "addr:street:sym_ul": 14486,
                "phone": "+48 614441037",
                "email": "zsgrakoniewice@wp.pl",
                "ref:regon": "000240170",
                "ref:vatin": "PL9950131365",
                "operator": "Gmina Rakoniewice",
                "operator:type": "government",
                "amenity": "school"
            }
        },
        {
            "id": 273232,
            "type": "Feature",
            "geometry": {
                "type": "Point",
                "coordinates": [
                    16.27334,
                    52.14635
                ]
            },
            "properties": {
                "ref:rspo": 273232,
                "official_name": "Abm Hair Academy Sp. z o.o.",
                "name": "Abm Hair Academy Sp. z o.o.",
                "addr:postcode": "62-065",
                "addr:city": "Rakoniewice",
                "addr:street": "Czere\u015bniowa",
                "addr:housenumber": "15",
                "addr:city:simc": 971413,
                "addr:street:sym_ul": 3376,
                "email": "abmhairacademy@wp.pl",
                "ref:regon": "384443168",
                "operator": "Abm Hair Academy Sp\u00f3\u0142ka Z Ograniczon\u0105 Odpowiedzialno\u015bci\u0105",
                "operator:type": "private",
                "fixme": "w zale\u017cno\u015bci od przedmiotu dzia\u0142alno\u015bci (np. amenity=training + training=*, amenity=dancing_school, amenity=language_school, amenity=music_school)"
            }
        },
        {
            "id": 273733,
            "type": "Feature",
            "geometry": {
                "type": "Point",
                "coordinates": [
                    16.27334,
                    52.146319999999996
                ]
            },
            "properties": {
                "ref:rspo": 273733,
                "official_name": "Mm Hair & Beauty Academy Magdalena Gemska",
                "name": "Mm Hair & Beauty Academy Magdalena Gemska",
                "addr:postcode": "62-067",
                "addr:city": "Rakoniewice",
                "addr:street": "Czere\u015bniowa",
                "addr:housenumber": "15",
                "addr:city:simc": 971413,
                "addr:street:sym_ul": 3376,
                "ref:regon": "384594967",
                "operator": "Magdalena Gemska",
                "operator:type": "private",
                "fixme": "w zale\u017cno\u015bci od przedmiotu dzia\u0142alno\u015bci (np. amenity=training + training=*, amenity=dancing_school, amenity=language_school, amenity=music_school)"
            }
        },
        {
            "id": 4134,
            "type": "Feature",
            "geometry": {
                "type": "Point",
                "coordinates": [
                    16.33781,
                    52.18409
                ]
            },
            "properties": {
                "ref:rspo": 4134,
                "official_name": "Zesp\u00f3\u0142 Przedszkolno - Szkolny Ruchocice",
                "name": "Zesp\u00f3\u0142 Przedszkolno - Szkolny Ruchocice",
                "addr:postcode": "62-073",
                "addr:city": "Ruchocice",
                "addr:street": "Pozna\u0144ska",
                "addr:housenumber": "23",
                "addr:city:simc": 593856,
                "addr:street:sym_ul": 17394,
                "phone": "+48 614443425",
                "email": "spruchocice@wp.pl",
                "ref:regon": "411525612",
                "ref:vatin": "PL9950129150",
                "operator": "Gmina Rakoniewice",
                "operator:type": "government",
                "landuse": "education",
                "fixme": "amenity=school, amenity=college albo landuse=education w zale\u017cno\u015bci od tego, jakie plac\u00f3wki wchodz\u0105 w sk\u0142ad zespo\u0142u. Sprawd\u017a, kiedy stosowa\u0107 amenity=* a kiedy landuse=education.",
                "note": "Children RSPO: 12993;12994"
            }
        },
        {
            "id": 12993,
            "type": "Feature",
            "geometry": {
                "type": "Point",
                "coordinates": [
                    16.33781,
                    52.184059999999995
                ]
            },
            "properties": {
                "ref:rspo": 12993,
                "official_name": "Przedszkole w Ruchocicach",
                "name": "Przedszkole w Ruchocicach",
                "addr:postcode": "62-073",
                "addr:city": "Ruchocice",
                "addr:street": "Pozna\u0144ska",
                "addr:housenumber": "23",
                "addr:city:simc": 593856,
                "addr:street:sym_ul": 17394,
                "phone": "+48 614443425",
                "email": "spruchocice@wp.pl",
                "ref:regon": "411525606",
                "ref:vatin": "PL9950129144",
                "operator": "Gmina Rakoniewice",
                "operator:type": "government",
                "amenity": "kindergarten",
                "note": "Parent RSPO: 4134"
            }
        },
        {
            "id": 12994,
            "type": "Feature",
            "geometry": {
                "type": "Point",
                "coordinates": [
                    16.33781,
                    52.18403
                ]
            },
            "properties": {
                "isced:level": "1;2",
                "ref:rspo": 12994,
                "official_name": "Szko\u0142a Podstawowa im. Adama Mickiewiczaw Ruchocicach",
                "name": "Szko\u0142a Podstawowa",
                "addr:postcode": "62-073",
                "addr:city": "Ruchocice",
                "addr:street": "Pozna\u0144ska",
                "addr:housenumber": "23",
                "addr:city:simc": 593856,
                "addr:street:sym_ul": 17394,
                "phone": "+48 614443425",
                "email": "spruchocice@wp.pl",
                "website": "http:\/\/www.ruchocice.bior.pl",
                "ref:regon": "001225511",
                "ref:vatin": "PL9950109905",
                "operator": "Gmina Rakoniewice",
                "operator:type": "government",
                "amenity": "school",
                "note": "Parent RSPO: 4134"
            }
        },
        {
            "id": 4124,
            "type": "Feature",
            "geometry": {
                "type": "Point",
                "coordinates": [
                    16.20454,
                    52.2084199
                ]
            },
            "properties": {
                "ref:rspo": 4124,
                "official_name": "Zesp\u00f3\u0142 Szkolno - Przedszkolny w Jab\u0142onnie",
                "name": "Zesp\u00f3\u0142 Szkolno - Przedszkolny w Jab\u0142onnie",
                "addr:postcode": "64-308",
                "addr:city": "Jab\u0142onna",
                "addr:street": "Nowotomyska",
                "addr:housenumber": "9",
                "addr:city:simc": 593655,
                "addr:street:sym_ul": 14486,
                "phone": "+48 614443193",
                "email": "jagala@wp.pl",
                "website": "http:\/\/www.zspjablonna.pl",
                "ref:regon": "411436216",
                "ref:vatin": "PL9950109555",
                "operator": "Gmina Rakoniewice",
                "operator:type": "government",
                "landuse": "education",
                "fixme": "amenity=school, amenity=college albo landuse=education w zale\u017cno\u015bci od tego, jakie plac\u00f3wki wchodz\u0105 w sk\u0142ad zespo\u0142u. Sprawd\u017a, kiedy stosowa\u0107 amenity=* a kiedy landuse=education.",
                "note": "Children RSPO: 12542;12544"
            }
        },
        {
            "id": 12542,
            "type": "Feature",
            "geometry": {
                "type": "Point",
                "coordinates": [
                    16.20454,
                    52.2083899
                ]
            },
            "properties": {
                "ref:rspo": 12542,
                "official_name": "Przedszkole w Jab\u0142onnie",
                "name": "Przedszkole w Jab\u0142onnie",
                "addr:postcode": "64-308",
                "addr:city": "Jab\u0142onna",
                "addr:street": "Nowotomyska",
                "addr:housenumber": "9",
                "addr:city:simc": 593655,
                "addr:street:sym_ul": 14486,
                "phone": "+48 614443193",
                "email": "jagala@wp.pl",
                "website": "http:\/\/www.przedszkole.zspjablonna.pl",
                "ref:regon": "411436239",
                "ref:vatin": "PL9950109555",
                "operator": "Gmina Rakoniewice",
                "operator:type": "government",
                "amenity": "kindergarten",
                "note": "Parent RSPO: 4124"
            }
        },
        {
            "id": 12544,
            "type": "Feature",
            "geometry": {
                "type": "Point",
                "coordinates": [
                    16.20454,
                    52.208359900000005
                ]
            },
            "properties": {
                "isced:level": "1;2",
                "ref:rspo": 12544,
                "official_name": "Szko\u0142a Podstawowa im. Marcina Ro\u017cka w Jab\u0142onnie",
                "name": "Szko\u0142a Podstawowa",
                "addr:postcode": "64-308",
                "addr:city": "Jab\u0142onna",
                "addr:street": "Nowotomyska",
                "addr:housenumber": "9",
                "addr:city:simc": 593655,
                "addr:street:sym_ul": 14486,
                "phone": "+48 614443193",
                "email": "jagala@wp.pl",
                "website": "http:\/\/www.zspjablonna.pl",
                "ref:regon": "001225468",
                "ref:vatin": "PL9950109555",
                "operator": "Gmina Rakoniewice",
                "operator:type": "government",
                "amenity": "school",
                "note": "Parent RSPO: 4124"
            }
        }
    ]
}