{
    "type": "FeatureCollection",
    "features": [
        {
            "id": 88226,
            "type": "Feature",
            "geometry": {
                "type": "Point",
                "coordinates": [
                    19.30099,
                    52.96925
                ]
            },
            "properties": {
                "isced:level": "1;2",
                "ref:rspo": 88226,
                "official_name": "Szko\u0142a Podstawowa w Nowym Kobrzy\u0144cu",
                "name": "Szko\u0142a Podstawowa w Nowym Kobrzy\u0144cu",
                "addr:country": "PL",
                "addr:postcode": "87-515",
                "addr:place": "Nowy Kobrzyniec",
                "addr:housenumber": "1",
                "addr:teryt:simc": 868572,
                "contact:email": "spkobrzyniec@rogowo.pl",
                "contact:website": "http:\/\/www.spnowykobrzyniec.pl",
                "ref:regon": "001136109",
                "ref:vatin": "PL8921481694",
                "operator": "Gmina Rogowo",
                "operator:type": "government",
                "amenity": "school"
            }
        },
        {
            "id": 269914,
            "type": "Feature",
            "geometry": {
                "type": "Point",
                "coordinates": [
                    19.38379,
                    52.97467
                ]
            },
            "properties": {
                "ref:rspo": 269914,
                "official_name": "Przedszkole Gminne w Rogowie",
                "name": "Przedszkole Gminne w Rogowie",
                "addr:country": "PL",
                "addr:postcode": "87-515",
                "addr:place": "Rogowo",
                "addr:housenumber": "38",
                "addr:teryt:simc": 868626,
                "contact:phone": "+48 542801622",
                "ref:regon": "381852860",
                "operator": "Gmina Rogowo",
                "operator:type": "government",
                "amenity": "kindergarten",
                "note": "Parent RSPO: 275231"
            }
        },
        {
            "id": 275231,
            "type": "Feature",
            "geometry": {
                "type": "Point",
                "coordinates": [
                    19.38301,
                    52.97526
                ]
            },
            "properties": {
                "ref:rspo": 275231,
                "official_name": "Zesp\u00f3\u0142 Szkolno-Przedszkolny w Rogowie",
                "name": "Zesp\u00f3\u0142 Szkolno-Przedszkolny w Rogowie",
                "addr:country": "PL",
                "addr:postcode": "87-515",
                "addr:place": "Rogowo",
                "addr:housenumber": "31",
                "addr:teryt:simc": 868626,
                "contact:email": "sprogowo@rogowo.pl",
                "ref:regon": "386726108",
                "ref:vatin": "PL8921487432",
                "operator": "Gmina Rogowo",
                "operator:type": "government",
                "landuse": "education",
                "fixme": "amenity=school, amenity=college albo landuse=education w zale\u017cno\u015bci od tego, jakie plac\u00f3wki wchodz\u0105 w sk\u0142ad zespo\u0142u. Sprawd\u017a, kiedy stosowa\u0107 amenity=* a kiedy landuse=education.",
                "note": "Children RSPO: 58542;269914"
            }
        },
        {
            "id": 58542,
            "type": "Feature",
            "geometry": {
                "type": "Point",
                "coordinates": [
                    19.38301,
                    52.975229999999996
                ]
            },
            "properties": {
                "isced:level": "1;2",
                "ref:rspo": 58542,
                "official_name": "Szko\u0142a Podstawowa im. Henryka Napi\u00f3rkowskiego w Rogowie",
                "name": "Szko\u0142a Podstawowa",
                "addr:country": "PL",
                "addr:postcode": "87-515",
                "addr:place": "Rogowo",
                "addr:housenumber": "31",
                "addr:teryt:simc": 868626,
                "contact:phone": "+48 730214738",
                "contact:email": "sprogowo@rogowo.pl",
                "contact:website": "https:\/\/sites.google.com\/site\/sprogowo\/",
                "ref:regon": "001138120",
                "ref:vatin": "PL8921481719",
                "operator": "Gmina Rogowo",
                "operator:type": "government",
                "amenity": "school",
                "note": "Parent RSPO: 275231"
            }
        },
        {
            "id": 88227,
            "type": "Feature",
            "geometry": {
                "type": "Point",
                "coordinates": [
                    19.45361,
                    52.98079
                ]
            },
            "properties": {
                "isced:level": "1;2",
                "ref:rspo": 88227,
                "official_name": "Szko\u0142a Podstawowa w Sosnowie",
                "name": "Szko\u0142a Podstawowa w Sosnowie",
                "addr:country": "PL",
                "addr:postcode": "87-515",
                "addr:place": "Sosnowo",
                "addr:housenumber": "33",
                "addr:teryt:simc": 868738,
                "contact:email": "spsosnowo@wp.pl",
                "contact:website": "http:\/\/spsosnowo.pl",
                "ref:regon": "000267789",
                "ref:vatin": "PL8921481665",
                "operator": "Gmina Rogowo",
                "operator:type": "government",
                "amenity": "school"
            }
        },
        {
            "id": 68029,
            "type": "Feature",
            "geometry": {
                "type": "Point",
                "coordinates": [
                    19.35199,
                    53.01664
                ]
            },
            "properties": {
                "ref:rspo": 68029,
                "official_name": "Zesp\u00f3\u0142 Szk\u00f3\u0142 Centrum Kszta\u0142cenia Rolniczego im. Ziemi Dobrzy\u0144skiej w Nadro\u017cu",
                "name": "Zesp\u00f3\u0142 Szk\u00f3\u0142 Centrum Kszta\u0142cenia Rolniczego",
                "addr:country": "PL",
                "addr:postcode": "87-515",
                "addr:place": "Nadr\u00f3\u017c",
                "addr:housenumber": "1",
                "addr:teryt:simc": 1029780,
                "contact:phone": "+48 542703112",
                "contact:email": "sekretariat@zs4nadroz.pl",
                "ref:regon": "000767888",
                "ref:vatin": "PL8921249810",
                "operator": "Ministerstwo Rolnictwa I Rozwoju Wsi",
                "operator:type": "public",
                "landuse": "education",
                "fixme": "amenity=school, amenity=college albo landuse=education w zale\u017cno\u015bci od tego, jakie plac\u00f3wki wchodz\u0105 w sk\u0142ad zespo\u0142u. Sprawd\u017a, kiedy stosowa\u0107 amenity=* a kiedy landuse=education.",
                "note": "Children RSPO: 79924;79925;278560"
            }
        },
        {
            "id": 79924,
            "type": "Feature",
            "geometry": {
                "type": "Point",
                "coordinates": [
                    19.35199,
                    53.01661
                ]
            },
            "properties": {
                "isced:level": "3",
                "ref:rspo": 79924,
                "official_name": "Technikum w Nadro\u017cu",
                "name": "Technikum w Nadro\u017cu",
                "addr:country": "PL",
                "addr:postcode": "87-515",
                "addr:place": "Nadr\u00f3\u017c",
                "addr:housenumber": "1",
                "addr:teryt:simc": 868483,
                "contact:phone": "+48 542703112",
                "ref:regon": "911334380",
                "ref:vatin": "PL8921249810",
                "operator": "Ministerstwo Rolnictwa I Rozwoju Wsi",
                "operator:type": "public",
                "amenity": "school",
                "note": "Parent RSPO: 68029"
            }
        },
        {
            "id": 79925,
            "type": "Feature",
            "geometry": {
                "type": "Point",
                "coordinates": [
                    19.35199,
                    53.016580000000005
                ]
            },
            "properties": {
                "isced:level": "3",
                "ref:rspo": 79925,
                "official_name": "Bran\u017cowa Szko\u0142a I Stopnia w Nadro\u017cu",
                "name": "Bran\u017cowa Szko\u0142a I Stopnia w Nadro\u017cu",
                "addr:country": "PL",
                "addr:postcode": "87-515",
                "addr:place": "Nadr\u00f3\u017c",
                "addr:housenumber": "1",
                "addr:teryt:simc": 868483,
                "contact:phone": "+48 542703112",
                "ref:regon": "910954175",
                "ref:vatin": "PL8921249810",
                "operator": "Ministerstwo Rolnictwa I Rozwoju Wsi",
                "operator:type": "public",
                "amenity": "school",
                "note": "Parent RSPO: 68029"
            }
        },
        {
            "id": 278560,
            "type": "Feature",
            "geometry": {
                "type": "Point",
                "coordinates": [
                    19.35199,
                    53.01655
                ]
            },
            "properties": {
                "ref:rspo": 278560,
                "official_name": "Centrum Kszta\u0142cenia Ustawicznego w Nadro\u017cu",
                "name": "Centrum Kszta\u0142cenia Ustawicznego w Nadro\u017cu",
                "addr:country": "PL",
                "addr:postcode": "87-515",
                "addr:place": "Nadr\u00f3\u017c",
                "addr:housenumber": "1",
                "addr:teryt:simc": 868483,
                "contact:phone": "+48 542703112",
                "contact:email": "sekretariat@zs4nadroz.pl",
                "ref:regon": "389985342",
                "operator": "Ministerstwo Rolnictwa I Rozwoju Wsi",
                "operator:type": "public",
                "fixme": "w zale\u017cno\u015bci od przedmiotu dzia\u0142alno\u015bci (np. amenity=training + training=*, amenity=dancing_school, amenity=language_school, amenity=music_school)",
                "note": "Parent RSPO: 68029"
            }
        },
        {
            "id": 88222,
            "type": "Feature",
            "geometry": {
                "type": "Point",
                "coordinates": [
                    19.36088,
                    53.02111
                ]
            },
            "properties": {
                "isced:level": "1;2",
                "ref:rspo": 88222,
                "official_name": "Szko\u0142a Podstawowa im. Zygmunta Padlewskiego w Nadro\u017cu",
                "name": "Szko\u0142a Podstawowa",
                "addr:country": "PL",
                "addr:postcode": "87-515",
                "addr:place": "Nadr\u00f3\u017c",
                "addr:housenumber": "56",
                "addr:teryt:simc": 868483,
                "contact:phone": "+48 542703003",
                "contact:email": "szkola494@wp.pl",
                "contact:website": "http:\/\/www.spnadroz.pl",
                "ref:regon": "001138137",
                "ref:vatin": "PL8921481688",
                "operator": "Gmina Rogowo",
                "operator:type": "government",
                "amenity": "school"
            }
        }
    ]
}