{
    "type": "FeatureCollection",
    "features": [
        {
            "id": 6584,
            "type": "Feature",
            "geometry": {
                "type": "Point",
                "coordinates": [
                    19.45823,
                    53.03329
                ]
            },
            "properties": {
                "isced:level": "1;2",
                "ref:rspo": 6584,
                "official_name": "Szko\u0142a Podstawowa w Zakroczu",
                "name": "Szko\u0142a Podstawowa w Zakroczu",
                "addr:country": "PL",
                "addr:postcode": "87-500",
                "addr:place": "Zakrocz",
                "addr:housenumber": "45",
                "addr:teryt:sym_ul": 869241,
                "contact:phone": "+48 542802389",
                "contact:email": "spzakrocz@rypin.pl",
                "ref:regon": "001136983",
                "ref:vatin": "PL8921272938",
                "operator": "Gmina Rypin",
                "operator:type": "government",
                "amenity": "school"
            }
        },
        {
            "id": 126287,
            "type": "Feature",
            "geometry": {
                "type": "Point",
                "coordinates": [
                    19.43654,
                    53.03771
                ]
            },
            "properties": {
                "ref:rspo": 126287,
                "official_name": "Przedszkole \"S\u0142oneczko\"",
                "name": "Przedszkole \"S\u0142oneczko\"",
                "addr:country": "PL",
                "addr:postcode": "87-500",
                "addr:place": "Dylewo",
                "addr:housenumber": "2",
                "addr:teryt:sym_ul": 868891,
                "contact:phone": "+48 542846800",
                "contact:email": "przedszkoledylewo2@wp.pl",
                "ref:regon": "360200496",
                "operator": "S\u0142oneczko Sp\u00f3\u0142ka Z Ograniczon\u0105 Odpowiedzialno\u015bci\u0105",
                "operator:type": "private",
                "amenity": "kindergarten"
            }
        },
        {
            "id": 132086,
            "type": "Feature",
            "geometry": {
                "type": "Point",
                "coordinates": [
                    19.43654,
                    53.037679999999995
                ]
            },
            "properties": {
                "isced:level": "1;2",
                "ref:rspo": 132086,
                "official_name": "Szko\u0142a Podstawowa Specjalna Z Oddzia\u0142ami Przedszkolnymi w Dylewie",
                "name": "Szko\u0142a Podstawowa Specjalna Z Oddzia\u0142ami Przedszkolnymi w Dylewie",
                "addr:country": "PL",
                "addr:postcode": "87-500",
                "addr:place": "Dylewo",
                "addr:housenumber": "2",
                "addr:teryt:sym_ul": 868891,
                "contact:email": "szkoladylewo2@wp.pl",
                "ref:regon": "365455189",
                "operator": "Szko\u0142a Podstawowa Specjalna W Dylewie Sp\u00f3\u0142ka Z Ograniczon\u0105 Odpowiedzialno\u015bci\u0105",
                "operator:type": "private",
                "amenity": "school"
            }
        },
        {
            "id": 272163,
            "type": "Feature",
            "geometry": {
                "type": "Point",
                "coordinates": [
                    19.43654,
                    53.03765
                ]
            },
            "properties": {
                "ref:rspo": 272163,
                "official_name": "Poradnia Psychologiczno-Pedagogiczna \"S\u0142oneczko\"",
                "name": "Poradnia Psychologiczno-Pedagogiczna \"S\u0142oneczko\"",
                "addr:country": "PL",
                "addr:postcode": "87-500",
                "addr:place": "Dylewo",
                "addr:housenumber": "2",
                "addr:teryt:sym_ul": 868891,
                "contact:phone": "+48 515801228",
                "contact:email": "ppp88dylewo2@wp.pl",
                "ref:regon": "383981544",
                "operator": "Holand-Mebel Rafa\u0142 Lichnerowicz Magdalena Lichnerowicz",
                "operator:type": "consortium",
                "healthcare": "counselling",
                "counselling_type": "education",
                "fixme": "w zale\u017cno\u015bci od przedmiotu dzia\u0142alno\u015bci (np. healthcare=counselling + counselling_type=education albo healthcare=psychotherapist)"
            }
        },
        {
            "id": 262971,
            "type": "Feature",
            "geometry": {
                "type": "Point",
                "coordinates": [
                    19.39975,
                    53.043
                ]
            },
            "properties": {
                "isced:level": "1;2",
                "ref:rspo": 262971,
                "official_name": "Szko\u0142a Podstawowa im. Jana Paw\u0142a II w Kowalkach",
                "name": "Szko\u0142a Podstawowa",
                "addr:country": "PL",
                "addr:postcode": "87-500",
                "addr:place": "Kowalki",
                "addr:housenumber": "29",
                "addr:teryt:sym_ul": 868968,
                "contact:phone": "+48 542802383",
                "contact:email": "spkowalki@rypin.pl",
                "contact:website": "http:\/\/www.kowalki.eu",
                "ref:regon": "368083127",
                "operator": "Gmina Rypin",
                "operator:type": "government",
                "amenity": "school"
            }
        },
        {
            "id": 6344,
            "type": "Feature",
            "geometry": {
                "type": "Point",
                "coordinates": [
                    19.33458,
                    53.05603
                ]
            },
            "properties": {
                "isced:level": "1;2",
                "ref:rspo": 6344,
                "official_name": "Szko\u0142a Podstawowa im. Ks. Kard. Stefana Wyszy\u0144skiego w Borzyminie",
                "name": "Szko\u0142a Podstawowa",
                "addr:country": "PL",
                "addr:postcode": "87-500",
                "addr:place": "Borzymin",
                "addr:housenumber": "5",
                "addr:teryt:sym_ul": 868827,
                "contact:phone": "+48 542802365",
                "contact:email": "spborzymin@rypin.pl",
                "ref:regon": "001138060",
                "ref:vatin": "PL8921272938",
                "operator": "Gmina Rypin",
                "operator:type": "government",
                "amenity": "school"
            }
        },
        {
            "id": 6533,
            "type": "Feature",
            "geometry": {
                "type": "Point",
                "coordinates": [
                    19.53551,
                    53.05747
                ]
            },
            "properties": {
                "isced:level": "1;2",
                "ref:rspo": 6533,
                "official_name": "Szko\u0142a Podstawowa im. Marii Sk\u0142odowskiej-Curie w St\u0119powie",
                "name": "Szko\u0142a Podstawowa",
                "addr:country": "PL",
                "addr:postcode": "87-500",
                "addr:place": "St\u0119powo",
                "addr:housenumber": "86",
                "addr:teryt:sym_ul": 869235,
                "contact:phone": "+48 542804717",
                "contact:email": "spstepowo@rypin.pl",
                "contact:website": "http:\/\/www.spstepowo.pl",
                "ref:regon": "001138090",
                "ref:vatin": "PL8921272938",
                "operator": "Gmina Rypin",
                "operator:type": "government",
                "amenity": "school"
            }
        },
        {
            "id": 83188,
            "type": "Feature",
            "geometry": {
                "type": "Point",
                "coordinates": [
                    19.51857,
                    53.0875
                ]
            },
            "properties": {
                "isced:level": "1;2",
                "ref:rspo": 83188,
                "official_name": "Szko\u0142a Podstawowa w Sad\u0142owie",
                "name": "Szko\u0142a Podstawowa w Sad\u0142owie",
                "addr:country": "PL",
                "addr:postcode": "87-500",
                "addr:place": "Sad\u0142owo",
                "addr:housenumber": "23",
                "addr:teryt:sym_ul": 869117,
                "contact:phone": "+48 542801267",
                "contact:email": "spsadlowo@rypin.pl",
                "contact:website": "http:\/\/spsadlowo.szkolnastrona.pl",
                "ref:regon": "000268895",
                "ref:vatin": "PL8921272938",
                "operator": "Gmina Rypin",
                "operator:type": "government",
                "amenity": "school"
            }
        },
        {
            "id": 6563,
            "type": "Feature",
            "geometry": {
                "type": "Point",
                "coordinates": [
                    19.43078,
                    53.09364
                ]
            },
            "properties": {
                "isced:level": "1;2",
                "ref:rspo": 6563,
                "official_name": "Szko\u0142a Podstawowa im. Kornela Makuszy\u0144skiego w Starorypinie Rz\u0105dowym",
                "name": "Szko\u0142a Podstawowa",
                "addr:country": "PL",
                "addr:postcode": "87-500",
                "addr:place": "Starorypin Rz\u0105dowy",
                "addr:housenumber": "13",
                "addr:teryt:sym_ul": 869198,
                "contact:phone": "+48 542802264",
                "contact:email": "spstarorypin@rypin.pl",
                "contact:website": "http:\/\/www.spstar.szkolnastrona.pl",
                "ref:regon": "001138048",
                "ref:vatin": "PL8921272938",
                "operator": "Gmina Rypin",
                "operator:type": "government",
                "amenity": "school"
            }
        }
    ]
}