{
    "type": "FeatureCollection",
    "features": [
        {
            "id": 7325,
            "type": "Feature",
            "geometry": {
                "type": "Point",
                "coordinates": [
                    19.62871,
                    53.01452
                ]
            },
            "properties": {
                "ref:rspo": 7325,
                "official_name": "Zesp\u00f3\u0142 Szk\u00f3\u0142 w Skrwilnie Gminne Przedszkole",
                "name": "Zesp\u00f3\u0142 Szk\u00f3\u0142 w Skrwilnie Gminne Przedszkole",
                "addr:postcode": "87-510",
                "addr:city": "Skrwilno",
                "addr:street": "Le\u015bna",
                "addr:housenumber": "11",
                "addr:city:simc": 869933,
                "addr:street:sym_ul": 10898,
                "phone": "+48 542700021",
                "email": "sekretariat@zsskrwilno.pl",
                "website": "http:\/\/zsskrwilno.pl",
                "ref:regon": "910004634",
                "ref:vatin": "PL8921374171",
                "operator": "Gmina Skrwilno",
                "operator:type": "government",
                "amenity": "kindergarten",
                "note": "Parent RSPO: 7337"
            }
        },
        {
            "id": 7337,
            "type": "Feature",
            "geometry": {
                "type": "Point",
                "coordinates": [
                    19.62802,
                    53.015
                ]
            },
            "properties": {
                "ref:rspo": 7337,
                "official_name": "Zesp\u00f3\u0142 Szk\u00f3\u0142 w Skrwilnie",
                "name": "Zesp\u00f3\u0142 Szk\u00f3\u0142 w Skrwilnie",
                "addr:postcode": "87-510",
                "addr:city": "Skrwilno",
                "addr:street": "Bie\u017cu\u0144ska",
                "addr:housenumber": "16",
                "addr:city:simc": 869933,
                "addr:street:sym_ul": 1330,
                "phone": "+48 542700003",
                "email": "sekretariat@zsskrwilno.pl",
                "website": "http:\/\/zsskrwilno.pl",
                "ref:regon": "911339779",
                "ref:vatin": "PL8921476397",
                "operator": "Gmina Skrwilno",
                "operator:type": "government",
                "landuse": "education",
                "fixme": "amenity=school, amenity=college albo landuse=education w zale\u017cno\u015bci od tego, jakie plac\u00f3wki wchodz\u0105 w sk\u0142ad zespo\u0142u. Sprawd\u017a, kiedy stosowa\u0107 amenity=* a kiedy landuse=education.",
                "note": "Children RSPO: 7325;8216"
            }
        },
        {
            "id": 8216,
            "type": "Feature",
            "geometry": {
                "type": "Point",
                "coordinates": [
                    19.62802,
                    53.01497
                ]
            },
            "properties": {
                "isced:level": "1;2",
                "ref:rspo": 8216,
                "official_name": "Zesp\u00f3\u0142 Szk\u00f3\u0142 w Skrwilnie Szko\u0142a Podstawowa im. Adama Mickiewicza",
                "name": "Zesp\u00f3\u0142 Szk\u00f3\u0142 w Skrwilnie Szko\u0142a Podstawowa",
                "addr:postcode": "87-510",
                "addr:city": "Skrwilno",
                "addr:street": "Bie\u017cu\u0144ska",
                "addr:housenumber": "16",
                "addr:city:simc": 869933,
                "addr:street:sym_ul": 1330,
                "phone": "+48 542700086",
                "email": "sekretariat@zsskrwilno.pl",
                "website": "http:\/\/zsskrwilno.pl",
                "ref:regon": "000270076",
                "ref:vatin": "PL8921374188",
                "operator": "Gmina Skrwilno",
                "operator:type": "government",
                "amenity": "school",
                "note": "Parent RSPO: 7337"
            }
        },
        {
            "id": 6474,
            "type": "Feature",
            "geometry": {
                "type": "Point",
                "coordinates": [
                    19.55153,
                    53.01621
                ]
            },
            "properties": {
                "isced:level": "1;2",
                "ref:rspo": 6474,
                "official_name": "Szko\u0142a Podstawowa w Skudzawach",
                "name": "Szko\u0142a Podstawowa w Skudzawach",
                "addr:postcode": "87-510",
                "addr:place": "Skudzawy",
                "addr:housenumber": "27",
                "addr:city:simc": 869940,
                "phone": "+48 542700695",
                "email": "sekretariat@spskudzawy.pl",
                "website": "http:\/\/spskudzawy.pl\/",
                "ref:regon": "001137066",
                "ref:vatin": "PL8921374202",
                "operator": "Gmina Skrwilno",
                "operator:type": "government",
                "amenity": "school"
            }
        },
        {
            "id": 8157,
            "type": "Feature",
            "geometry": {
                "type": "Point",
                "coordinates": [
                    19.59007,
                    53.06164
                ]
            },
            "properties": {
                "isced:level": "1;2",
                "ref:rspo": 8157,
                "official_name": "Szko\u0142a Podstawowa w Okalewie",
                "name": "Szko\u0142a Podstawowa w Okalewie",
                "addr:postcode": "87-510",
                "addr:place": "Okalewo",
                "addr:housenumber": "62",
                "addr:city:simc": 869844,
                "phone": "+48 542702291",
                "email": "dyrektor@spokalewo.pl",
                "website": "http:\/\/www.spokalewo.pl",
                "ref:regon": "001138835",
                "ref:vatin": "PL8921374225",
                "operator": "Gmina Skrwilno",
                "operator:type": "government",
                "amenity": "school"
            }
        }
    ]
}