{
    "type": "FeatureCollection",
    "features": [
        {
            "id": 3444,
            "type": "Feature",
            "geometry": {
                "type": "Point",
                "coordinates": [
                    19.41523,
                    53.0620199
                ]
            },
            "properties": {
                "ref:rspo": 3444,
                "official_name": "Przedszkole Miejskie Nr 1 w Rypinie",
                "name": "Przedszkole Miejskie Nr 1 w Rypinie",
                "addr:country": "PL",
                "addr:postcode": "87-500",
                "addr:city": "Rypin",
                "addr:street": "M\u0142y\u0144ska",
                "addr:housenumber": "3",
                "addr:teryt:simc": 13132,
                "addr:teryt:sym_ul": 986136,
                "contact:phone": "+48 542805797",
                "contact:email": "pm1@rypin.eu",
                "ref:regon": "910038633",
                "ref:vatin": "PL8921450268",
                "operator": "Gmina Miasta Rypin",
                "operator:type": "government",
                "amenity": "kindergarten",
                "note": "Parent RSPO: 262902"
            }
        },
        {
            "id": 68030,
            "type": "Feature",
            "geometry": {
                "type": "Point",
                "coordinates": [
                    19.41633,
                    53.06295
                ]
            },
            "properties": {
                "ref:rspo": 68030,
                "official_name": "Zesp\u00f3\u0142 Szk\u00f3\u0142 Nr 5 im. Ks. Jana Twardowskiego w Rypinie",
                "name": "Zesp\u00f3\u0142 Szk\u00f3\u0142 Nr 5",
                "addr:country": "PL",
                "addr:postcode": "87-500",
                "addr:city": "Rypin",
                "addr:street": "M\u0142y\u0144ska",
                "addr:housenumber": "12",
                "addr:teryt:simc": 13132,
                "addr:teryt:sym_ul": 986136,
                "contact:phone": "+48 542803642",
                "contact:email": "zss_rypin@wp.pl",
                "ref:regon": "910922583",
                "ref:vatin": "PL8921324144",
                "operator": "Powiat Rypi\u0144ski",
                "operator:type": "government",
                "landuse": "education",
                "fixme": "amenity=school, amenity=college albo landuse=education w zale\u017cno\u015bci od tego, jakie plac\u00f3wki wchodz\u0105 w sk\u0142ad zespo\u0142u. Sprawd\u017a, kiedy stosowa\u0107 amenity=* a kiedy landuse=education.",
                "note": "Children RSPO: 79926;81145;81146;81147"
            }
        },
        {
            "id": 262902,
            "type": "Feature",
            "geometry": {
                "type": "Point",
                "coordinates": [
                    19.41633,
                    53.06292
                ]
            },
            "properties": {
                "ref:rspo": 262902,
                "official_name": "Zesp\u00f3\u0142 Szkolno - Przedszkolny Nr 2",
                "name": "Zesp\u00f3\u0142 Szkolno - Przedszkolny Nr 2",
                "addr:country": "PL",
                "addr:postcode": "87-500",
                "addr:city": "Rypin",
                "addr:street": "M\u0142y\u0144ska",
                "addr:housenumber": "12",
                "addr:teryt:simc": 13132,
                "addr:teryt:sym_ul": 986136,
                "contact:phone": "+48 542805192",
                "ref:regon": "368071822",
                "operator": "Gmina Miasta Rypin",
                "operator:type": "government",
                "landuse": "education",
                "fixme": "amenity=school, amenity=college albo landuse=education w zale\u017cno\u015bci od tego, jakie plac\u00f3wki wchodz\u0105 w sk\u0142ad zespo\u0142u. Sprawd\u017a, kiedy stosowa\u0107 amenity=* a kiedy landuse=education.",
                "note": "Children RSPO: 3436;3444;3448"
            }
        },
        {
            "id": 79926,
            "type": "Feature",
            "geometry": {
                "type": "Point",
                "coordinates": [
                    19.41633,
                    53.06289
                ]
            },
            "properties": {
                "isced:level": "1;2",
                "ref:rspo": 79926,
                "official_name": "Szko\u0142a Podstawowa w Rypinie w Zespole Szk\u00f3\u0142 Nr 5 im. Ks. Jana Twardowskiego w Rypinie",
                "name": "Szko\u0142a Podstawowa w Rypinie w Zespole Szk\u00f3\u0142 Nr 5",
                "addr:country": "PL",
                "addr:postcode": "87-500",
                "addr:city": "Rypin",
                "addr:street": "M\u0142y\u0144ska",
                "addr:housenumber": "12",
                "addr:teryt:simc": 13132,
                "addr:teryt:sym_ul": 986136,
                "contact:phone": "+48 542803642",
                "contact:email": "zss_rypin@wp.pl",
                "ref:regon": "001269827",
                "ref:vatin": "PL8921324144",
                "operator": "Powiat Rypi\u0144ski",
                "operator:type": "government",
                "amenity": "school",
                "note": "Parent RSPO: 68030"
            }
        },
        {
            "id": 81145,
            "type": "Feature",
            "geometry": {
                "type": "Point",
                "coordinates": [
                    19.41633,
                    53.06286
                ]
            },
            "properties": {
                "isced:level": "3",
                "ref:rspo": 81145,
                "official_name": "Bran\u017cowa Szko\u0142a I Stopnia Nr 3 w Rypinie w Zespole Szk\u00f3\u0142 Nr 5 im. Ks. Jana Twardowskiego w Rypinie",
                "name": "Bran\u017cowa Szko\u0142a I Stopnia Nr 3 w Rypinie w Zespole Szk\u00f3\u0142 Nr 5",
                "addr:country": "PL",
                "addr:postcode": "87-500",
                "addr:city": "Rypin",
                "addr:street": "M\u0142y\u0144ska",
                "addr:housenumber": "12",
                "addr:teryt:simc": 13132,
                "addr:teryt:sym_ul": 986136,
                "contact:phone": "+48 542803642",
                "contact:email": "zss_rypin@wp.pl",
                "ref:regon": "911335439",
                "ref:vatin": "PL8921324144",
                "operator": "Powiat Rypi\u0144ski",
                "operator:type": "government",
                "amenity": "school",
                "note": "Parent RSPO: 68030"
            }
        },
        {
            "id": 81146,
            "type": "Feature",
            "geometry": {
                "type": "Point",
                "coordinates": [
                    19.41633,
                    53.06283
                ]
            },
            "properties": {
                "ref:rspo": 81146,
                "official_name": "Zesp\u00f3\u0142 Szk\u00f3\u0142 Nr 5 w Rypinie im. Ks. Jana Twardowskiego - Szko\u0142a Muzyczna I Stopnia",
                "name": "Zesp\u00f3\u0142 Szk\u00f3\u0142 Nr 5 w Rypinie",
                "addr:country": "PL",
                "addr:postcode": "87-500",
                "addr:city": "Rypin",
                "addr:street": "M\u0142y\u0144ska",
                "addr:housenumber": "12",
                "addr:teryt:simc": 13132,
                "addr:teryt:sym_ul": 986136,
                "contact:phone": "+48 542803642",
                "ref:regon": "340196497",
                "ref:vatin": "PL8921324144",
                "operator": "Powiat Rypi\u0144ski",
                "operator:type": "government",
                "amenity": "music_school",
                "note": "Parent RSPO: 68030"
            }
        },
        {
            "id": 81147,
            "type": "Feature",
            "geometry": {
                "type": "Point",
                "coordinates": [
                    19.41633,
                    53.0628
                ]
            },
            "properties": {
                "ref:rspo": 81147,
                "official_name": "Szko\u0142a Przysposabiaj\u0105ca Do Pracy w Rypinie w Zespole Szk\u00f3\u0142 Nr 5 im. Ks. Jana Twardowskiego w Rypinie",
                "name": "Szko\u0142a Przysposabiaj\u0105ca Do Pracy w Rypinie w Zespole Szk\u00f3\u0142 Nr 5",
                "addr:country": "PL",
                "addr:postcode": "87-500",
                "addr:city": "Rypin",
                "addr:street": "M\u0142y\u0144ska",
                "addr:housenumber": "12",
                "addr:teryt:simc": 13132,
                "addr:teryt:sym_ul": 986136,
                "contact:phone": "+48 542803642",
                "ref:regon": "341350167",
                "ref:vatin": "PL8921324144",
                "operator": "Powiat Rypi\u0144ski",
                "operator:type": "government",
                "amenity": "school",
                "note": "Parent RSPO: 68030"
            }
        },
        {
            "id": 3436,
            "type": "Feature",
            "geometry": {
                "type": "Point",
                "coordinates": [
                    19.41633,
                    53.06277
                ]
            },
            "properties": {
                "isced:level": "1;2",
                "ref:rspo": 3436,
                "official_name": "Szko\u0142a Podstawowa Nr 3 im. Jana Paw\u0142a II w Rypinie",
                "name": "Szko\u0142a Podstawowa Nr 3",
                "addr:country": "PL",
                "addr:postcode": "87-500",
                "addr:city": "Rypin",
                "addr:street": "M\u0142y\u0144ska",
                "addr:housenumber": "12",
                "addr:teryt:simc": 13132,
                "addr:teryt:sym_ul": 986136,
                "contact:phone": "+48 542805847",
                "contact:email": "sp3@rypin.eu",
                "contact:website": "http:\/\/www.sp3rypin.pl",
                "ref:regon": "001246358",
                "ref:vatin": "PL8921161647",
                "operator": "Gmina Miasta Rypin",
                "operator:type": "government",
                "amenity": "school",
                "note": "Parent RSPO: 262902"
            }
        },
        {
            "id": 61630,
            "type": "Feature",
            "geometry": {
                "type": "Point",
                "coordinates": [
                    19.41075,
                    53.06332
                ]
            },
            "properties": {
                "ref:rspo": 61630,
                "official_name": "O\u015brodek Szkolenia Kursowego - Cech Rzemios\u0142 R\u00f3\u017cnych w Rypinie",
                "name": "O\u015brodek Szkolenia Kursowego - Cech Rzemios\u0142 R\u00f3\u017cnych w Rypinie",
                "addr:country": "PL",
                "addr:postcode": "87-500",
                "addr:city": "Rypin",
                "addr:street": "Warszawska",
                "addr:housenumber": "30",
                "addr:teryt:simc": 23682,
                "addr:teryt:sym_ul": 986136,
                "contact:phone": "+48 542802219",
                "contact:email": "cech.rzemiosl.roznych7@neostrada.pl",
                "ref:regon": "341346496",
                "ref:vatin": "PL8921161601",
                "operator": "Cech Rzemios\u0142 R\u00f3\u017cnych",
                "operator:type": "ngo",
                "fixme": "w zale\u017cno\u015bci od przedmiotu dzia\u0142alno\u015bci (np. amenity=training + training=*, amenity=dancing_school, amenity=language_school, amenity=music_school)"
            }
        },
        {
            "id": 3448,
            "type": "Feature",
            "geometry": {
                "type": "Point",
                "coordinates": [
                    19.42114,
                    53.06392
                ]
            },
            "properties": {
                "ref:rspo": 3448,
                "official_name": "Przedszkole Miejskie Nr 3 \"Niezapominajka\" w Rypinie",
                "name": "Przedszkole Miejskie Nr 3 \"Niezapominajka\" w Rypinie",
                "addr:country": "PL",
                "addr:postcode": "87-500",
                "addr:city": "Rypin",
                "addr:street": "Gustawa Sommera",
                "addr:housenumber": "16",
                "addr:teryt:simc": 28446,
                "addr:teryt:sym_ul": 986136,
                "contact:phone": "+48 542803516",
                "contact:email": "pm3@rypin.eu",
                "contact:website": "http:\/\/www.pm3.rypin.eu",
                "ref:regon": "910038662",
                "ref:vatin": "PL8921450133",
                "operator": "Gmina Miasta Rypin",
                "operator:type": "government",
                "amenity": "kindergarten",
                "note": "Parent RSPO: 262902"
            }
        },
        {
            "id": 61830,
            "type": "Feature",
            "geometry": {
                "type": "Point",
                "coordinates": [
                    19.41244,
                    53.06516
                ]
            },
            "properties": {
                "ref:rspo": 61830,
                "official_name": "Zesp\u00f3\u0142 Szk\u00f3\u0142 Nr 3 im. Bogdana Che\u0142mickiego w Rypinie",
                "name": "Zesp\u00f3\u0142 Szk\u00f3\u0142 Nr 3",
                "addr:country": "PL",
                "addr:postcode": "87-500",
                "addr:city": "Rypin",
                "addr:street": "Nowy Rynek",
                "addr:housenumber": "20",
                "addr:teryt:simc": 14532,
                "addr:teryt:sym_ul": 986136,
                "contact:phone": "+48 542802405",
                "contact:email": "zsnr3rypin@gmail.com",
                "contact:website": "http:\/\/zs3rypin.pl",
                "ref:regon": "910507588",
                "ref:vatin": "PL8921163965",
                "operator": "Powiat Rypi\u0144ski",
                "operator:type": "government",
                "landuse": "education",
                "fixme": "amenity=school, amenity=college albo landuse=education w zale\u017cno\u015bci od tego, jakie plac\u00f3wki wchodz\u0105 w sk\u0142ad zespo\u0142u. Sprawd\u017a, kiedy stosowa\u0107 amenity=* a kiedy landuse=education.",
                "note": "Children RSPO: 79916;79918;79919;124405"
            }
        },
        {
            "id": 79916,
            "type": "Feature",
            "geometry": {
                "type": "Point",
                "coordinates": [
                    19.41244,
                    53.065129999999996
                ]
            },
            "properties": {
                "isced:level": "3",
                "ref:rspo": 79916,
                "official_name": "Technikum Nr 2 w Rypinie w Zespole Szk\u00f3\u0142 Nr 3 im. Bogdana Che\u0142mickiego w Rypinie",
                "name": "Technikum Nr 2 w Rypinie w Zespole Szk\u00f3\u0142 Nr 3",
                "addr:country": "PL",
                "addr:postcode": "87-500",
                "addr:city": "Rypin",
                "addr:street": "Nowy Rynek",
                "addr:housenumber": "20",
                "addr:teryt:simc": 14532,
                "addr:teryt:sym_ul": 986136,
                "contact:phone": "+48 542802405",
                "contact:email": "zsnr3rypin@gmail.com",
                "contact:website": "http:\/\/www.zs3rypin.pl",
                "ref:regon": "910949642",
                "ref:vatin": "PL8921163965",
                "operator": "Powiat Rypi\u0144ski",
                "operator:type": "government",
                "amenity": "school",
                "note": "Parent RSPO: 61830"
            }
        },
        {
            "id": 79918,
            "type": "Feature",
            "geometry": {
                "type": "Point",
                "coordinates": [
                    19.41244,
                    53.0651
                ]
            },
            "properties": {
                "isced:level": "3",
                "ref:rspo": 79918,
                "official_name": "Bran\u017cowa Szko\u0142a I Stopnia Nr 2 w Rypinie w Zespole Szk\u00f3\u0142 Nr 3 im. Bogdana Che\u0142mickiego w Rypinie",
                "name": "Bran\u017cowa Szko\u0142a I Stopnia Nr 2 w Rypinie w Zespole Szk\u00f3\u0142 Nr 3",
                "addr:country": "PL",
                "addr:postcode": "87-500",
                "addr:city": "Rypin",
                "addr:street": "Nowy Rynek",
                "addr:housenumber": "20",
                "addr:teryt:simc": 14532,
                "addr:teryt:sym_ul": 986136,
                "contact:phone": "+48 542802405",
                "contact:email": "zsnr3rypin@gmail.com",
                "contact:website": "http:\/\/www.zs3rypin.pl",
                "ref:regon": "911337450",
                "ref:vatin": "PL8921163965",
                "operator": "Powiat Rypi\u0144ski",
                "operator:type": "government",
                "amenity": "school",
                "note": "Parent RSPO: 61830"
            }
        },
        {
            "id": 79919,
            "type": "Feature",
            "geometry": {
                "type": "Point",
                "coordinates": [
                    19.41244,
                    53.06507
                ]
            },
            "properties": {
                "isced:level": "4",
                "ref:rspo": 79919,
                "official_name": "Szko\u0142a Policealna Nr 3 w Rypinie w Zespole Szk\u00f3\u0142 Nr 3 im. Bogdana Che\u0142mickiego w Rypinie",
                "name": "Szko\u0142a Policealna Nr 3 w Rypinie w Zespole Szk\u00f3\u0142 Nr 3",
                "addr:country": "PL",
                "addr:postcode": "87-500",
                "addr:city": "Rypin",
                "addr:street": "Nowy Rynek",
                "addr:housenumber": "20",
                "addr:teryt:simc": 14532,
                "addr:teryt:sym_ul": 986136,
                "contact:phone": "+48 542802405",
                "contact:email": "zsnr3rypin@gmail.com",
                "contact:website": "http:\/\/www.zs3rypin.pl",
                "ref:regon": "911335273",
                "ref:vatin": "PL8921163965",
                "operator": "Powiat Rypi\u0144ski",
                "operator:type": "government",
                "amenity": "college",
                "note": "Parent RSPO: 61830"
            }
        },
        {
            "id": 124405,
            "type": "Feature",
            "geometry": {
                "type": "Point",
                "coordinates": [
                    19.41244,
                    53.065039999999996
                ]
            },
            "properties": {
                "isced:level": "3",
                "ref:rspo": 124405,
                "official_name": "Iii Liceum Og\u00f3lnokszta\u0142c\u0105ce dla Doros\u0142ych w Rypinie w Zespole Szk\u00f3\u0142 Nr 3 im. Bogdana Che\u0142mickiego w Rypinie",
                "name": "Iii Liceum Og\u00f3lnokszta\u0142c\u0105ce dla Doros\u0142ych w Rypinie w Zespole Szk\u00f3\u0142 Nr 3",
                "addr:country": "PL",
                "addr:postcode": "87-500",
                "addr:city": "Rypin",
                "addr:street": "Nowy Rynek",
                "addr:housenumber": "20",
                "addr:teryt:simc": 14532,
                "addr:teryt:sym_ul": 986136,
                "contact:phone": "+48 542802405",
                "contact:email": "zsnr3rypin@gmail.com",
                "contact:website": "http:\/\/www.zs3rypin.pl",
                "ref:regon": "341616777",
                "ref:vatin": "PL8921163965",
                "operator": "Powiat Rypi\u0144ski",
                "operator:type": "government",
                "amenity": "school",
                "note": "Parent RSPO: 61830"
            }
        },
        {
            "id": 61631,
            "type": "Feature",
            "geometry": {
                "type": "Point",
                "coordinates": [
                    19.41599,
                    53.06551
                ]
            },
            "properties": {
                "ref:rspo": 61631,
                "official_name": "Prywatny O\u015brodek Kszta\u0142cenia Zawodowego dla Doros\u0142ych w Rypinie",
                "name": "Prywatny O\u015brodek Kszta\u0142cenia Zawodowego dla Doros\u0142ych w Rypinie",
                "addr:country": "PL",
                "addr:postcode": "87-500",
                "addr:city": "Rypin",
                "addr:street": "M\u0142awska",
                "addr:housenumber": "24a",
                "addr:teryt:simc": 13060,
                "addr:teryt:sym_ul": 986136,
                "contact:phone": "+48 602816779",
                "ref:regon": "341346527",
                "ref:vatin": "PL8921163818",
                "operator": "Gra\u017cyna Karwaszewska",
                "operator:type": "private",
                "fixme": "w zale\u017cno\u015bci od przedmiotu dzia\u0142alno\u015bci (np. amenity=training + training=*, amenity=dancing_school, amenity=language_school, amenity=music_school)"
            }
        },
        {
            "id": 13394,
            "type": "Feature",
            "geometry": {
                "type": "Point",
                "coordinates": [
                    19.39699,
                    53.06748
                ]
            },
            "properties": {
                "isced:level": "3",
                "ref:rspo": 13394,
                "official_name": "Liceum Sztuk Plastycznych w Rypinie",
                "name": "Liceum Sztuk Plastycznych w Rypinie",
                "addr:country": "PL",
                "addr:postcode": "87-500",
                "addr:city": "Rypin",
                "addr:street": "Sportowa",
                "addr:housenumber": "24",
                "addr:teryt:simc": 20683,
                "addr:teryt:sym_ul": 986136,
                "contact:phone": "+48 542802331",
                "contact:email": "lp@rypin.eu",
                "contact:website": "http:\/\/liceumplastycznerypin.eu\/",
                "ref:regon": "340347967",
                "operator": "Gmina Miasta Rypin",
                "operator:type": "government",
                "amenity": "school",
                "note": "Parent RSPO: 262901"
            }
        },
        {
            "id": 68028,
            "type": "Feature",
            "geometry": {
                "type": "Point",
                "coordinates": [
                    19.4226,
                    53.06762
                ]
            },
            "properties": {
                "ref:rspo": 68028,
                "official_name": "Zesp\u00f3\u0142 Szk\u00f3\u0142 Nr 2 im. Unii Europejskiej w Rypinie",
                "name": "Zesp\u00f3\u0142 Szk\u00f3\u0142 Nr 2",
                "addr:country": "PL",
                "addr:postcode": "87-500",
                "addr:city": "Rypin",
                "addr:street": "Dworcowa",
                "addr:housenumber": "11",
                "addr:teryt:simc": 4434,
                "addr:teryt:sym_ul": 986136,
                "contact:phone": "+48 542803161",
                "contact:email": "zs2rypin@wp.pl",
                "ref:regon": "000715319",
                "ref:vatin": "PL8921161653",
                "operator": "Powiat Rypi\u0144ski",
                "operator:type": "government",
                "landuse": "education",
                "fixme": "amenity=school, amenity=college albo landuse=education w zale\u017cno\u015bci od tego, jakie plac\u00f3wki wchodz\u0105 w sk\u0142ad zespo\u0142u. Sprawd\u017a, kiedy stosowa\u0107 amenity=* a kiedy landuse=education.",
                "note": "Children RSPO: 80974;80975;80976;80977;124403;275618"
            }
        },
        {
            "id": 68031,
            "type": "Feature",
            "geometry": {
                "type": "Point",
                "coordinates": [
                    19.4226,
                    53.067589999999996
                ]
            },
            "properties": {
                "ref:rspo": 68031,
                "official_name": "Poradnia Psychologiczno-Pedagogiczna w Rypinie",
                "name": "Poradnia Psychologiczno-Pedagogiczna w Rypinie",
                "addr:country": "PL",
                "addr:postcode": "87-500",
                "addr:city": "Rypin",
                "addr:street": "Dworcowa",
                "addr:housenumber": "11",
                "addr:teryt:simc": 4434,
                "addr:teryt:sym_ul": 986136,
                "contact:phone": "+48 542805048",
                "contact:email": "sekretariat@ppprypin.pl",
                "ref:regon": "001058355",
                "ref:vatin": "PL8921316328",
                "operator": "Powiat Rypi\u0144ski",
                "operator:type": "government",
                "healthcare": "counselling",
                "counselling_type": "education",
                "fixme": "w zale\u017cno\u015bci od przedmiotu dzia\u0142alno\u015bci (np. healthcare=counselling + counselling_type=education albo healthcare=psychotherapist)"
            }
        },
        {
            "id": 80974,
            "type": "Feature",
            "geometry": {
                "type": "Point",
                "coordinates": [
                    19.4226,
                    53.06756
                ]
            },
            "properties": {
                "isced:level": "3",
                "ref:rspo": 80974,
                "official_name": "Bran\u017cowa Szko\u0142a I Stopnia Nr 1 w Rypinie w Zespole Szk\u00f3\u0142 Nr 2 im. Unii Europejskiej w Rypinie",
                "name": "Bran\u017cowa Szko\u0142a I Stopnia Nr 1 w Rypinie w Zespole Szk\u00f3\u0142 Nr 2",
                "addr:country": "PL",
                "addr:postcode": "87-500",
                "addr:city": "Rypin",
                "addr:street": "Dworcowa",
                "addr:housenumber": "11",
                "addr:teryt:simc": 4434,
                "addr:teryt:sym_ul": 986136,
                "contact:phone": "+48 542803161",
                "ref:regon": "911305042",
                "ref:vatin": "PL8921161653",
                "operator": "Powiat Rypi\u0144ski",
                "operator:type": "government",
                "amenity": "school",
                "note": "Parent RSPO: 68028"
            }
        },
        {
            "id": 80975,
            "type": "Feature",
            "geometry": {
                "type": "Point",
                "coordinates": [
                    19.4226,
                    53.06753
                ]
            },
            "properties": {
                "isced:level": "3",
                "ref:rspo": 80975,
                "official_name": "Technikum Nr 1 w Rypinie w Zespole Szk\u00f3\u0142 Nr 2 im. Unii Europejskiej w Rypinie",
                "name": "Technikum Nr 1 w Rypinie w Zespole Szk\u00f3\u0142 Nr 2",
                "addr:country": "PL",
                "addr:postcode": "87-500",
                "addr:city": "Rypin",
                "addr:street": "Dworcowa",
                "addr:housenumber": "11",
                "addr:teryt:simc": 4434,
                "addr:teryt:sym_ul": 986136,
                "contact:phone": "+48 542803161",
                "contact:email": "zs2rypin@wp.pl",
                "contact:website": "http:\/\/www.zs2rypin.pl",
                "ref:regon": "911305020",
                "ref:vatin": "PL8921161653",
                "operator": "Powiat Rypi\u0144ski",
                "operator:type": "government",
                "amenity": "school",
                "note": "Parent RSPO: 68028"
            }
        },
        {
            "id": 80976,
            "type": "Feature",
            "geometry": {
                "type": "Point",
                "coordinates": [
                    19.4226,
                    53.067499999999995
                ]
            },
            "properties": {
                "isced:level": "3",
                "ref:rspo": 80976,
                "official_name": "Ii Liceum Og\u00f3\u0142nokszta\u0142c\u0105ce w Rypinie w Zespole Szk\u00f3\u0142 Nr 2 im. Unii Europejskiej w Rypinie",
                "name": "Ii Liceum Og\u00f3\u0142nokszta\u0142c\u0105ce w Rypinie w Zespole Szk\u00f3\u0142 Nr 2",
                "addr:country": "PL",
                "addr:postcode": "87-500",
                "addr:city": "Rypin",
                "addr:street": "Dworcowa",
                "addr:housenumber": "11",
                "addr:teryt:simc": 4434,
                "addr:teryt:sym_ul": 986136,
                "contact:phone": "+48 542803161",
                "contact:email": "zs2rypin@wp.pl",
                "contact:website": "http:\/\/zs2rypin.pl",
                "ref:regon": "340385703",
                "ref:vatin": "PL8921161653",
                "operator": "Powiat Rypi\u0144ski",
                "operator:type": "government",
                "amenity": "school",
                "note": "Parent RSPO: 68028"
            }
        },
        {
            "id": 80977,
            "type": "Feature",
            "geometry": {
                "type": "Point",
                "coordinates": [
                    19.4226,
                    53.06747
                ]
            },
            "properties": {
                "isced:level": "4",
                "ref:rspo": 80977,
                "official_name": "Szko\u0142a Policealna Nr 2 w Rypinie w Zespole Szk\u00f3\u0142 Nr 2 im. Unii Europejskiej w Rypinie",
                "name": "Szko\u0142a Policealna Nr 2 w Rypinie w Zespole Szk\u00f3\u0142 Nr 2",
                "addr:country": "PL",
                "addr:postcode": "87-500",
                "addr:city": "Rypin",
                "addr:street": "Dworcowa",
                "addr:housenumber": "11",
                "addr:teryt:simc": 4434,
                "addr:teryt:sym_ul": 986136,
                "contact:phone": "+48 542803161",
                "ref:regon": "911305059",
                "ref:vatin": "PL8921161653",
                "operator": "Powiat Rypi\u0144ski",
                "operator:type": "government",
                "amenity": "college",
                "note": "Parent RSPO: 68028"
            }
        },
        {
            "id": 124403,
            "type": "Feature",
            "geometry": {
                "type": "Point",
                "coordinates": [
                    19.4226,
                    53.06744
                ]
            },
            "properties": {
                "isced:level": "3",
                "ref:rspo": 124403,
                "official_name": "Ii Liceum Og\u00f3lnokszta\u0142c\u0105ce dla Doros\u0142ych w Rypinie w Zespole Szk\u00f3\u0142 Nr 2 im. Unii Europejskiej w Rypinie",
                "name": "Ii Liceum Og\u00f3lnokszta\u0142c\u0105ce dla Doros\u0142ych w Rypinie w Zespole Szk\u00f3\u0142 Nr 2",
                "addr:country": "PL",
                "addr:postcode": "87-500",
                "addr:city": "Rypin",
                "addr:street": "Dworcowa",
                "addr:housenumber": "11",
                "addr:teryt:simc": 4434,
                "addr:teryt:sym_ul": 986136,
                "contact:phone": "+48 542803161",
                "contact:email": "zs2rypin@wp.pl",
                "contact:website": "http:\/\/www.zs2rypin.pl",
                "ref:regon": "341616731",
                "ref:vatin": "PL8921161653",
                "operator": "Powiat Rypi\u0144ski",
                "operator:type": "government",
                "amenity": "school",
                "note": "Parent RSPO: 68028"
            }
        },
        {
            "id": 275618,
            "type": "Feature",
            "geometry": {
                "type": "Point",
                "coordinates": [
                    19.4226,
                    53.067409999999995
                ]
            },
            "properties": {
                "isced:level": "3",
                "ref:rspo": 275618,
                "official_name": "Bran\u017cowa Szko\u0142a II Stopnia w Rypinie w Zespole Szk\u00f3\u0142 Nr 2 im. Unii Europejskiej w Rypinie",
                "name": "Bran\u017cowa Szko\u0142a II Stopnia w Rypinie w Zespole Szk\u00f3\u0142 Nr 2",
                "addr:country": "PL",
                "addr:postcode": "87-500",
                "addr:city": "Rypin",
                "addr:street": "Dworcowa",
                "addr:housenumber": "11",
                "addr:teryt:simc": 4434,
                "addr:teryt:sym_ul": 986136,
                "contact:phone": "+48 542803161",
                "contact:email": "zs2rypin@wp.pl",
                "contact:website": "http:\/\/zs2rypin.pl",
                "ref:regon": "386943047",
                "operator": "Powiat Rypi\u0144ski",
                "operator:type": "government",
                "amenity": "school",
                "note": "Parent RSPO: 68028"
            }
        },
        {
            "id": 262901,
            "type": "Feature",
            "geometry": {
                "type": "Point",
                "coordinates": [
                    19.41553,
                    53.06764
                ]
            },
            "properties": {
                "ref:rspo": 262901,
                "official_name": "Zesp\u00f3\u0142 Szkolno - Przedszkolny Nr 1",
                "name": "Zesp\u00f3\u0142 Szkolno - Przedszkolny Nr 1",
                "addr:country": "PL",
                "addr:postcode": "87-500",
                "addr:city": "Rypin",
                "addr:street": "3 Maja",
                "addr:housenumber": "3",
                "addr:teryt:simc": 11937,
                "addr:teryt:sym_ul": 986136,
                "contact:phone": "+48 542805119",
                "contact:email": "sp1@rypin.eu",
                "ref:regon": "368071673",
                "operator": "Gmina Miasta Rypin",
                "operator:type": "government",
                "landuse": "education",
                "fixme": "amenity=school, amenity=college albo landuse=education w zale\u017cno\u015bci od tego, jakie plac\u00f3wki wchodz\u0105 w sk\u0142ad zespo\u0142u. Sprawd\u017a, kiedy stosowa\u0107 amenity=* a kiedy landuse=education.",
                "note": "Children RSPO: 3246;3447;13394"
            }
        },
        {
            "id": 3246,
            "type": "Feature",
            "geometry": {
                "type": "Point",
                "coordinates": [
                    19.41553,
                    53.067609999999995
                ]
            },
            "properties": {
                "isced:level": "1;2",
                "ref:rspo": 3246,
                "official_name": "Szko\u0142a Podstawowa Nr 1 im. Mjr Henryka Sucharskiego w Rypinie",
                "name": "Szko\u0142a Podstawowa Nr 1",
                "addr:country": "PL",
                "addr:postcode": "87-500",
                "addr:city": "Rypin",
                "addr:street": "3 Maja",
                "addr:housenumber": "3",
                "addr:teryt:simc": 11937,
                "addr:teryt:sym_ul": 986136,
                "contact:phone": "+48 542805119",
                "contact:email": "sp1@rypin.eu",
                "ref:regon": "000715294",
                "ref:vatin": "PL8921160582",
                "operator": "Gmina Miasta Rypin",
                "operator:type": "government",
                "amenity": "school",
                "note": "Parent RSPO: 262901"
            }
        },
        {
            "id": 120928,
            "type": "Feature",
            "geometry": {
                "type": "Point",
                "coordinates": [
                    19.4062899,
                    53.06834
                ]
            },
            "properties": {
                "ref:rspo": 120928,
                "official_name": "Niepubliczne Przedszkole\"Chatka Puchatka\"",
                "name": "Niepubliczne Przedszkole\"Chatka Puchatka\"",
                "addr:country": "PL",
                "addr:postcode": "87-500",
                "addr:city": "Rypin",
                "addr:street": "Jana Paw\u0142a II",
                "addr:housenumber": "15",
                "addr:teryt:simc": 7123,
                "addr:teryt:sym_ul": 986136,
                "contact:phone": "+48 501024694",
                "ref:regon": "341511914",
                "ref:vatin": "PL8921377821",
                "operator": "Justyna Pankowska",
                "operator:type": "private",
                "amenity": "kindergarten"
            }
        },
        {
            "id": 3447,
            "type": "Feature",
            "geometry": {
                "type": "Point",
                "coordinates": [
                    19.41949,
                    53.07018
                ]
            },
            "properties": {
                "ref:rspo": 3447,
                "official_name": "Przedszkole Miejskie Nr 2 w Rypinie",
                "name": "Przedszkole Miejskie Nr 2 w Rypinie",
                "addr:country": "PL",
                "addr:postcode": "87-500",
                "addr:city": "Rypin",
                "addr:street": "Wojska Polskiego",
                "addr:housenumber": "11",
                "addr:teryt:simc": 24628,
                "addr:teryt:sym_ul": 986136,
                "contact:phone": "+48 542803132",
                "contact:email": "pm2@rypin.eu",
                "ref:regon": "910038640",
                "ref:vatin": "PL8921450251",
                "operator": "Gmina Miasta Rypin",
                "operator:type": "government",
                "amenity": "kindergarten",
                "note": "Parent RSPO: 262901"
            }
        },
        {
            "id": 68027,
            "type": "Feature",
            "geometry": {
                "type": "Point",
                "coordinates": [
                    19.39959,
                    53.07244
                ]
            },
            "properties": {
                "ref:rspo": 68027,
                "official_name": "Zesp\u00f3\u0142 Szk\u00f3\u0142 Nr 1 im. Ks. Czes\u0142awa Lissowskiego w Rypinie",
                "name": "Zesp\u00f3\u0142 Szk\u00f3\u0142 Nr 1",
                "addr:country": "PL",
                "addr:postcode": "87-500",
                "addr:city": "Rypin",
                "addr:street": "Tadeusza Ko\u015bciuszki",
                "addr:housenumber": "51",
                "addr:teryt:simc": 9582,
                "addr:teryt:sym_ul": 986136,
                "contact:phone": "+48 542802065",
                "contact:email": "slawpaw@wp.pl",
                "ref:regon": "911257366",
                "ref:vatin": "PL8921379895",
                "operator": "Powiat Rypi\u0144ski",
                "operator:type": "government",
                "landuse": "education",
                "fixme": "amenity=school, amenity=college albo landuse=education w zale\u017cno\u015bci od tego, jakie plac\u00f3wki wchodz\u0105 w sk\u0142ad zespo\u0142u. Sprawd\u017a, kiedy stosowa\u0107 amenity=* a kiedy landuse=education.",
                "note": "Children RSPO: 79751;79754;132484"
            }
        },
        {
            "id": 79751,
            "type": "Feature",
            "geometry": {
                "type": "Point",
                "coordinates": [
                    19.39959,
                    53.07241
                ]
            },
            "properties": {
                "isced:level": "3",
                "ref:rspo": 79751,
                "official_name": "I Liceum Og\u00f3lnokszta\u0142c\u0105ce w Rypinie w Zespole Szk\u00f3\u0142 Nr 1 im. Ks. Czes\u0142awa Lissowskiego w Rypinie",
                "name": "I Liceum Og\u00f3lnokszta\u0142c\u0105ce w Rypinie w Zespole Szk\u00f3\u0142 Nr 1",
                "addr:country": "PL",
                "addr:postcode": "87-500",
                "addr:city": "Rypin",
                "addr:street": "Tadeusza Ko\u015bciuszki",
                "addr:housenumber": "51",
                "addr:teryt:simc": 9582,
                "addr:teryt:sym_ul": 986136,
                "contact:phone": "+48 542802065",
                "contact:email": "zs1@zs1rypin.pl",
                "ref:regon": "000715271",
                "ref:vatin": "PL8921161630",
                "operator": "Powiat Rypi\u0144ski",
                "operator:type": "government",
                "amenity": "school",
                "note": "Parent RSPO: 68027"
            }
        },
        {
            "id": 79754,
            "type": "Feature",
            "geometry": {
                "type": "Point",
                "coordinates": [
                    19.39959,
                    53.07238
                ]
            },
            "properties": {
                "isced:level": "4",
                "ref:rspo": 79754,
                "official_name": "Szko\u0142a Policealna Nr 1 w Rypinie w Zespole Szk\u00f3\u0142 Nr 1 im. Ks. Czes\u0142awa Lissowskiego w Rypinie",
                "name": "Szko\u0142a Policealna Nr 1 w Rypinie w Zespole Szk\u00f3\u0142 Nr 1",
                "addr:country": "PL",
                "addr:postcode": "87-500",
                "addr:city": "Rypin",
                "addr:street": "Tadeusza Ko\u015bciuszki",
                "addr:housenumber": "51",
                "addr:teryt:simc": 9582,
                "addr:teryt:sym_ul": 986136,
                "contact:phone": "+48 542802065",
                "ref:regon": "911257350",
                "ref:vatin": "PL8921161630",
                "operator": "Powiat Rypi\u0144ski",
                "operator:type": "government",
                "amenity": "college",
                "note": "Parent RSPO: 68027"
            }
        },
        {
            "id": 132484,
            "type": "Feature",
            "geometry": {
                "type": "Point",
                "coordinates": [
                    19.39959,
                    53.07235
                ]
            },
            "properties": {
                "isced:level": "3",
                "ref:rspo": 132484,
                "official_name": "I Liceum Og\u00f3lnokszta\u0142c\u0105ce dla Doros\u0142ych w Rypinie w Zespole Szk\u00f3\u0142 Nr 1 im. Ks. Czes\u0142awa Lissowskiego w Rypinie",
                "name": "I Liceum Og\u00f3lnokszta\u0142c\u0105ce dla Doros\u0142ych w Rypinie w Zespole Szk\u00f3\u0142 Nr 1",
                "addr:country": "PL",
                "addr:postcode": "87-500",
                "addr:city": "Rypin",
                "addr:street": "Tadeusza Ko\u015bciuszki",
                "addr:housenumber": "51",
                "addr:teryt:simc": 9582,
                "addr:teryt:sym_ul": 986136,
                "contact:phone": "+48 542802065",
                "ref:regon": "365661434",
                "operator": "Powiat Rypi\u0144ski",
                "operator:type": "government",
                "amenity": "school",
                "note": "Parent RSPO: 68027"
            }
        }
    ]
}