{
    "type": "FeatureCollection",
    "features": [
        {
            "id": 49586,
            "type": "Feature",
            "geometry": {
                "type": "Point",
                "coordinates": [
                    15.3987,
                    51.19542
                ]
            },
            "properties": {
                "isced:level": "1;2",
                "ref:rspo": 49586,
                "official_name": "Szko\u0142a Podstawowa im. Boles\u0142awa Chrobrego w Nowogrod\u017acu",
                "name": "Szko\u0142a Podstawowa",
                "addr:postcode": "59-730",
                "addr:city": "Nowogrodziec",
                "addr:street": "Henryka Sienkiewicza",
                "addr:housenumber": "7-8",
                "addr:city:simc": 936262,
                "addr:street:sym_ul": 19834,
                "phone": "+48 757316371",
                "email": "spnowogrodziec@gmail.com",
                "website": "http:\/\/www.spnowogrodziec.pl",
                "ref:regon": "000243458",
                "ref:vatin": "PL6121055173",
                "operator": "Gmina Nowogrodziec",
                "operator:type": "government",
                "amenity": "school"
            }
        },
        {
            "id": 74369,
            "type": "Feature",
            "geometry": {
                "type": "Point",
                "coordinates": [
                    15.39728,
                    51.1955
                ]
            },
            "properties": {
                "ref:rspo": 74369,
                "official_name": "Przedszkole Publiczne w Nowogrod\u017acu",
                "name": "Przedszkole Publiczne w Nowogrod\u017acu",
                "addr:postcode": "59-730",
                "addr:city": "Nowogrodziec",
                "addr:street": "Kolejowa",
                "addr:housenumber": "46",
                "addr:city:simc": 936262,
                "addr:street:sym_ul": 8828,
                "phone": "+48 757316335",
                "email": "przedszkole-nowogrodziec@o2.pl",
                "website": "http:\/\/www.przedszkolepubliczne.nowogrodziec.pl",
                "ref:regon": "021415153",
                "ref:vatin": "PL6121840297",
                "operator": "Gmina Nowogrodziec",
                "operator:type": "government",
                "amenity": "kindergarten"
            }
        },
        {
            "id": 74360,
            "type": "Feature",
            "geometry": {
                "type": "Point",
                "coordinates": [
                    15.3999305,
                    51.196998
                ]
            },
            "properties": {
                "isced:level": "1;2",
                "ref:rspo": 74360,
                "official_name": "Szko\u0142a Podstawowa im. Jana Paw\u0142a II w Go\u015bciszowie",
                "name": "Szko\u0142a Podstawowa",
                "addr:postcode": "59-730",
                "addr:place": "Go\u015bcisz\u00f3w",
                "addr:housenumber": "152",
                "addr:city:simc": 191520,
                "phone": "+48 757367723",
                "email": "szkolagosciszow152@gmail.com",
                "website": "http:\/\/www.szkolagosciszow.edupage.org",
                "ref:regon": "001179142",
                "ref:vatin": "PL6121079162",
                "operator": "Gmina Nowogrodziec",
                "operator:type": "government",
                "amenity": "school"
            }
        },
        {
            "id": 74366,
            "type": "Feature",
            "geometry": {
                "type": "Point",
                "coordinates": [
                    15.3124392,
                    51.205073
                ]
            },
            "properties": {
                "isced:level": "1;2",
                "ref:rspo": 74366,
                "official_name": "Szko\u0142a Podstawowa im. Jana Paw\u0142a II w Giera\u0142towie",
                "name": "Szko\u0142a Podstawowa",
                "addr:postcode": "59-730",
                "addr:place": "Giera\u0142t\u00f3w",
                "addr:housenumber": "47",
                "addr:city:simc": 191508,
                "phone": "+48 757368225",
                "email": "spgier@poczta.onet.pl",
                "website": "http:\/\/www.spgieraltow.pl",
                "ref:regon": "003290286",
                "ref:vatin": "PL6121142529",
                "operator": "Gmina Nowogrodziec",
                "operator:type": "government",
                "amenity": "school"
            }
        },
        {
            "id": 60830,
            "type": "Feature",
            "geometry": {
                "type": "Point",
                "coordinates": [
                    15.3555623,
                    51.227728
                ]
            },
            "properties": {
                "isced:level": "1;2",
                "ref:rspo": 60830,
                "official_name": "Szko\u0142a Podstawowa im. G\u00f3rnik\u00f3w Surowc\u00f3w Mineralnych w Czernej",
                "name": "Szko\u0142a Podstawowa",
                "addr:postcode": "59-730",
                "addr:place": "Czerna",
                "addr:housenumber": "52",
                "addr:city:simc": 191490,
                "phone": "+48 757363314",
                "email": "spczerna@interia.pl",
                "website": "http:\/\/www.szkola-czerna.pl",
                "ref:regon": "001179188",
                "ref:vatin": "PL6121158648",
                "operator": "Gmina Nowogrodziec",
                "operator:type": "government",
                "amenity": "school"
            }
        },
        {
            "id": 74371,
            "type": "Feature",
            "geometry": {
                "type": "Point",
                "coordinates": [
                    15.3555623,
                    51.227698
                ]
            },
            "properties": {
                "ref:rspo": 74371,
                "official_name": "Przedszkole Niepubliczne \"Skrzaty\" w Czernej",
                "name": "Przedszkole Niepubliczne \"Skrzaty\" w Czernej",
                "addr:postcode": "59-730",
                "addr:place": "Czerna",
                "addr:housenumber": "52",
                "addr:city:simc": 191490,
                "phone": "+48 512312363",
                "email": "skrzaty52@wp.pl",
                "ref:regon": "022002884",
                "ref:vatin": "PL6121146674",
                "operator": "Mariola Szewczyk",
                "operator:type": "private",
                "amenity": "kindergarten"
            }
        },
        {
            "id": 61297,
            "type": "Feature",
            "geometry": {
                "type": "Point",
                "coordinates": [
                    15.28844,
                    51.24719
                ]
            },
            "properties": {
                "isced:level": "1;2",
                "ref:rspo": 61297,
                "official_name": "Szko\u0142a Podstawowa im. Tadeusza Ko\u015bciuszki w Wykrotach",
                "name": "Szko\u0142a Podstawowa",
                "addr:postcode": "59-730",
                "addr:city": "Wykroty",
                "addr:street": "G\u0142\u00f3wna",
                "addr:housenumber": "108",
                "addr:city:simc": 191589,
                "addr:street:sym_ul": 5635,
                "phone": "+48 757360289",
                "email": "szkolawykroty@wp.pl",
                "website": "http:\/\/spwykroty.pl",
                "ref:regon": "001179159",
                "ref:vatin": "PL6121142512",
                "operator": "Gmina Nowogrodziec",
                "operator:type": "government",
                "amenity": "school"
            }
        },
        {
            "id": 84302,
            "type": "Feature",
            "geometry": {
                "type": "Point",
                "coordinates": [
                    15.406422,
                    51.259706
                ]
            },
            "properties": {
                "isced:level": "1;2",
                "ref:rspo": 84302,
                "official_name": "Szko\u0142a Podstawowa im. J\u00f3zefa Pi\u0142sudskiego w Nowej Wsi",
                "name": "Szko\u0142a Podstawowa",
                "addr:postcode": "59-730",
                "addr:place": "Nowa Wie\u015b",
                "addr:housenumber": "26A",
                "addr:city:simc": 191550,
                "phone": "+48 757362083",
                "email": "szkolap18@wp.pl",
                "ref:regon": "001179171",
                "ref:vatin": "PL6121800406",
                "operator": "Gmina Nowogrodziec",
                "operator:type": "government",
                "amenity": "school"
            }
        }
    ]
}