{
    "type": "FeatureCollection",
    "features": [
        {
            "id": 75040,
            "type": "Feature",
            "geometry": {
                "type": "Point",
                "coordinates": [
                    15.73142,
                    51.21617
                ]
            },
            "properties": {
                "ref:rspo": 75040,
                "official_name": "Zesp\u00f3\u0142 Szkolno-Przedszkolny w Iwinach",
                "name": "Zesp\u00f3\u0142 Szkolno-Przedszkolny w Iwinach",
                "addr:postcode": "59-720",
                "addr:place": "Iwiny-Osiedle",
                "addr:housenumber": "60",
                "addr:city:simc": 368042,
                "phone": "+48 757389570",
                "email": "zspiwiny@wp.pl",
                "ref:regon": "231220197",
                "operator": "Gmina Warta Boles\u0142awiecka",
                "operator:type": "government",
                "landuse": "education",
                "fixme": "amenity=school, amenity=college albo landuse=education w zale\u017cno\u015bci od tego, jakie plac\u00f3wki wchodz\u0105 w sk\u0142ad zespo\u0142u. Sprawd\u017a, kiedy stosowa\u0107 amenity=* a kiedy landuse=education.",
                "note": "Children RSPO: 74899;74900"
            }
        },
        {
            "id": 74899,
            "type": "Feature",
            "geometry": {
                "type": "Point",
                "coordinates": [
                    15.73142,
                    51.216139999999996
                ]
            },
            "properties": {
                "isced:level": "1;2",
                "ref:rspo": 74899,
                "official_name": "Zesp\u00f3\u0142 Szkolno-Przedszkolny w Iwinach Publiczna Szko\u0142a Podstawowa im. Pionier\u00f3w Polskiej Miedzi w Iwinach",
                "name": "Zesp\u00f3\u0142 Szkolno-Przedszkolny w Iwinach Publiczna Szko\u0142a Podstawowa",
                "addr:postcode": "59-720",
                "addr:place": "Iwiny-Osiedle",
                "addr:housenumber": "60",
                "addr:city:simc": 368042,
                "phone": "+48 757389570",
                "email": "zspiwiny@wp.pl",
                "ref:regon": "000271182",
                "ref:vatin": "PL6941366759",
                "operator": "Gmina Warta Boles\u0142awiecka",
                "operator:type": "government",
                "amenity": "school",
                "note": "Parent RSPO: 75040"
            }
        },
        {
            "id": 74900,
            "type": "Feature",
            "geometry": {
                "type": "Point",
                "coordinates": [
                    15.73142,
                    51.21611
                ]
            },
            "properties": {
                "ref:rspo": 74900,
                "official_name": "Zesp\u00f3\u0142 Szkolno-Przedszkolny w Iwinach Przedszkole Publiczne",
                "name": "Zesp\u00f3\u0142 Szkolno-Przedszkolny w Iwinach Przedszkole Publiczne",
                "addr:postcode": "59-720",
                "addr:place": "Iwiny-Osiedle",
                "addr:housenumber": "60",
                "addr:city:simc": 368042,
                "phone": "+48 757389399",
                "email": "zspiwiny@wp.pl",
                "ref:regon": "001020559",
                "ref:vatin": "PL6941349175",
                "operator": "Gmina Warta Boles\u0142awiecka",
                "operator:type": "government",
                "amenity": "kindergarten",
                "note": "Parent RSPO: 75040"
            }
        },
        {
            "id": 29168,
            "type": "Feature",
            "geometry": {
                "type": "Point",
                "coordinates": [
                    15.73356,
                    51.21839
                ]
            },
            "properties": {
                "ref:rspo": 29168,
                "official_name": "Powiatowy M\u0142odzie\u017cowy O\u015brodek Wychowawczy w Iwinach",
                "name": "Powiatowy M\u0142odzie\u017cowy O\u015brodek Wychowawczy w Iwinach",
                "addr:postcode": "59-720",
                "addr:place": "Iwiny-Osiedle",
                "addr:housenumber": "19",
                "addr:city:simc": 368042,
                "phone": "+48 757310568",
                "email": "iwiny@vp.pl",
                "ref:regon": "021638893",
                "ref:vatin": "PL6121846940",
                "operator": "Powiat Boles\u0142awiecki",
                "operator:type": "government",
                "fixme": "amenity=social_facility + social_facility=group_home + social_facility:for=juvenile",
                "note": "Children RSPO: 262368"
            }
        },
        {
            "id": 262368,
            "type": "Feature",
            "geometry": {
                "type": "Point",
                "coordinates": [
                    15.73356,
                    51.21836
                ]
            },
            "properties": {
                "isced:level": "1;2",
                "ref:rspo": 262368,
                "official_name": "Szko\u0142a Podstawowa Specjalna w Iwinach w Powiatowym M\u0142odzie\u017cowym O\u015brodku Wychowawczym w Iwinach",
                "name": "Szko\u0142a Podstawowa Specjalna w Iwinach w Powiatowym M\u0142odzie\u017cowym O\u015brodku Wychowawczym w Iwinach",
                "addr:postcode": "59-720",
                "addr:place": "Iwiny-Osiedle",
                "addr:housenumber": "19",
                "addr:city:simc": 368042,
                "phone": "+48 757310568",
                "email": "iwiny@vp.pl",
                "website": "http:\/\/www.iwiny.szkolnastrona.pl",
                "ref:regon": "367994246",
                "operator": "Powiat Boles\u0142awiecki",
                "operator:type": "government",
                "amenity": "school",
                "note": "Parent RSPO: 29168"
            }
        },
        {
            "id": 75053,
            "type": "Feature",
            "geometry": {
                "type": "Point",
                "coordinates": [
                    15.68485,
                    51.25846
                ]
            },
            "properties": {
                "isced:level": "1;2",
                "ref:rspo": 75053,
                "official_name": "Publiczna Szko\u0142a Podstawowa im. W\u0142adys\u0142awa Stanis\u0142awa Reymonta w Warcie Boles\u0142awieckiej",
                "name": "Publiczna Szko\u0142a Podstawowa",
                "addr:postcode": "59-720",
                "addr:place": "Warta Boles\u0142awiecka",
                "addr:housenumber": "29",
                "addr:city:simc": 368125,
                "phone": "+48 757389564",
                "email": "spwarta@wp.pl",
                "website": "http:\/\/www.spwarta.pl",
                "ref:regon": "001240462",
                "ref:vatin": "PL6941366713",
                "operator": "Gmina Warta Boles\u0142awiecka",
                "operator:type": "government",
                "amenity": "school"
            }
        },
        {
            "id": 29524,
            "type": "Feature",
            "geometry": {
                "type": "Point",
                "coordinates": [
                    15.70318,
                    51.27814
                ]
            },
            "properties": {
                "isced:level": "1;2",
                "ref:rspo": 29524,
                "official_name": "Publiczna Szko\u0142a Podstawowa w Szczytnicy",
                "name": "Publiczna Szko\u0142a Podstawowa w Szczytnicy",
                "addr:postcode": "59-720",
                "addr:place": "Szczytnica",
                "addr:housenumber": "34",
                "addr:city:simc": 368102,
                "phone": "+48 757389309",
                "email": "spszczytnica@o2.pl",
                "ref:regon": "021987412",
                "operator": "Stowarzyszenie Rozwoju Wsi Szczytnica I Okolice",
                "operator:type": "ngo",
                "amenity": "school"
            }
        },
        {
            "id": 16354,
            "type": "Feature",
            "geometry": {
                "type": "Point",
                "coordinates": [
                    15.536929130554,
                    51.336753845215
                ]
            },
            "properties": {
                "ref:rspo": 16354,
                "official_name": "Przedszkole Niepubliczne \"Akademia Rozwoju\"",
                "name": "Przedszkole Niepubliczne \"Akademia Rozwoju\"",
                "addr:postcode": "59-720",
                "addr:place": "Tomasz\u00f3w Boles\u0142awiecki",
                "addr:housenumber": "110b",
                "addr:city:simc": 368119,
                "phone": "+48 757389304",
                "email": "janczar.bm@wp.pl",
                "ref:regon": "021966628",
                "ref:vatin": "PL6921757913",
                "operator": "Barbara Komarek",
                "operator:type": "private",
                "amenity": "kindergarten"
            }
        },
        {
            "id": 29457,
            "type": "Feature",
            "geometry": {
                "type": "Point",
                "coordinates": [
                    15.536929130554,
                    51.336723845215
                ]
            },
            "properties": {
                "isced:level": "1;2",
                "ref:rspo": 29457,
                "official_name": "Publiczna Szko\u0142a Podstawowa im. \u017bo\u0142nierzy II Armii Wojska Polskiego w Tomaszowie Boles\u0142awieckim",
                "name": "Publiczna Szko\u0142a Podstawowa",
                "addr:postcode": "59-720",
                "addr:place": "Tomasz\u00f3w Boles\u0142awiecki",
                "addr:housenumber": "96",
                "addr:city:simc": 368119,
                "phone": "+48 757389509",
                "email": "sp.tombol@op.pl",
                "ref:regon": "001240137",
                "ref:vatin": "PL6941277429",
                "operator": "Gmina Warta Boles\u0142awiecka",
                "operator:type": "government",
                "amenity": "school"
            }
        },
        {
            "id": 29458,
            "type": "Feature",
            "geometry": {
                "type": "Point",
                "coordinates": [
                    15.536929130554,
                    51.336693845215
                ]
            },
            "properties": {
                "ref:rspo": 29458,
                "official_name": "Punkt Przedszkolny \"T\u0119czowy Ogr\u00f3d\" w Publicznej Szkole Podstawowej w Tomaszowie Boles\u0142awieckim",
                "name": "Punkt Przedszkolny \"T\u0119czowy Ogr\u00f3d\" w Publicznej Szkole Podstawowej w Tomaszowie Boles\u0142awieckim",
                "addr:postcode": "59-720",
                "addr:place": "Tomasz\u00f3w Boles\u0142awiecki",
                "addr:housenumber": "96",
                "addr:city:simc": 368119,
                "phone": "+48 757389509",
                "email": "sp.tombol@op.pl",
                "ref:regon": "021989196",
                "ref:vatin": "PL6941277429",
                "operator": "Gmina Warta Boles\u0142awiecka",
                "operator:type": "government",
                "amenity": "kindergarten"
            }
        },
        {
            "id": 30209,
            "type": "Feature",
            "geometry": {
                "type": "Point",
                "coordinates": [
                    15.536929130554,
                    51.336663845215
                ]
            },
            "properties": {
                "isced:level": "1;2",
                "ref:rspo": 30209,
                "official_name": "Publiczna Szko\u0142a Podstawowa im. Henryka Sienkiewicza w Raciborowicach Dolnych",
                "name": "Publiczna Szko\u0142a Podstawowa",
                "addr:postcode": "59-720",
                "addr:place": "Raciborowice Dolne",
                "addr:housenumber": "3",
                "addr:city:simc": 368088,
                "phone": "+48 757389374",
                "email": "raciborowice@wp.pl",
                "website": "http:\/\/www.raciborowice.info",
                "ref:regon": "001240143",
                "ref:vatin": "PL6941367291",
                "operator": "Gmina Warta Boles\u0142awiecka",
                "operator:type": "government",
                "amenity": "school"
            }
        },
        {
            "id": 30210,
            "type": "Feature",
            "geometry": {
                "type": "Point",
                "coordinates": [
                    15.536929130554,
                    51.336633845215
                ]
            },
            "properties": {
                "ref:rspo": 30210,
                "official_name": "Punkt Przedszkolny \"Bajka\" w Publicznej Szkole Podstawowej w Raciborowicach Dolnych",
                "name": "Punkt Przedszkolny \"Bajka\" w Publicznej Szkole Podstawowej w Raciborowicach Dolnych",
                "addr:postcode": "59-720",
                "addr:place": "Raciborowice Dolne",
                "addr:housenumber": "3",
                "addr:city:simc": 368088,
                "phone": "+48 757389374",
                "email": "raciborowice@wp.pl",
                "ref:regon": "021101673",
                "ref:vatin": "PL6941367291",
                "operator": "Gmina Warta Boles\u0142awiecka",
                "operator:type": "government",
                "amenity": "kindergarten"
            }
        }
    ]
}