{
    "type": "FeatureCollection",
    "features": [
        {
            "id": 85026,
            "type": "Feature",
            "geometry": {
                "type": "Point",
                "coordinates": [
                    15.536929130554,
                    51.336753845215
                ]
            },
            "properties": {
                "isced:level": "1;2",
                "ref:rspo": 85026,
                "official_name": "Szko\u0142a Podstawowa w Os\u0142ej",
                "name": "Szko\u0142a Podstawowa w Os\u0142ej",
                "addr:postcode": "59-706",
                "addr:place": "Os\u0142a",
                "addr:housenumber": "59",
                "addr:city:simc": 364191,
                "phone": "+48 757382489",
                "email": "sposla@interia.pl",
                "ref:regon": "001240634",
                "ref:vatin": "PL6121803586",
                "operator": "Gmina Gromadka",
                "operator:type": "government",
                "amenity": "school"
            }
        },
        {
            "id": 85032,
            "type": "Feature",
            "geometry": {
                "type": "Point",
                "coordinates": [
                    15.536929130554,
                    51.336723845215
                ]
            },
            "properties": {
                "ref:rspo": 85032,
                "official_name": "Punkt Przedszkolny w Szkole Podstawowej w Os\u0142ej",
                "name": "Punkt Przedszkolny w Szkole Podstawowej w Os\u0142ej",
                "addr:postcode": "59-706",
                "addr:place": "Os\u0142a",
                "addr:housenumber": "59",
                "addr:city:simc": 364191,
                "phone": "+48 757382489",
                "email": "sposla@interia.pl",
                "ref:regon": "021848797",
                "operator": "Gmina Gromadka",
                "operator:type": "government",
                "amenity": "kindergarten"
            }
        },
        {
            "id": 85023,
            "type": "Feature",
            "geometry": {
                "type": "Point",
                "coordinates": [
                    15.80687,
                    51.35368
                ]
            },
            "properties": {
                "isced:level": "1;2",
                "ref:rspo": 85023,
                "official_name": "Szko\u0142a Podstawowa w Modle",
                "name": "Szko\u0142a Podstawowa w Modle",
                "addr:postcode": "59-706",
                "addr:place": "Mod\u0142a",
                "addr:housenumber": "76",
                "addr:city:simc": 364162,
                "phone": "+48 757382476",
                "email": "szkolamodla@wp.pl",
                "website": "http:\/\/www.szkolamodla.edupage.org",
                "ref:regon": "001240456",
                "ref:vatin": "PL6121803563",
                "operator": "Gmina Gromadka",
                "operator:type": "government",
                "amenity": "school"
            }
        },
        {
            "id": 88722,
            "type": "Feature",
            "geometry": {
                "type": "Point",
                "coordinates": [
                    15.7607717,
                    51.3554543
                ]
            },
            "properties": {
                "isced:level": "1;2",
                "ref:rspo": 88722,
                "official_name": "Szko\u0142a Podstawowa w Gromadce",
                "name": "Szko\u0142a Podstawowa w Gromadce",
                "addr:postcode": "59-706",
                "addr:city": "Gromadka",
                "addr:street": "Genera\u0142a W\u0142adys\u0142awa Sikorskiego",
                "addr:housenumber": "19",
                "addr:city:simc": 364140,
                "addr:street:sym_ul": 33730,
                "phone": "+48 757382439",
                "email": "zsgromadka@gmail.com",
                "website": "http:\/\/www.zswgromadce.pl",
                "ref:regon": "231084110",
                "ref:vatin": "PL6121862643",
                "operator": "Gmina Gromadka",
                "operator:type": "government",
                "amenity": "school"
            }
        },
        {
            "id": 85029,
            "type": "Feature",
            "geometry": {
                "type": "Point",
                "coordinates": [
                    15.75881,
                    51.36154
                ]
            },
            "properties": {
                "ref:rspo": 85029,
                "official_name": "Gminne Przedszkole w Gromadce",
                "name": "Gminne Przedszkole w Gromadce",
                "addr:postcode": "59-706",
                "addr:city": "Gromadka",
                "addr:street": "11 Listopada",
                "addr:housenumber": "62",
                "addr:city:simc": 364140,
                "addr:street:sym_ul": 11205,
                "phone": "+48 757382035",
                "email": "dyrektorgp@gmail.com",
                "website": "http:\/\/www.gpgromadka.szkolnastrona.pl",
                "ref:regon": "021413757",
                "ref:vatin": "PL6121840305",
                "operator": "Gmina Gromadka",
                "operator:type": "government",
                "amenity": "kindergarten"
            }
        }
    ]
}