{
    "type": "FeatureCollection",
    "features": [
        {
            "id": 120665,
            "type": "Feature",
            "geometry": {
                "type": "Point",
                "coordinates": [
                    15.56183,
                    51.25257
                ]
            },
            "properties": {
                "ref:rspo": 120665,
                "official_name": "Przedszkole Niepubliczne \"Kraina Marze\u0144\" w Boles\u0142awcu",
                "name": "Przedszkole Niepubliczne \"Kraina Marze\u0144\" w Boles\u0142awcu",
                "addr:postcode": "59-700",
                "addr:city": "Boles\u0142awiec",
                "addr:street": "Jana Matejki",
                "addr:housenumber": "2",
                "addr:city:simc": 935989,
                "addr:street:sym_ul": 12489,
                "phone": "+48 888100006",
                "email": "biuro@krainamarzenprzedszkole.pl",
                "website": "http:\/\/krainamarzenprzedszkole.pl",
                "ref:regon": "022277316",
                "ref:vatin": "PL6121749177",
                "operator": "Anna Or\u0142owska",
                "operator:type": "private",
                "amenity": "kindergarten"
            }
        },
        {
            "id": 34724,
            "type": "Feature",
            "geometry": {
                "type": "Point",
                "coordinates": [
                    15.57457,
                    51.25783
                ]
            },
            "properties": {
                "ref:rspo": 34724,
                "official_name": "Miejskie Przedszkole Publiczne Nr 5 im. Jana Brzechwy w Boles\u0142awcu",
                "name": "Miejskie Przedszkole Publiczne Nr 5",
                "addr:postcode": "59-700",
                "addr:city": "Boles\u0142awiec",
                "addr:street": "Zygmunta Augusta",
                "addr:housenumber": "16B",
                "addr:city:simc": 935989,
                "addr:street:sym_ul": 26334,
                "phone": "+48 756121307",
                "email": "mppwboleslawcu@onet.eu",
                "website": "http:\/\/www.mpp5boleslawiec.szkolnastrona.pl",
                "ref:regon": "021270677",
                "ref:vatin": "PL6121833127",
                "operator": "Gmina Miejska Boles\u0142awiec",
                "operator:type": "government",
                "amenity": "kindergarten"
            }
        },
        {
            "id": 268916,
            "type": "Feature",
            "geometry": {
                "type": "Point",
                "coordinates": [
                    15.56739,
                    51.25794
                ]
            },
            "properties": {
                "ref:rspo": 268916,
                "official_name": "Niepubliczna Bursa Szkolna \"2 X Tak\" w Boles\u0142awcu",
                "name": "Niepubliczna Bursa Szkolna \"2 X Tak\" w Boles\u0142awcu",
                "addr:postcode": "59-700",
                "addr:city": "Boles\u0142awiec",
                "addr:street": "Karola Miarki",
                "addr:housenumber": "20",
                "addr:city:simc": 935989,
                "addr:street:sym_ul": 12674,
                "email": "info@bursaszkolna2xtak.pl",
                "website": "http:\/\/2xtak.edu.pl",
                "ref:regon": "381285415",
                "operator": "Miros\u0142aw Brz\u0119czek",
                "operator:type": "private",
                "building": "dormitory"
            }
        },
        {
            "id": 15400,
            "type": "Feature",
            "geometry": {
                "type": "Point",
                "coordinates": [
                    15.56989,
                    51.25831
                ]
            },
            "properties": {
                "ref:rspo": 15400,
                "official_name": "Powiatowe Centrum Edukacji I Kszta\u0142cenia Kadr w Boles\u0142awcu",
                "name": "Powiatowe Centrum Edukacji I Kszta\u0142cenia Kadr w Boles\u0142awcu",
                "addr:postcode": "59-700",
                "addr:city": "Boles\u0142awiec",
                "addr:street": "Heleny i Wincentego Tyrankiewicz\u00f3w",
                "addr:housenumber": "11",
                "addr:city:simc": 935989,
                "addr:street:sym_ul": 23260,
                "phone": "+48 757351864",
                "email": "sekretariat@boleslawiec.pceikk.pl",
                "website": "https:\/\/boleslawiec.pceikk.pl\/",
                "ref:regon": "231069760",
                "ref:vatin": "PL6121643823",
                "operator": "Powiat Boles\u0142awiecki",
                "operator:type": "government",
                "landuse": "education",
                "fixme": "amenity=school, amenity=college albo landuse=education w zale\u017cno\u015bci od tego, jakie plac\u00f3wki wchodz\u0105 w sk\u0142ad zespo\u0142u. Sprawd\u017a, kiedy stosowa\u0107 amenity=* a kiedy landuse=education.",
                "note": "Children RSPO: 19333;19334;19601"
            }
        },
        {
            "id": 17864,
            "type": "Feature",
            "geometry": {
                "type": "Point",
                "coordinates": [
                    15.56989,
                    51.25828
                ]
            },
            "properties": {
                "isced:level": "3",
                "ref:rspo": 17864,
                "official_name": "I Liceum Og\u00f3lnokszta\u0142c\u0105ce im. W\u0142adys\u0142awa Broniewskiego w Boles\u0142awcu",
                "name": "I Liceum Og\u00f3lnokszta\u0142c\u0105ce",
                "addr:postcode": "59-700",
                "addr:city": "Boles\u0142awiec",
                "addr:street": "Heleny i Wincentego Tyrankiewicz\u00f3w",
                "addr:housenumber": "11",
                "addr:city:simc": 935989,
                "addr:street:sym_ul": 23260,
                "phone": "+48 757322419",
                "email": "lo@lo.boleslawiec.pl",
                "website": "https:\/\/www.lo.boleslawiec.pl\/",
                "ref:regon": "231184082",
                "ref:vatin": "PL6121859032",
                "operator": "Powiat Boles\u0142awiecki",
                "operator:type": "government",
                "amenity": "school"
            }
        },
        {
            "id": 19603,
            "type": "Feature",
            "geometry": {
                "type": "Point",
                "coordinates": [
                    15.56989,
                    51.258250000000004
                ]
            },
            "properties": {
                "ref:rspo": 19603,
                "official_name": "Poradnia Psychologiczno-Pedagogiczna w Boles\u0142awcu",
                "name": "Poradnia Psychologiczno-Pedagogiczna w Boles\u0142awcu",
                "addr:postcode": "59-700",
                "addr:city": "Boles\u0142awiec",
                "addr:street": "Heleny i Wincentego Tyrankiewicz\u00f3w",
                "addr:housenumber": "11",
                "addr:city:simc": 935989,
                "addr:street:sym_ul": 23260,
                "phone": "+48 757220793",
                "email": "poradnia@pppboleslawiec.pl",
                "ref:regon": "021974177",
                "operator": "Powiat Boles\u0142awiecki",
                "operator:type": "government",
                "healthcare": "counselling",
                "counselling_type": "education",
                "fixme": "w zale\u017cno\u015bci od przedmiotu dzia\u0142alno\u015bci (np. healthcare=counselling + counselling_type=education albo healthcare=psychotherapist)"
            }
        },
        {
            "id": 19334,
            "type": "Feature",
            "geometry": {
                "type": "Point",
                "coordinates": [
                    15.56989,
                    51.25822
                ]
            },
            "properties": {
                "ref:rspo": 19334,
                "official_name": "Biblioteka Pedagogiczna w Boles\u0142awcu",
                "name": "Biblioteka Pedagogiczna w Boles\u0142awcu",
                "addr:postcode": "59-700",
                "addr:city": "Boles\u0142awiec",
                "addr:street": "Heleny i Wincentego Tyrankiewicz\u00f3w",
                "addr:housenumber": "11",
                "addr:city:simc": 935989,
                "addr:street:sym_ul": 23260,
                "phone": "+48 756467538",
                "email": "boleslawiec@boleslawiec.dbp.wroc.pl",
                "ref:regon": "231184952",
                "operator": "Powiat Boles\u0142awiecki",
                "operator:type": "government",
                "amenity": "library",
                "note": "Parent RSPO: 15400"
            }
        },
        {
            "id": 19601,
            "type": "Feature",
            "geometry": {
                "type": "Point",
                "coordinates": [
                    15.56989,
                    51.25819
                ]
            },
            "properties": {
                "ref:rspo": 19601,
                "official_name": "Powiatowy O\u015brodek Doskonalenia Nauczycieli w Boles\u0142awcu",
                "name": "Powiatowy O\u015brodek Doskonalenia Nauczycieli w Boles\u0142awcu",
                "addr:postcode": "59-700",
                "addr:city": "Boles\u0142awiec",
                "addr:street": "Heleny i Wincentego Tyrankiewicz\u00f3w",
                "addr:housenumber": "11",
                "addr:city:simc": 935989,
                "addr:street:sym_ul": 23260,
                "phone": "+48 757351864",
                "email": "sekretariat@boleslawiec.pceikk.pl",
                "website": "https:\/\/boleslawiec.pceikk.pl\/",
                "ref:regon": "231184946",
                "operator": "Powiat Boles\u0142awiecki",
                "operator:type": "government",
                "amenity": "training",
                "note": "Parent RSPO: 15400"
            }
        },
        {
            "id": 17550,
            "type": "Feature",
            "geometry": {
                "type": "Point",
                "coordinates": [
                    15.5693,
                    51.25892
                ]
            },
            "properties": {
                "ref:rspo": 17550,
                "official_name": "Zesp\u00f3\u0142 Szk\u00f3\u0142 Elektronicznych im. I. Domeyki w Boles\u0142awcu",
                "name": "Zesp\u00f3\u0142 Szk\u00f3\u0142 Elektronicznych",
                "addr:postcode": "59-700",
                "addr:city": "Boles\u0142awiec",
                "addr:street": "Heleny i Wincentego Tyrankiewicz\u00f3w",
                "addr:housenumber": "2",
                "addr:city:simc": 935989,
                "addr:street:sym_ul": 23260,
                "phone": "+48 756494560",
                "email": "zse@poczta.internetdsl.pl",
                "website": "http:\/\/zse.boleslawiec.pl",
                "ref:regon": "000027192",
                "ref:vatin": "PL6121124589",
                "operator": "Powiat Boles\u0142awiecki",
                "operator:type": "government",
                "landuse": "education",
                "fixme": "amenity=school, amenity=college albo landuse=education w zale\u017cno\u015bci od tego, jakie plac\u00f3wki wchodz\u0105 w sk\u0142ad zespo\u0142u. Sprawd\u017a, kiedy stosowa\u0107 amenity=* a kiedy landuse=education.",
                "note": "Children RSPO: 18924;18926"
            }
        },
        {
            "id": 18924,
            "type": "Feature",
            "geometry": {
                "type": "Point",
                "coordinates": [
                    15.5693,
                    51.25889
                ]
            },
            "properties": {
                "isced:level": "3",
                "ref:rspo": 18924,
                "official_name": "Technikum Nr 4 w Boles\u0142awcu",
                "name": "Technikum Nr 4 w Boles\u0142awcu",
                "addr:postcode": "59-700",
                "addr:city": "Boles\u0142awiec",
                "addr:street": "Heleny i Wincentego Tyrankiewicz\u00f3w",
                "addr:housenumber": "2",
                "addr:city:simc": 935989,
                "addr:street:sym_ul": 23260,
                "phone": "+48 756494560",
                "email": "zse@poczta.internetdsl.pl",
                "website": "http:\/\/zse.boleslawiec.pl",
                "ref:regon": "231183533",
                "operator": "Powiat Boles\u0142awiecki",
                "operator:type": "government",
                "amenity": "school",
                "note": "Parent RSPO: 17550"
            }
        },
        {
            "id": 18926,
            "type": "Feature",
            "geometry": {
                "type": "Point",
                "coordinates": [
                    15.5693,
                    51.258860000000006
                ]
            },
            "properties": {
                "isced:level": "3",
                "ref:rspo": 18926,
                "official_name": "Bran\u017cowa Szko\u0142a I Stopnia Nr 4 w Boles\u0142awcu",
                "name": "Bran\u017cowa Szko\u0142a I Stopnia Nr 4 w Boles\u0142awcu",
                "addr:postcode": "59-700",
                "addr:city": "Boles\u0142awiec",
                "addr:street": "Heleny i Wincentego Tyrankiewicz\u00f3w",
                "addr:housenumber": "2",
                "addr:city:simc": 935989,
                "addr:street:sym_ul": 23260,
                "phone": "+48 756494560",
                "email": "zse@poczta.internetdsl.pl",
                "website": "http:\/\/www.zse.boleslawiec.pl",
                "ref:regon": "231183540",
                "operator": "Powiat Boles\u0142awiecki",
                "operator:type": "government",
                "amenity": "school",
                "note": "Parent RSPO: 17550"
            }
        },
        {
            "id": 31229,
            "type": "Feature",
            "geometry": {
                "type": "Point",
                "coordinates": [
                    15.5693,
                    51.2590999
                ]
            },
            "properties": {
                "isced:level": "1;2",
                "ref:rspo": 31229,
                "official_name": "Prywatna Szko\u0142a Podstawowa \"Oxpress\" w Boles\u0142awcu",
                "name": "Prywatna Szko\u0142a Podstawowa \"Oxpress\" w Boles\u0142awcu",
                "addr:postcode": "59-700",
                "addr:city": "Boles\u0142awiec",
                "addr:street": "Heleny i Wincentego Tyrankiewicz\u00f3w",
                "addr:housenumber": "22",
                "addr:city:simc": 935989,
                "addr:street:sym_ul": 23260,
                "phone": "+48 757325055",
                "email": "oxpressdm@gmail.com",
                "website": "http:\/\/www.oxpress.edu.pl",
                "ref:regon": "021989701",
                "ref:vatin": "PL7271221863",
                "operator": "Oxpress Sp\u00f3\u0142ka Z Ograniczon\u0105 Odpowiedzialno\u015bci\u0105",
                "operator:type": "private",
                "amenity": "school"
            }
        },
        {
            "id": 31303,
            "type": "Feature",
            "geometry": {
                "type": "Point",
                "coordinates": [
                    15.5693,
                    51.2590699
                ]
            },
            "properties": {
                "ref:rspo": 31303,
                "official_name": "Prywatne Przedszkole \"Oxpress\" w Boles\u0142awcu",
                "name": "Prywatne Przedszkole \"Oxpress\" w Boles\u0142awcu",
                "addr:postcode": "59-700",
                "addr:city": "Boles\u0142awiec",
                "addr:street": "Heleny i Wincentego Tyrankiewicz\u00f3w",
                "addr:housenumber": "22",
                "addr:city:simc": 935989,
                "addr:street:sym_ul": 23260,
                "phone": "+48 757325055",
                "email": "oxpressdm@gmail.com",
                "website": "http:\/\/www.oxpress.edu.pl",
                "ref:regon": "021989753",
                "ref:vatin": "PL7271221863",
                "operator": "Oxpress Sp\u00f3\u0142ka Z Ograniczon\u0105 Odpowiedzialno\u015bci\u0105",
                "operator:type": "private",
                "amenity": "kindergarten"
            }
        },
        {
            "id": 262787,
            "type": "Feature",
            "geometry": {
                "type": "Point",
                "coordinates": [
                    15.5693,
                    51.259039900000005
                ]
            },
            "properties": {
                "isced:level": "3",
                "ref:rspo": 262787,
                "official_name": "Publiczne Liceum Og\u00f3lnokszta\u0142c\u0105ce Oxpress",
                "name": "Publiczne Liceum Og\u00f3lnokszta\u0142c\u0105ce Oxpress",
                "addr:postcode": "59-700",
                "addr:city": "Boles\u0142awiec",
                "addr:street": "Heleny i Wincentego Tyrankiewicz\u00f3w",
                "addr:housenumber": "22",
                "addr:city:simc": 935989,
                "addr:street:sym_ul": 23260,
                "phone": "+48 757325055",
                "email": "oxpressdm@gmail.com",
                "website": "http:\/\/oxpress.edu.pl",
                "ref:regon": "368061249",
                "operator": "Dariusz Tyrakowski",
                "operator:type": "private",
                "amenity": "school"
            }
        },
        {
            "id": 271923,
            "type": "Feature",
            "geometry": {
                "type": "Point",
                "coordinates": [
                    15.5693,
                    51.2590099
                ]
            },
            "properties": {
                "isced:level": "3",
                "ref:rspo": 271923,
                "official_name": "Iii Publiczne Liceum Og\u00f3lnokszta\u0142c\u0105ce w Boles\u0142awcu",
                "name": "Iii Publiczne Liceum Og\u00f3lnokszta\u0142c\u0105ce w Boles\u0142awcu",
                "addr:postcode": "59-700",
                "addr:city": "Boles\u0142awiec",
                "addr:street": "Heleny i Wincentego Tyrankiewicz\u00f3w",
                "addr:housenumber": "22",
                "addr:city:simc": 935989,
                "addr:street:sym_ul": 23260,
                "phone": "+48 757325055",
                "email": "oxpressdm@gmail.com",
                "ref:regon": "383792323",
                "operator": "Oxpress Sp\u00f3\u0142ka Z Ograniczon\u0105 Odpowiedzialno\u015bci\u0105",
                "operator:type": "private",
                "amenity": "school"
            }
        },
        {
            "id": 34554,
            "type": "Feature",
            "geometry": {
                "type": "Point",
                "coordinates": [
                    15.56718,
                    51.25968
                ]
            },
            "properties": {
                "isced:level": "1;2",
                "ref:rspo": 34554,
                "official_name": "Szko\u0142a Podstawowa Nr 4 im. Jana Matejki w Boles\u0142awcu",
                "name": "Szko\u0142a Podstawowa Nr 4",
                "addr:postcode": "59-700",
                "addr:city": "Boles\u0142awiec",
                "addr:street": "Miko\u0142aja Brody",
                "addr:housenumber": "12",
                "addr:city:simc": 935989,
                "addr:street:sym_ul": 2099,
                "phone": "+48 757322458",
                "email": "sekretariat@sp4.boleslawiec.eu",
                "website": "http:\/\/sp4boleslawiec.pl\/",
                "ref:regon": "000708450",
                "ref:vatin": "PL6121088250",
                "operator": "Gmina Miejska Boles\u0142awiec",
                "operator:type": "government",
                "amenity": "school"
            }
        },
        {
            "id": 3845,
            "type": "Feature",
            "geometry": {
                "type": "Point",
                "coordinates": [
                    15.56372,
                    51.25983
                ]
            },
            "properties": {
                "ref:rspo": 3845,
                "official_name": "Zesp\u00f3\u0142 Szk\u00f3\u0142 Og\u00f3lnokszta\u0142c\u0105cych I Zawodowych im. Mjra H. Sucharskiego w Boles\u0142awcu",
                "name": "Zesp\u00f3\u0142 Szk\u00f3\u0142 Og\u00f3lnokszta\u0142c\u0105cych I Zawodowych",
                "addr:postcode": "59-700",
                "addr:city": "Boles\u0142awiec",
                "addr:street": "Komuny Paryskiej",
                "addr:housenumber": "6",
                "addr:city:simc": 935989,
                "addr:street:sym_ul": 9101,
                "phone": "+48 757324009",
                "email": "zsoiz1@poczta.onet.pl",
                "website": "http:\/\/www.sucharski.boleslawianie.pl",
                "ref:regon": "000178778",
                "ref:vatin": "PL6121363756",
                "operator": "Powiat Boles\u0142awiecki",
                "operator:type": "government",
                "landuse": "education",
                "fixme": "amenity=school, amenity=college albo landuse=education w zale\u017cno\u015bci od tego, jakie plac\u00f3wki wchodz\u0105 w sk\u0142ad zespo\u0142u. Sprawd\u017a, kiedy stosowa\u0107 amenity=* a kiedy landuse=education.",
                "note": "Children RSPO: 5912;19058;19059;115330;276424"
            }
        },
        {
            "id": 5912,
            "type": "Feature",
            "geometry": {
                "type": "Point",
                "coordinates": [
                    15.56372,
                    51.2598
                ]
            },
            "properties": {
                "isced:level": "3",
                "ref:rspo": 5912,
                "official_name": "Liceum Og\u00f3lnokszta\u0142c\u0105ce dla Doros\u0142ych w Boles\u0142awcu",
                "name": "Liceum Og\u00f3lnokszta\u0142c\u0105ce dla Doros\u0142ych w Boles\u0142awcu",
                "addr:postcode": "59-700",
                "addr:city": "Boles\u0142awiec",
                "addr:street": "Komuny Paryskiej",
                "addr:housenumber": "6",
                "addr:city:simc": 935989,
                "addr:street:sym_ul": 9101,
                "phone": "+48 757324009",
                "ref:regon": "021949794",
                "ref:vatin": "PL6121363756",
                "operator": "Powiat Boles\u0142awiecki",
                "operator:type": "government",
                "amenity": "school",
                "note": "Parent RSPO: 3845"
            }
        },
        {
            "id": 19058,
            "type": "Feature",
            "geometry": {
                "type": "Point",
                "coordinates": [
                    15.56372,
                    51.25977
                ]
            },
            "properties": {
                "isced:level": "3",
                "ref:rspo": 19058,
                "official_name": "Technikum Nr 3 w Boles\u0142awcu",
                "name": "Technikum Nr 3 w Boles\u0142awcu",
                "addr:postcode": "59-700",
                "addr:city": "Boles\u0142awiec",
                "addr:street": "Komuny Paryskiej",
                "addr:housenumber": "6",
                "addr:city:simc": 935989,
                "addr:street:sym_ul": 9101,
                "phone": "+48 757324009",
                "email": "zsoiz1@poczta.onet.pl",
                "website": "http:\/\/www.sucharski.boleslawianie.pl",
                "ref:regon": "231183295",
                "operator": "Powiat Boles\u0142awiecki",
                "operator:type": "government",
                "amenity": "school",
                "note": "Parent RSPO: 3845"
            }
        },
        {
            "id": 19059,
            "type": "Feature",
            "geometry": {
                "type": "Point",
                "coordinates": [
                    15.56372,
                    51.25974
                ]
            },
            "properties": {
                "isced:level": "3",
                "ref:rspo": 19059,
                "official_name": "Bran\u017cowa Szko\u0142a I Stopnia Nr 3 w Boles\u0142awcu",
                "name": "Bran\u017cowa Szko\u0142a I Stopnia Nr 3 w Boles\u0142awcu",
                "addr:postcode": "59-700",
                "addr:city": "Boles\u0142awiec",
                "addr:street": "Komuny Paryskiej",
                "addr:housenumber": "6",
                "addr:city:simc": 935989,
                "addr:street:sym_ul": 9101,
                "phone": "+48 757324009",
                "email": "zsoiz1@poczta.onet.pl",
                "website": "http:\/\/www.sucharski.boleslawianie.pl",
                "ref:regon": "231183289",
                "operator": "Powiat Boles\u0142awiecki",
                "operator:type": "government",
                "amenity": "school",
                "note": "Parent RSPO: 3845"
            }
        },
        {
            "id": 115330,
            "type": "Feature",
            "geometry": {
                "type": "Point",
                "coordinates": [
                    15.56372,
                    51.25971
                ]
            },
            "properties": {
                "ref:rspo": 115330,
                "official_name": "Centrum Kszta\u0142cenia Ustawicznego w Boles\u0142awcu",
                "name": "Centrum Kszta\u0142cenia Ustawicznego w Boles\u0142awcu",
                "addr:postcode": "59-700",
                "addr:city": "Boles\u0142awiec",
                "addr:street": "Komuny Paryskiej",
                "addr:housenumber": "6",
                "addr:city:simc": 935989,
                "addr:street:sym_ul": 9101,
                "phone": "+48 757324009",
                "email": "zsoiz1@poczta.onet.pl",
                "website": "http:\/\/cku.boleslawiec.pl",
                "ref:regon": "022179743",
                "operator": "Powiat Boles\u0142awiecki",
                "operator:type": "government",
                "fixme": "w zale\u017cno\u015bci od przedmiotu dzia\u0142alno\u015bci (np. amenity=training + training=*, amenity=dancing_school, amenity=language_school, amenity=music_school)",
                "note": "Parent RSPO: 3845"
            }
        },
        {
            "id": 276424,
            "type": "Feature",
            "geometry": {
                "type": "Point",
                "coordinates": [
                    15.56372,
                    51.25968
                ]
            },
            "properties": {
                "isced:level": "3",
                "ref:rspo": 276424,
                "official_name": "Bran\u017cowa Szko\u0142a II Stopnia w Boles\u0142awcu",
                "name": "Bran\u017cowa Szko\u0142a II Stopnia w Boles\u0142awcu",
                "addr:postcode": "59-700",
                "addr:city": "Boles\u0142awiec",
                "addr:street": "Komuny Paryskiej",
                "addr:housenumber": "6",
                "addr:city:simc": 935989,
                "addr:street:sym_ul": 9101,
                "phone": "+48 757324000",
                "email": "zsoiz1@poczta.onet.pl",
                "website": "http:\/\/www.sucharski.edu.pl",
                "ref:regon": "387129509",
                "operator": "Powiat Boles\u0142awiecki",
                "operator:type": "government",
                "amenity": "school",
                "note": "Parent RSPO: 3845"
            }
        },
        {
            "id": 34720,
            "type": "Feature",
            "geometry": {
                "type": "Point",
                "coordinates": [
                    15.56516,
                    51.25985
                ]
            },
            "properties": {
                "ref:rspo": 34720,
                "official_name": "Miejskie Przedszkole Publiczne Nr 2 im. Marii Konopnickiej w Boles\u0142awcu",
                "name": "Miejskie Przedszkole Publiczne Nr 2",
                "addr:postcode": "59-700",
                "addr:city": "Boles\u0142awiec",
                "addr:street": "Miko\u0142aja Brody",
                "addr:housenumber": "17",
                "addr:city:simc": 935989,
                "addr:street:sym_ul": 2099,
                "phone": "+48 756121302",
                "email": "mpp2@boleslawiec.eu",
                "website": "http:\/\/www.mpp2boleslawiec.szkolnastrona.pl",
                "ref:regon": "021270602",
                "ref:vatin": "PL6121833096",
                "operator": "Gmina Miejska Boles\u0142awiec",
                "operator:type": "government",
                "amenity": "kindergarten"
            }
        },
        {
            "id": 15398,
            "type": "Feature",
            "geometry": {
                "type": "Point",
                "coordinates": [
                    15.58745,
                    51.26036
                ]
            },
            "properties": {
                "ref:rspo": 15398,
                "official_name": "Zesp\u00f3\u0142 Szk\u00f3\u0142 Budowlanych w Boles\u0142awcu",
                "name": "Zesp\u00f3\u0142 Szk\u00f3\u0142 Budowlanych w Boles\u0142awcu",
                "addr:postcode": "59-700",
                "addr:city": "Boles\u0142awiec",
                "addr:street": "Aleja Tysi\u0105clecia",
                "addr:housenumber": "51",
                "addr:city:simc": 935989,
                "addr:street:sym_ul": 45569,
                "phone": "+48 757328378",
                "email": "zsb.boleslawiec@interia.pl",
                "website": "http:\/\/www.zsb.boleslawiec.pl",
                "ref:regon": "000239439",
                "ref:vatin": "PL6121128050",
                "operator": "Powiat Boles\u0142awiecki",
                "operator:type": "government",
                "landuse": "education",
                "fixme": "amenity=school, amenity=college albo landuse=education w zale\u017cno\u015bci od tego, jakie plac\u00f3wki wchodz\u0105 w sk\u0142ad zespo\u0142u. Sprawd\u017a, kiedy stosowa\u0107 amenity=* a kiedy landuse=education.",
                "note": "Children RSPO: 19604;19605"
            }
        },
        {
            "id": 19604,
            "type": "Feature",
            "geometry": {
                "type": "Point",
                "coordinates": [
                    15.58745,
                    51.260329999999996
                ]
            },
            "properties": {
                "isced:level": "3",
                "ref:rspo": 19604,
                "official_name": "Technikum Nr 2 w Boles\u0142awcu",
                "name": "Technikum Nr 2 w Boles\u0142awcu",
                "addr:postcode": "59-700",
                "addr:city": "Boles\u0142awiec",
                "addr:street": "Aleja Tysi\u0105clecia",
                "addr:housenumber": "51",
                "addr:city:simc": 935989,
                "addr:street:sym_ul": 45569,
                "phone": "+48 757328378",
                "email": "zsb.boleslawiec@interia.pl",
                "website": "http:\/\/www.zsb.boleslawiec.pl",
                "ref:regon": "231184136",
                "operator": "Powiat Boles\u0142awiecki",
                "operator:type": "government",
                "amenity": "school",
                "note": "Parent RSPO: 15398"
            }
        },
        {
            "id": 19605,
            "type": "Feature",
            "geometry": {
                "type": "Point",
                "coordinates": [
                    15.58745,
                    51.2603
                ]
            },
            "properties": {
                "isced:level": "3",
                "ref:rspo": 19605,
                "official_name": "Bran\u017cowa Szko\u0142a I Stopnia Nr 2 w Boles\u0142awcu",
                "name": "Bran\u017cowa Szko\u0142a I Stopnia Nr 2 w Boles\u0142awcu",
                "addr:postcode": "59-700",
                "addr:city": "Boles\u0142awiec",
                "addr:street": "Aleja Tysi\u0105clecia",
                "addr:housenumber": "51",
                "addr:city:simc": 935989,
                "addr:street:sym_ul": 45569,
                "phone": "+48 757328378",
                "email": "zsb.boleslawiec@interia.pl",
                "website": "http:\/\/www.zsb.boleslawiec.pl",
                "ref:regon": "231184165",
                "operator": "Powiat Boles\u0142awiecki",
                "operator:type": "government",
                "amenity": "school",
                "note": "Parent RSPO: 15398"
            }
        },
        {
            "id": 15399,
            "type": "Feature",
            "geometry": {
                "type": "Point",
                "coordinates": [
                    15.56845,
                    51.2604
                ]
            },
            "properties": {
                "ref:rspo": 15399,
                "official_name": "Powiatowy Zesp\u00f3\u0142 Szk\u00f3\u0142 I Plac\u00f3wek Specjalnych w Boles\u0142awcu",
                "name": "Powiatowy Zesp\u00f3\u0142 Szk\u00f3\u0142 I Plac\u00f3wek Specjalnych w Boles\u0142awcu",
                "addr:postcode": "59-700",
                "addr:city": "Boles\u0142awiec",
                "addr:street": "Bankowa",
                "addr:housenumber": "8",
                "addr:city:simc": 935989,
                "addr:street:sym_ul": 692,
                "phone": "+48 757322837",
                "email": "pzsips.bol@op.pl",
                "website": "http:\/\/pzsips.bol.szkolnastrona.pl",
                "ref:regon": "001030865",
                "ref:vatin": "PL6121543843",
                "operator": "Powiat Boles\u0142awiecki",
                "operator:type": "government",
                "landuse": "education",
                "fixme": "amenity=school, amenity=college albo landuse=education w zale\u017cno\u015bci od tego, jakie plac\u00f3wki wchodz\u0105 w sk\u0142ad zespo\u0142u. Sprawd\u017a, kiedy stosowa\u0107 amenity=* a kiedy landuse=education.",
                "note": "Children RSPO: 19181;19182;19184;19185"
            }
        },
        {
            "id": 19181,
            "type": "Feature",
            "geometry": {
                "type": "Point",
                "coordinates": [
                    15.56845,
                    51.260369999999995
                ]
            },
            "properties": {
                "isced:level": "1;2",
                "ref:rspo": 19181,
                "official_name": "Powiatowa Szko\u0142a Podstawowa Specjalna w Boles\u0142awcu",
                "name": "Powiatowa Szko\u0142a Podstawowa Specjalna w Boles\u0142awcu",
                "addr:postcode": "59-700",
                "addr:city": "Boles\u0142awiec",
                "addr:street": "Bankowa",
                "addr:housenumber": "8",
                "addr:city:simc": 935989,
                "addr:street:sym_ul": 692,
                "phone": "+48 757322837",
                "email": "pzsips.bol@op.pl",
                "website": "http:\/\/pzsips.bol.szkolnastrona.pl",
                "ref:regon": "231183384",
                "operator": "Powiat Boles\u0142awiecki",
                "operator:type": "government",
                "amenity": "school",
                "note": "Parent RSPO: 15399"
            }
        },
        {
            "id": 19182,
            "type": "Feature",
            "geometry": {
                "type": "Point",
                "coordinates": [
                    15.56845,
                    51.26034
                ]
            },
            "properties": {
                "isced:level": "3",
                "ref:rspo": 19182,
                "official_name": "Bran\u017cowa Szko\u0142a I Stopnia Specjalna w Boles\u0142awcu",
                "name": "Bran\u017cowa Szko\u0142a I Stopnia Specjalna w Boles\u0142awcu",
                "addr:postcode": "59-700",
                "addr:city": "Boles\u0142awiec",
                "addr:street": "Bankowa",
                "addr:housenumber": "8",
                "addr:city:simc": 935989,
                "addr:street:sym_ul": 692,
                "phone": "+48 757322837",
                "email": "pzsips.bol@op.pl",
                "ref:regon": "001030813",
                "operator": "Powiat Boles\u0142awiecki",
                "operator:type": "government",
                "amenity": "school",
                "note": "Parent RSPO: 15399"
            }
        },
        {
            "id": 19184,
            "type": "Feature",
            "geometry": {
                "type": "Point",
                "coordinates": [
                    15.56845,
                    51.26031
                ]
            },
            "properties": {
                "ref:rspo": 19184,
                "official_name": "Szko\u0142a Specjalna Przysposabiaj\u0105ca Do Pracy w Boles\u0142awcu",
                "name": "Szko\u0142a Specjalna Przysposabiaj\u0105ca Do Pracy w Boles\u0142awcu",
                "addr:postcode": "59-700",
                "addr:city": "Boles\u0142awiec",
                "addr:street": "Bankowa",
                "addr:housenumber": "8",
                "addr:city:simc": 935989,
                "addr:street:sym_ul": 692,
                "phone": "+48 757322837",
                "email": "pzsips.bol@op.pl",
                "website": "http:\/\/pzsips.bol.szkolnastrona.pl",
                "ref:regon": "020164080",
                "operator": "Powiat Boles\u0142awiecki",
                "operator:type": "government",
                "amenity": "school",
                "note": "Parent RSPO: 15399"
            }
        },
        {
            "id": 19185,
            "type": "Feature",
            "geometry": {
                "type": "Point",
                "coordinates": [
                    15.56845,
                    51.260279999999995
                ]
            },
            "properties": {
                "ref:rspo": 19185,
                "official_name": "O\u015brodek Rewalidacyjno-Wychowawczy w Boles\u0142awcu",
                "name": "O\u015brodek Rewalidacyjno-Wychowawczy w Boles\u0142awcu",
                "addr:postcode": "59-700",
                "addr:city": "Boles\u0142awiec",
                "addr:street": "Bankowa",
                "addr:housenumber": "8",
                "addr:city:simc": 935989,
                "addr:street:sym_ul": 692,
                "phone": "+48 757322837",
                "email": "pzsips.bol@op.pl",
                "website": "http:\/\/pzsips.bol.szkolnastrona.pl",
                "ref:regon": "020334487",
                "operator": "Powiat Boles\u0142awiecki",
                "operator:type": "government",
                "amenity": "school",
                "note": "Parent RSPO: 15399"
            }
        },
        {
            "id": 78001,
            "type": "Feature",
            "geometry": {
                "type": "Point",
                "coordinates": [
                    15.55262,
                    51.26058
                ]
            },
            "properties": {
                "ref:rspo": 78001,
                "official_name": "Niepubliczne Przedszkole \"Bajka\"",
                "name": "Niepubliczne Przedszkole \"Bajka\"",
                "addr:postcode": "59-700",
                "addr:city": "Boles\u0142awiec",
                "addr:street": "Gda\u0144ska",
                "addr:housenumber": "37a",
                "addr:city:simc": 935989,
                "addr:street:sym_ul": 5431,
                "phone": "+48 756103060",
                "email": "anetsk@interia.pl",
                "ref:regon": "022008496",
                "ref:vatin": "PL6121825576",
                "operator": "Niepubliczne Przedszkole \"Bajka\" Sp\u00f3\u0142ka Cywilna Alicja Dul, Aneta Gawe\u0142",
                "operator:type": "consortium",
                "amenity": "kindergarten"
            }
        },
        {
            "id": 31228,
            "type": "Feature",
            "geometry": {
                "type": "Point",
                "coordinates": [
                    15.57025,
                    51.2607
                ]
            },
            "properties": {
                "ref:rspo": 31228,
                "official_name": "Przedszkole Niepubliczne \"Nibylandia\" w Boles\u0142awcu",
                "name": "Przedszkole Niepubliczne \"Nibylandia\" w Boles\u0142awcu",
                "addr:postcode": "59-700",
                "addr:city": "Boles\u0142awiec",
                "addr:street": "Ignacego \u0141ukasiewicza",
                "addr:housenumber": "8",
                "addr:door": "41",
                "addr:city:simc": 935989,
                "addr:street:sym_ul": 11749,
                "phone": "+48 600747171",
                "email": "biuro@przedszkole-nibylandia.pl",
                "website": "http:\/\/www.przedszkole-nibylandia.pl",
                "ref:regon": "021988200",
                "operator": "Ariel Or\u0142owski",
                "operator:type": "private",
                "amenity": "kindergarten"
            }
        },
        {
            "id": 118903,
            "type": "Feature",
            "geometry": {
                "type": "Point",
                "coordinates": [
                    15.56333,
                    51.26088
                ]
            },
            "properties": {
                "ref:rspo": 118903,
                "official_name": "Niepubliczne Przedszkole \"Jacek I Agatka\" w Boles\u0142awcu",
                "name": "Niepubliczne Przedszkole \"Jacek I Agatka\" w Boles\u0142awcu",
                "addr:postcode": "59-700",
                "addr:city": "Boles\u0142awiec",
                "addr:street": "Komuny Paryskiej",
                "addr:housenumber": "1",
                "addr:city:simc": 935989,
                "addr:street:sym_ul": 9101,
                "phone": "+48 757842940",
                "email": "biuro@jaboleslawiec.pl",
                "website": "http:\/\/www.jaboleslawiec.pl",
                "ref:regon": "022212363",
                "ref:vatin": "PL6121545960",
                "operator": "Krystyna D\u0119biec",
                "operator:type": "private",
                "amenity": "kindergarten"
            }
        },
        {
            "id": 19974,
            "type": "Feature",
            "geometry": {
                "type": "Point",
                "coordinates": [
                    15.5683,
                    51.26128
                ]
            },
            "properties": {
                "ref:rspo": 19974,
                "official_name": "Niepubliczna Specjalistyczna Poradnia Psychologiczno-Pedagogiczna w Boles\u0142awcu",
                "name": "Niepubliczna Specjalistyczna Poradnia Psychologiczno-Pedagogiczna w Boles\u0142awcu",
                "addr:postcode": "59-700",
                "addr:city": "Boles\u0142awiec",
                "addr:street": "Bankowa",
                "addr:housenumber": "10",
                "addr:city:simc": 935989,
                "addr:street:sym_ul": 692,
                "phone": "+48 757327960",
                "email": "kontakt@aurelus.edu.pl",
                "website": "http:\/\/www.aurelus.edu.pl",
                "ref:regon": "021976905",
                "operator": "Marzanna S\u0142otwi\u0144ska",
                "operator:type": "private",
                "fixme": "w zale\u017cno\u015bci od przedmiotu dzia\u0142alno\u015bci (np. healthcare=counselling + counselling_type=education albo healthcare=psychotherapist)"
            }
        },
        {
            "id": 111598,
            "type": "Feature",
            "geometry": {
                "type": "Point",
                "coordinates": [
                    15.5683,
                    51.26125
                ]
            },
            "properties": {
                "isced:level": "1;2",
                "ref:rspo": 111598,
                "official_name": "Publiczna Szko\u0142a Podstawowa Zakonu Pijar\u00f3w im. Ks. Stanis\u0142awa Konarskiego w Boles\u0142awcu",
                "name": "Publiczna Szko\u0142a Podstawowa Zakonu Pijar\u00f3w",
                "addr:postcode": "59-700",
                "addr:city": "Boles\u0142awiec",
                "addr:street": "Bankowa",
                "addr:housenumber": "10",
                "addr:city:simc": 935989,
                "addr:street:sym_ul": 692,
                "phone": "+48 668864725",
                "email": "boleslawiec@pijarzy.pl",
                "website": "http:\/\/www.pijarzy.boleslawiec.pl",
                "ref:regon": "022097040",
                "ref:vatin": "PL6121851237",
                "operator": "Polska Prowincja Zakonu Pijar\u00f3w",
                "operator:type": "religious",
                "amenity": "school"
            }
        },
        {
            "id": 262853,
            "type": "Feature",
            "geometry": {
                "type": "Point",
                "coordinates": [
                    15.5683,
                    51.26122
                ]
            },
            "properties": {
                "isced:level": "3",
                "ref:rspo": 262853,
                "official_name": "Iv Publiczne Liceum Og\u00f3lnokszta\u0142c\u0105ce Zakonu Pijar\u00f3w im. Ks. Stanis\u0142awa Konarskiego w Boles\u0142awcu",
                "name": "Iv Publiczne Liceum Og\u00f3lnokszta\u0142c\u0105ce Zakonu Pijar\u00f3w",
                "addr:postcode": "59-700",
                "addr:city": "Boles\u0142awiec",
                "addr:street": "Bankowa",
                "addr:housenumber": "10",
                "addr:city:simc": 935989,
                "addr:street:sym_ul": 692,
                "phone": "+48 668864725",
                "email": "boleslawiec@pijarzy.pl",
                "website": "http:\/\/pijarzy.boleslawiec.pl",
                "ref:regon": "368064963",
                "operator": "Polska Prowincja Zakonu Pijar\u00f3w",
                "operator:type": "religious",
                "amenity": "school"
            }
        },
        {
            "id": 38803,
            "type": "Feature",
            "geometry": {
                "type": "Point",
                "coordinates": [
                    15.58536,
                    51.26171
                ]
            },
            "properties": {
                "isced:level": "1;2",
                "ref:rspo": 38803,
                "official_name": "Szko\u0142a Podstawowa Nr 1 im. Janusza Kusoci\u0144skiego w Boles\u0142awcu",
                "name": "Szko\u0142a Podstawowa Nr 1",
                "addr:postcode": "59-700",
                "addr:city": "Boles\u0142awiec",
                "addr:street": "Jana Paw\u0142a II",
                "addr:housenumber": "38c",
                "addr:city:simc": 935989,
                "addr:street:sym_ul": 7123,
                "phone": "+48 756444420",
                "email": "sekretariat@sp1.boleslawiec.eu",
                "website": "http:\/\/www.sp1.boleslawiec.eu",
                "ref:regon": "001299018",
                "ref:vatin": "PL6121862583",
                "operator": "Gmina Miejska Boles\u0142awiec",
                "operator:type": "government",
                "amenity": "school"
            }
        },
        {
            "id": 34719,
            "type": "Feature",
            "geometry": {
                "type": "Point",
                "coordinates": [
                    15.58841,
                    51.26204
                ]
            },
            "properties": {
                "ref:rspo": 34719,
                "official_name": "Miejskie Przedszkole Publiczne Nr 1 w Boles\u0142awcu",
                "name": "Miejskie Przedszkole Publiczne Nr 1 w Boles\u0142awcu",
                "addr:postcode": "59-700",
                "addr:city": "Boles\u0142awiec",
                "addr:street": "Jana Paw\u0142a II",
                "addr:housenumber": "50d",
                "addr:city:simc": 935989,
                "addr:street:sym_ul": 7123,
                "phone": "+48 756121301",
                "email": "mpp1.boleslawiec@op.pl",
                "website": "http:\/\/www.mp1boleslawiec.szkolnastrona.pl",
                "ref:regon": "021270594",
                "ref:vatin": "PL6121833073",
                "operator": "Gmina Miejska Boles\u0142awiec",
                "operator:type": "government",
                "amenity": "kindergarten"
            }
        },
        {
            "id": 34725,
            "type": "Feature",
            "geometry": {
                "type": "Point",
                "coordinates": [
                    15.57312,
                    51.2623
                ]
            },
            "properties": {
                "ref:rspo": 34725,
                "official_name": "Miejskie Przedszkole Publiczne Nr 6 w Boles\u0142awcu",
                "name": "Miejskie Przedszkole Publiczne Nr 6 w Boles\u0142awcu",
                "addr:postcode": "59-700",
                "addr:city": "Boles\u0142awiec",
                "addr:street": "Piotra i Paw\u0142a",
                "addr:housenumber": "2",
                "addr:city:simc": 935989,
                "addr:street:sym_ul": 16304,
                "phone": "+48 756121300",
                "email": "mpp6.boleslawiec@interia.pl",
                "website": "http:\/\/mpp6boleslawiec.szkolnastrona.pl",
                "ref:regon": "021270708",
                "ref:vatin": "PL6121833133",
                "operator": "Gmina Miejska Boles\u0142awiec",
                "operator:type": "government",
                "amenity": "kindergarten"
            }
        },
        {
            "id": 40746,
            "type": "Feature",
            "geometry": {
                "type": "Point",
                "coordinates": [
                    15.55669,
                    51.26256
                ]
            },
            "properties": {
                "ref:rspo": 40746,
                "official_name": "Miejskie Przedszkole Publiczne Nr 7 Z Oddzia\u0142ami Integracyjnymi w Boles\u0142awcu",
                "name": "Miejskie Przedszkole Publiczne Nr 7 Z Oddzia\u0142ami Integracyjnymi w Boles\u0142awcu",
                "addr:postcode": "59-700",
                "addr:city": "Boles\u0142awiec",
                "addr:street": "G\u00f3rne M\u0142yny",
                "addr:housenumber": "5",
                "addr:city:simc": 935989,
                "addr:street:sym_ul": 5956,
                "phone": "+48 756121309",
                "email": "mppsiedem@gmail.com",
                "website": "http:\/\/www.mpp7boleslawiec.szkolnastrona.pl",
                "ref:regon": "021270766",
                "ref:vatin": "PL6121833156",
                "operator": "Gmina Miejska Boles\u0142awiec",
                "operator:type": "government",
                "amenity": "kindergarten"
            }
        },
        {
            "id": 71247,
            "type": "Feature",
            "geometry": {
                "type": "Point",
                "coordinates": [
                    15.58211,
                    51.26262
                ]
            },
            "properties": {
                "ref:rspo": 71247,
                "official_name": "Prywatne Przedszkole Smerfiki w Boles\u0142awcu",
                "name": "Prywatne Przedszkole Smerfiki w Boles\u0142awcu",
                "addr:postcode": "59-700",
                "addr:city": "Boles\u0142awiec",
                "addr:street": "Jana Paw\u0142a II",
                "addr:housenumber": "20a",
                "addr:city:simc": 935989,
                "addr:street:sym_ul": 7123,
                "phone": "+48 605343134",
                "email": "m.pietraho@wp.pl",
                "website": "http:\/\/www.przedszkoleboleslawiec.pl",
                "ref:regon": "022002559",
                "ref:vatin": "PL6121284436",
                "operator": "Ma\u0142gorzata Pietraho",
                "operator:type": "private",
                "amenity": "kindergarten"
            }
        },
        {
            "id": 268291,
            "type": "Feature",
            "geometry": {
                "type": "Point",
                "coordinates": [
                    15.56973,
                    51.26297
                ]
            },
            "properties": {
                "ref:rspo": 268291,
                "official_name": "Niepubliczne Przedszkole Integracyjne \"Mali Odkrywcy\" w Boles\u0142awcu",
                "name": "Niepubliczne Przedszkole Integracyjne \"Mali Odkrywcy\" w Boles\u0142awcu",
                "addr:postcode": "59-700",
                "addr:city": "Boles\u0142awiec",
                "addr:street": "Polna",
                "addr:housenumber": "25",
                "addr:city:simc": 935989,
                "addr:street:sym_ul": 17011,
                "phone": "+48 793650051",
                "email": "przedszkole@maliodkrywcy.boleslawiec.pl",
                "website": "http:\/\/www.maliodkrywcy.boleslawiec.pl",
                "ref:regon": "381084562",
                "operator": "Anna Rak",
                "operator:type": "private",
                "amenity": "kindergarten"
            }
        },
        {
            "id": 15397,
            "type": "Feature",
            "geometry": {
                "type": "Point",
                "coordinates": [
                    15.55904,
                    51.26357
                ]
            },
            "properties": {
                "ref:rspo": 15397,
                "official_name": "Zesp\u00f3\u0142 Szk\u00f3\u0142 Mechanicznych im. L. Wary\u0144skiego w Boles\u0142awcu",
                "name": "Zesp\u00f3\u0142 Szk\u00f3\u0142 Mechanicznych",
                "addr:postcode": "59-700",
                "addr:city": "Boles\u0142awiec",
                "addr:street": "G\u00f3rne M\u0142yny",
                "addr:housenumber": "1",
                "addr:city:simc": 935989,
                "addr:street:sym_ul": 5956,
                "phone": "+48 757323001",
                "email": "zsm_bc@pro.onet.pl",
                "website": "http:\/\/www.zsmbc.eu.org",
                "ref:regon": "000197570",
                "ref:vatin": "PL6121018114",
                "operator": "Powiat Boles\u0142awiecki",
                "operator:type": "government",
                "landuse": "education",
                "fixme": "amenity=school, amenity=college albo landuse=education w zale\u017cno\u015bci od tego, jakie plac\u00f3wki wchodz\u0105 w sk\u0142ad zespo\u0142u. Sprawd\u017a, kiedy stosowa\u0107 amenity=* a kiedy landuse=education.",
                "note": "Children RSPO: 19335;19336"
            }
        },
        {
            "id": 19335,
            "type": "Feature",
            "geometry": {
                "type": "Point",
                "coordinates": [
                    15.55904,
                    51.26354
                ]
            },
            "properties": {
                "isced:level": "3",
                "ref:rspo": 19335,
                "official_name": "Bran\u017cowa Szko\u0142a I Stopnia Nr 1 w Boles\u0142awcu",
                "name": "Bran\u017cowa Szko\u0142a I Stopnia Nr 1 w Boles\u0142awcu",
                "addr:postcode": "59-700",
                "addr:city": "Boles\u0142awiec",
                "addr:street": "G\u00f3rne M\u0142yny",
                "addr:housenumber": "1",
                "addr:city:simc": 935989,
                "addr:street:sym_ul": 5956,
                "phone": "+48 757323001",
                "email": "zsm_bc@pro.onet.pl",
                "website": "http:\/\/www.zsmbc.eu.org",
                "ref:regon": "231183591",
                "operator": "Powiat Boles\u0142awiecki",
                "operator:type": "government",
                "amenity": "school",
                "note": "Parent RSPO: 15397"
            }
        },
        {
            "id": 19336,
            "type": "Feature",
            "geometry": {
                "type": "Point",
                "coordinates": [
                    15.55904,
                    51.263510000000004
                ]
            },
            "properties": {
                "isced:level": "3",
                "ref:rspo": 19336,
                "official_name": "Technikum Nr 1 w Boles\u0142awcu",
                "name": "Technikum Nr 1 w Boles\u0142awcu",
                "addr:postcode": "59-700",
                "addr:city": "Boles\u0142awiec",
                "addr:street": "G\u00f3rne M\u0142yny",
                "addr:housenumber": "1",
                "addr:city:simc": 935989,
                "addr:street:sym_ul": 5956,
                "phone": "+48 757523001",
                "email": "zsm_bc@pro.onet.pl",
                "website": "http:\/\/www.zsmbc.eu.org",
                "ref:regon": "231183579",
                "operator": "Powiat Boles\u0142awiecki",
                "operator:type": "government",
                "amenity": "school",
                "note": "Parent RSPO: 15397"
            }
        },
        {
            "id": 38801,
            "type": "Feature",
            "geometry": {
                "type": "Point",
                "coordinates": [
                    15.57131,
                    51.26363
                ]
            },
            "properties": {
                "isced:level": "1;2",
                "ref:rspo": 38801,
                "official_name": "Szko\u0142a Podstawowa Nr 2 w Boles\u0142awcu",
                "name": "Szko\u0142a Podstawowa Nr 2 w Boles\u0142awcu",
                "addr:postcode": "59-700",
                "addr:city": "Boles\u0142awiec",
                "addr:street": "Juliusza S\u0142owackiego",
                "addr:housenumber": "2",
                "addr:city:simc": 935989,
                "addr:street:sym_ul": 20291,
                "phone": "+48 756121334",
                "email": "sekretariat@sp2.boleslawiec.pl",
                "website": "http:\/\/sp2.boleslawiec.pl\/",
                "ref:regon": "000650689",
                "ref:vatin": "PL6121862672",
                "operator": "Gmina Miejska Boles\u0142awiec",
                "operator:type": "government",
                "amenity": "school"
            }
        },
        {
            "id": 34723,
            "type": "Feature",
            "geometry": {
                "type": "Point",
                "coordinates": [
                    15.56494,
                    51.26424
                ]
            },
            "properties": {
                "ref:rspo": 34723,
                "official_name": "Miejskie Przedszkole Publiczne Nr 4 w Boles\u0142awcu",
                "name": "Miejskie Przedszkole Publiczne Nr 4 w Boles\u0142awcu",
                "addr:postcode": "59-700",
                "addr:city": "Boles\u0142awiec",
                "addr:street": "S\u0105dowa",
                "addr:housenumber": "9",
                "addr:city:simc": 935989,
                "addr:street:sym_ul": 19581,
                "phone": "+48 756121306",
                "email": "mpp4@boleslawiec.eu",
                "website": "http:\/\/www.mpp4boleslawiec.szkolnastrona.pl",
                "ref:regon": "021270654",
                "ref:vatin": "PL6121833110",
                "operator": "Gmina Miejska Boles\u0142awiec",
                "operator:type": "government",
                "amenity": "kindergarten"
            }
        },
        {
            "id": 19333,
            "type": "Feature",
            "geometry": {
                "type": "Point",
                "coordinates": [
                    15.56928,
                    51.26431
                ]
            },
            "properties": {
                "ref:rspo": 19333,
                "official_name": "Bursa Szkolna",
                "name": "Bursa Szkolna",
                "addr:postcode": "59-700",
                "addr:city": "Boles\u0142awiec",
                "addr:street": "Ogrodowa",
                "addr:housenumber": "7",
                "addr:city:simc": 935989,
                "addr:street:sym_ul": 14834,
                "phone": "+48 757322218",
                "email": "sekretariat@boleslawiec.pceikk.pl",
                "ref:regon": "230195563",
                "operator": "Powiat Boles\u0142awiecki",
                "operator:type": "government",
                "building": "dormitory",
                "note": "Parent RSPO: 15400"
            }
        },
        {
            "id": 21071,
            "type": "Feature",
            "geometry": {
                "type": "Point",
                "coordinates": [
                    15.55589,
                    51.26449
                ]
            },
            "properties": {
                "ref:rspo": 21071,
                "official_name": "Zesp\u00f3\u0142 Szk\u00f3\u0142 Handlowych I Us\u0142ugowych im. Jana Kochanowskiego w Boles\u0142awcu",
                "name": "Zesp\u00f3\u0142 Szk\u00f3\u0142 Handlowych I Us\u0142ugowych",
                "addr:postcode": "59-700",
                "addr:city": "Boles\u0142awiec",
                "addr:street": "Zgorzelecka",
                "addr:housenumber": "18",
                "addr:city:simc": 935989,
                "addr:street:sym_ul": 26030,
                "phone": "+48 757322825",
                "email": "zshiu@pro.onet.pl",
                "website": "http:\/\/zshiu.boleslawiec.pl",
                "ref:regon": "000179022",
                "ref:vatin": "PL6121065964",
                "operator": "Powiat Boles\u0142awiecki",
                "operator:type": "government",
                "landuse": "education",
                "fixme": "amenity=school, amenity=college albo landuse=education w zale\u017cno\u015bci od tego, jakie plac\u00f3wki wchodz\u0105 w sk\u0142ad zespo\u0142u. Sprawd\u017a, kiedy stosowa\u0107 amenity=* a kiedy landuse=education.",
                "note": "Children RSPO: 22756;22765"
            }
        },
        {
            "id": 22756,
            "type": "Feature",
            "geometry": {
                "type": "Point",
                "coordinates": [
                    15.55589,
                    51.26446
                ]
            },
            "properties": {
                "isced:level": "3",
                "ref:rspo": 22756,
                "official_name": "Technikum Nr 5 w Boles\u0142awcu",
                "name": "Technikum Nr 5 w Boles\u0142awcu",
                "addr:postcode": "59-700",
                "addr:city": "Boles\u0142awiec",
                "addr:street": "Zgorzelecka",
                "addr:housenumber": "18",
                "addr:city:simc": 935989,
                "addr:street:sym_ul": 26030,
                "phone": "+48 757322825",
                "email": "zshiu@pro.onet.pl",
                "ref:regon": "231184580",
                "operator": "Powiat Boles\u0142awiecki",
                "operator:type": "government",
                "amenity": "school",
                "note": "Parent RSPO: 21071"
            }
        },
        {
            "id": 22765,
            "type": "Feature",
            "geometry": {
                "type": "Point",
                "coordinates": [
                    15.55589,
                    51.264430000000004
                ]
            },
            "properties": {
                "isced:level": "3",
                "ref:rspo": 22765,
                "official_name": "Bran\u017cowa Szko\u0142a I Stopnia Nr 5 w Boles\u0142awcu",
                "name": "Bran\u017cowa Szko\u0142a I Stopnia Nr 5 w Boles\u0142awcu",
                "addr:postcode": "59-700",
                "addr:city": "Boles\u0142awiec",
                "addr:street": "Zgorzelecka",
                "addr:housenumber": "18",
                "addr:city:simc": 935989,
                "addr:street:sym_ul": 26030,
                "phone": "+48 757322825",
                "email": "zshiu@pro.onet.pl",
                "ref:regon": "231184567",
                "operator": "Powiat Boles\u0142awiecki",
                "operator:type": "government",
                "amenity": "school",
                "note": "Parent RSPO: 21071"
            }
        },
        {
            "id": 24840,
            "type": "Feature",
            "geometry": {
                "type": "Point",
                "coordinates": [
                    15.56232,
                    51.26487
                ]
            },
            "properties": {
                "ref:rspo": 24840,
                "official_name": "M\u0142odzie\u017cowy Dom Kultury im. St.wyspia\u0144skiego w Boles\u0142awcu",
                "name": "M\u0142odzie\u017cowy Dom Kultury",
                "addr:postcode": "59-700",
                "addr:city": "Boles\u0142awiec",
                "addr:street": "Grunwaldzka",
                "addr:housenumber": "5",
                "addr:city:simc": 935989,
                "addr:street:sym_ul": 6260,
                "phone": "+48 756446565",
                "email": "sekretariatmdk@interia.pl",
                "website": "http:\/\/mdkboleslawiec.pl",
                "ref:regon": "000243234",
                "ref:vatin": "PL6121546215",
                "operator": "Powiat Boles\u0142awiecki",
                "operator:type": "government",
                "amenity": "community_centre",
                "community_centre:for": "juvenile"
            }
        },
        {
            "id": 277149,
            "type": "Feature",
            "geometry": {
                "type": "Point",
                "coordinates": [
                    15.56256,
                    51.26529
                ]
            },
            "properties": {
                "ref:rspo": 277149,
                "official_name": "Limbicus",
                "name": "Limbicus",
                "addr:postcode": "59-700",
                "addr:city": "Boles\u0142awiec",
                "addr:street": "Grunwaldzka",
                "addr:housenumber": "7A",
                "addr:city:simc": 935989,
                "addr:street:sym_ul": 6260,
                "ref:regon": "388197022",
                "ref:vatin": "PL6931172120",
                "operator": "Wojciech Garwoli\u0144ski",
                "operator:type": "private",
                "fixme": "w zale\u017cno\u015bci od przedmiotu dzia\u0142alno\u015bci (np. amenity=training + training=*, amenity=dancing_school, amenity=language_school, amenity=music_school)"
            }
        },
        {
            "id": 16580,
            "type": "Feature",
            "geometry": {
                "type": "Point",
                "coordinates": [
                    15.55239,
                    51.26533
                ]
            },
            "properties": {
                "ref:rspo": 16580,
                "official_name": "Niepubliczna Bursa im. \u015aw. Marii De Mattias Zgromadzenia Si\u00f3str Adoratorek Krwi Chrystusa",
                "name": "Niepubliczna Bursa",
                "addr:postcode": "59-700",
                "addr:city": "Boles\u0142awiec",
                "addr:street": "Zgorzelecka",
                "addr:housenumber": "27",
                "addr:city:simc": 935989,
                "addr:street:sym_ul": 26030,
                "phone": "+48 757324126",
                "email": "bursa@adoratorki.pl",
                "website": "http:\/\/www.adoratorki.pl",
                "ref:regon": "021971300",
                "ref:vatin": "PL6121653508",
                "operator": "Zgromadzenie Si\u00f3str Adoratorek Krwi Chrystusa, Prowincja",
                "operator:type": "religious",
                "building": "dormitory"
            }
        },
        {
            "id": 35042,
            "type": "Feature",
            "geometry": {
                "type": "Point",
                "coordinates": [
                    15.56354,
                    51.2656599
                ]
            },
            "properties": {
                "ref:rspo": 35042,
                "official_name": "Pa\u0144stwowa Szko\u0142a Muzyczna I St. im. Witolda Lutos\u0142awskiego w Boles\u0142awcu",
                "name": "Pa\u0144stwowa Szko\u0142a Muzyczna I St.",
                "addr:postcode": "59-700",
                "addr:city": "Boles\u0142awiec",
                "addr:street": "Grunwaldzka",
                "addr:housenumber": "9",
                "addr:city:simc": 935989,
                "addr:street:sym_ul": 6260,
                "phone": "+48 757324224",
                "email": "sekretariatpsmbc@vp.pl",
                "website": "http:\/\/psmboleslawiec.wixsite.com\/psmboleslawiec",
                "ref:regon": "001071628",
                "operator": "Ministerstwo Kultury I Dziedzictwa Narodowego",
                "operator:type": "public",
                "amenity": "music_school"
            }
        },
        {
            "id": 34556,
            "type": "Feature",
            "geometry": {
                "type": "Point",
                "coordinates": [
                    15.5452,
                    51.26705
                ]
            },
            "properties": {
                "isced:level": "1;2",
                "ref:rspo": 34556,
                "official_name": "Szko\u0142a Podstawowa Nr 3 im. Armii Krajowej w Boles\u0142awcu",
                "name": "Szko\u0142a Podstawowa Nr 3",
                "addr:postcode": "59-700",
                "addr:city": "Boles\u0142awiec",
                "addr:street": "Ceramiczna",
                "addr:housenumber": "5",
                "addr:city:simc": 935989,
                "addr:street:sym_ul": 2629,
                "phone": "+48 757348472",
                "email": "sekretariat@sp3.boleslawiec.eu",
                "website": "http:\/\/sp3.boleslawiec.pl",
                "ref:regon": "000708489",
                "ref:vatin": "PL6121018108",
                "operator": "Gmina Miejska Boles\u0142awiec",
                "operator:type": "government",
                "amenity": "school"
            }
        },
        {
            "id": 34721,
            "type": "Feature",
            "geometry": {
                "type": "Point",
                "coordinates": [
                    15.5452,
                    51.267019999999995
                ]
            },
            "properties": {
                "ref:rspo": 34721,
                "official_name": "Miejskie Przedszkole Publiczne Nr 3 w Boles\u0142awcu",
                "name": "Miejskie Przedszkole Publiczne Nr 3 w Boles\u0142awcu",
                "addr:postcode": "59-700",
                "addr:city": "Boles\u0142awiec",
                "addr:street": "Ceramiczna",
                "addr:housenumber": "5",
                "addr:city:simc": 935989,
                "addr:street:sym_ul": 2629,
                "phone": "+48 756121304",
                "email": "mpp3bc10@op.pl",
                "website": "http:\/\/www.mp3boleslawiec.szkolnastrona.pl",
                "ref:regon": "021270625",
                "ref:vatin": "PL6121833104",
                "operator": "Gmina Miejska Boles\u0142awiec",
                "operator:type": "government",
                "amenity": "kindergarten"
            }
        },
        {
            "id": 278788,
            "type": "Feature",
            "geometry": {
                "type": "Point",
                "coordinates": [
                    15.56216,
                    51.26878
                ]
            },
            "properties": {
                "ref:rspo": 278788,
                "official_name": "Niepubliczne Przedszkole \u201eSafari Kids\u201d",
                "name": "Niepubliczne Przedszkole \u201eSafari Kids\u201d",
                "addr:postcode": "59-700",
                "addr:city": "Boles\u0142awiec",
                "addr:street": "Stanis\u0142awa Staszica",
                "addr:housenumber": "13H",
                "addr:city:simc": 935989,
                "addr:street:sym_ul": 21071,
                "email": "biuro@safarikids.pl",
                "website": "http:\/\/www.safarikids.pl",
                "ref:regon": "520119081",
                "operator": "Niepubliczny \u017b\u0142obek I Przedszkole Safari Kids Krystyna \u015aliwi\u0144ska Patrycja Indu\u0142a",
                "operator:type": "consortium",
                "amenity": "kindergarten"
            }
        },
        {
            "id": 15396,
            "type": "Feature",
            "geometry": {
                "type": "Point",
                "coordinates": [
                    15.55946,
                    51.27396
                ]
            },
            "properties": {
                "isced:level": "3",
                "ref:rspo": 15396,
                "official_name": "Ii Liceum Og\u00f3lnokszta\u0142c\u0105ce im. J. Korczaka w Boles\u0142awcu",
                "name": "Ii Liceum Og\u00f3lnokszta\u0142c\u0105ce",
                "addr:postcode": "59-700",
                "addr:city": "Boles\u0142awiec",
                "addr:street": "Dolne M\u0142yny",
                "addr:housenumber": "60",
                "addr:city:simc": 935989,
                "addr:street:sym_ul": 4044,
                "phone": "+48 757345313",
                "email": "sekretariat@lo2.boleslawiec.pl",
                "website": "http:\/\/www.lo2.boleslawiec.pl",
                "ref:regon": "230531995",
                "ref:vatin": "PL6121363549",
                "operator": "Powiat Boles\u0142awiecki",
                "operator:type": "government",
                "amenity": "school"
            }
        },
        {
            "id": 34518,
            "type": "Feature",
            "geometry": {
                "type": "Point",
                "coordinates": [
                    15.55946,
                    51.27393
                ]
            },
            "properties": {
                "isced:level": "1;2",
                "ref:rspo": 34518,
                "official_name": "Szko\u0142a Podstawowa Nr 5 im. Aleksandra Janowskiego w Boles\u0142awcu",
                "name": "Szko\u0142a Podstawowa Nr 5",
                "addr:postcode": "59-700",
                "addr:city": "Boles\u0142awiec",
                "addr:street": "Dolne M\u0142yny",
                "addr:housenumber": "60",
                "addr:city:simc": 935989,
                "addr:street:sym_ul": 4044,
                "phone": "+48 757345301",
                "email": "sekretariat@sp5.boleslawiec.eu",
                "website": "http:\/\/sp5.boleslawiec.eu\/",
                "ref:regon": "000708466",
                "ref:vatin": "PL6121862577",
                "operator": "Gmina Miejska Boles\u0142awiec",
                "operator:type": "government",
                "amenity": "school"
            }
        },
        {
            "id": 17054,
            "type": "Feature",
            "geometry": {
                "type": "Point",
                "coordinates": [
                    15.58007,
                    51.32519
                ]
            },
            "properties": {
                "isced:level": "4",
                "ref:rspo": 17054,
                "official_name": "Studium Policealne w Boles\u0142awcu",
                "name": "Studium Policealne w Boles\u0142awcu",
                "addr:postcode": "59-700",
                "addr:city": "Boles\u0142awiec",
                "addr:street": "Marcina Opitza",
                "addr:housenumber": "11",
                "addr:city:simc": 935989,
                "addr:street:sym_ul": 15086,
                "phone": "+48 757327960",
                "email": "kontakt@aurelus.edu.pl",
                "website": "http:\/\/www.aurelus.edu.pl",
                "ref:regon": "021972818",
                "operator": "Marzanna S\u0142otwi\u0144ska",
                "operator:type": "private",
                "amenity": "college"
            }
        },
        {
            "id": 17080,
            "type": "Feature",
            "geometry": {
                "type": "Point",
                "coordinates": [
                    15.58007,
                    51.32516
                ]
            },
            "properties": {
                "isced:level": "4",
                "ref:rspo": 17080,
                "official_name": "Policealne Studium Kosmetyczne w Boles\u0142awcu",
                "name": "Policealne Studium Kosmetyczne w Boles\u0142awcu",
                "addr:postcode": "59-700",
                "addr:city": "Boles\u0142awiec",
                "addr:street": "Marcina Opitza",
                "addr:housenumber": "11",
                "addr:city:simc": 935989,
                "addr:street:sym_ul": 15086,
                "phone": "+48 535940334",
                "email": "studium.aurelus@gmail.com",
                "ref:regon": "021972793",
                "operator": "Instytut Doskonalenia Wiedzy I Umiej\u0119tno\u015bci Sp\u00f3\u0142ka Z Ograniczon\u0105 Odpowiedzialno\u015bci\u0105",
                "operator:type": "private",
                "amenity": "college"
            }
        },
        {
            "id": 17137,
            "type": "Feature",
            "geometry": {
                "type": "Point",
                "coordinates": [
                    15.58007,
                    51.32513
                ]
            },
            "properties": {
                "isced:level": "4",
                "ref:rspo": 17137,
                "official_name": "Policealne Studium Zawodowe w Boles\u0142awcu",
                "name": "Policealne Studium Zawodowe w Boles\u0142awcu",
                "addr:postcode": "59-700",
                "addr:city": "Boles\u0142awiec",
                "addr:street": "Marcina Opitza",
                "addr:housenumber": "11",
                "addr:city:simc": 935989,
                "addr:street:sym_ul": 15086,
                "phone": "+48 757327960",
                "email": "kontakt@aurelus.edu.pl",
                "website": "http:\/\/www.aurelus.edu.pl",
                "ref:regon": "021972899",
                "operator": "Marzanna S\u0142otwi\u0144ska",
                "operator:type": "private",
                "amenity": "college"
            }
        },
        {
            "id": 17174,
            "type": "Feature",
            "geometry": {
                "type": "Point",
                "coordinates": [
                    15.58007,
                    51.3251
                ]
            },
            "properties": {
                "isced:level": "4",
                "ref:rspo": 17174,
                "official_name": "Studium Medyczne w Boles\u0142awcu",
                "name": "Studium Medyczne w Boles\u0142awcu",
                "addr:postcode": "59-700",
                "addr:city": "Boles\u0142awiec",
                "addr:street": "Marcina Opitza",
                "addr:housenumber": "11",
                "addr:city:simc": 935989,
                "addr:street:sym_ul": 15086,
                "phone": "+48 757327960",
                "email": "kontakt@aurelus.edu.pl",
                "website": "http:\/\/www.aurelus.edu.pl",
                "ref:regon": "021972847",
                "operator": "Marzanna S\u0142otwi\u0144ska",
                "operator:type": "private",
                "amenity": "college"
            }
        },
        {
            "id": 17219,
            "type": "Feature",
            "geometry": {
                "type": "Point",
                "coordinates": [
                    15.58007,
                    51.32507
                ]
            },
            "properties": {
                "isced:level": "3",
                "ref:rspo": 17219,
                "official_name": "Liceum Og\u00f3lnokszta\u0142c\u0105ce dla Doros\u0142ych",
                "name": "Liceum Og\u00f3lnokszta\u0142c\u0105ce dla Doros\u0142ych",
                "addr:postcode": "59-700",
                "addr:city": "Boles\u0142awiec",
                "addr:street": "Marcina Opitza",
                "addr:housenumber": "11",
                "addr:city:simc": 935989,
                "addr:street:sym_ul": 15086,
                "phone": "+48 757327960",
                "email": "kontakt@aurelus.edu.pl",
                "website": "http:\/\/www.aurelus.edu.pl",
                "ref:regon": "021972882",
                "operator": "Marzanna S\u0142otwi\u0144ska",
                "operator:type": "private",
                "amenity": "school"
            }
        },
        {
            "id": 128901,
            "type": "Feature",
            "geometry": {
                "type": "Point",
                "coordinates": [
                    15.58007,
                    51.32504
                ]
            },
            "properties": {
                "ref:rspo": 128901,
                "official_name": "O\u015brodek Dokszta\u0142cania I Doskonalenia Zawodowego",
                "name": "O\u015brodek Dokszta\u0142cania I Doskonalenia Zawodowego",
                "addr:postcode": "59-700",
                "addr:city": "Boles\u0142awiec",
                "addr:street": "Marcina Opitza",
                "addr:housenumber": "11",
                "addr:city:simc": 935989,
                "addr:street:sym_ul": 15086,
                "phone": "+48 757327960",
                "email": "kontakt@aurelus.edu.pl",
                "website": "http:\/\/www.aurelus.edu.pl",
                "ref:regon": "362471006",
                "operator": "Instytut Doskonalenia Wiedzy I Umiej\u0119tno\u015bci Sp\u00f3\u0142ka Z Ograniczon\u0105 Odpowiedzialno\u015bci\u0105",
                "operator:type": "private",
                "fixme": "w zale\u017cno\u015bci od przedmiotu dzia\u0142alno\u015bci (np. amenity=training + training=*, amenity=dancing_school, amenity=language_school, amenity=music_school) albo amenity=school, amenity=college, albo landuse=education w zale\u017cno\u015bci od tego, jakie plac\u00f3wki wchodz\u0105 w sk\u0142ad zespo\u0142u. Sprawd\u017a, kiedy stosowa\u0107 amenity=* a kiedy landuse=education."
            }
        },
        {
            "id": 264891,
            "type": "Feature",
            "geometry": {
                "type": "Point",
                "coordinates": [
                    15.58007,
                    51.32501
                ]
            },
            "properties": {
                "isced:level": "1;2",
                "ref:rspo": 264891,
                "official_name": "Prywatna Szko\u0142a Podstawowa dla Doros\u0142ych w Boles\u0142awcu",
                "name": "Prywatna Szko\u0142a Podstawowa dla Doros\u0142ych w Boles\u0142awcu",
                "addr:postcode": "59-700",
                "addr:city": "Boles\u0142awiec",
                "addr:street": "Marcina Opitza",
                "addr:housenumber": "11",
                "addr:city:simc": 935989,
                "addr:street:sym_ul": 15086,
                "phone": "+48 757327960",
                "email": "kontakt@aurelus.edu.pl",
                "website": "http:\/\/www.aurelus.edu.pl",
                "ref:regon": "368498472",
                "operator": "Marzanna S\u0142otwi\u0144ska",
                "operator:type": "private",
                "amenity": "school"
            }
        },
        {
            "id": 264892,
            "type": "Feature",
            "geometry": {
                "type": "Point",
                "coordinates": [
                    15.58007,
                    51.32498
                ]
            },
            "properties": {
                "isced:level": "1;2",
                "ref:rspo": 264892,
                "official_name": "Prywatna Szko\u0142a Podstawowa Z Oddzia\u0142ami Przysposabiaj\u0105cymi Do Pracy w Boles\u0142awcu.",
                "name": "Prywatna Szko\u0142a Podstawowa Z Oddzia\u0142ami Przysposabiaj\u0105cymi Do Pracy w Boles\u0142awcu.",
                "addr:postcode": "59-700",
                "addr:city": "Boles\u0142awiec",
                "addr:street": "Marcina Opitza",
                "addr:housenumber": "11",
                "addr:city:simc": 935989,
                "addr:street:sym_ul": 15086,
                "phone": "+48 757327960",
                "email": "kontakt@aurelus.edu.pl",
                "website": "http:\/\/www.aurelus.edu.pl",
                "ref:regon": "368498584",
                "operator": "Marzanna S\u0142otwi\u0144ska",
                "operator:type": "private",
                "amenity": "school"
            }
        }
    ]
}