{
    "type": "FeatureCollection",
    "features": [
        {
            "id": 69389,
            "type": "Feature",
            "geometry": {
                "type": "Point",
                "coordinates": [
                    18.83437,
                    53.11772
                ]
            },
            "properties": {
                "isced:level": "1;2",
                "ref:rspo": 69389,
                "official_name": "Szko\u0142a Podstawowa im. Ireny Sendlerowej w Wielkiej \u0141\u0105ce",
                "name": "Szko\u0142a Podstawowa",
                "addr:postcode": "87-410",
                "addr:place": "Wielka \u0141\u0105ka",
                "addr:housenumber": "11",
                "addr:city:simc": 845387,
                "phone": "+48 566843820",
                "email": "sp_wielka_laka@wp.pl",
                "website": "http:\/\/www.spwielkalaka.pl\/",
                "ref:regon": "001224405",
                "ref:vatin": "PL8781281876",
                "operator": "Gmina Kowalewo Pomorskie",
                "operator:type": "government",
                "amenity": "school"
            }
        },
        {
            "id": 69376,
            "type": "Feature",
            "geometry": {
                "type": "Point",
                "coordinates": [
                    18.79727,
                    53.1458299
                ]
            },
            "properties": {
                "isced:level": "1;2",
                "ref:rspo": 69376,
                "official_name": "Szko\u0142a Podstawowa im. Janusza Korczaka w Wielkim Rychnowie",
                "name": "Szko\u0142a Podstawowa",
                "addr:postcode": "87-410",
                "addr:place": "Wielkie Rychnowo",
                "addr:housenumber": "53",
                "addr:city:simc": 845418,
                "phone": "+48 566842111",
                "email": "sprychnowo@poczta.onet.pl",
                "website": "http:\/\/www.spwielkierychnowo.pl",
                "ref:regon": "001224397",
                "ref:vatin": "PL8781281942",
                "operator": "Gmina Kowalewo Pomorskie",
                "operator:type": "government",
                "amenity": "school"
            }
        },
        {
            "id": 69396,
            "type": "Feature",
            "geometry": {
                "type": "Point",
                "coordinates": [
                    18.89844,
                    53.1512699
                ]
            },
            "properties": {
                "ref:rspo": 69396,
                "official_name": "Przedszkole Publiczne w Kowalewie Pomorskim",
                "name": "Przedszkole Publiczne w Kowalewie Pomorskim",
                "addr:postcode": "87-410",
                "addr:city": "Kowalewo Pomorskie",
                "addr:street": "Marii Konopnickiej",
                "addr:housenumber": "13",
                "addr:city:simc": 983540,
                "addr:street:sym_ul": 9182,
                "phone": "+48 566841522",
                "email": "przedszkole@kowalewopomorskie.pl",
                "website": "http:\/\/www.przedszkolekowalewo.pl\/",
                "ref:regon": "341348696",
                "ref:vatin": "PL8781281540",
                "operator": "Gmina Kowalewo Pomorskie",
                "operator:type": "government",
                "amenity": "kindergarten"
            }
        },
        {
            "id": 69370,
            "type": "Feature",
            "geometry": {
                "type": "Point",
                "coordinates": [
                    18.9002,
                    53.15155
                ]
            },
            "properties": {
                "isced:level": "1;2",
                "ref:rspo": 69370,
                "official_name": "Szko\u0142a Podstawowa im. Marii Konopnickiej w Kowalewie Pomorskim",
                "name": "Szko\u0142a Podstawowa",
                "addr:postcode": "87-410",
                "addr:city": "Kowalewo Pomorskie",
                "addr:street": "Jana Paw\u0142a II",
                "addr:housenumber": "2",
                "addr:city:simc": 983540,
                "addr:street:sym_ul": 7123,
                "phone": "+48 566840185",
                "email": "szpod13@interia.pl",
                "website": "http:\/\/www.sp.kowalewopomorskie.pl",
                "ref:regon": "000263828",
                "ref:vatin": "PL8781281681",
                "operator": "Gmina Kowalewo Pomorskie",
                "operator:type": "government",
                "amenity": "school"
            }
        },
        {
            "id": 12142,
            "type": "Feature",
            "geometry": {
                "type": "Point",
                "coordinates": [
                    18.89327,
                    53.15411
                ]
            },
            "properties": {
                "ref:rspo": 12142,
                "official_name": "Zesp\u00f3\u0142 Szk\u00f3\u0142",
                "name": "Zesp\u00f3\u0142 Szk\u00f3\u0142",
                "addr:postcode": "87-410",
                "addr:city": "Kowalewo Pomorskie",
                "addr:street": "\u015awi\u0119tego Miko\u0142aja",
                "addr:housenumber": "6",
                "addr:city:simc": 983540,
                "addr:street:sym_ul": 12885,
                "phone": "+48 566841503",
                "email": "sekretariat@zskowalewo.golub-dobrzyn.com.pl",
                "website": "http:\/\/www.zskowalewo.golub-dobrzyn.com.pl",
                "ref:regon": "871210585",
                "ref:vatin": "PL8781607639",
                "operator": "Powiat Golubsko-Dobrzy\u0144ski",
                "operator:type": "government",
                "landuse": "education",
                "fixme": "amenity=school, amenity=college albo landuse=education w zale\u017cno\u015bci od tego, jakie plac\u00f3wki wchodz\u0105 w sk\u0142ad zespo\u0142u. Sprawd\u017a, kiedy stosowa\u0107 amenity=* a kiedy landuse=education.",
                "note": "Children RSPO: 104807;105189;106001;275516"
            }
        },
        {
            "id": 104807,
            "type": "Feature",
            "geometry": {
                "type": "Point",
                "coordinates": [
                    18.89327,
                    53.15408
                ]
            },
            "properties": {
                "isced:level": "3",
                "ref:rspo": 104807,
                "official_name": "Technikum w Kowalewie Pomorskim im. Lecha Wa\u0142\u0119sy",
                "name": "Technikum w Kowalewie Pomorskim",
                "addr:postcode": "87-410",
                "addr:city": "Kowalewo Pomorskie",
                "addr:street": "\u015awi\u0119tego Miko\u0142aja",
                "addr:housenumber": "6",
                "addr:city:simc": 983540,
                "addr:street:sym_ul": 12885,
                "phone": "+48 566831503",
                "email": "sekretariat@zskowalewo.golub-dobrzyn.com.pl",
                "website": "http:\/\/www.zskowalewo.golub-dobrzyn.com.pl",
                "ref:regon": "340025330",
                "operator": "Powiat Golubsko-Dobrzy\u0144ski",
                "operator:type": "government",
                "amenity": "school",
                "note": "Parent RSPO: 12142"
            }
        },
        {
            "id": 105189,
            "type": "Feature",
            "geometry": {
                "type": "Point",
                "coordinates": [
                    18.89327,
                    53.154050000000005
                ]
            },
            "properties": {
                "isced:level": "3",
                "ref:rspo": 105189,
                "official_name": "Bran\u017cowa Szko\u0142a I Stopnia im. Lecha Wa\u0142\u0119sy",
                "name": "Bran\u017cowa Szko\u0142a I Stopnia",
                "addr:postcode": "87-410",
                "addr:city": "Kowalewo Pomorskie",
                "addr:street": "\u015awi\u0119tego Miko\u0142aja",
                "addr:housenumber": "6",
                "addr:city:simc": 983540,
                "addr:street:sym_ul": 12885,
                "phone": "+48 566841503",
                "email": "sekretariat@zskowalewo.golub-dobrzyn.com.pl",
                "website": "http:\/\/www.zskowalewo.golub-dobrzyn.com.pl",
                "ref:regon": "871668634",
                "operator": "Powiat Golubsko-Dobrzy\u0144ski",
                "operator:type": "government",
                "amenity": "school",
                "note": "Parent RSPO: 12142"
            }
        },
        {
            "id": 106001,
            "type": "Feature",
            "geometry": {
                "type": "Point",
                "coordinates": [
                    18.89327,
                    53.15402
                ]
            },
            "properties": {
                "isced:level": "3",
                "ref:rspo": 106001,
                "official_name": "Liceum Og\u00f3lnokszta\u0142c\u0105ce dla Doros\u0142ych im. Lecha Wa\u0142\u0119sy w Kowalewie Pomorskim",
                "name": "Liceum Og\u00f3lnokszta\u0142c\u0105ce dla Doros\u0142ych",
                "addr:postcode": "87-410",
                "addr:city": "Kowalewo Pomorskie",
                "addr:street": "\u015awi\u0119tego Miko\u0142aja",
                "addr:housenumber": "6",
                "addr:city:simc": 983540,
                "addr:street:sym_ul": 12885,
                "phone": "+48 566841503",
                "email": "sekretariat@zskowalewo.golub-dobrzyn.com.pl",
                "website": "http:\/\/www.zskowalewo.golub-dobrzyn.com.pl",
                "ref:regon": "341375990",
                "operator": "Powiat Golubsko-Dobrzy\u0144ski",
                "operator:type": "government",
                "amenity": "school",
                "note": "Parent RSPO: 12142"
            }
        },
        {
            "id": 275516,
            "type": "Feature",
            "geometry": {
                "type": "Point",
                "coordinates": [
                    18.89327,
                    53.15399
                ]
            },
            "properties": {
                "isced:level": "3",
                "ref:rspo": 275516,
                "official_name": "Bran\u017cowa Szko\u0142a II Stopnia",
                "name": "Bran\u017cowa Szko\u0142a II Stopnia",
                "addr:postcode": "87-410",
                "addr:city": "Kowalewo Pomorskie",
                "addr:street": "\u015awi\u0119tego Miko\u0142aja",
                "addr:housenumber": "6",
                "addr:city:simc": 983540,
                "addr:street:sym_ul": 12885,
                "phone": "+48 566841503",
                "email": "sekretariat@zskowalewo.golub-dobrzyn.com.pl",
                "website": "http:\/\/www.zskowalewo.golub-dobrzyn.com.pl",
                "ref:regon": "386933830",
                "operator": "Powiat Golubsko-Dobrzy\u0144ski",
                "operator:type": "government",
                "amenity": "school",
                "note": "Parent RSPO: 12142"
            }
        },
        {
            "id": 273491,
            "type": "Feature",
            "geometry": {
                "type": "Point",
                "coordinates": [
                    18.89604,
                    53.1548299
                ]
            },
            "properties": {
                "ref:rspo": 273491,
                "official_name": "Niepubliczne Przedszkole Terapeutyczne w Kowalewie Pomorskim",
                "name": "Niepubliczne Przedszkole Terapeutyczne w Kowalewie Pomorskim",
                "addr:postcode": "87-410",
                "addr:city": "Kowalewo Pomorskie",
                "addr:street": "Szkolna",
                "addr:housenumber": "11",
                "addr:city:simc": 983540,
                "addr:street:sym_ul": 21970,
                "phone": "+48 501170458",
                "email": "sekretariat@nptkowalewo.pl",
                "ref:regon": "384480732",
                "operator": "Fundacja \u015awi\u0119tej Katarzyny",
                "operator:type": "ngo",
                "amenity": "kindergarten"
            }
        },
        {
            "id": 272165,
            "type": "Feature",
            "geometry": {
                "type": "Point",
                "coordinates": [
                    18.89185,
                    53.15555
                ]
            },
            "properties": {
                "ref:rspo": 272165,
                "official_name": "Publiczna Szko\u0142a Muzyczna I Stopnia w Kowalewie Pomorskim",
                "name": "Publiczna Szko\u0142a Muzyczna I Stopnia w Kowalewie Pomorskim",
                "addr:postcode": "87-410",
                "addr:city": "Kowalewo Pomorskie",
                "addr:street": "Odrodzenia",
                "addr:housenumber": "7",
                "addr:city:simc": 983540,
                "addr:street:sym_ul": 14755,
                "phone": "+48 535353786",
                "email": "sekretariat@muzyczna-kowalewo.pl",
                "website": "http:\/\/www.muzyczna-kowalewo.pl",
                "ref:regon": "383988842",
                "ref:vatin": "PL5030083306",
                "operator": "Powiat Golubsko-Dobrzy\u0144ski",
                "operator:type": "government",
                "amenity": "music_school"
            }
        },
        {
            "id": 121911,
            "type": "Feature",
            "geometry": {
                "type": "Point",
                "coordinates": [
                    18.89038,
                    53.1555899
                ]
            },
            "properties": {
                "ref:rspo": 121911,
                "official_name": "Niepubliczne Przedszkole Entliczek Pentliczek",
                "name": "Niepubliczne Przedszkole Entliczek Pentliczek",
                "addr:postcode": "87-410",
                "addr:city": "Kowalewo Pomorskie",
                "addr:street": "Odrodzenia",
                "addr:housenumber": "11B",
                "addr:city:simc": 983540,
                "addr:street:sym_ul": 14755,
                "phone": "+48 601658908",
                "email": "entli-pentli@wp.pl",
                "website": "http:\/\/www.entliczek-pentliczek.com.pl",
                "ref:regon": "341541074",
                "ref:vatin": "PL8781357208",
                "operator": "Sylwia Sadowska",
                "operator:type": "private",
                "amenity": "kindergarten"
            }
        },
        {
            "id": 69395,
            "type": "Feature",
            "geometry": {
                "type": "Point",
                "coordinates": [
                    18.9502,
                    53.17197
                ]
            },
            "properties": {
                "isced:level": "1;2",
                "ref:rspo": 69395,
                "official_name": "Szko\u0142a Podstawowa im. Wojska Polskiego w Pluskow\u0119sach",
                "name": "Szko\u0142a Podstawowa",
                "addr:postcode": "87-410",
                "addr:place": "Pluskow\u0119sy",
                "addr:housenumber": "22",
                "addr:city:simc": 845312,
                "phone": "+48 566841541",
                "email": "szkola_pluskowesy@o2.pl",
                "website": "http:\/\/www.sppluskowesy.pl",
                "ref:regon": "001224380",
                "ref:vatin": "PL8781323942",
                "operator": "Gmina Kowalewo Pomorskie",
                "operator:type": "government",
                "amenity": "school"
            }
        },
        {
            "id": 69399,
            "type": "Feature",
            "geometry": {
                "type": "Point",
                "coordinates": [
                    18.76692,
                    53.18326
                ]
            },
            "properties": {
                "isced:level": "1;2",
                "ref:rspo": 69399,
                "official_name": "Szko\u0142a Podstawowa w Mlewie",
                "name": "Szko\u0142a Podstawowa w Mlewie",
                "addr:postcode": "87-410",
                "addr:place": "Mlewo",
                "addr:housenumber": "4",
                "addr:city:simc": 845252,
                "phone": "+48 566842334",
                "email": "triomlewo@poczta.fm",
                "website": "http:\/\/spmlewo.szkolnastrona.pl",
                "ref:regon": "341348667",
                "operator": "Wiejskie Stowarzyszenie Edukacyjno-Kulturalne \"Trio\"",
                "operator:type": "ngo",
                "amenity": "school"
            }
        }
    ]
}