{
    "type": "FeatureCollection",
    "features": [
        {
            "id": 40814,
            "type": "Feature",
            "geometry": {
                "type": "Point",
                "coordinates": [
                    19.1162,
                    52.98142
                ]
            },
            "properties": {
                "isced:level": "1;2",
                "ref:rspo": 40814,
                "official_name": "Szko\u0142a Podstawowa im. Powsta\u0144c\u00f3w Styczniowych w Klonowie",
                "name": "Szko\u0142a Podstawowa",
                "addr:postcode": "87-645",
                "addr:place": "Klonowo",
                "addr:housenumber": "62",
                "addr:city:simc": 872349,
                "phone": "+48 542801992",
                "email": "sp_klon@interia.pl",
                "ref:regon": "001138686",
                "operator": "Gmina Zb\u00f3jno",
                "operator:type": "government",
                "amenity": "school"
            }
        },
        {
            "id": 130382,
            "type": "Feature",
            "geometry": {
                "type": "Point",
                "coordinates": [
                    19.1162,
                    52.98139
                ]
            },
            "properties": {
                "ref:rspo": 130382,
                "official_name": "Punkt Przedszkolny w Klonowie",
                "name": "Punkt Przedszkolny w Klonowie",
                "addr:postcode": "87-645",
                "addr:place": "Klonowo",
                "addr:housenumber": "62",
                "addr:city:simc": 872349,
                "phone": "+48 542801992",
                "email": "sp_klon@interia.pl",
                "website": "http:\/\/www.spklonowo.dzs.pl",
                "ref:regon": "363931183",
                "operator": "Gmina Zb\u00f3jno",
                "operator:type": "government",
                "amenity": "kindergarten"
            }
        },
        {
            "id": 12174,
            "type": "Feature",
            "geometry": {
                "type": "Point",
                "coordinates": [
                    19.10001,
                    52.99332
                ]
            },
            "properties": {
                "ref:rspo": 12174,
                "official_name": "Specjalny O\u015brodek Szkolno - Wychowawczy w Wielgiem",
                "name": "Specjalny O\u015brodek Szkolno - Wychowawczy w Wielgiem",
                "addr:postcode": "87-645",
                "addr:place": "Wielgie",
                "addr:housenumber": "80A",
                "addr:city:simc": 872480,
                "phone": "+48 542801908",
                "email": "sosw@golub-dobrzyn.com.pl",
                "website": "http:\/\/www.sosw-wielgie.pl",
                "ref:regon": "001010147",
                "ref:vatin": "PL8921262302",
                "operator": "Powiat Golubsko-Dobrzy\u0144ski",
                "operator:type": "government",
                "amenity": "school",
                "note": "Children RSPO: 104663;127763"
            }
        },
        {
            "id": 104663,
            "type": "Feature",
            "geometry": {
                "type": "Point",
                "coordinates": [
                    19.10001,
                    52.993289999999995
                ]
            },
            "properties": {
                "isced:level": "1;2",
                "ref:rspo": 104663,
                "official_name": "Szko\u0142a Podstawowa Specjalna",
                "name": "Szko\u0142a Podstawowa Specjalna",
                "addr:postcode": "87-645",
                "addr:place": "Wielgie",
                "addr:housenumber": "80A",
                "addr:city:simc": 872480,
                "phone": "+48 542801908",
                "email": "soswielgie@wp.pl",
                "website": "http:\/\/www.sosw-wielgie.pl",
                "ref:regon": "001229265",
                "operator": "Powiat Golubsko-Dobrzy\u0144ski",
                "operator:type": "government",
                "amenity": "school",
                "note": "Parent RSPO: 12174"
            }
        },
        {
            "id": 127763,
            "type": "Feature",
            "geometry": {
                "type": "Point",
                "coordinates": [
                    19.10001,
                    52.99326
                ]
            },
            "properties": {
                "ref:rspo": 127763,
                "official_name": "Szko\u0142a Specjalna Przysposabiaj\u0105ca Do Pracy",
                "name": "Szko\u0142a Specjalna Przysposabiaj\u0105ca Do Pracy",
                "addr:postcode": "87-645",
                "addr:place": "Wielgie",
                "addr:housenumber": "80A",
                "addr:city:simc": 872480,
                "phone": "+48 542801908",
                "email": "sosw@golub-dobrzyn.com.pl",
                "website": "http:\/\/www.sosw-wielgie.pl",
                "ref:regon": "871720501",
                "operator": "Powiat Golubsko-Dobrzy\u0144ski",
                "operator:type": "government",
                "amenity": "school",
                "note": "Parent RSPO: 12174"
            }
        },
        {
            "id": 40794,
            "type": "Feature",
            "geometry": {
                "type": "Point",
                "coordinates": [
                    19.16032,
                    53.00735
                ]
            },
            "properties": {
                "ref:rspo": 40794,
                "official_name": "Zesp\u00f3\u0142 Szk\u00f3\u0142 im. Wojska Polskiego w Zb\u00f3jnie",
                "name": "Zesp\u00f3\u0142 Szk\u00f3\u0142",
                "addr:postcode": "87-645",
                "addr:place": "Zb\u00f3jno",
                "addr:housenumber": "178",
                "addr:city:simc": 872527,
                "phone": "+48 542606006",
                "email": "zbojno-szkola@wp.pl",
                "website": "http:\/\/www.zbojno-szkola.pl",
                "ref:regon": "340206190",
                "ref:vatin": "PL5030078400",
                "operator": "Gmina Zb\u00f3jno",
                "operator:type": "government",
                "landuse": "education",
                "fixme": "amenity=school, amenity=college albo landuse=education w zale\u017cno\u015bci od tego, jakie plac\u00f3wki wchodz\u0105 w sk\u0142ad zespo\u0142u. Sprawd\u017a, kiedy stosowa\u0107 amenity=* a kiedy landuse=education.",
                "note": "Children RSPO: 53949;77615"
            }
        },
        {
            "id": 53949,
            "type": "Feature",
            "geometry": {
                "type": "Point",
                "coordinates": [
                    19.16032,
                    53.00732
                ]
            },
            "properties": {
                "isced:level": "1;2",
                "ref:rspo": 53949,
                "official_name": "Szko\u0142a Podstawowa w Zb\u00f3jnie",
                "name": "Szko\u0142a Podstawowa w Zb\u00f3jnie",
                "addr:postcode": "87-645",
                "addr:place": "Zb\u00f3jno",
                "addr:housenumber": "178",
                "addr:city:simc": 872527,
                "phone": "+48 542606006",
                "email": "zbojno-szkola@wp.pl",
                "website": "http:\/\/www.zbojno-szkola.pl",
                "ref:regon": "000271271",
                "operator": "Gmina Zb\u00f3jno",
                "operator:type": "government",
                "amenity": "school",
                "note": "Parent RSPO: 40794"
            }
        },
        {
            "id": 77615,
            "type": "Feature",
            "geometry": {
                "type": "Point",
                "coordinates": [
                    19.16032,
                    53.007290000000005
                ]
            },
            "properties": {
                "ref:rspo": 77615,
                "official_name": "Przedszkole Publiczne w Zb\u00f3jnie",
                "name": "Przedszkole Publiczne w Zb\u00f3jnie",
                "addr:postcode": "87-645",
                "addr:place": "Zb\u00f3jno",
                "addr:housenumber": "178",
                "addr:city:simc": 872527,
                "phone": "+48 542606006",
                "email": "zbojno-szkola@wp.pl",
                "ref:regon": "910005349",
                "operator": "Gmina Zb\u00f3jno",
                "operator:type": "government",
                "amenity": "kindergarten",
                "note": "Parent RSPO: 40794"
            }
        },
        {
            "id": 40604,
            "type": "Feature",
            "geometry": {
                "type": "Point",
                "coordinates": [
                    19.05811,
                    53.0193
                ]
            },
            "properties": {
                "ref:rspo": 40604,
                "official_name": "Zesp\u00f3\u0142 Szk\u00f3\u0142 w Dzia\u0142yniu",
                "name": "Zesp\u00f3\u0142 Szk\u00f3\u0142 w Dzia\u0142yniu",
                "addr:postcode": "87-645",
                "addr:place": "Dzia\u0142y\u0144",
                "addr:housenumber": "57",
                "addr:city:simc": 872295,
                "phone": "+48 542601603",
                "email": "zsdzialyn@wp.pl",
                "website": "http:\/\/www.zsdzialyn.com.pl",
                "ref:regon": "340065430",
                "ref:vatin": "PL5030078481",
                "operator": "Gmina Zb\u00f3jno",
                "operator:type": "government",
                "landuse": "education",
                "fixme": "amenity=school, amenity=college albo landuse=education w zale\u017cno\u015bci od tego, jakie plac\u00f3wki wchodz\u0105 w sk\u0142ad zespo\u0142u. Sprawd\u017a, kiedy stosowa\u0107 amenity=* a kiedy landuse=education.",
                "note": "Children RSPO: 53560;73830"
            }
        },
        {
            "id": 53560,
            "type": "Feature",
            "geometry": {
                "type": "Point",
                "coordinates": [
                    19.05811,
                    53.01927
                ]
            },
            "properties": {
                "isced:level": "1;2",
                "ref:rspo": 53560,
                "official_name": "Szko\u0142a Podstawowa im. Stefana \u017beromskiego w Dzia\u0142yniu",
                "name": "Szko\u0142a Podstawowa",
                "addr:postcode": "87-645",
                "addr:place": "Dzia\u0142y\u0144",
                "addr:housenumber": "57",
                "addr:city:simc": 872295,
                "phone": "+48 542601603",
                "email": "zsdzialyn@wp.pl",
                "ref:regon": "001138723",
                "operator": "Gmina Zb\u00f3jno",
                "operator:type": "government",
                "amenity": "school",
                "note": "Parent RSPO: 40604"
            }
        },
        {
            "id": 73830,
            "type": "Feature",
            "geometry": {
                "type": "Point",
                "coordinates": [
                    19.05811,
                    53.01924
                ]
            },
            "properties": {
                "ref:rspo": 73830,
                "official_name": "Samorz\u0105dowe Przedszkole w Dzia\u0142yniu",
                "name": "Samorz\u0105dowe Przedszkole w Dzia\u0142yniu",
                "addr:postcode": "87-645",
                "addr:place": "Dzia\u0142y\u0144",
                "addr:housenumber": "57",
                "addr:city:simc": 872295,
                "phone": "+48 542601603",
                "ref:regon": "340065329",
                "operator": "Gmina Zb\u00f3jno",
                "operator:type": "government",
                "amenity": "kindergarten",
                "note": "Parent RSPO: 40604"
            }
        },
        {
            "id": 40130,
            "type": "Feature",
            "geometry": {
                "type": "Point",
                "coordinates": [
                    19.16842,
                    53.03247
                ]
            },
            "properties": {
                "isced:level": "1;2",
                "ref:rspo": 40130,
                "official_name": "Szko\u0142a Podstawowa im. Ziemi Dobrzy\u0144skiej w Ru\u017cu",
                "name": "Szko\u0142a Podstawowa",
                "addr:postcode": "87-645",
                "addr:place": "Ru\u017ce",
                "addr:housenumber": "5",
                "addr:city:simc": 872450,
                "phone": "+48 542606205",
                "email": "szkola.ruze@gmail.com",
                "ref:regon": "001138717",
                "ref:vatin": "PL5030078498",
                "operator": "Gmina Zb\u00f3jno",
                "operator:type": "government",
                "amenity": "school"
            }
        },
        {
            "id": 130383,
            "type": "Feature",
            "geometry": {
                "type": "Point",
                "coordinates": [
                    19.16842,
                    53.03244
                ]
            },
            "properties": {
                "ref:rspo": 130383,
                "official_name": "Punkt Przedszkolny w Ru\u017cu",
                "name": "Punkt Przedszkolny w Ru\u017cu",
                "addr:postcode": "87-645",
                "addr:place": "Ru\u017ce",
                "addr:housenumber": "5",
                "addr:city:simc": 872450,
                "phone": "+48 542606205",
                "email": "szkola.ruze@gmail.com",
                "website": "http:\/\/www.spruze.aplus.pl",
                "ref:regon": "363931220",
                "operator": "Gmina Zb\u00f3jno",
                "operator:type": "government",
                "amenity": "kindergarten"
            }
        }
    ]
}