{
    "type": "FeatureCollection",
    "features": [
        {
            "id": 82954,
            "type": "Feature",
            "geometry": {
                "type": "Point",
                "coordinates": [
                    19.06033,
                    53.05871
                ]
            },
            "properties": {
                "isced:level": "1;2",
                "ref:rspo": 82954,
                "official_name": "Szko\u0142a Podstawowa w W\u0119giersku im.j\u00f3zefa So\u0142tykiewicza",
                "name": "Szko\u0142a Podstawowa w W\u0119giersku im.j\u00f3zefa So\u0142tykiewicza",
                "addr:country": "PL",
                "addr:postcode": "87-400",
                "addr:place": "W\u0119giersk",
                "addr:housenumber": "95",
                "addr:teryt:simc": 843371,
                "contact:phone": "+48 566838492",
                "contact:email": "sp.wegiersk@wp.pl",
                "contact:website": "http:\/\/sp-wegiersk.edupage.org",
                "ref:regon": "001210975",
                "ref:vatin": "PL8781639160",
                "operator": "Gmina Golub-Dobrzy\u0144",
                "operator:type": "government",
                "amenity": "school"
            }
        },
        {
            "id": 273165,
            "type": "Feature",
            "geometry": {
                "type": "Point",
                "coordinates": [
                    19.06033,
                    53.058679999999995
                ]
            },
            "properties": {
                "ref:rspo": 273165,
                "official_name": "Publiczny Punkt Przedszkolny Zaczarowana Kraina w W\u0119giersku",
                "name": "Publiczny Punkt Przedszkolny Zaczarowana Kraina w W\u0119giersku",
                "addr:country": "PL",
                "addr:postcode": "87-400",
                "addr:place": "W\u0119giersk",
                "addr:housenumber": "95",
                "addr:teryt:simc": 843371,
                "contact:phone": "+48 566838492",
                "ref:regon": "384387300",
                "operator": "Gmina Golub-Dobrzy\u0144",
                "operator:type": "government",
                "amenity": "kindergarten"
            }
        },
        {
            "id": 262623,
            "type": "Feature",
            "geometry": {
                "type": "Point",
                "coordinates": [
                    19.03602,
                    53.06093
                ]
            },
            "properties": {
                "ref:rspo": 262623,
                "official_name": "Zesp\u00f3\u0142 Szkolno-Przedszkolny w Nowogrodzie",
                "name": "Zesp\u00f3\u0142 Szkolno-Przedszkolny w Nowogrodzie",
                "addr:country": "PL",
                "addr:postcode": "87-400",
                "addr:place": "Nowogr\u00f3d",
                "addr:housenumber": "32",
                "addr:teryt:simc": 843081,
                "contact:phone": "+48 566838422",
                "contact:email": "nowoszkol@wp.pl",
                "contact:website": "http:\/\/nowoszkol.edupage.org",
                "ref:regon": "368041979",
                "operator": "Gmina Golub-Dobrzy\u0144",
                "operator:type": "government",
                "landuse": "education",
                "fixme": "amenity=school, amenity=college albo landuse=education w zale\u017cno\u015bci od tego, jakie plac\u00f3wki wchodz\u0105 w sk\u0142ad zespo\u0142u. Sprawd\u017a, kiedy stosowa\u0107 amenity=* a kiedy landuse=education.",
                "note": "Children RSPO: 82948;262625"
            }
        },
        {
            "id": 82948,
            "type": "Feature",
            "geometry": {
                "type": "Point",
                "coordinates": [
                    19.03602,
                    53.0609
                ]
            },
            "properties": {
                "isced:level": "1;2",
                "ref:rspo": 82948,
                "official_name": "Szko\u0142a Podstawowa w Nowogrodzie",
                "name": "Szko\u0142a Podstawowa w Nowogrodzie",
                "addr:country": "PL",
                "addr:postcode": "87-400",
                "addr:place": "Nowogr\u00f3d",
                "addr:housenumber": "32",
                "addr:teryt:simc": 843081,
                "contact:phone": "+48 566838422",
                "contact:email": "nowoszkol@wp.pl",
                "contact:website": "http:\/\/nowoszkol.edupage.org",
                "ref:regon": "001210981",
                "ref:vatin": "PL8781639131",
                "operator": "Gmina Golub-Dobrzy\u0144",
                "operator:type": "government",
                "amenity": "school",
                "note": "Parent RSPO: 262623"
            }
        },
        {
            "id": 262625,
            "type": "Feature",
            "geometry": {
                "type": "Point",
                "coordinates": [
                    19.03602,
                    53.06087
                ]
            },
            "properties": {
                "ref:rspo": 262625,
                "official_name": "Gminne Przedszkole w Nowogrodzie",
                "name": "Gminne Przedszkole w Nowogrodzie",
                "addr:country": "PL",
                "addr:postcode": "87-400",
                "addr:place": "Nowogr\u00f3d",
                "addr:housenumber": "32",
                "addr:teryt:simc": 843081,
                "contact:phone": "+48 566838422",
                "contact:email": "nowoszkol@wp.pl",
                "ref:regon": "368042039",
                "operator": "Gmina Golub-Dobrzy\u0144",
                "operator:type": "government",
                "amenity": "kindergarten",
                "note": "Parent RSPO: 262623"
            }
        },
        {
            "id": 82413,
            "type": "Feature",
            "geometry": {
                "type": "Point",
                "coordinates": [
                    19.0612,
                    53.13685
                ]
            },
            "properties": {
                "isced:level": "1;2",
                "ref:rspo": 82413,
                "official_name": "Szko\u0142a Podstawowa w Lisewie",
                "name": "Szko\u0142a Podstawowa w Lisewie",
                "addr:country": "PL",
                "addr:postcode": "87-400",
                "addr:place": "Lisewo",
                "addr:housenumber": "36",
                "addr:teryt:simc": 842934,
                "contact:phone": "+48 566839158",
                "contact:email": "lisewosp@wp.pl",
                "contact:website": "http:\/\/www.lisewo.szkolnastrona.pl",
                "ref:regon": "001210930",
                "ref:vatin": "PL8781639125",
                "operator": "Gmina Golub-Dobrzy\u0144",
                "operator:type": "government",
                "amenity": "school"
            }
        },
        {
            "id": 273164,
            "type": "Feature",
            "geometry": {
                "type": "Point",
                "coordinates": [
                    19.0612,
                    53.13682
                ]
            },
            "properties": {
                "ref:rspo": 273164,
                "official_name": "Publiczny Punkt Przedszkolny Ma\u0142y Odkrywca w Lisewie",
                "name": "Publiczny Punkt Przedszkolny Ma\u0142y Odkrywca w Lisewie",
                "addr:country": "PL",
                "addr:postcode": "87-400",
                "addr:place": "Lisewo",
                "addr:housenumber": "36",
                "addr:teryt:simc": 842934,
                "contact:phone": "+48 566839158",
                "ref:regon": "384387180",
                "operator": "Gmina Golub-Dobrzy\u0144",
                "operator:type": "government",
                "amenity": "kindergarten"
            }
        },
        {
            "id": 123758,
            "type": "Feature",
            "geometry": {
                "type": "Point",
                "coordinates": [
                    18.9773299,
                    53.14226
                ]
            },
            "properties": {
                "ref:rspo": 123758,
                "official_name": "Zesp\u00f3\u0142 Szkolno-Przedszkolny w Ostrowitem",
                "name": "Zesp\u00f3\u0142 Szkolno-Przedszkolny w Ostrowitem",
                "addr:country": "PL",
                "addr:postcode": "87-400",
                "addr:place": "Ostrowite",
                "addr:housenumber": "42",
                "addr:teryt:simc": 843129,
                "contact:phone": "+48 566836227",
                "contact:email": "spostrowite@wp.pl",
                "ref:regon": "341606916",
                "operator": "Gmina Golub-Dobrzy\u0144",
                "operator:type": "government",
                "landuse": "education",
                "fixme": "amenity=school, amenity=college albo landuse=education w zale\u017cno\u015bci od tego, jakie plac\u00f3wki wchodz\u0105 w sk\u0142ad zespo\u0142u. Sprawd\u017a, kiedy stosowa\u0107 amenity=* a kiedy landuse=education.",
                "note": "Children RSPO: 82436;82951"
            }
        },
        {
            "id": 82951,
            "type": "Feature",
            "geometry": {
                "type": "Point",
                "coordinates": [
                    18.9773299,
                    53.14223
                ]
            },
            "properties": {
                "isced:level": "1;2",
                "ref:rspo": 82951,
                "official_name": "Szko\u0142a Podstawowa w Ostrowitem im.tadeusza J\u0119dryczki",
                "name": "Szko\u0142a Podstawowa w Ostrowitem im.tadeusza J\u0119dryczki",
                "addr:country": "PL",
                "addr:postcode": "87-400",
                "addr:place": "Ostrowite",
                "addr:housenumber": "42",
                "addr:teryt:simc": 843129,
                "contact:phone": "+48 566836227",
                "contact:email": "spostrowite@wp.pl",
                "ref:regon": "001210952",
                "ref:vatin": "PL8781639148",
                "operator": "Gmina Golub-Dobrzy\u0144",
                "operator:type": "government",
                "amenity": "school",
                "note": "Parent RSPO: 123758"
            }
        },
        {
            "id": 82436,
            "type": "Feature",
            "geometry": {
                "type": "Point",
                "coordinates": [
                    18.9741,
                    53.14517
                ]
            },
            "properties": {
                "ref:rspo": 82436,
                "official_name": "Gminne Przedszkole",
                "name": "Gminne Przedszkole",
                "addr:country": "PL",
                "addr:postcode": "87-400",
                "addr:place": "Ostrowite",
                "addr:housenumber": "45",
                "addr:teryt:simc": 843129,
                "contact:phone": "+48 566836297",
                "contact:email": "gpostrowite.wp.pl@wp.pl",
                "ref:regon": "341352500",
                "ref:vatin": "PL8781639088",
                "operator": "Gmina Golub-Dobrzy\u0144",
                "operator:type": "government",
                "amenity": "kindergarten",
                "note": "Parent RSPO: 123758"
            }
        },
        {
            "id": 262612,
            "type": "Feature",
            "geometry": {
                "type": "Point",
                "coordinates": [
                    19.0557899,
                    53.15852
                ]
            },
            "properties": {
                "ref:rspo": 262612,
                "official_name": "Zesp\u00f3\u0142 Szkolno-Przedszkolny w Ga\u0142czewie",
                "name": "Zesp\u00f3\u0142 Szkolno-Przedszkolny w Ga\u0142czewie",
                "addr:country": "PL",
                "addr:postcode": "87-400",
                "addr:place": "Ga\u0142czewo",
                "addr:housenumber": "7",
                "addr:teryt:simc": 842905,
                "contact:phone": "+48 566836400",
                "contact:email": "spgalczewo@op.pl",
                "ref:regon": "368041940",
                "operator": "Gmina Golub-Dobrzy\u0144",
                "operator:type": "government",
                "landuse": "education",
                "fixme": "amenity=school, amenity=college albo landuse=education w zale\u017cno\u015bci od tego, jakie plac\u00f3wki wchodz\u0105 w sk\u0142ad zespo\u0142u. Sprawd\u017a, kiedy stosowa\u0107 amenity=* a kiedy landuse=education.",
                "note": "Children RSPO: 196369;262609"
            }
        },
        {
            "id": 263529,
            "type": "Feature",
            "geometry": {
                "type": "Point",
                "coordinates": [
                    19.0557899,
                    53.15849
                ]
            },
            "properties": {
                "ref:rspo": 263529,
                "official_name": "Niepubliczne Przedszkole Tearapeutyczne \"Ada\u015b\"",
                "name": "Niepubliczne Przedszkole Tearapeutyczne \"Ada\u015b\"",
                "addr:country": "PL",
                "addr:postcode": "87-400",
                "addr:place": "Ga\u0142czewo",
                "addr:housenumber": "7",
                "addr:teryt:simc": 842905,
                "contact:email": "przedszkolegd@wp.pl",
                "ref:regon": "368198356",
                "operator": "Fundacja Rozwoju Os\u00f3b Niepe\u0142nosprawnych \"Pomagam\"",
                "operator:type": "ngo",
                "amenity": "kindergarten"
            }
        },
        {
            "id": 196369,
            "type": "Feature",
            "geometry": {
                "type": "Point",
                "coordinates": [
                    19.0557899,
                    53.158460000000005
                ]
            },
            "properties": {
                "isced:level": "1;2",
                "ref:rspo": 196369,
                "official_name": "Szko\u0142a Podstawowa w Ga \u0141czewie im.miko\u0142aja Kopernika",
                "name": "Szko\u0142a Podstawowa w Ga \u0141czewie im.miko\u0142aja Kopernika",
                "addr:country": "PL",
                "addr:postcode": "87-400",
                "addr:place": "Ga\u0142czewo",
                "addr:housenumber": "7",
                "addr:teryt:simc": 842905,
                "contact:phone": "+48 566836400",
                "ref:regon": "367993382",
                "operator": "Gmina Golub-Dobrzy\u0144",
                "operator:type": "government",
                "amenity": "school",
                "note": "Parent RSPO: 262612"
            }
        },
        {
            "id": 262609,
            "type": "Feature",
            "geometry": {
                "type": "Point",
                "coordinates": [
                    19.0557899,
                    53.15843
                ]
            },
            "properties": {
                "ref:rspo": 262609,
                "official_name": "Gminne Przedszkole w Ga\u0142czewie",
                "name": "Gminne Przedszkole w Ga\u0142czewie",
                "addr:country": "PL",
                "addr:postcode": "87-400",
                "addr:place": "Ga\u0142czewo",
                "addr:housenumber": "7",
                "addr:teryt:simc": 842905,
                "contact:phone": "+48 566836400",
                "contact:email": "gimnazjumgalczewo@op.pl",
                "ref:regon": "368041815",
                "operator": "Gmina Golub-Dobrzy\u0144",
                "operator:type": "government",
                "amenity": "kindergarten",
                "note": "Parent RSPO: 262612"
            }
        },
        {
            "id": 128034,
            "type": "Feature",
            "geometry": {
                "type": "Point",
                "coordinates": [
                    19.17227,
                    53.20943
                ]
            },
            "properties": {
                "ref:rspo": 128034,
                "official_name": "Gminne Przedszkole we Wrockach",
                "name": "Gminne Przedszkole we Wrockach",
                "addr:country": "PL",
                "addr:postcode": "87-400",
                "addr:place": "Wrocki",
                "addr:housenumber": "85",
                "addr:teryt:simc": 843388,
                "contact:phone": "+48 566836912",
                "ref:regon": "362066493",
                "operator": "Gmina Golub-Dobrzy\u0144",
                "operator:type": "government",
                "amenity": "kindergarten",
                "note": "Parent RSPO: 128035"
            }
        },
        {
            "id": 128035,
            "type": "Feature",
            "geometry": {
                "type": "Point",
                "coordinates": [
                    19.17298,
                    53.21436
                ]
            },
            "properties": {
                "ref:rspo": 128035,
                "official_name": "Zesp\u00f3\u0142 Szkolno-Przedszkolny we Wrockach",
                "name": "Zesp\u00f3\u0142 Szkolno-Przedszkolny we Wrockach",
                "addr:country": "PL",
                "addr:postcode": "87-400",
                "addr:place": "Wrocki",
                "addr:housenumber": "14",
                "addr:teryt:simc": 843388,
                "contact:phone": "+48 566836912",
                "contact:email": "spwrocki@wp.pl",
                "ref:regon": "362066375",
                "operator": "Gmina Golub-Dobrzy\u0144",
                "operator:type": "government",
                "landuse": "education",
                "fixme": "amenity=school, amenity=college albo landuse=education w zale\u017cno\u015bci od tego, jakie plac\u00f3wki wchodz\u0105 w sk\u0142ad zespo\u0142u. Sprawd\u017a, kiedy stosowa\u0107 amenity=* a kiedy landuse=education.",
                "note": "Children RSPO: 82955;128034"
            }
        },
        {
            "id": 82955,
            "type": "Feature",
            "geometry": {
                "type": "Point",
                "coordinates": [
                    19.17298,
                    53.21433
                ]
            },
            "properties": {
                "isced:level": "1;2",
                "ref:rspo": 82955,
                "official_name": "Szko\u0142a Podstawowa we Wrockach",
                "name": "Szko\u0142a Podstawowa we Wrockach",
                "addr:country": "PL",
                "addr:postcode": "87-400",
                "addr:place": "Wrocki",
                "addr:housenumber": "14",
                "addr:teryt:simc": 843388,
                "contact:phone": "+48 566836912",
                "contact:email": "spwrocki@wp.pl",
                "ref:regon": "001210998",
                "ref:vatin": "PL8781639177",
                "operator": "Gmina Golub-Dobrzy\u0144",
                "operator:type": "government",
                "amenity": "school",
                "note": "Parent RSPO: 128035"
            }
        }
    ]
}