{
    "type": "FeatureCollection",
    "features": [
        {
            "id": 68022,
            "type": "Feature",
            "geometry": {
                "type": "Point",
                "coordinates": [
                    17.43898,
                    52.31102
                ]
            },
            "properties": {
                "ref:rspo": 68022,
                "official_name": "Zesp\u00f3\u0142 Szk\u00f3\u0142 w Targowej G\u00f3rce",
                "name": "Zesp\u00f3\u0142 Szk\u00f3\u0142 w Targowej G\u00f3rce",
                "addr:country": "PL",
                "addr:postcode": "62-330",
                "addr:city": "Targowa G\u00f3rka",
                "addr:street": "Karola Kar\u015bnickiego",
                "addr:housenumber": "2",
                "addr:teryt:simc": 8119,
                "addr:teryt:sym_ul": 590390,
                "contact:phone": "+48 614386686",
                "contact:email": "sptargowagorka@gminanekla.pl",
                "contact:website": "http:\/\/www.zstargowagorka.nekla.eu",
                "ref:regon": "634506272",
                "ref:vatin": "PL7891600537",
                "operator": "Gmina Nekla",
                "operator:type": "government",
                "landuse": "education",
                "fixme": "amenity=school, amenity=college albo landuse=education w zale\u017cno\u015bci od tego, jakie plac\u00f3wki wchodz\u0105 w sk\u0142ad zespo\u0142u. Sprawd\u017a, kiedy stosowa\u0107 amenity=* a kiedy landuse=education.",
                "note": "Children RSPO: 84506;84507"
            }
        },
        {
            "id": 84506,
            "type": "Feature",
            "geometry": {
                "type": "Point",
                "coordinates": [
                    17.43898,
                    52.31099
                ]
            },
            "properties": {
                "ref:rspo": 84506,
                "official_name": "Przedszkole w Targowej G\u00f3rce",
                "name": "Przedszkole w Targowej G\u00f3rce",
                "addr:country": "PL",
                "addr:postcode": "62-330",
                "addr:city": "Targowa G\u00f3rka",
                "addr:street": "Karola Kar\u015bnickiego",
                "addr:housenumber": "2",
                "addr:teryt:simc": 8119,
                "addr:teryt:sym_ul": 590390,
                "contact:phone": "+48 614386686",
                "contact:email": "sptargowagorka@wp.pl",
                "contact:website": "http:\/\/www.zstargowagorka.nekla.eu",
                "ref:regon": "300109957",
                "operator": "Gmina Nekla",
                "operator:type": "government",
                "amenity": "kindergarten",
                "note": "Parent RSPO: 68022"
            }
        },
        {
            "id": 84507,
            "type": "Feature",
            "geometry": {
                "type": "Point",
                "coordinates": [
                    17.43898,
                    52.31096
                ]
            },
            "properties": {
                "isced:level": "1;2",
                "ref:rspo": 84507,
                "official_name": "Szko\u0142a Podstawowa im. Gen. A. A. Kosi\u0144skiego w Targowej G\u00f3rce",
                "name": "Szko\u0142a Podstawowa",
                "addr:country": "PL",
                "addr:postcode": "62-330",
                "addr:city": "Targowa G\u00f3rka",
                "addr:street": "Karola Kar\u015bnickiego",
                "addr:housenumber": "2",
                "addr:teryt:simc": 8119,
                "addr:teryt:sym_ul": 590390,
                "contact:phone": "+48 614386686",
                "contact:email": "sptargowagorka@gminanekla.pl",
                "contact:website": "http:\/\/www.zstargowagorka.nekla.eu",
                "ref:regon": "001227237",
                "ref:vatin": "PL7891589089",
                "operator": "Gmina Nekla",
                "operator:type": "government",
                "amenity": "school",
                "note": "Parent RSPO: 68022"
            }
        },
        {
            "id": 68179,
            "type": "Feature",
            "geometry": {
                "type": "Point",
                "coordinates": [
                    17.47464,
                    52.34667
                ]
            },
            "properties": {
                "ref:rspo": 68179,
                "official_name": "Zesp\u00f3\u0142 Szk\u00f3\u0142 im. Jana Paw\u0142a II w Zasutowie",
                "name": "Zesp\u00f3\u0142 Szk\u00f3\u0142",
                "addr:country": "PL",
                "addr:postcode": "62-330",
                "addr:city": "Zasutowo",
                "addr:street": "Kwiatowa",
                "addr:housenumber": "5",
                "addr:teryt:simc": 10562,
                "addr:teryt:sym_ul": 590415,
                "contact:phone": "+48 614372921",
                "contact:email": "zszasutowo@gminanekla.pl",
                "contact:website": "http:\/\/sp-zasutowo.edupage.org",
                "ref:regon": "634492096",
                "ref:vatin": "PL7891598504",
                "operator": "Gmina Nekla",
                "operator:type": "government",
                "landuse": "education",
                "fixme": "amenity=school, amenity=college albo landuse=education w zale\u017cno\u015bci od tego, jakie plac\u00f3wki wchodz\u0105 w sk\u0142ad zespo\u0142u. Sprawd\u017a, kiedy stosowa\u0107 amenity=* a kiedy landuse=education.",
                "note": "Children RSPO: 81632;81776"
            }
        },
        {
            "id": 81632,
            "type": "Feature",
            "geometry": {
                "type": "Point",
                "coordinates": [
                    17.47464,
                    52.34664
                ]
            },
            "properties": {
                "ref:rspo": 81632,
                "official_name": "Przedszkole w Zasutowie",
                "name": "Przedszkole w Zasutowie",
                "addr:country": "PL",
                "addr:postcode": "62-330",
                "addr:city": "Zasutowo",
                "addr:street": "Kwiatowa",
                "addr:housenumber": "5",
                "addr:teryt:simc": 10562,
                "addr:teryt:sym_ul": 590415,
                "contact:phone": "+48 614372921",
                "contact:email": "zszasutowo@gminanekla.pl",
                "contact:website": "http:\/\/sp-zasutowo.edupage.org",
                "ref:regon": "300093423",
                "ref:vatin": "PL7891647881",
                "operator": "Gmina Nekla",
                "operator:type": "government",
                "amenity": "kindergarten",
                "note": "Parent RSPO: 68179"
            }
        },
        {
            "id": 81776,
            "type": "Feature",
            "geometry": {
                "type": "Point",
                "coordinates": [
                    17.47464,
                    52.346610000000005
                ]
            },
            "properties": {
                "isced:level": "1;2",
                "ref:rspo": 81776,
                "official_name": "Szko\u0142a Podstawowa im. Jana Paw\u0142a II w Zasutowie",
                "name": "Szko\u0142a Podstawowa",
                "addr:country": "PL",
                "addr:postcode": "62-330",
                "addr:city": "Zasutowo",
                "addr:street": "Kwiatowa",
                "addr:housenumber": "5",
                "addr:teryt:simc": 10562,
                "addr:teryt:sym_ul": 590415,
                "contact:phone": "+48 614372921",
                "contact:email": "zszasutowo@gminanekla.pl",
                "contact:website": "http:\/\/sp-zasutowo.edupage.org.pl",
                "ref:regon": "001227220",
                "ref:vatin": "PL7891589385",
                "operator": "Gmina Nekla",
                "operator:type": "government",
                "amenity": "school",
                "note": "Parent RSPO: 68179"
            }
        },
        {
            "id": 125895,
            "type": "Feature",
            "geometry": {
                "type": "Point",
                "coordinates": [
                    17.4037991,
                    52.3564057
                ]
            },
            "properties": {
                "ref:rspo": 125895,
                "official_name": "Akademia Talent\u00f3w Przedszkole Publiczne w Nekli",
                "name": "Akademia Talent\u00f3w Przedszkole Publiczne w Nekli",
                "addr:country": "PL",
                "addr:postcode": "62-330",
                "addr:city": "Nekla",
                "addr:street": "Irysowa",
                "addr:housenumber": "15",
                "addr:teryt:simc": 6933,
                "addr:teryt:sym_ul": 590310,
                "contact:phone": "+48 888151615",
                "contact:email": "biuro@akademiatalentow.net",
                "contact:website": "http:\/\/www.akademiatalentow.net",
                "ref:regon": "360128304",
                "operator": "Angelika Kurzawa",
                "operator:type": "private",
                "amenity": "kindergarten"
            }
        },
        {
            "id": 124555,
            "type": "Feature",
            "geometry": {
                "type": "Point",
                "coordinates": [
                    17.41616,
                    52.35904
                ]
            },
            "properties": {
                "ref:rspo": 124555,
                "official_name": "Przedszkole Publiczne ,,Mali Einsteini\"",
                "name": "Przedszkole Publiczne ,,Mali Einsteini\"",
                "addr:country": "PL",
                "addr:postcode": "62-330",
                "addr:city": "Nekla",
                "addr:street": "Wierzbowa",
                "addr:housenumber": "17",
                "addr:teryt:simc": 24170,
                "addr:teryt:sym_ul": 590310,
                "contact:phone": "+48 616792959",
                "contact:email": "przedszkole@malieinsteini.com.pl",
                "contact:website": "http:\/\/www.malieinsteini.com.pl",
                "ref:regon": "302813241",
                "ref:vatin": "PL7891752170",
                "operator": "Govern Sp\u00f3\u0142ka Z Ograniczon\u0105 Odpowiedzialno\u015bci\u0105",
                "operator:type": "private",
                "amenity": "kindergarten"
            }
        },
        {
            "id": 81524,
            "type": "Feature",
            "geometry": {
                "type": "Point",
                "coordinates": [
                    17.40711,
                    52.3645
                ]
            },
            "properties": {
                "ref:rspo": 81524,
                "official_name": "Zesp\u00f3\u0142 Szk\u00f3\u0142 w Nekli",
                "name": "Zesp\u00f3\u0142 Szk\u00f3\u0142 w Nekli",
                "addr:country": "PL",
                "addr:postcode": "62-330",
                "addr:city": "Nekla",
                "addr:street": "Klemensa Szczepa\u0144skiego",
                "addr:housenumber": "7",
                "addr:teryt:simc": 21826,
                "addr:teryt:sym_ul": 590310,
                "contact:phone": "+48 614373521",
                "contact:email": "zespolneklasp@wp.pl",
                "contact:website": "http:\/\/www.szkola.nekla.pl",
                "ref:regon": "634173126",
                "ref:vatin": "PL7891694047",
                "operator": "Gmina Nekla",
                "operator:type": "government",
                "landuse": "education",
                "fixme": "amenity=school, amenity=college albo landuse=education w zale\u017cno\u015bci od tego, jakie plac\u00f3wki wchodz\u0105 w sk\u0142ad zespo\u0142u. Sprawd\u017a, kiedy stosowa\u0107 amenity=* a kiedy landuse=education.",
                "note": "Children RSPO: 62399;86727;111510"
            }
        },
        {
            "id": 86727,
            "type": "Feature",
            "geometry": {
                "type": "Point",
                "coordinates": [
                    17.40711,
                    52.36447
                ]
            },
            "properties": {
                "isced:level": "1;2",
                "ref:rspo": 86727,
                "official_name": "Szko\u0142a Podstawowa im. Marii Konopnickiej w Nekli",
                "name": "Szko\u0142a Podstawowa",
                "addr:country": "PL",
                "addr:postcode": "62-330",
                "addr:city": "Nekla",
                "addr:street": "Klemensa Szczepa\u0144skiego",
                "addr:housenumber": "7",
                "addr:teryt:simc": 21826,
                "addr:teryt:sym_ul": 590310,
                "contact:phone": "+48 614373521",
                "contact:email": "zespolneklasp@wp.pl",
                "contact:website": "http:\/\/www.szkola.nekla.pl",
                "ref:regon": "000268234",
                "ref:vatin": "PL7891589801",
                "operator": "Gmina Nekla",
                "operator:type": "government",
                "amenity": "school",
                "note": "Parent RSPO: 81524"
            }
        },
        {
            "id": 62399,
            "type": "Feature",
            "geometry": {
                "type": "Point",
                "coordinates": [
                    17.40926,
                    52.36737
                ]
            },
            "properties": {
                "ref:rspo": 62399,
                "official_name": "Przedszkole \"Mi\u015b Uszatek\"",
                "name": "Przedszkole \"Mi\u015b Uszatek\"",
                "addr:country": "PL",
                "addr:postcode": "62-330",
                "addr:city": "Nekla",
                "addr:street": "Pozna\u0144ska",
                "addr:housenumber": "25",
                "addr:teryt:simc": 17394,
                "addr:teryt:sym_ul": 590310,
                "contact:phone": "+48 614386087",
                "contact:email": "muszatek11@wp.pl",
                "contact:website": "http:\/\/www.szkola.nekla.eu",
                "ref:regon": "632052832",
                "ref:vatin": "PL7891665703",
                "operator": "Gmina Nekla",
                "operator:type": "government",
                "amenity": "kindergarten",
                "note": "Parent RSPO: 81524"
            }
        },
        {
            "id": 111510,
            "type": "Feature",
            "geometry": {
                "type": "Point",
                "coordinates": [
                    17.37271,
                    52.40143
                ]
            },
            "properties": {
                "ref:rspo": 111510,
                "official_name": "Szkolne Schronisko M\u0142odzie\u017cowe w Nekielce",
                "name": "Szkolne Schronisko M\u0142odzie\u017cowe w Nekielce",
                "addr:country": "PL",
                "addr:postcode": "62-330",
                "addr:city": "Nekielka",
                "addr:street": "Wilcza",
                "addr:housenumber": "9",
                "addr:teryt:simc": 24261,
                "addr:teryt:sym_ul": 590272,
                "contact:phone": "+48 614386087",
                "contact:email": "zespolneklasp@wp.pl",
                "contact:website": "http:\/\/www.gimnazjum.nekla.pl",
                "ref:regon": "300727320",
                "operator": "Gmina Nekla",
                "operator:type": "government",
                "tourism": "hostel",
                "note": "Parent RSPO: 81524"
            }
        }
    ]
}