{
    "type": "FeatureCollection",
    "features": [
        {
            "id": 31266,
            "type": "Feature",
            "geometry": {
                "type": "Point",
                "coordinates": [
                    17.47998,
                    52.12509
                ]
            },
            "properties": {
                "isced:level": "1;2",
                "ref:rspo": 31266,
                "official_name": "Szko\u0142a Podstawowa im. Jana Paw\u0142a II w Orzechowie",
                "name": "Szko\u0142a Podstawowa",
                "addr:country": "PL",
                "addr:postcode": "62-322",
                "addr:city": "Orzechowo",
                "addr:street": "Szkolna",
                "addr:housenumber": "18",
                "addr:teryt:simc": 21970,
                "addr:teryt:sym_ul": 589346,
                "contact:phone": "+48 614371089",
                "contact:email": "zsorzechowo@poczta.idsl.pl",
                "contact:website": "http:\/\/gimnazjumorzechowo.edupage.org",
                "ref:regon": "634237062",
                "ref:vatin": "PL7891590626",
                "operator": "Gmina Mi\u0142os\u0142aw",
                "operator:type": "government",
                "amenity": "school"
            }
        },
        {
            "id": 19399,
            "type": "Feature",
            "geometry": {
                "type": "Point",
                "coordinates": [
                    17.48032,
                    52.13198
                ]
            },
            "properties": {
                "ref:rspo": 19399,
                "official_name": "Przedszkole Bajkowy \u015awiat w Orzechowie",
                "name": "Przedszkole Bajkowy \u015awiat w Orzechowie",
                "addr:country": "PL",
                "addr:postcode": "62-322",
                "addr:city": "Orzechowo",
                "addr:street": "Mi\u0142os\u0142awska",
                "addr:housenumber": "48",
                "addr:teryt:simc": 12959,
                "addr:teryt:sym_ul": 589346,
                "contact:phone": "+48 614371253",
                "contact:email": "bajkowyswiat1@wp.pl",
                "ref:regon": "632055977",
                "ref:vatin": "PL7891590678",
                "operator": "Gmina Mi\u0142os\u0142aw",
                "operator:type": "government",
                "amenity": "kindergarten"
            }
        },
        {
            "id": 19394,
            "type": "Feature",
            "geometry": {
                "type": "Point",
                "coordinates": [
                    17.5107399,
                    52.14471
                ]
            },
            "properties": {
                "isced:level": "1;2",
                "ref:rspo": 19394,
                "official_name": "Szko\u0142a Podstawowa im. Jana Bogumi\u0142a Soko\u0142owskiego w Czeszewie",
                "name": "Szko\u0142a Podstawowa",
                "addr:country": "PL",
                "addr:postcode": "62-322",
                "addr:city": "Czeszewo",
                "addr:street": "Szkolna",
                "addr:housenumber": "27",
                "addr:teryt:simc": 21970,
                "addr:teryt:sym_ul": 589205,
                "contact:phone": "+48 614383148",
                "contact:email": "czeszewo1@gazeta.pl",
                "contact:website": "https:\/\/spczeszewo.szkolna.net",
                "ref:regon": "001226060",
                "ref:vatin": "PL7891590603",
                "operator": "Gmina Mi\u0142os\u0142aw",
                "operator:type": "government",
                "amenity": "school"
            }
        },
        {
            "id": 123762,
            "type": "Feature",
            "geometry": {
                "type": "Point",
                "coordinates": [
                    17.4869569,
                    52.1932194
                ]
            },
            "properties": {
                "ref:rspo": 123762,
                "official_name": "Przedszkole Publiczne \"Bonifacy\"",
                "name": "Przedszkole Publiczne \"Bonifacy\"",
                "addr:country": "PL",
                "addr:postcode": "62-320",
                "addr:place": "Bagatelka",
                "addr:housenumber": "4",
                "addr:teryt:sym_ul": 589122,
                "contact:phone": "+48 780165094",
                "contact:email": "dyrektor@przedszkolebonifacy.pl",
                "contact:website": "http:\/\/www.przedszkolebonifacy.pl",
                "ref:regon": "302785444",
                "operator": "Daria G\u0142owacka - Jankowiak",
                "operator:type": "private",
                "amenity": "kindergarten"
            }
        },
        {
            "id": 272070,
            "type": "Feature",
            "geometry": {
                "type": "Point",
                "coordinates": [
                    17.49279,
                    52.19674
                ]
            },
            "properties": {
                "ref:rspo": 272070,
                "official_name": "Zesp\u00f3\u0142 Szkolno-Przedszkolny w Mi\u0142os\u0142awiu",
                "name": "Zesp\u00f3\u0142 Szkolno-Przedszkolny w Mi\u0142os\u0142awiu",
                "addr:country": "PL",
                "addr:postcode": "62-320",
                "addr:place": "Bugaj",
                "addr:housenumber": "7",
                "addr:teryt:sym_ul": 589116,
                "contact:phone": "+48 614382182",
                "contact:email": "podstawowka@wp.pl",
                "ref:regon": "383906465",
                "ref:vatin": "PL7891788914",
                "operator": "Gmina Mi\u0142os\u0142aw",
                "operator:type": "government",
                "landuse": "education",
                "fixme": "amenity=school, amenity=college albo landuse=education w zale\u017cno\u015bci od tego, jakie plac\u00f3wki wchodz\u0105 w sk\u0142ad zespo\u0142u. Sprawd\u017a, kiedy stosowa\u0107 amenity=* a kiedy landuse=education.",
                "note": "Children RSPO: 19396;19398"
            }
        },
        {
            "id": 19396,
            "type": "Feature",
            "geometry": {
                "type": "Point",
                "coordinates": [
                    17.49279,
                    52.196709999999996
                ]
            },
            "properties": {
                "isced:level": "1;2",
                "ref:rspo": 19396,
                "official_name": "Szko\u0142a Podstawowa im. Wiosny Lud\u00f3w w Mi\u0142os\u0142awiu",
                "name": "Szko\u0142a Podstawowa",
                "addr:country": "PL",
                "addr:postcode": "62-320",
                "addr:place": "Bugaj",
                "addr:housenumber": "7",
                "addr:teryt:sym_ul": 589116,
                "contact:phone": "+48 614383125",
                "contact:email": "podstawowka@wp.pl",
                "contact:website": "http:\/\/www.miloslaw.szkola.pl",
                "ref:regon": "000235683",
                "ref:vatin": "PL7891590595",
                "operator": "Gmina Mi\u0142os\u0142aw",
                "operator:type": "government",
                "amenity": "school",
                "note": "Parent RSPO: 272070"
            }
        },
        {
            "id": 118934,
            "type": "Feature",
            "geometry": {
                "type": "Point",
                "coordinates": [
                    17.48767,
                    52.19976
                ]
            },
            "properties": {
                "ref:rspo": 118934,
                "official_name": "Niepubliczne Przedszkole \"Smerfy\"",
                "name": "Niepubliczne Przedszkole \"Smerfy\"",
                "addr:country": "PL",
                "addr:postcode": "62-320",
                "addr:city": "Mi\u0142os\u0142aw",
                "addr:street": "Pozna\u0144ska",
                "addr:housenumber": "1A",
                "addr:teryt:simc": 17394,
                "addr:teryt:sym_ul": 971034,
                "contact:phone": "+48 664024091",
                "contact:email": "nppsmerfy@wp.pl",
                "ref:regon": "302506421",
                "ref:vatin": "PL6172112099",
                "operator": "Maria Matuszak",
                "operator:type": "private",
                "amenity": "kindergarten"
            }
        },
        {
            "id": 19398,
            "type": "Feature",
            "geometry": {
                "type": "Point",
                "coordinates": [
                    17.48142,
                    52.20487
                ]
            },
            "properties": {
                "ref:rspo": 19398,
                "official_name": "Przedszkole Kosza\u0142ek Opa\u0142ek w Mi\u0142os\u0142awiu",
                "name": "Przedszkole Kosza\u0142ek Opa\u0142ek w Mi\u0142os\u0142awiu",
                "addr:country": "PL",
                "addr:postcode": "62-320",
                "addr:city": "Mi\u0142os\u0142aw",
                "addr:street": "\u0141\u0105kowa",
                "addr:housenumber": "31",
                "addr:teryt:simc": 11596,
                "addr:teryt:sym_ul": 971034,
                "contact:phone": "+48 614382143",
                "contact:email": "przedszkoleko@interia.pl",
                "contact:website": "http:\/\/www.przedszkole.miloslaw.prv.pl",
                "ref:regon": "632055983",
                "ref:vatin": "PL7891590661",
                "operator": "Gmina Mi\u0142os\u0142aw",
                "operator:type": "government",
                "amenity": "kindergarten",
                "note": "Parent RSPO: 272070"
            }
        },
        {
            "id": 123058,
            "type": "Feature",
            "geometry": {
                "type": "Point",
                "coordinates": [
                    17.591516494751,
                    52.252048492432
                ]
            },
            "properties": {
                "ref:rspo": 123058,
                "official_name": "O\u015brodek Kszta\u0142cenia I Podnoszenia Kwalifikacji \"Stra\u017cak\"",
                "name": "O\u015brodek Kszta\u0142cenia I Podnoszenia Kwalifikacji \"Stra\u017cak\"",
                "addr:country": "PL",
                "addr:postcode": "62-322",
                "addr:place": "Czeszewo",
                "addr:housenumber": "3",
                "addr:teryt:sym_ul": 589205,
                "contact:phone": "+48 603968998",
                "contact:email": "oskstrazak@wp.pl",
                "ref:regon": "302727346",
                "operator": "Tomasz Dolata",
                "operator:type": "private",
                "fixme": "w zale\u017cno\u015bci od przedmiotu dzia\u0142alno\u015bci (np. amenity=training + training=*, amenity=dancing_school, amenity=language_school, amenity=music_school) albo amenity=school, amenity=college, albo landuse=education w zale\u017cno\u015bci od tego, jakie plac\u00f3wki wchodz\u0105 w sk\u0142ad zespo\u0142u. Sprawd\u017a, kiedy stosowa\u0107 amenity=* a kiedy landuse=education."
            }
        }
    ]
}