{
    "type": "FeatureCollection",
    "features": [
        {
            "id": 123808,
            "type": "Feature",
            "geometry": {
                "type": "Point",
                "coordinates": [
                    17.62793,
                    52.18641
                ]
            },
            "properties": {
                "ref:rspo": 123808,
                "official_name": "Niepubliczne Przedszkole \"Bajeczny Zak\u0105tek\" we Wszemborzu",
                "name": "Niepubliczne Przedszkole \"Bajeczny Zak\u0105tek\" we Wszemborzu",
                "addr:country": "PL",
                "addr:postcode": "62-306",
                "addr:place": "Wszemb\u00f3rz",
                "addr:housenumber": "74",
                "addr:teryt:simc": 585762,
                "contact:phone": "+48 730801158",
                "contact:email": "rodizcedzieciom.ssp@wp.pl",
                "ref:regon": "302788253",
                "operator": "Stowarzyszenie \"Rodzice Dzieciom\"",
                "operator:type": "ngo",
                "amenity": "kindergarten"
            }
        },
        {
            "id": 123807,
            "type": "Feature",
            "geometry": {
                "type": "Point",
                "coordinates": [
                    17.62731,
                    52.18675
                ]
            },
            "properties": {
                "isced:level": "1;2",
                "ref:rspo": 123807,
                "official_name": "Spo\u0142eczna Szko\u0142a Podstawowa we Wszemborzu",
                "name": "Spo\u0142eczna Szko\u0142a Podstawowa we Wszemborzu",
                "addr:country": "PL",
                "addr:postcode": "62-306",
                "addr:place": "Wszemb\u00f3rz",
                "addr:housenumber": "75",
                "addr:teryt:simc": 585762,
                "contact:phone": "+48 730801158",
                "contact:email": "rodzicedzieciom.ssp@wp.pl",
                "ref:regon": "302788230",
                "operator": "Stowarzyszenie \"Rodzice Dzieciom\"",
                "operator:type": "ngo",
                "amenity": "school"
            }
        },
        {
            "id": 268544,
            "type": "Feature",
            "geometry": {
                "type": "Point",
                "coordinates": [
                    17.65595,
                    52.20152
                ]
            },
            "properties": {
                "ref:rspo": 268544,
                "official_name": "Niepubliczne Przedszkole \"Misiowa Chatka\"",
                "name": "Niepubliczne Przedszkole \"Misiowa Chatka\"",
                "addr:country": "PL",
                "addr:postcode": "62-307",
                "addr:city": "Borzykowo",
                "addr:street": "Wrzesi\u0144ska",
                "addr:housenumber": "49",
                "addr:teryt:simc": 585510,
                "addr:teryt:sym_ul": 24851,
                "contact:email": "woniaw@o2.pl",
                "ref:regon": "381200755",
                "operator": "Iwona Jakubowska",
                "operator:type": "private",
                "amenity": "kindergarten"
            }
        },
        {
            "id": 18366,
            "type": "Feature",
            "geometry": {
                "type": "Point",
                "coordinates": [
                    17.63095,
                    52.21661
                ]
            },
            "properties": {
                "ref:rspo": 18366,
                "official_name": "Zesp\u00f3\u0142 Szkolno - Przedszkolny w Ko\u0142aczkowie",
                "name": "Zesp\u00f3\u0142 Szkolno - Przedszkolny w Ko\u0142aczkowie",
                "addr:country": "PL",
                "addr:postcode": "62-306",
                "addr:city": "Ko\u0142aczkowo",
                "addr:street": "Krakowska",
                "addr:housenumber": "1",
                "addr:teryt:simc": 585644,
                "addr:teryt:sym_ul": 9796,
                "contact:phone": "+48 614385315",
                "contact:email": "zspkolaczkowo@op.pl",
                "ref:regon": "634197411",
                "ref:vatin": "PL7891732859",
                "operator": "Gmina Ko\u0142aczkowo",
                "operator:type": "government",
                "landuse": "education",
                "fixme": "amenity=school, amenity=college albo landuse=education w zale\u017cno\u015bci od tego, jakie plac\u00f3wki wchodz\u0105 w sk\u0142ad zespo\u0142u. Sprawd\u017a, kiedy stosowa\u0107 amenity=* a kiedy landuse=education.",
                "note": "Children RSPO: 25692;57068"
            }
        },
        {
            "id": 25692,
            "type": "Feature",
            "geometry": {
                "type": "Point",
                "coordinates": [
                    17.63095,
                    52.21658
                ]
            },
            "properties": {
                "isced:level": "1;2",
                "ref:rspo": 25692,
                "official_name": "Szko\u0142a Podstawowa im. W\u0142adys\u0142awa Stanis\u0142awa Reymonta",
                "name": "Szko\u0142a Podstawowa",
                "addr:country": "PL",
                "addr:postcode": "62-306",
                "addr:city": "Ko\u0142aczkowo",
                "addr:street": "Krakowska",
                "addr:housenumber": "1",
                "addr:teryt:simc": 585644,
                "addr:teryt:sym_ul": 9796,
                "contact:phone": "+48 614385315",
                "contact:email": "zspkolaczkowo@op.pl",
                "ref:regon": "000265632",
                "operator": "Gmina Ko\u0142aczkowo",
                "operator:type": "government",
                "amenity": "school",
                "note": "Parent RSPO: 18366"
            }
        },
        {
            "id": 57068,
            "type": "Feature",
            "geometry": {
                "type": "Point",
                "coordinates": [
                    17.62284,
                    52.21736
                ]
            },
            "properties": {
                "ref:rspo": 57068,
                "official_name": "Przedszkole \"Jarz\u0119binka\" w Ko\u0142aczkowie",
                "name": "Przedszkole \"Jarz\u0119binka\" w Ko\u0142aczkowie",
                "addr:country": "PL",
                "addr:postcode": "62-306",
                "addr:city": "Ko\u0142aczkowo",
                "addr:street": "Plac W\u0142adys\u0142awa Reymonta",
                "addr:housenumber": "4",
                "addr:teryt:simc": 585644,
                "addr:teryt:sym_ul": 38804,
                "contact:phone": "+48 614385322",
                "contact:email": "zspkolaczkowo@op.pl",
                "ref:regon": "632055641",
                "operator": "Gmina Ko\u0142aczkowo",
                "operator:type": "government",
                "amenity": "kindergarten",
                "note": "Parent RSPO: 18366"
            }
        },
        {
            "id": 18259,
            "type": "Feature",
            "geometry": {
                "type": "Point",
                "coordinates": [
                    17.59841,
                    52.23841
                ]
            },
            "properties": {
                "isced:level": "1;2",
                "ref:rspo": 18259,
                "official_name": "Szko\u0142a Podstawowa im. Jana Brzechwy w Grabowie Kr\u00f3lewskim",
                "name": "Szko\u0142a Podstawowa",
                "addr:country": "PL",
                "addr:postcode": "62-306",
                "addr:place": "Grabowo Kr\u00f3lewskie",
                "addr:housenumber": "1",
                "addr:teryt:simc": 585621,
                "contact:phone": "+48 614385253",
                "contact:email": "spgrabowokrol@poczta.onet.pl",
                "ref:regon": "001228113",
                "ref:vatin": "PL7891732428",
                "operator": "Gmina Ko\u0142aczkowo",
                "operator:type": "government",
                "amenity": "school"
            }
        },
        {
            "id": 18273,
            "type": "Feature",
            "geometry": {
                "type": "Point",
                "coordinates": [
                    17.71056,
                    52.25518
                ]
            },
            "properties": {
                "isced:level": "1;2",
                "ref:rspo": 18273,
                "official_name": "Szko\u0142a Podstawowa im. Kr\u00f3lowej Jadwigi w Sokolnikach",
                "name": "Szko\u0142a Podstawowa",
                "addr:country": "PL",
                "addr:postcode": "62-305",
                "addr:city": "Sokolniki",
                "addr:street": "Le\u015bna",
                "addr:housenumber": "1A",
                "addr:teryt:simc": 585680,
                "addr:teryt:sym_ul": 10898,
                "contact:phone": "+48 614385765",
                "contact:email": "sekretariat@spsokolniki.pl",
                "ref:regon": "001228082",
                "ref:vatin": "PL7891732411",
                "operator": "Gmina Ko\u0142aczkowo",
                "operator:type": "government",
                "amenity": "school"
            }
        },
        {
            "id": 18230,
            "type": "Feature",
            "geometry": {
                "type": "Point",
                "coordinates": [
                    17.66787,
                    52.2625699
                ]
            },
            "properties": {
                "isced:level": "1;2",
                "ref:rspo": 18230,
                "official_name": "Szko\u0142a Podstawowa w Bieganowie",
                "name": "Szko\u0142a Podstawowa w Bieganowie",
                "addr:country": "PL",
                "addr:postcode": "62-305",
                "addr:place": "Bieganowo",
                "addr:housenumber": "43",
                "addr:teryt:simc": 585495,
                "contact:phone": "+48 614385977",
                "contact:email": "spbieganowo1@wp.pl",
                "ref:regon": "001228107",
                "ref:vatin": "PL7891732434",
                "operator": "Gmina Ko\u0142aczkowo",
                "operator:type": "government",
                "amenity": "school"
            }
        }
    ]
}