{
    "type": "FeatureCollection",
    "features": [
        {
            "id": 15586,
            "type": "Feature",
            "geometry": {
                "type": "Point",
                "coordinates": [
                    17.689776,
                    52.0859809
                ]
            },
            "properties": {
                "isced:level": "1;2",
                "ref:rspo": 15586,
                "official_name": "Samorz\u0105dowa Szko\u0142a Podstawowa w Lisewie",
                "name": "Samorz\u0105dowa Szko\u0142a Podstawowa w Lisewie",
                "addr:postcode": "62-310",
                "addr:place": "Lisewo",
                "addr:housenumber": "108",
                "addr:teryt:simc": 293025,
                "phone": "+48 632768201",
                "email": "szkola.lisewo@interia.pl",
                "website": "http:\/\/www.ssplisewo.szkolnastrona.pl",
                "ref:regon": "001196614",
                "ref:vatin": "PL7891532391",
                "operator": "Gmina I Miasto Pyzdry",
                "operator:type": "government",
                "amenity": "school"
            }
        },
        {
            "id": 126441,
            "type": "Feature",
            "geometry": {
                "type": "Point",
                "coordinates": [
                    17.689776,
                    52.0859509
                ]
            },
            "properties": {
                "ref:rspo": 126441,
                "official_name": "Punkt Przedszkolny w Lisewie",
                "name": "Punkt Przedszkolny w Lisewie",
                "addr:postcode": "62-310",
                "addr:place": "Lisewo",
                "addr:housenumber": "108",
                "addr:teryt:simc": 293025,
                "phone": "+48 632768201",
                "email": "szkola.lisewo@interia.pl",
                "website": "http:\/\/www.ssplisewo.szkolnastrona.pl",
                "ref:regon": "360318281",
                "operator": "Gmina I Miasto Pyzdry",
                "operator:type": "government",
                "amenity": "kindergarten"
            }
        },
        {
            "id": 15304,
            "type": "Feature",
            "geometry": {
                "type": "Point",
                "coordinates": [
                    17.73937,
                    52.111537
                ]
            },
            "properties": {
                "isced:level": "1;2",
                "ref:rspo": 15304,
                "official_name": "Samorz\u0105dowa Szko\u0142a Podstawowa w G\u00f3rnych Gr\u0105dach",
                "name": "Samorz\u0105dowa Szko\u0142a Podstawowa w G\u00f3rnych Gr\u0105dach",
                "addr:postcode": "62-310",
                "addr:place": "G\u00f3rne Gr\u0105dy",
                "addr:housenumber": "2",
                "addr:teryt:simc": 292988,
                "phone": "+48 632768590",
                "email": "szkola.gg@op.pl",
                "website": "http:\/\/www.spgornegrady-szkolnastrona",
                "ref:regon": "001196643",
                "ref:vatin": "PL7891532416",
                "operator": "Gmina I Miasto Pyzdry",
                "operator:type": "government",
                "amenity": "school"
            }
        },
        {
            "id": 126437,
            "type": "Feature",
            "geometry": {
                "type": "Point",
                "coordinates": [
                    17.73937,
                    52.111506999999996
                ]
            },
            "properties": {
                "ref:rspo": 126437,
                "official_name": "Punkt Przedszkolny w G\u00f3rnych Gr\u0105dach",
                "name": "Punkt Przedszkolny w G\u00f3rnych Gr\u0105dach",
                "addr:postcode": "62-310",
                "addr:place": "G\u00f3rne Gr\u0105dy",
                "addr:housenumber": "2",
                "addr:teryt:simc": 292988,
                "phone": "+48 632768590",
                "email": "szkola.gg@op.pl",
                "ref:regon": "360318097",
                "operator": "Gmina I Miasto Pyzdry",
                "operator:type": "government",
                "amenity": "kindergarten"
            }
        },
        {
            "id": 31570,
            "type": "Feature",
            "geometry": {
                "type": "Point",
                "coordinates": [
                    17.69109,
                    52.16738
                ]
            },
            "properties": {
                "isced:level": "1;2",
                "ref:rspo": 31570,
                "official_name": "Szko\u0142a Podstawowa im.jana Paw\u0142a II w Pyzdrach",
                "name": "Szko\u0142a Podstawowa im.jana Paw\u0142a II w Pyzdrach",
                "addr:postcode": "62-310",
                "addr:city": "Pyzdry",
                "addr:street": "Szkolna",
                "addr:housenumber": "2",
                "addr:teryt:simc": 949164,
                "addr:teryt:sym_ul": 21970,
                "phone": "+48 632768745",
                "email": "szkola@pyzdry.eu",
                "website": "http:\/\/www.zsp.pyzdry.eu",
                "ref:regon": "000238931",
                "ref:vatin": "PL7891532445",
                "operator": "Gmina I Miasto Pyzdry",
                "operator:type": "government",
                "amenity": "school",
                "note": "Children RSPO: 123929"
            }
        },
        {
            "id": 126440,
            "type": "Feature",
            "geometry": {
                "type": "Point",
                "coordinates": [
                    17.69109,
                    52.16735
                ]
            },
            "properties": {
                "ref:rspo": 126440,
                "official_name": "Punkt Przedszkolny we Wr\u0105bczynkowskich Holendrach",
                "name": "Punkt Przedszkolny we Wr\u0105bczynkowskich Holendrach",
                "addr:postcode": "62-310",
                "addr:city": "Pyzdry",
                "addr:street": "Szkolna",
                "addr:housenumber": "2",
                "addr:teryt:simc": 949164,
                "addr:teryt:sym_ul": 21970,
                "phone": "+48 632768745",
                "email": "ssppyzdry@op.home.pl",
                "website": "http:\/\/www.pyzdry.eu",
                "ref:regon": "360318186",
                "operator": "Gmina I Miasto Pyzdry",
                "operator:type": "government",
                "amenity": "kindergarten"
            }
        },
        {
            "id": 123929,
            "type": "Feature",
            "geometry": {
                "type": "Point",
                "coordinates": [
                    17.69109,
                    52.167320000000004
                ]
            },
            "properties": {
                "isced:level": "1;2",
                "ref:rspo": 123929,
                "official_name": "Szko\u0142a Filialna we Wr\u0105bczynkowskich Holendrach",
                "name": "Szko\u0142a Filialna we Wr\u0105bczynkowskich Holendrach",
                "addr:postcode": "62-310",
                "addr:city": "Pyzdry",
                "addr:street": "Szkolna",
                "addr:housenumber": "2",
                "addr:teryt:simc": 949164,
                "addr:teryt:sym_ul": 21970,
                "phone": "+48 632768745",
                "email": "szkola@pyzdry.eu",
                "website": "http:\/\/www.pyzdry.eu",
                "ref:regon": "238931000",
                "ref:vatin": "PL7891532445",
                "operator": "Gmina I Miasto Pyzdry",
                "operator:type": "government",
                "amenity": "school",
                "note": "Parent RSPO: 31570"
            }
        },
        {
            "id": 72069,
            "type": "Feature",
            "geometry": {
                "type": "Point",
                "coordinates": [
                    17.736283,
                    52.1981599
                ]
            },
            "properties": {
                "ref:rspo": 72069,
                "official_name": "Niepubliczne Przedszkole w Pietrzykowie",
                "name": "Niepubliczne Przedszkole w Pietrzykowie",
                "addr:postcode": "62-310",
                "addr:place": "Pietrzyk\u00f3w",
                "addr:housenumber": "49",
                "addr:teryt:simc": 293048,
                "phone": "+48 572353345",
                "email": "stowarzyszenienaszaszkola@interia.pl",
                "ref:regon": "302261824",
                "ref:vatin": "PL7891751029",
                "operator": "Stowarzyszenie Edukacyjno-Kulturalno-Turystyczne \"Nasza Szko\u0142a\"",
                "operator:type": "ngo",
                "amenity": "kindergarten"
            }
        },
        {
            "id": 84296,
            "type": "Feature",
            "geometry": {
                "type": "Point",
                "coordinates": [
                    17.736283,
                    52.1981299
                ]
            },
            "properties": {
                "isced:level": "1;2",
                "ref:rspo": 84296,
                "official_name": "Niepubliczna Szko\u0142a Podstawowa w Pietrzykowie",
                "name": "Niepubliczna Szko\u0142a Podstawowa w Pietrzykowie",
                "addr:postcode": "62-310",
                "addr:place": "Pietrzyk\u00f3w",
                "addr:housenumber": "49",
                "addr:teryt:simc": 293048,
                "phone": "+48 572353345",
                "email": "stowarzyszenienaszaszkola@interia.pl",
                "ref:regon": "302270770",
                "ref:vatin": "PL7891751012",
                "operator": "Stowarzyszenie Edukacyjno-Kulturalno-Turystyczne \"Nasza Szko\u0142a\"",
                "operator:type": "ngo",
                "amenity": "school"
            }
        },
        {
            "id": 124210,
            "type": "Feature",
            "geometry": {
                "type": "Point",
                "coordinates": [
                    17.56521,
                    52.3266599
                ]
            },
            "properties": {
                "ref:rspo": 124210,
                "official_name": "Przedszkole Publiczne \"Bajkowy \u015awiat\" w Pyzdrach",
                "name": "Przedszkole Publiczne \"Bajkowy \u015awiat\" w Pyzdrach",
                "addr:postcode": "62-310",
                "addr:city": "Pyzdry",
                "addr:street": "Jana Paw\u0142a II",
                "addr:housenumber": "10",
                "addr:teryt:simc": 949164,
                "addr:teryt:sym_ul": 7123,
                "phone": "+48 783073461",
                "ref:regon": "302802651",
                "ref:vatin": "PL7891753198",
                "operator": "Natalia Aleksandrov",
                "operator:type": "private",
                "amenity": "kindergarten"
            }
        }
    ]
}