{
    "type": "FeatureCollection",
    "features": [
        {
            "id": 66775,
            "type": "Feature",
            "geometry": {
                "type": "Point",
                "coordinates": [
                    22.64492,
                    52.8387699
                ]
            },
            "properties": {
                "ref:rspo": 66775,
                "official_name": "O\u015brodek Rehabilitacyjno Edukacyjno Wychowawczy \"Przysta\u0144\" w Kostrach Noskach",
                "name": "O\u015brodek Rehabilitacyjno Edukacyjno Wychowawczy \"Przysta\u0144\" w Kostrach Noskach",
                "addr:postcode": "18-212",
                "addr:place": "Kostry-Noski",
                "addr:housenumber": "37",
                "addr:city:simc": 402187,
                "phone": "+48 864765500",
                "email": "orew@spszansa.pl",
                "website": "http:\/\/www.spszansa.pl",
                "ref:regon": "200738975",
                "ref:vatin": "PL6591438405",
                "operator": "Stowarzyszenie Pomocy Szansa",
                "operator:type": "ngo",
                "amenity": "school"
            }
        },
        {
            "id": 265725,
            "type": "Feature",
            "geometry": {
                "type": "Point",
                "coordinates": [
                    22.64492,
                    52.8387399
                ]
            },
            "properties": {
                "ref:rspo": 265725,
                "official_name": "Niepubliczna Szko\u0142a Specjalna Przysposabiaj\u0105ca Do Pracy",
                "name": "Niepubliczna Szko\u0142a Specjalna Przysposabiaj\u0105ca Do Pracy",
                "addr:postcode": "18-212",
                "addr:place": "Kostry-Noski",
                "addr:housenumber": "37",
                "addr:city:simc": 402187,
                "phone": "+48 864765500",
                "email": "orew@spszansa.pl",
                "website": "http:\/\/www.spszansa.pl",
                "ref:regon": "368872350",
                "operator": "Stowarzyszenie Pomocy Szansa",
                "operator:type": "ngo",
                "amenity": "school"
            }
        },
        {
            "id": 10316,
            "type": "Feature",
            "geometry": {
                "type": "Point",
                "coordinates": [
                    22.70497,
                    52.85441
                ]
            },
            "properties": {
                "ref:rspo": 10316,
                "official_name": "Punkt Przedszkolny 'Weso\u0142y Promyk\"",
                "name": "Punkt Przedszkolny 'Weso\u0142y Promyk\"",
                "addr:postcode": "18-212",
                "addr:city": "Nowe Piekuty",
                "addr:street": "G\u0142\u00f3wna",
                "addr:housenumber": "2",
                "addr:city:simc": 402299,
                "addr:street:sym_ul": 5635,
                "phone": "+48 864761608",
                "email": "zsnp@wp.pl",
                "website": "http:\/\/www.szkola.nowepiekuty.pl",
                "ref:regon": "200724660",
                "operator": "Gmina Nowe Piekuty",
                "operator:type": "government",
                "amenity": "kindergarten"
            }
        },
        {
            "id": 13687,
            "type": "Feature",
            "geometry": {
                "type": "Point",
                "coordinates": [
                    22.7056,
                    52.85565
                ]
            },
            "properties": {
                "isced:level": "1;2",
                "ref:rspo": 13687,
                "official_name": "Szko\u0142a Podstawowa Im Ksi\u0119dza Rocha Modzelewskiego w Nowych Piekutach",
                "name": "Szko\u0142a Podstawowa Im Ksi\u0119dza Rocha Modzelewskiego w Nowych Piekutach",
                "addr:postcode": "18-212",
                "addr:city": "Nowe Piekuty",
                "addr:street": "G\u0142\u00f3wna",
                "addr:housenumber": "3",
                "addr:city:simc": 402299,
                "addr:street:sym_ul": 5635,
                "phone": "+48 864761535",
                "email": "szkola@sppiekuty.podlaskie.pl",
                "website": "http:\/\/www.szkola.nowepiekuty.pl",
                "ref:regon": "000270047",
                "ref:vatin": "PL7221488096",
                "operator": "Gmina Nowe Piekuty",
                "operator:type": "government",
                "amenity": "school"
            }
        },
        {
            "id": 10317,
            "type": "Feature",
            "geometry": {
                "type": "Point",
                "coordinates": [
                    22.65144,
                    52.91778
                ]
            },
            "properties": {
                "ref:rspo": 10317,
                "official_name": "Punkt Przedszkolny \"Ba\u015bniowy Gaj\"",
                "name": "Punkt Przedszkolny \"Ba\u015bniowy Gaj\"",
                "addr:postcode": "18-212",
                "addr:city": "Jab\u0142o\u0144 Ko\u015bcielna",
                "addr:street": "Zielona",
                "addr:housenumber": "4",
                "addr:city:simc": 402081,
                "addr:street:sym_ul": 26081,
                "phone": "+48 864761260",
                "email": "sjablon@wp.pl",
                "website": "http:\/\/szkolajablon.pl",
                "ref:regon": "200724683",
                "operator": "Gmina Nowe Piekuty",
                "operator:type": "government",
                "amenity": "kindergarten"
            }
        },
        {
            "id": 13689,
            "type": "Feature",
            "geometry": {
                "type": "Point",
                "coordinates": [
                    22.6486899,
                    52.91979
                ]
            },
            "properties": {
                "isced:level": "1;2",
                "ref:rspo": 13689,
                "official_name": "Szko\u0142a Podstawowa im.jana Paw\u0142a II w Jab\u0142oni Ko\u015bcielnej",
                "name": "Szko\u0142a Podstawowa im.jana Paw\u0142a II w Jab\u0142oni Ko\u015bcielnej",
                "addr:postcode": "18-212",
                "addr:city": "Jab\u0142o\u0144 Ko\u015bcielna",
                "addr:street": "Mazowiecka",
                "addr:housenumber": "1",
                "addr:city:simc": 402081,
                "addr:street:sym_ul": 12540,
                "phone": "+48 864761281",
                "email": "sjablon@wp.pl",
                "ref:regon": "001120611",
                "ref:vatin": "PL7221491649",
                "operator": "Gmina Nowe Piekuty",
                "operator:type": "government",
                "amenity": "school"
            }
        }
    ]
}