{"type":"FeatureCollection","features":[{"id":92423,"type":"Feature","geometry":{"type":"Point","coordinates":[22.54113,52.7199]},"properties":{"isced:level":"1;2","ref:rspo":92423,"official_name":"Szko\u0142a Podstawowa w Kuczynie","name":"Szko\u0142a Podstawowa w Kuczynie","addr:country":"PL","addr:postcode":"18-214","addr:place":"Kuczyn","addr:housenumber":"69","addr:teryt:sym_ul":398623,"contact:phone":"+48 862772903","contact:email":"spkuczyn@klukowo.pl","contact:website":"http:\/\/spkuczyn.edupage.org","ref:regon":"001119246","ref:vatin":"PL7221380588","operator":"Gmina Klukowo","operator:type":"government","amenity":"school"}},{"id":105566,"type":"Feature","geometry":{"type":"Point","coordinates":[22.54113,52.71987]},"properties":{"ref:rspo":105566,"official_name":"Punkt Przedszkolny Przy Szkole Podstawowej w Kuczynie","name":"Punkt Przedszkolny Przy Szkole Podstawowej w Kuczynie","addr:country":"PL","addr:postcode":"18-214","addr:place":"Kuczyn","addr:housenumber":"69","addr:teryt:sym_ul":398623,"contact:phone":"+48 862772903","contact:email":"spkuczyn@wp.pl","ref:regon":"200752521","operator":"Gmina Klukowo","operator:type":"government","amenity":"kindergarten"}},{"id":92424,"type":"Feature","geometry":{"type":"Point","coordinates":[22.4679499,52.7427599]},"properties":{"isced:level":"1;2","ref:rspo":92424,"official_name":"Szko\u0142a Podstawowa w \u0141uniewie Ma\u0142ym","name":"Szko\u0142a Podstawowa w \u0141uniewie Ma\u0142ym","addr:country":"PL","addr:postcode":"18-214","addr:place":"\u0141uniewo Ma\u0142e","addr:housenumber":"2","addr:teryt:sym_ul":398669,"contact:phone":"+48 862774519","contact:email":"spluniewo@klukowo.pl","ref:regon":"001119157","ref:vatin":"PL7221380677","operator":"Gmina Klukowo","operator:type":"government","amenity":"school"}},{"id":105571,"type":"Feature","geometry":{"type":"Point","coordinates":[22.4679499,52.7427299]},"properties":{"ref:rspo":105571,"official_name":"Punkt Przedszkolny Przy Szkole Podstawowej w \u0141uniewie Ma\u0142ym","name":"Punkt Przedszkolny Przy Szkole Podstawowej w \u0141uniewie Ma\u0142ym","addr:country":"PL","addr:postcode":"18-214","addr:place":"\u0141uniewo Ma\u0142e","addr:housenumber":"2","addr:teryt:sym_ul":398669,"contact:phone":"+48 862774519","contact:email":"spluniewo@klukowo.pl","ref:regon":"200752538","operator":"Gmina Klukowo","operator:type":"government","amenity":"kindergarten"}},{"id":92422,"type":"Feature","geometry":{"type":"Point","coordinates":[22.61987,52.76068]},"properties":{"isced:level":"1;2","ref:rspo":92422,"official_name":"Szko\u0142a Podstawowa w Wyszonkach Ko\u015bcielnych","name":"Szko\u0142a Podstawowa w Wyszonkach Ko\u015bcielnych","addr:country":"PL","addr:postcode":"18-214","addr:place":"Wyszonki Ko\u015bcielne","addr:housenumber":"1","addr:teryt:sym_ul":398847,"contact:phone":"+48 862774584","contact:email":"spwyszonki@klukowo.pl","contact:website":"http:\/\/spwyszonki.superszkolna.pl\/","ref:regon":"001119134","ref:vatin":"PL7221381010","operator":"Gmina Klukowo","operator:type":"government","amenity":"school"}},{"id":105565,"type":"Feature","geometry":{"type":"Point","coordinates":[22.61987,52.76065]},"properties":{"ref:rspo":105565,"official_name":"Punkt Przedszkolny Przy Szkole Podstawowej w Wyszonkach Ko\u015bcielnych","name":"Punkt Przedszkolny Przy Szkole Podstawowej w Wyszonkach Ko\u015bcielnych","addr:country":"PL","addr:postcode":"18-214","addr:place":"Wyszonki Ko\u015bcielne","addr:housenumber":"1","addr:teryt:sym_ul":398847,"contact:phone":"+48 862774584","contact:email":"spwyszonki@wp.pl","ref:regon":"200751415","operator":"Gmina Klukowo","operator:type":"government","amenity":"kindergarten"}},{"id":92414,"type":"Feature","geometry":{"type":"Point","coordinates":[22.5096,52.77591]},"properties":{"isced:level":"1;2","ref:rspo":92414,"official_name":"Szko\u0142a Podstawowa im.komisji Edukacji Narodowej w Klukowie","name":"Szko\u0142a Podstawowa im.komisji Edukacji Narodowej w Klukowie","addr:country":"PL","addr:postcode":"18-214","addr:city":"Klukowo","addr:street":"ul. Szkolna","addr:housenumber":"8","addr:teryt:simc":21970,"addr:teryt:sym_ul":398586,"contact:phone":"+48 862774546","contact:email":"zsklukowo@klukowo.pl","ref:regon":"000266413","operator":"Gmina Klukowo","operator:type":"government","amenity":"school"}},{"id":105572,"type":"Feature","geometry":{"type":"Point","coordinates":[22.5096,52.77588]},"properties":{"ref:rspo":105572,"official_name":"Punkt Przedszkolny Przy Szkole Podstawowej w Klukowie","name":"Punkt Przedszkolny Przy Szkole Podstawowej w Klukowie","addr:country":"PL","addr:postcode":"18-214","addr:city":"Klukowo","addr:street":"ul. Szkolna","addr:housenumber":"8","addr:teryt:simc":21970,"addr:teryt:sym_ul":398586,"contact:phone":"+48 862774546","contact:email":"zsklukowo@klukowo.pl","ref:regon":"200752515","operator":"Gmina Klukowo","operator:type":"government","amenity":"kindergarten"}}]}