{
    "type": "FeatureCollection",
    "features": [
        {
            "id": 276871,
            "type": "Feature",
            "geometry": {
                "type": "Point",
                "coordinates": [
                    22.49547,
                    52.67444
                ]
            },
            "properties": {
                "ref:rspo": 276871,
                "official_name": "Centrum Szkoleniowe Komunikado w Ciechanowcu",
                "name": "Centrum Szkoleniowe Komunikado w Ciechanowcu",
                "addr:country": "PL",
                "addr:postcode": "18-300",
                "addr:city": "Ciechanowiec",
                "addr:street": "Tadeusza Ko\u015bciuszki",
                "addr:housenumber": "54",
                "addr:teryt:simc": 9572,
                "addr:teryt:sym_ul": 957324,
                "contact:email": "sekretariat@komunikado.edu.pl",
                "contact:website": "http:\/\/www.komunikado.edu.pl",
                "ref:regon": "387758560",
                "operator": "Jakub Szyma\u0144ski",
                "operator:type": "private",
                "fixme": "w zale\u017cno\u015bci od przedmiotu dzia\u0142alno\u015bci (np. amenity=training + training=*, amenity=dancing_school, amenity=language_school, amenity=music_school)"
            }
        },
        {
            "id": 70384,
            "type": "Feature",
            "geometry": {
                "type": "Point",
                "coordinates": [
                    22.50166,
                    52.6765
                ]
            },
            "properties": {
                "ref:rspo": 70384,
                "official_name": "Przedszkole w Ciechanowcu",
                "name": "Przedszkole w Ciechanowcu",
                "addr:country": "PL",
                "addr:postcode": "18-230",
                "addr:city": "Ciechanowiec",
                "addr:street": "Adama Mickiewicza",
                "addr:housenumber": "29A",
                "addr:teryt:simc": 12734,
                "addr:teryt:sym_ul": 957324,
                "contact:phone": "+48 862771325",
                "contact:email": "przedszkole1@poczta.onet.eu",
                "contact:website": "http:\/\/www.przedszkole.ciechanowiec.pl",
                "ref:regon": "200410588",
                "ref:vatin": "PL7221624375",
                "operator": "Gmina Ciechanowiec",
                "operator:type": "government",
                "amenity": "kindergarten"
            }
        },
        {
            "id": 42352,
            "type": "Feature",
            "geometry": {
                "type": "Point",
                "coordinates": [
                    22.50578,
                    52.67715
                ]
            },
            "properties": {
                "ref:rspo": 42352,
                "official_name": "Zesp\u00f3\u0142 Szk\u00f3\u0142 Og\u00f3lnokszta\u0142c\u0105cych I Zawodowych w Ciechanowcu",
                "name": "Zesp\u00f3\u0142 Szk\u00f3\u0142 Og\u00f3lnokszta\u0142c\u0105cych I Zawodowych w Ciechanowcu",
                "addr:country": "PL",
                "addr:postcode": "18-230",
                "addr:city": "Ciechanowiec",
                "addr:street": "Szkolna",
                "addr:housenumber": "8",
                "addr:teryt:simc": 21970,
                "addr:teryt:sym_ul": 957324,
                "contact:phone": "+48 862771134",
                "contact:email": "zsoiz_ciechanowiec@wp.pl",
                "contact:website": "http:\/\/www.zsoiz_ciechanowiec.pl",
                "ref:regon": "001107094",
                "ref:vatin": "PL7221177999",
                "operator": "Powiat Wysokomazowiecki",
                "operator:type": "government",
                "landuse": "education",
                "fixme": "amenity=school, amenity=college albo landuse=education w zale\u017cno\u015bci od tego, jakie plac\u00f3wki wchodz\u0105 w sk\u0142ad zespo\u0142u. Sprawd\u017a, kiedy stosowa\u0107 amenity=* a kiedy landuse=education.",
                "note": "Children RSPO: 66709;66711;66713;66716;66724;66725;274852"
            }
        },
        {
            "id": 66709,
            "type": "Feature",
            "geometry": {
                "type": "Point",
                "coordinates": [
                    22.50578,
                    52.677119999999995
                ]
            },
            "properties": {
                "isced:level": "3",
                "ref:rspo": 66709,
                "official_name": "Bran\u017cowa Szko\u0142a I Stopnia im. Rotmistrza Witolda Pileckiego w Ciechanowcu",
                "name": "Bran\u017cowa Szko\u0142a I Stopnia",
                "addr:country": "PL",
                "addr:postcode": "18-230",
                "addr:city": "Ciechanowiec",
                "addr:street": "Szkolna",
                "addr:housenumber": "8",
                "addr:teryt:simc": 21970,
                "addr:teryt:sym_ul": 957324,
                "contact:phone": "+48 862771134",
                "contact:email": "zsoiz-ciechanowiec@wp.pl",
                "contact:website": "http:\/\/www.zsoiz-ciechanowiec.pl",
                "ref:regon": "451190020",
                "operator": "Powiat Wysokomazowiecki",
                "operator:type": "government",
                "amenity": "school",
                "note": "Parent RSPO: 42352"
            }
        },
        {
            "id": 66711,
            "type": "Feature",
            "geometry": {
                "type": "Point",
                "coordinates": [
                    22.50578,
                    52.67709
                ]
            },
            "properties": {
                "isced:level": "3",
                "ref:rspo": 66711,
                "official_name": "Liceum Og\u00f3lnokszat\u0142c\u0105ce im. Rotmistrza Witolda Pileckiego w Ciechanowcu",
                "name": "Liceum Og\u00f3lnokszat\u0142c\u0105ce",
                "addr:country": "PL",
                "addr:postcode": "18-230",
                "addr:city": "Ciechanowiec",
                "addr:street": "Szkolna",
                "addr:housenumber": "8",
                "addr:teryt:simc": 21970,
                "addr:teryt:sym_ul": 957324,
                "contact:phone": "+48 862771134",
                "contact:email": "zsoiz-ciechanowiec@wp.pl",
                "contact:website": "http:\/\/www.zsoiz-ciechanowiec.pl",
                "ref:regon": "451190014",
                "operator": "Powiat Wysokomazowiecki",
                "operator:type": "government",
                "amenity": "school",
                "note": "Parent RSPO: 42352"
            }
        },
        {
            "id": 66713,
            "type": "Feature",
            "geometry": {
                "type": "Point",
                "coordinates": [
                    22.50578,
                    52.67706
                ]
            },
            "properties": {
                "isced:level": "3",
                "ref:rspo": 66713,
                "official_name": "Liceum Og\u00f3lnokszat\u0142c\u0105ce dla Doros\u0142ych w Ciechanowcu",
                "name": "Liceum Og\u00f3lnokszat\u0142c\u0105ce dla Doros\u0142ych w Ciechanowcu",
                "addr:country": "PL",
                "addr:postcode": "18-230",
                "addr:city": "Ciechanowiec",
                "addr:street": "Szkolna",
                "addr:housenumber": "8",
                "addr:teryt:simc": 21970,
                "addr:teryt:sym_ul": 957324,
                "contact:phone": "+48 862771134",
                "contact:email": "zsoiz-ciechanowiec@wp.pl",
                "contact:website": "http:\/\/www.zsoiz-ciechanowiec.pl",
                "ref:regon": "200172284",
                "operator": "Powiat Wysokomazowiecki",
                "operator:type": "government",
                "amenity": "school",
                "note": "Parent RSPO: 42352"
            }
        },
        {
            "id": 66716,
            "type": "Feature",
            "geometry": {
                "type": "Point",
                "coordinates": [
                    22.50578,
                    52.677029999999995
                ]
            },
            "properties": {
                "isced:level": "3",
                "ref:rspo": 66716,
                "official_name": "Technikum im. Rotmistrza Witolda Pileckiego w Ciechanowcu",
                "name": "Technikum",
                "addr:country": "PL",
                "addr:postcode": "18-230",
                "addr:city": "Ciechanowiec",
                "addr:street": "Szkolna",
                "addr:housenumber": "8",
                "addr:teryt:simc": 21970,
                "addr:teryt:sym_ul": 957324,
                "contact:phone": "+48 862771134",
                "contact:email": "zsoiz-ciechanowiec@wp.pl",
                "contact:website": "http:\/\/www.zsoiz-ciechanowiec.pl",
                "ref:regon": "451209417",
                "operator": "Powiat Wysokomazowiecki",
                "operator:type": "government",
                "amenity": "school",
                "note": "Parent RSPO: 42352"
            }
        },
        {
            "id": 66724,
            "type": "Feature",
            "geometry": {
                "type": "Point",
                "coordinates": [
                    22.50578,
                    52.677
                ]
            },
            "properties": {
                "isced:level": "4",
                "ref:rspo": 66724,
                "official_name": "Szko\u0142a Policealna w Ciechanowcu",
                "name": "Szko\u0142a Policealna w Ciechanowcu",
                "addr:country": "PL",
                "addr:postcode": "18-230",
                "addr:city": "Ciechanowiec",
                "addr:street": "Szkolna",
                "addr:housenumber": "8",
                "addr:teryt:simc": 21970,
                "addr:teryt:sym_ul": 957324,
                "contact:phone": "+48 862771134",
                "contact:email": "zsoiz-ciechanowiec@wp.pl",
                "contact:website": "http:\/\/zsoiz-ciechanowiec.pl",
                "ref:regon": "451190008",
                "operator": "Powiat Wysokomazowiecki",
                "operator:type": "government",
                "amenity": "college",
                "note": "Parent RSPO: 42352"
            }
        },
        {
            "id": 66725,
            "type": "Feature",
            "geometry": {
                "type": "Point",
                "coordinates": [
                    22.50578,
                    52.67697
                ]
            },
            "properties": {
                "ref:rspo": 66725,
                "official_name": "Og\u00f3lnokszat\u0142c\u0105ca Szko\u0142a Sztuk Pi\u0119knych w Ciechanowcu",
                "name": "Og\u00f3lnokszat\u0142c\u0105ca Szko\u0142a Sztuk Pi\u0119knych w Ciechanowcu",
                "addr:country": "PL",
                "addr:postcode": "18-230",
                "addr:city": "Ciechanowiec",
                "addr:street": "Szkolna",
                "addr:housenumber": "8",
                "addr:teryt:simc": 21970,
                "addr:teryt:sym_ul": 957324,
                "contact:phone": "+48 862771134",
                "contact:email": "zsoiz-ciechanowiec@wp.pl",
                "contact:website": "http:\/\/www.zsoiz-ciechanowiec.pl",
                "ref:regon": "200296715",
                "operator": "Powiat Wysokomazowiecki",
                "operator:type": "government",
                "amenity": "school",
                "note": "Parent RSPO: 42352"
            }
        },
        {
            "id": 274852,
            "type": "Feature",
            "geometry": {
                "type": "Point",
                "coordinates": [
                    22.50578,
                    52.676939999999995
                ]
            },
            "properties": {
                "isced:level": "3",
                "ref:rspo": 274852,
                "official_name": "Bran\u017cowa Szko\u0142a II Stopnia w Ciechanowcu",
                "name": "Bran\u017cowa Szko\u0142a II Stopnia w Ciechanowcu",
                "addr:country": "PL",
                "addr:postcode": "18-220",
                "addr:city": "Ciechanowiec",
                "addr:street": "Szkolna",
                "addr:housenumber": "8",
                "addr:teryt:simc": 21970,
                "addr:teryt:sym_ul": 957324,
                "contact:phone": "+48 862771134",
                "contact:email": "zsoiz-ciechanowiec@wp.pl",
                "contact:website": "http:\/\/www.zsoiz-ciechanowiec.pl",
                "ref:regon": "386341555",
                "operator": "Powiat Wysokomazowiecki",
                "operator:type": "government",
                "amenity": "school",
                "note": "Parent RSPO: 42352"
            }
        },
        {
            "id": 68294,
            "type": "Feature",
            "geometry": {
                "type": "Point",
                "coordinates": [
                    22.50449,
                    52.6781
                ]
            },
            "properties": {
                "isced:level": "1;2",
                "ref:rspo": 68294,
                "official_name": "Szko\u0142a Podstawowa w Ciechanowcu",
                "name": "Szko\u0142a Podstawowa w Ciechanowcu",
                "addr:country": "PL",
                "addr:postcode": "18-230",
                "addr:city": "Ciechanowiec",
                "addr:street": "11 Listopada",
                "addr:housenumber": "5",
                "addr:teryt:simc": 11205,
                "addr:teryt:sym_ul": 957324,
                "contact:phone": "+48 862771326",
                "contact:email": "spc-c@o2.pl",
                "contact:website": "http:\/\/kopernik.webd.pl",
                "ref:regon": "000262243",
                "ref:vatin": "PL7221169801",
                "operator": "Gmina Ciechanowiec",
                "operator:type": "government",
                "amenity": "school"
            }
        },
        {
            "id": 68501,
            "type": "Feature",
            "geometry": {
                "type": "Point",
                "coordinates": [
                    22.65281,
                    52.6855
                ]
            },
            "properties": {
                "isced:level": "1;2",
                "ref:rspo": 68501,
                "official_name": "Szko\u0142a Podstawowa w \u0141empicach",
                "name": "Szko\u0142a Podstawowa w \u0141empicach",
                "addr:country": "PL",
                "addr:postcode": "18-230",
                "addr:place": "\u0141empice",
                "addr:housenumber": "13A",
                "addr:teryt:sym_ul": 395725,
                "contact:phone": "+48 862776605",
                "contact:email": "spszkola@wp.pl",
                "ref:regon": "001118962",
                "ref:vatin": "PL7221169824",
                "operator": "Gmina Ciechanowiec",
                "operator:type": "government",
                "amenity": "school"
            }
        }
    ]
}