{
    "type": "FeatureCollection",
    "features": [
        {
            "id": 64421,
            "type": "Feature",
            "geometry": {
                "type": "Point",
                "coordinates": [
                    20.37456,
                    52.16108
                ]
            },
            "properties": {
                "isced:level": "1;2",
                "ref:rspo": 64421,
                "official_name": "Szko\u0142a Podstawowa im. Miko\u0142aja Kopernika w Szymanowie",
                "name": "Szko\u0142a Podstawowa",
                "addr:country": "PL",
                "addr:postcode": "96-516",
                "addr:city": "Szyman\u00f3w",
                "addr:street": "Szkolna",
                "addr:housenumber": "35",
                "addr:teryt:simc": 739099,
                "addr:teryt:sym_ul": 21970,
                "contact:phone": "+48 468613535",
                "contact:email": "szpszymanow35@gmail.com",
                "contact:website": "http:\/\/www.spszymanow.szkolnastrona.pl",
                "ref:regon": "001117773",
                "ref:vatin": "PL8371238645",
                "operator": "Gmina Teresin",
                "operator:type": "government",
                "amenity": "school"
            }
        },
        {
            "id": 14674,
            "type": "Feature",
            "geometry": {
                "type": "Point",
                "coordinates": [
                    20.37726,
                    52.16251
                ]
            },
            "properties": {
                "isced:level": "3",
                "ref:rspo": 14674,
                "official_name": "Prywatne Liceum Og\u00f3lnokszta\u0142c\u0105ce Si\u00f3str Niepokalanek im. Matki Bo\u017cej Cz\u0119stochowskiej",
                "name": "Prywatne Liceum Og\u00f3lnokszta\u0142c\u0105ce Si\u00f3str Niepokalanek",
                "addr:country": "PL",
                "addr:postcode": "96-516",
                "addr:city": "Szyman\u00f3w",
                "addr:street": "Szkolna",
                "addr:housenumber": "2",
                "addr:teryt:simc": 739099,
                "addr:teryt:sym_ul": 21970,
                "contact:phone": "+48 468649111",
                "contact:email": "szkola@szymanow.edu.pl",
                "ref:regon": "146308609",
                "operator": "Zgromadzenie Si\u00f3str Niepokalanego Pocz\u0119cia Nmp Dom Zakonny",
                "operator:type": "religious",
                "amenity": "school"
            }
        },
        {
            "id": 64422,
            "type": "Feature",
            "geometry": {
                "type": "Point",
                "coordinates": [
                    20.33239,
                    52.19742
                ]
            },
            "properties": {
                "isced:level": "1;2",
                "ref:rspo": 64422,
                "official_name": "Szko\u0142a Podstawowa im. Fryderyka Chopina w Budkach Piaseckich",
                "name": "Szko\u0142a Podstawowa",
                "addr:country": "PL",
                "addr:postcode": "96-516",
                "addr:place": "Budki Piaseckie",
                "addr:housenumber": "17",
                "addr:teryt:simc": 738697,
                "contact:phone": "+48 468614620",
                "contact:email": "szpbudkipiaseckie@wp.pl",
                "contact:website": "http:\/\/www.szkola-budkipiaseckie.pl",
                "ref:regon": "001117833",
                "ref:vatin": "PL8371238438",
                "operator": "Gmina Teresin",
                "operator:type": "government",
                "amenity": "school"
            }
        },
        {
            "id": 14543,
            "type": "Feature",
            "geometry": {
                "type": "Point",
                "coordinates": [
                    20.41199,
                    52.19755
                ]
            },
            "properties": {
                "ref:rspo": 14543,
                "official_name": "Zesp\u00f3\u0142 Szk\u00f3\u0142 im. Prymasa Tysi\u0105clecia Stefana Kardyna\u0142a Wyszy\u0144skiego w Teresinie",
                "name": "Zesp\u00f3\u0142 Szk\u00f3\u0142",
                "addr:country": "PL",
                "addr:postcode": "96-515",
                "addr:city": "Teresin",
                "addr:street": "Aleja XX-lecia",
                "addr:housenumber": "12",
                "addr:teryt:simc": 739142,
                "addr:teryt:sym_ul": 48337,
                "contact:phone": "+48 468613813",
                "contact:email": "sekretariat@zsteresin.pl",
                "contact:website": "http:\/\/zsteresin.powiatsochaczew.pl\/",
                "ref:regon": "000740814",
                "ref:vatin": "PL8371011427",
                "operator": "Powiat Sochaczewski",
                "operator:type": "government",
                "landuse": "education",
                "fixme": "amenity=school, amenity=college albo landuse=education w zale\u017cno\u015bci od tego, jakie plac\u00f3wki wchodz\u0105 w sk\u0142ad zespo\u0142u. Sprawd\u017a, kiedy stosowa\u0107 amenity=* a kiedy landuse=education.",
                "note": "Children RSPO: 20784;20786;20787;20789"
            }
        },
        {
            "id": 272775,
            "type": "Feature",
            "geometry": {
                "type": "Point",
                "coordinates": [
                    20.41199,
                    52.19752
                ]
            },
            "properties": {
                "isced:level": "3",
                "ref:rspo": 272775,
                "official_name": "Liceum Og\u00f3lnokszta\u0142c\u0105ce dla Doros\u0142ych w Teresinie",
                "name": "Liceum Og\u00f3lnokszta\u0142c\u0105ce dla Doros\u0142ych w Teresinie",
                "addr:country": "PL",
                "addr:postcode": "96-515",
                "addr:city": "Teresin",
                "addr:street": "Aleja XX-lecia",
                "addr:housenumber": "12",
                "addr:teryt:simc": 739142,
                "addr:teryt:sym_ul": 48337,
                "contact:phone": "+48 468613813",
                "contact:email": "zsteresin@gmail.com",
                "ref:regon": "384286250",
                "operator": "Jadwiga Kowalczyk",
                "operator:type": "private",
                "amenity": "school"
            }
        },
        {
            "id": 20784,
            "type": "Feature",
            "geometry": {
                "type": "Point",
                "coordinates": [
                    20.41199,
                    52.19749
                ]
            },
            "properties": {
                "isced:level": "3",
                "ref:rspo": 20784,
                "official_name": "Liceum Og\u00f3lnokszta\u0142c\u0105ce",
                "name": "Liceum Og\u00f3lnokszta\u0142c\u0105ce",
                "addr:country": "PL",
                "addr:postcode": "96-515",
                "addr:city": "Teresin",
                "addr:street": "Aleja XX-lecia",
                "addr:housenumber": "12",
                "addr:teryt:simc": 739142,
                "addr:teryt:sym_ul": 48337,
                "contact:phone": "+48 468613813",
                "contact:email": "zsteresin@post.pl",
                "ref:regon": "015720027",
                "operator": "Powiat Sochaczewski",
                "operator:type": "government",
                "amenity": "school",
                "note": "Parent RSPO: 14543"
            }
        },
        {
            "id": 20786,
            "type": "Feature",
            "geometry": {
                "type": "Point",
                "coordinates": [
                    20.41199,
                    52.19746
                ]
            },
            "properties": {
                "isced:level": "3",
                "ref:rspo": 20786,
                "official_name": "Technikum",
                "name": "Technikum",
                "addr:country": "PL",
                "addr:postcode": "96-515",
                "addr:city": "Teresin",
                "addr:street": "Aleja XX-lecia",
                "addr:housenumber": "12",
                "addr:teryt:simc": 739142,
                "addr:teryt:sym_ul": 48337,
                "contact:phone": "+48 468613813",
                "contact:email": "sekretariat@zsteresin.pl",
                "ref:regon": "015720062",
                "operator": "Powiat Sochaczewski",
                "operator:type": "government",
                "amenity": "school",
                "note": "Parent RSPO: 14543"
            }
        },
        {
            "id": 20787,
            "type": "Feature",
            "geometry": {
                "type": "Point",
                "coordinates": [
                    20.41199,
                    52.19743
                ]
            },
            "properties": {
                "isced:level": "3",
                "ref:rspo": 20787,
                "official_name": "Bran\u017cowa Szko\u0142a I Stopnia",
                "name": "Bran\u017cowa Szko\u0142a I Stopnia",
                "addr:country": "PL",
                "addr:postcode": "96-515",
                "addr:city": "Teresin",
                "addr:street": "Aleja XX-lecia",
                "addr:housenumber": "12",
                "addr:teryt:simc": 739142,
                "addr:teryt:sym_ul": 48337,
                "contact:phone": "+48 468613813",
                "contact:email": "sekretariat@zsteresin.pl",
                "ref:regon": "015720091",
                "operator": "Powiat Sochaczewski",
                "operator:type": "government",
                "amenity": "school",
                "note": "Parent RSPO: 14543"
            }
        },
        {
            "id": 20789,
            "type": "Feature",
            "geometry": {
                "type": "Point",
                "coordinates": [
                    20.41199,
                    52.1974
                ]
            },
            "properties": {
                "isced:level": "4",
                "ref:rspo": 20789,
                "official_name": "Szko\u0142a Policealna",
                "name": "Szko\u0142a Policealna",
                "addr:country": "PL",
                "addr:postcode": "96-515",
                "addr:city": "Teresin",
                "addr:street": "Aleja XX-lecia",
                "addr:housenumber": "12",
                "addr:teryt:simc": 739142,
                "addr:teryt:sym_ul": 48337,
                "contact:phone": "+48 468613813",
                "contact:email": "zsteresin@post.pl",
                "ref:regon": "146318996",
                "operator": "Powiat Sochaczewski",
                "operator:type": "government",
                "amenity": "college",
                "note": "Parent RSPO: 14543"
            }
        },
        {
            "id": 64419,
            "type": "Feature",
            "geometry": {
                "type": "Point",
                "coordinates": [
                    20.40867,
                    52.19878
                ]
            },
            "properties": {
                "isced:level": "1;2",
                "ref:rspo": 64419,
                "official_name": "Szko\u0142a Podstawowa im. \u015aw. Maksymiliana Kolbego w Teresinie",
                "name": "Szko\u0142a Podstawowa",
                "addr:country": "PL",
                "addr:postcode": "96-515",
                "addr:city": "Teresin",
                "addr:street": "al. Ksi\u0119cia Druckiego-Lubeckiego",
                "addr:housenumber": "3",
                "addr:teryt:simc": 739142,
                "addr:teryt:sym_ul": 4276,
                "contact:phone": "+48 468613738",
                "contact:email": "szkola_teresin@poczta.onet.pl",
                "contact:website": "http:\/\/www.spteresin.pl",
                "ref:regon": "000681030",
                "ref:vatin": "PL8371238496",
                "operator": "Gmina Teresin",
                "operator:type": "government",
                "amenity": "school"
            }
        },
        {
            "id": 119884,
            "type": "Feature",
            "geometry": {
                "type": "Point",
                "coordinates": [
                    20.40803,
                    52.19949
                ]
            },
            "properties": {
                "ref:rspo": 119884,
                "official_name": "Przedszkole Niepubliczne \"Le\u015bna Akademia\"",
                "name": "Przedszkole Niepubliczne \"Le\u015bna Akademia\"",
                "addr:country": "PL",
                "addr:postcode": "96-515",
                "addr:city": "Teresin",
                "addr:street": "al. XX-lecia",
                "addr:housenumber": "3",
                "addr:teryt:simc": 739142,
                "addr:teryt:sym_ul": 25178,
                "contact:phone": "+48 503565465",
                "contact:email": "biuro@lesnaakademia.pl",
                "ref:regon": "146869041",
                "ref:vatin": "PL8371755636",
                "operator": "Damian Tymorek",
                "operator:type": "private",
                "amenity": "kindergarten"
            }
        },
        {
            "id": 106244,
            "type": "Feature",
            "geometry": {
                "type": "Point",
                "coordinates": [
                    20.4056399,
                    52.1999799
                ]
            },
            "properties": {
                "ref:rspo": 106244,
                "official_name": "Spo\u0142eczne Przedszkole Integracyjne w Teresinie",
                "name": "Spo\u0142eczne Przedszkole Integracyjne w Teresinie",
                "addr:country": "PL",
                "addr:postcode": "96-515",
                "addr:city": "Teresin",
                "addr:street": "al. XX-lecia",
                "addr:housenumber": "7",
                "addr:teryt:simc": 739142,
                "addr:teryt:sym_ul": 25178,
                "contact:phone": "+48 468614934",
                "contact:email": "teresin1968@o2.pl",
                "ref:regon": "146470333",
                "ref:vatin": "PL8371337086",
                "operator": "Samodzielne Ko\u0142o Terenowe Nr 237 Spo\u0142ecznego Towarzystwa O\u015bwiatowego",
                "operator:type": "cooperative",
                "amenity": "kindergarten"
            }
        },
        {
            "id": 64424,
            "type": "Feature",
            "geometry": {
                "type": "Point",
                "coordinates": [
                    20.43722,
                    52.2055
                ]
            },
            "properties": {
                "ref:rspo": 64424,
                "official_name": "Studio Dziecka \"Figiel\"",
                "name": "Studio Dziecka \"Figiel\"",
                "addr:country": "PL",
                "addr:postcode": "96-515",
                "addr:city": "Granice",
                "addr:street": "Zaciszna",
                "addr:housenumber": "1",
                "addr:teryt:simc": 738740,
                "addr:teryt:sym_ul": 25316,
                "contact:email": "figiel.studio.dziecka@wp.pl",
                "contact:website": "http:\/\/www.studiodzieckafigiel",
                "ref:regon": "146371039",
                "ref:vatin": "PL8551253592",
                "operator": "Katarzyna Klata",
                "operator:type": "private",
                "amenity": "kindergarten"
            }
        },
        {
            "id": 70659,
            "type": "Feature",
            "geometry": {
                "type": "Point",
                "coordinates": [
                    20.43377,
                    52.21179
                ]
            },
            "properties": {
                "isced:level": "1;2",
                "ref:rspo": 70659,
                "official_name": "Szko\u0142a Podstawowa im. Jana Paw\u0142a II w Paprotni",
                "name": "Szko\u0142a Podstawowa",
                "addr:country": "PL",
                "addr:postcode": "96-515",
                "addr:city": "Paprotnia",
                "addr:street": "Sochaczewska",
                "addr:housenumber": "10",
                "addr:teryt:simc": 738941,
                "addr:teryt:sym_ul": 20463,
                "contact:phone": "+48 468615393",
                "contact:email": "sppaprotnia@pro.onet.pl",
                "contact:website": "http:\/\/www.sp-paprotnia.edu.pl",
                "ref:regon": "001117827",
                "ref:vatin": "PL8371238562",
                "operator": "Gmina Teresin",
                "operator:type": "government",
                "amenity": "school"
            }
        }
    ]
}