{
    "type": "FeatureCollection",
    "features": [
        {
            "id": 103700,
            "type": "Feature",
            "geometry": {
                "type": "Point",
                "coordinates": [
                    20.26935,
                    52.17377
                ]
            },
            "properties": {
                "isced:level": "1;2",
                "ref:rspo": 103700,
                "official_name": "Szko\u0142a Podstawowa im. Janusza Kusoci\u0144skiego w Wycz\u00f3\u0142kach",
                "name": "Szko\u0142a Podstawowa",
                "addr:postcode": "96-500",
                "addr:place": "Wycz\u00f3\u0142ki",
                "addr:housenumber": "21A",
                "addr:city:simc": 738591,
                "phone": "+48 468618086",
                "email": "zswyczolki21a@onet.eu",
                "website": "http:\/\/www.spwyczolki.edupage.org",
                "ref:regon": "001132471",
                "ref:vatin": "PL8371600980",
                "operator": "Gmina Sochaczew",
                "operator:type": "government",
                "amenity": "school"
            }
        },
        {
            "id": 262652,
            "type": "Feature",
            "geometry": {
                "type": "Point",
                "coordinates": [
                    20.3527999,
                    52.22965
                ]
            },
            "properties": {
                "isced:level": "1;2",
                "ref:rspo": 262652,
                "official_name": "Szko\u0142a Podstawowa im. Krzysztofa Kamila Baczy\u0144skiego w Wymys\u0142owie",
                "name": "Szko\u0142a Podstawowa",
                "addr:postcode": "96-500",
                "addr:place": "Wymys\u0142\u00f3w",
                "addr:housenumber": "17",
                "addr:city:simc": 738600,
                "phone": "+48 468619406",
                "email": "wyms@op.pl",
                "website": "http:\/\/www.spwymyslow.e-sochaczew.pl",
                "ref:regon": "368047440",
                "ref:vatin": "PL8371828418",
                "operator": "Gmina Sochaczew",
                "operator:type": "government",
                "amenity": "school"
            }
        },
        {
            "id": 129969,
            "type": "Feature",
            "geometry": {
                "type": "Point",
                "coordinates": [
                    20.21371,
                    52.2333
                ]
            },
            "properties": {
                "ref:rspo": 129969,
                "official_name": "Przedszkole Niepubliczne \"S\u0142oneczko\"",
                "name": "Przedszkole Niepubliczne \"S\u0142oneczko\"",
                "addr:postcode": "96-500",
                "addr:place": "Rozlaz\u0142\u00f3w",
                "addr:housenumber": "31 D",
                "addr:city:simc": 738533,
                "phone": "+48 695912818",
                "email": "pnsloneczko@onet.eu",
                "website": "http:\/\/www.pnsloneczko.pl",
                "ref:regon": "363187359",
                "ref:vatin": "PL8371148505",
                "operator": "Barbara Karbownik",
                "operator:type": "private",
                "amenity": "kindergarten"
            }
        },
        {
            "id": 107442,
            "type": "Feature",
            "geometry": {
                "type": "Point",
                "coordinates": [
                    20.19939,
                    52.23615
                ]
            },
            "properties": {
                "isced:level": "1;2",
                "ref:rspo": 107442,
                "official_name": "Szko\u0142a Podstawowa im. Miko\u0142aja Kopernika w K\u0105tach",
                "name": "Szko\u0142a Podstawowa",
                "addr:postcode": "96-500",
                "addr:place": "K\u0105ty",
                "addr:housenumber": "74B",
                "addr:city:simc": 738378,
                "phone": "+48 468619021",
                "email": "zespolkaty@interia.pl",
                "website": "http:\/\/www.spkaty.pl",
                "ref:regon": "001132494",
                "ref:vatin": "PL8371599722",
                "operator": "Gmina Sochaczew",
                "operator:type": "government",
                "amenity": "school"
            }
        },
        {
            "id": 71677,
            "type": "Feature",
            "geometry": {
                "type": "Point",
                "coordinates": [
                    20.3156,
                    52.23748
                ]
            },
            "properties": {
                "isced:level": "1;2",
                "ref:rspo": 71677,
                "official_name": "Szko\u0142a Podstawowa w Feliksowie",
                "name": "Szko\u0142a Podstawowa w Feliksowie",
                "addr:postcode": "96-500",
                "addr:place": "Feliks\u00f3w",
                "addr:housenumber": "20",
                "addr:city:simc": 738250,
                "phone": "+48 468619519",
                "email": "spfeliksow@sochaczew.org.pl",
                "website": "http:\/\/www.spfeliksow.edupage.org",
                "ref:regon": "001132502",
                "ref:vatin": "PL8371599811",
                "operator": "Gmina Sochaczew",
                "operator:type": "government",
                "amenity": "school"
            }
        },
        {
            "id": 71678,
            "type": "Feature",
            "geometry": {
                "type": "Point",
                "coordinates": [
                    20.22235,
                    52.2573099
                ]
            },
            "properties": {
                "isced:level": "1;2",
                "ref:rspo": 71678,
                "official_name": "Szko\u0142a Podstawowa im. Ks. Jana Twardowskiego w Gaw\u0142owie",
                "name": "Szko\u0142a Podstawowa",
                "addr:postcode": "96-500",
                "addr:place": "Gaw\u0142\u00f3w",
                "addr:housenumber": "79A",
                "addr:city:simc": 738266,
                "phone": "+48 468635491",
                "email": "szkola.gawlow@poczta.onet.pl",
                "website": "http:\/\/www.spgawlow.edupage.org",
                "ref:regon": "000685274",
                "ref:vatin": "PL8371599863",
                "operator": "Gmina Sochaczew",
                "operator:type": "government",
                "amenity": "school"
            }
        },
        {
            "id": 276801,
            "type": "Feature",
            "geometry": {
                "type": "Point",
                "coordinates": [
                    20.2625,
                    52.26558
                ]
            },
            "properties": {
                "ref:rspo": 276801,
                "official_name": "Niepubliczne Przedszkole \"Kolorowe \u017buczki\"",
                "name": "Niepubliczne Przedszkole \"Kolorowe \u017buczki\"",
                "addr:postcode": "96-500",
                "addr:place": "\u017buk\u00f3w",
                "addr:housenumber": "117",
                "addr:city:simc": 738674,
                "email": "kolorowezuczki@gmail.com",
                "ref:regon": "387601640",
                "operator": "Karolina D\u0119bska",
                "operator:type": "private",
                "amenity": "kindergarten"
            }
        },
        {
            "id": 82631,
            "type": "Feature",
            "geometry": {
                "type": "Point",
                "coordinates": [
                    20.2658999,
                    52.2718
                ]
            },
            "properties": {
                "isced:level": "1;2",
                "ref:rspo": 82631,
                "official_name": "Szko\u0142a Podstawowa im. Kazimierza Wielkiego w \u017bukowie",
                "name": "Szko\u0142a Podstawowa",
                "addr:postcode": "96-500",
                "addr:place": "\u017buk\u00f3w",
                "addr:housenumber": "104a",
                "addr:city:simc": 738674,
                "phone": "+48 468633150",
                "email": "spzukow@op.pl",
                "website": "http:\/\/www.spzukow.edupage.org",
                "ref:regon": "001132459",
                "ref:vatin": "PL8371599857",
                "operator": "Gmina Sochaczew",
                "operator:type": "government",
                "amenity": "school"
            }
        },
        {
            "id": 71676,
            "type": "Feature",
            "geometry": {
                "type": "Point",
                "coordinates": [
                    20.32576,
                    52.27288
                ]
            },
            "properties": {
                "isced:level": "1;2",
                "ref:rspo": 71676,
                "official_name": "Szko\u0142a Podstawowa w Mokasie",
                "name": "Szko\u0142a Podstawowa w Mokasie",
                "addr:postcode": "96-500",
                "addr:place": "Mokas",
                "addr:housenumber": "26",
                "addr:city:simc": 738473,
                "phone": "+48 468633667",
                "email": "sp.mokas@wp.pl",
                "website": "https:\/\/szkolamokas.edupage.org\/",
                "ref:regon": "001132488",
                "ref:vatin": "PL8371603843",
                "operator": "Gmina Sochaczew",
                "operator:type": "government",
                "amenity": "school"
            }
        }
    ]
}