{
    "type": "FeatureCollection",
    "features": [
        {
            "id": 278279,
            "type": "Feature",
            "geometry": {
                "type": "Point",
                "coordinates": [
                    20.08177,
                    52.29073
                ]
            },
            "properties": {
                "isced:level": "1;2",
                "ref:rspo": 278279,
                "official_name": "Szko\u0142a Podstawowa Filialna im. Wojska Polskiego w Gi\u017cycach",
                "name": "Szko\u0142a Podstawowa Filialna",
                "addr:postcode": "96-521",
                "addr:place": "Gi\u017cyce",
                "addr:housenumber": "10",
                "addr:city:simc": 566180,
                "phone": "+48 242774123",
                "email": "szkolap@ilow.ids.pl",
                "website": "http:\/\/szkolap.edupage.org",
                "ref:regon": "584461000",
                "operator": "Gmina I\u0142\u00f3w",
                "operator:type": "government",
                "amenity": "school",
                "note": "Parent RSPO: 23899"
            }
        },
        {
            "id": 26781,
            "type": "Feature",
            "geometry": {
                "type": "Point",
                "coordinates": [
                    20.04535,
                    52.30061
                ]
            },
            "properties": {
                "isced:level": "1;2",
                "ref:rspo": 26781,
                "official_name": "Szko\u0142a Podstawowa im. \u017bo\u0142nierzy Ak Cichociemnych w Brzozowie Starym",
                "name": "Szko\u0142a Podstawowa",
                "addr:postcode": "96-521",
                "addr:place": "Brzoz\u00f3w Stary",
                "addr:housenumber": "67",
                "addr:city:simc": 566575,
                "phone": "+48 242774716",
                "email": "szkolabrzozow@tlen.pl",
                "website": "http:\/\/www.spbrzozow.szkolnastrona.pl",
                "ref:regon": "001127091",
                "operator": "Gmina I\u0142\u00f3w",
                "operator:type": "government",
                "amenity": "school"
            }
        },
        {
            "id": 23898,
            "type": "Feature",
            "geometry": {
                "type": "Point",
                "coordinates": [
                    19.97709,
                    52.30094
                ]
            },
            "properties": {
                "isced:level": "1;2",
                "ref:rspo": 23898,
                "official_name": "Szko\u0142a Podstawowa im. Boles\u0142awa Chrobrego w Kapturach",
                "name": "Szko\u0142a Podstawowa",
                "addr:postcode": "96-521",
                "addr:place": "Kaptury",
                "addr:housenumber": "5",
                "addr:city:simc": 566240,
                "phone": "+48 242774708",
                "email": "spkaptury5@o2.pl",
                "website": "http:\/\/www.spkaptury.edu.pl\/",
                "ref:regon": "001127116",
                "ref:vatin": "PL8371557592",
                "operator": "Gmina I\u0142\u00f3w",
                "operator:type": "government",
                "amenity": "school"
            }
        },
        {
            "id": 14547,
            "type": "Feature",
            "geometry": {
                "type": "Point",
                "coordinates": [
                    19.98323,
                    52.31763
                ]
            },
            "properties": {
                "ref:rspo": 14547,
                "official_name": "M\u0142odzie\u017cowy O\u015brodek Wychowawczy \"Dom Na Szlaku\" im. Genera\u0142a Tadeusza Kutrzeby w Za\u0142uskowie",
                "name": "M\u0142odzie\u017cowy O\u015brodek Wychowawczy \"Dom Na Szlaku\"",
                "addr:postcode": "96-521",
                "addr:place": "Za\u0142usk\u00f3w",
                "addr:housenumber": "8",
                "addr:city:simc": 566747,
                "phone": "+48 242774153",
                "email": "mow-zaluskow@wp.pl",
                "website": "http:\/\/domnaszlaku.edupage.org",
                "ref:regon": "000201448",
                "ref:vatin": "PL9710299786",
                "operator": "Powiat Sochaczewski",
                "operator:type": "government",
                "fixme": "amenity=social_facility + social_facility=group_home + social_facility:for=juvenile",
                "note": "Children RSPO: 18951;268732;278043"
            }
        },
        {
            "id": 18951,
            "type": "Feature",
            "geometry": {
                "type": "Point",
                "coordinates": [
                    19.98323,
                    52.3176
                ]
            },
            "properties": {
                "isced:level": "1;2",
                "ref:rspo": 18951,
                "official_name": "Szko\u0142a Podstawowa Specjalna w Za\u0142uskowie",
                "name": "Szko\u0142a Podstawowa Specjalna w Za\u0142uskowie",
                "addr:postcode": "96-521",
                "addr:place": "Za\u0142usk\u00f3w",
                "addr:housenumber": "8",
                "addr:city:simc": 566747,
                "phone": "+48 242774615",
                "email": "mow_zaluskow@wp.pl",
                "ref:regon": "000999363",
                "operator": "Powiat Sochaczewski",
                "operator:type": "government",
                "amenity": "school",
                "note": "Parent RSPO: 14547"
            }
        },
        {
            "id": 268732,
            "type": "Feature",
            "geometry": {
                "type": "Point",
                "coordinates": [
                    19.98323,
                    52.31757
                ]
            },
            "properties": {
                "isced:level": "3",
                "ref:rspo": 268732,
                "official_name": "Liceum Og\u00f3lnokszta\u0142c\u0105ce Specjalne w M\u0142odzie\u017cowym O\u015brodku Wychowawczym \"Dom Na Szlaku\" im. Gen. Tadeusza Kutrzeby w Za\u0142uskowie",
                "name": "Liceum Og\u00f3lnokszta\u0142c\u0105ce Specjalne w M\u0142odzie\u017cowym O\u015brodku Wychowawczym \"Dom Na Szlaku\"",
                "addr:postcode": "96-521",
                "addr:place": "Za\u0142usk\u00f3w",
                "addr:housenumber": "8",
                "addr:door": "-",
                "addr:city:simc": 566747,
                "phone": "+48 242774153",
                "email": "mow-zaluskow@wp.pl",
                "ref:regon": "381240513",
                "operator": "Powiat Sochaczewski",
                "operator:type": "government",
                "amenity": "school",
                "note": "Parent RSPO: 14547"
            }
        },
        {
            "id": 278043,
            "type": "Feature",
            "geometry": {
                "type": "Point",
                "coordinates": [
                    19.98323,
                    52.31754
                ]
            },
            "properties": {
                "isced:level": "3",
                "ref:rspo": 278043,
                "official_name": "Bran\u017cowa Szko\u0142a I Stopnia Specjalna w Za\u0142uskowie",
                "name": "Bran\u017cowa Szko\u0142a I Stopnia Specjalna w Za\u0142uskowie",
                "addr:postcode": "96-521",
                "addr:place": "Za\u0142usk\u00f3w",
                "addr:housenumber": "8",
                "addr:city:simc": 566747,
                "phone": "+48 242774153",
                "email": "mow-zaluskow@wp.pl",
                "ref:regon": "389765178",
                "operator": "Powiat Sochaczewski",
                "operator:type": "government",
                "amenity": "school",
                "note": "Parent RSPO: 14547"
            }
        },
        {
            "id": 264922,
            "type": "Feature",
            "geometry": {
                "type": "Point",
                "coordinates": [
                    20.03151,
                    52.33697
                ]
            },
            "properties": {
                "ref:rspo": 264922,
                "official_name": "Niepubliczna Poradnia Psychologiczno-Pedagogiczna Iwe",
                "name": "Niepubliczna Poradnia Psychologiczno-Pedagogiczna Iwe",
                "addr:postcode": "96-520",
                "addr:city": "I\u0142\u00f3w",
                "addr:street": "Wyzwolenia",
                "addr:housenumber": "16",
                "addr:city:simc": 566233,
                "addr:street:sym_ul": 25133,
                "ref:regon": "368511310",
                "operator": "\"Instytut Wspierania Edukacji - Fundacja\" W Likwidacji",
                "operator:type": "ngo",
                "healthcare": "counselling",
                "counselling_type": "education",
                "fixme": "w zale\u017cno\u015bci od przedmiotu dzia\u0142alno\u015bci (np. healthcare=counselling + counselling_type=education albo healthcare=psychotherapist)"
            }
        },
        {
            "id": 23895,
            "type": "Feature",
            "geometry": {
                "type": "Point",
                "coordinates": [
                    20.02253,
                    52.3408
                ]
            },
            "properties": {
                "ref:rspo": 23895,
                "official_name": "Przedszkole Samorz\u0105dowe w I\u0142owie",
                "name": "Przedszkole Samorz\u0105dowe w I\u0142owie",
                "addr:postcode": "96-520",
                "addr:city": "I\u0142\u00f3w",
                "addr:street": "P\u0142ocka",
                "addr:housenumber": "14",
                "addr:city:simc": 566233,
                "addr:street:sym_ul": 16511,
                "phone": "+48 242774142",
                "email": "przedszkoleilow@wp.pl",
                "website": "http:\/\/www.przedszkoleilow.szkolnastrona.pl",
                "ref:regon": "000904032",
                "ref:vatin": "PL8371590715",
                "operator": "Gmina I\u0142\u00f3w",
                "operator:type": "government",
                "amenity": "kindergarten"
            }
        },
        {
            "id": 23899,
            "type": "Feature",
            "geometry": {
                "type": "Point",
                "coordinates": [
                    20.02253,
                    52.34077
                ]
            },
            "properties": {
                "isced:level": "1;2",
                "ref:rspo": 23899,
                "official_name": "Szko\u0142a Podstawowa im. Marsza\u0142ka J\u00f3zefa Pi\u0142sudskiego w I\u0142owie",
                "name": "Szko\u0142a Podstawowa",
                "addr:postcode": "96-520",
                "addr:city": "I\u0142\u00f3w",
                "addr:street": "P\u0142ocka",
                "addr:housenumber": "14",
                "addr:city:simc": 566233,
                "addr:street:sym_ul": 16511,
                "phone": "+48 242774123",
                "email": "szkolap@ilow.ids.pl",
                "website": "http:\/\/www.szkolap.edupage.org",
                "ref:regon": "000584461",
                "ref:vatin": "PL8371557617",
                "operator": "Gmina I\u0142\u00f3w",
                "operator:type": "government",
                "amenity": "school",
                "note": "Children RSPO: 278279"
            }
        }
    ]
}