{
    "type": "FeatureCollection",
    "features": [
        {
            "id": 28173,
            "type": "Feature",
            "geometry": {
                "type": "Point",
                "coordinates": [
                    18.5798099,
                    50.34256
                ]
            },
            "properties": {
                "isced:level": "1;2",
                "ref:rspo": 28173,
                "official_name": "Szko\u0142a Podstawowa w Pniowie im. Kr\u00f3lowej Jadwigi",
                "name": "Szko\u0142a Podstawowa w Pniowie",
                "addr:postcode": "44-120",
                "addr:city": "Pni\u00f3w",
                "addr:street": "Szkolna",
                "addr:housenumber": "4\/1",
                "addr:teryt:simc": 222663,
                "addr:teryt:sym_ul": 21970,
                "phone": "+48 322334516",
                "email": "pniow@interia.pl",
                "website": "http:\/\/www.sppniow.szkolnastrona.pl\/",
                "ref:regon": "001212046",
                "ref:vatin": "PL9691124843",
                "operator": "Gmina Toszek",
                "operator:type": "government",
                "amenity": "school"
            }
        },
        {
            "id": 28172,
            "type": "Feature",
            "geometry": {
                "type": "Point",
                "coordinates": [
                    18.55637,
                    50.40579
                ]
            },
            "properties": {
                "isced:level": "1;2",
                "ref:rspo": 28172,
                "official_name": "Szko\u0142a Podstawowa w Paczynie",
                "name": "Szko\u0142a Podstawowa w Paczynie",
                "addr:postcode": "44-120",
                "addr:city": "Paczyna",
                "addr:street": "Wiejska",
                "addr:housenumber": "80",
                "addr:teryt:simc": 222574,
                "addr:teryt:sym_ul": 24048,
                "phone": "+48 322334720",
                "email": "szk_pod_paczyna@wp.pl",
                "website": "http:\/\/www.paczynasp.edupage.org",
                "ref:regon": "001212030",
                "ref:vatin": "PL9691124895",
                "operator": "Gmina Toszek",
                "operator:type": "government",
                "amenity": "school"
            }
        },
        {
            "id": 28533,
            "type": "Feature",
            "geometry": {
                "type": "Point",
                "coordinates": [
                    18.51635,
                    50.45068
                ]
            },
            "properties": {
                "ref:rspo": 28533,
                "official_name": "Publiczne Przedszkole w Toszku",
                "name": "Publiczne Przedszkole w Toszku",
                "addr:postcode": "44-180",
                "addr:city": "Toszek",
                "addr:street": "Dworcowa",
                "addr:housenumber": "21",
                "addr:teryt:simc": 944126,
                "addr:teryt:sym_ul": 4434,
                "phone": "+48 322334196",
                "email": "przedszkole21@op.pl",
                "website": "http:\/\/www.przedszkoletoszek.szkolnastrona.pl",
                "ref:regon": "271510024",
                "ref:vatin": "PL9691124837",
                "operator": "Gmina Toszek",
                "operator:type": "government",
                "amenity": "kindergarten"
            }
        },
        {
            "id": 262384,
            "type": "Feature",
            "geometry": {
                "type": "Point",
                "coordinates": [
                    18.51623,
                    50.4522199
                ]
            },
            "properties": {
                "isced:level": "1;2",
                "ref:rspo": 262384,
                "official_name": "Szko\u0142a Podstawowa Nr 1 im. Ireny Sendler w Toszku",
                "name": "Szko\u0142a Podstawowa Nr 1",
                "addr:postcode": "44-180",
                "addr:city": "Toszek",
                "addr:street": "Dworcowa",
                "addr:housenumber": "27",
                "addr:teryt:simc": 944126,
                "addr:teryt:sym_ul": 4434,
                "phone": "+48 322334419",
                "email": "sp1gtoszek@poczta.onet.pl",
                "website": "https:\/\/sp-isendler-toszek.edupage.org\/",
                "ref:regon": "367997782",
                "ref:vatin": "PL9691626740",
                "operator": "Gmina Toszek",
                "operator:type": "government",
                "amenity": "school"
            }
        },
        {
            "id": 28174,
            "type": "Feature",
            "geometry": {
                "type": "Point",
                "coordinates": [
                    18.52498,
                    50.45455
                ]
            },
            "properties": {
                "isced:level": "1;2",
                "ref:rspo": 28174,
                "official_name": "Szko\u0142a Podstawowa Nr 2 im. Gustawa Morcinka w Toszku",
                "name": "Szko\u0142a Podstawowa Nr 2",
                "addr:postcode": "44-180",
                "addr:city": "Toszek",
                "addr:street": "Wilkowicka",
                "addr:housenumber": "2",
                "addr:teryt:simc": 944126,
                "addr:teryt:sym_ul": 24310,
                "phone": "+48 322334314",
                "email": "sp_toszek@op.pl",
                "website": "http:\/\/sptoszek.edupage.org",
                "ref:regon": "001212017",
                "ref:vatin": "PL9691124754",
                "operator": "Gmina Toszek",
                "operator:type": "government",
                "amenity": "school"
            }
        },
        {
            "id": 267789,
            "type": "Feature",
            "geometry": {
                "type": "Point",
                "coordinates": [
                    18.5123,
                    50.45924
                ]
            },
            "properties": {
                "ref:rspo": 267789,
                "official_name": "Niepubliczna Plac\u00f3wka Kszta\u0142cenia Ustawicznego Hubertus",
                "name": "Niepubliczna Plac\u00f3wka Kszta\u0142cenia Ustawicznego Hubertus",
                "addr:postcode": "44-180",
                "addr:city": "Toszek",
                "addr:street": "Harcerska",
                "addr:housenumber": "3",
                "addr:teryt:simc": 944126,
                "addr:teryt:sym_ul": 6523,
                "email": "prezes.hubertus@onet.pl",
                "website": "http:\/\/www.st-hubertus.pl",
                "ref:regon": "380642847",
                "operator": "Stowarzyszenie Mi\u0142o\u015bnik\u00f3w Koni \"Hubertus\"",
                "operator:type": "ngo",
                "fixme": "w zale\u017cno\u015bci od przedmiotu dzia\u0142alno\u015bci (np. amenity=training + training=*, amenity=dancing_school, amenity=language_school, amenity=music_school)"
            }
        },
        {
            "id": 28171,
            "type": "Feature",
            "geometry": {
                "type": "Point",
                "coordinates": [
                    18.41545,
                    50.46367
                ]
            },
            "properties": {
                "isced:level": "1;2",
                "ref:rspo": 28171,
                "official_name": "Szko\u0142a Podstawowa w Kotulinie",
                "name": "Szko\u0142a Podstawowa w Kotulinie",
                "addr:postcode": "44-180",
                "addr:city": "Kotulin",
                "addr:street": "Gliwicka",
                "addr:housenumber": "13",
                "addr:teryt:simc": 222500,
                "addr:teryt:sym_ul": 5583,
                "phone": "+48 322306113",
                "email": "sp_kotulin@poczta.onet.pl",
                "website": "http:\/\/spkotulin.edupage.org\/",
                "ref:regon": "001212023",
                "ref:vatin": "PL9690919210",
                "operator": "Gmina Toszek",
                "operator:type": "government",
                "amenity": "school"
            }
        }
    ]
}