{"type":"FeatureCollection","features":[{"id":81275,"type":"Feature","geometry":{"type":"Point","coordinates":[18.48679,50.33198]},"properties":{"isced:level":"1;2","ref:rspo":81275,"official_name":"Szko\u0142a Podstawowa im. Genera\u0142a J\u00f3zefa Bema w Bojszowie","name":"Szko\u0142a Podstawowa","addr:country":"PL","addr:postcode":"44-160","addr:city":"Bojsz\u00f3w","addr:street":"ul. Szkolna","addr:housenumber":"23","addr:teryt:simc":21970,"addr:teryt:sym_ul":221020,"contact:phone":"+48 322305179","contact:email":"szkolabojszow@wp.pl","contact:website":"http:\/\/www.szkolabojszow.levelit.pl","ref:regon":"001198659","ref:vatin":"PL9691284156","operator":"Gmina Rudziniec","operator:type":"government","amenity":"school"}},{"id":81270,"type":"Feature","geometry":{"type":"Point","coordinates":[18.5275,50.34402]},"properties":{"isced:level":"1;2","ref:rspo":81270,"official_name":"Szko\u0142a Podstawowa w Kleszczowie","name":"Szko\u0142a Podstawowa w Kleszczowie","addr:country":"PL","addr:postcode":"44-164","addr:city":"Kleszcz\u00f3w","addr:street":"ul. Szkolna","addr:housenumber":"23","addr:teryt:simc":21970,"addr:teryt:sym_ul":221095,"contact:phone":"+48 322701521","contact:email":"sp.kleszczow@interia.pl","contact:website":"http:\/\/www.sp-kleszczow.cba.pl","ref:regon":"001198642","ref:vatin":"PL9691284096","operator":"Gmina Rudziniec","operator:type":"government","amenity":"school"}},{"id":131307,"type":"Feature","geometry":{"type":"Point","coordinates":[18.45793,50.34784]},"properties":{"ref:rspo":131307,"official_name":"Zesp\u00f3\u0142 Szkolno-Przedszkolny w Rudnie","name":"Zesp\u00f3\u0142 Szkolno-Przedszkolny w Rudnie","addr:country":"PL","addr:postcode":"44-160","addr:city":"Rudno","addr:street":"ul. Szkolna","addr:housenumber":"9","addr:teryt:simc":21970,"addr:teryt:sym_ul":221215,"contact:phone":"+48 322303460","contact:email":"sprudno@gmail.com","contact:website":"http:\/\/www.sprudno.edu.pl","ref:regon":"365105093","operator":"Gmina Rudziniec","operator:type":"government","landuse":"education","fixme":"amenity=school, amenity=college albo landuse=education w zale\u017cno\u015bci od tego, jakie plac\u00f3wki wchodz\u0105 w sk\u0142ad zespo\u0142u. Sprawd\u017a, kiedy stosowa\u0107 amenity=* a kiedy landuse=education.","note":"Children RSPO: 81272;81273"}},{"id":81272,"type":"Feature","geometry":{"type":"Point","coordinates":[18.45793,50.347809999999996]},"properties":{"isced:level":"1;2","ref:rspo":81272,"official_name":"Szko\u0142a Podstawowa w Rudnie","name":"Szko\u0142a Podstawowa w Rudnie","addr:country":"PL","addr:postcode":"44-160","addr:city":"Rudno","addr:street":"ul. Szkolna","addr:housenumber":"9","addr:teryt:simc":21970,"addr:teryt:sym_ul":221215,"contact:phone":"+48 322303460","contact:email":"sprudno@gmail.com","contact:website":"http:\/\/www.sprudno.edu.pl","ref:regon":"271590945","ref:vatin":"PL9691284133","operator":"Gmina Rudziniec","operator:type":"government","amenity":"school","note":"Parent RSPO: 131307"}},{"id":107259,"type":"Feature","geometry":{"type":"Point","coordinates":[18.52777,50.34784]},"properties":{"ref:rspo":107259,"official_name":"Przedszkole Publiczne w Rudzi\u0144cu","name":"Przedszkole Publiczne w Rudzi\u0144cu","addr:country":"PL","addr:postcode":"44-160","addr:city":"Rudziniec","addr:street":"ul. Gliwicka","addr:housenumber":"7","addr:teryt:simc":5583,"addr:teryt:sym_ul":221238,"contact:phone":"+48 322303192","contact:email":"zesp-rudziniec@wp.pl","contact:website":"http:\/\/www.gimnazjum.rudziniec.pl","ref:regon":"271512750","operator":"Gmina Rudziniec","operator:type":"government","amenity":"kindergarten","note":"Parent RSPO: 272446"}},{"id":272446,"type":"Feature","geometry":{"type":"Point","coordinates":[18.52764,50.34791]},"properties":{"ref:rspo":272446,"official_name":"Zesp\u00f3\u0142 Szkolno-Przedszkolny w Rudzi\u0144cu","name":"Zesp\u00f3\u0142 Szkolno-Przedszkolny w Rudzi\u0144cu","addr:country":"PL","addr:postcode":"44-160","addr:city":"Rudziniec","addr:street":"ul. Gliwicka","addr:housenumber":"5","addr:teryt:simc":5583,"addr:teryt:sym_ul":221238,"contact:phone":"+48 322303192","contact:email":"zsp@rudziniec.pl","ref:regon":"384175450","operator":"Gmina Rudziniec","operator:type":"government","landuse":"education","fixme":"amenity=school, amenity=college albo landuse=education w zale\u017cno\u015bci od tego, jakie plac\u00f3wki wchodz\u0105 w sk\u0142ad zespo\u0142u. Sprawd\u017a, kiedy stosowa\u0107 amenity=* a kiedy landuse=education.","note":"Children RSPO: 107259;196216"}},{"id":196216,"type":"Feature","geometry":{"type":"Point","coordinates":[18.52764,50.347879999999996]},"properties":{"isced:level":"1;2","ref:rspo":196216,"official_name":"Szko\u0142a Podstawowa im. Jana Paw\u0142a II w Rudzi\u0144cu","name":"Szko\u0142a Podstawowa","addr:country":"PL","addr:postcode":"44-160","addr:city":"Rudziniec","addr:street":"ul. Gliwicka","addr:housenumber":"5","addr:teryt:simc":5583,"addr:teryt:sym_ul":221238,"contact:phone":"+48 322303192","contact:email":"zsp@rudziniec.pl","contact:website":"http:\/\/zsprudziniec.szkolnastrona.pl","ref:regon":"367985448","operator":"Gmina Rudziniec","operator:type":"government","amenity":"school","note":"Parent RSPO: 272446"}},{"id":81273,"type":"Feature","geometry":{"type":"Point","coordinates":[18.46331,50.34866]},"properties":{"ref:rspo":81273,"official_name":"Przedszkole Publiczne w Rudnie","name":"Przedszkole Publiczne w Rudnie","addr:country":"PL","addr:postcode":"44-160","addr:city":"Rudno","addr:street":"ul. Boczna","addr:housenumber":"6","addr:teryt:simc":1528,"addr:teryt:sym_ul":221215,"contact:phone":"+48 322303460","contact:email":"sprudno@gmail.com","ref:regon":"271512744","operator":"Gmina Rudziniec","operator:type":"government","amenity":"kindergarten","note":"Parent RSPO: 131307"}},{"id":107131,"type":"Feature","geometry":{"type":"Point","coordinates":[18.47294,50.38364]},"properties":{"isced:level":"1;2","ref:rspo":107131,"official_name":"Szko\u0142a Podstawowa w P\u0142awniowicach","name":"Szko\u0142a Podstawowa w P\u0142awniowicach","addr:country":"PL","addr:postcode":"44-171","addr:city":"P\u0142awniowice","addr:street":"ul. Gliwicka","addr:housenumber":"105","addr:teryt:simc":5583,"addr:teryt:sym_ul":221178,"contact:phone":"+48 322305540","contact:email":"zsp@plawniowice.dlaedu.pl","contact:website":"http:\/\/www.zspplawniowice.eduoage.org","ref:regon":"001198636","operator":"Gmina Rudziniec","operator:type":"government","amenity":"school","note":"Parent RSPO: 81267"}},{"id":107132,"type":"Feature","geometry":{"type":"Point","coordinates":[18.47294,50.38361]},"properties":{"ref:rspo":107132,"official_name":"Przedszkole Publiczne w P\u0142awniowicach","name":"Przedszkole Publiczne w P\u0142awniowicach","addr:country":"PL","addr:postcode":"44-171","addr:city":"P\u0142awniowice","addr:street":"ul. Gliwicka","addr:housenumber":"105","addr:teryt:simc":5583,"addr:teryt:sym_ul":221178,"contact:phone":"+48 322305540","contact:email":"spplawniowice@wp.pl","ref:regon":"271512721","operator":"Gmina Rudziniec","operator:type":"government","amenity":"kindergarten","note":"Parent RSPO: 81267"}},{"id":81267,"type":"Feature","geometry":{"type":"Point","coordinates":[18.47258,50.38368]},"properties":{"ref:rspo":81267,"official_name":"Zesp\u00f3\u0142 Szkolno-Przedszkolny w P\u0142awniowicach","name":"Zesp\u00f3\u0142 Szkolno-Przedszkolny w P\u0142awniowicach","addr:country":"PL","addr:postcode":"44-171","addr:city":"P\u0142awniowice","addr:street":"ul. Gliwicka","addr:housenumber":"107","addr:teryt:simc":5583,"addr:teryt:sym_ul":221178,"contact:phone":"+48 322305540","contact:email":"zsp@plawniowice.dlaedu.pl","ref:regon":"240451320","ref:vatin":"PL9691469878","operator":"Gmina Rudziniec","operator:type":"government","landuse":"education","fixme":"amenity=school, amenity=college albo landuse=education w zale\u017cno\u015bci od tego, jakie plac\u00f3wki wchodz\u0105 w sk\u0142ad zespo\u0142u. Sprawd\u017a, kiedy stosowa\u0107 amenity=* a kiedy landuse=education.","note":"Children RSPO: 107131;107132"}},{"id":81269,"type":"Feature","geometry":{"type":"Point","coordinates":[18.52999,50.39073]},"properties":{"isced:level":"1;2","ref:rspo":81269,"official_name":"Szko\u0142a Podstawowa w Bycinie","name":"Szko\u0142a Podstawowa w Bycinie","addr:country":"PL","addr:postcode":"44-120","addr:city":"Bycina","addr:street":"ul. Szkolna","addr:housenumber":"13","addr:teryt:simc":21970,"addr:teryt:sym_ul":221050,"contact:phone":"+48 322305621","contact:email":"spbycina@poczta.onet.pl","contact:website":"http:\/\/www.spbycina.pl","ref:regon":"001198613","ref:vatin":"PL9691284185","operator":"Gmina Rudziniec","operator:type":"government","amenity":"school"}},{"id":128604,"type":"Feature","geometry":{"type":"Point","coordinates":[18.40688,50.40914]},"properties":{"isced:level":"1;2","ref:rspo":128604,"official_name":"Szko\u0142a Podstawowa im. Boles\u0142awa Chrobrego w Chechle","name":"Szko\u0142a Podstawowa","addr:country":"PL","addr:postcode":"44-172","addr:city":"Chech\u0142o","addr:street":"ul. Szkolna","addr:housenumber":"1","addr:teryt:simc":21970,"addr:teryt:sym_ul":221066,"contact:phone":"+48 326100280","contact:email":"chechlo2013@wp.pl","contact:website":"http:\/\/www.spchechlo.edu.pl","ref:regon":"362333770","operator":"Stowarzyszenie Na Rzecz Rozwoju So\u0142ectwa Chech\u0142o","operator:type":"ngo","amenity":"school"}},{"id":131312,"type":"Feature","geometry":{"type":"Point","coordinates":[18.4587,50.40918]},"properties":{"ref:rspo":131312,"official_name":"Zesp\u00f3\u0142 Szkolno-Przedszkolny w Poniszowicach","name":"Zesp\u00f3\u0142 Szkolno-Przedszkolny w Poniszowicach","addr:country":"PL","addr:postcode":"44-172","addr:city":"Poniszowice","addr:street":"ul. Gliwicka","addr:housenumber":"32","addr:teryt:simc":5583,"addr:teryt:sym_ul":221209,"contact:phone":"+48 322303172","contact:email":"sppon@wp.pl","contact:website":"http:\/\/www.poniszowice.com","ref:regon":"365109346","operator":"Gmina Rudziniec","operator:type":"government","landuse":"education","fixme":"amenity=school, amenity=college albo landuse=education w zale\u017cno\u015bci od tego, jakie plac\u00f3wki wchodz\u0105 w sk\u0142ad zespo\u0142u. Sprawd\u017a, kiedy stosowa\u0107 amenity=* a kiedy landuse=education.","note":"Children RSPO: 81271;81274;131865"}},{"id":81271,"type":"Feature","geometry":{"type":"Point","coordinates":[18.4587,50.40915]},"properties":{"isced:level":"1;2","ref:rspo":81271,"official_name":"Szko\u0142a Podstawowa w Poniszowicach","name":"Szko\u0142a Podstawowa w Poniszowicach","addr:country":"PL","addr:postcode":"44-172","addr:city":"Poniszowice","addr:street":"ul. Gliwicka","addr:housenumber":"32","addr:teryt:simc":5583,"addr:teryt:sym_ul":221209,"contact:phone":"+48 322303172","contact:email":"sppon@wp.pl","contact:website":"http:\/\/www.poniszowice.com","ref:regon":"001198607","operator":"Gmina Rudziniec","operator:type":"government","amenity":"school","note":"Parent RSPO: 131312"}},{"id":131865,"type":"Feature","geometry":{"type":"Point","coordinates":[18.4676699,50.41036]},"properties":{"ref:rspo":131865,"official_name":"Przedszkole Publiczne w Poniszowicach","name":"Przedszkole Publiczne w Poniszowicach","addr:country":"PL","addr:postcode":"44-172","addr:city":"Poniszowice","addr:street":"ul. Polna","addr:housenumber":"2","addr:teryt:simc":17011,"addr:teryt:sym_ul":221209,"contact:phone":"+48 322303062","contact:email":"pppon@wp.pl","ref:regon":"365368378","operator":"Gmina Rudziniec","operator:type":"government","amenity":"kindergarten","note":"Parent RSPO: 131312"}},{"id":81274,"type":"Feature","geometry":{"type":"Point","coordinates":[18.48655,50.41905]},"properties":{"ref:rspo":81274,"official_name":"Przedszkole Publiczne w S\u0142upsku","name":"Przedszkole Publiczne w S\u0142upsku","addr:country":"PL","addr:postcode":"44-172","addr:city":"S\u0142upsko","addr:street":"ul. Polna","addr:housenumber":"2","addr:teryt:simc":17011,"addr:teryt:sym_ul":221267,"contact:phone":"+48 322303329","contact:email":"zsp@poniszowice.dlaedu.pl","ref:regon":"271512767","operator":"Gmina Rudziniec","operator:type":"government","amenity":"kindergarten","note":"Parent RSPO: 131312"}}]}