{
    "type": "FeatureCollection",
    "features": [
        {
            "id": 59894,
            "type": "Feature",
            "geometry": {
                "type": "Point",
                "coordinates": [
                    18.47075,
                    50.22474
                ]
            },
            "properties": {
                "isced:level": "1;2",
                "ref:rspo": 59894,
                "official_name": "Szko\u0142a Podstawowa w Barg\u0142\u00f3wce",
                "name": "Szko\u0142a Podstawowa w Barg\u0142\u00f3wce",
                "addr:postcode": "44-153",
                "addr:city": "Barg\u0142\u00f3wka",
                "addr:street": "Raciborska",
                "addr:housenumber": "67",
                "addr:teryt:simc": 221830,
                "addr:teryt:sym_ul": 18263,
                "phone": "+48 322387008",
                "email": "spbarglowka@poczta.onet.pl",
                "website": "http:\/\/spbarglowka.pl",
                "ref:regon": "001198671",
                "ref:vatin": "PL9691347767",
                "operator": "Gmina So\u015bnicowice",
                "operator:type": "government",
                "amenity": "school"
            }
        },
        {
            "id": 59898,
            "type": "Feature",
            "geometry": {
                "type": "Point",
                "coordinates": [
                    18.47832,
                    50.2273
                ]
            },
            "properties": {
                "ref:rspo": 59898,
                "official_name": "Gminne Przedszkole w Barg\u0142\u00f3wce",
                "name": "Gminne Przedszkole w Barg\u0142\u00f3wce",
                "addr:postcode": "44-153",
                "addr:city": "Barg\u0142\u00f3wka",
                "addr:street": "Przedszkolna",
                "addr:housenumber": "5",
                "addr:teryt:simc": 221830,
                "addr:teryt:sym_ul": 17683,
                "phone": "+48 322387705",
                "email": "przedszkole.barglowka@interia.pl",
                "ref:regon": "271512773",
                "ref:vatin": "PL9691344705",
                "operator": "Gmina So\u015bnicowice",
                "operator:type": "government",
                "amenity": "kindergarten"
            }
        },
        {
            "id": 59899,
            "type": "Feature",
            "geometry": {
                "type": "Point",
                "coordinates": [
                    18.560236,
                    50.251995
                ]
            },
            "properties": {
                "ref:rspo": 59899,
                "official_name": "Gminne Przedszkole w Smolnicy",
                "name": "Gminne Przedszkole w Smolnicy",
                "addr:postcode": "44-153",
                "addr:city": "Smolnica",
                "addr:street": "Szkolna",
                "addr:housenumber": "1D",
                "addr:teryt:simc": 221920,
                "addr:teryt:sym_ul": 21970,
                "phone": "+48 322387020",
                "email": "przedszkolesmolnica@o2.pl",
                "ref:regon": "271512827",
                "ref:vatin": "PL9691344757",
                "operator": "Gmina So\u015bnicowice",
                "operator:type": "government",
                "amenity": "kindergarten"
            }
        },
        {
            "id": 59897,
            "type": "Feature",
            "geometry": {
                "type": "Point",
                "coordinates": [
                    18.52946,
                    50.26985
                ]
            },
            "properties": {
                "ref:rspo": 59897,
                "official_name": "Miejskie Przedszkole w So\u015bnicowicach",
                "name": "Miejskie Przedszkole w So\u015bnicowicach",
                "addr:postcode": "44-153",
                "addr:city": "So\u015bnicowice",
                "addr:street": "Szprynek",
                "addr:housenumber": "3",
                "addr:teryt:simc": 221936,
                "addr:teryt:sym_ul": 37399,
                "phone": "+48 322387017",
                "email": "przedszkolesosnicowice@interia.eu",
                "ref:regon": "271512833",
                "ref:vatin": "PL9691344734",
                "operator": "Gmina So\u015bnicowice",
                "operator:type": "government",
                "amenity": "kindergarten"
            }
        },
        {
            "id": 59892,
            "type": "Feature",
            "geometry": {
                "type": "Point",
                "coordinates": [
                    18.5339,
                    50.27135
                ]
            },
            "properties": {
                "isced:level": "1;2",
                "ref:rspo": 59892,
                "official_name": "Szko\u0142a Podstawowa im. Juliusza Rogera",
                "name": "Szko\u0142a Podstawowa",
                "addr:postcode": "44-153",
                "addr:city": "So\u015bnicowice",
                "addr:street": "Gliwicka",
                "addr:housenumber": "21",
                "addr:teryt:simc": 221936,
                "addr:teryt:sym_ul": 5583,
                "phone": "+48 322387525",
                "email": "sp@jroger.pl",
                "ref:regon": "000677004",
                "ref:vatin": "PL9691142568",
                "operator": "Gmina So\u015bnicowice",
                "operator:type": "government",
                "amenity": "school"
            }
        },
        {
            "id": 59895,
            "type": "Feature",
            "geometry": {
                "type": "Point",
                "coordinates": [
                    18.47156,
                    50.27934
                ]
            },
            "properties": {
                "isced:level": "1;2",
                "ref:rspo": 59895,
                "official_name": "Szko\u0142a Podstawowa w Sierakowicach",
                "name": "Szko\u0142a Podstawowa w Sierakowicach",
                "addr:postcode": "44-156",
                "addr:city": "Sierakowice",
                "addr:street": "Wiejska",
                "addr:housenumber": "1",
                "addr:teryt:simc": 221899,
                "addr:teryt:sym_ul": 24048,
                "phone": "+48 322384138",
                "email": "spsierakowice@o2.pl",
                "website": "http:\/\/spsierakowice.pl",
                "ref:regon": "001198702",
                "ref:vatin": "PL9691227052",
                "operator": "Gmina So\u015bnicowice",
                "operator:type": "government",
                "amenity": "school"
            }
        },
        {
            "id": 59900,
            "type": "Feature",
            "geometry": {
                "type": "Point",
                "coordinates": [
                    18.47156,
                    50.279309999999995
                ]
            },
            "properties": {
                "ref:rspo": 59900,
                "official_name": "Gminne Przedszkole w Sierakowicach",
                "name": "Gminne Przedszkole w Sierakowicach",
                "addr:postcode": "44-156",
                "addr:city": "Sierakowice",
                "addr:street": "Wiejska",
                "addr:housenumber": "1",
                "addr:teryt:simc": 221899,
                "addr:teryt:sym_ul": 24048,
                "phone": "+48 322384250",
                "email": "przedszkolesierakowice@poczta.onet.pl",
                "ref:regon": "271512810",
                "ref:vatin": "PL9691344728",
                "operator": "Gmina So\u015bnicowice",
                "operator:type": "government",
                "amenity": "kindergarten"
            }
        },
        {
            "id": 59893,
            "type": "Feature",
            "geometry": {
                "type": "Point",
                "coordinates": [
                    18.5640259,
                    50.3165018
                ]
            },
            "properties": {
                "isced:level": "1;2",
                "ref:rspo": 59893,
                "official_name": "Szko\u0142a Podstawowa w Koz\u0142owie",
                "name": "Szko\u0142a Podstawowa w Koz\u0142owie",
                "addr:postcode": "44-153",
                "addr:city": "Koz\u0142\u00f3w",
                "addr:street": "Marcina",
                "addr:housenumber": "33",
                "addr:teryt:simc": 221847,
                "addr:teryt:sym_ul": 12283,
                "phone": "+48 322387166",
                "email": "spkozlow@interia.pl",
                "ref:regon": "001198688",
                "ref:vatin": "PL9691156458",
                "operator": "Gmina So\u015bnicowice",
                "operator:type": "government",
                "amenity": "school"
            }
        },
        {
            "id": 59904,
            "type": "Feature",
            "geometry": {
                "type": "Point",
                "coordinates": [
                    18.5640259,
                    50.316471799999995
                ]
            },
            "properties": {
                "ref:rspo": 59904,
                "official_name": "Gminne Przedszkole w Koz\u0142owie",
                "name": "Gminne Przedszkole w Koz\u0142owie",
                "addr:postcode": "44-153",
                "addr:city": "Koz\u0142\u00f3w",
                "addr:street": "Marcina",
                "addr:housenumber": "33",
                "addr:teryt:simc": 221847,
                "addr:teryt:sym_ul": 12283,
                "phone": "+48 322387166",
                "email": "przewoj@op.pl",
                "website": "http:\/\/przedszkolekozlow.edupage.org",
                "ref:regon": "271512780",
                "ref:vatin": "PL9691344697",
                "operator": "Gmina So\u015bnicowice",
                "operator:type": "government",
                "amenity": "kindergarten"
            }
        }
    ]
}