{
    "type": "FeatureCollection",
    "features": [
        {
            "id": 272321,
            "type": "Feature",
            "geometry": {
                "type": "Point",
                "coordinates": [
                    18.62573,
                    50.18876
                ]
            },
            "properties": {
                "ref:rspo": 272321,
                "official_name": "Zesp\u00f3\u0142 Szkolno-Przedszkolny nr 2",
                "name": "Zesp\u00f3\u0142 Szkolno-Przedszkolny nr 2",
                "addr:postcode": "44-194",
                "addr:city": "Knur\u00f3w",
                "addr:street": "Jana Kili\u0144skiego",
                "addr:housenumber": "6",
                "addr:city:simc": 940849,
                "addr:street:sym_ul": 8435,
                "phone": "+48 323304120",
                "ref:regon": "384123222",
                "ref:vatin": "PL9691638714",
                "operator": "Gmina Knur\u00f3w",
                "operator:type": "government",
                "landuse": "education",
                "fixme": "amenity=school, amenity=college albo landuse=education w zale\u017cno\u015bci od tego, jakie plac\u00f3wki wchodz\u0105 w sk\u0142ad zespo\u0142u. Sprawd\u017a, kiedy stosowa\u0107 amenity=* a kiedy landuse=education.",
                "note": "Children RSPO: 19966;20279"
            }
        },
        {
            "id": 19966,
            "type": "Feature",
            "geometry": {
                "type": "Point",
                "coordinates": [
                    18.62573,
                    50.18873
                ]
            },
            "properties": {
                "isced:level": "1;2",
                "ref:rspo": 19966,
                "official_name": "Miejska Szko\u0142a Podstawowa nr 4 w Knurowie",
                "name": "Miejska Szko\u0142a Podstawowa nr 4 w Knurowie",
                "addr:postcode": "44-193",
                "addr:city": "Knur\u00f3w",
                "addr:street": "Jana Kili\u0144skiego",
                "addr:housenumber": "6",
                "addr:city:simc": 940849,
                "addr:street:sym_ul": 8435,
                "phone": "+48 323304120",
                "email": "zsp2@knurow.edu.pl",
                "website": "http:\/\/www.zsp2.knurow.edu.pl",
                "ref:regon": "000727222",
                "ref:vatin": "PL9690033297",
                "operator": "Gmina Knur\u00f3w",
                "operator:type": "government",
                "amenity": "school",
                "note": "Parent RSPO: 272321"
            }
        },
        {
            "id": 20279,
            "type": "Feature",
            "geometry": {
                "type": "Point",
                "coordinates": [
                    18.62796,
                    50.18908
                ]
            },
            "properties": {
                "ref:rspo": 20279,
                "official_name": "Miejskie Przedszkole nr 3 im. Juliana Tuwima w Knurowie",
                "name": "Miejskie Przedszkole nr 3",
                "addr:postcode": "44-193",
                "addr:city": "Knur\u00f3w",
                "addr:street": "Jana Kili\u0144skiego",
                "addr:housenumber": "10",
                "addr:city:simc": 940849,
                "addr:street:sym_ul": 8435,
                "phone": "+48 322352775",
                "email": "mp3@knurow.edu.pl",
                "website": "http:\/\/www.przedszkole3.knurow.edu.pl",
                "ref:regon": "272001371",
                "ref:vatin": "PL9690033475",
                "operator": "Gmina Knur\u00f3w",
                "operator:type": "government",
                "amenity": "kindergarten",
                "note": "Parent RSPO: 272321"
            }
        },
        {
            "id": 48082,
            "type": "Feature",
            "geometry": {
                "type": "Point",
                "coordinates": [
                    18.62943,
                    50.1912499
                ]
            },
            "properties": {
                "ref:rspo": 48082,
                "official_name": "S.c.zak\u0142ad Szkole\u0144 I Pomiar\u00f3w \"Gbk\" w Knurowie",
                "name": "S.c.zak\u0142ad Szkole\u0144 I Pomiar\u00f3w \"Gbk\" w Knurowie",
                "addr:postcode": "44-193",
                "addr:city": "Knur\u00f3w",
                "addr:street": "Stanis\u0142awa Staszica",
                "addr:housenumber": "1",
                "addr:city:simc": 940849,
                "addr:street:sym_ul": 21071,
                "phone": "+48 322368416",
                "email": "gbk.knurow@outlook.com",
                "website": "http:\/\/www.gbk.knurow.pl",
                "ref:regon": "243073440",
                "ref:vatin": "PL9690058191",
                "operator": "Krzysztof Gontarz",
                "operator:type": "private",
                "fixme": "w zale\u017cno\u015bci od przedmiotu dzia\u0142alno\u015bci (np. amenity=training + training=*, amenity=dancing_school, amenity=language_school, amenity=music_school)"
            }
        },
        {
            "id": 20037,
            "type": "Feature",
            "geometry": {
                "type": "Point",
                "coordinates": [
                    18.63218,
                    50.19161
                ]
            },
            "properties": {
                "ref:rspo": 20037,
                "official_name": "Niepubliczne Przedszkole \"Weso\u0142e Nutki\"",
                "name": "Niepubliczne Przedszkole \"Weso\u0142e Nutki\"",
                "addr:postcode": "44-193",
                "addr:city": "Knur\u00f3w",
                "addr:street": "Sztygarska",
                "addr:housenumber": "4",
                "addr:city:simc": 940849,
                "addr:street:sym_ul": 22126,
                "phone": "+48 322352776",
                "email": "wesole-nutki@wp.pl",
                "website": "http:\/\/www.wesole-nutki.pl",
                "ref:regon": "243054915",
                "ref:vatin": "PL9690261644",
                "operator": "Anna Dziubli\u0144ska",
                "operator:type": "private",
                "amenity": "kindergarten"
            }
        },
        {
            "id": 16973,
            "type": "Feature",
            "geometry": {
                "type": "Point",
                "coordinates": [
                    18.6421,
                    50.20818
                ]
            },
            "properties": {
                "ref:rspo": 16973,
                "official_name": "Zesp\u00f3\u0142 Szkolno-Przedszkolny nr 1 im. Feliksa Michalskiego w Knurowie",
                "name": "Zesp\u00f3\u0142 Szkolno-Przedszkolny nr 1",
                "addr:postcode": "44-193",
                "addr:city": "Knur\u00f3w",
                "addr:street": "Feliksa Michalskiego",
                "addr:housenumber": "27",
                "addr:city:simc": 940849,
                "addr:street:sym_ul": 12691,
                "phone": "+48 322352779",
                "email": "zsp@knurow.edu.pl",
                "website": "http:\/\/zspknurow.szkolna.net",
                "ref:regon": "278099230",
                "operator": "Gmina Knur\u00f3w",
                "operator:type": "government",
                "landuse": "education",
                "fixme": "amenity=school, amenity=college albo landuse=education w zale\u017cno\u015bci od tego, jakie plac\u00f3wki wchodz\u0105 w sk\u0142ad zespo\u0142u. Sprawd\u017a, kiedy stosowa\u0107 amenity=* a kiedy landuse=education.",
                "note": "Children RSPO: 20217;20261"
            }
        },
        {
            "id": 20217,
            "type": "Feature",
            "geometry": {
                "type": "Point",
                "coordinates": [
                    18.6421,
                    50.208149999999996
                ]
            },
            "properties": {
                "ref:rspo": 20217,
                "official_name": "Miejskie Przedszkole nr 5 w Knurowie",
                "name": "Miejskie Przedszkole nr 5 w Knurowie",
                "addr:postcode": "44-193",
                "addr:city": "Knur\u00f3w",
                "addr:street": "Feliksa Michalskiego",
                "addr:housenumber": "27",
                "addr:city:simc": 940849,
                "addr:street:sym_ul": 12691,
                "phone": "+48 322352779",
                "email": "zsp@knurow.edu.pl",
                "website": "http:\/\/zsp.knurow.szkolna.net",
                "ref:regon": "272075464",
                "ref:vatin": "PL9690033498",
                "operator": "Gmina Knur\u00f3w",
                "operator:type": "government",
                "amenity": "kindergarten",
                "note": "Parent RSPO: 16973"
            }
        },
        {
            "id": 20261,
            "type": "Feature",
            "geometry": {
                "type": "Point",
                "coordinates": [
                    18.6421,
                    50.20812
                ]
            },
            "properties": {
                "isced:level": "1;2",
                "ref:rspo": 20261,
                "official_name": "Miejska Szko\u0142a Podstawowa nr 3 w Knurowie",
                "name": "Miejska Szko\u0142a Podstawowa nr 3 w Knurowie",
                "addr:postcode": "44-193",
                "addr:city": "Knur\u00f3w",
                "addr:street": "Feliksa Michalskiego",
                "addr:housenumber": "27",
                "addr:city:simc": 940849,
                "addr:street:sym_ul": 12691,
                "phone": "+48 322352779",
                "email": "zsp@knurow.edu.pl",
                "website": "http:\/\/zspknurow.szkolna.net",
                "ref:regon": "000727216",
                "ref:vatin": "PL9690033274",
                "operator": "Gmina Knur\u00f3w",
                "operator:type": "government",
                "amenity": "school",
                "note": "Parent RSPO: 16973"
            }
        },
        {
            "id": 130429,
            "type": "Feature",
            "geometry": {
                "type": "Point",
                "coordinates": [
                    18.63579,
                    50.21308
                ]
            },
            "properties": {
                "ref:rspo": 130429,
                "official_name": "Cedu\u015b",
                "name": "Cedu\u015b",
                "addr:postcode": "44-196",
                "addr:city": "Knur\u00f3w",
                "addr:street": "Rybnicka",
                "addr:housenumber": "37",
                "addr:city:simc": 940849,
                "addr:street:sym_ul": 19179,
                "phone": "+48 511192146",
                "website": "http:\/\/www.przedszkolecedus.pl",
                "ref:regon": "364016482",
                "ref:vatin": "PL9691463031",
                "operator": "Joanna Mikucka",
                "operator:type": "private",
                "amenity": "kindergarten"
            }
        },
        {
            "id": 43631,
            "type": "Feature",
            "geometry": {
                "type": "Point",
                "coordinates": [
                    18.6854,
                    50.21824
                ]
            },
            "properties": {
                "ref:rspo": 43631,
                "official_name": "Centrum Kszta\u0142cenia Ustawicznego \"Energoexpert\"",
                "name": "Centrum Kszta\u0142cenia Ustawicznego \"Energoexpert\"",
                "addr:postcode": "44-190",
                "addr:city": "Knur\u00f3w",
                "addr:street": "Dworcowa",
                "addr:housenumber": "38A",
                "addr:city:simc": 940849,
                "addr:street:sym_ul": 4434,
                "phone": "+48 721966155",
                "email": "cku@energoexpert.com.pl",
                "website": "http:\/\/www.energoexpert.com.pl",
                "ref:regon": "243071977",
                "ref:vatin": "PL9690967574",
                "operator": "Wojciech Wr\u00f3blewski",
                "operator:type": "private",
                "fixme": "w zale\u017cno\u015bci od przedmiotu dzia\u0142alno\u015bci (np. amenity=training + training=*, amenity=dancing_school, amenity=language_school, amenity=music_school)"
            }
        },
        {
            "id": 275856,
            "type": "Feature",
            "geometry": {
                "type": "Point",
                "coordinates": [
                    18.66332,
                    50.21894
                ]
            },
            "properties": {
                "ref:rspo": 275856,
                "official_name": "Niepubliczna Specjalistyczna Poradnia Psychologiczno-Pedagogiczna \"Dobre Miejsce\"",
                "name": "Niepubliczna Specjalistyczna Poradnia Psychologiczno-Pedagogiczna \"Dobre Miejsce\"",
                "addr:postcode": "44-190",
                "addr:city": "Knur\u00f3w",
                "addr:street": "Niepodleg\u0142o\u015bci",
                "addr:housenumber": "43",
                "addr:door": "1",
                "addr:city:simc": 940849,
                "addr:street:sym_ul": 14203,
                "email": "biuro@nsppp.pl",
                "website": "http:\/\/www.nsppp.pl",
                "ref:regon": "386944727",
                "operator": "Katarzyna \u015awistu\u0144",
                "operator:type": "private",
                "healthcare": "counselling",
                "counselling_type": "education",
                "fixme": "w zale\u017cno\u015bci od przedmiotu dzia\u0142alno\u015bci (np. healthcare=counselling + counselling_type=education albo healthcare=psychotherapist)"
            }
        },
        {
            "id": 276162,
            "type": "Feature",
            "geometry": {
                "type": "Point",
                "coordinates": [
                    18.66701,
                    50.22056
                ]
            },
            "properties": {
                "isced:level": "1;2",
                "ref:rspo": 276162,
                "official_name": "Niepubliczna Szko\u0142a Podstawowa Maranatha",
                "name": "Niepubliczna Szko\u0142a Podstawowa Maranatha",
                "addr:postcode": "44-190",
                "addr:city": "Knur\u00f3w",
                "addr:street": "Niepodleg\u0142o\u015bci",
                "addr:housenumber": "11",
                "addr:city:simc": 940849,
                "addr:street:sym_ul": 14203,
                "phone": "+48 883939800",
                "email": "sekretariat@szkolamaranatha.pl",
                "website": "http:\/\/www.szkolamaranatha.pl",
                "ref:regon": "387006847",
                "operator": "Aleksandra Ma\u0142aszewska",
                "operator:type": "private",
                "amenity": "school"
            }
        },
        {
            "id": 278126,
            "type": "Feature",
            "geometry": {
                "type": "Point",
                "coordinates": [
                    18.66701,
                    50.22053
                ]
            },
            "properties": {
                "isced:level": "3",
                "ref:rspo": 278126,
                "official_name": "Niepubliczne Liceum Og\u00f3lnokszta\u0142c\u0105ce Maranatha",
                "name": "Niepubliczne Liceum Og\u00f3lnokszta\u0142c\u0105ce Maranatha",
                "addr:postcode": "44-190",
                "addr:city": "Knur\u00f3w",
                "addr:street": "Niepodleg\u0142o\u015bci",
                "addr:housenumber": "11",
                "addr:city:simc": 940849,
                "addr:street:sym_ul": 14203,
                "phone": "+48 883939800",
                "email": "sekretariat@szkolamaranatha.pl",
                "website": "http:\/\/www.szkolamaranatha.pl",
                "ref:regon": "389855496",
                "operator": "Aleksandra Ma\u0142aszewska",
                "operator:type": "private",
                "amenity": "school"
            }
        },
        {
            "id": 17195,
            "type": "Feature",
            "geometry": {
                "type": "Point",
                "coordinates": [
                    18.669219970703,
                    50.221488952637
                ]
            },
            "properties": {
                "isced:level": "1;2",
                "ref:rspo": 17195,
                "official_name": "Miejska Szko\u0142a Podstawowa z Oddzia\u0142ami Integracyjnymi nr 2 im. Karola Miarki w Knurowie",
                "name": "Miejska Szko\u0142a Podstawowa z Oddzia\u0142ami Integracyjnymi nr 2",
                "addr:postcode": "44-190",
                "addr:city": "Knur\u00f3w",
                "addr:street": "Wilsona",
                "addr:housenumber": "22",
                "addr:city:simc": 940849,
                "addr:street:sym_ul": 24320,
                "phone": "+48 322352727",
                "email": "msp2@knurow.edu.pl",
                "website": "http:\/\/msp2knurow.edupage.org",
                "ref:regon": "000727200",
                "ref:vatin": "PL9690033423",
                "operator": "Gmina Knur\u00f3w",
                "operator:type": "government",
                "amenity": "school"
            }
        },
        {
            "id": 42977,
            "type": "Feature",
            "geometry": {
                "type": "Point",
                "coordinates": [
                    18.66541,
                    50.22219
                ]
            },
            "properties": {
                "ref:rspo": 42977,
                "official_name": "Kompanijny O\u015brodek Szkolenia w Knurowie",
                "name": "Kompanijny O\u015brodek Szkolenia w Knurowie",
                "addr:postcode": "44-190",
                "addr:city": "Knur\u00f3w",
                "addr:street": "Szpitalna",
                "addr:housenumber": "8",
                "addr:city:simc": 940849,
                "addr:street:sym_ul": 22073,
                "phone": "+48 322366200",
                "email": "sekretariat@kos.edu.pl",
                "website": "http:\/\/www.kos.edu.pl",
                "ref:regon": "243072072",
                "ref:vatin": "PL6461002069",
                "operator": "Grupa Kok Sp\u00f3\u0142ka Z Ograniczon\u0105 Odpowiedzialno\u015bci\u0105",
                "operator:type": "private",
                "fixme": "w zale\u017cno\u015bci od przedmiotu dzia\u0142alno\u015bci (np. amenity=training + training=*, amenity=dancing_school, amenity=language_school, amenity=music_school)"
            }
        },
        {
            "id": 19558,
            "type": "Feature",
            "geometry": {
                "type": "Point",
                "coordinates": [
                    18.66929,
                    50.22231
                ]
            },
            "properties": {
                "ref:rspo": 19558,
                "official_name": "Miejskie Przedszkole nr 7 w Knurowie",
                "name": "Miejskie Przedszkole nr 7 w Knurowie",
                "addr:postcode": "44-190",
                "addr:city": "Knur\u00f3w",
                "addr:street": "Doktora Floriana Ogana",
                "addr:housenumber": "2",
                "addr:city:simc": 940849,
                "addr:street:sym_ul": 14807,
                "phone": "+48 322352783",
                "email": "mp7@knurow.edu.pl",
                "website": "http:\/\/www.mp7.knurow.pl",
                "ref:regon": "272001394",
                "ref:vatin": "PL9690033529",
                "operator": "Gmina Knur\u00f3w",
                "operator:type": "government",
                "amenity": "kindergarten"
            }
        },
        {
            "id": 17047,
            "type": "Feature",
            "geometry": {
                "type": "Point",
                "coordinates": [
                    18.67644,
                    50.22235
                ]
            },
            "properties": {
                "isced:level": "1;2",
                "ref:rspo": 17047,
                "official_name": "Miejska Szko\u0142a Podstawowa nr 1 im. Powsta\u0144c\u00f3w \u015aL\u0105skich w Knurowie",
                "name": "Miejska Szko\u0142a Podstawowa nr 1",
                "addr:postcode": "44-190",
                "addr:city": "Knur\u00f3w",
                "addr:street": "Antoniego S\u0142oniny",
                "addr:housenumber": "1",
                "addr:city:simc": 940849,
                "addr:street:sym_ul": 20270,
                "phone": "+48 322352715",
                "email": "msp1@knurow.edu.pl",
                "website": "http:\/\/www.mspnr1knurow.edupage.org",
                "ref:regon": "000727191",
                "ref:vatin": "PL9690033417",
                "operator": "Gmina Knur\u00f3w",
                "operator:type": "government",
                "amenity": "school"
            }
        },
        {
            "id": 20181,
            "type": "Feature",
            "geometry": {
                "type": "Point",
                "coordinates": [
                    18.67724,
                    50.2244
                ]
            },
            "properties": {
                "ref:rspo": 20181,
                "official_name": "Niepubliczne Przedszkole \"\u015awiate\u0142ko\" B\u0142. Edmunda Bojanowskiego",
                "name": "Niepubliczne Przedszkole \"\u015awiate\u0142ko\" B\u0142. Edmunda Bojanowskiego",
                "addr:postcode": "44-190",
                "addr:city": "Knur\u00f3w",
                "addr:street": "Ksi\u0119dza Alojzego Kozie\u0142ka",
                "addr:housenumber": "31",
                "addr:city:simc": 940849,
                "addr:street:sym_ul": 9715,
                "phone": "+48 322350121",
                "email": "knurowprzedszkole@gmail.com",
                "ref:regon": "243055458",
                "ref:vatin": "PL9691557453",
                "operator": "Zgromadzenie Si\u00f3str S\u0142uzebniczek Nmp",
                "operator:type": "religious",
                "amenity": "kindergarten"
            }
        },
        {
            "id": 17686,
            "type": "Feature",
            "geometry": {
                "type": "Point",
                "coordinates": [
                    18.66679,
                    50.2269099
                ]
            },
            "properties": {
                "ref:rspo": 17686,
                "official_name": "Zesp\u00f3\u0142 Szk\u00f3\u0142 im. Ignacego Jana Paderewskiego w Knurowie",
                "name": "Zesp\u00f3\u0142 Szk\u00f3\u0142",
                "addr:postcode": "44-190",
                "addr:city": "Knur\u00f3w",
                "addr:street": "1 Maja",
                "addr:housenumber": "21",
                "addr:city:simc": 940849,
                "addr:street:sym_ul": 11926,
                "phone": "+48 322351961",
                "email": "zsijp@powiatgliwicki.pl",
                "website": "http:\/\/www.zsijp.pl",
                "ref:regon": "000861340",
                "ref:vatin": "PL9690049973",
                "operator": "Powiat Gliwicki",
                "operator:type": "government",
                "landuse": "education",
                "fixme": "amenity=school, amenity=college albo landuse=education w zale\u017cno\u015bci od tego, jakie plac\u00f3wki wchodz\u0105 w sk\u0142ad zespo\u0142u. Sprawd\u017a, kiedy stosowa\u0107 amenity=* a kiedy landuse=education.",
                "note": "Children RSPO: 19714;19716;19717"
            }
        },
        {
            "id": 19714,
            "type": "Feature",
            "geometry": {
                "type": "Point",
                "coordinates": [
                    18.66679,
                    50.2268799
                ]
            },
            "properties": {
                "isced:level": "3",
                "ref:rspo": 19714,
                "official_name": "I Liceum Og\u00f3lnokszta\u0142c\u0105ce w Knurowie w Zespole Szk\u00f3\u0142 im. Ignacego Jana Paderewskiego w Knurowie, z Siedzib\u0105 Przy Ul. 1 Go Maja 21, 44-190 Knur\u00f3w",
                "name": "I Liceum Og\u00f3lnokszta\u0142c\u0105ce w Knurowie w Zespole Szk\u00f3\u0142",
                "addr:postcode": "44-190",
                "addr:city": "Knur\u00f3w",
                "addr:street": "1 Maja",
                "addr:housenumber": "21",
                "addr:city:simc": 940849,
                "addr:street:sym_ul": 11926,
                "phone": "+48 322351961",
                "email": "zsijp@powiatgliwicki.pl",
                "website": "http:\/\/www.zsijp.pl",
                "ref:regon": "000204352",
                "ref:vatin": "PL9690049973",
                "operator": "Powiat Gliwicki",
                "operator:type": "government",
                "amenity": "school",
                "note": "Parent RSPO: 17686"
            }
        },
        {
            "id": 19717,
            "type": "Feature",
            "geometry": {
                "type": "Point",
                "coordinates": [
                    18.66679,
                    50.226849900000005
                ]
            },
            "properties": {
                "isced:level": "4",
                "ref:rspo": 19717,
                "official_name": "Szko\u0142a Policealna nr 1 w Knurowie w Zespole Szk\u00f3\u0142 im.ignacego Jana Paderewskiego w Knurowie",
                "name": "Szko\u0142a Policealna nr 1 w Knurowie w Zespole Szk\u00f3\u0142 im.ignacego Jana Paderewskiego w Knurowie",
                "addr:postcode": "44-190",
                "addr:city": "Knur\u00f3w",
                "addr:street": "1 Maja",
                "addr:housenumber": "21",
                "addr:city:simc": 940849,
                "addr:street:sym_ul": 11926,
                "phone": "+48 322351961",
                "email": "zsijp@powiatgliwicki.pl",
                "website": "http:\/\/www.zsijp.pl",
                "ref:regon": "272595749",
                "ref:vatin": "PL9690049973",
                "operator": "Powiat Gliwicki",
                "operator:type": "government",
                "amenity": "college",
                "note": "Parent RSPO: 17686"
            }
        },
        {
            "id": 17688,
            "type": "Feature",
            "geometry": {
                "type": "Point",
                "coordinates": [
                    18.65455,
                    50.22786
                ]
            },
            "properties": {
                "ref:rspo": 17688,
                "official_name": "Zesp\u00f3\u0142 Szk\u00f3\u0142 Specjalnych w Knurowie",
                "name": "Zesp\u00f3\u0142 Szk\u00f3\u0142 Specjalnych w Knurowie",
                "addr:postcode": "44-194",
                "addr:city": "Knur\u00f3w",
                "addr:street": "Szpitalna",
                "addr:housenumber": "25",
                "addr:city:simc": 940849,
                "addr:street:sym_ul": 22073,
                "phone": "+48 322352022",
                "email": "zssknurow@o2.pl",
                "website": "http:\/\/www.zssknurow.dbox.pl",
                "ref:regon": "276599589",
                "ref:vatin": "PL9691606571",
                "operator": "Powiat Gliwicki",
                "operator:type": "government",
                "landuse": "education",
                "fixme": "amenity=school, amenity=college albo landuse=education w zale\u017cno\u015bci od tego, jakie plac\u00f3wki wchodz\u0105 w sk\u0142ad zespo\u0142u. Sprawd\u017a, kiedy stosowa\u0107 amenity=* a kiedy landuse=education.",
                "note": "Children RSPO: 29874;29876"
            }
        },
        {
            "id": 19716,
            "type": "Feature",
            "geometry": {
                "type": "Point",
                "coordinates": [
                    18.65455,
                    50.22783
                ]
            },
            "properties": {
                "isced:level": "3",
                "ref:rspo": 19716,
                "official_name": "Technikum nr 1 w Knurowie w Zespole Szk\u00f3\u0142 im. Ignacego Jana Paderewskiego w Knurowie, z Siedzib\u0105 Przy Ul. Szpitalnej 25, 44-194 Knur\u00f3w",
                "name": "Technikum nr 1 w Knurowie w Zespole Szk\u00f3\u0142",
                "addr:postcode": "44-194",
                "addr:city": "Knur\u00f3w",
                "addr:street": "Szpitalna",
                "addr:housenumber": "25",
                "addr:city:simc": 940849,
                "addr:street:sym_ul": 22073,
                "phone": "+48 322351082",
                "email": "zsijp@powiatgliwicki.pl",
                "website": "http:\/\/www.zsijp.pl",
                "ref:regon": "240383529",
                "ref:vatin": "PL9690049973",
                "operator": "Powiat Gliwicki",
                "operator:type": "government",
                "amenity": "school",
                "note": "Parent RSPO: 17686"
            }
        },
        {
            "id": 29874,
            "type": "Feature",
            "geometry": {
                "type": "Point",
                "coordinates": [
                    18.65455,
                    50.2278
                ]
            },
            "properties": {
                "isced:level": "1;2",
                "ref:rspo": 29874,
                "official_name": "Szko\u0142a Podstawowa Specjalna w Knurowie w Zespole Szk\u00f3\u0142 Specjalnych z Siedzib\u0105 w Knurowie Przy Ul. Szpitalnej 25",
                "name": "Szko\u0142a Podstawowa Specjalna w Knurowie w Zespole Szk\u00f3\u0142 Specjalnych z Siedzib\u0105 w Knurowie Przy Ul. Szpitalnej 25",
                "addr:postcode": "44-194",
                "addr:city": "Knur\u00f3w",
                "addr:street": "Szpitalna",
                "addr:housenumber": "25",
                "addr:city:simc": 940849,
                "addr:street:sym_ul": 22073,
                "phone": "+48 322352022",
                "email": "zssknurow@o2.pl",
                "website": "http:\/\/www.zssknurow.dbox.pl",
                "ref:regon": "271503194",
                "ref:vatin": "PL9691606571",
                "operator": "Powiat Gliwicki",
                "operator:type": "government",
                "amenity": "school",
                "note": "Parent RSPO: 17688"
            }
        },
        {
            "id": 29876,
            "type": "Feature",
            "geometry": {
                "type": "Point",
                "coordinates": [
                    18.65455,
                    50.22777
                ]
            },
            "properties": {
                "ref:rspo": 29876,
                "official_name": "Szko\u0142a Specjalna Przysposabiaj\u0105ca do Pracy w Knurowie w Zespole Szk\u00f3\u0142 Specjalnych z Siedzib\u0105 w Knurowie Przy Ul. Szpitalnej 25",
                "name": "Szko\u0142a Specjalna Przysposabiaj\u0105ca do Pracy w Knurowie w Zespole Szk\u00f3\u0142 Specjalnych z Siedzib\u0105 w Knurowie Przy Ul. Szpitalnej 25",
                "addr:postcode": "44-194",
                "addr:city": "Knur\u00f3w",
                "addr:street": "Szpitalna",
                "addr:housenumber": "25",
                "addr:city:simc": 940849,
                "addr:street:sym_ul": 22073,
                "phone": "+48 322352022",
                "email": "zssknurow@o2.pl",
                "website": "http:\/\/www.zssknurow.dbox.pl",
                "ref:regon": "240402362",
                "ref:vatin": "PL9691606571",
                "operator": "Powiat Gliwicki",
                "operator:type": "government",
                "amenity": "school",
                "note": "Parent RSPO: 17688"
            }
        },
        {
            "id": 17312,
            "type": "Feature",
            "geometry": {
                "type": "Point",
                "coordinates": [
                    18.65457,
                    50.22881
                ]
            },
            "properties": {
                "ref:rspo": 17312,
                "official_name": "Poradnia Psychologiczno-Pedagogiczna w Knurowie",
                "name": "Poradnia Psychologiczno-Pedagogiczna w Knurowie",
                "addr:postcode": "44-194",
                "addr:city": "Knur\u00f3w",
                "addr:street": "Kosmonaut\u00f3w",
                "addr:housenumber": "5a",
                "addr:city:simc": 940849,
                "addr:street:sym_ul": 9440,
                "phone": "+48 322351476",
                "email": "poradniaknurow@wp.pl",
                "website": "http:\/\/pppknurow.szkolnastrona.pl",
                "ref:regon": "000727251",
                "ref:vatin": "PL9690033127",
                "operator": "Powiat Gliwicki",
                "operator:type": "government",
                "healthcare": "counselling",
                "counselling_type": "education",
                "fixme": "w zale\u017cno\u015bci od przedmiotu dzia\u0142alno\u015bci (np. healthcare=counselling + counselling_type=education albo healthcare=psychotherapist)"
            }
        },
        {
            "id": 17689,
            "type": "Feature",
            "geometry": {
                "type": "Point",
                "coordinates": [
                    18.65149,
                    50.2293
                ]
            },
            "properties": {
                "ref:rspo": 17689,
                "official_name": "Zesp\u00f3\u0142 Szk\u00f3\u0142 Zawodowych nr 2 w Knurowie",
                "name": "Zesp\u00f3\u0142 Szk\u00f3\u0142 Zawodowych nr 2 w Knurowie",
                "addr:postcode": "44-194",
                "addr:city": "Knur\u00f3w",
                "addr:street": "Szpitalna",
                "addr:housenumber": "29",
                "addr:city:simc": 940849,
                "addr:street:sym_ul": 22073,
                "phone": "+48 323362617",
                "email": "zsz2knurow@poczta.onet.pl",
                "website": "http:\/\/www.zsz2knurow.edupage.org",
                "ref:regon": "272219851",
                "ref:vatin": "PL9690923298",
                "operator": "Powiat Gliwicki",
                "operator:type": "government",
                "landuse": "education",
                "fixme": "amenity=school, amenity=college albo landuse=education w zale\u017cno\u015bci od tego, jakie plac\u00f3wki wchodz\u0105 w sk\u0142ad zespo\u0142u. Sprawd\u017a, kiedy stosowa\u0107 amenity=* a kiedy landuse=education.",
                "note": "Children RSPO: 20218;20220;20223;20225"
            }
        },
        {
            "id": 20218,
            "type": "Feature",
            "geometry": {
                "type": "Point",
                "coordinates": [
                    18.65149,
                    50.22927
                ]
            },
            "properties": {
                "isced:level": "3",
                "ref:rspo": 20218,
                "official_name": "Technikum nr 2 w Knurowie w Zespole Szk\u00f3\u0142 Zawodowych nr 2 w Knurowie, z Siedzib\u0105 Przy Ul. Szpitalnej 29, 44-194 Knur\u00f3w",
                "name": "Technikum nr 2 w Knurowie w Zespole Szk\u00f3\u0142 Zawodowych nr 2 w Knurowie, z Siedzib\u0105 Przy Ul. Szpitalnej 29, 44-194 Knur\u00f3w",
                "addr:postcode": "44-194",
                "addr:city": "Knur\u00f3w",
                "addr:street": "Szpitalna",
                "addr:housenumber": "29",
                "addr:city:simc": 940849,
                "addr:street:sym_ul": 22073,
                "phone": "+48 323362617",
                "email": "zsz2knurow@poczta.onet.pl",
                "website": "http:\/\/www.zsz2knurow.edupage.org",
                "ref:regon": "278297987",
                "ref:vatin": "PL9690923298",
                "operator": "Powiat Gliwicki",
                "operator:type": "government",
                "amenity": "school",
                "note": "Parent RSPO: 17689"
            }
        },
        {
            "id": 20220,
            "type": "Feature",
            "geometry": {
                "type": "Point",
                "coordinates": [
                    18.65149,
                    50.229240000000004
                ]
            },
            "properties": {
                "isced:level": "3",
                "ref:rspo": 20220,
                "official_name": "Ii Liceum Og\u00f3lnokszta\u0142c\u0105ce w Knurowie w Zespole Szk\u00f3\u0142 Zawodowych nr 2 w Knurowie, z Siedzib\u0105 Przy Ul. Szpitalnej 29, 44-194 Knur\u00f3w",
                "name": "Ii Liceum Og\u00f3lnokszta\u0142c\u0105ce w Knurowie w Zespole Szk\u00f3\u0142 Zawodowych nr 2 w Knurowie, z Siedzib\u0105 Przy Ul. Szpitalnej 29, 44-194 Knur\u00f3w",
                "addr:postcode": "44-194",
                "addr:city": "Knur\u00f3w",
                "addr:street": "Szpitalna",
                "addr:housenumber": "29",
                "addr:city:simc": 940849,
                "addr:street:sym_ul": 22073,
                "phone": "+48 323362617",
                "email": "zsz2knurow@poczta.onet.pl",
                "website": "http:\/\/www.zsz2knurow.edupage.org",
                "ref:regon": "277667940",
                "ref:vatin": "PL9690923298",
                "operator": "Powiat Gliwicki",
                "operator:type": "government",
                "amenity": "school",
                "note": "Parent RSPO: 17689"
            }
        },
        {
            "id": 20223,
            "type": "Feature",
            "geometry": {
                "type": "Point",
                "coordinates": [
                    18.65149,
                    50.22921
                ]
            },
            "properties": {
                "isced:level": "4",
                "ref:rspo": 20223,
                "official_name": "Szko\u0142a Policealna nr 2 w Knurowie w Zespole Szk\u00f3\u0142 Zawodowych nr 2 w Knurowie",
                "name": "Szko\u0142a Policealna nr 2 w Knurowie w Zespole Szk\u00f3\u0142 Zawodowych nr 2 w Knurowie",
                "addr:postcode": "44-194",
                "addr:city": "Knur\u00f3w",
                "addr:street": "Szpitalna",
                "addr:housenumber": "29",
                "addr:city:simc": 940849,
                "addr:street:sym_ul": 22073,
                "phone": "+48 323362617",
                "email": "zsz2knurow@poczta.onet.pl",
                "website": "http:\/\/www.zsz2knurow.edupage.org",
                "ref:regon": "240161071",
                "ref:vatin": "PL9690923298",
                "operator": "Powiat Gliwicki",
                "operator:type": "government",
                "amenity": "college",
                "note": "Parent RSPO: 17689"
            }
        },
        {
            "id": 20225,
            "type": "Feature",
            "geometry": {
                "type": "Point",
                "coordinates": [
                    18.65149,
                    50.22918
                ]
            },
            "properties": {
                "isced:level": "3",
                "ref:rspo": 20225,
                "official_name": "Bran\u017cowa Szko\u0142a I Stopnia w Knurowie w Zespole Szk\u00f3\u0142 Zawodowych nr 2 w Knurowie",
                "name": "Bran\u017cowa Szko\u0142a I Stopnia w Knurowie w Zespole Szk\u00f3\u0142 Zawodowych nr 2 w Knurowie",
                "addr:postcode": "44-194",
                "addr:city": "Knur\u00f3w",
                "addr:street": "Szpitalna",
                "addr:housenumber": "29",
                "addr:city:simc": 940849,
                "addr:street:sym_ul": 22073,
                "phone": "+48 323362617",
                "email": "zsz2knurow@poczta.onet.pl",
                "website": "http:\/\/www.zsz2knurow.edupage.org",
                "ref:regon": "272077990",
                "operator": "Powiat Gliwicki",
                "operator:type": "government",
                "amenity": "school",
                "note": "Parent RSPO: 17689"
            }
        },
        {
            "id": 275072,
            "type": "Feature",
            "geometry": {
                "type": "Point",
                "coordinates": [
                    18.65846,
                    50.23048
                ]
            },
            "properties": {
                "ref:rspo": 275072,
                "official_name": "Zesp\u00f3\u0142 Szkolno-Przedszkolny nr 3",
                "name": "Zesp\u00f3\u0142 Szkolno-Przedszkolny nr 3",
                "addr:postcode": "44-194",
                "addr:city": "Knur\u00f3w",
                "addr:street": "Stefana Batorego",
                "addr:housenumber": "7",
                "addr:city:simc": 940849,
                "addr:street:sym_ul": 891,
                "phone": "+48 322352735",
                "email": "zsp3@knurow.edu.pl",
                "website": "http:\/\/www.zsp3-knurow.edupage.org",
                "ref:regon": "386529572",
                "operator": "Gmina Knur\u00f3w",
                "operator:type": "government",
                "landuse": "education",
                "fixme": "amenity=school, amenity=college albo landuse=education w zale\u017cno\u015bci od tego, jakie plac\u00f3wki wchodz\u0105 w sk\u0142ad zespo\u0142u. Sprawd\u017a, kiedy stosowa\u0107 amenity=* a kiedy landuse=education.",
                "note": "Children RSPO: 19071;275066"
            }
        },
        {
            "id": 19071,
            "type": "Feature",
            "geometry": {
                "type": "Point",
                "coordinates": [
                    18.65846,
                    50.23045
                ]
            },
            "properties": {
                "isced:level": "1;2",
                "ref:rspo": 19071,
                "official_name": "Miejska Szko\u0142a Podstawowa nr 6 im. Kr\u00f3lowej Jadwigi w Knurowie",
                "name": "Miejska Szko\u0142a Podstawowa nr 6",
                "addr:postcode": "44-194",
                "addr:city": "Knur\u00f3w",
                "addr:street": "Stefana Batorego",
                "addr:housenumber": "7",
                "addr:city:simc": 940849,
                "addr:street:sym_ul": 891,
                "phone": "+48 322352735",
                "email": "zsp3@knurow.edu.pl",
                "website": "http:\/\/www.zsp3-knurow.edupage.org",
                "ref:regon": "000727245",
                "ref:vatin": "PL9690033311",
                "operator": "Gmina Knur\u00f3w",
                "operator:type": "government",
                "amenity": "school",
                "note": "Parent RSPO: 275072"
            }
        },
        {
            "id": 275066,
            "type": "Feature",
            "geometry": {
                "type": "Point",
                "coordinates": [
                    18.65846,
                    50.23042
                ]
            },
            "properties": {
                "ref:rspo": 275066,
                "official_name": "Miejskie Przedszkole nr 1 w Knurowie",
                "name": "Miejskie Przedszkole nr 1 w Knurowie",
                "addr:postcode": "44-194",
                "addr:city": "Knur\u00f3w",
                "addr:street": "Stefana Batorego",
                "addr:housenumber": "7",
                "addr:city:simc": 940849,
                "addr:street:sym_ul": 891,
                "phone": "+48 322352735",
                "ref:regon": "386529135",
                "operator": "Gmina Knur\u00f3w",
                "operator:type": "government",
                "amenity": "kindergarten",
                "note": "Parent RSPO: 275072"
            }
        },
        {
            "id": 121360,
            "type": "Feature",
            "geometry": {
                "type": "Point",
                "coordinates": [
                    18.6631,
                    50.2316999
                ]
            },
            "properties": {
                "ref:rspo": 121360,
                "official_name": "Przedszkole Niepubliczne Planeta Dzieci",
                "name": "Przedszkole Niepubliczne Planeta Dzieci",
                "addr:postcode": "44-190",
                "addr:city": "Knur\u00f3w",
                "addr:street": "1 Maja",
                "addr:housenumber": "62",
                "addr:city:simc": 940849,
                "addr:street:sym_ul": 11926,
                "phone": "+48 502501984",
                "email": "planeta.dzieci@interia.pl",
                "website": "http:\/\/www.planeta-dzieci.com",
                "ref:regon": "243454448",
                "ref:vatin": "PL6272339856",
                "operator": "Maja Podg\u00f3rska",
                "operator:type": "private",
                "amenity": "kindergarten"
            }
        },
        {
            "id": 19985,
            "type": "Feature",
            "geometry": {
                "type": "Point",
                "coordinates": [
                    18.65537,
                    50.23178
                ]
            },
            "properties": {
                "ref:rspo": 19985,
                "official_name": "Miejskie Przedszkole nr 12 im. Janusza Korczaka w Knurowie",
                "name": "Miejskie Przedszkole nr 12",
                "addr:postcode": "44-194",
                "addr:city": "Knur\u00f3w",
                "addr:street": "Armii Krajowej",
                "addr:housenumber": "5",
                "addr:city:simc": 940849,
                "addr:street:sym_ul": 432,
                "phone": "+48 322352785",
                "email": "mp12@knurow.edu.pl",
                "website": "http:\/\/www.mp12knurow.pl",
                "ref:regon": "272001448",
                "ref:vatin": "PL9690033363",
                "operator": "Gmina Knur\u00f3w",
                "operator:type": "government",
                "amenity": "kindergarten"
            }
        },
        {
            "id": 19141,
            "type": "Feature",
            "geometry": {
                "type": "Point",
                "coordinates": [
                    18.6565,
                    50.23289
                ]
            },
            "properties": {
                "isced:level": "1;2",
                "ref:rspo": 19141,
                "official_name": "Miejska Szko\u0142a Podstawowa nr 7 w Knurowie",
                "name": "Miejska Szko\u0142a Podstawowa nr 7 w Knurowie",
                "addr:postcode": "44-194",
                "addr:city": "Knur\u00f3w",
                "addr:street": "Jedno\u015bci Narodowej",
                "addr:housenumber": "5",
                "addr:city:simc": 940849,
                "addr:street:sym_ul": 7435,
                "phone": "+48 322352739",
                "email": "msp7@knurow.edu.pl",
                "website": "http:\/\/www.sp7knurow.eu",
                "ref:regon": "001068052",
                "ref:vatin": "PL9690033340",
                "operator": "Gmina Knur\u00f3w",
                "operator:type": "government",
                "amenity": "school"
            }
        },
        {
            "id": 19205,
            "type": "Feature",
            "geometry": {
                "type": "Point",
                "coordinates": [
                    18.65362,
                    50.23382
                ]
            },
            "properties": {
                "isced:level": "1;2",
                "ref:rspo": 19205,
                "official_name": "Miejska Szko\u0142a Podstawowa nr 9 im. Marii Konopnickiej",
                "name": "Miejska Szko\u0142a Podstawowa nr 9",
                "addr:postcode": "44-196",
                "addr:city": "Knur\u00f3w",
                "addr:street": "Aleja Lipowa",
                "addr:housenumber": "12",
                "addr:city:simc": 940849,
                "addr:street:sym_ul": 30312,
                "phone": "+48 322352765",
                "email": "msp9@knurow.edu.pl",
                "website": "http:\/\/sp9.knurow.edu.pl",
                "ref:regon": "271078118",
                "ref:vatin": "PL9690033110",
                "operator": "Gmina Knur\u00f3w",
                "operator:type": "government",
                "amenity": "school"
            }
        },
        {
            "id": 41329,
            "type": "Feature",
            "geometry": {
                "type": "Point",
                "coordinates": [
                    18.65362,
                    50.23379
                ]
            },
            "properties": {
                "ref:rspo": 41329,
                "official_name": "Miejskie Ognisko Pracy Pozaszkolnej w Knurowie",
                "name": "Miejskie Ognisko Pracy Pozaszkolnej w Knurowie",
                "addr:postcode": "44-196",
                "addr:city": "Knur\u00f3w",
                "addr:street": "Aleja Lipowa",
                "addr:housenumber": "12",
                "addr:city:simc": 940849,
                "addr:street:sym_ul": 30312,
                "phone": "+48 322352713",
                "email": "mopp@knurow.edu.pl",
                "website": "http:\/\/www.mopp.knurow.edu.pl",
                "ref:regon": "272075263",
                "ref:vatin": "PL9690033179",
                "operator": "Gmina Knur\u00f3w",
                "operator:type": "government",
                "amenity": "community_centre",
                "community_centre:for": "child;juvenile"
            }
        },
        {
            "id": 44144,
            "type": "Feature",
            "geometry": {
                "type": "Point",
                "coordinates": [
                    18.65362,
                    50.233760000000004
                ]
            },
            "properties": {
                "ref:rspo": 44144,
                "official_name": "Szko\u0142a J\u0119zyk\u00f3w Obcych \"Level\" w Knurowie",
                "name": "Szko\u0142a J\u0119zyk\u00f3w Obcych \"Level\" w Knurowie",
                "addr:postcode": "44-194",
                "addr:city": "Knur\u00f3w",
                "addr:street": "Aleja Lipowa",
                "addr:housenumber": "12",
                "addr:city:simc": 940849,
                "addr:street:sym_ul": 30312,
                "phone": "+48 323362089",
                "email": "knurow@level.edu.pl",
                "website": "http:\/\/www.knurow.level.edu.pl",
                "ref:regon": "243071990",
                "ref:vatin": "PL9690428647",
                "operator": "Jerzy Stawinoga",
                "operator:type": "private",
                "fixme": "w zale\u017cno\u015bci od przedmiotu dzia\u0142alno\u015bci (np. amenity=training + training=*, amenity=dancing_school, amenity=language_school, amenity=music_school)"
            }
        },
        {
            "id": 19528,
            "type": "Feature",
            "geometry": {
                "type": "Point",
                "coordinates": [
                    18.65459,
                    50.23688
                ]
            },
            "properties": {
                "ref:rspo": 19528,
                "official_name": "Miejskie Przedszkole nr 2 im. Jana Brzechwy w Knurowie",
                "name": "Miejskie Przedszkole nr 2",
                "addr:postcode": "44-196",
                "addr:city": "Knur\u00f3w",
                "addr:street": "Lotnik\u00f3w",
                "addr:housenumber": "3",
                "addr:city:simc": 940849,
                "addr:street:sym_ul": 11275,
                "phone": "+48 322352772",
                "email": "mp2@knurow.edu.pl",
                "website": "http:\/\/www.przedszkolenr2.edupage.org",
                "ref:regon": "270231285",
                "ref:vatin": "PL9690033535",
                "operator": "Gmina Knur\u00f3w",
                "operator:type": "government",
                "amenity": "kindergarten"
            }
        },
        {
            "id": 20126,
            "type": "Feature",
            "geometry": {
                "type": "Point",
                "coordinates": [
                    18.65781,
                    50.23766
                ]
            },
            "properties": {
                "ref:rspo": 20126,
                "official_name": "Miejskie Przedszkole z Oddzia\u0142ami Integracyjnymi nr 13 w Knurowie",
                "name": "Miejskie Przedszkole z Oddzia\u0142ami Integracyjnymi nr 13 w Knurowie",
                "addr:postcode": "44-196",
                "addr:city": "Knur\u00f3w",
                "addr:street": "Pi\u0142sudczyk\u00f3w",
                "addr:housenumber": "4",
                "addr:city:simc": 940849,
                "addr:street:sym_ul": 16248,
                "phone": "+48 322352788",
                "email": "mp13@knurow.edu.pl",
                "ref:regon": "272001454",
                "ref:vatin": "PL9690033392",
                "operator": "Gmina Knur\u00f3w",
                "operator:type": "government",
                "amenity": "kindergarten"
            }
        }
    ]
}