{"type":"FeatureCollection","features":[{"id":262264,"type":"Feature","geometry":{"type":"Point","coordinates":[18.77883,50.21057]},"properties":{"ref:rspo":262264,"official_name":"Zesp\u00f3\u0142 Szkolno-Przedszkolny w Chudowie","name":"Zesp\u00f3\u0142 Szkolno-Przedszkolny w Chudowie","addr:country":"PL","addr:postcode":"44-177","addr:city":"Chud\u00f3w","addr:street":"ul. Szkolna","addr:housenumber":"52","addr:teryt:simc":21970,"addr:teryt:sym_ul":214304,"contact:phone":"+48 323011530","contact:email":"spchudow@op.pl","contact:website":"http:\/\/www.spchudow.edupage.org","ref:regon":"367992840","ref:vatin":"PL9691626763","operator":"Gmina Giera\u0142towice","operator:type":"government","landuse":"education","fixme":"amenity=school, amenity=college albo landuse=education w zale\u017cno\u015bci od tego, jakie plac\u00f3wki wchodz\u0105 w sk\u0142ad zespo\u0142u. Sprawd\u017a, kiedy stosowa\u0107 amenity=* a kiedy landuse=education.","note":"Children RSPO: 6867;262397"}},{"id":6867,"type":"Feature","geometry":{"type":"Point","coordinates":[18.77883,50.210539999999995]},"properties":{"isced:level":"1;2","ref:rspo":6867,"official_name":"Szko\u0142a Podstawowa im. Witolda Budryka w Chudowie","name":"Szko\u0142a Podstawowa","addr:country":"PL","addr:postcode":"44-177","addr:city":"Chud\u00f3w","addr:street":"ul. Szkolna","addr:housenumber":"52","addr:teryt:simc":21970,"addr:teryt:sym_ul":214304,"contact:phone":"+48 323011530","contact:email":"spchudow@op.pl","contact:website":"http:\/\/www.spchudow.edupage.org","ref:regon":"001193231","ref:vatin":"PL9691294605","operator":"Gmina Giera\u0142towice","operator:type":"government","amenity":"school","note":"Parent RSPO: 262264"}},{"id":262397,"type":"Feature","geometry":{"type":"Point","coordinates":[18.77883,50.21051]},"properties":{"ref:rspo":262397,"official_name":"Gminne Przedszkole w Chudowie","name":"Gminne Przedszkole w Chudowie","addr:country":"PL","addr:postcode":"44-177","addr:city":"Chud\u00f3w","addr:street":"ul. Szkolna","addr:housenumber":"52","addr:teryt:simc":21970,"addr:teryt:sym_ul":214304,"contact:phone":"+48 323011530","contact:email":"spchudow@op.pl","contact:website":"http:\/\/www.spchudow.edupage.org","ref:regon":"367997351","operator":"Gmina Giera\u0142towice","operator:type":"government","amenity":"kindergarten","note":"Parent RSPO: 262264"}},{"id":6865,"type":"Feature","geometry":{"type":"Point","coordinates":[18.72585,50.2252]},"properties":{"ref:rspo":6865,"official_name":"Zesp\u00f3\u0142 Szkolno-Przedszkolny w Giera\u0142towicach","name":"Zesp\u00f3\u0142 Szkolno-Przedszkolny w Giera\u0142towicach","addr:country":"PL","addr:postcode":"44-186","addr:city":"Giera\u0142towice","addr:street":"ul. Powsta\u0144c\u00f3w \u015al\u0105skich","addr:housenumber":"41","addr:teryt:simc":17366,"addr:teryt:sym_ul":214327,"contact:phone":"+48 323011570","contact:email":"zsp.gieraltowice@gmail.com","contact:website":"http:\/\/www.zspgieraltowice.pl","ref:regon":"241677960","ref:vatin":"PL9691577361","operator":"Gmina Giera\u0142towice","operator:type":"government","landuse":"education","fixme":"amenity=school, amenity=college albo landuse=education w zale\u017cno\u015bci od tego, jakie plac\u00f3wki wchodz\u0105 w sk\u0142ad zespo\u0142u. Sprawd\u017a, kiedy stosowa\u0107 amenity=* a kiedy landuse=education.","note":"Children RSPO: 110213;110214"}},{"id":110213,"type":"Feature","geometry":{"type":"Point","coordinates":[18.72585,50.22517]},"properties":{"isced:level":"1;2","ref:rspo":110213,"official_name":"Szko\u0142a Podstawowa im. Gustawa Morcinka w Giera\u0142towicach","name":"Szko\u0142a Podstawowa","addr:country":"PL","addr:postcode":"44-186","addr:city":"Giera\u0142towice","addr:street":"ul. Powsta\u0144c\u00f3w \u015al\u0105skich","addr:housenumber":"41","addr:teryt:simc":17366,"addr:teryt:sym_ul":214327,"contact:phone":"+48 323011570","contact:email":"zsp.gieraltowice@gmail.com","contact:website":"http:\/\/www.zspgieraltowice.pl","ref:regon":"000629614","ref:vatin":"PL9691577361","operator":"Gmina Giera\u0142towice","operator:type":"government","amenity":"school","note":"Parent RSPO: 6865"}},{"id":110214,"type":"Feature","geometry":{"type":"Point","coordinates":[18.72585,50.22514]},"properties":{"ref:rspo":110214,"official_name":"Gminne Przedszkole w Giera\u0142towicach","name":"Gminne Przedszkole w Giera\u0142towicach","addr:country":"PL","addr:postcode":"44-186","addr:city":"Giera\u0142towice","addr:street":"ul. Powsta\u0144c\u00f3w \u015al\u0105skich","addr:housenumber":"41","addr:teryt:simc":17366,"addr:teryt:sym_ul":214327,"contact:phone":"+48 323011570","contact:email":"przedszkolegieraltowice@wp.pl","contact:website":"http:\/\/www.zspgieraltowice.pl","ref:regon":"271511874","ref:vatin":"PL9691577361","operator":"Gmina Giera\u0142towice","operator:type":"government","amenity":"kindergarten","note":"Parent RSPO: 6865"}},{"id":110194,"type":"Feature","geometry":{"type":"Point","coordinates":[18.77485,50.2286]},"properties":{"ref:rspo":110194,"official_name":"Gminne Przedszkole w Pani\u00f3wkach","name":"Gminne Przedszkole w Pani\u00f3wkach","addr:country":"PL","addr:postcode":"44-177","addr:city":"Pani\u00f3wki","addr:street":"ul. Dworska","addr:housenumber":"31","addr:teryt:simc":4446,"addr:teryt:sym_ul":214340,"contact:phone":"+48 323011510","ref:regon":"270096249","ref:vatin":"PL9691577349","operator":"Gmina Giera\u0142towice","operator:type":"government","amenity":"kindergarten","note":"Parent RSPO: 6868"}},{"id":6868,"type":"Feature","geometry":{"type":"Point","coordinates":[18.78057,50.2317899]},"properties":{"ref:rspo":6868,"official_name":"Zesp\u00f3\u0142 Szkolno-Przedszkolny w Pani\u00f3wkach","name":"Zesp\u00f3\u0142 Szkolno-Przedszkolny w Pani\u00f3wkach","addr:country":"PL","addr:postcode":"44-177","addr:city":"Pani\u00f3wki","addr:street":"ul. Zwyci\u0119stwa","addr:housenumber":"44","addr:teryt:simc":26326,"addr:teryt:sym_ul":214340,"contact:phone":"+48 323011580","contact:email":"sekretariat@zsppaniowki.pl","contact:website":"http:\/\/www.zsppaniowki.pl","ref:regon":"241677871","ref:vatin":"PL9691577349","operator":"Gmina Giera\u0142towice","operator:type":"government","landuse":"education","fixme":"amenity=school, amenity=college albo landuse=education w zale\u017cno\u015bci od tego, jakie plac\u00f3wki wchodz\u0105 w sk\u0142ad zespo\u0142u. Sprawd\u017a, kiedy stosowa\u0107 amenity=* a kiedy landuse=education.","note":"Children RSPO: 110188;110194"}},{"id":110188,"type":"Feature","geometry":{"type":"Point","coordinates":[18.78057,50.2317599]},"properties":{"isced:level":"1;2","ref:rspo":110188,"official_name":"Szko\u0142a Podstawowa Z Oddzia\u0142ami Integracyjnymi im. Jana Paw\u0142a II w Pani\u00f3wkach","name":"Szko\u0142a Podstawowa Z Oddzia\u0142ami Integracyjnymi","addr:country":"PL","addr:postcode":"44-177","addr:city":"Pani\u00f3wki","addr:street":"ul. Zwyci\u0119stwa","addr:housenumber":"44","addr:teryt:simc":26326,"addr:teryt:sym_ul":214340,"contact:phone":"+48 323011580","contact:email":"sekretariat@zsppaniowki.pl","contact:website":"http:\/\/www.zsppaniowki.pl","ref:regon":"001193254","ref:vatin":"PL9691577349","operator":"Gmina Giera\u0142towice","operator:type":"government","amenity":"school","note":"Parent RSPO: 6868"}},{"id":110223,"type":"Feature","geometry":{"type":"Point","coordinates":[18.74542,50.2443]},"properties":{"ref:rspo":110223,"official_name":"Gminne Przedszkole w Przyszowicach","name":"Gminne Przedszkole w Przyszowicach","addr:country":"PL","addr:postcode":"44-178","addr:city":"Przyszowice","addr:street":"ul. Parkowa","addr:housenumber":"11","addr:teryt:simc":15710,"addr:teryt:sym_ul":214362,"contact:phone":"+48 323011520","contact:email":"przedszkoleprzyszowice@wp.pl","ref:regon":"271511880","ref:vatin":"PL9691577355","operator":"Gmina Giera\u0142towice","operator:type":"government","amenity":"kindergarten","note":"Parent RSPO: 6866"}},{"id":6866,"type":"Feature","geometry":{"type":"Point","coordinates":[18.74114,50.2476399]},"properties":{"ref:rspo":6866,"official_name":"Zesp\u00f3\u0142 Szkolno Przedszkolny w Przyszowicach","name":"Zesp\u00f3\u0142 Szkolno Przedszkolny w Przyszowicach","addr:country":"PL","addr:postcode":"44-178","addr:city":"Przyszowice","addr:street":"ul. Szkolna","addr:housenumber":"4","addr:teryt:simc":21970,"addr:teryt:sym_ul":214362,"contact:phone":"+48 323011590","contact:email":"zsp@przyszowice.edu.pl","ref:regon":"241677931","ref:vatin":"PL9691577355","operator":"Gmina Giera\u0142towice","operator:type":"government","landuse":"education","fixme":"amenity=school, amenity=college albo landuse=education w zale\u017cno\u015bci od tego, jakie plac\u00f3wki wchodz\u0105 w sk\u0142ad zespo\u0142u. Sprawd\u017a, kiedy stosowa\u0107 amenity=* a kiedy landuse=education.","note":"Children RSPO: 110198;110223"}},{"id":48080,"type":"Feature","geometry":{"type":"Point","coordinates":[18.74114,50.2476099]},"properties":{"ref:rspo":48080,"official_name":"Centrum Edukacji I Warunk\u00f3w Rozwoju w Przyszowicach","name":"Centrum Edukacji I Warunk\u00f3w Rozwoju w Przyszowicach","addr:country":"PL","addr:postcode":"44-178","addr:city":"Przyszowice","addr:street":"ul. Szkolna","addr:housenumber":"4","addr:teryt:simc":21970,"addr:teryt:sym_ul":214362,"contact:phone":"+48 327571130","contact:email":"marianna.sapula@ceiwr.pl","contact:website":"http:\/\/www.ceiwr.pl","ref:regon":"243073433","ref:vatin":"PL9691388051","operator":"Centrum Edukacji I Warunk\u00f3w Rozwoju","operator:type":"ngo","fixme":"w zale\u017cno\u015bci od przedmiotu dzia\u0142alno\u015bci (np. amenity=training + training=*, amenity=dancing_school, amenity=language_school, amenity=music_school)"}},{"id":110198,"type":"Feature","geometry":{"type":"Point","coordinates":[18.74114,50.247579900000005]},"properties":{"isced:level":"1;2","ref:rspo":110198,"official_name":"Szko\u0142a Podstawowa Im Karola Miarki w Przyszowicach","name":"Szko\u0142a Podstawowa Im Karola Miarki w Przyszowicach","addr:country":"PL","addr:postcode":"44-178","addr:city":"Przyszowice","addr:street":"ul. Szkolna","addr:housenumber":"4","addr:teryt:simc":21970,"addr:teryt:sym_ul":214362,"contact:phone":"+48 323011590","contact:email":"zsp@przyszowice.edu.pl","ref:regon":"001174400","ref:vatin":"PL9691577355","operator":"Gmina Giera\u0142towice","operator:type":"government","amenity":"school","note":"Parent RSPO: 6866"}}]}