{
    "type": "FeatureCollection",
    "features": [
        {
            "id": 25929,
            "type": "Feature",
            "geometry": {
                "type": "Point",
                "coordinates": [
                    20.55431,
                    51.52229
                ]
            },
            "properties": {
                "isced:level": "1;2",
                "ref:rspo": 25929,
                "official_name": "Publiczna Szko\u0142a Podstawowa im. Jana Paw\u0142a II w Odrzywole",
                "name": "Publiczna Szko\u0142a Podstawowa",
                "addr:country": "PL",
                "addr:postcode": "26-425",
                "addr:city": "Odrzyw\u00f3\u0142",
                "addr:street": "ul. Warszawska",
                "addr:housenumber": "51",
                "addr:teryt:simc": 23682,
                "addr:teryt:sym_ul": 630110,
                "contact:phone": "+48 486716040",
                "contact:email": "pspodrzywol@poczta.onet.pl",
                "ref:regon": "000676074",
                "ref:vatin": "PL7991875943",
                "operator": "Gmina Odrzyw\u00f3\u0142",
                "operator:type": "government",
                "amenity": "school"
            }
        },
        {
            "id": 23223,
            "type": "Feature",
            "geometry": {
                "type": "Point",
                "coordinates": [
                    20.48896,
                    51.52241
                ]
            },
            "properties": {
                "ref:rspo": 23223,
                "official_name": "M\u0142odzie\u017cowy O\u015brodek Wychowawczy",
                "name": "M\u0142odzie\u017cowy O\u015brodek Wychowawczy",
                "addr:country": "PL",
                "addr:postcode": "26-425",
                "addr:place": "Kolonia Ossa",
                "addr:housenumber": "40",
                "addr:teryt:sym_ul": 630149,
                "contact:phone": "+48 486716011",
                "contact:email": "mow68_kolonia.ossa@op.pl",
                "contact:website": "http:\/\/mow-ossa.pl",
                "ref:regon": "141528482",
                "ref:vatin": "PL6010085202",
                "operator": "Powiat Przysuski",
                "operator:type": "government",
                "fixme": "amenity=social_facility + social_facility=group_home + social_facility:for=juvenile",
                "note": "Children RSPO: 119757;128350"
            }
        },
        {
            "id": 119757,
            "type": "Feature",
            "geometry": {
                "type": "Point",
                "coordinates": [
                    20.48896,
                    51.52238
                ]
            },
            "properties": {
                "isced:level": "3",
                "ref:rspo": 119757,
                "official_name": "Bran\u017cowa Szko\u0142a I Stopnia Specjalna",
                "name": "Bran\u017cowa Szko\u0142a I Stopnia Specjalna",
                "addr:country": "PL",
                "addr:postcode": "26-425",
                "addr:place": "Kolonia Ossa",
                "addr:housenumber": "40",
                "addr:teryt:sym_ul": 630149,
                "contact:phone": "+48 486716011",
                "contact:email": "mow68_kolonia.ossa@op.pl",
                "contact:website": "http:\/\/mow-ossa.pl",
                "ref:regon": "146860175",
                "operator": "Powiat Przysuski",
                "operator:type": "government",
                "amenity": "school",
                "note": "Parent RSPO: 23223"
            }
        },
        {
            "id": 128350,
            "type": "Feature",
            "geometry": {
                "type": "Point",
                "coordinates": [
                    20.48896,
                    51.52235
                ]
            },
            "properties": {
                "isced:level": "1;2",
                "ref:rspo": 128350,
                "official_name": "Szko\u0142a Podstawowa Specjalna",
                "name": "Szko\u0142a Podstawowa Specjalna",
                "addr:country": "PL",
                "addr:postcode": "26-425",
                "addr:place": "Kolonia Ossa",
                "addr:housenumber": "40",
                "addr:teryt:sym_ul": 630149,
                "contact:phone": "+48 486716011",
                "contact:email": "mow68_kolonia.ossa@op.pl",
                "contact:website": "http:\/\/mow-ossa.pl",
                "ref:regon": "362247303",
                "operator": "Powiat Przysuski",
                "operator:type": "government",
                "amenity": "school",
                "note": "Parent RSPO: 23223"
            }
        },
        {
            "id": 7061,
            "type": "Feature",
            "geometry": {
                "type": "Point",
                "coordinates": [
                    20.51142,
                    51.54591
                ]
            },
            "properties": {
                "ref:rspo": 7061,
                "official_name": "Zesp\u00f3\u0142 Szk\u00f3\u0142 im. Dr Heleny Spoczy\u0144skiej w Lipinach",
                "name": "Zesp\u00f3\u0142 Szk\u00f3\u0142",
                "addr:country": "PL",
                "addr:postcode": "26-425",
                "addr:place": "Lipiny",
                "addr:housenumber": "40",
                "addr:teryt:sym_ul": 630014,
                "contact:phone": "+48 486716019",
                "contact:email": "zselipiny@o2.pl",
                "contact:website": "http:\/\/zspimslipiny.pl",
                "ref:regon": "000333380",
                "ref:vatin": "PL7981155437",
                "operator": "Powiat Przysuski",
                "operator:type": "government",
                "landuse": "education",
                "fixme": "amenity=school, amenity=college albo landuse=education w zale\u017cno\u015bci od tego, jakie plac\u00f3wki wchodz\u0105 w sk\u0142ad zespo\u0142u. Sprawd\u017a, kiedy stosowa\u0107 amenity=* a kiedy landuse=education.",
                "note": "Children RSPO: 8458;21505;31202"
            }
        },
        {
            "id": 8458,
            "type": "Feature",
            "geometry": {
                "type": "Point",
                "coordinates": [
                    20.51142,
                    51.54588
                ]
            },
            "properties": {
                "isced:level": "3",
                "ref:rspo": 8458,
                "official_name": "Bran\u017cowa Szko\u0142a I Stopnia",
                "name": "Bran\u017cowa Szko\u0142a I Stopnia",
                "addr:country": "PL",
                "addr:postcode": "26-425",
                "addr:place": "Lipiny",
                "addr:housenumber": "40",
                "addr:teryt:sym_ul": 630014,
                "contact:phone": "+48 486716019",
                "ref:regon": "146280489",
                "operator": "Powiat Przysuski",
                "operator:type": "government",
                "amenity": "school",
                "note": "Parent RSPO: 7061"
            }
        },
        {
            "id": 21505,
            "type": "Feature",
            "geometry": {
                "type": "Point",
                "coordinates": [
                    20.51142,
                    51.54585
                ]
            },
            "properties": {
                "isced:level": "3",
                "ref:rspo": 21505,
                "official_name": "Liceum Og\u00f3lnokszta\u0142c\u0105ce Kadet\u00f3w Rzeczypospolitej Polskiej",
                "name": "Liceum Og\u00f3lnokszta\u0142c\u0105ce Kadet\u00f3w Rzeczypospolitej Polskiej",
                "addr:country": "PL",
                "addr:postcode": "26-425",
                "addr:place": "Lipiny",
                "addr:housenumber": "40",
                "addr:teryt:sym_ul": 630014,
                "contact:phone": "+48 486716019",
                "contact:email": "zselipiny@o2.pl",
                "contact:website": "http:\/\/zspimslipiny.pl",
                "ref:regon": "673006949",
                "operator": "Powiat Przysuski",
                "operator:type": "government",
                "amenity": "school",
                "note": "Parent RSPO: 7061"
            }
        },
        {
            "id": 31202,
            "type": "Feature",
            "geometry": {
                "type": "Point",
                "coordinates": [
                    20.51142,
                    51.54582
                ]
            },
            "properties": {
                "isced:level": "3",
                "ref:rspo": 31202,
                "official_name": "Technikum w Lipinach",
                "name": "Technikum w Lipinach",
                "addr:country": "PL",
                "addr:postcode": "26-425",
                "addr:place": "Lipiny",
                "addr:housenumber": "40",
                "addr:teryt:sym_ul": 630014,
                "contact:phone": "+48 486716019",
                "contact:email": "zselipiny@o2.pl",
                "ref:regon": "673006910",
                "operator": "Powiat Przysuski",
                "operator:type": "government",
                "amenity": "school",
                "note": "Parent RSPO: 7061"
            }
        }
    ]
}