{
    "type": "FeatureCollection",
    "features": [
        {
            "id": 128324,
            "type": "Feature",
            "geometry": {
                "type": "Point",
                "coordinates": [
                    20.55483,
                    51.43313
                ]
            },
            "properties": {
                "ref:rspo": 128324,
                "official_name": "Niepubliczne Przedszkole Papryczki",
                "name": "Niepubliczne Przedszkole Papryczki",
                "addr:postcode": "26-414",
                "addr:place": "Grabowa",
                "addr:housenumber": "72",
                "addr:city:simc": 632332,
                "phone": "+48 601293369",
                "email": "gruszczynska@onet.com.pl",
                "ref:regon": "362235435",
                "ref:vatin": "PL7962631836",
                "operator": "Anna Gruszczy\u0144ska",
                "operator:type": "private",
                "amenity": "kindergarten"
            }
        },
        {
            "id": 129067,
            "type": "Feature",
            "geometry": {
                "type": "Point",
                "coordinates": [
                    20.69401,
                    51.44655
                ]
            },
            "properties": {
                "ref:rspo": 129067,
                "official_name": "Niepubliczne Przedszkole T\u0119czowa Kraina",
                "name": "Niepubliczne Przedszkole T\u0119czowa Kraina",
                "addr:postcode": "26-414",
                "addr:place": "Rdzuch\u00f3w",
                "addr:housenumber": "50",
                "addr:city:simc": 632562,
                "phone": "+48 517952601",
                "email": "anna.kozlowska.kozowska79@gmail.com",
                "ref:regon": "362468487",
                "ref:vatin": "PL6010016856",
                "operator": "Anna Koz\u0142owska",
                "operator:type": "private",
                "amenity": "kindergarten"
            }
        },
        {
            "id": 9710,
            "type": "Feature",
            "geometry": {
                "type": "Point",
                "coordinates": [
                    20.74841,
                    51.45586
                ]
            },
            "properties": {
                "isced:level": "1;2",
                "ref:rspo": 9710,
                "official_name": "Publiczna Szko\u0142a Podstawowa",
                "name": "Publiczna Szko\u0142a Podstawowa",
                "addr:postcode": "26-414",
                "addr:place": "Wir",
                "addr:housenumber": "55",
                "addr:city:simc": 632591,
                "phone": "+48 486745798",
                "email": "dyr.wir@potworow.pl",
                "ref:regon": "001194041",
                "ref:vatin": "PL7991874493",
                "operator": "Gmina Potwor\u00f3w",
                "operator:type": "government",
                "amenity": "school"
            }
        },
        {
            "id": 9709,
            "type": "Feature",
            "geometry": {
                "type": "Point",
                "coordinates": [
                    20.72438,
                    51.50515
                ]
            },
            "properties": {
                "isced:level": "1;2",
                "ref:rspo": 9709,
                "official_name": "Publiczna Szko\u0142a Podstawowa",
                "name": "Publiczna Szko\u0142a Podstawowa",
                "addr:postcode": "26-414",
                "addr:city": "Potwor\u00f3w",
                "addr:street": "Szkolna",
                "addr:housenumber": "5",
                "addr:city:simc": 632450,
                "addr:street:sym_ul": 21970,
                "phone": "+48 486713005",
                "email": "psp@potworow.pl",
                "website": "http:\/\/www.psppotworow.szkolnastrona.pl",
                "ref:regon": "000563105",
                "ref:vatin": "PL7991874487",
                "operator": "Gmina Potwor\u00f3w",
                "operator:type": "government",
                "amenity": "school"
            }
        },
        {
            "id": 270153,
            "type": "Feature",
            "geometry": {
                "type": "Point",
                "coordinates": [
                    20.71804,
                    51.50584
                ]
            },
            "properties": {
                "ref:rspo": 270153,
                "official_name": "Niepubliczne Przedszkole T\u0119czowy Domek",
                "name": "Niepubliczne Przedszkole T\u0119czowy Domek",
                "addr:postcode": "26-414",
                "addr:city": "Potwor\u00f3w",
                "addr:street": "Lipowa",
                "addr:housenumber": "22",
                "addr:city:simc": 632450,
                "addr:street:sym_ul": 11139,
                "email": "kolodziejczyk.a.80@tlen.pl",
                "ref:regon": "382102470",
                "ref:vatin": "PL7962399546",
                "operator": "Aneta Ko\u0142odziejczyk",
                "operator:type": "private",
                "amenity": "kindergarten"
            }
        }
    ]
}