{
    "type": "FeatureCollection",
    "features": [
        {
            "id": 30799,
            "type": "Feature",
            "geometry": {
                "type": "Point",
                "coordinates": [
                    20.6234499,
                    51.35087
                ]
            },
            "properties": {
                "ref:rspo": 30799,
                "official_name": "Zesp\u00f3\u0142 Plac\u00f3wek O\u015bwiatowych w Przysusze",
                "name": "Zesp\u00f3\u0142 Plac\u00f3wek O\u015bwiatowych w Przysusze",
                "addr:country": "PL",
                "addr:postcode": "26-400",
                "addr:city": "Przysucha",
                "addr:street": "Skowyry",
                "addr:housenumber": "41",
                "addr:teryt:simc": 34840,
                "addr:teryt:sym_ul": 973777,
                "contact:phone": "+48 486753660",
                "contact:email": "sekretariat@psp2.superhost.pl",
                "ref:regon": "141102984",
                "ref:vatin": "PL6010059021",
                "operator": "Gmina I Miasto Przysucha",
                "operator:type": "government",
                "landuse": "education",
                "fixme": "amenity=school, amenity=college albo landuse=education w zale\u017cno\u015bci od tego, jakie plac\u00f3wki wchodz\u0105 w sk\u0142ad zespo\u0142u. Sprawd\u017a, kiedy stosowa\u0107 amenity=* a kiedy landuse=education.",
                "note": "Children RSPO: 44132;44133"
            }
        },
        {
            "id": 44132,
            "type": "Feature",
            "geometry": {
                "type": "Point",
                "coordinates": [
                    20.6234499,
                    51.35084
                ]
            },
            "properties": {
                "isced:level": "1;2",
                "ref:rspo": 44132,
                "official_name": "Publiczna Szko\u0142a Podstawowa Nr 2 w Przysusze",
                "name": "Publiczna Szko\u0142a Podstawowa Nr 2 w Przysusze",
                "addr:country": "PL",
                "addr:postcode": "26-400",
                "addr:city": "Przysucha",
                "addr:street": "Skowyry",
                "addr:housenumber": "41",
                "addr:teryt:simc": 34840,
                "addr:teryt:sym_ul": 973777,
                "contact:phone": "+48 486753660",
                "contact:email": "sekretariat@psp2.superhost.pl",
                "contact:website": "http:\/\/psp2.superhost.pl",
                "ref:regon": "672885400",
                "ref:vatin": "PL6010000068",
                "operator": "Gmina I Miasto Przysucha",
                "operator:type": "government",
                "amenity": "school",
                "note": "Parent RSPO: 30799"
            }
        },
        {
            "id": 44133,
            "type": "Feature",
            "geometry": {
                "type": "Point",
                "coordinates": [
                    20.6234499,
                    51.35081
                ]
            },
            "properties": {
                "ref:rspo": 44133,
                "official_name": "Samorz\u0105dowe Przedszkole Nr 3 w Przysusze",
                "name": "Samorz\u0105dowe Przedszkole Nr 3 w Przysusze",
                "addr:country": "PL",
                "addr:postcode": "26-400",
                "addr:city": "Przysucha",
                "addr:street": "Skowyry",
                "addr:housenumber": "41",
                "addr:teryt:simc": 34840,
                "addr:teryt:sym_ul": 973777,
                "contact:phone": "+48 486753660",
                "contact:email": "sekretariat@psp2superhost.pl",
                "ref:regon": "670920575",
                "ref:vatin": "PL6010000051",
                "operator": "Gmina I Miasto Przysucha",
                "operator:type": "government",
                "amenity": "kindergarten",
                "note": "Parent RSPO: 30799"
            }
        },
        {
            "id": 132460,
            "type": "Feature",
            "geometry": {
                "type": "Point",
                "coordinates": [
                    20.62742,
                    51.35884
                ]
            },
            "properties": {
                "ref:rspo": 132460,
                "official_name": "Przedszkole \u015aw. Rodziny",
                "name": "Przedszkole \u015aw. Rodziny",
                "addr:country": "PL",
                "addr:postcode": "26-400",
                "addr:city": "Przysucha",
                "addr:street": "Krakowska",
                "addr:housenumber": "15",
                "addr:teryt:simc": 9796,
                "addr:teryt:sym_ul": 973777,
                "contact:phone": "+48 782243044",
                "contact:email": "bozenaada@o2.pl",
                "ref:regon": "365642974",
                "operator": "Zg.ss.s\u0142u\u017cek Naj\u015bwi\u0119tszej Maryi Panny Niepokal., Prowincja Sandomierska",
                "operator:type": "religious",
                "amenity": "kindergarten"
            }
        },
        {
            "id": 31520,
            "type": "Feature",
            "geometry": {
                "type": "Point",
                "coordinates": [
                    20.6298079,
                    51.3588798
                ]
            },
            "properties": {
                "ref:rspo": 31520,
                "official_name": "Samorz\u0105dowe Przedszkole Nr 1 w Przysusze",
                "name": "Samorz\u0105dowe Przedszkole Nr 1 w Przysusze",
                "addr:country": "PL",
                "addr:postcode": "26-400",
                "addr:city": "Przysucha",
                "addr:street": "Partyzant\u00f3w",
                "addr:housenumber": "6",
                "addr:teryt:simc": 15733,
                "addr:teryt:sym_ul": 973777,
                "contact:phone": "+48 486752330",
                "contact:email": "spnr1przysucha@vp.pl",
                "ref:regon": "670920581",
                "ref:vatin": "PL6010000045",
                "operator": "Gmina I Miasto Przysucha",
                "operator:type": "government",
                "amenity": "kindergarten"
            }
        },
        {
            "id": 7450,
            "type": "Feature",
            "geometry": {
                "type": "Point",
                "coordinates": [
                    20.63223,
                    51.35893
                ]
            },
            "properties": {
                "ref:rspo": 7450,
                "official_name": "Zesp\u00f3\u0142 Szk\u00f3\u0142 Nr 1 im. Jana Paw\u0142a Ii",
                "name": "Zesp\u00f3\u0142 Szk\u00f3\u0142 Nr 1",
                "addr:country": "PL",
                "addr:postcode": "26-400",
                "addr:city": "Przysucha",
                "addr:street": "Aleja Jana Paw\u0142a II",
                "addr:housenumber": "13",
                "addr:teryt:simc": 7120,
                "addr:teryt:sym_ul": 973777,
                "contact:phone": "+48 486752570",
                "contact:email": "zsp@przysucha.pl",
                "ref:regon": "000228482",
                "ref:vatin": "PL7991442233",
                "operator": "Powiat Przysuski",
                "operator:type": "government",
                "landuse": "education",
                "fixme": "amenity=school, amenity=college albo landuse=education w zale\u017cno\u015bci od tego, jakie plac\u00f3wki wchodz\u0105 w sk\u0142ad zespo\u0142u. Sprawd\u017a, kiedy stosowa\u0107 amenity=* a kiedy landuse=education.",
                "note": "Children RSPO: 11001;11038"
            }
        },
        {
            "id": 11001,
            "type": "Feature",
            "geometry": {
                "type": "Point",
                "coordinates": [
                    20.63223,
                    51.3589
                ]
            },
            "properties": {
                "isced:level": "3",
                "ref:rspo": 11001,
                "official_name": "Liceum Og\u00f3lnokszta\u0142c\u0105ce",
                "name": "Liceum Og\u00f3lnokszta\u0142c\u0105ce",
                "addr:country": "PL",
                "addr:postcode": "26-400",
                "addr:city": "Przysucha",
                "addr:street": "Aleja Jana Paw\u0142a II",
                "addr:housenumber": "13",
                "addr:teryt:simc": 7120,
                "addr:teryt:sym_ul": 973777,
                "contact:phone": "+48 486752570",
                "contact:email": "zsp@przysucha.pl",
                "contact:website": "http:\/\/zsp.przysucha.edu.pl",
                "ref:regon": "672968155",
                "operator": "Powiat Przysuski",
                "operator:type": "government",
                "amenity": "school",
                "note": "Parent RSPO: 7450"
            }
        },
        {
            "id": 11038,
            "type": "Feature",
            "geometry": {
                "type": "Point",
                "coordinates": [
                    20.63223,
                    51.35887
                ]
            },
            "properties": {
                "isced:level": "3",
                "ref:rspo": 11038,
                "official_name": "Technikum Informatyczne",
                "name": "Technikum Informatyczne",
                "addr:country": "PL",
                "addr:postcode": "26-400",
                "addr:city": "Przysucha",
                "addr:street": "Aleja Jana Paw\u0142a II",
                "addr:housenumber": "13",
                "addr:teryt:simc": 7120,
                "addr:teryt:sym_ul": 973777,
                "contact:phone": "+48 486752570",
                "contact:email": "zsp@przysucha.pl",
                "contact:website": "http:\/\/zsp.przysucha.edu.pl",
                "ref:regon": "141561456",
                "operator": "Powiat Przysuski",
                "operator:type": "government",
                "amenity": "school",
                "note": "Parent RSPO: 7450"
            }
        },
        {
            "id": 30798,
            "type": "Feature",
            "geometry": {
                "type": "Point",
                "coordinates": [
                    20.62125,
                    51.36046
                ]
            },
            "properties": {
                "isced:level": "1;2",
                "ref:rspo": 30798,
                "official_name": "Publiczna Szko\u0142a Podstawowa Nr 1 w Przysusze",
                "name": "Publiczna Szko\u0142a Podstawowa Nr 1 w Przysusze",
                "addr:country": "PL",
                "addr:postcode": "26-400",
                "addr:city": "Przysucha",
                "addr:street": "Krakowska",
                "addr:housenumber": "76",
                "addr:teryt:simc": 9796,
                "addr:teryt:sym_ul": 973777,
                "contact:phone": "+48 486752215",
                "contact:email": "psp1@gminaprzysucha.pl",
                "contact:website": "http:\/\/sp1przysucha.edupage.org",
                "ref:regon": "000837130",
                "ref:vatin": "PL6010000097",
                "operator": "Gmina I Miasto Przysucha",
                "operator:type": "government",
                "amenity": "school"
            }
        },
        {
            "id": 85743,
            "type": "Feature",
            "geometry": {
                "type": "Point",
                "coordinates": [
                    20.63339,
                    51.3613
                ]
            },
            "properties": {
                "ref:rspo": 85743,
                "official_name": "Poradnia Psychologiczno-Pedagogiczna w Przysusze",
                "name": "Poradnia Psychologiczno-Pedagogiczna w Przysusze",
                "addr:country": "PL",
                "addr:postcode": "26-400",
                "addr:city": "Przysucha",
                "addr:street": "Szkolna",
                "addr:housenumber": "7",
                "addr:teryt:simc": 21970,
                "addr:teryt:sym_ul": 973777,
                "contact:phone": "+48 486753927",
                "contact:email": "ppp@przysucha.pl",
                "contact:website": "http:\/\/ppp.przysucha.pl",
                "ref:regon": "000930779",
                "ref:vatin": "PL6010024844",
                "operator": "Powiat Przysuski",
                "operator:type": "government",
                "healthcare": "counselling",
                "counselling_type": "education",
                "fixme": "w zale\u017cno\u015bci od przedmiotu dzia\u0142alno\u015bci (np. healthcare=counselling + counselling_type=education albo healthcare=psychotherapist)"
            }
        },
        {
            "id": 7501,
            "type": "Feature",
            "geometry": {
                "type": "Point",
                "coordinates": [
                    20.6314,
                    51.3624
                ]
            },
            "properties": {
                "ref:rspo": 7501,
                "official_name": "Zesp\u00f3\u0142 Szk\u00f3\u0142 Nr 2 im. Ludwika Skowyry",
                "name": "Zesp\u00f3\u0142 Szk\u00f3\u0142 Nr 2",
                "addr:country": "PL",
                "addr:postcode": "26-400",
                "addr:city": "Przysucha",
                "addr:street": "Warszawska",
                "addr:housenumber": "28",
                "addr:teryt:simc": 23682,
                "addr:teryt:sym_ul": 973777,
                "contact:phone": "+48 486752463",
                "contact:email": "zsz@przysucha.pl",
                "ref:regon": "000191247",
                "ref:vatin": "PL7991442167",
                "operator": "Powiat Przysuski",
                "operator:type": "government",
                "landuse": "education",
                "fixme": "amenity=school, amenity=college albo landuse=education w zale\u017cno\u015bci od tego, jakie plac\u00f3wki wchodz\u0105 w sk\u0142ad zespo\u0142u. Sprawd\u017a, kiedy stosowa\u0107 amenity=* a kiedy landuse=education.",
                "note": "Children RSPO: 11396;11398;12032;120372"
            }
        },
        {
            "id": 11396,
            "type": "Feature",
            "geometry": {
                "type": "Point",
                "coordinates": [
                    20.6314,
                    51.36237
                ]
            },
            "properties": {
                "isced:level": "3",
                "ref:rspo": 11396,
                "official_name": "Technikum",
                "name": "Technikum",
                "addr:country": "PL",
                "addr:postcode": "26-400",
                "addr:city": "Przysucha",
                "addr:street": "Warszawska",
                "addr:housenumber": "28",
                "addr:teryt:simc": 23682,
                "addr:teryt:sym_ul": 973777,
                "contact:phone": "+48 486752463",
                "ref:regon": "673007268",
                "operator": "Powiat Przysuski",
                "operator:type": "government",
                "amenity": "school",
                "note": "Parent RSPO: 7501"
            }
        },
        {
            "id": 11398,
            "type": "Feature",
            "geometry": {
                "type": "Point",
                "coordinates": [
                    20.6314,
                    51.36234
                ]
            },
            "properties": {
                "isced:level": "3",
                "ref:rspo": 11398,
                "official_name": "Liceum Og\u00f3lnokszta\u0142c\u0105ce",
                "name": "Liceum Og\u00f3lnokszta\u0142c\u0105ce",
                "addr:country": "PL",
                "addr:postcode": "26-400",
                "addr:city": "Przysucha",
                "addr:street": "Warszawska",
                "addr:housenumber": "28",
                "addr:teryt:simc": 23682,
                "addr:teryt:sym_ul": 973777,
                "contact:phone": "+48 486752463",
                "ref:regon": "673007297",
                "operator": "Powiat Przysuski",
                "operator:type": "government",
                "amenity": "school",
                "note": "Parent RSPO: 7501"
            }
        },
        {
            "id": 12032,
            "type": "Feature",
            "geometry": {
                "type": "Point",
                "coordinates": [
                    20.6314,
                    51.36231
                ]
            },
            "properties": {
                "isced:level": "3",
                "ref:rspo": 12032,
                "official_name": "Bran\u017cowa Szko\u0142a I Stopnia",
                "name": "Bran\u017cowa Szko\u0142a I Stopnia",
                "addr:country": "PL",
                "addr:postcode": "26-400",
                "addr:city": "Przysucha",
                "addr:street": "Warszawska",
                "addr:housenumber": "28",
                "addr:teryt:simc": 23682,
                "addr:teryt:sym_ul": 973777,
                "contact:phone": "+48 486752463",
                "ref:regon": "673007305",
                "operator": "Powiat Przysuski",
                "operator:type": "government",
                "amenity": "school",
                "note": "Parent RSPO: 7501"
            }
        },
        {
            "id": 120372,
            "type": "Feature",
            "geometry": {
                "type": "Point",
                "coordinates": [
                    20.6314,
                    51.36228
                ]
            },
            "properties": {
                "isced:level": "3",
                "ref:rspo": 120372,
                "official_name": "Liceum Og\u00f3lnokszta\u0142c\u0105ce dla Doros\u0142ych",
                "name": "Liceum Og\u00f3lnokszta\u0142c\u0105ce dla Doros\u0142ych",
                "addr:country": "PL",
                "addr:postcode": "26-400",
                "addr:city": "Przysucha",
                "addr:street": "Warszawska",
                "addr:housenumber": "28",
                "addr:teryt:simc": 23682,
                "addr:teryt:sym_ul": 973777,
                "contact:phone": "+48 486752463",
                "ref:regon": "146897876",
                "operator": "Powiat Przysuski",
                "operator:type": "government",
                "amenity": "school",
                "note": "Parent RSPO: 7501"
            }
        },
        {
            "id": 30800,
            "type": "Feature",
            "geometry": {
                "type": "Point",
                "coordinates": [
                    20.64543,
                    51.37052
                ]
            },
            "properties": {
                "isced:level": "1;2",
                "ref:rspo": 30800,
                "official_name": "Publiczna Szko\u0142a Podstawowa w Skrzy\u0144sku",
                "name": "Publiczna Szko\u0142a Podstawowa w Skrzy\u0144sku",
                "addr:country": "PL",
                "addr:postcode": "26-400",
                "addr:city": "Skrzy\u0144sko",
                "addr:street": "Wjazdowa",
                "addr:housenumber": "9",
                "addr:teryt:simc": 24477,
                "addr:teryt:sym_ul": 633946,
                "contact:phone": "+48 486752484",
                "contact:email": "szkola@skrzynsko.edu.pl",
                "ref:regon": "000837175",
                "ref:vatin": "PL6010000105",
                "operator": "Gmina I Miasto Przysucha",
                "operator:type": "government",
                "amenity": "school"
            }
        },
        {
            "id": 6910,
            "type": "Feature",
            "geometry": {
                "type": "Point",
                "coordinates": [
                    20.64523,
                    51.37356
                ]
            },
            "properties": {
                "ref:rspo": 6910,
                "official_name": "Niepubliczny Specjalny O\u015brodek Szkolno-Wychowawczy",
                "name": "Niepubliczny Specjalny O\u015brodek Szkolno-Wychowawczy",
                "addr:country": "PL",
                "addr:postcode": "26-400",
                "addr:city": "Przysucha",
                "addr:street": "Przemys\u0142owa",
                "addr:housenumber": "5",
                "addr:teryt:simc": 17742,
                "addr:teryt:sym_ul": 973777,
                "contact:phone": "+48 483756393",
                "contact:email": "pomozbyc@wp.pl",
                "contact:website": "http:\/\/www.pomozmibyc.szkolnastrona.pl",
                "ref:regon": "146273845",
                "operator": "Stowarzyszenie Pomocy Osobom Niepe\u0142nosprawnym \"Pom\u00f3\u017c Mi By\u0107\"",
                "operator:type": "ngo",
                "amenity": "school",
                "note": "Children RSPO: 9630;92633"
            }
        },
        {
            "id": 9630,
            "type": "Feature",
            "geometry": {
                "type": "Point",
                "coordinates": [
                    20.64523,
                    51.373529999999995
                ]
            },
            "properties": {
                "isced:level": "1;2",
                "ref:rspo": 9630,
                "official_name": "Niepubliczna Szko\u0142a Podstawowa Specjalna",
                "name": "Niepubliczna Szko\u0142a Podstawowa Specjalna",
                "addr:country": "PL",
                "addr:postcode": "26-400",
                "addr:city": "Przysucha",
                "addr:street": "Przemys\u0142owa",
                "addr:housenumber": "5",
                "addr:teryt:simc": 17742,
                "addr:teryt:sym_ul": 973777,
                "contact:phone": "+48 483756393",
                "contact:email": "pomozbyc@wp.pl",
                "contact:website": "http:\/\/www.pomozmibyc.szkolnastrona.pl",
                "ref:regon": "146288628",
                "operator": "Stowarzyszenie Pomocy Osobom Niepe\u0142nosprawnym \"Pom\u00f3\u017c Mi By\u0107\"",
                "operator:type": "ngo",
                "amenity": "school",
                "note": "Parent RSPO: 6910"
            }
        },
        {
            "id": 92633,
            "type": "Feature",
            "geometry": {
                "type": "Point",
                "coordinates": [
                    20.64523,
                    51.3735
                ]
            },
            "properties": {
                "ref:rspo": 92633,
                "official_name": "Niepubliczna Szko\u0142a Specjalna Przysposabiajaca Do Pracy",
                "name": "Niepubliczna Szko\u0142a Specjalna Przysposabiajaca Do Pracy",
                "addr:country": "PL",
                "addr:postcode": "26-400",
                "addr:city": "Przysucha",
                "addr:street": "Przemys\u0142owa",
                "addr:housenumber": "5",
                "addr:teryt:simc": 17742,
                "addr:teryt:sym_ul": 973777,
                "contact:phone": "+48 483756393",
                "contact:email": "pomozbyc@wp.pl",
                "contact:website": "http:\/\/www.pomozmibyc.szkolnastrona.pl",
                "ref:regon": "146440697",
                "operator": "Stowarzyszenie Pomocy Osobom Niepe\u0142nosprawnym \"Pom\u00f3\u017c Mi By\u0107\"",
                "operator:type": "ngo",
                "amenity": "school",
                "note": "Parent RSPO: 6910"
            }
        },
        {
            "id": 21248,
            "type": "Feature",
            "geometry": {
                "type": "Point",
                "coordinates": [
                    20.633989334106,
                    51.41621017456
                ]
            },
            "properties": {
                "ref:rspo": 21248,
                "official_name": "M\u0142odzie\u017cowy O\u015bredek Wychowawczy",
                "name": "M\u0142odzie\u017cowy O\u015bredek Wychowawczy",
                "addr:country": "PL",
                "addr:postcode": "26-400",
                "addr:place": "Kolonia Szczerbacka",
                "addr:housenumber": "37",
                "addr:teryt:sym_ul": 633834,
                "contact:phone": "+48 486751826",
                "contact:email": "mowks@onet.pl",
                "contact:website": "http:\/\/www.mowkoloniaszczerbacka.mobischool.com.pl",
                "ref:regon": "001311699",
                "ref:vatin": "PL7991447928",
                "operator": "Powiat Przysuski",
                "operator:type": "government",
                "fixme": "amenity=social_facility + social_facility=group_home + social_facility:for=juvenile",
                "note": "Children RSPO: 119760;128348;268878"
            }
        },
        {
            "id": 132178,
            "type": "Feature",
            "geometry": {
                "type": "Point",
                "coordinates": [
                    20.633989334106,
                    51.41618017456
                ]
            },
            "properties": {
                "ref:rspo": 132178,
                "official_name": "O\u015brodek Edukacyjno-Profilaktyczny w Mari\u00f3wce",
                "name": "O\u015brodek Edukacyjno-Profilaktyczny w Mari\u00f3wce",
                "addr:country": "PL",
                "addr:postcode": "26-400",
                "addr:place": "Mari\u00f3wka",
                "addr:housenumber": "1",
                "addr:teryt:sym_ul": 633975,
                "contact:phone": "+48 486750137",
                "ref:regon": "365497006",
                "operator": "Zg.ss.s\u0142u\u017cek Nmpn, Dom Generalny",
                "operator:type": "religious"
            }
        },
        {
            "id": 119760,
            "type": "Feature",
            "geometry": {
                "type": "Point",
                "coordinates": [
                    20.633989334106,
                    51.41615017456
                ]
            },
            "properties": {
                "isced:level": "3",
                "ref:rspo": 119760,
                "official_name": "Bran\u017cowa Szko\u0142a I Stopnia Specjalna",
                "name": "Bran\u017cowa Szko\u0142a I Stopnia Specjalna",
                "addr:country": "PL",
                "addr:postcode": "26-400",
                "addr:place": "Kolonia Szczerbacka",
                "addr:housenumber": "37",
                "addr:teryt:sym_ul": 633834,
                "contact:phone": "+48 486751826",
                "contact:email": "mowks@onet.pl",
                "contact:website": "http:\/\/www.mowkoloniaszczerbacka.mobischool.com.pl",
                "ref:regon": "146860347",
                "operator": "Powiat Przysuski",
                "operator:type": "government",
                "amenity": "school",
                "note": "Parent RSPO: 21248"
            }
        },
        {
            "id": 128348,
            "type": "Feature",
            "geometry": {
                "type": "Point",
                "coordinates": [
                    20.633989334106,
                    51.41612017456
                ]
            },
            "properties": {
                "isced:level": "1;2",
                "ref:rspo": 128348,
                "official_name": "Szko\u0142a Podstawowa Specjalna",
                "name": "Szko\u0142a Podstawowa Specjalna",
                "addr:country": "PL",
                "addr:postcode": "26-400",
                "addr:place": "Kolonia Szczerbacka",
                "addr:housenumber": "37",
                "addr:teryt:sym_ul": 633834,
                "contact:phone": "+48 486751826",
                "contact:email": "mowks@onet.pl",
                "contact:website": "http:\/\/www.mowkoloniaszczerbacka.mobischool.com.pl",
                "ref:regon": "362247237",
                "operator": "Powiat Przysuski",
                "operator:type": "government",
                "amenity": "school",
                "note": "Parent RSPO: 21248"
            }
        },
        {
            "id": 268878,
            "type": "Feature",
            "geometry": {
                "type": "Point",
                "coordinates": [
                    20.633989334106,
                    51.41609017456
                ]
            },
            "properties": {
                "isced:level": "3",
                "ref:rspo": 268878,
                "official_name": "Liceum Og\u00f3lnokszta\u0142c\u0105ce Specjalne",
                "name": "Liceum Og\u00f3lnokszta\u0142c\u0105ce Specjalne",
                "addr:country": "PL",
                "addr:postcode": "26-400",
                "addr:place": "Kolonia Szczerbacka",
                "addr:housenumber": "37",
                "addr:teryt:sym_ul": 633834,
                "contact:phone": "+48 486751826",
                "contact:email": "mowks@onet.pl",
                "contact:website": "http:\/\/www.mowkoloniaszczerbacka.mobischool.com.pl",
                "ref:regon": "381271459",
                "operator": "Powiat Przysuski",
                "operator:type": "government",
                "amenity": "school",
                "note": "Parent RSPO: 21248"
            }
        }
    ]
}