{
    "type": "FeatureCollection",
    "features": [
        {
            "id": 31004,
            "type": "Feature",
            "geometry": {
                "type": "Point",
                "coordinates": [
                    20.803,
                    51.32001
                ]
            },
            "properties": {
                "ref:rspo": 31004,
                "official_name": "Niepubliczny M\u0142odzie\u017cowy O\u015brodek Wychowawczy w Pogroszynie",
                "name": "Niepubliczny M\u0142odzie\u017cowy O\u015brodek Wychowawczy w Pogroszynie",
                "addr:postcode": "26-432",
                "addr:place": "Pogroszyn",
                "addr:housenumber": "49",
                "addr:teryt:simc": 640780,
                "phone": "+48 486730047",
                "email": "mowpogroszyn@gmail.com",
                "ref:regon": "146357677",
                "operator": "Jaros\u0142aw Bednarski",
                "operator:type": "private",
                "fixme": "amenity=social_facility + social_facility=group_home + social_facility:for=juvenile",
                "note": "Children RSPO: 124173;196367"
            }
        },
        {
            "id": 124173,
            "type": "Feature",
            "geometry": {
                "type": "Point",
                "coordinates": [
                    20.803,
                    51.31998
                ]
            },
            "properties": {
                "isced:level": "3",
                "ref:rspo": 124173,
                "official_name": "Bran\u017cowa Szko\u0142a I Stopnia Specjalna",
                "name": "Bran\u017cowa Szko\u0142a I Stopnia Specjalna",
                "addr:postcode": "26-432",
                "addr:place": "Pogroszyn",
                "addr:housenumber": "49",
                "addr:teryt:simc": 640780,
                "phone": "+48 486730047",
                "email": "mowpogroszyn@gmail.com",
                "ref:regon": "147379244",
                "operator": "Jaros\u0142aw Bednarski",
                "operator:type": "private",
                "amenity": "school",
                "note": "Parent RSPO: 31004"
            }
        },
        {
            "id": 196367,
            "type": "Feature",
            "geometry": {
                "type": "Point",
                "coordinates": [
                    20.803,
                    51.319950000000006
                ]
            },
            "properties": {
                "isced:level": "1;2",
                "ref:rspo": 196367,
                "official_name": "Niepubliczna Szko\u0142a Podstawowa Specjalna",
                "name": "Niepubliczna Szko\u0142a Podstawowa Specjalna",
                "addr:postcode": "26-432",
                "addr:place": "Pogroszyn",
                "addr:housenumber": "49",
                "addr:teryt:simc": 640780,
                "phone": "+48 486730047",
                "email": "mowpogroszyn@gmail.com",
                "ref:regon": "367996908",
                "operator": "Jaros\u0142aw Bednarski",
                "operator:type": "private",
                "amenity": "school",
                "note": "Parent RSPO: 31004"
            }
        },
        {
            "id": 60522,
            "type": "Feature",
            "geometry": {
                "type": "Point",
                "coordinates": [
                    20.7502299,
                    51.35316
                ]
            },
            "properties": {
                "isced:level": "1;2",
                "ref:rspo": 60522,
                "official_name": "Publiczna Szko\u0142a Podstawowa w Sokolnikach Mokrych",
                "name": "Publiczna Szko\u0142a Podstawowa w Sokolnikach Mokrych",
                "addr:postcode": "26-432",
                "addr:place": "Sokolniki Mokre",
                "addr:housenumber": "54",
                "addr:door": "-",
                "addr:teryt:simc": 640857,
                "email": "pspsokolniki-stowarzyszenie@wp.pl",
                "ref:regon": "670905541",
                "ref:vatin": "PL7991434400",
                "operator": "Stowarzyszenie Rozwoju Wsi Sokolniki  Mokre \"Viribus Unitis\"",
                "operator:type": "cooperative",
                "amenity": "school"
            }
        },
        {
            "id": 68712,
            "type": "Feature",
            "geometry": {
                "type": "Point",
                "coordinates": [
                    20.81055,
                    51.36094
                ]
            },
            "properties": {
                "isced:level": "1;2",
                "ref:rspo": 68712,
                "official_name": "Publiczna Szko\u0142a Podstawowa Z Klasami Sportowymi im. Jana Kochanowskiego w Wieniawie",
                "name": "Publiczna Szko\u0142a Podstawowa Z Klasami Sportowymi",
                "addr:postcode": "26-432",
                "addr:city": "Wieniawa",
                "addr:street": "Szkolna",
                "addr:housenumber": "6",
                "addr:teryt:simc": 640886,
                "addr:teryt:sym_ul": 21970,
                "phone": "+48 486730620",
                "email": "sekretariat@pspwieniawa.pl",
                "website": "http:\/\/www.pspwieniawa.pl",
                "ref:regon": "000563128",
                "ref:vatin": "PL7991880401",
                "operator": "Gmina Wieniawa",
                "operator:type": "government",
                "amenity": "school"
            }
        },
        {
            "id": 59037,
            "type": "Feature",
            "geometry": {
                "type": "Point",
                "coordinates": [
                    20.7927,
                    51.36263
                ]
            },
            "properties": {
                "ref:rspo": 59037,
                "official_name": "Przedszkole Publiczne w Wieniawie",
                "name": "Przedszkole Publiczne w Wieniawie",
                "addr:postcode": "26-432",
                "addr:city": "Wieniawa",
                "addr:street": "Kochanowskiego",
                "addr:housenumber": "86",
                "addr:teryt:simc": 640886,
                "addr:teryt:sym_ul": 8725,
                "phone": "+48 483121469",
                "email": "sekretariat@przedszkolewieniawa.pl",
                "ref:regon": "670905593",
                "ref:vatin": "PL7991434328",
                "operator": "Gmina Wieniawa",
                "operator:type": "government",
                "amenity": "kindergarten"
            }
        }
    ]
}