{
    "type": "FeatureCollection",
    "features": [
        {
            "id": 21303,
            "type": "Feature",
            "geometry": {
                "type": "Point",
                "coordinates": [
                    20.6783,
                    51.27666
                ]
            },
            "properties": {
                "ref:rspo": 21303,
                "official_name": "M\u0142odzie\u017cowy O\u015brodek Wychowawczy",
                "name": "M\u0142odzie\u017cowy O\u015brodek Wychowawczy",
                "addr:postcode": "26-422",
                "addr:place": "Rusin\u00f3w",
                "addr:housenumber": "32",
                "addr:city:simc": 615486,
                "phone": "+48 486737908",
                "email": "mow.rusinow@gmail.com",
                "ref:regon": "001311682",
                "ref:vatin": "PL6010085165",
                "operator": "Powiat Przysuski",
                "operator:type": "government",
                "fixme": "amenity=social_facility + social_facility=group_home + social_facility:for=juvenile",
                "note": "Children RSPO: 196293;272074"
            }
        },
        {
            "id": 196293,
            "type": "Feature",
            "geometry": {
                "type": "Point",
                "coordinates": [
                    20.6783,
                    51.27663
                ]
            },
            "properties": {
                "isced:level": "1;2",
                "ref:rspo": 196293,
                "official_name": "Publiczna Szko\u0142a Podstawowa Specjalna",
                "name": "Publiczna Szko\u0142a Podstawowa Specjalna",
                "addr:postcode": "26-422",
                "addr:place": "Rusin\u00f3w",
                "addr:housenumber": "32",
                "addr:city:simc": 615486,
                "phone": "+48 486737908",
                "email": "mow.rusinow@gmail.com",
                "ref:regon": "368018220",
                "operator": "Powiat Przysuski",
                "operator:type": "government",
                "amenity": "school",
                "note": "Parent RSPO: 21303"
            }
        },
        {
            "id": 272074,
            "type": "Feature",
            "geometry": {
                "type": "Point",
                "coordinates": [
                    20.6783,
                    51.2766
                ]
            },
            "properties": {
                "isced:level": "3",
                "ref:rspo": 272074,
                "official_name": "Liceum Og\u00f3lnokszta\u0142c\u0105ce Specjalne",
                "name": "Liceum Og\u00f3lnokszta\u0142c\u0105ce Specjalne",
                "addr:postcode": "26-422",
                "addr:place": "Rusin\u00f3w",
                "addr:housenumber": "32",
                "addr:city:simc": 615486,
                "phone": "+48 486737908",
                "ref:regon": "383943584",
                "operator": "Powiat Przysuski",
                "operator:type": "government",
                "amenity": "school",
                "note": "Parent RSPO: 21303"
            }
        },
        {
            "id": 9964,
            "type": "Feature",
            "geometry": {
                "type": "Point",
                "coordinates": [
                    20.72889,
                    51.27856
                ]
            },
            "properties": {
                "ref:rspo": 9964,
                "official_name": "Zesp\u00f3\u0142 Szkolno - Przedszkolny w Rzucowie",
                "name": "Zesp\u00f3\u0142 Szkolno - Przedszkolny w Rzucowie",
                "addr:postcode": "26-422",
                "addr:city": "Rzuc\u00f3w",
                "addr:street": "Szkolna",
                "addr:housenumber": "33",
                "addr:city:simc": 615575,
                "addr:street:sym_ul": 21970,
                "phone": "+48 486737915",
                "email": "szkola@zsorzucow.ehost.pl",
                "ref:regon": "140106187",
                "ref:vatin": "PL6010090982",
                "operator": "Gmina Borkowice",
                "operator:type": "government",
                "landuse": "education",
                "fixme": "amenity=school, amenity=college albo landuse=education w zale\u017cno\u015bci od tego, jakie plac\u00f3wki wchodz\u0105 w sk\u0142ad zespo\u0142u. Sprawd\u017a, kiedy stosowa\u0107 amenity=* a kiedy landuse=education.",
                "note": "Children RSPO: 18320;18322"
            }
        },
        {
            "id": 18320,
            "type": "Feature",
            "geometry": {
                "type": "Point",
                "coordinates": [
                    20.72889,
                    51.278529999999996
                ]
            },
            "properties": {
                "isced:level": "1;2",
                "ref:rspo": 18320,
                "official_name": "Szko\u0142a Podstawowa im. Nauczycieli Tajnego Nauczania w Rzucowiew Rzucowie",
                "name": "Szko\u0142a Podstawowa",
                "addr:postcode": "26-422",
                "addr:city": "Rzuc\u00f3w",
                "addr:street": "Szkolna",
                "addr:housenumber": "33",
                "addr:city:simc": 615575,
                "addr:street:sym_ul": 21970,
                "phone": "+48 486737915",
                "email": "szkola@zsorzucow.ehost.pl",
                "ref:regon": "001146378",
                "operator": "Gmina Borkowice",
                "operator:type": "government",
                "amenity": "school",
                "note": "Parent RSPO: 9964"
            }
        },
        {
            "id": 18322,
            "type": "Feature",
            "geometry": {
                "type": "Point",
                "coordinates": [
                    20.72889,
                    51.2785
                ]
            },
            "properties": {
                "ref:rspo": 18322,
                "official_name": "Przedszkole Samorz\u0105dowe w Rzucowie",
                "name": "Przedszkole Samorz\u0105dowe w Rzucowie",
                "addr:postcode": "26-422",
                "addr:city": "Rzuc\u00f3w",
                "addr:street": "Szkolna",
                "addr:housenumber": "33",
                "addr:city:simc": 615575,
                "addr:street:sym_ul": 21970,
                "phone": "+48 486737915",
                "email": "szkola@zsorzucow.ehost.pl",
                "ref:regon": "670915048",
                "operator": "Gmina Borkowice",
                "operator:type": "government",
                "amenity": "kindergarten",
                "note": "Parent RSPO: 9964"
            }
        },
        {
            "id": 80322,
            "type": "Feature",
            "geometry": {
                "type": "Point",
                "coordinates": [
                    20.72313,
                    51.30342
                ]
            },
            "properties": {
                "ref:rspo": 80322,
                "official_name": "Przedszkole Samorzadowe w Ninkowie",
                "name": "Przedszkole Samorzadowe w Ninkowie",
                "addr:postcode": "26-422",
                "addr:place": "Nink\u00f3w",
                "addr:housenumber": "23",
                "addr:city:simc": 615434,
                "phone": "+48 486737803",
                "email": "psninkow@interia.pl",
                "website": "http:\/\/przedszkole-ninkow.cba.pl",
                "ref:regon": "146214311",
                "ref:vatin": "PL6010090953",
                "operator": "Gmina Borkowice",
                "operator:type": "government",
                "amenity": "kindergarten"
            }
        },
        {
            "id": 22345,
            "type": "Feature",
            "geometry": {
                "type": "Point",
                "coordinates": [
                    20.68424,
                    51.31835
                ]
            },
            "properties": {
                "ref:rspo": 22345,
                "official_name": "Przedszkole Niepubliczne \"Antoninek\" Prowadzone Przez Zgromadzenie Si\u00f3str Benedyktynek Mi",
                "name": "Przedszkole Niepubliczne \"Antoninek\" Prowadzone Przez Zgromadzenie Si\u00f3str Benedyktynek Mi",
                "addr:postcode": "26-422",
                "addr:city": "Borkowice",
                "addr:street": "S\u0142oneczna",
                "addr:housenumber": "3",
                "addr:city:simc": 615374,
                "addr:street:sym_ul": 20254,
                "phone": "+48 486757057",
                "email": "przedszkole.borkowice@wp.pl",
                "ref:regon": "146329511",
                "operator": "Zgromadzenie Si\u00f3str Benedyktynek Misjonarek,Dom Generalny",
                "operator:type": "religious",
                "amenity": "kindergarten"
            }
        },
        {
            "id": 55606,
            "type": "Feature",
            "geometry": {
                "type": "Point",
                "coordinates": [
                    20.683670043945,
                    51.320140838623
                ]
            },
            "properties": {
                "ref:rspo": 55606,
                "official_name": "Niepubliczny Specjalny O\u015brodek Szkolno-Wychowawczy w Borkowicach",
                "name": "Niepubliczny Specjalny O\u015brodek Szkolno-Wychowawczy w Borkowicach",
                "addr:postcode": "26-422",
                "addr:city": "Borkowice",
                "addr:street": "Platanowa",
                "addr:housenumber": "1",
                "addr:city:simc": 615374,
                "addr:street:sym_ul": 16448,
                "phone": "+48 486752088",
                "email": "nsos-w@wp.pl",
                "website": "http:\/\/www.sakopoka.pl\/szkola",
                "ref:regon": "146422469",
                "ref:vatin": "PL6010085283",
                "operator": "Fundacja Ich Moc",
                "operator:type": "ngo",
                "amenity": "school",
                "note": "Children RSPO: 106051;106785;276292"
            }
        },
        {
            "id": 268330,
            "type": "Feature",
            "geometry": {
                "type": "Point",
                "coordinates": [
                    20.683670043945,
                    51.320110838622995
                ]
            },
            "properties": {
                "isced:level": "4",
                "ref:rspo": 268330,
                "official_name": "Policealna Szko\u0142a Zawodowa",
                "name": "Policealna Szko\u0142a Zawodowa",
                "addr:postcode": "26-422",
                "addr:city": "Borkowice",
                "addr:street": "Platanowa",
                "addr:housenumber": "1",
                "addr:city:simc": 615374,
                "addr:street:sym_ul": 16448,
                "phone": "+48 486752088",
                "email": "policealnaborkowice@gmail.com",
                "ref:regon": "381093696",
                "operator": "Fundacja Ich Moc",
                "operator:type": "ngo",
                "amenity": "college"
            }
        },
        {
            "id": 106051,
            "type": "Feature",
            "geometry": {
                "type": "Point",
                "coordinates": [
                    20.683670043945,
                    51.320080838623
                ]
            },
            "properties": {
                "isced:level": "1;2",
                "ref:rspo": 106051,
                "official_name": "Niepubliczna Szko\u0142a Podstawowa Specjalna w Borkowicach",
                "name": "Niepubliczna Szko\u0142a Podstawowa Specjalna w Borkowicach",
                "addr:postcode": "26-422",
                "addr:city": "Borkowice",
                "addr:street": "Platanowa",
                "addr:housenumber": "1",
                "addr:city:simc": 615374,
                "addr:street:sym_ul": 16448,
                "phone": "+48 486752088",
                "email": "nsos-w@wp.pl",
                "website": "http:\/\/www.sakopoka.pl\/szkola",
                "ref:regon": "146467696",
                "operator": "Fundacja Ich Moc",
                "operator:type": "ngo",
                "amenity": "school",
                "note": "Parent RSPO: 55606"
            }
        },
        {
            "id": 106785,
            "type": "Feature",
            "geometry": {
                "type": "Point",
                "coordinates": [
                    20.683670043945,
                    51.320050838623
                ]
            },
            "properties": {
                "ref:rspo": 106785,
                "official_name": "Niepubliczna Szko\u0142a Specjalna Przysposabiaj\u0105ca Do Pracy w Borkowicach",
                "name": "Niepubliczna Szko\u0142a Specjalna Przysposabiaj\u0105ca Do Pracy w Borkowicach",
                "addr:postcode": "26-422",
                "addr:city": "Borkowice",
                "addr:street": "Platanowa",
                "addr:housenumber": "1",
                "addr:city:simc": 615374,
                "addr:street:sym_ul": 16448,
                "phone": "+48 486752088",
                "email": "nsos-w@wp.pl",
                "website": "http:\/\/www.sakopoka.pl\/szkola",
                "ref:regon": "146485961",
                "operator": "Fundacja Ich Moc",
                "operator:type": "ngo",
                "amenity": "school",
                "note": "Parent RSPO: 55606"
            }
        },
        {
            "id": 276292,
            "type": "Feature",
            "geometry": {
                "type": "Point",
                "coordinates": [
                    20.683670043945,
                    51.320020838622995
                ]
            },
            "properties": {
                "isced:level": "3",
                "ref:rspo": 276292,
                "official_name": "Niepubliczna Specjalna Szko\u0142a Bran\u017cowa I Stopnia",
                "name": "Niepubliczna Specjalna Szko\u0142a Bran\u017cowa I Stopnia",
                "addr:postcode": "26-422",
                "addr:city": "Borkowice",
                "addr:street": "Platanowa",
                "addr:housenumber": "1",
                "addr:city:simc": 615374,
                "addr:street:sym_ul": 16448,
                "ref:regon": "387072666",
                "operator": "Fundacja Ich Moc",
                "operator:type": "ngo",
                "amenity": "school",
                "note": "Parent RSPO: 55606"
            }
        },
        {
            "id": 9963,
            "type": "Feature",
            "geometry": {
                "type": "Point",
                "coordinates": [
                    20.6856699,
                    51.32027
                ]
            },
            "properties": {
                "ref:rspo": 9963,
                "official_name": "Zesp\u00f3\u0142 Szk\u00f3\u0142 w Borkowicach",
                "name": "Zesp\u00f3\u0142 Szk\u00f3\u0142 w Borkowicach",
                "addr:postcode": "26-422",
                "addr:city": "Borkowice",
                "addr:street": "Ksi\u0119dza Jana Wi\u015bniewskiego",
                "addr:housenumber": "8",
                "addr:city:simc": 615374,
                "addr:street:sym_ul": 31049,
                "phone": "+48 486757020",
                "email": "gimborkowice@wp.pl",
                "ref:regon": "140106158",
                "ref:vatin": "PL6010090976",
                "operator": "Gmina Borkowice",
                "operator:type": "government",
                "landuse": "education",
                "fixme": "amenity=school, amenity=college albo landuse=education w zale\u017cno\u015bci od tego, jakie plac\u00f3wki wchodz\u0105 w sk\u0142ad zespo\u0142u. Sprawd\u017a, kiedy stosowa\u0107 amenity=* a kiedy landuse=education.",
                "note": "Children RSPO: 17566"
            }
        },
        {
            "id": 17566,
            "type": "Feature",
            "geometry": {
                "type": "Point",
                "coordinates": [
                    20.6856699,
                    51.32024
                ]
            },
            "properties": {
                "isced:level": "1;2",
                "ref:rspo": 17566,
                "official_name": "Szko\u0142a Podstawowa w Borkowicach im. Janusza \u0141\u0105ckiego",
                "name": "Szko\u0142a Podstawowa w Borkowicach",
                "addr:postcode": "26-422",
                "addr:city": "Borkowice",
                "addr:street": "Ksi\u0119dza Jana Wi\u015bniewskiego",
                "addr:housenumber": "8",
                "addr:city:simc": 615374,
                "addr:street:sym_ul": 31049,
                "phone": "+48 486757020",
                "email": "gimborkowice@wp.pl",
                "ref:regon": "000563074",
                "ref:vatin": "PL7991449910",
                "operator": "Gmina Borkowice",
                "operator:type": "government",
                "amenity": "school",
                "note": "Parent RSPO: 9963"
            }
        },
        {
            "id": 20233,
            "type": "Feature",
            "geometry": {
                "type": "Point",
                "coordinates": [
                    20.65943,
                    51.33729
                ]
            },
            "properties": {
                "ref:rspo": 20233,
                "official_name": "Szko\u0142a Muzyczna I Stopnia im. Oskara Kolberga w Ruszkowicach",
                "name": "Szko\u0142a Muzyczna I Stopnia",
                "addr:postcode": "26-422",
                "addr:city": "Ruszkowice",
                "addr:street": "Szkolna",
                "addr:housenumber": "4",
                "addr:city:simc": 615500,
                "addr:street:sym_ul": 21970,
                "phone": "+48 486755307",
                "email": "gimborkowice@wp.pl",
                "ref:regon": "143327167",
                "operator": "Gmina Borkowice",
                "operator:type": "government",
                "amenity": "music_school"
            }
        }
    ]
}