{
    "type": "FeatureCollection",
    "features": [
        {
            "id": 85549,
            "type": "Feature",
            "geometry": {
                "type": "Point",
                "coordinates": [
                    14.502960205078,
                    35.87553024292
                ]
            },
            "properties": {
                "ref:rspo": 85549,
                "official_name": "Szko\u0142a Muzyczna I Stopnia w G\u0105binie",
                "name": "Szko\u0142a Muzyczna I Stopnia w G\u0105binie",
                "addr:postcode": "09-530",
                "addr:city": "G\u0105bin",
                "addr:street": "Aleja Jana Paw\u0142a II",
                "addr:housenumber": "16",
                "addr:city:simc": 968871,
                "addr:street:sym_ul": 33262,
                "phone": "+48 242680655",
                "email": "sm_gabin@interia.pl",
                "website": "http:\/\/www.szkolamuzyczna-gabin.pl\/",
                "ref:regon": "143177680",
                "ref:vatin": "PL7743205217",
                "operator": "Gmina G\u0105bin",
                "operator:type": "government",
                "amenity": "music_school"
            }
        },
        {
            "id": 85550,
            "type": "Feature",
            "geometry": {
                "type": "Point",
                "coordinates": [
                    14.502960205078,
                    35.87550024292
                ]
            },
            "properties": {
                "ref:rspo": 85550,
                "official_name": "Przedszkole Samorz\u0105dowe im. Kr\u00f3la Maciusia Pierwszego w G\u0105binie",
                "name": "Przedszkole Samorz\u0105dowe",
                "addr:postcode": "09-530",
                "addr:city": "G\u0105bin",
                "addr:street": "Aleja Jana Paw\u0142a II",
                "addr:housenumber": "16",
                "addr:city:simc": 968871,
                "addr:street:sym_ul": 33262,
                "phone": "+48 242771027",
                "email": "przedszkolegabin@o2.pl",
                "website": "http:\/\/www.przedszkole.gabin.pl\/",
                "ref:regon": "000903624",
                "ref:vatin": "PL7743036826",
                "operator": "Gmina G\u0105bin",
                "operator:type": "government",
                "amenity": "kindergarten"
            }
        },
        {
            "id": 85552,
            "type": "Feature",
            "geometry": {
                "type": "Point",
                "coordinates": [
                    14.502960205078,
                    35.87547024292
                ]
            },
            "properties": {
                "isced:level": "1;2",
                "ref:rspo": 85552,
                "official_name": "Szko\u0142a Podstawowa im. Marii Konopnickiej w G\u0105binie",
                "name": "Szko\u0142a Podstawowa",
                "addr:postcode": "09-530",
                "addr:city": "G\u0105bin",
                "addr:street": "Aleja Jana Paw\u0142a II",
                "addr:housenumber": "16",
                "addr:city:simc": 968871,
                "addr:street:sym_ul": 33262,
                "phone": "+48 242772979",
                "email": "sekretariat@sp.gabin.pl",
                "website": "http:\/\/www.sp.gabin.pl\/",
                "ref:regon": "000262585",
                "ref:vatin": "PL7743036803",
                "operator": "Gmina G\u0105bin",
                "operator:type": "government",
                "amenity": "school"
            }
        },
        {
            "id": 85558,
            "type": "Feature",
            "geometry": {
                "type": "Point",
                "coordinates": [
                    19.72732,
                    52.35861
                ]
            },
            "properties": {
                "isced:level": "1;2",
                "ref:rspo": 85558,
                "official_name": "Szko\u0142a Podstawowa im. Marii Kownackiej w Nowym Kamieniu",
                "name": "Szko\u0142a Podstawowa",
                "addr:postcode": "09-530",
                "addr:place": "Nowy Kamie\u0144",
                "addr:housenumber": "6",
                "addr:city:simc": 563950,
                "phone": "+48 242772803",
                "email": "szkola.kamien@op.pl",
                "website": "http:\/\/spkamien.gabin.pl",
                "ref:regon": "001115018",
                "ref:vatin": "PL7743036499",
                "operator": "Gmina G\u0105bin",
                "operator:type": "government",
                "amenity": "school"
            }
        },
        {
            "id": 85555,
            "type": "Feature",
            "geometry": {
                "type": "Point",
                "coordinates": [
                    19.80247,
                    52.40379
                ]
            },
            "properties": {
                "isced:level": "1;2",
                "ref:rspo": 85555,
                "official_name": "Szko\u0142a Podstawowa im. Stanis\u0142awa W\u0142adys\u0142awa Reymonta w Czermnie",
                "name": "Szko\u0142a Podstawowa",
                "addr:postcode": "09-530",
                "addr:place": "Czermno",
                "addr:housenumber": "52",
                "addr:city:simc": 563766,
                "phone": "+48 242771402",
                "email": "szpczermno@op.pl",
                "website": "http:\/\/www.spczermno.gabin.pl\/",
                "ref:regon": "001115001",
                "ref:vatin": "PL7743036795",
                "operator": "Gmina G\u0105bin",
                "operator:type": "government",
                "amenity": "school"
            }
        },
        {
            "id": 59934,
            "type": "Feature",
            "geometry": {
                "type": "Point",
                "coordinates": [
                    19.71864,
                    52.4039
                ]
            },
            "properties": {
                "ref:rspo": 59934,
                "official_name": "O\u015brodek Bezpiecze\u0144stwa Pracy Proeduko Wies\u0142aw K\u0142obukowski, Danuta K\u0142obukowska Sp\u00f3\u0142ka Cywilna",
                "name": "O\u015brodek Bezpiecze\u0144stwa Pracy Proeduko Wies\u0142aw K\u0142obukowski, Danuta K\u0142obukowska Sp\u00f3\u0142ka Cywilna",
                "addr:postcode": "09-530",
                "addr:city": "G\u0105bin",
                "addr:street": "Konwaliowa",
                "addr:housenumber": "6",
                "addr:city:simc": 968871,
                "addr:street:sym_ul": 9223,
                "phone": "+48 242771592",
                "email": "proeduko@onet.eu",
                "website": "http:\/\/www.proeduko.europa.pl",
                "ref:regon": "146375741",
                "ref:vatin": "PL7742821865",
                "operator": "Wies\u0142aw K\u0142obukowski",
                "operator:type": "private",
                "fixme": "w zale\u017cno\u015bci od przedmiotu dzia\u0142alno\u015bci (np. amenity=training + training=*, amenity=dancing_school, amenity=language_school, amenity=music_school)"
            }
        },
        {
            "id": 27348,
            "type": "Feature",
            "geometry": {
                "type": "Point",
                "coordinates": [
                    19.7198,
                    52.40457
                ]
            },
            "properties": {
                "ref:rspo": 27348,
                "official_name": "Zesp\u00f3\u0142 Szk\u00f3\u0142 im.stanis\u0142awa Staszica w G\u0105binie",
                "name": "Zesp\u00f3\u0142 Szk\u00f3\u0142 im.stanis\u0142awa Staszica w G\u0105binie",
                "addr:postcode": "09-530",
                "addr:city": "G\u0105bin",
                "addr:street": "Stanis\u0142awa Staszica",
                "addr:housenumber": "1",
                "addr:city:simc": 968871,
                "addr:street:sym_ul": 39723,
                "phone": "+48 242771049",
                "email": "zsgabin@wp.pl",
                "website": "http:\/\/www.zsgabin.pl",
                "ref:regon": "000781204",
                "ref:vatin": "PL7742526646",
                "operator": "Powiat P\u0142ocki",
                "operator:type": "government",
                "landuse": "education",
                "fixme": "amenity=school, amenity=college albo landuse=education w zale\u017cno\u015bci od tego, jakie plac\u00f3wki wchodz\u0105 w sk\u0142ad zespo\u0142u. Sprawd\u017a, kiedy stosowa\u0107 amenity=* a kiedy landuse=education.",
                "note": "Children RSPO: 73232;73270;74719;91517;120452"
            }
        },
        {
            "id": 73232,
            "type": "Feature",
            "geometry": {
                "type": "Point",
                "coordinates": [
                    19.7198,
                    52.40454
                ]
            },
            "properties": {
                "isced:level": "3",
                "ref:rspo": 73232,
                "official_name": "Bran\u017cowa Szko\u0142a I Stopnia w G\u0105binie",
                "name": "Bran\u017cowa Szko\u0142a I Stopnia w G\u0105binie",
                "addr:postcode": "09-530",
                "addr:city": "G\u0105bin",
                "addr:street": "Stanis\u0142awa Staszica",
                "addr:housenumber": "1",
                "addr:city:simc": 968871,
                "addr:street:sym_ul": 39723,
                "phone": "+48 242771049",
                "email": "zsgabin@wp.pl",
                "website": "http:\/\/zsgabin.pl",
                "ref:regon": "611372349",
                "ref:vatin": "PL7742526646",
                "operator": "Powiat P\u0142ocki",
                "operator:type": "government",
                "amenity": "school",
                "note": "Parent RSPO: 27348"
            }
        },
        {
            "id": 73270,
            "type": "Feature",
            "geometry": {
                "type": "Point",
                "coordinates": [
                    19.7198,
                    52.40451
                ]
            },
            "properties": {
                "isced:level": "3",
                "ref:rspo": 73270,
                "official_name": "Liceum Og\u00f3lnokszta\u0142c\u0105ce w G\u0105binie",
                "name": "Liceum Og\u00f3lnokszta\u0142c\u0105ce w G\u0105binie",
                "addr:postcode": "09-530",
                "addr:city": "G\u0105bin",
                "addr:street": "Stanis\u0142awa Staszica",
                "addr:housenumber": "1",
                "addr:city:simc": 968871,
                "addr:street:sym_ul": 39723,
                "phone": "+48 242771049",
                "email": "zsgabin@wp.pl",
                "website": "http:\/\/www.zsgabin.pl",
                "ref:regon": "000261953",
                "ref:vatin": "PL7742526646",
                "operator": "Powiat P\u0142ocki",
                "operator:type": "government",
                "amenity": "school",
                "note": "Parent RSPO: 27348"
            }
        },
        {
            "id": 74719,
            "type": "Feature",
            "geometry": {
                "type": "Point",
                "coordinates": [
                    19.7198,
                    52.40448
                ]
            },
            "properties": {
                "isced:level": "4",
                "ref:rspo": 74719,
                "official_name": "Szko\u0142a Policealna w G\u0105binie",
                "name": "Szko\u0142a Policealna w G\u0105binie",
                "addr:postcode": "09-530",
                "addr:city": "G\u0105bin",
                "addr:street": "Stanis\u0142awa Staszica",
                "addr:housenumber": "1",
                "addr:city:simc": 968871,
                "addr:street:sym_ul": 39723,
                "phone": "+48 242771049",
                "email": "zsgabin@wp.pl",
                "website": "http:\/\/www.zsgabin.pl",
                "ref:regon": "146401349",
                "ref:vatin": "PL7742526646",
                "operator": "Powiat P\u0142ocki",
                "operator:type": "government",
                "amenity": "college",
                "note": "Parent RSPO: 27348"
            }
        },
        {
            "id": 91517,
            "type": "Feature",
            "geometry": {
                "type": "Point",
                "coordinates": [
                    19.7198,
                    52.40445
                ]
            },
            "properties": {
                "isced:level": "3",
                "ref:rspo": 91517,
                "official_name": "Technikum w G\u0105binie",
                "name": "Technikum w G\u0105binie",
                "addr:postcode": "09-530",
                "addr:city": "G\u0105bin",
                "addr:street": "Stanis\u0142awa Staszica",
                "addr:housenumber": "1",
                "addr:city:simc": 968871,
                "addr:street:sym_ul": 39723,
                "phone": "+48 242771049",
                "email": "zsgabin@wp.pl",
                "website": "http:\/\/www.zsgabin.pl",
                "ref:regon": "611372355",
                "ref:vatin": "PL7742526646",
                "operator": "Powiat P\u0142ocki",
                "operator:type": "government",
                "amenity": "school",
                "note": "Parent RSPO: 27348"
            }
        },
        {
            "id": 120452,
            "type": "Feature",
            "geometry": {
                "type": "Point",
                "coordinates": [
                    19.7198,
                    52.40442
                ]
            },
            "properties": {
                "isced:level": "3",
                "ref:rspo": 120452,
                "official_name": "Liceum Og\u00f3lnokszta\u0142c\u0105ce dla Doros\u0142ych w G\u0105binie",
                "name": "Liceum Og\u00f3lnokszta\u0142c\u0105ce dla Doros\u0142ych w G\u0105binie",
                "addr:postcode": "09-530",
                "addr:city": "G\u0105bin",
                "addr:street": "Stanis\u0142awa Staszica",
                "addr:housenumber": "1",
                "addr:city:simc": 968871,
                "addr:street:sym_ul": 39723,
                "phone": "+48 242771049",
                "email": "zsgabin@wp.pl",
                "website": "http:\/\/www.zsgabin.pl",
                "ref:regon": "146904435",
                "ref:vatin": "PL7742526646",
                "operator": "Powiat P\u0142ocki",
                "operator:type": "government",
                "amenity": "school",
                "note": "Parent RSPO: 27348"
            }
        },
        {
            "id": 85554,
            "type": "Feature",
            "geometry": {
                "type": "Point",
                "coordinates": [
                    19.79955,
                    52.44289
                ]
            },
            "properties": {
                "isced:level": "1;2",
                "ref:rspo": 85554,
                "official_name": "Szko\u0142a Podstawowa im. Kornela Makuszy\u0144skiego w Borkach",
                "name": "Szko\u0142a Podstawowa",
                "addr:postcode": "09-530",
                "addr:place": "Borki",
                "addr:housenumber": "22A",
                "addr:city:simc": 563750,
                "phone": "+48 242775477",
                "email": "szpborki@op.pl",
                "website": "http:\/\/www.spborki.gabin.pl\/",
                "ref:regon": "001114987",
                "ref:vatin": "PL7743039150",
                "operator": "Gmina G\u0105bin",
                "operator:type": "government",
                "amenity": "school"
            }
        },
        {
            "id": 85556,
            "type": "Feature",
            "geometry": {
                "type": "Point",
                "coordinates": [
                    19.7408854,
                    52.4479663
                ]
            },
            "properties": {
                "isced:level": "1;2",
                "ref:rspo": 85556,
                "official_name": "Szko\u0142a Podstawowa im. Marsza\u0142ka J\u00f3zefa Pi\u0142sudskiego w Nowym Grabiu",
                "name": "Szko\u0142a Podstawowa",
                "addr:postcode": "09-530",
                "addr:city": "Nowe Grabie",
                "addr:street": "Osiedle Osiedle pod Jaworem",
                "addr:housenumber": "11A",
                "addr:city:simc": 563938,
                "addr:street:sym_ul": 43113,
                "phone": "+48 242771133",
                "email": "szkolawgrabiu3@wp.pl",
                "website": "http:\/\/www.spgrabie.gabin.pl\/",
                "ref:regon": "001114993",
                "ref:vatin": "PL7743038067",
                "operator": "Gmina G\u0105bin",
                "operator:type": "government",
                "amenity": "school"
            }
        },
        {
            "id": 85557,
            "type": "Feature",
            "geometry": {
                "type": "Point",
                "coordinates": [
                    19.7408854,
                    52.447936299999995
                ]
            },
            "properties": {
                "ref:rspo": 85557,
                "official_name": "Punkt Przedszkolny Przy Szkole Podstawowej im. Marsza\u0142ka J\u00f3zefa Pi\u0142sudskiego w Nowym Grabiu",
                "name": "Punkt Przedszkolny Przy Szkole Podstawowej",
                "addr:postcode": "09-530",
                "addr:city": "Nowe Grabie",
                "addr:street": "Osiedle Osiedle pod Jaworem",
                "addr:housenumber": "11A",
                "addr:city:simc": 563938,
                "addr:street:sym_ul": 43113,
                "phone": "+48 242771133",
                "email": "szkolawgrabiu3@wp.pl",
                "website": "http:\/\/www.spgrabie.gabin.pl\/",
                "ref:regon": "146423078",
                "operator": "Gmina G\u0105bin",
                "operator:type": "government",
                "amenity": "kindergarten"
            }
        },
        {
            "id": 85551,
            "type": "Feature",
            "geometry": {
                "type": "Point",
                "coordinates": [
                    19.7459319,
                    52.4785171
                ]
            },
            "properties": {
                "ref:rspo": 85551,
                "official_name": "Przedszkole Samorz\u0105dowe w Dobrzykowie",
                "name": "Przedszkole Samorz\u0105dowe w Dobrzykowie",
                "addr:postcode": "09-530",
                "addr:city": "Dobrzyk\u00f3w",
                "addr:street": "Obro\u0144c\u00f3w Dobrzykowa",
                "addr:housenumber": "65",
                "addr:city:simc": 563772,
                "addr:street:sym_ul": 28086,
                "phone": "+48 242775401",
                "email": "przedszkole.dobrzykow123@wp.pl",
                "ref:regon": "610023492",
                "ref:vatin": "PL7743038357",
                "operator": "Gmina G\u0105bin",
                "operator:type": "government",
                "amenity": "kindergarten"
            }
        },
        {
            "id": 85553,
            "type": "Feature",
            "geometry": {
                "type": "Point",
                "coordinates": [
                    19.7459319,
                    52.478487099999995
                ]
            },
            "properties": {
                "isced:level": "1;2",
                "ref:rspo": 85553,
                "official_name": "Szko\u0142a Podstawowa im. Obro\u0144c\u00f3w Dobrzykowa Z 1939 R. w Dobrzykowie",
                "name": "Szko\u0142a Podstawowa",
                "addr:postcode": "09-530",
                "addr:city": "Dobrzyk\u00f3w",
                "addr:street": "Obro\u0144c\u00f3w Dobrzykowa",
                "addr:housenumber": "65",
                "addr:city:simc": 563772,
                "addr:street:sym_ul": 28086,
                "phone": "+48 242775414",
                "email": "szpdobrzykow@o2.pl",
                "website": "http:\/\/www.sp.dobrzykow.pl\/",
                "ref:regon": "001114970",
                "ref:vatin": "PL7743038446",
                "operator": "Gmina G\u0105bin",
                "operator:type": "government",
                "amenity": "school"
            }
        }
    ]
}