{
    "type": "FeatureCollection",
    "features": [
        {
            "id": 275661,
            "type": "Feature",
            "geometry": {
                "type": "Point",
                "coordinates": [
                    20.15454,
                    52.52014
                ]
            },
            "properties": {
                "isced:level": "1;2",
                "ref:rspo": 275661,
                "official_name": "Szko\u0142a Podstawowa im. Marii Konopnickiej w Bulkowie - Szko\u0142a Filialna w Nowych Krubicach",
                "name": "Szko\u0142a Podstawowa",
                "addr:country": "PL",
                "addr:postcode": "09-454",
                "addr:place": "Nowe Krubice",
                "addr:housenumber": "8",
                "addr:teryt:sym_ul": 561543,
                "contact:phone": "+48 242652028",
                "contact:email": "spbulkowo@bulkowo.pl",
                "ref:regon": "557607000",
                "operator": "Gmina Bulkowo",
                "operator:type": "government",
                "amenity": "school",
                "note": "Parent RSPO: 69496"
            }
        },
        {
            "id": 128122,
            "type": "Feature",
            "geometry": {
                "type": "Point",
                "coordinates": [
                    20.17556,
                    52.54788
                ]
            },
            "properties": {
                "ref:rspo": 128122,
                "official_name": "Punkt Przedszkolny w Worowicach",
                "name": "Punkt Przedszkolny w Worowicach",
                "addr:country": "PL",
                "addr:postcode": "09-454",
                "addr:place": "Worowice",
                "addr:housenumber": "58",
                "addr:teryt:sym_ul": 561862,
                "contact:phone": "+48 242652027",
                "contact:email": "spkrubice@bulkowo.pl",
                "ref:regon": "362145241",
                "operator": "Gmina Bulkowo",
                "operator:type": "government",
                "amenity": "kindergarten"
            }
        },
        {
            "id": 86453,
            "type": "Feature",
            "geometry": {
                "type": "Point",
                "coordinates": [
                    19.9989199,
                    52.55916
                ]
            },
            "properties": {
                "isced:level": "1;2",
                "ref:rspo": 86453,
                "official_name": "Szko\u0142a Podstawowa im. Armii Krajowej w Blichowie",
                "name": "Szko\u0142a Podstawowa",
                "addr:country": "PL",
                "addr:postcode": "09-454",
                "addr:place": "Blichowo",
                "addr:housenumber": "61A",
                "addr:teryt:sym_ul": 561313,
                "contact:phone": "+48 242651323",
                "contact:email": "spblichowo@bulkowo.pl",
                "contact:website": "http:\/\/www.blichowoszkola.szkolnastrona.pl",
                "ref:regon": "001112847",
                "operator": "Gmina Bulkowo",
                "operator:type": "government",
                "amenity": "school"
            }
        },
        {
            "id": 128123,
            "type": "Feature",
            "geometry": {
                "type": "Point",
                "coordinates": [
                    19.9989199,
                    52.559129999999996
                ]
            },
            "properties": {
                "ref:rspo": 128123,
                "official_name": "Punkt Przedszkolny w Blichowie",
                "name": "Punkt Przedszkolny w Blichowie",
                "addr:country": "PL",
                "addr:postcode": "09-454",
                "addr:place": "Blichowo",
                "addr:housenumber": "61A",
                "addr:teryt:sym_ul": 561313,
                "contact:phone": "+48 242651323",
                "contact:email": "spblichowo@bulkowo.pl",
                "ref:regon": "362145590",
                "operator": "Gmina Bulkowo",
                "operator:type": "government",
                "amenity": "kindergarten"
            }
        },
        {
            "id": 69496,
            "type": "Feature",
            "geometry": {
                "type": "Point",
                "coordinates": [
                    20.11214,
                    52.5623099
                ]
            },
            "properties": {
                "isced:level": "1;2",
                "ref:rspo": 69496,
                "official_name": "Szko\u0142a Podstawowa im. Marii Konopnickiej w Bulkowie",
                "name": "Szko\u0142a Podstawowa",
                "addr:country": "PL",
                "addr:postcode": "09-454",
                "addr:city": "Bulkowo-Kolonia",
                "addr:street": "Szkolna",
                "addr:housenumber": "2",
                "addr:teryt:simc": 21970,
                "addr:teryt:sym_ul": 561359,
                "contact:phone": "+48 242652028",
                "contact:email": "spbulkowo@bulkowo.pl",
                "ref:regon": "000557607",
                "operator": "Gmina Bulkowo",
                "operator:type": "government",
                "amenity": "school",
                "note": "Children RSPO: 275661"
            }
        },
        {
            "id": 84714,
            "type": "Feature",
            "geometry": {
                "type": "Point",
                "coordinates": [
                    20.03369,
                    52.57775
                ]
            },
            "properties": {
                "isced:level": "1;2",
                "ref:rspo": 84714,
                "official_name": "Szko\u0142a Podstawowa w Nowych \u0141ubkach",
                "name": "Szko\u0142a Podstawowa w Nowych \u0141ubkach",
                "addr:country": "PL",
                "addr:postcode": "09-454",
                "addr:place": "Nowe \u0141ubki",
                "addr:housenumber": "7",
                "addr:teryt:sym_ul": 561550,
                "contact:phone": "+48 242651325",
                "contact:email": "splubki@bulkowo.pl",
                "ref:regon": "001112830",
                "ref:vatin": "PL7743217723",
                "operator": "Gmina Bulkowo",
                "operator:type": "government",
                "amenity": "school"
            }
        },
        {
            "id": 128124,
            "type": "Feature",
            "geometry": {
                "type": "Point",
                "coordinates": [
                    20.1286099,
                    52.59533
                ]
            },
            "properties": {
                "ref:rspo": 128124,
                "official_name": "Punkt Przedszkolny we W\u0142\u00f3kach",
                "name": "Punkt Przedszkolny we W\u0142\u00f3kach",
                "addr:country": "PL",
                "addr:postcode": "09-454",
                "addr:place": "W\u0142\u00f3ki",
                "addr:housenumber": "16",
                "addr:teryt:sym_ul": 561796,
                "contact:phone": "+48 242652028",
                "contact:email": "spbulkowo@bulkowo.pl",
                "ref:regon": "362145695",
                "operator": "Gmina Bulkowo",
                "operator:type": "government",
                "amenity": "kindergarten"
            }
        }
    ]
}