{
    "type": "FeatureCollection",
    "features": [
        {
            "id": 22833,
            "type": "Feature",
            "geometry": {
                "type": "Point",
                "coordinates": [
                    23.60131,
                    50.5739
                ]
            },
            "properties": {
                "isced:level": "1;2",
                "ref:rspo": 22833,
                "official_name": "Szko\u0142a Podstawowa im. Wydarze\u0144 Wrze\u015bnia w Czartowczyku",
                "name": "Szko\u0142a Podstawowa",
                "addr:country": "PL",
                "addr:postcode": "22-630",
                "addr:place": "Czartowczyk",
                "addr:housenumber": "8",
                "addr:teryt:simc": 903280,
                "contact:phone": "+48 846619661",
                "contact:email": "spczartowczyk@vp.pl",
                "ref:regon": "001138522",
                "ref:vatin": "PL9211976197",
                "operator": "Gmina Tyszowce",
                "operator:type": "government",
                "amenity": "school"
            }
        },
        {
            "id": 272127,
            "type": "Feature",
            "geometry": {
                "type": "Point",
                "coordinates": [
                    23.70561,
                    50.6125
                ]
            },
            "properties": {
                "ref:rspo": 272127,
                "official_name": "Zesp\u00f3\u0142 Szkolno-Przedszkolny w Tyszowcach",
                "name": "Zesp\u00f3\u0142 Szkolno-Przedszkolny w Tyszowcach",
                "addr:country": "PL",
                "addr:postcode": "22-630",
                "addr:city": "Tyszowce",
                "addr:street": "Ko\u015bcielna",
                "addr:housenumber": "25",
                "addr:teryt:simc": 903676,
                "addr:teryt:sym_ul": 9546,
                "contact:phone": "+48 846619688",
                "contact:email": "sptyszowce@op.pl",
                "contact:website": "http:\/\/www.zsptyszowce.oko24.net",
                "ref:regon": "383950800",
                "operator": "Gmina Tyszowce",
                "operator:type": "government",
                "landuse": "education",
                "fixme": "amenity=school, amenity=college albo landuse=education w zale\u017cno\u015bci od tego, jakie plac\u00f3wki wchodz\u0105 w sk\u0142ad zespo\u0142u. Sprawd\u017a, kiedy stosowa\u0107 amenity=* a kiedy landuse=education.",
                "note": "Children RSPO: 22884;23264"
            }
        },
        {
            "id": 22884,
            "type": "Feature",
            "geometry": {
                "type": "Point",
                "coordinates": [
                    23.70561,
                    50.612469999999995
                ]
            },
            "properties": {
                "ref:rspo": 22884,
                "official_name": "Przedszkole Samorz\u0105dowe w Tyszowcach",
                "name": "Przedszkole Samorz\u0105dowe w Tyszowcach",
                "addr:country": "PL",
                "addr:postcode": "22-630",
                "addr:city": "Tyszowce",
                "addr:street": "Ko\u015bcielna",
                "addr:housenumber": "25",
                "addr:teryt:simc": 903676,
                "addr:teryt:sym_ul": 9546,
                "contact:phone": "+48 846619310",
                "contact:email": "przedszkoletyszowce@wp.pl",
                "ref:regon": "951080072",
                "ref:vatin": "PL9211659918",
                "operator": "Gmina Tyszowce",
                "operator:type": "government",
                "amenity": "kindergarten",
                "note": "Parent RSPO: 272127"
            }
        },
        {
            "id": 23264,
            "type": "Feature",
            "geometry": {
                "type": "Point",
                "coordinates": [
                    23.70561,
                    50.61244
                ]
            },
            "properties": {
                "isced:level": "1;2",
                "ref:rspo": 23264,
                "official_name": "Szko\u0142a Podstawowa im. Jana Kili\u0144skiego w Tyszowcach",
                "name": "Szko\u0142a Podstawowa",
                "addr:country": "PL",
                "addr:postcode": "22-630",
                "addr:city": "Tyszowce",
                "addr:street": "Ko\u015bcielna",
                "addr:housenumber": "25",
                "addr:teryt:simc": 903676,
                "addr:teryt:sym_ul": 9546,
                "contact:phone": "+48 846619688",
                "contact:email": "sptyszowce@op.pl",
                "ref:regon": "000563772",
                "ref:vatin": "PL9211976530",
                "operator": "Gmina Tyszowce",
                "operator:type": "government",
                "amenity": "school",
                "note": "Parent RSPO: 272127"
            }
        },
        {
            "id": 23242,
            "type": "Feature",
            "geometry": {
                "type": "Point",
                "coordinates": [
                    23.64103,
                    50.61345
                ]
            },
            "properties": {
                "isced:level": "1;2",
                "ref:rspo": 23242,
                "official_name": "Szko\u0142a Podstawowa w Przewalu",
                "name": "Szko\u0142a Podstawowa w Przewalu",
                "addr:country": "PL",
                "addr:postcode": "22-630",
                "addr:place": "Przewale",
                "addr:housenumber": "3",
                "addr:teryt:simc": 903624,
                "contact:phone": "+48 846610282",
                "contact:email": "przewale3@wp.pl",
                "ref:regon": "001138516",
                "ref:vatin": "PL9211976180",
                "operator": "Gmina Tyszowce",
                "operator:type": "government",
                "amenity": "school",
                "note": "Children RSPO: 276071;276072"
            }
        },
        {
            "id": 276071,
            "type": "Feature",
            "geometry": {
                "type": "Point",
                "coordinates": [
                    23.63268,
                    50.65193
                ]
            },
            "properties": {
                "isced:level": "1;2",
                "ref:rspo": 276071,
                "official_name": "Szko\u0142a Podstawowa w Przewalu Szko\u0142a Filialna w Perespie",
                "name": "Szko\u0142a Podstawowa w Przewalu Szko\u0142a Filialna w Perespie",
                "addr:country": "PL",
                "addr:postcode": "22-630",
                "addr:place": "Perespa",
                "addr:housenumber": "5",
                "addr:teryt:simc": 903541,
                "contact:phone": "+48 846610102",
                "contact:email": "przewale3@wp.pl",
                "ref:regon": "113851600",
                "operator": "Gmina Tyszowce",
                "operator:type": "government",
                "amenity": "school",
                "note": "Parent RSPO: 23242"
            }
        },
        {
            "id": 276072,
            "type": "Feature",
            "geometry": {
                "type": "Point",
                "coordinates": [
                    23.66236,
                    50.67926
                ]
            },
            "properties": {
                "isced:level": "1;2",
                "ref:rspo": 276072,
                "official_name": "Szko\u0142a Podstawowa w Przewalu Szko\u0142a Filialna w Kazimier\u00f3wce",
                "name": "Szko\u0142a Podstawowa w Przewalu Szko\u0142a Filialna w Kazimier\u00f3wce",
                "addr:country": "PL",
                "addr:postcode": "22-630",
                "addr:place": "Kazimier\u00f3wka",
                "addr:housenumber": "36",
                "addr:teryt:simc": 903400,
                "contact:phone": "+48 846610282",
                "contact:email": "przewale3@wp.pl",
                "ref:regon": "113851600",
                "operator": "Gmina Tyszowce",
                "operator:type": "government",
                "amenity": "school",
                "note": "Parent RSPO: 23242"
            }
        }
    ]
}