{
    "type": "FeatureCollection",
    "features": [
        {
            "id": 119495,
            "type": "Feature",
            "geometry": {
                "type": "Point",
                "coordinates": [
                    23.78816,
                    50.51115
                ]
            },
            "properties": {
                "isced:level": "1;2",
                "ref:rspo": 119495,
                "official_name": "Publiczna Szko\u0142a Podstawowa\nProwadzona Przez Stowarzyszenie ,,Przyjazna Szko\u0142a\"",
                "name": "Publiczna Szko\u0142a Podstawowa\nProwadzona Przez Stowarzyszenie ,,Przyjazna Szko\u0142a\"",
                "addr:postcode": "22-650",
                "addr:place": "Steniatyn",
                "addr:housenumber": "71",
                "addr:city:simc": 894090,
                "phone": "+48 846611651",
                "ref:regon": "061598168",
                "ref:vatin": "PL9212029734",
                "operator": "Stowarzyszenie \"Przyjazna Szko\u0142a\"",
                "operator:type": "ngo",
                "amenity": "school"
            }
        },
        {
            "id": 278114,
            "type": "Feature",
            "geometry": {
                "type": "Point",
                "coordinates": [
                    23.72257,
                    50.5112
                ]
            },
            "properties": {
                "isced:level": "1;2",
                "ref:rspo": 278114,
                "official_name": "Publiczna Szko\u0142a Podstawowa im.ks. Jana Twardowskiego w Zimnie Prowadzona Przez Stowarzyszenie \"Przyjazna Szko\u0142a\"",
                "name": "Publiczna Szko\u0142a Podstawowa im.ks. Jana Twardowskiego w Zimnie Prowadzona Przez Stowarzyszenie \"Przyjazna Szko\u0142a\"",
                "addr:postcode": "22-650",
                "addr:place": "Zimno",
                "addr:housenumber": "1",
                "addr:city:simc": 894180,
                "email": "sp.steniatyn@vp.pl",
                "ref:regon": "389848059",
                "operator": "Stowarzyszenie \"Przyjazna Szko\u0142a\"",
                "operator:type": "ngo",
                "amenity": "school"
            }
        },
        {
            "id": 87893,
            "type": "Feature",
            "geometry": {
                "type": "Point",
                "coordinates": [
                    23.71819,
                    50.53026
                ]
            },
            "properties": {
                "ref:rspo": 87893,
                "official_name": "Gminne Przedszkole w \u0141aszczowie",
                "name": "Gminne Przedszkole w \u0141aszczowie",
                "addr:postcode": "22-650",
                "addr:city": "\u0141aszcz\u00f3w",
                "addr:street": "Fryderyka Chopina",
                "addr:housenumber": "11a",
                "addr:city:simc": 893742,
                "addr:street:sym_ul": 2844,
                "phone": "+48 846611530",
                "email": "gplaszcow@wp.pl",
                "website": "http:\/\/www.przedszkole.laszczow.pl",
                "ref:regon": "951070613",
                "ref:vatin": "PL9211772187",
                "operator": "Gmina \u0141aszcz\u00f3w",
                "operator:type": "government",
                "amenity": "kindergarten"
            }
        },
        {
            "id": 87894,
            "type": "Feature",
            "geometry": {
                "type": "Point",
                "coordinates": [
                    23.7184,
                    50.53065
                ]
            },
            "properties": {
                "isced:level": "1;2",
                "ref:rspo": 87894,
                "official_name": "Publiczna Szko\u0142a Podstawowa w \u0141aszczowie im.gen. W\u0142adys\u0142awa Sikorskiego",
                "name": "Publiczna Szko\u0142a Podstawowa w \u0141aszczowie im.gen. W\u0142adys\u0142awa Sikorskiego",
                "addr:postcode": "22-650",
                "addr:city": "\u0141aszcz\u00f3w",
                "addr:street": "Fryderyka Chopina",
                "addr:housenumber": "11",
                "addr:city:simc": 893742,
                "addr:street:sym_ul": 2844,
                "phone": "+48 846611514",
                "email": "sp-laszczow@wp.pl",
                "website": "http:\/\/sp.laszczow.pl\/",
                "ref:regon": "000678050",
                "ref:vatin": "PL9211658907",
                "operator": "Gmina \u0141aszcz\u00f3w",
                "operator:type": "government",
                "amenity": "school"
            }
        },
        {
            "id": 273359,
            "type": "Feature",
            "geometry": {
                "type": "Point",
                "coordinates": [
                    23.71967,
                    50.5336
                ]
            },
            "properties": {
                "isced:level": "3",
                "ref:rspo": 273359,
                "official_name": "Liceum Og\u00f3lnokszta\u0142c\u0105ce im. Stanis\u0142awa Kostki Starowieyskiego w \u0141aszczowie",
                "name": "Liceum Og\u00f3lnokszta\u0142c\u0105ce",
                "addr:postcode": "22-650",
                "addr:city": "\u0141aszcz\u00f3w",
                "addr:street": "Fryderyka Chopina",
                "addr:housenumber": "8",
                "addr:city:simc": 893742,
                "addr:street:sym_ul": 2844,
                "phone": "+48 846611033",
                "email": "sekretariat@liceumlaszczow.eu",
                "website": "http:\/\/www.liceumlaszczow.eu",
                "ref:regon": "384454781",
                "operator": "Stowarzyszenie \"Czajnia\"",
                "operator:type": "ngo",
                "amenity": "school"
            }
        },
        {
            "id": 104729,
            "type": "Feature",
            "geometry": {
                "type": "Point",
                "coordinates": [
                    23.75667,
                    50.58543
                ]
            },
            "properties": {
                "isced:level": "1;2",
                "ref:rspo": 104729,
                "official_name": "Publiczna Szko\u0142a Podstawowa im.kardyna\u0142a Stefana Wyszy\u0144skiego w Nabro\u017cu-Kolonii",
                "name": "Publiczna Szko\u0142a Podstawowa im.kardyna\u0142a Stefana Wyszy\u0144skiego w Nabro\u017cu-Kolonii",
                "addr:postcode": "22-650",
                "addr:place": "Nabr\u00f3\u017c",
                "addr:housenumber": "19",
                "addr:city:simc": 893877,
                "phone": "+48 846471381",
                "ref:regon": "001134754",
                "operator": "Gmina \u0141aszcz\u00f3w",
                "operator:type": "government",
                "amenity": "school"
            }
        }
    ]
}