{
    "type": "FeatureCollection",
    "features": [
        {
            "id": 10604,
            "type": "Feature",
            "geometry": {
                "type": "Point",
                "coordinates": [
                    23.41705,
                    50.4119
                ]
            },
            "properties": {
                "isced:level": "1;2",
                "ref:rspo": 10604,
                "official_name": "Niepubliczna Szko\u0142a Podstawowa w Jezierni",
                "name": "Niepubliczna Szko\u0142a Podstawowa w Jezierni",
                "addr:postcode": "22-600",
                "addr:place": "Jeziernia",
                "addr:housenumber": "110",
                "addr:city:simc": 902091,
                "email": "jeziernia.szkola@gmail.com",
                "website": "http:\/\/jeziernia.pl",
                "ref:regon": "061456149",
                "ref:vatin": "PL9212026434",
                "operator": "Fundacja \"Wiedza, Edukacja, Rozw\u00f3j\"",
                "operator:type": "ngo",
                "amenity": "school"
            }
        },
        {
            "id": 10625,
            "type": "Feature",
            "geometry": {
                "type": "Point",
                "coordinates": [
                    23.50671,
                    50.42077
                ]
            },
            "properties": {
                "isced:level": "1;2",
                "ref:rspo": 10625,
                "official_name": "Niepubliczna Szko\u0142a Podstawowa w Przeorsku",
                "name": "Niepubliczna Szko\u0142a Podstawowa w Przeorsku",
                "addr:postcode": "22-600",
                "addr:place": "Przeorsk",
                "addr:housenumber": "113",
                "addr:city:simc": 902435,
                "phone": "+48 846662525",
                "email": "szkola.wprzeorsku@interia.pl",
                "website": "http:\/\/nspprzeorsk.edupage.org",
                "ref:regon": "061456391",
                "ref:vatin": "PL9211842309",
                "operator": "Stowarzyszenie \"Czajnia\"",
                "operator:type": "ngo",
                "amenity": "school"
            }
        },
        {
            "id": 17240,
            "type": "Feature",
            "geometry": {
                "type": "Point",
                "coordinates": [
                    23.44948,
                    50.43244
                ]
            },
            "properties": {
                "isced:level": "1;2",
                "ref:rspo": 17240,
                "official_name": "Szko\u0142a Podstawowa im. Jana Kochanowskiego w \u0141aszcz\u00f3wce",
                "name": "Szko\u0142a Podstawowa",
                "addr:postcode": "22-600",
                "addr:city": "\u0141aszcz\u00f3wka",
                "addr:street": "Sp\u00f3\u0142dzielcza",
                "addr:housenumber": "2",
                "addr:city:simc": 902228,
                "addr:street:sym_ul": 20696,
                "phone": "+48 846658081",
                "email": "zs_laszczowka@onet.eu",
                "website": "http:\/\/www.zslaszczowka.superszkolna.pl",
                "ref:regon": "001138290",
                "ref:vatin": "PL9211704429",
                "operator": "Gmina Tomasz\u00f3w Lubelski",
                "operator:type": "government",
                "amenity": "school"
            }
        },
        {
            "id": 270189,
            "type": "Feature",
            "geometry": {
                "type": "Point",
                "coordinates": [
                    23.448259353638,
                    50.432559967041
                ]
            },
            "properties": {
                "ref:rspo": 270189,
                "official_name": "Punkt Przedszkolny \"Miko\u0142ajek\"",
                "name": "Punkt Przedszkolny \"Miko\u0142ajek\"",
                "addr:postcode": "22-600",
                "addr:city": "\u0141aszcz\u00f3wka",
                "addr:street": "Lazurowa",
                "addr:housenumber": "4",
                "addr:city:simc": 902228,
                "addr:street:sym_ul": 10726,
                "email": "przedszkole@mikolajek.com.pl",
                "website": "http:\/\/www.mikolajek.com.pl",
                "ref:regon": "382173322",
                "operator": "Magdalena Daszek",
                "operator:type": "private",
                "amenity": "kindergarten"
            }
        },
        {
            "id": 8751,
            "type": "Feature",
            "geometry": {
                "type": "Point",
                "coordinates": [
                    23.35465,
                    50.43303
                ]
            },
            "properties": {
                "isced:level": "1;2",
                "ref:rspo": 8751,
                "official_name": "Szko\u0142a Podstawowa w Pasiekach",
                "name": "Szko\u0142a Podstawowa w Pasiekach",
                "addr:postcode": "22-600",
                "addr:place": "Pasieki",
                "addr:housenumber": "87",
                "addr:city:simc": 902330,
                "phone": "+48 846668995",
                "email": "sp_pasieki@poczta.fm",
                "website": "http:\/\/www.szkolapasieki.superszkolna.pl",
                "ref:regon": "001138344",
                "ref:vatin": "PL9211704613",
                "operator": "Gmina Tomasz\u00f3w Lubelski",
                "operator:type": "government",
                "amenity": "school"
            }
        },
        {
            "id": 17422,
            "type": "Feature",
            "geometry": {
                "type": "Point",
                "coordinates": [
                    23.49034,
                    50.45978
                ]
            },
            "properties": {
                "isced:level": "1;2",
                "ref:rspo": 17422,
                "official_name": "Szko\u0142a Podstawowa im. \u017bo\u0142nierzy Wrze\u015bnia 1939R w Majdanie G\u00f3rnym",
                "name": "Szko\u0142a Podstawowa",
                "addr:postcode": "22-600",
                "addr:city": "Majdan G\u00f3rny",
                "addr:street": "D\u0142uga",
                "addr:housenumber": "180",
                "addr:city:simc": 902240,
                "addr:street:sym_ul": 3839,
                "phone": "+48 846664229",
                "email": "zspmajdang@poczta.onet.pl",
                "website": "http:\/\/www.zspmajdang.szkolna.net",
                "ref:regon": "001138338",
                "ref:vatin": "PL9211704493",
                "operator": "Gmina Tomasz\u00f3w Lubelski",
                "operator:type": "government",
                "amenity": "school"
            }
        },
        {
            "id": 8573,
            "type": "Feature",
            "geometry": {
                "type": "Point",
                "coordinates": [
                    23.38854,
                    50.4641
                ]
            },
            "properties": {
                "isced:level": "1;2",
                "ref:rspo": 8573,
                "official_name": "Szko\u0142a Podstawowa w Rog\u00f3\u017anie",
                "name": "Szko\u0142a Podstawowa w Rog\u00f3\u017anie",
                "addr:postcode": "22-600",
                "addr:city": "Rog\u00f3\u017ano",
                "addr:street": "Wyzwolenia",
                "addr:housenumber": "100",
                "addr:city:simc": 902493,
                "addr:street:sym_ul": 25133,
                "phone": "+48 846643630",
                "email": "mirka@majdanik.com",
                "ref:regon": "001138396",
                "ref:vatin": "PL9211704599",
                "operator": "Gmina Tomasz\u00f3w Lubelski",
                "operator:type": "government",
                "amenity": "school"
            }
        },
        {
            "id": 18060,
            "type": "Feature",
            "geometry": {
                "type": "Point",
                "coordinates": [
                    23.43779,
                    50.47103
                ]
            },
            "properties": {
                "isced:level": "1;2",
                "ref:rspo": 18060,
                "official_name": "Szko\u0142a Podstawowa im.ordynacji Zamoyskiej w Sabaudii",
                "name": "Szko\u0142a Podstawowa im.ordynacji Zamoyskiej w Sabaudii",
                "addr:postcode": "22-600",
                "addr:place": "Sabaudia",
                "addr:housenumber": "47",
                "addr:city:simc": 902576,
                "phone": "+48 846646216",
                "email": "spsabaudia@wp.pl",
                "website": "http:\/\/www.sabaudia.szkolna.net",
                "ref:regon": "001138380",
                "ref:vatin": "PL9211704636",
                "operator": "Gmina Tomasz\u00f3w Lubelski",
                "operator:type": "government",
                "amenity": "school"
            }
        },
        {
            "id": 8600,
            "type": "Feature",
            "geometry": {
                "type": "Point",
                "coordinates": [
                    23.59991,
                    50.48362
                ]
            },
            "properties": {
                "isced:level": "1;2",
                "ref:rspo": 8600,
                "official_name": "Szko\u0142a Podstawowa w Typinie",
                "name": "Szko\u0142a Podstawowa w Typinie",
                "addr:postcode": "22-600",
                "addr:place": "Typin",
                "addr:housenumber": "101 A",
                "addr:city:simc": 902613,
                "phone": "+48 846664625",
                "email": "szkola.typin@wp.pl",
                "website": "http:\/\/typin.szkolna.net",
                "ref:regon": "001138309",
                "ref:vatin": "PL9211704642",
                "operator": "Gmina Tomasz\u00f3w Lubelski",
                "operator:type": "government",
                "amenity": "school"
            }
        },
        {
            "id": 10592,
            "type": "Feature",
            "geometry": {
                "type": "Point",
                "coordinates": [
                    23.48163,
                    50.48398
                ]
            },
            "properties": {
                "isced:level": "1;2",
                "ref:rspo": 10592,
                "official_name": "Niepubliczna Szko\u0142a Podstawowa w Justyn\u00f3wce",
                "name": "Niepubliczna Szko\u0142a Podstawowa w Justyn\u00f3wce",
                "addr:postcode": "22-600",
                "addr:place": "Justyn\u00f3wka",
                "addr:housenumber": "52A",
                "addr:city:simc": 902180,
                "phone": "+48 846664677",
                "email": "mariapuch@interia.pl",
                "ref:regon": "061456327",
                "ref:vatin": "PL9212029036",
                "operator": "Stowarzyszenie Rozwoju Justyn\u00f3wki I Okolic",
                "operator:type": "ngo",
                "amenity": "school"
            }
        },
        {
            "id": 18106,
            "type": "Feature",
            "geometry": {
                "type": "Point",
                "coordinates": [
                    23.34804,
                    50.49657
                ]
            },
            "properties": {
                "isced:level": "1;2",
                "ref:rspo": 18106,
                "official_name": "Szko\u0142a Podstawowa im.papie\u017ca Jana Paw\u0142a II w Szarowoli",
                "name": "Szko\u0142a Podstawowa im.papie\u017ca Jana Paw\u0142a II w Szarowoli",
                "addr:postcode": "22-600",
                "addr:place": "Szarowola",
                "addr:housenumber": "126",
                "addr:city:simc": 902607,
                "phone": "+48 846641660",
                "email": "zspszarowola@o2.pl",
                "ref:regon": "001138350",
                "ref:vatin": "PL9211704464",
                "operator": "Gmina Tomasz\u00f3w Lubelski",
                "operator:type": "government",
                "amenity": "school"
            }
        },
        {
            "id": 17497,
            "type": "Feature",
            "geometry": {
                "type": "Point",
                "coordinates": [
                    23.74884,
                    50.52539
                ]
            },
            "properties": {
                "isced:level": "1;2",
                "ref:rspo": 17497,
                "official_name": "Szko\u0142a Podstawowa im.marsza\u0142ka J\u00f3zefa Pi\u0142sudskiego w Podhorcach",
                "name": "Szko\u0142a Podstawowa im.marsza\u0142ka J\u00f3zefa Pi\u0142sudskiego w Podhorcach",
                "addr:postcode": "22-600",
                "addr:place": "Podhorce",
                "addr:housenumber": "114 A",
                "addr:city:simc": 902369,
                "phone": "+48 846664622",
                "email": "zspp5@wp.pl",
                "website": "http:\/\/www.podhorce.szkolna.net",
                "ref:regon": "001138284",
                "ref:vatin": "PL9211704553",
                "operator": "Gmina Tomasz\u00f3w Lubelski",
                "operator:type": "government",
                "amenity": "school"
            }
        }
    ]
}