{
    "type": "FeatureCollection",
    "features": [
        {
            "id": 40220,
            "type": "Feature",
            "geometry": {
                "type": "Point",
                "coordinates": [
                    21.94441,
                    51.2912899
                ]
            },
            "properties": {
                "isced:level": "1;2",
                "ref:rspo": 40220,
                "official_name": "Szko\u0142a Podstawowa Nr 2 w Kazimierzu Dolnym",
                "name": "Szko\u0142a Podstawowa Nr 2 w Kazimierzu Dolnym",
                "addr:postcode": "24-120",
                "addr:place": "D\u0105br\u00f3wka",
                "addr:housenumber": "23",
                "addr:city:simc": 955934,
                "phone": "+48 818810202",
                "email": "sp2kd@wp.pl",
                "website": "http:\/\/www.sp2dabrowka.szkolnastrona.pl",
                "ref:regon": "001152172",
                "ref:vatin": "PL7162155251",
                "operator": "Gmina Kazimierz Dolny",
                "operator:type": "government",
                "amenity": "school"
            }
        },
        {
            "id": 88707,
            "type": "Feature",
            "geometry": {
                "type": "Point",
                "coordinates": [
                    22.04084,
                    51.30634
                ]
            },
            "properties": {
                "isced:level": "1;2",
                "ref:rspo": 88707,
                "official_name": "Szko\u0142a Podstawowa im.marii Kuncewiczowej w Rzeczycy",
                "name": "Szko\u0142a Podstawowa im.marii Kuncewiczowej w Rzeczycy",
                "addr:postcode": "24-120",
                "addr:place": "Rzeczyca",
                "addr:housenumber": "69",
                "addr:city:simc": 383047,
                "phone": "+48 818810798",
                "email": "sprzeczyca@gmail.com",
                "website": "http:\/\/sprzeczyca.szkolnastrona.pl\/",
                "ref:regon": "001152189",
                "ref:vatin": "PL7162155239",
                "operator": "Gmina Kazimierz Dolny",
                "operator:type": "government",
                "amenity": "school"
            }
        },
        {
            "id": 68865,
            "type": "Feature",
            "geometry": {
                "type": "Point",
                "coordinates": [
                    22.00887,
                    51.30898
                ]
            },
            "properties": {
                "ref:rspo": 68865,
                "official_name": "Punkt Przedszkolny \"Promyk\"Przy Spo\u0142ecznej Szkole Podstawowej w Skowieszynku",
                "name": "Punkt Przedszkolny \"Promyk\"Przy Spo\u0142ecznej Szkole Podstawowej w Skowieszynku",
                "addr:postcode": "24-120",
                "addr:place": "Skowieszynek",
                "addr:housenumber": "9",
                "addr:city:simc": 383076,
                "phone": "+48 818810180",
                "ref:regon": "061480047",
                "operator": "Stowarzyszenie Rozwoju Wsi Skowieszynek",
                "operator:type": "ngo",
                "amenity": "kindergarten"
            }
        },
        {
            "id": 88709,
            "type": "Feature",
            "geometry": {
                "type": "Point",
                "coordinates": [
                    22.00887,
                    51.308949999999996
                ]
            },
            "properties": {
                "isced:level": "1;2",
                "ref:rspo": 88709,
                "official_name": "Spo\u0142eczna Szko\u0142a Podstawowa w Skowieszynku",
                "name": "Spo\u0142eczna Szko\u0142a Podstawowa w Skowieszynku",
                "addr:postcode": "24-120",
                "addr:place": "Skowieszynek",
                "addr:housenumber": "9",
                "addr:city:simc": 383076,
                "phone": "+48 818810180",
                "email": "sspskowieszynek@onet.eu",
                "ref:regon": "061493676",
                "operator": "Stowarzyszenie Rozwoju Wsi Skowieszynek",
                "operator:type": "ngo",
                "amenity": "school"
            }
        },
        {
            "id": 27998,
            "type": "Feature",
            "geometry": {
                "type": "Point",
                "coordinates": [
                    21.9179743,
                    51.3116413
                ]
            },
            "properties": {
                "ref:rspo": 27998,
                "official_name": "M\u0142odzie\u017cowy O\u015brodek Socjoterapii w Albrecht\u00f3wce",
                "name": "M\u0142odzie\u017cowy O\u015brodek Socjoterapii w Albrecht\u00f3wce",
                "addr:postcode": "24-120",
                "addr:city": "Kazimierz Dolny",
                "addr:street": "Albrecht\u00f3wka",
                "addr:housenumber": "5",
                "addr:city:simc": 955905,
                "addr:street:sym_ul": 38355,
                "phone": "+48 818810014",
                "email": "powrotzu@vp.pl",
                "website": "http:\/\/powrotzu.pl",
                "ref:regon": "061471380",
                "operator": "Fundacja Pomocy Dzieciom Uzale\u017cnionym \"Powr\u00f3t Z U\"",
                "operator:type": "ngo",
                "fixme": "amenity=social_facility + social_facility=group_home + social_facility:for=juvenile",
                "note": "Children RSPO: 268420;272603"
            }
        },
        {
            "id": 268420,
            "type": "Feature",
            "geometry": {
                "type": "Point",
                "coordinates": [
                    21.9179743,
                    51.311611299999996
                ]
            },
            "properties": {
                "isced:level": "1;2",
                "ref:rspo": 268420,
                "official_name": "Szko\u0142a Podstawowa Specjalna w M\u0142odzie\u017cowym O\u015brodku Socjoterapii w Albrecht\u00f3wce",
                "name": "Szko\u0142a Podstawowa Specjalna w M\u0142odzie\u017cowym O\u015brodku Socjoterapii w Albrecht\u00f3wce",
                "addr:postcode": "24-120",
                "addr:city": "Kazimierz Dolny",
                "addr:street": "Albrecht\u00f3wka",
                "addr:housenumber": "5",
                "addr:city:simc": 955905,
                "addr:street:sym_ul": 38355,
                "phone": "+48 818810014",
                "email": "szkola.albrechtowka@gmail.com",
                "ref:regon": "381156422",
                "ref:vatin": "PL7162824002",
                "operator": "Fundacja Pomocy Dzieciom Uzale\u017cnionym \"Powr\u00f3t Z U\"",
                "operator:type": "ngo",
                "amenity": "school",
                "note": "Parent RSPO: 27998"
            }
        },
        {
            "id": 272603,
            "type": "Feature",
            "geometry": {
                "type": "Point",
                "coordinates": [
                    21.9179743,
                    51.3115813
                ]
            },
            "properties": {
                "isced:level": "3",
                "ref:rspo": 272603,
                "official_name": "Liceum Og\u00f3lnokszta\u0142c\u0105ce Specjalne w M\u0142odzie\u017cowym O\u015brodku Socjoterapii w Albrecht\u00f3wce",
                "name": "Liceum Og\u00f3lnokszta\u0142c\u0105ce Specjalne w M\u0142odzie\u017cowym O\u015brodku Socjoterapii w Albrecht\u00f3wce",
                "addr:postcode": "24-120",
                "addr:city": "Kazimierz Dolny",
                "addr:street": "Albrecht\u00f3wka",
                "addr:housenumber": "5",
                "addr:city:simc": 955905,
                "addr:street:sym_ul": 38355,
                "phone": "+48 818810014",
                "email": "szkola.albrechtowka@gmail.com",
                "ref:regon": "384269300",
                "ref:vatin": "PL7162827443",
                "operator": "Fundacja Pomocy Dzieciom Uzale\u017cnionym \"Powr\u00f3t Z U\"",
                "operator:type": "ngo",
                "amenity": "school",
                "note": "Parent RSPO: 27998"
            }
        },
        {
            "id": 86895,
            "type": "Feature",
            "geometry": {
                "type": "Point",
                "coordinates": [
                    21.95539,
                    51.31883
                ]
            },
            "properties": {
                "ref:rspo": 86895,
                "official_name": "Pozaszkolna Plac\u00f3wka Specjalistyczna - \u00a0O\u015brodek O\u015bwiatowo - Szkoleniowy \u201eArkadia\u201d w Kazimierzu Dolnym",
                "name": "Pozaszkolna Plac\u00f3wka Specjalistyczna - \u00a0O\u015brodek O\u015bwiatowo - Szkoleniowy \u201eArkadia\u201d w Kazimierzu Dolnym",
                "addr:postcode": "24-120",
                "addr:city": "Kazimierz Dolny",
                "addr:street": "Czerniawy",
                "addr:housenumber": "1",
                "addr:city:simc": 955905,
                "addr:street:sym_ul": 3386,
                "phone": "+48 818810074",
                "email": "biuro@oosarkadia.pl",
                "website": "http:\/\/www.oosarkadia.pl",
                "ref:regon": "060700618",
                "ref:vatin": "PL7162799379",
                "operator": "Miasto Sto\u0142eczne Warszawa",
                "operator:type": "government",
                "fixme": "w zale\u017cno\u015bci od przedmiotu dzia\u0142alno\u015bci (np. amenity=training + training=*, amenity=dancing_school, amenity=language_school, amenity=music_school)"
            }
        },
        {
            "id": 44635,
            "type": "Feature",
            "geometry": {
                "type": "Point",
                "coordinates": [
                    21.95495,
                    51.32038
                ]
            },
            "properties": {
                "ref:rspo": 44635,
                "official_name": "Gminny Zesp\u00f3\u0142 Szk\u00f3\u0142 w Kazimierzu Dolnym",
                "name": "Gminny Zesp\u00f3\u0142 Szk\u00f3\u0142 w Kazimierzu Dolnym",
                "addr:postcode": "24-120",
                "addr:city": "Kazimierz Dolny",
                "addr:street": "Szkolna",
                "addr:housenumber": "1",
                "addr:door": "1",
                "addr:city:simc": 955905,
                "addr:street:sym_ul": 21970,
                "email": "gzs@poczta.onet.eu",
                "ref:regon": "060269630",
                "ref:vatin": "PL7162728988",
                "operator": "Gmina Kazimierz Dolny",
                "operator:type": "government",
                "landuse": "education",
                "fixme": "amenity=school, amenity=college albo landuse=education w zale\u017cno\u015bci od tego, jakie plac\u00f3wki wchodz\u0105 w sk\u0142ad zespo\u0142u. Sprawd\u017a, kiedy stosowa\u0107 amenity=* a kiedy landuse=education.",
                "note": "Children RSPO: 86179;86181"
            }
        },
        {
            "id": 86179,
            "type": "Feature",
            "geometry": {
                "type": "Point",
                "coordinates": [
                    21.95495,
                    51.32035
                ]
            },
            "properties": {
                "isced:level": "1;2",
                "ref:rspo": 86179,
                "official_name": "Gminny Zesp\u00f3\u0142 Szk\u00f3\u0142 w Kazimierzu Dolnym Szko\u0142a Podstawowa Nr 1 im. Kazimierza Wielkiego",
                "name": "Gminny Zesp\u00f3\u0142 Szk\u00f3\u0142 w Kazimierzu Dolnym Szko\u0142a Podstawowa Nr 1",
                "addr:postcode": "24-120",
                "addr:city": "Kazimierz Dolny",
                "addr:street": "Szkolna",
                "addr:housenumber": "1",
                "addr:city:simc": 955905,
                "addr:street:sym_ul": 21970,
                "phone": "+48 818810083",
                "email": "gzs@poczta.onet.eu",
                "website": "http:\/\/gzskd.pl",
                "ref:regon": "000557725",
                "ref:vatin": "PL7162155245",
                "operator": "Gmina Kazimierz Dolny",
                "operator:type": "government",
                "amenity": "school",
                "note": "Parent RSPO: 44635"
            }
        },
        {
            "id": 86181,
            "type": "Feature",
            "geometry": {
                "type": "Point",
                "coordinates": [
                    21.95495,
                    51.32032
                ]
            },
            "properties": {
                "isced:level": "3",
                "ref:rspo": 86181,
                "official_name": "Gminny Zesp\u00f3\u0142 Szk\u00f3\u0142 w Kazimierzu Dolnym Liceum Og\u00f3lnokszta\u0142c\u0105ce",
                "name": "Gminny Zesp\u00f3\u0142 Szk\u00f3\u0142 w Kazimierzu Dolnym Liceum Og\u00f3lnokszta\u0142c\u0105ce",
                "addr:postcode": "24-120",
                "addr:city": "Kazimierz Dolny",
                "addr:street": "Szkolna",
                "addr:housenumber": "1",
                "addr:city:simc": 955905,
                "addr:street:sym_ul": 21970,
                "phone": "+48 818810083",
                "email": "gzs@poczta.onet.eu",
                "website": "http:\/\/gzskd.pl",
                "ref:regon": "000899437",
                "ref:vatin": "PL7162157221",
                "operator": "Gmina Kazimierz Dolny",
                "operator:type": "government",
                "amenity": "school",
                "note": "Parent RSPO: 44635"
            }
        },
        {
            "id": 88711,
            "type": "Feature",
            "geometry": {
                "type": "Point",
                "coordinates": [
                    21.9510324,
                    51.3207793
                ]
            },
            "properties": {
                "ref:rspo": 88711,
                "official_name": "Przedszkole Z Oddzia\u0142ami Integracyjnymi im.marii Konopnickiej w Kazimierzu Dolnym",
                "name": "Przedszkole Z Oddzia\u0142ami Integracyjnymi im.marii Konopnickiej w Kazimierzu Dolnym",
                "addr:postcode": "24-120",
                "addr:city": "Kazimierz Dolny",
                "addr:street": "Lubelska",
                "addr:housenumber": "24a",
                "addr:city:simc": 955905,
                "addr:street:sym_ul": 11307,
                "phone": "+48 818810124",
                "email": "przedszkolekazimierz@o2.pl",
                "website": "http:\/\/przedszkolekazimierz.eprzedszkola.pl",
                "ref:regon": "432247507",
                "ref:vatin": "PL7162150905",
                "operator": "Gmina Kazimierz Dolny",
                "operator:type": "government",
                "amenity": "kindergarten"
            }
        },
        {
            "id": 16114,
            "type": "Feature",
            "geometry": {
                "type": "Point",
                "coordinates": [
                    21.94626,
                    51.32336
                ]
            },
            "properties": {
                "ref:rspo": 16114,
                "official_name": "Zesp\u00f3\u0142 Szk\u00f3\u0142 im.jana Koszczyca-Witkiewicza w Kazimierzu Dolnym",
                "name": "Zesp\u00f3\u0142 Szk\u00f3\u0142 im.jana Koszczyca-Witkiewicza w Kazimierzu Dolnym",
                "addr:postcode": "24-120",
                "addr:city": "Kazimierz Dolny",
                "addr:street": "Nadwi\u015bla\u0144ska",
                "addr:housenumber": "9",
                "addr:city:simc": 955905,
                "addr:street:sym_ul": 13915,
                "phone": "+48 818810558",
                "email": "zsz-kazimierz@wp.pl",
                "ref:regon": "060664549",
                "ref:vatin": "PL7162794057",
                "operator": "Powiat Pu\u0142awski",
                "operator:type": "government",
                "landuse": "education",
                "fixme": "amenity=school, amenity=college albo landuse=education w zale\u017cno\u015bci od tego, jakie plac\u00f3wki wchodz\u0105 w sk\u0142ad zespo\u0142u. Sprawd\u017a, kiedy stosowa\u0107 amenity=* a kiedy landuse=education.",
                "note": "Children RSPO: 47737;48020;48021;48022;53051"
            }
        },
        {
            "id": 47737,
            "type": "Feature",
            "geometry": {
                "type": "Point",
                "coordinates": [
                    21.94626,
                    51.32333
                ]
            },
            "properties": {
                "ref:rspo": 47737,
                "official_name": "Szkolne Schronisko M\u0142odzie\u017cowe w Zespole Szk\u00f3\u0142 im.j.k.witkiewicza w Kazimierzu Dolnym",
                "name": "Szkolne Schronisko M\u0142odzie\u017cowe w Zespole Szk\u00f3\u0142 im.j.k.witkiewicza w Kazimierzu Dolnym",
                "addr:postcode": "24-120",
                "addr:city": "Kazimierz Dolny",
                "addr:street": "Nadwi\u015bla\u0144ska",
                "addr:housenumber": "9",
                "addr:city:simc": 955905,
                "addr:street:sym_ul": 13915,
                "phone": "+48 818810558",
                "email": "zsz-kazimierz@wp.pl",
                "ref:regon": "060711102",
                "operator": "Powiat Pu\u0142awski",
                "operator:type": "government",
                "tourism": "hostel",
                "note": "Parent RSPO: 16114"
            }
        },
        {
            "id": 48020,
            "type": "Feature",
            "geometry": {
                "type": "Point",
                "coordinates": [
                    21.94626,
                    51.3233
                ]
            },
            "properties": {
                "isced:level": "3",
                "ref:rspo": 48020,
                "official_name": "Technikum w Zespole Szk\u00f3\u0142 im.j.k.witkiewicza w Kazimierzu Dolnym",
                "name": "Technikum w Zespole Szk\u00f3\u0142 im.j.k.witkiewicza w Kazimierzu Dolnym",
                "addr:postcode": "24-120",
                "addr:city": "Kazimierz Dolny",
                "addr:street": "Nadwi\u015bla\u0144ska",
                "addr:housenumber": "9",
                "addr:city:simc": 955905,
                "addr:street:sym_ul": 13915,
                "phone": "+48 818810558",
                "email": "zsz-kazimierz@wp.pl",
                "website": "http:\/\/koszczyc.kazimierz-dolny.pl",
                "ref:regon": "060664615",
                "operator": "Powiat Pu\u0142awski",
                "operator:type": "government",
                "amenity": "school",
                "note": "Parent RSPO: 16114"
            }
        },
        {
            "id": 48021,
            "type": "Feature",
            "geometry": {
                "type": "Point",
                "coordinates": [
                    21.94626,
                    51.32327
                ]
            },
            "properties": {
                "isced:level": "3",
                "ref:rspo": 48021,
                "official_name": "Liceum Og\u00f3lnokszta\u0142c\u0105ce w Zespole Szk\u00f3\u0142 im.j.k.witkiewicza w Kazimierzu Dolnym",
                "name": "Liceum Og\u00f3lnokszta\u0142c\u0105ce w Zespole Szk\u00f3\u0142 im.j.k.witkiewicza w Kazimierzu Dolnym",
                "addr:postcode": "24-120",
                "addr:city": "Kazimierz Dolny",
                "addr:street": "Nadwi\u015bla\u0144ska",
                "addr:housenumber": "9",
                "addr:city:simc": 955905,
                "addr:street:sym_ul": 13915,
                "phone": "+48 818810558",
                "email": "zsz-kazimierz@wp.pl",
                "website": "http:\/\/koszczyc.kazimierz-dolny.pl",
                "ref:regon": "060664584",
                "operator": "Powiat Pu\u0142awski",
                "operator:type": "government",
                "amenity": "school",
                "note": "Parent RSPO: 16114"
            }
        },
        {
            "id": 48022,
            "type": "Feature",
            "geometry": {
                "type": "Point",
                "coordinates": [
                    21.94626,
                    51.32324
                ]
            },
            "properties": {
                "isced:level": "3",
                "ref:rspo": 48022,
                "official_name": "Bran\u017cowa Szko\u0142a I Stopnia w Zespole Szk\u00f3\u0142 im. J.k.witkiewicza w Kazimierzu Dolnym",
                "name": "Bran\u017cowa Szko\u0142a I Stopnia w Zespole Szk\u00f3\u0142",
                "addr:postcode": "24-120",
                "addr:city": "Kazimierz Dolny",
                "addr:street": "Nadwi\u015bla\u0144ska",
                "addr:housenumber": "9",
                "addr:city:simc": 955905,
                "addr:street:sym_ul": 13915,
                "phone": "+48 818810558",
                "email": "zsz-kazimierz@wp.pl",
                "website": "http:\/\/koszczyc.kazimierz-dolny.pl",
                "ref:regon": "060664590",
                "operator": "Powiat Pu\u0142awski",
                "operator:type": "government",
                "amenity": "school",
                "note": "Parent RSPO: 16114"
            }
        },
        {
            "id": 53051,
            "type": "Feature",
            "geometry": {
                "type": "Point",
                "coordinates": [
                    21.94626,
                    51.32321
                ]
            },
            "properties": {
                "isced:level": "3",
                "ref:rspo": 53051,
                "official_name": "Liceum Og\u00f3lnokszta\u0142c\u0105ce dla Doros\u0142ych w Zespole Szk\u00f3\u0142 im.j.k.witkiewicza w Kazimierzu Dolnym",
                "name": "Liceum Og\u00f3lnokszta\u0142c\u0105ce dla Doros\u0142ych w Zespole Szk\u00f3\u0142 im.j.k.witkiewicza w Kazimierzu Dolnym",
                "addr:postcode": "24-120",
                "addr:city": "Kazimierz Dolny",
                "addr:street": "Nadwi\u015bla\u0144ska",
                "addr:housenumber": "9",
                "addr:city:simc": 955905,
                "addr:street:sym_ul": 13915,
                "phone": "+48 818810558",
                "email": "zsz-kazimierz@wp.pl",
                "ref:regon": "061478398",
                "operator": "Powiat Pu\u0142awski",
                "operator:type": "government",
                "amenity": "school",
                "note": "Parent RSPO: 16114"
            }
        },
        {
            "id": 40702,
            "type": "Feature",
            "geometry": {
                "type": "Point",
                "coordinates": [
                    21.99499,
                    51.34106
                ]
            },
            "properties": {
                "isced:level": "1;2",
                "ref:rspo": 40702,
                "official_name": "Szko\u0142a Podstawowa w Bochotnicy",
                "name": "Szko\u0142a Podstawowa w Bochotnicy",
                "addr:postcode": "24-120",
                "addr:city": "Bochotnica",
                "addr:street": "Zam\u0142ynie",
                "addr:housenumber": "1",
                "addr:city:simc": 383024,
                "addr:street:sym_ul": 25556,
                "phone": "+48 818828464",
                "email": "spb@oswiata.org.pl",
                "ref:regon": "001152166",
                "ref:vatin": "PL7162157741",
                "operator": "Gmina Kazimierz Dolny",
                "operator:type": "government",
                "amenity": "school"
            }
        }
    ]
}