{
    "type": "FeatureCollection",
    "features": [
        {
            "id": 17131,
            "type": "Feature",
            "geometry": {
                "type": "Point",
                "coordinates": [
                    21.97194,
                    51.40068
                ]
            },
            "properties": {
                "ref:rspo": 17131,
                "official_name": "Szkolne Schronisko M\u0142odzie\u017cowe w Pu\u0142awach",
                "name": "Szkolne Schronisko M\u0142odzie\u017cowe w Pu\u0142awach",
                "addr:postcode": "24-100",
                "addr:city": "Pu\u0142awy",
                "addr:street": "W\u0142ostowicka",
                "addr:housenumber": "25",
                "addr:city:simc": 956810,
                "addr:street:sym_ul": 24526,
                "phone": "+48 818863367",
                "email": "recepcja@ssmpulawy.pl",
                "website": "http:\/\/www.ssmpulawy.pl",
                "ref:regon": "060711088",
                "ref:vatin": "PL7162799681",
                "operator": "Powiat Pu\u0142awski",
                "operator:type": "government",
                "tourism": "hostel"
            }
        },
        {
            "id": 55614,
            "type": "Feature",
            "geometry": {
                "type": "Point",
                "coordinates": [
                    21.97864,
                    51.40181
                ]
            },
            "properties": {
                "isced:level": "1;2",
                "ref:rspo": 55614,
                "official_name": "Szko\u0142a Podstawowa nr 4 im. Miko\u0142aja Kopernika w Pu\u0142awach",
                "name": "Szko\u0142a Podstawowa nr 4",
                "addr:postcode": "24-100",
                "addr:city": "Pu\u0142awy",
                "addr:street": "Franciszka Zab\u0142ockiego",
                "addr:housenumber": "8",
                "addr:city:simc": 956810,
                "addr:street:sym_ul": 25267,
                "phone": "+48 814586555",
                "email": "sp4@um.pulawy.pl",
                "website": "http:\/\/www.sp4pulawy.szkolnastrona.pl",
                "ref:regon": "000714691",
                "ref:vatin": "PL7162152175",
                "operator": "Miasto Pu\u0142awy",
                "operator:type": "government",
                "amenity": "school"
            }
        },
        {
            "id": 82862,
            "type": "Feature",
            "geometry": {
                "type": "Point",
                "coordinates": [
                    21.97486,
                    51.40408
                ]
            },
            "properties": {
                "ref:rspo": 82862,
                "official_name": "Miejskie Przedszkole nr 2 w Pu\u0142awach",
                "name": "Miejskie Przedszkole nr 2 w Pu\u0142awach",
                "addr:postcode": "24-100",
                "addr:city": "Pu\u0142awy",
                "addr:street": "Piotra Norblina",
                "addr:housenumber": "17",
                "addr:city:simc": 956810,
                "addr:street:sym_ul": 14310,
                "phone": "+48 814586360",
                "email": "mp2@um.pulawy.pl",
                "website": "http:\/\/www.mp2.um.pulawy.pl",
                "ref:regon": "431189660",
                "ref:vatin": "PL7162368685",
                "operator": "Miasto Pu\u0142awy",
                "operator:type": "government",
                "amenity": "kindergarten"
            }
        },
        {
            "id": 279104,
            "type": "Feature",
            "geometry": {
                "type": "Point",
                "coordinates": [
                    21.99191,
                    51.41005
                ]
            },
            "properties": {
                "ref:rspo": 279104,
                "official_name": "Niepubliczne Przedszkole Kot Filemon",
                "name": "Niepubliczne Przedszkole Kot Filemon",
                "addr:postcode": "24-100",
                "addr:city": "Pu\u0142awy",
                "addr:street": "Sosnowa",
                "addr:housenumber": "26",
                "addr:city:simc": 956810,
                "addr:street:sym_ul": 20598,
                "email": "biuro@kotfilemonlublin.pl",
                "website": "http:\/\/kotfilemonlublin.pl",
                "ref:regon": "520659363",
                "operator": "Aneta Falkowska",
                "operator:type": "private",
                "amenity": "kindergarten"
            }
        },
        {
            "id": 275779,
            "type": "Feature",
            "geometry": {
                "type": "Point",
                "coordinates": [
                    21.96931,
                    51.41215
                ]
            },
            "properties": {
                "ref:rspo": 275779,
                "official_name": "Niepubliczne Przedszkole Marchewkowe Pole",
                "name": "Niepubliczne Przedszkole Marchewkowe Pole",
                "addr:postcode": "24-100",
                "addr:city": "Pu\u0142awy",
                "addr:street": "Zielona",
                "addr:housenumber": "13",
                "addr:city:simc": 956810,
                "addr:street:sym_ul": 26081,
                "email": "k.kuszela@taxoffice.pulawy.pl",
                "website": "http:\/\/www.marchewkowepole.pulawy.pl",
                "ref:regon": "386935929",
                "operator": "Przedszkolaki Sp\u00f3\u0142ka Z Ograniczon\u0105 Odpowiedzialno\u015bci\u0105",
                "operator:type": "private",
                "amenity": "kindergarten"
            }
        },
        {
            "id": 262919,
            "type": "Feature",
            "geometry": {
                "type": "Point",
                "coordinates": [
                    21.9592199,
                    51.41227
                ]
            },
            "properties": {
                "isced:level": "1;2",
                "ref:rspo": 262919,
                "official_name": "Niepubliczna Szko\u0142a Podstawowa \"Klasyk\"",
                "name": "Niepubliczna Szko\u0142a Podstawowa \"Klasyk\"",
                "addr:postcode": "24-100",
                "addr:city": "Pu\u0142awy",
                "addr:street": "Czartoryskich",
                "addr:housenumber": "8",
                "addr:city:simc": 956810,
                "addr:street:sym_ul": 3317,
                "phone": "+48 530246060",
                "email": "sekretariat@klasyk-pulawy.pl",
                "ref:regon": "368073590",
                "operator": "\"Stowarzyszenie Wychowank\u00f3w Gimnazjum I Liceum Og\u00f3lnokszta\u0142c\u0105cego Im. Ksi\u0119cia Adama Czartoryskiego\" W Pu\u0142awach",
                "operator:type": "ngo",
                "amenity": "school"
            }
        },
        {
            "id": 275051,
            "type": "Feature",
            "geometry": {
                "type": "Point",
                "coordinates": [
                    21.9592199,
                    51.41224
                ]
            },
            "properties": {
                "isced:level": "3",
                "ref:rspo": 275051,
                "official_name": "Niepubliczne Liceum Og\u00f3lnokszta\u0142c\u0105ce \"Klasyk\" w Pu\u0142awach",
                "name": "Niepubliczne Liceum Og\u00f3lnokszta\u0142c\u0105ce \"Klasyk\" w Pu\u0142awach",
                "addr:postcode": "24-100",
                "addr:city": "Pu\u0142awy",
                "addr:street": "Czartoryskich",
                "addr:housenumber": "8",
                "addr:city:simc": 956810,
                "addr:street:sym_ul": 3317,
                "phone": "+48 530246060",
                "email": "sekretariat@klasyk-pulawy.pl",
                "ref:regon": "386521984",
                "operator": "\"Stowarzyszenie Wychowank\u00f3w Gimnazjum I Liceum Og\u00f3lnokszta\u0142c\u0105cego Im. Ksi\u0119cia Adama Czartoryskiego\" W Pu\u0142awach",
                "operator:type": "ngo",
                "amenity": "school"
            }
        },
        {
            "id": 82861,
            "type": "Feature",
            "geometry": {
                "type": "Point",
                "coordinates": [
                    21.98305,
                    51.41294
                ]
            },
            "properties": {
                "ref:rspo": 82861,
                "official_name": "Miejskie Przedszkole nr 3 w Pu\u0142awach",
                "name": "Miejskie Przedszkole nr 3 w Pu\u0142awach",
                "addr:postcode": "24-100",
                "addr:city": "Pu\u0142awy",
                "addr:street": "Legionu Pu\u0142awskiego",
                "addr:housenumber": "6",
                "addr:city:simc": 956810,
                "addr:street:sym_ul": 10776,
                "phone": "+48 814586370",
                "email": "mp3@um.pulawy.pl",
                "ref:regon": "431189506",
                "ref:vatin": "PL7162368691",
                "operator": "Miasto Pu\u0142awy",
                "operator:type": "government",
                "amenity": "kindergarten"
            }
        },
        {
            "id": 272935,
            "type": "Feature",
            "geometry": {
                "type": "Point",
                "coordinates": [
                    21.96891,
                    51.41299
                ]
            },
            "properties": {
                "ref:rspo": 272935,
                "official_name": "Niepubliczna Poradnia Psychologiczno-Pedagogiczna w Pu\u0142awach",
                "name": "Niepubliczna Poradnia Psychologiczno-Pedagogiczna w Pu\u0142awach",
                "addr:postcode": "24-100",
                "addr:city": "Pu\u0142awy",
                "addr:street": "Zielona",
                "addr:housenumber": "22",
                "addr:city:simc": 956810,
                "addr:street:sym_ul": 26081,
                "phone": "+48 516157104",
                "email": "adamowicz_ela@o2.pl",
                "ref:regon": "384326793",
                "ref:vatin": "PL7162827472",
                "operator": "\"Cee\" Sp\u00f3\u0142ka Z Ograniczon\u0105 Odpowiedzialno\u015bci\u0105",
                "operator:type": "private",
                "healthcare": "counselling",
                "counselling_type": "education",
                "fixme": "w zale\u017cno\u015bci od przedmiotu dzia\u0142alno\u015bci (np. healthcare=counselling + counselling_type=education albo healthcare=psychotherapist)"
            }
        },
        {
            "id": 55584,
            "type": "Feature",
            "geometry": {
                "type": "Point",
                "coordinates": [
                    21.98211,
                    51.41321
                ]
            },
            "properties": {
                "isced:level": "1;2",
                "ref:rspo": 55584,
                "official_name": "Szko\u0142a Podstawowa nr 11 im. Henryka Sienkiewicza w Pu\u0142awach",
                "name": "Szko\u0142a Podstawowa nr 11",
                "addr:postcode": "24-100",
                "addr:city": "Pu\u0142awy",
                "addr:street": "Legionu Pu\u0142awskiego",
                "addr:housenumber": "8",
                "addr:city:simc": 956810,
                "addr:street:sym_ul": 10776,
                "phone": "+48 814586600",
                "email": "sp11@um.pulawy.pl",
                "website": "http:\/\/www.sp11.pulawy.pl",
                "ref:regon": "001250265",
                "ref:vatin": "PL7161112506",
                "operator": "Miasto Pu\u0142awy",
                "operator:type": "government",
                "amenity": "school"
            }
        },
        {
            "id": 125053,
            "type": "Feature",
            "geometry": {
                "type": "Point",
                "coordinates": [
                    21.9944099,
                    51.41325
                ]
            },
            "properties": {
                "ref:rspo": 125053,
                "official_name": "J\u0119zykowe Przedszkole Niepubliczne \"Kraina Wiedzy\"",
                "name": "J\u0119zykowe Przedszkole Niepubliczne \"Kraina Wiedzy\"",
                "addr:postcode": "24-100",
                "addr:city": "Pu\u0142awy",
                "addr:street": "G\u00f3rna",
                "addr:housenumber": "4",
                "addr:city:simc": 956810,
                "addr:street:sym_ul": 5948,
                "website": "http:\/\/www.krainawiedzy.pulawy.pl",
                "ref:regon": "061729624",
                "ref:vatin": "PL7121707222",
                "operator": "Justyna Frankiewicz-Popio\u0142ek",
                "operator:type": "private",
                "amenity": "kindergarten"
            }
        },
        {
            "id": 264696,
            "type": "Feature",
            "geometry": {
                "type": "Point",
                "coordinates": [
                    21.99242,
                    51.41367
                ]
            },
            "properties": {
                "ref:rspo": 264696,
                "official_name": "Niepubliczne Przedszkole Chatka Puchatka",
                "name": "Niepubliczne Przedszkole Chatka Puchatka",
                "addr:postcode": "24-100",
                "addr:city": "Pu\u0142awy",
                "addr:street": "Kwiatowa",
                "addr:housenumber": "16",
                "addr:city:simc": 956810,
                "addr:street:sym_ul": 10562,
                "phone": "+48 502602747",
                "email": "k.kuszela@taxoffice.pulawy.pl",
                "ref:regon": "368422003",
                "operator": "M'nk Sp\u00f3\u0142ka Z Ograniczon\u0105 Odpowiedzialno\u015bci\u0105",
                "operator:type": "private",
                "amenity": "kindergarten"
            }
        },
        {
            "id": 82855,
            "type": "Feature",
            "geometry": {
                "type": "Point",
                "coordinates": [
                    21.96613,
                    51.4137
                ]
            },
            "properties": {
                "ref:rspo": 82855,
                "official_name": "Miejskie Przedszkole nr 16 w Pu\u0142awach",
                "name": "Miejskie Przedszkole nr 16 w Pu\u0142awach",
                "addr:postcode": "24-100",
                "addr:city": "Pu\u0142awy",
                "addr:street": "Kra\u0144cowa",
                "addr:housenumber": "9",
                "addr:city:simc": 956810,
                "addr:street:sym_ul": 9819,
                "phone": "+48 814586450",
                "email": "mp16@um.pulawy.pl",
                "website": "http:\/\/www.mp16.um.pulawy.pl",
                "ref:regon": "431189720",
                "ref:vatin": "PL7162368797",
                "operator": "Miasto Pu\u0142awy",
                "operator:type": "government",
                "amenity": "kindergarten"
            }
        },
        {
            "id": 25924,
            "type": "Feature",
            "geometry": {
                "type": "Point",
                "coordinates": [
                    21.96274,
                    51.41371
                ]
            },
            "properties": {
                "ref:rspo": 25924,
                "official_name": "Poradnia Psychologiczno-Pedagogiczna w Pu\u0142awach im. Prof.kazimierza D\u0105browskiego",
                "name": "Poradnia Psychologiczno-Pedagogiczna w Pu\u0142awach",
                "addr:postcode": "24-100",
                "addr:city": "Pu\u0142awy",
                "addr:street": "Aleja Kr\u00f3lewska",
                "addr:housenumber": "19",
                "addr:city:simc": 956810,
                "addr:street:sym_ul": 9985,
                "phone": "+48 818864796",
                "email": "poradnia.pulawy@wp.pl",
                "website": "http:\/\/www.poradnia.pulawy.pl",
                "ref:regon": "060657101",
                "ref:vatin": "PL7162793566",
                "operator": "Powiat Pu\u0142awski",
                "operator:type": "government",
                "healthcare": "counselling",
                "counselling_type": "education",
                "fixme": "w zale\u017cno\u015bci od przedmiotu dzia\u0142alno\u015bci (np. healthcare=counselling + counselling_type=education albo healthcare=psychotherapist)"
            }
        },
        {
            "id": 279018,
            "type": "Feature",
            "geometry": {
                "type": "Point",
                "coordinates": [
                    21.97459,
                    51.41407
                ]
            },
            "properties": {
                "ref:rspo": 279018,
                "official_name": "Niepubliczna Plac\u00f3wka Kszta\u0142cenia Ustawicznego \"Grzegorz Sulej\"",
                "name": "Niepubliczna Plac\u00f3wka Kszta\u0142cenia Ustawicznego \"Grzegorz Sulej\"",
                "addr:postcode": "24-100",
                "addr:city": "Pu\u0142awy",
                "addr:street": "\"Genera\u0142a Augusta Emila Fieldorfa \"\"Nila\"\"\"",
                "addr:housenumber": "18",
                "addr:door": "BU3",
                "addr:city:simc": 956810,
                "addr:street:sym_ul": 35668,
                "phone": "+48 604789711",
                "email": "sulej@sulej.pnet.pl",
                "website": "http:\/\/www.sulej.pnet.pl",
                "ref:regon": "520438596",
                "ref:vatin": "PL7161959415",
                "operator": "Grzegorz Sulej",
                "operator:type": "private",
                "fixme": "w zale\u017cno\u015bci od przedmiotu dzia\u0142alno\u015bci (np. amenity=training + training=*, amenity=dancing_school, amenity=language_school, amenity=music_school)"
            }
        },
        {
            "id": 279019,
            "type": "Feature",
            "geometry": {
                "type": "Point",
                "coordinates": [
                    21.97459,
                    51.41404
                ]
            },
            "properties": {
                "ref:rspo": 279019,
                "official_name": "Niepubliczna Plac\u00f3wka Kszta\u0142cenia Ustawicznego \"Jaros\u0142aw Sulej\"",
                "name": "Niepubliczna Plac\u00f3wka Kszta\u0142cenia Ustawicznego \"Jaros\u0142aw Sulej\"",
                "addr:postcode": "24-100",
                "addr:city": "Pu\u0142awy",
                "addr:street": "\"Genera\u0142a Augusta Emila Fieldorfa \"\"Nila\"\"\"",
                "addr:housenumber": "18",
                "addr:door": "BU3",
                "addr:city:simc": 956810,
                "addr:street:sym_ul": 35668,
                "phone": "+48 604789711",
                "email": "jarekarek@poczta.onet.pl",
                "website": "http:\/\/www.zdajesie.pl",
                "ref:regon": "520438604",
                "ref:vatin": "PL7162115263",
                "operator": "Jaros\u0142aw Sulej",
                "operator:type": "private",
                "fixme": "w zale\u017cno\u015bci od przedmiotu dzia\u0142alno\u015bci (np. amenity=training + training=*, amenity=dancing_school, amenity=language_school, amenity=music_school)"
            }
        },
        {
            "id": 124179,
            "type": "Feature",
            "geometry": {
                "type": "Point",
                "coordinates": [
                    21.97838,
                    51.41408
                ]
            },
            "properties": {
                "ref:rspo": 124179,
                "official_name": "Mali Odkrywcy",
                "name": "Mali Odkrywcy",
                "addr:postcode": "24-100",
                "addr:city": "Pu\u0142awy",
                "addr:street": "Go\u015bci\u0144czyk",
                "addr:housenumber": "5",
                "addr:door": "9",
                "addr:city:simc": 956810,
                "addr:street:sym_ul": 5878,
                "phone": "+48 534633324",
                "ref:regon": "061718075",
                "ref:vatin": "PL7162814771",
                "operator": "Sp\u00f3\u0142dzielnia Socjalna Inicjatywa",
                "operator:type": "cooperative",
                "amenity": "kindergarten"
            }
        },
        {
            "id": 129967,
            "type": "Feature",
            "geometry": {
                "type": "Point",
                "coordinates": [
                    21.97838,
                    51.414049999999996
                ]
            },
            "properties": {
                "ref:rspo": 129967,
                "official_name": "Niepubliczna Poradnia Psychologiczno-Pedagogiczna nr 1 \"Centrum Terapii I Diagnozy Inicjatywa\"",
                "name": "Niepubliczna Poradnia Psychologiczno-Pedagogiczna nr 1 \"Centrum Terapii I Diagnozy Inicjatywa\"",
                "addr:postcode": "24-100",
                "addr:city": "Pu\u0142awy",
                "addr:street": "Go\u015bci\u0144czyk",
                "addr:housenumber": "5",
                "addr:door": "9",
                "addr:city:simc": 956810,
                "addr:street:sym_ul": 5878,
                "phone": "+48 534633324",
                "email": "centruminicjatywa@gmail.com",
                "ref:regon": "363190870",
                "operator": "Sp\u00f3\u0142dzielnia Socjalna Inicjatywa",
                "operator:type": "cooperative",
                "healthcare": "counselling",
                "counselling_type": "education",
                "fixme": "w zale\u017cno\u015bci od przedmiotu dzia\u0142alno\u015bci (np. healthcare=counselling + counselling_type=education albo healthcare=psychotherapist)"
            }
        },
        {
            "id": 27451,
            "type": "Feature",
            "geometry": {
                "type": "Point",
                "coordinates": [
                    21.95806,
                    51.41443
                ]
            },
            "properties": {
                "isced:level": "3",
                "ref:rspo": 27451,
                "official_name": "Spo\u0142eczne Liceum Og\u00f3lnokszta\u0142cace im.ch.p.aignera w Pu\u0142awach",
                "name": "Spo\u0142eczne Liceum Og\u00f3lnokszta\u0142cace im.ch.p.aignera w Pu\u0142awach",
                "addr:postcode": "24-100",
                "addr:city": "Pu\u0142awy",
                "addr:street": "Stanis\u0142awa Moniuszki",
                "addr:housenumber": "1",
                "addr:city:simc": 956810,
                "addr:street:sym_ul": 13246,
                "phone": "+48 818874415",
                "email": "aigner@op.pl",
                "website": "http:\/\/aigner.ehost.pl",
                "ref:regon": "061471373",
                "operator": "Pu\u0142awskie Towarzystwo Edukacyjne Im. Chrystiana Piotra Aignera",
                "operator:type": "ngo",
                "amenity": "school"
            }
        },
        {
            "id": 68622,
            "type": "Feature",
            "geometry": {
                "type": "Point",
                "coordinates": [
                    21.95806,
                    51.4144
                ]
            },
            "properties": {
                "isced:level": "1;2",
                "ref:rspo": 68622,
                "official_name": "Spo\u0142eczna Szko\u0142a Podstawowa Im Chrystiana Piotra Aignera w Pu\u0142awach",
                "name": "Spo\u0142eczna Szko\u0142a Podstawowa Im Chrystiana Piotra Aignera w Pu\u0142awach",
                "addr:postcode": "24-100",
                "addr:city": "Pu\u0142awy",
                "addr:street": "Stanis\u0142awa Moniuszki",
                "addr:housenumber": "1",
                "addr:city:simc": 956810,
                "addr:street:sym_ul": 13246,
                "phone": "+48 818874415",
                "email": "aigner@op.pl",
                "website": "http:\/\/www.aigner.ehost.pl",
                "ref:regon": "061489812",
                "operator": "Pu\u0142awskie Towarzystwo Edukacyjne Im. Chrystiana Piotra Aignera",
                "operator:type": "ngo",
                "amenity": "school"
            }
        },
        {
            "id": 126859,
            "type": "Feature",
            "geometry": {
                "type": "Point",
                "coordinates": [
                    21.95806,
                    51.414370000000005
                ]
            },
            "properties": {
                "ref:rspo": 126859,
                "official_name": "Szko\u0142a Spo\u0142eczna im. Ch. P. Aignera w Pu\u0142awach",
                "name": "Szko\u0142a Spo\u0142eczna",
                "addr:postcode": "24-100",
                "addr:city": "Pu\u0142awy",
                "addr:street": "Stanis\u0142awa Moniuszki",
                "addr:housenumber": "1",
                "addr:city:simc": 956810,
                "addr:street:sym_ul": 13246,
                "phone": "+48 818874415",
                "email": "aigner@op.pl",
                "website": "http:\/\/aigner.ehost.pl",
                "ref:regon": "360827344",
                "operator": "Pu\u0142awskie Towarzystwo Edukacyjne Im. Chrystiana Piotra Aignera",
                "operator:type": "ngo",
                "landuse": "education",
                "fixme": "amenity=school, amenity=college albo landuse=education w zale\u017cno\u015bci od tego, jakie plac\u00f3wki wchodz\u0105 w sk\u0142ad zespo\u0142u. Sprawd\u017a, kiedy stosowa\u0107 amenity=* a kiedy landuse=education."
            }
        },
        {
            "id": 125251,
            "type": "Feature",
            "geometry": {
                "type": "Point",
                "coordinates": [
                    21.96877,
                    51.41558
                ]
            },
            "properties": {
                "isced:level": "4",
                "ref:rspo": 125251,
                "official_name": "Szko\u0142a Policealna Centrum Nauki I Biznesu \"\u017bak' w Pu\u0142awach",
                "name": "Szko\u0142a Policealna Centrum Nauki I Biznesu \"\u017bak' w Pu\u0142awach",
                "addr:postcode": "24-100",
                "addr:city": "Pu\u0142awy",
                "addr:street": "Zielona",
                "addr:housenumber": "6",
                "addr:door": "12",
                "addr:city:simc": 956810,
                "addr:street:sym_ul": 26081,
                "phone": "+48 663771871",
                "email": "pulawy@zak.edu.pl",
                "website": "http:\/\/www.pulawy.zak.edu.pl",
                "ref:regon": "061731319",
                "operator": "Centrum Nauki I Biznesu \"\u017bak\" Sp\u00f3\u0142ka Z Ograniczon\u0105 Odpowiedzialno\u015bci\u0105",
                "operator:type": "private",
                "amenity": "college"
            }
        },
        {
            "id": 126564,
            "type": "Feature",
            "geometry": {
                "type": "Point",
                "coordinates": [
                    21.96877,
                    51.415549999999996
                ]
            },
            "properties": {
                "ref:rspo": 126564,
                "official_name": "O\u015brodek Szkoleniowy Centrum Nauki I Biznesu \"\u017bak\" w Pu\u0142awach",
                "name": "O\u015brodek Szkoleniowy Centrum Nauki I Biznesu \"\u017bak\" w Pu\u0142awach",
                "addr:postcode": "24-100",
                "addr:city": "Pu\u0142awy",
                "addr:street": "Zielona",
                "addr:housenumber": "6",
                "addr:door": "12",
                "addr:city:simc": 956810,
                "addr:street:sym_ul": 26081,
                "phone": "+48 426834420",
                "email": "centrala@zak.edu.pl",
                "ref:regon": "360507800",
                "operator": "Centrum Nauki I Biznesu \"\u017bak\" Sp\u00f3\u0142ka Z Ograniczon\u0105 Odpowiedzialno\u015bci\u0105",
                "operator:type": "private",
                "fixme": "w zale\u017cno\u015bci od przedmiotu dzia\u0142alno\u015bci (np. amenity=training + training=*, amenity=dancing_school, amenity=language_school, amenity=music_school)"
            }
        },
        {
            "id": 127703,
            "type": "Feature",
            "geometry": {
                "type": "Point",
                "coordinates": [
                    21.96877,
                    51.41552
                ]
            },
            "properties": {
                "isced:level": "4",
                "ref:rspo": 127703,
                "official_name": "Szko\u0142a Policealna Medyczna \"\u017bak\" w Pu\u0142awach",
                "name": "Szko\u0142a Policealna Medyczna \"\u017bak\" w Pu\u0142awach",
                "addr:postcode": "24-100",
                "addr:city": "Pu\u0142awy",
                "addr:street": "Zielona",
                "addr:housenumber": "6",
                "addr:door": "12",
                "addr:city:simc": 956810,
                "addr:street:sym_ul": 26081,
                "phone": "+48 663771871",
                "email": "pulawy@zak.edu.pl",
                "website": "http:\/\/www.pulawy.zak.edu.pl",
                "ref:regon": "361805132",
                "operator": "Centrum Nauki I Biznesu \"\u017bak\" Sp\u00f3\u0142ka Z Ograniczon\u0105 Odpowiedzialno\u015bci\u0105",
                "operator:type": "private",
                "amenity": "college"
            }
        },
        {
            "id": 127706,
            "type": "Feature",
            "geometry": {
                "type": "Point",
                "coordinates": [
                    21.96877,
                    51.41549
                ]
            },
            "properties": {
                "isced:level": "4",
                "ref:rspo": 127706,
                "official_name": "Szko\u0142a Policealna Opieki Medycznej \"\u017bak\" w Pu\u0142awach",
                "name": "Szko\u0142a Policealna Opieki Medycznej \"\u017bak\" w Pu\u0142awach",
                "addr:postcode": "24-100",
                "addr:city": "Pu\u0142awy",
                "addr:street": "Zielona",
                "addr:housenumber": "6",
                "addr:door": "12",
                "addr:city:simc": 956810,
                "addr:street:sym_ul": 26081,
                "phone": "+48 663771871",
                "email": "pulawy@zak.edu.pl",
                "website": "http:\/\/www.pulawy.zak.edu.pl",
                "ref:regon": "361810972",
                "operator": "Centrum Nauki I Biznesu \"\u017bak\" Sp\u00f3\u0142ka Z Ograniczon\u0105 Odpowiedzialno\u015bci\u0105",
                "operator:type": "private",
                "amenity": "college"
            }
        },
        {
            "id": 127707,
            "type": "Feature",
            "geometry": {
                "type": "Point",
                "coordinates": [
                    21.96877,
                    51.415459999999996
                ]
            },
            "properties": {
                "isced:level": "3",
                "ref:rspo": 127707,
                "official_name": "Liceum Og\u00f3lnokszta\u0142c\u0105ce dla Doros\u0142ych \"\u017bak\" w Pu\u0142awach",
                "name": "Liceum Og\u00f3lnokszta\u0142c\u0105ce dla Doros\u0142ych \"\u017bak\" w Pu\u0142awach",
                "addr:postcode": "24-100",
                "addr:city": "Pu\u0142awy",
                "addr:street": "Zielona",
                "addr:housenumber": "6",
                "addr:door": "12",
                "addr:city:simc": 956810,
                "addr:street:sym_ul": 26081,
                "phone": "+48 663771871",
                "email": "pulawy@zak.edu.pl",
                "website": "http:\/\/www.pulawy.zak.edu.pl",
                "ref:regon": "361811061",
                "operator": "Centrum Nauki I Biznesu \"\u017bak\" Sp\u00f3\u0142ka Z Ograniczon\u0105 Odpowiedzialno\u015bci\u0105",
                "operator:type": "private",
                "amenity": "school"
            }
        },
        {
            "id": 82864,
            "type": "Feature",
            "geometry": {
                "type": "Point",
                "coordinates": [
                    21.96078,
                    51.41563
                ]
            },
            "properties": {
                "ref:rspo": 82864,
                "official_name": "Publiczne Przedszkole Integracyjne im. Kubusia Puchatka w Pu\u0142awach",
                "name": "Publiczne Przedszkole Integracyjne",
                "addr:postcode": "24-100",
                "addr:city": "Pu\u0142awy",
                "addr:street": "Czartoryskich",
                "addr:housenumber": "21",
                "addr:city:simc": 956810,
                "addr:street:sym_ul": 3317,
                "phone": "+48 814586470",
                "email": "ppi@um.pulawy.pl",
                "website": "http:\/\/www.ppi.um.pulawy.pl",
                "ref:regon": "431189647",
                "ref:vatin": "PL7162368751",
                "operator": "Miasto Pu\u0142awy",
                "operator:type": "government",
                "amenity": "kindergarten"
            }
        },
        {
            "id": 55583,
            "type": "Feature",
            "geometry": {
                "type": "Point",
                "coordinates": [
                    21.96266,
                    51.4157
                ]
            },
            "properties": {
                "isced:level": "1;2",
                "ref:rspo": 55583,
                "official_name": "Szko\u0142a Podstawowa nr 2 im. Krzysztofa Kamila Baczy\u0144skiego w Pu\u0142awach",
                "name": "Szko\u0142a Podstawowa nr 2",
                "addr:postcode": "24-100",
                "addr:city": "Pu\u0142awy",
                "addr:street": "Aleja Ma\u0142a",
                "addr:housenumber": "10",
                "addr:city:simc": 956810,
                "addr:street:sym_ul": 34572,
                "phone": "+48 814586500",
                "email": "sp2@um.pulawy.pl",
                "website": "http:\/\/www.sp2.pulawy.pl",
                "ref:regon": "000714679",
                "ref:vatin": "PL7162110863",
                "operator": "Miasto Pu\u0142awy",
                "operator:type": "government",
                "amenity": "school"
            }
        },
        {
            "id": 19910,
            "type": "Feature",
            "geometry": {
                "type": "Point",
                "coordinates": [
                    21.97065,
                    51.41601
                ]
            },
            "properties": {
                "ref:rspo": 19910,
                "official_name": "The Bambury School",
                "name": "The Bambury School",
                "addr:postcode": "24-100",
                "addr:city": "Pu\u0142awy",
                "addr:street": "Lubelska",
                "addr:housenumber": "2B",
                "addr:city:simc": 956810,
                "addr:street:sym_ul": 11307,
                "phone": "+48 818880282",
                "email": "info.bambury@gmail.com",
                "ref:regon": "061464730",
                "operator": "S\u0142awomir Adamski",
                "operator:type": "private",
                "fixme": "w zale\u017cno\u015bci od przedmiotu dzia\u0142alno\u015bci (np. amenity=training + training=*, amenity=dancing_school, amenity=language_school, amenity=music_school)"
            }
        },
        {
            "id": 82859,
            "type": "Feature",
            "geometry": {
                "type": "Point",
                "coordinates": [
                    21.972269058227,
                    51.416168212891
                ]
            },
            "properties": {
                "ref:rspo": 82859,
                "official_name": "Miejskie Przedszkole nr 8 w Pu\u0142awach",
                "name": "Miejskie Przedszkole nr 8 w Pu\u0142awach",
                "addr:postcode": "24-100",
                "addr:city": "Pu\u0142awy",
                "addr:street": "Cypriana Kamila Norwida",
                "addr:housenumber": "4",
                "addr:city:simc": 956810,
                "addr:street:sym_ul": 14319,
                "phone": "+48 814586400",
                "email": "mp8@um.pulawy.pl",
                "website": "http:\/\/www.mp8.pulawy.pl",
                "ref:regon": "431189736",
                "ref:vatin": "PL7162368739",
                "operator": "Miasto Pu\u0142awy",
                "operator:type": "government",
                "amenity": "kindergarten"
            }
        },
        {
            "id": 16325,
            "type": "Feature",
            "geometry": {
                "type": "Point",
                "coordinates": [
                    21.96828,
                    51.4162
                ]
            },
            "properties": {
                "ref:rspo": 16325,
                "official_name": "Zesp\u00f3\u0142 Szk\u00f3\u0142 nr 3 im. Marii D\u0105browskiej w Pu\u0142awach",
                "name": "Zesp\u00f3\u0142 Szk\u00f3\u0142 nr 3",
                "addr:postcode": "24-100",
                "addr:city": "Pu\u0142awy",
                "addr:street": "Marsza\u0142ka J\u00f3zefa Pi\u0142sudskiego",
                "addr:housenumber": "74",
                "addr:city:simc": 956810,
                "addr:street:sym_ul": 16274,
                "phone": "+48 818863640",
                "email": "zs3pulawy@o2.pl",
                "website": "http:\/\/zs3.pulawy.pl",
                "ref:regon": "060660155",
                "ref:vatin": "PL7162793388",
                "operator": "Powiat Pu\u0142awski",
                "operator:type": "government",
                "landuse": "education",
                "fixme": "amenity=school, amenity=college albo landuse=education w zale\u017cno\u015bci od tego, jakie plac\u00f3wki wchodz\u0105 w sk\u0142ad zespo\u0142u. Sprawd\u017a, kiedy stosowa\u0107 amenity=* a kiedy landuse=education.",
                "note": "Children RSPO: 44233;44561;44563"
            }
        },
        {
            "id": 44233,
            "type": "Feature",
            "geometry": {
                "type": "Point",
                "coordinates": [
                    21.96828,
                    51.41617
                ]
            },
            "properties": {
                "isced:level": "3",
                "ref:rspo": 44233,
                "official_name": "Vi Liceum Og\u00f3lnokszta\u0142c\u0105ce w Zespole Szk\u00f3\u0142 nr 3 im.marii D\u0105browskiej w Pu\u0142awach",
                "name": "Vi Liceum Og\u00f3lnokszta\u0142c\u0105ce w Zespole Szk\u00f3\u0142 nr 3 im.marii D\u0105browskiej w Pu\u0142awach",
                "addr:postcode": "24-100",
                "addr:city": "Pu\u0142awy",
                "addr:street": "Marsza\u0142ka J\u00f3zefa Pi\u0142sudskiego",
                "addr:housenumber": "74",
                "addr:city:simc": 956810,
                "addr:street:sym_ul": 16274,
                "phone": "+48 818863640",
                "email": "zs3pulawy@o2.pl",
                "website": "http:\/\/zs3.pulawy.pl",
                "ref:regon": "060660184",
                "operator": "Powiat Pu\u0142awski",
                "operator:type": "government",
                "amenity": "school",
                "note": "Parent RSPO: 16325"
            }
        },
        {
            "id": 44561,
            "type": "Feature",
            "geometry": {
                "type": "Point",
                "coordinates": [
                    21.96828,
                    51.416140000000006
                ]
            },
            "properties": {
                "isced:level": "3",
                "ref:rspo": 44561,
                "official_name": "Bran\u017cowa Szko\u0142a nr 3 w Pu\u0142awach",
                "name": "Bran\u017cowa Szko\u0142a nr 3 w Pu\u0142awach",
                "addr:postcode": "24-100",
                "addr:city": "Pu\u0142awy",
                "addr:street": "Marsza\u0142ka J\u00f3zefa Pi\u0142sudskiego",
                "addr:housenumber": "74",
                "addr:city:simc": 956810,
                "addr:street:sym_ul": 16274,
                "phone": "+48 818863640",
                "email": "zs3pulawy@o2.pl",
                "website": "http:\/\/zs3.pulawy.pl",
                "ref:regon": "061476130",
                "operator": "Powiat Pu\u0142awski",
                "operator:type": "government",
                "amenity": "school",
                "note": "Parent RSPO: 16325"
            }
        },
        {
            "id": 44563,
            "type": "Feature",
            "geometry": {
                "type": "Point",
                "coordinates": [
                    21.96828,
                    51.41611
                ]
            },
            "properties": {
                "isced:level": "3",
                "ref:rspo": 44563,
                "official_name": "Technikum nr 3 w Zespole Szk\u00f3\u0142 nr 3 im.marii D\u0105browskiej w Pu\u0142awach",
                "name": "Technikum nr 3 w Zespole Szk\u00f3\u0142 nr 3 im.marii D\u0105browskiej w Pu\u0142awach",
                "addr:postcode": "24-100",
                "addr:city": "Pu\u0142awy",
                "addr:street": "Marsza\u0142ka J\u00f3zefa Pi\u0142sudskiego",
                "addr:housenumber": "74",
                "addr:city:simc": 956810,
                "addr:street:sym_ul": 16274,
                "phone": "+48 818863640",
                "email": "zs3pulawy@o2.pl",
                "website": "http:\/\/zs3.pulawy.pl",
                "ref:regon": "061476152",
                "operator": "Powiat Pu\u0142awski",
                "operator:type": "government",
                "amenity": "school",
                "note": "Parent RSPO: 16325"
            }
        },
        {
            "id": 16148,
            "type": "Feature",
            "geometry": {
                "type": "Point",
                "coordinates": [
                    21.95219,
                    51.41637
                ]
            },
            "properties": {
                "ref:rspo": 16148,
                "official_name": "Powiatowe Centrum Doskonalenia Zawodowego Nauczycieli w Pu\u0142awach",
                "name": "Powiatowe Centrum Doskonalenia Zawodowego Nauczycieli w Pu\u0142awach",
                "addr:postcode": "24-100",
                "addr:city": "Pu\u0142awy",
                "addr:street": "6 Sierpnia",
                "addr:housenumber": "5",
                "addr:city:simc": 956810,
                "addr:street:sym_ul": 19881,
                "phone": "+48 818884901",
                "email": "pcdznpulawy@o2.pl",
                "website": "http:\/\/www.pcdzn.edu.pl",
                "ref:regon": "060664319",
                "ref:vatin": "PL7162794100",
                "operator": "Powiat Pu\u0142awski",
                "operator:type": "government",
                "amenity": "training"
            }
        },
        {
            "id": 77453,
            "type": "Feature",
            "geometry": {
                "type": "Point",
                "coordinates": [
                    21.95532,
                    51.41654
                ]
            },
            "properties": {
                "ref:rspo": 77453,
                "official_name": "M\u0142odzie\u017cowy O\u015brodek Socjoterapii w Pu\u0142awach",
                "name": "M\u0142odzie\u017cowy O\u015brodek Socjoterapii w Pu\u0142awach",
                "addr:postcode": "24-100",
                "addr:city": "Pu\u0142awy",
                "addr:street": "Hugona Ko\u0142\u0142\u0105taja",
                "addr:housenumber": "1",
                "addr:city:simc": 956810,
                "addr:street:sym_ul": 9003,
                "phone": "+48 818874493",
                "email": "mospulawy@onet.eu",
                "ref:regon": "060170221",
                "ref:vatin": "PL7162821104",
                "operator": "Powiat Pu\u0142awski",
                "operator:type": "government",
                "fixme": "amenity=social_facility + social_facility=group_home + social_facility:for=juvenile",
                "note": "Children RSPO: 92522;263577"
            }
        },
        {
            "id": 92522,
            "type": "Feature",
            "geometry": {
                "type": "Point",
                "coordinates": [
                    21.95532,
                    51.416509999999995
                ]
            },
            "properties": {
                "isced:level": "3",
                "ref:rspo": 92522,
                "official_name": "Bran\u017cowa Szko\u0142a I Stopnia Specjalna nr 6 w Pu\u0142awach",
                "name": "Bran\u017cowa Szko\u0142a I Stopnia Specjalna nr 6 w Pu\u0142awach",
                "addr:postcode": "24-100",
                "addr:city": "Pu\u0142awy",
                "addr:street": "Hugona Ko\u0142\u0142\u0105taja",
                "addr:housenumber": "1",
                "addr:city:simc": 956810,
                "addr:street:sym_ul": 9003,
                "phone": "+48 818874493",
                "email": "mospulawy@onet.eu",
                "ref:regon": "060446864",
                "operator": "Powiat Pu\u0142awski",
                "operator:type": "government",
                "amenity": "school",
                "note": "Parent RSPO: 77453"
            }
        },
        {
            "id": 263577,
            "type": "Feature",
            "geometry": {
                "type": "Point",
                "coordinates": [
                    21.95532,
                    51.41648
                ]
            },
            "properties": {
                "isced:level": "1;2",
                "ref:rspo": 263577,
                "official_name": "Szko\u0142a Podstawowa Specjalna nr 14 w Pu\u0142awach",
                "name": "Szko\u0142a Podstawowa Specjalna nr 14 w Pu\u0142awach",
                "addr:postcode": "24-100",
                "addr:city": "Pu\u0142awy",
                "addr:street": "Hugona Ko\u0142\u0142\u0105taja",
                "addr:housenumber": "1",
                "addr:city:simc": 956810,
                "addr:street:sym_ul": 9003,
                "phone": "+48 818874493",
                "email": "mospulawy@onet.eu",
                "ref:regon": "368205010",
                "operator": "Powiat Pu\u0142awski",
                "operator:type": "government",
                "amenity": "school",
                "note": "Parent RSPO: 77453"
            }
        },
        {
            "id": 17706,
            "type": "Feature",
            "geometry": {
                "type": "Point",
                "coordinates": [
                    21.97811,
                    51.4167599
                ]
            },
            "properties": {
                "isced:level": "3",
                "ref:rspo": 17706,
                "official_name": "Integracyjna Szko\u0142a Bran\u017cowa I-Go Stopnia w Pu\u0142awach",
                "name": "Integracyjna Szko\u0142a Bran\u017cowa I-Go Stopnia w Pu\u0142awach",
                "addr:postcode": "24-100",
                "addr:city": "Pu\u0142awy",
                "addr:street": "4 Pu\u0142ku Piechoty Wojska Polskiego",
                "addr:housenumber": "17",
                "addr:city:simc": 956810,
                "addr:street:sym_ul": 48450,
                "phone": "+48 818884228",
                "email": "izsz@interia.eu",
                "ref:regon": "061465059",
                "ref:vatin": "PL7162711249",
                "operator": "Stowarzyszenie Pomocy Wychowawczej Rodzinie",
                "operator:type": "ngo",
                "amenity": "school"
            }
        },
        {
            "id": 27175,
            "type": "Feature",
            "geometry": {
                "type": "Point",
                "coordinates": [
                    21.97811,
                    51.4167299
                ]
            },
            "properties": {
                "isced:level": "3",
                "ref:rspo": 27175,
                "official_name": "I Niepubliczne Liceum Og\u00f3lnokszta\u0142c\u0105ce",
                "name": "I Niepubliczne Liceum Og\u00f3lnokszta\u0142c\u0105ce",
                "addr:postcode": "24-100",
                "addr:city": "Pu\u0142awy",
                "addr:street": "4 Pu\u0142ku Piechoty Wojska Polskiego",
                "addr:housenumber": "17",
                "addr:city:simc": 956810,
                "addr:street:sym_ul": 48450,
                "phone": "+48 818884228",
                "email": "izsz@interia.eu",
                "ref:regon": "061470801",
                "operator": "Stowarzyszenie Pomocy Wychowawczej Rodzinie",
                "operator:type": "ngo",
                "amenity": "school"
            }
        },
        {
            "id": 262928,
            "type": "Feature",
            "geometry": {
                "type": "Point",
                "coordinates": [
                    21.97811,
                    51.416699900000005
                ]
            },
            "properties": {
                "isced:level": "1;2",
                "ref:rspo": 262928,
                "official_name": "O\u015bmioletnia Szko\u0142a Podstawowa z Oddzia\u0142ami Przysposabiaj\u0105cymi do Pracy w Pu\u0142awach",
                "name": "O\u015bmioletnia Szko\u0142a Podstawowa z Oddzia\u0142ami Przysposabiaj\u0105cymi do Pracy w Pu\u0142awach",
                "addr:postcode": "24-100",
                "addr:city": "Pu\u0142awy",
                "addr:street": "4 Pu\u0142ku Piechoty Wojska Polskiego",
                "addr:housenumber": "17",
                "addr:city:simc": 956810,
                "addr:street:sym_ul": 48450,
                "phone": "+48 818884228",
                "email": "gimn1pomoc@interia.pl",
                "ref:regon": "368074453",
                "operator": "Stowarzyszenie Pomocy Wychowawczej Rodzinie",
                "operator:type": "ngo",
                "amenity": "school"
            }
        },
        {
            "id": 41809,
            "type": "Feature",
            "geometry": {
                "type": "Point",
                "coordinates": [
                    21.98496,
                    51.41678
                ]
            },
            "properties": {
                "ref:rspo": 41809,
                "official_name": "Zesp\u00f3\u0142 Szk\u00f3\u0142 Og\u00f3lnokszta\u0142c\u0105cych nr 1 im. Komisji Edukacji Narodowej w Pu\u0142awach",
                "name": "Zesp\u00f3\u0142 Szk\u00f3\u0142 Og\u00f3lnokszta\u0142c\u0105cych nr 1",
                "addr:postcode": "24-100",
                "addr:city": "Pu\u0142awy",
                "addr:street": "Kaniowczyk\u00f3w",
                "addr:housenumber": "32",
                "addr:city:simc": 956810,
                "addr:street:sym_ul": 7941,
                "phone": "+48 818864037",
                "email": "zso1@um.pulawy.pl",
                "website": "http:\/\/www.ken.pulawy.pl",
                "ref:regon": "000714320",
                "ref:vatin": "PL7161099711",
                "operator": "Miasto Pu\u0142awy",
                "operator:type": "government",
                "landuse": "education",
                "fixme": "amenity=school, amenity=college albo landuse=education w zale\u017cno\u015bci od tego, jakie plac\u00f3wki wchodz\u0105 w sk\u0142ad zespo\u0142u. Sprawd\u017a, kiedy stosowa\u0107 amenity=* a kiedy landuse=education.",
                "note": "Children RSPO: 82392;262806"
            }
        },
        {
            "id": 262806,
            "type": "Feature",
            "geometry": {
                "type": "Point",
                "coordinates": [
                    21.98496,
                    51.41675
                ]
            },
            "properties": {
                "isced:level": "1;2",
                "ref:rspo": 262806,
                "official_name": "Szko\u0142a Podstawowa nr 9 im. Komisji Edukacji Narodowej w Pu\u0142awach",
                "name": "Szko\u0142a Podstawowa nr 9",
                "addr:postcode": "24-100",
                "addr:city": "Pu\u0142awy",
                "addr:street": "Kaniowczyk\u00f3w",
                "addr:housenumber": "32",
                "addr:city:simc": 956810,
                "addr:street:sym_ul": 7941,
                "phone": "+48 818864037",
                "email": "zso1@um.pulawy.pl",
                "website": "http:\/\/ken.pulawy.pl",
                "ref:regon": "368061189",
                "operator": "Miasto Pu\u0142awy",
                "operator:type": "government",
                "amenity": "school",
                "note": "Parent RSPO: 41809"
            }
        },
        {
            "id": 90381,
            "type": "Feature",
            "geometry": {
                "type": "Point",
                "coordinates": [
                    21.9862499,
                    51.41729
                ]
            },
            "properties": {
                "isced:level": "4",
                "ref:rspo": 90381,
                "official_name": "Szko\u0142a Policealna - Medyczne Studium Zawodowe im. Polskiego Czerwonego Krzy\u017ca w Pu\u0142awach",
                "name": "Szko\u0142a Policealna - Medyczne Studium Zawodowe",
                "addr:postcode": "24-100",
                "addr:city": "Pu\u0142awy",
                "addr:street": "Adama Mickiewicza",
                "addr:housenumber": "29",
                "addr:city:simc": 956810,
                "addr:street:sym_ul": 12740,
                "phone": "+48 818862418",
                "email": "mszpulawy@wp.pl",
                "website": "http:\/\/www.msz.pulawy.pl",
                "ref:regon": "000297419",
                "ref:vatin": "PL7161945577",
                "operator": "Wojew\u00f3dztwo Lubelskie",
                "operator:type": "government",
                "amenity": "college"
            }
        },
        {
            "id": 24458,
            "type": "Feature",
            "geometry": {
                "type": "Point",
                "coordinates": [
                    21.97579,
                    51.41755
                ]
            },
            "properties": {
                "ref:rspo": 24458,
                "official_name": "Zesp\u00f3\u0142 Szk\u00f3\u0142 Technicznych im.marii Sk\u0142odowskiej-Curie w Pu\u0142awach",
                "name": "Zesp\u00f3\u0142 Szk\u00f3\u0142 Technicznych im.marii Sk\u0142odowskiej-Curie w Pu\u0142awach",
                "addr:postcode": "24-100",
                "addr:city": "Pu\u0142awy",
                "addr:street": "Wojska Polskiego",
                "addr:housenumber": "7",
                "addr:city:simc": 956810,
                "addr:street:sym_ul": 24628,
                "phone": "+48 818863740",
                "email": "poczta@zst.pulawy.pl",
                "website": "http:\/\/www.zst.pulawy.pl",
                "ref:regon": "060663739",
                "ref:vatin": "PL7162794086",
                "operator": "Powiat Pu\u0142awski",
                "operator:type": "government",
                "landuse": "education",
                "fixme": "amenity=school, amenity=college albo landuse=education w zale\u017cno\u015bci od tego, jakie plac\u00f3wki wchodz\u0105 w sk\u0142ad zespo\u0142u. Sprawd\u017a, kiedy stosowa\u0107 amenity=* a kiedy landuse=education.",
                "note": "Children RSPO: 48012;48013;48014;48015"
            }
        },
        {
            "id": 48012,
            "type": "Feature",
            "geometry": {
                "type": "Point",
                "coordinates": [
                    21.97579,
                    51.417519999999996
                ]
            },
            "properties": {
                "isced:level": "3",
                "ref:rspo": 48012,
                "official_name": "Bran\u017cowa Szko\u0142a I Stopnia nr 4 w Zespole Szk\u00f3\u0142 Technicznych im.m. Sk\u0142odowskiej-Curie w Pu\u0142awach",
                "name": "Bran\u017cowa Szko\u0142a I Stopnia nr 4 w Zespole Szk\u00f3\u0142 Technicznych im.m. Sk\u0142odowskiej-Curie w Pu\u0142awach",
                "addr:postcode": "24-100",
                "addr:city": "Pu\u0142awy",
                "addr:street": "Wojska Polskiego",
                "addr:housenumber": "7",
                "addr:city:simc": 956810,
                "addr:street:sym_ul": 24628,
                "phone": "+48 818863740",
                "email": "poczta@zst.pulawy.pl",
                "website": "http:\/\/zst.pulawy.pl",
                "ref:regon": "060665454",
                "operator": "Powiat Pu\u0142awski",
                "operator:type": "government",
                "amenity": "school",
                "note": "Parent RSPO: 24458"
            }
        },
        {
            "id": 48013,
            "type": "Feature",
            "geometry": {
                "type": "Point",
                "coordinates": [
                    21.97579,
                    51.41749
                ]
            },
            "properties": {
                "isced:level": "3",
                "ref:rspo": 48013,
                "official_name": "Technikum nr 4 w Zespole Szk\u00f3\u0142 Technicznych im.m. Sk\u0142odowskiej-Curie w Pu\u0142awach",
                "name": "Technikum nr 4 w Zespole Szk\u00f3\u0142 Technicznych im.m. Sk\u0142odowskiej-Curie w Pu\u0142awach",
                "addr:postcode": "24-100",
                "addr:city": "Pu\u0142awy",
                "addr:street": "Wojska Polskiego",
                "addr:housenumber": "7",
                "addr:city:simc": 956810,
                "addr:street:sym_ul": 24628,
                "phone": "+48 818863740",
                "email": "poczta@zst.pulawy.pl",
                "website": "http:\/\/zst.pulawy.pl",
                "ref:regon": "060665490",
                "operator": "Powiat Pu\u0142awski",
                "operator:type": "government",
                "amenity": "school",
                "note": "Parent RSPO: 24458"
            }
        },
        {
            "id": 48014,
            "type": "Feature",
            "geometry": {
                "type": "Point",
                "coordinates": [
                    21.97579,
                    51.41746
                ]
            },
            "properties": {
                "isced:level": "3",
                "ref:rspo": 48014,
                "official_name": "V Liceum Og\u00f3lnokszta\u0142cace w Zespole Szk\u00f3\u0142 Technicznych im. M. Sk\u0142odowskiej-Curie w Pu\u0142awach",
                "name": "V Liceum Og\u00f3lnokszta\u0142cace w Zespole Szk\u00f3\u0142 Technicznych",
                "addr:postcode": "24-100",
                "addr:city": "Pu\u0142awy",
                "addr:street": "Wojska Polskiego",
                "addr:housenumber": "7",
                "addr:city:simc": 956810,
                "addr:street:sym_ul": 24628,
                "phone": "+48 818863740",
                "email": "poczta@zst.pulawy.pl",
                "website": "http:\/\/zst.pulawy.pl",
                "ref:regon": "060665431",
                "operator": "Powiat Pu\u0142awski",
                "operator:type": "government",
                "amenity": "school",
                "note": "Parent RSPO: 24458"
            }
        },
        {
            "id": 48015,
            "type": "Feature",
            "geometry": {
                "type": "Point",
                "coordinates": [
                    21.97579,
                    51.417429999999996
                ]
            },
            "properties": {
                "isced:level": "4",
                "ref:rspo": 48015,
                "official_name": "Szko\u0142a Policealna nr 4 w Zespole Szk\u00f3\u0142 Technicznych im. M.sk\u0142odowskiej-Curie w Pu\u0142awach",
                "name": "Szko\u0142a Policealna nr 4 w Zespole Szk\u00f3\u0142 Technicznych",
                "addr:postcode": "24-100",
                "addr:city": "Pu\u0142awy",
                "addr:street": "Wojska Polskiego",
                "addr:housenumber": "7",
                "addr:city:simc": 956810,
                "addr:street:sym_ul": 24628,
                "phone": "+48 818863740",
                "email": "poczta@zst.pulawy.pl",
                "website": "http:\/\/zst.pulawy.pl",
                "ref:regon": "060665514",
                "operator": "Powiat Pu\u0142awski",
                "operator:type": "government",
                "amenity": "college",
                "note": "Parent RSPO: 24458"
            }
        },
        {
            "id": 17274,
            "type": "Feature",
            "geometry": {
                "type": "Point",
                "coordinates": [
                    21.97834,
                    51.4179
                ]
            },
            "properties": {
                "ref:rspo": 17274,
                "official_name": "M\u0142odziezowy Dom Kultury w Pu\u0142awach",
                "name": "M\u0142odziezowy Dom Kultury w Pu\u0142awach",
                "addr:postcode": "24-100",
                "addr:city": "Pu\u0142awy",
                "addr:street": "Wac\u0142awa Sieroszewskiego",
                "addr:housenumber": "4",
                "addr:city:simc": 956810,
                "addr:street:sym_ul": 19862,
                "phone": "+48 818864965",
                "email": "mdk_pulawy@wp.pl",
                "website": "http:\/\/www.mdk.pulawy.pl",
                "ref:regon": "060664288",
                "ref:vatin": "PL7162794092",
                "operator": "Powiat Pu\u0142awski",
                "operator:type": "government",
                "amenity": "community_centre",
                "community_centre:for": "juvenile"
            }
        },
        {
            "id": 113917,
            "type": "Feature",
            "geometry": {
                "type": "Point",
                "coordinates": [
                    21.97777,
                    51.41815
                ]
            },
            "properties": {
                "ref:rspo": 113917,
                "official_name": "Zesp\u00f3\u0142 Kszta\u0142cenia Zawodowego w Pu\u0142awach",
                "name": "Zesp\u00f3\u0142 Kszta\u0142cenia Zawodowego w Pu\u0142awach",
                "addr:postcode": "24-100",
                "addr:city": "Pu\u0142awy",
                "addr:street": "Wac\u0142awa Sieroszewskiego",
                "addr:housenumber": "1",
                "addr:city:simc": 956810,
                "addr:street:sym_ul": 19862,
                "phone": "+48 818863837",
                "email": "kontakt@ckz.pulawy.pl",
                "website": "http:\/\/www.ckz.pulawy.pl",
                "ref:regon": "061546237",
                "ref:vatin": "PL7162814110",
                "operator": "Powiat Pu\u0142awski",
                "operator:type": "government",
                "landuse": "education",
                "fixme": "amenity=school, amenity=college albo landuse=education w zale\u017cno\u015bci od tego, jakie plac\u00f3wki wchodz\u0105 w sk\u0142ad zespo\u0142u. Sprawd\u017a, kiedy stosowa\u0107 amenity=* a kiedy landuse=education.",
                "note": "Children RSPO: 114185;114186;123144"
            }
        },
        {
            "id": 114185,
            "type": "Feature",
            "geometry": {
                "type": "Point",
                "coordinates": [
                    21.97777,
                    51.418119999999995
                ]
            },
            "properties": {
                "isced:level": "3",
                "ref:rspo": 114185,
                "official_name": "Bran\u017cowa Szko\u0142a I Stopnia nr 8 w Pu\u0142awach",
                "name": "Bran\u017cowa Szko\u0142a I Stopnia nr 8 w Pu\u0142awach",
                "addr:postcode": "24-100",
                "addr:city": "Pu\u0142awy",
                "addr:street": "Wac\u0142awa Sieroszewskiego",
                "addr:housenumber": "1",
                "addr:city:simc": 956810,
                "addr:street:sym_ul": 19862,
                "phone": "+48 818863837",
                "email": "kontakt@ckz.pulawy.pl",
                "website": "http:\/\/www.ckz.pulawy.pl",
                "ref:regon": "061548041",
                "operator": "Powiat Pu\u0142awski",
                "operator:type": "government",
                "amenity": "school",
                "note": "Parent RSPO: 113917"
            }
        },
        {
            "id": 114186,
            "type": "Feature",
            "geometry": {
                "type": "Point",
                "coordinates": [
                    21.97777,
                    51.41809
                ]
            },
            "properties": {
                "ref:rspo": 114186,
                "official_name": "Centrum Kszta\u0142cenia Zawodowego nr 2 w Pu\u0142awach",
                "name": "Centrum Kszta\u0142cenia Zawodowego nr 2 w Pu\u0142awach",
                "addr:postcode": "24-100",
                "addr:city": "Pu\u0142awy",
                "addr:street": "Wac\u0142awa Sieroszewskiego",
                "addr:housenumber": "1",
                "addr:city:simc": 956810,
                "addr:street:sym_ul": 19862,
                "phone": "+48 818863837",
                "email": "kontakt@ckz.pulawy.pl",
                "website": "http:\/\/www.ckz.pulawy.pl",
                "ref:regon": "061548058",
                "operator": "Powiat Pu\u0142awski",
                "operator:type": "government",
                "fixme": "w zale\u017cno\u015bci od przedmiotu dzia\u0142alno\u015bci (np. amenity=training + training=*, amenity=dancing_school, amenity=language_school, amenity=music_school) albo amenity=school, amenity=college, albo landuse=education w zale\u017cno\u015bci od tego, jakie plac\u00f3wki wchodz\u0105 w sk\u0142ad zespo\u0142u. Sprawd\u017a, kiedy stosowa\u0107 amenity=* a kiedy landuse=education.",
                "note": "Parent RSPO: 113917"
            }
        },
        {
            "id": 123144,
            "type": "Feature",
            "geometry": {
                "type": "Point",
                "coordinates": [
                    21.97777,
                    51.41806
                ]
            },
            "properties": {
                "isced:level": "3",
                "ref:rspo": 123144,
                "official_name": "Technikum nr 5",
                "name": "Technikum nr 5",
                "addr:postcode": "24-100",
                "addr:city": "Pu\u0142awy",
                "addr:street": "Wac\u0142awa Sieroszewskiego",
                "addr:housenumber": "1",
                "addr:city:simc": 956810,
                "addr:street:sym_ul": 19862,
                "phone": "+48 818863837",
                "email": "kontakt@ckz.pulawy.pl",
                "website": "http:\/\/www.ckz.pulawy.pl",
                "ref:regon": "061692631",
                "operator": "Powiat Pu\u0142awski",
                "operator:type": "government",
                "amenity": "school",
                "note": "Parent RSPO: 113917"
            }
        },
        {
            "id": 82858,
            "type": "Feature",
            "geometry": {
                "type": "Point",
                "coordinates": [
                    21.95193,
                    51.41816
                ]
            },
            "properties": {
                "ref:rspo": 82858,
                "official_name": "Miejskie Przedszkole nr 14 im. Czes\u0142awa Janczarskiego w Pu\u0142awach",
                "name": "Miejskie Przedszkole nr 14",
                "addr:postcode": "24-100",
                "addr:city": "Pu\u0142awy",
                "addr:street": "Hugona Ko\u0142\u0142\u0105taja",
                "addr:housenumber": "17",
                "addr:city:simc": 956810,
                "addr:street:sym_ul": 9003,
                "phone": "+48 814586430",
                "email": "mp14@um.pulawy.pl",
                "website": "http:\/\/www.mp.14.pulawy.pl",
                "ref:regon": "431189682",
                "ref:vatin": "PL7162368774",
                "operator": "Miasto Pu\u0142awy",
                "operator:type": "government",
                "amenity": "kindergarten"
            }
        },
        {
            "id": 16021,
            "type": "Feature",
            "geometry": {
                "type": "Point",
                "coordinates": [
                    21.96666,
                    51.41825
                ]
            },
            "properties": {
                "ref:rspo": 16021,
                "official_name": "Zesp\u00f3\u0142 Szk\u00f3\u0142 nr 1 im.stefanii Sempo\u0142owskiej w Pu\u0142awach",
                "name": "Zesp\u00f3\u0142 Szk\u00f3\u0142 nr 1 im.stefanii Sempo\u0142owskiej w Pu\u0142awach",
                "addr:postcode": "24-100",
                "addr:city": "Pu\u0142awy",
                "addr:street": "Polna",
                "addr:housenumber": "18",
                "addr:city:simc": 956810,
                "addr:street:sym_ul": 17011,
                "phone": "+48 818863821",
                "email": "zs1@zs1.pulawy.pl",
                "website": "http:\/\/www.zs1.pulawy.pl",
                "ref:regon": "060659554",
                "ref:vatin": "PL7162793371",
                "operator": "Powiat Pu\u0142awski",
                "operator:type": "government",
                "landuse": "education",
                "fixme": "amenity=school, amenity=college albo landuse=education w zale\u017cno\u015bci od tego, jakie plac\u00f3wki wchodz\u0105 w sk\u0142ad zespo\u0142u. Sprawd\u017a, kiedy stosowa\u0107 amenity=* a kiedy landuse=education.",
                "note": "Children RSPO: 44053;44059;44061"
            }
        },
        {
            "id": 44053,
            "type": "Feature",
            "geometry": {
                "type": "Point",
                "coordinates": [
                    21.96666,
                    51.41822
                ]
            },
            "properties": {
                "ref:rspo": 44053,
                "official_name": "Centrum Kszta\u0142cenia Zawodowego nr 1 w Zespole Szk\u00f3\u0142 nr 1 im.s.sempo\u0142owskiej w Pu\u0142awach",
                "name": "Centrum Kszta\u0142cenia Zawodowego nr 1 w Zespole Szk\u00f3\u0142 nr 1 im.s.sempo\u0142owskiej w Pu\u0142awach",
                "addr:postcode": "24-100",
                "addr:city": "Pu\u0142awy",
                "addr:street": "Polna",
                "addr:housenumber": "18",
                "addr:city:simc": 956810,
                "addr:street:sym_ul": 17011,
                "phone": "+48 818861201",
                "email": "zs1@zs1.pulawy.pl",
                "ref:regon": "060659695",
                "operator": "Powiat Pu\u0142awski",
                "operator:type": "government",
                "fixme": "w zale\u017cno\u015bci od przedmiotu dzia\u0142alno\u015bci (np. amenity=training + training=*, amenity=dancing_school, amenity=language_school, amenity=music_school) albo amenity=school, amenity=college, albo landuse=education w zale\u017cno\u015bci od tego, jakie plac\u00f3wki wchodz\u0105 w sk\u0142ad zespo\u0142u. Sprawd\u017a, kiedy stosowa\u0107 amenity=* a kiedy landuse=education.",
                "note": "Parent RSPO: 16021"
            }
        },
        {
            "id": 44059,
            "type": "Feature",
            "geometry": {
                "type": "Point",
                "coordinates": [
                    21.96666,
                    51.41819
                ]
            },
            "properties": {
                "isced:level": "3",
                "ref:rspo": 44059,
                "official_name": "Technikum nr 1 w Zespole Szk\u00f3\u0142 nr 1 im.s.sempo\u0142owskiej w Pu\u0142awach",
                "name": "Technikum nr 1 w Zespole Szk\u00f3\u0142 nr 1 im.s.sempo\u0142owskiej w Pu\u0142awach",
                "addr:postcode": "24-100",
                "addr:city": "Pu\u0142awy",
                "addr:street": "Polna",
                "addr:housenumber": "18",
                "addr:city:simc": 956810,
                "addr:street:sym_ul": 17011,
                "phone": "+48 818861201",
                "email": "zs1@zs1.pulawy.pl",
                "website": "http:\/\/www.zs1.pulawy.pl",
                "ref:regon": "060659614",
                "operator": "Powiat Pu\u0142awski",
                "operator:type": "government",
                "amenity": "school",
                "note": "Parent RSPO: 16021"
            }
        },
        {
            "id": 44061,
            "type": "Feature",
            "geometry": {
                "type": "Point",
                "coordinates": [
                    21.96666,
                    51.41816
                ]
            },
            "properties": {
                "isced:level": "3",
                "ref:rspo": 44061,
                "official_name": "Bran\u017cowa Szko\u0142a I Stopnia nr 1 w Pu\u0142awach",
                "name": "Bran\u017cowa Szko\u0142a I Stopnia nr 1 w Pu\u0142awach",
                "addr:postcode": "24-100",
                "addr:city": "Pu\u0142awy",
                "addr:street": "Polna",
                "addr:housenumber": "18",
                "addr:city:simc": 956810,
                "addr:street:sym_ul": 17011,
                "phone": "+48 818863821",
                "email": "zs1@zs1.pulawy.pl",
                "website": "http:\/\/www.zs1.pulawy.pl",
                "ref:regon": "060659590",
                "operator": "Powiat Pu\u0142awski",
                "operator:type": "government",
                "amenity": "school",
                "note": "Parent RSPO: 16021"
            }
        },
        {
            "id": 27443,
            "type": "Feature",
            "geometry": {
                "type": "Point",
                "coordinates": [
                    21.95493,
                    51.4183
                ]
            },
            "properties": {
                "ref:rspo": 27443,
                "official_name": "Zak\u0142ad Doskonalenia Zawodowego w Lublinie Centrum Kszta\u0142cenia w Pu\u0142awach",
                "name": "Zak\u0142ad Doskonalenia Zawodowego w Lublinie Centrum Kszta\u0142cenia w Pu\u0142awach",
                "addr:postcode": "24-100",
                "addr:city": "Pu\u0142awy",
                "addr:street": "3 Maja",
                "addr:housenumber": "8",
                "addr:city:simc": 956810,
                "addr:street:sym_ul": 11937,
                "phone": "+48 818878361",
                "email": "zdz.pulawy@wp.pl",
                "ref:regon": "061470860",
                "operator": "Zak\u0142ad Doskonalenia Zawodowego W Lublinie",
                "operator:type": "ngo",
                "amenity": "school",
                "fixme": "amenity=school lub amenity=college"
            }
        },
        {
            "id": 53050,
            "type": "Feature",
            "geometry": {
                "type": "Point",
                "coordinates": [
                    21.95493,
                    51.41827
                ]
            },
            "properties": {
                "isced:level": "3",
                "ref:rspo": 53050,
                "official_name": "Technikum Zak\u0142adu Doskonalenia Zawodowego w Lublinie-Filia w Pu\u0142awach",
                "name": "Technikum Zak\u0142adu Doskonalenia Zawodowego w Lublinie-Filia w Pu\u0142awach",
                "addr:postcode": "24-100",
                "addr:city": "Pu\u0142awy",
                "addr:street": "3 Maja",
                "addr:housenumber": "8",
                "addr:city:simc": 956810,
                "addr:street:sym_ul": 11937,
                "phone": "+48 818878361",
                "email": "pulawy@zdz.lublin.pl",
                "website": "http:\/\/szkoly.zdz.pulawy.pl",
                "ref:regon": "061485205",
                "ref:vatin": "PL7120104912",
                "operator": "Zak\u0142ad Doskonalenia Zawodowego W Lublinie",
                "operator:type": "ngo",
                "amenity": "school"
            }
        },
        {
            "id": 130282,
            "type": "Feature",
            "geometry": {
                "type": "Point",
                "coordinates": [
                    21.95493,
                    51.418240000000004
                ]
            },
            "properties": {
                "isced:level": "3",
                "ref:rspo": 130282,
                "official_name": "Bran\u017cowa Szko\u0142a I Stopnia w Pu\u0142awach Zak\u0142adu Doskonalenia Zawodowego w Lublinie",
                "name": "Bran\u017cowa Szko\u0142a I Stopnia w Pu\u0142awach Zak\u0142adu Doskonalenia Zawodowego w Lublinie",
                "addr:postcode": "24-100",
                "addr:city": "Pu\u0142awy",
                "addr:street": "3 Maja",
                "addr:housenumber": "8",
                "addr:city:simc": 956810,
                "addr:street:sym_ul": 11937,
                "phone": "+48 818878361",
                "email": "pulawy@zdz.lublin.pl",
                "ref:regon": "363756053",
                "ref:vatin": "PL7120104912",
                "operator": "Zak\u0142ad Doskonalenia Zawodowego W Lublinie",
                "operator:type": "ngo",
                "amenity": "school"
            }
        },
        {
            "id": 55581,
            "type": "Feature",
            "geometry": {
                "type": "Point",
                "coordinates": [
                    21.95108,
                    51.41874
                ]
            },
            "properties": {
                "isced:level": "1;2",
                "ref:rspo": 55581,
                "official_name": "Szko\u0142a Podstawowa nr 10 im. Adama Mickiewicza w Pu\u0142awach",
                "name": "Szko\u0142a Podstawowa nr 10",
                "addr:postcode": "24-100",
                "addr:city": "Pu\u0142awy",
                "addr:street": "6 Sierpnia",
                "addr:housenumber": "30",
                "addr:city:simc": 956810,
                "addr:street:sym_ul": 19881,
                "phone": "+48 814586580",
                "email": "sp10@um.pulawy.pl",
                "website": "http:\/\/www.sp10.pulawy.pl",
                "ref:regon": "430369442",
                "ref:vatin": "PL7162559008",
                "operator": "Miasto Pu\u0142awy",
                "operator:type": "government",
                "amenity": "school"
            }
        },
        {
            "id": 27432,
            "type": "Feature",
            "geometry": {
                "type": "Point",
                "coordinates": [
                    21.95612,
                    51.41907
                ]
            },
            "properties": {
                "isced:level": "3",
                "ref:rspo": 27432,
                "official_name": "I Katolickie Spo\u0142eczne Liceum Og\u00f3lnokszta\u0142cace im.\u015bw.brata Alberta Chmielowskiego w Pu\u0142awach",
                "name": "I Katolickie Spo\u0142eczne Liceum Og\u00f3lnokszta\u0142cace im.\u015bw.brata Alberta Chmielowskiego w Pu\u0142awach",
                "addr:postcode": "24-100",
                "addr:city": "Pu\u0142awy",
                "addr:street": "Stanis\u0142awa Eustachiewicza",
                "addr:housenumber": "1",
                "addr:city:simc": 956810,
                "addr:street:sym_ul": 34574,
                "phone": "+48 818868159",
                "email": "sekretariat@zsk-pulawy.p9.pl",
                "ref:regon": "061470824",
                "ref:vatin": "PL7162518357",
                "operator": "Towarzystwo Szkolne \"Nauka I Praca\" W Pu\u0142awach",
                "operator:type": "cooperative",
                "amenity": "school"
            }
        },
        {
            "id": 276891,
            "type": "Feature",
            "geometry": {
                "type": "Point",
                "coordinates": [
                    21.95612,
                    51.419039999999995
                ]
            },
            "properties": {
                "ref:rspo": 276891,
                "official_name": "Przedszkole Specjalne Mali Odkrywcy",
                "name": "Przedszkole Specjalne Mali Odkrywcy",
                "addr:postcode": "24-100",
                "addr:city": "Pu\u0142awy",
                "addr:street": "Stanis\u0142awa Eustachiewicza",
                "addr:housenumber": "1",
                "addr:city:simc": 956810,
                "addr:street:sym_ul": 34574,
                "phone": "+48 534633324",
                "ref:regon": "387791674",
                "operator": "Sp\u00f3\u0142dzielnia Socjalna Inicjatywa",
                "operator:type": "cooperative",
                "amenity": "kindergarten"
            }
        },
        {
            "id": 275772,
            "type": "Feature",
            "geometry": {
                "type": "Point",
                "coordinates": [
                    21.98809,
                    51.41917
                ]
            },
            "properties": {
                "ref:rspo": 275772,
                "official_name": "Busy Bees",
                "name": "Busy Bees",
                "addr:postcode": "24-100",
                "addr:city": "Pu\u0142awy",
                "addr:street": "Juliusza S\u0142owackiego",
                "addr:housenumber": "27",
                "addr:city:simc": 956810,
                "addr:street:sym_ul": 20291,
                "email": "busybees.montessori.pulawy@gmail.com",
                "website": "http:\/\/www.busybees.pl",
                "ref:regon": "386935697",
                "operator": "Patrycja Johansen",
                "operator:type": "private",
                "amenity": "kindergarten"
            }
        },
        {
            "id": 82392,
            "type": "Feature",
            "geometry": {
                "type": "Point",
                "coordinates": [
                    21.98113,
                    51.41939
                ]
            },
            "properties": {
                "isced:level": "3",
                "ref:rspo": 82392,
                "official_name": "Ii Liceum Og\u00f3lnokszta\u0142c\u0105ce im. Komisji Edukacji Narodowej w Pu\u0142awach",
                "name": "Ii Liceum Og\u00f3lnokszta\u0142c\u0105ce",
                "addr:postcode": "24-100",
                "addr:city": "Pu\u0142awy",
                "addr:street": "Kaniowczyk\u00f3w",
                "addr:housenumber": "9",
                "addr:city:simc": 956810,
                "addr:street:sym_ul": 7941,
                "phone": "+48 818864037",
                "email": "zso1@um.pulawy.pl",
                "website": "http:\/\/www.ken.pulawy.pl",
                "ref:regon": "000714366",
                "ref:vatin": "PL7161099711",
                "operator": "Miasto Pu\u0142awy",
                "operator:type": "government",
                "amenity": "school",
                "note": "Parent RSPO: 41809"
            }
        },
        {
            "id": 19638,
            "type": "Feature",
            "geometry": {
                "type": "Point",
                "coordinates": [
                    21.97458,
                    51.41965
                ]
            },
            "properties": {
                "isced:level": "3",
                "ref:rspo": 19638,
                "official_name": "I Liceum Og\u00f3lnokszta\u0142c\u0105ce im.ks.a.j.czartoryskiego w Pu\u0142awach",
                "name": "I Liceum Og\u00f3lnokszta\u0142c\u0105ce im.ks.a.j.czartoryskiego w Pu\u0142awach",
                "addr:postcode": "24-100",
                "addr:city": "Pu\u0142awy",
                "addr:street": "Aleja Partyzant\u00f3w",
                "addr:housenumber": "16",
                "addr:city:simc": 956810,
                "addr:street:sym_ul": 15731,
                "phone": "+48 818863626",
                "email": "sekretariat@czart.pulawy.pl",
                "website": "http:\/\/www.czart.pulawy.pl",
                "ref:regon": "060664265",
                "ref:vatin": "PL7162794011",
                "operator": "Powiat Pu\u0142awski",
                "operator:type": "government",
                "amenity": "school"
            }
        },
        {
            "id": 82857,
            "type": "Feature",
            "geometry": {
                "type": "Point",
                "coordinates": [
                    21.9634,
                    51.42013
                ]
            },
            "properties": {
                "ref:rspo": 82857,
                "official_name": "Miejskie Przedszkole nr 13 w Pu\u0142awach",
                "name": "Miejskie Przedszkole nr 13 w Pu\u0142awach",
                "addr:postcode": "24-100",
                "addr:city": "Pu\u0142awy",
                "addr:street": "Marii Curie-Sk\u0142odowskiej",
                "addr:housenumber": "7b",
                "addr:city:simc": 956810,
                "addr:street:sym_ul": 3148,
                "phone": "+48 814586420",
                "email": "mp13@um.pulawy.pl",
                "ref:regon": "431189676",
                "ref:vatin": "PL7162368768",
                "operator": "Miasto Pu\u0142awy",
                "operator:type": "government",
                "amenity": "kindergarten"
            }
        },
        {
            "id": 55590,
            "type": "Feature",
            "geometry": {
                "type": "Point",
                "coordinates": [
                    21.96111,
                    51.4203
                ]
            },
            "properties": {
                "ref:rspo": 55590,
                "official_name": "Miejskie Przedszkole nr 10 im. Marii Kownackiej w Pu\u0142awach",
                "name": "Miejskie Przedszkole nr 10",
                "addr:postcode": "24-100",
                "addr:city": "Pu\u0142awy",
                "addr:street": "Franciszka Karpi\u0144skiego",
                "addr:housenumber": "8",
                "addr:city:simc": 956810,
                "addr:street:sym_ul": 8106,
                "phone": "+48 814586410",
                "email": "mp10@um.pulawy.pl",
                "website": "http:\/\/www.mp10.pulawy.pl",
                "ref:regon": "431189759",
                "ref:vatin": "PL7162368745",
                "operator": "Miasto Pu\u0142awy",
                "operator:type": "government",
                "amenity": "kindergarten"
            }
        },
        {
            "id": 82860,
            "type": "Feature",
            "geometry": {
                "type": "Point",
                "coordinates": [
                    21.95695,
                    51.42039
                ]
            },
            "properties": {
                "ref:rspo": 82860,
                "official_name": "Miejskie Przedszkole nr 15 w Pu\u0142awach",
                "name": "Miejskie Przedszkole nr 15 w Pu\u0142awach",
                "addr:postcode": "24-100",
                "addr:city": "Pu\u0142awy",
                "addr:street": "Le\u015bna",
                "addr:housenumber": "14",
                "addr:city:simc": 956810,
                "addr:street:sym_ul": 10898,
                "phone": "+48 814586440",
                "email": "mp15@um.pulawy.pl",
                "ref:regon": "431189653",
                "ref:vatin": "PL7162368780",
                "operator": "Miasto Pu\u0142awy",
                "operator:type": "government",
                "amenity": "kindergarten"
            }
        },
        {
            "id": 125381,
            "type": "Feature",
            "geometry": {
                "type": "Point",
                "coordinates": [
                    21.96544,
                    51.42052
                ]
            },
            "properties": {
                "ref:rspo": 125381,
                "official_name": "Niepubliczne Przedszkole Integracyjne \"Edu Terapeutica\"",
                "name": "Niepubliczne Przedszkole Integracyjne \"Edu Terapeutica\"",
                "addr:postcode": "24-100",
                "addr:city": "Pu\u0142awy",
                "addr:street": "Zygmunta Wr\u00f3blewskiego",
                "addr:housenumber": "25",
                "addr:city:simc": 956810,
                "addr:street:sym_ul": 24840,
                "phone": "+48 603363677",
                "ref:regon": "061735688",
                "ref:vatin": "PL7162111070",
                "operator": "Katarzyna Topolewska",
                "operator:type": "private",
                "amenity": "kindergarten"
            }
        },
        {
            "id": 129140,
            "type": "Feature",
            "geometry": {
                "type": "Point",
                "coordinates": [
                    21.96544,
                    51.42049
                ]
            },
            "properties": {
                "isced:level": "1;2",
                "ref:rspo": 129140,
                "official_name": "Niepubliczna Integracyjna Szko\u0142a Podstawowa \"Edu Terapeutica\"",
                "name": "Niepubliczna Integracyjna Szko\u0142a Podstawowa \"Edu Terapeutica\"",
                "addr:postcode": "24-100",
                "addr:city": "Pu\u0142awy",
                "addr:street": "Zygmunta Wr\u00f3blewskiego",
                "addr:housenumber": "25",
                "addr:city:simc": 956810,
                "addr:street:sym_ul": 24840,
                "phone": "+48 603363677",
                "email": "szkola@spectrum.pulawy.pl",
                "website": "http:\/\/www.spectrum.pulawy.pl",
                "ref:regon": "362491747",
                "operator": "Katarzyna Topolewska",
                "operator:type": "private",
                "amenity": "school"
            }
        },
        {
            "id": 41807,
            "type": "Feature",
            "geometry": {
                "type": "Point",
                "coordinates": [
                    21.96831,
                    51.42076
                ]
            },
            "properties": {
                "ref:rspo": 41807,
                "official_name": "Zesp\u00f3\u0142 Szk\u00f3\u0142 Og\u00f3lnokszta\u0142c\u0105cych nr 2 im. Franciszka Dionizego Knia\u017anina w Pu\u0142awach",
                "name": "Zesp\u00f3\u0142 Szk\u00f3\u0142 Og\u00f3lnokszta\u0142c\u0105cych nr 2",
                "addr:postcode": "24-100",
                "addr:city": "Pu\u0142awy",
                "addr:street": "Zygmunta Wr\u00f3blewskiego",
                "addr:housenumber": "11",
                "addr:city:simc": 956810,
                "addr:street:sym_ul": 24840,
                "phone": "+48 814586640",
                "email": "zso2@um.pulawy.pl",
                "website": "http:\/\/www.zsonr2.pulawy.pl",
                "ref:regon": "000714700",
                "ref:vatin": "PL7161411060",
                "operator": "Miasto Pu\u0142awy",
                "operator:type": "government",
                "landuse": "education",
                "fixme": "amenity=school, amenity=college albo landuse=education w zale\u017cno\u015bci od tego, jakie plac\u00f3wki wchodz\u0105 w sk\u0142ad zespo\u0142u. Sprawd\u017a, kiedy stosowa\u0107 amenity=* a kiedy landuse=education.",
                "note": "Children RSPO: 82490;262804"
            }
        },
        {
            "id": 82490,
            "type": "Feature",
            "geometry": {
                "type": "Point",
                "coordinates": [
                    21.96831,
                    51.42073
                ]
            },
            "properties": {
                "isced:level": "3",
                "ref:rspo": 82490,
                "official_name": "Iii Liceum Og\u00f3lnokszta\u0142c\u0105ce w Pu\u0142awach",
                "name": "Iii Liceum Og\u00f3lnokszta\u0142c\u0105ce w Pu\u0142awach",
                "addr:postcode": "24-100",
                "addr:city": "Pu\u0142awy",
                "addr:street": "Zygmunta Wr\u00f3blewskiego",
                "addr:housenumber": "11",
                "addr:city:simc": 956810,
                "addr:street:sym_ul": 24840,
                "phone": "+48 814586640",
                "ref:regon": "431251286",
                "ref:vatin": "PL7161411060",
                "operator": "Miasto Pu\u0142awy",
                "operator:type": "government",
                "amenity": "school",
                "note": "Parent RSPO: 41807"
            }
        },
        {
            "id": 262804,
            "type": "Feature",
            "geometry": {
                "type": "Point",
                "coordinates": [
                    21.96831,
                    51.420700000000004
                ]
            },
            "properties": {
                "isced:level": "1;2",
                "ref:rspo": 262804,
                "official_name": "Szko\u0142a Podstawowa nr 5 im. Franciszka Dionizego Knia\u017anina w Pu\u0142awach",
                "name": "Szko\u0142a Podstawowa nr 5",
                "addr:postcode": "24-100",
                "addr:city": "Pu\u0142awy",
                "addr:street": "Zygmunta Wr\u00f3blewskiego",
                "addr:housenumber": "11",
                "addr:city:simc": 956810,
                "addr:street:sym_ul": 24840,
                "phone": "+48 814586640",
                "email": "zso2@um.pulawy.pl",
                "website": "http:\/\/zsonr2.pl",
                "ref:regon": "368061172",
                "operator": "Miasto Pu\u0142awy",
                "operator:type": "government",
                "amenity": "school",
                "note": "Parent RSPO: 41807"
            }
        },
        {
            "id": 55582,
            "type": "Feature",
            "geometry": {
                "type": "Point",
                "coordinates": [
                    21.9782699,
                    51.42119
                ]
            },
            "properties": {
                "isced:level": "1;2",
                "ref:rspo": 55582,
                "official_name": "Szko\u0142a Podstawowa nr 1 im. Tadeusza Ko\u015bciuszki w Pu\u0142awach",
                "name": "Szko\u0142a Podstawowa nr 1",
                "addr:postcode": "24-100",
                "addr:city": "Pu\u0142awy",
                "addr:street": "Kaniowczyk\u00f3w",
                "addr:housenumber": "1",
                "addr:city:simc": 956810,
                "addr:street:sym_ul": 7941,
                "phone": "+48 814586481",
                "email": "sp1@um.pulawy.pl",
                "website": "http:\/\/www.sp1.pulawy.pl",
                "ref:regon": "000714662",
                "ref:vatin": "PL7162148587",
                "operator": "Miasto Pu\u0142awy",
                "operator:type": "government",
                "amenity": "school"
            }
        },
        {
            "id": 16113,
            "type": "Feature",
            "geometry": {
                "type": "Point",
                "coordinates": [
                    21.95398,
                    51.42187
                ]
            },
            "properties": {
                "ref:rspo": 16113,
                "official_name": "Zesp\u00f3\u0142 Szk\u00f3\u0142 nr 2 im.eugeniusza Kwiatkowskiego w Pu\u0142awach",
                "name": "Zesp\u00f3\u0142 Szk\u00f3\u0142 nr 2 im.eugeniusza Kwiatkowskiego w Pu\u0142awach",
                "addr:postcode": "24-100",
                "addr:city": "Pu\u0142awy",
                "addr:street": "Jaworowa",
                "addr:housenumber": "1",
                "addr:city:simc": 956810,
                "addr:street:sym_ul": 7394,
                "phone": "+48 818868226",
                "email": "poczta@zs2.pulawy.pl",
                "website": "http:\/\/www.zs2.pulawy.pl",
                "ref:regon": "060657271",
                "ref:vatin": "PL7162793224",
                "operator": "Powiat Pu\u0142awski",
                "operator:type": "government",
                "landuse": "education",
                "fixme": "amenity=school, amenity=college albo landuse=education w zale\u017cno\u015bci od tego, jakie plac\u00f3wki wchodz\u0105 w sk\u0142ad zespo\u0142u. Sprawd\u017a, kiedy stosowa\u0107 amenity=* a kiedy landuse=education.",
                "note": "Children RSPO: 31983;31985;31989;127554"
            }
        },
        {
            "id": 31983,
            "type": "Feature",
            "geometry": {
                "type": "Point",
                "coordinates": [
                    21.95398,
                    51.421839999999996
                ]
            },
            "properties": {
                "isced:level": "3",
                "ref:rspo": 31983,
                "official_name": "Technikum nr 2 w Zespole Szk\u00f3\u0142 nr 2 w Pu\u0142awach",
                "name": "Technikum nr 2 w Zespole Szk\u00f3\u0142 nr 2 w Pu\u0142awach",
                "addr:postcode": "24-100",
                "addr:city": "Pu\u0142awy",
                "addr:street": "Jaworowa",
                "addr:housenumber": "1",
                "addr:city:simc": 956810,
                "addr:street:sym_ul": 7394,
                "phone": "+48 818861122",
                "email": "poczta@zs2.pulawy.pl",
                "website": "http:\/\/www.zs2.pulawy.pl",
                "ref:regon": "060657213",
                "operator": "Powiat Pu\u0142awski",
                "operator:type": "government",
                "amenity": "school",
                "note": "Parent RSPO: 16113"
            }
        },
        {
            "id": 31985,
            "type": "Feature",
            "geometry": {
                "type": "Point",
                "coordinates": [
                    21.95398,
                    51.42181
                ]
            },
            "properties": {
                "isced:level": "3",
                "ref:rspo": 31985,
                "official_name": "Bran\u017cowa Szko\u0142a I Stopnia nr 2 w Pu\u0142awach",
                "name": "Bran\u017cowa Szko\u0142a I Stopnia nr 2 w Pu\u0142awach",
                "addr:postcode": "24-100",
                "addr:city": "Pu\u0142awy",
                "addr:street": "Jaworowa",
                "addr:housenumber": "1",
                "addr:city:simc": 956810,
                "addr:street:sym_ul": 7394,
                "phone": "+48 818861122",
                "email": "poczta@zs2.pulawy.pl",
                "website": "http:\/\/www.zs2.pulawy.pl",
                "ref:regon": "060657302",
                "operator": "Powiat Pu\u0142awski",
                "operator:type": "government",
                "amenity": "school",
                "note": "Parent RSPO: 16113"
            }
        },
        {
            "id": 31989,
            "type": "Feature",
            "geometry": {
                "type": "Point",
                "coordinates": [
                    21.95398,
                    51.42178
                ]
            },
            "properties": {
                "isced:level": "3",
                "ref:rspo": 31989,
                "official_name": "Vii Liceum Og\u00f3lnokszta\u0142c\u0105ce w Zespole Szk\u00f3\u0142 nr 2 w Pu\u0142awach",
                "name": "Vii Liceum Og\u00f3lnokszta\u0142c\u0105ce w Zespole Szk\u00f3\u0142 nr 2 w Pu\u0142awach",
                "addr:postcode": "24-100",
                "addr:city": "Pu\u0142awy",
                "addr:street": "Jaworowa",
                "addr:housenumber": "1",
                "addr:city:simc": 956810,
                "addr:street:sym_ul": 7394,
                "phone": "+48 818861122",
                "email": "poczta@zs2.pulawy.pl",
                "website": "http:\/\/www.zs2.pulawy.pl",
                "ref:regon": "060657294",
                "operator": "Powiat Pu\u0142awski",
                "operator:type": "government",
                "amenity": "school",
                "note": "Parent RSPO: 16113"
            }
        },
        {
            "id": 127554,
            "type": "Feature",
            "geometry": {
                "type": "Point",
                "coordinates": [
                    21.95398,
                    51.421749999999996
                ]
            },
            "properties": {
                "isced:level": "4",
                "ref:rspo": 127554,
                "official_name": "Szko\u0142a Policealna nr 2 w Zespole Szk\u00f3\u0142 nr 2 w Pu\u0142awach",
                "name": "Szko\u0142a Policealna nr 2 w Zespole Szk\u00f3\u0142 nr 2 w Pu\u0142awach",
                "addr:postcode": "24-100",
                "addr:city": "Pu\u0142awy",
                "addr:street": "Jaworowa",
                "addr:housenumber": "1",
                "addr:city:simc": 956810,
                "addr:street:sym_ul": 7394,
                "phone": "+48 818868227",
                "email": "poczta@zs2.pulawy.pl",
                "website": "http:\/\/www.zs2.pulawy.pl",
                "ref:regon": "060657319",
                "operator": "Powiat Pu\u0142awski",
                "operator:type": "government",
                "amenity": "college",
                "note": "Parent RSPO: 16113"
            }
        },
        {
            "id": 55585,
            "type": "Feature",
            "geometry": {
                "type": "Point",
                "coordinates": [
                    21.96159,
                    51.42198
                ]
            },
            "properties": {
                "isced:level": "1;2",
                "ref:rspo": 55585,
                "official_name": "Szko\u0142a Podstawowa nr 6 im. Polskich Lotnik\u00f3w w Pu\u0142awach",
                "name": "Szko\u0142a Podstawowa nr 6",
                "addr:postcode": "24-100",
                "addr:city": "Pu\u0142awy",
                "addr:street": "Juliana Ursyna Niemcewicza",
                "addr:housenumber": "4",
                "addr:city:simc": 956810,
                "addr:street:sym_ul": 14177,
                "phone": "+48 818863654",
                "email": "sp6@um.pulawy.pl",
                "website": "http:\/\/www.sp6pulawy.pl",
                "ref:regon": "000714314",
                "ref:vatin": "PL7162150851",
                "operator": "Miasto Pu\u0142awy",
                "operator:type": "government",
                "amenity": "school"
            }
        },
        {
            "id": 77454,
            "type": "Feature",
            "geometry": {
                "type": "Point",
                "coordinates": [
                    21.95504,
                    51.42205
                ]
            },
            "properties": {
                "ref:rspo": 77454,
                "official_name": "Specjalny O\u015brodek Szkolno-Wychowawczy im.marii Grzegorzewskiej w Pu\u0142awach",
                "name": "Specjalny O\u015brodek Szkolno-Wychowawczy im.marii Grzegorzewskiej w Pu\u0142awach",
                "addr:postcode": "24-100",
                "addr:city": "Pu\u0142awy",
                "addr:street": "Jaworowa",
                "addr:housenumber": "3",
                "addr:city:simc": 956810,
                "addr:street:sym_ul": 7394,
                "phone": "+48 818880248",
                "email": "sosw.pulawy@gmail.com",
                "website": "http:\/\/www.sosw.pulawy.pl",
                "ref:regon": "060657070",
                "ref:vatin": "PL7162793230",
                "operator": "Powiat Pu\u0142awski",
                "operator:type": "government",
                "amenity": "school",
                "note": "Children RSPO: 92519;92521"
            }
        },
        {
            "id": 92519,
            "type": "Feature",
            "geometry": {
                "type": "Point",
                "coordinates": [
                    21.95504,
                    51.422019999999996
                ]
            },
            "properties": {
                "isced:level": "1;2",
                "ref:rspo": 92519,
                "official_name": "Specjalna Szko\u0142a Podstawowa nr 12 w Specjalnym O\u015brodku Szkolno-Wychowawczym w Pu\u0142awach",
                "name": "Specjalna Szko\u0142a Podstawowa nr 12 w Specjalnym O\u015brodku Szkolno-Wychowawczym w Pu\u0142awach",
                "addr:postcode": "24-100",
                "addr:city": "Pu\u0142awy",
                "addr:street": "Jaworowa",
                "addr:housenumber": "3",
                "addr:city:simc": 956810,
                "addr:street:sym_ul": 7394,
                "phone": "+48 818880248",
                "email": "sosw.pulawy@gmail.com",
                "website": "http:\/\/sosw.pulawy.pl",
                "ref:regon": "060657058",
                "ref:vatin": "PL7162793276",
                "operator": "Powiat Pu\u0142awski",
                "operator:type": "government",
                "amenity": "school",
                "note": "Parent RSPO: 77454"
            }
        },
        {
            "id": 92521,
            "type": "Feature",
            "geometry": {
                "type": "Point",
                "coordinates": [
                    21.95504,
                    51.42199
                ]
            },
            "properties": {
                "isced:level": "3",
                "ref:rspo": 92521,
                "official_name": "Bran\u017cowa Szko\u0142a I Stopnia Specjalna nr 7 w Pu\u0142awach",
                "name": "Bran\u017cowa Szko\u0142a I Stopnia Specjalna nr 7 w Pu\u0142awach",
                "addr:postcode": "24-100",
                "addr:city": "Pu\u0142awy",
                "addr:street": "Jaworowa",
                "addr:housenumber": "3",
                "addr:city:simc": 956810,
                "addr:street:sym_ul": 7394,
                "phone": "+48 818880248",
                "email": "sosw.pulawy@gmail.com",
                "website": "http:\/\/sosw.pulawy.pl",
                "ref:regon": "060657118",
                "ref:vatin": "PL7162793247",
                "operator": "Powiat Pu\u0142awski",
                "operator:type": "government",
                "amenity": "school",
                "note": "Parent RSPO: 77454"
            }
        },
        {
            "id": 55580,
            "type": "Feature",
            "geometry": {
                "type": "Point",
                "coordinates": [
                    21.95654,
                    51.42209
                ]
            },
            "properties": {
                "isced:level": "1;2",
                "ref:rspo": 55580,
                "official_name": "Szko\u0142a Podstawowa nr 3 im. Jana Brzechwy w Pu\u0142awach",
                "name": "Szko\u0142a Podstawowa nr 3",
                "addr:postcode": "24-100",
                "addr:city": "Pu\u0142awy",
                "addr:street": "Jaworowa",
                "addr:housenumber": "5",
                "addr:city:simc": 956810,
                "addr:street:sym_ul": 7394,
                "phone": "+48 818868564",
                "email": "sp3@um.pulawy.pl",
                "website": "http:\/\/www.sp3.pulawy.pl",
                "ref:regon": "000714685",
                "ref:vatin": "PL7162153772",
                "operator": "Miasto Pu\u0142awy",
                "operator:type": "government",
                "amenity": "school"
            }
        },
        {
            "id": 82853,
            "type": "Feature",
            "geometry": {
                "type": "Point",
                "coordinates": [
                    21.98375,
                    51.42272
                ]
            },
            "properties": {
                "ref:rspo": 82853,
                "official_name": "Miejskie Przedszkole nr 5 w Pu\u0142awach",
                "name": "Miejskie Przedszkole nr 5 w Pu\u0142awach",
                "addr:postcode": "24-100",
                "addr:city": "Pu\u0142awy",
                "addr:street": "Juliusza S\u0142owackiego",
                "addr:housenumber": "5a",
                "addr:city:simc": 956810,
                "addr:street:sym_ul": 20291,
                "phone": "+48 814586380",
                "email": "mp5@um.pulawy.pl",
                "website": "http:\/\/www.mp5.pulawy.pl",
                "ref:regon": "431189713",
                "operator": "Miasto Pu\u0142awy",
                "operator:type": "government",
                "amenity": "kindergarten"
            }
        },
        {
            "id": 19909,
            "type": "Feature",
            "geometry": {
                "type": "Point",
                "coordinates": [
                    21.95867,
                    51.42289
                ]
            },
            "properties": {
                "ref:rspo": 19909,
                "official_name": "Specjalny O\u015brodek Wychowawczy im.siostry Klary Staszczak Osb w Pu\u0142awach",
                "name": "Specjalny O\u015brodek Wychowawczy im.siostry Klary Staszczak Osb w Pu\u0142awach",
                "addr:postcode": "24-100",
                "addr:city": "Pu\u0142awy",
                "addr:street": "Doktora Mieczys\u0142awa Kowalskiego",
                "addr:housenumber": "3",
                "addr:city:simc": 956810,
                "addr:street:sym_ul": 34576,
                "phone": "+48 818864607",
                "email": "sow.pulawy@benedyktynki.pl",
                "ref:regon": "061465088",
                "ref:vatin": "PL7161613467",
                "operator": "Zgromadzenie Si\u00f3str Benedyktynek Misjonarek,Dom Generalny",
                "operator:type": "religious",
                "amenity": "social_facility",
                "social_facility": "group_home",
                "social_facility:for": "child;juvenile"
            }
        },
        {
            "id": 126408,
            "type": "Feature",
            "geometry": {
                "type": "Point",
                "coordinates": [
                    21.95867,
                    51.42286
                ]
            },
            "properties": {
                "ref:rspo": 126408,
                "official_name": "Zesp\u00f3\u0142 Szk\u00f3\u0142 Europejskich im. Szarych Szereg\u00f3w w Pu\u0142awach",
                "name": "Zesp\u00f3\u0142 Szk\u00f3\u0142 Europejskich",
                "addr:postcode": "24-100",
                "addr:city": "Pu\u0142awy",
                "addr:street": "Doktora Mieczys\u0142awa Kowalskiego",
                "addr:housenumber": "3",
                "addr:city:simc": 956810,
                "addr:street:sym_ul": 34576,
                "phone": "+48 818867760",
                "email": "euro_gim@op.pl",
                "website": "http:\/\/www.zse.pulawy.pl",
                "ref:regon": "360291300",
                "ref:vatin": "PL7162660090",
                "operator": "Stowarzyszenie Wspierania Edukacji Dzieci I M\u0142odzie\u017cy \"Euroszko\u0142a\"",
                "operator:type": "ngo",
                "landuse": "education",
                "fixme": "amenity=school, amenity=college albo landuse=education w zale\u017cno\u015bci od tego, jakie plac\u00f3wki wchodz\u0105 w sk\u0142ad zespo\u0142u. Sprawd\u017a, kiedy stosowa\u0107 amenity=* a kiedy landuse=education.",
                "note": "Children RSPO: 29968;68620"
            }
        },
        {
            "id": 130303,
            "type": "Feature",
            "geometry": {
                "type": "Point",
                "coordinates": [
                    21.95867,
                    51.422830000000005
                ]
            },
            "properties": {
                "ref:rspo": 130303,
                "official_name": "Niepubliczna Szko\u0142a Specjalna Przysposabiaj\u0105ca do Pracy w Pu\u0142awach",
                "name": "Niepubliczna Szko\u0142a Specjalna Przysposabiaj\u0105ca do Pracy w Pu\u0142awach",
                "addr:postcode": "24-100",
                "addr:city": "Pu\u0142awy",
                "addr:street": "Doktora Mieczys\u0142awa Kowalskiego",
                "addr:housenumber": "3",
                "addr:city:simc": 956810,
                "addr:street:sym_ul": 34576,
                "phone": "+48 818864607",
                "email": "szkolapdp@gmail.com",
                "website": "http:\/\/www.benedyktynskizakatek.pl",
                "ref:regon": "363811036",
                "ref:vatin": "PL7162818421",
                "operator": "Zgromadzenie Si\u00f3str Benedyktynek Misjonarek,Dom Generalny",
                "operator:type": "religious",
                "amenity": "school"
            }
        },
        {
            "id": 264576,
            "type": "Feature",
            "geometry": {
                "type": "Point",
                "coordinates": [
                    21.95867,
                    51.4228
                ]
            },
            "properties": {
                "ref:rspo": 264576,
                "official_name": "O\u015brodek Rewalidacyjno-Wychowawczy w Pu\u0142awach",
                "name": "O\u015brodek Rewalidacyjno-Wychowawczy w Pu\u0142awach",
                "addr:postcode": "24-100",
                "addr:city": "Pu\u0142awy",
                "addr:street": "Doktora Mieczys\u0142awa Kowalskiego",
                "addr:housenumber": "3",
                "addr:city:simc": 956810,
                "addr:street:sym_ul": 34576,
                "phone": "+48 818864607",
                "email": "orw.pulawy@gmail.com",
                "ref:regon": "368383220",
                "ref:vatin": "PL7162821506",
                "operator": "Zgromadzenie Si\u00f3str Benedyktynek Misjonarek,Dom Generalny",
                "operator:type": "religious",
                "amenity": "school"
            }
        },
        {
            "id": 29968,
            "type": "Feature",
            "geometry": {
                "type": "Point",
                "coordinates": [
                    21.95867,
                    51.42277
                ]
            },
            "properties": {
                "isced:level": "3",
                "ref:rspo": 29968,
                "official_name": "Europejskie Liceum Og\u00f3lnokszta\u0142c\u0105ce w Pu\u0142awach",
                "name": "Europejskie Liceum Og\u00f3lnokszta\u0142c\u0105ce w Pu\u0142awach",
                "addr:postcode": "24-100",
                "addr:city": "Pu\u0142awy",
                "addr:street": "Doktora Mieczys\u0142awa Kowalskiego",
                "addr:housenumber": "3",
                "addr:city:simc": 956810,
                "addr:street:sym_ul": 34576,
                "phone": "+48 818867760",
                "email": "euro_gim@op.pl",
                "website": "http:\/\/www.zse.pulawy.pl",
                "ref:regon": "061473254",
                "ref:vatin": "PL7162648516",
                "operator": "Stowarzyszenie Wspierania Edukacji Dzieci I M\u0142odzie\u017cy \"Euroszko\u0142a\"",
                "operator:type": "ngo",
                "amenity": "school",
                "note": "Parent RSPO: 126408"
            }
        },
        {
            "id": 68620,
            "type": "Feature",
            "geometry": {
                "type": "Point",
                "coordinates": [
                    21.95867,
                    51.422740000000005
                ]
            },
            "properties": {
                "isced:level": "1;2",
                "ref:rspo": 68620,
                "official_name": "Europejska Szko\u0142a Podstawowa \"Akademia M\u0142odych Talent\u00f3w\"",
                "name": "Europejska Szko\u0142a Podstawowa \"Akademia M\u0142odych Talent\u00f3w\"",
                "addr:postcode": "24-100",
                "addr:city": "Pu\u0142awy",
                "addr:street": "Doktora Mieczys\u0142awa Kowalskiego",
                "addr:housenumber": "3",
                "addr:city:simc": 956810,
                "addr:street:sym_ul": 34576,
                "phone": "+48 818867760",
                "email": "euro_gim@op.pl",
                "website": "http:\/\/www.zse.pulawy.pl",
                "ref:regon": "061489858",
                "ref:vatin": "PL7162810879",
                "operator": "Stowarzyszenie Wspierania Edukacji Dzieci I M\u0142odzie\u017cy \"Euroszko\u0142a\"",
                "operator:type": "ngo",
                "amenity": "school",
                "note": "Parent RSPO: 126408"
            }
        },
        {
            "id": 277864,
            "type": "Feature",
            "geometry": {
                "type": "Point",
                "coordinates": [
                    21.94986,
                    51.42313
                ]
            },
            "properties": {
                "ref:rspo": 277864,
                "official_name": "O\u015brodek Szkolenia Kierowc\u00f3w Cezary Lipski",
                "name": "O\u015brodek Szkolenia Kierowc\u00f3w Cezary Lipski",
                "addr:postcode": "24-100",
                "addr:city": "Pu\u0142awy",
                "addr:street": "Hugona Ko\u0142\u0142\u0105taja",
                "addr:housenumber": "47",
                "addr:door": "55",
                "addr:city:simc": 956810,
                "addr:street:sym_ul": 9003,
                "phone": "+48 536908100",
                "email": "biuro@lipski-pulawy.pl",
                "website": "http:\/\/www.lipski-pulawy.pl",
                "ref:regon": "389609076",
                "ref:vatin": "PL7162301310",
                "operator": "Cezary Lipski",
                "operator:type": "private",
                "fixme": "w zale\u017cno\u015bci od przedmiotu dzia\u0142alno\u015bci (np. amenity=training + training=*, amenity=dancing_school, amenity=language_school, amenity=music_school)"
            }
        },
        {
            "id": 29205,
            "type": "Feature",
            "geometry": {
                "type": "Point",
                "coordinates": [
                    21.98204,
                    51.42329
                ]
            },
            "properties": {
                "ref:rspo": 29205,
                "official_name": "Centrum Ta\u0144ca Wasilewski-Felska",
                "name": "Centrum Ta\u0144ca Wasilewski-Felska",
                "addr:postcode": "24-100",
                "addr:city": "Pu\u0142awy",
                "addr:street": "Juliusza S\u0142owackiego",
                "addr:housenumber": "2",
                "addr:city:simc": 956810,
                "addr:street:sym_ul": 20291,
                "phone": "+48 509079146",
                "email": "pulawy@wasilewski-felska.pl",
                "ref:regon": "061475098",
                "operator": "Karolina Felska",
                "operator:type": "private",
                "fixme": "w zale\u017cno\u015bci od przedmiotu dzia\u0142alno\u015bci (np. amenity=training + training=*, amenity=dancing_school, amenity=language_school, amenity=music_school)"
            }
        },
        {
            "id": 75567,
            "type": "Feature",
            "geometry": {
                "type": "Point",
                "coordinates": [
                    21.9837,
                    51.42453
                ]
            },
            "properties": {
                "ref:rspo": 75567,
                "official_name": "Pa\u0144stwowa Szko\u0142a Muzyczna I St. Romualda Twardowskiego w Pu\u0142awach",
                "name": "Pa\u0144stwowa Szko\u0142a Muzyczna I St. Romualda Twardowskiego w Pu\u0142awach",
                "addr:postcode": "24-100",
                "addr:city": "Pu\u0142awy",
                "addr:street": "Aleja Partyzant\u00f3w",
                "addr:housenumber": "46",
                "addr:city:simc": 956810,
                "addr:street:sym_ul": 15731,
                "phone": "+48 818885850",
                "email": "sekretariat@szkolamuzycznapulawy.pl",
                "website": "http:\/\/szkolamuzycznapulawy.pl",
                "ref:regon": "000278126",
                "operator": "Ministerstwo Kultury I Dziedzictwa Narodowego",
                "operator:type": "public",
                "amenity": "music_school"
            }
        },
        {
            "id": 16022,
            "type": "Feature",
            "geometry": {
                "type": "Point",
                "coordinates": [
                    21.98846,
                    51.42642
                ]
            },
            "properties": {
                "ref:rspo": 16022,
                "official_name": "M\u0142odzie\u017cowy O\u015brodek Wychowawczy w Pu\u0142awach",
                "name": "M\u0142odzie\u017cowy O\u015brodek Wychowawczy w Pu\u0142awach",
                "addr:postcode": "24-100",
                "addr:city": "Pu\u0142awy",
                "addr:street": "Marii Grzegorzewskiej",
                "addr:housenumber": "3",
                "addr:city:simc": 956810,
                "addr:street:sym_ul": 6316,
                "phone": "+48 818863418",
                "email": "mow@mow.pulawy.pl",
                "website": "http:\/\/www.mow.pulawy.pl",
                "ref:regon": "060663857",
                "ref:vatin": "PL7162794034",
                "operator": "Powiat Pu\u0142awski",
                "operator:type": "government",
                "fixme": "amenity=social_facility + social_facility=group_home + social_facility:for=juvenile",
                "note": "Children RSPO: 87634;87636"
            }
        },
        {
            "id": 87634,
            "type": "Feature",
            "geometry": {
                "type": "Point",
                "coordinates": [
                    21.98846,
                    51.42639
                ]
            },
            "properties": {
                "isced:level": "3",
                "ref:rspo": 87634,
                "official_name": "Bran\u017cowa Szko\u0142a I Stopnia Specjalna nr 5 w Pu\u0142awach",
                "name": "Bran\u017cowa Szko\u0142a I Stopnia Specjalna nr 5 w Pu\u0142awach",
                "addr:postcode": "24-100",
                "addr:city": "Pu\u0142awy",
                "addr:street": "Marii Grzegorzewskiej",
                "addr:housenumber": "3",
                "addr:city:simc": 956810,
                "addr:street:sym_ul": 6316,
                "phone": "+48 818863418",
                "email": "mow@mow.pulawy.pl",
                "website": "http:\/\/www.mow.pulawy.pl",
                "ref:regon": "060663870",
                "operator": "Powiat Pu\u0142awski",
                "operator:type": "government",
                "amenity": "school",
                "note": "Parent RSPO: 16022"
            }
        },
        {
            "id": 87636,
            "type": "Feature",
            "geometry": {
                "type": "Point",
                "coordinates": [
                    21.98846,
                    51.42636
                ]
            },
            "properties": {
                "isced:level": "1;2",
                "ref:rspo": 87636,
                "official_name": "Specjalna Szko\u0142a Podstawowa nr 13 w M\u0142odzie\u017cowym O\u015brodku Wychowawczym w Pu\u0142awach",
                "name": "Specjalna Szko\u0142a Podstawowa nr 13 w M\u0142odzie\u017cowym O\u015brodku Wychowawczym w Pu\u0142awach",
                "addr:postcode": "24-100",
                "addr:city": "Pu\u0142awy",
                "addr:street": "Marii Grzegorzewskiej",
                "addr:housenumber": "3",
                "addr:city:simc": 956810,
                "addr:street:sym_ul": 6316,
                "phone": "+48 818863418",
                "email": "mow@mow.pulawy.pl",
                "website": "http:\/\/www.mow.pulawy.pl",
                "ref:regon": "061489479",
                "operator": "Powiat Pu\u0142awski",
                "operator:type": "government",
                "amenity": "school",
                "note": "Parent RSPO: 16022"
            }
        },
        {
            "id": 265735,
            "type": "Feature",
            "geometry": {
                "type": "Point",
                "coordinates": [
                    21.97603,
                    51.44086
                ]
            },
            "properties": {
                "ref:rspo": 265735,
                "official_name": "Niepubliczne Przedszkole Jezusa Mi\u0142osiernego",
                "name": "Niepubliczne Przedszkole Jezusa Mi\u0142osiernego",
                "addr:postcode": "24-100",
                "addr:city": "Pu\u0142awy",
                "addr:street": "Ksi\u0119\u017cnej Izabelli",
                "addr:housenumber": "12",
                "addr:city:simc": 956810,
                "addr:street:sym_ul": 6952,
                "email": "biuro@przedszkolejezusa.pl",
                "ref:regon": "368875176",
                "operator": "Ma\u0142gorzata Janczak",
                "operator:type": "private",
                "amenity": "kindergarten"
            }
        },
        {
            "id": 82854,
            "type": "Feature",
            "geometry": {
                "type": "Point",
                "coordinates": [
                    21.87961,
                    51.48663
                ]
            },
            "properties": {
                "ref:rspo": 82854,
                "official_name": "Miejskie Przedszkole nr 18 w Pu\u0142awach",
                "name": "Miejskie Przedszkole nr 18 w Pu\u0142awach",
                "addr:postcode": "24-100",
                "addr:city": "Pu\u0142awy",
                "addr:street": "Cypriana Kamila Norwida",
                "addr:housenumber": "32a",
                "addr:city:simc": 956810,
                "addr:street:sym_ul": 14319,
                "phone": "+48 814586460",
                "email": "mp18@um.pulawy.pl",
                "website": "http:\/\/www.mp18.um.pulawy.pl",
                "ref:regon": "431189558",
                "ref:vatin": "PL7162368716",
                "operator": "Miasto Pu\u0142awy",
                "operator:type": "government",
                "amenity": "kindergarten"
            }
        },
        {
            "id": 82856,
            "type": "Feature",
            "geometry": {
                "type": "Point",
                "coordinates": [
                    21.87879,
                    51.48681
                ]
            },
            "properties": {
                "ref:rspo": 82856,
                "official_name": "Miejskie Przedszkole nr 7 w Pu\u0142awach",
                "name": "Miejskie Przedszkole nr 7 w Pu\u0142awach",
                "addr:postcode": "24-100",
                "addr:city": "Pu\u0142awy",
                "addr:street": "Cypriana Kamila Norwida",
                "addr:housenumber": "30",
                "addr:city:simc": 956810,
                "addr:street:sym_ul": 14319,
                "phone": "+48 814586390",
                "email": "mp7@um.pulawy.pl",
                "website": "http:\/\/www.mp7.um.pulawy.pl",
                "ref:regon": "431189541",
                "ref:vatin": "PL7162368722",
                "operator": "Miasto Pu\u0142awy",
                "operator:type": "government",
                "amenity": "kindergarten"
            }
        },
        {
            "id": 27179,
            "type": "Feature",
            "geometry": {
                "type": "Point",
                "coordinates": [
                    21.87502,
                    51.48802
                ]
            },
            "properties": {
                "ref:rspo": 27179,
                "official_name": "Regionalne Centrum Kszta\u0142cenia Ustawicznego w Pu\u0142awach",
                "name": "Regionalne Centrum Kszta\u0142cenia Ustawicznego w Pu\u0142awach",
                "addr:postcode": "24-100",
                "addr:city": "Pu\u0142awy",
                "addr:street": "Cypriana Kamila Norwida",
                "addr:housenumber": "8A",
                "addr:city:simc": 956810,
                "addr:street:sym_ul": 14319,
                "phone": "+48 818863705",
                "email": "sekretariat@rcku.pulawy.pl",
                "website": "http:\/\/rcku.pulawy.pl",
                "ref:regon": "060663700",
                "ref:vatin": "PL7162794117",
                "operator": "Powiat Pu\u0142awski",
                "operator:type": "government",
                "landuse": "education",
                "fixme": "amenity=school, amenity=college albo landuse=education w zale\u017cno\u015bci od tego, jakie plac\u00f3wki wchodz\u0105 w sk\u0142ad zespo\u0142u. Sprawd\u017a, kiedy stosowa\u0107 amenity=* a kiedy landuse=education.",
                "note": "Children RSPO: 43322;43323;125533"
            }
        },
        {
            "id": 43322,
            "type": "Feature",
            "geometry": {
                "type": "Point",
                "coordinates": [
                    21.87502,
                    51.487989999999996
                ]
            },
            "properties": {
                "ref:rspo": 43322,
                "official_name": "Bursa Szkolna w Regionalnym Centrum Kszta\u0142cenia Ustawicznego w Pu\u0142awach",
                "name": "Bursa Szkolna w Regionalnym Centrum Kszta\u0142cenia Ustawicznego w Pu\u0142awach",
                "addr:postcode": "24-100",
                "addr:city": "Pu\u0142awy",
                "addr:street": "Cypriana Kamila Norwida",
                "addr:housenumber": "8A",
                "addr:city:simc": 956810,
                "addr:street:sym_ul": 14319,
                "phone": "+48 818863705",
                "email": "szkola@rcku.pulawy.pl",
                "ref:regon": "060172912",
                "ref:vatin": "PL7162794117",
                "operator": "Powiat Pu\u0142awski",
                "operator:type": "government",
                "building": "dormitory",
                "note": "Parent RSPO: 27179"
            }
        },
        {
            "id": 43323,
            "type": "Feature",
            "geometry": {
                "type": "Point",
                "coordinates": [
                    21.87502,
                    51.48796
                ]
            },
            "properties": {
                "ref:rspo": 43323,
                "official_name": "Centrum Kszta\u0142cenia Ustawicznego w Regionalnym Centrum Kszta\u0142cenia Ustawicznego w Pu\u0142awach",
                "name": "Centrum Kszta\u0142cenia Ustawicznego w Regionalnym Centrum Kszta\u0142cenia Ustawicznego w Pu\u0142awach",
                "addr:postcode": "24-100",
                "addr:city": "Pu\u0142awy",
                "addr:street": "Cypriana Kamila Norwida",
                "addr:housenumber": "8A",
                "addr:city:simc": 956810,
                "addr:street:sym_ul": 14319,
                "phone": "+48 818863705",
                "email": "rckupulawy@o2.pl",
                "ref:regon": "061475141",
                "operator": "Powiat Pu\u0142awski",
                "operator:type": "government",
                "amenity": "school",
                "fixme": "amenity=school lub amenity=college",
                "note": "Children RSPO: 43325;43329Parent RSPO: 27179"
            }
        },
        {
            "id": 125533,
            "type": "Feature",
            "geometry": {
                "type": "Point",
                "coordinates": [
                    21.87502,
                    51.48793
                ]
            },
            "properties": {
                "isced:level": "3",
                "ref:rspo": 125533,
                "official_name": "Iv Liceum Og\u00f3lnokszta\u0142c\u0105ce w Regionalnym Centrum Kszta\u0142cenia Ustawicznego w Pu\u0142awach",
                "name": "Iv Liceum Og\u00f3lnokszta\u0142c\u0105ce w Regionalnym Centrum Kszta\u0142cenia Ustawicznego w Pu\u0142awach",
                "addr:postcode": "24-100",
                "addr:city": "Pu\u0142awy",
                "addr:street": "Cypriana Kamila Norwida",
                "addr:housenumber": "8A",
                "addr:city:simc": 956810,
                "addr:street:sym_ul": 14319,
                "phone": "+48 818863705",
                "email": "szkola@rcku.pulawy.pl",
                "website": "http:\/\/www.4lo.pulawy.pl",
                "ref:regon": "061735748",
                "ref:vatin": "PL7162794117",
                "operator": "Powiat Pu\u0142awski",
                "operator:type": "government",
                "amenity": "school",
                "note": "Parent RSPO: 27179"
            }
        },
        {
            "id": 43325,
            "type": "Feature",
            "geometry": {
                "type": "Point",
                "coordinates": [
                    21.87502,
                    51.487899999999996
                ]
            },
            "properties": {
                "isced:level": "3",
                "ref:rspo": 43325,
                "official_name": "Liceum Og\u00f3lnokszta\u0142c\u0105ce dla Doros\u0142ych nr VIII w Centrum Kszta\u0142cenia Ustawicznego w Regionalnym Centrum Kszta\u0142cenia Ustawicznego w Pu\u0142awach",
                "name": "Liceum Og\u00f3lnokszta\u0142c\u0105ce dla Doros\u0142ych nr VIII w Centrum Kszta\u0142cenia Ustawicznego w Regionalnym Centrum Kszta\u0142cenia Ustawicznego w Pu\u0142awach",
                "addr:postcode": "24-100",
                "addr:city": "Pu\u0142awy",
                "addr:street": "Cypriana Kamila Norwida",
                "addr:housenumber": "8A",
                "addr:city:simc": 956810,
                "addr:street:sym_ul": 14319,
                "phone": "+48 818863705",
                "email": "szkola@rcku.pulawy.pl",
                "website": "http:\/\/www.rcku.pulawy.pl",
                "ref:regon": "060170161",
                "ref:vatin": "PL7162794117",
                "operator": "Powiat Pu\u0142awski",
                "operator:type": "government",
                "amenity": "school",
                "note": "Parent RSPO: 43323"
            }
        },
        {
            "id": 43329,
            "type": "Feature",
            "geometry": {
                "type": "Point",
                "coordinates": [
                    21.87502,
                    51.48787
                ]
            },
            "properties": {
                "isced:level": "4",
                "ref:rspo": 43329,
                "official_name": "Szko\u0142a Policealna nr 5 w Centrum Kszta\u0142cenia Ustawicznego w Regionalnym Centrum Kszta\u0142cenia Ustawicznego w Pu\u0142awach",
                "name": "Szko\u0142a Policealna nr 5 w Centrum Kszta\u0142cenia Ustawicznego w Regionalnym Centrum Kszta\u0142cenia Ustawicznego w Pu\u0142awach",
                "addr:postcode": "24-100",
                "addr:city": "Pu\u0142awy",
                "addr:street": "Cypriana Kamila Norwida",
                "addr:housenumber": "8A",
                "addr:city:simc": 956810,
                "addr:street:sym_ul": 14319,
                "phone": "+48 818863705",
                "email": "szkola@rcku.pulawy.pl",
                "website": "http:\/\/www.rcku.pulawy.pl",
                "ref:regon": "060170178",
                "ref:vatin": "PL7162794117",
                "operator": "Powiat Pu\u0142awski",
                "operator:type": "government",
                "amenity": "college",
                "note": "Parent RSPO: 43323"
            }
        }
    ]
}