{"type":"FeatureCollection","features":[{"id":83828,"type":"Feature","geometry":{"type":"Point","coordinates":[21.9508699,51.32524]},"properties":{"ref:rspo":83828,"official_name":"Przedszkole im. Bohater\u00f3w 3 Pu\u0142ku Piechoty I Dywizji Wojska Polskiego w Go\u0142\u0119biu","name":"Przedszkole","addr:country":"PL","addr:postcode":"24-100","addr:city":"Go\u0142\u0105b","addr:street":"ul. Pu\u0142awska","addr:housenumber":"31","addr:teryt:simc":18102,"addr:teryt:sym_ul":389920,"contact:phone":"+48 818813297","contact:email":"przedszkole.golab@sapopulawy.eu","contact:website":"http:\/\/www.gpgolab.szkolnastrona.pl","ref:regon":"432303720","ref:vatin":"PL7162270561","operator":"Gmina Pu\u0142awy","operator:type":"government","amenity":"kindergarten"}},{"id":61439,"type":"Feature","geometry":{"type":"Point","coordinates":[21.84657,51.40266]},"properties":{"isced:level":"1;2","ref:rspo":61439,"official_name":"Szko\u0142a Podstawowa im. Bartosza G\u0142owackiego w Zarzeczu","name":"Szko\u0142a Podstawowa","addr:country":"PL","addr:postcode":"24-100","addr:place":"Zarzecze","addr:housenumber":"1A","addr:teryt:sym_ul":390194,"contact:phone":"+48 818819229","contact:email":"zarzeczesp@interia.pl","contact:website":"http:\/\/www.spzarzecze.pl","ref:regon":"001151356","ref:vatin":"PL7162462183","operator":"Gmina Pu\u0142awy","operator:type":"government","amenity":"school"}},{"id":62381,"type":"Feature","geometry":{"type":"Point","coordinates":[21.84657,51.402629999999995]},"properties":{"ref:rspo":62381,"official_name":"Publiczny Punkt Przedszkolny Radosne Przedszkole w Zarzeczu","name":"Publiczny Punkt Przedszkolny Radosne Przedszkole w Zarzeczu","addr:country":"PL","addr:postcode":"24-100","addr:place":"Zarzecze","addr:housenumber":"1A","addr:teryt:sym_ul":390194,"contact:phone":"+48 695662669","contact:email":"anna-sobala1@wp.pl","ref:regon":"061480030","ref:vatin":"PL7161500071","operator":"Anna Sobala","operator:type":"private","amenity":"kindergarten"}},{"id":61829,"type":"Feature","geometry":{"type":"Point","coordinates":[21.80443,51.40487]},"properties":{"isced:level":"1;2","ref:rspo":61829,"official_name":"Szko\u0142a Podstawowa w Leokadiowie","name":"Szko\u0142a Podstawowa w Leokadiowie","addr:country":"PL","addr:postcode":"24-100","addr:place":"Leokadi\u00f3w","addr:housenumber":"40","addr:teryt:sym_ul":390053,"contact:phone":"+48 818819292","contact:email":"sekretariat@spleokadiow.eu","contact:website":"http:\/\/www.spleokadiow.edupage.org","ref:regon":"001151379","ref:vatin":"PL7162462177","operator":"Gmina Pu\u0142awy","operator:type":"government","amenity":"school"}},{"id":123822,"type":"Feature","geometry":{"type":"Point","coordinates":[21.80443,51.40484]},"properties":{"ref:rspo":123822,"official_name":"Publiczny Punkt Przedszkolny \"Bajkowe Przedszkole\" w Leokadiowie","name":"Publiczny Punkt Przedszkolny \"Bajkowe Przedszkole\" w Leokadiowie","addr:country":"PL","addr:postcode":"24-100","addr:place":"Leokadi\u00f3w","addr:housenumber":"40","addr:teryt:sym_ul":390053,"contact:phone":"+48 508603389","contact:email":"przedszkolebajkowe@interia.pl","ref:regon":"061713391","ref:vatin":"PL7162815523","operator":"Ewa Kramek","operator:type":"private","amenity":"kindergarten"}},{"id":60788,"type":"Feature","geometry":{"type":"Point","coordinates":[21.93317,51.40724]},"properties":{"ref:rspo":60788,"official_name":"Publiczne Przedszkole w G\u00f3rze Pu\u0142awskiej im. Ewy Szelburg-Zarembiny","name":"Publiczne Przedszkole w G\u00f3rze Pu\u0142awskiej","addr:country":"PL","addr:postcode":"24-100","addr:city":"G\u00f3ra Pu\u0142awska","addr:street":"ul. Nowa","addr:housenumber":"9","addr:teryt:simc":14330,"addr:teryt:sym_ul":389943,"contact:phone":"+48 818805225","contact:email":"przedszkole.gorapulawska@sapopulawy.eu","contact:website":"http:\/\/www.przedszkolegorapul.szkolnastrona.pl","ref:regon":"432252508","ref:vatin":"PL7162462160","operator":"Gmina Pu\u0142awy","operator:type":"government","amenity":"kindergarten"}},{"id":60566,"type":"Feature","geometry":{"type":"Point","coordinates":[21.93133,51.40883]},"properties":{"isced:level":"1;2","ref:rspo":60566,"official_name":"Szko\u0142a Podstawowa im. \u017bo\u0142nierzy 2 Dp 1 Armii Wojska Polskiego w G\u00f3rze Pu\u0142awskiej","name":"Szko\u0142a Podstawowa","addr:country":"PL","addr:postcode":"24-100","addr:city":"G\u00f3ra Pu\u0142awska","addr:street":"ul. Ogrodowa","addr:housenumber":"18","addr:teryt:simc":14834,"addr:teryt:sym_ul":389943,"contact:phone":"+48 818805080","contact:email":"sp_gp7@wp.pl","contact:website":"http:\/\/www.spgorapulawska.edupage.org","ref:regon":"000649290","ref:vatin":"PL7162462119","operator":"Gmina Pu\u0142awy","operator:type":"government","amenity":"school"}},{"id":60906,"type":"Feature","geometry":{"type":"Point","coordinates":[21.91538,51.43244]},"properties":{"isced:level":"1;2","ref:rspo":60906,"official_name":"Szko\u0142a Podstawowa w Bronowicach","name":"Szko\u0142a Podstawowa w Bronowicach","addr:country":"PL","addr:postcode":"24-100","addr:place":"Bronowice","addr:housenumber":"148","addr:teryt:sym_ul":389908,"contact:phone":"+48 818805218","contact:email":"spbronowice@interia.pl","contact:website":"http:\/\/www.spbronowice.edupage.org.com","ref:regon":"001151391","ref:vatin":"PL7162462148","operator":"Gmina Pu\u0142awy","operator:type":"government","amenity":"school"}},{"id":83832,"type":"Feature","geometry":{"type":"Point","coordinates":[21.8763599,51.45118]},"properties":{"isced:level":"1;2","ref:rspo":83832,"official_name":"Szko\u0142a Podstawowa w Opatkowicach","name":"Szko\u0142a Podstawowa w Opatkowicach","addr:country":"PL","addr:postcode":"24-100","addr:place":"Opatkowice","addr:housenumber":"43","addr:teryt:sym_ul":390113,"contact:phone":"+48 818805076","contact:email":"spopatkowice@wp.pl","contact:website":"http:\/\/www.spopatkowice.szkolnastrona.pl","ref:regon":"001151385","ref:vatin":"PL7162462154","operator":"Gmina Pu\u0142awy","operator:type":"government","amenity":"school"}},{"id":83829,"type":"Feature","geometry":{"type":"Point","coordinates":[21.87961,51.48663]},"properties":{"isced:level":"1;2","ref:rspo":83829,"official_name":"Szko\u0142a Podstawowa im. St. Czarnieckiego w Go\u0142\u0119biu","name":"Szko\u0142a Podstawowa","addr:country":"PL","addr:postcode":"24-100","addr:city":"Go\u0142\u0105b","addr:street":"ul. Pu\u0142awska","addr:housenumber":"32","addr:teryt:simc":18102,"addr:teryt:sym_ul":389920,"contact:phone":"+48 818813291","contact:email":"szkola@spgolab.pl","contact:website":"http:\/\/www.spgolab.szkolnastrona.pl","ref:regon":"001151340","ref:vatin":"PL7162318859","operator":"Gmina Pu\u0142awy","operator:type":"government","amenity":"school"}},{"id":61568,"type":"Feature","geometry":{"type":"Point","coordinates":[21.84205,51.53662]},"properties":{"isced:level":"1;2","ref:rspo":61568,"official_name":"Szko\u0142a Podstawowa w Borowej","name":"Szko\u0142a Podstawowa w Borowej","addr:country":"PL","addr:postcode":"24-100","addr:place":"Borowa","addr:housenumber":"9A","addr:teryt:sym_ul":389890,"contact:phone":"+48 818830207","contact:email":"poczta@spborowa.edu.pl","contact:website":"http:\/\/www.spborowa.szkolnastrona.pl","ref:regon":"001151362","ref:vatin":"PL7162462131","operator":"Gmina Pu\u0142awy","operator:type":"government","amenity":"school"}},{"id":115392,"type":"Feature","geometry":{"type":"Point","coordinates":[21.84205,51.53659]},"properties":{"ref:rspo":115392,"official_name":"Publiczny Punkt Przedszkolny Mali Odkrywcy w Borowej","name":"Publiczny Punkt Przedszkolny Mali Odkrywcy w Borowej","addr:country":"PL","addr:postcode":"24-100","addr:place":"Borowa","addr:housenumber":"9A","addr:teryt:sym_ul":389890,"contact:phone":"+48 883690909","contact:email":"edyta.cytrynska@wp.pl","ref:regon":"061506195","ref:vatin":"PL8212241221","operator":"Edyta Cytry\u0144ska","operator:type":"private","amenity":"kindergarten"}}]}