{
    "type": "FeatureCollection",
    "features": [
        {
            "id": 77455,
            "type": "Feature",
            "geometry": {
                "type": "Point",
                "coordinates": [
                    22.1291699,
                    51.28637
                ]
            },
            "properties": {
                "ref:rspo": 77455,
                "official_name": "Specjalny O\u015brodek Szkolno-Wychowawczy im.\u015bw.franciszka Z Asy\u017cu w K\u0119ble",
                "name": "Specjalny O\u015brodek Szkolno-Wychowawczy im.\u015bw.franciszka Z Asy\u017cu w K\u0119ble",
                "addr:country": "PL",
                "addr:postcode": "24-160",
                "addr:place": "K\u0119b\u0142o",
                "addr:housenumber": "7",
                "addr:teryt:sym_ul": 393034,
                "contact:phone": "+48 818825011",
                "contact:email": "soswwkeble@gmail.com",
                "contact:website": "http:\/\/www.soswkeblo.pl",
                "ref:regon": "060661344",
                "ref:vatin": "PL7162793572",
                "operator": "Powiat Pu\u0142awski",
                "operator:type": "government",
                "amenity": "school",
                "note": "Children RSPO: 92208;92523;263615"
            }
        },
        {
            "id": 92208,
            "type": "Feature",
            "geometry": {
                "type": "Point",
                "coordinates": [
                    22.1291699,
                    51.286339999999996
                ]
            },
            "properties": {
                "ref:rspo": 92208,
                "official_name": "Szko\u0142a Specjalna Przysposabiaj\u0105ca Do Pracy Wchodz\u0105ca w Sk\u0142ad Specjalnego O\u015brodka Szkolno-Wychowawczego im.\u015bw.franciszka Z Asy\u017cu w Keble",
                "name": "Szko\u0142a Specjalna Przysposabiaj\u0105ca Do Pracy Wchodz\u0105ca w Sk\u0142ad Specjalnego O\u015brodka Szkolno-Wychowawczego im.\u015bw.franciszka Z Asy\u017cu w Keble",
                "addr:country": "PL",
                "addr:postcode": "24-160",
                "addr:place": "K\u0119b\u0142o",
                "addr:housenumber": "7",
                "addr:teryt:sym_ul": 393034,
                "contact:phone": "+48 818825011",
                "contact:email": "soswwkeble@gmail.com",
                "contact:website": "http:\/\/www.soswkeblo.pl",
                "ref:regon": "060661315",
                "operator": "Powiat Pu\u0142awski",
                "operator:type": "government",
                "amenity": "school",
                "note": "Parent RSPO: 77455"
            }
        },
        {
            "id": 92523,
            "type": "Feature",
            "geometry": {
                "type": "Point",
                "coordinates": [
                    22.1291699,
                    51.28631
                ]
            },
            "properties": {
                "isced:level": "3",
                "ref:rspo": 92523,
                "official_name": "Bran\u017cowa Szko\u0142a I Stopnia Specjalna w K\u0119ble",
                "name": "Bran\u017cowa Szko\u0142a I Stopnia Specjalna w K\u0119ble",
                "addr:country": "PL",
                "addr:postcode": "24-160",
                "addr:place": "K\u0119b\u0142o",
                "addr:housenumber": "7",
                "addr:teryt:sym_ul": 393034,
                "contact:phone": "+48 818825011",
                "contact:email": "soswwkeble@gmail.com",
                "contact:website": "http:\/\/www.soswkeblo.pl",
                "ref:regon": "060661338",
                "operator": "Powiat Pu\u0142awski",
                "operator:type": "government",
                "amenity": "school",
                "note": "Parent RSPO: 77455"
            }
        },
        {
            "id": 263615,
            "type": "Feature",
            "geometry": {
                "type": "Point",
                "coordinates": [
                    22.1291699,
                    51.28628
                ]
            },
            "properties": {
                "ref:rspo": 263615,
                "official_name": "Przedszkole Specjalne w K\u0119ble",
                "name": "Przedszkole Specjalne w K\u0119ble",
                "addr:country": "PL",
                "addr:postcode": "24-160",
                "addr:place": "K\u0119b\u0142o",
                "addr:housenumber": "7",
                "addr:teryt:sym_ul": 393034,
                "contact:phone": "+48 818825011",
                "contact:email": "soswwkeble@gmail.com",
                "contact:website": "http:\/\/www.soswkeblo.pl",
                "ref:regon": "368208445",
                "operator": "Powiat Pu\u0142awski",
                "operator:type": "government",
                "amenity": "kindergarten",
                "note": "Parent RSPO: 77455"
            }
        },
        {
            "id": 131314,
            "type": "Feature",
            "geometry": {
                "type": "Point",
                "coordinates": [
                    22.14464,
                    51.2962
                ]
            },
            "properties": {
                "ref:rspo": 131314,
                "official_name": "Zesp\u00f3\u0142 Szkolno-Przedszkolny w W\u0105wolnicy",
                "name": "Zesp\u00f3\u0142 Szkolno-Przedszkolny w W\u0105wolnicy",
                "addr:country": "PL",
                "addr:postcode": "24-160",
                "addr:city": "W\u0105wolnica",
                "addr:street": "ul. Zamkowa",
                "addr:housenumber": "4",
                "addr:teryt:simc": 25547,
                "addr:teryt:sym_ul": 393117,
                "contact:phone": "+48 818825069",
                "contact:email": "zsp@wawolnica.pl",
                "contact:website": "http:\/\/zspwawolnica.szkolnastrona.pl\/",
                "ref:regon": "365115097",
                "operator": "Gmina W\u0105wolnica",
                "operator:type": "government",
                "landuse": "education",
                "fixme": "amenity=school, amenity=college albo landuse=education w zale\u017cno\u015bci od tego, jakie plac\u00f3wki wchodz\u0105 w sk\u0142ad zespo\u0142u. Sprawd\u017a, kiedy stosowa\u0107 amenity=* a kiedy landuse=education.",
                "note": "Children RSPO: 55490;55494"
            }
        },
        {
            "id": 55490,
            "type": "Feature",
            "geometry": {
                "type": "Point",
                "coordinates": [
                    22.14464,
                    51.29617
                ]
            },
            "properties": {
                "ref:rspo": 55490,
                "official_name": "Przedszkole w W\u0105wolnicy",
                "name": "Przedszkole w W\u0105wolnicy",
                "addr:country": "PL",
                "addr:postcode": "24-160",
                "addr:city": "W\u0105wolnica",
                "addr:street": "ul. Zamkowa",
                "addr:housenumber": "4",
                "addr:teryt:simc": 25547,
                "addr:teryt:sym_ul": 393117,
                "contact:phone": "+48 818825430",
                "contact:email": "zsp@wawolnica.pl",
                "contact:website": "http:\/\/zspwawolnica.szkolnastrona.pl\/",
                "ref:regon": "060709909",
                "operator": "Gmina W\u0105wolnica",
                "operator:type": "government",
                "amenity": "kindergarten",
                "note": "Parent RSPO: 131314"
            }
        },
        {
            "id": 55494,
            "type": "Feature",
            "geometry": {
                "type": "Point",
                "coordinates": [
                    22.14464,
                    51.29614
                ]
            },
            "properties": {
                "isced:level": "1;2",
                "ref:rspo": 55494,
                "official_name": "Szko\u0142a Podstawowa im. Kardyna\u0142a Stefana Wyszy\u0144skiego w W\u0105wolnicy",
                "name": "Szko\u0142a Podstawowa",
                "addr:country": "PL",
                "addr:postcode": "24-160",
                "addr:city": "W\u0105wolnica",
                "addr:street": "ul. Zamkowa",
                "addr:housenumber": "4",
                "addr:teryt:simc": 25547,
                "addr:teryt:sym_ul": 393117,
                "contact:phone": "+48 818825069",
                "contact:email": "zsp@wawolnica.pl",
                "contact:website": "http:\/\/zspwawolnica.szkolnastrona.pl\/",
                "ref:regon": "000557470",
                "operator": "Gmina W\u0105wolnica",
                "operator:type": "government",
                "amenity": "school",
                "note": "Parent RSPO: 131314"
            }
        },
        {
            "id": 55495,
            "type": "Feature",
            "geometry": {
                "type": "Point",
                "coordinates": [
                    22.10983,
                    51.33485
                ]
            },
            "properties": {
                "isced:level": "1;2",
                "ref:rspo": 55495,
                "official_name": "Szko\u0142a Podstawowa im. Stefana \u017beromskiego w Karmanowicach",
                "name": "Szko\u0142a Podstawowa",
                "addr:country": "PL",
                "addr:postcode": "24-160",
                "addr:place": "Karmanowice",
                "addr:housenumber": "85",
                "addr:teryt:sym_ul": 393028,
                "contact:phone": "+48 818825325",
                "contact:email": "spkarmanowice@wp.pl",
                "ref:regon": "001151994",
                "operator": "Gmina W\u0105wolnica",
                "operator:type": "government",
                "amenity": "school"
            }
        }
    ]
}