{
    "type": "FeatureCollection",
    "features": [
        {
            "id": 87567,
            "type": "Feature",
            "geometry": {
                "type": "Point",
                "coordinates": [
                    22.27643,
                    51.27955
                ]
            },
            "properties": {
                "isced:level": "1;2",
                "ref:rspo": 87567,
                "official_name": "Szko\u0142a Podstawowa im. Boles\u0142awa Prusa w Sadurkach",
                "name": "Szko\u0142a Podstawowa",
                "addr:country": "PL",
                "addr:postcode": "24-150",
                "addr:place": "Sadurki",
                "addr:housenumber": "106",
                "addr:teryt:sym_ul": 386703,
                "contact:phone": "+48 815017716",
                "contact:email": "spsadurki@naleczow.pl",
                "ref:regon": "001152479",
                "ref:vatin": "PL7162150638",
                "operator": "Gmina Na\u0142\u0119cz\u00f3w",
                "operator:type": "government",
                "amenity": "school"
            }
        },
        {
            "id": 17163,
            "type": "Feature",
            "geometry": {
                "type": "Point",
                "coordinates": [
                    22.22163,
                    51.28235
                ]
            },
            "properties": {
                "ref:rspo": 17163,
                "official_name": "Zesp\u00f3\u0142 Szk\u00f3\u0142 Nr 2 w Na\u0142\u0119czowie",
                "name": "Zesp\u00f3\u0142 Szk\u00f3\u0142 Nr 2 w Na\u0142\u0119czowie",
                "addr:country": "PL",
                "addr:postcode": "24-140",
                "addr:city": "Na\u0142\u0119cz\u00f3w",
                "addr:street": "ul. Boles\u0142awa Prusa",
                "addr:housenumber": "13",
                "addr:teryt:simc": 17577,
                "addr:teryt:sym_ul": 956454,
                "contact:phone": "+48 815014728",
                "contact:email": "sekretariat@zeromskilo.pl",
                "contact:website": "http:\/\/zs2.naleczow.pl",
                "ref:regon": "060664012",
                "ref:vatin": "PL7162794028",
                "operator": "Powiat Pu\u0142awski",
                "operator:type": "government",
                "landuse": "education",
                "fixme": "amenity=school, amenity=college albo landuse=education w zale\u017cno\u015bci od tego, jakie plac\u00f3wki wchodz\u0105 w sk\u0142ad zespo\u0142u. Sprawd\u017a, kiedy stosowa\u0107 amenity=* a kiedy landuse=education.",
                "note": "Children RSPO: 24998;87576;87577;110403"
            }
        },
        {
            "id": 24998,
            "type": "Feature",
            "geometry": {
                "type": "Point",
                "coordinates": [
                    22.22163,
                    51.28232
                ]
            },
            "properties": {
                "isced:level": "3",
                "ref:rspo": 24998,
                "official_name": "Liceum Og\u00f3lnokszta\u0142c\u0105ce im.stefana \u017beromskiego w Na\u0142\u0119czowie",
                "name": "Liceum Og\u00f3lnokszta\u0142c\u0105ce im.stefana \u017beromskiego w Na\u0142\u0119czowie",
                "addr:country": "PL",
                "addr:postcode": "24-140",
                "addr:city": "Na\u0142\u0119cz\u00f3w",
                "addr:street": "ul. Boles\u0142awa Prusa",
                "addr:housenumber": "13",
                "addr:teryt:simc": 17577,
                "addr:teryt:sym_ul": 956454,
                "contact:phone": "+48 815014728",
                "contact:email": "sekretariat@zeromskilo.pl",
                "contact:website": "http:\/\/zs2.naleczow.pl",
                "ref:regon": "060663981",
                "operator": "Powiat Pu\u0142awski",
                "operator:type": "government",
                "amenity": "school",
                "note": "Parent RSPO: 17163"
            }
        },
        {
            "id": 87576,
            "type": "Feature",
            "geometry": {
                "type": "Point",
                "coordinates": [
                    22.2201999,
                    51.2825599
                ]
            },
            "properties": {
                "isced:level": "3",
                "ref:rspo": 87576,
                "official_name": "Technikum Nr.1 im. Zygmunta Chmielewskiego w Na\u0142\u0119czowie Zesp\u00f3\u0142 Szk\u00f3\u0142 Nr 2 w Na\u0142\u0119czowie",
                "name": "Technikum Nr.1",
                "addr:country": "PL",
                "addr:postcode": "24-150",
                "addr:city": "Na\u0142\u0119cz\u00f3w",
                "addr:street": "ul. Boles\u0142awa Prusa",
                "addr:housenumber": "11",
                "addr:teryt:simc": 17577,
                "addr:teryt:sym_ul": 956454,
                "contact:phone": "+48 815014728",
                "contact:email": "sekretariat@zeromskilo.pl",
                "contact:website": "http:\/\/zs2.naleczow.pl",
                "ref:regon": "432515712",
                "ref:vatin": "PL7161667629",
                "operator": "Powiat Pu\u0142awski",
                "operator:type": "government",
                "amenity": "school",
                "note": "Parent RSPO: 17163"
            }
        },
        {
            "id": 87577,
            "type": "Feature",
            "geometry": {
                "type": "Point",
                "coordinates": [
                    22.2201999,
                    51.2825299
                ]
            },
            "properties": {
                "isced:level": "3",
                "ref:rspo": 87577,
                "official_name": "Bran\u017cowa Szko\u0142a I Stopnia w Na\u0142\u0119czowie",
                "name": "Bran\u017cowa Szko\u0142a I Stopnia w Na\u0142\u0119czowie",
                "addr:country": "PL",
                "addr:postcode": "24-150",
                "addr:city": "Na\u0142\u0119cz\u00f3w",
                "addr:street": "ul. Boles\u0142awa Prusa",
                "addr:housenumber": "11",
                "addr:teryt:simc": 17577,
                "addr:teryt:sym_ul": 956454,
                "contact:phone": "+48 815014728",
                "contact:email": "sekretariat@zeromskilo.pl",
                "contact:website": "http:\/\/zs2.naleczow.pl",
                "ref:regon": "060520394",
                "ref:vatin": "PL7161667629",
                "operator": "Powiat Pu\u0142awski",
                "operator:type": "government",
                "amenity": "school",
                "note": "Parent RSPO: 17163"
            }
        },
        {
            "id": 110403,
            "type": "Feature",
            "geometry": {
                "type": "Point",
                "coordinates": [
                    22.2201999,
                    51.282499900000005
                ]
            },
            "properties": {
                "isced:level": "3",
                "ref:rspo": 110403,
                "official_name": "Liceum Og\u00f3lnokszta\u0142c\u0105ce dla Doros\u0142ych w Na\u0142\u0119czowie",
                "name": "Liceum Og\u00f3lnokszta\u0142c\u0105ce dla Doros\u0142ych w Na\u0142\u0119czowie",
                "addr:country": "PL",
                "addr:postcode": "24-150",
                "addr:city": "Na\u0142\u0119cz\u00f3w",
                "addr:street": "ul. Boles\u0142awa Prusa",
                "addr:housenumber": "11",
                "addr:teryt:simc": 17577,
                "addr:teryt:sym_ul": 956454,
                "contact:phone": "+48 815014728",
                "contact:email": "sekretariat@zeromskilo.pl",
                "contact:website": "http:\/\/zs2.naleczow.pl",
                "ref:regon": "061527085",
                "ref:vatin": "PL7161667629",
                "operator": "Powiat Pu\u0142awski",
                "operator:type": "government",
                "amenity": "school",
                "note": "Parent RSPO: 17163"
            }
        },
        {
            "id": 87570,
            "type": "Feature",
            "geometry": {
                "type": "Point",
                "coordinates": [
                    22.2221,
                    51.28335
                ]
            },
            "properties": {
                "ref:rspo": 87570,
                "official_name": "Przedszkole im. Adama \u017beromskiego w Na\u0142eczowie",
                "name": "Przedszkole",
                "addr:country": "PL",
                "addr:postcode": "24-150",
                "addr:city": "Na\u0142\u0119cz\u00f3w",
                "addr:street": "ul. Ewy Szelburg-Zarembiny",
                "addr:housenumber": "1",
                "addr:teryt:simc": 21896,
                "addr:teryt:sym_ul": 956454,
                "contact:phone": "+48 815014027",
                "contact:email": "przedszkole@naleczow.pl",
                "ref:regon": "060706963",
                "ref:vatin": "PL7162799528",
                "operator": "Gmina Na\u0142\u0119cz\u00f3w",
                "operator:type": "government",
                "amenity": "kindergarten"
            }
        },
        {
            "id": 75562,
            "type": "Feature",
            "geometry": {
                "type": "Point",
                "coordinates": [
                    22.22234,
                    51.28532
                ]
            },
            "properties": {
                "isced:level": "3",
                "ref:rspo": 75562,
                "official_name": "Pa\u0144stwowe Liceum Sztuk Plastycznych im. J\u00f3zefa Che\u0142mo\u0144skiego w Na\u0142\u0119czowie",
                "name": "Pa\u0144stwowe Liceum Sztuk Plastycznych",
                "addr:country": "PL",
                "addr:postcode": "24-140",
                "addr:city": "Na\u0142\u0119cz\u00f3w",
                "addr:street": "ul. Lipowa",
                "addr:housenumber": "30",
                "addr:teryt:simc": 11139,
                "addr:teryt:sym_ul": 956454,
                "contact:phone": "+48 815014554",
                "contact:email": "sekretariat@lpnaleczow.com",
                "contact:website": "http:\/\/lpnaleczow.com",
                "ref:regon": "000282599",
                "operator": "Ministerstwo Kultury I Dziedzictwa Narodowego",
                "operator:type": "public",
                "amenity": "school"
            }
        },
        {
            "id": 274701,
            "type": "Feature",
            "geometry": {
                "type": "Point",
                "coordinates": [
                    22.20396,
                    51.28616
                ]
            },
            "properties": {
                "ref:rspo": 274701,
                "official_name": "O\u015brodek Doskonalenia Nauczycieli Instytutu Edukacji Logopedycznej",
                "name": "O\u015brodek Doskonalenia Nauczycieli Instytutu Edukacji Logopedycznej",
                "addr:country": "PL",
                "addr:postcode": "24-150",
                "addr:city": "Na\u0142\u0119cz\u00f3w",
                "addr:street": "ul. Wiejska",
                "addr:housenumber": "25",
                "addr:teryt:simc": 24048,
                "addr:teryt:sym_ul": 956454,
                "contact:phone": "+48 575905286",
                "contact:email": "odn@instytutodn.pl",
                "contact:website": "http:\/\/www.instytutodn.pl",
                "ref:regon": "386260383",
                "ref:vatin": "PL7162601302",
                "operator": "Instytut Edukacji Logopedycznej Sylwia Zasada",
                "operator:type": "consortium",
                "amenity": "training"
            }
        },
        {
            "id": 87564,
            "type": "Feature",
            "geometry": {
                "type": "Point",
                "coordinates": [
                    22.20604,
                    51.29172
                ]
            },
            "properties": {
                "isced:level": "1;2",
                "ref:rspo": 87564,
                "official_name": "Szko\u0142a Podstawowa im. Stefana \u017beromskiego w Na\u0142\u0119czowie",
                "name": "Szko\u0142a Podstawowa",
                "addr:country": "PL",
                "addr:postcode": "24-150",
                "addr:city": "Na\u0142\u0119cz\u00f3w",
                "addr:street": "ul. Sp\u00f3\u0142dzielcza",
                "addr:housenumber": "17",
                "addr:teryt:simc": 20696,
                "addr:teryt:sym_ul": 956454,
                "contact:phone": "+48 815014130",
                "contact:email": "spnaleczow@naleczow.pl",
                "contact:website": "http:\/\/sp.naleczow.pl",
                "ref:regon": "000559279",
                "ref:vatin": "PL7162150650",
                "operator": "Gmina Na\u0142\u0119cz\u00f3w",
                "operator:type": "government",
                "amenity": "school"
            }
        },
        {
            "id": 106427,
            "type": "Feature",
            "geometry": {
                "type": "Point",
                "coordinates": [
                    22.20604,
                    51.291689999999996
                ]
            },
            "properties": {
                "ref:rspo": 106427,
                "official_name": "Prywatna Szko\u0142a Muzyczna I St. im. Ignacego Jana Paderewskiego w Na\u0142\u0119czowie",
                "name": "Prywatna Szko\u0142a Muzyczna I St.",
                "addr:country": "PL",
                "addr:postcode": "24-150",
                "addr:city": "Na\u0142\u0119cz\u00f3w",
                "addr:street": "ul. Sp\u00f3\u0142dzielcza",
                "addr:housenumber": "17",
                "addr:teryt:simc": 20696,
                "addr:teryt:sym_ul": 956454,
                "contact:phone": "+48 815015111",
                "contact:email": "psmnaleczow@gmail.com",
                "contact:website": "http:\/\/psmn.pl",
                "ref:regon": "061508372",
                "operator": "Anna Derna\u0142owicz",
                "operator:type": "private",
                "amenity": "music_school"
            }
        },
        {
            "id": 119252,
            "type": "Feature",
            "geometry": {
                "type": "Point",
                "coordinates": [
                    22.2166,
                    51.29569
                ]
            },
            "properties": {
                "ref:rspo": 119252,
                "official_name": "Niepubliczne Przedszkole \"Kolorowe Kredki\"",
                "name": "Niepubliczne Przedszkole \"Kolorowe Kredki\"",
                "addr:country": "PL",
                "addr:postcode": "24-150",
                "addr:city": "Na\u0142\u0119cz\u00f3w",
                "addr:street": "ul. Kombatant\u00f3w",
                "addr:housenumber": "1",
                "addr:teryt:simc": 9043,
                "addr:teryt:sym_ul": 956454,
                "contact:phone": "+48 733120120",
                "contact:email": "agnieszka@rozpedowscy.pl",
                "contact:website": "http:\/\/www.kolorowekredki.org.pl",
                "ref:regon": "061596264",
                "ref:vatin": "PL7162712007",
                "operator": "Agnieszka Rozp\u0119dowska",
                "operator:type": "private",
                "amenity": "kindergarten"
            }
        },
        {
            "id": 87568,
            "type": "Feature",
            "geometry": {
                "type": "Point",
                "coordinates": [
                    22.18528,
                    51.31384
                ]
            },
            "properties": {
                "isced:level": "1;2",
                "ref:rspo": 87568,
                "official_name": "Szko\u0142a Podstawowa im. Ewy Szelburg-Zarembiny w Drzewcach",
                "name": "Szko\u0142a Podstawowa",
                "addr:country": "PL",
                "addr:postcode": "24-150",
                "addr:place": "Drzewce-Kolonia",
                "addr:housenumber": "82a",
                "addr:teryt:sym_ul": 386666,
                "contact:phone": "+48 815037007",
                "contact:email": "spdrzewce@naleczow.pl",
                "contact:website": "http:\/\/www.naleczow.pl\/spdrzewce\/",
                "ref:regon": "001152462",
                "ref:vatin": "PL7162150621",
                "operator": "Gmina Na\u0142\u0119cz\u00f3w",
                "operator:type": "government",
                "amenity": "school"
            }
        },
        {
            "id": 87565,
            "type": "Feature",
            "geometry": {
                "type": "Point",
                "coordinates": [
                    22.22423,
                    51.32059
                ]
            },
            "properties": {
                "isced:level": "1;2",
                "ref:rspo": 87565,
                "official_name": "Szko\u0142a Podstawowa im. Adama Mickiewicza w Piotrowicach",
                "name": "Szko\u0142a Podstawowa",
                "addr:country": "PL",
                "addr:postcode": "24-150",
                "addr:place": "Piotrowice",
                "addr:housenumber": "107",
                "addr:teryt:sym_ul": 386695,
                "contact:phone": "+48 815037004",
                "contact:email": "sppiotrowice@naleczow.pl",
                "ref:regon": "001152440",
                "ref:vatin": "PL7162150644",
                "operator": "Gmina Na\u0142\u0119cz\u00f3w",
                "operator:type": "government",
                "amenity": "school"
            }
        }
    ]
}