{
    "type": "FeatureCollection",
    "features": [
        {
            "id": 123419,
            "type": "Feature",
            "geometry": {
                "type": "Point",
                "coordinates": [
                    21.29639,
                    50.15163
                ]
            },
            "properties": {
                "ref:rspo": 123419,
                "official_name": "Zesp\u00f3\u0142 Szkolno-Przedszkolny w D\u0105biu",
                "name": "Zesp\u00f3\u0142 Szkolno-Przedszkolny w D\u0105biu",
                "addr:postcode": "39-311",
                "addr:place": "D\u0105bie",
                "addr:housenumber": "100",
                "addr:teryt:simc": 828087,
                "phone": "+48 146828368",
                "email": "szkopoda@poczta.onet.pl",
                "ref:regon": "181126960",
                "operator": "Gmina Radomy\u015bl Wielki",
                "operator:type": "government",
                "landuse": "education",
                "fixme": "amenity=school, amenity=college albo landuse=education w zale\u017cno\u015bci od tego, jakie plac\u00f3wki wchodz\u0105 w sk\u0142ad zespo\u0142u. Sprawd\u017a, kiedy stosowa\u0107 amenity=* a kiedy landuse=education.",
                "note": "Children RSPO: 84580;118989"
            }
        },
        {
            "id": 84580,
            "type": "Feature",
            "geometry": {
                "type": "Point",
                "coordinates": [
                    21.29639,
                    50.151599999999995
                ]
            },
            "properties": {
                "isced:level": "1;2",
                "ref:rspo": 84580,
                "official_name": "Szko\u0142a Podstawowa w D\u0105biu",
                "name": "Szko\u0142a Podstawowa w D\u0105biu",
                "addr:postcode": "39-310",
                "addr:place": "D\u0105bie",
                "addr:housenumber": "100",
                "addr:teryt:simc": 828087,
                "phone": "+48 146828368",
                "email": "szkopoda@poczta.onet.pl",
                "ref:regon": "001201700",
                "ref:vatin": "PL8171799876",
                "operator": "Gmina Radomy\u015bl Wielki",
                "operator:type": "government",
                "amenity": "school",
                "note": "Parent RSPO: 123419"
            }
        },
        {
            "id": 118989,
            "type": "Feature",
            "geometry": {
                "type": "Point",
                "coordinates": [
                    21.29639,
                    50.15157
                ]
            },
            "properties": {
                "ref:rspo": 118989,
                "official_name": "Samorz\u0105dowe Publiczne Przedszkole w D\u0105biu",
                "name": "Samorz\u0105dowe Publiczne Przedszkole w D\u0105biu",
                "addr:postcode": "39-311",
                "addr:place": "D\u0105bie",
                "addr:housenumber": "100",
                "addr:teryt:simc": 828087,
                "phone": "+48 146828368",
                "email": "szkopoda@poczta.onet.pl",
                "ref:regon": "181012190",
                "operator": "Gmina Radomy\u015bl Wielki",
                "operator:type": "government",
                "amenity": "kindergarten",
                "note": "Parent RSPO: 123419"
            }
        },
        {
            "id": 131221,
            "type": "Feature",
            "geometry": {
                "type": "Point",
                "coordinates": [
                    21.1921,
                    50.15452
                ]
            },
            "properties": {
                "ref:rspo": 131221,
                "official_name": "Zesp\u00f3\u0142 Szkolno-Przedszkolny w Janowcu",
                "name": "Zesp\u00f3\u0142 Szkolno-Przedszkolny w Janowcu",
                "addr:postcode": "39-312",
                "addr:place": "Janowiec",
                "addr:housenumber": "10",
                "addr:teryt:simc": 828348,
                "phone": "+48 146836349",
                "email": "janowiecszkola@interia.pl",
                "ref:regon": "365037724",
                "operator": "Gmina Radomy\u015bl Wielki",
                "operator:type": "government",
                "landuse": "education",
                "fixme": "amenity=school, amenity=college albo landuse=education w zale\u017cno\u015bci od tego, jakie plac\u00f3wki wchodz\u0105 w sk\u0142ad zespo\u0142u. Sprawd\u017a, kiedy stosowa\u0107 amenity=* a kiedy landuse=education.",
                "note": "Children RSPO: 66314;131237"
            }
        },
        {
            "id": 66314,
            "type": "Feature",
            "geometry": {
                "type": "Point",
                "coordinates": [
                    21.1921,
                    50.154489999999996
                ]
            },
            "properties": {
                "isced:level": "1;2",
                "ref:rspo": 66314,
                "official_name": "Szko\u0142a Podstawowa w Janowcu",
                "name": "Szko\u0142a Podstawowa w Janowcu",
                "addr:postcode": "39-310",
                "addr:place": "Janowiec",
                "addr:housenumber": "10",
                "addr:teryt:simc": 828348,
                "phone": "+48 146836349",
                "email": "janowiecszkola@interia.pl",
                "ref:regon": "001201730",
                "ref:vatin": "PL8171799899",
                "operator": "Gmina Radomy\u015bl Wielki",
                "operator:type": "government",
                "amenity": "school",
                "note": "Parent RSPO: 131221"
            }
        },
        {
            "id": 131237,
            "type": "Feature",
            "geometry": {
                "type": "Point",
                "coordinates": [
                    21.1921,
                    50.15446
                ]
            },
            "properties": {
                "ref:rspo": 131237,
                "official_name": "Samorz\u0105dowe Publiczne Przedszkole w Janowcu",
                "name": "Samorz\u0105dowe Publiczne Przedszkole w Janowcu",
                "addr:postcode": "39-312",
                "addr:place": "Janowiec",
                "addr:housenumber": "10",
                "addr:teryt:simc": 828348,
                "phone": "+48 146836349",
                "email": "janowiecszkola@interia.pl",
                "ref:regon": "365052451",
                "operator": "Gmina Radomy\u015bl Wielki",
                "operator:type": "government",
                "amenity": "kindergarten",
                "note": "Parent RSPO: 131221"
            }
        },
        {
            "id": 123432,
            "type": "Feature",
            "geometry": {
                "type": "Point",
                "coordinates": [
                    21.23285,
                    50.15481
                ]
            },
            "properties": {
                "ref:rspo": 123432,
                "official_name": "Zesp\u00f3\u0142 Szkolno-Przedszkolny w \u017bar\u00f3wce",
                "name": "Zesp\u00f3\u0142 Szkolno-Przedszkolny w \u017bar\u00f3wce",
                "addr:postcode": "39-312",
                "addr:place": "\u017bar\u00f3wka",
                "addr:housenumber": "64",
                "addr:teryt:simc": 828704,
                "phone": "+48 146833823",
                "email": "szkozar@gmail.com",
                "ref:regon": "181126982",
                "operator": "Gmina Radomy\u015bl Wielki",
                "operator:type": "government",
                "landuse": "education",
                "fixme": "amenity=school, amenity=college albo landuse=education w zale\u017cno\u015bci od tego, jakie plac\u00f3wki wchodz\u0105 w sk\u0142ad zespo\u0142u. Sprawd\u017a, kiedy stosowa\u0107 amenity=* a kiedy landuse=education.",
                "note": "Children RSPO: 84589;118985"
            }
        },
        {
            "id": 84589,
            "type": "Feature",
            "geometry": {
                "type": "Point",
                "coordinates": [
                    21.23285,
                    50.154779999999995
                ]
            },
            "properties": {
                "isced:level": "1;2",
                "ref:rspo": 84589,
                "official_name": "Szko\u0142a Podstawowa im.k.k.baczy\u0144skiego",
                "name": "Szko\u0142a Podstawowa im.k.k.baczy\u0144skiego",
                "addr:postcode": "39-312",
                "addr:place": "\u017bar\u00f3wka",
                "addr:housenumber": "64",
                "addr:teryt:simc": 828704,
                "phone": "+48 146833823",
                "email": "szkozar@gmail.com",
                "ref:regon": "001201775",
                "ref:vatin": "PL8171799936",
                "operator": "Gmina Radomy\u015bl Wielki",
                "operator:type": "government",
                "amenity": "school",
                "note": "Parent RSPO: 123432"
            }
        },
        {
            "id": 118985,
            "type": "Feature",
            "geometry": {
                "type": "Point",
                "coordinates": [
                    21.23285,
                    50.15475
                ]
            },
            "properties": {
                "ref:rspo": 118985,
                "official_name": "Samorz\u0105dowe Publiczne Przedszkole w \u017bar\u00f3wce",
                "name": "Samorz\u0105dowe Publiczne Przedszkole w \u017bar\u00f3wce",
                "addr:postcode": "39-312",
                "addr:place": "\u017bar\u00f3wka",
                "addr:housenumber": "64",
                "addr:teryt:simc": 828704,
                "phone": "+48 146833823",
                "email": "szkozar@gmail.com",
                "ref:regon": "181012149",
                "operator": "Gmina Radomy\u015bl Wielki",
                "operator:type": "government",
                "amenity": "kindergarten",
                "note": "Parent RSPO: 123432"
            }
        },
        {
            "id": 59693,
            "type": "Feature",
            "geometry": {
                "type": "Point",
                "coordinates": [
                    21.33559,
                    50.16192
                ]
            },
            "properties": {
                "isced:level": "1;2",
                "ref:rspo": 59693,
                "official_name": "Szko\u0142a Podstawowa w D\u0105br\u00f3wce Wis\u0142ockiej",
                "name": "Szko\u0142a Podstawowa w D\u0105br\u00f3wce Wis\u0142ockiej",
                "addr:postcode": "39-310",
                "addr:place": "D\u0105br\u00f3wka Wis\u0142ocka",
                "addr:housenumber": "115",
                "addr:teryt:simc": 828124,
                "phone": "+48 146836636",
                "email": "spdabrowkaw@op.pl",
                "ref:regon": "001201692",
                "ref:vatin": "PL8171799847",
                "operator": "Gmina Radomy\u015bl Wielki",
                "operator:type": "government",
                "amenity": "school"
            }
        },
        {
            "id": 60951,
            "type": "Feature",
            "geometry": {
                "type": "Point",
                "coordinates": [
                    21.26701,
                    50.16751
                ]
            },
            "properties": {
                "isced:level": "1;2",
                "ref:rspo": 60951,
                "official_name": "Szko\u0142a Podstawowa w Zdziarcu",
                "name": "Szko\u0142a Podstawowa w Zdziarcu",
                "addr:postcode": "39-310",
                "addr:place": "Zdziarzec",
                "addr:housenumber": "116",
                "addr:teryt:simc": 828638,
                "phone": "+48 146824779",
                "email": "spzdziarzec@wp.pl",
                "website": "http:\/\/spzdziarzec.edu.pl",
                "ref:regon": "001201769",
                "ref:vatin": "PL8171799942",
                "operator": "Gmina Radomy\u015bl Wielki",
                "operator:type": "government",
                "amenity": "school"
            }
        },
        {
            "id": 84584,
            "type": "Feature",
            "geometry": {
                "type": "Point",
                "coordinates": [
                    21.2652,
                    50.19427
                ]
            },
            "properties": {
                "ref:rspo": 84584,
                "official_name": "Przedszkole Niepubliczne w Radomy\u015blu Wielkim",
                "name": "Przedszkole Niepubliczne w Radomy\u015blu Wielkim",
                "addr:postcode": "39-310",
                "addr:city": "Radomy\u015bl Wielki",
                "addr:street": "Krasi\u0144skiego",
                "addr:housenumber": "1",
                "addr:teryt:simc": 982411,
                "addr:teryt:sym_ul": 9841,
                "phone": "+48 146820705",
                "email": "przedszkole.radomyslwielki@interia.pl",
                "ref:regon": "180912550",
                "ref:vatin": "PL8171950474",
                "operator": "Stowarzyszenie \"Nasza Gmina\"",
                "operator:type": "ngo",
                "amenity": "kindergarten"
            }
        },
        {
            "id": 123384,
            "type": "Feature",
            "geometry": {
                "type": "Point",
                "coordinates": [
                    21.20612,
                    50.19442
                ]
            },
            "properties": {
                "ref:rspo": 123384,
                "official_name": "Zesp\u00f3\u0142 Szkolno-Przedszkolny w Dulczy Wielkiej",
                "name": "Zesp\u00f3\u0142 Szkolno-Przedszkolny w Dulczy Wielkiej",
                "addr:postcode": "39-312",
                "addr:city": "Dulcza Wielka",
                "addr:street": "Ksi\u0119dza Kazimierza Kalinowskiego",
                "addr:housenumber": "212",
                "addr:door": "1",
                "addr:teryt:simc": 828236,
                "addr:teryt:sym_ul": 37599,
                "phone": "+48 146819848",
                "email": "spdulczawielka@op.pl",
                "ref:regon": "181126539",
                "operator": "Gmina Radomy\u015bl Wielki",
                "operator:type": "government",
                "landuse": "education",
                "fixme": "amenity=school, amenity=college albo landuse=education w zale\u017cno\u015bci od tego, jakie plac\u00f3wki wchodz\u0105 w sk\u0142ad zespo\u0142u. Sprawd\u017a, kiedy stosowa\u0107 amenity=* a kiedy landuse=education.",
                "note": "Children RSPO: 59814;118984"
            }
        },
        {
            "id": 59814,
            "type": "Feature",
            "geometry": {
                "type": "Point",
                "coordinates": [
                    21.20612,
                    50.19439
                ]
            },
            "properties": {
                "isced:level": "1;2",
                "ref:rspo": 59814,
                "official_name": "Szko\u0142a Podstawowa w Dulczy Wielkiej",
                "name": "Szko\u0142a Podstawowa w Dulczy Wielkiej",
                "addr:postcode": "39-310",
                "addr:city": "Dulcza Wielka",
                "addr:street": "Ksi\u0119dza Kazimierza Kalinowskiego",
                "addr:housenumber": "212",
                "addr:door": "1",
                "addr:teryt:simc": 828236,
                "addr:teryt:sym_ul": 37599,
                "phone": "+48 146819848",
                "email": "spdulczawielka@op.pl",
                "website": "http:\/\/zspdulczawielka.edupage.org",
                "ref:regon": "001201723",
                "ref:vatin": "PL8171799882",
                "operator": "Gmina Radomy\u015bl Wielki",
                "operator:type": "government",
                "amenity": "school",
                "note": "Parent RSPO: 123384"
            }
        },
        {
            "id": 118984,
            "type": "Feature",
            "geometry": {
                "type": "Point",
                "coordinates": [
                    21.20612,
                    50.19436
                ]
            },
            "properties": {
                "ref:rspo": 118984,
                "official_name": "Samorz\u0105dowe Publiczne Przedszkole w Dulczy Wielkiej",
                "name": "Samorz\u0105dowe Publiczne Przedszkole w Dulczy Wielkiej",
                "addr:postcode": "39-312",
                "addr:city": "Dulcza Wielka",
                "addr:street": "Ksi\u0119dza Kazimierza Kalinowskiego",
                "addr:housenumber": "212",
                "addr:door": "1",
                "addr:teryt:simc": 828236,
                "addr:teryt:sym_ul": 37599,
                "phone": "+48 146819848",
                "email": "spdulczawielka@op.pl",
                "ref:regon": "181012132",
                "operator": "Gmina Radomy\u015bl Wielki",
                "operator:type": "government",
                "amenity": "kindergarten",
                "note": "Parent RSPO: 123384"
            }
        },
        {
            "id": 122847,
            "type": "Feature",
            "geometry": {
                "type": "Point",
                "coordinates": [
                    21.29281,
                    50.19466
                ]
            },
            "properties": {
                "ref:rspo": 122847,
                "official_name": "Ewelina Kwater Niepubliczne Przedszkole \"Akademia Ma\u0142ych Odkrywc\u00f3w\"",
                "name": "Ewelina Kwater Niepubliczne Przedszkole \"Akademia Ma\u0142ych Odkrywc\u00f3w\"",
                "addr:postcode": "39-310",
                "addr:city": "Radomy\u015bl Wielki",
                "addr:street": "Armii Krajowej",
                "addr:housenumber": "62B",
                "addr:teryt:simc": 982411,
                "addr:teryt:sym_ul": 432,
                "phone": "+48 660477996",
                "email": "bpasieczynska@gmail.com",
                "ref:regon": "181099268",
                "ref:vatin": "PL8172169930",
                "operator": "Ewelina Kwater",
                "operator:type": "private",
                "amenity": "kindergarten"
            }
        },
        {
            "id": 277571,
            "type": "Feature",
            "geometry": {
                "type": "Point",
                "coordinates": [
                    21.2777299,
                    50.1950999
                ]
            },
            "properties": {
                "ref:rspo": 277571,
                "official_name": "Szko\u0142a Muzyczna I Stopnia w Radomy\u015blu Wielkim",
                "name": "Szko\u0142a Muzyczna I Stopnia w Radomy\u015blu Wielkim",
                "addr:postcode": "39-310",
                "addr:city": "Radomy\u015bl Wielki",
                "addr:street": "Ogrodowa",
                "addr:housenumber": "1",
                "addr:teryt:simc": 982411,
                "addr:teryt:sym_ul": 14834,
                "email": "kontakt@smradomyslwielki.pl",
                "website": "http:\/\/www.smradomyslwielki.pl",
                "ref:regon": "389135879",
                "operator": "Gmina Radomy\u015bl Wielki",
                "operator:type": "government",
                "amenity": "music_school"
            }
        },
        {
            "id": 133650,
            "type": "Feature",
            "geometry": {
                "type": "Point",
                "coordinates": [
                    21.27694,
                    50.19712
                ]
            },
            "properties": {
                "ref:rspo": 133650,
                "official_name": "Zesp\u00f3\u0142 Szk\u00f3\u0142 w Radomy\u015blu Wielkim",
                "name": "Zesp\u00f3\u0142 Szk\u00f3\u0142 w Radomy\u015blu Wielkim",
                "addr:postcode": "39-310",
                "addr:city": "Radomy\u015bl Wielki",
                "addr:street": "Tadeusza Ko\u015bciuszki",
                "addr:housenumber": "2",
                "addr:teryt:simc": 982411,
                "addr:teryt:sym_ul": 9572,
                "phone": "+48 146819683",
                "email": "sekretariat@zsradomysl.pl",
                "website": "http:\/\/www.zsradomysl.pl\/",
                "ref:regon": "367515889",
                "operator": "Stowarzyszenie \"Szko\u0142a Dla Wszystkich\"",
                "operator:type": "ngo",
                "landuse": "education",
                "fixme": "amenity=school, amenity=college albo landuse=education w zale\u017cno\u015bci od tego, jakie plac\u00f3wki wchodz\u0105 w sk\u0142ad zespo\u0142u. Sprawd\u017a, kiedy stosowa\u0107 amenity=* a kiedy landuse=education.",
                "note": "Children RSPO: 133664;133665;133666;133667"
            }
        },
        {
            "id": 133664,
            "type": "Feature",
            "geometry": {
                "type": "Point",
                "coordinates": [
                    21.27694,
                    50.197089999999996
                ]
            },
            "properties": {
                "isced:level": "3",
                "ref:rspo": 133664,
                "official_name": "Liceum Og\u00f3lnokszta\u0142c\u0105ce w Radomy\u015blu Wielkim",
                "name": "Liceum Og\u00f3lnokszta\u0142c\u0105ce w Radomy\u015blu Wielkim",
                "addr:postcode": "39-310",
                "addr:city": "Radomy\u015bl Wielki",
                "addr:street": "Tadeusza Ko\u015bciuszki",
                "addr:housenumber": "2",
                "addr:teryt:simc": 982411,
                "addr:teryt:sym_ul": 9572,
                "phone": "+48 146819683",
                "email": "sekretariat@zsradomysl.pl",
                "ref:regon": "367519522",
                "operator": "Stowarzyszenie \"Szko\u0142a Dla Wszystkich\"",
                "operator:type": "ngo",
                "amenity": "school",
                "note": "Parent RSPO: 133650"
            }
        },
        {
            "id": 133665,
            "type": "Feature",
            "geometry": {
                "type": "Point",
                "coordinates": [
                    21.27694,
                    50.19706
                ]
            },
            "properties": {
                "isced:level": "3",
                "ref:rspo": 133665,
                "official_name": "Technikum w Radomy\u015blu Wielkim",
                "name": "Technikum w Radomy\u015blu Wielkim",
                "addr:postcode": "39-310",
                "addr:city": "Radomy\u015bl Wielki",
                "addr:street": "Tadeusza Ko\u015bciuszki",
                "addr:housenumber": "2",
                "addr:teryt:simc": 982411,
                "addr:teryt:sym_ul": 9572,
                "phone": "+48 146819683",
                "email": "sekretariat@zsradomysl.pl",
                "ref:regon": "367519516",
                "operator": "Stowarzyszenie \"Szko\u0142a Dla Wszystkich\"",
                "operator:type": "ngo",
                "amenity": "school",
                "note": "Parent RSPO: 133650"
            }
        },
        {
            "id": 133666,
            "type": "Feature",
            "geometry": {
                "type": "Point",
                "coordinates": [
                    21.27694,
                    50.19703
                ]
            },
            "properties": {
                "isced:level": "3",
                "ref:rspo": 133666,
                "official_name": "Liceum Og\u00f3lnokszta\u0142c\u0105ce dla Doros\u0142ych",
                "name": "Liceum Og\u00f3lnokszta\u0142c\u0105ce dla Doros\u0142ych",
                "addr:postcode": "39-310",
                "addr:city": "Radomy\u015bl Wielki",
                "addr:street": "Tadeusza Ko\u015bciuszki",
                "addr:housenumber": "2",
                "addr:teryt:simc": 982411,
                "addr:teryt:sym_ul": 9572,
                "phone": "+48 146819683",
                "email": "sekretariat@zsradomysl.pl",
                "ref:regon": "367519500",
                "operator": "Stowarzyszenie \"Szko\u0142a Dla Wszystkich\"",
                "operator:type": "ngo",
                "amenity": "school",
                "note": "Parent RSPO: 133650"
            }
        },
        {
            "id": 133667,
            "type": "Feature",
            "geometry": {
                "type": "Point",
                "coordinates": [
                    21.27694,
                    50.196999999999996
                ]
            },
            "properties": {
                "isced:level": "3",
                "ref:rspo": 133667,
                "official_name": "Bran\u017cowa Szko\u0142a I Stopnia w Radomy\u015blu Wielkim",
                "name": "Bran\u017cowa Szko\u0142a I Stopnia w Radomy\u015blu Wielkim",
                "addr:postcode": "39-310",
                "addr:city": "Radomy\u015bl Wielki",
                "addr:street": "Tadeusza Ko\u015bciuszki",
                "addr:housenumber": "2",
                "addr:teryt:simc": 982411,
                "addr:teryt:sym_ul": 9572,
                "phone": "+48 146819683",
                "email": "sekretariat@zsradomysl.pl",
                "ref:regon": "367519491",
                "operator": "Stowarzyszenie \"Szko\u0142a Dla Wszystkich\"",
                "operator:type": "ngo",
                "amenity": "school",
                "note": "Parent RSPO: 133650"
            }
        },
        {
            "id": 58797,
            "type": "Feature",
            "geometry": {
                "type": "Point",
                "coordinates": [
                    21.27007,
                    50.19726
                ]
            },
            "properties": {
                "isced:level": "1;2",
                "ref:rspo": 58797,
                "official_name": "Szko\u0142a Podstawowa im. \u015aw. Jana Paw\u0142a II w Radomy\u015blu Wielkim",
                "name": "Szko\u0142a Podstawowa",
                "addr:postcode": "39-310",
                "addr:city": "Radomy\u015bl Wielki",
                "addr:street": "Klonowa",
                "addr:housenumber": "2",
                "addr:teryt:simc": 982411,
                "addr:teryt:sym_ul": 8574,
                "phone": "+48 146819698",
                "email": "szkolakk@op.pl",
                "website": "http:\/\/www.spradomyslwielki.pl",
                "ref:regon": "000567971",
                "ref:vatin": "PL8171799971",
                "operator": "Gmina Radomy\u015bl Wielki",
                "operator:type": "government",
                "amenity": "school"
            }
        },
        {
            "id": 84675,
            "type": "Feature",
            "geometry": {
                "type": "Point",
                "coordinates": [
                    21.27946,
                    50.19911
                ]
            },
            "properties": {
                "ref:rspo": 84675,
                "official_name": "Przedszkole Niepubliczne Ochronka \u015aw. J\u00f3zefa",
                "name": "Przedszkole Niepubliczne Ochronka \u015aw. J\u00f3zefa",
                "addr:postcode": "39-310",
                "addr:city": "Radomy\u015bl Wielki",
                "addr:street": "Firleja",
                "addr:housenumber": "28",
                "addr:teryt:simc": 982411,
                "addr:teryt:sym_ul": 5031,
                "phone": "+48 146819682",
                "email": "radomyslw_siostrys@wp.pl",
                "ref:regon": "180912589",
                "ref:vatin": "PL8171849568",
                "operator": "Zgromadzenie Si\u00f3str S\u0142u\u017cebniczek Naj\u015bwi\u0119tszej Maryi Panny Niepokalanie Pocz\u0119tej Prowincja Tarnowska",
                "operator:type": "religious",
                "amenity": "kindergarten"
            }
        },
        {
            "id": 123391,
            "type": "Feature",
            "geometry": {
                "type": "Point",
                "coordinates": [
                    21.34767,
                    50.20114
                ]
            },
            "properties": {
                "ref:rspo": 123391,
                "official_name": "Zesp\u00f3\u0142 Szkolno-Przedszkolny w Rudzie",
                "name": "Zesp\u00f3\u0142 Szkolno-Przedszkolny w Rudzie",
                "addr:postcode": "39-315",
                "addr:place": "Ruda",
                "addr:housenumber": "124",
                "addr:teryt:simc": 828510,
                "phone": "+48 146834268",
                "email": "szkola.ruda@interia.pl",
                "ref:regon": "181126551",
                "operator": "Gmina Radomy\u015bl Wielki",
                "operator:type": "government",
                "landuse": "education",
                "fixme": "amenity=school, amenity=college albo landuse=education w zale\u017cno\u015bci od tego, jakie plac\u00f3wki wchodz\u0105 w sk\u0142ad zespo\u0142u. Sprawd\u017a, kiedy stosowa\u0107 amenity=* a kiedy landuse=education.",
                "note": "Children RSPO: 84764;118987"
            }
        },
        {
            "id": 84764,
            "type": "Feature",
            "geometry": {
                "type": "Point",
                "coordinates": [
                    21.34767,
                    50.20111
                ]
            },
            "properties": {
                "isced:level": "1;2",
                "ref:rspo": 84764,
                "official_name": "Szko\u0142a Podstawowa im. J\u00f3zefa Gorlacha w Rudzie",
                "name": "Szko\u0142a Podstawowa",
                "addr:postcode": "39-310",
                "addr:place": "Ruda",
                "addr:housenumber": "124",
                "addr:teryt:simc": 828510,
                "phone": "+48 146834268",
                "email": "szkola.ruda@interia.pl",
                "ref:regon": "001201752",
                "ref:vatin": "PL8171799913",
                "operator": "Gmina Radomy\u015bl Wielki",
                "operator:type": "government",
                "amenity": "school",
                "note": "Parent RSPO: 123391"
            }
        },
        {
            "id": 118987,
            "type": "Feature",
            "geometry": {
                "type": "Point",
                "coordinates": [
                    21.34767,
                    50.201080000000005
                ]
            },
            "properties": {
                "ref:rspo": 118987,
                "official_name": "Samorz\u0105dowe Publiczne Przedszkole w Rudzie",
                "name": "Samorz\u0105dowe Publiczne Przedszkole w Rudzie",
                "addr:postcode": "39-315",
                "addr:place": "Ruda",
                "addr:housenumber": "124",
                "addr:teryt:simc": 828510,
                "phone": "+48 146834268",
                "email": "szkola.ruda@interia.pl",
                "ref:regon": "181012184",
                "operator": "Gmina Radomy\u015bl Wielki",
                "operator:type": "government",
                "amenity": "kindergarten",
                "note": "Parent RSPO: 123391"
            }
        },
        {
            "id": 68249,
            "type": "Feature",
            "geometry": {
                "type": "Point",
                "coordinates": [
                    21.2882399,
                    50.21019
                ]
            },
            "properties": {
                "ref:rspo": 68249,
                "official_name": "Niepubliczne Przedszkole \"Ku Przysz\u0142o\u015bci\" w Partyni Z Oddzia\u0142ami Zamiejscowymi w Dulczy Wielkiej, Rudzie I Zg\u00f3rsku",
                "name": "Niepubliczne Przedszkole \"Ku Przysz\u0142o\u015bci\" w Partyni Z Oddzia\u0142ami Zamiejscowymi w Dulczy Wielkiej, Rudzie I Zg\u00f3rsku",
                "addr:postcode": "39-310",
                "addr:place": "Partynia",
                "addr:housenumber": "71A",
                "addr:teryt:simc": 828414,
                "phone": "+48 146810953",
                "email": "stowarzyszenie@kuprzyszlosci.eu",
                "website": "http:\/\/kuprzyszlosci.eu\/",
                "ref:regon": "180906749",
                "ref:vatin": "PL8172106823",
                "operator": "Stowarzyszenie \"Ku Przysz\u0142o\u015bci\" W Partyni",
                "operator:type": "ngo",
                "amenity": "kindergarten"
            }
        },
        {
            "id": 123430,
            "type": "Feature",
            "geometry": {
                "type": "Point",
                "coordinates": [
                    21.2892699,
                    50.21062
                ]
            },
            "properties": {
                "ref:rspo": 123430,
                "official_name": "Zesp\u00f3\u0142 Szkolno-Przedszkolny w Partyni",
                "name": "Zesp\u00f3\u0142 Szkolno-Przedszkolny w Partyni",
                "addr:postcode": "39-310",
                "addr:place": "Partynia",
                "addr:housenumber": "66",
                "addr:teryt:simc": 828414,
                "phone": "+48 146832387",
                "email": "partynia@vp.pl",
                "ref:regon": "181126976",
                "operator": "Gmina Radomy\u015bl Wielki",
                "operator:type": "government",
                "landuse": "education",
                "fixme": "amenity=school, amenity=college albo landuse=education w zale\u017cno\u015bci od tego, jakie plac\u00f3wki wchodz\u0105 w sk\u0142ad zespo\u0142u. Sprawd\u017a, kiedy stosowa\u0107 amenity=* a kiedy landuse=education.",
                "note": "Children RSPO: 84582;118986"
            }
        },
        {
            "id": 84582,
            "type": "Feature",
            "geometry": {
                "type": "Point",
                "coordinates": [
                    21.2892699,
                    50.210589999999996
                ]
            },
            "properties": {
                "isced:level": "1;2",
                "ref:rspo": 84582,
                "official_name": "Szko\u0142a Podstawowa im.prymasa Stefana Wyszy\u0144skiego w Partyni",
                "name": "Szko\u0142a Podstawowa im.prymasa Stefana Wyszy\u0144skiego w Partyni",
                "addr:postcode": "39-310",
                "addr:place": "Partynia",
                "addr:housenumber": "66",
                "addr:teryt:simc": 828414,
                "phone": "+48 146832387",
                "email": "partynia@vp.pl",
                "website": "https:\/\/sppartynia.edupage.org\/",
                "ref:regon": "001277229",
                "ref:vatin": "PL8171799853",
                "operator": "Gmina Radomy\u015bl Wielki",
                "operator:type": "government",
                "amenity": "school",
                "note": "Parent RSPO: 123430"
            }
        },
        {
            "id": 118986,
            "type": "Feature",
            "geometry": {
                "type": "Point",
                "coordinates": [
                    21.2892699,
                    50.21056
                ]
            },
            "properties": {
                "ref:rspo": 118986,
                "official_name": "Samorz\u0105dowe Publiczne Przedszkole w Partyni",
                "name": "Samorz\u0105dowe Publiczne Przedszkole w Partyni",
                "addr:postcode": "39-310",
                "addr:place": "Partynia",
                "addr:housenumber": "66",
                "addr:teryt:simc": 828414,
                "phone": "+48 146832387",
                "email": "partynia@vp.pl",
                "ref:regon": "181012178",
                "operator": "Gmina Radomy\u015bl Wielki",
                "operator:type": "government",
                "amenity": "kindergarten",
                "note": "Parent RSPO: 123430"
            }
        },
        {
            "id": 84588,
            "type": "Feature",
            "geometry": {
                "type": "Point",
                "coordinates": [
                    21.22456,
                    50.21499
                ]
            },
            "properties": {
                "isced:level": "1;2",
                "ref:rspo": 84588,
                "official_name": "Niepubliczna Szko\u0142a Podstawowa w Dulczy Ma\u0142ej",
                "name": "Niepubliczna Szko\u0142a Podstawowa w Dulczy Ma\u0142ej",
                "addr:postcode": "39-310",
                "addr:place": "Dulcza Ma\u0142a",
                "addr:housenumber": "40",
                "addr:teryt:simc": 828153,
                "phone": "+48 146817421",
                "email": "spdulczam@interia.pl",
                "website": "http:\/\/www.nspdulczamala.pl",
                "ref:regon": "180912572",
                "ref:vatin": "PL8171950474",
                "operator": "Stowarzyszenie \"Nasza Gmina\"",
                "operator:type": "ngo",
                "amenity": "school"
            }
        },
        {
            "id": 48050,
            "type": "Feature",
            "geometry": {
                "type": "Point",
                "coordinates": [
                    21.26132,
                    50.22292
                ]
            },
            "properties": {
                "ref:rspo": 48050,
                "official_name": "O\u015brodek Rewalidacyjno-Wychowawczy",
                "name": "O\u015brodek Rewalidacyjno-Wychowawczy",
                "addr:postcode": "39-310",
                "addr:place": "Pie\u0144",
                "addr:housenumber": "41",
                "addr:teryt:simc": 828443,
                "phone": "+48 146817408",
                "email": "orwpien@o2.pl",
                "ref:regon": "180906761",
                "operator": "Stowarzyszenie \"Nasza Gmina\"",
                "operator:type": "ngo",
                "amenity": "school"
            }
        },
        {
            "id": 48051,
            "type": "Feature",
            "geometry": {
                "type": "Point",
                "coordinates": [
                    21.26024,
                    50.22383
                ]
            },
            "properties": {
                "ref:rspo": 48051,
                "official_name": "Niepubliczna Szko\u0142a Specjalna Przysposabiaj\u0105ca Do Pracy",
                "name": "Niepubliczna Szko\u0142a Specjalna Przysposabiaj\u0105ca Do Pracy",
                "addr:postcode": "39-310",
                "addr:place": "Pie\u0144",
                "addr:housenumber": "41A",
                "addr:teryt:simc": 828443,
                "phone": "+48 146817408",
                "email": "orwpien@o2.pl",
                "ref:regon": "180906778",
                "operator": "Stowarzyszenie \"Nasza Gmina\"",
                "operator:type": "ngo",
                "amenity": "school"
            }
        },
        {
            "id": 128027,
            "type": "Feature",
            "geometry": {
                "type": "Point",
                "coordinates": [
                    21.3131,
                    50.23728
                ]
            },
            "properties": {
                "ref:rspo": 128027,
                "official_name": "Zesp\u00f3\u0142 Szkolno-Przedszkolny w Podborzu",
                "name": "Zesp\u00f3\u0142 Szkolno-Przedszkolny w Podborzu",
                "addr:postcode": "39-308",
                "addr:place": "Podborze",
                "addr:housenumber": "101",
                "addr:teryt:simc": 828466,
                "phone": "+48 146819457",
                "email": "sp_podborze@op.pl",
                "ref:regon": "362027398",
                "operator": "Gmina Radomy\u015bl Wielki",
                "operator:type": "government",
                "landuse": "education",
                "fixme": "amenity=school, amenity=college albo landuse=education w zale\u017cno\u015bci od tego, jakie plac\u00f3wki wchodz\u0105 w sk\u0142ad zespo\u0142u. Sprawd\u017a, kiedy stosowa\u0107 amenity=* a kiedy landuse=education.",
                "note": "Children RSPO: 60245;128064"
            }
        },
        {
            "id": 60245,
            "type": "Feature",
            "geometry": {
                "type": "Point",
                "coordinates": [
                    21.3131,
                    50.237249999999996
                ]
            },
            "properties": {
                "isced:level": "1;2",
                "ref:rspo": 60245,
                "official_name": "Szko\u0142a Podstawowa w Podborzu",
                "name": "Szko\u0142a Podstawowa w Podborzu",
                "addr:postcode": "39-308",
                "addr:place": "Podborze",
                "addr:housenumber": "101",
                "addr:teryt:simc": 828466,
                "phone": "+48 146819457",
                "email": "sp_podborze@op.pl",
                "ref:regon": "001201746",
                "ref:vatin": "PL8171799907",
                "operator": "Gmina Radomy\u015bl Wielki",
                "operator:type": "government",
                "amenity": "school",
                "note": "Parent RSPO: 128027"
            }
        },
        {
            "id": 128064,
            "type": "Feature",
            "geometry": {
                "type": "Point",
                "coordinates": [
                    21.3131,
                    50.23722
                ]
            },
            "properties": {
                "ref:rspo": 128064,
                "official_name": "Samorz\u0105dowe Publiczne Przedszkole w Podborzu",
                "name": "Samorz\u0105dowe Publiczne Przedszkole w Podborzu",
                "addr:postcode": "39-308",
                "addr:place": "Podborze",
                "addr:housenumber": "101",
                "addr:teryt:simc": 828466,
                "phone": "+48 146819457",
                "email": "sp_podborze@op.pl",
                "ref:regon": "362055710",
                "operator": "Gmina Radomy\u015bl Wielki",
                "operator:type": "government",
                "amenity": "kindergarten",
                "note": "Parent RSPO: 128027"
            }
        }
    ]
}