{
    "type": "FeatureCollection",
    "features": [
        {
            "id": 52537,
            "type": "Feature",
            "geometry": {
                "type": "Point",
                "coordinates": [
                    21.38671,
                    50.18372
                ]
            },
            "properties": {
                "isced:level": "1;2",
                "ref:rspo": 52537,
                "official_name": "Szko\u0142a Podstawowa im. Ks. Tadeusza Wiatra w \u0141\u0105czkach Brzeskich",
                "name": "Szko\u0142a Podstawowa",
                "addr:postcode": "39-320",
                "addr:place": "\u0141\u0105czki Brzeskie",
                "addr:housenumber": "136",
                "addr:teryt:simc": 658685,
                "phone": "+48 175816261",
                "email": "sp_laczki_brzeskie@poczta.fm",
                "website": "http:\/\/www.splaczkibrzeskie.szkolnastrona.pl",
                "ref:regon": "001139438",
                "ref:vatin": "PL8171786572",
                "operator": "Gmina Przec\u0142aw",
                "operator:type": "government",
                "amenity": "school"
            }
        },
        {
            "id": 268003,
            "type": "Feature",
            "geometry": {
                "type": "Point",
                "coordinates": [
                    21.50948,
                    50.18524
                ]
            },
            "properties": {
                "ref:rspo": 268003,
                "official_name": "Zesp\u00f3\u0142 Szkolno - Przedszkolny w Tuszymie",
                "name": "Zesp\u00f3\u0142 Szkolno - Przedszkolny w Tuszymie",
                "addr:postcode": "39-321",
                "addr:place": "Tuszyma",
                "addr:housenumber": "482",
                "addr:teryt:simc": 658975,
                "phone": "+48 172276558",
                "email": "sptuszyma@wp.pl",
                "website": "http:\/\/www.sptuszyma.pl",
                "ref:regon": "380840317",
                "operator": "Gmina Przec\u0142aw",
                "operator:type": "government",
                "landuse": "education",
                "fixme": "amenity=school, amenity=college albo landuse=education w zale\u017cno\u015bci od tego, jakie plac\u00f3wki wchodz\u0105 w sk\u0142ad zespo\u0142u. Sprawd\u017a, kiedy stosowa\u0107 amenity=* a kiedy landuse=education.",
                "note": "Children RSPO: 84299;267869"
            }
        },
        {
            "id": 84299,
            "type": "Feature",
            "geometry": {
                "type": "Point",
                "coordinates": [
                    21.50948,
                    50.18521
                ]
            },
            "properties": {
                "isced:level": "1;2",
                "ref:rspo": 84299,
                "official_name": "Szko\u0142a Podstawowa im. Kardyna\u0142a Stefana Wyszy\u0144skiego w Tuszymie",
                "name": "Szko\u0142a Podstawowa",
                "addr:postcode": "39-321",
                "addr:place": "Tuszyma",
                "addr:housenumber": "482",
                "addr:teryt:simc": 658975,
                "phone": "+48 172276558",
                "email": "sptuszyma@wp.pl",
                "website": "http:\/\/www.sptuszyma.pl",
                "ref:regon": "001139450",
                "ref:vatin": "PL8171786520",
                "operator": "Gmina Przec\u0142aw",
                "operator:type": "government",
                "amenity": "school",
                "note": "Parent RSPO: 268003"
            }
        },
        {
            "id": 267869,
            "type": "Feature",
            "geometry": {
                "type": "Point",
                "coordinates": [
                    21.50948,
                    50.18518
                ]
            },
            "properties": {
                "ref:rspo": 267869,
                "official_name": "Przedszkole w Tuszymie",
                "name": "Przedszkole w Tuszymie",
                "addr:postcode": "39-321",
                "addr:place": "Tuszyma",
                "addr:housenumber": "482",
                "addr:teryt:simc": 658975,
                "phone": "+48 172276559",
                "email": "sptuszyma@wp.pl",
                "website": "http:\/\/www.sptuszyma.pl",
                "ref:regon": "380712803",
                "operator": "Gmina Przec\u0142aw",
                "operator:type": "government",
                "amenity": "kindergarten",
                "note": "Parent RSPO: 268003"
            }
        },
        {
            "id": 80843,
            "type": "Feature",
            "geometry": {
                "type": "Point",
                "coordinates": [
                    21.47265,
                    50.19475
                ]
            },
            "properties": {
                "isced:level": "1;2",
                "ref:rspo": 80843,
                "official_name": "Szko\u0142a Podstawowa im. Walerii - Szalay Groele w Przec\u0142awiu",
                "name": "Szko\u0142a Podstawowa",
                "addr:postcode": "39-320",
                "addr:city": "Przec\u0142aw",
                "addr:street": "Zielona",
                "addr:housenumber": "50",
                "addr:teryt:simc": 658828,
                "addr:teryt:sym_ul": 26081,
                "phone": "+48 175813114",
                "email": "spprzeclaw@op.pl",
                "website": "http:\/\/www.spprzeclaw.edupage.org",
                "ref:regon": "000567988",
                "ref:vatin": "PL8171786543",
                "operator": "Gmina Przec\u0142aw",
                "operator:type": "government",
                "amenity": "school"
            }
        },
        {
            "id": 80845,
            "type": "Feature",
            "geometry": {
                "type": "Point",
                "coordinates": [
                    21.47409,
                    50.19489
                ]
            },
            "properties": {
                "isced:level": "3",
                "ref:rspo": 80845,
                "official_name": "Liceum Og\u00f3lnokszta\u0142c\u0105ce w Przec\u0142awiu",
                "name": "Liceum Og\u00f3lnokszta\u0142c\u0105ce w Przec\u0142awiu",
                "addr:postcode": "39-320",
                "addr:city": "Przec\u0142aw",
                "addr:street": "Zielona",
                "addr:housenumber": "39",
                "addr:door": "A",
                "addr:teryt:simc": 658828,
                "addr:teryt:sym_ul": 26081,
                "phone": "+48 177747316",
                "email": "zspsekretariat@vp.pl",
                "website": "http:\/\/www.zsprzeclaw.nazwa.pl",
                "ref:regon": "831357871",
                "ref:vatin": "PL8172194371",
                "operator": "Gmina Przec\u0142aw",
                "operator:type": "government",
                "amenity": "school"
            }
        },
        {
            "id": 52540,
            "type": "Feature",
            "geometry": {
                "type": "Point",
                "coordinates": [
                    21.47486,
                    50.19745
                ]
            },
            "properties": {
                "ref:rspo": 52540,
                "official_name": "Samorz\u0105dowe Przedszkole w Przec\u0142awiu",
                "name": "Samorz\u0105dowe Przedszkole w Przec\u0142awiu",
                "addr:postcode": "39-320",
                "addr:city": "Przec\u0142aw",
                "addr:street": "Wenecka",
                "addr:housenumber": "41",
                "addr:teryt:simc": 658828,
                "addr:teryt:sym_ul": 23862,
                "phone": "+48 175813067",
                "email": "przedszkoleprzeclaw@interia.pl",
                "website": "http:\/\/www.pprzeclaw.edupage.org",
                "ref:regon": "001058409",
                "ref:vatin": "PL8171080398",
                "operator": "Gmina Przec\u0142aw",
                "operator:type": "government",
                "amenity": "kindergarten"
            }
        },
        {
            "id": 59876,
            "type": "Feature",
            "geometry": {
                "type": "Point",
                "coordinates": [
                    21.54149,
                    50.20506
                ]
            },
            "properties": {
                "isced:level": "1;2",
                "ref:rspo": 59876,
                "official_name": "Szko\u0142a Podstawowa im. Jana Paw\u0142a II w Dobryninie",
                "name": "Szko\u0142a Podstawowa",
                "addr:postcode": "39-322",
                "addr:place": "Dobrynin",
                "addr:housenumber": "217",
                "addr:teryt:simc": 658550,
                "phone": "+48 177748216",
                "email": "dobryninsp@onet.pl",
                "website": "http:\/\/www.spdobrynin.pl",
                "ref:regon": "690038212",
                "ref:vatin": "PL8171786566",
                "operator": "Gmina Przec\u0142aw",
                "operator:type": "government",
                "amenity": "school"
            }
        },
        {
            "id": 34353,
            "type": "Feature",
            "geometry": {
                "type": "Point",
                "coordinates": [
                    21.5128,
                    50.21355
                ]
            },
            "properties": {
                "ref:rspo": 34353,
                "official_name": "Zesp\u00f3\u0142 Szk\u00f3\u0142 Centrum Kszta\u0142cenia Rolniczego im. Prof. W\u0142adys\u0142awa Szafera w Rzemieniu",
                "name": "Zesp\u00f3\u0142 Szk\u00f3\u0142 Centrum Kszta\u0142cenia Rolniczego",
                "addr:postcode": "39-322",
                "addr:place": "Rzemie\u0144",
                "addr:housenumber": "243",
                "addr:teryt:simc": 658900,
                "phone": "+48 177748130",
                "email": "zsckr@rzemien.eu",
                "website": "http:\/\/www.zsckr.rzemien.eu",
                "ref:regon": "000098051",
                "ref:vatin": "PL8171203122",
                "operator": "Ministerstwo Rolnictwa I Rozwoju Wsi",
                "operator:type": "public",
                "landuse": "education",
                "fixme": "amenity=school, amenity=college albo landuse=education w zale\u017cno\u015bci od tego, jakie plac\u00f3wki wchodz\u0105 w sk\u0142ad zespo\u0142u. Sprawd\u017a, kiedy stosowa\u0107 amenity=* a kiedy landuse=education.",
                "note": "Children RSPO: 104330;104331;104332;104333"
            }
        },
        {
            "id": 104330,
            "type": "Feature",
            "geometry": {
                "type": "Point",
                "coordinates": [
                    21.5128,
                    50.213519999999995
                ]
            },
            "properties": {
                "isced:level": "3",
                "ref:rspo": 104330,
                "official_name": "Technikum w Rzemieniu",
                "name": "Technikum w Rzemieniu",
                "addr:postcode": "39-322",
                "addr:place": "Rzemie\u0144",
                "addr:housenumber": "243",
                "addr:teryt:simc": 658900,
                "phone": "+48 177748130",
                "email": "zs_rcku@poczta.onet.pl",
                "website": "http:\/\/www.zscku.rzemien.eu",
                "ref:regon": "831358103",
                "operator": "Ministerstwo Rolnictwa I Rozwoju Wsi",
                "operator:type": "public",
                "amenity": "school",
                "note": "Parent RSPO: 34353"
            }
        },
        {
            "id": 104331,
            "type": "Feature",
            "geometry": {
                "type": "Point",
                "coordinates": [
                    21.5128,
                    50.21349
                ]
            },
            "properties": {
                "isced:level": "3",
                "ref:rspo": 104331,
                "official_name": "Branzowa Szko\u0142a I Stopnia w Rzemieniu",
                "name": "Branzowa Szko\u0142a I Stopnia w Rzemieniu",
                "addr:postcode": "39-322",
                "addr:place": "Rzemie\u0144",
                "addr:housenumber": "243",
                "addr:teryt:simc": 658900,
                "phone": "+48 177748130",
                "email": "zs_rcku@poczta.onet.pl",
                "website": "http:\/\/www.zscku.rzemien.eu",
                "ref:regon": "830475195",
                "operator": "Ministerstwo Rolnictwa I Rozwoju Wsi",
                "operator:type": "public",
                "amenity": "school",
                "note": "Parent RSPO: 34353"
            }
        },
        {
            "id": 104332,
            "type": "Feature",
            "geometry": {
                "type": "Point",
                "coordinates": [
                    21.5128,
                    50.21346
                ]
            },
            "properties": {
                "isced:level": "4",
                "ref:rspo": 104332,
                "official_name": "Szko\u0142a Policealna w Rzemieniu",
                "name": "Szko\u0142a Policealna w Rzemieniu",
                "addr:postcode": "39-322",
                "addr:place": "Rzemie\u0144",
                "addr:housenumber": "243",
                "addr:teryt:simc": 658900,
                "phone": "+48 177748130",
                "email": "zs_rcku@poczta.onet.pl",
                "website": "http:\/\/zscku.rzemien.eu",
                "ref:regon": "180262186",
                "operator": "Ministerstwo Rolnictwa I Rozwoju Wsi",
                "operator:type": "public",
                "amenity": "college",
                "note": "Parent RSPO: 34353"
            }
        },
        {
            "id": 104333,
            "type": "Feature",
            "geometry": {
                "type": "Point",
                "coordinates": [
                    21.5128,
                    50.213429999999995
                ]
            },
            "properties": {
                "ref:rspo": 104333,
                "official_name": "Rolnicze Centrum Kszta\u0142cenia Ustawicznego w Rzemieniu",
                "name": "Rolnicze Centrum Kszta\u0142cenia Ustawicznego w Rzemieniu",
                "addr:postcode": "39-322",
                "addr:place": "Rzemie\u0144",
                "addr:housenumber": "243",
                "addr:teryt:simc": 658900,
                "phone": "+48 175811322",
                "email": "zs_rcku@poczta.onet.pl",
                "website": "http:\/\/www.zscku.rzemien.eu",
                "ref:regon": "180921803",
                "operator": "Ministerstwo Rolnictwa I Rozwoju Wsi",
                "operator:type": "public",
                "fixme": "w zale\u017cno\u015bci od przedmiotu dzia\u0142alno\u015bci (np. amenity=training + training=*, amenity=dancing_school, amenity=language_school, amenity=music_school)",
                "note": "Parent RSPO: 34353"
            }
        },
        {
            "id": 84300,
            "type": "Feature",
            "geometry": {
                "type": "Point",
                "coordinates": [
                    21.50939,
                    50.21596
                ]
            },
            "properties": {
                "ref:rspo": 84300,
                "official_name": "Samorz\u0105dowe Przedszkole w Rzemieniu",
                "name": "Samorz\u0105dowe Przedszkole w Rzemieniu",
                "addr:postcode": "39-322",
                "addr:place": "Rzemie\u0144",
                "addr:housenumber": "261",
                "addr:teryt:simc": 658900,
                "phone": "+48 175811390",
                "email": "kp_rzemien@op.pl",
                "website": "http:\/\/www.przeclaw.un.pl\/bip\/",
                "ref:regon": "690007217",
                "ref:vatin": "PL8171080381",
                "operator": "Gmina Przec\u0142aw",
                "operator:type": "government",
                "amenity": "kindergarten"
            }
        },
        {
            "id": 52536,
            "type": "Feature",
            "geometry": {
                "type": "Point",
                "coordinates": [
                    21.51379,
                    50.21694
                ]
            },
            "properties": {
                "isced:level": "1;2",
                "ref:rspo": 52536,
                "official_name": "Szko\u0142a Podstawowa im. Marii D\u0105browskiej w Rzemieniu",
                "name": "Szko\u0142a Podstawowa",
                "addr:postcode": "39-322",
                "addr:place": "Rzemie\u0144",
                "addr:housenumber": "257",
                "addr:teryt:simc": 658900,
                "phone": "+48 177748129",
                "email": "sp_rzemien@interia.pl",
                "website": "http:\/\/www.sprzemien.pl",
                "ref:regon": "001139444",
                "ref:vatin": "PL8171786537",
                "operator": "Gmina Przec\u0142aw",
                "operator:type": "government",
                "amenity": "school"
            }
        },
        {
            "id": 80844,
            "type": "Feature",
            "geometry": {
                "type": "Point",
                "coordinates": [
                    21.47573,
                    50.23283
                ]
            },
            "properties": {
                "isced:level": "1;2",
                "ref:rspo": 80844,
                "official_name": "Szko\u0142a Podstawowa im. Marii Konopnickiej w Kie\u0142kowie",
                "name": "Szko\u0142a Podstawowa",
                "addr:postcode": "39-320",
                "addr:place": "Kie\u0142k\u00f3w",
                "addr:housenumber": "57A",
                "addr:teryt:simc": 658610,
                "phone": "+48 175813123",
                "email": "sp_kielkow@poczta.onet.pl",
                "website": "http:\/\/www.spkielkow.edupage.org",
                "ref:regon": "001139421",
                "ref:vatin": "PL8171786514",
                "operator": "Gmina Przec\u0142aw",
                "operator:type": "government",
                "amenity": "school"
            }
        }
    ]
}