{
    "type": "FeatureCollection",
    "features": [
        {
            "id": 123781,
            "type": "Feature",
            "geometry": {
                "type": "Point",
                "coordinates": [
                    21.4111,
                    50.27326
                ]
            },
            "properties": {
                "ref:rspo": 123781,
                "official_name": "Zesp\u00f3\u0142 Szk\u00f3\u0142 w Podleszanach",
                "name": "Zesp\u00f3\u0142 Szk\u00f3\u0142 w Podleszanach",
                "addr:country": "PL",
                "addr:postcode": "39-300",
                "addr:place": "Podleszany",
                "addr:housenumber": "127",
                "addr:teryt:simc": 655735,
                "contact:phone": "+48 175812570",
                "contact:email": "sppodleszany@o2.pl",
                "ref:regon": "181136897",
                "operator": "Gmina Mielec",
                "operator:type": "government",
                "landuse": "education",
                "fixme": "amenity=school, amenity=college albo landuse=education w zale\u017cno\u015bci od tego, jakie plac\u00f3wki wchodz\u0105 w sk\u0142ad zespo\u0142u. Sprawd\u017a, kiedy stosowa\u0107 amenity=* a kiedy landuse=education.",
                "note": "Children RSPO: 15562;15568"
            }
        },
        {
            "id": 15562,
            "type": "Feature",
            "geometry": {
                "type": "Point",
                "coordinates": [
                    21.4111,
                    50.27323
                ]
            },
            "properties": {
                "isced:level": "1;2",
                "ref:rspo": 15562,
                "official_name": "Szko\u0142a Podstawowa w Podleszanach",
                "name": "Szko\u0142a Podstawowa w Podleszanach",
                "addr:country": "PL",
                "addr:postcode": "39-300",
                "addr:place": "Podleszany",
                "addr:housenumber": "127",
                "addr:teryt:simc": 655735,
                "contact:phone": "+48 175812570",
                "contact:email": "sppodleszany@o2.pl",
                "ref:regon": "001133565",
                "ref:vatin": "PL8171812430",
                "operator": "Gmina Mielec",
                "operator:type": "government",
                "amenity": "school",
                "note": "Parent RSPO: 123781"
            }
        },
        {
            "id": 15568,
            "type": "Feature",
            "geometry": {
                "type": "Point",
                "coordinates": [
                    21.4111,
                    50.2732
                ]
            },
            "properties": {
                "ref:rspo": 15568,
                "official_name": "Samorz\u0105dowe Przedszkole w Podleszanach",
                "name": "Samorz\u0105dowe Przedszkole w Podleszanach",
                "addr:country": "PL",
                "addr:postcode": "39-300",
                "addr:place": "Podleszany",
                "addr:housenumber": "127",
                "addr:teryt:simc": 655735,
                "contact:phone": "+48 175812570",
                "contact:email": "sppodleszany@o2.pl",
                "ref:regon": "690008398",
                "operator": "Gmina Mielec",
                "operator:type": "government",
                "amenity": "kindergarten",
                "note": "Parent RSPO: 123781"
            }
        },
        {
            "id": 4290,
            "type": "Feature",
            "geometry": {
                "type": "Point",
                "coordinates": [
                    21.388624191284,
                    50.29239654541
                ]
            },
            "properties": {
                "isced:level": "1;2",
                "ref:rspo": 4290,
                "official_name": "Spo\u0142eczna Szko\u0142a Podstawowa w Z\u0142otnikach",
                "name": "Spo\u0142eczna Szko\u0142a Podstawowa w Z\u0142otnikach",
                "addr:country": "PL",
                "addr:postcode": "39-300",
                "addr:place": "Z\u0142otniki",
                "addr:housenumber": "61",
                "addr:teryt:simc": 656090,
                "contact:phone": "+48 175863591",
                "contact:email": "spzlotniki@wp.pl",
                "ref:regon": "180878875",
                "operator": "Stowarzyszenie Rozwoju Regionalnego W Z\u0142otnikach",
                "operator:type": "ngo",
                "amenity": "school"
            }
        },
        {
            "id": 4292,
            "type": "Feature",
            "geometry": {
                "type": "Point",
                "coordinates": [
                    21.388624191284,
                    50.29236654541
                ]
            },
            "properties": {
                "ref:rspo": 4292,
                "official_name": "Spo\u0142eczne Przedszkole \"Promyczek\" w Z\u0142otnikach",
                "name": "Spo\u0142eczne Przedszkole \"Promyczek\" w Z\u0142otnikach",
                "addr:country": "PL",
                "addr:postcode": "39-300",
                "addr:place": "Z\u0142otniki",
                "addr:housenumber": "61",
                "addr:teryt:simc": 656090,
                "contact:phone": "+48 175863591",
                "contact:email": "spzlotniki@wp.pl",
                "ref:regon": "180878869",
                "operator": "Stowarzyszenie Rozwoju Regionalnego W Z\u0142otnikach",
                "operator:type": "ngo",
                "amenity": "kindergarten"
            }
        },
        {
            "id": 15592,
            "type": "Feature",
            "geometry": {
                "type": "Point",
                "coordinates": [
                    21.388624191284,
                    50.29233654541
                ]
            },
            "properties": {
                "ref:rspo": 15592,
                "official_name": "Zesp\u00f3\u0142 Szk\u00f3\u0142 w Trze\u015bni",
                "name": "Zesp\u00f3\u0142 Szk\u00f3\u0142 w Trze\u015bni",
                "addr:country": "PL",
                "addr:postcode": "39-331",
                "addr:place": "Trze\u015b\u0144",
                "addr:housenumber": "87",
                "addr:teryt:simc": 655920,
                "contact:phone": "+48 177742064",
                "contact:email": "zespolszkoltrzesn@gmail.com",
                "ref:regon": "180400719",
                "ref:vatin": "PL8172105120",
                "operator": "Gmina Mielec",
                "operator:type": "government",
                "landuse": "education",
                "fixme": "amenity=school, amenity=college albo landuse=education w zale\u017cno\u015bci od tego, jakie plac\u00f3wki wchodz\u0105 w sk\u0142ad zespo\u0142u. Sprawd\u017a, kiedy stosowa\u0107 amenity=* a kiedy landuse=education.",
                "note": "Children RSPO: 49628;49630"
            }
        },
        {
            "id": 15615,
            "type": "Feature",
            "geometry": {
                "type": "Point",
                "coordinates": [
                    21.388624191284,
                    50.29230654541
                ]
            },
            "properties": {
                "ref:rspo": 15615,
                "official_name": "Zesp\u00f3\u0142 Szk\u00f3\u0142 w Woli Mieleckiej im.j\u00f3zefa Maksymiliana Ossoli\u0144skiego",
                "name": "Zesp\u00f3\u0142 Szk\u00f3\u0142 w Woli Mieleckiej im.j\u00f3zefa Maksymiliana Ossoli\u0144skiego",
                "addr:country": "PL",
                "addr:postcode": "39-300",
                "addr:place": "Wola Mielecka",
                "addr:housenumber": "406",
                "addr:teryt:simc": 656048,
                "contact:phone": "+48 175280430",
                "contact:email": "zs.wolam@ug.mielec.pl",
                "contact:website": "http:\/\/www.zswolam.pl\/",
                "ref:regon": "830449594",
                "ref:vatin": "PL8171812499",
                "operator": "Gmina Mielec",
                "operator:type": "government",
                "landuse": "education",
                "fixme": "amenity=school, amenity=college albo landuse=education w zale\u017cno\u015bci od tego, jakie plac\u00f3wki wchodz\u0105 w sk\u0142ad zespo\u0142u. Sprawd\u017a, kiedy stosowa\u0107 amenity=* a kiedy landuse=education.",
                "note": "Children RSPO: 49632;49633"
            }
        },
        {
            "id": 270108,
            "type": "Feature",
            "geometry": {
                "type": "Point",
                "coordinates": [
                    21.388624191284,
                    50.29227654541
                ]
            },
            "properties": {
                "ref:rspo": 270108,
                "official_name": "Zesp\u00f3\u0142 Szkolno - Przedszkolny w Ksi\u0105\u017cnicach",
                "name": "Zesp\u00f3\u0142 Szkolno - Przedszkolny w Ksi\u0105\u017cnicach",
                "addr:country": "PL",
                "addr:postcode": "39-300",
                "addr:place": "Ksi\u0105\u017cnice",
                "addr:housenumber": "91",
                "addr:teryt:simc": 655698,
                "contact:phone": "+48 177731160",
                "contact:email": "sekretariat@ksiaznice.szkola.pl",
                "ref:regon": "382034046",
                "operator": "Gmina Mielec",
                "operator:type": "government",
                "landuse": "education",
                "fixme": "amenity=school, amenity=college albo landuse=education w zale\u017cno\u015bci od tego, jakie plac\u00f3wki wchodz\u0105 w sk\u0142ad zespo\u0142u. Sprawd\u017a, kiedy stosowa\u0107 amenity=* a kiedy landuse=education.",
                "note": "Children RSPO: 15556;270110"
            }
        },
        {
            "id": 275243,
            "type": "Feature",
            "geometry": {
                "type": "Point",
                "coordinates": [
                    21.388624191284,
                    50.29224654541
                ]
            },
            "properties": {
                "ref:rspo": 275243,
                "official_name": "Zesp\u00f3\u0142 Szkolno - Przedszkolny w Rydzowie",
                "name": "Zesp\u00f3\u0142 Szkolno - Przedszkolny w Rydzowie",
                "addr:country": "PL",
                "addr:postcode": "39-300",
                "addr:place": "Rydz\u00f3w",
                "addr:housenumber": "33",
                "addr:teryt:simc": 655787,
                "contact:phone": "+48 175812544",
                "contact:email": "szkolarydzow@wp.pl",
                "ref:regon": "386726315",
                "operator": "Gmina Mielec",
                "operator:type": "government",
                "landuse": "education",
                "fixme": "amenity=school, amenity=college albo landuse=education w zale\u017cno\u015bci od tego, jakie plac\u00f3wki wchodz\u0105 w sk\u0142ad zespo\u0142u. Sprawd\u017a, kiedy stosowa\u0107 amenity=* a kiedy landuse=education.",
                "note": "Children RSPO: 15574;275254"
            }
        },
        {
            "id": 49628,
            "type": "Feature",
            "geometry": {
                "type": "Point",
                "coordinates": [
                    21.388624191284,
                    50.29221654541
                ]
            },
            "properties": {
                "isced:level": "1;2",
                "ref:rspo": 49628,
                "official_name": "Szko\u0142a Podstawowa im. \u015aw. Jana Paw\u0142a II w Trze\u015bni",
                "name": "Szko\u0142a Podstawowa",
                "addr:country": "PL",
                "addr:postcode": "39-331",
                "addr:place": "Trze\u015b\u0144",
                "addr:housenumber": "87",
                "addr:teryt:simc": 655920,
                "contact:phone": "+48 177742064",
                "contact:email": "zespolszkoltrzesn@gmail.com",
                "ref:regon": "001136776",
                "operator": "Gmina Mielec",
                "operator:type": "government",
                "amenity": "school",
                "note": "Parent RSPO: 15592"
            }
        },
        {
            "id": 49630,
            "type": "Feature",
            "geometry": {
                "type": "Point",
                "coordinates": [
                    21.388624191284,
                    50.29218654541
                ]
            },
            "properties": {
                "ref:rspo": 49630,
                "official_name": "Publiczne Samorz\u0105dowe Przedszkole w Trze\u015bni",
                "name": "Publiczne Samorz\u0105dowe Przedszkole w Trze\u015bni",
                "addr:country": "PL",
                "addr:postcode": "39-331",
                "addr:place": "Trze\u015b\u0144",
                "addr:housenumber": "87",
                "addr:teryt:simc": 655920,
                "contact:phone": "+48 177742064",
                "contact:email": "sp.trzesn@ug.mielec.pl",
                "ref:regon": "180024699",
                "operator": "Gmina Mielec",
                "operator:type": "government",
                "amenity": "kindergarten",
                "note": "Parent RSPO: 15592"
            }
        },
        {
            "id": 49632,
            "type": "Feature",
            "geometry": {
                "type": "Point",
                "coordinates": [
                    21.388624191284,
                    50.29215654541
                ]
            },
            "properties": {
                "isced:level": "1;2",
                "ref:rspo": 49632,
                "official_name": "Szko\u0142a Podstawowa w Woli Mieleckiej im.j\u00f3zefa Maksymiliana Ossoli\u0144skiego",
                "name": "Szko\u0142a Podstawowa w Woli Mieleckiej im.j\u00f3zefa Maksymiliana Ossoli\u0144skiego",
                "addr:country": "PL",
                "addr:postcode": "39-300",
                "addr:place": "Wola Mielecka",
                "addr:housenumber": "406",
                "addr:teryt:simc": 656048,
                "contact:phone": "+48 175830430",
                "contact:email": "zs.wolam@ug.mielec.pl",
                "contact:website": "http:\/\/www.zswolam.pl",
                "ref:regon": "001136782",
                "operator": "Gmina Mielec",
                "operator:type": "government",
                "amenity": "school",
                "note": "Parent RSPO: 15615"
            }
        },
        {
            "id": 49633,
            "type": "Feature",
            "geometry": {
                "type": "Point",
                "coordinates": [
                    21.388624191284,
                    50.29212654541
                ]
            },
            "properties": {
                "ref:rspo": 49633,
                "official_name": "Publiczne Samorzadowe Przedszkole w Woli Mieleckiej",
                "name": "Publiczne Samorzadowe Przedszkole w Woli Mieleckiej",
                "addr:country": "PL",
                "addr:postcode": "39-300",
                "addr:place": "Wola Mielecka",
                "addr:housenumber": "406",
                "addr:teryt:simc": 656048,
                "contact:phone": "+48 175830430",
                "contact:email": "zs.wolam@ug.mielec.pl",
                "contact:website": "http:\/\/www.zswolam.pl",
                "ref:regon": "180618810",
                "operator": "Gmina Mielec",
                "operator:type": "government",
                "amenity": "kindergarten",
                "note": "Parent RSPO: 15615"
            }
        },
        {
            "id": 15556,
            "type": "Feature",
            "geometry": {
                "type": "Point",
                "coordinates": [
                    21.388624191284,
                    50.29209654541
                ]
            },
            "properties": {
                "isced:level": "1;2",
                "ref:rspo": 15556,
                "official_name": "Szko\u0142a Podstawowa w Ksi\u0105\u017cnicach",
                "name": "Szko\u0142a Podstawowa w Ksi\u0105\u017cnicach",
                "addr:country": "PL",
                "addr:postcode": "39-300",
                "addr:place": "Ksi\u0105\u017cnice",
                "addr:housenumber": "91",
                "addr:teryt:simc": 655698,
                "contact:phone": "+48 177731160",
                "contact:email": "sp.ksiaznice@ug.mielec.pl",
                "contact:website": "http:\/\/www.ksiaznice.szkola.pl",
                "ref:regon": "001133559",
                "ref:vatin": "PL8171812401",
                "operator": "Gmina Mielec",
                "operator:type": "government",
                "amenity": "school",
                "note": "Parent RSPO: 270108"
            }
        },
        {
            "id": 270110,
            "type": "Feature",
            "geometry": {
                "type": "Point",
                "coordinates": [
                    21.388624191284,
                    50.29206654541
                ]
            },
            "properties": {
                "ref:rspo": 270110,
                "official_name": "Przedszkole w Ksi\u0105\u017cnicach",
                "name": "Przedszkole w Ksi\u0105\u017cnicach",
                "addr:country": "PL",
                "addr:postcode": "39-300",
                "addr:place": "Ksi\u0105\u017cnice",
                "addr:housenumber": "91",
                "addr:teryt:simc": 655698,
                "contact:phone": "+48 177731160",
                "contact:email": "sekretariat@ksiaznice.szkola.pl",
                "ref:regon": "382034075",
                "operator": "Gmina Mielec",
                "operator:type": "government",
                "amenity": "kindergarten",
                "note": "Parent RSPO: 270108"
            }
        },
        {
            "id": 15574,
            "type": "Feature",
            "geometry": {
                "type": "Point",
                "coordinates": [
                    21.388624191284,
                    50.29203654541
                ]
            },
            "properties": {
                "isced:level": "1;2",
                "ref:rspo": 15574,
                "official_name": "Szko\u0142a Podstawowa w Rydzowie",
                "name": "Szko\u0142a Podstawowa w Rydzowie",
                "addr:country": "PL",
                "addr:postcode": "39-300",
                "addr:place": "Rydz\u00f3w",
                "addr:housenumber": "33",
                "addr:teryt:simc": 655787,
                "contact:phone": "+48 175812544",
                "contact:email": "szkolarydzow@wp.pl",
                "contact:website": "http:\/\/rydzow33.ayz.pl",
                "ref:regon": "001133571",
                "ref:vatin": "PL8171812424",
                "operator": "Gmina Mielec",
                "operator:type": "government",
                "amenity": "school",
                "note": "Parent RSPO: 275243"
            }
        },
        {
            "id": 275254,
            "type": "Feature",
            "geometry": {
                "type": "Point",
                "coordinates": [
                    21.388624191284,
                    50.29200654541
                ]
            },
            "properties": {
                "ref:rspo": 275254,
                "official_name": "Przedszkole w Rydzowie",
                "name": "Przedszkole w Rydzowie",
                "addr:country": "PL",
                "addr:postcode": "39-300",
                "addr:place": "Rydz\u00f3w",
                "addr:housenumber": "33",
                "addr:teryt:simc": 655787,
                "contact:phone": "+48 175812544",
                "contact:email": "szkolarydzow@wp.pl",
                "ref:regon": "386734326",
                "operator": "Gmina Mielec",
                "operator:type": "government",
                "amenity": "kindergarten",
                "note": "Parent RSPO: 275243"
            }
        },
        {
            "id": 268423,
            "type": "Feature",
            "geometry": {
                "type": "Point",
                "coordinates": [
                    21.39776,
                    50.31772
                ]
            },
            "properties": {
                "ref:rspo": 268423,
                "official_name": "Przedszkole w Rz\u0119dzianowicach",
                "name": "Przedszkole w Rz\u0119dzianowicach",
                "addr:country": "PL",
                "addr:postcode": "39-300",
                "addr:place": "Rz\u0119dzianowice",
                "addr:housenumber": "175A",
                "addr:teryt:simc": 655818,
                "contact:phone": "+48 175843685",
                "ref:regon": "381155078",
                "operator": "Gmina Mielec",
                "operator:type": "government",
                "amenity": "kindergarten",
                "note": "Parent RSPO: 268305"
            }
        },
        {
            "id": 268305,
            "type": "Feature",
            "geometry": {
                "type": "Point",
                "coordinates": [
                    21.3983,
                    50.31792
                ]
            },
            "properties": {
                "ref:rspo": 268305,
                "official_name": "Zesp\u00f3\u0142 Szkolno - Przedszkolny w Rz\u0119dzianowicach",
                "name": "Zesp\u00f3\u0142 Szkolno - Przedszkolny w Rz\u0119dzianowicach",
                "addr:country": "PL",
                "addr:postcode": "39-300",
                "addr:place": "Rz\u0119dzianowice",
                "addr:housenumber": "186",
                "addr:teryt:simc": 655818,
                "contact:phone": "+48 175843685",
                "contact:email": "sprzedzianowice@op.pl",
                "ref:regon": "381079992",
                "operator": "Gmina Mielec",
                "operator:type": "government",
                "landuse": "education",
                "fixme": "amenity=school, amenity=college albo landuse=education w zale\u017cno\u015bci od tego, jakie plac\u00f3wki wchodz\u0105 w sk\u0142ad zespo\u0142u. Sprawd\u017a, kiedy stosowa\u0107 amenity=* a kiedy landuse=education.",
                "note": "Children RSPO: 15651;268423"
            }
        },
        {
            "id": 15651,
            "type": "Feature",
            "geometry": {
                "type": "Point",
                "coordinates": [
                    21.3983,
                    50.31789
                ]
            },
            "properties": {
                "isced:level": "1;2",
                "ref:rspo": 15651,
                "official_name": "Szko\u0142a Podstawowa im. Marii Konopnickiej",
                "name": "Szko\u0142a Podstawowa",
                "addr:country": "PL",
                "addr:postcode": "39-300",
                "addr:place": "Rz\u0119dzianowice",
                "addr:housenumber": "186",
                "addr:teryt:simc": 655818,
                "contact:phone": "+48 175843685",
                "contact:email": "sprzedzianowice@op.pl",
                "ref:regon": "001133588",
                "ref:vatin": "PL8171812447",
                "operator": "Gmina Mielec",
                "operator:type": "government",
                "amenity": "school",
                "note": "Parent RSPO: 268305"
            }
        },
        {
            "id": 49626,
            "type": "Feature",
            "geometry": {
                "type": "Point",
                "coordinates": [
                    21.44176,
                    50.32905
                ]
            },
            "properties": {
                "ref:rspo": 49626,
                "official_name": "Przedszkole Samorz\u0105dowe w Chorzelowie",
                "name": "Przedszkole Samorz\u0105dowe w Chorzelowie",
                "addr:country": "PL",
                "addr:postcode": "39-331",
                "addr:place": "Chorzel\u00f3w",
                "addr:housenumber": "106",
                "addr:teryt:simc": 655563,
                "contact:phone": "+48 175841422",
                "contact:email": "zs_chorzelow@poczta.onet.pl",
                "ref:regon": "831201525",
                "operator": "Gmina Mielec",
                "operator:type": "government",
                "amenity": "kindergarten",
                "note": "Parent RSPO: 12732"
            }
        },
        {
            "id": 12732,
            "type": "Feature",
            "geometry": {
                "type": "Point",
                "coordinates": [
                    21.43798,
                    50.33131
                ]
            },
            "properties": {
                "ref:rspo": 12732,
                "official_name": "Zesp\u00f3\u0142 Szk\u00f3\u0142 w Chorzelowie",
                "name": "Zesp\u00f3\u0142 Szk\u00f3\u0142 w Chorzelowie",
                "addr:country": "PL",
                "addr:postcode": "39-331",
                "addr:place": "Chorzel\u00f3w",
                "addr:housenumber": "316",
                "addr:teryt:simc": 655563,
                "contact:phone": "+48 175841422",
                "contact:email": "zs_chorzelow@poczta.onet.pl",
                "ref:regon": "830449602",
                "ref:vatin": "PL8171812482",
                "operator": "Gmina Mielec",
                "operator:type": "government",
                "landuse": "education",
                "fixme": "amenity=school, amenity=college albo landuse=education w zale\u017cno\u015bci od tego, jakie plac\u00f3wki wchodz\u0105 w sk\u0142ad zespo\u0142u. Sprawd\u017a, kiedy stosowa\u0107 amenity=* a kiedy landuse=education.",
                "note": "Children RSPO: 49625;49626"
            }
        },
        {
            "id": 49625,
            "type": "Feature",
            "geometry": {
                "type": "Point",
                "coordinates": [
                    21.43798,
                    50.33128
                ]
            },
            "properties": {
                "isced:level": "1;2",
                "ref:rspo": 49625,
                "official_name": "Szko\u0142a Podstawowa im. Miko\u0142aja Kopernika w Chorzelowie",
                "name": "Szko\u0142a Podstawowa",
                "addr:country": "PL",
                "addr:postcode": "39-331",
                "addr:place": "Chorzel\u00f3w",
                "addr:housenumber": "316",
                "addr:teryt:simc": 655563,
                "contact:phone": "+48 175841422",
                "contact:email": "zs_chorzelow@poczta.onet.pl",
                "ref:regon": "001133536",
                "operator": "Gmina Mielec",
                "operator:type": "government",
                "amenity": "school",
                "note": "Parent RSPO: 12732"
            }
        },
        {
            "id": 270107,
            "type": "Feature",
            "geometry": {
                "type": "Point",
                "coordinates": [
                    21.40059,
                    50.35684
                ]
            },
            "properties": {
                "ref:rspo": 270107,
                "official_name": "Zesp\u00f3\u0142 Szkolno - Przedszkolny w Chrz\u0105stowie",
                "name": "Zesp\u00f3\u0142 Szkolno - Przedszkolny w Chrz\u0105stowie",
                "addr:country": "PL",
                "addr:postcode": "39-300",
                "addr:place": "Chrz\u0105st\u00f3w",
                "addr:housenumber": "156",
                "addr:teryt:simc": 655617,
                "contact:phone": "+48 175841408",
                "contact:email": "schrzastow@wp.pl",
                "ref:regon": "382034023",
                "operator": "Gmina Mielec",
                "operator:type": "government",
                "landuse": "education",
                "fixme": "amenity=school, amenity=college albo landuse=education w zale\u017cno\u015bci od tego, jakie plac\u00f3wki wchodz\u0105 w sk\u0142ad zespo\u0142u. Sprawd\u017a, kiedy stosowa\u0107 amenity=* a kiedy landuse=education.",
                "note": "Children RSPO: 12749;270109"
            }
        },
        {
            "id": 12749,
            "type": "Feature",
            "geometry": {
                "type": "Point",
                "coordinates": [
                    21.40059,
                    50.356809999999996
                ]
            },
            "properties": {
                "isced:level": "1;2",
                "ref:rspo": 12749,
                "official_name": "Szko\u0142a Podstawowa w Chrz\u0105stowie",
                "name": "Szko\u0142a Podstawowa w Chrz\u0105stowie",
                "addr:country": "PL",
                "addr:postcode": "39-331",
                "addr:place": "Chrz\u0105st\u00f3w",
                "addr:housenumber": "156",
                "addr:teryt:simc": 655617,
                "contact:phone": "+48 175841408",
                "contact:email": "schrzastow@wp.pl",
                "ref:regon": "001133542",
                "ref:vatin": "PL8171812418",
                "operator": "Gmina Mielec",
                "operator:type": "government",
                "amenity": "school",
                "note": "Parent RSPO: 270107"
            }
        },
        {
            "id": 270109,
            "type": "Feature",
            "geometry": {
                "type": "Point",
                "coordinates": [
                    21.40059,
                    50.35678
                ]
            },
            "properties": {
                "ref:rspo": 270109,
                "official_name": "Przedszkole w Chrz\u0105stowie",
                "name": "Przedszkole w Chrz\u0105stowie",
                "addr:country": "PL",
                "addr:postcode": "39-300",
                "addr:place": "Chrz\u0105st\u00f3w",
                "addr:housenumber": "156",
                "addr:teryt:simc": 655617,
                "contact:phone": "+48 175841408",
                "contact:email": "schrzastow@wp.pl",
                "ref:regon": "382034052",
                "operator": "Gmina Mielec",
                "operator:type": "government",
                "amenity": "kindergarten",
                "note": "Parent RSPO: 270107"
            }
        }
    ]
}