{"type":"FeatureCollection","features":[{"id":20270,"type":"Feature","geometry":{"type":"Point","coordinates":[21.388624191284,50.29239654541]},"properties":{"ref:rspo":20270,"official_name":"Zesp\u00f3\u0142 Szk\u00f3\u0142 w Maliniu","name":"Zesp\u00f3\u0142 Szk\u00f3\u0142 w Maliniu","addr:country":"PL","addr:postcode":"39-331","addr:place":"Malinie","addr:housenumber":"220","addr:teryt:sym_ul":665455,"contact:phone":"+48 177743220","contact:email":"spmalinie@tuszownarodowy.pl","contact:website":"http:\/\/www.zsmalinie.pl","ref:regon":"180480581","ref:vatin":"PL8172123164","operator":"Gmina Tusz\u00f3w Narodowy","operator:type":"government","landuse":"education","fixme":"amenity=school, amenity=college albo landuse=education w zale\u017cno\u015bci od tego, jakie plac\u00f3wki wchodz\u0105 w sk\u0142ad zespo\u0142u. Sprawd\u017a, kiedy stosowa\u0107 amenity=* a kiedy landuse=education.","note":"Children RSPO: 23589;31151"}},{"id":23589,"type":"Feature","geometry":{"type":"Point","coordinates":[21.388624191284,50.29236654541]},"properties":{"isced:level":"1;2","ref:rspo":23589,"official_name":"Szko\u0142a Podstawowa im.ks.kardyna\u0142a Stefana Wyszy\u0144skiego w Maliniu","name":"Szko\u0142a Podstawowa im.ks.kardyna\u0142a Stefana Wyszy\u0144skiego w Maliniu","addr:country":"PL","addr:postcode":"39-331","addr:place":"Malinie","addr:housenumber":"220","addr:teryt:sym_ul":665455,"contact:phone":"+48 177743220","contact:email":"spmalinie@tuszownarodowy.pl","contact:website":"http:\/\/zsmalinie.pl","ref:regon":"001133230","ref:vatin":"PL8172123164","operator":"Gmina Tusz\u00f3w Narodowy","operator:type":"government","amenity":"school","note":"Parent RSPO: 20270"}},{"id":31151,"type":"Feature","geometry":{"type":"Point","coordinates":[21.4793999,50.3427099]},"properties":{"ref:rspo":31151,"official_name":"Publiczne Przedszkole w \u0141awnicy","name":"Publiczne Przedszkole w \u0141awnicy","addr:country":"PL","addr:postcode":"39-331","addr:place":"\u0141awnica","addr:housenumber":"118","addr:teryt:sym_ul":665403,"contact:phone":"+48 177479010","contact:email":"spmalinie@tuszownarodowy.pl","ref:regon":"180480606","ref:vatin":"PL8172123164","operator":"Gmina Tusz\u00f3w Narodowy","operator:type":"government","amenity":"kindergarten","note":"Parent RSPO: 20270"}},{"id":48471,"type":"Feature","geometry":{"type":"Point","coordinates":[21.4953,50.36482]},"properties":{"isced:level":"1;2","ref:rspo":48471,"official_name":"Filia Grochowe","name":"Filia Grochowe","addr:country":"PL","addr:postcode":"39-332","addr:place":"Grochowe","addr:housenumber":"72","addr:teryt:sym_ul":665120,"contact:phone":"+48 175817721","contact:email":"sptuszow@wp.pl","ref:regon":"568002000","operator":"Gmina Tusz\u00f3w Narodowy","operator:type":"government","amenity":"school","note":"Parent RSPO: 22910"}},{"id":77433,"type":"Feature","geometry":{"type":"Point","coordinates":[21.46161,50.36916]},"properties":{"ref:rspo":77433,"official_name":"Punkt Przedszkolny\nW Tuszowie Narodowym","name":"Punkt Przedszkolny\nW Tuszowie Narodowym","addr:country":"PL","addr:postcode":"39-332","addr:place":"Tusz\u00f3w Narodowy","addr:housenumber":"226","addr:teryt:sym_ul":665627,"contact:phone":"+48 177743748","contact:email":"sptuszow@wp.pl","ref:regon":"180908725","ref:vatin":"PL8171814357","operator":"Gmina Tusz\u00f3w Narodowy","operator:type":"government","amenity":"kindergarten"}},{"id":268234,"type":"Feature","geometry":{"type":"Point","coordinates":[21.46337,50.37027]},"properties":{"ref:rspo":268234,"official_name":"Zesp\u00f3\u0142 Szkolno-Przedszkolny w Tuszowie Narodowym","name":"Zesp\u00f3\u0142 Szkolno-Przedszkolny w Tuszowie Narodowym","addr:country":"PL","addr:postcode":"39-332","addr:place":"Tusz\u00f3w Narodowy","addr:housenumber":"231","addr:teryt:sym_ul":665627,"contact:phone":"+48 177743747","contact:email":"sptuszow@wp.pl","ref:regon":"381034624","ref:vatin":"PL8172189507","operator":"Gmina Tusz\u00f3w Narodowy","operator:type":"government","landuse":"education","fixme":"amenity=school, amenity=college albo landuse=education w zale\u017cno\u015bci od tego, jakie plac\u00f3wki wchodz\u0105 w sk\u0142ad zespo\u0142u. Sprawd\u017a, kiedy stosowa\u0107 amenity=* a kiedy landuse=education.","note":"Children RSPO: 22910;268607"}},{"id":22910,"type":"Feature","geometry":{"type":"Point","coordinates":[21.46337,50.370239999999995]},"properties":{"isced:level":"1;2","ref:rspo":22910,"official_name":"Szko\u0142a Podstawowa im.gen.w.sikorskiego w Tuszowie Narodowym Z Fili\u0105 w Grochowem","name":"Szko\u0142a Podstawowa im.gen.w.sikorskiego w Tuszowie Narodowym Z Fili\u0105 w Grochowem","addr:country":"PL","addr:postcode":"39-332","addr:place":"Tusz\u00f3w Narodowy","addr:housenumber":"231","addr:teryt:sym_ul":665627,"contact:phone":"+48 177743747","contact:email":"sptuszow@wp.pl","contact:website":"http:\/\/sptuszownarodowy.szkoly.interklasa.pl","ref:regon":"000568002","ref:vatin":"PL8171814357","operator":"Gmina Tusz\u00f3w Narodowy","operator:type":"government","amenity":"school","note":"Children RSPO: 48471Parent RSPO: 268234"}},{"id":268607,"type":"Feature","geometry":{"type":"Point","coordinates":[21.46337,50.37021]},"properties":{"ref:rspo":268607,"official_name":"Przedszkole w Tuszowie Narodowym","name":"Przedszkole w Tuszowie Narodowym","addr:country":"PL","addr:postcode":"39-332","addr:place":"Tusz\u00f3w Narodowy","addr:housenumber":"231","addr:teryt:sym_ul":665627,"contact:phone":"+48 177743748","contact:email":"sptuszow@wp.pl","ref:regon":"381213663","operator":"Gmina Tusz\u00f3w Narodowy","operator:type":"government","amenity":"kindergarten","note":"Parent RSPO: 268234"}},{"id":19503,"type":"Feature","geometry":{"type":"Point","coordinates":[21.5227467,50.3753445]},"properties":{"isced:level":"1;2","ref:rspo":19503,"official_name":"Szko\u0142a Podstawowa w Czajkowej","name":"Szko\u0142a Podstawowa w Czajkowej","addr:country":"PL","addr:postcode":"39-332","addr:place":"Czajkowa","addr:housenumber":"60","addr:teryt:sym_ul":665018,"contact:phone":"+48 177479005","contact:email":"spczajkowa@tuszownarodowy.pl","contact:website":"http:\/\/spczajkowa.edupage.org","ref:regon":"001139763","ref:vatin":"PL8171820464","operator":"Gmina Tusz\u00f3w Narodowy","operator:type":"government","amenity":"school"}},{"id":19504,"type":"Feature","geometry":{"type":"Point","coordinates":[21.4124239,50.3890115]},"properties":{"isced:level":"1;2","ref:rspo":19504,"official_name":"Szko\u0142a Podstawowa w Borkach Nizi\u0144skich im.\u015bw.andrzeja Boboli","name":"Szko\u0142a Podstawowa w Borkach Nizi\u0144skich im.\u015bw.andrzeja Boboli","addr:country":"PL","addr:postcode":"39-307","addr:place":"Borki Nizi\u0144skie","addr:housenumber":"18","addr:teryt:sym_ul":664906,"contact:phone":"+48 175839001","contact:email":"spborkiniz@tuszownarodowy.pl","contact:website":"http:\/\/spborki.webd.pro","ref:regon":"001139757","ref:vatin":"PL8171821624","operator":"Gmina Tusz\u00f3w Narodowy","operator:type":"government","amenity":"school"}},{"id":20127,"type":"Feature","geometry":{"type":"Point","coordinates":[21.48439,50.39806]},"properties":{"ref:rspo":20127,"official_name":"Zesp\u00f3\u0142 Szk\u00f3\u0142 w Ja\u015blanach","name":"Zesp\u00f3\u0142 Szk\u00f3\u0142 w Ja\u015blanach","addr:country":"PL","addr:postcode":"39-332","addr:place":"Ja\u015blany","addr:housenumber":"432","addr:teryt:sym_ul":665248,"contact:phone":"+48 175817624","contact:email":"zsjaslany@tuszownarodowy.pl","contact:website":"http:\/\/zsjaslany.edupage.org","ref:regon":"831226070","ref:vatin":"PL8171887333","operator":"Gmina Tusz\u00f3w Narodowy","operator:type":"government","landuse":"education","fixme":"amenity=school, amenity=college albo landuse=education w zale\u017cno\u015bci od tego, jakie plac\u00f3wki wchodz\u0105 w sk\u0142ad zespo\u0142u. Sprawd\u017a, kiedy stosowa\u0107 amenity=* a kiedy landuse=education.","note":"Children RSPO: 22964;31056"}},{"id":22964,"type":"Feature","geometry":{"type":"Point","coordinates":[21.48439,50.39803]},"properties":{"isced:level":"1;2","ref:rspo":22964,"official_name":"Szko\u0142a Podstawowa w Ja\u015blanach im.b\u0142.ks.jerzego Popie\u0142uszki","name":"Szko\u0142a Podstawowa w Ja\u015blanach im.b\u0142.ks.jerzego Popie\u0142uszki","addr:country":"PL","addr:postcode":"39-332","addr:place":"Ja\u015blany","addr:housenumber":"432","addr:teryt:sym_ul":665248,"contact:phone":"+48 175817624","contact:email":"zsjaslany@tuszownarodowy.pl","contact:website":"http:\/\/www.zsjaslany.edupage.org","ref:regon":"001139792","ref:vatin":"PL8171887333","operator":"Gmina Tusz\u00f3w Narodowy","operator:type":"government","amenity":"school","note":"Parent RSPO: 20127"}},{"id":31056,"type":"Feature","geometry":{"type":"Point","coordinates":[21.48439,50.398]},"properties":{"ref:rspo":31056,"official_name":"Samorz\u0105dowe Przedszkole w Ja\u015blanach","name":"Samorz\u0105dowe Przedszkole w Ja\u015blanach","addr:country":"PL","addr:postcode":"39-332","addr:place":"Ja\u015blany","addr:housenumber":"432","addr:teryt:sym_ul":665248,"contact:phone":"+48 175817624","contact:email":"zsjaslany@tuszownarodowy.pl","ref:regon":"690007074","ref:vatin":"PL8171887333","operator":"Gmina Tusz\u00f3w Narodowy","operator:type":"government","amenity":"kindergarten","note":"Parent RSPO: 20127"}}]}