{"type":"FeatureCollection","features":[{"id":24569,"type":"Feature","geometry":{"type":"Point","coordinates":[21.2011,50.24264]},"properties":{"isced:level":"1;2","ref:rspo":24569,"official_name":"Szko\u0142a Podstawowa w Jamach","name":"Szko\u0142a Podstawowa w Jamach","addr:country":"PL","addr:postcode":"39-308","addr:place":"Jamy","addr:housenumber":"81","addr:teryt:sym_ul":834745,"contact:phone":"+48 146837264","contact:email":"spjamy@poczta.onet.pl","contact:website":"http:\/\/www.spjamy.edupage.org","ref:regon":"001202480","ref:vatin":"PL8171817775","operator":"Gmina Wadowice G\u00f3rne","operator:type":"government","amenity":"school"}},{"id":23658,"type":"Feature","geometry":{"type":"Point","coordinates":[21.2481759,50.2521325]},"properties":{"isced:level":"1;2","ref:rspo":23658,"official_name":"Szko\u0142a Podstawowa w Izbiskach","name":"Szko\u0142a Podstawowa w Izbiskach","addr:country":"PL","addr:postcode":"39-308","addr:place":"Izbiska","addr:housenumber":"71","addr:teryt:sym_ul":834700,"contact:phone":"+48 146669711","contact:email":"izbiska@go2.pl","ref:regon":"001277985","ref:vatin":"PL8171817769","operator":"Gmina Wadowice G\u00f3rne","operator:type":"government","amenity":"school"}},{"id":3654,"type":"Feature","geometry":{"type":"Point","coordinates":[21.28527,50.26174]},"properties":{"ref:rspo":3654,"official_name":"Zesp\u00f3\u0142 Szkolno-Przedszkolny w Wadowicach G\u00f3rnych","name":"Zesp\u00f3\u0142 Szkolno-Przedszkolny w Wadowicach G\u00f3rnych","addr:country":"PL","addr:postcode":"39-308","addr:place":"Wadowice G\u00f3rne","addr:housenumber":"133E","addr:teryt:sym_ul":835101,"contact:phone":"+48 146661020","ref:regon":"180877203","ref:vatin":"PL8172172760","operator":"Gmina Wadowice G\u00f3rne","operator:type":"government","landuse":"education","fixme":"amenity=school, amenity=college albo landuse=education w zale\u017cno\u015bci od tego, jakie plac\u00f3wki wchodz\u0105 w sk\u0142ad zespo\u0142u. Sprawd\u017a, kiedy stosowa\u0107 amenity=* a kiedy landuse=education.","note":"Children RSPO: 24568;25576"}},{"id":24568,"type":"Feature","geometry":{"type":"Point","coordinates":[21.28527,50.26171]},"properties":{"isced:level":"1;2","ref:rspo":24568,"official_name":"Szko\u0142a Podstawowa im. Leszka Deptu\u0142y w Zespole Szkolno-Przedszkolnym w Wadowicach G\u00f3rnych","name":"Szko\u0142a Podstawowa","addr:country":"PL","addr:postcode":"39-308","addr:place":"Wadowice G\u00f3rne","addr:housenumber":"133E","addr:teryt:sym_ul":835101,"contact:phone":"+48 146661020","contact:email":"wadowice.zespol@gmail.com","contact:website":"http:\/\/zspwg.edupage.org","ref:regon":"000567994","operator":"Gmina Wadowice G\u00f3rne","operator:type":"government","amenity":"school","note":"Parent RSPO: 3654"}},{"id":25576,"type":"Feature","geometry":{"type":"Point","coordinates":[21.29041,50.26317]},"properties":{"ref:rspo":25576,"official_name":"Publiczne Przedszkole w Zespole Szkolno-Przedszkolnym w Wadowicach G\u00f3rnych","name":"Publiczne Przedszkole w Zespole Szkolno-Przedszkolnym w Wadowicach G\u00f3rnych","addr:country":"PL","addr:postcode":"39-308","addr:place":"Wadowice G\u00f3rne","addr:housenumber":"111","addr:teryt:sym_ul":835101,"contact:phone":"+48 146669684","contact:email":"wadowice.zespol@gmail.com","contact:website":"https:\/\/zspwg.edupage.org","ref:regon":"180657105","operator":"Gmina Wadowice G\u00f3rne","operator:type":"government","amenity":"kindergarten","note":"Parent RSPO: 3654"}},{"id":23673,"type":"Feature","geometry":{"type":"Point","coordinates":[21.2484992,50.2725106]},"properties":{"isced:level":"1;2","ref:rspo":23673,"official_name":"Szko\u0142a Podstawowa im. Ks. J\u00f3zefa Pocz\u0105tka w Wadowicach Dolnych","name":"Szko\u0142a Podstawowa","addr:country":"PL","addr:postcode":"39-308","addr:place":"Wadowice Dolne","addr:housenumber":"65","addr:teryt:sym_ul":835006,"contact:phone":"+48 146668352","contact:email":"sp.wadowice_dolne@wp.pl","contact:website":"http:\/\/spwd.edupage.org","ref:regon":"001202496","ref:vatin":"PL8171817746","operator":"Gmina Wadowice G\u00f3rne","operator:type":"government","amenity":"school"}},{"id":23570,"type":"Feature","geometry":{"type":"Point","coordinates":[21.1920749,50.273309]},"properties":{"isced:level":"1;2","ref:rspo":23570,"official_name":"Szko\u0142a Podstawowa im. Gen. B. Stachonia w Woli Wadowskiej","name":"Szko\u0142a Podstawowa","addr:country":"PL","addr:postcode":"39-308","addr:place":"Wola Wadowska","addr:housenumber":"44","addr:teryt:sym_ul":835302,"contact:phone":"+48 146668253","contact:email":"spwolawad@op.pl","ref:regon":"001277991","ref:vatin":"PL8171817781","operator":"Gmina Wadowice G\u00f3rne","operator:type":"government","amenity":"school"}},{"id":23782,"type":"Feature","geometry":{"type":"Point","coordinates":[21.27564,50.28984]},"properties":{"isced:level":"1;2","ref:rspo":23782,"official_name":"Szko\u0142a Podstawowa w Wampierzowie","name":"Szko\u0142a Podstawowa w Wampierzowie","addr:country":"PL","addr:postcode":"39-308","addr:place":"Wampierz\u00f3w","addr:housenumber":"81","addr:teryt:sym_ul":835153,"contact:phone":"+48 146669634","contact:email":"spwam@o2.pl","contact:website":"http:\/\/spwampierzow.edupage.org","ref:regon":"001202504","ref:vatin":"PL8171817752","operator":"Gmina Wadowice G\u00f3rne","operator:type":"government","amenity":"school"}},{"id":23524,"type":"Feature","geometry":{"type":"Point","coordinates":[21.2006955,50.2954367]},"properties":{"isced:level":"1;2","ref:rspo":23524,"official_name":"Szko\u0142a Podstawowa w Zabrniu","name":"Szko\u0142a Podstawowa w Zabrniu","addr:country":"PL","addr:postcode":"39-308","addr:place":"Zabrnie","addr:housenumber":"85","addr:teryt:sym_ul":835354,"contact:phone":"+48 146668388","contact:email":"szkolazabrnie1@go2.pl","contact:website":"http:\/\/spzabrnie.edupage.org","ref:regon":"001278000","ref:vatin":"PL8171817723","operator":"Gmina Wadowice G\u00f3rne","operator:type":"government","amenity":"school"}}]}