{"type":"FeatureCollection","features":[{"id":3787,"type":"Feature","geometry":{"type":"Point","coordinates":[20.20394,50.84016]},"properties":{"isced:level":"1;2","ref:rspo":3787,"official_name":"Szko\u0142a Podstawowa im. B\u0142. Ks. Jerzego Popie\u0142uszki w Cie\u015blach","name":"Szko\u0142a Podstawowa","addr:country":"PL","addr:postcode":"29-105","addr:place":"Cie\u015ble","addr:housenumber":"63","addr:teryt:sym_ul":245641,"contact:phone":"+48 413855134","contact:email":"szkola.ciesle@interia.pl","contact:website":"http:\/\/spciesle.edupage.org\/","ref:regon":"001170655","ref:vatin":"PL6562049026","operator":"Gmina Krasocin","operator:type":"government","amenity":"school"}},{"id":4429,"type":"Feature","geometry":{"type":"Point","coordinates":[20.1572859,50.85073]},"properties":{"isced:level":"1;2","ref:rspo":4429,"official_name":"Szko\u0142a Podstawowa im. Jana Paw\u0142a II w Czostkowie","name":"Szko\u0142a Podstawowa","addr:country":"PL","addr:postcode":"29-105","addr:place":"Czostk\u00f3w","addr:housenumber":"83","addr:teryt:sym_ul":245687,"contact:phone":"+48 413917038","contact:email":"spczostkow@op.pl","contact:website":"http:\/\/spczostkow.republika.pl","ref:regon":"001170649","ref:vatin":"PL6562048995","operator":"Gmina Krasocin","operator:type":"government","amenity":"school"}},{"id":107463,"type":"Feature","geometry":{"type":"Point","coordinates":[20.20053,50.86301]},"properties":{"ref:rspo":107463,"official_name":"Samorz\u0105dowe Przedszkole w Bukowie","name":"Samorz\u0105dowe Przedszkole w Bukowie","addr:country":"PL","addr:postcode":"29-105","addr:city":"Bukowa","addr:street":"ul. Osiedlowa","addr:housenumber":"26","addr:teryt:simc":15300,"addr:teryt:sym_ul":246126,"contact:phone":"+48 413919346","contact:email":"pgbukowa@wp.pl","contact:website":"http:\/\/bukowa.kielecki.net","ref:regon":"290013785","ref:vatin":"PL6562048920","operator":"Gmina Krasocin","operator:type":"government","amenity":"kindergarten","note":"Parent RSPO: 4710"}},{"id":4710,"type":"Feature","geometry":{"type":"Point","coordinates":[20.19964,50.86345]},"properties":{"ref:rspo":4710,"official_name":"Zesp\u00f3\u0142 Plac\u00f3wek O\u015bwiatowych im. Jana Paw\u0142a II w Bukowie","name":"Zesp\u00f3\u0142 Plac\u00f3wek O\u015bwiatowych","addr:country":"PL","addr:postcode":"29-105","addr:city":"Bukowa","addr:street":"ul. Szkolna","addr:housenumber":"8","addr:teryt:simc":21970,"addr:teryt:sym_ul":246126,"contact:phone":"+48 413919502","contact:email":"spbukowa@wp.pl","contact:website":"http:\/\/www.bukowa.kielecki.net","ref:regon":"260017105","ref:vatin":"PL6090039427","operator":"Gmina Krasocin","operator:type":"government","landuse":"education","fixme":"amenity=school, amenity=college albo landuse=education w zale\u017cno\u015bci od tego, jakie plac\u00f3wki wchodz\u0105 w sk\u0142ad zespo\u0142u. Sprawd\u017a, kiedy stosowa\u0107 amenity=* a kiedy landuse=education.","note":"Children RSPO: 107463;107465"}},{"id":107465,"type":"Feature","geometry":{"type":"Point","coordinates":[20.19964,50.86342]},"properties":{"isced:level":"1;2","ref:rspo":107465,"official_name":"Szko\u0142a Podstawowa w Bukowie","name":"Szko\u0142a Podstawowa w Bukowie","addr:country":"PL","addr:postcode":"29-105","addr:city":"Bukowa","addr:street":"ul. Szkolna","addr:housenumber":"8","addr:teryt:simc":21970,"addr:teryt:sym_ul":246126,"contact:phone":"+48 413919502","contact:email":"pgbukowa@wp.pl","contact:website":"http:\/\/bukowa.kielecki.net","ref:regon":"001170603","ref:vatin":"PL6562050489","operator":"Gmina Krasocin","operator:type":"government","amenity":"school","note":"Parent RSPO: 4710"}},{"id":4723,"type":"Feature","geometry":{"type":"Point","coordinates":[20.1145,50.89035]},"properties":{"ref:rspo":4723,"official_name":"Zesp\u00f3\u0142 Plac\u00f3wek O\u015bwiatowych im. Rtm. Witolda Pileckiego w Krasocinie","name":"Zesp\u00f3\u0142 Plac\u00f3wek O\u015bwiatowych","addr:country":"PL","addr:postcode":"29-105","addr:city":"Krasocin","addr:street":"ul. Floria\u0144ska","addr:housenumber":"1","addr:teryt:simc":5085,"addr:teryt:sym_ul":245813,"contact:phone":"+48 413917015","contact:email":"zpo.krasocin@post.pl","contact:website":"http:\/\/zpokrasocin.edupage.org","ref:regon":"260017128","ref:vatin":"PL6090039410","operator":"Gmina Krasocin","operator:type":"government","landuse":"education","fixme":"amenity=school, amenity=college albo landuse=education w zale\u017cno\u015bci od tego, jakie plac\u00f3wki wchodz\u0105 w sk\u0142ad zespo\u0142u. Sprawd\u017a, kiedy stosowa\u0107 amenity=* a kiedy landuse=education.","note":"Children RSPO: 107462;107464"}},{"id":107462,"type":"Feature","geometry":{"type":"Point","coordinates":[20.1145,50.890319999999996]},"properties":{"ref:rspo":107462,"official_name":"Samorz\u0105dowe Przedszkole w Krasocinie","name":"Samorz\u0105dowe Przedszkole w Krasocinie","addr:country":"PL","addr:postcode":"29-105","addr:city":"Krasocin","addr:street":"ul. Floria\u0144ska","addr:housenumber":"1","addr:teryt:simc":5085,"addr:teryt:sym_ul":245813,"contact:phone":"+48 413917015","contact:email":"zpo.krasocin@post.pl","contact:website":"http:\/\/zopokrasocin.net.pl","ref:regon":"290013756","ref:vatin":"PL6562048914","operator":"Gmina Krasocin","operator:type":"government","amenity":"kindergarten","note":"Parent RSPO: 4723"}},{"id":107464,"type":"Feature","geometry":{"type":"Point","coordinates":[20.1145,50.89029]},"properties":{"isced:level":"1;2","ref:rspo":107464,"official_name":"Szko\u0142a Podstawowa w Krasocinie","name":"Szko\u0142a Podstawowa w Krasocinie","addr:country":"PL","addr:postcode":"29-105","addr:city":"Krasocin","addr:street":"ul. Floria\u0144ska","addr:housenumber":"1","addr:teryt:simc":5085,"addr:teryt:sym_ul":245813,"contact:phone":"+48 413917015","contact:email":"zpo.krasocin@post.pl","contact:website":"http:\/\/zpokrasocin.pl","ref:regon":"000567818","ref:vatin":"PL6562048972","operator":"Gmina Krasocin","operator:type":"government","amenity":"school","note":"Parent RSPO: 4723"}},{"id":107458,"type":"Feature","geometry":{"type":"Point","coordinates":[20.1848494,50.9118562]},"properties":{"isced:level":"1;2","ref:rspo":107458,"official_name":"Szko\u0142a Podstawowa im. Prymasa Tysi\u0105clecia w Mieczynie","name":"Szko\u0142a Podstawowa","addr:country":"PL","addr:postcode":"29-105","addr:place":"Mieczyn","addr:housenumber":"8","addr:teryt:sym_ul":245925,"contact:phone":"+48 413917011","contact:email":"sp.mieczyn@poczta.fm","contact:website":"http:\/\/szkolamieczyn.pl","ref:regon":"001170632","ref:vatin":"PL6562049032","operator":"Gmina Krasocin","operator:type":"government","amenity":"school"}},{"id":268608,"type":"Feature","geometry":{"type":"Point","coordinates":[20.05321,50.94279]},"properties":{"ref:rspo":268608,"official_name":"Zesp\u00f3\u0142 Plac\u00f3wek O\u015bwiatowych w Olesznie","name":"Zesp\u00f3\u0142 Plac\u00f3wek O\u015bwiatowych w Olesznie","addr:country":"PL","addr:postcode":"29-105","addr:city":"Oleszno","addr:street":"ul. Szkolna","addr:housenumber":"34","addr:teryt:simc":21970,"addr:teryt:sym_ul":246014,"contact:phone":"+48 413918006","contact:email":"szkola@spoleszno.pl","contact:website":"http:\/\/www.szkola@spoleszno.pl","ref:regon":"381214875","operator":"Gmina Krasocin","operator:type":"government","landuse":"education","fixme":"amenity=school, amenity=college albo landuse=education w zale\u017cno\u015bci od tego, jakie plac\u00f3wki wchodz\u0105 w sk\u0142ad zespo\u0142u. Sprawd\u017a, kiedy stosowa\u0107 amenity=* a kiedy landuse=education.","note":"Children RSPO: 107466;268616"}},{"id":107466,"type":"Feature","geometry":{"type":"Point","coordinates":[20.05321,50.94276]},"properties":{"isced:level":"1;2","ref:rspo":107466,"official_name":"Szko\u0142a Podstawowa im. Armii Krajowej w Olesznie","name":"Szko\u0142a Podstawowa","addr:country":"PL","addr:postcode":"29-105","addr:city":"Oleszno","addr:street":"ul. Szkolna","addr:housenumber":"34","addr:teryt:simc":21970,"addr:teryt:sym_ul":246014,"contact:phone":"+48 413918006","contact:email":"szkola@spoleszno.pl","contact:website":"http:\/\/spoleszno.pl","ref:regon":"001170595","ref:vatin":"PL6562049003","operator":"Gmina Krasocin","operator:type":"government","amenity":"school","note":"Parent RSPO: 268608"}},{"id":268616,"type":"Feature","geometry":{"type":"Point","coordinates":[20.05321,50.942730000000005]},"properties":{"ref:rspo":268616,"official_name":"Samorz\u0105dowe Przedszkole w Olesznie","name":"Samorz\u0105dowe Przedszkole w Olesznie","addr:country":"PL","addr:postcode":"29-105","addr:city":"Oleszno","addr:street":"ul. Szkolna","addr:housenumber":"34","addr:teryt:simc":21970,"addr:teryt:sym_ul":246014,"contact:phone":"+48 413918006","contact:email":"przedszkole_oleszno@onet.pl","contact:website":"http:\/\/spoleszno.pl","ref:regon":"381222863","operator":"Gmina Krasocin","operator:type":"government","amenity":"kindergarten","note":"Parent RSPO: 268608"}}]}