{"type":"FeatureCollection","features":[{"id":275824,"type":"Feature","geometry":{"type":"Point","coordinates":[19.97506,50.94121]},"properties":{"ref:rspo":275824,"official_name":"Zesp\u00f3\u0142 Przedszkolno-Szkolny w Komornikach","name":"Zesp\u00f3\u0142 Przedszkolno-Szkolny w Komornikach","addr:country":"PL","addr:postcode":"29-120","addr:place":"Komorniki","addr:housenumber":"7","addr:teryt:sym_ul":542020,"contact:phone":"+48 447814257","contact:email":"zps.dyrektor.komorniki@gmail.com","ref:regon":"386939643","operator":"Stowarzyszenie Wiejskie Wsi Komorniki \"Nad Czarn\u0105\"","operator:type":"ngo","landuse":"education","fixme":"amenity=school, amenity=college albo landuse=education w zale\u017cno\u015bci od tego, jakie plac\u00f3wki wchodz\u0105 w sk\u0142ad zespo\u0142u. Sprawd\u017a, kiedy stosowa\u0107 amenity=* a kiedy landuse=education.","note":"Children RSPO: 275830;275831"}},{"id":275830,"type":"Feature","geometry":{"type":"Point","coordinates":[19.97506,50.941179999999996]},"properties":{"isced:level":"1;2","ref:rspo":275830,"official_name":"Szko\u0142a Podstawowa w Zespole Przedszkolno-Szkolnym w Komornikach","name":"Szko\u0142a Podstawowa w Zespole Przedszkolno-Szkolnym w Komornikach","addr:country":"PL","addr:postcode":"29-120","addr:place":"Komorniki","addr:housenumber":"7","addr:teryt:sym_ul":542020,"contact:phone":"+48 447814257","contact:email":"zps.dyrektor.komorniki@gmail.com","ref:regon":"386940511","operator":"Stowarzyszenie Wiejskie Wsi Komorniki \"Nad Czarn\u0105\"","operator:type":"ngo","amenity":"school","note":"Parent RSPO: 275824"}},{"id":275831,"type":"Feature","geometry":{"type":"Point","coordinates":[19.97506,50.94115]},"properties":{"ref:rspo":275831,"official_name":"Przedszkole w Zespole Przedszkolno-Szkolnym w Komornikach","name":"Przedszkole w Zespole Przedszkolno-Szkolnym w Komornikach","addr:country":"PL","addr:postcode":"29-120","addr:place":"Komorniki","addr:housenumber":"7","addr:teryt:sym_ul":542020,"contact:phone":"+48 447814257","contact:email":"zps.dyrektor.komorniki@gmail.com","ref:regon":"386940600","operator":"Stowarzyszenie Wiejskie Wsi Komorniki \"Nad Czarn\u0105\"","operator:type":"ngo","amenity":"kindergarten","note":"Parent RSPO: 275824"}},{"id":58441,"type":"Feature","geometry":{"type":"Point","coordinates":[19.89453,51.00333]},"properties":{"ref:rspo":58441,"official_name":"Zesp\u00f3\u0142 Przedszkolno-Szkolny w Dobromierzu","name":"Zesp\u00f3\u0142 Przedszkolno-Szkolny w Dobromierzu","addr:country":"PL","addr:postcode":"29-120","addr:city":"Dobromierz","addr:street":"ul. W\u0142oszczowska","addr:housenumber":"5","addr:teryt:simc":24528,"addr:teryt:sym_ul":541836,"contact:phone":"+48 447814859","contact:email":"sekretariat@zpsdobromierz.pl","contact:website":"http:\/\/www.zpsdobromierz.pl","ref:regon":"001138752","ref:vatin":"PL6562165471","operator":"Gmina Kluczewsko","operator:type":"government","landuse":"education","fixme":"amenity=school, amenity=college albo landuse=education w zale\u017cno\u015bci od tego, jakie plac\u00f3wki wchodz\u0105 w sk\u0142ad zespo\u0142u. Sprawd\u017a, kiedy stosowa\u0107 amenity=* a kiedy landuse=education.","note":"Children RSPO: 85516;85517"}},{"id":85516,"type":"Feature","geometry":{"type":"Point","coordinates":[19.89453,51.003299999999996]},"properties":{"isced:level":"1;2","ref:rspo":85516,"official_name":"Szko\u0142a Podstawowa im. Majora Henryka Dobrza\u0144skiego Ps. \u201eHubal\u201d w Zespole Przedszkolno-Szkolnym w Dobromierzu","name":"Szko\u0142a Podstawowa","addr:country":"PL","addr:postcode":"29-120","addr:city":"Dobromierz","addr:street":"ul. W\u0142oszczowska","addr:housenumber":"5","addr:teryt:simc":24528,"addr:teryt:sym_ul":541836,"contact:phone":"+48 447814859","contact:email":"sekretariat@zpsdobromierz.pl","contact:website":"http:\/\/www.zpsdobromierz.pl","ref:regon":"260649271","operator":"Gmina Kluczewsko","operator:type":"government","amenity":"school","note":"Parent RSPO: 58441"}},{"id":85517,"type":"Feature","geometry":{"type":"Point","coordinates":[19.89453,51.00327]},"properties":{"ref:rspo":85517,"official_name":"Przedszkole w Zespole Przedszkolno-Szkolnym w Dobromierzu","name":"Przedszkole w Zespole Przedszkolno-Szkolnym w Dobromierzu","addr:country":"PL","addr:postcode":"29-120","addr:city":"Dobromierz","addr:street":"ul. W\u0142oszczowska","addr:housenumber":"5","addr:teryt:simc":24528,"addr:teryt:sym_ul":541836,"contact:phone":"+48 447814859","contact:email":"sekretariat@zpsdobromierz.pl","contact:website":"http:\/\/www.zpsdobromierz.pl","ref:regon":"260649288","operator":"Gmina Kluczewsko","operator:type":"government","amenity":"kindergarten","note":"Parent RSPO: 58441"}},{"id":58439,"type":"Feature","geometry":{"type":"Point","coordinates":[19.8946599,51.00546]},"properties":{"ref:rspo":58439,"official_name":"Zesp\u00f3\u0142 Przedszkolno-Szkolny w Kluczewsku","name":"Zesp\u00f3\u0142 Przedszkolno-Szkolny w Kluczewsku","addr:country":"PL","addr:postcode":"29-120","addr:city":"Kluczewsko","addr:street":"ul. Le\u015bna","addr:housenumber":"1","addr:teryt:simc":10898,"addr:teryt:sym_ul":541983,"contact:phone":"+48 447814287","contact:email":"spkluczewsko@poczta.fm","ref:regon":"000266590","ref:vatin":"PL6562164833","operator":"Gmina Kluczewsko","operator:type":"government","landuse":"education","fixme":"amenity=school, amenity=college albo landuse=education w zale\u017cno\u015bci od tego, jakie plac\u00f3wki wchodz\u0105 w sk\u0142ad zespo\u0142u. Sprawd\u017a, kiedy stosowa\u0107 amenity=* a kiedy landuse=education.","note":"Children RSPO: 104580;104581"}},{"id":104580,"type":"Feature","geometry":{"type":"Point","coordinates":[19.8946599,51.00543]},"properties":{"ref:rspo":104580,"official_name":"Przedszkole w Zespole Przedszkolno-Szkolnym w Kluczewsku","name":"Przedszkole w Zespole Przedszkolno-Szkolnym w Kluczewsku","addr:country":"PL","addr:postcode":"29-120","addr:city":"Kluczewsko","addr:street":"ul. Le\u015bna","addr:housenumber":"1","addr:teryt:simc":10898,"addr:teryt:sym_ul":541983,"contact:phone":"+48 447814287","contact:email":"spkluczewsko@poczta.fm","ref:regon":"260656331","operator":"Gmina Kluczewsko","operator:type":"government","amenity":"kindergarten","note":"Parent RSPO: 58439"}},{"id":104581,"type":"Feature","geometry":{"type":"Point","coordinates":[19.8946599,51.0054]},"properties":{"isced:level":"1;2","ref:rspo":104581,"official_name":"Szko\u0142a Podstawowa im. \u015aw. Jana Paw\u0142a II w Zespole Przedszkolno-Szkolnym w Kluczewsku","name":"Szko\u0142a Podstawowa","addr:country":"PL","addr:postcode":"29-120","addr:city":"Kluczewsko","addr:street":"ul. Le\u015bna","addr:housenumber":"1","addr:teryt:simc":10898,"addr:teryt:sym_ul":541983,"contact:phone":"+48 447814287","contact:email":"spkluczewsko@poczta.fm","ref:regon":"260656348","operator":"Gmina Kluczewsko","operator:type":"government","amenity":"school","note":"Parent RSPO: 58439"}}]}