{
    "type": "FeatureCollection",
    "features": [
        {
            "id": 106800,
            "type": "Feature",
            "geometry": {
                "type": "Point",
                "coordinates": [
                    20.55141,
                    49.40668
                ]
            },
            "properties": {
                "ref:rspo": 106800,
                "official_name": "G\u00f3rski O\u015brodek Szkolno-Wypoczynkowy \"Pod Durbaszk\u0105\" w Jaworkach",
                "name": "G\u00f3rski O\u015brodek Szkolno-Wypoczynkowy \"Pod Durbaszk\u0105\" w Jaworkach",
                "addr:postcode": "34-460",
                "addr:city": "Jaworki",
                "addr:street": "Pod Homolami",
                "addr:housenumber": "4",
                "addr:city:simc": 963514,
                "addr:street:sym_ul": 40853,
                "phone": "+48 182622547",
                "email": "gosw@durbaszka.pl",
                "website": "http:\/\/durbaszka.pl",
                "ref:regon": "700619000",
                "operator": "Gmina Miejska Krak\u00f3w-Miasto Na Prawach Powiatu",
                "operator:type": "government",
                "amenity": "community_centre",
                "community_centre:for": "juvenile",
                "note": "Parent RSPO: 52846"
            }
        },
        {
            "id": 133817,
            "type": "Feature",
            "geometry": {
                "type": "Point",
                "coordinates": [
                    20.50432,
                    49.41962
                ]
            },
            "properties": {
                "isced:level": "3",
                "ref:rspo": 133817,
                "official_name": "Pieni\u0144ska Szko\u0142a Bran\u017cowa I Stopnia im.ks.franciszka Blachnickiego w Szczawnicy",
                "name": "Pieni\u0144ska Szko\u0142a Bran\u017cowa I Stopnia im.ks.franciszka Blachnickiego w Szczawnicy",
                "addr:postcode": "34-460",
                "addr:city": "Szczawnica",
                "addr:street": "Szlachtowska",
                "addr:housenumber": "75B",
                "addr:city:simc": 963454,
                "addr:street:sym_ul": 21988,
                "phone": "+48 182621523",
                "email": "sekretariat@psb.szkolybranzowe.edu.pl",
                "website": "http:\/\/www.psb.szkolybranzowe.edu.pl",
                "ref:regon": "122680210",
                "ref:vatin": "PL7341083634",
                "operator": "Janusz Gumularz",
                "operator:type": "private",
                "amenity": "school",
                "note": "Parent RSPO: 122281"
            }
        },
        {
            "id": 81248,
            "type": "Feature",
            "geometry": {
                "type": "Point",
                "coordinates": [
                    20.48375,
                    49.42448
                ]
            },
            "properties": {
                "ref:rspo": 81248,
                "official_name": "Niepubliczne Przedszkole Zgromadzenia Ss S\u0142u\u017cebniczek Nmp Np",
                "name": "Niepubliczne Przedszkole Zgromadzenia Ss S\u0142u\u017cebniczek Nmp Np",
                "addr:postcode": "34-460",
                "addr:city": "Szczawnica",
                "addr:street": "Szalaya",
                "addr:housenumber": "18",
                "addr:city:simc": 963454,
                "addr:street:sym_ul": 21733,
                "phone": "+48 182622372",
                "email": "ochronka.szczawnica@neostrada.pl",
                "ref:regon": "122709379",
                "ref:vatin": "PL7352274585",
                "operator": "Zgromadzenie Si\u00f3str S\u0142u\u017cebniczek Naj\u015bwi\u0119tszej Maryi Panny Niepokalanie Pocz\u0119tej Prowincja Tarnowska",
                "operator:type": "religious",
                "amenity": "kindergarten"
            }
        },
        {
            "id": 73705,
            "type": "Feature",
            "geometry": {
                "type": "Point",
                "coordinates": [
                    20.48608,
                    49.42457
                ]
            },
            "properties": {
                "ref:rspo": 73705,
                "official_name": "Miejskie Przedszkole Publiczne",
                "name": "Miejskie Przedszkole Publiczne",
                "addr:postcode": "34-460",
                "addr:city": "Szczawnica",
                "addr:street": "Jana Wiktora",
                "addr:housenumber": "7a",
                "addr:city:simc": 963454,
                "addr:street:sym_ul": 24251,
                "phone": "+48 182622327",
                "email": "przedszkole@szczawnica.co",
                "website": "http:\/\/przedszkole.szczawnica.pl",
                "ref:regon": "121448126",
                "ref:vatin": "PL7352840010",
                "operator": "Miasto I Gmina Szczawnica",
                "operator:type": "government",
                "amenity": "kindergarten"
            }
        },
        {
            "id": 112037,
            "type": "Feature",
            "geometry": {
                "type": "Point",
                "coordinates": [
                    20.48604,
                    49.42481
                ]
            },
            "properties": {
                "ref:rspo": 112037,
                "official_name": "Pa\u0144stwowa Szko\u0142a Muzyczna I St. w Nowym Targu Filia w Szczawnicy",
                "name": "Pa\u0144stwowa Szko\u0142a Muzyczna I St. w Nowym Targu Filia w Szczawnicy",
                "addr:postcode": "34-460",
                "addr:city": "Szczawnica",
                "addr:street": "Jana Wiktora",
                "addr:housenumber": "8",
                "addr:city:simc": 963454,
                "addr:street:sym_ul": 24251,
                "phone": "+48 182622521",
                "ref:regon": "120017460",
                "operator": "Ministerstwo Kultury I Dziedzictwa Narodowego",
                "operator:type": "government",
                "amenity": "music_school",
                "note": "Parent RSPO: 103590"
            }
        },
        {
            "id": 266621,
            "type": "Feature",
            "geometry": {
                "type": "Point",
                "coordinates": [
                    20.4914735,
                    49.4254107
                ]
            },
            "properties": {
                "ref:rspo": 266621,
                "official_name": "Niepubliczne Przedszkole \"Bajkowe Wzg\u00f3rze\"",
                "name": "Niepubliczne Przedszkole \"Bajkowe Wzg\u00f3rze\"",
                "addr:postcode": "34-460",
                "addr:city": "Szczawnica",
                "addr:street": "Osiedle Po\u0142oniny",
                "addr:housenumber": "4",
                "addr:city:simc": 963454,
                "addr:street:sym_ul": 17065,
                "phone": "+48 182653131",
                "email": "bajkowewzgorze1@gmail.com",
                "ref:regon": "369609086",
                "ref:vatin": "PL7352825068",
                "operator": "Marzena Kruczek",
                "operator:type": "private",
                "amenity": "kindergarten"
            }
        },
        {
            "id": 74122,
            "type": "Feature",
            "geometry": {
                "type": "Point",
                "coordinates": [
                    20.48106,
                    49.42644
                ]
            },
            "properties": {
                "isced:level": "1;2",
                "ref:rspo": 74122,
                "official_name": "Szko\u0142a Podstawowa nr 1 im. Henryka Sienkiewicza",
                "name": "Szko\u0142a Podstawowa nr 1",
                "addr:postcode": "34-460",
                "addr:city": "Szczawnica",
                "addr:street": "G\u0142\u00f3wna",
                "addr:housenumber": "12",
                "addr:city:simc": 963454,
                "addr:street:sym_ul": 5635,
                "phone": "+48 182622601",
                "email": "sekretariat@sp1.szczawnica.pl",
                "website": "http:\/\/sp1.szczawnica.pl",
                "ref:regon": "490675920",
                "ref:vatin": "PL7351164883",
                "operator": "Miasto I Gmina Szczawnica",
                "operator:type": "government",
                "amenity": "school"
            }
        },
        {
            "id": 133815,
            "type": "Feature",
            "geometry": {
                "type": "Point",
                "coordinates": [
                    20.46608,
                    49.42799
                ]
            },
            "properties": {
                "isced:level": "1;2",
                "ref:rspo": 133815,
                "official_name": "Szko\u0142a Podstawowa nr 2 im. Ks.prof. J\u00f3zefa Tischnera",
                "name": "Szko\u0142a Podstawowa nr 2",
                "addr:postcode": "34-460",
                "addr:city": "Szczawnica",
                "addr:street": "G\u0142\u00f3wna",
                "addr:housenumber": "116",
                "addr:city:simc": 963454,
                "addr:street:sym_ul": 5635,
                "phone": "+48 182622484",
                "email": "gpszczawnica@interia.pl",
                "website": "http:\/\/sp2.szczawnica.pl",
                "ref:regon": "367667620",
                "ref:vatin": "PL7352873015",
                "operator": "Miasto I Gmina Szczawnica",
                "operator:type": "government",
                "amenity": "school"
            }
        },
        {
            "id": 73503,
            "type": "Feature",
            "geometry": {
                "type": "Point",
                "coordinates": [
                    19.96321,
                    49.6111099
                ]
            },
            "properties": {
                "isced:level": "1;2",
                "ref:rspo": 73503,
                "official_name": "Szko\u0142a Podstawowa im. Jana Paw\u0142a Ii",
                "name": "Szko\u0142a Podstawowa",
                "addr:postcode": "34-460",
                "addr:city": "Szlachtowa",
                "addr:street": "Jana Paw\u0142a II",
                "addr:housenumber": "25",
                "addr:city:simc": 963715,
                "addr:street:sym_ul": 7123,
                "phone": "+48 182620100",
                "email": "sp3szlachtowa@wp.pl",
                "website": "http:\/\/www.sp-szlachtowa.pl",
                "ref:regon": "490669657",
                "ref:vatin": "PL7351164972",
                "operator": "Miasto I Gmina Szczawnica",
                "operator:type": "government",
                "amenity": "school"
            }
        }
    ]
}