{
    "type": "FeatureCollection",
    "features": [
        {
            "id": 92526,
            "type": "Feature",
            "geometry": {
                "type": "Point",
                "coordinates": [
                    19.8769,
                    49.3477
                ]
            },
            "properties": {
                "isced:level": "1;2",
                "ref:rspo": 92526,
                "official_name": "Szko\u0142a Podstawowa Nr 3 w Cichem",
                "name": "Szko\u0142a Podstawowa Nr 3 w Cichem",
                "addr:postcode": "34-407",
                "addr:place": "Ciche",
                "addr:housenumber": "611a",
                "addr:city:simc": 421523,
                "phone": "+48 182658102",
                "email": "sp3ciche@czarny-dunajec.pl",
                "website": "http:\/\/spciciche3.szkolnastrona.pl",
                "ref:regon": "122600530",
                "ref:vatin": "PL7352855939",
                "operator": "Gmina Czarny Dunajec",
                "operator:type": "government",
                "amenity": "school"
            }
        },
        {
            "id": 103367,
            "type": "Feature",
            "geometry": {
                "type": "Point",
                "coordinates": [
                    19.8769,
                    49.34767
                ]
            },
            "properties": {
                "ref:rspo": 103367,
                "official_name": "Punkt Przedszkolny w Szkole Podstawowej Nr 3 w Cichem",
                "name": "Punkt Przedszkolny w Szkole Podstawowej Nr 3 w Cichem",
                "addr:postcode": "34-407",
                "addr:place": "Ciche",
                "addr:housenumber": "611A",
                "addr:city:simc": 421523,
                "phone": "+48 182658102",
                "email": "sp3ciche@czarny-dunajec.pl",
                "website": "http:\/\/spciciche3.szkolnastrona.pl",
                "ref:regon": "122729904",
                "operator": "Gmina Czarny Dunajec",
                "operator:type": "government",
                "amenity": "kindergarten"
            }
        },
        {
            "id": 58210,
            "type": "Feature",
            "geometry": {
                "type": "Point",
                "coordinates": [
                    19.85494,
                    49.35985
                ]
            },
            "properties": {
                "isced:level": "1;2",
                "ref:rspo": 58210,
                "official_name": "Szko\u0142a Podstawowa Nr 1 im. Bohater\u00f3w Westerplatte w Cichem",
                "name": "Szko\u0142a Podstawowa Nr 1",
                "addr:postcode": "34-407",
                "addr:place": "Ciche",
                "addr:housenumber": "152",
                "addr:city:simc": 421523,
                "phone": "+48 182658128",
                "email": "sp1ciche@czarny-dunajec.pl",
                "website": "http:\/\/zs1-ciche.pl\/",
                "ref:regon": "490657128",
                "ref:vatin": "PL7352858688",
                "operator": "Gmina Czarny Dunajec",
                "operator:type": "government",
                "amenity": "school"
            }
        },
        {
            "id": 121793,
            "type": "Feature",
            "geometry": {
                "type": "Point",
                "coordinates": [
                    19.85972,
                    49.3607299
                ]
            },
            "properties": {
                "isced:level": "1;2",
                "ref:rspo": 121793,
                "official_name": "Szko\u0142a Podstawowa Nr 2 im. Jana Paw\u0142a II w Cichem",
                "name": "Szko\u0142a Podstawowa Nr 2",
                "addr:postcode": "34-407",
                "addr:place": "Ciche",
                "addr:housenumber": "453a",
                "addr:city:simc": 421523,
                "phone": "+48 182658104",
                "email": "sp2ciche@czarny-dunajec.pl",
                "ref:regon": "123039886",
                "ref:vatin": "PL7352858671",
                "operator": "Gmina Czarny Dunajec",
                "operator:type": "government",
                "amenity": "school"
            }
        },
        {
            "id": 40766,
            "type": "Feature",
            "geometry": {
                "type": "Point",
                "coordinates": [
                    19.9293,
                    49.36787
                ]
            },
            "properties": {
                "ref:rspo": 40766,
                "official_name": "Szko\u0142a Specjalna Przysposabiaj\u0105ca Do Pracy Stowarzyszenia Przyjaci\u00f3\u0142 Szk\u00f3L Katolickich",
                "name": "Szko\u0142a Specjalna Przysposabiaj\u0105ca Do Pracy Stowarzyszenia Przyjaci\u00f3\u0142 Szk\u00f3L Katolickich",
                "addr:postcode": "34-407",
                "addr:place": "Czerwienne",
                "addr:housenumber": "245",
                "addr:city:simc": 421635,
                "phone": "+48 182658134",
                "email": "szkolysp.czerwienne@interia.pl",
                "ref:regon": "122696725",
                "ref:vatin": "PL7352714038",
                "operator": "Stowarzyszenie Przyjaci\u00f3\u0142 Szk\u00f3\u0142 Katolickich",
                "operator:type": "ngo",
                "amenity": "school"
            }
        },
        {
            "id": 40955,
            "type": "Feature",
            "geometry": {
                "type": "Point",
                "coordinates": [
                    19.9293,
                    49.36784
                ]
            },
            "properties": {
                "isced:level": "3",
                "ref:rspo": 40955,
                "official_name": "Bran\u017cowa Szko\u0142a I Stopnia Specjalna Stowarzyszenia Przyjaci\u00f3\u0142 Szk\u00f3\u0142 Katolickich w Czerwiennem",
                "name": "Bran\u017cowa Szko\u0142a I Stopnia Specjalna Stowarzyszenia Przyjaci\u00f3\u0142 Szk\u00f3\u0142 Katolickich w Czerwiennem",
                "addr:postcode": "34-407",
                "addr:place": "Czerwienne",
                "addr:housenumber": "245",
                "addr:city:simc": 421635,
                "phone": "+48 182658134",
                "email": "szkolysp.czerwienne@interia.pl",
                "ref:regon": "122696754",
                "ref:vatin": "PL7352742342",
                "operator": "Stowarzyszenie Przyjaci\u00f3\u0142 Szk\u00f3\u0142 Katolickich",
                "operator:type": "ngo",
                "amenity": "school"
            }
        },
        {
            "id": 63985,
            "type": "Feature",
            "geometry": {
                "type": "Point",
                "coordinates": [
                    19.9293,
                    49.367810000000006
                ]
            },
            "properties": {
                "ref:rspo": 63985,
                "official_name": "Przedszkole im. \u015aw. Jana Paw\u0142a II Stowarzyszenia Przyjaci\u00f3\u0142 Szk\u00f3\u0142 Katolickich",
                "name": "Przedszkole",
                "addr:postcode": "34-407",
                "addr:place": "Czerwienne",
                "addr:housenumber": "245",
                "addr:city:simc": 421635,
                "phone": "+48 182658134",
                "email": "przedszkoleczerwienne@gmail.com",
                "ref:regon": "122696926",
                "ref:vatin": "PL7352835204",
                "operator": "Stowarzyszenie Przyjaci\u00f3\u0142 Szk\u00f3\u0142 Katolickich",
                "operator:type": "ngo",
                "amenity": "kindergarten"
            }
        },
        {
            "id": 64006,
            "type": "Feature",
            "geometry": {
                "type": "Point",
                "coordinates": [
                    19.9293,
                    49.36778
                ]
            },
            "properties": {
                "isced:level": "1;2",
                "ref:rspo": 64006,
                "official_name": "Katolicka Szko\u0142a Podstawowa Stowarzyszenia Przyjaci\u00f3\u0142 Szk\u00f3\u0142 Katolickich Z Oddzia\u0142ami Integracyjnymi im. Stefana Kardyna\u0142a Wyszy\u0144skiego",
                "name": "Katolicka Szko\u0142a Podstawowa Stowarzyszenia Przyjaci\u00f3\u0142 Szk\u00f3\u0142 Katolickich Z Oddzia\u0142ami Integracyjnymi",
                "addr:postcode": "34-407",
                "addr:place": "Czerwienne",
                "addr:housenumber": "245",
                "addr:city:simc": 421635,
                "phone": "+48 182658134",
                "email": "sp2czerwienne@poczta.fm",
                "website": "http:\/\/www.spskczerwienne",
                "ref:regon": "122696932",
                "ref:vatin": "PL7352432133",
                "operator": "Stowarzyszenie Przyjaci\u00f3\u0142 Szk\u00f3\u0142 Katolickich",
                "operator:type": "ngo",
                "amenity": "school"
            }
        },
        {
            "id": 15587,
            "type": "Feature",
            "geometry": {
                "type": "Point",
                "coordinates": [
                    19.81782,
                    49.36991
                ]
            },
            "properties": {
                "isced:level": "1;2",
                "ref:rspo": 15587,
                "official_name": "Szko\u0142a Podstawowa im. Powsta\u0144c\u00f3w Chocho\u0142owskich w Chocho\u0142owie",
                "name": "Szko\u0142a Podstawowa",
                "addr:postcode": "34-513",
                "addr:place": "Chocho\u0142\u00f3w",
                "addr:housenumber": "184b",
                "addr:city:simc": 421517,
                "phone": "+48 182757408",
                "email": "spchocholow@czarny-dunajec.pl",
                "ref:regon": "490657097",
                "ref:vatin": "PL7352395886",
                "operator": "Gmina Czarny Dunajec",
                "operator:type": "government",
                "amenity": "school"
            }
        },
        {
            "id": 84779,
            "type": "Feature",
            "geometry": {
                "type": "Point",
                "coordinates": [
                    19.8962222,
                    49.3712412
                ]
            },
            "properties": {
                "isced:level": "1;2",
                "ref:rspo": 84779,
                "official_name": "Szko\u0142a Podstawowa im. Ks. Prof. J\u00f3zefa Tischnera w Ratu\u0142owie",
                "name": "Szko\u0142a Podstawowa",
                "addr:postcode": "34-407",
                "addr:place": "Ratu\u0142\u00f3w",
                "addr:housenumber": "159",
                "addr:city:simc": 422304,
                "phone": "+48 182658273",
                "email": "spratulow@czarny-dunajec.pl",
                "ref:regon": "490657157",
                "ref:vatin": "PL7352788976",
                "operator": "Gmina Czarny Dunajec",
                "operator:type": "government",
                "amenity": "school"
            }
        },
        {
            "id": 274333,
            "type": "Feature",
            "geometry": {
                "type": "Point",
                "coordinates": [
                    19.87578,
                    49.39209
                ]
            },
            "properties": {
                "ref:rspo": 274333,
                "official_name": "Niepubliczne Przedszkole \"Bajkowy \u015awiat\"",
                "name": "Niepubliczne Przedszkole \"Bajkowy \u015awiat\"",
                "addr:postcode": "34-407",
                "addr:place": "Ciche",
                "addr:housenumber": "137d",
                "addr:city:simc": 421523,
                "phone": "+48 888074282",
                "email": "mbajkowyswiat@gmail.com",
                "ref:regon": "385583575",
                "operator": "Gmina Czarny Dunajec",
                "operator:type": "government",
                "amenity": "kindergarten"
            }
        },
        {
            "id": 16307,
            "type": "Feature",
            "geometry": {
                "type": "Point",
                "coordinates": [
                    19.89946,
                    49.39403
                ]
            },
            "properties": {
                "isced:level": "1;2",
                "ref:rspo": 16307,
                "official_name": "Szko\u0142a Podstawowa Nr 1 im. Andrzeja Knapczyka-Ducha",
                "name": "Szko\u0142a Podstawowa Nr 1",
                "addr:postcode": "34-407",
                "addr:place": "Czerwienne",
                "addr:housenumber": "89",
                "addr:city:simc": 421635,
                "phone": "+48 182658106",
                "email": "sp1czerwienne@czarny-dunajec.pl",
                "website": "http:\/\/www.spnr1czerwienne.szkolna.net",
                "ref:regon": "490657074",
                "ref:vatin": "PL7352395892",
                "operator": "Gmina Czarny Dunajec",
                "operator:type": "government",
                "amenity": "school"
            }
        },
        {
            "id": 11878,
            "type": "Feature",
            "geometry": {
                "type": "Point",
                "coordinates": [
                    19.82461,
                    49.4026
                ]
            },
            "properties": {
                "isced:level": "1;2",
                "ref:rspo": 11878,
                "official_name": "Szko\u0142a Podstawowa w Podczerwonem im. Brata Witalisa-Wojciecha Lei",
                "name": "Szko\u0142a Podstawowa w Podczerwonem",
                "addr:postcode": "34-470",
                "addr:place": "Podczerwone",
                "addr:housenumber": "246",
                "addr:city:simc": 422149,
                "phone": "+48 182757956",
                "email": "sppodczerwone@czarny-dunajec.pl",
                "ref:regon": "490657000",
                "ref:vatin": "PL7352395969",
                "operator": "Gmina Czarny Dunajec",
                "operator:type": "government",
                "amenity": "school"
            }
        },
        {
            "id": 18242,
            "type": "Feature",
            "geometry": {
                "type": "Point",
                "coordinates": [
                    19.89393,
                    49.41577
                ]
            },
            "properties": {
                "isced:level": "1;2",
                "ref:rspo": 18242,
                "official_name": "Publiczna Szko\u0142a Podstawowa Nr 2 Stowarzyszenia Przyjaci\u00f3\u0142 Szk\u00f3\u0142 Katolickich im. Jana Paw\u0142a II w Starem Bystrem",
                "name": "Publiczna Szko\u0142a Podstawowa Nr 2 Stowarzyszenia Przyjaci\u00f3\u0142 Szk\u00f3\u0142 Katolickich",
                "addr:postcode": "34-407",
                "addr:place": "Stare Bystre",
                "addr:housenumber": "124",
                "addr:city:simc": 422356,
                "phone": "+48 182858665",
                "email": "ksp2spsk@onet.pl",
                "website": "http:\/\/www.starebystre2.spsk.info.pl",
                "ref:regon": "122668367",
                "ref:vatin": "PL7352432104",
                "operator": "Stowarzyszenie Przyjaci\u00f3\u0142 Szk\u00f3\u0142 Katolickich",
                "operator:type": "ngo",
                "amenity": "school"
            }
        },
        {
            "id": 84600,
            "type": "Feature",
            "geometry": {
                "type": "Point",
                "coordinates": [
                    19.89393,
                    49.41574
                ]
            },
            "properties": {
                "ref:rspo": 84600,
                "official_name": "Przedszkole Stowarzyszenia Przyjaci\u00f3\u0142 Szk\u00f3\u0142 Katolickich Nr 2 w Starem Bystrem",
                "name": "Przedszkole Stowarzyszenia Przyjaci\u00f3\u0142 Szk\u00f3\u0142 Katolickich Nr 2 w Starem Bystrem",
                "addr:postcode": "34-407",
                "addr:place": "Stare Bystre",
                "addr:housenumber": "124",
                "addr:city:simc": 422356,
                "phone": "+48 182858665",
                "email": "ksp2spsk@onet.pl",
                "ref:regon": "122711100",
                "ref:vatin": "PL7352834363",
                "operator": "Stowarzyszenie Przyjaci\u00f3\u0142 Szk\u00f3\u0142 Katolickich",
                "operator:type": "ngo",
                "amenity": "kindergarten"
            }
        },
        {
            "id": 114733,
            "type": "Feature",
            "geometry": {
                "type": "Point",
                "coordinates": [
                    19.84416,
                    49.42903
                ]
            },
            "properties": {
                "isced:level": "3",
                "ref:rspo": 114733,
                "official_name": "Liceum Og\u00f3lnokszta\u0142c\u0105ce Z Oddzia\u0142ami Integracyjnymi Stowarzyszenia Przyjaci\u00f3\u0142 Szk\u00f3\u0142 Katolickich im. \u015aw. Jana Bosko",
                "name": "Liceum Og\u00f3lnokszta\u0142c\u0105ce Z Oddzia\u0142ami Integracyjnymi Stowarzyszenia Przyjaci\u00f3\u0142 Szk\u00f3\u0142 Katolickich",
                "addr:postcode": "34-470",
                "addr:city": "Czarny Dunajec",
                "addr:street": "Kmietowicza",
                "addr:housenumber": "2",
                "addr:city:simc": 421629,
                "addr:street:sym_ul": 8650,
                "phone": "+48 182657670",
                "email": "liceum@czarnydunajec.spsk.pl",
                "website": "http:\/\/ploczarnydunajec.spsk.info.pl",
                "ref:regon": "122859788",
                "operator": "Stowarzyszenie Przyjaci\u00f3\u0142 Szk\u00f3\u0142 Katolickich",
                "operator:type": "ngo",
                "amenity": "school"
            }
        },
        {
            "id": 264018,
            "type": "Feature",
            "geometry": {
                "type": "Point",
                "coordinates": [
                    19.84416,
                    49.428999999999995
                ]
            },
            "properties": {
                "isced:level": "3",
                "ref:rspo": 264018,
                "official_name": "Technikum Stowarzyszenia Przyjaci\u00f3\u0142 Szk\u00f3\u0142 Katolickich im.\u015bw.stanis\u0142awa Biskupa I M\u0119czennika w Czarnym Dunajcu",
                "name": "Technikum Stowarzyszenia Przyjaci\u00f3\u0142 Szk\u00f3\u0142 Katolickich im.\u015bw.stanis\u0142awa Biskupa I M\u0119czennika w Czarnym Dunajcu",
                "addr:postcode": "34-470",
                "addr:city": "Czarny Dunajec",
                "addr:street": "Kmietowicza",
                "addr:housenumber": "2",
                "addr:city:simc": 421629,
                "addr:street:sym_ul": 8650,
                "phone": "+48 182657670",
                "email": "technikum@czarnydunajec.spsk.pl",
                "website": "http:\/\/www.ploczarnydunajec@spsk.info.pl",
                "ref:regon": "368251292",
                "operator": "Stowarzyszenie Przyjaci\u00f3\u0142 Szk\u00f3\u0142 Katolickich",
                "operator:type": "ngo",
                "amenity": "school"
            }
        },
        {
            "id": 64046,
            "type": "Feature",
            "geometry": {
                "type": "Point",
                "coordinates": [
                    19.92171,
                    49.43272
                ]
            },
            "properties": {
                "ref:rspo": 64046,
                "official_name": "Przedszkole Stowarzyszenia Przyjaci\u00f3\u0142 Szk\u00f3\u0142 Katolickich Nr 1 w Starem Bystrem",
                "name": "Przedszkole Stowarzyszenia Przyjaci\u00f3\u0142 Szk\u00f3\u0142 Katolickich Nr 1 w Starem Bystrem",
                "addr:postcode": "34-407",
                "addr:place": "Stare Bystre",
                "addr:housenumber": "347",
                "addr:city:simc": 422356,
                "phone": "+48 182858729",
                "email": "stare-bystre1@spsk.info.pl",
                "ref:regon": "122696955",
                "ref:vatin": "PL7352836020",
                "operator": "Stowarzyszenie Przyjaci\u00f3\u0142 Szk\u00f3\u0142 Katolickich",
                "operator:type": "ngo",
                "amenity": "kindergarten"
            }
        },
        {
            "id": 84602,
            "type": "Feature",
            "geometry": {
                "type": "Point",
                "coordinates": [
                    19.92171,
                    49.43269
                ]
            },
            "properties": {
                "isced:level": "1;2",
                "ref:rspo": 84602,
                "official_name": "Publiczna Szko\u0142a Podstawowa Nr 1 Stowarzyszenia Przyjaci\u00f3\u0142 Szk\u00f3\u0142 Katolickich im. \u015aw. Andrzeja Boboli w Starem Bystrem",
                "name": "Publiczna Szko\u0142a Podstawowa Nr 1 Stowarzyszenia Przyjaci\u00f3\u0142 Szk\u00f3\u0142 Katolickich",
                "addr:postcode": "34-407",
                "addr:place": "Stare Bystre",
                "addr:housenumber": "347",
                "addr:city:simc": 422356,
                "phone": "+48 182858729",
                "email": "stare-bystre1@spsk.info.pl",
                "website": "http:\/\/www.starebystre1.spsk.pl",
                "ref:regon": "122711123",
                "ref:vatin": "PL7352432110",
                "operator": "Stowarzyszenie Przyjaci\u00f3\u0142 Szk\u00f3\u0142 Katolickich",
                "operator:type": "ngo",
                "amenity": "school"
            }
        },
        {
            "id": 122744,
            "type": "Feature",
            "geometry": {
                "type": "Point",
                "coordinates": [
                    19.85073,
                    49.43528
                ]
            },
            "properties": {
                "ref:rspo": 122744,
                "official_name": "Niepubliczne Przedszkole \"Bajkowe Przedszkole\"",
                "name": "Niepubliczne Przedszkole \"Bajkowe Przedszkole\"",
                "addr:postcode": "34-470",
                "addr:city": "Czarny Dunajec",
                "addr:street": "Kmietowicza",
                "addr:housenumber": "84a",
                "addr:city:simc": 421629,
                "addr:street:sym_ul": 8650,
                "phone": "+48 182665824",
                "email": "mbajkowyswiat@gmail.com",
                "ref:regon": "123085001",
                "operator": "Marzena Kruczek",
                "operator:type": "private",
                "amenity": "kindergarten"
            }
        },
        {
            "id": 84598,
            "type": "Feature",
            "geometry": {
                "type": "Point",
                "coordinates": [
                    19.8529899,
                    49.4356099
                ]
            },
            "properties": {
                "ref:rspo": 84598,
                "official_name": "Przedszkole Samorz\u0105dowe w Czarnym Dunajcu",
                "name": "Przedszkole Samorz\u0105dowe w Czarnym Dunajcu",
                "addr:postcode": "34-470",
                "addr:city": "Czarny Dunajec",
                "addr:street": "Targowa",
                "addr:housenumber": "1B",
                "addr:city:simc": 421629,
                "addr:street:sym_ul": 22659,
                "phone": "+48 182657130",
                "email": "psdunajec@psdunajec.pl",
                "website": "http:\/\/www.psudunajec.pl",
                "ref:regon": "000971376",
                "ref:vatin": "PL7351085362",
                "operator": "Gmina Czarny Dunajec",
                "operator:type": "government",
                "amenity": "kindergarten"
            }
        },
        {
            "id": 58144,
            "type": "Feature",
            "geometry": {
                "type": "Point",
                "coordinates": [
                    19.8488599,
                    49.44133
                ]
            },
            "properties": {
                "isced:level": "1;2",
                "ref:rspo": 58144,
                "official_name": "Szko\u0142a Podstawowa w Czarnym Dunajcu",
                "name": "Szko\u0142a Podstawowa w Czarnym Dunajcu",
                "addr:postcode": "34-470",
                "addr:city": "Czarny Dunajec",
                "addr:street": "Ojca \u015awi\u0119tego Jana Paw\u0142a II",
                "addr:housenumber": "144",
                "addr:city:simc": 421629,
                "addr:street:sym_ul": 39941,
                "phone": "+48 182657323",
                "email": "zs@czarny-dunajec.pl",
                "ref:regon": "490657140",
                "ref:vatin": "PL7352855974",
                "operator": "Gmina Czarny Dunajec",
                "operator:type": "government",
                "amenity": "school"
            }
        },
        {
            "id": 34760,
            "type": "Feature",
            "geometry": {
                "type": "Point",
                "coordinates": [
                    19.84997,
                    49.44194
                ]
            },
            "properties": {
                "isced:level": "3",
                "ref:rspo": 34760,
                "official_name": "Bran\u017cowa Szko\u0142a I Stopnia Zak\u0142adu Doskonalenia Zawodowego w Krakowie Z Siedzib\u0105 w Czarnym Dunajcu",
                "name": "Bran\u017cowa Szko\u0142a I Stopnia Zak\u0142adu Doskonalenia Zawodowego w Krakowie Z Siedzib\u0105 w Czarnym Dunajcu",
                "addr:postcode": "34-470",
                "addr:city": "Czarny Dunajec",
                "addr:street": "Ignacego Mo\u015bcickiego",
                "addr:housenumber": "8",
                "addr:city:simc": 421629,
                "addr:street:sym_ul": 13390,
                "phone": "+48 182657173",
                "email": "branzowa.dunajec@zdz.krakow.pl",
                "website": "http:\/\/www.zszdunajec.pl",
                "ref:regon": "122693974",
                "ref:vatin": "PL6770051858",
                "operator": "Zak\u0142ad Doskonalenia Zawodowego",
                "operator:type": "ngo",
                "amenity": "school"
            }
        },
        {
            "id": 84606,
            "type": "Feature",
            "geometry": {
                "type": "Point",
                "coordinates": [
                    19.77274,
                    49.4780299
                ]
            },
            "properties": {
                "isced:level": "1;2",
                "ref:rspo": 84606,
                "official_name": "Szko\u0142a Podstawowa im. Kornela Makuszy\u0144skiego w Piekielniku",
                "name": "Szko\u0142a Podstawowa",
                "addr:postcode": "34-472",
                "addr:place": "Piekielnik",
                "addr:housenumber": "202",
                "addr:city:simc": 421977,
                "phone": "+48 182639014",
                "email": "sppiekielnik@czarny-dunajec.pl",
                "ref:regon": "490657016",
                "ref:vatin": "PL7352746972",
                "operator": "Gmina Czarny Dunajec",
                "operator:type": "government",
                "amenity": "school"
            }
        },
        {
            "id": 92794,
            "type": "Feature",
            "geometry": {
                "type": "Point",
                "coordinates": [
                    19.77274,
                    49.4779999
                ]
            },
            "properties": {
                "ref:rspo": 92794,
                "official_name": "Punkt Przedszkolny w Szkole Podstawowej im. Kornela Makuszy\u0144skiego w Piekielniku",
                "name": "Punkt Przedszkolny w Szkole Podstawowej",
                "addr:postcode": "34-472",
                "addr:place": "Piekielnik",
                "addr:housenumber": "202",
                "addr:city:simc": 421977,
                "phone": "+48 182639014",
                "email": "sppiekielnik@czarny-dunajec.pl",
                "ref:regon": "122726337",
                "operator": "Gmina Czarny Dunajec",
                "operator:type": "government",
                "amenity": "kindergarten"
            }
        },
        {
            "id": 84604,
            "type": "Feature",
            "geometry": {
                "type": "Point",
                "coordinates": [
                    19.89863,
                    49.48839
                ]
            },
            "properties": {
                "isced:level": "1;2",
                "ref:rspo": 84604,
                "official_name": "Szko\u0142a Podstawowa im. \u015aw. Jadwigi Kr\u00f3lowej w Pieni\u0105\u017ckowicach Ze Szko\u0142\u0105 Podstawow\u0105 Filialn\u0105 w Dziale",
                "name": "Szko\u0142a Podstawowa",
                "addr:postcode": "34-408",
                "addr:place": "Dzia\u0142",
                "addr:housenumber": "9",
                "addr:city:simc": 421747,
                "phone": "+48 182758523",
                "email": "sppieniazkowice@czarny-dunajec.pl",
                "ref:regon": "490657022",
                "ref:vatin": "PL7352395917",
                "operator": "Gmina Czarny Dunajec",
                "operator:type": "government",
                "amenity": "school",
                "note": "Parent RSPO: 15588"
            }
        },
        {
            "id": 262338,
            "type": "Feature",
            "geometry": {
                "type": "Point",
                "coordinates": [
                    19.82247,
                    49.49337
                ]
            },
            "properties": {
                "isced:level": "1;2",
                "ref:rspo": 262338,
                "official_name": "Szko\u0142a Podstawowa im. \u015aw. Stanis\u0142awa Kostki w Za\u0142ucznem",
                "name": "Szko\u0142a Podstawowa",
                "addr:postcode": "34-408",
                "addr:place": "Za\u0142uczne",
                "addr:housenumber": "84a",
                "addr:city:simc": 422480,
                "phone": "+48 182639250",
                "email": "spzaluczne@czarny-dunajec.pl",
                "website": "http:\/\/spzaluczne.iap.pl",
                "ref:regon": "367995330",
                "ref:vatin": "PL7352873096",
                "operator": "Gmina Czarny Dunajec",
                "operator:type": "government",
                "amenity": "school"
            }
        },
        {
            "id": 12430,
            "type": "Feature",
            "geometry": {
                "type": "Point",
                "coordinates": [
                    19.85864,
                    49.49712
                ]
            },
            "properties": {
                "isced:level": "1;2",
                "ref:rspo": 12430,
                "official_name": "Szko\u0142a Podstawowa im. \u015aw. Jana Kantego w Odrow\u0105\u017cu",
                "name": "Szko\u0142a Podstawowa",
                "addr:postcode": "34-408",
                "addr:place": "Odrow\u0105\u017c",
                "addr:housenumber": "41",
                "addr:city:simc": 421871,
                "phone": "+48 182758520",
                "email": "spodrowaz@czarny-dunajec.pl",
                "website": "https:\/\/spodrowaz.szkolnastrona.pl\/",
                "ref:regon": "490657039",
                "ref:vatin": "PL7352395923",
                "operator": "Gmina Czarny Dunajec",
                "operator:type": "government",
                "amenity": "school"
            }
        },
        {
            "id": 15588,
            "type": "Feature",
            "geometry": {
                "type": "Point",
                "coordinates": [
                    19.8902516,
                    49.5097282
                ]
            },
            "properties": {
                "isced:level": "1;2",
                "ref:rspo": 15588,
                "official_name": "Szko\u0142a Podstawowa im. \u015aw. Jadwigi Kr\u00f3lowej w Pieni\u0105\u017ckowicach Ze Szko\u0142\u0105 Podstawow\u0105 Filialn\u0105 w Dziale",
                "name": "Szko\u0142a Podstawowa",
                "addr:postcode": "34-408",
                "addr:place": "Pieni\u0105\u017ckowice",
                "addr:housenumber": "142",
                "addr:city:simc": 422095,
                "phone": "+48 182758579",
                "email": "sppieniazkowice@czarny-dunajec.pl",
                "website": "http:\/\/sppieniazkowice.szkolna.net",
                "ref:regon": "490657022",
                "ref:vatin": "PL7352395946",
                "operator": "Gmina Czarny Dunajec",
                "operator:type": "government",
                "amenity": "school",
                "note": "Children RSPO: 84604"
            }
        },
        {
            "id": 12386,
            "type": "Feature",
            "geometry": {
                "type": "Point",
                "coordinates": [
                    19.80189,
                    49.51196
                ]
            },
            "properties": {
                "isced:level": "1;2",
                "ref:rspo": 12386,
                "official_name": "Szko\u0142a Podstawowa im. Jana Paw\u0142a II w Podszklu",
                "name": "Szko\u0142a Podstawowa",
                "addr:postcode": "34-472",
                "addr:place": "Podszkle",
                "addr:housenumber": "47",
                "addr:city:simc": 422209,
                "phone": "+48 182857007",
                "email": "sppodszkle@czarny-dunajec.pl",
                "ref:regon": "490656985",
                "ref:vatin": "PL7352395975",
                "operator": "Gmina Czarny Dunajec",
                "operator:type": "government",
                "amenity": "school"
            }
        }
    ]
}