{
    "type": "FeatureCollection",
    "features": [
        {
            "id": 75316,
            "type": "Feature",
            "geometry": {
                "type": "Point",
                "coordinates": [
                    19.6391,
                    49.47425
                ]
            },
            "properties": {
                "isced:level": "1;2",
                "ref:rspo": 75316,
                "official_name": "Szko\u0142a Podstawowa Nr 1 im. \u015aw. Kr\u00f3lowej Jadwigi",
                "name": "Szko\u0142a Podstawowa Nr 1",
                "addr:country": "PL",
                "addr:postcode": "34-483",
                "addr:place": "Lipnica Wielka",
                "addr:housenumber": "205",
                "addr:teryt:sym_ul": 440791,
                "contact:phone": "+48 182634520",
                "contact:email": "sp1lipnicawielka@gmail.com",
                "contact:website": "http:\/\/sp1lipnicawielka.pl",
                "ref:regon": "490663726",
                "ref:vatin": "PL7352872889",
                "operator": "Gmina Lipnica Wielka",
                "operator:type": "government",
                "amenity": "school"
            }
        },
        {
            "id": 125260,
            "type": "Feature",
            "geometry": {
                "type": "Point",
                "coordinates": [
                    19.63682,
                    49.4744
                ]
            },
            "properties": {
                "ref:rspo": 125260,
                "official_name": "Prywatne Przedszkole \"Bajkowa Kraina\" Patrycja Wojtusiak",
                "name": "Prywatne Przedszkole \"Bajkowa Kraina\" Patrycja Wojtusiak",
                "addr:country": "PL",
                "addr:postcode": "34-483",
                "addr:place": "Lipnica Wielka",
                "addr:housenumber": "209",
                "addr:teryt:sym_ul": 440791,
                "contact:phone": "+48 669145721",
                "contact:email": "patrycjawojtusiak@wp.pl",
                "ref:regon": "123214540",
                "ref:vatin": "PL7352845987",
                "operator": "Patrycja Wojtusiak",
                "operator:type": "private",
                "amenity": "kindergarten"
            }
        },
        {
            "id": 75317,
            "type": "Feature",
            "geometry": {
                "type": "Point",
                "coordinates": [
                    19.61705,
                    49.49631
                ]
            },
            "properties": {
                "isced:level": "1;2",
                "ref:rspo": 75317,
                "official_name": "Szko\u0142a Podstawowa Nr 2 im. J\u00f3zefiny I Emila Mik\u00f3w",
                "name": "Szko\u0142a Podstawowa Nr 2",
                "addr:country": "PL",
                "addr:postcode": "34-483",
                "addr:place": "Lipnica Wielka",
                "addr:housenumber": "523",
                "addr:teryt:sym_ul": 440791,
                "contact:phone": "+48 182634099",
                "contact:email": "sp2@lipnicawielka.pl",
                "contact:website": "http:\/\/www.sp2lipnicawielka.pl",
                "ref:regon": "490663732",
                "ref:vatin": "PL7352872895",
                "operator": "Gmina Lipnica Wielka",
                "operator:type": "government",
                "amenity": "school"
            }
        },
        {
            "id": 268192,
            "type": "Feature",
            "geometry": {
                "type": "Point",
                "coordinates": [
                    19.61705,
                    49.49628
                ]
            },
            "properties": {
                "ref:rspo": 268192,
                "official_name": "Zesp\u00f3\u0142 Szk\u00f3\u0142 w Lipnicy Wielkiej",
                "name": "Zesp\u00f3\u0142 Szk\u00f3\u0142 w Lipnicy Wielkiej",
                "addr:country": "PL",
                "addr:postcode": "34-483",
                "addr:place": "Lipnica Wielka",
                "addr:housenumber": "523",
                "addr:teryt:sym_ul": 440791,
                "contact:phone": "+48 182634812",
                "contact:email": "lipnicawzs@gmail.com",
                "ref:regon": "381010990",
                "ref:vatin": "PL7352878998",
                "operator": "Gmina Lipnica Wielka",
                "operator:type": "government",
                "landuse": "education",
                "fixme": "amenity=school, amenity=college albo landuse=education w zale\u017cno\u015bci od tego, jakie plac\u00f3wki wchodz\u0105 w sk\u0142ad zespo\u0142u. Sprawd\u017a, kiedy stosowa\u0107 amenity=* a kiedy landuse=education.",
                "note": "Children RSPO: 75315;75321;268190"
            }
        },
        {
            "id": 75315,
            "type": "Feature",
            "geometry": {
                "type": "Point",
                "coordinates": [
                    19.61705,
                    49.49625
                ]
            },
            "properties": {
                "isced:level": "3",
                "ref:rspo": 75315,
                "official_name": "Liceum Og\u00f3lnokszta\u0142c\u0105ce",
                "name": "Liceum Og\u00f3lnokszta\u0142c\u0105ce",
                "addr:country": "PL",
                "addr:postcode": "34-483",
                "addr:place": "Lipnica Wielka",
                "addr:housenumber": "523",
                "addr:teryt:sym_ul": 440791,
                "contact:phone": "+48 182634099",
                "contact:email": "lipnicawzs@gmail.com",
                "contact:website": "http:\/\/www.zslipnicawielka.pl",
                "ref:regon": "492911068",
                "ref:vatin": "PL7352872955",
                "operator": "Gmina Lipnica Wielka",
                "operator:type": "government",
                "amenity": "school",
                "note": "Parent RSPO: 268192"
            }
        },
        {
            "id": 75321,
            "type": "Feature",
            "geometry": {
                "type": "Point",
                "coordinates": [
                    19.61705,
                    49.49622
                ]
            },
            "properties": {
                "isced:level": "3",
                "ref:rspo": 75321,
                "official_name": "Technikum",
                "name": "Technikum",
                "addr:country": "PL",
                "addr:postcode": "34-483",
                "addr:place": "Lipnica Wielka",
                "addr:housenumber": "523",
                "addr:teryt:sym_ul": 440791,
                "contact:phone": "+48 182634099",
                "contact:email": "lipnicawzs@gmail.com",
                "contact:website": "http:\/\/www.zslipnicawielka.pl",
                "ref:regon": "120749630",
                "ref:vatin": "PL7352872961",
                "operator": "Gmina Lipnica Wielka",
                "operator:type": "government",
                "amenity": "school",
                "note": "Parent RSPO: 268192"
            }
        },
        {
            "id": 268190,
            "type": "Feature",
            "geometry": {
                "type": "Point",
                "coordinates": [
                    19.61705,
                    49.49619
                ]
            },
            "properties": {
                "isced:level": "3",
                "ref:rspo": 268190,
                "official_name": "Szko\u0142a Bran\u017cowa I Stopnia w Lipnicy Wielkiej",
                "name": "Szko\u0142a Bran\u017cowa I Stopnia w Lipnicy Wielkiej",
                "addr:country": "PL",
                "addr:postcode": "34-483",
                "addr:place": "Lipnica Wielka",
                "addr:housenumber": "523",
                "addr:teryt:sym_ul": 440791,
                "contact:phone": "+48 182634099",
                "contact:email": "lipnicawzs@gmail.com",
                "contact:website": "http:\/\/www.zslipnicawielka.pl",
                "ref:regon": "381011043",
                "operator": "Gmina Lipnica Wielka",
                "operator:type": "government",
                "amenity": "school",
                "note": "Parent RSPO: 268192"
            }
        },
        {
            "id": 75322,
            "type": "Feature",
            "geometry": {
                "type": "Point",
                "coordinates": [
                    19.59424,
                    49.5118
                ]
            },
            "properties": {
                "isced:level": "1;2",
                "ref:rspo": 75322,
                "official_name": "Szko\u0142a Podstawowa Nr 3 im. \u015aw. Stanis\u0142awa Kostki",
                "name": "Szko\u0142a Podstawowa Nr 3",
                "addr:country": "PL",
                "addr:postcode": "34-483",
                "addr:place": "Lipnica Wielka",
                "addr:housenumber": "825",
                "addr:teryt:sym_ul": 440791,
                "contact:phone": "+48 182634537",
                "contact:email": "sp3lipnicawielka@gmail.com",
                "contact:website": "http:\/\/sp3lipnicawielka.pl",
                "ref:regon": "490663749",
                "ref:vatin": "PL7352872926",
                "operator": "Gmina Lipnica Wielka",
                "operator:type": "government",
                "amenity": "school"
            }
        },
        {
            "id": 76301,
            "type": "Feature",
            "geometry": {
                "type": "Point",
                "coordinates": [
                    19.5554,
                    49.52231
                ]
            },
            "properties": {
                "isced:level": "1;2",
                "ref:rspo": 76301,
                "official_name": "Szko\u0142a Podstawowa Nr 4 im. Dra Emila Kowalczyka",
                "name": "Szko\u0142a Podstawowa Nr 4",
                "addr:country": "PL",
                "addr:postcode": "34-483",
                "addr:place": "Lipnica Wielka",
                "addr:housenumber": "1043",
                "addr:teryt:sym_ul": 440791,
                "contact:phone": "+48 182634521",
                "contact:email": "sp4@lipnicawielka.pl",
                "ref:regon": "490663755",
                "ref:vatin": "PL7352872932",
                "operator": "Gmina Lipnica Wielka",
                "operator:type": "government",
                "amenity": "school"
            }
        },
        {
            "id": 75314,
            "type": "Feature",
            "geometry": {
                "type": "Point",
                "coordinates": [
                    19.59191,
                    49.53434
                ]
            },
            "properties": {
                "ref:rspo": 75314,
                "official_name": "Publiczne Przedszkole",
                "name": "Publiczne Przedszkole",
                "addr:country": "PL",
                "addr:postcode": "34-483",
                "addr:place": "Kiczory",
                "addr:housenumber": "60",
                "addr:teryt:sym_ul": 440762,
                "contact:phone": "+48 182635023",
                "contact:email": "publiczneprzedszkole@lipnicawielka.pl",
                "ref:regon": "492830832",
                "ref:vatin": "PL7352872984",
                "operator": "Gmina Lipnica Wielka",
                "operator:type": "government",
                "amenity": "kindergarten"
            }
        },
        {
            "id": 76302,
            "type": "Feature",
            "geometry": {
                "type": "Point",
                "coordinates": [
                    19.59191,
                    49.53431
                ]
            },
            "properties": {
                "isced:level": "1;2",
                "ref:rspo": 76302,
                "official_name": "Szko\u0142a Podstawowa im. B\u0142. Jana Paw\u0142a II w Kiczorach",
                "name": "Szko\u0142a Podstawowa",
                "addr:country": "PL",
                "addr:postcode": "34-483",
                "addr:place": "Kiczory",
                "addr:housenumber": "60",
                "addr:teryt:sym_ul": 440762,
                "contact:phone": "+48 182634515",
                "contact:email": "sekretariat@spkiczory.pl",
                "ref:regon": "490663778",
                "ref:vatin": "PL7352872949",
                "operator": "Gmina Lipnica Wielka",
                "operator:type": "government",
                "amenity": "school"
            }
        }
    ]
}