{
    "type": "FeatureCollection",
    "features": [
        {
            "id": 61305,
            "type": "Feature",
            "geometry": {
                "type": "Point",
                "coordinates": [
                    19.96468,
                    49.5610799
                ]
            },
            "properties": {
                "ref:rspo": 61305,
                "official_name": "Punkt Przedszkolny Przy Szkole Podstawowej w Rdzawce",
                "name": "Punkt Przedszkolny Przy Szkole Podstawowej w Rdzawce",
                "addr:country": "PL",
                "addr:postcode": "34-700",
                "addr:place": "Rdzawka",
                "addr:housenumber": "60",
                "addr:teryt:simc": 463881,
                "contact:phone": "+48 182678175",
                "ref:regon": "121390183",
                "operator": "Gmina Rabka Zdr\u00f3j",
                "operator:type": "government",
                "amenity": "kindergarten"
            }
        },
        {
            "id": 85900,
            "type": "Feature",
            "geometry": {
                "type": "Point",
                "coordinates": [
                    19.96468,
                    49.5610499
                ]
            },
            "properties": {
                "isced:level": "1;2",
                "ref:rspo": 85900,
                "official_name": "Szko\u0142a Podstawowa im. Bohater\u00f3w Walk O Wolno\u015b\u0107 w Rdzawce",
                "name": "Szko\u0142a Podstawowa",
                "addr:country": "PL",
                "addr:postcode": "34-700",
                "addr:place": "Rdzawka",
                "addr:housenumber": "60",
                "addr:teryt:simc": 463881,
                "contact:phone": "+48 182678175",
                "contact:email": "rdzawkaszkola@op.pl",
                "contact:website": "http:\/\/www.zsrdzawka.rabka.pl",
                "ref:regon": "490675072",
                "operator": "Gmina Rabka Zdr\u00f3j",
                "operator:type": "government",
                "amenity": "school"
            }
        },
        {
            "id": 61298,
            "type": "Feature",
            "geometry": {
                "type": "Point",
                "coordinates": [
                    19.97625,
                    49.57531
                ]
            },
            "properties": {
                "ref:rspo": 61298,
                "official_name": "Punkt Przedszkolny Przy Szkole Podstawowej w Ponicach",
                "name": "Punkt Przedszkolny Przy Szkole Podstawowej w Ponicach",
                "addr:country": "PL",
                "addr:postcode": "34-700",
                "addr:place": "Ponice",
                "addr:housenumber": "105",
                "addr:teryt:simc": 463579,
                "contact:phone": "+48 182685192",
                "contact:email": "spponice@poczta.onet.pl",
                "contact:website": "http:\/\/www.spponice.szkolnastrona.pl",
                "ref:regon": "121396381",
                "operator": "Gmina Rabka Zdr\u00f3j",
                "operator:type": "government",
                "amenity": "kindergarten"
            }
        },
        {
            "id": 85898,
            "type": "Feature",
            "geometry": {
                "type": "Point",
                "coordinates": [
                    19.97625,
                    49.57528
                ]
            },
            "properties": {
                "isced:level": "1;2",
                "ref:rspo": 85898,
                "official_name": "Szko\u0142a Podstawowa im. Antoniny Zachary-Wn\u0119kowej w Ponicach",
                "name": "Szko\u0142a Podstawowa",
                "addr:country": "PL",
                "addr:postcode": "34-700",
                "addr:place": "Ponice",
                "addr:housenumber": "105",
                "addr:teryt:simc": 463579,
                "contact:phone": "+48 182685192",
                "contact:email": "spponice@poczta.onet.pl",
                "contact:website": "http:\/\/spponice.szkolnastrona.pl\/",
                "ref:regon": "490675089",
                "operator": "Gmina Rabka Zdr\u00f3j",
                "operator:type": "government",
                "amenity": "school"
            }
        },
        {
            "id": 85896,
            "type": "Feature",
            "geometry": {
                "type": "Point",
                "coordinates": [
                    19.92959,
                    49.59458
                ]
            },
            "properties": {
                "isced:level": "1;2",
                "ref:rspo": 85896,
                "official_name": "Szko\u0142a Podstawowa im. W\u0142adys\u0142awa Orkana w Chab\u00f3wce",
                "name": "Szko\u0142a Podstawowa",
                "addr:country": "PL",
                "addr:postcode": "34-720",
                "addr:place": "Chab\u00f3wka",
                "addr:housenumber": "232",
                "addr:teryt:simc": 463467,
                "contact:phone": "+48 182677552",
                "contact:email": "szkola.chabowka@gmail.com",
                "contact:website": "http:\/\/www.spchabowka.szkolnastrona.pl",
                "ref:regon": "490675095",
                "operator": "Gmina Rabka Zdr\u00f3j",
                "operator:type": "government",
                "amenity": "school"
            }
        },
        {
            "id": 85909,
            "type": "Feature",
            "geometry": {
                "type": "Point",
                "coordinates": [
                    19.9321165,
                    49.5977459
                ]
            },
            "properties": {
                "ref:rspo": 85909,
                "official_name": "Przedszkole w Chab\u00f3wce",
                "name": "Przedszkole w Chab\u00f3wce",
                "addr:country": "PL",
                "addr:postcode": "34-720",
                "addr:place": "Chab\u00f3wka",
                "addr:housenumber": "274a",
                "addr:teryt:simc": 463467,
                "contact:phone": "+48 182676838",
                "contact:email": "przedszkolechabowka@tlen.pl",
                "ref:regon": "490797036",
                "ref:vatin": "PL7352076939",
                "operator": "Gmina Rabka Zdr\u00f3j",
                "operator:type": "government",
                "amenity": "kindergarten"
            }
        },
        {
            "id": 10886,
            "type": "Feature",
            "geometry": {
                "type": "Point",
                "coordinates": [
                    19.97002,
                    49.60216
                ]
            },
            "properties": {
                "ref:rspo": 10886,
                "official_name": "Zesp\u00f3\u0142 Szk\u00f3\u0142 Specjalnych Przy \u015aL\u0105skim Centrum Rehabilitacyjno-Uzdrowiskowym im. Dr Adama Szebesty Sp. Z O.o.",
                "name": "Zesp\u00f3\u0142 Szk\u00f3\u0142 Specjalnych Przy \u015aL\u0105skim Centrum Rehabilitacyjno-Uzdrowiskowym",
                "addr:country": "PL",
                "addr:postcode": "34-700",
                "addr:city": "Rabka-Zdr\u00f3j",
                "addr:street": "Dietla",
                "addr:housenumber": "5",
                "addr:teryt:simc": 962503,
                "addr:teryt:sym_ul": 34871,
                "contact:phone": "+48 182680347",
                "contact:email": "sekretariat@szkolarabka.pl",
                "contact:website": "http:\/\/www.zssscru.rabka-net.pl",
                "ref:regon": "000202092",
                "ref:vatin": "PL7351647802",
                "operator": "Wojew\u00f3dztwo \u015al\u0105skie",
                "operator:type": "government",
                "landuse": "education",
                "fixme": "amenity=school, amenity=college albo landuse=education w zale\u017cno\u015bci od tego, jakie plac\u00f3wki wchodz\u0105 w sk\u0142ad zespo\u0142u. Sprawd\u017a, kiedy stosowa\u0107 amenity=* a kiedy landuse=education.",
                "note": "Children RSPO: 12215;118717"
            }
        },
        {
            "id": 12215,
            "type": "Feature",
            "geometry": {
                "type": "Point",
                "coordinates": [
                    19.97002,
                    49.602129999999995
                ]
            },
            "properties": {
                "isced:level": "1;2",
                "ref:rspo": 12215,
                "official_name": "Szko\u0142a Podstawowa Specjalna Nr 5 im. Powsta\u0144c\u00f3w \u015aL\u0105skich w Rabce-Zdroju",
                "name": "Szko\u0142a Podstawowa Specjalna Nr 5",
                "addr:country": "PL",
                "addr:postcode": "34-700",
                "addr:city": "Rabka-Zdr\u00f3j",
                "addr:street": "Dietla",
                "addr:housenumber": "5",
                "addr:teryt:simc": 962503,
                "addr:teryt:sym_ul": 34871,
                "contact:phone": "+48 182680347",
                "contact:email": "sekretariat@szkolarabka.pl",
                "contact:website": "http:\/\/www.zssscru.rabka-net.pl",
                "ref:regon": "492905211",
                "operator": "Wojew\u00f3dztwo \u015al\u0105skie",
                "operator:type": "government",
                "amenity": "school",
                "note": "Parent RSPO: 10886"
            }
        },
        {
            "id": 118717,
            "type": "Feature",
            "geometry": {
                "type": "Point",
                "coordinates": [
                    19.97002,
                    49.6021
                ]
            },
            "properties": {
                "isced:level": "3",
                "ref:rspo": 118717,
                "official_name": "Liceum Og\u00f3lnokszta\u0142c\u0105ce Specjalne Nr V",
                "name": "Liceum Og\u00f3lnokszta\u0142c\u0105ce Specjalne Nr V",
                "addr:country": "PL",
                "addr:postcode": "34-700",
                "addr:city": "Rabka-Zdr\u00f3j",
                "addr:street": "Dietla",
                "addr:housenumber": "5",
                "addr:teryt:simc": 962503,
                "addr:teryt:sym_ul": 34871,
                "contact:phone": "+48 182680347",
                "contact:email": "sekretariat@szkolarabka.pl",
                "contact:website": "http:\/\/www.zssscru.rabka-net.pl",
                "ref:regon": "122919119",
                "operator": "Wojew\u00f3dztwo \u015al\u0105skie",
                "operator:type": "government",
                "amenity": "school",
                "note": "Parent RSPO: 10886"
            }
        },
        {
            "id": 90072,
            "type": "Feature",
            "geometry": {
                "type": "Point",
                "coordinates": [
                    19.97002,
                    49.60207
                ]
            },
            "properties": {
                "ref:rspo": 90072,
                "official_name": "Przedszkole Specjalne w \u015aL\u0105skim Centrum Rehabilitacyjno-Uzdrowiskowym w Rabce-Zdroju",
                "name": "Przedszkole Specjalne w \u015aL\u0105skim Centrum Rehabilitacyjno-Uzdrowiskowym w Rabce-Zdroju",
                "addr:country": "PL",
                "addr:postcode": "34-700",
                "addr:city": "Rabka-Zdr\u00f3j",
                "addr:street": "Dietla",
                "addr:housenumber": "5",
                "addr:teryt:simc": 962503,
                "addr:teryt:sym_ul": 34871,
                "contact:phone": "+48 502301580",
                "contact:email": "zps@rabka.pl",
                "ref:regon": "120107400",
                "operator": "Gmina Rabka Zdr\u00f3j",
                "operator:type": "government",
                "amenity": "kindergarten",
                "note": "Parent RSPO: 85910"
            }
        },
        {
            "id": 128395,
            "type": "Feature",
            "geometry": {
                "type": "Point",
                "coordinates": [
                    19.95796,
                    49.60248
                ]
            },
            "properties": {
                "ref:rspo": 128395,
                "official_name": "O\u015brodek Rehabilitacyjno - Edukacyjno - Wychowawczy w Rabce - Zdroju",
                "name": "O\u015brodek Rehabilitacyjno - Edukacyjno - Wychowawczy w Rabce - Zdroju",
                "addr:country": "PL",
                "addr:postcode": "34-700",
                "addr:city": "Rabka-Zdr\u00f3j",
                "addr:street": "Podhala\u0144ska",
                "addr:housenumber": "42b",
                "addr:teryt:simc": 962503,
                "addr:teryt:sym_ul": 16756,
                "contact:phone": "+48 182677972",
                "contact:email": "orewrabka@gmail.com",
                "contact:website": "http:\/\/www.niepelnosprawni.rabka-net.pl",
                "ref:regon": "362266393",
                "operator": "Polskie Stowarzyszenie Na Rzecz Os\u00f3b Z Niepe\u0142nosprawno\u015bci\u0105 Intelektualn\u0105 Ko\u0142o W Rabce-Zdroju",
                "operator:type": "ngo",
                "amenity": "school"
            }
        },
        {
            "id": 85912,
            "type": "Feature",
            "geometry": {
                "type": "Point",
                "coordinates": [
                    19.98922,
                    49.6043
                ]
            },
            "properties": {
                "isced:level": "1;2",
                "ref:rspo": 85912,
                "official_name": "Szko\u0142a Podstawowa Nr 3 im. Adama Mickiewicza w Rabce-Zdroju",
                "name": "Szko\u0142a Podstawowa Nr 3",
                "addr:country": "PL",
                "addr:postcode": "34-700",
                "addr:city": "Rabka-Zdr\u00f3j",
                "addr:street": "Poniatowskiego",
                "addr:housenumber": "186",
                "addr:teryt:simc": 962503,
                "addr:teryt:sym_ul": 17100,
                "contact:phone": "+48 182676184",
                "contact:email": "dsp3@wp.pl",
                "contact:website": "http:\/\/www.sp3.rabka.pl",
                "ref:regon": "490669611",
                "ref:vatin": "PL7351301423",
                "operator": "Gmina Rabka Zdr\u00f3j",
                "operator:type": "government",
                "amenity": "school"
            }
        },
        {
            "id": 90071,
            "type": "Feature",
            "geometry": {
                "type": "Point",
                "coordinates": [
                    19.96954,
                    49.60445
                ]
            },
            "properties": {
                "ref:rspo": 90071,
                "official_name": "Przedszkole Specjalne w Instytucie Gru\u017alicy I Chor\u00f3b P\u0142uc w Rabce-Zdroju",
                "name": "Przedszkole Specjalne w Instytucie Gru\u017alicy I Chor\u00f3b P\u0142uc w Rabce-Zdroju",
                "addr:country": "PL",
                "addr:postcode": "34-700",
                "addr:city": "Rabka-Zdr\u00f3j",
                "addr:street": "Profesora Jana Rudnika",
                "addr:housenumber": "3b",
                "addr:teryt:simc": 962503,
                "addr:teryt:sym_ul": 34872,
                "contact:phone": "+48 502301580",
                "contact:email": "zps@rabka.pl",
                "ref:regon": "492007452",
                "operator": "Gmina Rabka Zdr\u00f3j",
                "operator:type": "government",
                "amenity": "kindergarten",
                "note": "Parent RSPO: 85910"
            }
        },
        {
            "id": 70964,
            "type": "Feature",
            "geometry": {
                "type": "Point",
                "coordinates": [
                    19.94968,
                    49.60638
                ]
            },
            "properties": {
                "ref:rspo": 70964,
                "official_name": "Niepubliczne Centrum Kszta\u0142cenia Ustawicznego w Rabce - Zdroju",
                "name": "Niepubliczne Centrum Kszta\u0142cenia Ustawicznego w Rabce - Zdroju",
                "addr:country": "PL",
                "addr:postcode": "34-700",
                "addr:city": "Rabka-Zdr\u00f3j",
                "addr:street": "Podhala\u0144ska",
                "addr:housenumber": "4",
                "addr:teryt:simc": 962503,
                "addr:teryt:sym_ul": 16756,
                "contact:phone": "+48 182676894",
                "contact:email": "kontakt@malopolska.edu.pl",
                "contact:website": "http:\/\/www.malopolska.edu.pl",
                "ref:regon": "122703276",
                "operator": "Rafa\u0142 Le\u015bniak",
                "operator:type": "private",
                "fixme": "w zale\u017cno\u015bci od przedmiotu dzia\u0142alno\u015bci (np. amenity=training + training=*, amenity=dancing_school, amenity=language_school, amenity=music_school)"
            }
        },
        {
            "id": 272616,
            "type": "Feature",
            "geometry": {
                "type": "Point",
                "coordinates": [
                    19.94968,
                    49.60635
                ]
            },
            "properties": {
                "ref:rspo": 272616,
                "official_name": "Niepubliczna Plac\u00f3wka Doskonalenia Nauczycieli Mce",
                "name": "Niepubliczna Plac\u00f3wka Doskonalenia Nauczycieli Mce",
                "addr:country": "PL",
                "addr:postcode": "34-700",
                "addr:city": "Rabka-Zdr\u00f3j",
                "addr:street": "Podhala\u0144ska",
                "addr:housenumber": "4",
                "addr:teryt:simc": 962503,
                "addr:teryt:sym_ul": 16756,
                "contact:phone": "+48 182676011",
                "contact:email": "nauczyciele@malopolska.edu.pl",
                "ref:regon": "384269641",
                "operator": "Rafa\u0142 Le\u015bniak",
                "operator:type": "private",
                "amenity": "training"
            }
        },
        {
            "id": 49150,
            "type": "Feature",
            "geometry": {
                "type": "Point",
                "coordinates": [
                    19.97277,
                    49.60671
                ]
            },
            "properties": {
                "isced:level": "3",
                "ref:rspo": 49150,
                "official_name": "Liceum Og\u00f3lnokszta\u0142c\u0105ce dla Doros\u0142ych",
                "name": "Liceum Og\u00f3lnokszta\u0142c\u0105ce dla Doros\u0142ych",
                "addr:country": "PL",
                "addr:postcode": "34-700",
                "addr:city": "Rabka-Zdr\u00f3j",
                "addr:street": "Aleja Tysi\u0105clecia",
                "addr:housenumber": "1",
                "addr:teryt:simc": 962503,
                "addr:teryt:sym_ul": 23266,
                "contact:phone": "+48 182676362",
                "contact:email": "elpio12@poczta.onet.pl",
                "ref:regon": "122694637",
                "ref:vatin": "PL7351426550",
                "operator": "El\u017cbieta Kurkiewicz",
                "operator:type": "private",
                "amenity": "school"
            }
        },
        {
            "id": 49563,
            "type": "Feature",
            "geometry": {
                "type": "Point",
                "coordinates": [
                    19.97277,
                    49.60668
                ]
            },
            "properties": {
                "isced:level": "3",
                "ref:rspo": 49563,
                "official_name": "Bran\u017cowa Szko\u0142a I Stopnia w Rabce-Zdroju",
                "name": "Bran\u017cowa Szko\u0142a I Stopnia w Rabce-Zdroju",
                "addr:country": "PL",
                "addr:postcode": "34-700",
                "addr:city": "Rabka-Zdr\u00f3j",
                "addr:street": "Aleja Tysi\u0105clecia",
                "addr:housenumber": "1",
                "addr:teryt:simc": 962503,
                "addr:teryt:sym_ul": 23266,
                "contact:phone": "+48 182676362",
                "contact:email": "elpio12@poczta.onet.pl",
                "ref:regon": "122694620",
                "ref:vatin": "PL7351426550",
                "operator": "El\u017cbieta Kurkiewicz",
                "operator:type": "private",
                "amenity": "school"
            }
        },
        {
            "id": 70971,
            "type": "Feature",
            "geometry": {
                "type": "Point",
                "coordinates": [
                    19.97277,
                    49.60665
                ]
            },
            "properties": {
                "ref:rspo": 70971,
                "official_name": "Centrum Kszta\u0142cenia Zawodowego - O\u015brodek Nauki Zawodu",
                "name": "Centrum Kszta\u0142cenia Zawodowego - O\u015brodek Nauki Zawodu",
                "addr:country": "PL",
                "addr:postcode": "34-700",
                "addr:city": "Rabka-Zdr\u00f3j",
                "addr:street": "Aleja Tysi\u0105clecia",
                "addr:housenumber": "1",
                "addr:teryt:simc": 962503,
                "addr:teryt:sym_ul": 23266,
                "contact:phone": "+48 182676362",
                "contact:email": "elpio12@poczta.onet.pl",
                "ref:regon": "122694531",
                "ref:vatin": "PL7351426550",
                "operator": "El\u017cbieta Kurkiewicz",
                "operator:type": "private",
                "fixme": "w zale\u017cno\u015bci od przedmiotu dzia\u0142alno\u015bci (np. amenity=training + training=*, amenity=dancing_school, amenity=language_school, amenity=music_school) albo amenity=school, amenity=college, albo landuse=education w zale\u017cno\u015bci od tego, jakie plac\u00f3wki wchodz\u0105 w sk\u0142ad zespo\u0142u. Sprawd\u017a, kiedy stosowa\u0107 amenity=* a kiedy landuse=education."
            }
        },
        {
            "id": 85910,
            "type": "Feature",
            "geometry": {
                "type": "Point",
                "coordinates": [
                    19.96702,
                    49.6071
                ]
            },
            "properties": {
                "ref:rspo": 85910,
                "official_name": "Zesp\u00f3\u0142 Przedszkoli Specjalnych dla Dzieci Przewlekle Chorych w Rabce-Zdroju",
                "name": "Zesp\u00f3\u0142 Przedszkoli Specjalnych dla Dzieci Przewlekle Chorych w Rabce-Zdroju",
                "addr:country": "PL",
                "addr:postcode": "34-700",
                "addr:city": "Rabka-Zdr\u00f3j",
                "addr:street": "Parkowa",
                "addr:housenumber": "2",
                "addr:teryt:simc": 962503,
                "addr:teryt:sym_ul": 15710,
                "contact:email": "zps@rabka.pl",
                "contact:website": "http:\/\/www.przedszkola.rabka.pl",
                "ref:regon": "492744127",
                "ref:vatin": "PL7352458960",
                "operator": "Gmina Rabka Zdr\u00f3j",
                "operator:type": "government",
                "landuse": "education",
                "fixme": "amenity=school, amenity=college albo landuse=education w zale\u017cno\u015bci od tego, jakie plac\u00f3wki wchodz\u0105 w sk\u0142ad zespo\u0142u. Sprawd\u017a, kiedy stosowa\u0107 amenity=* a kiedy landuse=education.",
                "note": "Children RSPO: 90070;90071;90072"
            }
        },
        {
            "id": 276531,
            "type": "Feature",
            "geometry": {
                "type": "Point",
                "coordinates": [
                    19.93929,
                    49.60761
                ]
            },
            "properties": {
                "ref:rspo": 276531,
                "official_name": "Punkt Przedszkolny Z Oddzia\u0142ami Integracyjnymi Baby Land",
                "name": "Punkt Przedszkolny Z Oddzia\u0142ami Integracyjnymi Baby Land",
                "addr:country": "PL",
                "addr:postcode": "34-700",
                "addr:city": "Rabka-Zdr\u00f3j",
                "addr:street": "Jana Kili\u0144skiego",
                "addr:housenumber": "19a",
                "addr:teryt:simc": 962503,
                "addr:teryt:sym_ul": 8431,
                "contact:email": "przedszkole.rabka@interia.pl",
                "ref:regon": "387222367",
                "operator": "Katarzyna Mierczak",
                "operator:type": "private",
                "amenity": "kindergarten"
            }
        },
        {
            "id": 123416,
            "type": "Feature",
            "geometry": {
                "type": "Point",
                "coordinates": [
                    19.96655,
                    49.60805
                ]
            },
            "properties": {
                "isced:level": "3",
                "ref:rspo": 123416,
                "official_name": "Bran\u017cowa Szko\u0142a I Stopnia Nr 1 w Rabce-Zdroju",
                "name": "Bran\u017cowa Szko\u0142a I Stopnia Nr 1 w Rabce-Zdroju",
                "addr:country": "PL",
                "addr:postcode": "34-700",
                "addr:city": "Rabka-Zdr\u00f3j",
                "addr:street": "Orkana",
                "addr:housenumber": "49",
                "addr:teryt:simc": 962503,
                "addr:teryt:sym_ul": 15139,
                "contact:phone": "+48 600373466",
                "contact:email": "zsznr1rabka@gmail.com",
                "ref:regon": "123156356",
                "operator": "Europejskie Stowarzyszenie Edukacyjne \"Magnus\"",
                "operator:type": "ngo",
                "amenity": "school"
            }
        },
        {
            "id": 268181,
            "type": "Feature",
            "geometry": {
                "type": "Point",
                "coordinates": [
                    19.95986,
                    49.60893
                ]
            },
            "properties": {
                "isced:level": "1;2",
                "ref:rspo": 268181,
                "official_name": "Katolicka Szko\u0142a Podstawowa im. Naj\u015bwi\u0119tszej Rodziny Z Nazaretu",
                "name": "Katolicka Szko\u0142a Podstawowa",
                "addr:country": "PL",
                "addr:postcode": "34-700",
                "addr:city": "Rabka-Zdr\u00f3j",
                "addr:street": "Brzozowa",
                "addr:housenumber": "2",
                "addr:teryt:simc": 962503,
                "addr:teryt:sym_ul": 2276,
                "contact:phone": "+48 185447224",
                "contact:email": "katolickaszkolarabka@interia.pl",
                "contact:website": "http:\/\/www.szkola-katolicka.rabka.pl",
                "ref:regon": "381005427",
                "operator": "Centrum Edukacyjne Archidiecezji Krakowskiej",
                "operator:type": "religious",
                "amenity": "school"
            }
        },
        {
            "id": 85903,
            "type": "Feature",
            "geometry": {
                "type": "Point",
                "coordinates": [
                    19.9559758,
                    49.60912
                ]
            },
            "properties": {
                "ref:rspo": 85903,
                "official_name": "Przedszkole Miejskie Nr 1 w Rabce-Zdroju",
                "name": "Przedszkole Miejskie Nr 1 w Rabce-Zdroju",
                "addr:country": "PL",
                "addr:postcode": "34-700",
                "addr:city": "Rabka-Zdr\u00f3j",
                "addr:street": "Orkana",
                "addr:housenumber": "18i",
                "addr:teryt:simc": 962503,
                "addr:teryt:sym_ul": 15139,
                "contact:phone": "+48 182676482",
                "contact:email": "przedszkole1@rabka.pl",
                "contact:website": "http:\/\/www.przedszkole1.rabka.pl",
                "ref:regon": "490796344",
                "ref:vatin": "PL7352080941",
                "operator": "Gmina Rabka Zdr\u00f3j",
                "operator:type": "government",
                "amenity": "kindergarten"
            }
        },
        {
            "id": 132042,
            "type": "Feature",
            "geometry": {
                "type": "Point",
                "coordinates": [
                    19.96,
                    49.60943
                ]
            },
            "properties": {
                "ref:rspo": 132042,
                "official_name": "Niepubliczne Przedszkole J\u0119zykowe \"Baby Land\"",
                "name": "Niepubliczne Przedszkole J\u0119zykowe \"Baby Land\"",
                "addr:country": "PL",
                "addr:postcode": "34-700",
                "addr:city": "Rabka-Zdr\u00f3j",
                "addr:street": "Brzozowa",
                "addr:housenumber": "6",
                "addr:teryt:simc": 962503,
                "addr:teryt:sym_ul": 2276,
                "contact:phone": "+48 512737768",
                "contact:email": "przedszkole.rabka@interia.pl",
                "ref:regon": "365430226",
                "operator": "Katarzyna Mierczak",
                "operator:type": "private",
                "amenity": "kindergarten"
            }
        },
        {
            "id": 15373,
            "type": "Feature",
            "geometry": {
                "type": "Point",
                "coordinates": [
                    19.96765,
                    49.60956
                ]
            },
            "properties": {
                "isced:level": "3",
                "ref:rspo": 15373,
                "official_name": "I Liceum Og\u00f3lnokszta\u0142c\u0105ce im.eugeniusza Romera w Rabce-Zdroju",
                "name": "I Liceum Og\u00f3lnokszta\u0142c\u0105ce im.eugeniusza Romera w Rabce-Zdroju",
                "addr:country": "PL",
                "addr:postcode": "34-700",
                "addr:city": "Rabka-Zdr\u00f3j",
                "addr:street": "Jana Paw\u0142a II",
                "addr:housenumber": "41",
                "addr:teryt:simc": 962503,
                "addr:teryt:sym_ul": 7123,
                "contact:phone": "+48 182677030",
                "contact:email": "dyrektor@romer.nowotarski.pl",
                "contact:website": "http:\/\/www.romer.nowotarski.pl",
                "ref:regon": "492890828",
                "ref:vatin": "PL7351361135",
                "operator": "Powiat Nowotarski",
                "operator:type": "government",
                "amenity": "school"
            }
        },
        {
            "id": 24916,
            "type": "Feature",
            "geometry": {
                "type": "Point",
                "coordinates": [
                    19.96765,
                    49.60953
                ]
            },
            "properties": {
                "ref:rspo": 24916,
                "official_name": "Pedagogiczna Biblioteka Wojew\u00f3dzka w Nowym S\u0105czu Filia w Rabce",
                "name": "Pedagogiczna Biblioteka Wojew\u00f3dzka w Nowym S\u0105czu Filia w Rabce",
                "addr:country": "PL",
                "addr:postcode": "34-700",
                "addr:city": "Rabka-Zdr\u00f3j",
                "addr:street": "Jana Paw\u0142a II",
                "addr:housenumber": "41",
                "addr:teryt:simc": 962503,
                "addr:teryt:sym_ul": 7123,
                "contact:phone": "+48 182680421",
                "contact:email": "pbrab@wp.pl",
                "contact:website": "http:\/\/www.rabka.pbwnowysacz.pl",
                "ref:regon": "714952000",
                "operator": "Wojew\u00f3dztwo Ma\u0142opolskie",
                "operator:type": "government",
                "amenity": "library",
                "note": "Parent RSPO: 18846"
            }
        },
        {
            "id": 277666,
            "type": "Feature",
            "geometry": {
                "type": "Point",
                "coordinates": [
                    19.94618,
                    49.60971
                ]
            },
            "properties": {
                "ref:rspo": 277666,
                "official_name": "Niepubliczna Poradnia Psychologiczno-Pedagogiczna Pozytywka",
                "name": "Niepubliczna Poradnia Psychologiczno-Pedagogiczna Pozytywka",
                "addr:country": "PL",
                "addr:postcode": "34-700",
                "addr:city": "Rabka-Zdr\u00f3j",
                "addr:street": "Rynek",
                "addr:housenumber": "1",
                "addr:teryt:simc": 962503,
                "addr:teryt:sym_ul": 19253,
                "contact:phone": "+48 572597510",
                "contact:email": "nppprabka@gmail.com",
                "contact:website": "https:\/\/www.facebook.com\/poradniarabka",
                "ref:regon": "389304098",
                "ref:vatin": "PL5491958412",
                "operator": "Wioletta Kraus",
                "operator:type": "private",
                "healthcare": "counselling",
                "counselling_type": "education",
                "fixme": "w zale\u017cno\u015bci od przedmiotu dzia\u0142alno\u015bci (np. healthcare=counselling + counselling_type=education albo healthcare=psychotherapist)"
            }
        },
        {
            "id": 263396,
            "type": "Feature",
            "geometry": {
                "type": "Point",
                "coordinates": [
                    19.96651,
                    49.60978
                ]
            },
            "properties": {
                "isced:level": "1;2",
                "ref:rspo": 263396,
                "official_name": "Szko\u0142a Podstawowa Nr 1 im. Obro\u0144c\u00f3w Poczty Polskiej w Gda\u0144sku w Rabce-Zdroju",
                "name": "Szko\u0142a Podstawowa Nr 1",
                "addr:country": "PL",
                "addr:postcode": "34-700",
                "addr:city": "Rabka-Zdr\u00f3j",
                "addr:street": "Jana Paw\u0142a II",
                "addr:housenumber": "40",
                "addr:teryt:simc": 962503,
                "addr:teryt:sym_ul": 7123,
                "contact:phone": "+48 182676721",
                "contact:email": "gimnazjum.rabka@wp.pl",
                "ref:regon": "368186650",
                "ref:vatin": "PL7352873044",
                "operator": "Gmina Rabka Zdr\u00f3j",
                "operator:type": "government",
                "amenity": "school"
            }
        },
        {
            "id": 18493,
            "type": "Feature",
            "geometry": {
                "type": "Point",
                "coordinates": [
                    19.9711,
                    49.6099699
                ]
            },
            "properties": {
                "ref:rspo": 18493,
                "official_name": "Poradnia Psychologiczno Pedagogiczna w Rabce-Zdroju",
                "name": "Poradnia Psychologiczno Pedagogiczna w Rabce-Zdroju",
                "addr:country": "PL",
                "addr:postcode": "34-700",
                "addr:city": "Rabka-Zdr\u00f3j",
                "addr:street": "Juliusza S\u0142owackiego",
                "addr:housenumber": "2",
                "addr:teryt:simc": 962503,
                "addr:teryt:sym_ul": 20286,
                "contact:phone": "+48 182677604",
                "contact:email": "ppprabka@nowotarski.pl",
                "contact:website": "http:\/\/www.ppprabka.nowotarski.pl",
                "ref:regon": "492731120",
                "ref:vatin": "PL7352452615",
                "operator": "Powiat Nowotarski",
                "operator:type": "government",
                "healthcare": "counselling",
                "counselling_type": "education",
                "fixme": "w zale\u017cno\u015bci od przedmiotu dzia\u0142alno\u015bci (np. healthcare=counselling + counselling_type=education albo healthcare=psychotherapist)"
            }
        },
        {
            "id": 120009,
            "type": "Feature",
            "geometry": {
                "type": "Point",
                "coordinates": [
                    19.96976,
                    49.61006
                ]
            },
            "properties": {
                "ref:rspo": 120009,
                "official_name": "Niepubliczny Punkt Przedszkolny Si\u00f3str S\u0142u\u017cebniczek Nmp Np im. B\u0142. Edmunda Bojanowskiego w Rabce-Zdroju",
                "name": "Niepubliczny Punkt Przedszkolny Si\u00f3str S\u0142u\u017cebniczek Nmp Np",
                "addr:country": "PL",
                "addr:postcode": "34-700",
                "addr:city": "Rabka-Zdr\u00f3j",
                "addr:street": "S\u0142oneczna",
                "addr:housenumber": "24",
                "addr:teryt:simc": 962503,
                "addr:teryt:sym_ul": 20254,
                "contact:phone": "+48 182677548",
                "contact:email": "siostry.rabka@wp.pl",
                "ref:regon": "122947044",
                "operator": "Zgromadzenie Si\u00f3str S\u0142u\u017cebniczek Naj\u015bwi\u0119tszej Maryi Panny Niepokalanie Pocz\u0119tej, Prowincja Krakowska",
                "operator:type": "religious",
                "amenity": "kindergarten"
            }
        },
        {
            "id": 85911,
            "type": "Feature",
            "geometry": {
                "type": "Point",
                "coordinates": [
                    19.9460799,
                    49.61079
                ]
            },
            "properties": {
                "isced:level": "1;2",
                "ref:rspo": 85911,
                "official_name": "Szko\u0142a Podstawowa Nr 2 im. W\u0142adys\u0142awa Orkana w Rabce-Zdroju",
                "name": "Szko\u0142a Podstawowa Nr 2",
                "addr:country": "PL",
                "addr:postcode": "34-700",
                "addr:city": "Rabka-Zdr\u00f3j",
                "addr:street": "S\u0105decka",
                "addr:housenumber": "2",
                "addr:teryt:simc": 962503,
                "addr:teryt:sym_ul": 19578,
                "contact:phone": "+48 182676677",
                "contact:email": "sp2rabka@poczta.onet.pl",
                "contact:website": "http:\/\/www.sp2.rabka.pl",
                "ref:regon": "490669628",
                "ref:vatin": "PL7351119492",
                "operator": "Gmina Rabka Zdr\u00f3j",
                "operator:type": "government",
                "amenity": "school"
            }
        },
        {
            "id": 19467,
            "type": "Feature",
            "geometry": {
                "type": "Point",
                "coordinates": [
                    19.97109,
                    49.61098
                ]
            },
            "properties": {
                "ref:rspo": 19467,
                "official_name": "Zesp\u00f3\u0142 Szk\u00f3\u0142 Uzdrowiskowych w Rabce",
                "name": "Zesp\u00f3\u0142 Szk\u00f3\u0142 Uzdrowiskowych w Rabce",
                "addr:country": "PL",
                "addr:postcode": "34-700",
                "addr:city": "Rabka-Zdr\u00f3j",
                "addr:street": "Juliusza S\u0142owackiego",
                "addr:housenumber": "10",
                "addr:teryt:simc": 962503,
                "addr:teryt:sym_ul": 20286,
                "contact:phone": "+48 182676444",
                "contact:email": "sekretariat@zsurabka.pl",
                "contact:website": "http:\/\/www.zsurabka.pl",
                "ref:regon": "120091930",
                "ref:vatin": "PL7352623620",
                "operator": "Wojew\u00f3dztwo Ma\u0142opolskie",
                "operator:type": "government",
                "landuse": "education",
                "fixme": "amenity=school, amenity=college albo landuse=education w zale\u017cno\u015bci od tego, jakie plac\u00f3wki wchodz\u0105 w sk\u0142ad zespo\u0142u. Sprawd\u017a, kiedy stosowa\u0107 amenity=* a kiedy landuse=education.",
                "note": "Children RSPO: 21335;48117"
            }
        },
        {
            "id": 21335,
            "type": "Feature",
            "geometry": {
                "type": "Point",
                "coordinates": [
                    19.97109,
                    49.610949999999995
                ]
            },
            "properties": {
                "isced:level": "1;2",
                "ref:rspo": 21335,
                "official_name": "Szko\u0142a Podstawowa Specjalna w Rabce Zdroju im. Kawaler\u00f3w Orderu U\u015bmiechu",
                "name": "Szko\u0142a Podstawowa Specjalna w Rabce Zdroju",
                "addr:country": "PL",
                "addr:postcode": "34-700",
                "addr:city": "Rabka-Zdr\u00f3j",
                "addr:street": "Juliusza S\u0142owackiego",
                "addr:housenumber": "10",
                "addr:teryt:simc": 962503,
                "addr:teryt:sym_ul": 20286,
                "contact:phone": "+48 182676444",
                "contact:email": "sekretariat@zsurabka.pl",
                "contact:website": "http:\/\/www.zsurabka.pl",
                "ref:regon": "120091900",
                "operator": "Wojew\u00f3dztwo Ma\u0142opolskie",
                "operator:type": "government",
                "amenity": "school",
                "note": "Parent RSPO: 19467"
            }
        },
        {
            "id": 48117,
            "type": "Feature",
            "geometry": {
                "type": "Point",
                "coordinates": [
                    19.97109,
                    49.61092
                ]
            },
            "properties": {
                "isced:level": "3",
                "ref:rspo": 48117,
                "official_name": "Liceum Og\u00f3lnokszta\u0142c\u0105ce Specjalne w Rabce",
                "name": "Liceum Og\u00f3lnokszta\u0142c\u0105ce Specjalne w Rabce",
                "addr:country": "PL",
                "addr:postcode": "34-700",
                "addr:city": "Rabka-Zdr\u00f3j",
                "addr:street": "Juliusza S\u0142owackiego",
                "addr:housenumber": "10",
                "addr:teryt:simc": 962503,
                "addr:teryt:sym_ul": 20286,
                "contact:phone": "+48 182677466",
                "contact:email": "zsorabka@vp.pl",
                "contact:website": "http:\/\/www.zsurabka.pl",
                "ref:regon": "492906890",
                "operator": "Wojew\u00f3dztwo Ma\u0142opolskie",
                "operator:type": "government",
                "amenity": "school",
                "note": "Parent RSPO: 19467"
            }
        },
        {
            "id": 90070,
            "type": "Feature",
            "geometry": {
                "type": "Point",
                "coordinates": [
                    19.97109,
                    49.61089
                ]
            },
            "properties": {
                "ref:rspo": 90070,
                "official_name": "Przedszkole Specjalne w \"Uzdrowisku Rabka\" S.a.",
                "name": "Przedszkole Specjalne w \"Uzdrowisku Rabka\" S.a.",
                "addr:country": "PL",
                "addr:postcode": "34-700",
                "addr:city": "Rabka-Zdr\u00f3j",
                "addr:street": "Juliusza S\u0142owackiego",
                "addr:housenumber": "10",
                "addr:teryt:simc": 962503,
                "addr:teryt:sym_ul": 20286,
                "contact:phone": "+48 502301580",
                "contact:email": "zps@rabka.pl",
                "ref:regon": "492007469",
                "operator": "Gmina Rabka Zdr\u00f3j",
                "operator:type": "government",
                "amenity": "kindergarten",
                "note": "Parent RSPO: 85910"
            }
        },
        {
            "id": 85907,
            "type": "Feature",
            "geometry": {
                "type": "Point",
                "coordinates": [
                    19.97072,
                    49.61134
                ]
            },
            "properties": {
                "ref:rspo": 85907,
                "official_name": "Przedszkole Niepubliczne \"Loretto\" Zgromadzenia Si\u00f3str Matki Bo\u017cej Mi\u0142osierdzia w Rabce-Zdroju",
                "name": "Przedszkole Niepubliczne \"Loretto\" Zgromadzenia Si\u00f3str Matki Bo\u017cej Mi\u0142osierdzia w Rabce-Zdroju",
                "addr:country": "PL",
                "addr:postcode": "34-700",
                "addr:city": "Rabka-Zdr\u00f3j",
                "addr:street": "Juliusza S\u0142owackiego",
                "addr:housenumber": "12",
                "addr:teryt:simc": 962503,
                "addr:teryt:sym_ul": 20286,
                "contact:phone": "+48 182676604",
                "contact:email": "loretto@onet.pl",
                "ref:regon": "122712677",
                "ref:vatin": "PL7352850391",
                "operator": "Zg.ss. Matki Bo\u017cej Mi\u0142osierdzia,Dom Zakonny",
                "operator:type": "religious",
                "amenity": "kindergarten"
            }
        },
        {
            "id": 85904,
            "type": "Feature",
            "geometry": {
                "type": "Point",
                "coordinates": [
                    19.94803,
                    49.61142
                ]
            },
            "properties": {
                "ref:rspo": 85904,
                "official_name": "Przedszkole Nr 2 w Rabce-Zdroju",
                "name": "Przedszkole Nr 2 w Rabce-Zdroju",
                "addr:country": "PL",
                "addr:postcode": "34-700",
                "addr:city": "Rabka-Zdr\u00f3j",
                "addr:street": "Orkana",
                "addr:housenumber": "4",
                "addr:teryt:simc": 962503,
                "addr:teryt:sym_ul": 15139,
                "contact:email": "przedszkole2@rabka.pl",
                "ref:regon": "490796456",
                "ref:vatin": "PL7352080935",
                "operator": "Gmina Rabka Zdr\u00f3j",
                "operator:type": "government",
                "amenity": "kindergarten"
            }
        },
        {
            "id": 276410,
            "type": "Feature",
            "geometry": {
                "type": "Point",
                "coordinates": [
                    19.94803,
                    49.61139
                ]
            },
            "properties": {
                "ref:rspo": 276410,
                "official_name": "Niepubliczne Przedszkole Madagaskar",
                "name": "Niepubliczne Przedszkole Madagaskar",
                "addr:country": "PL",
                "addr:postcode": "34-700",
                "addr:city": "Rabka-Zdr\u00f3j",
                "addr:street": "Orkana",
                "addr:housenumber": "4",
                "addr:teryt:simc": 962503,
                "addr:teryt:sym_ul": 15139,
                "contact:email": "madagaskarklubm@gmail.com",
                "ref:regon": "387130381",
                "operator": "Aneta Moskwa",
                "operator:type": "private",
                "amenity": "kindergarten"
            }
        },
        {
            "id": 123607,
            "type": "Feature",
            "geometry": {
                "type": "Point",
                "coordinates": [
                    19.97213,
                    49.6115
                ]
            },
            "properties": {
                "ref:rspo": 123607,
                "official_name": "Specjalny O\u015brodek Szkolno - Wychowawczy dla Dzieci Niewidomych I S\u0142abowidz\u0105cych im.\u015bw.tereski w Rabce - Zdroju",
                "name": "Specjalny O\u015brodek Szkolno - Wychowawczy dla Dzieci Niewidomych I S\u0142abowidz\u0105cych im.\u015bw.tereski w Rabce - Zdroju",
                "addr:country": "PL",
                "addr:postcode": "34-700",
                "addr:city": "Rabka-Zdr\u00f3j",
                "addr:street": "S\u0142oneczna",
                "addr:housenumber": "11",
                "addr:teryt:simc": 962503,
                "addr:teryt:sym_ul": 20254,
                "contact:phone": "+48 182691692",
                "contact:email": "elzbieta.radiowska@laski.edu.pl",
                "ref:regon": "123165415",
                "operator": "Towarzystwo Opieki Nad Ociemnia\u0142ymi Stowarzyszenie",
                "operator:type": "ngo",
                "amenity": "school",
                "note": "Children RSPO: 123608"
            }
        },
        {
            "id": 127099,
            "type": "Feature",
            "geometry": {
                "type": "Point",
                "coordinates": [
                    19.97213,
                    49.61147
                ]
            },
            "properties": {
                "ref:rspo": 127099,
                "official_name": "Szko\u0142a Przysposabiaj\u0105ca Do Pracy dla Niewidomych I S\u0142abowidz\u0105cych w Specjalnym O\u015brodku Szkolno-Wychowawczym dla Dzieci Niewidomych I S\u0142abowidz\u0105cych im. \u015aw.tereski w Rabce-Zdroju",
                "name": "Szko\u0142a Przysposabiaj\u0105ca Do Pracy dla Niewidomych I S\u0142abowidz\u0105cych w Specjalnym O\u015brodku Szkolno-Wychowawczym dla Dzieci Niewidomych I S\u0142abowidz\u0105cych",
                "addr:country": "PL",
                "addr:postcode": "34-700",
                "addr:city": "Rabka-Zdr\u00f3j",
                "addr:street": "S\u0142oneczna",
                "addr:housenumber": "11",
                "addr:teryt:simc": 962503,
                "addr:teryt:sym_ul": 20254,
                "contact:phone": "+48 182676525",
                "contact:email": "elzbieta.radiowska@laski.edu.pl",
                "contact:website": "http:\/\/www.rabka.laski.edu.pl",
                "ref:regon": "361108670",
                "operator": "Towarzystwo Opieki Nad Ociemnia\u0142ymi Stowarzyszenie",
                "operator:type": "ngo",
                "amenity": "school"
            }
        },
        {
            "id": 129802,
            "type": "Feature",
            "geometry": {
                "type": "Point",
                "coordinates": [
                    19.97213,
                    49.61144
                ]
            },
            "properties": {
                "ref:rspo": 129802,
                "official_name": "Przedszkole dla Dzieci Niewidomych I S\u0142abowidz\u0105cych Przy Szkole Podstawowej Specjalnej dla Niewidomych I S\u0142abowidz\u0105cych w Specjalnym O\u015brodku Szkolno-Wychowawczym dla Dzieci Niewidomych I S\u0142abowidz\u0105cych im. \u015aw. Tereski w Rabce-Zdroju",
                "name": "Przedszkole dla Dzieci Niewidomych I S\u0142abowidz\u0105cych Przy Szkole Podstawowej Specjalnej dla Niewidomych I S\u0142abowidz\u0105cych w Specjalnym O\u015brodku Szkolno-Wychowawczym dla Dzieci Niewidomych I S\u0142abowidz\u0105cych",
                "addr:country": "PL",
                "addr:postcode": "34-700",
                "addr:city": "Rabka-Zdr\u00f3j",
                "addr:street": "S\u0142oneczna",
                "addr:housenumber": "11",
                "addr:teryt:simc": 962503,
                "addr:teryt:sym_ul": 20254,
                "contact:phone": "+48 182676525",
                "contact:email": "elzbieta.radiowska@laski.edu.pl",
                "contact:website": "http:\/\/www.rabka.laski.edu.pl",
                "ref:regon": "362919599",
                "operator": "Towarzystwo Opieki Nad Ociemnia\u0142ymi Stowarzyszenie",
                "operator:type": "ngo",
                "amenity": "kindergarten"
            }
        },
        {
            "id": 123608,
            "type": "Feature",
            "geometry": {
                "type": "Point",
                "coordinates": [
                    19.97213,
                    49.61141
                ]
            },
            "properties": {
                "isced:level": "1;2",
                "ref:rspo": 123608,
                "official_name": "Szko\u0142a Podstawowa Specjalna dla Niewidomych I S\u0142abowidz\u0105cych w Specjlanym O\u015brodku Szkolno - Wychowawczym dla Dzieci Niewidomych I S\u0142abowidz\u0105cych im. \u015aw. Tereski w Rabce - Zdroju",
                "name": "Szko\u0142a Podstawowa Specjalna dla Niewidomych I S\u0142abowidz\u0105cych w Specjlanym O\u015brodku Szkolno - Wychowawczym dla Dzieci Niewidomych I S\u0142abowidz\u0105cych",
                "addr:country": "PL",
                "addr:postcode": "34-700",
                "addr:city": "Rabka-Zdr\u00f3j",
                "addr:street": "S\u0142oneczna",
                "addr:housenumber": "11",
                "addr:teryt:simc": 962503,
                "addr:teryt:sym_ul": 20254,
                "contact:phone": "+48 182691691",
                "contact:email": "sw_tereska_rabka@tlen.pl",
                "ref:regon": "123165438",
                "operator": "Towarzystwo Opieki Nad Ociemnia\u0142ymi Stowarzyszenie",
                "operator:type": "ngo",
                "amenity": "school",
                "note": "Parent RSPO: 123607"
            }
        },
        {
            "id": 85914,
            "type": "Feature",
            "geometry": {
                "type": "Point",
                "coordinates": [
                    19.96955,
                    49.61161
                ]
            },
            "properties": {
                "ref:rspo": 85914,
                "official_name": "Przedszkole Niepubliczne Zgromadzenia C\u00f3rek Najczystszego Serca Naj\u015bwi\u0119tszej Maryi Panny w Rabce-Zdroju",
                "name": "Przedszkole Niepubliczne Zgromadzenia C\u00f3rek Najczystszego Serca Naj\u015bwi\u0119tszej Maryi Panny w Rabce-Zdroju",
                "addr:country": "PL",
                "addr:postcode": "34-700",
                "addr:city": "Rabka-Zdr\u00f3j",
                "addr:street": "Zag\u00f3rzan",
                "addr:housenumber": "6",
                "addr:teryt:simc": 962503,
                "addr:teryt:sym_ul": 25374,
                "contact:phone": "+48 182676563",
                "contact:email": "wolynianka@op.pl",
                "ref:regon": "122715078",
                "ref:vatin": "PL7352637496",
                "operator": "Zgromadzenie C\u00f3rek Najczystszego Serca Naj\u015bwi\u0119tszej Maryi Panny",
                "operator:type": "religious",
                "amenity": "kindergarten"
            }
        },
        {
            "id": 112042,
            "type": "Feature",
            "geometry": {
                "type": "Point",
                "coordinates": [
                    19.95917,
                    49.61202
                ]
            },
            "properties": {
                "ref:rspo": 112042,
                "official_name": "Pa\u0144stwowa Szko\u0142a Muzyczna I St. w Nowym Targu Filia w Rabce-Zdr\u00f3j",
                "name": "Pa\u0144stwowa Szko\u0142a Muzyczna I St. w Nowym Targu Filia w Rabce-Zdr\u00f3j",
                "addr:country": "PL",
                "addr:postcode": "34-700",
                "addr:city": "Rabka-Zdr\u00f3j",
                "addr:street": "Jana Paw\u0142a II",
                "addr:housenumber": "14",
                "addr:teryt:simc": 962503,
                "addr:teryt:sym_ul": 7123,
                "contact:phone": "+48 182677537",
                "ref:regon": "120017460",
                "operator": "Ministerstwo Kultury I Dziedzictwa Narodowego",
                "operator:type": "public",
                "amenity": "music_school",
                "note": "Parent RSPO: 103590"
            }
        },
        {
            "id": 83600,
            "type": "Feature",
            "geometry": {
                "type": "Point",
                "coordinates": [
                    19.94986,
                    49.61354
                ]
            },
            "properties": {
                "ref:rspo": 83600,
                "official_name": "Niepubliczne Przedszkole J\u0119zykowe \"Happy Teddy\"",
                "name": "Niepubliczne Przedszkole J\u0119zykowe \"Happy Teddy\"",
                "addr:country": "PL",
                "addr:postcode": "34-700",
                "addr:city": "Rabka-Zdr\u00f3j",
                "addr:street": "S\u0105decka",
                "addr:housenumber": "16",
                "addr:teryt:simc": 962503,
                "addr:teryt:sym_ul": 19578,
                "contact:phone": "+48 182680523",
                "contact:email": "summit@summit.edu.pl",
                "ref:regon": "122711070",
                "ref:vatin": "PL9451784468",
                "operator": "Agnieszka P\u0119dzim\u0105\u017c",
                "operator:type": "private",
                "amenity": "kindergarten"
            }
        },
        {
            "id": 16274,
            "type": "Feature",
            "geometry": {
                "type": "Point",
                "coordinates": [
                    19.96711,
                    49.61449
                ]
            },
            "properties": {
                "ref:rspo": 16274,
                "official_name": "Zesp\u00f3\u0142 Szk\u00f3\u0142 w Rabce- Zdroju",
                "name": "Zesp\u00f3\u0142 Szk\u00f3\u0142 w Rabce- Zdroju",
                "addr:country": "PL",
                "addr:postcode": "34-700",
                "addr:city": "Rabka-Zdr\u00f3j",
                "addr:street": "Tadeusza Ko\u015bciuszki",
                "addr:housenumber": "9",
                "addr:teryt:simc": 962503,
                "addr:teryt:sym_ul": 9572,
                "contact:phone": "+48 182677029",
                "contact:email": "lo2r@wp.pl",
                "contact:website": "http:\/\/www.lo2rabka.edu.pl",
                "ref:regon": "492826523",
                "ref:vatin": "PL7352484868",
                "operator": "Powiat Nowotarski",
                "operator:type": "government",
                "landuse": "education",
                "fixme": "amenity=school, amenity=college albo landuse=education w zale\u017cno\u015bci od tego, jakie plac\u00f3wki wchodz\u0105 w sk\u0142ad zespo\u0142u. Sprawd\u017a, kiedy stosowa\u0107 amenity=* a kiedy landuse=education.",
                "note": "Children RSPO: 21678;21699"
            }
        },
        {
            "id": 21678,
            "type": "Feature",
            "geometry": {
                "type": "Point",
                "coordinates": [
                    19.96711,
                    49.61446
                ]
            },
            "properties": {
                "isced:level": "3",
                "ref:rspo": 21678,
                "official_name": "Ii Liceum Og\u00f3lnokszta\u0142c\u0105ce im. Ks. Prof. J\u00f3zefa Tischnera w Zespole Szk\u00f3\u0142 w Rabce- Zdroju",
                "name": "Ii Liceum Og\u00f3lnokszta\u0142c\u0105ce",
                "addr:country": "PL",
                "addr:postcode": "34-700",
                "addr:city": "Rabka-Zdr\u00f3j",
                "addr:street": "Tadeusza Ko\u015bciuszki",
                "addr:housenumber": "9",
                "addr:teryt:simc": 962503,
                "addr:teryt:sym_ul": 9572,
                "contact:phone": "+48 182677029",
                "contact:email": "lo2r@wp.pl",
                "contact:website": "http:\/\/www.lo2rabka.nowotarski.edu.pl",
                "ref:regon": "490011550",
                "operator": "Powiat Nowotarski",
                "operator:type": "government",
                "amenity": "school",
                "note": "Parent RSPO: 16274"
            }
        },
        {
            "id": 21699,
            "type": "Feature",
            "geometry": {
                "type": "Point",
                "coordinates": [
                    19.96711,
                    49.614430000000006
                ]
            },
            "properties": {
                "isced:level": "3",
                "ref:rspo": 21699,
                "official_name": "Technikum Informatyczne im. Ks. Prof. J\u00f3zefa Tischnera w Zespole Szk\u00f3\u0142 w Rabce- Zdroju",
                "name": "Technikum Informatyczne",
                "addr:country": "PL",
                "addr:postcode": "34-700",
                "addr:city": "Rabka-Zdr\u00f3j",
                "addr:street": "Tadeusza Ko\u015bciuszki",
                "addr:housenumber": "9",
                "addr:teryt:simc": 962503,
                "addr:teryt:sym_ul": 9572,
                "contact:phone": "+48 182677029",
                "contact:email": "lo2r@wp.pl",
                "contact:website": "http:\/\/www.lo2rabka.nowotarski.edu.pl",
                "ref:regon": "120359001",
                "operator": "Powiat Nowotarski",
                "operator:type": "government",
                "amenity": "school",
                "note": "Parent RSPO: 16274"
            }
        },
        {
            "id": 61296,
            "type": "Feature",
            "geometry": {
                "type": "Point",
                "coordinates": [
                    19.99635,
                    49.62881
                ]
            },
            "properties": {
                "ref:rspo": 61296,
                "official_name": "Punkt Przedszkolny Przy Szkole Podstawowej Nr 4 w Rabce-Zdroju",
                "name": "Punkt Przedszkolny Przy Szkole Podstawowej Nr 4 w Rabce-Zdroju",
                "addr:country": "PL",
                "addr:postcode": "34-700",
                "addr:city": "Rabka-Zdr\u00f3j",
                "addr:street": "Zaryte",
                "addr:housenumber": "78",
                "addr:teryt:simc": 962503,
                "addr:teryt:sym_ul": 25683,
                "contact:phone": "+48 182684104",
                "ref:regon": "121484381",
                "operator": "Gmina Rabka Zdr\u00f3j",
                "operator:type": "government",
                "amenity": "kindergarten"
            }
        },
        {
            "id": 85913,
            "type": "Feature",
            "geometry": {
                "type": "Point",
                "coordinates": [
                    19.99635,
                    49.62878
                ]
            },
            "properties": {
                "isced:level": "1;2",
                "ref:rspo": 85913,
                "official_name": "Szko\u0142a Podstawowa Nr 4 im. Jana Kochanowskiego w Rabce-Zdroju",
                "name": "Szko\u0142a Podstawowa Nr 4",
                "addr:country": "PL",
                "addr:postcode": "34-700",
                "addr:city": "Rabka-Zdr\u00f3j",
                "addr:street": "Zaryte",
                "addr:housenumber": "78",
                "addr:teryt:simc": 962503,
                "addr:teryt:sym_ul": 25683,
                "contact:phone": "+48 182684104",
                "contact:email": "sp4rabka@wp.pl",
                "contact:website": "http:\/\/sp4rabka.szkolnastrona.pl\/",
                "ref:regon": "490669640",
                "ref:vatin": "PL7351086002",
                "operator": "Gmina Rabka Zdr\u00f3j",
                "operator:type": "government",
                "amenity": "school"
            }
        }
    ]
}