{"type":"FeatureCollection","features":[{"id":131154,"type":"Feature","geometry":{"type":"Point","coordinates":[20.18917,49.35437]},"properties":{"isced:level":"1;2","ref:rspo":131154,"official_name":"Szko\u0142a Podstawowa w \u0141apszance","name":"Szko\u0142a Podstawowa w \u0141apszance","addr:country":"PL","addr:postcode":"34-442","addr:city":"\u0141apszanka","addr:street":"ul. D\u0142uga","addr:housenumber":"35","addr:teryt:simc":3839,"addr:teryt:sym_ul":443068,"contact:phone":"+48 182659950","contact:email":"splapszanka@lapszenizne.pl","contact:website":"http:\/\/www.splapszanka.lapszenizne.pl","ref:regon":"364985749","ref:vatin":"PL7351169188","operator":"Gmina \u0141apsze Ni\u017cne","operator:type":"government","amenity":"school"}},{"id":15293,"type":"Feature","geometry":{"type":"Point","coordinates":[20.29209,49.3749899]},"properties":{"ref:rspo":15293,"official_name":"Przedszkole w Kacwinie","name":"Przedszkole w Kacwinie","addr:country":"PL","addr:postcode":"34-441","addr:city":"Kacwin","addr:street":"ul. Ko\u015bcielna","addr:housenumber":"1","addr:teryt:simc":9546,"addr:teryt:sym_ul":443022,"contact:phone":"+48 182627250","ref:regon":"492718466","operator":"Gmina \u0141apsze Ni\u017cne","operator:type":"government","amenity":"kindergarten","note":"Parent RSPO: 9607"}},{"id":9607,"type":"Feature","geometry":{"type":"Point","coordinates":[20.29486,49.37531]},"properties":{"ref:rspo":9607,"official_name":"Zesp\u00f3\u0142 Szkolno-Przedszkolny w Kacwinie","name":"Zesp\u00f3\u0142 Szkolno-Przedszkolny w Kacwinie","addr:country":"PL","addr:postcode":"34-441","addr:city":"Kacwin","addr:street":"ul. Jana Paw\u0142a II","addr:housenumber":"41","addr:teryt:simc":7123,"addr:teryt:sym_ul":443022,"contact:phone":"+48 182627171","contact:email":"spkacwin@poczta.onet.pl","contact:website":"http:\/\/www.zpokacwin.szkolnastrona.pl","ref:regon":"121505060","ref:vatin":"PL7352841825","operator":"Gmina \u0141apsze Ni\u017cne","operator:type":"government","landuse":"education","fixme":"amenity=school, amenity=college albo landuse=education w zale\u017cno\u015bci od tego, jakie plac\u00f3wki wchodz\u0105 w sk\u0142ad zespo\u0142u. Sprawd\u017a, kiedy stosowa\u0107 amenity=* a kiedy landuse=education.","note":"Children RSPO: 15292;15293"}},{"id":15292,"type":"Feature","geometry":{"type":"Point","coordinates":[20.29486,49.37528]},"properties":{"isced:level":"1;2","ref:rspo":15292,"official_name":"Szko\u0142a Podstawowa im. Ojca \u015awi\u0119tego Jana Paw\u0142a II w Kacwinie","name":"Szko\u0142a Podstawowa","addr:country":"PL","addr:postcode":"34-441","addr:city":"Kacwin","addr:street":"ul. Jana Paw\u0142a II","addr:housenumber":"41","addr:teryt:simc":7123,"addr:teryt:sym_ul":443022,"contact:phone":"+48 182627171","contact:email":"spkacwin@poczta.onet.pl","ref:regon":"490638740","operator":"Gmina \u0141apsze Ni\u017cne","operator:type":"government","amenity":"school","note":"Parent RSPO: 9607"}},{"id":14163,"type":"Feature","geometry":{"type":"Point","coordinates":[20.19104,49.39488]},"properties":{"isced:level":"1;2","ref:rspo":14163,"official_name":"Szko\u0142a Podstawowa im. B\u0142ogos\u0142awionego Jana Paw\u0142a II w \u0141apszach Wy\u017cnych","name":"Szko\u0142a Podstawowa","addr:country":"PL","addr:postcode":"34-442","addr:city":"\u0141apsze Wy\u017cne","addr:street":"ul. \u015awi\u0119tego Floriana","addr:housenumber":"51","addr:teryt:simc":39777,"addr:teryt:sym_ul":443358,"contact:phone":"+48 182659766","contact:email":"spwyzne@lapszenizne.pl","contact:website":"http:\/\/www.spwyzne.lapszenizne.pl","ref:regon":"490638770","ref:vatin":"PL7351169047","operator":"Gmina \u0141apsze Ni\u017cne","operator:type":"government","amenity":"school"}},{"id":15280,"type":"Feature","geometry":{"type":"Point","coordinates":[20.22495,49.40269]},"properties":{"isced:level":"1;2","ref:rspo":15280,"official_name":"Szko\u0142a Podstawowa im. B\u0142ogos\u0142awionego Ks. J\u00f3zefa Stanka w \u0141apszach Ni\u017cnych","name":"Szko\u0142a Podstawowa","addr:country":"PL","addr:postcode":"34-442","addr:city":"\u0141apsze Ni\u017cne","addr:street":"ul. D\u0142uga","addr:housenumber":"12","addr:teryt:simc":3839,"addr:teryt:sym_ul":443246,"contact:phone":"+48 182659341","contact:email":"sp@lapszenizne.pl","contact:website":"http:\/\/www.splapszenizne.pl","ref:regon":"490638585","ref:vatin":"PL7352855075","operator":"Gmina \u0141apsze Ni\u017cne","operator:type":"government","amenity":"school"}},{"id":277998,"type":"Feature","geometry":{"type":"Point","coordinates":[20.22495,49.40266]},"properties":{"ref:rspo":277998,"official_name":"Niepubliczna Szko\u0142a Muzyczna I Stopnia w \u0141apszach Ni\u017cnych","name":"Niepubliczna Szko\u0142a Muzyczna I Stopnia w \u0141apszach Ni\u017cnych","addr:country":"PL","addr:postcode":"34-442","addr:city":"\u0141apsze Ni\u017cne","addr:street":"ul. D\u0142uga","addr:housenumber":"12","addr:teryt:simc":3839,"addr:teryt:sym_ul":443246,"contact:email":"smlapsze@gmail.com","ref:regon":"389735332","operator":"Fundacja Promocji Artystycznej Pro-Classical","operator:type":"ngo","amenity":"music_school"}},{"id":9606,"type":"Feature","geometry":{"type":"Point","coordinates":[20.29979,49.40728]},"properties":{"ref:rspo":9606,"official_name":"Zesp\u00f3\u0142 Plac\u00f3wek O\u015bwiatowych w Niedzicy","name":"Zesp\u00f3\u0142 Plac\u00f3wek O\u015bwiatowych w Niedzicy","addr:country":"PL","addr:postcode":"34-441","addr:city":"Niedzica","addr:street":"ul. 3 Maja","addr:housenumber":"97","addr:teryt:simc":11937,"addr:teryt:sym_ul":443401,"contact:phone":"+48 182629415","contact:email":"zponiedzica@hot.pl","contact:website":"http:\/\/www.zponiedzica.lapszenizne.pl","ref:regon":"121513639","ref:vatin":"PL7352842546","operator":"Gmina \u0141apsze Ni\u017cne","operator:type":"government","landuse":"education","fixme":"amenity=school, amenity=college albo landuse=education w zale\u017cno\u015bci od tego, jakie plac\u00f3wki wchodz\u0105 w sk\u0142ad zespo\u0142u. Sprawd\u017a, kiedy stosowa\u0107 amenity=* a kiedy landuse=education.","note":"Children RSPO: 17803;17807"}},{"id":17803,"type":"Feature","geometry":{"type":"Point","coordinates":[20.29979,49.40725]},"properties":{"isced:level":"1;2","ref:rspo":17803,"official_name":"Szko\u0142a Podstawowa w Niedzicy","name":"Szko\u0142a Podstawowa w Niedzicy","addr:country":"PL","addr:postcode":"34-441","addr:city":"Niedzica","addr:street":"ul. 3 Maja","addr:housenumber":"97","addr:teryt:simc":11937,"addr:teryt:sym_ul":443401,"contact:phone":"+48 182629415","contact:email":"zponiedzica@hot.pl","ref:regon":"490638792","operator":"Gmina \u0141apsze Ni\u017cne","operator:type":"government","amenity":"school","note":"Parent RSPO: 9606"}},{"id":17807,"type":"Feature","geometry":{"type":"Point","coordinates":[20.29979,49.40722]},"properties":{"isced:level":"3","ref:rspo":17807,"official_name":"Bran\u017cowa Szko\u0142a I Stopnia w Niedzicy","name":"Bran\u017cowa Szko\u0142a I Stopnia w Niedzicy","addr:country":"PL","addr:postcode":"34-441","addr:city":"Niedzica","addr:street":"ul. 3 Maja","addr:housenumber":"97","addr:teryt:simc":11937,"addr:teryt:sym_ul":443401,"contact:phone":"+48 182629415","ref:regon":"490639076","operator":"Gmina \u0141apsze Ni\u017cne","operator:type":"government","amenity":"school","note":"Parent RSPO: 9606"}},{"id":131156,"type":"Feature","geometry":{"type":"Point","coordinates":[20.13458,49.40866]},"properties":{"isced:level":"1;2","ref:rspo":131156,"official_name":"Szko\u0142a Podstawowa im. \u015awi\u0119tej El\u017cbiety W\u0119gierskiej w Trybszu","name":"Szko\u0142a Podstawowa","addr:country":"PL","addr:postcode":"34-442","addr:city":"Trybsz","addr:street":"ul. \u015awi\u0119tej El\u017cbiety","addr:housenumber":"175","addr:teryt:simc":40248,"addr:teryt:sym_ul":443453,"contact:phone":"+48 182656104","contact:email":"sptrybsz@interia.pl","contact:website":"http:\/\/sptrybsz.lapszenizne.pl","ref:regon":"364985838","ref:vatin":"PL7351169834","operator":"Gmina \u0141apsze Ni\u017cne","operator:type":"government","amenity":"school"}},{"id":9608,"type":"Feature","geometry":{"type":"Point","coordinates":[20.22593,49.44816]},"properties":{"ref:rspo":9608,"official_name":"Zesp\u00f3\u0142 Szkolno-Przedszkolny we Frydmanie","name":"Zesp\u00f3\u0142 Szkolno-Przedszkolny we Frydmanie","addr:country":"PL","addr:postcode":"34-435","addr:city":"Frydman","addr:street":"ul. Szkolna","addr:housenumber":"4","addr:teryt:simc":21970,"addr:teryt:sym_ul":442991,"contact:phone":"+48 182851815","contact:email":"szkolafrydman@op.pl","contact:website":"http:\/\/www.zespolfrydman.lapszenizne.pl","ref:regon":"490639107","ref:vatin":"PL7352437679","operator":"Gmina \u0141apsze Ni\u017cne","operator:type":"government","landuse":"education","fixme":"amenity=school, amenity=college albo landuse=education w zale\u017cno\u015bci od tego, jakie plac\u00f3wki wchodz\u0105 w sk\u0142ad zespo\u0142u. Sprawd\u017a, kiedy stosowa\u0107 amenity=* a kiedy landuse=education.","note":"Children RSPO: 15251;15265"}},{"id":15251,"type":"Feature","geometry":{"type":"Point","coordinates":[20.22593,49.44813]},"properties":{"isced:level":"1;2","ref:rspo":15251,"official_name":"Szko\u0142a Podstawowa Im Bronis\u0142awa Czecha we Frydmanie","name":"Szko\u0142a Podstawowa Im Bronis\u0142awa Czecha we Frydmanie","addr:country":"PL","addr:postcode":"34-435","addr:city":"Frydman","addr:street":"ul. Szkolna","addr:housenumber":"4","addr:teryt:simc":21970,"addr:teryt:sym_ul":442991,"contact:phone":"+48 182851815","contact:email":"szkolafrydman@op.pl","ref:regon":"492893293","operator":"Gmina \u0141apsze Ni\u017cne","operator:type":"government","amenity":"school","note":"Parent RSPO: 9608"}},{"id":15265,"type":"Feature","geometry":{"type":"Point","coordinates":[20.22794,49.44846]},"properties":{"ref:rspo":15265,"official_name":"Przedszkole we Frydmanie","name":"Przedszkole we Frydmanie","addr:country":"PL","addr:postcode":"34-435","addr:city":"Frydman","addr:street":"ul. Jana Paw\u0142a II","addr:housenumber":"12","addr:teryt:simc":7123,"addr:teryt:sym_ul":442991,"contact:phone":"+48 182851868","ref:regon":"492718437","operator":"Gmina \u0141apsze Ni\u017cne","operator:type":"government","amenity":"kindergarten","note":"Parent RSPO: 9608"}}]}