{
    "type": "FeatureCollection",
    "features": [
        {
            "id": 74450,
            "type": "Feature",
            "geometry": {
                "type": "Point",
                "coordinates": [
                    20.40532,
                    49.39365
                ]
            },
            "properties": {
                "isced:level": "1;2",
                "ref:rspo": 74450,
                "official_name": "Szko\u0142a Podstawowa w Sromowcach Ni\u017cnych",
                "name": "Szko\u0142a Podstawowa w Sromowcach Ni\u017cnych",
                "addr:country": "PL",
                "addr:postcode": "34-443",
                "addr:city": "Sromowce Ni\u017cne",
                "addr:street": "ul. Szkolna",
                "addr:housenumber": "7",
                "addr:teryt:simc": 21970,
                "addr:teryt:sym_ul": 422853,
                "contact:phone": "+48 182629635",
                "contact:email": "sp_sromowcenizne@czorsztyn.pl",
                "contact:website": "https:\/\/spsromowcenizne.edupage.org\/",
                "ref:regon": "490670761",
                "ref:vatin": "PL7352855253",
                "operator": "Gmina Czorsztyn",
                "operator:type": "government",
                "amenity": "school"
            }
        },
        {
            "id": 125962,
            "type": "Feature",
            "geometry": {
                "type": "Point",
                "coordinates": [
                    20.40532,
                    49.39362
                ]
            },
            "properties": {
                "ref:rspo": 125962,
                "official_name": "Punkt Przedszkolny w Sromowcach Ni\u017cnych",
                "name": "Punkt Przedszkolny w Sromowcach Ni\u017cnych",
                "addr:country": "PL",
                "addr:postcode": "34-443",
                "addr:city": "Sromowce Ni\u017cne",
                "addr:street": "ul. Szkolna",
                "addr:housenumber": "7",
                "addr:teryt:simc": 21970,
                "addr:teryt:sym_ul": 422853,
                "contact:phone": "+48 182629635",
                "contact:email": "sp_sromowcenizne@czorsztyn.pl",
                "contact:website": "http:\/\/www.gimsromowcenizne.czorsztyn.iap.pl",
                "ref:regon": "360120691",
                "operator": "Gmina Czorsztyn",
                "operator:type": "government",
                "amenity": "kindergarten"
            }
        },
        {
            "id": 126429,
            "type": "Feature",
            "geometry": {
                "type": "Point",
                "coordinates": [
                    20.3424835,
                    49.4023966
                ]
            },
            "properties": {
                "ref:rspo": 126429,
                "official_name": "Niepubliczne Przedszkole \"Bajkowy \u015awiat\"",
                "name": "Niepubliczne Przedszkole \"Bajkowy \u015awiat\"",
                "addr:country": "PL",
                "addr:postcode": "34-443",
                "addr:city": "Sromowce Wy\u017cne",
                "addr:street": "ul. Graniczna",
                "addr:housenumber": "32",
                "addr:teryt:simc": 6075,
                "addr:teryt:sym_ul": 422876,
                "contact:phone": "+48 183344078",
                "contact:email": "mbajkowyswiat@gmail.com",
                "ref:regon": "360311050",
                "ref:vatin": "PL7352384078",
                "operator": "Marzena Kruczek",
                "operator:type": "private",
                "amenity": "kindergarten"
            }
        },
        {
            "id": 68229,
            "type": "Feature",
            "geometry": {
                "type": "Point",
                "coordinates": [
                    20.33983,
                    49.4066
                ]
            },
            "properties": {
                "isced:level": "1;2",
                "ref:rspo": 68229,
                "official_name": "Szko\u0142a Podstawowa im. Dh. Olgi Ma\u0142kowskiej w Sromowcach Wy\u017cnych",
                "name": "Szko\u0142a Podstawowa",
                "addr:country": "PL",
                "addr:postcode": "34-443",
                "addr:city": "Sromowce Wy\u017cne",
                "addr:street": "ul. Nad Zalew",
                "addr:housenumber": "12",
                "addr:teryt:simc": 31042,
                "addr:teryt:sym_ul": 422876,
                "contact:phone": "+48 182629702",
                "contact:email": "sp_sromowcewyzne@czorsztyn.pl",
                "contact:website": "https:\/\/spsromowcewyzne.edupage.org\/",
                "ref:regon": "490670755",
                "ref:vatin": "PL7351036429",
                "operator": "Gmina Czorsztyn",
                "operator:type": "government",
                "amenity": "school"
            }
        },
        {
            "id": 92130,
            "type": "Feature",
            "geometry": {
                "type": "Point",
                "coordinates": [
                    20.33813,
                    49.40706
                ]
            },
            "properties": {
                "ref:rspo": 92130,
                "official_name": "Pozaszkolna Plac\u00f3wka Specjalistyczna - Szkolny O\u015brodek Wypoczynkowy \u201eOrle Gniazdo\u201d w Sromowcach Wy\u017cnych",
                "name": "Pozaszkolna Plac\u00f3wka Specjalistyczna - Szkolny O\u015brodek Wypoczynkowy \u201eOrle Gniazdo\u201d w Sromowcach Wy\u017cnych",
                "addr:country": "PL",
                "addr:postcode": "34-443",
                "addr:city": "Sromowce Wy\u017cne",
                "addr:street": "ul. Nad Zalew",
                "addr:housenumber": "7",
                "addr:teryt:simc": 31042,
                "addr:teryt:sym_ul": 422876,
                "contact:phone": "+48 182629788",
                "contact:email": "biuroorlegniazdo@op.pl",
                "contact:website": "http:\/\/www.orlegniazdo.eu",
                "ref:regon": "121392064",
                "ref:vatin": "PL7352834185",
                "operator": "Miasto Sto\u0142eczne Warszawa",
                "operator:type": "government",
                "fixme": "w zale\u017cno\u015bci od przedmiotu dzia\u0142alno\u015bci (np. amenity=training + training=*, amenity=dancing_school, amenity=language_school, amenity=music_school)"
            }
        },
        {
            "id": 268199,
            "type": "Feature",
            "geometry": {
                "type": "Point",
                "coordinates": [
                    20.29784,
                    49.4521299
                ]
            },
            "properties": {
                "ref:rspo": 268199,
                "official_name": "Zesp\u00f3\u0142 Szkolno-Przedszkolny w Kluszkowcach",
                "name": "Zesp\u00f3\u0142 Szkolno-Przedszkolny w Kluszkowcach",
                "addr:country": "PL",
                "addr:postcode": "34-440",
                "addr:city": "Kluszkowce",
                "addr:street": "ul. Szkolna",
                "addr:housenumber": "22",
                "addr:teryt:simc": 21970,
                "addr:teryt:sym_ul": 422652,
                "contact:phone": "+48 182650337",
                "contact:email": "sekretariat@zspkluszkowce.czorsztyn.pl",
                "contact:website": "http:\/\/www.zspkluszkowce.czorsztyn.pl",
                "ref:regon": "381011913",
                "ref:vatin": "PL7352878490",
                "operator": "Gmina Czorsztyn",
                "operator:type": "government",
                "landuse": "education",
                "fixme": "amenity=school, amenity=college albo landuse=education w zale\u017cno\u015bci od tego, jakie plac\u00f3wki wchodz\u0105 w sk\u0142ad zespo\u0142u. Sprawd\u017a, kiedy stosowa\u0107 amenity=* a kiedy landuse=education.",
                "note": "Children RSPO: 68226;68228"
            }
        },
        {
            "id": 68226,
            "type": "Feature",
            "geometry": {
                "type": "Point",
                "coordinates": [
                    20.29784,
                    49.4520999
                ]
            },
            "properties": {
                "isced:level": "1;2",
                "ref:rspo": 68226,
                "official_name": "Szko\u0142a Podstawowa w Kluszkowcach",
                "name": "Szko\u0142a Podstawowa w Kluszkowcach",
                "addr:country": "PL",
                "addr:postcode": "34-440",
                "addr:city": "Kluszkowce",
                "addr:street": "ul. Szkolna",
                "addr:housenumber": "22",
                "addr:teryt:simc": 21970,
                "addr:teryt:sym_ul": 422652,
                "contact:phone": "+48 182650337",
                "contact:email": "sekretariat@zspkluszkowce.czorsztyn.pl",
                "contact:website": "http:\/\/zspkluszkowce.czorsztyn.pl",
                "ref:regon": "490670703",
                "operator": "Gmina Czorsztyn",
                "operator:type": "government",
                "amenity": "school",
                "note": "Parent RSPO: 268199"
            }
        },
        {
            "id": 68228,
            "type": "Feature",
            "geometry": {
                "type": "Point",
                "coordinates": [
                    20.29784,
                    49.452069900000005
                ]
            },
            "properties": {
                "ref:rspo": 68228,
                "official_name": "Gminne Przedszkole Publiczne w Kluszkowcach",
                "name": "Gminne Przedszkole Publiczne w Kluszkowcach",
                "addr:country": "PL",
                "addr:postcode": "34-440",
                "addr:city": "Kluszkowce",
                "addr:street": "ul. Szkolna",
                "addr:housenumber": "22",
                "addr:teryt:simc": 21970,
                "addr:teryt:sym_ul": 422652,
                "contact:phone": "+48 182650320",
                "contact:email": "sekretariat@zspkluszkowce.czorsztyn.pl",
                "ref:regon": "000971206",
                "operator": "Gmina Czorsztyn",
                "operator:type": "government",
                "amenity": "kindergarten",
                "note": "Parent RSPO: 268199"
            }
        },
        {
            "id": 74395,
            "type": "Feature",
            "geometry": {
                "type": "Point",
                "coordinates": [
                    20.26986,
                    49.46028
                ]
            },
            "properties": {
                "isced:level": "1;2",
                "ref:rspo": 74395,
                "official_name": "Szko\u0142a Podstawowa im. W\u0142adys\u0142awa Orkana w Maniowach",
                "name": "Szko\u0142a Podstawowa",
                "addr:country": "PL",
                "addr:postcode": "34-436",
                "addr:city": "Maniowy",
                "addr:street": "ul. Szkolna",
                "addr:housenumber": "2",
                "addr:teryt:simc": 21970,
                "addr:teryt:sym_ul": 422712,
                "contact:phone": "+48 182750992",
                "contact:email": "sp_maniowy@czorsztyn.pl",
                "contact:website": "http:\/\/www.spmaniowy.czorsztyn.pl",
                "ref:regon": "490670732",
                "ref:vatin": "PL7352855224",
                "operator": "Gmina Czorsztyn",
                "operator:type": "government",
                "amenity": "school"
            }
        },
        {
            "id": 68234,
            "type": "Feature",
            "geometry": {
                "type": "Point",
                "coordinates": [
                    20.26343,
                    49.46174
                ]
            },
            "properties": {
                "ref:rspo": 68234,
                "official_name": "Pphu Prywatne Niepubliczne Przedszkole",
                "name": "Pphu Prywatne Niepubliczne Przedszkole",
                "addr:country": "PL",
                "addr:postcode": "34-436",
                "addr:city": "Maniowy",
                "addr:street": "ul. Zygmunta Krasi\u0144skiego",
                "addr:housenumber": "18",
                "addr:teryt:simc": 9848,
                "addr:teryt:sym_ul": 422712,
                "contact:phone": "+48 182750627",
                "contact:email": "lwj@wolski.pl",
                "ref:regon": "122702414",
                "ref:vatin": "PL7352218517",
                "operator": "Lucyna Wolska-Jandura",
                "operator:type": "private",
                "amenity": "kindergarten"
            }
        }
    ]
}