{
    "type": "FeatureCollection",
    "features": [
        {
            "id": 278021,
            "type": "Feature",
            "geometry": {
                "type": "Point",
                "coordinates": [
                    20.19088,
                    49.41157
                ]
            },
            "properties": {
                "ref:rspo": 278021,
                "official_name": "Przedszkole Niepubliczne Si\u00f3str Niepokalanek im. Mieczys\u0142awy Faryniak",
                "name": "Przedszkole Niepubliczne Si\u00f3str Niepokalanek",
                "addr:country": "PL",
                "addr:postcode": "34-433",
                "addr:city": "Dursztyn",
                "addr:street": "D\u0142uga",
                "addr:housenumber": "2",
                "addr:teryt:simc": 457159,
                "addr:teryt:sym_ul": 3839,
                "contact:phone": "+48 696490292",
                "contact:email": "przedszkoledursztyn@gmail.com",
                "ref:regon": "389744644",
                "ref:vatin": "PL7352899552",
                "operator": "Zgromadzenie Si\u00f3str Niepokalanego Pocz\u0119cia Nmp Dom Generalny",
                "operator:type": "religious",
                "amenity": "kindergarten"
            }
        },
        {
            "id": 6412,
            "type": "Feature",
            "geometry": {
                "type": "Point",
                "coordinates": [
                    20.19227,
                    49.41427
                ]
            },
            "properties": {
                "isced:level": "1;2",
                "ref:rspo": 6412,
                "official_name": "Szko\u0142a Podstawowa im. Stanis\u0142awa Staszica w Dursztynie",
                "name": "Szko\u0142a Podstawowa",
                "addr:country": "PL",
                "addr:postcode": "34-433",
                "addr:city": "Dursztyn",
                "addr:street": "Pieni\u0144ska",
                "addr:housenumber": "1",
                "addr:teryt:simc": 457159,
                "addr:teryt:sym_ul": 16132,
                "contact:phone": "+48 182659311",
                "contact:email": "sekretariat@spdursztyn.ugnowytarg.pl",
                "contact:website": "http:\/\/dursztyn.szkolnastrona.pl",
                "ref:regon": "490674581",
                "ref:vatin": "PL7351062349",
                "operator": "Gmina Nowy Targ",
                "operator:type": "government",
                "amenity": "school"
            }
        },
        {
            "id": 14574,
            "type": "Feature",
            "geometry": {
                "type": "Point",
                "coordinates": [
                    20.16451,
                    49.4360799
                ]
            },
            "properties": {
                "isced:level": "1;2",
                "ref:rspo": 14574,
                "official_name": "Szko\u0142a Podstawowa w Krempachach",
                "name": "Szko\u0142a Podstawowa w Krempachach",
                "addr:country": "PL",
                "addr:postcode": "34-433",
                "addr:city": "Krempachy",
                "addr:street": "Kamieniec",
                "addr:housenumber": "46",
                "addr:teryt:simc": 457320,
                "addr:teryt:sym_ul": 7870,
                "contact:phone": "+48 182851565",
                "contact:email": "sekretariat@spkrempachy.ugnowytarg.pl",
                "contact:website": "http:\/\/www.spkrempachy.szkolnastrona.pl",
                "ref:regon": "490674670",
                "ref:vatin": "PL7351062148",
                "operator": "Gmina Nowy Targ",
                "operator:type": "government",
                "amenity": "school"
            }
        },
        {
            "id": 83132,
            "type": "Feature",
            "geometry": {
                "type": "Point",
                "coordinates": [
                    20.16451,
                    49.4360499
                ]
            },
            "properties": {
                "ref:rspo": 83132,
                "official_name": "Prywatne Niepubliczne Przedszkole \"Mi\u015b Uszatek\"",
                "name": "Prywatne Niepubliczne Przedszkole \"Mi\u015b Uszatek\"",
                "addr:country": "PL",
                "addr:postcode": "34-433",
                "addr:city": "Krempachy",
                "addr:street": "Kamieniec",
                "addr:housenumber": "46",
                "addr:teryt:simc": 457320,
                "addr:teryt:sym_ul": 7870,
                "contact:phone": "+48 515268797",
                "contact:email": "mbajkowyswiat@gmail.com",
                "contact:website": "http:\/\/bajkowyswiat.eu",
                "ref:regon": "122709400",
                "ref:vatin": "PL7352384078",
                "operator": "Marzena Kruczek",
                "operator:type": "private",
                "amenity": "kindergarten"
            }
        },
        {
            "id": 17233,
            "type": "Feature",
            "geometry": {
                "type": "Point",
                "coordinates": [
                    20.14665,
                    49.43954
                ]
            },
            "properties": {
                "isced:level": "1;2",
                "ref:rspo": 17233,
                "official_name": "Szko\u0142a Podstawowa w Nowej Bia\u0142ej",
                "name": "Szko\u0142a Podstawowa w Nowej Bia\u0142ej",
                "addr:country": "PL",
                "addr:postcode": "34-433",
                "addr:city": "Nowa Bia\u0142a",
                "addr:street": "G\u0142\u00f3wna",
                "addr:housenumber": "13",
                "addr:teryt:simc": 457449,
                "addr:teryt:sym_ul": 5635,
                "contact:phone": "+48 182851395",
                "contact:email": "sekretariat@spnowabiala.ugnowytarg.pl",
                "contact:website": "http:\/\/www.spnowabiala.szkolnastrona.pl",
                "ref:regon": "490674730",
                "ref:vatin": "PL7351064526",
                "operator": "Gmina Nowy Targ",
                "operator:type": "government",
                "amenity": "school"
            }
        },
        {
            "id": 120641,
            "type": "Feature",
            "geometry": {
                "type": "Point",
                "coordinates": [
                    20.14587,
                    49.43977
                ]
            },
            "properties": {
                "ref:rspo": 120641,
                "official_name": "Niepubliczne Przedszkole Magiczna Kraina",
                "name": "Niepubliczne Przedszkole Magiczna Kraina",
                "addr:country": "PL",
                "addr:postcode": "34-433",
                "addr:city": "Nowa Bia\u0142a",
                "addr:street": "G\u0142\u00f3wna",
                "addr:housenumber": "9",
                "addr:teryt:simc": 457449,
                "addr:teryt:sym_ul": 5635,
                "contact:phone": "+48 502443528",
                "contact:email": "magicznakrainaosp@gmail.com",
                "ref:regon": "122974294",
                "ref:vatin": "PL7352807662",
                "operator": "Dominika Schlegel \u017b\u00f3\u0142tek",
                "operator:type": "private",
                "amenity": "kindergarten"
            }
        },
        {
            "id": 83130,
            "type": "Feature",
            "geometry": {
                "type": "Point",
                "coordinates": [
                    20.08663,
                    49.43988
                ]
            },
            "properties": {
                "ref:rspo": 83130,
                "official_name": "Niepubliczne Przedszkole",
                "name": "Niepubliczne Przedszkole",
                "addr:country": "PL",
                "addr:postcode": "34-400",
                "addr:place": "Gronk\u00f3w",
                "addr:housenumber": "222",
                "addr:teryt:simc": 457165,
                "contact:phone": "+48 182856212",
                "contact:email": "paulabrzyzek333@yahoo.com",
                "contact:website": "http:\/\/www.przedszkolegronkow.pl",
                "ref:regon": "122705594",
                "ref:vatin": "PL7352364242",
                "operator": "Paulina Brzyzek-Kantor",
                "operator:type": "private",
                "amenity": "kindergarten"
            }
        },
        {
            "id": 86564,
            "type": "Feature",
            "geometry": {
                "type": "Point",
                "coordinates": [
                    20.0873,
                    49.44137
                ]
            },
            "properties": {
                "isced:level": "1;2",
                "ref:rspo": 86564,
                "official_name": "Szko\u0142a Podstawowa im. Kazimierza Jagiello\u0144czyka w Gronkowie",
                "name": "Szko\u0142a Podstawowa",
                "addr:country": "PL",
                "addr:postcode": "34-400",
                "addr:place": "Gronk\u00f3w",
                "addr:housenumber": "210",
                "addr:teryt:simc": 457165,
                "contact:phone": "+48 182656107",
                "contact:email": "sekretariat@spgronkow.ugnowytarg.pl",
                "contact:website": "http:\/\/spgronkow.pl",
                "ref:regon": "490674612",
                "ref:vatin": "PL7352801613",
                "operator": "Gmina Nowy Targ",
                "operator:type": "government",
                "amenity": "school"
            }
        },
        {
            "id": 30375,
            "type": "Feature",
            "geometry": {
                "type": "Point",
                "coordinates": [
                    19.9452819,
                    49.4435033
                ]
            },
            "properties": {
                "isced:level": "1;2",
                "ref:rspo": 30375,
                "official_name": "Szko\u0142a Podstawowa im. Ks. Prof. J\u00f3zefa Tischnera w Rogo\u017aniku",
                "name": "Szko\u0142a Podstawowa",
                "addr:country": "PL",
                "addr:postcode": "34-471",
                "addr:place": "Rogo\u017anik",
                "addr:housenumber": "69",
                "addr:teryt:simc": 457538,
                "contact:phone": "+48 182655529",
                "contact:email": "sekretariat@sprogoznik.ugnowytarg.pl",
                "ref:regon": "490674776",
                "ref:vatin": "PL7351064779",
                "operator": "Gmina Nowy Targ",
                "operator:type": "government",
                "amenity": "school"
            }
        },
        {
            "id": 84630,
            "type": "Feature",
            "geometry": {
                "type": "Point",
                "coordinates": [
                    20.20817,
                    49.46683
                ]
            },
            "properties": {
                "isced:level": "1;2",
                "ref:rspo": 84630,
                "official_name": "Szko\u0142a Podstawowa w D\u0119bnie",
                "name": "Szko\u0142a Podstawowa w D\u0119bnie",
                "addr:country": "PL",
                "addr:postcode": "34-434",
                "addr:city": "D\u0119bno",
                "addr:street": "Szkolna",
                "addr:housenumber": "3",
                "addr:teryt:simc": 457082,
                "addr:teryt:sym_ul": 21970,
                "contact:phone": "+48 182751792",
                "contact:email": "sekretariat@spdebno.ugnowytarg.pl",
                "contact:website": "http:\/\/spdebno.ugnowytarg.pl",
                "ref:regon": "490674569",
                "ref:vatin": "PL7351062266",
                "operator": "Gmina Nowy Targ",
                "operator:type": "government",
                "amenity": "school"
            }
        },
        {
            "id": 15752,
            "type": "Feature",
            "geometry": {
                "type": "Point",
                "coordinates": [
                    19.96947,
                    49.47232
                ]
            },
            "properties": {
                "isced:level": "1;2",
                "ref:rspo": 15752,
                "official_name": "Szko\u0142a Podstawowa im. \u015aw. Jana Kantego w Lud\u017amierzu",
                "name": "Szko\u0142a Podstawowa",
                "addr:country": "PL",
                "addr:postcode": "34-471",
                "addr:city": "Lud\u017amierz",
                "addr:street": "Kazimierza Przerwy-Tetmajera",
                "addr:housenumber": "100",
                "addr:teryt:simc": 457366,
                "addr:teryt:sym_ul": 17755,
                "contact:phone": "+48 182655320",
                "contact:email": "sekretariat@spludzmierz.ugnowytarg.pl",
                "contact:website": "http:\/\/www.spludzmierz.ugnowytarg.pl",
                "ref:regon": "490674701",
                "ref:vatin": "PL7351062160",
                "operator": "Gmina Nowy Targ",
                "operator:type": "government",
                "amenity": "school"
            }
        },
        {
            "id": 83127,
            "type": "Feature",
            "geometry": {
                "type": "Point",
                "coordinates": [
                    19.96947,
                    49.47229
                ]
            },
            "properties": {
                "ref:rspo": 83127,
                "official_name": "Prywatne Niepubliczne Przedszkole \"Bajeczny \u015awiat\"",
                "name": "Prywatne Niepubliczne Przedszkole \"Bajeczny \u015awiat\"",
                "addr:country": "PL",
                "addr:postcode": "34-471",
                "addr:city": "Lud\u017amierz",
                "addr:street": "Kazimierza Przerwy-Tetmajera",
                "addr:housenumber": "100",
                "addr:teryt:simc": 457366,
                "addr:teryt:sym_ul": 17755,
                "contact:phone": "+48 515268797",
                "contact:email": "mbajkowyswiat@gmail.com",
                "contact:website": "http:\/\/bajkowyswiat.eu",
                "ref:regon": "122709497",
                "ref:vatin": "PL7352384078",
                "operator": "Marzena Kruczek",
                "operator:type": "private",
                "amenity": "kindergarten"
            }
        },
        {
            "id": 86005,
            "type": "Feature",
            "geometry": {
                "type": "Point",
                "coordinates": [
                    20.13178,
                    49.47466
                ]
            },
            "properties": {
                "isced:level": "1;2",
                "ref:rspo": 86005,
                "official_name": "Szko\u0142a Podstawowa im. Kazimierza Przerwy-Tetmajera w \u0141opusznej",
                "name": "Szko\u0142a Podstawowa",
                "addr:country": "PL",
                "addr:postcode": "34-432",
                "addr:city": "\u0141opuszna",
                "addr:street": "Szkolna",
                "addr:housenumber": "1",
                "addr:teryt:simc": 457372,
                "addr:teryt:sym_ul": 21970,
                "contact:phone": "+48 182653904",
                "contact:email": "sekretariat@splopuszna.ugnowytarg.pl",
                "contact:website": "http:\/\/www.szkola-lopuszna.szkolastrona.pl",
                "ref:regon": "490674718",
                "ref:vatin": "PL7352801955",
                "operator": "Gmina Nowy Targ",
                "operator:type": "government",
                "amenity": "school"
            }
        },
        {
            "id": 30423,
            "type": "Feature",
            "geometry": {
                "type": "Point",
                "coordinates": [
                    20.21188,
                    49.47578
                ]
            },
            "properties": {
                "isced:level": "1;2",
                "ref:rspo": 30423,
                "official_name": "Szko\u0142a Podstawowa w Szlembarku",
                "name": "Szko\u0142a Podstawowa w Szlembarku",
                "addr:country": "PL",
                "addr:postcode": "34-434",
                "addr:city": "Szlembark",
                "addr:street": "Ksi\u0119dza Kardyna\u0142a Karola Wojty\u0142y",
                "addr:housenumber": "44",
                "addr:teryt:simc": 457567,
                "addr:teryt:sym_ul": 53437,
                "contact:phone": "+48 182751789",
                "contact:email": "sekretariat@spszlembark.ugnowytarg.pl",
                "contact:website": "http:\/\/spszlembark.szkolnastrona.pl",
                "ref:regon": "490674546",
                "ref:vatin": "PL7351064555",
                "operator": "Gmina Nowy Targ",
                "operator:type": "government",
                "amenity": "school"
            }
        },
        {
            "id": 29036,
            "type": "Feature",
            "geometry": {
                "type": "Point",
                "coordinates": [
                    20.0978673,
                    49.4760349
                ]
            },
            "properties": {
                "isced:level": "1;2",
                "ref:rspo": 29036,
                "official_name": "Szko\u0142a Podstawowa im. Prof. Andrzeja Waksmundzkiego w Ostrowsku",
                "name": "Szko\u0142a Podstawowa",
                "addr:country": "PL",
                "addr:postcode": "34-431",
                "addr:city": "Ostrowsko",
                "addr:street": "Jana Paw\u0142a II",
                "addr:housenumber": "13",
                "addr:teryt:simc": 457484,
                "addr:teryt:sym_ul": 7123,
                "contact:phone": "+48 182653561",
                "contact:email": "sekretariat@spostrowsko.ugnowytarg.pl",
                "contact:website": "http:\/\/www.spostrowsko.pl",
                "ref:regon": "490674753",
                "ref:vatin": "PL7352863092",
                "operator": "Gmina Nowy Targ",
                "operator:type": "government",
                "amenity": "school"
            }
        },
        {
            "id": 130058,
            "type": "Feature",
            "geometry": {
                "type": "Point",
                "coordinates": [
                    20.0978673,
                    49.4760049
                ]
            },
            "properties": {
                "ref:rspo": 130058,
                "official_name": "Niepubliczne Przedszkole \"Bajkowy \u015awiat\"",
                "name": "Niepubliczne Przedszkole \"Bajkowy \u015awiat\"",
                "addr:country": "PL",
                "addr:postcode": "34-431",
                "addr:city": "Ostrowsko",
                "addr:street": "Jana Paw\u0142a II",
                "addr:housenumber": "13",
                "addr:teryt:simc": 457484,
                "addr:teryt:sym_ul": 7123,
                "contact:phone": "+48 515268797",
                "contact:email": "mbajkowyswiat@gmail.com",
                "contact:website": "http:\/\/bajkowyswiat.eu",
                "ref:regon": "363375434",
                "ref:vatin": "PL7352384078",
                "operator": "Marzena Kruczek",
                "operator:type": "private",
                "amenity": "kindergarten"
            }
        },
        {
            "id": 14360,
            "type": "Feature",
            "geometry": {
                "type": "Point",
                "coordinates": [
                    19.9589399,
                    49.4761499
                ]
            },
            "properties": {
                "isced:level": "1;2",
                "ref:rspo": 14360,
                "official_name": "Szko\u0142a Podstawowa w Krauszowie im. \u015awi\u0119tego Stanis\u0142awa Kostki",
                "name": "Szko\u0142a Podstawowa w Krauszowie",
                "addr:country": "PL",
                "addr:postcode": "34-471",
                "addr:place": "Krausz\u00f3w",
                "addr:housenumber": "55",
                "addr:teryt:simc": 457308,
                "contact:phone": "+48 182655936",
                "contact:email": "sekretariat@spkrauszow.ugnowytarg.pl",
                "contact:website": "http:\/\/spkrauszow.dbv.pl",
                "ref:regon": "490674664",
                "ref:vatin": "PL7351062059",
                "operator": "Gmina Nowy Targ",
                "operator:type": "government",
                "amenity": "school"
            }
        },
        {
            "id": 14047,
            "type": "Feature",
            "geometry": {
                "type": "Point",
                "coordinates": [
                    20.18622,
                    49.48075
                ]
            },
            "properties": {
                "isced:level": "1;2",
                "ref:rspo": 14047,
                "official_name": "Szko\u0142a Podstawowa im. \u015awi\u0119tej Kingi w Knurowie",
                "name": "Szko\u0142a Podstawowa",
                "addr:country": "PL",
                "addr:postcode": "34-434",
                "addr:place": "Knur\u00f3w",
                "addr:housenumber": "46",
                "addr:teryt:simc": 457277,
                "contact:phone": "+48 182751769",
                "contact:email": "sekretariat@spknurow.ugnowytarg.pl",
                "ref:regon": "490674658",
                "ref:vatin": "PL7351064845",
                "operator": "Gmina Nowy Targ",
                "operator:type": "government",
                "amenity": "school"
            }
        },
        {
            "id": 83129,
            "type": "Feature",
            "geometry": {
                "type": "Point",
                "coordinates": [
                    20.0779534,
                    49.4813224
                ]
            },
            "properties": {
                "ref:rspo": 83129,
                "official_name": "Niepubliczne Przedszkole im. \"Wr\u00f3belka Elemelka\"",
                "name": "Niepubliczne Przedszkole",
                "addr:country": "PL",
                "addr:postcode": "34-431",
                "addr:city": "Waksmund",
                "addr:street": "Ko\u015bcielna",
                "addr:housenumber": "8",
                "addr:teryt:simc": 457573,
                "addr:teryt:sym_ul": 9546,
                "contact:phone": "+48 515268797",
                "contact:email": "mbajkowyswiat@gmail.com",
                "contact:website": "http:\/\/bajkowyswiat.eu",
                "ref:regon": "122709445",
                "ref:vatin": "PL7352384078",
                "operator": "Marzena Kruczek",
                "operator:type": "private",
                "amenity": "kindergarten"
            }
        },
        {
            "id": 86711,
            "type": "Feature",
            "geometry": {
                "type": "Point",
                "coordinates": [
                    20.07659,
                    49.48344
                ]
            },
            "properties": {
                "isced:level": "1;2",
                "ref:rspo": 86711,
                "official_name": "Szko\u0142a Podstawowa w Waksmundzie",
                "name": "Szko\u0142a Podstawowa w Waksmundzie",
                "addr:country": "PL",
                "addr:postcode": "34-431",
                "addr:city": "Waksmund",
                "addr:street": "Na R\u00f3wni",
                "addr:housenumber": "28",
                "addr:teryt:simc": 457573,
                "addr:teryt:sym_ul": 13656,
                "contact:phone": "+48 182653941",
                "contact:email": "sekretariat@spwaksmund.ugnowytarg.pl",
                "contact:website": "http:\/\/www.spwaksmund.ugnowytarg.pl\/",
                "ref:regon": "490674552",
                "ref:vatin": "PL7352802274",
                "operator": "Gmina Nowy Targ",
                "operator:type": "government",
                "amenity": "school"
            }
        },
        {
            "id": 83128,
            "type": "Feature",
            "geometry": {
                "type": "Point",
                "coordinates": [
                    19.96568,
                    49.49131
                ]
            },
            "properties": {
                "ref:rspo": 83128,
                "official_name": "Niepubliczne Przedszkole Magiczna Kraina",
                "name": "Niepubliczne Przedszkole Magiczna Kraina",
                "addr:country": "PL",
                "addr:postcode": "34-404",
                "addr:place": "Trute",
                "addr:housenumber": "71a",
                "addr:teryt:simc": 457350,
                "contact:phone": "+48 502443528",
                "contact:email": "magicznakrainaosp@gmail.com",
                "ref:regon": "122705565",
                "ref:vatin": "PL7352807662",
                "operator": "Dominika Schlegel \u017b\u00f3\u0142tek",
                "operator:type": "private",
                "amenity": "kindergarten"
            }
        },
        {
            "id": 17181,
            "type": "Feature",
            "geometry": {
                "type": "Point",
                "coordinates": [
                    19.94354,
                    49.49508
                ]
            },
            "properties": {
                "isced:level": "1;2",
                "ref:rspo": 17181,
                "official_name": "Szko\u0142a Podstawowa w Morawczynie",
                "name": "Szko\u0142a Podstawowa w Morawczynie",
                "addr:country": "PL",
                "addr:postcode": "34-404",
                "addr:place": "Morawczyna",
                "addr:housenumber": "66",
                "addr:teryt:simc": 457410,
                "contact:phone": "+48 182651105",
                "contact:email": "sekretariat@spmorawczyna.ugnowytarg.pl",
                "contact:website": "http:\/\/www.spmorawczyna.ugnowytarg.pl",
                "ref:regon": "490674724",
                "ref:vatin": "PL7351062272",
                "operator": "Gmina Nowy Targ",
                "operator:type": "government",
                "amenity": "school"
            }
        },
        {
            "id": 15707,
            "type": "Feature",
            "geometry": {
                "type": "Point",
                "coordinates": [
                    19.97659,
                    49.50372
                ]
            },
            "properties": {
                "isced:level": "1;2",
                "ref:rspo": 15707,
                "official_name": "Szko\u0142a Podstawowa w Lasku",
                "name": "Szko\u0142a Podstawowa w Lasku",
                "addr:country": "PL",
                "addr:postcode": "34-404",
                "addr:place": "Lasek",
                "addr:housenumber": "69",
                "addr:teryt:simc": 457337,
                "contact:phone": "+48 182651467",
                "contact:email": "sekretariat@splasek.ugnowytarg.pl",
                "contact:website": "http:\/\/splasek.edupage.orgl",
                "ref:regon": "490674687",
                "ref:vatin": "PL7351062154",
                "operator": "Gmina Nowy Targ",
                "operator:type": "government",
                "amenity": "school"
            }
        },
        {
            "id": 83154,
            "type": "Feature",
            "geometry": {
                "type": "Point",
                "coordinates": [
                    19.93634,
                    49.51365
                ]
            },
            "properties": {
                "ref:rspo": 83154,
                "official_name": "Prywatne Niepubliczne Przedszkole \"Reksio\"",
                "name": "Prywatne Niepubliczne Przedszkole \"Reksio\"",
                "addr:country": "PL",
                "addr:postcode": "34-404",
                "addr:city": "Pyz\u00f3wka",
                "addr:street": "W\u0142adys\u0142awa Orkana",
                "addr:housenumber": "6",
                "addr:teryt:simc": 457521,
                "addr:teryt:sym_ul": 15140,
                "contact:phone": "+48 515268797",
                "contact:email": "mbajkowyswiat@gmail.com",
                "contact:website": "http:\/\/bajkowyswiat.eu",
                "ref:regon": "122709422",
                "ref:vatin": "PL7352384078",
                "operator": "Marzena Kruczek",
                "operator:type": "private",
                "amenity": "kindergarten"
            }
        },
        {
            "id": 29708,
            "type": "Feature",
            "geometry": {
                "type": "Point",
                "coordinates": [
                    19.93654,
                    49.51402
                ]
            },
            "properties": {
                "isced:level": "1;2",
                "ref:rspo": 29708,
                "official_name": "Szko\u0142a Podstawowa im. Bohaterskich Dzieci Warszawy w Pyz\u00f3wce",
                "name": "Szko\u0142a Podstawowa",
                "addr:country": "PL",
                "addr:postcode": "34-404",
                "addr:city": "Pyz\u00f3wka",
                "addr:street": "W\u0142adys\u0142awa Orkana",
                "addr:housenumber": "4",
                "addr:teryt:simc": 457521,
                "addr:teryt:sym_ul": 15140,
                "contact:phone": "+48 182751224",
                "contact:email": "sekretariat@sppyzowka.ugnowytarg.pl",
                "contact:website": "http:\/\/www.szkolapyzowka.szkolnastrona.pl\/",
                "ref:regon": "490674760",
                "ref:vatin": "PL7351064578",
                "operator": "Gmina Nowy Targ",
                "operator:type": "government",
                "amenity": "school"
            }
        },
        {
            "id": 13582,
            "type": "Feature",
            "geometry": {
                "type": "Point",
                "coordinates": [
                    19.99116,
                    49.52119
                ]
            },
            "properties": {
                "isced:level": "1;2",
                "ref:rspo": 13582,
                "official_name": "Szko\u0142a Podstawowa w Klikuszowej",
                "name": "Szko\u0142a Podstawowa w Klikuszowej",
                "addr:country": "PL",
                "addr:postcode": "34-404",
                "addr:place": "Klikuszowa",
                "addr:housenumber": "240",
                "addr:teryt:simc": 457231,
                "contact:phone": "+48 182651425",
                "contact:email": "sekretariat@spklikuszowa.ugnowytarg.pl",
                "contact:website": "http:\/\/www.spklikuszowa.szkolnastrona.pl",
                "ref:regon": "490674641",
                "ref:vatin": "PL7351062131",
                "operator": "Gmina Nowy Targ",
                "operator:type": "government",
                "amenity": "school"
            }
        },
        {
            "id": 131990,
            "type": "Feature",
            "geometry": {
                "type": "Point",
                "coordinates": [
                    19.98571,
                    49.52252
                ]
            },
            "properties": {
                "ref:rspo": 131990,
                "official_name": "Niepubliczne Przedszkole \"Tuptusiowo\" O Profilu Plastycznym",
                "name": "Niepubliczne Przedszkole \"Tuptusiowo\" O Profilu Plastycznym",
                "addr:country": "PL",
                "addr:postcode": "34-404",
                "addr:place": "Klikuszowa",
                "addr:housenumber": "64",
                "addr:teryt:simc": 457231,
                "contact:phone": "+48 668300270",
                "contact:email": "gosiczek83@gmail.com",
                "ref:regon": "365399574",
                "ref:vatin": "PL7352517556",
                "operator": "Ma\u0142gorzata \u017burek-Duczymi\u0144ska",
                "operator:type": "private",
                "amenity": "kindergarten"
            }
        },
        {
            "id": 17350,
            "type": "Feature",
            "geometry": {
                "type": "Point",
                "coordinates": [
                    20.0084,
                    49.54356
                ]
            },
            "properties": {
                "isced:level": "1;2",
                "ref:rspo": 17350,
                "official_name": "Szko\u0142a Podstawowa w Obidowej",
                "name": "Szko\u0142a Podstawowa w Obidowej",
                "addr:country": "PL",
                "addr:postcode": "34-404",
                "addr:place": "Obidowa",
                "addr:housenumber": "37",
                "addr:teryt:simc": 457455,
                "contact:phone": "+48 182651470",
                "contact:email": "sekretariat@spobidowa.ugnowytarg.pl",
                "contact:website": "http:\/\/www.spobidowa.szkolna.net",
                "ref:regon": "490674747",
                "ref:vatin": "PL7351064532",
                "operator": "Gmina Nowy Targ",
                "operator:type": "government",
                "amenity": "school"
            }
        },
        {
            "id": 13367,
            "type": "Feature",
            "geometry": {
                "type": "Point",
                "coordinates": [
                    19.9548,
                    49.60296
                ]
            },
            "properties": {
                "isced:level": "1;2",
                "ref:rspo": 13367,
                "official_name": "Szko\u0142a Podstawowa w Harklowej",
                "name": "Szko\u0142a Podstawowa w Harklowej",
                "addr:country": "PL",
                "addr:postcode": "34-434",
                "addr:city": "Harklowa",
                "addr:street": "Podhala\u0144ska",
                "addr:housenumber": "31",
                "addr:teryt:simc": 457171,
                "addr:teryt:sym_ul": 16756,
                "contact:phone": "+48 182751723",
                "contact:email": "sekretariat@spharklowa.ugnowytarg.pl",
                "ref:regon": "490674635",
                "ref:vatin": "PL7351064816",
                "operator": "Gmina Nowy Targ",
                "operator:type": "government",
                "amenity": "school"
            }
        }
    ]
}