{
    "type": "FeatureCollection",
    "features": [
        {
            "id": 59949,
            "type": "Feature",
            "geometry": {
                "type": "Point",
                "coordinates": [
                    19.78193,
                    49.56849
                ]
            },
            "properties": {
                "isced:level": "1;2",
                "ref:rspo": 59949,
                "official_name": "Szko\u0142a Podstawowa Nr 3 im. Ojca \u015awi\u0119tego Jana Paw\u0142a II w Spytkowicach",
                "name": "Szko\u0142a Podstawowa Nr 3",
                "addr:country": "PL",
                "addr:postcode": "34-745",
                "addr:place": "Spytkowice",
                "addr:housenumber": "153",
                "addr:teryt:sym_ul": 462982,
                "contact:phone": "+48 182688074",
                "contact:email": "sp3spytkowice@gmail.com",
                "contact:website": "http:\/\/www.sp3spytkowice.szkolna.net",
                "ref:regon": "490452774",
                "ref:vatin": "PL7351059471",
                "operator": "Gmina Spytkowice",
                "operator:type": "government",
                "amenity": "school"
            }
        },
        {
            "id": 263211,
            "type": "Feature",
            "geometry": {
                "type": "Point",
                "coordinates": [
                    19.80095,
                    49.57324
                ]
            },
            "properties": {
                "ref:rspo": 263211,
                "official_name": "Niepubliczne Przedszkole Si\u00f3str S\u0142u\u017cebniczek Nmp Np im. B\u0142. Edmunda Bojanowskiego w Spytkowicach",
                "name": "Niepubliczne Przedszkole Si\u00f3str S\u0142u\u017cebniczek Nmp Np",
                "addr:country": "PL",
                "addr:postcode": "34-745",
                "addr:place": "Spytkowice",
                "addr:housenumber": "96",
                "addr:teryt:sym_ul": 462982,
                "contact:phone": "+48 182688036",
                "contact:email": "npspytkowice96@o2.pl",
                "ref:regon": "368122287",
                "ref:vatin": "PL7352856258",
                "operator": "Zgromadzenie Si\u00f3str S\u0142u\u017cebniczek Naj\u015bwi\u0119tszej Maryi Panny Niepokalanie Pocz\u0119tej, Prowincja Krakowska",
                "operator:type": "religious",
                "amenity": "kindergarten"
            }
        },
        {
            "id": 59165,
            "type": "Feature",
            "geometry": {
                "type": "Point",
                "coordinates": [
                    19.81709,
                    49.57376
                ]
            },
            "properties": {
                "ref:rspo": 59165,
                "official_name": "Gminne Przedszkole \"Stokrotka\" w Spytkowicach",
                "name": "Gminne Przedszkole \"Stokrotka\" w Spytkowicach",
                "addr:country": "PL",
                "addr:postcode": "34-745",
                "addr:place": "Spytkowice",
                "addr:housenumber": "29",
                "addr:teryt:sym_ul": 462982,
                "contact:phone": "+48 182688007",
                "contact:email": "przedszkole@spytkowice.pl",
                "ref:regon": "490813568",
                "ref:vatin": "PL7352112061",
                "operator": "Gmina Spytkowice",
                "operator:type": "government",
                "amenity": "kindergarten"
            }
        },
        {
            "id": 66160,
            "type": "Feature",
            "geometry": {
                "type": "Point",
                "coordinates": [
                    19.8235199,
                    49.57729
                ]
            },
            "properties": {
                "isced:level": "1;2",
                "ref:rspo": 66160,
                "official_name": "Szko\u0142a Podstawowa Nr 1 im. Por. Tadeusza Stefaniszyna w Spytkowicach",
                "name": "Szko\u0142a Podstawowa Nr 1",
                "addr:country": "PL",
                "addr:postcode": "34-745",
                "addr:place": "Spytkowice",
                "addr:housenumber": "12",
                "addr:teryt:sym_ul": 462982,
                "contact:phone": "+48 182688006",
                "contact:email": "zspgspytkowice@interia.pl",
                "ref:regon": "490452691",
                "ref:vatin": "PL7352523433",
                "operator": "Gmina Spytkowice",
                "operator:type": "government",
                "amenity": "school"
            }
        },
        {
            "id": 60272,
            "type": "Feature",
            "geometry": {
                "type": "Point",
                "coordinates": [
                    19.86176,
                    49.58917
                ]
            },
            "properties": {
                "isced:level": "1;2",
                "ref:rspo": 60272,
                "official_name": "Szko\u0142a Podstawowa Nr 2 im. 12 Pu\u0142ku Piechoty w Spytkowicach",
                "name": "Szko\u0142a Podstawowa Nr 2",
                "addr:country": "PL",
                "addr:postcode": "34-745",
                "addr:place": "Spytkowice",
                "addr:housenumber": "566",
                "addr:teryt:sym_ul": 462982,
                "contact:phone": "+48 182688346",
                "contact:email": "szkolanr2@op.pl",
                "contact:website": "https:\/\/sp2spytkowice.szkolna.net",
                "ref:regon": "490452797",
                "ref:vatin": "PL7351059488",
                "operator": "Gmina Spytkowice",
                "operator:type": "government",
                "amenity": "school"
            }
        }
    ]
}