{
    "type": "FeatureCollection",
    "features": [
        {
            "id": 263405,
            "type": "Feature",
            "geometry": {
                "type": "Point",
                "coordinates": [
                    20.39606,
                    49.43868
                ]
            },
            "properties": {
                "isced:level": "1;2",
                "ref:rspo": 263405,
                "official_name": "Szko\u0142a Podstawowa Nr 2 im. Jana Paw\u0142a II w Kro\u015bcienku Nad Dunajcem",
                "name": "Szko\u0142a Podstawowa Nr 2",
                "addr:postcode": "34-450",
                "addr:city": "Kro\u015bcienko nad Dunajcem",
                "addr:street": "Bia\u0142y Potok",
                "addr:housenumber": "1",
                "addr:city:simc": 436743,
                "addr:street:sym_ul": 1198,
                "phone": "+48 182623815",
                "email": "szkola@sp2kroscienko.pl",
                "website": "http:\/\/www.sp2kroscienko.pl",
                "ref:regon": "368186710",
                "ref:vatin": "PL7352251710",
                "operator": "Gmina Kro\u015bcienko Nad Dunajcem",
                "operator:type": "government",
                "amenity": "school"
            }
        },
        {
            "id": 264012,
            "type": "Feature",
            "geometry": {
                "type": "Point",
                "coordinates": [
                    20.39606,
                    49.438649999999996
                ]
            },
            "properties": {
                "ref:rspo": 264012,
                "official_name": "Punkt Przedszkolny w Szkole Podstawowej Nr 2 w Kro\u015bcienku Nad Dunajcem",
                "name": "Punkt Przedszkolny w Szkole Podstawowej Nr 2 w Kro\u015bcienku Nad Dunajcem",
                "addr:postcode": "34-450",
                "addr:city": "Kro\u015bcienko nad Dunajcem",
                "addr:street": "Bia\u0142y Potok",
                "addr:housenumber": "1",
                "addr:city:simc": 436743,
                "addr:street:sym_ul": 1198,
                "phone": "+48 182623815",
                "email": "szkola@sp2kroscienko.pl",
                "website": "http:\/\/www.sp2kroscienko.pl",
                "ref:regon": "368250973",
                "ref:vatin": "PL7352251710",
                "operator": "Gmina Kro\u015bcienko Nad Dunajcem",
                "operator:type": "government",
                "amenity": "kindergarten"
            }
        },
        {
            "id": 129894,
            "type": "Feature",
            "geometry": {
                "type": "Point",
                "coordinates": [
                    20.43621,
                    49.43873
                ]
            },
            "properties": {
                "ref:rspo": 129894,
                "official_name": "Ogniotech Roman Rajczak",
                "name": "Ogniotech Roman Rajczak",
                "addr:postcode": "34-450",
                "addr:city": "Kro\u015bcienko nad Dunajcem",
                "addr:street": "Le\u015bna",
                "addr:housenumber": "5",
                "addr:city:simc": 436743,
                "addr:street:sym_ul": 10898,
                "phone": "+48 183070133",
                "email": "biurogasnice-legalizacja@tlen.pl",
                "website": "http:\/\/www.ogniotech.pl",
                "ref:regon": "363055008",
                "ref:vatin": "PL7352497486",
                "operator": "Roman Rajczak",
                "operator:type": "private",
                "fixme": "w zale\u017cno\u015bci od przedmiotu dzia\u0142alno\u015bci (np. amenity=training + training=*, amenity=dancing_school, amenity=language_school, amenity=music_school)"
            }
        },
        {
            "id": 71202,
            "type": "Feature",
            "geometry": {
                "type": "Point",
                "coordinates": [
                    20.42284,
                    49.44016
                ]
            },
            "properties": {
                "ref:rspo": 71202,
                "official_name": "O\u015brodek Rehabilitacyjno- Edukacyjno - Wychowawczy w Kro\u015bcienku Nad Dunajcem",
                "name": "O\u015brodek Rehabilitacyjno- Edukacyjno - Wychowawczy w Kro\u015bcienku Nad Dunajcem",
                "addr:postcode": "34-450",
                "addr:city": "Kro\u015bcienko nad Dunajcem",
                "addr:street": "Trzech Koron",
                "addr:housenumber": "1",
                "addr:city:simc": 436743,
                "addr:street:sym_ul": 23081,
                "phone": "+48 182623082",
                "email": "orew_kro@wp.pl",
                "website": "http:\/\/www.psoni-szczawnica.pl",
                "ref:regon": "122703336",
                "ref:vatin": "PL7351059548",
                "operator": "Polskie Stowarzyszenie Na Rzecz Os\u00f3b Z Niepe\u0142nosprawno\u015bci\u0105 Intelektualn\u0105 - Ko\u0142o W Szczawnicy",
                "operator:type": "ngo",
                "amenity": "school"
            }
        },
        {
            "id": 17052,
            "type": "Feature",
            "geometry": {
                "type": "Point",
                "coordinates": [
                    20.42814,
                    49.44153
                ]
            },
            "properties": {
                "ref:rspo": 17052,
                "official_name": "Zesp\u00f3\u0142 Szk\u00f3\u0142 Zawodowych I Plac\u00f3wek w Kro\u015bcienku Nad Dunajcem",
                "name": "Zesp\u00f3\u0142 Szk\u00f3\u0142 Zawodowych I Plac\u00f3wek w Kro\u015bcienku Nad Dunajcem",
                "addr:postcode": "34-450",
                "addr:city": "Kro\u015bcienko nad Dunajcem",
                "addr:street": "Jagiello\u0144ska",
                "addr:housenumber": "4",
                "addr:city:simc": 436743,
                "addr:street:sym_ul": 7029,
                "phone": "+48 182623012",
                "email": "sekretariat@zszip-kroscienko.nowotarski.pl",
                "website": "http:\/\/www.zszip-kroscienko.nowotarski.pl",
                "ref:regon": "000200213",
                "ref:vatin": "PL7351025087",
                "operator": "Powiat Nowotarski",
                "operator:type": "government",
                "landuse": "education",
                "fixme": "amenity=school, amenity=college albo landuse=education w zale\u017cno\u015bci od tego, jakie plac\u00f3wki wchodz\u0105 w sk\u0142ad zespo\u0142u. Sprawd\u017a, kiedy stosowa\u0107 amenity=* a kiedy landuse=education.",
                "note": "Children RSPO: 24639;25619;25640"
            }
        },
        {
            "id": 24639,
            "type": "Feature",
            "geometry": {
                "type": "Point",
                "coordinates": [
                    20.42814,
                    49.4415
                ]
            },
            "properties": {
                "isced:level": "3",
                "ref:rspo": 24639,
                "official_name": "Technikum im. Prof. W\u0142adys\u0142awa Szafera w Zespole Szk\u00f3\u0142 Zawodowych I Plac\u00f3wek w Kro\u015bcienku Nad Dunajcem",
                "name": "Technikum",
                "addr:postcode": "34-450",
                "addr:city": "Kro\u015bcienko nad Dunajcem",
                "addr:street": "Jagiello\u0144ska",
                "addr:housenumber": "4",
                "addr:city:simc": 436743,
                "addr:street:sym_ul": 7029,
                "phone": "+48 182623012",
                "email": "sekretariat@zszip-kroscienko.nowotarski.pl",
                "website": "http:\/\/www.zszip-kroscienko.nowotarski.pl",
                "ref:regon": "492908468",
                "ref:vatin": "PL7351025087",
                "operator": "Powiat Nowotarski",
                "operator:type": "government",
                "amenity": "school",
                "note": "Parent RSPO: 17052"
            }
        },
        {
            "id": 25619,
            "type": "Feature",
            "geometry": {
                "type": "Point",
                "coordinates": [
                    20.42814,
                    49.44147
                ]
            },
            "properties": {
                "isced:level": "3",
                "ref:rspo": 25619,
                "official_name": "Bran\u017cowa Szko\u0142a I Stopnia im. Prof. W\u0142adys\u0142awa Szafera w Zespole Szk\u00f3\u0142 Zawodowych I Plac\u00f3wek w Kro\u015bcienku Nad Dunajcem",
                "name": "Bran\u017cowa Szko\u0142a I Stopnia",
                "addr:postcode": "34-450",
                "addr:city": "Kro\u015bcienko nad Dunajcem",
                "addr:street": "Jagiello\u0144ska",
                "addr:housenumber": "4",
                "addr:city:simc": 436743,
                "addr:street:sym_ul": 7029,
                "phone": "+48 182623012",
                "email": "sekretariat@zszip-kroscienko.nowotarski.pl",
                "website": "http:\/\/www.zszip-kroscienko.nowotarski.pl",
                "ref:regon": "492908422",
                "ref:vatin": "PL7351025087",
                "operator": "Powiat Nowotarski",
                "operator:type": "government",
                "amenity": "school",
                "note": "Parent RSPO: 17052"
            }
        },
        {
            "id": 25640,
            "type": "Feature",
            "geometry": {
                "type": "Point",
                "coordinates": [
                    20.42814,
                    49.44144
                ]
            },
            "properties": {
                "ref:rspo": 25640,
                "official_name": "Centrum Kszta\u0142cenia Zawodowego Nr 3 w Zespole Szk\u00f3\u0142 Zawodowych I Plac\u00f3wek w Kro\u015bcienku Nad Dunajcem",
                "name": "Centrum Kszta\u0142cenia Zawodowego Nr 3 w Zespole Szk\u00f3\u0142 Zawodowych I Plac\u00f3wek w Kro\u015bcienku Nad Dunajcem",
                "addr:postcode": "34-450",
                "addr:city": "Kro\u015bcienko nad Dunajcem",
                "addr:street": "Jagiello\u0144ska",
                "addr:housenumber": "4",
                "addr:city:simc": 436743,
                "addr:street:sym_ul": 7029,
                "phone": "+48 182623012",
                "email": "sekretariat@zszip-kroscienko.nowotarski.pl",
                "website": "http:\/\/www.zszi-kroscienko.nowotarski.pl",
                "ref:regon": "120593530",
                "ref:vatin": "PL7351025087",
                "operator": "Powiat Nowotarski",
                "operator:type": "government",
                "fixme": "w zale\u017cno\u015bci od przedmiotu dzia\u0142alno\u015bci (np. amenity=training + training=*, amenity=dancing_school, amenity=language_school, amenity=music_school) albo amenity=school, amenity=college, albo landuse=education w zale\u017cno\u015bci od tego, jakie plac\u00f3wki wchodz\u0105 w sk\u0142ad zespo\u0142u. Sprawd\u017a, kiedy stosowa\u0107 amenity=* a kiedy landuse=education.",
                "note": "Parent RSPO: 17052"
            }
        },
        {
            "id": 21560,
            "type": "Feature",
            "geometry": {
                "type": "Point",
                "coordinates": [
                    20.42907,
                    49.44386
                ]
            },
            "properties": {
                "isced:level": "3",
                "ref:rspo": 21560,
                "official_name": "Liceum Og\u00f3lnokszta\u0142c\u0105ce im. Stefana \u017beromskiego w Kro\u015bcienku Nad Dunajcem",
                "name": "Liceum Og\u00f3lnokszta\u0142c\u0105ce",
                "addr:postcode": "34-450",
                "addr:city": "Kro\u015bcienko nad Dunajcem",
                "addr:street": "Zdrojowa",
                "addr:housenumber": "11",
                "addr:city:simc": 436743,
                "addr:street:sym_ul": 25944,
                "phone": "+48 182623025",
                "email": "lo.kros@nowotarski.pl",
                "website": "http:\/\/www.lokroscienko.nowotarski.pl",
                "ref:regon": "492825140",
                "ref:vatin": "PL7352863904",
                "operator": "Powiat Nowotarski",
                "operator:type": "government",
                "amenity": "school"
            }
        },
        {
            "id": 83777,
            "type": "Feature",
            "geometry": {
                "type": "Point",
                "coordinates": [
                    20.36731,
                    49.4453699
                ]
            },
            "properties": {
                "isced:level": "1;2",
                "ref:rspo": 83777,
                "official_name": "Szko\u0142a Podstawowa im. Bohater\u00f3w Warszawy w Grywa\u0142dzie",
                "name": "Szko\u0142a Podstawowa",
                "addr:postcode": "34-450",
                "addr:city": "Grywa\u0142d",
                "addr:street": "Szkolna",
                "addr:housenumber": "29",
                "addr:city:simc": 436536,
                "addr:street:sym_ul": 21970,
                "phone": "+48 182623823",
                "email": "szkolagrywald@vp.pl",
                "website": "http:\/\/sp-grywald.vns.pl",
                "ref:regon": "490672381",
                "ref:vatin": "PL7351027318",
                "operator": "Gmina Kro\u015bcienko Nad Dunajcem",
                "operator:type": "government",
                "amenity": "school"
            }
        },
        {
            "id": 276377,
            "type": "Feature",
            "geometry": {
                "type": "Point",
                "coordinates": [
                    20.3395898,
                    49.4463129
                ]
            },
            "properties": {
                "ref:rspo": 276377,
                "official_name": "Przedszkole \"Pieni\u0144skie Skrzaty\"",
                "name": "Przedszkole \"Pieni\u0144skie Skrzaty\"",
                "addr:postcode": "34-450",
                "addr:city": "Kro\u015bnica",
                "addr:street": "Flisacka",
                "addr:housenumber": "2",
                "addr:city:simc": 437004,
                "addr:street:sym_ul": 5069,
                "phone": "+48 502864270",
                "email": "monikatarchala@wp.pl",
                "website": "http:\/\/pieninskieskrzaty.pl",
                "ref:regon": "387118902",
                "operator": "Monika Tarcha\u0142a",
                "operator:type": "private",
                "amenity": "kindergarten"
            }
        },
        {
            "id": 83778,
            "type": "Feature",
            "geometry": {
                "type": "Point",
                "coordinates": [
                    20.36962,
                    49.44656
                ]
            },
            "properties": {
                "isced:level": "1;2",
                "ref:rspo": 83778,
                "official_name": "Szko\u0142a Podstawowa Nr 1 im. Adama Mickiewicza w Kro\u015bcienku Nad Dunajcem",
                "name": "Szko\u0142a Podstawowa Nr 1",
                "addr:postcode": "34-450",
                "addr:city": "Kro\u015bcienko nad Dunajcem",
                "addr:street": "Pieni\u0144ska",
                "addr:housenumber": "2",
                "addr:city:simc": 436743,
                "addr:street:sym_ul": 16132,
                "phone": "+48 182623070",
                "email": "szkola@sp1kroscienko.pl",
                "website": "http:\/\/spkroscienko.edupage.pl",
                "ref:regon": "490672375",
                "ref:vatin": "PL7351027123",
                "operator": "Gmina Kro\u015bcienko Nad Dunajcem",
                "operator:type": "government",
                "amenity": "school"
            }
        },
        {
            "id": 104079,
            "type": "Feature",
            "geometry": {
                "type": "Point",
                "coordinates": [
                    20.36962,
                    49.446529999999996
                ]
            },
            "properties": {
                "ref:rspo": 104079,
                "official_name": "Punkt Przedszkolny w Szkole Podstawowej Nr 1 w Kro\u015bcienku N.d",
                "name": "Punkt Przedszkolny w Szkole Podstawowej Nr 1 w Kro\u015bcienku N.d",
                "addr:postcode": "34-450",
                "addr:city": "Kro\u015bcienko nad Dunajcem",
                "addr:street": "Pieni\u0144ska",
                "addr:housenumber": "2",
                "addr:city:simc": 436743,
                "addr:street:sym_ul": 16132,
                "phone": "+48 182623070",
                "email": "szkola@sp1kroscienko.pl",
                "website": "http:\/\/ppkroscienko.przedszkolowo.pl",
                "ref:regon": "122733403",
                "ref:vatin": "PL7351027123",
                "operator": "Gmina Kro\u015bcienko Nad Dunajcem",
                "operator:type": "government",
                "amenity": "kindergarten"
            }
        },
        {
            "id": 130793,
            "type": "Feature",
            "geometry": {
                "type": "Point",
                "coordinates": [
                    20.36962,
                    49.4465
                ]
            },
            "properties": {
                "ref:rspo": 130793,
                "official_name": "Niepubliczna Szko\u0142a Muzyczna I St. w Kro\u015bcienku Nad Dunajcem",
                "name": "Niepubliczna Szko\u0142a Muzyczna I St. w Kro\u015bcienku Nad Dunajcem",
                "addr:postcode": "34-450",
                "addr:city": "Kro\u015bcienko nad Dunajcem",
                "addr:street": "Pieni\u0144ska",
                "addr:housenumber": "2",
                "addr:city:simc": 436743,
                "addr:street:sym_ul": 16132,
                "email": "sekretariat@smkroscienko.pl",
                "website": "http:\/\/smkroscienko.pl",
                "ref:regon": "364511827",
                "operator": "Fundacja Promocji Artystycznej Pro-Classical",
                "operator:type": "ngo",
                "amenity": "music_school"
            }
        },
        {
            "id": 131723,
            "type": "Feature",
            "geometry": {
                "type": "Point",
                "coordinates": [
                    20.36871,
                    49.44767
                ]
            },
            "properties": {
                "ref:rspo": 131723,
                "official_name": "Niepubliczne Przedszkole Ochronka Parafii Rzymskokatolickiej Pw. Wszystkich \u015awi\u0119tych w Kro\u015bcienku N.dunajcem",
                "name": "Niepubliczne Przedszkole Ochronka Parafii Rzymskokatolickiej Pw. Wszystkich \u015awi\u0119tych w Kro\u015bcienku N.dunajcem",
                "addr:postcode": "34-450",
                "addr:city": "Kro\u015bcienko nad Dunajcem",
                "addr:street": "Luba\u0144",
                "addr:housenumber": "1",
                "addr:city:simc": 436743,
                "addr:street:sym_ul": 11292,
                "phone": "+48 182622859",
                "email": "ochronkapieniny@gmail.com",
                "ref:regon": "365336763",
                "operator": "Parafia Rzym.-Kat. Pw.wszystkich \u015awi\u0119tych",
                "operator:type": "cooperative",
                "amenity": "kindergarten"
            }
        },
        {
            "id": 83776,
            "type": "Feature",
            "geometry": {
                "type": "Point",
                "coordinates": [
                    20.33899,
                    49.44825
                ]
            },
            "properties": {
                "isced:level": "1;2",
                "ref:rspo": 83776,
                "official_name": "Szko\u0142a Podstawowa im. Jana Brzechwy w Kro\u015bnicy",
                "name": "Szko\u0142a Podstawowa",
                "addr:postcode": "34-450",
                "addr:city": "Kro\u015bnica",
                "addr:street": "Ojca Leona",
                "addr:housenumber": "1",
                "addr:city:simc": 437004,
                "addr:street:sym_ul": 30285,
                "phone": "+48 182650190",
                "email": "spbrzechwa@interia.pl",
                "website": "http:\/\/spkrosnica.edupage.org",
                "ref:regon": "490672398",
                "ref:vatin": "PL7351027175",
                "operator": "Gmina Kro\u015bcienko Nad Dunajcem",
                "operator:type": "government",
                "amenity": "school"
            }
        }
    ]
}