{
    "type": "FeatureCollection",
    "features": [
        {
            "id": 106765,
            "type": "Feature",
            "geometry": {
                "type": "Point",
                "coordinates": [
                    19.67285,
                    49.4266
                ]
            },
            "properties": {
                "isced:level": "1;2",
                "ref:rspo": 106765,
                "official_name": "Szko\u0142a Podstawowa w Chy\u017cnem",
                "name": "Szko\u0142a Podstawowa w Chy\u017cnem",
                "addr:postcode": "34-481",
                "addr:place": "Chy\u017cne",
                "addr:housenumber": "129",
                "addr:teryt:simc": 428904,
                "phone": "+48 182631924",
                "email": "szkolachy@poczta.fm",
                "website": "http:\/\/zschyzne.szkolnastrona.pl",
                "ref:regon": "490548008",
                "ref:vatin": "PL7352788048",
                "operator": "Gmina Jab\u0142onka",
                "operator:type": "government",
                "amenity": "school"
            }
        },
        {
            "id": 70306,
            "type": "Feature",
            "geometry": {
                "type": "Point",
                "coordinates": [
                    19.67789,
                    49.4587
                ]
            },
            "properties": {
                "isced:level": "1;2",
                "ref:rspo": 70306,
                "official_name": "Szko\u0142a Podstawowa Jab\u0142onka - Bory",
                "name": "Szko\u0142a Podstawowa Jab\u0142onka - Bory",
                "addr:postcode": "34-480",
                "addr:city": "Jab\u0142onka",
                "addr:street": "Miko\u0142aja Kopernika",
                "addr:housenumber": "14",
                "addr:teryt:simc": 429016,
                "addr:teryt:sym_ul": 9276,
                "phone": "+48 182652405",
                "email": "spbory@gmail.com",
                "website": "http:\/\/www.spbory.pl",
                "ref:regon": "490548020",
                "ref:vatin": "PL7351036961",
                "operator": "Gmina Jab\u0142onka",
                "operator:type": "government",
                "amenity": "school"
            }
        },
        {
            "id": 122281,
            "type": "Feature",
            "geometry": {
                "type": "Point",
                "coordinates": [
                    19.69159,
                    49.4666
                ]
            },
            "properties": {
                "ref:rspo": 122281,
                "official_name": "Zesp\u00f3\u0142 Szk\u00f3\u0142 Niepublicznych w Jab\u0142once",
                "name": "Zesp\u00f3\u0142 Szk\u00f3\u0142 Niepublicznych w Jab\u0142once",
                "addr:postcode": "34-480",
                "addr:city": "Jab\u0142onka",
                "addr:street": "Sobieskiego",
                "addr:housenumber": "78",
                "addr:teryt:simc": 429016,
                "addr:teryt:sym_ul": 20421,
                "phone": "+48 182652483",
                "email": "sekretariat@bsw.szkolybranzowe.edu.pl",
                "website": "http:\/\/bsw.szkolybranzowe.edu.pl",
                "ref:regon": "123058079",
                "operator": "Janusz Gumularz",
                "operator:type": "private",
                "landuse": "education",
                "fixme": "amenity=school, amenity=college albo landuse=education w zale\u017cno\u015bci od tego, jakie plac\u00f3wki wchodz\u0105 w sk\u0142ad zespo\u0142u. Sprawd\u017a, kiedy stosowa\u0107 amenity=* a kiedy landuse=education.",
                "note": "Children RSPO: 25631;133817"
            }
        },
        {
            "id": 25631,
            "type": "Feature",
            "geometry": {
                "type": "Point",
                "coordinates": [
                    19.69159,
                    49.46657
                ]
            },
            "properties": {
                "isced:level": "3",
                "ref:rspo": 25631,
                "official_name": "Bran\u017cowa Szko\u0142a Wielozawodowa im.\u015bw. Jana Paw\u0142a II w Jab\u0142once",
                "name": "Bran\u017cowa Szko\u0142a Wielozawodowa im.\u015bw. Jana Paw\u0142a II w Jab\u0142once",
                "addr:postcode": "34-480",
                "addr:city": "Jab\u0142onka",
                "addr:street": "Sobieskiego",
                "addr:housenumber": "78",
                "addr:teryt:simc": 429016,
                "addr:teryt:sym_ul": 20421,
                "phone": "+48 182652483",
                "email": "sekretariat@bsw.szkolybranzowe.edu.pl",
                "website": "http:\/\/bsw.szkolybranzowe.edu.pl",
                "ref:regon": "122679336",
                "ref:vatin": "PL7341083634",
                "operator": "Janusz Gumularz",
                "operator:type": "private",
                "amenity": "school",
                "note": "Parent RSPO: 122281"
            }
        },
        {
            "id": 124103,
            "type": "Feature",
            "geometry": {
                "type": "Point",
                "coordinates": [
                    19.6964,
                    49.47364
                ]
            },
            "properties": {
                "ref:rspo": 124103,
                "official_name": "Niepubliczne Przedszkole \"Przedszkolaki To My\"",
                "name": "Niepubliczne Przedszkole \"Przedszkolaki To My\"",
                "addr:postcode": "34-480",
                "addr:city": "Jab\u0142onka",
                "addr:street": "Targowa",
                "addr:housenumber": "5",
                "addr:teryt:simc": 429016,
                "addr:teryt:sym_ul": 22659,
                "phone": "+48 122677150",
                "ref:regon": "123187032",
                "operator": "Cezar Sp\u00f3\u0142ka Z Ograniczona Odowiedzialno\u015bci\u0105",
                "operator:type": "private",
                "amenity": "kindergarten"
            }
        },
        {
            "id": 129061,
            "type": "Feature",
            "geometry": {
                "type": "Point",
                "coordinates": [
                    19.6964,
                    49.47361
                ]
            },
            "properties": {
                "isced:level": "1;2",
                "ref:rspo": 129061,
                "official_name": "Orawska Szko\u0142a Podstawowa",
                "name": "Orawska Szko\u0142a Podstawowa",
                "addr:postcode": "34-480",
                "addr:city": "Jab\u0142onka",
                "addr:street": "Targowa",
                "addr:housenumber": "5",
                "addr:teryt:simc": 429016,
                "addr:teryt:sym_ul": 22659,
                "email": "cezary@e-cezar.pl",
                "ref:regon": "362461404",
                "operator": "Cezary Schiff",
                "operator:type": "private",
                "amenity": "school"
            }
        },
        {
            "id": 266117,
            "type": "Feature",
            "geometry": {
                "type": "Point",
                "coordinates": [
                    19.70211,
                    49.4793499
                ]
            },
            "properties": {
                "ref:rspo": 266117,
                "official_name": "Przedszkole ,, Czas Dzieci\u0119cych Zabaw \"",
                "name": "Przedszkole ,, Czas Dzieci\u0119cych Zabaw \"",
                "addr:postcode": "34-480",
                "addr:city": "Jab\u0142onka",
                "addr:street": "Podhala\u0144ska",
                "addr:housenumber": "39",
                "addr:teryt:simc": 429016,
                "addr:teryt:sym_ul": 16756,
                "email": "cezary@e-cezar.pl",
                "website": "http:\/\/orawskieprzedszkole.pl",
                "ref:regon": "369278034",
                "operator": "Cezary Schiff",
                "operator:type": "private",
                "amenity": "kindergarten"
            }
        },
        {
            "id": 14430,
            "type": "Feature",
            "geometry": {
                "type": "Point",
                "coordinates": [
                    19.69528,
                    49.4797
                ]
            },
            "properties": {
                "ref:rspo": 14430,
                "official_name": "Zesp\u00f3\u0142 Szk\u00f3\u0142 im. Bohater\u00f3w Westerplatte w Jab\u0142once",
                "name": "Zesp\u00f3\u0142 Szk\u00f3\u0142",
                "addr:postcode": "34-480",
                "addr:city": "Jab\u0142onka",
                "addr:street": "Podhala\u0144ska",
                "addr:housenumber": "3",
                "addr:teryt:simc": 429016,
                "addr:teryt:sym_ul": 16756,
                "phone": "+48 182652317",
                "email": "pocztazsj@nowotarski.pl",
                "website": "http:\/\/www.zsjablonka.nowotarski.pl",
                "ref:regon": "000204435",
                "ref:vatin": "PL7352251880",
                "operator": "Powiat Nowotarski",
                "operator:type": "government",
                "landuse": "education",
                "fixme": "amenity=school, amenity=college albo landuse=education w zale\u017cno\u015bci od tego, jakie plac\u00f3wki wchodz\u0105 w sk\u0142ad zespo\u0142u. Sprawd\u017a, kiedy stosowa\u0107 amenity=* a kiedy landuse=education.",
                "note": "Children RSPO: 18406;21538;24531"
            }
        },
        {
            "id": 18406,
            "type": "Feature",
            "geometry": {
                "type": "Point",
                "coordinates": [
                    19.69528,
                    49.47967
                ]
            },
            "properties": {
                "isced:level": "3",
                "ref:rspo": 18406,
                "official_name": "Liceum Og\u00f3lnokszta\u0142c\u0105ce im. Bohater\u00f3w Westerplatte w Jab\u0142once",
                "name": "Liceum Og\u00f3lnokszta\u0142c\u0105ce",
                "addr:postcode": "34-480",
                "addr:city": "Jab\u0142onka",
                "addr:street": "Podhala\u0144ska",
                "addr:housenumber": "3",
                "addr:teryt:simc": 429016,
                "addr:teryt:sym_ul": 16756,
                "phone": "+48 182652317",
                "email": "pocztazsj@nowotarski.pl",
                "website": "http:\/\/www.zsjablonka.nowotarski.pl",
                "ref:regon": "492906535",
                "operator": "Powiat Nowotarski",
                "operator:type": "government",
                "amenity": "school",
                "note": "Parent RSPO: 14430"
            }
        },
        {
            "id": 21538,
            "type": "Feature",
            "geometry": {
                "type": "Point",
                "coordinates": [
                    19.69528,
                    49.47964
                ]
            },
            "properties": {
                "isced:level": "3",
                "ref:rspo": 21538,
                "official_name": "Technikum w Zespole Szk\u00f3\u0142 im. Bohater\u00f3w Westerplatte w Jab\u0142once",
                "name": "Technikum w Zespole Szk\u00f3\u0142",
                "addr:postcode": "34-480",
                "addr:city": "Jab\u0142onka",
                "addr:street": "Podhala\u0144ska",
                "addr:housenumber": "3",
                "addr:teryt:simc": 429016,
                "addr:teryt:sym_ul": 16756,
                "phone": "+48 182652317",
                "email": "pocztazsj@nowotarski.pl",
                "website": "http:\/\/www.zsjablonka.nowotarski.pl",
                "ref:regon": "492906558",
                "operator": "Powiat Nowotarski",
                "operator:type": "government",
                "amenity": "school",
                "note": "Parent RSPO: 14430"
            }
        },
        {
            "id": 24531,
            "type": "Feature",
            "geometry": {
                "type": "Point",
                "coordinates": [
                    19.69528,
                    49.47961
                ]
            },
            "properties": {
                "isced:level": "3",
                "ref:rspo": 24531,
                "official_name": "Bran\u017cowa Szko\u0142a Rolnicza I Stopnia w Zespole Szk\u00f3\u0142 im. Bohater\u00f3w Westerplatte w Jab\u0142once",
                "name": "Bran\u017cowa Szko\u0142a Rolnicza I Stopnia w Zespole Szk\u00f3\u0142",
                "addr:postcode": "34-480",
                "addr:city": "Jab\u0142onka",
                "addr:street": "Podhala\u0144ska",
                "addr:housenumber": "3",
                "addr:teryt:simc": 429016,
                "addr:teryt:sym_ul": 16756,
                "phone": "+48 182652317",
                "email": "pocztazsj@nowotarski.pl",
                "website": "http:\/\/www.zsjablonka.nowotarski.pl",
                "ref:regon": "000706071",
                "operator": "Powiat Nowotarski",
                "operator:type": "government",
                "amenity": "school",
                "note": "Parent RSPO: 14430"
            }
        },
        {
            "id": 106773,
            "type": "Feature",
            "geometry": {
                "type": "Point",
                "coordinates": [
                    19.69747,
                    49.48021
                ]
            },
            "properties": {
                "isced:level": "1;2",
                "ref:rspo": 106773,
                "official_name": "Szko\u0142a Podstawowa Nr 1 im.adama Mickiewicza w Jab\u0142once",
                "name": "Szko\u0142a Podstawowa Nr 1 im.adama Mickiewicza w Jab\u0142once",
                "addr:postcode": "34-480",
                "addr:city": "Jab\u0142onka",
                "addr:street": "Piusa Jab\u0142o\u0144skiego",
                "addr:housenumber": "4",
                "addr:teryt:simc": 429016,
                "addr:teryt:sym_ul": 33676,
                "phone": "+48 182652310",
                "email": "poczta@spjablonka.edu.pl",
                "website": "http:\/\/www.spjablonka.edu.pl",
                "ref:regon": "490548014",
                "ref:vatin": "PL7352788060",
                "operator": "Gmina Jab\u0142onka",
                "operator:type": "government",
                "amenity": "school"
            }
        },
        {
            "id": 70316,
            "type": "Feature",
            "geometry": {
                "type": "Point",
                "coordinates": [
                    19.69814,
                    49.48066
                ]
            },
            "properties": {
                "ref:rspo": 70316,
                "official_name": "Gminne Przedszkole Samorz\u0105dowe w Jab\u0142once",
                "name": "Gminne Przedszkole Samorz\u0105dowe w Jab\u0142once",
                "addr:postcode": "34-480",
                "addr:city": "Jab\u0142onka",
                "addr:street": "Piusa Jab\u0142o\u0144skiego",
                "addr:housenumber": "9",
                "addr:teryt:simc": 429016,
                "addr:teryt:sym_ul": 33676,
                "phone": "+48 182652333",
                "email": "przedszkole.jablonka@interia.pl",
                "website": "http:\/\/www.przedszkolejablonka.eprzedszkola.pl",
                "ref:regon": "000971399",
                "ref:vatin": "PL7351036866",
                "operator": "Gmina Jab\u0142onka",
                "operator:type": "government",
                "amenity": "kindergarten"
            }
        },
        {
            "id": 71205,
            "type": "Feature",
            "geometry": {
                "type": "Point",
                "coordinates": [
                    19.69804,
                    49.48134
                ]
            },
            "properties": {
                "ref:rspo": 71205,
                "official_name": "O\u015brodek Rehabilitacyjno - Edukacyjno - Wychowawczy w Jab\u0142once",
                "name": "O\u015brodek Rehabilitacyjno - Edukacyjno - Wychowawczy w Jab\u0142once",
                "addr:postcode": "34-480",
                "addr:city": "Jab\u0142onka",
                "addr:street": "Kazimierza Tetmajera",
                "addr:housenumber": "4",
                "addr:teryt:simc": 429016,
                "addr:teryt:sym_ul": 22770,
                "phone": "+48 182652490",
                "email": "orewjablonka@onet.pl",
                "website": "http:\/\/www.barka.jablonka.pl",
                "ref:regon": "122696808",
                "ref:vatin": "PL7352175021",
                "operator": "Polskie Stowarzyszenie Na Rzecz Os\u00f3b Z Niepe\u0142nosprawno\u015bci\u0105 Intelektualn\u0105 - Ko\u0142o W Jab\u0142once",
                "operator:type": "ngo",
                "amenity": "school"
            }
        },
        {
            "id": 118902,
            "type": "Feature",
            "geometry": {
                "type": "Point",
                "coordinates": [
                    19.69231,
                    49.48183
                ]
            },
            "properties": {
                "ref:rspo": 118902,
                "official_name": "Orawska Samorz\u0105dowa Szko\u0142a Muzyczna I Stopnia w Jab\u0142once",
                "name": "Orawska Samorz\u0105dowa Szko\u0142a Muzyczna I Stopnia w Jab\u0142once",
                "addr:postcode": "34-480",
                "addr:city": "Jab\u0142onka",
                "addr:street": "3 Maja",
                "addr:housenumber": "3",
                "addr:teryt:simc": 429016,
                "addr:teryt:sym_ul": 11937,
                "phone": "+48 183070908",
                "email": "orawskamuzyczna@gmail.com",
                "website": "http:\/\/muzyczna.jablonka.pl",
                "ref:regon": "122924362",
                "operator": "Gmina Jab\u0142onka",
                "operator:type": "government",
                "amenity": "music_school"
            }
        },
        {
            "id": 274596,
            "type": "Feature",
            "geometry": {
                "type": "Point",
                "coordinates": [
                    19.64818,
                    49.4916
                ]
            },
            "properties": {
                "ref:rspo": 274596,
                "official_name": "Niepubliczne Przedszkole J\u0119zykowe ,, Bajkoland\"",
                "name": "Niepubliczne Przedszkole J\u0119zykowe ,, Bajkoland\"",
                "addr:postcode": "34-482",
                "addr:place": "Lipnica Ma\u0142a",
                "addr:housenumber": "47C",
                "addr:teryt:simc": 429341,
                "phone": "+48 793260540",
                "email": "klaudiamasnica17@gmail.com",
                "ref:regon": "386014661",
                "ref:vatin": "PL7352886259",
                "operator": "Klaudia Bandyk",
                "operator:type": "private",
                "amenity": "kindergarten"
            }
        },
        {
            "id": 70302,
            "type": "Feature",
            "geometry": {
                "type": "Point",
                "coordinates": [
                    19.64533,
                    49.499
                ]
            },
            "properties": {
                "isced:level": "1;2",
                "ref:rspo": 70302,
                "official_name": "Szko\u0142a Podstawowa Nr 1 w Lipnicy Ma\u0142ej",
                "name": "Szko\u0142a Podstawowa Nr 1 w Lipnicy Ma\u0142ej",
                "addr:postcode": "34-482",
                "addr:place": "Lipnica Ma\u0142a",
                "addr:housenumber": "117",
                "addr:teryt:simc": 429341,
                "phone": "+48 182752640",
                "email": "bogusiaszlachta@interia.pl",
                "website": "https:\/\/lipnicamala1.wixsite.com",
                "ref:regon": "490548066",
                "ref:vatin": "PL7351037050",
                "operator": "Gmina Jab\u0142onka",
                "operator:type": "government",
                "amenity": "school"
            }
        },
        {
            "id": 110138,
            "type": "Feature",
            "geometry": {
                "type": "Point",
                "coordinates": [
                    19.64533,
                    49.49897
                ]
            },
            "properties": {
                "ref:rspo": 110138,
                "official_name": "Punkt Przedszkolny w Lipnicy Ma\u0142ej",
                "name": "Punkt Przedszkolny w Lipnicy Ma\u0142ej",
                "addr:postcode": "34-482",
                "addr:place": "Lipnica Ma\u0142a",
                "addr:housenumber": "117",
                "addr:teryt:simc": 429341,
                "phone": "+48 182752640",
                "email": "bogusiaszlachta@interia.pl",
                "ref:regon": "122791406",
                "operator": "Gmina Jab\u0142onka",
                "operator:type": "government",
                "amenity": "kindergarten"
            }
        },
        {
            "id": 106767,
            "type": "Feature",
            "geometry": {
                "type": "Point",
                "coordinates": [
                    19.71777,
                    49.50854
                ]
            },
            "properties": {
                "isced:level": "1;2",
                "ref:rspo": 106767,
                "official_name": "Szko\u0142a Podstawowa im. Ks. Jana Sczechowicza w Orawce",
                "name": "Szko\u0142a Podstawowa",
                "addr:postcode": "34-480",
                "addr:place": "Orawka",
                "addr:housenumber": "76",
                "addr:teryt:simc": 429453,
                "phone": "+48 182652367",
                "email": "sporawka@poczta.fm",
                "website": "http:\/\/www.sporawka.eduorawa.net",
                "ref:regon": "490548416",
                "ref:vatin": "PL7352788031",
                "operator": "Gmina Jab\u0142onka",
                "operator:type": "government",
                "amenity": "school"
            }
        },
        {
            "id": 106763,
            "type": "Feature",
            "geometry": {
                "type": "Point",
                "coordinates": [
                    19.67522,
                    49.52277
                ]
            },
            "properties": {
                "isced:level": "1;2",
                "ref:rspo": 106763,
                "official_name": "Szko\u0142a Podstawowa im. Boles\u0142awa Chrobrego w Zubrzycy Dolnej",
                "name": "Szko\u0142a Podstawowa",
                "addr:postcode": "34-484",
                "addr:place": "Zubrzyca Dolna",
                "addr:housenumber": "257",
                "addr:teryt:simc": 429878,
                "phone": "+48 182642030",
                "email": "sekretariat@spzd.edu.pl",
                "website": "https:\/\/spzd.edu.pl\/",
                "ref:regon": "490548830",
                "ref:vatin": "PL7352788054",
                "operator": "Gmina Jab\u0142onka",
                "operator:type": "government",
                "amenity": "school"
            }
        },
        {
            "id": 110367,
            "type": "Feature",
            "geometry": {
                "type": "Point",
                "coordinates": [
                    19.67522,
                    49.52274
                ]
            },
            "properties": {
                "ref:rspo": 110367,
                "official_name": "Punkt Przedszkolny w Zubrzycy Dolnej",
                "name": "Punkt Przedszkolny w Zubrzycy Dolnej",
                "addr:postcode": "34-484",
                "addr:place": "Zubrzyca Dolna",
                "addr:housenumber": "257",
                "addr:teryt:simc": 429878,
                "phone": "+48 182642030",
                "email": "sekretariat@spzd.edu.pl",
                "website": "https:\/\/spzd.edu.pl\/",
                "ref:regon": "122792044",
                "operator": "Gmina Jab\u0142onka",
                "operator:type": "government",
                "amenity": "kindergarten"
            }
        },
        {
            "id": 70304,
            "type": "Feature",
            "geometry": {
                "type": "Point",
                "coordinates": [
                    19.6281,
                    49.52475
                ]
            },
            "properties": {
                "isced:level": "1;2",
                "ref:rspo": 70304,
                "official_name": "Szko\u0142a Podstawowa Nr 2 im. Tadeusza Ko\u015bciuszki w Lipnicy Ma\u0142ej",
                "name": "Szko\u0142a Podstawowa Nr 2",
                "addr:postcode": "34-482",
                "addr:place": "Lipnica Ma\u0142a",
                "addr:housenumber": "346",
                "addr:teryt:simc": 429341,
                "phone": "+48 182752510",
                "email": "sp2lm@interia.pl",
                "website": "http:\/\/www.sp2lm.pl",
                "ref:regon": "490548072",
                "ref:vatin": "PL7351036926",
                "operator": "Gmina Jab\u0142onka",
                "operator:type": "government",
                "amenity": "school"
            }
        },
        {
            "id": 106769,
            "type": "Feature",
            "geometry": {
                "type": "Point",
                "coordinates": [
                    19.72464,
                    49.53964
                ]
            },
            "properties": {
                "isced:level": "1;2",
                "ref:rspo": 106769,
                "official_name": "Szko\u0142a Podstawowa Nr 2 w Podwilku im. Ks.jana G\u00f3ralika",
                "name": "Szko\u0142a Podstawowa Nr 2 w Podwilku",
                "addr:postcode": "34-722",
                "addr:place": "Podwilk",
                "addr:housenumber": "172",
                "addr:teryt:simc": 429602,
                "phone": "+48 182852924",
                "email": "zespolszkolpodwilk@interia.pl",
                "website": "http:\/\/www.zspodwilk.edupage.org",
                "ref:regon": "490548669",
                "ref:vatin": "PL7352621704",
                "operator": "Gmina Jab\u0142onka",
                "operator:type": "government",
                "amenity": "school"
            }
        },
        {
            "id": 106761,
            "type": "Feature",
            "geometry": {
                "type": "Point",
                "coordinates": [
                    19.61672,
                    49.54168
                ]
            },
            "properties": {
                "isced:level": "1;2",
                "ref:rspo": 106761,
                "official_name": "Szko\u0142a Podstawowa Nr 3 w Lipnicy Ma\u0142ej",
                "name": "Szko\u0142a Podstawowa Nr 3 w Lipnicy Ma\u0142ej",
                "addr:postcode": "34-482",
                "addr:place": "Lipnica Ma\u0142a",
                "addr:housenumber": "512",
                "addr:teryt:simc": 429341,
                "phone": "+48 182752445",
                "email": "gimlipm@poczta.onet.pl",
                "website": "http:\/\/www.zslmzso.hekko24.pl",
                "ref:regon": "490548190",
                "ref:vatin": "PL7352788077",
                "operator": "Gmina Jab\u0142onka",
                "operator:type": "government",
                "amenity": "school"
            }
        },
        {
            "id": 70301,
            "type": "Feature",
            "geometry": {
                "type": "Point",
                "coordinates": [
                    19.73971,
                    49.54796
                ]
            },
            "properties": {
                "isced:level": "1;2",
                "ref:rspo": 70301,
                "official_name": "Szko\u0142a Podstawowa Nr 1 im. \u015aw. Jadwigi Kr\u00f3lowej w Podwilku",
                "name": "Szko\u0142a Podstawowa Nr 1",
                "addr:postcode": "34-722",
                "addr:place": "Podwilk",
                "addr:housenumber": "287",
                "addr:teryt:simc": 429602,
                "phone": "+48 182852937",
                "email": "sp1podwilk@interia.pl",
                "website": "http:\/\/sp1podwilk.edupage.org",
                "ref:regon": "490548652",
                "ref:vatin": "PL7351037073",
                "operator": "Gmina Jab\u0142onka",
                "operator:type": "government",
                "amenity": "school"
            }
        },
        {
            "id": 70303,
            "type": "Feature",
            "geometry": {
                "type": "Point",
                "coordinates": [
                    19.65671,
                    49.55043
                ]
            },
            "properties": {
                "isced:level": "1;2",
                "ref:rspo": 70303,
                "official_name": "Szko\u0142a Podstawowa Nr 1 im. Juliusza S\u0142owackiego w Zubrzycy G\u00f3rnej",
                "name": "Szko\u0142a Podstawowa Nr 1",
                "addr:postcode": "34-484",
                "addr:place": "Zubrzyca G\u00f3rna",
                "addr:housenumber": "43",
                "addr:teryt:simc": 429950,
                "phone": "+48 182852713",
                "email": "sp1.zubrzyca@wp.pl",
                "website": "http:\/\/sp1zg.edu.pl",
                "ref:regon": "490548847",
                "ref:vatin": "PL7351037038",
                "operator": "Gmina Jab\u0142onka",
                "operator:type": "government",
                "amenity": "school"
            }
        },
        {
            "id": 106760,
            "type": "Feature",
            "geometry": {
                "type": "Point",
                "coordinates": [
                    19.64949,
                    49.56306
                ]
            },
            "properties": {
                "isced:level": "1;2",
                "ref:rspo": 106760,
                "official_name": "Szko\u0142a Podstawowa Nr 2 im. Marii Konopnickiej w Zubrzycy G\u00f3rnej",
                "name": "Szko\u0142a Podstawowa Nr 2",
                "addr:postcode": "34-484",
                "addr:place": "Zubrzyca G\u00f3rna",
                "addr:housenumber": "482",
                "addr:teryt:simc": 429950,
                "phone": "+48 182852716",
                "email": "gimzubrzyca@poczta.onet.pl",
                "website": "http:\/\/www.sp2zg.edu.pl",
                "ref:regon": "490548860",
                "ref:vatin": "PL7352788025",
                "operator": "Gmina Jab\u0142onka",
                "operator:type": "government",
                "amenity": "school"
            }
        },
        {
            "id": 110398,
            "type": "Feature",
            "geometry": {
                "type": "Point",
                "coordinates": [
                    19.64949,
                    49.56303
                ]
            },
            "properties": {
                "ref:rspo": 110398,
                "official_name": "Punkt Przedszkolny w Zubrzycy G\u00f3rnej",
                "name": "Punkt Przedszkolny w Zubrzycy G\u00f3rnej",
                "addr:postcode": "34-484",
                "addr:place": "Zubrzyca G\u00f3rna",
                "addr:housenumber": "482",
                "addr:teryt:simc": 429950,
                "phone": "+48 182852716",
                "email": "gimzubrzyca@poczta.onet.pl",
                "ref:regon": "122792050",
                "operator": "Gmina Jab\u0142onka",
                "operator:type": "government",
                "amenity": "kindergarten"
            }
        },
        {
            "id": 70305,
            "type": "Feature",
            "geometry": {
                "type": "Point",
                "coordinates": [
                    19.65216,
                    49.57645
                ]
            },
            "properties": {
                "isced:level": "1;2",
                "ref:rspo": 70305,
                "official_name": "Szko\u0142a Podstawowa Nr 3 im. Kazimierza Wielkiego w Zubrzycy G\u00f3rnej",
                "name": "Szko\u0142a Podstawowa Nr 3",
                "addr:postcode": "34-484",
                "addr:place": "Zubrzyca G\u00f3rna",
                "addr:housenumber": "270",
                "addr:teryt:simc": 429950,
                "phone": "+48 182852720",
                "email": "sp3zubrzyca@wp.pl",
                "website": "http:\/\/www.zimnadziura.wex.pl",
                "ref:regon": "490548876",
                "ref:vatin": "PL7351026098",
                "operator": "Gmina Jab\u0142onka",
                "operator:type": "government",
                "amenity": "school"
            }
        }
    ]
}