{
    "type": "FeatureCollection",
    "features": [
        {
            "id": 40047,
            "type": "Feature",
            "geometry": {
                "type": "Point",
                "coordinates": [
                    20.019760131836,
                    49.480281829834
                ]
            },
            "properties": {
                "isced:level": "1;2",
                "ref:rspo": 40047,
                "official_name": "Szko\u0142a Podstawowa im. Ks. Jana Twardowskiego w Tylmanowej",
                "name": "Szko\u0142a Podstawowa",
                "addr:postcode": "34-451",
                "addr:city": "Tylmanowa",
                "addr:street": "Osiedle Mastalerze",
                "addr:housenumber": "32B",
                "addr:city:simc": 458325,
                "addr:street:sym_ul": 34699,
                "phone": "+48 182625006",
                "email": "sp.twardowski@wp.pl",
                "website": "http:\/\/www.sptylmanowa.ochotnica.pl",
                "ref:regon": "490515612",
                "ref:vatin": "PL7351029518",
                "operator": "Gmina Ochotnica Dolna",
                "operator:type": "government",
                "amenity": "school"
            }
        },
        {
            "id": 53529,
            "type": "Feature",
            "geometry": {
                "type": "Point",
                "coordinates": [
                    20.40313,
                    49.49818
                ]
            },
            "properties": {
                "ref:rspo": 53529,
                "official_name": "Zesp\u00f3\u0142 Szkolno-Przedszkolny im. Mjra Henryka Sucharskiego w Tylmanowej",
                "name": "Zesp\u00f3\u0142 Szkolno-Przedszkolny",
                "addr:postcode": "34-451",
                "addr:city": "Tylmanowa",
                "addr:street": "Osiedle Kozielce",
                "addr:housenumber": "296",
                "addr:city:simc": 458325,
                "addr:street:sym_ul": 34686,
                "phone": "+48 182625086",
                "email": "sptylmanowa@wp.pl",
                "website": "http:\/\/www.zspsucharski.pl",
                "ref:regon": "121189021",
                "ref:vatin": "PL7351029487",
                "operator": "Gmina Ochotnica Dolna",
                "operator:type": "government",
                "landuse": "education",
                "fixme": "amenity=school, amenity=college albo landuse=education w zale\u017cno\u015bci od tego, jakie plac\u00f3wki wchodz\u0105 w sk\u0142ad zespo\u0142u. Sprawd\u017a, kiedy stosowa\u0107 amenity=* a kiedy landuse=education.",
                "note": "Children RSPO: 63255;63256"
            }
        },
        {
            "id": 63255,
            "type": "Feature",
            "geometry": {
                "type": "Point",
                "coordinates": [
                    20.40313,
                    49.498149999999995
                ]
            },
            "properties": {
                "isced:level": "1;2",
                "ref:rspo": 63255,
                "official_name": "Szko\u0142a Podstawowa im. Mjra Henryka Sucharskiego w Tylmanowej",
                "name": "Szko\u0142a Podstawowa",
                "addr:postcode": "34-451",
                "addr:city": "Tylmanowa",
                "addr:street": "Osiedle Kozielce",
                "addr:housenumber": "296",
                "addr:city:simc": 458325,
                "addr:street:sym_ul": 34686,
                "phone": "+48 182625086",
                "email": "sptylmanowa@wp.pl",
                "website": "http:\/\/www.zspsucharski.pl",
                "ref:regon": "490515546",
                "ref:vatin": "PL7351029487",
                "operator": "Gmina Ochotnica Dolna",
                "operator:type": "government",
                "amenity": "school",
                "note": "Parent RSPO: 53529"
            }
        },
        {
            "id": 63256,
            "type": "Feature",
            "geometry": {
                "type": "Point",
                "coordinates": [
                    20.40313,
                    49.49812
                ]
            },
            "properties": {
                "ref:rspo": 63256,
                "official_name": "Przedszkole Publiczne w Tylmanowej",
                "name": "Przedszkole Publiczne w Tylmanowej",
                "addr:postcode": "34-451",
                "addr:city": "Tylmanowa",
                "addr:street": "Osiedle Kozielce",
                "addr:housenumber": "296",
                "addr:city:simc": 458325,
                "addr:street:sym_ul": 34686,
                "phone": "+48 182625086",
                "email": "sptylmanowa@wp.pl",
                "ref:regon": "122696850",
                "ref:vatin": "PL7351029487",
                "operator": "Gmina Ochotnica Dolna",
                "operator:type": "government",
                "amenity": "kindergarten",
                "note": "Parent RSPO: 53529"
            }
        },
        {
            "id": 40166,
            "type": "Feature",
            "geometry": {
                "type": "Point",
                "coordinates": [
                    20.20693,
                    49.50452
                ]
            },
            "properties": {
                "ref:rspo": 40166,
                "official_name": "Szkolne Schronisko M\u0142odzie\u017cowe \"Ustrzyk\" w Ochotnicy G\u00f3rnej",
                "name": "Szkolne Schronisko M\u0142odzie\u017cowe \"Ustrzyk\" w Ochotnicy G\u00f3rnej",
                "addr:postcode": "34-453",
                "addr:city": "Ochotnica G\u00f3rna",
                "addr:street": "Osiedle Ustrzyk",
                "addr:housenumber": "388",
                "addr:city:simc": 457900,
                "addr:street:sym_ul": 34620,
                "phone": "+48 182624187",
                "email": "spjamne@poczta.onet.pl",
                "website": "http:\/\/www.ssm.ochotnica.pl",
                "ref:regon": "121106549",
                "ref:vatin": "PL7352804333",
                "operator": "Gmina Ochotnica Dolna",
                "operator:type": "government",
                "tourism": "hostel"
            }
        },
        {
            "id": 126704,
            "type": "Feature",
            "geometry": {
                "type": "Point",
                "coordinates": [
                    20.40192,
                    49.50673
                ]
            },
            "properties": {
                "ref:rspo": 126704,
                "official_name": "Akademia Przedszkolaka Niepubliczne Przedszkole w Tylmanowej",
                "name": "Akademia Przedszkolaka Niepubliczne Przedszkole w Tylmanowej",
                "addr:postcode": "34-451",
                "addr:city": "Tylmanowa",
                "addr:street": "Osiedle Zazi\u0105b\u0142y",
                "addr:housenumber": "71B",
                "addr:city:simc": 458325,
                "addr:street:sym_ul": 34722,
                "phone": "+48 601490490",
                "email": "kontakt@przedszkolewtylmanowej.pl",
                "ref:regon": "360631612",
                "operator": "Janusz Ko\u0142ojdziejczyk",
                "operator:type": "private",
                "amenity": "kindergarten"
            }
        },
        {
            "id": 267140,
            "type": "Feature",
            "geometry": {
                "type": "Point",
                "coordinates": [
                    20.24363,
                    49.51009
                ]
            },
            "properties": {
                "ref:rspo": 267140,
                "official_name": "Niepubliczne Przedszkole \"Cypisek\"",
                "name": "Niepubliczne Przedszkole \"Cypisek\"",
                "addr:postcode": "34-453",
                "addr:city": "Ochotnica G\u00f3rna",
                "addr:street": "Osiedle Iwanki",
                "addr:housenumber": "229",
                "addr:city:simc": 457900,
                "addr:street:sym_ul": 34611,
                "phone": "+48 502864270",
                "email": "monikatarchala@wp.pl",
                "ref:regon": "369953180",
                "operator": "Monika Tarcha\u0142a",
                "operator:type": "private",
                "amenity": "kindergarten"
            }
        },
        {
            "id": 40046,
            "type": "Feature",
            "geometry": {
                "type": "Point",
                "coordinates": [
                    20.24822,
                    49.51255
                ]
            },
            "properties": {
                "isced:level": "1;2",
                "ref:rspo": 40046,
                "official_name": "Szko\u0142a Podstawowa im. Marii Konopnickiej w Ochotnicy G\u00f3rnej",
                "name": "Szko\u0142a Podstawowa",
                "addr:postcode": "34-453",
                "addr:city": "Ochotnica G\u00f3rna",
                "addr:street": "Osiedle Zawady",
                "addr:housenumber": "207",
                "addr:city:simc": 457900,
                "addr:street:sym_ul": 34629,
                "phone": "+48 182624185",
                "email": "spjamne@poczta.onet.pl",
                "website": "http:\/\/www.spjamne.iap.pl",
                "ref:regon": "490515606",
                "ref:vatin": "PL7351029530",
                "operator": "Gmina Ochotnica Dolna",
                "operator:type": "government",
                "amenity": "school"
            }
        },
        {
            "id": 39743,
            "type": "Feature",
            "geometry": {
                "type": "Point",
                "coordinates": [
                    20.28788,
                    49.51888
                ]
            },
            "properties": {
                "isced:level": "1;2",
                "ref:rspo": 39743,
                "official_name": "Szko\u0142a Podstawowa im. Ks. Prof. J. Tischnera w Ochotnicy Dolnej",
                "name": "Szko\u0142a Podstawowa",
                "addr:postcode": "34-452",
                "addr:city": "Ochotnica Dolna",
                "addr:street": "Osiedle Skrodne",
                "addr:housenumber": "240",
                "addr:city:simc": 457580,
                "addr:street:sym_ul": 34659,
                "phone": "+48 182624678",
                "email": "skrodne@poczta.onet.pl",
                "website": "http:\/\/www.skrodne.ochotnica.pl",
                "ref:regon": "490515517",
                "ref:vatin": "PL7351029553",
                "operator": "Gmina Ochotnica Dolna",
                "operator:type": "government",
                "amenity": "school"
            }
        },
        {
            "id": 115662,
            "type": "Feature",
            "geometry": {
                "type": "Point",
                "coordinates": [
                    20.37415,
                    49.52568
                ]
            },
            "properties": {
                "ref:rspo": 115662,
                "official_name": "Szko\u0142a Specjalna Przysposabiaj\u0105ca Do Pracy w Ochotnicy Dolnej",
                "name": "Szko\u0142a Specjalna Przysposabiaj\u0105ca Do Pracy w Ochotnicy Dolnej",
                "addr:postcode": "34-452",
                "addr:city": "Ochotnica Dolna",
                "addr:street": "Osiedle Brysi\u00f3wka",
                "addr:housenumber": "26",
                "addr:city:simc": 457580,
                "addr:street:sym_ul": 34634,
                "phone": "+48 182624624",
                "email": "orew_kro@wp.pl",
                "website": "http:\/\/www.psouu-szczawnica.pl",
                "ref:regon": "122900686",
                "operator": "Polskie Stowarzyszenie Na Rzecz Os\u00f3b Z Niepe\u0142nosprawno\u015bci\u0105 Intelektualn\u0105 - Ko\u0142o W Szczawnicy",
                "operator:type": "ngo",
                "amenity": "school"
            }
        },
        {
            "id": 106477,
            "type": "Feature",
            "geometry": {
                "type": "Point",
                "coordinates": [
                    20.36604,
                    49.52654
                ]
            },
            "properties": {
                "ref:rspo": 106477,
                "official_name": "Niepubliczne Przedszkole \"Czas Dzieci\u0119cych Marze\u0144\"",
                "name": "Niepubliczne Przedszkole \"Czas Dzieci\u0119cych Marze\u0144\"",
                "addr:postcode": "34-452",
                "addr:city": "Ochotnica Dolna",
                "addr:street": "Osiedle Janczury",
                "addr:housenumber": "31",
                "addr:city:simc": 457580,
                "addr:street:sym_ul": 34640,
                "phone": "+48 693616661",
                "email": "cezary@e-cezar.pl",
                "ref:regon": "122754368",
                "operator": "Cezary Schiff",
                "operator:type": "private",
                "amenity": "kindergarten"
            }
        },
        {
            "id": 268407,
            "type": "Feature",
            "geometry": {
                "type": "Point",
                "coordinates": [
                    20.36604,
                    49.526509999999995
                ]
            },
            "properties": {
                "ref:rspo": 268407,
                "official_name": "Przedszkole Bajkolandia 3",
                "name": "Przedszkole Bajkolandia 3",
                "addr:postcode": "34-452",
                "addr:city": "Ochotnica Dolna",
                "addr:street": "Osiedle Janczury",
                "addr:housenumber": "31",
                "addr:city:simc": 457580,
                "addr:street:sym_ul": 34640,
                "phone": "+48 509933455",
                "email": "przedszkole31@interia.eu",
                "ref:regon": "381146398",
                "operator": "Leszek S\u0119pek",
                "operator:type": "private",
                "amenity": "kindergarten"
            }
        },
        {
            "id": 39622,
            "type": "Feature",
            "geometry": {
                "type": "Point",
                "coordinates": [
                    20.33727,
                    49.5266
                ]
            },
            "properties": {
                "isced:level": "1;2",
                "ref:rspo": 39622,
                "official_name": "Szko\u0142a Podstawowa im. Jana Paw\u0142a II w Ochotnicy Dolnej",
                "name": "Szko\u0142a Podstawowa",
                "addr:postcode": "34-452",
                "addr:city": "Ochotnica Dolna",
                "addr:street": "Osiedle Centrum",
                "addr:housenumber": "105",
                "addr:city:simc": 457580,
                "addr:street:sym_ul": 2617,
                "phone": "+48 182624696",
                "email": "spcentrum@op.pl",
                "website": "http:\/\/www.spochotnica-centrum.edupage.org",
                "ref:regon": "490515530",
                "ref:vatin": "PL7351029501",
                "operator": "Gmina Ochotnica Dolna",
                "operator:type": "government",
                "amenity": "school"
            }
        },
        {
            "id": 268419,
            "type": "Feature",
            "geometry": {
                "type": "Point",
                "coordinates": [
                    20.344579696655,
                    49.526889801025
                ]
            },
            "properties": {
                "ref:rspo": 268419,
                "official_name": "Przedszkole Mali Odkrywcy",
                "name": "Przedszkole Mali Odkrywcy",
                "addr:postcode": "34-452",
                "addr:city": "Ochotnica Dolna",
                "addr:street": "Osiedle Kamieniec",
                "addr:housenumber": "4",
                "addr:city:simc": 457580,
                "addr:street:sym_ul": 28475,
                "phone": "+48 184781220",
                "email": "bochlebek@gmail.com",
                "ref:regon": "381153398",
                "operator": "Bo\u017cena Chlebek",
                "operator:type": "private",
                "amenity": "kindergarten"
            }
        },
        {
            "id": 48973,
            "type": "Feature",
            "geometry": {
                "type": "Point",
                "coordinates": [
                    20.3111936,
                    49.5518556
                ]
            },
            "properties": {
                "isced:level": "1;2",
                "ref:rspo": 48973,
                "official_name": "Niepubliczna Szko\u0142a Podstawowa im. Bohater\u00f3w Krwawej Wigilii w Ochotnicy Dolnej",
                "name": "Niepubliczna Szko\u0142a Podstawowa",
                "addr:postcode": "34-452",
                "addr:city": "Ochotnica Dolna",
                "addr:street": "Osiedle M\u0142ynne",
                "addr:housenumber": "85",
                "addr:city:simc": 457580,
                "addr:street:sym_ul": 34649,
                "phone": "+48 182624679",
                "email": "spmlynne@hotmail.com",
                "website": "http:\/\/www.spmlynne.iaw.pl",
                "ref:regon": "122697096",
                "ref:vatin": "PL7352726231",
                "operator": "Stowarzyszenie Inicjatyw Edukacyjnych I Kulturalnych W Ochotnicy Dolnej - M\u0142ynne",
                "operator:type": "ngo",
                "amenity": "school"
            }
        },
        {
            "id": 48974,
            "type": "Feature",
            "geometry": {
                "type": "Point",
                "coordinates": [
                    20.3111936,
                    49.5518256
                ]
            },
            "properties": {
                "ref:rspo": 48974,
                "official_name": "Niepubliczne Przedszkole Integracyjne \"Bajkowe S\u0142oneczko\" w Ochotnicy Dolnej -M\u0142ynne",
                "name": "Niepubliczne Przedszkole Integracyjne \"Bajkowe S\u0142oneczko\" w Ochotnicy Dolnej -M\u0142ynne",
                "addr:postcode": "34-452",
                "addr:city": "Ochotnica Dolna",
                "addr:street": "Osiedle M\u0142ynne",
                "addr:housenumber": "85",
                "addr:city:simc": 457580,
                "addr:street:sym_ul": 34649,
                "phone": "+48 182624679",
                "email": "spmlynne@neostrada.pl",
                "ref:regon": "122694560",
                "ref:vatin": "PL7352726231",
                "operator": "Stowarzyszenie Inicjatyw Edukacyjnych I Kulturalnych W Ochotnicy Dolnej - M\u0142ynne",
                "operator:type": "ngo",
                "amenity": "kindergarten"
            }
        }
    ]
}