{"type":"FeatureCollection","features":[{"id":85623,"type":"Feature","geometry":{"type":"Point","coordinates":[14.502960205078,35.87553024292]},"properties":{"isced:level":"1;2","ref:rspo":85623,"official_name":"Szko\u0142a Podstawowa w Borze","name":"Szko\u0142a Podstawowa w Borze","addr:country":"PL","addr:postcode":"34-424","addr:city":"B\u00f3r","addr:street":"ul. Jana Paw\u0142a II","addr:housenumber":"44","addr:teryt:simc":7123,"addr:teryt:sym_ul":466371,"contact:phone":"+48 182754443","contact:email":"szkolabor@poczta.onet.pl","contact:website":"http:\/\/www.szkolabor.org","ref:regon":"490636592","ref:vatin":"PL7352328039","operator":"Gmina Szaflary","operator:type":"government","amenity":"school"}},{"id":121749,"type":"Feature","geometry":{"type":"Point","coordinates":[19.9805,49.39076]},"properties":{"isced:level":"1;2","ref:rspo":121749,"official_name":"Szko\u0142a Podstawowa im. \u015aw. Wojciecha w Ba\u0144skiej Wy\u017cnej","name":"Szko\u0142a Podstawowa","addr:country":"PL","addr:postcode":"34-424","addr:city":"Ba\u0144ska Wy\u017cna","addr:street":"ul. Szlak Papieski","addr:housenumber":"64","addr:teryt:simc":36372,"addr:teryt:sym_ul":466359,"contact:phone":"+48 182754898","contact:email":"zspigbanskawyzna@wp.pl","contact:website":"http:\/\/www.szkolabw.szkolnastrona.pl","ref:regon":"490675304","ref:vatin":"PL7352324024","operator":"Gmina Szaflary","operator:type":"government","amenity":"school"}},{"id":87325,"type":"Feature","geometry":{"type":"Point","coordinates":[19.94983,49.39964]},"properties":{"isced:level":"1;2","ref:rspo":87325,"official_name":"Szko\u0142a Podstawowa im. \u015aw. Jadwigi Kr\u00f3lowej w Skrzypnem","name":"Szko\u0142a Podstawowa","addr:country":"PL","addr:postcode":"34-424","addr:city":"Skrzypne","addr:street":"ul. \u015bw. Jadwigi Kr\u00f3lowej","addr:housenumber":"128","addr:teryt:simc":31858,"addr:teryt:sym_ul":466483,"contact:phone":"+48 182755876","contact:email":"szkolaskrzypne@wp.pl","contact:website":"http:\/\/www.skrzypne.szkolnastrona.pl","ref:regon":"492896682","ref:vatin":"PL7352324047","operator":"Gmina Szaflary","operator:type":"government","amenity":"school"}},{"id":121748,"type":"Feature","geometry":{"type":"Point","coordinates":[20.01022,49.40385]},"properties":{"isced:level":"1;2","ref:rspo":121748,"official_name":"Szko\u0142a Podstawowa im. \u015aw. Kazimierza Jagiello\u0144czyka w Ba\u0144skiej Ni\u017cnej","name":"Szko\u0142a Podstawowa","addr:country":"PL","addr:postcode":"34-424","addr:city":"Ba\u0144ska Ni\u017cna","addr:street":"ul. Papieska","addr:housenumber":"141","addr:teryt:simc":32594,"addr:teryt:sym_ul":466299,"contact:phone":"+48 182754821","contact:email":"szkolabn@pro.onet.pl","contact:website":"http:\/\/www.szkolabanskanizna2013.republika.pl","ref:regon":"492906943","ref:vatin":"PL7352324082","operator":"Gmina Szaflary","operator:type":"government","amenity":"school"}},{"id":65146,"type":"Feature","geometry":{"type":"Point","coordinates":[20.02272,49.41537]},"properties":{"ref:rspo":65146,"official_name":"Gminne Przedszkole w Szaflarach","name":"Gminne Przedszkole w Szaflarach","addr:country":"PL","addr:postcode":"34-424","addr:city":"Szaflary","addr:street":"ul. Augustyna Suskiego","addr:housenumber":"96","addr:teryt:simc":21604,"addr:teryt:sym_ul":466550,"contact:phone":"+48 182754777","contact:email":"przedszkole.szaflary@interia.pl","contact:website":"http:\/\/www.przedszkolewszaflarach.pl","ref:regon":"000971152","ref:vatin":"PL7352281898","operator":"Gmina Szaflary","operator:type":"government","amenity":"kindergarten"}},{"id":87270,"type":"Feature","geometry":{"type":"Point","coordinates":[19.96379,49.41885]},"properties":{"isced:level":"1;2","ref:rspo":87270,"official_name":"Szko\u0142a Podstawowa im. \u015aw. Stanis\u0142awa Kostki w Maruszynie G\u00f3rnej","name":"Szko\u0142a Podstawowa","addr:country":"PL","addr:postcode":"34-424","addr:city":"Maruszyna","addr:street":"ul. Jana Paw\u0142a II","addr:housenumber":"29","addr:teryt:simc":7123,"addr:teryt:sym_ul":466388,"contact:phone":"+48 182756227","contact:email":"magor20@poczta.onet.pl","contact:website":"http:\/\/www.maruszyna.pl","ref:regon":"492896995","ref:vatin":"PL7352324076","operator":"Gmina Szaflary","operator:type":"government","amenity":"school"}},{"id":85626,"type":"Feature","geometry":{"type":"Point","coordinates":[20.02809,49.42067]},"properties":{"isced:level":"1;2","ref:rspo":85626,"official_name":"Szko\u0142a Podstawowa im. Augustyna Suskiego w Szaflarach","name":"Szko\u0142a Podstawowa","addr:country":"PL","addr:postcode":"34-424","addr:city":"Szaflary","addr:street":"ul. Szkolna","addr:housenumber":"6","addr:teryt:simc":21970,"addr:teryt:sym_ul":466550,"contact:phone":"+48 182754726","contact:email":"suskia@poczta.onet.pl","contact:website":"http:\/\/www.szaflary.mtwnet.pl","ref:regon":"492907090","ref:vatin":"PL7352339149","operator":"Gmina Szaflary","operator:type":"government","amenity":"school"}},{"id":87207,"type":"Feature","geometry":{"type":"Point","coordinates":[19.98295,49.42108]},"properties":{"isced:level":"1;2","ref:rspo":87207,"official_name":"Szko\u0142a Podstawowa im. \u015aw. Jana Kantego w Maruszynie Dolnej","name":"Szko\u0142a Podstawowa","addr:country":"PL","addr:postcode":"34-424","addr:city":"Maruszyna","addr:street":"ul. Jana Paw\u0142a II","addr:housenumber":"83","addr:teryt:simc":7123,"addr:teryt:sym_ul":466388,"contact:phone":"+48 182754828","contact:email":"szkolamd@op.pl","contact:website":"http:\/\/www.szkola.szaflary.pl\/md","ref:regon":"492897641","ref:vatin":"PL7352324099","operator":"Gmina Szaflary","operator:type":"government","amenity":"school"}},{"id":62573,"type":"Feature","geometry":{"type":"Point","coordinates":[20.02847,49.4304]},"properties":{"ref:rspo":62573,"official_name":"Przedszkole im. Anio\u0142\u00f3w Str\u00f3\u017c\u00f3w Zgromadzenia S\u0142u\u017cebnic Matki Dobrego Pasterza","name":"Przedszkole","addr:country":"PL","addr:postcode":"34-424","addr:city":"Szaflary","addr:street":"ul. Polna","addr:housenumber":"7","addr:teryt:simc":17011,"addr:teryt:sym_ul":466550,"contact:phone":"+48 182754943","contact:email":"przedszkole.anielskie@gmail.com","ref:regon":"122696895","ref:vatin":"PL7352455306","operator":"Zgromadzenie S\u0142u\u017cebnic Matki Dobrego Pasterza, Dom Generalny","operator:type":"religious","amenity":"kindergarten"}},{"id":120911,"type":"Feature","geometry":{"type":"Point","coordinates":[20.00994,49.43939]},"properties":{"ref:rspo":120911,"official_name":"Przedszkole Z Widokiem","name":"Przedszkole Z Widokiem","addr:country":"PL","addr:postcode":"34-424","addr:city":"Zaskale","addr:street":"ul. Kardyna\u0142a Karola Wojty\u0142y","addr:housenumber":"19","addr:teryt:simc":40437,"addr:teryt:sym_ul":466566,"contact:phone":"+48 182755387","contact:email":"przedszkolezwidokiem.zaskale@gmail.com","ref:regon":"122991832","ref:vatin":"PL7351378696","operator":"El\u017cbieta Poniedzia\u0142ek","operator:type":"private","amenity":"kindergarten"}},{"id":85628,"type":"Feature","geometry":{"type":"Point","coordinates":[20.00049,49.44423]},"properties":{"isced:level":"1;2","ref:rspo":85628,"official_name":"Szko\u0142a Podstawowa im. Kardyna\u0142a Karola Wojty\u0142y w Zaskalu","name":"Szko\u0142a Podstawowa","addr:country":"PL","addr:postcode":"34-424","addr:city":"Zaskale","addr:street":"ul. Kardyna\u0142a Karola Wojty\u0142y","addr:housenumber":"51","addr:teryt:simc":40437,"addr:teryt:sym_ul":466566,"contact:phone":"+48 182755505","contact:email":"zaskale@szkola.szaflary.pl","contact:website":"http:\/\/www.zspigzaskale.szkolnastrona.pl","ref:regon":"492896593","ref:vatin":"PL7352324107","operator":"Gmina Szaflary","operator:type":"government","amenity":"school"}}]}