{
    "type": "FeatureCollection",
    "features": [
        {
            "id": 6641,
            "type": "Feature",
            "geometry": {
                "type": "Point",
                "coordinates": [
                    20.25485,
                    51.9454
                ]
            },
            "properties": {
                "ref:rspo": 6641,
                "official_name": "Przedszkole Niepubliczne J\u0119zykowo - Artystyczne \"Le\u015bne Skrzaty\"",
                "name": "Przedszkole Niepubliczne J\u0119zykowo - Artystyczne \"Le\u015bne Skrzaty\"",
                "addr:postcode": "96-330",
                "addr:place": "Kamion",
                "addr:housenumber": "85",
                "addr:city:simc": 734802,
                "phone": "+48 468310615",
                "ref:regon": "146273816",
                "operator": "Nadia Meguedad",
                "operator:type": "private",
                "amenity": "kindergarten"
            }
        },
        {
            "id": 17660,
            "type": "Feature",
            "geometry": {
                "type": "Point",
                "coordinates": [
                    20.41653,
                    51.95453
                ]
            },
            "properties": {
                "ref:rspo": 17660,
                "official_name": "Punkt Przedszkolny w Korabiewicach",
                "name": "Punkt Przedszkolny w Korabiewicach",
                "addr:postcode": "96-330",
                "addr:place": "Korabiewice",
                "addr:housenumber": "50A",
                "addr:city:simc": 734825,
                "phone": "+48 468318162",
                "email": "sp.puszcza_mar@op.pl",
                "website": "http:\/\/www.zsppm.pl",
                "ref:regon": "146315957",
                "operator": "Gmina Puszcza Maria\u0144ska",
                "operator:type": "government",
                "amenity": "kindergarten",
                "note": "Parent RSPO: 12923"
            }
        },
        {
            "id": 21966,
            "type": "Feature",
            "geometry": {
                "type": "Point",
                "coordinates": [
                    20.41653,
                    51.954499999999996
                ]
            },
            "properties": {
                "isced:level": "1;2",
                "ref:rspo": 21966,
                "official_name": "Filia Szko\u0142y Podstawowej im. Kr\u00f3la Jana III Sobieskiego w Puszczy Maria\u0144skiej w Korabiewicach",
                "name": "Filia Szko\u0142y Podstawowej",
                "addr:postcode": "96-330",
                "addr:place": "Korabiewice",
                "addr:housenumber": "50A",
                "addr:city:simc": 734825,
                "phone": "+48 468318162",
                "email": "sp.puszcza_mar@op.pl",
                "website": "http:\/\/www.zsppm.pl",
                "ref:regon": "271650000",
                "operator": "Gmina Puszcza Maria\u0144ska",
                "operator:type": "government",
                "amenity": "school",
                "note": "Parent RSPO: 17718"
            }
        },
        {
            "id": 7030,
            "type": "Feature",
            "geometry": {
                "type": "Point",
                "coordinates": [
                    20.3137,
                    51.96578
                ]
            },
            "properties": {
                "isced:level": "1;2",
                "ref:rspo": 7030,
                "official_name": "Szko\u0142a Podstawowa w Micha\u0142owie",
                "name": "Szko\u0142a Podstawowa w Micha\u0142owie",
                "addr:postcode": "96-330",
                "addr:place": "Micha\u0142\u00f3w",
                "addr:housenumber": "39",
                "addr:city:simc": 734877,
                "phone": "+48 468318112",
                "email": "sp.michalow@wp.pl",
                "website": "http:\/\/www.sp_michalow.republika.pl",
                "ref:regon": "001115828",
                "ref:vatin": "PL8381648770",
                "operator": "Gmina Puszcza Maria\u0144ska",
                "operator:type": "government",
                "amenity": "school"
            }
        },
        {
            "id": 63494,
            "type": "Feature",
            "geometry": {
                "type": "Point",
                "coordinates": [
                    20.35907,
                    51.97532
                ]
            },
            "properties": {
                "ref:rspo": 63494,
                "official_name": "Centrum Przedsi\u0119biorczo\u015bci I Agrobiznesu",
                "name": "Centrum Przedsi\u0119biorczo\u015bci I Agrobiznesu",
                "addr:postcode": "96-330",
                "addr:city": "Puszcza Maria\u0144ska",
                "addr:street": "Kr\u00f3la Jana Sobieskiego",
                "addr:housenumber": "1",
                "addr:city:simc": 734966,
                "addr:street:sym_ul": 20432,
                "phone": "+48 468318109",
                "email": "centrum@inicjatywa.info.pl",
                "website": "http:\/\/www.inicjatywa.info.pl",
                "ref:regon": "146393584",
                "ref:vatin": "PL8361455217",
                "operator": "Dane Do Uzupe\u0142nienia",
                "operator:type": "private"
            }
        },
        {
            "id": 17650,
            "type": "Feature",
            "geometry": {
                "type": "Point",
                "coordinates": [
                    20.35746,
                    51.97577
                ]
            },
            "properties": {
                "ref:rspo": 17650,
                "official_name": "Przedszkole Samorz\u0105dowe w Puszczy Maria\u0144skiej",
                "name": "Przedszkole Samorz\u0105dowe w Puszczy Maria\u0144skiej",
                "addr:postcode": "96-330",
                "addr:city": "Puszcza Maria\u0144ska",
                "addr:street": "Kr\u00f3la Jana Sobieskiego",
                "addr:housenumber": "42",
                "addr:city:simc": 734966,
                "addr:street:sym_ul": 20432,
                "phone": "+48 468318359",
                "email": "sp.puszcza_mar@op.pl",
                "website": "http:\/\/www.zsppm.pl",
                "ref:regon": "750021085",
                "operator": "Gmina Puszcza Maria\u0144ska",
                "operator:type": "government",
                "amenity": "kindergarten",
                "note": "Parent RSPO: 12923"
            }
        },
        {
            "id": 61929,
            "type": "Feature",
            "geometry": {
                "type": "Point",
                "coordinates": [
                    20.35888,
                    51.97637
                ]
            },
            "properties": {
                "isced:level": "3",
                "ref:rspo": 61929,
                "official_name": "Liceum Og\u00f3lnokszta\u0142c\u0105ce im. Czes\u0142awa Ta\u0144skiego w Puszczy Maria\u0144skiej",
                "name": "Liceum Og\u00f3lnokszta\u0142c\u0105ce",
                "addr:postcode": "96-330",
                "addr:city": "Puszcza Maria\u0144ska",
                "addr:street": "Kr\u00f3la Jana Sobieskiego",
                "addr:housenumber": "61",
                "addr:city:simc": 734966,
                "addr:street:sym_ul": 20432,
                "phone": "+48 468318166",
                "email": "lopuszcza@wp.pl",
                "website": "http:\/\/www.lopuszcza.edu.pl",
                "ref:regon": "000233603",
                "ref:vatin": "PL8361037141",
                "operator": "Powiat \u017byrardowski",
                "operator:type": "government",
                "amenity": "school"
            }
        },
        {
            "id": 12923,
            "type": "Feature",
            "geometry": {
                "type": "Point",
                "coordinates": [
                    20.35034,
                    51.97943
                ]
            },
            "properties": {
                "ref:rspo": 12923,
                "official_name": "Zesp\u00f3\u0142 Szkolno - Przedszkolny",
                "name": "Zesp\u00f3\u0142 Szkolno - Przedszkolny",
                "addr:postcode": "96-330",
                "addr:city": "Puszcza Maria\u0144ska",
                "addr:street": "Konstytucji 3 Maja",
                "addr:housenumber": "3",
                "addr:city:simc": 734966,
                "addr:street:sym_ul": 9213,
                "phone": "+48 468318136",
                "email": "sp.puszcza_mar@op.pl",
                "website": "http:\/\/www.zsppm.pl",
                "ref:regon": "015225931",
                "ref:vatin": "PL8381715561",
                "operator": "Gmina Puszcza Maria\u0144ska",
                "operator:type": "government",
                "landuse": "education",
                "fixme": "amenity=school, amenity=college albo landuse=education w zale\u017cno\u015bci od tego, jakie plac\u00f3wki wchodz\u0105 w sk\u0142ad zespo\u0142u. Sprawd\u017a, kiedy stosowa\u0107 amenity=* a kiedy landuse=education.",
                "note": "Children RSPO: 17650;17660;17718"
            }
        },
        {
            "id": 17718,
            "type": "Feature",
            "geometry": {
                "type": "Point",
                "coordinates": [
                    20.35034,
                    51.9794
                ]
            },
            "properties": {
                "isced:level": "1;2",
                "ref:rspo": 17718,
                "official_name": "Szko\u0142a Podstawowa im. Kr\u00f3la Jana III Sobieskiego w Puszczy Maria\u0144skiej",
                "name": "Szko\u0142a Podstawowa",
                "addr:postcode": "96-330",
                "addr:city": "Puszcza Maria\u0144ska",
                "addr:street": "Konstytucji 3 Maja",
                "addr:housenumber": "3",
                "addr:city:simc": 734966,
                "addr:street:sym_ul": 9213,
                "phone": "+48 468318136",
                "email": "sp.puszcza_mar@op.pl",
                "website": "http:\/\/www.zsppm.pl",
                "ref:regon": "000271650",
                "operator": "Gmina Puszcza Maria\u0144ska",
                "operator:type": "government",
                "amenity": "school",
                "note": "Children RSPO: 21966Parent RSPO: 12923"
            }
        },
        {
            "id": 124924,
            "type": "Feature",
            "geometry": {
                "type": "Point",
                "coordinates": [
                    20.38905,
                    51.98751
                ]
            },
            "properties": {
                "isced:level": "1;2",
                "ref:rspo": 124924,
                "official_name": "Szko\u0142a Podstawowa w Zak\u0142adzie Poprawczym-M\u0142odzie\u017cowym O\u015brodku Adaptacji Sapo\u0142ecznej w Studzie\u0144cu",
                "name": "Szko\u0142a Podstawowa w Zak\u0142adzie Poprawczym-M\u0142odzie\u017cowym O\u015brodku Adaptacji Sapo\u0142ecznej w Studzie\u0144cu",
                "addr:postcode": "96-330",
                "addr:place": "Studzieniec",
                "addr:housenumber": "5",
                "addr:city:simc": 735061,
                "phone": "+48 468318170",
                "email": "sekretariat@studzieniec.zp.gov.pl",
                "website": "http:\/\/studzieniec.zp.gov.pl",
                "ref:regon": "147415477",
                "operator": "Ministerstwo Sprawiedliwo\u015bci",
                "operator:type": "government",
                "amenity": "school",
                "note": "Parent RSPO: 105097"
            }
        },
        {
            "id": 124926,
            "type": "Feature",
            "geometry": {
                "type": "Point",
                "coordinates": [
                    20.38905,
                    51.98748
                ]
            },
            "properties": {
                "isced:level": "3",
                "ref:rspo": 124926,
                "official_name": "Bran\u017cowa Szko\u0142a I Stopnia w Zak\u0142adzie Poprawczym-M\u0142odzie\u017cowym O\u015brodku Adaptacji Spo\u0142ecznej w Studzie\u0144cu",
                "name": "Bran\u017cowa Szko\u0142a I Stopnia w Zak\u0142adzie Poprawczym-M\u0142odzie\u017cowym O\u015brodku Adaptacji Spo\u0142ecznej w Studzie\u0144cu",
                "addr:postcode": "96-330",
                "addr:place": "Studzieniec",
                "addr:housenumber": "5",
                "addr:city:simc": 735061,
                "phone": "+48 468318170",
                "email": "sekretariat@studzieniec.zp.gov.pl",
                "website": "http:\/\/studzieniec.zp.gov.pl",
                "ref:regon": "147415514",
                "operator": "Ministerstwo Sprawiedliwo\u015bci",
                "operator:type": "government",
                "amenity": "school",
                "note": "Parent RSPO: 105097"
            }
        },
        {
            "id": 105097,
            "type": "Feature",
            "geometry": {
                "type": "Point",
                "coordinates": [
                    20.39425,
                    51.99471
                ]
            },
            "properties": {
                "ref:rspo": 105097,
                "official_name": "Zak\u0142ad Poprawczy - M\u0142odzie\u017cowy O\u015brodek Adaptacji Spo\u0142ecznej w Studzie\u0144cu",
                "name": "Zak\u0142ad Poprawczy - M\u0142odzie\u017cowy O\u015brodek Adaptacji Spo\u0142ecznej w Studzie\u0144cu",
                "addr:postcode": "96-330",
                "addr:place": "Studzieniec",
                "addr:housenumber": "brak",
                "addr:city:simc": 735061,
                "phone": "+48 468318170",
                "email": "sekretariat@studzieniec.zp.gov.pl",
                "website": "http:\/\/www.studzieniec.zp.gov.pl",
                "ref:regon": "000323393",
                "operator": "Ministerstwo Sprawiedliwo\u015bci",
                "operator:type": "government",
                "note": "Children RSPO: 124924;124926"
            }
        },
        {
            "id": 7040,
            "type": "Feature",
            "geometry": {
                "type": "Point",
                "coordinates": [
                    20.27109,
                    52.00128
                ]
            },
            "properties": {
                "ref:rspo": 7040,
                "official_name": "Zesp\u00f3\u0142 Szkolno - Przedszkolny im. Jana Kwieci\u0144skiego w Bartnikach",
                "name": "Zesp\u00f3\u0142 Szkolno - Przedszkolny",
                "addr:postcode": "96-332",
                "addr:city": "Bartniki",
                "addr:street": "Miodowa",
                "addr:housenumber": "47",
                "addr:city:simc": 734618,
                "addr:street:sym_ul": 12991,
                "phone": "+48 468310218",
                "email": "spbart@op.pl",
                "website": "http:\/\/szkolabartniki.pl",
                "ref:regon": "015225954",
                "ref:vatin": "PL8381715578",
                "operator": "Gmina Puszcza Maria\u0144ska",
                "operator:type": "government",
                "landuse": "education",
                "fixme": "amenity=school, amenity=college albo landuse=education w zale\u017cno\u015bci od tego, jakie plac\u00f3wki wchodz\u0105 w sk\u0142ad zespo\u0142u. Sprawd\u017a, kiedy stosowa\u0107 amenity=* a kiedy landuse=education.",
                "note": "Children RSPO: 7835;7914"
            }
        },
        {
            "id": 7835,
            "type": "Feature",
            "geometry": {
                "type": "Point",
                "coordinates": [
                    20.27109,
                    52.00125
                ]
            },
            "properties": {
                "isced:level": "1;2",
                "ref:rspo": 7835,
                "official_name": "Szko\u0142a Podstawowa w Bartnikach",
                "name": "Szko\u0142a Podstawowa w Bartnikach",
                "addr:postcode": "96-332",
                "addr:city": "Bartniki",
                "addr:street": "Miodowa",
                "addr:housenumber": "47",
                "addr:city:simc": 734618,
                "addr:street:sym_ul": 12991,
                "phone": "+48 468310218",
                "email": "spbart@op.pl",
                "website": "http:\/\/szkolabartniki.pl",
                "ref:regon": "001115834",
                "ref:vatin": "PL8381648818",
                "operator": "Gmina Puszcza Maria\u0144ska",
                "operator:type": "government",
                "amenity": "school",
                "note": "Parent RSPO: 7040"
            }
        },
        {
            "id": 7914,
            "type": "Feature",
            "geometry": {
                "type": "Point",
                "coordinates": [
                    20.27109,
                    52.00122
                ]
            },
            "properties": {
                "ref:rspo": 7914,
                "official_name": "Przedszkole Publiczne w Bartnikach",
                "name": "Przedszkole Publiczne w Bartnikach",
                "addr:postcode": "96-332",
                "addr:city": "Bartniki",
                "addr:street": "Miodowa",
                "addr:housenumber": "47",
                "addr:city:simc": 734618,
                "addr:street:sym_ul": 12991,
                "phone": "+48 468310412",
                "email": "spbart@op.pl",
                "website": "http:\/\/szkolabartniki.pl",
                "ref:regon": "141638673",
                "operator": "Gmina Puszcza Maria\u0144ska",
                "operator:type": "government",
                "amenity": "kindergarten",
                "note": "Parent RSPO: 7040"
            }
        },
        {
            "id": 5161,
            "type": "Feature",
            "geometry": {
                "type": "Point",
                "coordinates": [
                    20.3845,
                    52.01284
                ]
            },
            "properties": {
                "isced:level": "1;2",
                "ref:rspo": 5161,
                "official_name": "Szko\u0142a Podstawowa w Walerianach",
                "name": "Szko\u0142a Podstawowa w Walerianach",
                "addr:postcode": "96-330",
                "addr:place": "Waleriany",
                "addr:housenumber": "24",
                "addr:city:simc": 735078,
                "phone": "+48 468318111",
                "email": "spwaleriany@wp.pl",
                "ref:regon": "001115768",
                "ref:vatin": "PL8381648847",
                "operator": "Gmina Puszcza Maria\u0144ska",
                "operator:type": "government",
                "amenity": "school"
            }
        }
    ]
}