{
    "type": "FeatureCollection",
    "features": [
        {
            "id": 13456,
            "type": "Feature",
            "geometry": {
                "type": "Point",
                "coordinates": [
                    20.32578,
                    52.01717
                ]
            },
            "properties": {
                "isced:level": "1;2",
                "ref:rspo": 13456,
                "official_name": "Szko\u0142a Podstawowa im. \u015awi\u0119tego Jana Paw\u0142a II we Franciszkowie",
                "name": "Szko\u0142a Podstawowa",
                "addr:country": "PL",
                "addr:postcode": "96-315",
                "addr:city": "Franciszk\u00f3w",
                "addr:street": "D\u0119bowa",
                "addr:housenumber": "25",
                "addr:teryt:simc": 3811,
                "addr:teryt:sym_ul": 739290,
                "contact:phone": "+48 468553260",
                "contact:email": "szfranciszkow@o2.pl",
                "contact:website": "http:\/\/spfranciszkow.edupage.org",
                "ref:regon": "001123437",
                "ref:vatin": "PL8381851873",
                "operator": "Gmina Wiskitki",
                "operator:type": "government",
                "amenity": "school"
            }
        },
        {
            "id": 12914,
            "type": "Feature",
            "geometry": {
                "type": "Point",
                "coordinates": [
                    20.30274,
                    52.08125
                ]
            },
            "properties": {
                "isced:level": "1;2",
                "ref:rspo": 12914,
                "official_name": "Szko\u0142a Podstawowa im. Prof. Zbigniewa Religi w Miedniewicach",
                "name": "Szko\u0142a Podstawowa",
                "addr:country": "PL",
                "addr:postcode": "96-315",
                "addr:place": "Miedniewice",
                "addr:housenumber": "86",
                "addr:teryt:sym_ul": 739410,
                "contact:phone": "+48 468569324",
                "contact:email": "miedniewice@wp.pl",
                "contact:website": "http:\/\/spmiedniewice.edupage.org",
                "ref:regon": "001123450",
                "ref:vatin": "PL8381851146",
                "operator": "Gmina Wiskitki",
                "operator:type": "government",
                "amenity": "school"
            }
        },
        {
            "id": 59952,
            "type": "Feature",
            "geometry": {
                "type": "Point",
                "coordinates": [
                    20.38575,
                    52.08275
                ]
            },
            "properties": {
                "isced:level": "1;2",
                "ref:rspo": 59952,
                "official_name": "Szko\u0142a Podstawowa im. Marii Kownackiej w Wiskitkach",
                "name": "Szko\u0142a Podstawowa",
                "addr:country": "PL",
                "addr:postcode": "96-315",
                "addr:city": "Wiskitki",
                "addr:street": "Tadeusza Ko\u015bciuszki",
                "addr:housenumber": "25",
                "addr:teryt:simc": 9572,
                "addr:teryt:sym_ul": 739656,
                "contact:phone": "+48 468567414",
                "contact:email": "sekretariat@spwiskitki.pl",
                "contact:website": "http:\/\/spwiskitki.edupage.org",
                "ref:regon": "000272098",
                "ref:vatin": "PL8381869821",
                "operator": "Gmina Wiskitki",
                "operator:type": "government",
                "amenity": "school"
            }
        },
        {
            "id": 61878,
            "type": "Feature",
            "geometry": {
                "type": "Point",
                "coordinates": [
                    20.38575,
                    52.082719999999995
                ]
            },
            "properties": {
                "ref:rspo": 61878,
                "official_name": "Zesp\u00f3\u0142 Szk\u00f3\u0142 Nr 3 im. Marii Sk\u0142odowskiej-Curie w Wiskitkach",
                "name": "Zesp\u00f3\u0142 Szk\u00f3\u0142 Nr 3",
                "addr:country": "PL",
                "addr:postcode": "96-315",
                "addr:city": "Wiskitki",
                "addr:street": "Tadeusza Ko\u015bciuszki",
                "addr:housenumber": "25",
                "addr:teryt:simc": 9572,
                "addr:teryt:sym_ul": 739656,
                "contact:phone": "+48 468541003",
                "contact:email": "zs3@op.pl",
                "contact:website": "http:\/\/www.zs3wiskitki.pl",
                "ref:regon": "015241686",
                "ref:vatin": "PL8381717689",
                "operator": "Powiat \u017byrardowski",
                "operator:type": "government",
                "landuse": "education",
                "fixme": "amenity=school, amenity=college albo landuse=education w zale\u017cno\u015bci od tego, jakie plac\u00f3wki wchodz\u0105 w sk\u0142ad zespo\u0142u. Sprawd\u017a, kiedy stosowa\u0107 amenity=* a kiedy landuse=education.",
                "note": "Children RSPO: 88380;104993"
            }
        },
        {
            "id": 88380,
            "type": "Feature",
            "geometry": {
                "type": "Point",
                "coordinates": [
                    20.38575,
                    52.08269
                ]
            },
            "properties": {
                "isced:level": "3",
                "ref:rspo": 88380,
                "official_name": "Liceum Og\u00f3lnokszta\u0142c\u0105ce",
                "name": "Liceum Og\u00f3lnokszta\u0142c\u0105ce",
                "addr:country": "PL",
                "addr:postcode": "96-315",
                "addr:city": "Wiskitki",
                "addr:street": "Tadeusza Ko\u015bciuszki",
                "addr:housenumber": "25",
                "addr:teryt:simc": 9572,
                "addr:teryt:sym_ul": 739656,
                "contact:phone": "+48 468541003",
                "contact:email": "zs3@op.pl",
                "contact:website": "http:\/\/www.zs3wiskitki.pl",
                "ref:regon": "016227990",
                "operator": "Powiat \u017byrardowski",
                "operator:type": "government",
                "amenity": "school",
                "note": "Parent RSPO: 61878"
            }
        },
        {
            "id": 104993,
            "type": "Feature",
            "geometry": {
                "type": "Point",
                "coordinates": [
                    20.38575,
                    52.08266
                ]
            },
            "properties": {
                "isced:level": "3",
                "ref:rspo": 104993,
                "official_name": "Technikum im. Marii Sk\u0142odowskiej Curie w Wiskitkach",
                "name": "Technikum",
                "addr:country": "PL",
                "addr:postcode": "96-315",
                "addr:city": "Wiskitki",
                "addr:street": "Tadeusza Ko\u015bciuszki",
                "addr:housenumber": "25",
                "addr:teryt:simc": 9572,
                "addr:teryt:sym_ul": 739656,
                "contact:phone": "+48 468541003",
                "contact:email": "zs3@op.pl",
                "contact:website": "http:\/\/www.zs3wiskitki.pl",
                "ref:regon": "141628657",
                "operator": "Powiat \u017byrardowski",
                "operator:type": "government",
                "amenity": "school",
                "note": "Parent RSPO: 61878"
            }
        },
        {
            "id": 124879,
            "type": "Feature",
            "geometry": {
                "type": "Point",
                "coordinates": [
                    20.42654,
                    52.08729
                ]
            },
            "properties": {
                "ref:rspo": 124879,
                "official_name": "Przedszkole Niepubliczne \"U Cioci Poli\"",
                "name": "Przedszkole Niepubliczne \"U Cioci Poli\"",
                "addr:country": "PL",
                "addr:postcode": "96-315",
                "addr:place": "Nowe Koz\u0142owice",
                "addr:housenumber": "21",
                "addr:teryt:sym_ul": 739478,
                "contact:phone": "+48 692548128",
                "contact:email": "dolinakrecika@interia.eu",
                "ref:regon": "147408916",
                "operator": "Agnieszka Lewandowska",
                "operator:type": "private",
                "amenity": "kindergarten"
            }
        },
        {
            "id": 59953,
            "type": "Feature",
            "geometry": {
                "type": "Point",
                "coordinates": [
                    20.37326,
                    52.08785
                ]
            },
            "properties": {
                "ref:rspo": 59953,
                "official_name": "Przedszkole Publiczne w Wiskitkach",
                "name": "Przedszkole Publiczne w Wiskitkach",
                "addr:country": "PL",
                "addr:postcode": "96-315",
                "addr:city": "Wiskitki",
                "addr:street": "Sp\u00f3\u0142dzielcza",
                "addr:housenumber": "2",
                "addr:teryt:simc": 20696,
                "addr:teryt:sym_ul": 739656,
                "contact:phone": "+48 512078000",
                "contact:email": "przedszkole.wiskitki@gmail.com",
                "contact:website": "http:\/\/www.przedszkole-wiskitki.pl",
                "ref:regon": "141518526",
                "ref:vatin": "PL8381869838",
                "operator": "Gmina Wiskitki",
                "operator:type": "government",
                "amenity": "kindergarten"
            }
        },
        {
            "id": 13392,
            "type": "Feature",
            "geometry": {
                "type": "Point",
                "coordinates": [
                    20.33667,
                    52.11682
                ]
            },
            "properties": {
                "isced:level": "1;2",
                "ref:rspo": 13392,
                "official_name": "Szko\u0142a Podstawowa im. Aleksandra Kami\u0144skiego w Guzowie",
                "name": "Szko\u0142a Podstawowa",
                "addr:country": "PL",
                "addr:postcode": "96-317",
                "addr:city": "Guz\u00f3w",
                "addr:street": "Rodu \u0141ubie\u0144skich",
                "addr:housenumber": "2",
                "addr:teryt:simc": 33147,
                "addr:teryt:sym_ul": 739308,
                "contact:phone": "+48 468568420",
                "contact:email": "guzow@wp.pl",
                "contact:website": "http:\/\/spguzow.edupage.org",
                "ref:regon": "001123443",
                "ref:vatin": "PL8381851465",
                "operator": "Gmina Wiskitki",
                "operator:type": "government",
                "amenity": "school"
            }
        }
    ]
}