{
    "type": "FeatureCollection",
    "features": [
        {
            "id": 30937,
            "type": "Feature",
            "geometry": {
                "type": "Point",
                "coordinates": [
                    20.55777,
                    52.00414
                ]
            },
            "properties": {
                "ref:rspo": 30937,
                "official_name": "Gminne Przedszkole im. Jana Brzechwy w Radziejowicach",
                "name": "Gminne Przedszkole",
                "addr:postcode": "96-325",
                "addr:city": "Radziejowice",
                "addr:street": "Kubickiego",
                "addr:housenumber": "1",
                "addr:city:simc": 735434,
                "addr:street:sym_ul": 10297,
                "phone": "+48 468577176",
                "email": "przedszkole.radziejowice@interia.pl",
                "website": "http:\/\/przedszkole.radziejowice.pl",
                "ref:regon": "750021100",
                "ref:vatin": "PL8381695947",
                "operator": "Gmina Radziejowice",
                "operator:type": "government",
                "amenity": "kindergarten"
            }
        },
        {
            "id": 52527,
            "type": "Feature",
            "geometry": {
                "type": "Point",
                "coordinates": [
                    20.55499,
                    52.00446
                ]
            },
            "properties": {
                "isced:level": "1;2",
                "ref:rspo": 52527,
                "official_name": "Szko\u0142a Podstawowa im.w\u0142adys\u0142awa Rdzanowskiego w Radziejowicach",
                "name": "Szko\u0142a Podstawowa im.w\u0142adys\u0142awa Rdzanowskiego w Radziejowicach",
                "addr:postcode": "96-325",
                "addr:city": "Radziejowice",
                "addr:street": "G\u0142\u00f3wna",
                "addr:housenumber": "2",
                "addr:city:simc": 735434,
                "addr:street:sym_ul": 5635,
                "phone": "+48 468577403",
                "email": "sekretariat@spradziejowice.pl",
                "website": "http:\/\/spradziejowice.pl",
                "ref:regon": "000601834",
                "ref:vatin": "PL8381696007",
                "operator": "Gmina Radziejowice",
                "operator:type": "government",
                "amenity": "school"
            }
        },
        {
            "id": 84922,
            "type": "Feature",
            "geometry": {
                "type": "Point",
                "coordinates": [
                    20.52139,
                    52.01367
                ]
            },
            "properties": {
                "ref:rspo": 84922,
                "official_name": "Europejskie Przedszkole Niepubliczne Inna Bajka",
                "name": "Europejskie Przedszkole Niepubliczne Inna Bajka",
                "addr:postcode": "96-325",
                "addr:city": "Tartak Brz\u00f3zki",
                "addr:street": "Letniskowa",
                "addr:housenumber": "1",
                "addr:city:simc": 735523,
                "addr:street:sym_ul": 10972,
                "phone": "+48 468542594",
                "email": "przedszkole@innabajka.edu.pl",
                "website": "http:\/\/www.innabajka.edu.pl",
                "ref:regon": "146376025",
                "ref:vatin": "PL8381845393",
                "operator": "Agata Skoneczna",
                "operator:type": "private",
                "amenity": "kindergarten"
            }
        },
        {
            "id": 86935,
            "type": "Feature",
            "geometry": {
                "type": "Point",
                "coordinates": [
                    20.52139,
                    52.013639999999995
                ]
            },
            "properties": {
                "ref:rspo": 86935,
                "official_name": "Europejski Przedszkole Niepubliczne Inna Bajka S.c. Agata Skoneczna, Jolanta Skoneczna",
                "name": "Europejski Przedszkole Niepubliczne Inna Bajka S.c. Agata Skoneczna, Jolanta Skoneczna",
                "addr:postcode": "96-325",
                "addr:city": "Tartak Brz\u00f3zki",
                "addr:street": "Letniskowa",
                "addr:housenumber": "1",
                "addr:city:simc": 735523,
                "addr:street:sym_ul": 10972,
                "phone": "+48 468542594",
                "email": "przedszkole@innabajka.edu.pl",
                "website": "http:\/\/www.innabajka.edu.pl",
                "ref:regon": "146439553",
                "ref:vatin": "PL8381845393",
                "operator": "Agata Skoneczna",
                "operator:type": "private",
                "amenity": "kindergarten"
            }
        },
        {
            "id": 43810,
            "type": "Feature",
            "geometry": {
                "type": "Point",
                "coordinates": [
                    20.46516,
                    52.03063
                ]
            },
            "properties": {
                "isced:level": "1;2",
                "ref:rspo": 43810,
                "official_name": "Szko\u0142a Podstawowa im. Kornela Makuszy\u0144skiego w Korytowie A",
                "name": "Szko\u0142a Podstawowa",
                "addr:postcode": "96-300",
                "addr:city": "Koryt\u00f3w A",
                "addr:street": "Szkolna",
                "addr:housenumber": "3",
                "addr:city:simc": 1063043,
                "addr:street:sym_ul": 21970,
                "phone": "+48 468575170",
                "email": "zspkorytow@wp.pl",
                "website": "http:\/\/www.szkolakorytow.edupage.org",
                "ref:regon": "001115946",
                "ref:vatin": "PL8381695999",
                "operator": "Gmina Radziejowice",
                "operator:type": "government",
                "amenity": "school"
            }
        },
        {
            "id": 52528,
            "type": "Feature",
            "geometry": {
                "type": "Point",
                "coordinates": [
                    20.5903199,
                    52.0439099
                ]
            },
            "properties": {
                "isced:level": "1;2",
                "ref:rspo": 52528,
                "official_name": "Szko\u0142a Podstawowa im.j.che\u0142mo\u0144skiego w Kukl\u00f3wce Radziejowickiej",
                "name": "Szko\u0142a Podstawowa im.j.che\u0142mo\u0144skiego w Kukl\u00f3wce Radziejowickiej",
                "addr:postcode": "96-325",
                "addr:city": "Kukl\u00f3wka Radziejowicka",
                "addr:street": "Szkolna",
                "addr:housenumber": "30",
                "addr:city:simc": 735345,
                "addr:street:sym_ul": 21970,
                "phone": "+48 468577729",
                "email": "spkuklowka@radziejowice.pl",
                "website": "http:\/\/spkuklowka.radziejowice.pl",
                "ref:regon": "001117767",
                "ref:vatin": "PL8381695976",
                "operator": "Gmina Radziejowice",
                "operator:type": "government",
                "amenity": "school"
            }
        }
    ]
}