{
    "type": "FeatureCollection",
    "features": [
        {
            "id": 264325,
            "type": "Feature",
            "geometry": {
                "type": "Point",
                "coordinates": [
                    20.4522799,
                    52.04302
                ]
            },
            "properties": {
                "isced:level": "1;2",
                "ref:rspo": 264325,
                "official_name": "Niepubliczna Szko\u0142a Podstawowa Nr 1 im. Krzysztofa Kolumba w \u017byrardowie",
                "name": "Niepubliczna Szko\u0142a Podstawowa Nr 1",
                "addr:postcode": "96-300",
                "addr:city": "\u017byrard\u00f3w",
                "addr:street": "Adama Mickiewicza",
                "addr:housenumber": "126\/128",
                "addr:city:simc": 977210,
                "addr:street:sym_ul": 12740,
                "email": "szkolakolumba@gmail.com",
                "website": "http:\/\/szkolakolumba.edu.pl",
                "ref:regon": "368310630",
                "operator": "Agata Skoneczna",
                "operator:type": "private",
                "amenity": "school"
            }
        },
        {
            "id": 91502,
            "type": "Feature",
            "geometry": {
                "type": "Point",
                "coordinates": [
                    20.4407,
                    52.04647
                ]
            },
            "properties": {
                "ref:rspo": 91502,
                "official_name": "Miejski Ogr\u00f3d Jordanowski w \u017byrardowie",
                "name": "Miejski Ogr\u00f3d Jordanowski w \u017byrardowie",
                "addr:postcode": "96-300",
                "addr:city": "\u017byrard\u00f3w",
                "addr:street": "W\u0142adys\u0142awa Reymonta",
                "addr:housenumber": "13",
                "addr:city:simc": 977210,
                "addr:street:sym_ul": 18648,
                "phone": "+48 468553089",
                "email": "jordanowski@zyrardow.pl",
                "website": "http:\/\/jordanowski.pl",
                "ref:regon": "016086874",
                "ref:vatin": "PL8381656410",
                "operator": "Miasto \u017byrard\u00f3w",
                "operator:type": "government",
                "amenity": "community_centre",
                "community_centre:for": "child;juvenile"
            }
        },
        {
            "id": 276614,
            "type": "Feature",
            "geometry": {
                "type": "Point",
                "coordinates": [
                    20.43755,
                    52.04772
                ]
            },
            "properties": {
                "ref:rspo": 276614,
                "official_name": "Specjalne Przedszkole Terapeutyczne Odkrywcy Talent\u00f3w",
                "name": "Specjalne Przedszkole Terapeutyczne Odkrywcy Talent\u00f3w",
                "addr:postcode": "96-300",
                "addr:city": "\u017byrard\u00f3w",
                "addr:street": "Leona Wasilewskiego",
                "addr:housenumber": "9",
                "addr:city:simc": 977210,
                "addr:street:sym_ul": 23719,
                "email": "siudek.kinga@gmail.com",
                "ref:regon": "387290417",
                "operator": "\"Przedsi\u0119biorstwo Spo\u0142eczne \u015ama Non Profit Sp\u00f3\u0142ka Z Ograniczon\u0105 Odpowiedzialno\u015bci\u0105\"",
                "operator:type": "private",
                "amenity": "kindergarten"
            }
        },
        {
            "id": 31353,
            "type": "Feature",
            "geometry": {
                "type": "Point",
                "coordinates": [
                    20.43744,
                    52.04931
                ]
            },
            "properties": {
                "isced:level": "1;2",
                "ref:rspo": 31353,
                "official_name": "Szko\u0142a Podstawowa Nr 4 im. Miko\u0142aja Reja w \u017byrardowie",
                "name": "Szko\u0142a Podstawowa Nr 4",
                "addr:postcode": "96-300",
                "addr:city": "\u017byrard\u00f3w",
                "addr:street": "Radziwi\u0142\u0142owska",
                "addr:housenumber": "16",
                "addr:city:simc": 977210,
                "addr:street:sym_ul": 18368,
                "phone": "+48 468553081",
                "email": "zsp4@zyrardow.pl",
                "website": "http:\/\/zsp4zyrardow.pl",
                "ref:regon": "000235743",
                "ref:vatin": "PL8381648623",
                "operator": "Miasto \u017byrard\u00f3w",
                "operator:type": "government",
                "amenity": "school"
            }
        },
        {
            "id": 28053,
            "type": "Feature",
            "geometry": {
                "type": "Point",
                "coordinates": [
                    20.43554,
                    52.05015
                ]
            },
            "properties": {
                "ref:rspo": 28053,
                "official_name": "Miejskie Przedszkole Nr 6 im. Krasnala Ha\u0142aba\u0142y w \u017byrardowie",
                "name": "Miejskie Przedszkole Nr 6",
                "addr:postcode": "96-300",
                "addr:city": "\u017byrard\u00f3w",
                "addr:street": "Ksi\u0119dza Stanis\u0142awa Brz\u00f3ski",
                "addr:housenumber": "11-13",
                "addr:city:simc": 977210,
                "addr:street:sym_ul": 52661,
                "phone": "+48 468541268",
                "email": "mp6@zyrardow.pl",
                "website": "http:\/\/mp6zyrardow.szkolnastrona.pl",
                "ref:regon": "750020708",
                "ref:vatin": "PL8381648669",
                "operator": "Miasto \u017byrard\u00f3w",
                "operator:type": "government",
                "amenity": "kindergarten"
            }
        },
        {
            "id": 31602,
            "type": "Feature",
            "geometry": {
                "type": "Point",
                "coordinates": [
                    20.42836,
                    52.0527
                ]
            },
            "properties": {
                "isced:level": "1;2",
                "ref:rspo": 31602,
                "official_name": "Szko\u0142a Podstawowa Nr 7 im. Henryka Sienkiewicza w \u017byrardowie",
                "name": "Szko\u0142a Podstawowa Nr 7",
                "addr:postcode": "96-300",
                "addr:city": "\u017byrard\u00f3w",
                "addr:street": "Franklina Roosevelta",
                "addr:housenumber": "2",
                "addr:city:simc": 977210,
                "addr:street:sym_ul": 18855,
                "phone": "+48 468553511",
                "email": "zsp7@zyrardow.pl",
                "website": "http:\/\/zsp7zyrardow.szkolnastrona.pl",
                "ref:regon": "000238990",
                "ref:vatin": "PL8381648675",
                "operator": "Miasto \u017byrard\u00f3w",
                "operator:type": "government",
                "amenity": "school"
            }
        },
        {
            "id": 128615,
            "type": "Feature",
            "geometry": {
                "type": "Point",
                "coordinates": [
                    20.43936,
                    52.05274
                ]
            },
            "properties": {
                "ref:rspo": 128615,
                "official_name": "Niepubliczna Poradnia Psychologiczno-Pedagogiczna \"Kropka\"",
                "name": "Niepubliczna Poradnia Psychologiczno-Pedagogiczna \"Kropka\"",
                "addr:postcode": "96-300",
                "addr:city": "\u017byrard\u00f3w",
                "addr:street": "Stefana Okrzei",
                "addr:housenumber": "51a",
                "addr:city:simc": 977210,
                "addr:street:sym_ul": 14914,
                "phone": "+48 604938268",
                "ref:regon": "362333356",
                "operator": "Ma\u0142gorzata W\u0119growska-G\u0142atki",
                "operator:type": "private",
                "healthcare": "counselling",
                "counselling_type": "education",
                "fixme": "w zale\u017cno\u015bci od przedmiotu dzia\u0142alno\u015bci (np. healthcare=counselling + counselling_type=education albo healthcare=psychotherapist)"
            }
        },
        {
            "id": 264385,
            "type": "Feature",
            "geometry": {
                "type": "Point",
                "coordinates": [
                    20.42715,
                    52.05338
                ]
            },
            "properties": {
                "ref:rspo": 264385,
                "official_name": "Niepubliczna Poradnia Psychologiczno-Pedagogiczna Harmonia",
                "name": "Niepubliczna Poradnia Psychologiczno-Pedagogiczna Harmonia",
                "addr:postcode": "96-300",
                "addr:city": "\u017byrard\u00f3w",
                "addr:street": "Ksi\u0119dza Ottona Wittenberga",
                "addr:housenumber": "1",
                "addr:city:simc": 977210,
                "addr:street:sym_ul": 52659,
                "ref:regon": "368328340",
                "operator": "Olga \u017buk",
                "operator:type": "private",
                "healthcare": "counselling",
                "counselling_type": "education",
                "fixme": "w zale\u017cno\u015bci od przedmiotu dzia\u0142alno\u015bci (np. healthcare=counselling + counselling_type=education albo healthcare=psychotherapist)"
            }
        },
        {
            "id": 132318,
            "type": "Feature",
            "geometry": {
                "type": "Point",
                "coordinates": [
                    20.44469,
                    52.05388
                ]
            },
            "properties": {
                "ref:rspo": 132318,
                "official_name": "Niepubliczna Poradnia Psychologiczno-Pedagogiczna Hu\u015btawka",
                "name": "Niepubliczna Poradnia Psychologiczno-Pedagogiczna Hu\u015btawka",
                "addr:postcode": "96-300",
                "addr:city": "\u017byrard\u00f3w",
                "addr:street": "Henryka Sienkiewicza",
                "addr:housenumber": "21a",
                "addr:door": "4",
                "addr:city:simc": 977210,
                "addr:street:sym_ul": 19834,
                "phone": "+48 530601970",
                "email": "kontakt@hustawka.edu.pl",
                "website": "http:\/\/www.hustawka.edu.pl",
                "ref:regon": "365551094",
                "operator": "Us\u0142ugi Terapeutyczne Renata Gizi\u0144ska Agnieszka Warzec Sp\u00f3\u0142ka Cywilna",
                "operator:type": "consortium",
                "healthcare": "counselling",
                "counselling_type": "education",
                "fixme": "w zale\u017cno\u015bci od przedmiotu dzia\u0142alno\u015bci (np. healthcare=counselling + counselling_type=education albo healthcare=psychotherapist)"
            }
        },
        {
            "id": 273284,
            "type": "Feature",
            "geometry": {
                "type": "Point",
                "coordinates": [
                    20.44469,
                    52.05385
                ]
            },
            "properties": {
                "ref:rspo": 273284,
                "official_name": "Niepubliczne Przedszkole Dwuj\u0119zyczne Stacyjkowo",
                "name": "Niepubliczne Przedszkole Dwuj\u0119zyczne Stacyjkowo",
                "addr:postcode": "96-300",
                "addr:city": "\u017byrard\u00f3w",
                "addr:street": "Henryka Sienkiewicza",
                "addr:housenumber": "21A",
                "addr:city:simc": 977210,
                "addr:street:sym_ul": 19834,
                "phone": "+48 666180970",
                "email": "przedszkole.stacyjkowo@wp.pl",
                "website": "http:\/\/stacyjkowo.eu",
                "ref:regon": "384430705",
                "operator": "Katarzyna G\u00f3rniak",
                "operator:type": "private",
                "amenity": "kindergarten"
            }
        },
        {
            "id": 61836,
            "type": "Feature",
            "geometry": {
                "type": "Point",
                "coordinates": [
                    20.43755,
                    52.05394
                ]
            },
            "properties": {
                "ref:rspo": 61836,
                "official_name": "Akademia Kszta\u0142cenia Indywidualnego Aki",
                "name": "Akademia Kszta\u0142cenia Indywidualnego Aki",
                "addr:postcode": "96-300",
                "addr:city": "\u017byrard\u00f3w",
                "addr:street": "Nowy \u015awiat",
                "addr:housenumber": "8",
                "addr:door": "9",
                "addr:city:simc": 977210,
                "addr:street:sym_ul": 14535,
                "email": "biuro@akademiaki.edu.pl",
                "website": "http:\/\/www.akademiaki.edu.pl",
                "ref:regon": "146392018",
                "ref:vatin": "PL5222770215",
                "operator": "Dane Do Uzupe\u0142nienia",
                "operator:type": "private"
            }
        },
        {
            "id": 61844,
            "type": "Feature",
            "geometry": {
                "type": "Point",
                "coordinates": [
                    20.43091,
                    52.05408
                ]
            },
            "properties": {
                "ref:rspo": 61844,
                "official_name": "Zesp\u00f3\u0142 Szk\u00f3\u0142 Nr 2 w \u017byrardowie",
                "name": "Zesp\u00f3\u0142 Szk\u00f3\u0142 Nr 2 w \u017byrardowie",
                "addr:postcode": "96-300",
                "addr:city": "\u017byrard\u00f3w",
                "addr:street": "Legion\u00f3w Polskich",
                "addr:housenumber": "54\/56",
                "addr:city:simc": 977210,
                "addr:street:sym_ul": 10775,
                "phone": "+48 468553676",
                "email": "sekretariatzs2@vp.pl",
                "website": "http:\/\/www.zs2zyrardow.szkolnastrona.pl",
                "ref:regon": "000202086",
                "ref:vatin": "PL8381313302",
                "operator": "Powiat \u017byrardowski",
                "operator:type": "government",
                "landuse": "education",
                "fixme": "amenity=school, amenity=college albo landuse=education w zale\u017cno\u015bci od tego, jakie plac\u00f3wki wchodz\u0105 w sk\u0142ad zespo\u0142u. Sprawd\u017a, kiedy stosowa\u0107 amenity=* a kiedy landuse=education.",
                "note": "Children RSPO: 89091;89092;89093"
            }
        },
        {
            "id": 89091,
            "type": "Feature",
            "geometry": {
                "type": "Point",
                "coordinates": [
                    20.43091,
                    52.05405
                ]
            },
            "properties": {
                "isced:level": "3",
                "ref:rspo": 89091,
                "official_name": "Bran\u017cowa Szko\u0142a I Stopnia im.karola Dittricha w Zespole Szko\u0142 Nr 2 w \u017byrardowie",
                "name": "Bran\u017cowa Szko\u0142a I Stopnia im.karola Dittricha w Zespole Szko\u0142 Nr 2 w \u017byrardowie",
                "addr:postcode": "96-300",
                "addr:city": "\u017byrard\u00f3w",
                "addr:street": "Legion\u00f3w Polskich",
                "addr:housenumber": "54\/56",
                "addr:city:simc": 977210,
                "addr:street:sym_ul": 10775,
                "phone": "+48 468553676",
                "email": "sekretariatzs2@vp.pl",
                "website": "http:\/\/www.zs2zyrardow.szkolnastrona.pl",
                "ref:regon": "015775927",
                "operator": "Powiat \u017byrardowski",
                "operator:type": "government",
                "amenity": "school",
                "note": "Parent RSPO: 61844"
            }
        },
        {
            "id": 89092,
            "type": "Feature",
            "geometry": {
                "type": "Point",
                "coordinates": [
                    20.43091,
                    52.05402
                ]
            },
            "properties": {
                "isced:level": "3",
                "ref:rspo": 89092,
                "official_name": "Liceum Og\u00f3lnokszta\u0142c\u0105ce im.karola Dittricha w Zespole Szk\u00f3\u0142 Nr 2 w \u017byrardowie",
                "name": "Liceum Og\u00f3lnokszta\u0142c\u0105ce im.karola Dittricha w Zespole Szk\u00f3\u0142 Nr 2 w \u017byrardowie",
                "addr:postcode": "96-300",
                "addr:city": "\u017byrard\u00f3w",
                "addr:street": "Legion\u00f3w Polskich",
                "addr:housenumber": "54\/56",
                "addr:city:simc": 977210,
                "addr:street:sym_ul": 10775,
                "phone": "+48 468553676",
                "email": "sekretariatzs2@vp.pl",
                "website": "http:\/\/www.zs2zyrardow.szkolnastrona.pl",
                "ref:regon": "015775985",
                "operator": "Powiat \u017byrardowski",
                "operator:type": "government",
                "amenity": "school",
                "note": "Parent RSPO: 61844"
            }
        },
        {
            "id": 89093,
            "type": "Feature",
            "geometry": {
                "type": "Point",
                "coordinates": [
                    20.43091,
                    52.05399
                ]
            },
            "properties": {
                "isced:level": "3",
                "ref:rspo": 89093,
                "official_name": "Technikum im. Karola Dittricha w Zespole Szko\u0142 Nr 2 w \u017byrardowie",
                "name": "Technikum",
                "addr:postcode": "96-300",
                "addr:city": "\u017byrard\u00f3w",
                "addr:street": "Legion\u00f3w Polskich",
                "addr:housenumber": "54\/56",
                "addr:city:simc": 977210,
                "addr:street:sym_ul": 10775,
                "phone": "+48 468553676",
                "email": "sekretariatzs2@vp.pl",
                "website": "http:\/\/www.zs2zyrardow.szkolnastrona.pl",
                "ref:regon": "015775956",
                "operator": "Powiat \u017byrardowski",
                "operator:type": "government",
                "amenity": "school",
                "note": "Parent RSPO: 61844"
            }
        },
        {
            "id": 90327,
            "type": "Feature",
            "geometry": {
                "type": "Point",
                "coordinates": [
                    20.44298,
                    52.0544
                ]
            },
            "properties": {
                "ref:rspo": 90327,
                "official_name": "Nasza Era",
                "name": "Nasza Era",
                "addr:postcode": "96-300",
                "addr:city": "\u017byrard\u00f3w",
                "addr:street": "Stefana Okrzei",
                "addr:housenumber": "29b",
                "addr:city:simc": 977210,
                "addr:street:sym_ul": 14914,
                "phone": "+48 600969600",
                "email": "biuro@naszaera.pl",
                "website": "http:\/\/www.naszaera.pl",
                "ref:regon": "146458473",
                "ref:vatin": "PL8381771140",
                "operator": "Nasza Era Sp\u00f3\u0142ka Z Ograniczon\u0105 Odpowiedzialno\u015bci\u0105",
                "operator:type": "private",
                "fixme": "w zale\u017cno\u015bci od przedmiotu dzia\u0142alno\u015bci (np. amenity=training + training=*, amenity=dancing_school, amenity=language_school, amenity=music_school)"
            }
        },
        {
            "id": 120003,
            "type": "Feature",
            "geometry": {
                "type": "Point",
                "coordinates": [
                    20.44844,
                    52.05509
                ]
            },
            "properties": {
                "ref:rspo": 120003,
                "official_name": "Przedszkole Niepubliczne Kraina Rado\u015bci",
                "name": "Przedszkole Niepubliczne Kraina Rado\u015bci",
                "addr:postcode": "96-300",
                "addr:city": "\u017byrard\u00f3w",
                "addr:street": "Juliusza S\u0142owackiego",
                "addr:housenumber": "13",
                "addr:city:simc": 977210,
                "addr:street:sym_ul": 20291,
                "phone": "+48 509518815",
                "email": "krainaradosci@tlen.pl",
                "ref:regon": "146876118",
                "ref:vatin": "PL8381681767",
                "operator": "Marta Klimas",
                "operator:type": "private",
                "amenity": "kindergarten"
            }
        },
        {
            "id": 28055,
            "type": "Feature",
            "geometry": {
                "type": "Point",
                "coordinates": [
                    20.43871,
                    52.05661
                ]
            },
            "properties": {
                "ref:rspo": 28055,
                "official_name": "Miejskie Przedszkole Nr 9 w \u017byrardowie",
                "name": "Miejskie Przedszkole Nr 9 w \u017byrardowie",
                "addr:postcode": "96-300",
                "addr:city": "\u017byrard\u00f3w",
                "addr:street": "Plac Jana Paw\u0142a II",
                "addr:housenumber": "6",
                "addr:city:simc": 977210,
                "addr:street:sym_ul": 37496,
                "phone": "+48 468553142",
                "email": "mp9@zyrardow.pl",
                "website": "http:\/\/mp9zyrardow.szkolnastrona.pl",
                "ref:regon": "750020737",
                "ref:vatin": "PL8381648712",
                "operator": "Miasto \u017byrard\u00f3w",
                "operator:type": "government",
                "amenity": "kindergarten"
            }
        },
        {
            "id": 30368,
            "type": "Feature",
            "geometry": {
                "type": "Point",
                "coordinates": [
                    20.4395057,
                    52.0569244
                ]
            },
            "properties": {
                "isced:level": "1;2",
                "ref:rspo": 30368,
                "official_name": "Szko\u0142a Podstawowa Nr 2 im. Marii Konopnickiej w \u017byrardowie",
                "name": "Szko\u0142a Podstawowa Nr 2",
                "addr:postcode": "96-300",
                "addr:city": "\u017byrard\u00f3w",
                "addr:street": "Gabriela Narutowicza",
                "addr:housenumber": "35",
                "addr:city:simc": 977210,
                "addr:street:sym_ul": 14018,
                "phone": "+48 468553537",
                "email": "zsp2@zyrardow.pl",
                "website": "http:\/\/sp2zyrardow.pl",
                "ref:regon": "141532928",
                "ref:vatin": "PL8381808989",
                "operator": "Miasto \u017byrard\u00f3w",
                "operator:type": "government",
                "amenity": "school"
            }
        },
        {
            "id": 68204,
            "type": "Feature",
            "geometry": {
                "type": "Point",
                "coordinates": [
                    20.4395057,
                    52.0568944
                ]
            },
            "properties": {
                "isced:level": "4",
                "ref:rspo": 68204,
                "official_name": "Policealna Szko\u0142a Przy Collegium Masoviense",
                "name": "Policealna Szko\u0142a Przy Collegium Masoviense",
                "addr:postcode": "96-300",
                "addr:city": "\u017byrard\u00f3w",
                "addr:street": "Gabriela Narutowicza",
                "addr:housenumber": "35",
                "addr:city:simc": 977210,
                "addr:street:sym_ul": 14018,
                "phone": "+48 730111040",
                "email": "policealna@cm.edu.pl",
                "website": "http:\/\/www.policealna.cm.edu.pl",
                "ref:regon": "146396016",
                "operator": "Collegium Masoviense Wy\u017cszej Szko\u0142y Nauk O Zdrowiu",
                "operator:type": "private",
                "amenity": "college"
            }
        },
        {
            "id": 133256,
            "type": "Feature",
            "geometry": {
                "type": "Point",
                "coordinates": [
                    20.4395057,
                    52.0568644
                ]
            },
            "properties": {
                "ref:rspo": 133256,
                "official_name": "Atut - Plac\u00f3wka Kszta\u0142cenia Ustawicznego",
                "name": "Atut - Plac\u00f3wka Kszta\u0142cenia Ustawicznego",
                "addr:postcode": "96-300",
                "addr:city": "\u017byrard\u00f3w",
                "addr:street": "Gabriela Narutowicza",
                "addr:housenumber": "35",
                "addr:city:simc": 977210,
                "addr:street:sym_ul": 14018,
                "phone": "+48 502704840",
                "ref:regon": "366882692",
                "operator": "Danuta Rynkiewicz",
                "operator:type": "private",
                "fixme": "w zale\u017cno\u015bci od przedmiotu dzia\u0142alno\u015bci (np. amenity=training + training=*, amenity=dancing_school, amenity=language_school, amenity=music_school)"
            }
        },
        {
            "id": 61781,
            "type": "Feature",
            "geometry": {
                "type": "Point",
                "coordinates": [
                    20.45607,
                    52.05712
                ]
            },
            "properties": {
                "ref:rspo": 61781,
                "official_name": "Zesp\u00f3\u0142 Szk\u00f3\u0142 Nr 1 w \u017byrardowie",
                "name": "Zesp\u00f3\u0142 Szk\u00f3\u0142 Nr 1 w \u017byrardowie",
                "addr:postcode": "96-300",
                "addr:city": "\u017byrard\u00f3w",
                "addr:street": "Bohater\u00f3w Warszawy",
                "addr:housenumber": "4",
                "addr:city:simc": 977210,
                "addr:street:sym_ul": 1679,
                "phone": "+48 468554081",
                "email": "elektryk.zyrardow@wp.pl",
                "website": "http:\/\/www.zyrardowelektryk.strefa.pl",
                "ref:regon": "000202040",
                "ref:vatin": "PL8381318535",
                "operator": "Powiat \u017byrardowski",
                "operator:type": "government",
                "landuse": "education",
                "fixme": "amenity=school, amenity=college albo landuse=education w zale\u017cno\u015bci od tego, jakie plac\u00f3wki wchodz\u0105 w sk\u0142ad zespo\u0142u. Sprawd\u017a, kiedy stosowa\u0107 amenity=* a kiedy landuse=education.",
                "note": "Children RSPO: 88373;88374"
            }
        },
        {
            "id": 112237,
            "type": "Feature",
            "geometry": {
                "type": "Point",
                "coordinates": [
                    20.45607,
                    52.057089999999995
                ]
            },
            "properties": {
                "isced:level": "3",
                "ref:rspo": 112237,
                "official_name": "Liceum Og\u00f3lnokszta\u0142c\u0105ce \"Horn\"",
                "name": "Liceum Og\u00f3lnokszta\u0142c\u0105ce \"Horn\"",
                "addr:postcode": "96-300",
                "addr:city": "\u017byrard\u00f3w",
                "addr:street": "Bohater\u00f3w Warszawy",
                "addr:housenumber": "4",
                "addr:city:simc": 977210,
                "addr:street:sym_ul": 1679,
                "email": "ajka.ania@wp.pl",
                "website": "http:\/\/liceumzyrardow.pl\/",
                "ref:regon": "146598435",
                "ref:vatin": "PL6692045593",
                "operator": "Anna Lipka",
                "operator:type": "private",
                "amenity": "school"
            }
        },
        {
            "id": 269604,
            "type": "Feature",
            "geometry": {
                "type": "Point",
                "coordinates": [
                    20.45607,
                    52.05706
                ]
            },
            "properties": {
                "isced:level": "3",
                "ref:rspo": 269604,
                "official_name": "Profesja Liceum Og\u00f3lnokszta\u0142c\u0105ce dla Doros\u0142ych",
                "name": "Profesja Liceum Og\u00f3lnokszta\u0142c\u0105ce dla Doros\u0142ych",
                "addr:postcode": "96-300",
                "addr:city": "\u017byrard\u00f3w",
                "addr:street": "Bohater\u00f3w Warszawy",
                "addr:housenumber": "4",
                "addr:city:simc": 977210,
                "addr:street:sym_ul": 1679,
                "phone": "+48 724466305",
                "email": "sp.vertica@gmail.com",
                "ref:regon": "381588452",
                "operator": "Vertica Sp\u00f3\u0142ka Z Ograniczon\u0105 Odpowiedzialno\u015bci\u0105",
                "operator:type": "private",
                "amenity": "school"
            }
        },
        {
            "id": 269607,
            "type": "Feature",
            "geometry": {
                "type": "Point",
                "coordinates": [
                    20.45607,
                    52.05703
                ]
            },
            "properties": {
                "isced:level": "4",
                "ref:rspo": 269607,
                "official_name": "Profesja Policealna Szko\u0142a Zawodowa w \u017byrardowie",
                "name": "Profesja Policealna Szko\u0142a Zawodowa w \u017byrardowie",
                "addr:postcode": "96-300",
                "addr:city": "\u017byrard\u00f3w",
                "addr:street": "Bohater\u00f3w Warszawy",
                "addr:housenumber": "4",
                "addr:city:simc": 977210,
                "addr:street:sym_ul": 1679,
                "email": "sp.vertica@gmail.com",
                "ref:regon": "381588848",
                "operator": "Vertica Sp\u00f3\u0142ka Z Ograniczon\u0105 Odpowiedzialno\u015bci\u0105",
                "operator:type": "private",
                "amenity": "college"
            }
        },
        {
            "id": 88373,
            "type": "Feature",
            "geometry": {
                "type": "Point",
                "coordinates": [
                    20.45607,
                    52.056999999999995
                ]
            },
            "properties": {
                "isced:level": "3",
                "ref:rspo": 88373,
                "official_name": "Technikum w Zespole Szk\u00f3\u0142 Nr 1 w \u017byrardowie",
                "name": "Technikum w Zespole Szk\u00f3\u0142 Nr 1 w \u017byrardowie",
                "addr:postcode": "96-300",
                "addr:city": "\u017byrard\u00f3w",
                "addr:street": "Bohater\u00f3w Warszawy",
                "addr:housenumber": "4",
                "addr:city:simc": 977210,
                "addr:street:sym_ul": 1679,
                "phone": "+48 468554081",
                "email": "elektryk.zyrardow@wp.pl",
                "website": "http:\/\/www.elektrykzyrardow.pl",
                "ref:regon": "015524190",
                "operator": "Powiat \u017byrardowski",
                "operator:type": "government",
                "amenity": "school",
                "note": "Parent RSPO: 61781"
            }
        },
        {
            "id": 88374,
            "type": "Feature",
            "geometry": {
                "type": "Point",
                "coordinates": [
                    20.45607,
                    52.05697
                ]
            },
            "properties": {
                "isced:level": "3",
                "ref:rspo": 88374,
                "official_name": "Bran\u017cowa Szko\u0142a I Stopnia w Zespole Szk\u00f3\u0142 Nr 1 w \u017byrardowie",
                "name": "Bran\u017cowa Szko\u0142a I Stopnia w Zespole Szk\u00f3\u0142 Nr 1 w \u017byrardowie",
                "addr:postcode": "96-300",
                "addr:city": "\u017byrard\u00f3w",
                "addr:street": "Bohater\u00f3w Warszawy",
                "addr:housenumber": "4",
                "addr:city:simc": 977210,
                "addr:street:sym_ul": 1679,
                "phone": "+48 468554081",
                "email": "elektryk.zyrardow@wp.pl",
                "website": "http:\/\/www.elektrykzyrardow.pl",
                "ref:regon": "015524160",
                "operator": "Powiat \u017byrardowski",
                "operator:type": "government",
                "amenity": "school",
                "note": "Parent RSPO: 61781"
            }
        },
        {
            "id": 61838,
            "type": "Feature",
            "geometry": {
                "type": "Point",
                "coordinates": [
                    20.45043,
                    52.05724
                ]
            },
            "properties": {
                "ref:rspo": 61838,
                "official_name": "Poradnia Psychologiczno-Pedagogiczna",
                "name": "Poradnia Psychologiczno-Pedagogiczna",
                "addr:postcode": "96-300",
                "addr:city": "\u017byrard\u00f3w",
                "addr:street": "Stanis\u0142awa Moniuszki",
                "addr:housenumber": "40",
                "addr:city:simc": 977210,
                "addr:street:sym_ul": 13246,
                "phone": "+48 468553816",
                "email": "poradnia-zyrardow@wp.pl",
                "ref:regon": "000739509",
                "ref:vatin": "PL8381732134",
                "operator": "Powiat \u017byrardowski",
                "operator:type": "government",
                "healthcare": "counselling",
                "counselling_type": "education",
                "fixme": "w zale\u017cno\u015bci od przedmiotu dzia\u0142alno\u015bci (np. healthcare=counselling + counselling_type=education albo healthcare=psychotherapist)"
            }
        },
        {
            "id": 61839,
            "type": "Feature",
            "geometry": {
                "type": "Point",
                "coordinates": [
                    20.4518099,
                    52.05726
                ]
            },
            "properties": {
                "ref:rspo": 61839,
                "official_name": "M\u0142odzie\u017cowy Dom Kultury",
                "name": "M\u0142odzie\u017cowy Dom Kultury",
                "addr:postcode": "96-300",
                "addr:city": "\u017byrard\u00f3w",
                "addr:street": "Stanis\u0142awa Moniuszki",
                "addr:housenumber": "15",
                "addr:city:simc": 977210,
                "addr:street:sym_ul": 13246,
                "phone": "+48 468554514",
                "email": "mlodek@vp.pl",
                "website": "http:\/\/www.mlodek.pl",
                "ref:regon": "750411774",
                "ref:vatin": "PL8381313561",
                "operator": "Powiat \u017byrardowski",
                "operator:type": "government",
                "amenity": "community_centre",
                "community_centre:for": "juvenile"
            }
        },
        {
            "id": 42130,
            "type": "Feature",
            "geometry": {
                "type": "Point",
                "coordinates": [
                    20.43412,
                    52.05757
                ]
            },
            "properties": {
                "ref:rspo": 42130,
                "official_name": "Prywatna Szko\u0142a Muzyczna I St. Nr 1 im. Antoniego Szali\u0144skiego w \u017byrardowie",
                "name": "Prywatna Szko\u0142a Muzyczna I St. Nr 1",
                "addr:postcode": "96-300",
                "addr:city": "\u017byrard\u00f3w",
                "addr:street": "Armii Krajowej",
                "addr:housenumber": "3",
                "addr:city:simc": 977210,
                "addr:street:sym_ul": 432,
                "email": "muzas@p.pl",
                "ref:regon": "146355649",
                "operator": "Ma\u0142gorzata Rogozi\u0144ska",
                "operator:type": "private",
                "amenity": "music_school"
            }
        },
        {
            "id": 42560,
            "type": "Feature",
            "geometry": {
                "type": "Point",
                "coordinates": [
                    20.43412,
                    52.057539999999996
                ]
            },
            "properties": {
                "isced:level": "1;2",
                "ref:rspo": 42560,
                "official_name": "Spo\u0142eczna Szko\u0142a Podstawowa Nr 2 im. Paw\u0142a Hulki-Laskowskiego Spo\u0142ecznego Towarzystwa O\u015bwiatowego w \u017byrardowie",
                "name": "Spo\u0142eczna Szko\u0142a Podstawowa Nr 2",
                "addr:postcode": "96-300",
                "addr:city": "\u017byrard\u00f3w",
                "addr:street": "Armii Krajowej",
                "addr:housenumber": "3",
                "addr:city:simc": 977210,
                "addr:street:sym_ul": 432,
                "phone": "+48 468554838",
                "email": "sekretariat@stoz.pl",
                "website": "http:\/\/stoz.pl",
                "ref:regon": "146391349",
                "operator": "Samodzielne Ko\u0142o Terenowe Nr 148 Spo\u0142ecznego Towarzystwa O\u015bwiatowego",
                "operator:type": "ngo",
                "amenity": "school"
            }
        },
        {
            "id": 34206,
            "type": "Feature",
            "geometry": {
                "type": "Point",
                "coordinates": [
                    20.44586,
                    52.05793
                ]
            },
            "properties": {
                "isced:level": "1;2",
                "ref:rspo": 34206,
                "official_name": "Szko\u0142a Podstawowa Nr 6 im. Elizy Orzeszkowej w \u017byrardowie",
                "name": "Szko\u0142a Podstawowa Nr 6",
                "addr:postcode": "96-300",
                "addr:city": "\u017byrard\u00f3w",
                "addr:street": "J\u00f3zefa Mireckiego",
                "addr:housenumber": "56",
                "addr:city:simc": 977210,
                "addr:street:sym_ul": 13004,
                "phone": "+48 468553149",
                "email": "sp6@zyrardow.pl",
                "website": "http:\/\/zsp6zyrardow.edupage.org",
                "ref:regon": "000237529",
                "ref:vatin": "PL8381648706",
                "operator": "Miasto \u017byrard\u00f3w",
                "operator:type": "government",
                "amenity": "school"
            }
        },
        {
            "id": 133254,
            "type": "Feature",
            "geometry": {
                "type": "Point",
                "coordinates": [
                    20.44586,
                    52.0579
                ]
            },
            "properties": {
                "isced:level": "3",
                "ref:rspo": 133254,
                "official_name": "Atut - Liceum Og\u00f3lnoksza\u0142c\u0105ce dla Doros\u0142ych",
                "name": "Atut - Liceum Og\u00f3lnoksza\u0142c\u0105ce dla Doros\u0142ych",
                "addr:postcode": "96-300",
                "addr:city": "\u017byrard\u00f3w",
                "addr:street": "J\u00f3zefa Mireckiego",
                "addr:housenumber": "56",
                "addr:city:simc": 977210,
                "addr:street:sym_ul": 13004,
                "phone": "+48 512103165",
                "email": "zyrardow.kursy@atutstrefarozwoju.pl",
                "website": "http:\/\/www.atutstrefarozwoju.pl",
                "ref:regon": "366882628",
                "operator": "Atut Strefa Rozwoju Chorz\u00f3w Sp\u00f3\u0142ka Z Ograniczon\u0105 Odpowiedzialno\u015bci\u0105",
                "operator:type": "private",
                "amenity": "school"
            }
        },
        {
            "id": 133255,
            "type": "Feature",
            "geometry": {
                "type": "Point",
                "coordinates": [
                    20.44586,
                    52.05787
                ]
            },
            "properties": {
                "isced:level": "4",
                "ref:rspo": 133255,
                "official_name": "Atut - Szko\u0142a Policealna",
                "name": "Atut - Szko\u0142a Policealna",
                "addr:postcode": "96-300",
                "addr:city": "\u017byrard\u00f3w",
                "addr:street": "J\u00f3zefa Mireckiego",
                "addr:housenumber": "56",
                "addr:city:simc": 977210,
                "addr:street:sym_ul": 13004,
                "phone": "+48 512103165",
                "email": "zyrardow@atutstrefarozwoju.pl",
                "website": "http:\/\/www.atutstrefarozwoju.pl",
                "ref:regon": "366882670",
                "operator": "Atut Strefa Rozwoju Chorz\u00f3w Sp\u00f3\u0142ka Z Ograniczon\u0105 Odpowiedzialno\u015bci\u0105",
                "operator:type": "private",
                "amenity": "college"
            }
        },
        {
            "id": 21568,
            "type": "Feature",
            "geometry": {
                "type": "Point",
                "coordinates": [
                    20.4380119,
                    52.0582872
                ]
            },
            "properties": {
                "ref:rspo": 21568,
                "official_name": "Pa\u0144stwowa Szko\u0142a Muzyczna I I II St. im. Ignacego Jana Paderewskiego w \u017byrardowie",
                "name": "Pa\u0144stwowa Szko\u0142a Muzyczna I I II St.",
                "addr:postcode": "96-300",
                "addr:city": "\u017byrard\u00f3w",
                "addr:street": "Gabriela Narutowicza",
                "addr:housenumber": "39b",
                "addr:city:simc": 977210,
                "addr:street:sym_ul": 14018,
                "phone": "+48 468553685",
                "email": "psm.zyrardow@gmail.com",
                "website": "http:\/\/psmzyrardow.art.pl",
                "ref:regon": "000678802",
                "operator": "Ministerstwo Kultury I Dziedzictwa Narodowego",
                "operator:type": "public",
                "landuse": "education",
                "fixme": "amenity=school, amenity=college albo landuse=education w zale\u017cno\u015bci od tego, jakie plac\u00f3wki wchodz\u0105 w sk\u0142ad zespo\u0142u. Sprawd\u017a, kiedy stosowa\u0107 amenity=* a kiedy landuse=education.",
                "note": "Children RSPO: 103772;103773"
            }
        },
        {
            "id": 103772,
            "type": "Feature",
            "geometry": {
                "type": "Point",
                "coordinates": [
                    20.4380119,
                    52.0582572
                ]
            },
            "properties": {
                "ref:rspo": 103772,
                "official_name": "Pa\u0144stwowa Szko\u0142a Muzyczna I St. w \u017byrardowie",
                "name": "Pa\u0144stwowa Szko\u0142a Muzyczna I St. w \u017byrardowie",
                "addr:postcode": "96-300",
                "addr:city": "\u017byrard\u00f3w",
                "addr:street": "Gabriela Narutowicza",
                "addr:housenumber": "39b",
                "addr:city:simc": 977210,
                "addr:street:sym_ul": 14018,
                "phone": "+48 468553685",
                "ref:regon": "146465540",
                "operator": "Ministerstwo Kultury I Dziedzictwa Narodowego",
                "operator:type": "public",
                "amenity": "music_school",
                "note": "Children RSPO: 273962Parent RSPO: 21568"
            }
        },
        {
            "id": 103773,
            "type": "Feature",
            "geometry": {
                "type": "Point",
                "coordinates": [
                    20.4380119,
                    52.058227200000005
                ]
            },
            "properties": {
                "ref:rspo": 103773,
                "official_name": "Pa\u0144stwowa Szko\u0142a Muzyczna II St. w \u017byrardowie",
                "name": "Pa\u0144stwowa Szko\u0142a Muzyczna II St. w \u017byrardowie",
                "addr:postcode": "96-300",
                "addr:city": "\u017byrard\u00f3w",
                "addr:street": "Gabriela Narutowicza",
                "addr:housenumber": "39b",
                "addr:city:simc": 977210,
                "addr:street:sym_ul": 14018,
                "phone": "+48 468553685",
                "ref:regon": "146467740",
                "operator": "Ministerstwo Kultury I Dziedzictwa Narodowego",
                "operator:type": "public",
                "amenity": "music_school",
                "note": "Parent RSPO: 21568"
            }
        },
        {
            "id": 121657,
            "type": "Feature",
            "geometry": {
                "type": "Point",
                "coordinates": [
                    20.45306,
                    52.0585499
                ]
            },
            "properties": {
                "ref:rspo": 121657,
                "official_name": "Przedszkole Niepubliczne \"Gabilandia\"",
                "name": "Przedszkole Niepubliczne \"Gabilandia\"",
                "addr:postcode": "96-300",
                "addr:city": "\u017byrard\u00f3w",
                "addr:street": "Piaskowa",
                "addr:housenumber": "21",
                "addr:door": "23",
                "addr:city:simc": 977210,
                "addr:street:sym_ul": 16033,
                "phone": "+48 782654399",
                "email": "gabilandia@wp.pl",
                "ref:regon": "147072936",
                "operator": "Monika Iwa\u0144ska",
                "operator:type": "private",
                "amenity": "kindergarten"
            }
        },
        {
            "id": 28056,
            "type": "Feature",
            "geometry": {
                "type": "Point",
                "coordinates": [
                    20.4437399,
                    52.05925
                ]
            },
            "properties": {
                "ref:rspo": 28056,
                "official_name": "Miejskie Integracyjne Przedszkole Nr 10 w \u017byrardowie",
                "name": "Miejskie Integracyjne Przedszkole Nr 10 w \u017byrardowie",
                "addr:postcode": "96-300",
                "addr:city": "\u017byrard\u00f3w",
                "addr:street": "Przedszkolna",
                "addr:housenumber": "1",
                "addr:city:simc": 977210,
                "addr:street:sym_ul": 17683,
                "phone": "+48 468553044",
                "email": "mip10@zyrardow.pl",
                "website": "http:\/\/mip10.zyrardow.pl",
                "ref:regon": "750020743",
                "ref:vatin": "PL8381648876",
                "operator": "Miasto \u017byrard\u00f3w",
                "operator:type": "government",
                "amenity": "kindergarten"
            }
        },
        {
            "id": 29970,
            "type": "Feature",
            "geometry": {
                "type": "Point",
                "coordinates": [
                    20.43572,
                    52.06042
                ]
            },
            "properties": {
                "isced:level": "1;2",
                "ref:rspo": 29970,
                "official_name": "Szko\u0142a Podstawowa Nr 1 Z Oddzia\u0142ami Integracyjnymi I Dwuj\u0119zycznymi im. Filipa De Girarda w \u017byrardowie",
                "name": "Szko\u0142a Podstawowa Nr 1 Z Oddzia\u0142ami Integracyjnymi I Dwuj\u0119zycznymi",
                "addr:postcode": "96-300",
                "addr:city": "\u017byrard\u00f3w",
                "addr:street": "Jasna",
                "addr:housenumber": "11",
                "addr:city:simc": 977210,
                "addr:street:sym_ul": 7335,
                "phone": "+48 468554165",
                "email": "zsp1@zyrardow.pl",
                "website": "http:\/\/jedynkazyrardow.szkolnastrona.pl",
                "ref:regon": "141475001",
                "ref:vatin": "PL8381808363",
                "operator": "Miasto \u017byrard\u00f3w",
                "operator:type": "government",
                "amenity": "school"
            }
        },
        {
            "id": 61835,
            "type": "Feature",
            "geometry": {
                "type": "Point",
                "coordinates": [
                    20.45015,
                    52.06042
                ]
            },
            "properties": {
                "ref:rspo": 61835,
                "official_name": "Specjalny O\u015brodek Szkolno-Wychowawczy im. Marii Grzegorzewskiej",
                "name": "Specjalny O\u015brodek Szkolno-Wychowawczy",
                "addr:postcode": "96-300",
                "addr:city": "\u017byrard\u00f3w",
                "addr:street": "\u015arodkowa",
                "addr:housenumber": "36",
                "addr:city:simc": 977210,
                "addr:street:sym_ul": 22419,
                "phone": "+48 468553184",
                "email": "dyrektor@soswzyrardow.pl",
                "website": "http:\/\/soswzyrardow.edupage.org",
                "ref:regon": "000202100",
                "ref:vatin": "PL8381314483",
                "operator": "Powiat \u017byrardowski",
                "operator:type": "government",
                "amenity": "school",
                "note": "Children RSPO: 92168;92169;92170;130576"
            }
        },
        {
            "id": 92168,
            "type": "Feature",
            "geometry": {
                "type": "Point",
                "coordinates": [
                    20.45015,
                    52.06039
                ]
            },
            "properties": {
                "isced:level": "3",
                "ref:rspo": 92168,
                "official_name": "Bran\u017cowa Szko\u0142a I Stopnia Specjalna",
                "name": "Bran\u017cowa Szko\u0142a I Stopnia Specjalna",
                "addr:postcode": "96-300",
                "addr:city": "\u017byrard\u00f3w",
                "addr:street": "\u015arodkowa",
                "addr:housenumber": "36",
                "addr:city:simc": 977210,
                "addr:street:sym_ul": 22419,
                "phone": "+48 468553184",
                "email": "sekretariat@soswzyrardow.pl",
                "website": "http:\/\/soswzyrardow.pl",
                "ref:regon": "000908691",
                "operator": "Powiat \u017byrardowski",
                "operator:type": "government",
                "amenity": "school",
                "note": "Parent RSPO: 61835"
            }
        },
        {
            "id": 92169,
            "type": "Feature",
            "geometry": {
                "type": "Point",
                "coordinates": [
                    20.45015,
                    52.06036
                ]
            },
            "properties": {
                "ref:rspo": 92169,
                "official_name": "Szko\u0142a Specjalna Przysposabiaj\u0105ca Do Pracy",
                "name": "Szko\u0142a Specjalna Przysposabiaj\u0105ca Do Pracy",
                "addr:postcode": "96-300",
                "addr:city": "\u017byrard\u00f3w",
                "addr:street": "\u015arodkowa",
                "addr:housenumber": "36",
                "addr:city:simc": 977210,
                "addr:street:sym_ul": 22419,
                "phone": "+48 468553184",
                "email": "sekretariat@soswzyrardow.pl",
                "website": "http:\/\/soswzyrardow.pl",
                "ref:regon": "141843628",
                "operator": "Powiat \u017byrardowski",
                "operator:type": "government",
                "amenity": "school",
                "note": "Parent RSPO: 61835"
            }
        },
        {
            "id": 92170,
            "type": "Feature",
            "geometry": {
                "type": "Point",
                "coordinates": [
                    20.45015,
                    52.06033
                ]
            },
            "properties": {
                "isced:level": "1;2",
                "ref:rspo": 92170,
                "official_name": "Szko\u0142a Podstawowa Specjalna",
                "name": "Szko\u0142a Podstawowa Specjalna",
                "addr:postcode": "96-300",
                "addr:city": "\u017byrard\u00f3w",
                "addr:street": "\u015arodkowa",
                "addr:housenumber": "36",
                "addr:city:simc": 977210,
                "addr:street:sym_ul": 22419,
                "phone": "+48 468553184",
                "email": "sekretariat@soswzyrardow.pl",
                "website": "http:\/\/soswzyrardow.pl",
                "ref:regon": "000901565",
                "operator": "Powiat \u017byrardowski",
                "operator:type": "government",
                "amenity": "school",
                "note": "Parent RSPO: 61835"
            }
        },
        {
            "id": 130576,
            "type": "Feature",
            "geometry": {
                "type": "Point",
                "coordinates": [
                    20.45015,
                    52.0603
                ]
            },
            "properties": {
                "ref:rspo": 130576,
                "official_name": "Przedszkole Specjalne w Specjalnym O\u015brodku Szkolno-Wychowawczym im. M. Grzegorzewskiej w \u017byrardowie",
                "name": "Przedszkole Specjalne w Specjalnym O\u015brodku Szkolno-Wychowawczym",
                "addr:postcode": "96-300",
                "addr:city": "\u017byrard\u00f3w",
                "addr:street": "\u015arodkowa",
                "addr:housenumber": "36",
                "addr:city:simc": 977210,
                "addr:street:sym_ul": 22419,
                "phone": "+48 468553184",
                "email": "dyrektor@soswzyrardow.pl",
                "website": "http:\/\/soswzyrardow.edupage.org",
                "ref:regon": "364204657",
                "operator": "Powiat \u017byrardowski",
                "operator:type": "government",
                "amenity": "kindergarten",
                "note": "Parent RSPO: 61835"
            }
        },
        {
            "id": 124158,
            "type": "Feature",
            "geometry": {
                "type": "Point",
                "coordinates": [
                    20.44889,
                    52.06047
                ]
            },
            "properties": {
                "ref:rspo": 124158,
                "official_name": "Przedszkole Niepubliczne \"Mini Przedszkole Dino\"",
                "name": "Przedszkole Niepubliczne \"Mini Przedszkole Dino\"",
                "addr:postcode": "96-300",
                "addr:city": "\u017byrard\u00f3w",
                "addr:street": "Tadeusza Ko\u015bciuszki",
                "addr:housenumber": "13",
                "addr:city:simc": 977210,
                "addr:street:sym_ul": 9582,
                "phone": "+48 608251316",
                "email": "beata_kom@gazeta.pl",
                "website": "http:\/\/przedszkoledino.pl",
                "ref:regon": "147378368",
                "operator": "Beata Kom\u017ca",
                "operator:type": "private",
                "amenity": "kindergarten"
            }
        },
        {
            "id": 28051,
            "type": "Feature",
            "geometry": {
                "type": "Point",
                "coordinates": [
                    20.43598,
                    52.0615499
                ]
            },
            "properties": {
                "ref:rspo": 28051,
                "official_name": "Miejskie Przedszkole Nr 5 w \u017byrardowie",
                "name": "Miejskie Przedszkole Nr 5 w \u017byrardowie",
                "addr:postcode": "96-300",
                "addr:city": "\u017byrard\u00f3w",
                "addr:street": "Leszno",
                "addr:housenumber": "19",
                "addr:city:simc": 977210,
                "addr:street:sym_ul": 10888,
                "phone": "+48 468554448",
                "email": "mp5@zyrardow.pl",
                "website": "http:\/\/sloneczneprzedszkole-zyrardow.edupage.org",
                "ref:regon": "750020690",
                "ref:vatin": "PL8381652990",
                "operator": "Miasto \u017byrard\u00f3w",
                "operator:type": "government",
                "amenity": "kindergarten"
            }
        },
        {
            "id": 61842,
            "type": "Feature",
            "geometry": {
                "type": "Point",
                "coordinates": [
                    20.44316,
                    52.06169
                ]
            },
            "properties": {
                "isced:level": "3",
                "ref:rspo": 61842,
                "official_name": "Liceum Og\u00f3lnokszta\u0142c\u0105ce Szko\u0142a Mistrzostwa Sportowego w Kolarstwie",
                "name": "Liceum Og\u00f3lnokszta\u0142c\u0105ce Szko\u0142a Mistrzostwa Sportowego w Kolarstwie",
                "addr:postcode": "96-300",
                "addr:city": "\u017byrard\u00f3w",
                "addr:street": "Ludwika Wary\u0144skiego",
                "addr:housenumber": "1",
                "addr:city:simc": 977210,
                "addr:street:sym_ul": 23707,
                "phone": "+48 468553138",
                "email": "sms_zyrardow@op.pl",
                "ref:regon": "015230932",
                "ref:vatin": "PL8381715584",
                "operator": "Powiat \u017byrardowski",
                "operator:type": "government",
                "amenity": "school"
            }
        },
        {
            "id": 68641,
            "type": "Feature",
            "geometry": {
                "type": "Point",
                "coordinates": [
                    20.44316,
                    52.061659999999996
                ]
            },
            "properties": {
                "ref:rspo": 68641,
                "official_name": "Pedagogiczna Biblioteka Wojew\u00f3dzka im. Komisji Edukacji Narodowej w Warszawie Filia w \u017byrardowie",
                "name": "Pedagogiczna Biblioteka Wojew\u00f3dzka",
                "addr:postcode": "96-300",
                "addr:city": "\u017byrard\u00f3w",
                "addr:street": "Ludwika Wary\u0144skiego",
                "addr:housenumber": "1",
                "addr:city:simc": 977210,
                "addr:street:sym_ul": 23707,
                "phone": "+48 468554458",
                "email": "pbw.zyrardow@pbw.waw.pl",
                "website": "http:\/\/www.pbw.waw.pl",
                "ref:regon": "107317530",
                "ref:vatin": "PL5251563074",
                "operator": "Wojew\u00f3dztwo Mazowieckie",
                "operator:type": "government",
                "amenity": "library",
                "note": "Parent RSPO: 28033"
            }
        },
        {
            "id": 277247,
            "type": "Feature",
            "geometry": {
                "type": "Point",
                "coordinates": [
                    20.44124,
                    52.0644
                ]
            },
            "properties": {
                "ref:rspo": 277247,
                "official_name": "Kids Fitness Club",
                "name": "Kids Fitness Club",
                "addr:postcode": "96-300",
                "addr:city": "\u017byrard\u00f3w",
                "addr:street": "Izy Zieli\u0144skiej",
                "addr:housenumber": "17",
                "addr:city:simc": 977210,
                "addr:street:sym_ul": 27400,
                "phone": "+48 784516154",
                "ref:regon": "388441210",
                "operator": "Kalina Nowakowska",
                "operator:type": "private",
                "fixme": "w zale\u017cno\u015bci od przedmiotu dzia\u0142alno\u015bci (np. amenity=training + training=*, amenity=dancing_school, amenity=language_school, amenity=music_school)"
            }
        },
        {
            "id": 124837,
            "type": "Feature",
            "geometry": {
                "type": "Point",
                "coordinates": [
                    20.42658,
                    52.06574
                ]
            },
            "properties": {
                "ref:rspo": 124837,
                "official_name": "Przedszkole Niepubliczne Pozytywka",
                "name": "Przedszkole Niepubliczne Pozytywka",
                "addr:postcode": "96-300",
                "addr:city": "\u017byrard\u00f3w",
                "addr:street": "1 Maja",
                "addr:housenumber": "87",
                "addr:city:simc": 977210,
                "addr:street:sym_ul": 11926,
                "phone": "+48 570094954",
                "email": "twojapozytywka@gmail.com",
                "website": "http:\/\/przedszkole-pozytywka.edu.pl",
                "ref:regon": "147408425",
                "operator": "Przedszkole Niepubliczne Pozytywka Sp\u00f3\u0142ka Z Ograniczon\u0105 Odpowiedzialno\u015bci\u0105",
                "operator:type": "private",
                "amenity": "kindergarten"
            }
        },
        {
            "id": 27972,
            "type": "Feature",
            "geometry": {
                "type": "Point",
                "coordinates": [
                    20.44507,
                    52.06745
                ]
            },
            "properties": {
                "isced:level": "3",
                "ref:rspo": 27972,
                "official_name": "Liceum Og\u00f3lnokszta\u0142c\u0105ce im. Stefana \u017beromskiego",
                "name": "Liceum Og\u00f3lnokszta\u0142c\u0105ce",
                "addr:postcode": "96-300",
                "addr:city": "\u017byrard\u00f3w",
                "addr:street": "Janiny Jadwigi Kacperskiej",
                "addr:housenumber": "6A",
                "addr:city:simc": 977210,
                "addr:street:sym_ul": 43103,
                "phone": "+48 468553122",
                "email": "lozyrard@lo.zyrardow.edu.pl",
                "website": "http:\/\/lo.zyrardow.edu.pl",
                "ref:regon": "000242186",
                "ref:vatin": "PL8381311266",
                "operator": "Miasto \u017byrard\u00f3w",
                "operator:type": "government",
                "amenity": "school"
            }
        },
        {
            "id": 30775,
            "type": "Feature",
            "geometry": {
                "type": "Point",
                "coordinates": [
                    20.44581,
                    52.0677
                ]
            },
            "properties": {
                "isced:level": "1;2",
                "ref:rspo": 30775,
                "official_name": "Szko\u0142a Podstawowa Nr 3 Z Oddzia\u0142ami Integracyjnymi im. Stanis\u0142awa Staszica w \u017byrardowie",
                "name": "Szko\u0142a Podstawowa Nr 3 Z Oddzia\u0142ami Integracyjnymi",
                "addr:postcode": "96-300",
                "addr:city": "\u017byrard\u00f3w",
                "addr:street": "Janiny Jadwigi Kacperskiej",
                "addr:housenumber": "6B",
                "addr:city:simc": 977210,
                "addr:street:sym_ul": 43103,
                "phone": "+48 468553545",
                "email": "zsp3@zyrardow.pl",
                "website": "http:\/\/zyrsp3.edupage.org",
                "ref:regon": "000233454",
                "ref:vatin": "PL8381648729",
                "operator": "Miasto \u017byrard\u00f3w",
                "operator:type": "government",
                "amenity": "school"
            }
        },
        {
            "id": 124826,
            "type": "Feature",
            "geometry": {
                "type": "Point",
                "coordinates": [
                    20.43362,
                    52.06774
                ]
            },
            "properties": {
                "ref:rspo": 124826,
                "official_name": "Przedszkole Niepubliczne \"\u017byrafa\"",
                "name": "Przedszkole Niepubliczne \"\u017byrafa\"",
                "addr:postcode": "96-300",
                "addr:city": "\u017byrard\u00f3w",
                "addr:street": "Jana Skrowaczewskiego",
                "addr:housenumber": "60",
                "addr:city:simc": 977210,
                "addr:street:sym_ul": 33138,
                "phone": "+48 669989133",
                "email": "pnzyrafa@op.pl",
                "ref:regon": "147407696",
                "operator": "\u017byrafa Group S.c. Magdalena Pawlak Marzena Zakrzewska",
                "operator:type": "consortium",
                "amenity": "kindergarten"
            }
        },
        {
            "id": 28054,
            "type": "Feature",
            "geometry": {
                "type": "Point",
                "coordinates": [
                    20.43627,
                    52.06908
                ]
            },
            "properties": {
                "ref:rspo": 28054,
                "official_name": "Miejskie Przedszkole Nr 8 w Zyrardowie",
                "name": "Miejskie Przedszkole Nr 8 w Zyrardowie",
                "addr:postcode": "96-300",
                "addr:city": "\u017byrard\u00f3w",
                "addr:street": "Marii Nietrzebki",
                "addr:housenumber": "6",
                "addr:city:simc": 977210,
                "addr:street:sym_ul": 33135,
                "phone": "+48 468557329",
                "email": "mp8@zyrardow.pl",
                "website": "http:\/\/mp8zyrardow.szkolnastrona.pl",
                "ref:regon": "750020720",
                "ref:vatin": "PL8381658811",
                "operator": "Miasto \u017byrard\u00f3w",
                "operator:type": "government",
                "amenity": "kindergarten"
            }
        },
        {
            "id": 28050,
            "type": "Feature",
            "geometry": {
                "type": "Point",
                "coordinates": [
                    20.44122,
                    52.07048
                ]
            },
            "properties": {
                "ref:rspo": 28050,
                "official_name": "Miejskie Przedszkole Nr 2 w \u017byrardowie",
                "name": "Miejskie Przedszkole Nr 2 w \u017byrardowie",
                "addr:postcode": "96-300",
                "addr:city": "\u017byrard\u00f3w",
                "addr:street": "Parkingowa",
                "addr:housenumber": "32",
                "addr:city:simc": 977210,
                "addr:street:sym_ul": 15707,
                "phone": "+48 468552102",
                "email": "mp2@zyrardow.pl",
                "website": "http:\/\/przedszkole2.schoolpage.eu",
                "ref:regon": "750020677",
                "ref:vatin": "PL8381648652",
                "operator": "Miasto \u017byrard\u00f3w",
                "operator:type": "government",
                "amenity": "kindergarten"
            }
        },
        {
            "id": 61837,
            "type": "Feature",
            "geometry": {
                "type": "Point",
                "coordinates": [
                    20.43632,
                    52.07108
                ]
            },
            "properties": {
                "ref:rspo": 61837,
                "official_name": "O\u015brodek Kszta\u0142cenia O\u015bwiatowego",
                "name": "O\u015brodek Kszta\u0142cenia O\u015bwiatowego",
                "addr:postcode": "96-300",
                "addr:city": "\u017byrard\u00f3w",
                "addr:street": "Marii Nietrzebki",
                "addr:housenumber": "16",
                "addr:door": "33",
                "addr:city:simc": 977210,
                "addr:street:sym_ul": 33135,
                "phone": "+48 468551591",
                "email": "okozyrardow@tlen.pl",
                "website": "http:\/\/www.oko-kursy.pl",
                "ref:regon": "146372352",
                "ref:vatin": "PL8381794856",
                "operator": "Katarzyna Zieli\u0144ska",
                "operator:type": "private",
                "fixme": "w zale\u017cno\u015bci od przedmiotu dzia\u0142alno\u015bci (np. amenity=training + training=*, amenity=dancing_school, amenity=language_school, amenity=music_school)"
            }
        }
    ]
}