{
    "type": "FeatureCollection",
    "features": [
        {
            "id": 49637,
            "type": "Feature",
            "geometry": {
                "type": "Point",
                "coordinates": [
                    20.60884,
                    51.86891
                ]
            },
            "properties": {
                "isced:level": "1;2",
                "ref:rspo": 49637,
                "official_name": "Szko\u0142a Podstawowa w Bobrowcach",
                "name": "Szko\u0142a Podstawowa w Bobrowcach",
                "addr:postcode": "96-323",
                "addr:city": "Bobrowce",
                "addr:street": "Mszczonowska",
                "addr:housenumber": "5",
                "addr:city:simc": 732387,
                "addr:street:sym_ul": 13454,
                "phone": "+48 468574491",
                "email": "pspbobrowce@poczta.onet.pl",
                "website": "http:\/\/www.spbobrowce.pl",
                "ref:regon": "001130087",
                "ref:vatin": "PL8381646357",
                "operator": "Gmina Mszczon\u00f3w",
                "operator:type": "government",
                "amenity": "school"
            }
        },
        {
            "id": 70559,
            "type": "Feature",
            "geometry": {
                "type": "Point",
                "coordinates": [
                    20.60884,
                    51.86888
                ]
            },
            "properties": {
                "ref:rspo": 70559,
                "official_name": "Punkt Przedszkolny \u201eBajkowy Zak\u0105tek\u201d",
                "name": "Punkt Przedszkolny \u201eBajkowy Zak\u0105tek\u201d",
                "addr:postcode": "96-323",
                "addr:city": "Bobrowce",
                "addr:street": "Mszczonowska",
                "addr:housenumber": "5",
                "addr:city:simc": 732387,
                "addr:street:sym_ul": 13454,
                "phone": "+48 468574491",
                "email": "pspbobrowce@poczta.onet.pl",
                "website": "http:\/\/www.punktyprzedszkolne.mszczonow.pl",
                "ref:regon": "146399397",
                "operator": "Gmina Mszczon\u00f3w",
                "operator:type": "government",
                "amenity": "kindergarten"
            }
        },
        {
            "id": 70466,
            "type": "Feature",
            "geometry": {
                "type": "Point",
                "coordinates": [
                    20.59246,
                    51.89664
                ]
            },
            "properties": {
                "isced:level": "1;2",
                "ref:rspo": 70466,
                "official_name": "Szko\u0142a Podstawowa im. Ks. Kan. Mariana Lipskiego w Osuchowie",
                "name": "Szko\u0142a Podstawowa",
                "addr:postcode": "96-323",
                "addr:city": "Osuch\u00f3w",
                "addr:street": "Szkolna",
                "addr:housenumber": "1",
                "addr:city:simc": 732743,
                "addr:street:sym_ul": 21970,
                "phone": "+48 468574471",
                "email": "zsposuchow@mszczonow.pl",
                "website": "http:\/\/www.zsp-osuchow.mszczonow.pl",
                "ref:regon": "001130058",
                "ref:vatin": "PL8381646340",
                "operator": "Gmina Mszczon\u00f3w",
                "operator:type": "government",
                "amenity": "school"
            }
        },
        {
            "id": 49725,
            "type": "Feature",
            "geometry": {
                "type": "Point",
                "coordinates": [
                    20.53848,
                    51.91511
                ]
            },
            "properties": {
                "isced:level": "1;2",
                "ref:rspo": 49725,
                "official_name": "Szko\u0142a Podstawowa w Piekarach",
                "name": "Szko\u0142a Podstawowa w Piekarach",
                "addr:postcode": "96-323",
                "addr:city": "Piekary",
                "addr:street": "Piekarska",
                "addr:housenumber": "47",
                "addr:city:simc": 732772,
                "addr:street:sym_ul": 16111,
                "phone": "+48 468574927",
                "email": "sppiekary@wp.pl",
                "website": "http:\/\/www.sppiekary.mszczonow.pl",
                "ref:regon": "001130070",
                "ref:vatin": "PL8381646311",
                "operator": "Gmina Mszczon\u00f3w",
                "operator:type": "government",
                "amenity": "school"
            }
        },
        {
            "id": 70558,
            "type": "Feature",
            "geometry": {
                "type": "Point",
                "coordinates": [
                    20.53848,
                    51.915079999999996
                ]
            },
            "properties": {
                "ref:rspo": 70558,
                "official_name": "Punkt Przedszkolny \"Bajka\"",
                "name": "Punkt Przedszkolny \"Bajka\"",
                "addr:postcode": "96-323",
                "addr:city": "Piekary",
                "addr:street": "Piekarska",
                "addr:housenumber": "47",
                "addr:city:simc": 732772,
                "addr:street:sym_ul": 16111,
                "phone": "+48 468574927",
                "email": "sppiekary@wp.pl",
                "website": "http:\/\/www.punktyprzedszkolne.mszczonow.pl",
                "ref:regon": "146399701",
                "operator": "Gmina Mszczon\u00f3w",
                "operator:type": "government",
                "amenity": "kindergarten"
            }
        },
        {
            "id": 50407,
            "type": "Feature",
            "geometry": {
                "type": "Point",
                "coordinates": [
                    20.62644,
                    51.92497
                ]
            },
            "properties": {
                "isced:level": "1;2",
                "ref:rspo": 50407,
                "official_name": "Szko\u0142a Podstawowa im.mjr. J\u00f3zefa Wi\u015bniewskiego w Lutk\u00f3wce",
                "name": "Szko\u0142a Podstawowa im.mjr. J\u00f3zefa Wi\u015bniewskiego w Lutk\u00f3wce",
                "addr:postcode": "96-323",
                "addr:city": "Lutk\u00f3wka",
                "addr:street": "Szkolna",
                "addr:housenumber": "1",
                "addr:city:simc": 732648,
                "addr:street:sym_ul": 21970,
                "phone": "+48 468574427",
                "email": "psp_lutkowka@poczta.onet.pl",
                "website": "https:\/\/www.splutkowka.mszczonow.pl\/",
                "ref:regon": "001130064",
                "ref:vatin": "PL8381646328",
                "operator": "Gmina Mszczon\u00f3w",
                "operator:type": "government",
                "amenity": "school"
            }
        },
        {
            "id": 69794,
            "type": "Feature",
            "geometry": {
                "type": "Point",
                "coordinates": [
                    20.62644,
                    51.92494
                ]
            },
            "properties": {
                "ref:rspo": 69794,
                "official_name": "Punkt Przedszkolny \u201eMuminkowo\u201d",
                "name": "Punkt Przedszkolny \u201eMuminkowo\u201d",
                "addr:postcode": "96-323",
                "addr:city": "Lutk\u00f3wka",
                "addr:street": "Szkolna",
                "addr:housenumber": "1",
                "addr:city:simc": 732648,
                "addr:street:sym_ul": 21970,
                "phone": "+48 468574427",
                "email": "psp_lutkowka@poczta.onet.pl",
                "website": "http:\/\/www.punktyprzedszkolne.mszczonow.pl",
                "ref:regon": "146395637",
                "operator": "Gmina Mszczon\u00f3w",
                "operator:type": "government",
                "amenity": "kindergarten"
            }
        },
        {
            "id": 61919,
            "type": "Feature",
            "geometry": {
                "type": "Point",
                "coordinates": [
                    20.5242,
                    51.97063
                ]
            },
            "properties": {
                "ref:rspo": 61919,
                "official_name": "Zesp\u00f3\u0142 Szk\u00f3\u0142 w Mszczonowie",
                "name": "Zesp\u00f3\u0142 Szk\u00f3\u0142 w Mszczonowie",
                "addr:postcode": "96-320",
                "addr:city": "Mszczon\u00f3w",
                "addr:street": "\u0141ugowa",
                "addr:housenumber": "13",
                "addr:city:simc": 977054,
                "addr:street:sym_ul": 11744,
                "phone": "+48 468571022",
                "email": "sekretariat@zs-mszczonow.edu.pl",
                "website": "http:\/\/www.zsmszczonow.szkolnastrona.pl",
                "ref:regon": "000740850",
                "ref:vatin": "PL8381289070",
                "operator": "Powiat \u017byrardowski",
                "operator:type": "government",
                "landuse": "education",
                "fixme": "amenity=school, amenity=college albo landuse=education w zale\u017cno\u015bci od tego, jakie plac\u00f3wki wchodz\u0105 w sk\u0142ad zespo\u0142u. Sprawd\u017a, kiedy stosowa\u0107 amenity=* a kiedy landuse=education.",
                "note": "Children RSPO: 88378;88379"
            }
        },
        {
            "id": 88378,
            "type": "Feature",
            "geometry": {
                "type": "Point",
                "coordinates": [
                    20.5242,
                    51.9706
                ]
            },
            "properties": {
                "isced:level": "3",
                "ref:rspo": 88378,
                "official_name": "Technikum",
                "name": "Technikum",
                "addr:postcode": "96-320",
                "addr:city": "Mszczon\u00f3w",
                "addr:street": "\u0141ugowa",
                "addr:housenumber": "13",
                "addr:city:simc": 977054,
                "addr:street:sym_ul": 11744,
                "phone": "+48 468571022",
                "email": "sekretariat@zs-mszczonow.edu.pl",
                "website": "http:\/\/www.zsmszczonow.szkolnastrona.pl",
                "ref:regon": "015770976",
                "operator": "Powiat \u017byrardowski",
                "operator:type": "government",
                "amenity": "school",
                "note": "Parent RSPO: 61919"
            }
        },
        {
            "id": 88379,
            "type": "Feature",
            "geometry": {
                "type": "Point",
                "coordinates": [
                    20.5242,
                    51.97057
                ]
            },
            "properties": {
                "isced:level": "3",
                "ref:rspo": 88379,
                "official_name": "Bran\u017cowa Szko\u0142a I Stopnia",
                "name": "Bran\u017cowa Szko\u0142a I Stopnia",
                "addr:postcode": "96-320",
                "addr:city": "Mszczon\u00f3w",
                "addr:street": "\u0141ugowa",
                "addr:housenumber": "13",
                "addr:city:simc": 977054,
                "addr:street:sym_ul": 11744,
                "phone": "+48 468571022",
                "email": "sekretariat@zs-mszczonow.edu.pl",
                "website": "http:\/\/www.zsmszczonow.szkolnastrona.pl",
                "ref:regon": "141100844",
                "operator": "Powiat \u017byrardowski",
                "operator:type": "government",
                "amenity": "school",
                "note": "Parent RSPO: 61919"
            }
        },
        {
            "id": 61877,
            "type": "Feature",
            "geometry": {
                "type": "Point",
                "coordinates": [
                    20.52338,
                    51.97189
                ]
            },
            "properties": {
                "isced:level": "3",
                "ref:rspo": 61877,
                "official_name": "Liceum Og\u00f3lnokszta\u0142c\u0105ce im. Szarych Szereg\u00f3w w Mszczonowie",
                "name": "Liceum Og\u00f3lnokszta\u0142c\u0105ce",
                "addr:postcode": "96-320",
                "addr:city": "Mszczon\u00f3w",
                "addr:street": "Jana Maklakiewicza",
                "addr:housenumber": "18",
                "addr:city:simc": 977054,
                "addr:street:sym_ul": 11999,
                "phone": "+48 468571210",
                "email": "mszczonowlo@wp.pl",
                "website": "https:\/\/lomszczonow.szkolnastrona.pl\/",
                "ref:regon": "000264503",
                "ref:vatin": "PL8381313354",
                "operator": "Powiat \u017byrardowski",
                "operator:type": "government",
                "amenity": "school"
            }
        },
        {
            "id": 50436,
            "type": "Feature",
            "geometry": {
                "type": "Point",
                "coordinates": [
                    20.52366,
                    51.9738
                ]
            },
            "properties": {
                "ref:rspo": 50436,
                "official_name": "Miejskie Przedszkole Nr 1 w Mszczonowie",
                "name": "Miejskie Przedszkole Nr 1 w Mszczonowie",
                "addr:postcode": "96-320",
                "addr:city": "Mszczon\u00f3w",
                "addr:street": "Tarczy\u0144ska",
                "addr:housenumber": "28",
                "addr:city:simc": 977054,
                "addr:street:sym_ul": 22647,
                "phone": "+48 468571668",
                "email": "przedszkolemszczonow@gmail.com",
                "website": "http:\/\/www.przedszkole.mszczonow.pl",
                "ref:regon": "750020602",
                "ref:vatin": "PL8381313377",
                "operator": "Gmina Mszczon\u00f3w",
                "operator:type": "government",
                "amenity": "kindergarten"
            }
        },
        {
            "id": 127943,
            "type": "Feature",
            "geometry": {
                "type": "Point",
                "coordinates": [
                    20.53058,
                    51.97398
                ]
            },
            "properties": {
                "ref:rspo": 127943,
                "official_name": "Publiczne Przedszkole \u201eBajkowa Kraina\u201d",
                "name": "Publiczne Przedszkole \u201eBajkowa Kraina\u201d",
                "addr:postcode": "96-320",
                "addr:city": "Mszczon\u00f3w",
                "addr:street": "Tarczy\u0144ska",
                "addr:housenumber": "69",
                "addr:city:simc": 977054,
                "addr:street:sym_ul": 22647,
                "phone": "+48 533672407",
                "email": "mposmyk@op.pl",
                "ref:regon": "361984287",
                "operator": "Mariola Posmyk",
                "operator:type": "private",
                "amenity": "kindergarten"
            }
        },
        {
            "id": 49172,
            "type": "Feature",
            "geometry": {
                "type": "Point",
                "coordinates": [
                    20.51784,
                    51.9745
                ]
            },
            "properties": {
                "isced:level": "1;2",
                "ref:rspo": 49172,
                "official_name": "Szko\u0142a Podstawowa im. Jana Adama Maklakiewicza w Mszczonowie",
                "name": "Szko\u0142a Podstawowa",
                "addr:postcode": "96-320",
                "addr:city": "Mszczon\u00f3w",
                "addr:street": "Warszawska",
                "addr:housenumber": "27",
                "addr:city:simc": 977054,
                "addr:street:sym_ul": 23682,
                "phone": "+48 468572210",
                "email": "sp@mszczonow.pl",
                "website": "http:\/\/www.sp.mszczonow.pl",
                "ref:regon": "000264621",
                "ref:vatin": "PL8381646363",
                "operator": "Gmina Mszczon\u00f3w",
                "operator:type": "government",
                "amenity": "school"
            }
        },
        {
            "id": 50343,
            "type": "Feature",
            "geometry": {
                "type": "Point",
                "coordinates": [
                    20.52139,
                    51.97701
                ]
            },
            "properties": {
                "ref:rspo": 50343,
                "official_name": "Przedszkole Niepubliczne Smerfolandia",
                "name": "Przedszkole Niepubliczne Smerfolandia",
                "addr:postcode": "96-320",
                "addr:city": "Mszczon\u00f3w",
                "addr:street": "Warszawska",
                "addr:housenumber": "39",
                "addr:city:simc": 977054,
                "addr:street:sym_ul": 23682,
                "phone": "+48 468190050",
                "email": "smerfolandia@smerfolandia.pl",
                "website": "http:\/\/www.smerfolandia.pl",
                "ref:regon": "146367368",
                "ref:vatin": "PL8381743907",
                "operator": "Dorota Wis\u0142awska",
                "operator:type": "private",
                "amenity": "kindergarten"
            }
        },
        {
            "id": 49607,
            "type": "Feature",
            "geometry": {
                "type": "Point",
                "coordinates": [
                    20.45136,
                    51.99553
                ]
            },
            "properties": {
                "isced:level": "1;2",
                "ref:rspo": 49607,
                "official_name": "Szko\u0142a Podstawowa we Wr\u0119czy",
                "name": "Szko\u0142a Podstawowa we Wr\u0119czy",
                "addr:postcode": "96-300",
                "addr:city": "Wr\u0119cza",
                "addr:street": "Szkolna",
                "addr:housenumber": "50",
                "addr:city:simc": 735546,
                "addr:street:sym_ul": 21970,
                "phone": "+48 468575350",
                "email": "spwrecza@wp.pl",
                "website": "http:\/\/www.sp-wrecza.mszczonow.pl",
                "ref:regon": "001115930",
                "ref:vatin": "PL8381695953",
                "operator": "Gmina Mszczon\u00f3w",
                "operator:type": "government",
                "amenity": "school"
            }
        },
        {
            "id": 69876,
            "type": "Feature",
            "geometry": {
                "type": "Point",
                "coordinates": [
                    20.45136,
                    51.9955
                ]
            },
            "properties": {
                "ref:rspo": 69876,
                "official_name": "Punkt Przedszkolny \u201eKubu\u015b Puchatek\u201d",
                "name": "Punkt Przedszkolny \u201eKubu\u015b Puchatek\u201d",
                "addr:postcode": "96-300",
                "addr:city": "Wr\u0119cza",
                "addr:street": "Szkolna",
                "addr:housenumber": "50",
                "addr:city:simc": 735546,
                "addr:street:sym_ul": 21970,
                "phone": "+48 468575350",
                "email": "spwrecza@wp.pl",
                "website": "http:\/\/www.punktyprzedszkolne.mszczonow.pl",
                "ref:regon": "146395672",
                "operator": "Gmina Mszczon\u00f3w",
                "operator:type": "government",
                "amenity": "kindergarten"
            }
        }
    ]
}