{
    "type": "FeatureCollection",
    "features": [
        {
            "id": 272366,
            "type": "Feature",
            "geometry": {
                "type": "Point",
                "coordinates": [
                    17.60341,
                    53.11491
                ]
            },
            "properties": {
                "ref:rspo": 272366,
                "official_name": "Zesp\u00f3\u0142 Szkolno - Przedszkolny w Paterku",
                "name": "Zesp\u00f3\u0142 Szkolno - Przedszkolny w Paterku",
                "addr:postcode": "89-100",
                "addr:city": "Paterek",
                "addr:street": "Kcy\u0144ska",
                "addr:housenumber": "6a",
                "addr:city:simc": 92479,
                "addr:street:sym_ul": 8306,
                "phone": "+48 523860894",
                "email": "zspaterek@gmina-naklo.pl",
                "ref:regon": "384151939",
                "ref:vatin": "PL5581872306",
                "operator": "Gmina Nak\u0142o Nad Noteci\u0105",
                "operator:type": "government",
                "landuse": "education",
                "fixme": "amenity=school, amenity=college albo landuse=education w zale\u017cno\u015bci od tego, jakie plac\u00f3wki wchodz\u0105 w sk\u0142ad zespo\u0142u. Sprawd\u017a, kiedy stosowa\u0107 amenity=* a kiedy landuse=education.",
                "note": "Children RSPO: 49171;58267"
            }
        },
        {
            "id": 58267,
            "type": "Feature",
            "geometry": {
                "type": "Point",
                "coordinates": [
                    17.60341,
                    53.11488
                ]
            },
            "properties": {
                "isced:level": "1;2",
                "ref:rspo": 58267,
                "official_name": "Szko\u0142a Podstawowa im. Jana Paw\u0142a II w Paterku",
                "name": "Szko\u0142a Podstawowa",
                "addr:postcode": "89-100",
                "addr:city": "Paterek",
                "addr:street": "Kcy\u0144ska",
                "addr:housenumber": "6a",
                "addr:city:simc": 92479,
                "addr:street:sym_ul": 8306,
                "phone": "+48 730038629",
                "email": "zspaterek@gmina-naklo.pl",
                "website": "http:\/\/zspaterek.gmina-naklo.pl",
                "ref:regon": "000947231",
                "ref:vatin": "PL5581640731",
                "operator": "Gmina Nak\u0142o Nad Noteci\u0105",
                "operator:type": "government",
                "amenity": "school",
                "note": "Parent RSPO: 272366"
            }
        },
        {
            "id": 49171,
            "type": "Feature",
            "geometry": {
                "type": "Point",
                "coordinates": [
                    17.6010199,
                    53.11686
                ]
            },
            "properties": {
                "ref:rspo": 49171,
                "official_name": "Przedszkole w Paterku",
                "name": "Przedszkole w Paterku",
                "addr:postcode": "89-100",
                "addr:city": "Paterek",
                "addr:street": "Spacerowa",
                "addr:housenumber": "1A",
                "addr:city:simc": 92479,
                "addr:street:sym_ul": 20641,
                "phone": "+48 523860899",
                "email": "zspaterek@gmina-naklo.pl",
                "website": "http:\/\/www.przedszkole-paterek.naklo.sam3.pl",
                "ref:regon": "093136490",
                "ref:vatin": "PL5581640636",
                "operator": "Gmina Nak\u0142o Nad Noteci\u0105",
                "operator:type": "government",
                "amenity": "kindergarten",
                "note": "Parent RSPO: 272366"
            }
        },
        {
            "id": 4164,
            "type": "Feature",
            "geometry": {
                "type": "Point",
                "coordinates": [
                    17.68956,
                    53.12547
                ]
            },
            "properties": {
                "ref:rspo": 4164,
                "official_name": "Centrum Kszta\u0142cenia Ustawicznego w Potulicach",
                "name": "Centrum Kszta\u0142cenia Ustawicznego w Potulicach",
                "addr:postcode": "89-120",
                "addr:city": "Potulice",
                "addr:street": "Aleja Parkowa",
                "addr:housenumber": "1",
                "addr:city:simc": 92491,
                "addr:street:sym_ul": 15708,
                "phone": "+48 525874280",
                "email": "zspotulice1@wp.pl",
                "ref:regon": "341291594",
                "operator": "Ministerstwo Sprawiedliwo\u015bci",
                "operator:type": "public",
                "amenity": "school",
                "fixme": "amenity=school lub amenity=college",
                "note": "Children RSPO: 7881;7882;20174"
            }
        },
        {
            "id": 7881,
            "type": "Feature",
            "geometry": {
                "type": "Point",
                "coordinates": [
                    17.68956,
                    53.12544
                ]
            },
            "properties": {
                "isced:level": "3",
                "ref:rspo": 7881,
                "official_name": "Liceum Og\u00f3lnokszta\u0142c\u0105ce dla Doros\u0142ych",
                "name": "Liceum Og\u00f3lnokszta\u0142c\u0105ce dla Doros\u0142ych",
                "addr:postcode": "89-120",
                "addr:city": "Potulice",
                "addr:street": "Aleja Parkowa",
                "addr:housenumber": "1",
                "addr:city:simc": 92491,
                "addr:street:sym_ul": 15708,
                "phone": "+48 525874280",
                "email": "zspotulice1@wp.pl",
                "ref:regon": "341291677",
                "operator": "Ministerstwo Sprawiedliwo\u015bci",
                "operator:type": "public",
                "amenity": "school",
                "note": "Parent RSPO: 4164"
            }
        },
        {
            "id": 7882,
            "type": "Feature",
            "geometry": {
                "type": "Point",
                "coordinates": [
                    17.68956,
                    53.12541
                ]
            },
            "properties": {
                "isced:level": "4",
                "ref:rspo": 7882,
                "official_name": "Szko\u0142a Policealna dla Doros\u0142ych",
                "name": "Szko\u0142a Policealna dla Doros\u0142ych",
                "addr:postcode": "89-120",
                "addr:city": "Potulice",
                "addr:street": "Aleja Parkowa",
                "addr:housenumber": "1",
                "addr:city:simc": 92491,
                "addr:street:sym_ul": 15708,
                "email": "zspotulice1@wp.pl",
                "ref:regon": "341291654",
                "operator": "Ministerstwo Sprawiedliwo\u015bci",
                "operator:type": "public",
                "amenity": "college",
                "note": "Parent RSPO: 4164"
            }
        },
        {
            "id": 20174,
            "type": "Feature",
            "geometry": {
                "type": "Point",
                "coordinates": [
                    17.68956,
                    53.12538
                ]
            },
            "properties": {
                "isced:level": "1;2",
                "ref:rspo": 20174,
                "official_name": "Szko\u0142a Podstawowa dla Doros\u0142ych",
                "name": "Szko\u0142a Podstawowa dla Doros\u0142ych",
                "addr:postcode": "89-120",
                "addr:city": "Potulice",
                "addr:street": "Aleja Parkowa",
                "addr:housenumber": "1",
                "addr:city:simc": 92491,
                "addr:street:sym_ul": 15708,
                "email": "zspotulice1@wp.pl",
                "ref:regon": "341291619",
                "operator": "Ministerstwo Sprawiedliwo\u015bci",
                "operator:type": "public",
                "amenity": "school",
                "note": "Parent RSPO: 4164"
            }
        },
        {
            "id": 272412,
            "type": "Feature",
            "geometry": {
                "type": "Point",
                "coordinates": [
                    17.64532,
                    53.12626
                ]
            },
            "properties": {
                "ref:rspo": 272412,
                "official_name": "Zesp\u00f3\u0142 Szkolno - Przedszkolny w Wyst\u0119pie",
                "name": "Zesp\u00f3\u0142 Szkolno - Przedszkolny w Wyst\u0119pie",
                "addr:postcode": "89-100",
                "addr:city": "Wyst\u0119p",
                "addr:street": "Wiejska",
                "addr:housenumber": "1",
                "addr:city:simc": 92634,
                "addr:street:sym_ul": 24048,
                "phone": "+48 523864944",
                "email": "zswystep@gmina-naklo.pl",
                "ref:regon": "384165829",
                "ref:vatin": "PL5581872298",
                "operator": "Gmina Nak\u0142o Nad Noteci\u0105",
                "operator:type": "government",
                "landuse": "education",
                "fixme": "amenity=school, amenity=college albo landuse=education w zale\u017cno\u015bci od tego, jakie plac\u00f3wki wchodz\u0105 w sk\u0142ad zespo\u0142u. Sprawd\u017a, kiedy stosowa\u0107 amenity=* a kiedy landuse=education.",
                "note": "Children RSPO: 58357;272771"
            }
        },
        {
            "id": 58357,
            "type": "Feature",
            "geometry": {
                "type": "Point",
                "coordinates": [
                    17.64532,
                    53.12623
                ]
            },
            "properties": {
                "isced:level": "1;2",
                "ref:rspo": 58357,
                "official_name": "Szko\u0142a Podstawowa im. Przyjaci\u00f3\u0142 Przyrody w Wyst\u0119pie",
                "name": "Szko\u0142a Podstawowa",
                "addr:postcode": "89-100",
                "addr:city": "Wyst\u0119p",
                "addr:street": "Wiejska",
                "addr:housenumber": "1",
                "addr:city:simc": 92634,
                "addr:street:sym_ul": 24048,
                "phone": "+48 523864944",
                "email": "zswystep@gmina-naklo.pl",
                "website": "http:\/\/zswystep.gmina-naklo.pl",
                "ref:regon": "091391099",
                "ref:vatin": "PL5581640725",
                "operator": "Gmina Nak\u0142o Nad Noteci\u0105",
                "operator:type": "government",
                "amenity": "school",
                "note": "Parent RSPO: 272412"
            }
        },
        {
            "id": 272771,
            "type": "Feature",
            "geometry": {
                "type": "Point",
                "coordinates": [
                    17.64532,
                    53.126200000000004
                ]
            },
            "properties": {
                "ref:rspo": 272771,
                "official_name": "Przedszkole w Wyst\u0119pie",
                "name": "Przedszkole w Wyst\u0119pie",
                "addr:postcode": "89-100",
                "addr:city": "Wyst\u0119p",
                "addr:street": "Wiejska",
                "addr:housenumber": "1",
                "addr:city:simc": 92634,
                "addr:street:sym_ul": 24048,
                "phone": "+48 523864944",
                "email": "zswystep@gmina-naklo.pl",
                "website": "http:\/\/zspwystep.gmina-naklo.pl",
                "ref:regon": "384285746",
                "operator": "Gmina Nak\u0142o Nad Noteci\u0105",
                "operator:type": "government",
                "amenity": "kindergarten",
                "note": "Parent RSPO: 272412"
            }
        },
        {
            "id": 38902,
            "type": "Feature",
            "geometry": {
                "type": "Point",
                "coordinates": [
                    17.69133,
                    53.12626
                ]
            },
            "properties": {
                "ref:rspo": 38902,
                "official_name": "Zesp\u00f3\u0142 Szkolno - Przedszkolny im. \"Dzieci Potulic\"",
                "name": "Zesp\u00f3\u0142 Szkolno - Przedszkolny",
                "addr:postcode": "89-120",
                "addr:city": "Potulice",
                "addr:street": "Szkolna",
                "addr:housenumber": "4",
                "addr:city:simc": 92491,
                "addr:street:sym_ul": 21970,
                "phone": "+48 523860890",
                "email": "zspotulice@gmina-naklo.pl",
                "website": "http:\/\/www.zspotulice.gmina-naklo.pl",
                "ref:regon": "093063034",
                "ref:vatin": "PL5581697731",
                "operator": "Gmina Nak\u0142o Nad Noteci\u0105",
                "operator:type": "government",
                "landuse": "education",
                "fixme": "amenity=school, amenity=college albo landuse=education w zale\u017cno\u015bci od tego, jakie plac\u00f3wki wchodz\u0105 w sk\u0142ad zespo\u0142u. Sprawd\u017a, kiedy stosowa\u0107 amenity=* a kiedy landuse=education.",
                "note": "Children RSPO: 49536;49538"
            }
        },
        {
            "id": 49536,
            "type": "Feature",
            "geometry": {
                "type": "Point",
                "coordinates": [
                    17.69133,
                    53.12623
                ]
            },
            "properties": {
                "isced:level": "1;2",
                "ref:rspo": 49536,
                "official_name": "Szko\u0142a Podstawowa w Potulicach",
                "name": "Szko\u0142a Podstawowa w Potulicach",
                "addr:postcode": "89-120",
                "addr:city": "Potulice",
                "addr:street": "Szkolna",
                "addr:housenumber": "4",
                "addr:city:simc": 92491,
                "addr:street:sym_ul": 21970,
                "phone": "+48 523860890",
                "email": "zespolszkolpotulice@poczta.onet.pl",
                "ref:regon": "000952798",
                "ref:vatin": "PL5581697731",
                "operator": "Gmina Nak\u0142o Nad Noteci\u0105",
                "operator:type": "government",
                "amenity": "school",
                "note": "Parent RSPO: 38902"
            }
        },
        {
            "id": 49538,
            "type": "Feature",
            "geometry": {
                "type": "Point",
                "coordinates": [
                    17.69133,
                    53.126200000000004
                ]
            },
            "properties": {
                "ref:rspo": 49538,
                "official_name": "Przedszkole w Potulicach",
                "name": "Przedszkole w Potulicach",
                "addr:postcode": "89-120",
                "addr:city": "Potulice",
                "addr:street": "Szkolna",
                "addr:housenumber": "4",
                "addr:city:simc": 92491,
                "addr:street:sym_ul": 21970,
                "phone": "+48 523860890",
                "email": "zespolszkolpotulice@poczta.onet.pl",
                "ref:regon": "340352980",
                "ref:vatin": "PL5581697731",
                "operator": "Gmina Nak\u0142o Nad Noteci\u0105",
                "operator:type": "government",
                "amenity": "kindergarten",
                "note": "Parent RSPO: 38902"
            }
        },
        {
            "id": 49169,
            "type": "Feature",
            "geometry": {
                "type": "Point",
                "coordinates": [
                    17.5886299,
                    53.13612
                ]
            },
            "properties": {
                "ref:rspo": 49169,
                "official_name": "Przedszkole Niepubliczne nr 6 \"S\u0142oneczko\" w Nakle Nad Noteci\u0105",
                "name": "Przedszkole Niepubliczne nr 6 \"S\u0142oneczko\" w Nakle Nad Noteci\u0105",
                "addr:postcode": "89-100",
                "addr:city": "Nak\u0142o nad Noteci\u0105",
                "addr:street": "S\u0105dowa",
                "addr:housenumber": "14",
                "addr:city:simc": 929463,
                "addr:street:sym_ul": 19581,
                "phone": "+48 603767068",
                "email": "naklosloneczko@gmail.com",
                "website": "http:\/\/www.przedszkole-sloneczko.pl",
                "ref:regon": "341341547",
                "ref:vatin": "PL5581830118",
                "operator": "Miros\u0142aw Skrzyniarz",
                "operator:type": "private",
                "amenity": "kindergarten"
            }
        },
        {
            "id": 64659,
            "type": "Feature",
            "geometry": {
                "type": "Point",
                "coordinates": [
                    17.59826,
                    53.1365
                ]
            },
            "properties": {
                "ref:rspo": 64659,
                "official_name": "Bydgoski Zak\u0142ad Doskonalenia Zawodowego O\u015brodek Kszta\u0142cenia Zawodowego w Nakle Nad Noteci\u0105",
                "name": "Bydgoski Zak\u0142ad Doskonalenia Zawodowego O\u015brodek Kszta\u0142cenia Zawodowego w Nakle Nad Noteci\u0105",
                "addr:postcode": "89-100",
                "addr:city": "Nak\u0142o nad Noteci\u0105",
                "addr:street": "Genera\u0142a Henryka D\u0105browskiego",
                "addr:housenumber": "18",
                "addr:city:simc": 929463,
                "addr:street:sym_ul": 3673,
                "phone": "+48 523851420",
                "ref:regon": "341345396",
                "operator": "Bydgoski Zak\u0142ad Doskonalenia Zawodowego Stowarzyszenie O\u015bwiatowo-Techniczne",
                "operator:type": "ngo",
                "fixme": "w zale\u017cno\u015bci od przedmiotu dzia\u0142alno\u015bci (np. amenity=training + training=*, amenity=dancing_school, amenity=language_school, amenity=music_school)"
            }
        },
        {
            "id": 4553,
            "type": "Feature",
            "geometry": {
                "type": "Point",
                "coordinates": [
                    17.59983,
                    53.13686
                ]
            },
            "properties": {
                "ref:rspo": 4553,
                "official_name": "Zesp\u00f3\u0142 Szk\u00f3\u0142 \u017beglugi \u015ar\u00f3dl\u0105dowej im. Kmdr. Boles\u0142awa Romanowskiego w Nakle Nad Noteci\u0105",
                "name": "Zesp\u00f3\u0142 Szk\u00f3\u0142 \u017beglugi \u015ar\u00f3dl\u0105dowej",
                "addr:postcode": "89-100",
                "addr:city": "Nak\u0142o nad Noteci\u0105",
                "addr:street": "Genera\u0142a Henryka D\u0105browskiego",
                "addr:housenumber": "4",
                "addr:city:simc": 929463,
                "addr:street:sym_ul": 3673,
                "phone": "+48 523852568",
                "email": "sekretariat@zegluganaklo.pl",
                "website": "http:\/\/www.zegluganaklo.pl",
                "ref:regon": "006225869",
                "ref:vatin": "PL5581381666",
                "operator": "Powiat Nakielski",
                "operator:type": "government",
                "landuse": "education",
                "fixme": "amenity=school, amenity=college albo landuse=education w zale\u017cno\u015bci od tego, jakie plac\u00f3wki wchodz\u0105 w sk\u0142ad zespo\u0142u. Sprawd\u017a, kiedy stosowa\u0107 amenity=* a kiedy landuse=education.",
                "note": "Children RSPO: 8006;59848"
            }
        },
        {
            "id": 8006,
            "type": "Feature",
            "geometry": {
                "type": "Point",
                "coordinates": [
                    17.59983,
                    53.136829999999996
                ]
            },
            "properties": {
                "isced:level": "3",
                "ref:rspo": 8006,
                "official_name": "Zesp\u00f3\u0142 Szk\u00f3\u0142 \u017beglugi \u015ar\u00f3dl\u0105dowej im. Kmdr. Boles\u0142awa Romanowskiego w Nakle Nad Noteci\u0105 -II Technikum",
                "name": "Zesp\u00f3\u0142 Szk\u00f3\u0142 \u017beglugi \u015ar\u00f3dl\u0105dowej",
                "addr:postcode": "89-100",
                "addr:city": "Nak\u0142o nad Noteci\u0105",
                "addr:street": "Genera\u0142a Henryka D\u0105browskiego",
                "addr:housenumber": "4",
                "addr:city:simc": 929463,
                "addr:street:sym_ul": 3673,
                "phone": "+48 523852568",
                "email": "sekretariat@zegluganaklo.pl",
                "website": "http:\/\/zegluganaklo.pl",
                "ref:regon": "341321728",
                "operator": "Powiat Nakielski",
                "operator:type": "government",
                "amenity": "school",
                "note": "Parent RSPO: 4553"
            }
        },
        {
            "id": 59848,
            "type": "Feature",
            "geometry": {
                "type": "Point",
                "coordinates": [
                    17.59983,
                    53.1368
                ]
            },
            "properties": {
                "isced:level": "3",
                "ref:rspo": 59848,
                "official_name": "Zesp\u00f3\u0142 Szk\u00f3\u0142 \u017beglugi \u015ar\u00f3dl\u0105dowej im. Kmdr. Boles\u0142awa Romanowskiego w Nakle Nad Noteci\u0105 - Bran\u017cowa Szko\u0142a I Stopnia nr 2",
                "name": "Zesp\u00f3\u0142 Szk\u00f3\u0142 \u017beglugi \u015ar\u00f3dl\u0105dowej",
                "addr:postcode": "89-100",
                "addr:city": "Nak\u0142o nad Noteci\u0105",
                "addr:street": "Genera\u0142a Henryka D\u0105browskiego",
                "addr:housenumber": "4",
                "addr:city:simc": 929463,
                "addr:street:sym_ul": 3673,
                "phone": "+48 523852568",
                "email": "sekretariat@zegluganaklo.pl",
                "website": "http:\/\/zegluganaklo.pl",
                "ref:regon": "093041647",
                "operator": "Powiat Nakielski",
                "operator:type": "government",
                "amenity": "school",
                "note": "Parent RSPO: 4553"
            }
        },
        {
            "id": 7116,
            "type": "Feature",
            "geometry": {
                "type": "Point",
                "coordinates": [
                    17.59394,
                    53.13711
                ]
            },
            "properties": {
                "ref:rspo": 7116,
                "official_name": "Powiatowa Poradnia Psychologiczno - Pedagogiczna w Nakle Nad Noteci\u0105",
                "name": "Powiatowa Poradnia Psychologiczno - Pedagogiczna w Nakle Nad Noteci\u0105",
                "addr:postcode": "89-100",
                "addr:city": "Nak\u0142o nad Noteci\u0105",
                "addr:street": "Genera\u0142a Henryka D\u0105browskiego",
                "addr:housenumber": "46",
                "addr:city:simc": 929463,
                "addr:street:sym_ul": 3673,
                "phone": "+48 523865150",
                "email": "kontakt@ppppnaklo.pl",
                "website": "http:\/\/www.ppppnaklo.pl",
                "ref:regon": "092522400",
                "ref:vatin": "PL5581521848",
                "operator": "Powiat Nakielski",
                "operator:type": "government",
                "healthcare": "counselling",
                "counselling_type": "education",
                "fixme": "w zale\u017cno\u015bci od przedmiotu dzia\u0142alno\u015bci (np. healthcare=counselling + counselling_type=education albo healthcare=psychotherapist)",
                "note": "Children RSPO: 120399"
            }
        },
        {
            "id": 6788,
            "type": "Feature",
            "geometry": {
                "type": "Point",
                "coordinates": [
                    17.59824,
                    53.1381299
                ]
            },
            "properties": {
                "isced:level": "3",
                "ref:rspo": 6788,
                "official_name": "I Liceum Og\u00f3lnokszta\u0142c\u0105ce im. Boles\u0142awa Krzywoustego w Nakle Nad Noteci\u0105",
                "name": "I Liceum Og\u00f3lnokszta\u0142c\u0105ce",
                "addr:postcode": "89-100",
                "addr:city": "Nak\u0142o nad Noteci\u0105",
                "addr:street": "Gimnazjalna",
                "addr:housenumber": "3",
                "addr:city:simc": 929463,
                "addr:street:sym_ul": 5527,
                "phone": "+48 523852523",
                "email": "sekretariat@krzywousty.edu.pl",
                "website": "http:\/\/www.krzywousty.edu.pl",
                "ref:regon": "000230970",
                "ref:vatin": "PL5581374494",
                "operator": "Powiat Nakielski",
                "operator:type": "government",
                "amenity": "school"
            }
        },
        {
            "id": 124151,
            "type": "Feature",
            "geometry": {
                "type": "Point",
                "coordinates": [
                    17.59893,
                    53.13833
                ]
            },
            "properties": {
                "ref:rspo": 124151,
                "official_name": "Training House",
                "name": "Training House",
                "addr:postcode": "89-100",
                "addr:city": "Nak\u0142o nad Noteci\u0105",
                "addr:street": "Gimnazjalna",
                "addr:housenumber": "4",
                "addr:city:simc": 929463,
                "addr:street:sym_ul": 5527,
                "phone": "+48 523852090",
                "ref:regon": "341612041",
                "operator": "Iwona Wencka - Stramowska",
                "operator:type": "private",
                "fixme": "w zale\u017cno\u015bci od przedmiotu dzia\u0142alno\u015bci (np. amenity=training + training=*, amenity=dancing_school, amenity=language_school, amenity=music_school)"
            }
        },
        {
            "id": 124153,
            "type": "Feature",
            "geometry": {
                "type": "Point",
                "coordinates": [
                    17.59893,
                    53.1383
                ]
            },
            "properties": {
                "ref:rspo": 124153,
                "official_name": "Diagnoserw",
                "name": "Diagnoserw",
                "addr:postcode": "89-100",
                "addr:city": "Nak\u0142o nad Noteci\u0105",
                "addr:street": "Gimnazjalna",
                "addr:housenumber": "4",
                "addr:city:simc": 929463,
                "addr:street:sym_ul": 5527,
                "phone": "+48 510733093",
                "ref:regon": "341612058",
                "operator": "Dawid Stramowski",
                "operator:type": "private",
                "fixme": "w zale\u017cno\u015bci od przedmiotu dzia\u0142alno\u015bci (np. amenity=training + training=*, amenity=dancing_school, amenity=language_school, amenity=music_school)"
            }
        },
        {
            "id": 127609,
            "type": "Feature",
            "geometry": {
                "type": "Point",
                "coordinates": [
                    17.59893,
                    53.138270000000006
                ]
            },
            "properties": {
                "ref:rspo": 127609,
                "official_name": "Training House - Niepubliczna Plac\u00f3wka Kszta\u0142cenia Ustawicznego",
                "name": "Training House - Niepubliczna Plac\u00f3wka Kszta\u0142cenia Ustawicznego",
                "addr:postcode": "89-100",
                "addr:city": "Nak\u0142o nad Noteci\u0105",
                "addr:street": "Gimnazjalna",
                "addr:housenumber": "4",
                "addr:city:simc": 929463,
                "addr:street:sym_ul": 5527,
                "phone": "+48 516096526",
                "ref:regon": "361771539",
                "operator": "Iwona Wencka - Stramowska",
                "operator:type": "private",
                "fixme": "w zale\u017cno\u015bci od przedmiotu dzia\u0142alno\u015bci (np. amenity=training + training=*, amenity=dancing_school, amenity=language_school, amenity=music_school)"
            }
        },
        {
            "id": 127610,
            "type": "Feature",
            "geometry": {
                "type": "Point",
                "coordinates": [
                    17.59893,
                    53.13824
                ]
            },
            "properties": {
                "ref:rspo": 127610,
                "official_name": "Diagnoserw - Niepubliczna Plac\u00f3wka Kszta\u0142cenia Ustawicznego",
                "name": "Diagnoserw - Niepubliczna Plac\u00f3wka Kszta\u0142cenia Ustawicznego",
                "addr:postcode": "89-100",
                "addr:city": "Nak\u0142o nad Noteci\u0105",
                "addr:street": "Gimnazjalna",
                "addr:housenumber": "4",
                "addr:city:simc": 929463,
                "addr:street:sym_ul": 5527,
                "phone": "+48 516096526",
                "ref:regon": "361771479",
                "operator": "Dawid Stramowski",
                "operator:type": "private",
                "fixme": "w zale\u017cno\u015bci od przedmiotu dzia\u0142alno\u015bci (np. amenity=training + training=*, amenity=dancing_school, amenity=language_school, amenity=music_school)"
            }
        },
        {
            "id": 40994,
            "type": "Feature",
            "geometry": {
                "type": "Point",
                "coordinates": [
                    17.60636,
                    53.13897
                ]
            },
            "properties": {
                "isced:level": "1;2",
                "ref:rspo": 40994,
                "official_name": "Szko\u0142a Podstawowa nr 2 im. Kardyna\u0142a Stefana Wyszy\u0144skiego Prymasa Tysi\u0105clecia w Nakle Nad Noteci\u0105",
                "name": "Szko\u0142a Podstawowa nr 2",
                "addr:postcode": "89-100",
                "addr:city": "Nak\u0142o nad Noteci\u0105",
                "addr:street": "Bydgoska",
                "addr:housenumber": "24",
                "addr:city:simc": 929463,
                "addr:street:sym_ul": 2498,
                "email": "sp2@gmina-naklo.pl",
                "website": "http:\/\/www.sp2.gmina-naklo.pl",
                "ref:regon": "000947219",
                "ref:vatin": "PL5581640895",
                "operator": "Gmina Nak\u0142o Nad Noteci\u0105",
                "operator:type": "government",
                "amenity": "school"
            }
        },
        {
            "id": 49064,
            "type": "Feature",
            "geometry": {
                "type": "Point",
                "coordinates": [
                    17.6041088,
                    53.1396006
                ]
            },
            "properties": {
                "ref:rspo": 49064,
                "official_name": "Przedszkole Niepubliczne Donald w Nakle Nad Noteci\u0105",
                "name": "Przedszkole Niepubliczne Donald w Nakle Nad Noteci\u0105",
                "addr:postcode": "89-100",
                "addr:city": "Nak\u0142o nad Noteci\u0105",
                "addr:street": "Ksi\u0119dza Piotra Skargi",
                "addr:housenumber": "9",
                "addr:city:simc": 929463,
                "addr:street:sym_ul": 20010,
                "phone": "+48 523852548",
                "email": "przedszkole-donald@o2.pl",
                "website": "http:\/\/www.p-donald.wikidot.com",
                "ref:regon": "341341501",
                "ref:vatin": "PL5581108640",
                "operator": "Gra\u017cyna Lewandowska",
                "operator:type": "private",
                "amenity": "kindergarten"
            }
        },
        {
            "id": 86161,
            "type": "Feature",
            "geometry": {
                "type": "Point",
                "coordinates": [
                    17.59699,
                    53.1397199
                ]
            },
            "properties": {
                "ref:rspo": 86161,
                "official_name": "Niepubliczne Centrum Kszta\u0142cenia Ustawicznego Kursal",
                "name": "Niepubliczne Centrum Kszta\u0142cenia Ustawicznego Kursal",
                "addr:postcode": "89-100",
                "addr:city": "Nak\u0142o nad Noteci\u0105",
                "addr:street": "Gimnazjalna",
                "addr:housenumber": "11",
                "addr:city:simc": 929463,
                "addr:street:sym_ul": 5527,
                "phone": "+48 523854442",
                "ref:regon": "341351853",
                "operator": "Marek Starczewski",
                "operator:type": "private",
                "fixme": "w zale\u017cno\u015bci od przedmiotu dzia\u0142alno\u015bci (np. amenity=training + training=*, amenity=dancing_school, amenity=language_school, amenity=music_school)"
            }
        },
        {
            "id": 6731,
            "type": "Feature",
            "geometry": {
                "type": "Point",
                "coordinates": [
                    17.58744,
                    53.13983
                ]
            },
            "properties": {
                "ref:rspo": 6731,
                "official_name": "Zesp\u00f3\u0142 Szk\u00f3\u0142 im. Stanis\u0142awa Staszica w Nakle Nad Noteci\u0105",
                "name": "Zesp\u00f3\u0142 Szk\u00f3\u0142",
                "addr:postcode": "89-100",
                "addr:city": "Nak\u0142o nad Noteci\u0105",
                "addr:street": "Ksi\u0119dza Stanis\u0142awa Staszica",
                "addr:housenumber": "18",
                "addr:city:simc": 929463,
                "addr:street:sym_ul": 21068,
                "phone": "+48 523852586",
                "email": "sekretariat@staszic.eu",
                "website": "http:\/\/staszic.info",
                "ref:regon": "000190704",
                "ref:vatin": "PL5581379698",
                "operator": "Powiat Nakielski",
                "operator:type": "government",
                "landuse": "education",
                "fixme": "amenity=school, amenity=college albo landuse=education w zale\u017cno\u015bci od tego, jakie plac\u00f3wki wchodz\u0105 w sk\u0142ad zespo\u0142u. Sprawd\u017a, kiedy stosowa\u0107 amenity=* a kiedy landuse=education.",
                "note": "Children RSPO: 8025;13148;13785"
            }
        },
        {
            "id": 8025,
            "type": "Feature",
            "geometry": {
                "type": "Point",
                "coordinates": [
                    17.58744,
                    53.1398
                ]
            },
            "properties": {
                "isced:level": "3",
                "ref:rspo": 8025,
                "official_name": "Zesp\u00f3\u0142 Szk\u00f3\u0142 im. Stanis\u0142awa Staszica w Nakle Nad Notecia - I Technikum",
                "name": "Zesp\u00f3\u0142 Szk\u00f3\u0142",
                "addr:postcode": "89-100",
                "addr:city": "Nak\u0142o nad Noteci\u0105",
                "addr:street": "Ksi\u0119dza Stanis\u0142awa Staszica",
                "addr:housenumber": "18",
                "addr:city:simc": 929463,
                "addr:street:sym_ul": 21068,
                "phone": "+48 523852586",
                "email": "sekretariat@staszic.eu",
                "website": "http:\/\/staszic.info",
                "ref:regon": "341321786",
                "operator": "Powiat Nakielski",
                "operator:type": "government",
                "amenity": "school",
                "note": "Parent RSPO: 6731"
            }
        },
        {
            "id": 13148,
            "type": "Feature",
            "geometry": {
                "type": "Point",
                "coordinates": [
                    17.58744,
                    53.139770000000006
                ]
            },
            "properties": {
                "isced:level": "3",
                "ref:rspo": 13148,
                "official_name": "Zesp\u00f3\u0142 Szk\u00f3\u0142 im. S. Staszica - II Liceum Og\u00f3lnokszta\u0142c\u0105ce",
                "name": "Zesp\u00f3\u0142 Szk\u00f3\u0142",
                "addr:postcode": "89-100",
                "addr:city": "Nak\u0142o nad Noteci\u0105",
                "addr:street": "Ksi\u0119dza Stanis\u0142awa Staszica",
                "addr:housenumber": "18",
                "addr:city:simc": 929463,
                "addr:street:sym_ul": 21068,
                "phone": "+48 523852586",
                "email": "sekretariat@staszic.eu",
                "website": "http:\/\/staszic.info",
                "ref:regon": "093063235",
                "operator": "Powiat Nakielski",
                "operator:type": "government",
                "amenity": "school",
                "note": "Parent RSPO: 6731"
            }
        },
        {
            "id": 13785,
            "type": "Feature",
            "geometry": {
                "type": "Point",
                "coordinates": [
                    17.58744,
                    53.13974
                ]
            },
            "properties": {
                "isced:level": "3",
                "ref:rspo": 13785,
                "official_name": "Zesp\u00f3\u0142 Szk\u00f3\u0142 im. S. Staszica w Nakle Nad Noteci\u0105 - Bran\u017cowa Szko\u0142a I Stopnia nr 1",
                "name": "Zesp\u00f3\u0142 Szk\u00f3\u0142",
                "addr:postcode": "89-100",
                "addr:city": "Nak\u0142o nad Noteci\u0105",
                "addr:street": "Ksi\u0119dza Stanis\u0142awa Staszica",
                "addr:housenumber": "18",
                "addr:city:simc": 929463,
                "addr:street:sym_ul": 21068,
                "phone": "+48 523852586",
                "email": "sekretariat@staszic.eu",
                "website": "http:\/\/staszic.info",
                "ref:regon": "340217816",
                "operator": "Powiat Nakielski",
                "operator:type": "government",
                "amenity": "school",
                "note": "Parent RSPO: 6731"
            }
        },
        {
            "id": 38995,
            "type": "Feature",
            "geometry": {
                "type": "Point",
                "coordinates": [
                    17.60856,
                    53.14076
                ]
            },
            "properties": {
                "ref:rspo": 38995,
                "official_name": "Niepubliczne Przedszkole \"Weso\u0142a Pi\u0105tka\" w Nakle Nad Noteci\u0105",
                "name": "Niepubliczne Przedszkole \"Weso\u0142a Pi\u0105tka\" w Nakle Nad Noteci\u0105",
                "addr:postcode": "89-100",
                "addr:city": "Nak\u0142o nad Noteci\u0105",
                "addr:street": "Bydgoska",
                "addr:housenumber": "12",
                "addr:city:simc": 929463,
                "addr:street:sym_ul": 2498,
                "phone": "+48 523852100",
                "email": "wpiatka@wp.pl",
                "website": "http:\/\/www.wesola-piatka.pl",
                "ref:regon": "341341122",
                "ref:vatin": "PL5581370361",
                "operator": "Spo\u0142eczne Towarzystwo O\u015bwiaty Przedszkolnej W Nakle N\/Noteci\u0105",
                "operator:type": "ngo",
                "amenity": "kindergarten"
            }
        },
        {
            "id": 123505,
            "type": "Feature",
            "geometry": {
                "type": "Point",
                "coordinates": [
                    17.60181,
                    53.14304
                ]
            },
            "properties": {
                "ref:rspo": 123505,
                "official_name": "Zesp\u00f3\u0142 Szkolno-Przedszkolny nr 3 w Nakle Nad Noteci\u0105",
                "name": "Zesp\u00f3\u0142 Szkolno-Przedszkolny nr 3 w Nakle Nad Noteci\u0105",
                "addr:postcode": "89-100",
                "addr:city": "Nak\u0142o nad Noteci\u0105",
                "addr:street": "Mrotecka",
                "addr:housenumber": "1 a",
                "addr:city:simc": 929463,
                "addr:street:sym_ul": 13429,
                "phone": "+48 785002890",
                "email": "zsp3@gmina-naklo.pl",
                "website": "http:\/\/zsp3.gmina-naklo.pl\/",
                "ref:regon": "341597790",
                "operator": "Gmina Nak\u0142o Nad Noteci\u0105",
                "operator:type": "government",
                "landuse": "education",
                "fixme": "amenity=school, amenity=college albo landuse=education w zale\u017cno\u015bci od tego, jakie plac\u00f3wki wchodz\u0105 w sk\u0142ad zespo\u0142u. Sprawd\u017a, kiedy stosowa\u0107 amenity=* a kiedy landuse=education.",
                "note": "Children RSPO: 43381;123639"
            }
        },
        {
            "id": 43381,
            "type": "Feature",
            "geometry": {
                "type": "Point",
                "coordinates": [
                    17.60181,
                    53.14301
                ]
            },
            "properties": {
                "isced:level": "1;2",
                "ref:rspo": 43381,
                "official_name": "Szko\u0142a Podstawowa nr 3 im. Konstytucji 3 Maja",
                "name": "Szko\u0142a Podstawowa nr 3",
                "addr:postcode": "89-100",
                "addr:city": "Nak\u0142o nad Noteci\u0105",
                "addr:street": "Mrotecka",
                "addr:housenumber": "1A",
                "addr:city:simc": 929463,
                "addr:street:sym_ul": 13429,
                "phone": "+48 785002890",
                "email": "zsp3@gmina-naklo.pl",
                "website": "http:\/\/www.zsp3.gmina-naklo.pl",
                "ref:regon": "000947225",
                "ref:vatin": "PL5581640872",
                "operator": "Gmina Nak\u0142o Nad Noteci\u0105",
                "operator:type": "government",
                "amenity": "school",
                "note": "Parent RSPO: 123505"
            }
        },
        {
            "id": 123639,
            "type": "Feature",
            "geometry": {
                "type": "Point",
                "coordinates": [
                    17.60181,
                    53.14298
                ]
            },
            "properties": {
                "ref:rspo": 123639,
                "official_name": "Przedszkole nr 1",
                "name": "Przedszkole nr 1",
                "addr:postcode": "89-100",
                "addr:city": "Nak\u0142o nad Noteci\u0105",
                "addr:street": "Mrotecka",
                "addr:housenumber": "1a",
                "addr:city:simc": 929463,
                "addr:street:sym_ul": 13429,
                "phone": "+48 785002890",
                "email": "zsp3@gmina-naklo.pl",
                "ref:regon": "341600405",
                "operator": "Gmina Nak\u0142o Nad Noteci\u0105",
                "operator:type": "government",
                "amenity": "kindergarten",
                "note": "Parent RSPO: 123505"
            }
        },
        {
            "id": 263258,
            "type": "Feature",
            "geometry": {
                "type": "Point",
                "coordinates": [
                    17.58664,
                    53.14456
                ]
            },
            "properties": {
                "ref:rspo": 263258,
                "official_name": "Zesp\u00f3\u0142 Szkolno - Przedszkolny nr 4 w Nakle Nad Noteci\u0105",
                "name": "Zesp\u00f3\u0142 Szkolno - Przedszkolny nr 4 w Nakle Nad Noteci\u0105",
                "addr:postcode": "89-100",
                "addr:city": "Nak\u0142o nad Noteci\u0105",
                "addr:street": "Osiedle W\u0142adys\u0142awa \u0141okietka",
                "addr:housenumber": "15",
                "addr:city:simc": 929463,
                "addr:street:sym_ul": 11651,
                "phone": "+48 523860885",
                "email": "zsp4@gmina-naklo.pl",
                "website": "http:\/\/www.sp4.gmina-naklo.pl",
                "ref:regon": "368176277",
                "ref:vatin": "PL5581866530",
                "operator": "Gmina Nak\u0142o Nad Noteci\u0105",
                "operator:type": "government",
                "landuse": "education",
                "fixme": "amenity=school, amenity=college albo landuse=education w zale\u017cno\u015bci od tego, jakie plac\u00f3wki wchodz\u0105 w sk\u0142ad zespo\u0142u. Sprawd\u017a, kiedy stosowa\u0107 amenity=* a kiedy landuse=education.",
                "note": "Children RSPO: 43871;82663"
            }
        },
        {
            "id": 267818,
            "type": "Feature",
            "geometry": {
                "type": "Point",
                "coordinates": [
                    17.58664,
                    53.144529999999996
                ]
            },
            "properties": {
                "ref:rspo": 267818,
                "official_name": "Szko\u0142a Muzyczna I Stopnia w Nakle Nad Noteci\u0105",
                "name": "Szko\u0142a Muzyczna I Stopnia w Nakle Nad Noteci\u0105",
                "addr:postcode": "89-100",
                "addr:city": "Nak\u0142o nad Noteci\u0105",
                "addr:street": "Osiedle W\u0142adys\u0142awa \u0141okietka",
                "addr:housenumber": "15",
                "addr:city:simc": 929463,
                "addr:street:sym_ul": 11651,
                "phone": "+48 885886876",
                "email": "psm@gmina-naklo.pl",
                "website": "http:\/\/www.szkolamuzyczna.naklo.pl",
                "ref:regon": "380676310",
                "ref:vatin": "PL5581869161",
                "operator": "Gmina Nak\u0142o Nad Noteci\u0105",
                "operator:type": "government",
                "amenity": "music_school"
            }
        },
        {
            "id": 82663,
            "type": "Feature",
            "geometry": {
                "type": "Point",
                "coordinates": [
                    17.58664,
                    53.1445
                ]
            },
            "properties": {
                "isced:level": "1;2",
                "ref:rspo": 82663,
                "official_name": "Szko\u0142a Podstawowa nr 4 im. Armii Krajowej",
                "name": "Szko\u0142a Podstawowa nr 4",
                "addr:postcode": "89-100",
                "addr:city": "Nak\u0142o nad Noteci\u0105",
                "addr:street": "Osiedle W\u0142adys\u0142awa \u0141okietka",
                "addr:housenumber": "15",
                "addr:city:simc": 929463,
                "addr:street:sym_ul": 11651,
                "phone": "+48 796302980",
                "email": "zsp4@gmina-naklo.pl",
                "website": "http:\/\/www.sp4.gmina-naklo.pl",
                "ref:regon": "001221832",
                "ref:vatin": "PL5581640843",
                "operator": "Gmina Nak\u0142o Nad Noteci\u0105",
                "operator:type": "government",
                "amenity": "school",
                "note": "Parent RSPO: 263258"
            }
        },
        {
            "id": 86058,
            "type": "Feature",
            "geometry": {
                "type": "Point",
                "coordinates": [
                    17.58514,
                    53.14494
                ]
            },
            "properties": {
                "ref:rspo": 86058,
                "official_name": "Centrum Edukacji Atut P\u00f3\u0142noc",
                "name": "Centrum Edukacji Atut P\u00f3\u0142noc",
                "addr:postcode": "89-100",
                "addr:city": "Nak\u0142o nad Noteci\u0105",
                "addr:street": "Osiedle W\u0142adys\u0142awa \u0141okietka",
                "addr:housenumber": "6",
                "addr:city:simc": 929463,
                "addr:street:sym_ul": 11651,
                "phone": "+48 523860898",
                "ref:regon": "341352019",
                "operator": "Jacek Maciejowski",
                "operator:type": "private",
                "fixme": "w zale\u017cno\u015bci od przedmiotu dzia\u0142alno\u015bci (np. amenity=training + training=*, amenity=dancing_school, amenity=language_school, amenity=music_school)"
            }
        },
        {
            "id": 43871,
            "type": "Feature",
            "geometry": {
                "type": "Point",
                "coordinates": [
                    17.58514,
                    53.144909999999996
                ]
            },
            "properties": {
                "ref:rspo": 43871,
                "official_name": "Przedszkole nr 3 w Nakle Nad Noteci\u0105",
                "name": "Przedszkole nr 3 w Nakle Nad Noteci\u0105",
                "addr:postcode": "89-100",
                "addr:city": "Nak\u0142o nad Noteci\u0105",
                "addr:street": "Osiedle W\u0142adys\u0142awa \u0141okietka",
                "addr:housenumber": "6",
                "addr:city:simc": 929463,
                "addr:street:sym_ul": 11651,
                "phone": "+48 523860898",
                "email": "przedszkole3@gmina-naklo.pl",
                "website": "http:\/\/www.przedszkole3.gmina-naklo.pl\/",
                "ref:regon": "093139412",
                "ref:vatin": "PL5581640642",
                "operator": "Gmina Nak\u0142o Nad Noteci\u0105",
                "operator:type": "government",
                "amenity": "kindergarten",
                "note": "Parent RSPO: 263258"
            }
        },
        {
            "id": 6758,
            "type": "Feature",
            "geometry": {
                "type": "Point",
                "coordinates": [
                    17.5246001,
                    53.146674
                ]
            },
            "properties": {
                "ref:rspo": 6758,
                "official_name": "Zesp\u00f3\u0142 Szk\u00f3\u0142 im. W\u0142adys\u0142awa \u0141okietka w Lubaszczu",
                "name": "Zesp\u00f3\u0142 Szk\u00f3\u0142",
                "addr:postcode": "89-100",
                "addr:place": "Lubaszcz",
                "addr:housenumber": "11A",
                "addr:city:simc": 92427,
                "phone": "+48 523860719",
                "email": "zsp@zsplubaszcz.com",
                "website": "http:\/\/www.zsplubaszcz.com",
                "ref:regon": "093057559",
                "ref:vatin": "PL5581697725",
                "operator": "Powiat Nakielski",
                "operator:type": "government",
                "landuse": "education",
                "fixme": "amenity=school, amenity=college albo landuse=education w zale\u017cno\u015bci od tego, jakie plac\u00f3wki wchodz\u0105 w sk\u0142ad zespo\u0142u. Sprawd\u017a, kiedy stosowa\u0107 amenity=* a kiedy landuse=education.",
                "note": "Children RSPO: 55812;126812;271941;275981"
            }
        },
        {
            "id": 55812,
            "type": "Feature",
            "geometry": {
                "type": "Point",
                "coordinates": [
                    17.5246001,
                    53.146643999999995
                ]
            },
            "properties": {
                "isced:level": "3",
                "ref:rspo": 55812,
                "official_name": "Zesp\u00f3\u0142 Szk\u00f3\u0142 im. W\u0142adys\u0142awa \u0141okietka w Lubaszczu - Bran\u017cowa Szko\u0142a I Stopnia",
                "name": "Zesp\u00f3\u0142 Szk\u00f3\u0142",
                "addr:postcode": "89-100",
                "addr:place": "Lubaszcz",
                "addr:housenumber": "11a",
                "addr:city:simc": 92427,
                "phone": "+48 523860719",
                "email": "zsp@zsplubaszcz.com",
                "website": "http:\/\/www.zsplubaszcz.com",
                "ref:regon": "000241548",
                "operator": "Powiat Nakielski",
                "operator:type": "government",
                "amenity": "school",
                "note": "Parent RSPO: 6758"
            }
        },
        {
            "id": 126812,
            "type": "Feature",
            "geometry": {
                "type": "Point",
                "coordinates": [
                    17.5246001,
                    53.146614
                ]
            },
            "properties": {
                "ref:rspo": 126812,
                "official_name": "Centrum Kszta\u0142cenia Ustawicznego w Lubaszczu",
                "name": "Centrum Kszta\u0142cenia Ustawicznego w Lubaszczu",
                "addr:postcode": "89-100",
                "addr:place": "Lubaszcz",
                "addr:housenumber": "11 A",
                "addr:city:simc": 92427,
                "phone": "+48 523860719",
                "email": "zsp@zsplubaszcz.com",
                "ref:regon": "360768104",
                "operator": "Powiat Nakielski",
                "operator:type": "government",
                "amenity": "school",
                "fixme": "amenity=school lub amenity=college",
                "note": "Children RSPO: 127562Parent RSPO: 6758"
            }
        },
        {
            "id": 271941,
            "type": "Feature",
            "geometry": {
                "type": "Point",
                "coordinates": [
                    17.5246001,
                    53.146584
                ]
            },
            "properties": {
                "isced:level": "3",
                "ref:rspo": 271941,
                "official_name": "Zesp\u00f3\u0142 Szk\u00f3\u0142 im. W\u0142adys\u0142awa \u0141okietka w Lubaszczu - Technikum",
                "name": "Zesp\u00f3\u0142 Szk\u00f3\u0142",
                "addr:postcode": "89-100",
                "addr:place": "Lubaszcz",
                "addr:housenumber": "11A",
                "addr:city:simc": 92427,
                "phone": "+48 523860719",
                "email": "zsp@zsplubaszcz.com",
                "website": "http:\/\/www.zsplubaszcz.com",
                "ref:regon": "383818264",
                "operator": "Powiat Nakielski",
                "operator:type": "government",
                "amenity": "school",
                "note": "Parent RSPO: 6758"
            }
        },
        {
            "id": 275981,
            "type": "Feature",
            "geometry": {
                "type": "Point",
                "coordinates": [
                    17.5246001,
                    53.146553999999995
                ]
            },
            "properties": {
                "isced:level": "3",
                "ref:rspo": 275981,
                "official_name": "Zesp\u00f3\u0142 Szk\u00f3\u0142 im. W\u0142adys\u0142awa \u0141okietka w Lubaszczu - Bran\u017cowa Szko\u0142a II Stopnia w Lubaszczu",
                "name": "Zesp\u00f3\u0142 Szk\u00f3\u0142",
                "addr:postcode": "89-100",
                "addr:place": "Lubaszcz",
                "addr:housenumber": "11a",
                "addr:city:simc": 92427,
                "phone": "+48 523860719",
                "email": "zsp@zsplubaszcz.com",
                "website": "http:\/\/www.zsplubaszcz.com\/",
                "ref:regon": "386968975",
                "operator": "Powiat Nakielski",
                "operator:type": "government",
                "amenity": "school",
                "note": "Parent RSPO: 6758"
            }
        },
        {
            "id": 127562,
            "type": "Feature",
            "geometry": {
                "type": "Point",
                "coordinates": [
                    17.5246001,
                    53.146524
                ]
            },
            "properties": {
                "isced:level": "3",
                "ref:rspo": 127562,
                "official_name": "Liceum Og\u00f3lnokszta\u0142c\u0105ce dla Doros\u0142ych w Lubaszczu",
                "name": "Liceum Og\u00f3lnokszta\u0142c\u0105ce dla Doros\u0142ych w Lubaszczu",
                "addr:postcode": "89-100",
                "addr:place": "Lubaszcz",
                "addr:housenumber": "11 A",
                "addr:city:simc": 92427,
                "phone": "+48 523860719",
                "email": "zsp@zsplubaszcz.com",
                "website": "http:\/\/www.zsplubaszcz.com",
                "ref:regon": "361694052",
                "operator": "Powiat Nakielski",
                "operator:type": "government",
                "amenity": "school",
                "note": "Parent RSPO: 126812"
            }
        },
        {
            "id": 47125,
            "type": "Feature",
            "geometry": {
                "type": "Point",
                "coordinates": [
                    17.5486248,
                    53.1559539
                ]
            },
            "properties": {
                "isced:level": "1;2",
                "ref:rspo": 47125,
                "official_name": "Niepubliczna Szko\u0142a Podstawowa w Olszewce im. J\u00f3zefa Blechacza",
                "name": "Niepubliczna Szko\u0142a Podstawowa w Olszewce",
                "addr:postcode": "89-100",
                "addr:place": "Olszewka",
                "addr:housenumber": "22",
                "addr:city:simc": 92462,
                "phone": "+48 502073860",
                "email": "nspolszewka@wp.pl",
                "website": "http:\/\/www.olszewka.cna.org.pl",
                "ref:regon": "341344511",
                "ref:vatin": "PL5581814272",
                "operator": "Stowarzyszenie Na Rzecz Rozwoju Olszewki I Lubaszcza",
                "operator:type": "ngo",
                "amenity": "school"
            }
        },
        {
            "id": 50463,
            "type": "Feature",
            "geometry": {
                "type": "Point",
                "coordinates": [
                    17.5486248,
                    53.1559239
                ]
            },
            "properties": {
                "ref:rspo": 50463,
                "official_name": "Punkt Przedszkolny Je\u017cyki w Olszewce",
                "name": "Punkt Przedszkolny Je\u017cyki w Olszewce",
                "addr:postcode": "89-100",
                "addr:place": "Olszewka",
                "addr:housenumber": "22",
                "addr:city:simc": 92462,
                "phone": "+48 502073860",
                "email": "nspolszewka@wp.pl",
                "ref:regon": "341341808",
                "operator": "Stowarzyszenie Na Rzecz Rozwoju Olszewki I Lubaszcza",
                "operator:type": "ngo",
                "amenity": "kindergarten"
            }
        },
        {
            "id": 47122,
            "type": "Feature",
            "geometry": {
                "type": "Point",
                "coordinates": [
                    17.6324599,
                    53.15851
                ]
            },
            "properties": {
                "isced:level": "1;2",
                "ref:rspo": 47122,
                "official_name": "Niepubliczna Szko\u0142a Podstawowa w Trzeciewnicy im. Powsta\u0144c\u00f3w Wielkopolskich",
                "name": "Niepubliczna Szko\u0142a Podstawowa w Trzeciewnicy",
                "addr:postcode": "89-100",
                "addr:city": "Trzeciewnica",
                "addr:street": "Powsta\u0144c\u00f3w Wielkopolskich",
                "addr:housenumber": "25",
                "addr:city:simc": 92580,
                "addr:street:sym_ul": 17377,
                "phone": "+48 577820157",
                "email": "sptrzeciewnica@poczta.fm",
                "website": "http:\/\/www.nsptrzeciewnica.gmina-naklo.pl",
                "ref:regon": "341344505",
                "ref:vatin": "PL5581811581",
                "operator": "Stowarzyszenie Na Rzecz Rozwoju Wsi Trzeciewnica I Suchary",
                "operator:type": "ngo",
                "amenity": "school"
            }
        },
        {
            "id": 133287,
            "type": "Feature",
            "geometry": {
                "type": "Point",
                "coordinates": [
                    17.6324599,
                    53.15848
                ]
            },
            "properties": {
                "ref:rspo": 133287,
                "official_name": "Punkt Przedszkolny Iskierki",
                "name": "Punkt Przedszkolny Iskierki",
                "addr:postcode": "89-100",
                "addr:city": "Trzeciewnica",
                "addr:street": "Powsta\u0144c\u00f3w Wielkopolskich",
                "addr:housenumber": "25",
                "addr:city:simc": 92580,
                "addr:street:sym_ul": 17377,
                "phone": "+48 577820157",
                "email": "sptrzeciewnica@poczta.fm",
                "ref:regon": "366928371",
                "operator": "Stowarzyszenie Na Rzecz Rozwoju Wsi Trzeciewnica I Suchary",
                "operator:type": "ngo",
                "amenity": "kindergarten"
            }
        },
        {
            "id": 43870,
            "type": "Feature",
            "geometry": {
                "type": "Point",
                "coordinates": [
                    17.6408099,
                    53.15986
                ]
            },
            "properties": {
                "ref:rspo": 43870,
                "official_name": "Przedszkole nr 2 w Nakle Nad Noteci\u0105",
                "name": "Przedszkole nr 2 w Nakle Nad Noteci\u0105",
                "addr:postcode": "89-100",
                "addr:city": "Nak\u0142o nad Noteci\u0105",
                "addr:street": "Powsta\u0144c\u00f3w Wielkopolskich",
                "addr:housenumber": "11",
                "addr:city:simc": 929463,
                "addr:street:sym_ul": 17377,
                "phone": "+48 523860897",
                "email": "przedszkole2@gmina-naklo.pl",
                "website": "http:\/\/przedszkole2.gmina-naklo.pl",
                "ref:regon": "093139435",
                "ref:vatin": "PL5581640659",
                "operator": "Gmina Nak\u0142o Nad Noteci\u0105",
                "operator:type": "government",
                "amenity": "kindergarten"
            }
        },
        {
            "id": 263282,
            "type": "Feature",
            "geometry": {
                "type": "Point",
                "coordinates": [
                    17.703,
                    53.16282
                ]
            },
            "properties": {
                "ref:rspo": 263282,
                "official_name": "Zesp\u00f3\u0142 Szkolno -Przedszkolny w \u015alesinie",
                "name": "Zesp\u00f3\u0142 Szkolno -Przedszkolny w \u015alesinie",
                "addr:postcode": "89-121",
                "addr:city": "\u015alesin",
                "addr:street": "Dworcowa",
                "addr:housenumber": "9",
                "addr:city:simc": 92539,
                "addr:street:sym_ul": 4434,
                "phone": "+48 523857011",
                "email": "zspslesin@gmina-naklo.pl",
                "website": "http:\/\/www.zsslesin.gmina-naklo.pl\/",
                "ref:regon": "368179904",
                "ref:vatin": "PL5581866553",
                "operator": "Gmina Nak\u0142o Nad Noteci\u0105",
                "operator:type": "government",
                "landuse": "education",
                "fixme": "amenity=school, amenity=college albo landuse=education w zale\u017cno\u015bci od tego, jakie plac\u00f3wki wchodz\u0105 w sk\u0142ad zespo\u0142u. Sprawd\u017a, kiedy stosowa\u0107 amenity=* a kiedy landuse=education.",
                "note": "Children RSPO: 58266;63391"
            }
        },
        {
            "id": 63391,
            "type": "Feature",
            "geometry": {
                "type": "Point",
                "coordinates": [
                    17.703,
                    53.16279
                ]
            },
            "properties": {
                "isced:level": "1;2",
                "ref:rspo": 63391,
                "official_name": "Szko\u0142a Podstawowa im. Kpt. Wiktora Rossy w \u015alesinie",
                "name": "Szko\u0142a Podstawowa",
                "addr:postcode": "89-121",
                "addr:city": "\u015alesin",
                "addr:street": "Dworcowa",
                "addr:housenumber": "9",
                "addr:city:simc": 92539,
                "addr:street:sym_ul": 4434,
                "phone": "+48 523857011",
                "email": "zsslesin@gmina-naklo.pl",
                "website": "http:\/\/zspslesin.gmina-naklo.pl",
                "ref:regon": "000273502",
                "ref:vatin": "PL5581640926",
                "operator": "Gmina Nak\u0142o Nad Noteci\u0105",
                "operator:type": "government",
                "amenity": "school",
                "note": "Parent RSPO: 263282"
            }
        },
        {
            "id": 113889,
            "type": "Feature",
            "geometry": {
                "type": "Point",
                "coordinates": [
                    17.70224,
                    53.16373
                ]
            },
            "properties": {
                "ref:rspo": 113889,
                "official_name": "Centrum Rozwoju Dziecka \"Reksio\" A. Olender, A. Bembnista S.c.",
                "name": "Centrum Rozwoju Dziecka \"Reksio\" A. Olender, A. Bembnista S.c.",
                "addr:postcode": "89-100",
                "addr:city": "Nak\u0142o nad Noteci\u0105",
                "addr:street": "Ko\u015bcielna",
                "addr:housenumber": "8d",
                "addr:city:simc": 929463,
                "addr:street:sym_ul": 9546,
                "phone": "+48 725373607",
                "email": "crd.reksio@o2.pl",
                "ref:regon": "341417701",
                "ref:vatin": "PL5581857778",
                "operator": "Aleksandra Olender",
                "operator:type": "private",
                "amenity": "kindergarten"
            }
        },
        {
            "id": 48827,
            "type": "Feature",
            "geometry": {
                "type": "Point",
                "coordinates": [
                    17.7022,
                    53.16398
                ]
            },
            "properties": {
                "ref:rspo": 48827,
                "official_name": "Niepubliczne Przedszkole Katolickie Przy Parafii \u015aw. Wawrzy\u0144ca w Nakle Nad Noteci\u0105",
                "name": "Niepubliczne Przedszkole Katolickie Przy Parafii \u015aw. Wawrzy\u0144ca w Nakle Nad Noteci\u0105",
                "addr:postcode": "89-100",
                "addr:city": "Nak\u0142o nad Noteci\u0105",
                "addr:street": "Ko\u015bcielna",
                "addr:housenumber": "6",
                "addr:city:simc": 929463,
                "addr:street:sym_ul": 9546,
                "phone": "+48 523855003",
                "email": "przedszkole.katolickie.naklo@gmail.com",
                "website": "http:\/\/www.katolickie-przedszkole.pl",
                "ref:regon": "341344528",
                "ref:vatin": "PL5581528129",
                "operator": "Parafia Rzym.-Kat. Pw. \u015awi\u0119tego Wawrzy\u0144ca",
                "operator:type": "religious",
                "amenity": "kindergarten"
            }
        },
        {
            "id": 58266,
            "type": "Feature",
            "geometry": {
                "type": "Point",
                "coordinates": [
                    17.7078,
                    53.16565
                ]
            },
            "properties": {
                "ref:rspo": 58266,
                "official_name": "Przedszkole w \u015alesinie",
                "name": "Przedszkole w \u015alesinie",
                "addr:postcode": "89-121",
                "addr:city": "\u015alesin",
                "addr:street": "Kazi\u0144ska",
                "addr:housenumber": "1",
                "addr:city:simc": 92539,
                "addr:street:sym_ul": 8270,
                "phone": "+48 523857086",
                "email": "przedszkoleslesin@gmina-naklo.pl",
                "ref:regon": "091592461",
                "ref:vatin": "PL5581640613",
                "operator": "Gmina Nak\u0142o Nad Noteci\u0105",
                "operator:type": "government",
                "amenity": "kindergarten",
                "note": "Parent RSPO: 263282"
            }
        },
        {
            "id": 7024,
            "type": "Feature",
            "geometry": {
                "type": "Point",
                "coordinates": [
                    17.6100453,
                    53.1682681
                ]
            },
            "properties": {
                "ref:rspo": 7024,
                "official_name": "Zesp\u00f3\u0142 Szk\u00f3\u0142 Specjalnych w Karnowie",
                "name": "Zesp\u00f3\u0142 Szk\u00f3\u0142 Specjalnych w Karnowie",
                "addr:postcode": "89-100",
                "addr:place": "Karnowo",
                "addr:housenumber": "56",
                "addr:city:simc": 92396,
                "phone": "+48 523852262",
                "email": "karnowo.szkola@wp.pl",
                "website": "http:\/\/zsskarnowo.edupage.org",
                "ref:regon": "092517639",
                "ref:vatin": "PL5581626168",
                "operator": "Powiat Nakielski",
                "operator:type": "government",
                "landuse": "education",
                "fixme": "amenity=school, amenity=college albo landuse=education w zale\u017cno\u015bci od tego, jakie plac\u00f3wki wchodz\u0105 w sk\u0142ad zespo\u0142u. Sprawd\u017a, kiedy stosowa\u0107 amenity=* a kiedy landuse=education.",
                "note": "Children RSPO: 47172;47175;48551"
            }
        },
        {
            "id": 47172,
            "type": "Feature",
            "geometry": {
                "type": "Point",
                "coordinates": [
                    17.6100453,
                    53.168238099999996
                ]
            },
            "properties": {
                "ref:rspo": 47172,
                "official_name": "Zesp\u00f3\u0142 Szk\u00f3\u0142 Specjalnych w Karnowie - Szko\u0142a Specjalna Przysposabiaj\u0105ca do Pracy",
                "name": "Zesp\u00f3\u0142 Szk\u00f3\u0142 Specjalnych w Karnowie - Szko\u0142a Specjalna Przysposabiaj\u0105ca do Pracy",
                "addr:postcode": "89-100",
                "addr:place": "Karnowo",
                "addr:housenumber": "56",
                "addr:city:simc": 92396,
                "phone": "+48 523852262",
                "email": "karnowo.szkola@wp.pl",
                "website": "http:\/\/zsskarnowo.edupage.org",
                "ref:regon": "340058482",
                "operator": "Powiat Nakielski",
                "operator:type": "government",
                "amenity": "school",
                "note": "Parent RSPO: 7024"
            }
        },
        {
            "id": 47175,
            "type": "Feature",
            "geometry": {
                "type": "Point",
                "coordinates": [
                    17.6100453,
                    53.1682081
                ]
            },
            "properties": {
                "isced:level": "1;2",
                "ref:rspo": 47175,
                "official_name": "Zesp\u00f3\u0142 Szk\u00f3\u0142 Specjalnych w Karnowie - Szko\u0142a Podstawowa Specjalna",
                "name": "Zesp\u00f3\u0142 Szk\u00f3\u0142 Specjalnych w Karnowie - Szko\u0142a Podstawowa Specjalna",
                "addr:postcode": "89-100",
                "addr:place": "Karnowo",
                "addr:housenumber": "56",
                "addr:city:simc": 92396,
                "phone": "+48 523852262",
                "email": "karnowo.szkola@wp.pl",
                "website": "http:\/\/zsskarnowo.edupage.org",
                "ref:regon": "001237738",
                "operator": "Powiat Nakielski",
                "operator:type": "government",
                "amenity": "school",
                "note": "Parent RSPO: 7024"
            }
        },
        {
            "id": 48551,
            "type": "Feature",
            "geometry": {
                "type": "Point",
                "coordinates": [
                    17.6100453,
                    53.1681781
                ]
            },
            "properties": {
                "isced:level": "3",
                "ref:rspo": 48551,
                "official_name": "Zesp\u00f3\u0142 Szk\u00f3\u0142 Specjalnych w Karnowie - Bran\u017cowa Szko\u0142a Specjalna I Stopnia",
                "name": "Zesp\u00f3\u0142 Szk\u00f3\u0142 Specjalnych w Karnowie - Bran\u017cowa Szko\u0142a Specjalna I Stopnia",
                "addr:postcode": "89-100",
                "addr:place": "Karnowo",
                "addr:housenumber": "56",
                "addr:city:simc": 92396,
                "phone": "+48 523852262",
                "email": "karnowo.szkola@wp.pl",
                "website": "http:\/\/zsskarnowo.edupage.org",
                "ref:regon": "340212500",
                "operator": "Powiat Nakielski",
                "operator:type": "government",
                "amenity": "school",
                "note": "Parent RSPO: 7024"
            }
        }
    ]
}