{
    "type": "FeatureCollection",
    "features": [
        {
            "id": 81004,
            "type": "Feature",
            "geometry": {
                "type": "Point",
                "coordinates": [
                    17.5222309,
                    52.9454969
                ]
            },
            "properties": {
                "isced:level": "1;2",
                "ref:rspo": 81004,
                "official_name": "Szko\u0142a Podstawowa im.ppor. Marka Uleryka w Dziewierzewie",
                "name": "Szko\u0142a Podstawowa im.ppor. Marka Uleryka w Dziewierzewie",
                "addr:postcode": "89-240",
                "addr:place": "Dziewierzewo",
                "addr:housenumber": "34",
                "addr:city:simc": 88029,
                "phone": "+48 523841015",
                "email": "zs.dziewierzewo@wp.pl",
                "website": "http:\/\/www.dziewierzewo.edupage.org",
                "ref:regon": "001155733",
                "ref:vatin": "PL5581636066",
                "operator": "Gmina Kcynia",
                "operator:type": "government",
                "amenity": "school"
            }
        },
        {
            "id": 69425,
            "type": "Feature",
            "geometry": {
                "type": "Point",
                "coordinates": [
                    17.4628,
                    52.972136
                ]
            },
            "properties": {
                "isced:level": "1;2",
                "ref:rspo": 69425,
                "official_name": "Szko\u0142a Podstawowa im. Or\u0142a Bia\u0142ego w Palmierowie",
                "name": "Szko\u0142a Podstawowa",
                "addr:postcode": "89-240",
                "addr:place": "Palmierowo",
                "addr:housenumber": "7A",
                "addr:city:simc": 88271,
                "phone": "+48 525893750",
                "email": "sppalmierowo@wp.pl",
                "website": "http:\/\/www.sppalmierowo.edupage.org",
                "ref:regon": "001155785",
                "ref:vatin": "PL5581636089",
                "operator": "Gmina Kcynia",
                "operator:type": "government",
                "amenity": "school"
            }
        },
        {
            "id": 122463,
            "type": "Feature",
            "geometry": {
                "type": "Point",
                "coordinates": [
                    17.5724401,
                    52.9898304
                ]
            },
            "properties": {
                "isced:level": "1;2",
                "ref:rspo": 122463,
                "official_name": "Szko\u0142a Podstawowa w Mycielewie",
                "name": "Szko\u0142a Podstawowa w Mycielewie",
                "addr:postcode": "89-240",
                "addr:place": "Mycielewo",
                "addr:housenumber": "6",
                "addr:city:simc": 88489,
                "phone": "+48 523848405",
                "email": "sekretariat_mycielewo@o2.pl",
                "website": "http:\/\/www.mycielewo.interman.com.pl",
                "ref:regon": "001155727",
                "ref:vatin": "PL5581635960",
                "operator": "Gmina Kcynia",
                "operator:type": "government",
                "amenity": "school"
            }
        },
        {
            "id": 268387,
            "type": "Feature",
            "geometry": {
                "type": "Point",
                "coordinates": [
                    17.4843699,
                    52.99009
                ]
            },
            "properties": {
                "ref:rspo": 268387,
                "official_name": "Przedszkole Niepubliczne \"Mini Akademia\"",
                "name": "Przedszkole Niepubliczne \"Mini Akademia\"",
                "addr:postcode": "89-240",
                "addr:city": "Kcynia",
                "addr:street": "Libelta",
                "addr:housenumber": "15",
                "addr:city:simc": 929233,
                "addr:street:sym_ul": 11020,
                "phone": "+48 735454322",
                "email": "biuro@przedszkole-kcynia.pl",
                "website": "http:\/\/www.przedszkole-kcynia.pl",
                "ref:regon": "381134082",
                "operator": "Barbara Szurik",
                "operator:type": "private",
                "amenity": "kindergarten"
            }
        },
        {
            "id": 81001,
            "type": "Feature",
            "geometry": {
                "type": "Point",
                "coordinates": [
                    17.49029,
                    52.99047
                ]
            },
            "properties": {
                "ref:rspo": 81001,
                "official_name": "Przedszkole Miejskie im. Ziemi Pa\u0142uckiej w Kcyni",
                "name": "Przedszkole Miejskie",
                "addr:postcode": "89-240",
                "addr:city": "Kcynia",
                "addr:street": "Libelta",
                "addr:housenumber": "1",
                "addr:city:simc": 929233,
                "addr:street:sym_ul": 11020,
                "phone": "+48 525893741",
                "email": "przedszkoleks@op.pl",
                "website": "http:\/\/www.przedszkolekcynia.edupage.org",
                "ref:regon": "000263260",
                "ref:vatin": "PL5581637249",
                "operator": "Gmina Kcynia",
                "operator:type": "government",
                "amenity": "kindergarten"
            }
        },
        {
            "id": 7034,
            "type": "Feature",
            "geometry": {
                "type": "Point",
                "coordinates": [
                    17.48998,
                    52.992
                ]
            },
            "properties": {
                "ref:rspo": 7034,
                "official_name": "Zesp\u00f3\u0142 Szk\u00f3\u0142 Specjalnych im. Janusza Korczaka w Kcyni",
                "name": "Zesp\u00f3\u0142 Szk\u00f3\u0142 Specjalnych",
                "addr:postcode": "89-240",
                "addr:city": "Kcynia",
                "addr:street": "Rynek",
                "addr:housenumber": "32",
                "addr:city:simc": 929233,
                "addr:street:sym_ul": 19252,
                "phone": "+48 525894380",
                "email": "zsskcynia@op.pl",
                "website": "http:\/\/www.zsskcynia.pl",
                "ref:regon": "092550329",
                "ref:vatin": "PL5581650994",
                "operator": "Powiat Nakielski",
                "operator:type": "government",
                "landuse": "education",
                "fixme": "amenity=school, amenity=college albo landuse=education w zale\u017cno\u015bci od tego, jakie plac\u00f3wki wchodz\u0105 w sk\u0142ad zespo\u0142u. Sprawd\u017a, kiedy stosowa\u0107 amenity=* a kiedy landuse=education.",
                "note": "Children RSPO: 48552;48703;48773"
            }
        },
        {
            "id": 48552,
            "type": "Feature",
            "geometry": {
                "type": "Point",
                "coordinates": [
                    17.48998,
                    52.991969999999995
                ]
            },
            "properties": {
                "isced:level": "1;2",
                "ref:rspo": 48552,
                "official_name": "Zesp\u00f3\u0142 Szk\u00f3\u0142 Specjalnych im. Janusza Korczaka w Kcyni - Szko\u0142a Podstawowa Specjalna",
                "name": "Zesp\u00f3\u0142 Szk\u00f3\u0142 Specjalnych",
                "addr:postcode": "89-240",
                "addr:city": "Kcynia",
                "addr:street": "Rynek",
                "addr:housenumber": "32",
                "addr:city:simc": 929233,
                "addr:street:sym_ul": 19252,
                "phone": "+48 525894380",
                "email": "zsskcynia@op.pl",
                "ref:regon": "092551688",
                "operator": "Powiat Nakielski",
                "operator:type": "government",
                "amenity": "school",
                "note": "Parent RSPO: 7034"
            }
        },
        {
            "id": 48703,
            "type": "Feature",
            "geometry": {
                "type": "Point",
                "coordinates": [
                    17.48998,
                    52.99194
                ]
            },
            "properties": {
                "ref:rspo": 48703,
                "official_name": "Zesp\u00f3\u0142 Szk\u00f3\u0142 Specjalnych im. Janusza Korczaka w Kcyni - Szko\u0142a Specjalna Przysposabiaj\u0105ca do Pracy",
                "name": "Zesp\u00f3\u0142 Szk\u00f3\u0142 Specjalnych",
                "addr:postcode": "89-240",
                "addr:city": "Kcynia",
                "addr:street": "Rynek",
                "addr:housenumber": "32",
                "addr:city:simc": 929233,
                "addr:street:sym_ul": 19252,
                "phone": "+48 525894380",
                "email": "zsskcynia@op.pl",
                "website": "http:\/\/www.zsskcynia.pl",
                "ref:regon": "340064086",
                "operator": "Powiat Nakielski",
                "operator:type": "government",
                "amenity": "school",
                "note": "Parent RSPO: 7034"
            }
        },
        {
            "id": 48773,
            "type": "Feature",
            "geometry": {
                "type": "Point",
                "coordinates": [
                    17.48998,
                    52.99191
                ]
            },
            "properties": {
                "isced:level": "3",
                "ref:rspo": 48773,
                "official_name": "Zesp\u00f3\u0142 Szk\u00f3\u0142 Specjalnych im. Janusza Korczaka w Kcyni - Bran\u017cowa Szko\u0142a Specjalna I Stopnia nr 1",
                "name": "Zesp\u00f3\u0142 Szk\u00f3\u0142 Specjalnych",
                "addr:postcode": "89-240",
                "addr:city": "Kcynia",
                "addr:street": "Rynek",
                "addr:housenumber": "32",
                "addr:city:simc": 929233,
                "addr:street:sym_ul": 19252,
                "phone": "+48 525894380",
                "email": "zsskcynia@op.pl",
                "ref:regon": "093142756",
                "operator": "Powiat Nakielski",
                "operator:type": "government",
                "amenity": "school",
                "note": "Parent RSPO: 7034"
            }
        },
        {
            "id": 105084,
            "type": "Feature",
            "geometry": {
                "type": "Point",
                "coordinates": [
                    17.4889699,
                    52.99274
                ]
            },
            "properties": {
                "ref:rspo": 105084,
                "official_name": "Zak\u0142ad Poprawczy w Kcyni",
                "name": "Zak\u0142ad Poprawczy w Kcyni",
                "addr:postcode": "89-240",
                "addr:city": "Kcynia",
                "addr:street": "Jana Kantego",
                "addr:housenumber": "1",
                "addr:city:simc": 929233,
                "addr:street:sym_ul": 7959,
                "phone": "+48 525880700",
                "email": "sekretariat@kcynia.zp.gov.pl",
                "website": "http:\/\/www.kcynia.zp.gov.pl",
                "ref:regon": "000321721",
                "operator": "Ministerstwo Sprawiedliwo\u015bci",
                "operator:type": "public",
                "note": "Children RSPO: 125643;125645"
            }
        },
        {
            "id": 125643,
            "type": "Feature",
            "geometry": {
                "type": "Point",
                "coordinates": [
                    17.4889699,
                    52.992709999999995
                ]
            },
            "properties": {
                "isced:level": "1;2",
                "ref:rspo": 125643,
                "official_name": "Szko\u0142a Podstawowa nr 3 w Zak\u0142adzie Poprawczym w Kcyni",
                "name": "Szko\u0142a Podstawowa nr 3 w Zak\u0142adzie Poprawczym w Kcyni",
                "addr:postcode": "89-240",
                "addr:city": "Kcynia",
                "addr:street": "Jana Kantego",
                "addr:housenumber": "1",
                "addr:city:simc": 929233,
                "addr:street:sym_ul": 7959,
                "phone": "+48 258880700",
                "email": "sekretariat@kcynia.zp.gov.pl",
                "website": "http:\/\/www.kcynia.zp.gov.pl",
                "ref:regon": "341634841",
                "operator": "Ministerstwo Sprawiedliwo\u015bci",
                "operator:type": "public",
                "amenity": "school",
                "note": "Parent RSPO: 105084"
            }
        },
        {
            "id": 125645,
            "type": "Feature",
            "geometry": {
                "type": "Point",
                "coordinates": [
                    17.4889699,
                    52.99268
                ]
            },
            "properties": {
                "isced:level": "3",
                "ref:rspo": 125645,
                "official_name": "Bran\u017cowa Szko\u0142a I Stopnia nr 2 w Zak\u0142adzie Poprawczym w Kcyni",
                "name": "Bran\u017cowa Szko\u0142a I Stopnia nr 2 w Zak\u0142adzie Poprawczym w Kcyni",
                "addr:postcode": "89-240",
                "addr:city": "Kcynia",
                "addr:street": "Jana Kantego",
                "addr:housenumber": "1",
                "addr:city:simc": 929233,
                "addr:street:sym_ul": 7959,
                "phone": "+48 525880700",
                "email": "sekretariat@kcynia.zp.gov.pl",
                "website": "http:\/\/www.kcynia.zp.gov.pl",
                "ref:regon": "341634870",
                "operator": "Ministerstwo Sprawiedliwo\u015bci",
                "operator:type": "public",
                "amenity": "school",
                "note": "Parent RSPO: 105084"
            }
        },
        {
            "id": 65207,
            "type": "Feature",
            "geometry": {
                "type": "Point",
                "coordinates": [
                    17.49032,
                    52.99297
                ]
            },
            "properties": {
                "ref:rspo": 65207,
                "official_name": "Zesp\u00f3\u0142 Szk\u00f3\u0142 Technicznych",
                "name": "Zesp\u00f3\u0142 Szk\u00f3\u0142 Technicznych",
                "addr:postcode": "89-240",
                "addr:city": "Kcynia",
                "addr:street": "Emila Jurczyka",
                "addr:housenumber": "3",
                "addr:city:simc": 929233,
                "addr:street:sym_ul": 7678,
                "phone": "+48 525893737",
                "email": "zespol.szkol@onet.eu",
                "website": "http:\/\/www.zstkcynia.pl",
                "ref:regon": "341055072",
                "ref:vatin": "PL5581857040",
                "operator": "Gmina Kcynia",
                "operator:type": "government",
                "landuse": "education",
                "fixme": "amenity=school, amenity=college albo landuse=education w zale\u017cno\u015bci od tego, jakie plac\u00f3wki wchodz\u0105 w sk\u0142ad zespo\u0142u. Sprawd\u017a, kiedy stosowa\u0107 amenity=* a kiedy landuse=education.",
                "note": "Children RSPO: 79006;81003;109704"
            }
        },
        {
            "id": 79006,
            "type": "Feature",
            "geometry": {
                "type": "Point",
                "coordinates": [
                    17.49032,
                    52.99294
                ]
            },
            "properties": {
                "isced:level": "3",
                "ref:rspo": 79006,
                "official_name": "Bran\u017cowa Szko\u0142a I Stopnia w Kcyni",
                "name": "Bran\u017cowa Szko\u0142a I Stopnia w Kcyni",
                "addr:postcode": "89-240",
                "addr:city": "Kcynia",
                "addr:street": "Emila Jurczyka",
                "addr:housenumber": "3",
                "addr:city:simc": 929233,
                "addr:street:sym_ul": 7678,
                "phone": "+48 525893737",
                "email": "zespol.szkol@onet.eu",
                "website": "http:\/\/www.zstkcynia.pl",
                "ref:regon": "340187877",
                "operator": "Gmina Kcynia",
                "operator:type": "government",
                "amenity": "school",
                "note": "Parent RSPO: 65207"
            }
        },
        {
            "id": 81003,
            "type": "Feature",
            "geometry": {
                "type": "Point",
                "coordinates": [
                    17.49032,
                    52.99291
                ]
            },
            "properties": {
                "isced:level": "3",
                "ref:rspo": 81003,
                "official_name": "Technikum w Zespole Szk\u00f3\u0142 Technicznych w Kcyni",
                "name": "Technikum w Zespole Szk\u00f3\u0142 Technicznych w Kcyni",
                "addr:postcode": "89-240",
                "addr:city": "Kcynia",
                "addr:street": "Emila Jurczyka",
                "addr:housenumber": "3",
                "addr:city:simc": 929233,
                "addr:street:sym_ul": 7678,
                "phone": "+48 525893737",
                "email": "zespol.szkol@onet.eu",
                "website": "http:\/\/www.zstkcynia.pl",
                "ref:regon": "340221901",
                "operator": "Gmina Kcynia",
                "operator:type": "government",
                "amenity": "school",
                "note": "Parent RSPO: 65207"
            }
        },
        {
            "id": 109704,
            "type": "Feature",
            "geometry": {
                "type": "Point",
                "coordinates": [
                    17.49032,
                    52.99288
                ]
            },
            "properties": {
                "isced:level": "3",
                "ref:rspo": 109704,
                "official_name": "Liceum Og\u00f3lnokszta\u0142c\u0105ce im. Karola Libelta w Kcyni",
                "name": "Liceum Og\u00f3lnokszta\u0142c\u0105ce",
                "addr:postcode": "89-240",
                "addr:city": "Kcynia",
                "addr:street": "Emila Jurczyka",
                "addr:housenumber": "3",
                "addr:city:simc": 929233,
                "addr:street:sym_ul": 7678,
                "phone": "+48 525893737",
                "email": "zespol.szkol@onet.eu",
                "website": "http:\/\/www.zstkcynia.pl",
                "ref:regon": "000228329",
                "ref:vatin": "PL5581549901",
                "operator": "Gmina Kcynia",
                "operator:type": "government",
                "amenity": "school",
                "note": "Parent RSPO: 65207"
            }
        },
        {
            "id": 74935,
            "type": "Feature",
            "geometry": {
                "type": "Point",
                "coordinates": [
                    17.49294,
                    52.99308
                ]
            },
            "properties": {
                "ref:rspo": 74935,
                "official_name": "Specjalny O\u015brodek Wychowawczy w Kcyni",
                "name": "Specjalny O\u015brodek Wychowawczy w Kcyni",
                "addr:postcode": "89-240",
                "addr:city": "Kcynia",
                "addr:street": "Dworcowa",
                "addr:housenumber": "8",
                "addr:city:simc": 929233,
                "addr:street:sym_ul": 4434,
                "phone": "+48 523847171",
                "email": "mikolajkcynia@wp.pl",
                "ref:regon": "341347700",
                "operator": "Stowarzyszenie \"\u015aw. Miko\u0142aja\"",
                "operator:type": "ngo",
                "amenity": "social_facility",
                "social_facility": "group_home",
                "social_facility:for": "child;juvenile"
            }
        },
        {
            "id": 68514,
            "type": "Feature",
            "geometry": {
                "type": "Point",
                "coordinates": [
                    17.48127,
                    52.9940799
                ]
            },
            "properties": {
                "isced:level": "1;2",
                "ref:rspo": 68514,
                "official_name": "Szko\u0142a Podstawowa im. Jana Czochralskiego w Kcyni",
                "name": "Szko\u0142a Podstawowa",
                "addr:postcode": "89-240",
                "addr:city": "Kcynia",
                "addr:street": "Wyrzyska",
                "addr:housenumber": "12",
                "addr:city:simc": 929233,
                "addr:street:sym_ul": 25049,
                "phone": "+48 525893739",
                "email": "spkcynia@wp.pl",
                "website": "http:\/\/spkcynia.edupage.org",
                "ref:regon": "000263515",
                "ref:vatin": "PL5581635776",
                "operator": "Gmina Kcynia",
                "operator:type": "government",
                "amenity": "school"
            }
        },
        {
            "id": 69880,
            "type": "Feature",
            "geometry": {
                "type": "Point",
                "coordinates": [
                    17.3295775,
                    52.9985615
                ]
            },
            "properties": {
                "isced:level": "1;2",
                "ref:rspo": 69880,
                "official_name": "Szko\u0142a Podstawowa im. B\u0142ogos\u0142awionej Marii Kar\u0142owskiej w Dobieszewie",
                "name": "Szko\u0142a Podstawowa",
                "addr:postcode": "89-240",
                "addr:place": "Dobieszewo",
                "addr:housenumber": "22",
                "addr:city:simc": 88006,
                "phone": "+48 525893755",
                "email": "dobieszewo202@wp.pl",
                "website": "http:\/\/www.spdobieszewo.pl",
                "ref:regon": "001155762",
                "ref:vatin": "PL5581636095",
                "operator": "Gmina Kcynia",
                "operator:type": "government",
                "amenity": "school"
            }
        },
        {
            "id": 69258,
            "type": "Feature",
            "geometry": {
                "type": "Point",
                "coordinates": [
                    17.5269279,
                    53.028591
                ]
            },
            "properties": {
                "isced:level": "1;2",
                "ref:rspo": 69258,
                "official_name": "Szko\u0142a Podstawowa im. Kazimierza Korka w Rozstrz\u0119bowie",
                "name": "Szko\u0142a Podstawowa",
                "addr:postcode": "89-240",
                "addr:place": "Rozstrz\u0119bowo",
                "addr:housenumber": "14",
                "addr:city:simc": 88331,
                "phone": "+48 525893751",
                "email": "szkolar@wp.pl",
                "website": "http:\/\/www.sprozstrzebowo.edupage.org",
                "ref:regon": "001155710",
                "ref:vatin": "PL5581636014",
                "operator": "Gmina Kcynia",
                "operator:type": "government",
                "amenity": "school"
            }
        },
        {
            "id": 70052,
            "type": "Feature",
            "geometry": {
                "type": "Point",
                "coordinates": [
                    17.3558841,
                    53.0533082
                ]
            },
            "properties": {
                "isced:level": "1;2",
                "ref:rspo": 70052,
                "official_name": "Szko\u0142a Podstawowa im. Mi\u0142o\u015bnik\u00f3w Przyrody w Laskownicy",
                "name": "Szko\u0142a Podstawowa",
                "addr:postcode": "89-240",
                "addr:place": "Laskownica",
                "addr:housenumber": "16",
                "addr:city:simc": 88182,
                "phone": "+48 525893754",
                "email": "splaskownica@wp.pl",
                "website": "http:\/\/www.splaskownica.edupage.org",
                "ref:regon": "001155779",
                "ref:vatin": "PL5581637321",
                "operator": "Gmina Kcynia",
                "operator:type": "government",
                "amenity": "school"
            }
        },
        {
            "id": 70054,
            "type": "Feature",
            "geometry": {
                "type": "Point",
                "coordinates": [
                    17.5124964,
                    53.0717893
                ]
            },
            "properties": {
                "isced:level": "1;2",
                "ref:rspo": 70054,
                "official_name": "Szko\u0142a Podstawowa im. Pami\u0119ci Obro\u0144c\u00f3w Niepodleg\u0142o\u015bci w Sipiorach",
                "name": "Szko\u0142a Podstawowa",
                "addr:postcode": "89-240",
                "addr:place": "Sipiory",
                "addr:housenumber": "51",
                "addr:city:simc": 88354,
                "phone": "+48 525893753",
                "email": "sp.sipiory@poczta.onet.pl",
                "website": "http:\/\/www.spsipiory.edupage.org",
                "ref:regon": "001155756",
                "ref:vatin": "PL5581635983",
                "operator": "Gmina Kcynia",
                "operator:type": "government",
                "amenity": "school"
            }
        }
    ]
}