{
    "type": "FeatureCollection",
    "features": [
        {
            "id": 115351,
            "type": "Feature",
            "geometry": {
                "type": "Point",
                "coordinates": [
                    17.3204,
                    52.18873
                ]
            },
            "properties": {
                "isced:level": "1;2",
                "ref:rspo": 115351,
                "official_name": "Niepubliczna Szko\u0142a Podstawowa w Brodowie",
                "name": "Niepubliczna Szko\u0142a Podstawowa w Brodowie",
                "addr:postcode": "63-000",
                "addr:city": "Brodowo",
                "addr:street": "Szkolna",
                "addr:housenumber": "1",
                "addr:city:simc": 596719,
                "addr:street:sym_ul": 21970,
                "phone": "+48 612876163",
                "email": "nsp.brodowo@edu-21.pl",
                "website": "http:\/\/www.brodowo.edu-21.pl",
                "ref:regon": "302469766",
                "operator": "Stowarzyszenie Rodzic\u00f3w I Nauczycieli Powiatu \u015aredzkiego \"Edu-Xxi\"",
                "operator:type": "ngo",
                "amenity": "school"
            }
        },
        {
            "id": 132851,
            "type": "Feature",
            "geometry": {
                "type": "Point",
                "coordinates": [
                    17.3244599,
                    52.19323
                ]
            },
            "properties": {
                "ref:rspo": 132851,
                "official_name": "Zesp\u00f3\u0142 Przedszkolno - Szkolny Zoo Zaradni Odawa\u017cni Oryginalni",
                "name": "Zesp\u00f3\u0142 Przedszkolno - Szkolny Zoo Zaradni Odawa\u017cni Oryginalni",
                "addr:postcode": "63-000",
                "addr:city": "\u015aroda Wielkopolska",
                "addr:street": "Akacjowa",
                "addr:housenumber": "13",
                "addr:city:simc": 971614,
                "addr:street:sym_ul": 157,
                "phone": "+48 613070142",
                "email": "szkola.zoo@wp.pl",
                "ref:regon": "366261228",
                "operator": "Maciej Konieczny",
                "operator:type": "private",
                "landuse": "education",
                "fixme": "amenity=school, amenity=college albo landuse=education w zale\u017cno\u015bci od tego, jakie plac\u00f3wki wchodz\u0105 w sk\u0142ad zespo\u0142u. Sprawd\u017a, kiedy stosowa\u0107 amenity=* a kiedy landuse=education.",
                "note": "Children RSPO: 81032;122034"
            }
        },
        {
            "id": 81032,
            "type": "Feature",
            "geometry": {
                "type": "Point",
                "coordinates": [
                    17.3244599,
                    52.1932
                ]
            },
            "properties": {
                "ref:rspo": 81032,
                "official_name": "Niepubliczne Przedszkole Artystyczno-Teatralne Zaradni Odwa\u017cni Oryginalni",
                "name": "Niepubliczne Przedszkole Artystyczno-Teatralne Zaradni Odwa\u017cni Oryginalni",
                "addr:postcode": "63-000",
                "addr:city": "\u015aroda Wielkopolska",
                "addr:street": "Akacjowa",
                "addr:housenumber": "13",
                "addr:city:simc": 971614,
                "addr:street:sym_ul": 157,
                "phone": "+48 500111949",
                "email": "szkola.zoo@wp.pl",
                "ref:regon": "302266253",
                "operator": "Maciej Konieczny",
                "operator:type": "private",
                "amenity": "kindergarten",
                "note": "Parent RSPO: 132851"
            }
        },
        {
            "id": 122034,
            "type": "Feature",
            "geometry": {
                "type": "Point",
                "coordinates": [
                    17.3244599,
                    52.19317
                ]
            },
            "properties": {
                "isced:level": "1;2",
                "ref:rspo": 122034,
                "official_name": "Niepubliczna Szko\u0142a Podstawowa Zoo Zaradni Odwa\u017cni Oryginalni",
                "name": "Niepubliczna Szko\u0142a Podstawowa Zoo Zaradni Odwa\u017cni Oryginalni",
                "addr:postcode": "63-000",
                "addr:city": "\u015aroda Wielkopolska",
                "addr:street": "Akacjowa",
                "addr:housenumber": "13",
                "addr:city:simc": 971614,
                "addr:street:sym_ul": 157,
                "phone": "+48 500111949",
                "email": "szkola.zoo@wp.pl",
                "ref:regon": "302654127",
                "operator": "Maciej Konieczny",
                "operator:type": "private",
                "amenity": "school",
                "note": "Parent RSPO: 132851"
            }
        },
        {
            "id": 29386,
            "type": "Feature",
            "geometry": {
                "type": "Point",
                "coordinates": [
                    17.41417,
                    52.20816
                ]
            },
            "properties": {
                "isced:level": "1;2",
                "ref:rspo": 29386,
                "official_name": "Szko\u0142a Podstawowa im. Gen. Jana Henryka D\u0105browskiego w Stark\u00f3wcu Pi\u0105tkowskim",
                "name": "Szko\u0142a Podstawowa",
                "addr:postcode": "63-013",
                "addr:place": "Stark\u00f3wiec Pi\u0105tkowski",
                "addr:housenumber": "2b",
                "addr:city:simc": 597140,
                "phone": "+48 612851281",
                "email": "spstark@pro.onet.pl",
                "ref:regon": "631186298",
                "ref:vatin": "PL7861480695",
                "operator": "Gmina \u015aroda Wielkopolska",
                "operator:type": "government",
                "amenity": "school"
            }
        },
        {
            "id": 263566,
            "type": "Feature",
            "geometry": {
                "type": "Point",
                "coordinates": [
                    17.28151,
                    52.21987
                ]
            },
            "properties": {
                "ref:rspo": 263566,
                "official_name": "Niepubliczne Przedszkole T\u0119czowa Kraina",
                "name": "Niepubliczne Przedszkole T\u0119czowa Kraina",
                "addr:postcode": "63-000",
                "addr:city": "\u015aroda Wielkopolska",
                "addr:street": "Ryszarda Berwi\u0144skiego",
                "addr:housenumber": "1",
                "addr:city:simc": 971614,
                "addr:street:sym_ul": 1098,
                "phone": "+48 612856095",
                "email": "biuro@sredzkieprzedszkole.pl",
                "ref:regon": "368210459",
                "operator": "Ejdi Sp\u00f3\u0142ka Z Ograniczon\u0105 Odpowiedzialno\u015bci\u0105",
                "operator:type": "private",
                "amenity": "kindergarten"
            }
        },
        {
            "id": 118867,
            "type": "Feature",
            "geometry": {
                "type": "Point",
                "coordinates": [
                    17.21336,
                    52.22108
                ]
            },
            "properties": {
                "ref:rspo": 118867,
                "official_name": "Niepubliczne Przedszkole \"Stokrotka\"",
                "name": "Niepubliczne Przedszkole \"Stokrotka\"",
                "addr:postcode": "63-000",
                "addr:place": "S\u0142upia Wielka",
                "addr:housenumber": "28",
                "addr:city:simc": 597133,
                "phone": "+48 885888445",
                "email": "anita.socha-poznanska@edu-21.pl",
                "website": "http:\/\/www.stokrotka.edu-21.pl",
                "ref:regon": "302504468",
                "ref:vatin": "PL7861701699",
                "operator": "Stowarzyszenie Rodzic\u00f3w I Nauczycieli Powiatu \u015aredzkiego \"Edu-Xxi\"",
                "operator:type": "ngo",
                "amenity": "kindergarten"
            }
        },
        {
            "id": 122154,
            "type": "Feature",
            "geometry": {
                "type": "Point",
                "coordinates": [
                    17.21336,
                    52.22105
                ]
            },
            "properties": {
                "isced:level": "1;2",
                "ref:rspo": 122154,
                "official_name": "Szko\u0142a Podstawowa im. Gen. J.h. D\u0105browskiego w S\u0142upi Wielkiej",
                "name": "Szko\u0142a Podstawowa",
                "addr:postcode": "63-000",
                "addr:place": "S\u0142upia Wielka",
                "addr:housenumber": "28",
                "addr:city:simc": 597133,
                "phone": "+48 612858394",
                "email": "szkola.slupia@wp.pl",
                "website": "http:\/\/www.zspigslupia.pl",
                "ref:regon": "630078282",
                "ref:vatin": "PL7861598741",
                "operator": "Gmina \u015aroda Wielkopolska",
                "operator:type": "government",
                "amenity": "school"
            }
        },
        {
            "id": 130946,
            "type": "Feature",
            "geometry": {
                "type": "Point",
                "coordinates": [
                    17.21404,
                    52.22111
                ]
            },
            "properties": {
                "ref:rspo": 130946,
                "official_name": "Niepubliczny M\u0142odzie\u017cowy Dom Kultury \"Las - Lataj\u0105ca Akademia Szkolna\"",
                "name": "Niepubliczny M\u0142odzie\u017cowy Dom Kultury \"Las - Lataj\u0105ca Akademia Szkolna\"",
                "addr:postcode": "63-022",
                "addr:place": "S\u0142upia Wielka",
                "addr:housenumber": "28a",
                "addr:city:simc": 597133,
                "phone": "+48 887888060",
                "ref:regon": "364756115",
                "operator": "Stowarzyszenie Rodzic\u00f3w I Nauczycieli Powiatu \u015aredzkiego \"Edu-Xxi\"",
                "operator:type": "ngo",
                "fixme": "w zale\u017cno\u015bci od przedmiotu dzia\u0142alno\u015bci (np. amenity=training + training=*, amenity=dancing_school, amenity=language_school, amenity=music_school)"
            }
        },
        {
            "id": 130947,
            "type": "Feature",
            "geometry": {
                "type": "Point",
                "coordinates": [
                    17.21404,
                    52.22108
                ]
            },
            "properties": {
                "ref:rspo": 130947,
                "official_name": "Niepubliczny Mi\u0119dzyszkolny O\u015brodek Sportowy \"Maks - Mi\u0119dzyszkolna Akademia Kszta\u0142cenia Sportowego\"",
                "name": "Niepubliczny Mi\u0119dzyszkolny O\u015brodek Sportowy \"Maks - Mi\u0119dzyszkolna Akademia Kszta\u0142cenia Sportowego\"",
                "addr:postcode": "63-022",
                "addr:place": "S\u0142upia Wielka",
                "addr:housenumber": "28a",
                "addr:city:simc": 597133,
                "phone": "+48 887888060",
                "ref:regon": "364761346",
                "operator": "Stowarzyszenie Rodzic\u00f3w I Nauczycieli Powiatu \u015aredzkiego \"Edu-Xxi\"",
                "operator:type": "ngo",
                "fixme": "w zale\u017cno\u015bci od przedmiotu dzia\u0142alno\u015bci (np. amenity=training + training=*, amenity=dancing_school, amenity=language_school, amenity=music_school)"
            }
        },
        {
            "id": 264749,
            "type": "Feature",
            "geometry": {
                "type": "Point",
                "coordinates": [
                    17.2839199,
                    52.22149
                ]
            },
            "properties": {
                "ref:rspo": 264749,
                "official_name": "Przedszkole Niepubliczne Stokrotka Jerzy Nowosielski",
                "name": "Przedszkole Niepubliczne Stokrotka Jerzy Nowosielski",
                "addr:postcode": "63-000",
                "addr:city": "\u015aroda Wielkopolska",
                "addr:street": "Karola Marcinkowskiego",
                "addr:housenumber": "17",
                "addr:city:simc": 971614,
                "addr:street:sym_ul": 12299,
                "phone": "+48 602735483",
                "email": "bozena.nowosielska56@wp.pl",
                "ref:regon": "368445122",
                "operator": "Jerzy Nowosielski",
                "operator:type": "private",
                "amenity": "kindergarten"
            }
        },
        {
            "id": 81036,
            "type": "Feature",
            "geometry": {
                "type": "Point",
                "coordinates": [
                    17.28794,
                    52.22154
                ]
            },
            "properties": {
                "ref:rspo": 81036,
                "official_name": "Przedszkole \"Bajkowy \u015awiat\"",
                "name": "Przedszkole \"Bajkowy \u015awiat\"",
                "addr:postcode": "63-000",
                "addr:city": "\u015aroda Wielkopolska",
                "addr:street": "Brodowska",
                "addr:housenumber": "28",
                "addr:city:simc": 971614,
                "addr:street:sym_ul": 2095,
                "phone": "+48 508373555",
                "email": "przedszkole.bajkowyswiat@wp.pl",
                "website": "http:\/\/www.przedszkolebajkowyswiat.pl",
                "ref:regon": "302266141",
                "operator": "Alicja Matysiak",
                "operator:type": "private",
                "amenity": "kindergarten"
            }
        },
        {
            "id": 34611,
            "type": "Feature",
            "geometry": {
                "type": "Point",
                "coordinates": [
                    17.29217,
                    52.22224
                ]
            },
            "properties": {
                "ref:rspo": 34611,
                "official_name": "Angloj\u0119zyczna Przedszkolandia \u017b\u0142obkolandia Niepubliczne Przedszkole I \u017b\u0142obek Daria Doros",
                "name": "Angloj\u0119zyczna Przedszkolandia \u017b\u0142obkolandia Niepubliczne Przedszkole I \u017b\u0142obek Daria Doros",
                "addr:postcode": "63-000",
                "addr:city": "\u015aroda Wielkopolska",
                "addr:street": "Harcerska",
                "addr:housenumber": "23d",
                "addr:city:simc": 971614,
                "addr:street:sym_ul": 6523,
                "phone": "+48 612864075",
                "email": "daria@przedszkolandia.com.pl",
                "website": "http:\/\/www.przedszkolandia.com.pl",
                "ref:regon": "302243252",
                "ref:vatin": "PL5951292306",
                "operator": "Daria Doros",
                "operator:type": "private",
                "amenity": "kindergarten"
            }
        },
        {
            "id": 19135,
            "type": "Feature",
            "geometry": {
                "type": "Point",
                "coordinates": [
                    17.29239,
                    52.22293
                ]
            },
            "properties": {
                "ref:rspo": 19135,
                "official_name": "Zak\u0142ad Poradnictwa Zawodowego \"Euronauka\"",
                "name": "Zak\u0142ad Poradnictwa Zawodowego \"Euronauka\"",
                "addr:postcode": "63-000",
                "addr:city": "\u015aroda Wielkopolska",
                "addr:street": "Harcerska",
                "addr:housenumber": "18",
                "addr:city:simc": 971614,
                "addr:street:sym_ul": 6523,
                "phone": "+48 612864964",
                "ref:regon": "302225923",
                "ref:vatin": "PL7861095187",
                "operator": "Dane Do Uzupe\u0142nienia",
                "operator:type": "private"
            }
        },
        {
            "id": 21101,
            "type": "Feature",
            "geometry": {
                "type": "Point",
                "coordinates": [
                    17.29239,
                    52.222899999999996
                ]
            },
            "properties": {
                "isced:level": "3",
                "ref:rspo": 21101,
                "official_name": "Liceum Og\u00f3lnokszta\u0142c\u0105ce dla Doros\u0142uch Euronauka",
                "name": "Liceum Og\u00f3lnokszta\u0142c\u0105ce dla Doros\u0142uch Euronauka",
                "addr:postcode": "63-000",
                "addr:city": "\u015aroda Wielkopolska",
                "addr:street": "Harcerska",
                "addr:housenumber": "18",
                "addr:city:simc": 971614,
                "addr:street:sym_ul": 6523,
                "phone": "+48 612864964",
                "email": "sekretariat@euronauka.eu",
                "website": "http:\/\/www.euronauka.eu",
                "ref:regon": "302228287",
                "operator": "Dane Do Uzupe\u0142nienia",
                "operator:type": "private",
                "amenity": "school"
            }
        },
        {
            "id": 113673,
            "type": "Feature",
            "geometry": {
                "type": "Point",
                "coordinates": [
                    17.29239,
                    52.22287
                ]
            },
            "properties": {
                "ref:rspo": 113673,
                "official_name": "O\u015brodek Doskonalenia Nauczycieli \"Euronauka\"",
                "name": "O\u015brodek Doskonalenia Nauczycieli \"Euronauka\"",
                "addr:postcode": "63-000",
                "addr:city": "\u015aroda Wielkopolska",
                "addr:street": "Harcerska",
                "addr:housenumber": "18",
                "addr:city:simc": 971614,
                "addr:street:sym_ul": 6523,
                "ref:regon": "302400036",
                "operator": "Dane Do Uzupe\u0142nienia",
                "operator:type": "private",
                "amenity": "training"
            }
        },
        {
            "id": 128768,
            "type": "Feature",
            "geometry": {
                "type": "Point",
                "coordinates": [
                    17.29239,
                    52.22284
                ]
            },
            "properties": {
                "isced:level": "4",
                "ref:rspo": 128768,
                "official_name": "Prywatna Szko\u0142a Policealna Euronauka",
                "name": "Prywatna Szko\u0142a Policealna Euronauka",
                "addr:postcode": "63-000",
                "addr:city": "\u015aroda Wielkopolska",
                "addr:street": "Harcerska",
                "addr:housenumber": "18",
                "addr:city:simc": 971614,
                "addr:street:sym_ul": 6523,
                "phone": "+48 607172688",
                "ref:regon": "362393950",
                "operator": "Dane Do Uzupe\u0142nienia",
                "operator:type": "private",
                "amenity": "college"
            }
        },
        {
            "id": 81040,
            "type": "Feature",
            "geometry": {
                "type": "Point",
                "coordinates": [
                    17.26935,
                    52.22369
                ]
            },
            "properties": {
                "ref:rspo": 81040,
                "official_name": "Niepubliczne Przedszkole \"Osiedlowe Skrzaty\"",
                "name": "Niepubliczne Przedszkole \"Osiedlowe Skrzaty\"",
                "addr:postcode": "63-000",
                "addr:city": "\u015aroda Wielkopolska",
                "addr:street": "Tadeusza Ko\u015bciuszki",
                "addr:housenumber": "12",
                "addr:city:simc": 971614,
                "addr:street:sym_ul": 9582,
                "phone": "+48 612855854",
                "email": "wieslawa.owczarzak@sroda21.eu",
                "website": "http:\/\/www.sroda21.eu",
                "ref:regon": "302266164",
                "ref:vatin": "PL7861694083",
                "operator": "\u015aroda Xxi Sp\u00f3\u0142ka Z Ograniczon\u0105 Odpowiedzialno\u015bci\u0105",
                "operator:type": "private",
                "amenity": "kindergarten"
            }
        },
        {
            "id": 20446,
            "type": "Feature",
            "geometry": {
                "type": "Point",
                "coordinates": [
                    17.28368,
                    52.22609
                ]
            },
            "properties": {
                "isced:level": "1;2",
                "ref:rspo": 20446,
                "official_name": "Szko\u0142a Podstawowa Nr 2 Z Oddzia\u0142ami Integracyjnymi",
                "name": "Szko\u0142a Podstawowa Nr 2 Z Oddzia\u0142ami Integracyjnymi",
                "addr:postcode": "63-000",
                "addr:city": "\u015aroda Wielkopolska",
                "addr:street": "Jana Henryka D\u0105browskiego",
                "addr:housenumber": "50",
                "addr:city:simc": 971614,
                "addr:street:sym_ul": 3682,
                "phone": "+48 612852374",
                "email": "sekretariat@sp2sroda.pl",
                "website": "http:\/\/www.sp2sroda.pl",
                "ref:regon": "630077495",
                "ref:vatin": "PL7861104176",
                "operator": "Gmina \u015aroda Wielkopolska",
                "operator:type": "government",
                "amenity": "school"
            }
        },
        {
            "id": 10965,
            "type": "Feature",
            "geometry": {
                "type": "Point",
                "coordinates": [
                    17.28544,
                    52.22645
                ]
            },
            "properties": {
                "ref:rspo": 10965,
                "official_name": "Poradnia Psychologiczno-Pedagogiczna w \u015arodzie Wielkopolskiej",
                "name": "Poradnia Psychologiczno-Pedagogiczna w \u015arodzie Wielkopolskiej",
                "addr:postcode": "63-000",
                "addr:city": "\u015aroda Wielkopolska",
                "addr:street": "\u017bwirki i Wigury",
                "addr:housenumber": "3",
                "addr:city:simc": 971614,
                "addr:street:sym_ul": 26608,
                "phone": "+48 612853207",
                "email": "pppsroda@wp.pl",
                "website": "http:\/\/www.pppsroda.pl",
                "ref:regon": "639699755",
                "ref:vatin": "PL7861540204",
                "operator": "Powiat \u015aredzki",
                "operator:type": "government",
                "healthcare": "counselling",
                "counselling_type": "education",
                "fixme": "w zale\u017cno\u015bci od przedmiotu dzia\u0142alno\u015bci (np. healthcare=counselling + counselling_type=education albo healthcare=psychotherapist)"
            }
        },
        {
            "id": 115166,
            "type": "Feature",
            "geometry": {
                "type": "Point",
                "coordinates": [
                    17.28544,
                    52.22642
                ]
            },
            "properties": {
                "ref:rspo": 115166,
                "official_name": "Publiczna Biblioteka Pedagogiczna w Poznaniu Filia w \u015arodzie Wlkp.",
                "name": "Publiczna Biblioteka Pedagogiczna w Poznaniu Filia w \u015arodzie Wlkp.",
                "addr:postcode": "63-000",
                "addr:city": "\u015aroda Wielkopolska",
                "addr:street": "\u017bwirki i Wigury",
                "addr:housenumber": "3",
                "addr:city:simc": 971614,
                "addr:street:sym_ul": 26608,
                "phone": "+48 577001394",
                "email": "biblioteka@sroda.pbp.poznan.pl",
                "website": "http:\/\/sroda.pbp.poznan.pl",
                "ref:regon": "639810550",
                "operator": "Wojew\u00f3dztwo Wielkopolskie",
                "operator:type": "government",
                "amenity": "library",
                "note": "Parent RSPO: 30977"
            }
        },
        {
            "id": 81038,
            "type": "Feature",
            "geometry": {
                "type": "Point",
                "coordinates": [
                    17.28894,
                    52.22646
                ]
            },
            "properties": {
                "ref:rspo": 81038,
                "official_name": "Niepubliczne Przedszkole \"Pod Kogucikiem\" w \u015arodzie Wielkopolskiej",
                "name": "Niepubliczne Przedszkole \"Pod Kogucikiem\" w \u015arodzie Wielkopolskiej",
                "addr:postcode": "63-000",
                "addr:city": "\u015aroda Wielkopolska",
                "addr:street": "Zamojskich",
                "addr:housenumber": "15G",
                "addr:city:simc": 971614,
                "addr:street:sym_ul": 25558,
                "phone": "+48 607082945",
                "email": "podkogucikem@op.pl",
                "ref:regon": "302269286",
                "ref:vatin": "PL7861582154",
                "operator": "\"Edukacja\" Sp\u00f3\u0142ka Z Ograniczon\u0105 Odpowiedzialno\u015bci\u0105",
                "operator:type": "private",
                "amenity": "kindergarten"
            }
        },
        {
            "id": 123930,
            "type": "Feature",
            "geometry": {
                "type": "Point",
                "coordinates": [
                    17.2790399,
                    52.22649
                ]
            },
            "properties": {
                "isced:level": "3",
                "ref:rspo": 123930,
                "official_name": "Prywatne Liceum dla Doros\u0142ych w \u015arodzie Wielkopolskiej",
                "name": "Prywatne Liceum dla Doros\u0142ych w \u015arodzie Wielkopolskiej",
                "addr:postcode": "63-000",
                "addr:city": "\u015aroda Wielkopolska",
                "addr:street": "Lipowa",
                "addr:housenumber": "9",
                "addr:city:simc": 971614,
                "addr:street:sym_ul": 11139,
                "phone": "+48 504111224",
                "email": "speed1979@interia.eu",
                "website": "http:\/\/eduma.pl",
                "ref:regon": "302793596",
                "operator": "Dane Do Uzupe\u0142nienia",
                "operator:type": "private",
                "amenity": "school"
            }
        },
        {
            "id": 123931,
            "type": "Feature",
            "geometry": {
                "type": "Point",
                "coordinates": [
                    17.2790399,
                    52.226459999999996
                ]
            },
            "properties": {
                "isced:level": "4",
                "ref:rspo": 123931,
                "official_name": "Szko\u0142a Policealna Kolegium Kr\u00f3lewskie w \u015arodzie Wielkopolskiej",
                "name": "Szko\u0142a Policealna Kolegium Kr\u00f3lewskie w \u015arodzie Wielkopolskiej",
                "addr:postcode": "63-000",
                "addr:city": "\u015aroda Wielkopolska",
                "addr:street": "Lipowa",
                "addr:housenumber": "9",
                "addr:city:simc": 971614,
                "addr:street:sym_ul": 11139,
                "phone": "+48 504111224",
                "email": "speed1979@interia.eu",
                "website": "http:\/\/eduma.pl",
                "ref:regon": "302793604",
                "operator": "Dane Do Uzupe\u0142nienia",
                "operator:type": "private",
                "amenity": "college"
            }
        },
        {
            "id": 25642,
            "type": "Feature",
            "geometry": {
                "type": "Point",
                "coordinates": [
                    17.2756599,
                    52.22667
                ]
            },
            "properties": {
                "isced:level": "3",
                "ref:rspo": 25642,
                "official_name": "Liceum Og\u00f3lnokszta\u0142c\u0105ce im. Powsta\u0144c\u00f3w Wielkopolskich w \u015arodzie Wlkp.",
                "name": "Liceum Og\u00f3lnokszta\u0142c\u0105ce",
                "addr:postcode": "63-000",
                "addr:city": "\u015aroda Wielkopolska",
                "addr:street": "Ksi\u0119dza Teofila Kegla",
                "addr:housenumber": "1a",
                "addr:city:simc": 971614,
                "addr:street:sym_ul": 8309,
                "phone": "+48 612852434",
                "email": "losrodawlkp@poczta.onet.pl",
                "website": "http:\/\/losroda.pl",
                "ref:regon": "000229168",
                "ref:vatin": "PL7861233399",
                "operator": "Powiat \u015aredzki",
                "operator:type": "government",
                "amenity": "school"
            }
        },
        {
            "id": 20445,
            "type": "Feature",
            "geometry": {
                "type": "Point",
                "coordinates": [
                    17.27121,
                    52.22693
                ]
            },
            "properties": {
                "isced:level": "1;2",
                "ref:rspo": 20445,
                "official_name": "Szko\u0142a Podstawowa Nr 3",
                "name": "Szko\u0142a Podstawowa Nr 3",
                "addr:postcode": "63-000",
                "addr:city": "\u015aroda Wielkopolska",
                "addr:street": "20 Pa\u017adziernika",
                "addr:housenumber": "2",
                "addr:city:simc": 971614,
                "addr:street:sym_ul": 15892,
                "phone": "+48 612858047",
                "email": "szkola-3@sp3sroda.edu.pl",
                "website": "http:\/\/www.sp3sroda.edu.pl",
                "ref:regon": "630077644",
                "ref:vatin": "PL7861106790",
                "operator": "Gmina \u015aroda Wielkopolska",
                "operator:type": "government",
                "amenity": "school"
            }
        },
        {
            "id": 114482,
            "type": "Feature",
            "geometry": {
                "type": "Point",
                "coordinates": [
                    17.27493,
                    52.22769
                ]
            },
            "properties": {
                "ref:rspo": 114482,
                "official_name": "Niepubliczne Przedszkole \"Kasztanowy Ogr\u00f3d\"",
                "name": "Niepubliczne Przedszkole \"Kasztanowy Ogr\u00f3d\"",
                "addr:postcode": "63-000",
                "addr:city": "\u015aroda Wielkopolska",
                "addr:street": "17 Wrze\u015bnia",
                "addr:housenumber": "10",
                "addr:city:simc": 971614,
                "addr:street:sym_ul": 24856,
                "phone": "+48 612867749",
                "email": "justyna.kozak@sroda21.eu",
                "website": "http:\/\/www.sroda21.eu",
                "ref:regon": "302424545",
                "operator": "\u015aroda Xxi Sp\u00f3\u0142ka Z Ograniczon\u0105 Odpowiedzialno\u015bci\u0105",
                "operator:type": "private",
                "amenity": "kindergarten"
            }
        },
        {
            "id": 81029,
            "type": "Feature",
            "geometry": {
                "type": "Point",
                "coordinates": [
                    17.26576,
                    52.22797
                ]
            },
            "properties": {
                "ref:rspo": 81029,
                "official_name": "Niepubliczne Przedszkole \"Szafranek\"",
                "name": "Niepubliczne Przedszkole \"Szafranek\"",
                "addr:postcode": "63-000",
                "addr:city": "\u015aroda Wielkopolska",
                "addr:street": "Genera\u0142a J\u00f3zefa Hallera",
                "addr:housenumber": "15",
                "addr:city:simc": 971614,
                "addr:street:sym_ul": 6485,
                "phone": "+48 791733717",
                "email": "przedszkole.szafranek@interia.pl",
                "website": "http:\/\/www.przedszkoleszafranek.pl",
                "ref:regon": "302266201",
                "operator": "Piotr Szafra\u0144ski",
                "operator:type": "private",
                "amenity": "kindergarten"
            }
        },
        {
            "id": 125712,
            "type": "Feature",
            "geometry": {
                "type": "Point",
                "coordinates": [
                    17.28011,
                    52.22881
                ]
            },
            "properties": {
                "ref:rspo": 125712,
                "official_name": "Akademia J\u0119zykowa Open School",
                "name": "Akademia J\u0119zykowa Open School",
                "addr:postcode": "63-000",
                "addr:city": "\u015aroda Wielkopolska",
                "addr:street": "Czerwonego Krzy\u017ca",
                "addr:housenumber": "14",
                "addr:door": "2",
                "addr:city:simc": 971614,
                "addr:street:sym_ul": 3434,
                "phone": "+48 612855500",
                "email": "akademia_sroda@openschool.pl",
                "ref:regon": "302849836",
                "operator": "Krzysztof Jack\u00f3w",
                "operator:type": "private"
            }
        },
        {
            "id": 47309,
            "type": "Feature",
            "geometry": {
                "type": "Point",
                "coordinates": [
                    17.26635,
                    52.2299
                ]
            },
            "properties": {
                "ref:rspo": 47309,
                "official_name": "Niepubliczne Przedszkole \"Krasnal Ha\u0142aba\u0142a\"",
                "name": "Niepubliczne Przedszkole \"Krasnal Ha\u0142aba\u0142a\"",
                "addr:postcode": "63-000",
                "addr:city": "\u015aroda Wielkopolska",
                "addr:street": "Stanis\u0142awa Staszica",
                "addr:housenumber": "10",
                "addr:city:simc": 971614,
                "addr:street:sym_ul": 21071,
                "email": "alicja.nawracala@sroda21.eu",
                "ref:regon": "302251004",
                "ref:vatin": "PL7861694083",
                "operator": "\u015aroda Xxi Sp\u00f3\u0142ka Z Ograniczon\u0105 Odpowiedzialno\u015bci\u0105",
                "operator:type": "private",
                "amenity": "kindergarten"
            }
        },
        {
            "id": 273239,
            "type": "Feature",
            "geometry": {
                "type": "Point",
                "coordinates": [
                    17.27881,
                    52.23019
                ]
            },
            "properties": {
                "ref:rspo": 273239,
                "official_name": "Bursa Powiatu \u015aredzkiego",
                "name": "Bursa Powiatu \u015aredzkiego",
                "addr:postcode": "63-000",
                "addr:city": "\u015aroda Wielkopolska",
                "addr:street": "Ignacego Daszy\u0144skiego",
                "addr:housenumber": "5",
                "addr:city:simc": 971614,
                "addr:street:sym_ul": 3639,
                "email": "bursapowiatusredzkiego@gmail.com",
                "ref:regon": "384155357",
                "ref:vatin": "PL7861721093",
                "operator": "Powiat \u015aredzki",
                "operator:type": "government",
                "building": "dormitory"
            }
        },
        {
            "id": 81035,
            "type": "Feature",
            "geometry": {
                "type": "Point",
                "coordinates": [
                    17.276599884033,
                    52.230800628662
                ]
            },
            "properties": {
                "ref:rspo": 81035,
                "official_name": "Przedszkole \"Weso\u0142e Urwiski\"",
                "name": "Przedszkole \"Weso\u0142e Urwiski\"",
                "addr:postcode": "63-000",
                "addr:city": "\u015aroda Wielkopolska",
                "addr:street": "Daliowa",
                "addr:housenumber": "3",
                "addr:city:simc": 971614,
                "addr:street:sym_ul": 3566,
                "phone": "+48 501599233",
                "email": "przedszkolewesoleurwiski@gmail.com",
                "ref:regon": "302266313",
                "operator": "S\u0142awomir Budasz",
                "operator:type": "private",
                "amenity": "kindergarten"
            }
        },
        {
            "id": 114814,
            "type": "Feature",
            "geometry": {
                "type": "Point",
                "coordinates": [
                    17.26136,
                    52.23086
                ]
            },
            "properties": {
                "ref:rspo": 114814,
                "official_name": "Centrum Kszta\u0142cenia Zawodowego I Ustawicznego w \u015arodzie Wielkopolskiej",
                "name": "Centrum Kszta\u0142cenia Zawodowego I Ustawicznego w \u015arodzie Wielkopolskiej",
                "addr:postcode": "63-000",
                "addr:city": "\u015aroda Wielkopolska",
                "addr:street": "Ignacego Paderewskiego",
                "addr:housenumber": "27",
                "addr:city:simc": 971614,
                "addr:street:sym_ul": 15529,
                "phone": "+48 612222444",
                "email": "sekretariat@ckziusroda.edu.pl",
                "website": "http:\/\/www.ckziusroda.edu.pl",
                "ref:regon": "302442543",
                "operator": "Powiat \u015aredzki",
                "operator:type": "government",
                "amenity": "school",
                "fixme": "amenity=school lub amenity=college",
                "note": "Children RSPO: 12768;25746;26193;115290"
            }
        },
        {
            "id": 12768,
            "type": "Feature",
            "geometry": {
                "type": "Point",
                "coordinates": [
                    17.26136,
                    52.23083
                ]
            },
            "properties": {
                "isced:level": "3",
                "ref:rspo": 12768,
                "official_name": "Iv Liceum Og\u00f3lnokszta\u0142c\u0105ce im. Hipolita Cegielskiego w \u015arodzie Wlkp.",
                "name": "Iv Liceum Og\u00f3lnokszta\u0142c\u0105ce",
                "addr:postcode": "63-000",
                "addr:city": "\u015aroda Wielkopolska",
                "addr:street": "Ignacego Paderewskiego",
                "addr:housenumber": "27",
                "addr:city:simc": 971614,
                "addr:street:sym_ul": 15529,
                "phone": "+48 612222444",
                "email": "sekretariat@ckziusroda.edu.pl",
                "website": "http:\/\/www.ckziusroda.edu.pl",
                "ref:regon": "301340467",
                "ref:vatin": "PL7861233330",
                "operator": "Powiat \u015aredzki",
                "operator:type": "government",
                "amenity": "school",
                "note": "Parent RSPO: 114814"
            }
        },
        {
            "id": 25746,
            "type": "Feature",
            "geometry": {
                "type": "Point",
                "coordinates": [
                    17.26136,
                    52.2308
                ]
            },
            "properties": {
                "isced:level": "3",
                "ref:rspo": 25746,
                "official_name": "Bran\u017cowa Szko\u0142a I Stopnia Nr 1 im. Hipolita Cegielskiego w \u015arodzie Wielkopolskiej",
                "name": "Bran\u017cowa Szko\u0142a I Stopnia Nr 1",
                "addr:postcode": "63-000",
                "addr:city": "\u015aroda Wielkopolska",
                "addr:street": "Ignacego Paderewskiego",
                "addr:housenumber": "27",
                "addr:city:simc": 971614,
                "addr:street:sym_ul": 15529,
                "phone": "+48 612222444",
                "email": "sekretariat@ckziusroda.edu.pl",
                "website": "http:\/\/www.ckziusroda.edu.pl",
                "ref:regon": "639824485",
                "ref:vatin": "PL7861233330",
                "operator": "Powiat \u015aredzki",
                "operator:type": "government",
                "amenity": "school",
                "note": "Parent RSPO: 114814"
            }
        },
        {
            "id": 26193,
            "type": "Feature",
            "geometry": {
                "type": "Point",
                "coordinates": [
                    17.26136,
                    52.23077
                ]
            },
            "properties": {
                "isced:level": "3",
                "ref:rspo": 26193,
                "official_name": "Technikum Nr 1 im. Hipolita Cegielskiego w \u015arodzie Wlkp.",
                "name": "Technikum Nr 1",
                "addr:postcode": "63-000",
                "addr:city": "\u015aroda Wielkopolska",
                "addr:street": "Ignacego Paderewskiego",
                "addr:housenumber": "27",
                "addr:city:simc": 971614,
                "addr:street:sym_ul": 15529,
                "phone": "+48 612222444",
                "email": "sekretariat@ckziusroda.edu.pl",
                "website": "http:\/\/www.ckziusroda.edu.pl",
                "ref:regon": "300480321",
                "ref:vatin": "PL7861233330",
                "operator": "Powiat \u015aredzki",
                "operator:type": "government",
                "amenity": "school",
                "note": "Parent RSPO: 114814"
            }
        },
        {
            "id": 115290,
            "type": "Feature",
            "geometry": {
                "type": "Point",
                "coordinates": [
                    17.26136,
                    52.23074
                ]
            },
            "properties": {
                "isced:level": "3",
                "ref:rspo": 115290,
                "official_name": "I Liceum Og\u00f3lnokszta\u0142c\u0105ce dla Doros\u0142ych",
                "name": "I Liceum Og\u00f3lnokszta\u0142c\u0105ce dla Doros\u0142ych",
                "addr:postcode": "63-000",
                "addr:city": "\u015aroda Wielkopolska",
                "addr:street": "Ignacego Paderewskiego",
                "addr:housenumber": "27",
                "addr:city:simc": 971614,
                "addr:street:sym_ul": 15529,
                "phone": "+48 612222444",
                "email": "sekretariat@ckziusroda.edu.pl",
                "website": "http:\/\/www.ckziusroda.edu.pl",
                "ref:regon": "302465254",
                "operator": "Powiat \u015aredzki",
                "operator:type": "government",
                "amenity": "school",
                "note": "Parent RSPO: 114814"
            }
        },
        {
            "id": 28512,
            "type": "Feature",
            "geometry": {
                "type": "Point",
                "coordinates": [
                    17.27719,
                    52.23112
                ]
            },
            "properties": {
                "ref:rspo": 28512,
                "official_name": "Przedszkole Nr 3 w \u015arodzie Wielkopolskiej",
                "name": "Przedszkole Nr 3 w \u015arodzie Wielkopolskiej",
                "addr:postcode": "63-000",
                "addr:city": "\u015aroda Wielkopolska",
                "addr:street": "G\u00f3rki",
                "addr:housenumber": "5",
                "addr:city:simc": 971614,
                "addr:street:sym_ul": 5939,
                "phone": "+48 601194094",
                "email": "michalakagnes@gmail.com",
                "ref:regon": "639840260",
                "ref:vatin": "PL7861563139",
                "operator": "Gmina \u015aroda Wielkopolska",
                "operator:type": "government",
                "amenity": "kindergarten"
            }
        },
        {
            "id": 17465,
            "type": "Feature",
            "geometry": {
                "type": "Point",
                "coordinates": [
                    17.26618,
                    52.23129
                ]
            },
            "properties": {
                "ref:rspo": 17465,
                "official_name": "Wielkopolska Szko\u0142a Skutecznej Nauki",
                "name": "Wielkopolska Szko\u0142a Skutecznej Nauki",
                "addr:postcode": "63-000",
                "addr:city": "\u015aroda Wielkopolska",
                "addr:street": "Osiedle M\u0142odych",
                "addr:housenumber": "5",
                "addr:door": "17",
                "addr:city:simc": 971614,
                "addr:street:sym_ul": 13085,
                "phone": "+48 604058727",
                "ref:regon": "302220541",
                "ref:vatin": "PL7631275402",
                "operator": "Dane Do Uzupe\u0142nienia",
                "operator:type": "private"
            }
        },
        {
            "id": 10983,
            "type": "Feature",
            "geometry": {
                "type": "Point",
                "coordinates": [
                    17.2634681,
                    52.2328568
                ]
            },
            "properties": {
                "ref:rspo": 10983,
                "official_name": "Zesp\u00f3\u0142 Szk\u00f3\u0142 Rolniczych im. J.h. D\u0105browskiego",
                "name": "Zesp\u00f3\u0142 Szk\u00f3\u0142 Rolniczych",
                "addr:postcode": "63-000",
                "addr:city": "\u015aroda Wielkopolska",
                "addr:street": "Kosynier\u00f3w",
                "addr:housenumber": "2",
                "addr:city:simc": 971614,
                "addr:street:sym_ul": 9501,
                "phone": "+48 612852328",
                "email": "sekretariat@zsrsroda.pl",
                "website": "http:\/\/www.zsrsroda.pl",
                "ref:regon": "000100003",
                "ref:vatin": "PL7860008654",
                "operator": "Powiat \u015aredzki",
                "operator:type": "government",
                "landuse": "education",
                "fixme": "amenity=school, amenity=college albo landuse=education w zale\u017cno\u015bci od tego, jakie plac\u00f3wki wchodz\u0105 w sk\u0142ad zespo\u0142u. Sprawd\u017a, kiedy stosowa\u0107 amenity=* a kiedy landuse=education.",
                "note": "Children RSPO: 18645;18661;18692;123772"
            }
        },
        {
            "id": 266877,
            "type": "Feature",
            "geometry": {
                "type": "Point",
                "coordinates": [
                    17.2634681,
                    52.2328268
                ]
            },
            "properties": {
                "ref:rspo": 266877,
                "official_name": "Niepubliczna Szko\u0142a Muzyczna I St. w \u015arodzie Wielkopolskiej",
                "name": "Niepubliczna Szko\u0142a Muzyczna I St. w \u015arodzie Wielkopolskiej",
                "addr:postcode": "63-000",
                "addr:city": "\u015aroda Wielkopolska",
                "addr:street": "Kosynier\u00f3w",
                "addr:housenumber": "2",
                "addr:city:simc": 971614,
                "addr:street:sym_ul": 9501,
                "phone": "+48 612853847",
                "email": "szkolamuzyczna@sroda21.eu",
                "website": "http:\/\/nsmsroda21.eu",
                "ref:regon": "369718929",
                "operator": "\u015aroda Xxi Sp\u00f3\u0142ka Z Ograniczon\u0105 Odpowiedzialno\u015bci\u0105",
                "operator:type": "private",
                "amenity": "music_school"
            }
        },
        {
            "id": 123772,
            "type": "Feature",
            "geometry": {
                "type": "Point",
                "coordinates": [
                    17.2634681,
                    52.2327968
                ]
            },
            "properties": {
                "ref:rspo": 123772,
                "official_name": "Szko\u0142a Specjalna Przysposabiaj\u0105ca Do Pracy w \u015arodzie Wielkopolskiej",
                "name": "Szko\u0142a Specjalna Przysposabiaj\u0105ca Do Pracy w \u015arodzie Wielkopolskiej",
                "addr:postcode": "63-000",
                "addr:city": "\u015aroda Wielkopolska",
                "addr:street": "Kosynier\u00f3w",
                "addr:housenumber": "2",
                "addr:door": "b",
                "addr:city:simc": 971614,
                "addr:street:sym_ul": 9501,
                "phone": "+48 612852328",
                "email": "sekretariat@zsrsroda.pl",
                "website": "http:\/\/zsrsroda.pl",
                "ref:regon": "302786120",
                "operator": "Powiat \u015aredzki",
                "operator:type": "government",
                "amenity": "school",
                "note": "Parent RSPO: 10983"
            }
        },
        {
            "id": 275432,
            "type": "Feature",
            "geometry": {
                "type": "Point",
                "coordinates": [
                    17.27656,
                    52.23292
                ]
            },
            "properties": {
                "ref:rspo": 275432,
                "official_name": "Integracyjne Niepubliczne Przedszkole Montessori Zielona Wyspa Karolina Makowska",
                "name": "Integracyjne Niepubliczne Przedszkole Montessori Zielona Wyspa Karolina Makowska",
                "addr:postcode": "63-000",
                "addr:city": "\u015aroda Wielkopolska",
                "addr:street": "Wincentego Witosa",
                "addr:housenumber": "11A",
                "addr:city:simc": 971614,
                "addr:street:sym_ul": 24459,
                "phone": "+48 798590449",
                "email": "przedszkolezielonawyspa@wp.pl",
                "website": "http:\/\/www.zielonawyspa.online",
                "ref:regon": "386918010",
                "operator": "Karolina Makowska",
                "operator:type": "private",
                "amenity": "kindergarten"
            }
        },
        {
            "id": 130093,
            "type": "Feature",
            "geometry": {
                "type": "Point",
                "coordinates": [
                    17.26237,
                    52.23309
                ]
            },
            "properties": {
                "isced:level": "1;2",
                "ref:rspo": 130093,
                "official_name": "Szko\u0142a Podstawowa Edu-XXI w \u015arodzie Wielkopolskiej",
                "name": "Szko\u0142a Podstawowa Edu-XXI w \u015arodzie Wielkopolskiej",
                "addr:postcode": "63-000",
                "addr:city": "\u015aroda Wielkopolska",
                "addr:street": "Kosynier\u00f3w",
                "addr:housenumber": "2b",
                "addr:city:simc": 971614,
                "addr:street:sym_ul": 9501,
                "phone": "+48 781888411",
                "email": "sp.sroda@edu-21.pl",
                "website": "http:\/\/www.sp.edu-21.pl",
                "ref:regon": "363453111",
                "operator": "Stowarzyszenie Rodzic\u00f3w I Nauczycieli Powiatu \u015aredzkiego \"Edu-Xxi\"",
                "operator:type": "ngo",
                "amenity": "school"
            }
        },
        {
            "id": 264896,
            "type": "Feature",
            "geometry": {
                "type": "Point",
                "coordinates": [
                    17.26237,
                    52.233059999999995
                ]
            },
            "properties": {
                "ref:rspo": 264896,
                "official_name": "Niepubliczne Szkolne Schronisko M\u0142odzie\u017cowe w \u015arodzie Wielkopolskiej",
                "name": "Niepubliczne Szkolne Schronisko M\u0142odzie\u017cowe w \u015arodzie Wielkopolskiej",
                "addr:postcode": "63-000",
                "addr:city": "\u015aroda Wielkopolska",
                "addr:street": "Kosynier\u00f3w",
                "addr:housenumber": "2b",
                "addr:door": "-",
                "addr:city:simc": 971614,
                "addr:street:sym_ul": 9501,
                "email": "hitspoldzielnia@gmail.com",
                "ref:regon": "368499649",
                "operator": "Sp\u00f3\u0142dzielnia Socjalna Hit",
                "operator:type": "cooperative",
                "tourism": "hostel"
            }
        },
        {
            "id": 268877,
            "type": "Feature",
            "geometry": {
                "type": "Point",
                "coordinates": [
                    17.26237,
                    52.23303
                ]
            },
            "properties": {
                "isced:level": "1;2",
                "ref:rspo": 268877,
                "official_name": "Niepubliczna Szko\u0142a Podstawowa Specjalna",
                "name": "Niepubliczna Szko\u0142a Podstawowa Specjalna",
                "addr:postcode": "63-000",
                "addr:city": "\u015aroda Wielkopolska",
                "addr:street": "Kosynier\u00f3w",
                "addr:housenumber": "2b",
                "addr:door": "-",
                "addr:city:simc": 971614,
                "addr:street:sym_ul": 9501,
                "email": "nsps@sroda21.eu",
                "ref:regon": "381272520",
                "operator": "Fundacja Akademia Helios",
                "operator:type": "ngo",
                "amenity": "school"
            }
        },
        {
            "id": 18645,
            "type": "Feature",
            "geometry": {
                "type": "Point",
                "coordinates": [
                    17.26237,
                    52.233
                ]
            },
            "properties": {
                "isced:level": "3",
                "ref:rspo": 18645,
                "official_name": "Bran\u017cowa Szko\u0142a I Stopnia Nr 2 im. Gen. Jana Henryka D\u0105browskiego w \u015arodzie Wielkopolskiej",
                "name": "Bran\u017cowa Szko\u0142a I Stopnia Nr 2",
                "addr:postcode": "63-000",
                "addr:city": "\u015aroda Wielkopolska",
                "addr:street": "Kosynier\u00f3w",
                "addr:housenumber": "2b",
                "addr:city:simc": 971614,
                "addr:street:sym_ul": 9501,
                "phone": "+48 612852328",
                "email": "zsrsroda@onet.pl",
                "website": "http:\/\/zsrsroda.pl",
                "ref:regon": "634428773",
                "ref:vatin": "PL7860008654",
                "operator": "Powiat \u015aredzki",
                "operator:type": "government",
                "amenity": "school",
                "note": "Parent RSPO: 10983"
            }
        },
        {
            "id": 18661,
            "type": "Feature",
            "geometry": {
                "type": "Point",
                "coordinates": [
                    17.26237,
                    52.232969999999995
                ]
            },
            "properties": {
                "isced:level": "3",
                "ref:rspo": 18661,
                "official_name": "Liceum Og\u00f3lnokszta\u0142c\u0105ce Nr III im. Gen. Jana Henryka D\u0105browskiego w \u015arodzie Wlkp.",
                "name": "Liceum Og\u00f3lnokszta\u0142c\u0105ce Nr III",
                "addr:postcode": "63-000",
                "addr:city": "\u015aroda Wielkopolska",
                "addr:street": "Kosynier\u00f3w",
                "addr:housenumber": "2b",
                "addr:city:simc": 971614,
                "addr:street:sym_ul": 9501,
                "phone": "+48 612852328",
                "email": "sekretariat@zsrsroda.pl",
                "website": "http:\/\/zsrsroda.pl",
                "ref:regon": "634428738",
                "ref:vatin": "PL7860008654",
                "operator": "Powiat \u015aredzki",
                "operator:type": "government",
                "amenity": "school",
                "note": "Parent RSPO: 10983"
            }
        },
        {
            "id": 18692,
            "type": "Feature",
            "geometry": {
                "type": "Point",
                "coordinates": [
                    17.26237,
                    52.23294
                ]
            },
            "properties": {
                "isced:level": "3",
                "ref:rspo": 18692,
                "official_name": "Technikum Nr 3 im. Gen. Jana Henryka D\u0105browskiego w \u015arodzie Wlkp.",
                "name": "Technikum Nr 3",
                "addr:postcode": "63-000",
                "addr:city": "\u015aroda Wielkopolska",
                "addr:street": "Kosynier\u00f3w",
                "addr:housenumber": "2b",
                "addr:city:simc": 971614,
                "addr:street:sym_ul": 9501,
                "phone": "+48 612852328",
                "email": "sekretariat@zsrsroda.pl",
                "website": "http:\/\/zsrsroda.pl",
                "ref:regon": "300038565",
                "ref:vatin": "PL7860008654",
                "operator": "Powiat \u015aredzki",
                "operator:type": "government",
                "amenity": "school",
                "note": "Parent RSPO: 10983"
            }
        },
        {
            "id": 14351,
            "type": "Feature",
            "geometry": {
                "type": "Point",
                "coordinates": [
                    17.26793,
                    52.23522
                ]
            },
            "properties": {
                "isced:level": "3",
                "ref:rspo": 14351,
                "official_name": "Niepubliczne Liceum Og\u00f3lnoksza\u0142c\u0105ce dla Doros\u0142ych",
                "name": "Niepubliczne Liceum Og\u00f3lnoksza\u0142c\u0105ce dla Doros\u0142ych",
                "addr:postcode": "63-000",
                "addr:city": "\u015aroda Wielkopolska",
                "addr:street": "Surzy\u0144skich",
                "addr:housenumber": "2",
                "addr:city:simc": 971614,
                "addr:street:sym_ul": 42988,
                "phone": "+48 612224581",
                "email": "zsa@wwsse.pl",
                "website": "http:\/\/wwsse.pl",
                "ref:regon": "302212659",
                "operator": "Wielkopolska Wy\u017csza Szko\u0142a Spo\u0142eczno-Ekonomiczna W \u015arodzie Wlkp. Z Siedzib\u0105 W \u015arodzie Wlkp.",
                "operator:type": "private",
                "amenity": "school"
            }
        },
        {
            "id": 123333,
            "type": "Feature",
            "geometry": {
                "type": "Point",
                "coordinates": [
                    17.26793,
                    52.235189999999996
                ]
            },
            "properties": {
                "isced:level": "1;2",
                "ref:rspo": 123333,
                "official_name": "Niepubliczna Szko\u0142a Podstawowa",
                "name": "Niepubliczna Szko\u0142a Podstawowa",
                "addr:postcode": "63-000",
                "addr:city": "\u015aroda Wielkopolska",
                "addr:street": "Surzy\u0144skich",
                "addr:housenumber": "2",
                "addr:city:simc": 971614,
                "addr:street:sym_ul": 42988,
                "email": "zsa.sp@wwsse.pl",
                "ref:regon": "302755029",
                "operator": "Wielkopolska Wy\u017csza Szko\u0142a Spo\u0142eczno-Ekonomiczna W \u015arodzie Wlkp. Z Siedzib\u0105 W \u015arodzie Wlkp.",
                "operator:type": "private",
                "amenity": "school"
            }
        },
        {
            "id": 123719,
            "type": "Feature",
            "geometry": {
                "type": "Point",
                "coordinates": [
                    17.26793,
                    52.23516
                ]
            },
            "properties": {
                "isced:level": "3",
                "ref:rspo": 123719,
                "official_name": "Niepubliczne Liceum Og\u00f3lnokszta\u0142c\u0105ce w \u015arodzie Wielkopolskiej",
                "name": "Niepubliczne Liceum Og\u00f3lnokszta\u0142c\u0105ce w \u015arodzie Wielkopolskiej",
                "addr:postcode": "63-000",
                "addr:city": "\u015aroda Wielkopolska",
                "addr:street": "Surzy\u0144skich",
                "addr:housenumber": "2",
                "addr:city:simc": 971614,
                "addr:street:sym_ul": 42988,
                "phone": "+48 694694016",
                "email": "zsa.lo@wwsse.pl",
                "ref:regon": "302785250",
                "operator": "Wielkopolska Wy\u017csza Szko\u0142a Spo\u0142eczno-Ekonomiczna W \u015arodzie Wlkp. Z Siedzib\u0105 W \u015arodzie Wlkp.",
                "operator:type": "private",
                "amenity": "school"
            }
        },
        {
            "id": 263558,
            "type": "Feature",
            "geometry": {
                "type": "Point",
                "coordinates": [
                    17.26793,
                    52.23513
                ]
            },
            "properties": {
                "ref:rspo": 263558,
                "official_name": "Niepubliczne Przedszkole Akademickie",
                "name": "Niepubliczne Przedszkole Akademickie",
                "addr:postcode": "63-000",
                "addr:city": "\u015aroda Wielkopolska",
                "addr:street": "Surzy\u0144skich",
                "addr:housenumber": "2",
                "addr:city:simc": 971614,
                "addr:street:sym_ul": 42988,
                "phone": "+48 694694016",
                "email": "zsa@wwsse.pl",
                "ref:regon": "368200107",
                "operator": "Fundacja Edukacja",
                "operator:type": "ngo",
                "amenity": "kindergarten"
            }
        },
        {
            "id": 132737,
            "type": "Feature",
            "geometry": {
                "type": "Point",
                "coordinates": [
                    17.26946,
                    52.23895
                ]
            },
            "properties": {
                "ref:rspo": 132737,
                "official_name": "Niepubliczne Przedszkole Akademia Misia Wioletta \u015alebioda",
                "name": "Niepubliczne Przedszkole Akademia Misia Wioletta \u015alebioda",
                "addr:postcode": "63-000",
                "addr:city": "\u015aroda Wielkopolska",
                "addr:street": "Nagietkowa",
                "addr:housenumber": "5",
                "addr:city:simc": 971614,
                "addr:street:sym_ul": 13930,
                "phone": "+48 601924410",
                "email": "rafalsle1@wp.pl",
                "ref:regon": "366136500",
                "operator": "Wioletta \u015alebioda",
                "operator:type": "private",
                "amenity": "kindergarten"
            }
        },
        {
            "id": 268941,
            "type": "Feature",
            "geometry": {
                "type": "Point",
                "coordinates": [
                    17.2691787,
                    52.2391793
                ]
            },
            "properties": {
                "ref:rspo": 268941,
                "official_name": "Og\u00f3lnopolskie Centrum Doskonalenia Nauczycieli Mastermetodyka",
                "name": "Og\u00f3lnopolskie Centrum Doskonalenia Nauczycieli Mastermetodyka",
                "addr:postcode": "63-000",
                "addr:city": "\u015aroda Wielkopolska",
                "addr:street": "Sasankowa",
                "addr:housenumber": "7",
                "addr:city:simc": 971614,
                "addr:street:sym_ul": 19549,
                "phone": "+48 730916600",
                "ref:regon": "381298990",
                "operator": "Ma\u0142gorzata Kempa",
                "operator:type": "private",
                "amenity": "training"
            }
        },
        {
            "id": 20830,
            "type": "Feature",
            "geometry": {
                "type": "Point",
                "coordinates": [
                    17.27429,
                    52.23989
                ]
            },
            "properties": {
                "ref:rspo": 20830,
                "official_name": "Plac\u00f3wka Niepublicznego Kszta\u0142cenia Ustawicznego Ligi Obrony Kraju",
                "name": "Plac\u00f3wka Niepublicznego Kszta\u0142cenia Ustawicznego Ligi Obrony Kraju",
                "addr:postcode": "63-000",
                "addr:city": "\u015aroda Wielkopolska",
                "addr:street": "Strzelecka",
                "addr:housenumber": "23",
                "addr:city:simc": 971614,
                "addr:street:sym_ul": 21381,
                "phone": "+48 612852640",
                "email": "biuro.osksroda_wielkopolska@lok.org.pl",
                "website": "http:\/\/www.lok.org.pl",
                "ref:regon": "302227684",
                "ref:vatin": "PL7860005644",
                "operator": "Liga Obrony Kraju",
                "operator:type": "ngo",
                "fixme": "w zale\u017cno\u015bci od przedmiotu dzia\u0142alno\u015bci (np. amenity=training + training=*, amenity=dancing_school, amenity=language_school, amenity=music_school)"
            }
        },
        {
            "id": 115355,
            "type": "Feature",
            "geometry": {
                "type": "Point",
                "coordinates": [
                    17.2296799,
                    52.25555
                ]
            },
            "properties": {
                "isced:level": "1;2",
                "ref:rspo": 115355,
                "official_name": "Niepubliczna Szko\u0142a Podstawowa w Jaros\u0142awcu",
                "name": "Niepubliczna Szko\u0142a Podstawowa w Jaros\u0142awcu",
                "addr:postcode": "63-000",
                "addr:place": "Jaros\u0142awiec",
                "addr:housenumber": "34a",
                "addr:city:simc": 596910,
                "phone": "+48 612819132",
                "email": "nsp.jaroslawiec@edu-21.pl",
                "ref:regon": "302469720",
                "operator": "Stowarzyszenie Rodzic\u00f3w I Nauczycieli Powiatu \u015aredzkiego \"Edu-Xxi\"",
                "operator:type": "ngo",
                "amenity": "school"
            }
        },
        {
            "id": 115350,
            "type": "Feature",
            "geometry": {
                "type": "Point",
                "coordinates": [
                    17.28034,
                    52.30431
                ]
            },
            "properties": {
                "isced:level": "1;2",
                "ref:rspo": 115350,
                "official_name": "Niepubliczna Szko\u0142a Podstawowa w P\u0142awcach",
                "name": "Niepubliczna Szko\u0142a Podstawowa w P\u0142awcach",
                "addr:postcode": "63-000",
                "addr:place": "P\u0142awce",
                "addr:housenumber": "38",
                "addr:city:simc": 597073,
                "phone": "+48 612876163",
                "email": "nsp.plawce@edu-21.pl",
                "website": "http:\/\/www.plawce.edu-21.pl",
                "ref:regon": "302469683",
                "operator": "Stowarzyszenie Rodzic\u00f3w I Nauczycieli Powiatu \u015aredzkiego \"Edu-Xxi\"",
                "operator:type": "ngo",
                "amenity": "school"
            }
        }
    ]
}