{"type":"FeatureCollection","features":[{"id":128468,"type":"Feature","geometry":{"type":"Point","coordinates":[17.22213,52.1496799]},"properties":{"ref:rspo":128468,"official_name":"Niepubliczne Przedszkole \"Mali Odkrywcy\"","name":"Niepubliczne Przedszkole \"Mali Odkrywcy\"","addr:country":"PL","addr:postcode":"63-020","addr:place":"Czarnotki","addr:housenumber":"47","addr:teryt:sym_ul":598256,"ref:regon":"362289796","operator":"\"Stowarzyszenie Na Rzecz Rozwoju Gminy Zaniemy\u015bl - Wuchta Wiary\"","operator:type":"ngo","amenity":"kindergarten"}},{"id":29704,"type":"Feature","geometry":{"type":"Point","coordinates":[17.16418,52.15724]},"properties":{"ref:rspo":29704,"official_name":"Przedszkole Samorz\u0105dowe \" Kolorowy \u015awiat\" w Zaniemy\u015blu","name":"Przedszkole Samorz\u0105dowe \" Kolorowy \u015awiat\" w Zaniemy\u015blu","addr:country":"PL","addr:postcode":"63-020","addr:city":"Zaniemy\u015bl","addr:street":"ul. Sienkiewicza","addr:housenumber":"4","addr:teryt:simc":19830,"addr:teryt:sym_ul":598546,"contact:phone":"+48 612857007","contact:email":"przedszkole_zaniemysl@wp.pl","contact:website":"http:\/\/www.przedszkole.zaniemysl.pl","ref:regon":"634220890","ref:vatin":"PL7861705935","operator":"Gmina Zaniemy\u015bl","operator:type":"government","amenity":"kindergarten"}},{"id":128478,"type":"Feature","geometry":{"type":"Point","coordinates":[17.15585,52.1614999]},"properties":{"ref:rspo":128478,"official_name":"Prywatne Niepubliczne Przedszkole A Kuku","name":"Prywatne Niepubliczne Przedszkole A Kuku","addr:country":"PL","addr:postcode":"63-020","addr:city":"\u0141\u0119kno","addr:street":"ul. Pozna\u0144ska","addr:housenumber":"4","addr:teryt:simc":17394,"addr:teryt:sym_ul":598368,"contact:phone":"+48 691615876","contact:email":"akukuklub@wp.pl","contact:website":"http:\/\/www.akukuklub.pl","ref:regon":"362289738","operator":"Milena Ziemba","operator:type":"private","amenity":"kindergarten"}},{"id":34280,"type":"Feature","geometry":{"type":"Point","coordinates":[17.1545099,52.16345]},"properties":{"isced:level":"1;2","ref:rspo":34280,"official_name":"Szko\u0142a Podstawowa im. R. W. Berwi\u0144skiego w Zaniemy\u015blu","name":"Szko\u0142a Podstawowa","addr:country":"PL","addr:postcode":"63-020","addr:city":"Zaniemy\u015bl","addr:street":"ul. Pozna\u0144ska","addr:housenumber":"28","addr:teryt:simc":17394,"addr:teryt:sym_ul":598546,"contact:phone":"+48 612857089","contact:email":"sekretariat@podstawowa.zaniemysl.pl","contact:website":"http:\/\/www.podstawowa.zaniemysl.pl\/","ref:regon":"000271779","ref:vatin":"PL7861705941","operator":"Gmina Zaniemy\u015bl","operator:type":"government","amenity":"school"}},{"id":263637,"type":"Feature","geometry":{"type":"Point","coordinates":[17.1545099,52.163419999999995]},"properties":{"ref:rspo":263637,"official_name":"Niepubliczne Przedszkole Artystyczno-J\u0119zykowe \"Kreatywne Brzd\u0105ce\" Marta Dobosz","name":"Niepubliczne Przedszkole Artystyczno-J\u0119zykowe \"Kreatywne Brzd\u0105ce\" Marta Dobosz","addr:country":"PL","addr:postcode":"63-020","addr:city":"Zaniemy\u015bl","addr:street":"ul. Pozna\u0144ska","addr:housenumber":"45","addr:teryt:simc":17394,"addr:teryt:sym_ul":598546,"contact:email":"przedszkole@kreatywnebrzdace.pl","contact:website":"http:\/\/www.kreatywnebrzdace.pl","ref:regon":"368209634","operator":"Marta Dobosz","operator:type":"private","amenity":"kindergarten"}},{"id":264962,"type":"Feature","geometry":{"type":"Point","coordinates":[17.1545099,52.16339]},"properties":{"ref:rspo":264962,"official_name":"Niepubliczne Szkolne Schronisko M\u0142odzie\u017cow","name":"Niepubliczne Szkolne Schronisko M\u0142odzie\u017cow","addr:country":"PL","addr:postcode":"63-020","addr:city":"Zaniemy\u015bl","addr:street":"ul. Pozna\u0144ska","addr:housenumber":"28","addr:door":"-","addr:teryt:simc":17394,"addr:teryt:sym_ul":598546,"contact:phone":"+48 612814228","ref:regon":"368530320","operator":"Powiatowe Centrum Inwestycji Sp\u00f3\u0142ka Z Ograniczon\u0105 Odpowiedzialno\u015bci\u0105","operator:type":"private","tourism":"hostel"}},{"id":279181,"type":"Feature","geometry":{"type":"Point","coordinates":[17.1545099,52.16336]},"properties":{"ref:rspo":279181,"official_name":"Szkolne Schronisko M\u0142odzie\u017cowe w Zaniemy\u015blu","name":"Szkolne Schronisko M\u0142odzie\u017cowe w Zaniemy\u015blu","addr:country":"PL","addr:postcode":"63-020","addr:city":"Zaniemy\u015bl","addr:street":"ul. Pozna\u0144ska","addr:housenumber":"28","addr:teryt:simc":17394,"addr:teryt:sym_ul":598546,"contact:phone":"+48 612857142","contact:email":"cuw.dyrektor@zaniemysl.pl","ref:regon":"520806700","operator":"Gmina Zaniemy\u015bl","operator:type":"government","tourism":"hostel"}},{"id":31817,"type":"Feature","geometry":{"type":"Point","coordinates":[17.2467599,52.18248]},"properties":{"isced:level":"1;2","ref:rspo":31817,"official_name":"Szko\u0142a Podstawowa im. Jana Paw\u0142a II w Pig\u0142owicach","name":"Szko\u0142a Podstawowa","addr:country":"PL","addr:postcode":"63-021","addr:place":"Pig\u0142owice","addr:housenumber":"32A","addr:teryt:sym_ul":598411,"contact:phone":"+48 612857204","contact:email":"szkola@piglowice.pl","contact:website":"http:\/\/www.szkolapiglowice.pl","ref:regon":"302261280","operator":"Stowarzyszenie Na Rzecz Rozwoju O\u015bwiaty I Kultury Na Wsi","operator:type":"ngo","amenity":"school"}},{"id":122569,"type":"Feature","geometry":{"type":"Point","coordinates":[17.2467599,52.182449999999996]},"properties":{"ref:rspo":122569,"official_name":"Niepubliczne Przedszkole \u201eTygryski\u201d","name":"Niepubliczne Przedszkole \u201eTygryski\u201d","addr:country":"PL","addr:postcode":"63-021","addr:place":"Pig\u0142owice","addr:housenumber":"32A","addr:teryt:sym_ul":598411,"contact:phone":"+48 612857204","contact:email":"szkola@piglowice.pl","contact:website":"http:\/\/www.piglowice.pl","ref:regon":"302684097","operator":"Stowarzyszenie Na Rzecz Rozwoju O\u015bwiaty I Kultury Na Wsi","operator:type":"ngo","amenity":"kindergarten"}},{"id":29705,"type":"Feature","geometry":{"type":"Point","coordinates":[17.18356,52.1933999]},"properties":{"isced:level":"1;2","ref:rspo":29705,"official_name":"Szko\u0142a Podstawowa w \u015anieciskach","name":"Szko\u0142a Podstawowa w \u015anieciskach","addr:country":"PL","addr:postcode":"63-021","addr:city":"\u015anieciska","addr:street":"ul. Ko\u015bcielna","addr:housenumber":"2","addr:teryt:simc":9546,"addr:teryt:sym_ul":598486,"contact:phone":"+48 612857626","contact:email":"snieciskaszkola@wp.pl","contact:website":"http:\/\/www.spsnieciska.szkolna.net","ref:regon":"001228076","ref:vatin":"PL7861705929","operator":"Gmina Zaniemy\u015bl","operator:type":"government","amenity":"school"}}]}