{
    "type": "FeatureCollection",
    "features": [
        {
            "id": 265856,
            "type": "Feature",
            "geometry": {
                "type": "Point",
                "coordinates": [
                    17.32945,
                    52.10669
                ]
            },
            "properties": {
                "ref:rspo": 265856,
                "official_name": "Przedszkole w Solcu",
                "name": "Przedszkole w Solcu",
                "addr:postcode": "63-023",
                "addr:city": "Solec",
                "addr:street": "G\u0142\u00f3wna",
                "addr:housenumber": "4",
                "addr:teryt:simc": 587011,
                "addr:teryt:sym_ul": 5635,
                "phone": "+48 612851580",
                "ref:regon": "368948981",
                "operator": "Gmina Krzykosy",
                "operator:type": "government",
                "amenity": "kindergarten",
                "note": "Parent RSPO: 12655"
            }
        },
        {
            "id": 12655,
            "type": "Feature",
            "geometry": {
                "type": "Point",
                "coordinates": [
                    17.37291,
                    52.10994
                ]
            },
            "properties": {
                "ref:rspo": 12655,
                "official_name": "Zesp\u00f3\u0142 Szk\u00f3\u0142 w Krzykosach",
                "name": "Zesp\u00f3\u0142 Szk\u00f3\u0142 w Krzykosach",
                "addr:postcode": "63-024",
                "addr:city": "Krzykosy",
                "addr:street": "G\u0142\u00f3wna",
                "addr:housenumber": "39",
                "addr:teryt:simc": 586833,
                "addr:teryt:sym_ul": 5635,
                "phone": "+48 612851580",
                "email": "krzykosy@szkola.wp.pl",
                "ref:regon": "634407759",
                "ref:vatin": "PL7861591897",
                "operator": "Gmina Krzykosy",
                "operator:type": "government",
                "landuse": "education",
                "fixme": "amenity=school, amenity=college albo landuse=education w zale\u017cno\u015bci od tego, jakie plac\u00f3wki wchodz\u0105 w sk\u0142ad zespo\u0142u. Sprawd\u017a, kiedy stosowa\u0107 amenity=* a kiedy landuse=education.",
                "note": "Children RSPO: 43593;43781;265856"
            }
        },
        {
            "id": 43593,
            "type": "Feature",
            "geometry": {
                "type": "Point",
                "coordinates": [
                    17.37291,
                    52.10991
                ]
            },
            "properties": {
                "isced:level": "1;2",
                "ref:rspo": 43593,
                "official_name": "Szko\u0142a Podstawowa im. Marii Konopnickiej w Krzykosach",
                "name": "Szko\u0142a Podstawowa",
                "addr:postcode": "63-024",
                "addr:city": "Krzykosy",
                "addr:street": "G\u0142\u00f3wna",
                "addr:housenumber": "39",
                "addr:teryt:simc": 586833,
                "addr:teryt:sym_ul": 5635,
                "phone": "+48 612851580",
                "email": "krzykosy@szkola.wp.pl",
                "ref:regon": "000656516",
                "ref:vatin": "PL7861591897",
                "operator": "Gmina Krzykosy",
                "operator:type": "government",
                "amenity": "school",
                "note": "Parent RSPO: 12655"
            }
        },
        {
            "id": 12643,
            "type": "Feature",
            "geometry": {
                "type": "Point",
                "coordinates": [
                    17.30617,
                    52.11571
                ]
            },
            "properties": {
                "ref:rspo": 12643,
                "official_name": "Zesp\u00f3\u0142 Szkolno - Przedszkolny w Sul\u0119cinie",
                "name": "Zesp\u00f3\u0142 Szkolno - Przedszkolny w Sul\u0119cinie",
                "addr:postcode": "63-023",
                "addr:city": "Sul\u0119cin",
                "addr:street": "D\u0142uga",
                "addr:housenumber": "24",
                "addr:teryt:simc": 587040,
                "addr:teryt:sym_ul": 3839,
                "phone": "+48 612851466",
                "email": "szkolapodstsulecin@tlen.pl",
                "ref:regon": "634607524",
                "ref:vatin": "PL7861591868",
                "operator": "Gmina Krzykosy",
                "operator:type": "government",
                "landuse": "education",
                "fixme": "amenity=school, amenity=college albo landuse=education w zale\u017cno\u015bci od tego, jakie plac\u00f3wki wchodz\u0105 w sk\u0142ad zespo\u0142u. Sprawd\u017a, kiedy stosowa\u0107 amenity=* a kiedy landuse=education.",
                "note": "Children RSPO: 44429;44558"
            }
        },
        {
            "id": 44429,
            "type": "Feature",
            "geometry": {
                "type": "Point",
                "coordinates": [
                    17.30617,
                    52.11568
                ]
            },
            "properties": {
                "ref:rspo": 44429,
                "official_name": "Przedszkole w Sul\u0119cinie",
                "name": "Przedszkole w Sul\u0119cinie",
                "addr:postcode": "63-023",
                "addr:city": "Sul\u0119cin",
                "addr:street": "D\u0142uga",
                "addr:housenumber": "24",
                "addr:teryt:simc": 587040,
                "addr:teryt:sym_ul": 3839,
                "phone": "+48 612851466",
                "ref:regon": "634607530",
                "ref:vatin": "PL7861591868",
                "operator": "Gmina Krzykosy",
                "operator:type": "government",
                "amenity": "kindergarten",
                "note": "Parent RSPO: 12643"
            }
        },
        {
            "id": 44558,
            "type": "Feature",
            "geometry": {
                "type": "Point",
                "coordinates": [
                    17.30617,
                    52.11565
                ]
            },
            "properties": {
                "isced:level": "1;2",
                "ref:rspo": 44558,
                "official_name": "Szko\u0142a Podstawowa im. Henryka Sienkiewicza w Sul\u0119cinie",
                "name": "Szko\u0142a Podstawowa",
                "addr:postcode": "63-023",
                "addr:city": "Sul\u0119cin",
                "addr:street": "D\u0142uga",
                "addr:housenumber": "24",
                "addr:teryt:simc": 587040,
                "addr:teryt:sym_ul": 3839,
                "phone": "+48 612851466",
                "email": "szkolapodstsulecin@tlen.pl",
                "ref:regon": "001228159",
                "ref:vatin": "PL7861591868",
                "operator": "Gmina Krzykosy",
                "operator:type": "government",
                "amenity": "school",
                "note": "Parent RSPO: 12643"
            }
        },
        {
            "id": 265857,
            "type": "Feature",
            "geometry": {
                "type": "Point",
                "coordinates": [
                    17.4185899,
                    52.11812
                ]
            },
            "properties": {
                "ref:rspo": 265857,
                "official_name": "Przedszkole w Witowie",
                "name": "Przedszkole w Witowie",
                "addr:postcode": "63-025",
                "addr:place": "Witowo",
                "addr:housenumber": "48",
                "addr:teryt:simc": 587117,
                "phone": "+48 612851581",
                "ref:regon": "368948751",
                "operator": "Gmina Krzykosy",
                "operator:type": "government",
                "amenity": "kindergarten",
                "note": "Parent RSPO: 12690"
            }
        },
        {
            "id": 43985,
            "type": "Feature",
            "geometry": {
                "type": "Point",
                "coordinates": [
                    17.4509222,
                    52.1194688
                ]
            },
            "properties": {
                "ref:rspo": 43985,
                "official_name": "Przedszkole w Pi\u0119czkowie",
                "name": "Przedszkole w Pi\u0119czkowie",
                "addr:postcode": "63-025",
                "addr:city": "Pi\u0119czkowo",
                "addr:street": "Powsta\u0144c\u00f3w Wielkopolskich",
                "addr:housenumber": "47",
                "addr:teryt:simc": 586997,
                "addr:teryt:sym_ul": 17377,
                "phone": "+48 612851581",
                "ref:regon": "632055500",
                "ref:vatin": "PL7861591880",
                "operator": "Gmina Krzykosy",
                "operator:type": "government",
                "amenity": "kindergarten",
                "note": "Parent RSPO: 12690"
            }
        },
        {
            "id": 12690,
            "type": "Feature",
            "geometry": {
                "type": "Point",
                "coordinates": [
                    17.44146,
                    52.11999
                ]
            },
            "properties": {
                "ref:rspo": 12690,
                "official_name": "Zesp\u00f3\u0142 Szk\u00f3\u0142 w Pi\u0119czkowie",
                "name": "Zesp\u00f3\u0142 Szk\u00f3\u0142 w Pi\u0119czkowie",
                "addr:postcode": "63-025",
                "addr:city": "Pi\u0119czkowo",
                "addr:street": "Szkolna",
                "addr:housenumber": "5",
                "addr:teryt:simc": 586997,
                "addr:teryt:sym_ul": 21970,
                "phone": "+48 612851581",
                "email": "zspieczkowo@op.pl",
                "website": "http:\/\/www.zspieczkowo.edupage.org",
                "ref:regon": "634407765",
                "ref:vatin": "PL7861591880",
                "operator": "Gmina Krzykosy",
                "operator:type": "government",
                "landuse": "education",
                "fixme": "amenity=school, amenity=college albo landuse=education w zale\u017cno\u015bci od tego, jakie plac\u00f3wki wchodz\u0105 w sk\u0142ad zespo\u0142u. Sprawd\u017a, kiedy stosowa\u0107 amenity=* a kiedy landuse=education.",
                "note": "Children RSPO: 43882;43985;265857"
            }
        },
        {
            "id": 43882,
            "type": "Feature",
            "geometry": {
                "type": "Point",
                "coordinates": [
                    17.44146,
                    52.11996
                ]
            },
            "properties": {
                "isced:level": "1;2",
                "ref:rspo": 43882,
                "official_name": "Szko\u0142a Podstawowa im. Jana Henryka D\u0105browskiego w Pi\u0119czkowie",
                "name": "Szko\u0142a Podstawowa",
                "addr:postcode": "63-025",
                "addr:city": "Pi\u0119czkowo",
                "addr:street": "Szkolna",
                "addr:housenumber": "5",
                "addr:teryt:simc": 586997,
                "addr:teryt:sym_ul": 21970,
                "phone": "+48 612851581",
                "email": "zspieczkowo@op.pl",
                "website": "http:\/\/www.zspieczkowo.edupage.org",
                "ref:regon": "001227585",
                "ref:vatin": "PL7861591880",
                "operator": "Gmina Krzykosy",
                "operator:type": "government",
                "amenity": "school",
                "note": "Parent RSPO: 12690"
            }
        },
        {
            "id": 12689,
            "type": "Feature",
            "geometry": {
                "type": "Point",
                "coordinates": [
                    17.32041,
                    52.13576
                ]
            },
            "properties": {
                "ref:rspo": 12689,
                "official_name": "Zesp\u00f3\u0142 Szk\u00f3\u0142 w Sul\u0119cinku",
                "name": "Zesp\u00f3\u0142 Szk\u00f3\u0142 w Sul\u0119cinku",
                "addr:postcode": "63-023",
                "addr:city": "Sul\u0119cinek",
                "addr:street": "Szkolna",
                "addr:housenumber": "26",
                "addr:teryt:simc": 587070,
                "addr:teryt:sym_ul": 21970,
                "phone": "+48 612851469",
                "email": "zssulecinek@op.pl",
                "website": "http:\/\/www.szkolasulecinek.pl",
                "ref:regon": "634407742",
                "ref:vatin": "PL7861591874",
                "operator": "Gmina Krzykosy",
                "operator:type": "government",
                "landuse": "education",
                "fixme": "amenity=school, amenity=college albo landuse=education w zale\u017cno\u015bci od tego, jakie plac\u00f3wki wchodz\u0105 w sk\u0142ad zespo\u0142u. Sprawd\u017a, kiedy stosowa\u0107 amenity=* a kiedy landuse=education.",
                "note": "Children RSPO: 44660;49732"
            }
        },
        {
            "id": 44660,
            "type": "Feature",
            "geometry": {
                "type": "Point",
                "coordinates": [
                    17.32041,
                    52.135729999999995
                ]
            },
            "properties": {
                "ref:rspo": 44660,
                "official_name": "Przedszkole w Sul\u0119cinku",
                "name": "Przedszkole w Sul\u0119cinku",
                "addr:postcode": "63-023",
                "addr:city": "Sul\u0119cinek",
                "addr:street": "Szkolna",
                "addr:housenumber": "26",
                "addr:teryt:simc": 587070,
                "addr:teryt:sym_ul": 21970,
                "phone": "+48 612851469",
                "email": "zssulecinek@op.pl",
                "website": "http:\/\/www.szkolasulecinek.pl",
                "ref:regon": "634607501",
                "ref:vatin": "PL7861591874",
                "operator": "Gmina Krzykosy",
                "operator:type": "government",
                "amenity": "kindergarten",
                "note": "Parent RSPO: 12689"
            }
        },
        {
            "id": 49732,
            "type": "Feature",
            "geometry": {
                "type": "Point",
                "coordinates": [
                    17.32041,
                    52.1357
                ]
            },
            "properties": {
                "isced:level": "1;2",
                "ref:rspo": 49732,
                "official_name": "Szko\u0142a Podstawowa im. Janusza Korczaka w Sul\u0119cinku",
                "name": "Szko\u0142a Podstawowa",
                "addr:postcode": "63-023",
                "addr:city": "Sul\u0119cinek",
                "addr:street": "Szkolna",
                "addr:housenumber": "26",
                "addr:teryt:simc": 587070,
                "addr:teryt:sym_ul": 21970,
                "phone": "+48 612851469",
                "email": "zssulecinek@op.pl",
                "website": "http:\/\/www.szkolasulecinek.pl",
                "ref:regon": "001227579",
                "ref:vatin": "PL7861591868",
                "operator": "Gmina Krzykosy",
                "operator:type": "government",
                "amenity": "school",
                "note": "Parent RSPO: 12689"
            }
        },
        {
            "id": 43781,
            "type": "Feature",
            "geometry": {
                "type": "Point",
                "coordinates": [
                    17.31129,
                    52.13733
                ]
            },
            "properties": {
                "ref:rspo": 43781,
                "official_name": "Przedszkole w Krzykosach",
                "name": "Przedszkole w Krzykosach",
                "addr:postcode": "63-024",
                "addr:city": "Krzykosy",
                "addr:street": "G\u0142\u00f3wna",
                "addr:housenumber": "8",
                "addr:teryt:simc": 586833,
                "addr:teryt:sym_ul": 5635,
                "phone": "+48 612851580",
                "ref:regon": "632055575",
                "ref:vatin": "PL7861591897",
                "operator": "Gmina Krzykosy",
                "operator:type": "government",
                "amenity": "kindergarten",
                "note": "Parent RSPO: 12655"
            }
        },
        {
            "id": 12649,
            "type": "Feature",
            "geometry": {
                "type": "Point",
                "coordinates": [
                    17.33927,
                    52.1554
                ]
            },
            "properties": {
                "ref:rspo": 12649,
                "official_name": "Zesp\u00f3\u0142 Szkolno - Przedszkolny w Murzynowie Le\u015bnym",
                "name": "Zesp\u00f3\u0142 Szkolno - Przedszkolny w Murzynowie Le\u015bnym",
                "addr:postcode": "63-023",
                "addr:city": "Murzynowo Le\u015bne",
                "addr:street": "Pozna\u0144ska",
                "addr:housenumber": "74",
                "addr:teryt:simc": 586951,
                "addr:teryt:sym_ul": 17394,
                "phone": "+48 612851460",
                "email": "spmlesne@op.pl",
                "ref:regon": "634607547",
                "ref:vatin": "PL7861591905",
                "operator": "Gmina Krzykosy",
                "operator:type": "government",
                "landuse": "education",
                "fixme": "amenity=school, amenity=college albo landuse=education w zale\u017cno\u015bci od tego, jakie plac\u00f3wki wchodz\u0105 w sk\u0142ad zespo\u0142u. Sprawd\u017a, kiedy stosowa\u0107 amenity=* a kiedy landuse=education.",
                "note": "Children RSPO: 44039;44111"
            }
        },
        {
            "id": 44111,
            "type": "Feature",
            "geometry": {
                "type": "Point",
                "coordinates": [
                    17.33927,
                    52.15537
                ]
            },
            "properties": {
                "isced:level": "1;2",
                "ref:rspo": 44111,
                "official_name": "Szko\u0142a Podstawowa im. Arkadego Fiedlera w Murzynowie Le\u015bnym",
                "name": "Szko\u0142a Podstawowa",
                "addr:postcode": "63-023",
                "addr:city": "Murzynowo Le\u015bne",
                "addr:street": "Pozna\u0144ska",
                "addr:housenumber": "74",
                "addr:teryt:simc": 586951,
                "addr:teryt:sym_ul": 17394,
                "phone": "+48 612851460",
                "email": "spmlesne@op.pl",
                "ref:regon": "001228165",
                "ref:vatin": "PL7861591905",
                "operator": "Gmina Krzykosy",
                "operator:type": "government",
                "amenity": "school",
                "note": "Parent RSPO: 12649"
            }
        },
        {
            "id": 44039,
            "type": "Feature",
            "geometry": {
                "type": "Point",
                "coordinates": [
                    17.38482,
                    52.15692
                ]
            },
            "properties": {
                "ref:rspo": 44039,
                "official_name": "Przedszkole w Murzyn\u00f3wku",
                "name": "Przedszkole w Murzyn\u00f3wku",
                "addr:postcode": "63-023",
                "addr:place": "Murzyn\u00f3wko",
                "addr:housenumber": "3",
                "addr:teryt:simc": 586885,
                "phone": "+48 612851460",
                "ref:regon": "632055569",
                "ref:vatin": "PL7861591905",
                "operator": "Gmina Krzykosy",
                "operator:type": "government",
                "amenity": "kindergarten",
                "note": "Parent RSPO: 12649"
            }
        },
        {
            "id": 131323,
            "type": "Feature",
            "geometry": {
                "type": "Point",
                "coordinates": [
                    17.37605,
                    52.16533
                ]
            },
            "properties": {
                "ref:rspo": 131323,
                "official_name": "O\u015brodek Rewalidacyjno Edukacyjno Wychowawczy Zielona Wyspa Z Oddzia\u0142em Wczesnego Wspomagania",
                "name": "O\u015brodek Rewalidacyjno Edukacyjno Wychowawczy Zielona Wyspa Z Oddzia\u0142em Wczesnego Wspomagania",
                "addr:postcode": "63-023",
                "addr:place": "Mi\u0105skowo",
                "addr:housenumber": "26a",
                "addr:teryt:simc": 586862,
                "phone": "+48 602777869",
                "email": "kontakt@zielonawyspa.net",
                "website": "http:\/\/www.zielonawyspa.net",
                "ref:regon": "365117162",
                "operator": "Karolina Makowska",
                "operator:type": "private",
                "amenity": "school"
            }
        }
    ]
}