{
    "type": "FeatureCollection",
    "features": [
        {
            "id": 43791,
            "type": "Feature",
            "geometry": {
                "type": "Point",
                "coordinates": [
                    17.36184,
                    52.04512
                ]
            },
            "properties": {
                "isced:level": "1;2",
                "ref:rspo": 43791,
                "official_name": "Szko\u0142a Podstawowa im.ks.jana Twardowskiego w Kolniczkach",
                "name": "Szko\u0142a Podstawowa im.ks.jana Twardowskiego w Kolniczkach",
                "addr:postcode": "63-040",
                "addr:place": "Kolniczki",
                "addr:housenumber": "11A",
                "addr:teryt:simc": 590800,
                "phone": "+48 612875270",
                "email": "spkolniczki11@vp.pl",
                "website": "http:\/\/www.spkolniczki.pl",
                "ref:regon": "001227303",
                "operator": "Gmina Nowe Miasto Nad Wart\u0105",
                "operator:type": "government",
                "amenity": "school"
            }
        },
        {
            "id": 43792,
            "type": "Feature",
            "geometry": {
                "type": "Point",
                "coordinates": [
                    17.33048,
                    52.06281
                ]
            },
            "properties": {
                "isced:level": "1;2",
                "ref:rspo": 43792,
                "official_name": "Szko\u0142a Podstawowa im. Janusza Korczaka w Boguszynie",
                "name": "Szko\u0142a Podstawowa",
                "addr:postcode": "63-040",
                "addr:city": "Boguszyn",
                "addr:street": "\u015aremska",
                "addr:housenumber": "35",
                "addr:teryt:simc": 590680,
                "addr:teryt:sym_ul": 22415,
                "phone": "+48 612875223",
                "email": "szkola_boguszyn@wp.pl",
                "website": "http:\/\/www.spboguszyn.webity.pl",
                "ref:regon": "001227272",
                "operator": "Gmina Nowe Miasto Nad Wart\u0105",
                "operator:type": "government",
                "amenity": "school"
            }
        },
        {
            "id": 29340,
            "type": "Feature",
            "geometry": {
                "type": "Point",
                "coordinates": [
                    17.36611,
                    52.07051
                ]
            },
            "properties": {
                "ref:rspo": 29340,
                "official_name": "Zesp\u00f3\u0142 Szk\u00f3\u0142 im. Jana Paw\u0142a II w Chociczy",
                "name": "Zesp\u00f3\u0142 Szk\u00f3\u0142",
                "addr:postcode": "63-041",
                "addr:city": "Chocicza",
                "addr:street": "\u015aremska",
                "addr:housenumber": "30",
                "addr:teryt:simc": 590734,
                "addr:teryt:sym_ul": 22415,
                "phone": "+48 612875293",
                "email": "spchocicza@poczta.onet.pl",
                "website": "http:\/\/www.zschocicza.szkolnastrona.pl",
                "ref:regon": "300412041",
                "operator": "Gmina Nowe Miasto Nad Wart\u0105",
                "operator:type": "government",
                "landuse": "education",
                "fixme": "amenity=school, amenity=college albo landuse=education w zale\u017cno\u015bci od tego, jakie plac\u00f3wki wchodz\u0105 w sk\u0142ad zespo\u0142u. Sprawd\u017a, kiedy stosowa\u0107 amenity=* a kiedy landuse=education.",
                "note": "Children RSPO: 60614;60615"
            }
        },
        {
            "id": 60614,
            "type": "Feature",
            "geometry": {
                "type": "Point",
                "coordinates": [
                    17.36611,
                    52.070479999999996
                ]
            },
            "properties": {
                "isced:level": "1;2",
                "ref:rspo": 60614,
                "official_name": "Szko\u0142a Podstawowa w Chociczy",
                "name": "Szko\u0142a Podstawowa w Chociczy",
                "addr:postcode": "63-041",
                "addr:city": "Chocicza",
                "addr:street": "\u015aremska",
                "addr:housenumber": "30",
                "addr:teryt:simc": 590734,
                "addr:teryt:sym_ul": 22415,
                "phone": "+48 612875293",
                "email": "spchocicza@poczta.onet.pl",
                "website": "http:\/\/www.zschocicza.pl",
                "ref:regon": "001227295",
                "operator": "Gmina Nowe Miasto Nad Wart\u0105",
                "operator:type": "government",
                "amenity": "school",
                "note": "Parent RSPO: 29340"
            }
        },
        {
            "id": 60615,
            "type": "Feature",
            "geometry": {
                "type": "Point",
                "coordinates": [
                    17.36611,
                    52.07045
                ]
            },
            "properties": {
                "ref:rspo": 60615,
                "official_name": "Przedszkole Publiczne w Chociczy",
                "name": "Przedszkole Publiczne w Chociczy",
                "addr:postcode": "63-041",
                "addr:city": "Chocicza",
                "addr:street": "\u015aremska",
                "addr:housenumber": "30",
                "addr:teryt:simc": 590734,
                "addr:teryt:sym_ul": 22415,
                "phone": "+48 612875293",
                "email": "spchocicza@poczta.onet.pl",
                "website": "http:\/\/www.zschocicza.pl",
                "ref:regon": "632055486",
                "operator": "Gmina Nowe Miasto Nad Wart\u0105",
                "operator:type": "government",
                "amenity": "kindergarten",
                "note": "Parent RSPO: 29340"
            }
        },
        {
            "id": 29339,
            "type": "Feature",
            "geometry": {
                "type": "Point",
                "coordinates": [
                    17.42815,
                    52.07755
                ]
            },
            "properties": {
                "ref:rspo": 29339,
                "official_name": "Zesp\u00f3\u0142 Szk\u00f3\u0142 w Kl\u0119ce",
                "name": "Zesp\u00f3\u0142 Szk\u00f3\u0142 w Kl\u0119ce",
                "addr:postcode": "63-040",
                "addr:place": "Kl\u0119ka",
                "addr:housenumber": "9",
                "addr:teryt:simc": 590792,
                "phone": "+48 612874074",
                "email": "spkleka@o2.pl",
                "website": "http:\/\/www.spkleka.edupage.org",
                "ref:regon": "300627770",
                "operator": "Gmina Nowe Miasto Nad Wart\u0105",
                "operator:type": "government",
                "landuse": "education",
                "fixme": "amenity=school, amenity=college albo landuse=education w zale\u017cno\u015bci od tego, jakie plac\u00f3wki wchodz\u0105 w sk\u0142ad zespo\u0142u. Sprawd\u017a, kiedy stosowa\u0107 amenity=* a kiedy landuse=education.",
                "note": "Children RSPO: 60610;60612"
            }
        },
        {
            "id": 60610,
            "type": "Feature",
            "geometry": {
                "type": "Point",
                "coordinates": [
                    17.42815,
                    52.07752
                ]
            },
            "properties": {
                "isced:level": "1;2",
                "ref:rspo": 60610,
                "official_name": "Szko\u0142a Podstawowa w Kl\u0119ce",
                "name": "Szko\u0142a Podstawowa w Kl\u0119ce",
                "addr:postcode": "63-040",
                "addr:place": "Kl\u0119ka",
                "addr:housenumber": "9",
                "addr:teryt:simc": 590792,
                "phone": "+48 612874074",
                "email": "spkleka@go2.pl",
                "website": "http:\/\/www.spkleka.edupage.org",
                "ref:regon": "001227266",
                "operator": "Gmina Nowe Miasto Nad Wart\u0105",
                "operator:type": "government",
                "amenity": "school",
                "note": "Parent RSPO: 29339"
            }
        },
        {
            "id": 60612,
            "type": "Feature",
            "geometry": {
                "type": "Point",
                "coordinates": [
                    17.42815,
                    52.077490000000004
                ]
            },
            "properties": {
                "ref:rspo": 60612,
                "official_name": "Publiczne Przedszkole w Kl\u0119ce",
                "name": "Publiczne Przedszkole w Kl\u0119ce",
                "addr:postcode": "63-040",
                "addr:place": "Kl\u0119ka",
                "addr:housenumber": "9",
                "addr:teryt:simc": 590792,
                "phone": "+48 612874074",
                "email": "spkleka@go2.pl",
                "website": "http:\/\/www.spkleka.edupage.pl",
                "ref:regon": "632055440",
                "operator": "Gmina Nowe Miasto Nad Wart\u0105",
                "operator:type": "government",
                "amenity": "kindergarten",
                "note": "Parent RSPO: 29339"
            }
        },
        {
            "id": 29341,
            "type": "Feature",
            "geometry": {
                "type": "Point",
                "coordinates": [
                    17.40702,
                    52.08816
                ]
            },
            "properties": {
                "ref:rspo": 29341,
                "official_name": "Zesp\u00f3\u0142 Szk\u00f3\u0142 im.gen.j.h.d\u0105browskiego w Nowym Mie\u015bcie Nad Wart\u0105",
                "name": "Zesp\u00f3\u0142 Szk\u00f3\u0142 im.gen.j.h.d\u0105browskiego w Nowym Mie\u015bcie Nad Wart\u0105",
                "addr:postcode": "63-040",
                "addr:city": "Nowe Miasto nad Wart\u0105",
                "addr:street": "Szkolna",
                "addr:housenumber": "1",
                "addr:teryt:simc": 590869,
                "addr:teryt:sym_ul": 21970,
                "phone": "+48 612874018",
                "email": "szkola@zsnowemiasto.eu",
                "website": "http:\/\/www.zsnowemiasto.eu",
                "ref:regon": "300622821",
                "operator": "Gmina Nowe Miasto Nad Wart\u0105",
                "operator:type": "government",
                "landuse": "education",
                "fixme": "amenity=school, amenity=college albo landuse=education w zale\u017cno\u015bci od tego, jakie plac\u00f3wki wchodz\u0105 w sk\u0142ad zespo\u0142u. Sprawd\u017a, kiedy stosowa\u0107 amenity=* a kiedy landuse=education.",
                "note": "Children RSPO: 73963;73964;263392"
            }
        },
        {
            "id": 264666,
            "type": "Feature",
            "geometry": {
                "type": "Point",
                "coordinates": [
                    17.40702,
                    52.08813
                ]
            },
            "properties": {
                "isced:level": "3",
                "ref:rspo": 264666,
                "official_name": "Niepubliczne Liceum Og\u00f3lnokszta\u0142c\u0105ce dla Doros\u0142ych w Nowym Mie\u015bcie Nad Wart\u0105",
                "name": "Niepubliczne Liceum Og\u00f3lnokszta\u0142c\u0105ce dla Doros\u0142ych w Nowym Mie\u015bcie Nad Wart\u0105",
                "addr:postcode": "63-040",
                "addr:city": "Nowe Miasto nad Wart\u0105",
                "addr:street": "Szkolna",
                "addr:housenumber": "1",
                "addr:door": "-",
                "addr:teryt:simc": 590869,
                "addr:teryt:sym_ul": 21970,
                "ref:regon": "368414475",
                "operator": "Halina Szulc",
                "operator:type": "private",
                "amenity": "school"
            }
        },
        {
            "id": 264668,
            "type": "Feature",
            "geometry": {
                "type": "Point",
                "coordinates": [
                    17.40702,
                    52.088100000000004
                ]
            },
            "properties": {
                "isced:level": "4",
                "ref:rspo": 264668,
                "official_name": "Szko\u0142a Policealna dla Doros\u0142ych w Nowym Mie\u015bcie Nad Wart\u0105",
                "name": "Szko\u0142a Policealna dla Doros\u0142ych w Nowym Mie\u015bcie Nad Wart\u0105",
                "addr:postcode": "63-040",
                "addr:city": "Nowe Miasto nad Wart\u0105",
                "addr:street": "Szkolna",
                "addr:housenumber": "1",
                "addr:door": "-",
                "addr:teryt:simc": 590869,
                "addr:teryt:sym_ul": 21970,
                "ref:regon": "368415167",
                "operator": "Halina Szulc",
                "operator:type": "private",
                "amenity": "college"
            }
        },
        {
            "id": 73963,
            "type": "Feature",
            "geometry": {
                "type": "Point",
                "coordinates": [
                    17.40702,
                    52.08807
                ]
            },
            "properties": {
                "isced:level": "3",
                "ref:rspo": 73963,
                "official_name": "Bran\u017cowa Szko\u0142a I Stopnia im. Gen. J. H. D\u0105browskiego w Nowym Mie\u015bcie Nad Wart\u0105",
                "name": "Bran\u017cowa Szko\u0142a I Stopnia",
                "addr:postcode": "63-040",
                "addr:city": "Nowe Miasto nad Wart\u0105",
                "addr:street": "Szkolna",
                "addr:housenumber": "1",
                "addr:teryt:simc": 590869,
                "addr:teryt:sym_ul": 21970,
                "phone": "+48 612874018",
                "email": "szkola@zsnowemiasto.eu",
                "website": "http:\/\/www.zsnowemiasto.eu",
                "ref:regon": "300622867",
                "operator": "Gmina Nowe Miasto Nad Wart\u0105",
                "operator:type": "government",
                "amenity": "school",
                "note": "Parent RSPO: 29341"
            }
        },
        {
            "id": 73964,
            "type": "Feature",
            "geometry": {
                "type": "Point",
                "coordinates": [
                    17.40702,
                    52.08804
                ]
            },
            "properties": {
                "isced:level": "3",
                "ref:rspo": 73964,
                "official_name": "Technikum w Zespole Szk\u00f3\u0142 w Nowym Mie\u015bcie Nad Wart\u0105",
                "name": "Technikum w Zespole Szk\u00f3\u0142 w Nowym Mie\u015bcie Nad Wart\u0105",
                "addr:postcode": "63-040",
                "addr:city": "Nowe Miasto nad Wart\u0105",
                "addr:street": "Szkolna",
                "addr:housenumber": "1",
                "addr:teryt:simc": 590869,
                "addr:teryt:sym_ul": 21970,
                "phone": "+48 612874018",
                "email": "szkola@zsnowemiasto.eu",
                "website": "http:\/\/www.zsnowemiasto.eu",
                "ref:regon": "300622896",
                "operator": "Gmina Nowe Miasto Nad Wart\u0105",
                "operator:type": "government",
                "amenity": "school",
                "note": "Parent RSPO: 29341"
            }
        },
        {
            "id": 263392,
            "type": "Feature",
            "geometry": {
                "type": "Point",
                "coordinates": [
                    17.40702,
                    52.088010000000004
                ]
            },
            "properties": {
                "isced:level": "1;2",
                "ref:rspo": 263392,
                "official_name": "Szko\u0142a Podstawowa im. Gen. J. H. D\u0105browskiego w Nowym Mie\u015bcie Nad Wart\u0105",
                "name": "Szko\u0142a Podstawowa",
                "addr:postcode": "63-040",
                "addr:city": "Nowe Miasto nad Wart\u0105",
                "addr:street": "Szkolna",
                "addr:housenumber": "1",
                "addr:teryt:simc": 590869,
                "addr:teryt:sym_ul": 21970,
                "phone": "+48 612874018",
                "email": "szkola@zsnowemiasto.eu",
                "website": "http:\/\/www.zsnowemiasto.eu",
                "ref:regon": "368187329",
                "operator": "Gmina Nowe Miasto Nad Wart\u0105",
                "operator:type": "government",
                "amenity": "school",
                "note": "Parent RSPO: 29341"
            }
        },
        {
            "id": 30106,
            "type": "Feature",
            "geometry": {
                "type": "Point",
                "coordinates": [
                    17.40857,
                    52.0899
                ]
            },
            "properties": {
                "ref:rspo": 30106,
                "official_name": "Przedszkole Stokrotka - Maria Szeszu\u0142a",
                "name": "Przedszkole Stokrotka - Maria Szeszu\u0142a",
                "addr:postcode": "63-040",
                "addr:city": "Nowe Miasto nad Wart\u0105",
                "addr:street": "Pozna\u0144ska",
                "addr:housenumber": "8",
                "addr:teryt:simc": 590869,
                "addr:teryt:sym_ul": 17394,
                "phone": "+48 612874179",
                "email": "maria.szeszula@wp.pl",
                "ref:regon": "302251257",
                "operator": "Maria Szeszu\u0142a",
                "operator:type": "private",
                "amenity": "kindergarten"
            }
        }
    ]
}