{
    "type": "FeatureCollection",
    "features": [
        {
            "id": 30023,
            "type": "Feature",
            "geometry": {
                "type": "Point",
                "coordinates": [
                    17.00491,
                    52.02838
                ]
            },
            "properties": {
                "isced:level": "1;2",
                "ref:rspo": 30023,
                "official_name": "Szko\u0142a Podstawowa im. Gen. Dezyderego Ch\u0142apowskiego w Bodzyniewie",
                "name": "Szko\u0142a Podstawowa",
                "addr:country": "PL",
                "addr:postcode": "63-100",
                "addr:place": "Bodzyniewo",
                "addr:housenumber": "35",
                "addr:teryt:simc": 596151,
                "contact:phone": "+48 612816995",
                "contact:email": "sekretariat@spbodzyniewo.srem.pl",
                "contact:website": "http:\/\/www.spbodzyniewo.srem.pl",
                "ref:regon": "000941004",
                "ref:vatin": "PL7851611256",
                "operator": "Gmina \u015arem",
                "operator:type": "government",
                "amenity": "school"
            }
        },
        {
            "id": 125264,
            "type": "Feature",
            "geometry": {
                "type": "Point",
                "coordinates": [
                    17.05823,
                    52.06216
                ]
            },
            "properties": {
                "ref:rspo": 125264,
                "official_name": "Niepubliczne Przedszkole \"Le\u015bne Skrzaty\" w Pysz\u0105cej",
                "name": "Niepubliczne Przedszkole \"Le\u015bne Skrzaty\" w Pysz\u0105cej",
                "addr:country": "PL",
                "addr:postcode": "63-100",
                "addr:city": "Pysz\u0105ca",
                "addr:street": "D\u0142uga",
                "addr:housenumber": "32",
                "addr:teryt:simc": 596599,
                "addr:teryt:sym_ul": 3839,
                "contact:phone": "+48 609849559",
                "contact:email": "lesne.skrzaty@poczta.onet.pl",
                "ref:regon": "302830469",
                "operator": "Aleksandra Dzier\u017cawczyk",
                "operator:type": "private",
                "amenity": "kindergarten"
            }
        },
        {
            "id": 30025,
            "type": "Feature",
            "geometry": {
                "type": "Point",
                "coordinates": [
                    17.06085,
                    52.06614
                ]
            },
            "properties": {
                "isced:level": "1;2",
                "ref:rspo": 30025,
                "official_name": "Szko\u0142a Podstawowa im. Powsta\u0144c\u00f3w Wielkopolskich w Pysz\u0105cej",
                "name": "Szko\u0142a Podstawowa",
                "addr:country": "PL",
                "addr:postcode": "63-100",
                "addr:city": "Pysz\u0105ca",
                "addr:street": "\u015aremska",
                "addr:housenumber": "12",
                "addr:teryt:simc": 596599,
                "addr:teryt:sym_ul": 22415,
                "contact:phone": "+48 612837236",
                "contact:email": "sekretariat@sppyszaca.srem.pl",
                "contact:website": "http:\/\/www.sppyszaca.srem.pl",
                "ref:regon": "000941010",
                "ref:vatin": "PL7851611227",
                "operator": "Gmina \u015arem",
                "operator:type": "government",
                "amenity": "school"
            }
        },
        {
            "id": 83206,
            "type": "Feature",
            "geometry": {
                "type": "Point",
                "coordinates": [
                    17.061115264893,
                    52.068592071533
                ]
            },
            "properties": {
                "isced:level": "1;2",
                "ref:rspo": 83206,
                "official_name": "Szko\u0142a Podstawowa Nr 4 im. Marii Konopnickiej w \u015aremie",
                "name": "Szko\u0142a Podstawowa Nr 4",
                "addr:country": "PL",
                "addr:postcode": "63-100",
                "addr:city": "\u015arem",
                "addr:street": "Stefana Grota Roweckiego",
                "addr:housenumber": "10",
                "addr:teryt:simc": 971560,
                "addr:teryt:sym_ul": 29548,
                "contact:phone": "+48 612835070",
                "contact:email": "sekretariat@sp4.srem.pl",
                "contact:website": "http:\/\/www.sp4srem.szkolnastrona.pl",
                "ref:regon": "000940996",
                "ref:vatin": "PL7851274184",
                "operator": "Gmina \u015arem",
                "operator:type": "government",
                "amenity": "school"
            }
        },
        {
            "id": 86193,
            "type": "Feature",
            "geometry": {
                "type": "Point",
                "coordinates": [
                    16.9786499,
                    52.0717799
                ]
            },
            "properties": {
                "isced:level": "1;2",
                "ref:rspo": 86193,
                "official_name": "Szko\u0142a Podstawowa im. Hrabiego W\u0142adys\u0142awa Zamoyskiego w Nochowie",
                "name": "Szko\u0142a Podstawowa",
                "addr:country": "PL",
                "addr:postcode": "63-100",
                "addr:city": "Nochowo",
                "addr:street": "Szkolna",
                "addr:housenumber": "5",
                "addr:teryt:simc": 596464,
                "addr:teryt:sym_ul": 21970,
                "contact:phone": "+48 612816496",
                "contact:email": "sekretariat@spnochowo.srem.pl",
                "contact:website": "http:\/\/www.zspignochowo.srem.pl",
                "ref:regon": "001069086",
                "ref:vatin": "PL7851693544",
                "operator": "Gmina \u015arem",
                "operator:type": "government",
                "amenity": "school"
            }
        },
        {
            "id": 30027,
            "type": "Feature",
            "geometry": {
                "type": "Point",
                "coordinates": [
                    17.01052,
                    52.07645
                ]
            },
            "properties": {
                "ref:rspo": 30027,
                "official_name": "Przedszkole Nr 3 \"Jarz\u0119binka\" w \u015aremie",
                "name": "Przedszkole Nr 3 \"Jarz\u0119binka\" w \u015aremie",
                "addr:country": "PL",
                "addr:postcode": "63-100",
                "addr:city": "\u015arem",
                "addr:street": "Tadeusza Bora Komorowskiego",
                "addr:housenumber": "3",
                "addr:teryt:simc": 971560,
                "addr:teryt:sym_ul": 37800,
                "contact:phone": "+48 612837344",
                "contact:email": "sekretariat@p3.srem.pl",
                "contact:website": "http:\/\/www.jarzebinka.naszsrem.pl",
                "ref:regon": "631579610",
                "ref:vatin": "PL7851610162",
                "operator": "Gmina \u015arem",
                "operator:type": "government",
                "amenity": "kindergarten"
            }
        },
        {
            "id": 30028,
            "type": "Feature",
            "geometry": {
                "type": "Point",
                "coordinates": [
                    17.00863,
                    52.07706
                ]
            },
            "properties": {
                "ref:rspo": 30028,
                "official_name": "Przedszkole Z Oddzia\u0142ami Integracyjnymi Nr 5 \"Mali Przyrodnicy\" w \u015aremie",
                "name": "Przedszkole Z Oddzia\u0142ami Integracyjnymi Nr 5 \"Mali Przyrodnicy\" w \u015aremie",
                "addr:country": "PL",
                "addr:postcode": "63-100",
                "addr:city": "\u015arem",
                "addr:street": "Tadeusza Bora Komorowskiego",
                "addr:housenumber": "4",
                "addr:teryt:simc": 971560,
                "addr:teryt:sym_ul": 37800,
                "contact:phone": "+48 612836181",
                "contact:email": "sekretariat@p5.srem.pl",
                "contact:website": "http:\/\/www.maliprzyrodnicy.pl",
                "ref:regon": "631579572",
                "ref:vatin": "PL7851610127",
                "operator": "Gmina \u015arem",
                "operator:type": "government",
                "amenity": "kindergarten"
            }
        },
        {
            "id": 123311,
            "type": "Feature",
            "geometry": {
                "type": "Point",
                "coordinates": [
                    17.02755,
                    52.07719
                ]
            },
            "properties": {
                "ref:rspo": 123311,
                "official_name": "Zesp\u00f3\u0142 Szk\u00f3\u0142 Katolickich im. \u015aw. Jana Paw\u0142a II w \u015aremie",
                "name": "Zesp\u00f3\u0142 Szk\u00f3\u0142 Katolickich",
                "addr:country": "PL",
                "addr:postcode": "63-100",
                "addr:city": "\u015arem",
                "addr:street": "Stanis\u0142awa Staszica",
                "addr:housenumber": "1",
                "addr:teryt:simc": 971560,
                "addr:teryt:sym_ul": 21071,
                "contact:phone": "+48 616253710",
                "contact:email": "sekretariat@kcek.pl",
                "contact:website": "http:\/\/www.kcek.pl",
                "ref:regon": "302752686",
                "operator": "Parafia Rzymsko-Katolicka P.w. Naj\u015bwi\u0119tszego Serca Jezusa",
                "operator:type": "religious",
                "landuse": "education",
                "fixme": "amenity=school, amenity=college albo landuse=education w zale\u017cno\u015bci od tego, jakie plac\u00f3wki wchodz\u0105 w sk\u0142ad zespo\u0142u. Sprawd\u017a, kiedy stosowa\u0107 amenity=* a kiedy landuse=education.",
                "note": "Children RSPO: 31051;31169;131632;132868;277389"
            }
        },
        {
            "id": 31169,
            "type": "Feature",
            "geometry": {
                "type": "Point",
                "coordinates": [
                    17.02755,
                    52.07716
                ]
            },
            "properties": {
                "isced:level": "1;2",
                "ref:rspo": 31169,
                "official_name": "Katolicka Publiczna Szko\u0142a Podstawowa im. \u015aw. Jana Paw\u0142a II w \u015aremie",
                "name": "Katolicka Publiczna Szko\u0142a Podstawowa",
                "addr:country": "PL",
                "addr:postcode": "63-100",
                "addr:city": "\u015arem",
                "addr:street": "Stanis\u0142awa Staszica",
                "addr:housenumber": "1",
                "addr:teryt:simc": 971560,
                "addr:teryt:sym_ul": 21071,
                "contact:phone": "+48 616253710",
                "contact:email": "sekretariat@kcek.pl",
                "contact:website": "http:\/\/kcek.pl",
                "ref:regon": "302246196",
                "ref:vatin": "PL7851785097",
                "operator": "Parafia Rzymsko-Katolicka P.w. Naj\u015bwi\u0119tszego Serca Jezusa",
                "operator:type": "religious",
                "amenity": "school",
                "note": "Parent RSPO: 123311"
            }
        },
        {
            "id": 131632,
            "type": "Feature",
            "geometry": {
                "type": "Point",
                "coordinates": [
                    17.02755,
                    52.077130000000004
                ]
            },
            "properties": {
                "isced:level": "3",
                "ref:rspo": 131632,
                "official_name": "Katolickie Publiczne Akademickie Liceum Og\u00f3lnokszta\u0142c\u0105ce im. \u015aw. Jana Paw\u0142a II w \u015aremie",
                "name": "Katolickie Publiczne Akademickie Liceum Og\u00f3lnokszta\u0142c\u0105ce",
                "addr:country": "PL",
                "addr:postcode": "63-100",
                "addr:city": "\u015arem",
                "addr:street": "Stanis\u0142awa Staszica",
                "addr:housenumber": "1",
                "addr:teryt:simc": 971560,
                "addr:teryt:sym_ul": 21071,
                "contact:phone": "+48 616253710",
                "contact:email": "sekretariat@kcek.pl",
                "contact:website": "http:\/\/www.kcek.pl",
                "ref:regon": "365323677",
                "operator": "Parafia Rzymsko-Katolicka P.w. Naj\u015bwi\u0119tszego Serca Jezusa",
                "operator:type": "religious",
                "amenity": "school",
                "note": "Parent RSPO: 123311"
            }
        },
        {
            "id": 132868,
            "type": "Feature",
            "geometry": {
                "type": "Point",
                "coordinates": [
                    17.02755,
                    52.0771
                ]
            },
            "properties": {
                "isced:level": "3",
                "ref:rspo": 132868,
                "official_name": "Katolicka Publiczna Bran\u017cowa Szko\u0142a I Stopnia im. \u015aw. Jana Paw\u0142a II w \u015aremie",
                "name": "Katolicka Publiczna Bran\u017cowa Szko\u0142a I Stopnia",
                "addr:country": "PL",
                "addr:postcode": "63-100",
                "addr:city": "\u015arem",
                "addr:street": "Stanis\u0142awa Staszica",
                "addr:housenumber": "1",
                "addr:teryt:simc": 971560,
                "addr:teryt:sym_ul": 21071,
                "contact:phone": "+48 616253710",
                "contact:email": "sekretariat@kcek.pl",
                "contact:website": "http:\/\/kcek.pl",
                "ref:regon": "366300632",
                "operator": "Parafia Rzymsko-Katolicka P.w. Naj\u015bwi\u0119tszego Serca Jezusa",
                "operator:type": "religious",
                "amenity": "school",
                "note": "Parent RSPO: 123311"
            }
        },
        {
            "id": 277389,
            "type": "Feature",
            "geometry": {
                "type": "Point",
                "coordinates": [
                    17.02755,
                    52.07707
                ]
            },
            "properties": {
                "ref:rspo": 277389,
                "official_name": "Katolicka Publiczna Szko\u0142a Muzyczna I Stopnia im. \u015aw. Jana Paw\u0142a II w \u015aremie",
                "name": "Katolicka Publiczna Szko\u0142a Muzyczna I Stopnia",
                "addr:country": "PL",
                "addr:postcode": "63-100",
                "addr:city": "\u015arem",
                "addr:street": "Stanis\u0142awa Staszica",
                "addr:housenumber": "1",
                "addr:teryt:simc": 971560,
                "addr:teryt:sym_ul": 21071,
                "contact:phone": "+48 612834358",
                "ref:regon": "388763875",
                "operator": "Parafia Rzymsko-Katolicka P.w. Naj\u015bwi\u0119tszego Serca Jezusa",
                "operator:type": "religious",
                "amenity": "music_school",
                "note": "Parent RSPO: 123311"
            }
        },
        {
            "id": 52758,
            "type": "Feature",
            "geometry": {
                "type": "Point",
                "coordinates": [
                    17.02477,
                    52.07726
                ]
            },
            "properties": {
                "ref:rspo": 52758,
                "official_name": "Zesp\u00f3\u0142 Szk\u00f3\u0142 Technicznych im. Hipolita Cegielskiego w \u015aremie",
                "name": "Zesp\u00f3\u0142 Szk\u00f3\u0142 Technicznych",
                "addr:country": "PL",
                "addr:postcode": "63-100",
                "addr:city": "\u015arem",
                "addr:street": "Stanis\u0142awa Staszica",
                "addr:housenumber": "3",
                "addr:teryt:simc": 971560,
                "addr:teryt:sym_ul": 21071,
                "contact:phone": "+48 612837635",
                "contact:email": "zszhcsrem@poczta.onet.pl",
                "contact:website": "http:\/\/www.zst.srem.pl",
                "ref:regon": "000671289",
                "ref:vatin": "PL7851540987",
                "operator": "Powiat \u015aremski",
                "operator:type": "government",
                "landuse": "education",
                "fixme": "amenity=school, amenity=college albo landuse=education w zale\u017cno\u015bci od tego, jakie plac\u00f3wki wchodz\u0105 w sk\u0142ad zespo\u0142u. Sprawd\u017a, kiedy stosowa\u0107 amenity=* a kiedy landuse=education.",
                "note": "Children RSPO: 74958;74959;74960;129060"
            }
        },
        {
            "id": 74958,
            "type": "Feature",
            "geometry": {
                "type": "Point",
                "coordinates": [
                    17.02477,
                    52.07723
                ]
            },
            "properties": {
                "isced:level": "3",
                "ref:rspo": 74958,
                "official_name": "Zesp\u00f3\u0142 Szk\u00f3\u0142 Technicznych im. Hipolita Cegielskiego w \u015aremie Technikum Nr 2 w \u015aremie",
                "name": "Zesp\u00f3\u0142 Szk\u00f3\u0142 Technicznych",
                "addr:country": "PL",
                "addr:postcode": "63-100",
                "addr:city": "\u015arem",
                "addr:street": "Stanis\u0142awa Staszica",
                "addr:housenumber": "3",
                "addr:teryt:simc": 971560,
                "addr:teryt:sym_ul": 21071,
                "contact:phone": "+48 612837635",
                "contact:email": "zszhcsrem@poczta.onet.pl",
                "contact:website": "http:\/\/www.zst.srem.net",
                "ref:regon": "411492574",
                "operator": "Powiat \u015aremski",
                "operator:type": "government",
                "amenity": "school",
                "note": "Parent RSPO: 52758"
            }
        },
        {
            "id": 74959,
            "type": "Feature",
            "geometry": {
                "type": "Point",
                "coordinates": [
                    17.02477,
                    52.077200000000005
                ]
            },
            "properties": {
                "isced:level": "3",
                "ref:rspo": 74959,
                "official_name": "Zesp\u00f3\u0142 Szk\u00f3\u0142 Technicznych im. Hipolita Cegielskiego w \u015aremie Bran\u017cowa Szko\u0142a I Stopnia Nr 2 w \u015aremie",
                "name": "Zesp\u00f3\u0142 Szk\u00f3\u0142 Technicznych",
                "addr:country": "PL",
                "addr:postcode": "63-100",
                "addr:city": "\u015arem",
                "addr:street": "Stanis\u0142awa Staszica",
                "addr:housenumber": "3",
                "addr:teryt:simc": 971560,
                "addr:teryt:sym_ul": 21071,
                "contact:phone": "+48 128337635",
                "contact:email": "zszhcsrem@poczta.onet.pl",
                "contact:website": "http:\/\/www.zst.srem.net",
                "ref:regon": "411492597",
                "operator": "Powiat \u015aremski",
                "operator:type": "government",
                "amenity": "school",
                "note": "Parent RSPO: 52758"
            }
        },
        {
            "id": 74960,
            "type": "Feature",
            "geometry": {
                "type": "Point",
                "coordinates": [
                    17.02477,
                    52.07717
                ]
            },
            "properties": {
                "isced:level": "3",
                "ref:rspo": 74960,
                "official_name": "Zesp\u00f3\u0142 Szk\u00f3\u0142 Technicznych im. Hipolita Cegielskiego w \u015aremie II Liceum Og\u00f3lnokszta\u0142c\u0105ce w \u015aremie",
                "name": "Zesp\u00f3\u0142 Szk\u00f3\u0142 Technicznych",
                "addr:country": "PL",
                "addr:postcode": "63-100",
                "addr:city": "\u015arem",
                "addr:street": "Stanis\u0142awa Staszica",
                "addr:housenumber": "3",
                "addr:teryt:simc": 971560,
                "addr:teryt:sym_ul": 21071,
                "contact:phone": "+48 612837635",
                "contact:email": "zszhcsrem@poczta.onet.pl",
                "contact:website": "http:\/\/www.zst.srem.net",
                "ref:regon": "302262226",
                "operator": "Powiat \u015aremski",
                "operator:type": "government",
                "amenity": "school",
                "note": "Parent RSPO: 52758"
            }
        },
        {
            "id": 129060,
            "type": "Feature",
            "geometry": {
                "type": "Point",
                "coordinates": [
                    17.02477,
                    52.07714
                ]
            },
            "properties": {
                "isced:level": "4",
                "ref:rspo": 129060,
                "official_name": "Zesp\u00f3\u0142 Szk\u00f3\u0142 Technicznych im. Hipolita Cegielskiego w \u015aremie Szko\u0142a Policealna Nr 2 w \u015aremie",
                "name": "Zesp\u00f3\u0142 Szk\u00f3\u0142 Technicznych",
                "addr:country": "PL",
                "addr:postcode": "63-100",
                "addr:city": "\u015arem",
                "addr:street": "Stanis\u0142awa Staszica",
                "addr:housenumber": "3",
                "addr:teryt:simc": 971560,
                "addr:teryt:sym_ul": 21071,
                "contact:phone": "+48 612837635",
                "contact:email": "zszhcsrem@poczta.onet.pl",
                "contact:website": "http:\/\/www.zst.srem.pl",
                "ref:regon": "362462154",
                "operator": "Powiat \u015aremski",
                "operator:type": "government",
                "amenity": "college",
                "note": "Parent RSPO: 52758"
            }
        },
        {
            "id": 31051,
            "type": "Feature",
            "geometry": {
                "type": "Point",
                "coordinates": [
                    17.0057699,
                    52.0792
                ]
            },
            "properties": {
                "ref:rspo": 31051,
                "official_name": "Przedszkole Niepubliczne im. B\u0142. Edmunda Bojanowskiego",
                "name": "Przedszkole Niepubliczne",
                "addr:country": "PL",
                "addr:postcode": "63-100",
                "addr:city": "\u015arem",
                "addr:street": "Jana Kili\u0144skiego",
                "addr:housenumber": "23",
                "addr:teryt:simc": 971560,
                "addr:teryt:sym_ul": 8435,
                "contact:email": "md_wawrzyn1@wp.pl",
                "ref:regon": "302249705",
                "ref:vatin": "PL7851796250",
                "operator": "Parafia Rzymsko-Katolicka P.w. Naj\u015bwi\u0119tszego Serca Jezusa",
                "operator:type": "religious",
                "amenity": "kindergarten",
                "note": "Parent RSPO: 123311"
            }
        },
        {
            "id": 31057,
            "type": "Feature",
            "geometry": {
                "type": "Point",
                "coordinates": [
                    17.0145722,
                    52.0801052
                ]
            },
            "properties": {
                "ref:rspo": 31057,
                "official_name": "Przedszkole \"Pod Wierzbami\" w \u015aremie",
                "name": "Przedszkole \"Pod Wierzbami\" w \u015aremie",
                "addr:country": "PL",
                "addr:postcode": "63-100",
                "addr:city": "\u015arem",
                "addr:street": "Grunwaldzka",
                "addr:housenumber": "12",
                "addr:teryt:simc": 971560,
                "addr:teryt:sym_ul": 6260,
                "contact:phone": "+48 612836256",
                "contact:email": "przedszkolepodwierzbami@interia.pl",
                "contact:website": "http:\/\/podwierzbami.naszsrem.pl",
                "ref:regon": "302241655",
                "ref:vatin": "PL7851681133",
                "operator": "Barbara Pawlak",
                "operator:type": "private",
                "amenity": "kindergarten"
            }
        },
        {
            "id": 30029,
            "type": "Feature",
            "geometry": {
                "type": "Point",
                "coordinates": [
                    17.0119,
                    52.08047
                ]
            },
            "properties": {
                "ref:rspo": 30029,
                "official_name": "Przedszkole Nr 7 \"Janka W\u0119drowniczka\" w \u015aremie",
                "name": "Przedszkole Nr 7 \"Janka W\u0119drowniczka\" w \u015aremie",
                "addr:country": "PL",
                "addr:postcode": "63-100",
                "addr:city": "\u015arem",
                "addr:street": "Dezyderego Ch\u0142apowskiego",
                "addr:housenumber": "12A",
                "addr:teryt:simc": 971560,
                "addr:teryt:sym_ul": 2734,
                "contact:phone": "+48 612836152",
                "contact:email": "sekretariat@p7.srem.pl",
                "contact:website": "http:\/\/www.janekwedrowniczek.srem.com.pl",
                "ref:regon": "631579595",
                "ref:vatin": "PL7851610156",
                "operator": "Gmina \u015arem",
                "operator:type": "government",
                "amenity": "kindergarten"
            }
        },
        {
            "id": 133830,
            "type": "Feature",
            "geometry": {
                "type": "Point",
                "coordinates": [
                    17.0119,
                    52.080439999999996
                ]
            },
            "properties": {
                "isced:level": "1;2",
                "ref:rspo": 133830,
                "official_name": "Szko\u0142a Podstawowa Nr 5 im. Polskich Noblist\u00f3w w \u015aremie",
                "name": "Szko\u0142a Podstawowa Nr 5",
                "addr:country": "PL",
                "addr:postcode": "63-100",
                "addr:city": "\u015arem",
                "addr:street": "Dezyderego Ch\u0142apowskiego",
                "addr:housenumber": "12A",
                "addr:teryt:simc": 971560,
                "addr:teryt:sym_ul": 2734,
                "contact:phone": "+48 612834414",
                "contact:email": "sekretariat@sp5.srem.pl",
                "contact:website": "http:\/\/www.sp5.srem.pl",
                "ref:regon": "367678723",
                "ref:vatin": "PL7851803808",
                "operator": "Gmina \u015arem",
                "operator:type": "government",
                "amenity": "school"
            }
        },
        {
            "id": 126574,
            "type": "Feature",
            "geometry": {
                "type": "Point",
                "coordinates": [
                    17.01396,
                    52.0819
                ]
            },
            "properties": {
                "ref:rspo": 126574,
                "official_name": "Moveo Bhp Kadry Ppo\u017c. Artur Konon",
                "name": "Moveo Bhp Kadry Ppo\u017c. Artur Konon",
                "addr:country": "PL",
                "addr:postcode": "63-100",
                "addr:city": "\u015arem",
                "addr:street": "Elizy Orzeszkowej",
                "addr:housenumber": "7",
                "addr:teryt:simc": 971560,
                "addr:teryt:sym_ul": 15211,
                "contact:phone": "+48 666714932",
                "ref:regon": "360507378",
                "operator": "Artur Konon",
                "operator:type": "private",
                "fixme": "w zale\u017cno\u015bci od przedmiotu dzia\u0142alno\u015bci (np. amenity=training + training=*, amenity=dancing_school, amenity=language_school, amenity=music_school)"
            }
        },
        {
            "id": 16039,
            "type": "Feature",
            "geometry": {
                "type": "Point",
                "coordinates": [
                    17.0024799,
                    52.08193
                ]
            },
            "properties": {
                "ref:rspo": 16039,
                "official_name": "Przedszkole \"S\u0142oneczna Sz\u00f3stka\" Z Oddzia\u0142ami Zamiejscowymi",
                "name": "Przedszkole \"S\u0142oneczna Sz\u00f3stka\" Z Oddzia\u0142ami Zamiejscowymi",
                "addr:country": "PL",
                "addr:postcode": "63-100",
                "addr:city": "\u015arem",
                "addr:street": "Ignacego Paderewskiego",
                "addr:housenumber": "4",
                "addr:teryt:simc": 971560,
                "addr:teryt:sym_ul": 15529,
                "contact:phone": "+48 612828708",
                "contact:email": "sekretariat@slonecznaszostka.pl",
                "contact:website": "http:\/\/www.slonecznaszostka.pl",
                "ref:regon": "302216769",
                "ref:vatin": "PL7851789209",
                "operator": "Kreatywna Edukacja Sp\u00f3\u0142ka Z Ograniczon\u0105 Odpowiedzialno\u015bci\u0105",
                "operator:type": "private",
                "amenity": "kindergarten"
            }
        },
        {
            "id": 30022,
            "type": "Feature",
            "geometry": {
                "type": "Point",
                "coordinates": [
                    17.0024799,
                    52.0819
                ]
            },
            "properties": {
                "isced:level": "1;2",
                "ref:rspo": 30022,
                "official_name": "Szko\u0142a Podstawowa Nr 6 im. Braci Barskich w \u015aremie",
                "name": "Szko\u0142a Podstawowa Nr 6",
                "addr:country": "PL",
                "addr:postcode": "63-100",
                "addr:city": "\u015arem",
                "addr:street": "Ignacego Paderewskiego",
                "addr:housenumber": "4",
                "addr:teryt:simc": 971560,
                "addr:teryt:sym_ul": 15529,
                "contact:phone": "+48 612836508",
                "contact:email": "sekretariat@sp6.srem.pl",
                "contact:website": "http:\/\/www.sp6.srem.pl",
                "ref:regon": "632048799",
                "ref:vatin": "PL7851274244",
                "operator": "Gmina \u015arem",
                "operator:type": "government",
                "amenity": "school"
            }
        },
        {
            "id": 26416,
            "type": "Feature",
            "geometry": {
                "type": "Point",
                "coordinates": [
                    17.02136,
                    52.08346
                ]
            },
            "properties": {
                "isced:level": "1;2",
                "ref:rspo": 26416,
                "official_name": "Szko\u0142a Podstawowa Nr 1 im. Miko\u0142aja Kopernika w \u015aremie",
                "name": "Szko\u0142a Podstawowa Nr 1",
                "addr:country": "PL",
                "addr:postcode": "63-100",
                "addr:city": "\u015arem",
                "addr:street": "Jana Kochanowskiego",
                "addr:housenumber": "2",
                "addr:teryt:simc": 971560,
                "addr:teryt:sym_ul": 8728,
                "contact:phone": "+48 612835462",
                "contact:email": "sekretariat@sp1.srem.pl",
                "contact:website": "http:\/\/www.sp1srem.win.pl",
                "ref:regon": "000565340",
                "ref:vatin": "PL7851285288",
                "operator": "Gmina \u015arem",
                "operator:type": "government",
                "amenity": "school"
            }
        },
        {
            "id": 75704,
            "type": "Feature",
            "geometry": {
                "type": "Point",
                "coordinates": [
                    17.01523,
                    52.08399
                ]
            },
            "properties": {
                "ref:rspo": 75704,
                "official_name": "Centrum Kszta\u0142cenia Zawodowego Tomex - Bhp",
                "name": "Centrum Kszta\u0142cenia Zawodowego Tomex - Bhp",
                "addr:country": "PL",
                "addr:postcode": "63-100",
                "addr:city": "\u015arem",
                "addr:street": "Wojska Polskiego",
                "addr:housenumber": "10A",
                "addr:door": "8",
                "addr:teryt:simc": 971560,
                "addr:teryt:sym_ul": 24628,
                "contact:phone": "+48 612837265",
                "contact:email": "mtom1@interia.pl",
                "ref:regon": "302262433",
                "operator": "Tomasz Ma\u0144kowski",
                "operator:type": "private",
                "fixme": "w zale\u017cno\u015bci od przedmiotu dzia\u0142alno\u015bci (np. amenity=training + training=*, amenity=dancing_school, amenity=language_school, amenity=music_school) albo amenity=school, amenity=college, albo landuse=education w zale\u017cno\u015bci od tego, jakie plac\u00f3wki wchodz\u0105 w sk\u0142ad zespo\u0142u. Sprawd\u017a, kiedy stosowa\u0107 amenity=* a kiedy landuse=education."
            }
        },
        {
            "id": 129574,
            "type": "Feature",
            "geometry": {
                "type": "Point",
                "coordinates": [
                    17.0219,
                    52.08438
                ]
            },
            "properties": {
                "ref:rspo": 129574,
                "official_name": "Niepubliczne Przedszkole J\u0119zykowe \"Kinderki.pl\"",
                "name": "Niepubliczne Przedszkole J\u0119zykowe \"Kinderki.pl\"",
                "addr:country": "PL",
                "addr:postcode": "63-100",
                "addr:city": "\u015arem",
                "addr:street": "Andrzeja Frycza Modrzewskiego",
                "addr:housenumber": "16",
                "addr:teryt:simc": 971560,
                "addr:teryt:sym_ul": 28103,
                "contact:phone": "+48 530913112",
                "contact:email": "karolina.dabulis@kinderki.net",
                "ref:regon": "362669174",
                "operator": "Centrum Edukacji Dziecka Lewandowska",
                "operator:type": "private",
                "amenity": "kindergarten"
            }
        },
        {
            "id": 30026,
            "type": "Feature",
            "geometry": {
                "type": "Point",
                "coordinates": [
                    17.02478,
                    52.08556
                ]
            },
            "properties": {
                "ref:rspo": 30026,
                "official_name": "Przedszkole Nr 2 \"S\u0142oneczna Gromada\" w \u015aremie",
                "name": "Przedszkole Nr 2 \"S\u0142oneczna Gromada\" w \u015aremie",
                "addr:country": "PL",
                "addr:postcode": "63-100",
                "addr:city": "\u015arem",
                "addr:street": "Adama Mickiewicza",
                "addr:housenumber": "91",
                "addr:teryt:simc": 971560,
                "addr:teryt:sym_ul": 12740,
                "contact:phone": "+48 612835663",
                "contact:email": "sekretariat@p2.srem.pl",
                "contact:website": "http:\/\/www.slonecznagromada.srem.pl",
                "ref:regon": "631579603",
                "ref:vatin": "PL7851610133",
                "operator": "Gmina \u015arem",
                "operator:type": "government",
                "amenity": "kindergarten"
            }
        },
        {
            "id": 79915,
            "type": "Feature",
            "geometry": {
                "type": "Point",
                "coordinates": [
                    17.01496,
                    52.08801
                ]
            },
            "properties": {
                "ref:rspo": 79915,
                "official_name": "Plac\u00f3wka Niepubliczna Kszta\u0142cenia Ustawicznego Andrzej Kaczmarek",
                "name": "Plac\u00f3wka Niepubliczna Kszta\u0142cenia Ustawicznego Andrzej Kaczmarek",
                "addr:country": "PL",
                "addr:postcode": "63-100",
                "addr:city": "\u015arem",
                "addr:street": "Jana Kili\u0144skiego",
                "addr:housenumber": "18",
                "addr:teryt:simc": 971560,
                "addr:teryt:sym_ul": 8435,
                "contact:phone": "+48 612828760",
                "contact:email": "kontakt@osz-kaczmarek.com.pl",
                "ref:regon": "302264679",
                "ref:vatin": "PL7851415928",
                "operator": "Andrzej Kaczmarek",
                "operator:type": "private",
                "fixme": "w zale\u017cno\u015bci od przedmiotu dzia\u0142alno\u015bci (np. amenity=training + training=*, amenity=dancing_school, amenity=language_school, amenity=music_school)"
            }
        },
        {
            "id": 264141,
            "type": "Feature",
            "geometry": {
                "type": "Point",
                "coordinates": [
                    17.01592,
                    52.08928
                ]
            },
            "properties": {
                "ref:rspo": 264141,
                "official_name": "Przedszkole Niepubliczne \"Zdolna Ferajna\"",
                "name": "Przedszkole Niepubliczne \"Zdolna Ferajna\"",
                "addr:country": "PL",
                "addr:postcode": "63-100",
                "addr:city": "\u015arem",
                "addr:street": "Jana Kili\u0144skiego",
                "addr:housenumber": "10",
                "addr:teryt:simc": 971560,
                "addr:teryt:sym_ul": 8435,
                "contact:phone": "+48 613072763",
                "contact:email": "zdolnaferajna@gmail.com",
                "contact:website": "http:\/\/www.zdolnaferajna.pl",
                "ref:regon": "368270711",
                "operator": "Izabela Wandycz",
                "operator:type": "private",
                "amenity": "kindergarten"
            }
        },
        {
            "id": 133828,
            "type": "Feature",
            "geometry": {
                "type": "Point",
                "coordinates": [
                    17.0262,
                    52.08929
                ]
            },
            "properties": {
                "isced:level": "1;2",
                "ref:rspo": 133828,
                "official_name": "Niepubliczna Szko\u0142a Podstawowa Z Klasami Przysposabiaj\u0105cymi Do Pracy",
                "name": "Niepubliczna Szko\u0142a Podstawowa Z Klasami Przysposabiaj\u0105cymi Do Pracy",
                "addr:country": "PL",
                "addr:postcode": "63-100",
                "addr:city": "\u015arem",
                "addr:street": "Rac\u0142awicka",
                "addr:housenumber": "7A",
                "addr:teryt:simc": 971560,
                "addr:teryt:sym_ul": 18273,
                "contact:phone": "+48 612839299",
                "contact:email": "gim.holis@onet.eu",
                "ref:regon": "367675848",
                "ref:vatin": "PL7851681179",
                "operator": "Stowarzyszenie \"Holis\"",
                "operator:type": "ngo",
                "amenity": "school"
            }
        },
        {
            "id": 278785,
            "type": "Feature",
            "geometry": {
                "type": "Point",
                "coordinates": [
                    17.0262,
                    52.089259999999996
                ]
            },
            "properties": {
                "ref:rspo": 278785,
                "official_name": "Niepubliczny Punkt Przedszkolny \"Spektrum\" w \u015aremie",
                "name": "Niepubliczny Punkt Przedszkolny \"Spektrum\" w \u015aremie",
                "addr:country": "PL",
                "addr:postcode": "63-100",
                "addr:city": "\u015arem",
                "addr:street": "Rac\u0142awicka",
                "addr:housenumber": "7a",
                "addr:teryt:simc": 971560,
                "addr:teryt:sym_ul": 18273,
                "contact:email": "biuro@spektrumautyzmu.pl",
                "contact:website": "http:\/\/www.spektrumautyzmu.pl",
                "ref:regon": "520068886",
                "operator": "Centrum Edukacyjno-Terapeutyczne Spektrumautyzmu.pl Anna Kostiukow",
                "operator:type": "consortium",
                "amenity": "kindergarten"
            }
        },
        {
            "id": 279275,
            "type": "Feature",
            "geometry": {
                "type": "Point",
                "coordinates": [
                    17.0262,
                    52.08923
                ]
            },
            "properties": {
                "ref:rspo": 279275,
                "official_name": "Niepubliczna Poradnia Psychologiczno-Pedagogiczna \"Terapeutyczne Pola\"",
                "name": "Niepubliczna Poradnia Psychologiczno-Pedagogiczna \"Terapeutyczne Pola\"",
                "addr:country": "PL",
                "addr:postcode": "63-100",
                "addr:city": "\u015arem",
                "addr:street": "Rac\u0142awicka",
                "addr:housenumber": "7a",
                "addr:teryt:simc": 971560,
                "addr:teryt:sym_ul": 18273,
                "contact:phone": "+48 612839299",
                "contact:email": "centrumpomocypsycholog@wp.pl",
                "contact:website": "http:\/\/www.centrumpomocypsychologicznej.net.pl",
                "ref:regon": "521092390",
                "ref:vatin": "PL7851309480",
                "operator": "Katarzyna Kisielewska",
                "operator:type": "private",
                "healthcare": "counselling",
                "counselling_type": "education",
                "fixme": "w zale\u017cno\u015bci od przedmiotu dzia\u0142alno\u015bci (np. healthcare=counselling + counselling_type=education albo healthcare=psychotherapist)"
            }
        },
        {
            "id": 44034,
            "type": "Feature",
            "geometry": {
                "type": "Point",
                "coordinates": [
                    17.01081,
                    52.09039
                ]
            },
            "properties": {
                "ref:rspo": 44034,
                "official_name": "Poradnia Psychologiczno-Pedagogiczna w \u015aremie",
                "name": "Poradnia Psychologiczno-Pedagogiczna w \u015aremie",
                "addr:country": "PL",
                "addr:postcode": "63-100",
                "addr:city": "\u015arem",
                "addr:street": "Floriana Marciniaka",
                "addr:housenumber": "2",
                "addr:teryt:simc": 971560,
                "addr:teryt:sym_ul": 12287,
                "contact:phone": "+48 612834864",
                "contact:email": "ppp@poradniasrem.cop.pl",
                "contact:website": "http:\/\/www.poradniasrem.cop.pl",
                "ref:regon": "411516613",
                "ref:vatin": "PL7851687874",
                "operator": "Powiat \u015aremski",
                "operator:type": "government",
                "healthcare": "counselling",
                "counselling_type": "education",
                "fixme": "w zale\u017cno\u015bci od przedmiotu dzia\u0142alno\u015bci (np. healthcare=counselling + counselling_type=education albo healthcare=psychotherapist)"
            }
        },
        {
            "id": 115162,
            "type": "Feature",
            "geometry": {
                "type": "Point",
                "coordinates": [
                    17.01766,
                    52.09107
                ]
            },
            "properties": {
                "ref:rspo": 115162,
                "official_name": "Publiczna Biblioteka Pedagogiczna w Poznaniu Filia w \u015aremie",
                "name": "Publiczna Biblioteka Pedagogiczna w Poznaniu Filia w \u015aremie",
                "addr:country": "PL",
                "addr:postcode": "63-100",
                "addr:city": "\u015arem",
                "addr:street": "Jana Kili\u0144skiego",
                "addr:housenumber": "2",
                "addr:teryt:simc": 971560,
                "addr:teryt:sym_ul": 8435,
                "contact:phone": "+48 577001389",
                "contact:email": "biblioteka@srem.pbp.poznan.pl",
                "contact:website": "http:\/\/srem.pbp.poznan.pl",
                "ref:regon": "639810550",
                "operator": "Wojew\u00f3dztwo Wielkopolskie",
                "operator:type": "government",
                "amenity": "library",
                "note": "Parent RSPO: 30977"
            }
        },
        {
            "id": 38568,
            "type": "Feature",
            "geometry": {
                "type": "Point",
                "coordinates": [
                    17.02029,
                    52.0922399
                ]
            },
            "properties": {
                "ref:rspo": 38568,
                "official_name": "Zesp\u00f3\u0142 Szk\u00f3\u0142 Specjalnych im. Marii Grzegorzewskiej w \u015aremie",
                "name": "Zesp\u00f3\u0142 Szk\u00f3\u0142 Specjalnych",
                "addr:country": "PL",
                "addr:postcode": "63-100",
                "addr:city": "\u015arem",
                "addr:street": "J\u00f3zefa Pi\u0142sudskiego",
                "addr:housenumber": "15",
                "addr:teryt:simc": 971560,
                "addr:teryt:sym_ul": 16264,
                "contact:phone": "+48 612830055",
                "contact:email": "sekretariat@zss-srem.pl",
                "contact:website": "http:\/\/www.zss-srem.pl",
                "ref:regon": "411131273",
                "ref:vatin": "PL7851685349",
                "operator": "Powiat \u015aremski",
                "operator:type": "government",
                "landuse": "education",
                "fixme": "amenity=school, amenity=college albo landuse=education w zale\u017cno\u015bci od tego, jakie plac\u00f3wki wchodz\u0105 w sk\u0142ad zespo\u0142u. Sprawd\u017a, kiedy stosowa\u0107 amenity=* a kiedy landuse=education.",
                "note": "Children RSPO: 71796;71798"
            }
        },
        {
            "id": 71796,
            "type": "Feature",
            "geometry": {
                "type": "Point",
                "coordinates": [
                    17.02029,
                    52.0922099
                ]
            },
            "properties": {
                "isced:level": "1;2",
                "ref:rspo": 71796,
                "official_name": "Zesp\u00f3\u0142 Szk\u00f3\u0142 Specjalnych im. Marii Grzegorzewskiej w \u015aremie Szko\u0142a Podstawowa Specjalna w \u015aremie",
                "name": "Zesp\u00f3\u0142 Szk\u00f3\u0142 Specjalnych",
                "addr:country": "PL",
                "addr:postcode": "63-100",
                "addr:city": "\u015arem",
                "addr:street": "J\u00f3zefa Pi\u0142sudskiego",
                "addr:housenumber": "15",
                "addr:teryt:simc": 971560,
                "addr:teryt:sym_ul": 16264,
                "contact:phone": "+48 612830055",
                "contact:email": "sekretariat@zss-srem.pl",
                "contact:website": "http:\/\/www.zss-srem.pl",
                "ref:regon": "000940980",
                "operator": "Powiat \u015aremski",
                "operator:type": "government",
                "amenity": "school",
                "note": "Parent RSPO: 38568"
            }
        },
        {
            "id": 71798,
            "type": "Feature",
            "geometry": {
                "type": "Point",
                "coordinates": [
                    17.02029,
                    52.092179900000005
                ]
            },
            "properties": {
                "ref:rspo": 71798,
                "official_name": "Zesp\u00f3\u0142 Szk\u00f3\u0142 Specjalnych im. Marii Grzegorzewskiej w \u015aremie Szko\u0142a Specjalna Przysposabiaj\u0105ca Do Pracy w \u015aremie",
                "name": "Zesp\u00f3\u0142 Szk\u00f3\u0142 Specjalnych",
                "addr:country": "PL",
                "addr:postcode": "63-100",
                "addr:city": "\u015arem",
                "addr:street": "J\u00f3zefa Pi\u0142sudskiego",
                "addr:housenumber": "15",
                "addr:teryt:simc": 971560,
                "addr:teryt:sym_ul": 16264,
                "contact:phone": "+48 612830055",
                "contact:email": "sekretariat@zss-srem.pl",
                "contact:website": "http:\/\/www.zss-srem.pl",
                "ref:regon": "411559574",
                "operator": "Powiat \u015aremski",
                "operator:type": "government",
                "amenity": "school",
                "note": "Parent RSPO: 38568"
            }
        },
        {
            "id": 129572,
            "type": "Feature",
            "geometry": {
                "type": "Point",
                "coordinates": [
                    17.00382,
                    52.09268
                ]
            },
            "properties": {
                "ref:rspo": 129572,
                "official_name": "Niepubliczne Przedszkole \"Mali Bohaterowie\"",
                "name": "Niepubliczne Przedszkole \"Mali Bohaterowie\"",
                "addr:country": "PL",
                "addr:postcode": "63-100",
                "addr:city": "\u015arem",
                "addr:street": "Makuszy\u0144skiego",
                "addr:housenumber": "7",
                "addr:teryt:simc": 971560,
                "addr:teryt:sym_ul": 12023,
                "contact:phone": "+48 785191722",
                "contact:email": "malibohaterowie.srem@gmail.com",
                "ref:regon": "362668157",
                "operator": "Marveco Martyna Kobierska-Raubo",
                "operator:type": "consortium",
                "amenity": "kindergarten"
            }
        },
        {
            "id": 31052,
            "type": "Feature",
            "geometry": {
                "type": "Point",
                "coordinates": [
                    17.01939,
                    52.09275
                ]
            },
            "properties": {
                "isced:level": "1;2",
                "ref:rspo": 31052,
                "official_name": "Publiczna Szko\u0142a Podstawowa w \u015aremie im. Kawaler\u00f3w Orderu U\u015bmiechu",
                "name": "Publiczna Szko\u0142a Podstawowa w \u015aremie",
                "addr:country": "PL",
                "addr:postcode": "63-100",
                "addr:city": "\u015arem",
                "addr:street": "Prymasa Stefana Wyszy\u0144skiego",
                "addr:housenumber": "11",
                "addr:teryt:simc": 971560,
                "addr:teryt:sym_ul": 25119,
                "contact:phone": "+48 618833528",
                "contact:email": "sekretariat@szkolausmiechu.pl",
                "contact:website": "http:\/\/www.szkolausmiechu.pl",
                "ref:regon": "302241649",
                "ref:vatin": "PL7851795285",
                "operator": "Kreatywna Edukacja Plus Sp\u00f3\u0142ka Z Ograniczon\u0105 Odpowiedzialno\u015bci\u0105",
                "operator:type": "private",
                "amenity": "school"
            }
        },
        {
            "id": 128698,
            "type": "Feature",
            "geometry": {
                "type": "Point",
                "coordinates": [
                    17.01939,
                    52.09272
                ]
            },
            "properties": {
                "ref:rspo": 128698,
                "official_name": "Zesp\u00f3\u0142 Szk\u00f3\u0142 dla Doros\u0142ych \"Sukces\"",
                "name": "Zesp\u00f3\u0142 Szk\u00f3\u0142 dla Doros\u0142ych \"Sukces\"",
                "addr:country": "PL",
                "addr:postcode": "63-100",
                "addr:city": "\u015arem",
                "addr:street": "Prymasa Stefana Wyszy\u0144skiego",
                "addr:housenumber": "11",
                "addr:teryt:simc": 971560,
                "addr:teryt:sym_ul": 25119,
                "contact:phone": "+48 730009025",
                "contact:email": "sekretariat@szkolysukcesu.pl",
                "contact:website": "http:\/\/www.szkolysukcesu.pl",
                "ref:regon": "362363877",
                "operator": "Marcin J\u0119droszkowiak",
                "operator:type": "private",
                "landuse": "education",
                "fixme": "amenity=school, amenity=college albo landuse=education w zale\u017cno\u015bci od tego, jakie plac\u00f3wki wchodz\u0105 w sk\u0142ad zespo\u0142u. Sprawd\u017a, kiedy stosowa\u0107 amenity=* a kiedy landuse=education.",
                "note": "Children RSPO: 122942;130583"
            }
        },
        {
            "id": 275798,
            "type": "Feature",
            "geometry": {
                "type": "Point",
                "coordinates": [
                    17.01939,
                    52.092690000000005
                ]
            },
            "properties": {
                "isced:level": "3",
                "ref:rspo": 275798,
                "official_name": "Liceum Og\u00f3lnokszta\u0142c\u0105ce dla Doros\u0142ych Sukces",
                "name": "Liceum Og\u00f3lnokszta\u0142c\u0105ce dla Doros\u0142ych Sukces",
                "addr:country": "PL",
                "addr:postcode": "63-100",
                "addr:city": "\u015arem",
                "addr:street": "Prymasa Stefana Wyszy\u0144skiego",
                "addr:housenumber": "11",
                "addr:teryt:simc": 971560,
                "addr:teryt:sym_ul": 25119,
                "contact:phone": "+48 730009025",
                "contact:email": "sekretariat@szkolysukcesu.pl",
                "contact:website": "http:\/\/www.szkolysukcesu.pl",
                "ref:regon": "386940110",
                "operator": "Marcin J\u0119droszkowiak",
                "operator:type": "private",
                "amenity": "school"
            }
        },
        {
            "id": 275805,
            "type": "Feature",
            "geometry": {
                "type": "Point",
                "coordinates": [
                    17.01939,
                    52.09266
                ]
            },
            "properties": {
                "isced:level": "3",
                "ref:rspo": 275805,
                "official_name": "Bran\u017cowa Szko\u0142a I Stopnia Sukces w \u015aremie",
                "name": "Bran\u017cowa Szko\u0142a I Stopnia Sukces w \u015aremie",
                "addr:country": "PL",
                "addr:postcode": "63-100",
                "addr:city": "\u015arem",
                "addr:street": "Prymasa Stefana Wyszy\u0144skiego",
                "addr:housenumber": "11",
                "addr:teryt:simc": 971560,
                "addr:teryt:sym_ul": 25119,
                "contact:email": "jakub.tylman@slonecznaszostka.pl",
                "contact:website": "http:\/\/www.szkolysukcesu.pl",
                "ref:regon": "386940178",
                "operator": "Kreatywna Edukacja Plus Sp\u00f3\u0142ka Z Ograniczon\u0105 Odpowiedzialno\u015bci\u0105",
                "operator:type": "private",
                "amenity": "school"
            }
        },
        {
            "id": 122942,
            "type": "Feature",
            "geometry": {
                "type": "Point",
                "coordinates": [
                    17.01939,
                    52.09263
                ]
            },
            "properties": {
                "isced:level": "4",
                "ref:rspo": 122942,
                "official_name": "Szko\u0142a Policealna \"Sukces\"",
                "name": "Szko\u0142a Policealna \"Sukces\"",
                "addr:country": "PL",
                "addr:postcode": "63-100",
                "addr:city": "\u015arem",
                "addr:street": "Prymasa Stefana Wyszy\u0144skiego",
                "addr:housenumber": "11",
                "addr:teryt:simc": 971560,
                "addr:teryt:sym_ul": 25119,
                "contact:phone": "+48 730009025",
                "contact:email": "sekretariat@szkolysukcesu.pl",
                "contact:website": "http:\/\/www.szkolysukcesu.pl",
                "ref:regon": "302713456",
                "operator": "Marcin J\u0119droszkowiak",
                "operator:type": "private",
                "amenity": "college",
                "note": "Parent RSPO: 128698"
            }
        },
        {
            "id": 130583,
            "type": "Feature",
            "geometry": {
                "type": "Point",
                "coordinates": [
                    17.01939,
                    52.092600000000004
                ]
            },
            "properties": {
                "isced:level": "4",
                "ref:rspo": 130583,
                "official_name": "Policealna Szko\u0142a Medyczna \"Sukces\"",
                "name": "Policealna Szko\u0142a Medyczna \"Sukces\"",
                "addr:country": "PL",
                "addr:postcode": "63-100",
                "addr:city": "\u015arem",
                "addr:street": "Prymasa Stefana Wyszy\u0144skiego",
                "addr:housenumber": "11",
                "addr:teryt:simc": 971560,
                "addr:teryt:sym_ul": 25119,
                "contact:phone": "+48 730009025",
                "contact:email": "sekretariat@szkolysukcesu.pl",
                "contact:website": "http:\/\/www.szkolysukcesu.pl",
                "ref:regon": "364207064",
                "ref:vatin": "PL7851801407",
                "operator": "Marcin J\u0119droszkowiak",
                "operator:type": "private",
                "amenity": "college",
                "note": "Parent RSPO: 128698"
            }
        },
        {
            "id": 4711,
            "type": "Feature",
            "geometry": {
                "type": "Point",
                "coordinates": [
                    17.02515,
                    52.09278
                ]
            },
            "properties": {
                "ref:rspo": 4711,
                "official_name": "Zesp\u00f3\u0142 Szk\u00f3\u0142 Ekonomicznych im. Cyryla Ratajskiego w \u015aremie",
                "name": "Zesp\u00f3\u0142 Szk\u00f3\u0142 Ekonomicznych",
                "addr:country": "PL",
                "addr:postcode": "63-100",
                "addr:city": "\u015arem",
                "addr:street": "J\u00f3zefa Wybickiego",
                "addr:housenumber": "2",
                "addr:teryt:simc": 971560,
                "addr:teryt:sym_ul": 24908,
                "contact:phone": "+48 612830177",
                "contact:email": "sekretariat@zse-srem.pl",
                "contact:website": "http:\/\/www.zse.srem.pl",
                "ref:regon": "630241977",
                "ref:vatin": "PL7851419961",
                "operator": "Powiat \u015aremski",
                "operator:type": "government",
                "landuse": "education",
                "fixme": "amenity=school, amenity=college albo landuse=education w zale\u017cno\u015bci od tego, jakie plac\u00f3wki wchodz\u0105 w sk\u0142ad zespo\u0142u. Sprawd\u017a, kiedy stosowa\u0107 amenity=* a kiedy landuse=education.",
                "note": "Children RSPO: 6833;52778;52796;55807"
            }
        },
        {
            "id": 4918,
            "type": "Feature",
            "geometry": {
                "type": "Point",
                "coordinates": [
                    17.02515,
                    52.092749999999995
                ]
            },
            "properties": {
                "ref:rspo": 4918,
                "official_name": "Mi\u0119dzyszkolny O\u015brodek Sportowy w \u015aremie",
                "name": "Mi\u0119dzyszkolny O\u015brodek Sportowy w \u015aremie",
                "addr:country": "PL",
                "addr:postcode": "63-100",
                "addr:city": "\u015arem",
                "addr:street": "J\u00f3zefa Wybickiego",
                "addr:housenumber": "2",
                "addr:teryt:simc": 971560,
                "addr:teryt:sym_ul": 24908,
                "contact:email": "mos.srem@gmail.pl",
                "ref:regon": "632049037",
                "ref:vatin": "PL7851672447",
                "operator": "Powiat \u015aremski",
                "operator:type": "government",
                "leisure": "sports_centre"
            }
        },
        {
            "id": 106107,
            "type": "Feature",
            "geometry": {
                "type": "Point",
                "coordinates": [
                    17.02515,
                    52.09272
                ]
            },
            "properties": {
                "ref:rspo": 106107,
                "official_name": "Centrum Kszta\u0142cenia Ustawicznego Dar-Zof w \u015aremie",
                "name": "Centrum Kszta\u0142cenia Ustawicznego Dar-Zof w \u015aremie",
                "addr:country": "PL",
                "addr:postcode": "63-100",
                "addr:city": "\u015arem",
                "addr:street": "J\u00f3zefa Wybickiego",
                "addr:housenumber": "2",
                "addr:teryt:simc": 971560,
                "addr:teryt:sym_ul": 24908,
                "contact:phone": "+48 612834213",
                "contact:email": "dar-zof@dar-zof.pl",
                "ref:regon": "302315767",
                "ref:vatin": "PL7851666524",
                "operator": "\"Dar - Zof\"  Sp\u00f3\u0142ka Z Ograniczon\u0105 Odpowiedzialno\u015bci\u0105",
                "operator:type": "private",
                "fixme": "w zale\u017cno\u015bci od przedmiotu dzia\u0142alno\u015bci (np. amenity=training + training=*, amenity=dancing_school, amenity=language_school, amenity=music_school)"
            }
        },
        {
            "id": 6833,
            "type": "Feature",
            "geometry": {
                "type": "Point",
                "coordinates": [
                    17.02515,
                    52.09269
                ]
            },
            "properties": {
                "isced:level": "3",
                "ref:rspo": 6833,
                "official_name": "Zesp\u00f3\u0142 Szk\u00f3\u0142 Ekonomicznych im. Cyryla Ratajskiego w \u015aremie I Liceum Og\u00f3lnokszta\u0142c\u0105ce dla Doros\u0142ych w \u015aremie",
                "name": "Zesp\u00f3\u0142 Szk\u00f3\u0142 Ekonomicznych",
                "addr:country": "PL",
                "addr:postcode": "63-100",
                "addr:city": "\u015arem",
                "addr:street": "J\u00f3zefa Wybickiego",
                "addr:housenumber": "2",
                "addr:teryt:simc": 971560,
                "addr:teryt:sym_ul": 24908,
                "contact:phone": "+48 612830177",
                "contact:email": "zse@o2.pl",
                "contact:website": "http:\/\/www.zse.srem.pl",
                "ref:regon": "302199338",
                "operator": "Powiat \u015aremski",
                "operator:type": "government",
                "amenity": "school",
                "note": "Parent RSPO: 4711"
            }
        },
        {
            "id": 52778,
            "type": "Feature",
            "geometry": {
                "type": "Point",
                "coordinates": [
                    17.02515,
                    52.092659999999995
                ]
            },
            "properties": {
                "isced:level": "3",
                "ref:rspo": 52778,
                "official_name": "Zesp\u00f3\u0142 Szk\u00f3\u0142 Ekonomicznych im. Cyryla Ratajskiego w \u015aremie Technikum Nr 1 im. Cyryla Ratajskiego w \u015aremie",
                "name": "Zesp\u00f3\u0142 Szk\u00f3\u0142 Ekonomicznych",
                "addr:country": "PL",
                "addr:postcode": "63-100",
                "addr:city": "\u015arem",
                "addr:street": "J\u00f3zefa Wybickiego",
                "addr:housenumber": "2",
                "addr:teryt:simc": 971560,
                "addr:teryt:sym_ul": 24908,
                "contact:phone": "+48 612830177",
                "contact:email": "sekretariat@zse-srem.pl",
                "contact:website": "http:\/\/www.zse-srem.pl",
                "ref:regon": "411526920",
                "operator": "Powiat \u015aremski",
                "operator:type": "government",
                "amenity": "school",
                "note": "Parent RSPO: 4711"
            }
        },
        {
            "id": 52796,
            "type": "Feature",
            "geometry": {
                "type": "Point",
                "coordinates": [
                    17.02515,
                    52.09263
                ]
            },
            "properties": {
                "isced:level": "3",
                "ref:rspo": 52796,
                "official_name": "Zesp\u00f3\u0142 Szk\u00f3\u0142 Ekonomicznych im. Cyryla Ratajskiego w \u015aremie Bran\u017cowa Szko\u0142a I Stopnia im. Cyryla Ratajskiego w \u015aremie",
                "name": "Zesp\u00f3\u0142 Szk\u00f3\u0142 Ekonomicznych",
                "addr:country": "PL",
                "addr:postcode": "63-100",
                "addr:city": "\u015arem",
                "addr:street": "J\u00f3zefa Wybickiego",
                "addr:housenumber": "2",
                "addr:teryt:simc": 971560,
                "addr:teryt:sym_ul": 24908,
                "contact:phone": "+48 612830177",
                "contact:email": "sekretariat@zse-srem.pl",
                "contact:website": "http:\/\/www.zse-srem.pl",
                "ref:regon": "411526936",
                "operator": "Powiat \u015aremski",
                "operator:type": "government",
                "amenity": "school",
                "note": "Parent RSPO: 4711"
            }
        },
        {
            "id": 55807,
            "type": "Feature",
            "geometry": {
                "type": "Point",
                "coordinates": [
                    17.02515,
                    52.0926
                ]
            },
            "properties": {
                "isced:level": "4",
                "ref:rspo": 55807,
                "official_name": "Zesp\u00f3\u0142 Szk\u00f3\u0142 Ekonomicznych im. Cyryla Ratajskiego w \u015aremie Szko\u0142a Policealna im. Cyryla Ratajskiego w \u015aremie",
                "name": "Zesp\u00f3\u0142 Szk\u00f3\u0142 Ekonomicznych",
                "addr:country": "PL",
                "addr:postcode": "63-100",
                "addr:city": "\u015arem",
                "addr:street": "J\u00f3zefa Wybickiego",
                "addr:housenumber": "2",
                "addr:teryt:simc": 971560,
                "addr:teryt:sym_ul": 24908,
                "contact:phone": "+48 612830177",
                "contact:email": "zse@o2.pl",
                "contact:website": "http:\/\/www.zse-srem.pl",
                "ref:regon": "411526907",
                "operator": "Powiat \u015aremski",
                "operator:type": "government",
                "amenity": "college",
                "note": "Parent RSPO: 4711"
            }
        },
        {
            "id": 16691,
            "type": "Feature",
            "geometry": {
                "type": "Point",
                "coordinates": [
                    17.02954,
                    52.0939
                ]
            },
            "properties": {
                "ref:rspo": 16691,
                "official_name": "Niepubliczne Przedszkole \"Klub Malucha Bajkowy \u015awiat Renata Cerekwicka\"",
                "name": "Niepubliczne Przedszkole \"Klub Malucha Bajkowy \u015awiat Renata Cerekwicka\"",
                "addr:country": "PL",
                "addr:postcode": "63-100",
                "addr:city": "\u015arem",
                "addr:street": "Wac\u0142awa Adamskiego",
                "addr:housenumber": "1",
                "addr:teryt:simc": 971560,
                "addr:teryt:sym_ul": 121,
                "contact:phone": "+48 693277080",
                "contact:email": "biuro@bajkowyswiat.net",
                "ref:regon": "302218946",
                "ref:vatin": "PL7791614445",
                "operator": "Renata Cerekwicka",
                "operator:type": "private",
                "amenity": "kindergarten"
            }
        },
        {
            "id": 123352,
            "type": "Feature",
            "geometry": {
                "type": "Point",
                "coordinates": [
                    17.02439,
                    52.09397
                ]
            },
            "properties": {
                "isced:level": "1;2",
                "ref:rspo": 123352,
                "official_name": "Szko\u0142a Podstawowa Nr 2 im. Ks. Piotra Wawrzyniaka w \u015aremie",
                "name": "Szko\u0142a Podstawowa Nr 2",
                "addr:country": "PL",
                "addr:postcode": "63-100",
                "addr:city": "\u015arem",
                "addr:street": "Szkolna",
                "addr:housenumber": "4",
                "addr:teryt:simc": 971560,
                "addr:teryt:sym_ul": 21970,
                "contact:phone": "+48 612830866",
                "contact:email": "sekretariat@sp2.srem.pl",
                "contact:website": "http:\/\/sp2srem.szkolnastrona.pl",
                "ref:regon": "302756046",
                "ref:vatin": "PL7851798970",
                "operator": "Gmina \u015arem",
                "operator:type": "government",
                "amenity": "school"
            }
        },
        {
            "id": 122751,
            "type": "Feature",
            "geometry": {
                "type": "Point",
                "coordinates": [
                    17.01999,
                    52.09443
                ]
            },
            "properties": {
                "ref:rspo": 122751,
                "official_name": "Niepubliczny O\u015brodek Doskonalenia Nauczycieli w \u015aremie",
                "name": "Niepubliczny O\u015brodek Doskonalenia Nauczycieli w \u015aremie",
                "addr:country": "PL",
                "addr:postcode": "63-100",
                "addr:city": "\u015arem",
                "addr:street": "Floriana D\u0105browskiego",
                "addr:housenumber": "33",
                "addr:door": "1",
                "addr:teryt:simc": 971560,
                "addr:teryt:sym_ul": 3669,
                "contact:phone": "+48 728369430",
                "ref:regon": "302694871",
                "operator": "Dane Do Uzupe\u0142nienia",
                "operator:type": "private",
                "amenity": "training"
            }
        },
        {
            "id": 52759,
            "type": "Feature",
            "geometry": {
                "type": "Point",
                "coordinates": [
                    17.0231,
                    52.0960899
                ]
            },
            "properties": {
                "isced:level": "3",
                "ref:rspo": 52759,
                "official_name": "Liceum Og\u00f3lnokszta\u0142c\u0105ce im. Gen. J\u00f3zefa Wybickiego w \u015aremie",
                "name": "Liceum Og\u00f3lnokszta\u0142c\u0105ce",
                "addr:country": "PL",
                "addr:postcode": "63-100",
                "addr:city": "\u015arem",
                "addr:street": "Pozna\u0144ska",
                "addr:housenumber": "11",
                "addr:teryt:simc": 971560,
                "addr:teryt:sym_ul": 17394,
                "contact:phone": "+48 612810024",
                "contact:email": "sekretariat@losrem.pl",
                "contact:website": "http:\/\/www.losrem.pl",
                "ref:regon": "000231478",
                "operator": "Powiat \u015aremski",
                "operator:type": "government",
                "amenity": "school"
            }
        },
        {
            "id": 44160,
            "type": "Feature",
            "geometry": {
                "type": "Point",
                "coordinates": [
                    17.01591,
                    52.09615
                ]
            },
            "properties": {
                "ref:rspo": 44160,
                "official_name": "Zesp\u00f3\u0142 Szk\u00f3\u0142 Politechnicznych im. Powsta\u0144c\u00f3w Wielkopolskich w \u015aremie",
                "name": "Zesp\u00f3\u0142 Szk\u00f3\u0142 Politechnicznych",
                "addr:country": "PL",
                "addr:postcode": "63-100",
                "addr:city": "\u015arem",
                "addr:street": "Ksi\u0119dza Jerzego Popie\u0142uszki",
                "addr:housenumber": "30",
                "addr:teryt:simc": 971560,
                "addr:teryt:sym_ul": 48112,
                "contact:phone": "+48 612830337",
                "contact:email": "sekretariat@zsp-srem.pl",
                "contact:website": "http:\/\/www.zsp-srem.pl",
                "ref:regon": "000688025",
                "ref:vatin": "PL7851293827",
                "operator": "Powiat \u015aremski",
                "operator:type": "government",
                "landuse": "education",
                "fixme": "amenity=school, amenity=college albo landuse=education w zale\u017cno\u015bci od tego, jakie plac\u00f3wki wchodz\u0105 w sk\u0142ad zespo\u0142u. Sprawd\u017a, kiedy stosowa\u0107 amenity=* a kiedy landuse=education.",
                "note": "Children RSPO: 60954;68454;119212"
            }
        },
        {
            "id": 60954,
            "type": "Feature",
            "geometry": {
                "type": "Point",
                "coordinates": [
                    17.01591,
                    52.09612
                ]
            },
            "properties": {
                "isced:level": "3",
                "ref:rspo": 60954,
                "official_name": "Zesp\u00f3\u0142 Szk\u00f3\u0142 Politechnicznych im. Powsta\u0144c\u00f3w Wielkopolskich w \u015aremie Technikum Nr 3 w \u015aremie",
                "name": "Zesp\u00f3\u0142 Szk\u00f3\u0142 Politechnicznych",
                "addr:country": "PL",
                "addr:postcode": "63-100",
                "addr:city": "\u015arem",
                "addr:street": "ks. Jerzego Popie\u0142uszki",
                "addr:housenumber": "30",
                "addr:teryt:simc": 971560,
                "addr:teryt:sym_ul": 17149,
                "contact:phone": "+48 612830337",
                "contact:email": "sekretariat@zsp-srem.pl",
                "contact:website": "http:\/\/www.zsp-srem.pl",
                "ref:regon": "300099041",
                "operator": "Powiat \u015aremski",
                "operator:type": "government",
                "amenity": "school",
                "note": "Parent RSPO: 44160"
            }
        },
        {
            "id": 68454,
            "type": "Feature",
            "geometry": {
                "type": "Point",
                "coordinates": [
                    17.01591,
                    52.096090000000004
                ]
            },
            "properties": {
                "isced:level": "3",
                "ref:rspo": 68454,
                "official_name": "Zesp\u00f3\u0142 Szk\u00f3\u0142 Politechnicznych im. Powsta\u0144c\u00f3w Wielkopolskich w \u015aremie Bran\u017cowa Szko\u0142a I Stopnia Nr 3 w \u015aremie",
                "name": "Zesp\u00f3\u0142 Szk\u00f3\u0142 Politechnicznych",
                "addr:country": "PL",
                "addr:postcode": "63-100",
                "addr:city": "\u015arem",
                "addr:street": "Ksi\u0119dza Jerzego Popie\u0142uszki",
                "addr:housenumber": "30",
                "addr:teryt:simc": 971560,
                "addr:teryt:sym_ul": 48112,
                "contact:phone": "+48 612830337",
                "contact:email": "sekretariat@zsp-srem.pl",
                "contact:website": "http:\/\/www.zsp-srem.pl",
                "ref:regon": "411494290",
                "operator": "Powiat \u015aremski",
                "operator:type": "government",
                "amenity": "school",
                "note": "Parent RSPO: 44160"
            }
        },
        {
            "id": 119212,
            "type": "Feature",
            "geometry": {
                "type": "Point",
                "coordinates": [
                    17.01591,
                    52.09606
                ]
            },
            "properties": {
                "isced:level": "3",
                "ref:rspo": 119212,
                "official_name": "Zesp\u00f3\u0142 Szk\u00f3\u0142 Politechnicznych im. Powsta\u0144c\u00f3w Wielkopolskich w \u015aremie II Liceum Og\u00f3lnokszta\u0142c\u0105ce dla Doros\u0142ych w \u015aremie",
                "name": "Zesp\u00f3\u0142 Szk\u00f3\u0142 Politechnicznych",
                "addr:country": "PL",
                "addr:postcode": "63-100",
                "addr:city": "\u015arem",
                "addr:street": "ks. Jerzego Popie\u0142uszki",
                "addr:housenumber": "30",
                "addr:teryt:simc": 971560,
                "addr:teryt:sym_ul": 17149,
                "contact:phone": "+48 612830337",
                "contact:email": "sekretariat@zsp-srem.pl",
                "contact:website": "http:\/\/www.zsp-srem.pl",
                "ref:regon": "302514573",
                "operator": "Powiat \u015aremski",
                "operator:type": "government",
                "amenity": "school",
                "note": "Parent RSPO: 44160"
            }
        },
        {
            "id": 119387,
            "type": "Feature",
            "geometry": {
                "type": "Point",
                "coordinates": [
                    16.99871,
                    52.09668
                ]
            },
            "properties": {
                "ref:rspo": 119387,
                "official_name": "Zak\u0142ad Doskonalenia Zawodowego.centrum Kszta\u0142cenia w Poznaniu. O\u015brodek Kszta\u0142cenia Zawodowegow \u015aremie",
                "name": "Zak\u0142ad Doskonalenia Zawodowego.centrum Kszta\u0142cenia w Poznaniu. O\u015brodek Kszta\u0142cenia Zawodowegow \u015aremie",
                "addr:country": "PL",
                "addr:postcode": "63-100",
                "addr:city": "\u015arem",
                "addr:street": "Genera\u0142a W\u0142adys\u0142awa Sikorskiego",
                "addr:housenumber": "21",
                "addr:teryt:simc": 971560,
                "addr:teryt:sym_ul": 48506,
                "contact:phone": "+48 612835445",
                "contact:website": "http:\/\/www.zdz.poznan.pl",
                "ref:regon": "302516833",
                "operator": "Zak\u0142ad Doskonalenia Zawodowego",
                "operator:type": "ngo",
                "fixme": "w zale\u017cno\u015bci od przedmiotu dzia\u0142alno\u015bci (np. amenity=training + training=*, amenity=dancing_school, amenity=language_school, amenity=music_school)"
            }
        },
        {
            "id": 31053,
            "type": "Feature",
            "geometry": {
                "type": "Point",
                "coordinates": [
                    17.02155,
                    52.09733
                ]
            },
            "properties": {
                "ref:rspo": 31053,
                "official_name": "Publiczne Przedszkole \"Niezapominajka\" w \u015aremie",
                "name": "Publiczne Przedszkole \"Niezapominajka\" w \u015aremie",
                "addr:country": "PL",
                "addr:postcode": "63-100",
                "addr:city": "\u015arem",
                "addr:street": "J\u00f3zefa Dutkiewicza",
                "addr:housenumber": "13",
                "addr:teryt:simc": 971560,
                "addr:teryt:sym_ul": 4417,
                "contact:phone": "+48 612830530",
                "contact:email": "niezapominajka@naszsrem.pl",
                "contact:website": "http:\/\/www.niezapominajka.naszsrem.pl",
                "ref:regon": "302249869",
                "ref:vatin": "PL7851610280",
                "operator": "Zgromadzenie Si\u00f3str \u015aw. El\u017cbiety Prowincja Pozna\u0144ska",
                "operator:type": "religious",
                "amenity": "kindergarten"
            }
        },
        {
            "id": 30030,
            "type": "Feature",
            "geometry": {
                "type": "Point",
                "coordinates": [
                    16.91056,
                    52.09794
                ]
            },
            "properties": {
                "isced:level": "1;2",
                "ref:rspo": 30030,
                "official_name": "Szko\u0142a Podstawowa im. W\u0142adys\u0142awa Reymonta w Krzy\u017canowie",
                "name": "Szko\u0142a Podstawowa",
                "addr:country": "PL",
                "addr:postcode": "63-100",
                "addr:place": "Krzy\u017canowo",
                "addr:housenumber": "44",
                "addr:teryt:simc": 596330,
                "contact:phone": "+48 612812119",
                "contact:email": "sekretariat@spkrzyzanowo.srem.pl",
                "contact:website": "http:\/\/www.spkrzyzanowo.srem.pl",
                "ref:regon": "001225238",
                "ref:vatin": "PL7851610050",
                "operator": "Gmina \u015arem",
                "operator:type": "government",
                "amenity": "school"
            }
        },
        {
            "id": 84970,
            "type": "Feature",
            "geometry": {
                "type": "Point",
                "coordinates": [
                    17.11522,
                    52.1124099
                ]
            },
            "properties": {
                "isced:level": "1;2",
                "ref:rspo": 84970,
                "official_name": "Szko\u0142a Podstawowa im. Jana Paw\u0142a II w D\u0105browie",
                "name": "Szko\u0142a Podstawowa",
                "addr:country": "PL",
                "addr:postcode": "63-100",
                "addr:city": "D\u0105browa",
                "addr:street": "\u015aremska",
                "addr:housenumber": "2",
                "addr:teryt:simc": 596205,
                "addr:teryt:sym_ul": 22415,
                "contact:phone": "+48 612834581",
                "contact:email": "sekretariat@spdabrowa.srem.pl",
                "contact:website": "http:\/\/www.zspigdabrowa.srem.pl",
                "ref:regon": "001225669",
                "ref:vatin": "PL7851693538",
                "operator": "Gmina \u015arem",
                "operator:type": "government",
                "amenity": "school"
            }
        },
        {
            "id": 14958,
            "type": "Feature",
            "geometry": {
                "type": "Point",
                "coordinates": [
                    17.07884,
                    52.1159
                ]
            },
            "properties": {
                "ref:rspo": 14958,
                "official_name": "Niepubliczne Przedszkole \"Le\u015bna Polanka\" w Mechlinie",
                "name": "Niepubliczne Przedszkole \"Le\u015bna Polanka\" w Mechlinie",
                "addr:country": "PL",
                "addr:postcode": "63-100",
                "addr:city": "Mechlin",
                "addr:street": "Ksi\u0119dza Piotra Wawrzyniaka",
                "addr:housenumber": "2",
                "addr:teryt:simc": 596412,
                "addr:teryt:sym_ul": 50185,
                "contact:phone": "+48 691798773",
                "contact:email": "paulina.fabisiak7@wp.pl",
                "contact:website": "http:\/\/www.lesna-polanka.pl",
                "ref:regon": "302213972",
                "ref:vatin": "PL7851714542",
                "operator": "Paulina Fabisiak",
                "operator:type": "private",
                "amenity": "kindergarten"
            }
        },
        {
            "id": 86272,
            "type": "Feature",
            "geometry": {
                "type": "Point",
                "coordinates": [
                    17.0361699,
                    52.11765
                ]
            },
            "properties": {
                "isced:level": "1;2",
                "ref:rspo": 86272,
                "official_name": "Szko\u0142a Podstawowa w Zbrudzewie",
                "name": "Szko\u0142a Podstawowa w Zbrudzewie",
                "addr:country": "PL",
                "addr:postcode": "63-100",
                "addr:city": "Zbrudzewo",
                "addr:street": "\u015aremska",
                "addr:housenumber": "49",
                "addr:teryt:simc": 596642,
                "addr:teryt:sym_ul": 22415,
                "contact:phone": "+48 612830498",
                "contact:email": "sekretariat@spzbrudzewo.srem.pl",
                "contact:website": "http:\/\/www.spzbrudzewo.srem.pl",
                "ref:regon": "000941027",
                "ref:vatin": "PL7851693550",
                "operator": "Gmina \u015arem",
                "operator:type": "government",
                "amenity": "school"
            }
        }
    ]
}