{
    "type": "FeatureCollection",
    "features": [
        {
            "id": 272059,
            "type": "Feature",
            "geometry": {
                "type": "Point",
                "coordinates": [
                    17.09204,
                    51.93764
                ]
            },
            "properties": {
                "ref:rspo": 272059,
                "official_name": "Przedszkole w Mszczyczynie",
                "name": "Przedszkole w Mszczyczynie",
                "addr:country": "PL",
                "addr:postcode": "63-140",
                "addr:city": "Mszczyczyn",
                "addr:street": "Szkolna",
                "addr:housenumber": "4",
                "addr:teryt:simc": 21970,
                "addr:teryt:sym_ul": 582344,
                "contact:phone": "+48 612825213",
                "ref:regon": "383903082",
                "operator": "Gmina Dolsk",
                "operator:type": "government",
                "amenity": "kindergarten",
                "note": "Parent RSPO: 272051"
            }
        },
        {
            "id": 272060,
            "type": "Feature",
            "geometry": {
                "type": "Point",
                "coordinates": [
                    17.05839,
                    51.95227
                ]
            },
            "properties": {
                "ref:rspo": 272060,
                "official_name": "Przedszkole w Ma\u0142achowie",
                "name": "Przedszkole w Ma\u0142achowie",
                "addr:country": "PL",
                "addr:postcode": "63-140",
                "addr:place": "Ma\u0142achowo",
                "addr:housenumber": "36",
                "addr:teryt:sym_ul": 582261,
                "contact:phone": "+48 612825213",
                "ref:regon": "383903107",
                "operator": "Gmina Dolsk",
                "operator:type": "government",
                "amenity": "kindergarten",
                "note": "Parent RSPO: 272051"
            }
        },
        {
            "id": 272057,
            "type": "Feature",
            "geometry": {
                "type": "Point",
                "coordinates": [
                    17.11243,
                    51.9773799
                ]
            },
            "properties": {
                "ref:rspo": 272057,
                "official_name": "Przedszkole w Ostrowiecznie",
                "name": "Przedszkole w Ostrowiecznie",
                "addr:country": "PL",
                "addr:postcode": "63-140",
                "addr:place": "Ostrowieczno",
                "addr:housenumber": "34",
                "addr:teryt:sym_ul": 582404,
                "contact:phone": "+48 612825213",
                "ref:regon": "383902898",
                "operator": "Gmina Dolsk",
                "operator:type": "government",
                "amenity": "kindergarten",
                "note": "Parent RSPO: 272051"
            }
        },
        {
            "id": 26203,
            "type": "Feature",
            "geometry": {
                "type": "Point",
                "coordinates": [
                    17.06078,
                    51.98916
                ]
            },
            "properties": {
                "isced:level": "1;2",
                "ref:rspo": 26203,
                "official_name": "Szko\u0142a Podstawowa im.janusza Kusoci\u0144skiego w Dolsku",
                "name": "Szko\u0142a Podstawowa im.janusza Kusoci\u0144skiego w Dolsku",
                "addr:country": "PL",
                "addr:postcode": "63-140",
                "addr:city": "Dolsk",
                "addr:street": "Ko\u015bcia\u0144ska",
                "addr:housenumber": "4",
                "addr:teryt:simc": 9539,
                "addr:teryt:sym_ul": 970589,
                "contact:phone": "+48 612825122",
                "contact:email": "poczta@spdolsk.pl",
                "contact:website": "http:\/\/spdolsk.pl",
                "ref:regon": "000657444",
                "ref:vatin": "PL7851419731",
                "operator": "Gmina Dolsk",
                "operator:type": "government",
                "amenity": "school"
            }
        },
        {
            "id": 272051,
            "type": "Feature",
            "geometry": {
                "type": "Point",
                "coordinates": [
                    17.06557,
                    51.98947
                ]
            },
            "properties": {
                "ref:rspo": 272051,
                "official_name": "Zesp\u00f3\u0142 Przedszkoli w Dolsku",
                "name": "Zesp\u00f3\u0142 Przedszkoli w Dolsku",
                "addr:country": "PL",
                "addr:postcode": "63-140",
                "addr:city": "Dolsk",
                "addr:street": "\u015aremskie Przedmie\u015bcie",
                "addr:housenumber": "35",
                "addr:teryt:simc": 22416,
                "addr:teryt:sym_ul": 970589,
                "contact:phone": "+48 612825213",
                "contact:email": "przedszkole-stokrotki@dolsk.pl",
                "contact:website": "http:\/\/www.stokrotki.dolsk.pl",
                "ref:regon": "383895164",
                "ref:vatin": "PL7851807812",
                "operator": "Gmina Dolsk",
                "operator:type": "government",
                "landuse": "education",
                "fixme": "amenity=school, amenity=college albo landuse=education w zale\u017cno\u015bci od tego, jakie plac\u00f3wki wchodz\u0105 w sk\u0142ad zespo\u0142u. Sprawd\u017a, kiedy stosowa\u0107 amenity=* a kiedy landuse=education.",
                "note": "Children RSPO: 26256;272057;272059;272060;272088"
            }
        },
        {
            "id": 26256,
            "type": "Feature",
            "geometry": {
                "type": "Point",
                "coordinates": [
                    17.06557,
                    51.989439999999995
                ]
            },
            "properties": {
                "ref:rspo": 26256,
                "official_name": "Przedszkole \"Stokrotki\" w Dolsku",
                "name": "Przedszkole \"Stokrotki\" w Dolsku",
                "addr:country": "PL",
                "addr:postcode": "63-140",
                "addr:city": "Dolsk",
                "addr:street": "\u015aremskie Przedmie\u015bcie",
                "addr:housenumber": "35",
                "addr:teryt:simc": 22416,
                "addr:teryt:sym_ul": 970589,
                "contact:phone": "+48 612825213",
                "contact:email": "przedszkole-stokrotki@dolsk.pl",
                "contact:website": "http:\/\/www.stokrotki.dolsk.pl",
                "ref:regon": "631175662",
                "ref:vatin": "PL7851419872",
                "operator": "Gmina Dolsk",
                "operator:type": "government",
                "amenity": "kindergarten",
                "note": "Parent RSPO: 272051"
            }
        },
        {
            "id": 272012,
            "type": "Feature",
            "geometry": {
                "type": "Point",
                "coordinates": [
                    17.0863,
                    52.0179
                ]
            },
            "properties": {
                "ref:rspo": 272012,
                "official_name": "Zesp\u00f3\u0142 Szkolno-Przedszkolny w Mas\u0142owie",
                "name": "Zesp\u00f3\u0142 Szkolno-Przedszkolny w Mas\u0142owie",
                "addr:country": "PL",
                "addr:postcode": "63-140",
                "addr:place": "Mas\u0142owo",
                "addr:housenumber": "8",
                "addr:teryt:sym_ul": 582284,
                "contact:phone": "+48 612825828",
                "contact:email": "sekretariat@spmaslowo.pl",
                "contact:website": "http:\/\/www.spmaslowo.pl",
                "ref:regon": "383874127",
                "ref:vatin": "PL7851807829",
                "operator": "Gmina Dolsk",
                "operator:type": "government",
                "landuse": "education",
                "fixme": "amenity=school, amenity=college albo landuse=education w zale\u017cno\u015bci od tego, jakie plac\u00f3wki wchodz\u0105 w sk\u0142ad zespo\u0142u. Sprawd\u017a, kiedy stosowa\u0107 amenity=* a kiedy landuse=education.",
                "note": "Children RSPO: 11708;272016"
            }
        },
        {
            "id": 11708,
            "type": "Feature",
            "geometry": {
                "type": "Point",
                "coordinates": [
                    17.0863,
                    52.017869999999995
                ]
            },
            "properties": {
                "isced:level": "1;2",
                "ref:rspo": 11708,
                "official_name": "Szko\u0142a Podstawowa im. Jana Brzechwy w Mas\u0142owie",
                "name": "Szko\u0142a Podstawowa",
                "addr:country": "PL",
                "addr:postcode": "63-140",
                "addr:place": "Mas\u0142owo",
                "addr:housenumber": "8",
                "addr:teryt:sym_ul": 582284,
                "contact:phone": "+48 612825828",
                "contact:email": "sekretariat@spmaslowo.pl",
                "contact:website": "http:\/\/www.spmaslowo.pl",
                "ref:regon": "001226870",
                "ref:vatin": "PL7851419949",
                "operator": "Gmina Dolsk",
                "operator:type": "government",
                "amenity": "school",
                "note": "Parent RSPO: 272012"
            }
        },
        {
            "id": 272088,
            "type": "Feature",
            "geometry": {
                "type": "Point",
                "coordinates": [
                    17.0307,
                    52.02604
                ]
            },
            "properties": {
                "ref:rspo": 272088,
                "official_name": "Punkt Przedszkolny w Mi\u0119dzychodzie",
                "name": "Punkt Przedszkolny w Mi\u0119dzychodzie",
                "addr:country": "PL",
                "addr:postcode": "63-140",
                "addr:place": "Mi\u0119dzych\u00f3d",
                "addr:housenumber": "42",
                "addr:teryt:sym_ul": 582315,
                "contact:phone": "+48 612825213",
                "ref:regon": "383923699",
                "operator": "Gmina Dolsk",
                "operator:type": "government",
                "amenity": "kindergarten",
                "note": "Parent RSPO: 272051"
            }
        },
        {
            "id": 272016,
            "type": "Feature",
            "geometry": {
                "type": "Point",
                "coordinates": [
                    17.09512,
                    52.03426
                ]
            },
            "properties": {
                "ref:rspo": 272016,
                "official_name": "Przedszkole w Wieszczyczynie",
                "name": "Przedszkole w Wieszczyczynie",
                "addr:country": "PL",
                "addr:postcode": "63-140",
                "addr:city": "Wieszczyczyn",
                "addr:street": "Ksi\u0119dza Marciniaka",
                "addr:housenumber": "35",
                "addr:teryt:simc": 54819,
                "addr:teryt:sym_ul": 582479,
                "contact:phone": "+48 612818678",
                "contact:email": "sekretariat@spmaslowo.pl",
                "contact:website": "http:\/\/spmaslowo.pl",
                "ref:regon": "383874498",
                "operator": "Gmina Dolsk",
                "operator:type": "government",
                "amenity": "kindergarten",
                "note": "Parent RSPO: 272012"
            }
        },
        {
            "id": 109679,
            "type": "Feature",
            "geometry": {
                "type": "Point",
                "coordinates": [
                    17.02419,
                    52.03622
                ]
            },
            "properties": {
                "ref:rspo": 109679,
                "official_name": "Europejska Plac\u00f3wka Kszta\u0142cenia Ustawicznego Aberos",
                "name": "Europejska Plac\u00f3wka Kszta\u0142cenia Ustawicznego Aberos",
                "addr:country": "PL",
                "addr:postcode": "63-140",
                "addr:place": "Mi\u0119dzych\u00f3d",
                "addr:housenumber": "44",
                "addr:teryt:sym_ul": 582315,
                "contact:phone": "+48 884707022",
                "contact:email": "miedzychod@akademiakierowcy-odtj.pl",
                "ref:regon": "302349536",
                "operator": "Aberos Sp\u00f3\u0142ka Z Ograniczon\u0105 Odpowiedzialno\u015bci\u0105",
                "operator:type": "private",
                "fixme": "w zale\u017cno\u015bci od przedmiotu dzia\u0142alno\u015bci (np. amenity=training + training=*, amenity=dancing_school, amenity=language_school, amenity=music_school)"
            }
        },
        {
            "id": 133351,
            "type": "Feature",
            "geometry": {
                "type": "Point",
                "coordinates": [
                    17.02419,
                    52.03619
                ]
            },
            "properties": {
                "ref:rspo": 133351,
                "official_name": "Plac\u00f3wka Kszta\u0142cenia Ustawicznego - Aberos",
                "name": "Plac\u00f3wka Kszta\u0142cenia Ustawicznego - Aberos",
                "addr:country": "PL",
                "addr:postcode": "63-140",
                "addr:place": "Mi\u0119dzych\u00f3d",
                "addr:housenumber": "44",
                "addr:teryt:sym_ul": 582315,
                "contact:phone": "+48 531550303",
                "contact:email": "biuro@aberos.pl",
                "contact:website": "http:\/\/www.aberos.pl",
                "ref:regon": "367090680",
                "operator": "Natalia Kaczmarek \"Aberos\"",
                "operator:type": "consortium",
                "fixme": "w zale\u017cno\u015bci od przedmiotu dzia\u0142alno\u015bci (np. amenity=training + training=*, amenity=dancing_school, amenity=language_school, amenity=music_school)"
            }
        }
    ]
}