{
    "type": "FeatureCollection",
    "features": [
        {
            "id": 90099,
            "type": "Feature",
            "geometry": {
                "type": "Point",
                "coordinates": [
                    17.17672,
                    51.99001
                ]
            },
            "properties": {
                "isced:level": "1;2",
                "ref:rspo": 90099,
                "official_name": "Niepubliczna Szko\u0142a w W\u0142o\u015bciejewicach",
                "name": "Niepubliczna Szko\u0142a w W\u0142o\u015bciejewicach",
                "addr:country": "PL",
                "addr:postcode": "63-130",
                "addr:place": "W\u0142o\u015bciejewice",
                "addr:housenumber": "49",
                "addr:teryt:simc": 587459,
                "contact:phone": "+48 612821995",
                "contact:email": "spwasielak@vp.pl",
                "ref:regon": "302278397",
                "ref:vatin": "PL7851763606",
                "operator": "Stowarzyszenie Na Rzecz Rozwoju O\u015bwiaty I Kultury Wiejskiej",
                "operator:type": "cooperative",
                "amenity": "school"
            }
        },
        {
            "id": 90187,
            "type": "Feature",
            "geometry": {
                "type": "Point",
                "coordinates": [
                    17.17672,
                    51.989979999999996
                ]
            },
            "properties": {
                "ref:rspo": 90187,
                "official_name": "Niepubliczne Przedszkole w W\u0142o\u015bciejewicach",
                "name": "Niepubliczne Przedszkole w W\u0142o\u015bciejewicach",
                "addr:country": "PL",
                "addr:postcode": "63-130",
                "addr:place": "W\u0142o\u015bciejewice",
                "addr:housenumber": "49",
                "addr:teryt:simc": 587459,
                "contact:phone": "+48 612821995",
                "contact:email": "spwasielak@vp.pl",
                "ref:regon": "302278440",
                "ref:vatin": "PL7851763606",
                "operator": "Stowarzyszenie Na Rzecz Rozwoju O\u015bwiaty I Kultury Wiejskiej",
                "operator:type": "cooperative",
                "amenity": "kindergarten"
            }
        },
        {
            "id": 277576,
            "type": "Feature",
            "geometry": {
                "type": "Point",
                "coordinates": [
                    17.20679,
                    52.03432
                ]
            },
            "properties": {
                "ref:rspo": 277576,
                "official_name": "European Security Academy",
                "name": "European Security Academy",
                "addr:country": "PL",
                "addr:postcode": "63-130",
                "addr:place": "W\u0142o\u015bciejewki",
                "addr:housenumber": "1",
                "addr:teryt:simc": 587465,
                "contact:email": "facility@euseca.com",
                "contact:website": "http:\/\/www.euseca.com",
                "ref:regon": "389144520",
                "operator": "Bartosz Bryl European Security Academy",
                "operator:type": "consortium",
                "fixme": "w zale\u017cno\u015bci od przedmiotu dzia\u0142alno\u015bci (np. amenity=training + training=*, amenity=dancing_school, amenity=language_school, amenity=music_school)"
            }
        },
        {
            "id": 263651,
            "type": "Feature",
            "geometry": {
                "type": "Point",
                "coordinates": [
                    17.25012,
                    52.05818
                ]
            },
            "properties": {
                "ref:rspo": 263651,
                "official_name": "Przedszkole Niepubliczne Truskawkowa Polanka w Ksi\u0105\u017cu Wielkopolskim",
                "name": "Przedszkole Niepubliczne Truskawkowa Polanka w Ksi\u0105\u017cu Wielkopolskim",
                "addr:country": "PL",
                "addr:postcode": "63-130",
                "addr:city": "Ksi\u0105\u017c Wielkopolski",
                "addr:street": "Nowomiejska",
                "addr:housenumber": "24a",
                "addr:teryt:simc": 970968,
                "addr:teryt:sym_ul": 14444,
                "contact:email": "sekretariat.ksiaz@truskawkowapolanka.pl",
                "contact:website": "http:\/\/www.truskawkowapolanka.pl",
                "ref:regon": "368211140",
                "ref:vatin": "PL7851804044",
                "operator": "Jakub Tylman",
                "operator:type": "private",
                "amenity": "kindergarten"
            }
        },
        {
            "id": 85774,
            "type": "Feature",
            "geometry": {
                "type": "Point",
                "coordinates": [
                    17.24327,
                    52.06067
                ]
            },
            "properties": {
                "isced:level": "1;2",
                "ref:rspo": 85774,
                "official_name": "Szko\u0142a Podstawowa im. Wiosny Lud\u00f3w w Ksi\u0105\u017cu Wielkopolskim",
                "name": "Szko\u0142a Podstawowa",
                "addr:country": "PL",
                "addr:postcode": "63-130",
                "addr:city": "Ksi\u0105\u017c Wielkopolski",
                "addr:street": "Stacha Wichury",
                "addr:housenumber": "27",
                "addr:teryt:simc": 970968,
                "addr:teryt:sym_ul": 23993,
                "contact:phone": "+48 612822007",
                "contact:email": "szkolakw@wp.pl",
                "contact:website": "http:\/\/www.spksiazwlkp.szkolnastrona.pl",
                "ref:regon": "000562123",
                "ref:vatin": "PL7851624655",
                "operator": "Gmina Ksi\u0105\u017c Wielkopolski",
                "operator:type": "government",
                "amenity": "school"
            }
        },
        {
            "id": 85734,
            "type": "Feature",
            "geometry": {
                "type": "Point",
                "coordinates": [
                    17.1850099,
                    52.0608
                ]
            },
            "properties": {
                "isced:level": "1;2",
                "ref:rspo": 85734,
                "official_name": "Szko\u0142a Podstawowa im. Emilii Sczanieckiej w Konarzycach",
                "name": "Szko\u0142a Podstawowa",
                "addr:country": "PL",
                "addr:postcode": "63-130",
                "addr:city": "Konarzyce",
                "addr:street": "Szkolna",
                "addr:housenumber": "6",
                "addr:teryt:simc": 587324,
                "addr:teryt:sym_ul": 21970,
                "contact:phone": "+48 612822620",
                "contact:email": "konarzyce_szkola@poczta.onet.pl",
                "contact:website": "http:\/\/sp.konarzyce.szkolnastrona.pl",
                "ref:regon": "001226516",
                "ref:vatin": "PL7851624543",
                "operator": "Gmina Ksi\u0105\u017c Wielkopolski",
                "operator:type": "government",
                "amenity": "school"
            }
        },
        {
            "id": 274683,
            "type": "Feature",
            "geometry": {
                "type": "Point",
                "coordinates": [
                    17.2363,
                    52.06189
                ]
            },
            "properties": {
                "ref:rspo": 274683,
                "official_name": "Punkt Przedszkolny \"Radosny Maluch\"",
                "name": "Punkt Przedszkolny \"Radosny Maluch\"",
                "addr:country": "PL",
                "addr:postcode": "63-130",
                "addr:city": "Ksi\u0105\u017c Wielkopolski",
                "addr:street": "Ignacego Krasickiego",
                "addr:housenumber": "8",
                "addr:teryt:simc": 970968,
                "addr:teryt:sym_ul": 9830,
                "contact:email": "m.binkowska1987@onet.pl",
                "ref:regon": "386231163",
                "operator": "Centrum Rozwoju Dziecka Marlena Binkowska",
                "operator:type": "private",
                "amenity": "kindergarten"
            }
        },
        {
            "id": 85980,
            "type": "Feature",
            "geometry": {
                "type": "Point",
                "coordinates": [
                    17.24134,
                    52.06262
                ]
            },
            "properties": {
                "ref:rspo": 85980,
                "official_name": "Przedszkole \"Bajkowy \u015awiat\" w Ksi\u0105\u017cu Wielkopolskim",
                "name": "Przedszkole \"Bajkowy \u015awiat\" w Ksi\u0105\u017cu Wielkopolskim",
                "addr:country": "PL",
                "addr:postcode": "63-130",
                "addr:city": "Ksi\u0105\u017c Wielkopolski",
                "addr:street": "Ogrodowa",
                "addr:housenumber": "1a",
                "addr:teryt:simc": 970968,
                "addr:teryt:sym_ul": 14834,
                "contact:phone": "+48 612822560",
                "contact:email": "sekretariat@przedszkole-ksiazwlkp.pl",
                "contact:website": "http:\/\/www.przedszkoleksiazwlkp.szkolnastrona.pl\/",
                "ref:regon": "630993996",
                "ref:vatin": "PL7851624514",
                "operator": "Gmina Ksi\u0105\u017c Wielkopolski",
                "operator:type": "government",
                "amenity": "kindergarten"
            }
        },
        {
            "id": 90172,
            "type": "Feature",
            "geometry": {
                "type": "Point",
                "coordinates": [
                    17.10395,
                    52.06738
                ]
            },
            "properties": {
                "isced:level": "1;2",
                "ref:rspo": 90172,
                "official_name": "Niepubliczna O\u015bmioletnia Szko\u0142a Podstawowa im. Ks. Pra\u0142ata Piotra Wawrzyniaka w Chrz\u0105stowie Posiadaj\u0105ca Uprawnienia Szko\u0142y Publicznej w Chrz\u0105stowie",
                "name": "Niepubliczna O\u015bmioletnia Szko\u0142a Podstawowa",
                "addr:country": "PL",
                "addr:postcode": "63-130",
                "addr:place": "Chrz\u0105stowo",
                "addr:housenumber": "21",
                "addr:teryt:simc": 587152,
                "contact:phone": "+48 612822494",
                "contact:email": "chrzastowo1@poczta.onet.pl",
                "ref:regon": "302278411",
                "ref:vatin": "PL7851758947",
                "operator": "Stowarzyszenie Na Rzecz Szko\u0142y W Chrz\u0105stowie Oraz D\u00f3br Wsi Chrzastowo, \u0141\u0119\u017cek I Okolic",
                "operator:type": "cooperative",
                "amenity": "school"
            }
        },
        {
            "id": 90179,
            "type": "Feature",
            "geometry": {
                "type": "Point",
                "coordinates": [
                    17.10395,
                    52.06735
                ]
            },
            "properties": {
                "ref:rspo": 90179,
                "official_name": "Niepubliczne Przedszkole w Chrz\u0105stowie",
                "name": "Niepubliczne Przedszkole w Chrz\u0105stowie",
                "addr:country": "PL",
                "addr:postcode": "63-130",
                "addr:place": "Chrz\u0105stowo",
                "addr:housenumber": "21",
                "addr:teryt:simc": 587152,
                "contact:phone": "+48 612822494",
                "contact:email": "chrzastowo1@poczta.onet.pl",
                "ref:regon": "302278753",
                "ref:vatin": "PL7851758947",
                "operator": "Stowarzyszenie Na Rzecz Szko\u0142y W Chrz\u0105stowie Oraz D\u00f3br Wsi Chrzastowo, \u0141\u0119\u017cek I Okolic",
                "operator:type": "cooperative",
                "amenity": "kindergarten"
            }
        },
        {
            "id": 86187,
            "type": "Feature",
            "geometry": {
                "type": "Point",
                "coordinates": [
                    17.061115264893,
                    52.068592071533
                ]
            },
            "properties": {
                "isced:level": "1;2",
                "ref:rspo": 86187,
                "official_name": "Szko\u0142a Podstawowa im. Powsta\u0144c\u00f3w Wielkopolskich",
                "name": "Szko\u0142a Podstawowa",
                "addr:country": "PL",
                "addr:postcode": "63-130",
                "addr:place": "Chwa\u0142kowo Ko\u015bcielne",
                "addr:housenumber": "54",
                "addr:teryt:simc": 587181,
                "contact:phone": "+48 612822696",
                "contact:email": "spchwalkowo@interia.pl",
                "contact:website": "http:\/\/spchwalkowo.szkolnastrona.pl",
                "ref:regon": "001226500",
                "ref:vatin": "PL7851625123",
                "operator": "Gmina Ksi\u0105\u017c Wielkopolski",
                "operator:type": "government",
                "amenity": "school"
            }
        },
        {
            "id": 114827,
            "type": "Feature",
            "geometry": {
                "type": "Point",
                "coordinates": [
                    17.061115264893,
                    52.068562071532995
                ]
            },
            "properties": {
                "isced:level": "1;2",
                "ref:rspo": 114827,
                "official_name": "Szko\u0142a Podstawowa im. Ksi\u0119dza Arcybiskupa Antoniego Baraniaka w Mchach",
                "name": "Szko\u0142a Podstawowa",
                "addr:country": "PL",
                "addr:postcode": "63-130",
                "addr:place": "Mchy",
                "addr:housenumber": "39",
                "addr:teryt:simc": 587360,
                "contact:phone": "+48 612819498",
                "contact:email": "zsmchy@wp.pl",
                "contact:website": "http:\/\/sp.mchy.szkolnastrona.pl",
                "ref:regon": "001226485",
                "ref:vatin": "PL7851754895",
                "operator": "Gmina Ksi\u0105\u017c Wielkopolski",
                "operator:type": "government",
                "amenity": "school"
            }
        }
    ]
}