{
    "type": "FeatureCollection",
    "features": [
        {
            "id": 89039,
            "type": "Feature",
            "geometry": {
                "type": "Point",
                "coordinates": [
                    16.9312,
                    52.11293
                ]
            },
            "properties": {
                "ref:rspo": 89039,
                "official_name": "Przedszkole w Manieczkach",
                "name": "Przedszkole w Manieczkach",
                "addr:postcode": "63-112",
                "addr:city": "Manieczki",
                "addr:street": "Dzia\u0142kowa",
                "addr:housenumber": "2",
                "addr:teryt:simc": 580871,
                "addr:teryt:sym_ul": 4572,
                "phone": "+48 612820775",
                "email": "przedszkole@brodnica.net.pl",
                "ref:regon": "630089104",
                "ref:vatin": "PL7851294471",
                "operator": "Gmina Brodnica",
                "operator:type": "government",
                "amenity": "kindergarten",
                "note": "Parent RSPO: 277356"
            }
        },
        {
            "id": 277356,
            "type": "Feature",
            "geometry": {
                "type": "Point",
                "coordinates": [
                    16.92794,
                    52.11341
                ]
            },
            "properties": {
                "ref:rspo": 277356,
                "official_name": "Zesp\u00f3\u0142 Szkolno-Przedszkolny w Manieczkach",
                "name": "Zesp\u00f3\u0142 Szkolno-Przedszkolny w Manieczkach",
                "addr:postcode": "63-112",
                "addr:city": "Manieczki",
                "addr:street": "Szkolna",
                "addr:housenumber": "6",
                "addr:teryt:simc": 580871,
                "addr:teryt:sym_ul": 21970,
                "phone": "+48 612820985",
                "email": "sekretariat@spmanieczki.pl",
                "ref:regon": "388691236",
                "ref:vatin": "PL7851811512",
                "operator": "Gmina Brodnica",
                "operator:type": "government",
                "landuse": "education",
                "fixme": "amenity=school, amenity=college albo landuse=education w zale\u017cno\u015bci od tego, jakie plac\u00f3wki wchodz\u0105 w sk\u0142ad zespo\u0142u. Sprawd\u017a, kiedy stosowa\u0107 amenity=* a kiedy landuse=education.",
                "note": "Children RSPO: 89037;89039"
            }
        },
        {
            "id": 89037,
            "type": "Feature",
            "geometry": {
                "type": "Point",
                "coordinates": [
                    16.92794,
                    52.11338
                ]
            },
            "properties": {
                "isced:level": "1;2",
                "ref:rspo": 89037,
                "official_name": "Szko\u0142a Podstawowa im. Gen. J. Wybickiego w Manieczkach",
                "name": "Szko\u0142a Podstawowa",
                "addr:postcode": "63-112",
                "addr:city": "Manieczki",
                "addr:street": "Szkolna",
                "addr:housenumber": "6",
                "addr:teryt:simc": 580871,
                "addr:teryt:sym_ul": 21970,
                "phone": "+48 612820985",
                "email": "sekretariat@spmanieczki.pl",
                "website": "http:\/\/www.spmanieczki.pl",
                "ref:regon": "000777444",
                "ref:vatin": "PL7851293649",
                "operator": "Gmina Brodnica",
                "operator:type": "government",
                "amenity": "school",
                "note": "Parent RSPO: 277356"
            }
        },
        {
            "id": 274984,
            "type": "Feature",
            "geometry": {
                "type": "Point",
                "coordinates": [
                    16.8903,
                    52.14445
                ]
            },
            "properties": {
                "ref:rspo": 274984,
                "official_name": "Zesp\u00f3\u0142 Szkolno-Przedszkolny w Brodnicy",
                "name": "Zesp\u00f3\u0142 Szkolno-Przedszkolny w Brodnicy",
                "addr:postcode": "63-112",
                "addr:city": "Brodnica",
                "addr:street": "G\u0142\u00f3wna",
                "addr:housenumber": "61",
                "addr:teryt:simc": 580718,
                "addr:teryt:sym_ul": 5635,
                "phone": "+48 612823596",
                "email": "szkola-brodnica@pnet.pl",
                "ref:regon": "386464921",
                "ref:vatin": "PL7851809923",
                "operator": "Gmina Brodnica",
                "operator:type": "government",
                "landuse": "education",
                "fixme": "amenity=school, amenity=college albo landuse=education w zale\u017cno\u015bci od tego, jakie plac\u00f3wki wchodz\u0105 w sk\u0142ad zespo\u0142u. Sprawd\u017a, kiedy stosowa\u0107 amenity=* a kiedy landuse=education.",
                "note": "Children RSPO: 89038;275142"
            }
        },
        {
            "id": 89038,
            "type": "Feature",
            "geometry": {
                "type": "Point",
                "coordinates": [
                    16.8903,
                    52.14442
                ]
            },
            "properties": {
                "isced:level": "1;2",
                "ref:rspo": 89038,
                "official_name": "Szko\u0142a Podstawowa im. Hymnu Narodowego w Brodnicy",
                "name": "Szko\u0142a Podstawowa",
                "addr:postcode": "63-112",
                "addr:city": "Brodnica",
                "addr:street": "G\u0142\u00f3wna",
                "addr:housenumber": "61",
                "addr:teryt:simc": 580718,
                "addr:teryt:sym_ul": 5635,
                "phone": "+48 612823596",
                "email": "szkola-brodnica@pnet.pl",
                "website": "http:\/\/spbrodnica.pl",
                "ref:regon": "001225250",
                "ref:vatin": "PL7851419932",
                "operator": "Gmina Brodnica",
                "operator:type": "government",
                "amenity": "school",
                "note": "Parent RSPO: 274984"
            }
        },
        {
            "id": 89066,
            "type": "Feature",
            "geometry": {
                "type": "Point",
                "coordinates": [
                    16.81258,
                    52.1671
                ]
            },
            "properties": {
                "isced:level": "1;2",
                "ref:rspo": 89066,
                "official_name": "Szko\u0142a Podstawowa im. Gen. Dezyderego Ch\u0142apowskiego w I\u0142\u00f3wcu",
                "name": "Szko\u0142a Podstawowa",
                "addr:postcode": "63-112",
                "addr:place": "I\u0142\u00f3wiec",
                "addr:housenumber": "16",
                "addr:teryt:simc": 580820,
                "phone": "+48 612839817",
                "email": "dyrektor@spilowiec.pl",
                "website": "http:\/\/www.spilowiec.pl",
                "ref:regon": "631574675",
                "ref:vatin": "PL7851293023",
                "operator": "Gmina Brodnica",
                "operator:type": "government",
                "amenity": "school"
            }
        },
        {
            "id": 275474,
            "type": "Feature",
            "geometry": {
                "type": "Point",
                "coordinates": [
                    16.84275,
                    52.17431
                ]
            },
            "properties": {
                "ref:rspo": 275474,
                "official_name": "Punkt Przedszkolny w Grzybnie",
                "name": "Punkt Przedszkolny w Grzybnie",
                "addr:postcode": "63-112",
                "addr:place": "Grzybno",
                "addr:housenumber": "8",
                "addr:teryt:simc": 580813,
                "phone": "+48 612839817",
                "ref:regon": "386922312",
                "operator": "Gmina Brodnica",
                "operator:type": "government",
                "amenity": "kindergarten"
            }
        },
        {
            "id": 43808,
            "type": "Feature",
            "geometry": {
                "type": "Point",
                "coordinates": [
                    16.84627,
                    52.1749
                ]
            },
            "properties": {
                "ref:rspo": 43808,
                "official_name": "Zesp\u00f3\u0142 Szk\u00f3\u0142 Rolniczych w Grzybnie",
                "name": "Zesp\u00f3\u0142 Szk\u00f3\u0142 Rolniczych w Grzybnie",
                "addr:postcode": "63-112",
                "addr:place": "Grzybno",
                "addr:housenumber": "48",
                "addr:teryt:simc": 580813,
                "phone": "+48 612823533",
                "email": "sekretariat@zsr-grzybno.pl",
                "website": "http:\/\/www.zsr-grzybno.pl",
                "ref:regon": "000099932",
                "ref:vatin": "PL7851293483",
                "operator": "Powiat \u015aremski",
                "operator:type": "government",
                "landuse": "education",
                "fixme": "amenity=school, amenity=college albo landuse=education w zale\u017cno\u015bci od tego, jakie plac\u00f3wki wchodz\u0105 w sk\u0142ad zespo\u0142u. Sprawd\u017a, kiedy stosowa\u0107 amenity=* a kiedy landuse=education.",
                "note": "Children RSPO: 75705;75760;75967;75970;75994"
            }
        },
        {
            "id": 75705,
            "type": "Feature",
            "geometry": {
                "type": "Point",
                "coordinates": [
                    16.84627,
                    52.17487
                ]
            },
            "properties": {
                "isced:level": "3",
                "ref:rspo": 75705,
                "official_name": "Zesp\u00f3\u0142 Szk\u00f3\u0142 Rolniczych w Grzybnie Technikum w Grzybnie",
                "name": "Zesp\u00f3\u0142 Szk\u00f3\u0142 Rolniczych w Grzybnie Technikum w Grzybnie",
                "addr:postcode": "63-112",
                "addr:place": "Grzybno",
                "addr:housenumber": "48",
                "addr:teryt:simc": 580813,
                "phone": "+48 612823533",
                "email": "sekretariat@zsr-grzybno.pl",
                "website": "http:\/\/www.zsr-grzybno.pl",
                "ref:regon": "300915115",
                "operator": "Powiat \u015aremski",
                "operator:type": "government",
                "amenity": "school",
                "note": "Parent RSPO: 43808"
            }
        },
        {
            "id": 75760,
            "type": "Feature",
            "geometry": {
                "type": "Point",
                "coordinates": [
                    16.84627,
                    52.17484
                ]
            },
            "properties": {
                "isced:level": "3",
                "ref:rspo": 75760,
                "official_name": "Zesp\u00f3\u0142 Szk\u00f3\u0142 Rolniczych w Grzybnie Bran\u017cowa Szko\u0142a I Stopnia w Grzybnie",
                "name": "Zesp\u00f3\u0142 Szk\u00f3\u0142 Rolniczych w Grzybnie Bran\u017cowa Szko\u0142a I Stopnia w Grzybnie",
                "addr:postcode": "63-112",
                "addr:place": "Grzybno",
                "addr:housenumber": "48",
                "addr:teryt:simc": 580813,
                "phone": "+48 612823533",
                "email": "sekretariat@zsr-grzybno.pl",
                "website": "http:\/\/www.zsr-grzybno.pl",
                "ref:regon": "302262456",
                "operator": "Powiat \u015aremski",
                "operator:type": "government",
                "amenity": "school",
                "note": "Parent RSPO: 43808"
            }
        },
        {
            "id": 75967,
            "type": "Feature",
            "geometry": {
                "type": "Point",
                "coordinates": [
                    16.84627,
                    52.17481
                ]
            },
            "properties": {
                "isced:level": "4",
                "ref:rspo": 75967,
                "official_name": "Zesp\u00f3\u0142 Szk\u00f3\u0142 Rolniczych w Grzybnie Szko\u0142a Policealna w Grzybnie",
                "name": "Zesp\u00f3\u0142 Szk\u00f3\u0142 Rolniczych w Grzybnie Szko\u0142a Policealna w Grzybnie",
                "addr:postcode": "63-112",
                "addr:place": "Grzybno",
                "addr:housenumber": "48",
                "addr:teryt:simc": 580813,
                "phone": "+48 612823533",
                "email": "sekretariat@zsr-grzybno.pl",
                "website": "http:\/\/www.zsr-grzybno.pl",
                "ref:regon": "411528473",
                "operator": "Powiat \u015aremski",
                "operator:type": "government",
                "amenity": "college",
                "note": "Parent RSPO: 43808"
            }
        },
        {
            "id": 75970,
            "type": "Feature",
            "geometry": {
                "type": "Point",
                "coordinates": [
                    16.84627,
                    52.17478
                ]
            },
            "properties": {
                "isced:level": "3",
                "ref:rspo": 75970,
                "official_name": "Zesp\u00f3\u0142 Szk\u00f3\u0142 Rolniczych w Grzybnie Liceum Og\u00f3lnokszta\u0142c\u0105ce dla Doros\u0142ych w Grzybnie",
                "name": "Zesp\u00f3\u0142 Szk\u00f3\u0142 Rolniczych w Grzybnie Liceum Og\u00f3lnokszta\u0142c\u0105ce dla Doros\u0142ych w Grzybnie",
                "addr:postcode": "63-112",
                "addr:place": "Grzybno",
                "addr:housenumber": "48",
                "addr:teryt:simc": 580813,
                "phone": "+48 612823533",
                "email": "sekretariat@zsr-grzybno.pl",
                "website": "http:\/\/www.zsr-grzybno.pl",
                "ref:regon": "302262309",
                "operator": "Powiat \u015aremski",
                "operator:type": "government",
                "amenity": "school",
                "note": "Parent RSPO: 43808"
            }
        },
        {
            "id": 75994,
            "type": "Feature",
            "geometry": {
                "type": "Point",
                "coordinates": [
                    16.84627,
                    52.17475
                ]
            },
            "properties": {
                "ref:rspo": 75994,
                "official_name": "Zesp\u00f3\u0142 Szk\u00f3\u0142 Rolniczych w Grzybnie Centrum Kszta\u0142cenia Ustawicznego w Grzybnie",
                "name": "Zesp\u00f3\u0142 Szk\u00f3\u0142 Rolniczych w Grzybnie Centrum Kszta\u0142cenia Ustawicznego w Grzybnie",
                "addr:postcode": "63-112",
                "addr:place": "Grzybno",
                "addr:housenumber": "48",
                "addr:teryt:simc": 580813,
                "phone": "+48 612823533",
                "email": "sekretariat@zsr-grzybno.pl",
                "website": "http:\/\/www.zsr-grzybno.pl",
                "ref:regon": "300915180",
                "operator": "Powiat \u015aremski",
                "operator:type": "government",
                "fixme": "w zale\u017cno\u015bci od przedmiotu dzia\u0142alno\u015bci (np. amenity=training + training=*, amenity=dancing_school, amenity=language_school, amenity=music_school)",
                "note": "Parent RSPO: 43808"
            }
        },
        {
            "id": 275142,
            "type": "Feature",
            "geometry": {
                "type": "Point",
                "coordinates": [
                    16.89073,
                    52.17669
                ]
            },
            "properties": {
                "ref:rspo": 275142,
                "official_name": "Przedszkole w \u017babnie",
                "name": "Przedszkole w \u017babnie",
                "addr:postcode": "63-112",
                "addr:place": "\u017babno",
                "addr:housenumber": "6",
                "addr:teryt:simc": 580948,
                "phone": "+48 612823596",
                "ref:regon": "386614007",
                "operator": "Gmina Brodnica",
                "operator:type": "government",
                "amenity": "kindergarten",
                "note": "Parent RSPO: 274984"
            }
        }
    ]
}