{"type":"FeatureCollection","features":[{"id":52678,"type":"Feature","geometry":{"type":"Point","coordinates":[15.41537,51.03084]},"properties":{"ref:rspo":52678,"official_name":"Gryfowski Prywatny Zesp\u00f3\u0142 Szk\u00f3\u0142 Zawodowych w Gryfowie \u015aL\u0105skim","name":"Gryfowski Prywatny Zesp\u00f3\u0142 Szk\u00f3\u0142 Zawodowych w Gryfowie \u015aL\u0105skim","addr:country":"PL","addr:postcode":"59-620","addr:city":"Gryf\u00f3w \u015al\u0105ski","addr:street":"ul. Lipowa","addr:housenumber":"2","addr:teryt:simc":11139,"addr:teryt:sym_ul":936003,"contact:phone":"+48 601789255","contact:email":"jan.okulowski@wp.pl","contact:website":"http:\/\/www.gpzsz.net","ref:regon":"021993861","ref:vatin":"PL6161117644","operator":"Jan Okulowski","operator:type":"private","landuse":"education","fixme":"amenity=school, amenity=college albo landuse=education w zale\u017cno\u015bci od tego, jakie plac\u00f3wki wchodz\u0105 w sk\u0142ad zespo\u0142u. Sprawd\u017a, kiedy stosowa\u0107 amenity=* a kiedy landuse=education."}},{"id":52673,"type":"Feature","geometry":{"type":"Point","coordinates":[15.41671,51.03149]},"properties":{"ref:rspo":52673,"official_name":"Zesp\u00f3\u0142 Szk\u00f3\u0142 Ogolnokszta\u0142c\u0105cych I Zawodowych","name":"Zesp\u00f3\u0142 Szk\u00f3\u0142 Ogolnokszta\u0142c\u0105cych I Zawodowych","addr:country":"PL","addr:postcode":"59-620","addr:city":"Gryf\u00f3w \u015al\u0105ski","addr:street":"ul. Kolejowa","addr:housenumber":"16","addr:teryt:simc":8828,"addr:teryt:sym_ul":936003,"contact:phone":"+48 757813459","contact:email":"zsoiz.jp2@wp.pl","contact:website":"http:\/\/www.zsoiz.gryfow.pl","ref:regon":"000182290","ref:vatin":"PL6161223694","operator":"Powiat Lw\u00f3wecki","operator:type":"government","landuse":"education","fixme":"amenity=school, amenity=college albo landuse=education w zale\u017cno\u015bci od tego, jakie plac\u00f3wki wchodz\u0105 w sk\u0142ad zespo\u0142u. Sprawd\u017a, kiedy stosowa\u0107 amenity=* a kiedy landuse=education.","note":"Children RSPO: 84848;84849;84850;84851"}},{"id":84848,"type":"Feature","geometry":{"type":"Point","coordinates":[15.41671,51.031459999999996]},"properties":{"isced:level":"3","ref:rspo":84848,"official_name":"Liceum Og\u00f3lnokszta\u0142c\u0105ce","name":"Liceum Og\u00f3lnokszta\u0142c\u0105ce","addr:country":"PL","addr:postcode":"59-620","addr:city":"Gryf\u00f3w \u015al\u0105ski","addr:street":"ul. Kolejowa","addr:housenumber":"16","addr:teryt:simc":8828,"addr:teryt:sym_ul":936003,"contact:phone":"+48 757813459","contact:email":"zsoiz.jp2@wp.pl","contact:website":"http:\/\/zsoiz.gryfow.pl","ref:regon":"231185704","operator":"Powiat Lw\u00f3wecki","operator:type":"government","amenity":"school","note":"Parent RSPO: 52673"}},{"id":84849,"type":"Feature","geometry":{"type":"Point","coordinates":[15.41671,51.03143]},"properties":{"isced:level":"3","ref:rspo":84849,"official_name":"Technikum","name":"Technikum","addr:country":"PL","addr:postcode":"59-620","addr:city":"Gryf\u00f3w \u015al\u0105ski","addr:street":"ul. Kolejowa","addr:housenumber":"16","addr:teryt:simc":8828,"addr:teryt:sym_ul":936003,"contact:phone":"+48 757813459","contact:email":"zsoiz.jp2@wp.pl","contact:website":"http:\/\/zsoiz.gryfow.pl","ref:regon":"231185785","operator":"Powiat Lw\u00f3wecki","operator:type":"government","amenity":"school","note":"Parent RSPO: 52673"}},{"id":84850,"type":"Feature","geometry":{"type":"Point","coordinates":[15.41671,51.0314]},"properties":{"isced:level":"3","ref:rspo":84850,"official_name":"Bran\u017cowa Szko\u0142a I Stopnia","name":"Bran\u017cowa Szko\u0142a I Stopnia","addr:country":"PL","addr:postcode":"59-620","addr:city":"Gryf\u00f3w \u015al\u0105ski","addr:street":"ul. Kolejowa","addr:housenumber":"16","addr:teryt:simc":8828,"addr:teryt:sym_ul":936003,"contact:phone":"+48 757813459","contact:email":"zsoiz.jp2@wp.pl","contact:website":"http:\/\/zsoiz.gryfow.pl","ref:regon":"231185733","operator":"Powiat Lw\u00f3wecki","operator:type":"government","amenity":"school","note":"Parent RSPO: 52673"}},{"id":84851,"type":"Feature","geometry":{"type":"Point","coordinates":[15.41671,51.031369999999995]},"properties":{"isced:level":"3","ref:rspo":84851,"official_name":"Liceum Og\u00f3lnokszta\u0142c\u0105ce dla Doros\u0142ych","name":"Liceum Og\u00f3lnokszta\u0142c\u0105ce dla Doros\u0142ych","addr:country":"PL","addr:postcode":"59-620","addr:city":"Gryf\u00f3w \u015al\u0105ski","addr:street":"ul. Kolejowa","addr:housenumber":"16","addr:teryt:simc":8828,"addr:teryt:sym_ul":936003,"contact:phone":"+48 757813459","contact:email":"zsoiz.jp2@wp.pl","contact:website":"http:\/\/zsoiz.gryfow.pl","ref:regon":"022008591","operator":"Powiat Lw\u00f3wecki","operator:type":"government","amenity":"school","note":"Parent RSPO: 52673"}},{"id":52679,"type":"Feature","geometry":{"type":"Point","coordinates":[15.41671,51.03134]},"properties":{"ref:rspo":52679,"official_name":"Poradnia Psychologiczno Pedagogiczna w Gryfowie \u015aL\u0105skim","name":"Poradnia Psychologiczno Pedagogiczna w Gryfowie \u015aL\u0105skim","addr:country":"PL","addr:postcode":"59-620","addr:city":"Gryf\u00f3w \u015al\u0105ski","addr:street":"ul. Kolejowa","addr:housenumber":"16","addr:teryt:simc":8828,"addr:teryt:sym_ul":936003,"contact:phone":"+48 757813268","contact:email":"pppgryf@interia.pl","ref:regon":"230918010","ref:vatin":"PL6161172123","operator":"Powiat Lw\u00f3wecki","operator:type":"government","healthcare":"councelling","counselling_type":"education","fixme":"w zale\u017cno\u015bci od przedmiotu dzia\u0142alno\u015bci (np. healthcare=councelling + counselling_type=education albo healthcare=psychotherapist)","note":"Parent RSPO: 262468"}},{"id":278249,"type":"Feature","geometry":{"type":"Point","coordinates":[15.4193,51.03169]},"properties":{"ref:rspo":278249,"official_name":"Niepubliczne Przedszkole \"Weso\u0142e Gryfiki\"","name":"Niepubliczne Przedszkole \"Weso\u0142e Gryfiki\"","addr:country":"PL","addr:postcode":"59-620","addr:city":"Gryf\u00f3w \u015al\u0105ski","addr:street":"ul. Kolejowa","addr:housenumber":"41","addr:teryt:simc":8828,"addr:teryt:sym_ul":936003,"contact:phone":"+48 788936206","contact:email":"wesolegryfiki@interia.pl","ref:regon":"389894409","ref:vatin":"PL6161543878","operator":"Hm Reality \u015awiebodzice Sp\u00f3\u0142ka Z Ograniczon\u0105 Odpowiedzialno\u015bci\u0105","operator:type":"private","amenity":"kindergarten"}},{"id":89631,"type":"Feature","geometry":{"type":"Point","coordinates":[15.42628,51.03205]},"properties":{"ref:rspo":89631,"official_name":"Przedszkole Publiczne","name":"Przedszkole Publiczne","addr:country":"PL","addr:postcode":"59-620","addr:city":"Gryf\u00f3w \u015al\u0105ski","addr:street":"ul. M\u0142y\u0144ska","addr:housenumber":"8","addr:teryt:simc":13132,"addr:teryt:sym_ul":936003,"contact:phone":"+48 757813783","contact:email":"przedszkole.gryfow@interia.pl","ref:regon":"022015154","ref:vatin":"PL6161276816","operator":"Gmina Gryf\u00f3w \u015al\u0105ski","operator:type":"government","amenity":"kindergarten"}},{"id":268168,"type":"Feature","geometry":{"type":"Point","coordinates":[15.41625,51.0321]},"properties":{"isced:level":"1;2","ref:rspo":268168,"official_name":"Szko\u0142a Podstawowa Nr 2 im. Kombatant\u00f3w Ziemi Gryfowskiej w Gryfowie \u015aL\u0105skim","name":"Szko\u0142a Podstawowa Nr 2","addr:country":"PL","addr:postcode":"59-620","addr:city":"Gryf\u00f3w \u015al\u0105ski","addr:street":"ul. Uczniowska","addr:housenumber":"11","addr:teryt:simc":23299,"addr:teryt:sym_ul":936003,"contact:phone":"+48 757813269","contact:email":"sp2gryfow@gmail.com","ref:regon":"381000559","ref:vatin":"PL6161565621","operator":"Gmina Gryf\u00f3w \u015al\u0105ski","operator:type":"government","amenity":"school"}},{"id":89430,"type":"Feature","geometry":{"type":"Point","coordinates":[15.41218,51.03433]},"properties":{"isced:level":"1;2","ref:rspo":89430,"official_name":"Szko\u0142a Podstawowa Nr 1 im. Bohater\u00f3w \u0141u\u017cyckiej Brygady Wop","name":"Szko\u0142a Podstawowa Nr 1","addr:country":"PL","addr:postcode":"59-620","addr:city":"Gryf\u00f3w \u015al\u0105ski","addr:street":"ul. Uczniowska","addr:housenumber":"17","addr:teryt:simc":23299,"addr:teryt:sym_ul":936003,"contact:phone":"+48 757813486","contact:email":"sp_gryfow@op.pl","contact:website":"http:\/\/spgryfow.internetdsl.pl","ref:regon":"001179432","ref:vatin":"PL6161223441","operator":"Gmina Gryf\u00f3w \u015al\u0105ski","operator:type":"government","amenity":"school"}},{"id":3580,"type":"Feature","geometry":{"type":"Point","coordinates":[15.435298,51.0800849]},"properties":{"isced:level":"1;2","ref:rspo":3580,"official_name":"Publiczna Szko\u0142a Podstawowa im. B\u0142ogos\u0142awionego Ksi\u0119dza Alojsa Andrickiego w Rz\u0105sinach","name":"Publiczna Szko\u0142a Podstawowa","addr:country":"PL","addr:postcode":"59-620","addr:place":"Rz\u0105siny","addr:housenumber":"95","addr:teryt:sym_ul":189635,"contact:phone":"+48 757844188","contact:email":"szkola@rzasiny.pl","contact:website":"http:\/\/www.szkola.rzasiny.pl","ref:regon":"021941670","operator":"Stowarzyszenie Rozwoju Wsi Rz\u0105siny","operator:type":"ngo","amenity":"school"}}]}