{
    "type": "FeatureCollection",
    "features": [
        {
            "id": 52093,
            "type": "Feature",
            "geometry": {
                "type": "Point",
                "coordinates": [
                    15.5330409,
                    51.077458
                ]
            },
            "properties": {
                "isced:level": "1;2",
                "ref:rspo": 52093,
                "official_name": "Szko\u0142a Podstawowa w P\u0142\u00f3czkach G\u00f3rnych",
                "name": "Szko\u0142a Podstawowa w P\u0142\u00f3czkach G\u00f3rnych",
                "addr:postcode": "59-600",
                "addr:place": "P\u0142\u00f3czki G\u00f3rne",
                "addr:housenumber": "58",
                "addr:city:simc": 190905,
                "phone": "+48 757846056",
                "email": "spploczki@go2.pl",
                "website": "https:\/\/spploczki.szkolnastrona.pl\/",
                "ref:regon": "000711149",
                "ref:vatin": "PL6161432280",
                "operator": "Gmina I Miasto Lw\u00f3wek \u015al\u0105ski",
                "operator:type": "government",
                "amenity": "school"
            }
        },
        {
            "id": 77968,
            "type": "Feature",
            "geometry": {
                "type": "Point",
                "coordinates": [
                    15.58455,
                    51.10802
                ]
            },
            "properties": {
                "ref:rspo": 77968,
                "official_name": "Zesp\u00f3\u0142 Szk\u00f3\u0142 Og\u00f3lnokszta\u0142c\u0105cych I Zawodowych w Lw\u00f3wku \u015aL\u0105skim",
                "name": "Zesp\u00f3\u0142 Szk\u00f3\u0142 Og\u00f3lnokszta\u0142c\u0105cych I Zawodowych w Lw\u00f3wku \u015aL\u0105skim",
                "addr:postcode": "59-600",
                "addr:city": "Lw\u00f3wek \u015al\u0105ski",
                "addr:street": "Henryka Brodatego",
                "addr:housenumber": "1",
                "addr:city:simc": 936227,
                "addr:street:sym_ul": 6600,
                "phone": "+48 757824349",
                "email": "zslwowek@gmail.com",
                "website": "https:\/\/zsoizlwowek.pl\/",
                "ref:regon": "231182054",
                "ref:vatin": "PL6161474611",
                "operator": "Powiat Lw\u00f3wecki",
                "operator:type": "government",
                "landuse": "education",
                "fixme": "amenity=school, amenity=college albo landuse=education w zale\u017cno\u015bci od tego, jakie plac\u00f3wki wchodz\u0105 w sk\u0142ad zespo\u0142u. Sprawd\u017a, kiedy stosowa\u0107 amenity=* a kiedy landuse=education.",
                "note": "Children RSPO: 86346;86348;86349;86351"
            }
        },
        {
            "id": 262468,
            "type": "Feature",
            "geometry": {
                "type": "Point",
                "coordinates": [
                    15.58455,
                    51.10799
                ]
            },
            "properties": {
                "ref:rspo": 262468,
                "official_name": "Powiatowy O\u015brodek Rozwoju Edukacji",
                "name": "Powiatowy O\u015brodek Rozwoju Edukacji",
                "addr:postcode": "59-600",
                "addr:city": "Lw\u00f3wek \u015al\u0105ski",
                "addr:street": "Henryka Brodatego",
                "addr:housenumber": "1",
                "addr:city:simc": 936227,
                "addr:street:sym_ul": 6600,
                "phone": "+48 757823666",
                "email": "pore@powiatlwowecki.pl",
                "ref:regon": "368022479",
                "operator": "Powiat Lw\u00f3wecki",
                "operator:type": "government",
                "landuse": "education",
                "fixme": "amenity=school, amenity=college albo landuse=education w zale\u017cno\u015bci od tego, jakie plac\u00f3wki wchodz\u0105 w sk\u0142ad zespo\u0142u. Sprawd\u017a, kiedy stosowa\u0107 amenity=* a kiedy landuse=education.",
                "note": "Children RSPO: 52674;52679;61565"
            }
        },
        {
            "id": 86346,
            "type": "Feature",
            "geometry": {
                "type": "Point",
                "coordinates": [
                    15.58455,
                    51.107960000000006
                ]
            },
            "properties": {
                "isced:level": "3",
                "ref:rspo": 86346,
                "official_name": "Liceum Og\u00f3lnokszta\u0142c\u0105ce im. Henryka Brodatego",
                "name": "Liceum Og\u00f3lnokszta\u0142c\u0105ce",
                "addr:postcode": "59-600",
                "addr:city": "Lw\u00f3wek \u015al\u0105ski",
                "addr:street": "Henryka Brodatego",
                "addr:housenumber": "1",
                "addr:city:simc": 936227,
                "addr:street:sym_ul": 6600,
                "phone": "+48 757824349",
                "email": "zslwowek@gmail.com",
                "website": "https:\/\/zsoizlwowek.pl\/",
                "ref:regon": "000708621",
                "operator": "Powiat Lw\u00f3wecki",
                "operator:type": "government",
                "amenity": "school",
                "note": "Parent RSPO: 77968"
            }
        },
        {
            "id": 86348,
            "type": "Feature",
            "geometry": {
                "type": "Point",
                "coordinates": [
                    15.58455,
                    51.10793
                ]
            },
            "properties": {
                "isced:level": "3",
                "ref:rspo": 86348,
                "official_name": "Technikum",
                "name": "Technikum",
                "addr:postcode": "59-600",
                "addr:city": "Lw\u00f3wek \u015al\u0105ski",
                "addr:street": "Henryka Brodatego",
                "addr:housenumber": "1",
                "addr:city:simc": 936227,
                "addr:street:sym_ul": 6600,
                "phone": "+48 757824349",
                "email": "zslwowek@gmail.com",
                "website": "https:\/\/zsoizlwowek.pl\/",
                "ref:regon": "020356201",
                "operator": "Powiat Lw\u00f3wecki",
                "operator:type": "government",
                "amenity": "school",
                "note": "Parent RSPO: 77968"
            }
        },
        {
            "id": 86349,
            "type": "Feature",
            "geometry": {
                "type": "Point",
                "coordinates": [
                    15.58455,
                    51.1079
                ]
            },
            "properties": {
                "isced:level": "4",
                "ref:rspo": 86349,
                "official_name": "Szko\u0142a Policealna",
                "name": "Szko\u0142a Policealna",
                "addr:postcode": "59-600",
                "addr:city": "Lw\u00f3wek \u015al\u0105ski",
                "addr:street": "Henryka Brodatego",
                "addr:housenumber": "1",
                "addr:city:simc": 936227,
                "addr:street:sym_ul": 6600,
                "phone": "+48 757824349",
                "email": "zslwowek@gmail.com",
                "website": "https:\/\/zsoizlwowek.pl\/",
                "ref:regon": "020051750",
                "operator": "Powiat Lw\u00f3wecki",
                "operator:type": "government",
                "amenity": "college",
                "note": "Parent RSPO: 77968"
            }
        },
        {
            "id": 86351,
            "type": "Feature",
            "geometry": {
                "type": "Point",
                "coordinates": [
                    15.58455,
                    51.107870000000005
                ]
            },
            "properties": {
                "isced:level": "3",
                "ref:rspo": 86351,
                "official_name": "Bran\u017cowa Szko\u0142a I Stopnia",
                "name": "Bran\u017cowa Szko\u0142a I Stopnia",
                "addr:postcode": "59-600",
                "addr:city": "Lw\u00f3wek \u015al\u0105ski",
                "addr:street": "Henryka Brodatego",
                "addr:housenumber": "1",
                "addr:city:simc": 936227,
                "addr:street:sym_ul": 6600,
                "phone": "+48 757824349",
                "email": "zslwowek@gmail.com",
                "website": "https:\/\/zsoizlwowek.pl\/",
                "ref:regon": "022011239",
                "operator": "Powiat Lw\u00f3wecki",
                "operator:type": "government",
                "amenity": "school",
                "note": "Parent RSPO: 77968"
            }
        },
        {
            "id": 52674,
            "type": "Feature",
            "geometry": {
                "type": "Point",
                "coordinates": [
                    15.58455,
                    51.10784
                ]
            },
            "properties": {
                "ref:rspo": 52674,
                "official_name": "Powiatowe Centrum Edukacji",
                "name": "Powiatowe Centrum Edukacji",
                "addr:postcode": "59-600",
                "addr:city": "Lw\u00f3wek \u015al\u0105ski",
                "addr:street": "Henryka Brodatego",
                "addr:housenumber": "1",
                "addr:city:simc": 936227,
                "addr:street:sym_ul": 6600,
                "phone": "+48 757823666",
                "email": "pce@powiatlwowecki.pl",
                "ref:regon": "231065058",
                "ref:vatin": "PL6161449464",
                "operator": "Powiat Lw\u00f3wecki",
                "operator:type": "government",
                "amenity": "training",
                "note": "Parent RSPO: 262468"
            }
        },
        {
            "id": 67853,
            "type": "Feature",
            "geometry": {
                "type": "Point",
                "coordinates": [
                    15.58248,
                    51.10881
                ]
            },
            "properties": {
                "ref:rspo": 67853,
                "official_name": "Publiczne Przedszkole nr 1 w Lw\u00f3wku \u015aL\u0105skim",
                "name": "Publiczne Przedszkole nr 1 w Lw\u00f3wku \u015aL\u0105skim",
                "addr:postcode": "59-600",
                "addr:city": "Lw\u00f3wek \u015al\u0105ski",
                "addr:street": "Aleja Wojska Polskiego",
                "addr:housenumber": "21",
                "addr:city:simc": 936227,
                "addr:street:sym_ul": 24623,
                "phone": "+48 756477724",
                "email": "przedszkole.nr1@poczta.onet.pl",
                "ref:regon": "230922514",
                "ref:vatin": "PL6161430298",
                "operator": "Gmina I Miasto Lw\u00f3wek \u015al\u0105ski",
                "operator:type": "government",
                "amenity": "kindergarten"
            }
        },
        {
            "id": 123327,
            "type": "Feature",
            "geometry": {
                "type": "Point",
                "coordinates": [
                    15.58607,
                    51.10952
                ]
            },
            "properties": {
                "isced:level": "1;2",
                "ref:rspo": 123327,
                "official_name": "Szko\u0142a Podstawowa \"Master's Academy\" w Lw\u00f3wku \u015aL\u0105skim",
                "name": "Szko\u0142a Podstawowa \"Master's Academy\" w Lw\u00f3wku \u015aL\u0105skim",
                "addr:postcode": "59-600",
                "addr:city": "Lw\u00f3wek \u015al\u0105ski",
                "addr:street": "Szkolna",
                "addr:housenumber": "1",
                "addr:city:simc": 936227,
                "addr:street:sym_ul": 21970,
                "phone": "+48 793583464",
                "email": "szkolamistrzow.edu@gmail.com",
                "ref:regon": "022437493",
                "operator": "Kamila Wr\u00f3blewska",
                "operator:type": "private",
                "amenity": "school"
            }
        },
        {
            "id": 131437,
            "type": "Feature",
            "geometry": {
                "type": "Point",
                "coordinates": [
                    15.58737,
                    51.1097899
                ]
            },
            "properties": {
                "ref:rspo": 131437,
                "official_name": "Przedszkole Montessori \"Monte Jedenastka\"",
                "name": "Przedszkole Montessori \"Monte Jedenastka\"",
                "addr:postcode": "59-600",
                "addr:city": "Lw\u00f3wek \u015al\u0105ski",
                "addr:street": "Malinowskiego",
                "addr:housenumber": "11",
                "addr:city:simc": 936227,
                "addr:street:sym_ul": 12069,
                "phone": "+48 502692132",
                "email": "prywatne.gimnazjum@wp.pl",
                "ref:regon": "365185152",
                "operator": "Ma\u0142gorzata Gr\u0119bowicz",
                "operator:type": "private",
                "amenity": "kindergarten"
            }
        },
        {
            "id": 52475,
            "type": "Feature",
            "geometry": {
                "type": "Point",
                "coordinates": [
                    15.57782,
                    51.1118499
                ]
            },
            "properties": {
                "ref:rspo": 52475,
                "official_name": "Publiczne Przedszkole nr 2 w Lw\u00f3wku \u015aL\u0105skim",
                "name": "Publiczne Przedszkole nr 2 w Lw\u00f3wku \u015aL\u0105skim",
                "addr:postcode": "59-600",
                "addr:city": "Lw\u00f3wek \u015al\u0105ski",
                "addr:street": "Partyzant\u00f3w",
                "addr:housenumber": "10",
                "addr:city:simc": 936227,
                "addr:street:sym_ul": 15733,
                "phone": "+48 757824721",
                "email": "ppnr2@poczta.onet.pl",
                "ref:regon": "230922537",
                "ref:vatin": "PL6161430312",
                "operator": "Gmina I Miasto Lw\u00f3wek \u015al\u0105ski",
                "operator:type": "government",
                "amenity": "kindergarten"
            }
        },
        {
            "id": 48924,
            "type": "Feature",
            "geometry": {
                "type": "Point",
                "coordinates": [
                    15.58474,
                    51.11278
                ]
            },
            "properties": {
                "isced:level": "1;2",
                "ref:rspo": 48924,
                "official_name": "Szko\u0142a Podstawowa nr 2 im. Bohater\u00f3w X Sudeckiej Dywizji Piechoty",
                "name": "Szko\u0142a Podstawowa nr 2",
                "addr:postcode": "59-600",
                "addr:city": "Lw\u00f3wek \u015al\u0105ski",
                "addr:street": "Aleja Wojska Polskiego",
                "addr:housenumber": "1A",
                "addr:city:simc": 936227,
                "addr:street:sym_ul": 24623,
                "phone": "+48 757824659",
                "email": "szkola@sp2lwowek.pl",
                "website": "http:\/\/www.sp2lwowek.szkolnastrona.pl",
                "ref:regon": "000708578",
                "ref:vatin": "PL6161278991",
                "operator": "Gmina I Miasto Lw\u00f3wek \u015al\u0105ski",
                "operator:type": "government",
                "amenity": "school"
            }
        },
        {
            "id": 61565,
            "type": "Feature",
            "geometry": {
                "type": "Point",
                "coordinates": [
                    15.5787,
                    51.11315
                ]
            },
            "properties": {
                "ref:rspo": 61565,
                "official_name": "Poradnia Psychologiczno-Pedagogiczna w Lw\u00f3wku \u015aL\u0105skim",
                "name": "Poradnia Psychologiczno-Pedagogiczna w Lw\u00f3wku \u015aL\u0105skim",
                "addr:postcode": "59-600",
                "addr:city": "Lw\u00f3wek \u015al\u0105ski",
                "addr:street": "Jana Paw\u0142a II",
                "addr:housenumber": "19",
                "addr:city:simc": 936227,
                "addr:street:sym_ul": 7123,
                "phone": "+48 757824300",
                "email": "poradniapp.lwoweksl@neostrada.pl",
                "ref:regon": "001031474",
                "ref:vatin": "PL6161411125",
                "operator": "Powiat Lw\u00f3wecki",
                "operator:type": "government",
                "healthcare": "counselling",
                "counselling_type": "education",
                "fixme": "w zale\u017cno\u015bci od przedmiotu dzia\u0142alno\u015bci (np. healthcare=counselling + counselling_type=education albo healthcare=psychotherapist)",
                "note": "Parent RSPO: 262468"
            }
        },
        {
            "id": 133656,
            "type": "Feature",
            "geometry": {
                "type": "Point",
                "coordinates": [
                    15.5747314,
                    51.11346
                ]
            },
            "properties": {
                "isced:level": "1;2",
                "ref:rspo": 133656,
                "official_name": "Szko\u0142a Podstawowa nr 1",
                "name": "Szko\u0142a Podstawowa nr 1",
                "addr:postcode": "59-600",
                "addr:city": "Lw\u00f3wek \u015al\u0105ski",
                "addr:street": "Jana Paw\u0142a II",
                "addr:housenumber": "35",
                "addr:city:simc": 936227,
                "addr:street:sym_ul": 7123,
                "phone": "+48 757824792",
                "email": "szkola@sp1lwowek.pl",
                "website": "http:\/\/sp1lwowek.szkolnastrona.pl",
                "ref:regon": "367517990",
                "operator": "Gmina I Miasto Lw\u00f3wek \u015al\u0105ski",
                "operator:type": "government",
                "amenity": "school"
            }
        },
        {
            "id": 82874,
            "type": "Feature",
            "geometry": {
                "type": "Point",
                "coordinates": [
                    15.61476,
                    51.11627
                ]
            },
            "properties": {
                "ref:rspo": 82874,
                "official_name": "M\u0142odzie\u017cowy O\u015brodek Socjoterapii",
                "name": "M\u0142odzie\u017cowy O\u015brodek Socjoterapii",
                "addr:postcode": "59-600",
                "addr:city": "Lw\u00f3wek \u015al\u0105ski",
                "addr:street": "Pa\u0142acowa",
                "addr:housenumber": "8",
                "addr:city:simc": 936227,
                "addr:street:sym_ul": 15590,
                "phone": "+48 757824525",
                "email": "mos@zpew.powiatlwowecki.pl",
                "ref:regon": "020348006",
                "operator": "Powiat Lw\u00f3wecki",
                "operator:type": "government",
                "fixme": "amenity=social_facility + social_facility=group_home + social_facility:for=juvenile",
                "note": "Children RSPO: 90027;90029Parent RSPO: 52671"
            }
        },
        {
            "id": 90027,
            "type": "Feature",
            "geometry": {
                "type": "Point",
                "coordinates": [
                    15.61476,
                    51.11624
                ]
            },
            "properties": {
                "isced:level": "1;2",
                "ref:rspo": 90027,
                "official_name": "Szko\u0142a Podstawowa Specjalna Przy M\u0142odzie\u017cowym O\u015brodku Socjoterapii w Lw\u00f3wku \u015aL\u0105skim",
                "name": "Szko\u0142a Podstawowa Specjalna Przy M\u0142odzie\u017cowym O\u015brodku Socjoterapii w Lw\u00f3wku \u015aL\u0105skim",
                "addr:postcode": "59-600",
                "addr:city": "Lw\u00f3wek \u015al\u0105ski",
                "addr:street": "Pa\u0142acowa",
                "addr:housenumber": "8",
                "addr:city:simc": 936227,
                "addr:street:sym_ul": 15590,
                "phone": "+48 757824525",
                "email": "soswlwowek@wp.pl",
                "ref:regon": "020347811",
                "operator": "Powiat Lw\u00f3wecki",
                "operator:type": "government",
                "amenity": "school",
                "note": "Parent RSPO: 82874"
            }
        },
        {
            "id": 90029,
            "type": "Feature",
            "geometry": {
                "type": "Point",
                "coordinates": [
                    15.61476,
                    51.11621
                ]
            },
            "properties": {
                "isced:level": "3",
                "ref:rspo": 90029,
                "official_name": "Bran\u017cowa Szko\u0142a I Stopnia Specjalna Przy M\u0142odzie\u017cowym O\u015brodku Spocjoterapii w Lw\u00f3wku \u015aL\u0105skim",
                "name": "Bran\u017cowa Szko\u0142a I Stopnia Specjalna Przy M\u0142odzie\u017cowym O\u015brodku Spocjoterapii w Lw\u00f3wku \u015aL\u0105skim",
                "addr:postcode": "59-600",
                "addr:city": "Lw\u00f3wek \u015al\u0105ski",
                "addr:street": "Pa\u0142acowa",
                "addr:housenumber": "8",
                "addr:city:simc": 936227,
                "addr:street:sym_ul": 15590,
                "phone": "+48 757824525",
                "email": "soswlwowek@wp.pl",
                "ref:regon": "020347834",
                "operator": "Powiat Lw\u00f3wecki",
                "operator:type": "government",
                "amenity": "school",
                "note": "Parent RSPO: 82874"
            }
        },
        {
            "id": 82876,
            "type": "Feature",
            "geometry": {
                "type": "Point",
                "coordinates": [
                    15.61753,
                    51.11697
                ]
            },
            "properties": {
                "ref:rspo": 82876,
                "official_name": "Specjalny O\u015brodek Szkolno-Wychowawczy",
                "name": "Specjalny O\u015brodek Szkolno-Wychowawczy",
                "addr:postcode": "59-600",
                "addr:city": "Lw\u00f3wek \u015al\u0105ski",
                "addr:street": "Parkowa",
                "addr:housenumber": "17",
                "addr:city:simc": 936227,
                "addr:street:sym_ul": 15710,
                "phone": "+48 757824525",
                "email": "sosw@zpew.powiatlwowecki.pl",
                "ref:regon": "000230390",
                "operator": "Powiat Lw\u00f3wecki",
                "operator:type": "government",
                "amenity": "school",
                "note": "Children RSPO: 90031;90033;90034Parent RSPO: 52671"
            }
        },
        {
            "id": 90031,
            "type": "Feature",
            "geometry": {
                "type": "Point",
                "coordinates": [
                    15.61753,
                    51.11694
                ]
            },
            "properties": {
                "isced:level": "1;2",
                "ref:rspo": 90031,
                "official_name": "Szko\u0142a Podstawowa Specjalna Przy Specjalnym O\u015brodku Szkolno-Wychowawczym w Lw\u00f3wku \u015aL\u0105skim",
                "name": "Szko\u0142a Podstawowa Specjalna Przy Specjalnym O\u015brodku Szkolno-Wychowawczym w Lw\u00f3wku \u015aL\u0105skim",
                "addr:postcode": "59-600",
                "addr:city": "Lw\u00f3wek \u015al\u0105ski",
                "addr:street": "Parkowa",
                "addr:housenumber": "17",
                "addr:city:simc": 936227,
                "addr:street:sym_ul": 15710,
                "phone": "+48 757824525",
                "email": "sosw@zpew.powiatlwowecki.pl",
                "ref:regon": "231209037",
                "operator": "Powiat Lw\u00f3wecki",
                "operator:type": "government",
                "amenity": "school",
                "note": "Parent RSPO: 82876"
            }
        },
        {
            "id": 60781,
            "type": "Feature",
            "geometry": {
                "type": "Point",
                "coordinates": [
                    15.61489,
                    51.1175
                ]
            },
            "properties": {
                "isced:level": "1;2",
                "ref:rspo": 60781,
                "official_name": "Szko\u0142a Podstawowa nr 3 im. Szarych Szereg\u00f3w",
                "name": "Szko\u0142a Podstawowa nr 3",
                "addr:postcode": "59-600",
                "addr:city": "Lw\u00f3wek \u015al\u0105ski",
                "addr:street": "Pa\u0142acowa",
                "addr:housenumber": "11",
                "addr:city:simc": 936227,
                "addr:street:sym_ul": 15590,
                "phone": "+48 757824352",
                "email": "sp3@lwowekslaski.pl",
                "ref:regon": "000711110",
                "ref:vatin": "PL6161432245",
                "operator": "Gmina I Miasto Lw\u00f3wek \u015al\u0105ski",
                "operator:type": "government",
                "amenity": "school",
                "note": "Children RSPO: 104653"
            }
        },
        {
            "id": 52671,
            "type": "Feature",
            "geometry": {
                "type": "Point",
                "coordinates": [
                    15.61691,
                    51.11769
                ]
            },
            "properties": {
                "ref:rspo": 52671,
                "official_name": "Zesp\u00f3\u0142 Plac\u00f3wek Edukacyjno - Wychowawczych",
                "name": "Zesp\u00f3\u0142 Plac\u00f3wek Edukacyjno - Wychowawczych",
                "addr:postcode": "59-600",
                "addr:city": "Lw\u00f3wek \u015al\u0105ski",
                "addr:street": "Parkowa",
                "addr:housenumber": "9",
                "addr:city:simc": 936227,
                "addr:street:sym_ul": 15710,
                "phone": "+48 757824525",
                "email": "sekretariat@zpew.powiatlwowecki.pl",
                "website": "http:\/\/www.zpew.edupage.org",
                "ref:regon": "020348012",
                "ref:vatin": "PL6161244012",
                "operator": "Powiat Lw\u00f3wecki",
                "operator:type": "government",
                "landuse": "education",
                "fixme": "amenity=school, amenity=college albo landuse=education w zale\u017cno\u015bci od tego, jakie plac\u00f3wki wchodz\u0105 w sk\u0142ad zespo\u0142u. Sprawd\u017a, kiedy stosowa\u0107 amenity=* a kiedy landuse=education.",
                "note": "Children RSPO: 82874;82875;82876"
            }
        },
        {
            "id": 82875,
            "type": "Feature",
            "geometry": {
                "type": "Point",
                "coordinates": [
                    15.61691,
                    51.11766
                ]
            },
            "properties": {
                "ref:rspo": 82875,
                "official_name": "M\u0142odzie\u017cowy O\u015brodek Wychowawczy",
                "name": "M\u0142odzie\u017cowy O\u015brodek Wychowawczy",
                "addr:postcode": "59-600",
                "addr:city": "Lw\u00f3wek \u015al\u0105ski",
                "addr:street": "Parkowa",
                "addr:housenumber": "9",
                "addr:city:simc": 936227,
                "addr:street:sym_ul": 15710,
                "phone": "+48 757824525",
                "email": "soswlwowek@wp.pl",
                "ref:regon": "021928467",
                "operator": "Powiat Lw\u00f3wecki",
                "operator:type": "government",
                "fixme": "amenity=social_facility + social_facility=group_home + social_facility:for=juvenile",
                "note": "Children RSPO: 124625;133983Parent RSPO: 52671"
            }
        },
        {
            "id": 124625,
            "type": "Feature",
            "geometry": {
                "type": "Point",
                "coordinates": [
                    15.61691,
                    51.117630000000005
                ]
            },
            "properties": {
                "isced:level": "3",
                "ref:rspo": 124625,
                "official_name": "Bran\u017cowa Szko\u0142a I Stopnia Specjalna Przy M\u0142odzie\u017cowym O\u015brodku Wychowawczym w Lw\u00f3wku \u015aL\u0105skim",
                "name": "Bran\u017cowa Szko\u0142a I Stopnia Specjalna Przy M\u0142odzie\u017cowym O\u015brodku Wychowawczym w Lw\u00f3wku \u015aL\u0105skim",
                "addr:postcode": "59-600",
                "addr:city": "Lw\u00f3wek \u015al\u0105ski",
                "addr:street": "Parkowa",
                "addr:housenumber": "9",
                "addr:city:simc": 936227,
                "addr:street:sym_ul": 15710,
                "phone": "+48 757824525",
                "email": "soswlwowek@wp.pl",
                "website": "http:\/\/zpew.edupage.org",
                "ref:regon": "022489840",
                "operator": "Powiat Lw\u00f3wecki",
                "operator:type": "government",
                "amenity": "school",
                "note": "Parent RSPO: 82875"
            }
        },
        {
            "id": 133983,
            "type": "Feature",
            "geometry": {
                "type": "Point",
                "coordinates": [
                    15.61691,
                    51.1176
                ]
            },
            "properties": {
                "isced:level": "1;2",
                "ref:rspo": 133983,
                "official_name": "Szko\u0142a Podstawowa Przy M\u0142odzie\u017cowym O\u015brodku Wychowawczym w Lw\u00f3wku \u015aL\u0105skim",
                "name": "Szko\u0142a Podstawowa Przy M\u0142odzie\u017cowym O\u015brodku Wychowawczym w Lw\u00f3wku \u015aL\u0105skim",
                "addr:postcode": "59-600",
                "addr:city": "Lw\u00f3wek \u015al\u0105ski",
                "addr:street": "Parkowa",
                "addr:housenumber": "9",
                "addr:city:simc": 936227,
                "addr:street:sym_ul": 15710,
                "phone": "+48 757824525",
                "email": "soswlwowek@wp.pl",
                "ref:regon": "367772623",
                "ref:vatin": "PL6161244012",
                "operator": "Powiat Lw\u00f3wecki",
                "operator:type": "government",
                "amenity": "school",
                "note": "Parent RSPO: 82875"
            }
        },
        {
            "id": 90033,
            "type": "Feature",
            "geometry": {
                "type": "Point",
                "coordinates": [
                    15.61561,
                    51.11773
                ]
            },
            "properties": {
                "isced:level": "3",
                "ref:rspo": 90033,
                "official_name": "Bran\u017cowa Szko\u0142a I Stopnia Specjalna Przy Specjalnym O\u015brodku Szkolno-Wychowawczym w Lw\u00f3wku \u015aL\u0105skim",
                "name": "Bran\u017cowa Szko\u0142a I Stopnia Specjalna Przy Specjalnym O\u015brodku Szkolno-Wychowawczym w Lw\u00f3wku \u015aL\u0105skim",
                "addr:postcode": "59-600",
                "addr:city": "Lw\u00f3wek \u015al\u0105ski",
                "addr:street": "Parkowa",
                "addr:housenumber": "3",
                "addr:city:simc": 936227,
                "addr:street:sym_ul": 15710,
                "phone": "+48 757824525",
                "email": "sosw@zpew.powiatlwowecki.pl",
                "ref:regon": "231209043",
                "operator": "Powiat Lw\u00f3wecki",
                "operator:type": "government",
                "amenity": "school",
                "note": "Parent RSPO: 82876"
            }
        },
        {
            "id": 90034,
            "type": "Feature",
            "geometry": {
                "type": "Point",
                "coordinates": [
                    15.61561,
                    51.1177
                ]
            },
            "properties": {
                "ref:rspo": 90034,
                "official_name": "Szko\u0142a Przysposabiaj\u0105ca do Pracy Przy Specjalnym O\u015brodku Szkolno Wychowawczym w Lw\u00f3wku \u015aL\u0105skim",
                "name": "Szko\u0142a Przysposabiaj\u0105ca do Pracy Przy Specjalnym O\u015brodku Szkolno Wychowawczym w Lw\u00f3wku \u015aL\u0105skim",
                "addr:postcode": "59-600",
                "addr:city": "Lw\u00f3wek \u015al\u0105ski",
                "addr:street": "Parkowa",
                "addr:housenumber": "3",
                "addr:city:simc": 936227,
                "addr:street:sym_ul": 15710,
                "phone": "+48 757824525",
                "email": "sosw@zpew.powiatlwowecki.pl",
                "ref:regon": "020265881",
                "operator": "Powiat Lw\u00f3wecki",
                "operator:type": "government",
                "amenity": "school",
                "note": "Parent RSPO: 82876"
            }
        },
        {
            "id": 52672,
            "type": "Feature",
            "geometry": {
                "type": "Point",
                "coordinates": [
                    15.565677,
                    51.129034
                ]
            },
            "properties": {
                "ref:rspo": 52672,
                "official_name": "Zesp\u00f3\u0142 Szk\u00f3\u0142 Ekonomiczno Technicznych\nIm. Kombatant\u00f3w Ziemii Lw\u00f3weckiej",
                "name": "Zesp\u00f3\u0142 Szk\u00f3\u0142 Ekonomiczno Technicznych\nIm. Kombatant\u00f3w Ziemii Lw\u00f3weckiej",
                "addr:postcode": "59-600",
                "addr:place": "Rakowice Wielkie",
                "addr:housenumber": "48",
                "addr:city:simc": 190940,
                "phone": "+48 757824363",
                "email": "sekretariat@zsetrakowice.pl",
                "website": "http:\/\/zsetrakowice.pl",
                "ref:regon": "230898750",
                "ref:vatin": "PL6161225687",
                "operator": "Powiat Lw\u00f3wecki",
                "operator:type": "government",
                "landuse": "education",
                "fixme": "amenity=school, amenity=college albo landuse=education w zale\u017cno\u015bci od tego, jakie plac\u00f3wki wchodz\u0105 w sk\u0142ad zespo\u0142u. Sprawd\u017a, kiedy stosowa\u0107 amenity=* a kiedy landuse=education.",
                "note": "Children RSPO: 84232;84233;84234"
            }
        },
        {
            "id": 84232,
            "type": "Feature",
            "geometry": {
                "type": "Point",
                "coordinates": [
                    15.565677,
                    51.129003999999995
                ]
            },
            "properties": {
                "isced:level": "3",
                "ref:rspo": 84232,
                "official_name": "Liceum Og\u00f3lnokszta\u0142c\u0105ce",
                "name": "Liceum Og\u00f3lnokszta\u0142c\u0105ce",
                "addr:postcode": "59-600",
                "addr:place": "Rakowice Wielkie",
                "addr:housenumber": "48",
                "addr:city:simc": 190940,
                "phone": "+48 757824363",
                "email": "sekretariat@zsetrakowice.pl",
                "website": "http:\/\/www.zsetrakowice.pl",
                "ref:regon": "020356224",
                "operator": "Powiat Lw\u00f3wecki",
                "operator:type": "government",
                "amenity": "school",
                "note": "Parent RSPO: 52672"
            }
        },
        {
            "id": 84233,
            "type": "Feature",
            "geometry": {
                "type": "Point",
                "coordinates": [
                    15.565677,
                    51.128974
                ]
            },
            "properties": {
                "isced:level": "3",
                "ref:rspo": 84233,
                "official_name": "Technikum",
                "name": "Technikum",
                "addr:postcode": "59-600",
                "addr:place": "Rakowice Wielkie",
                "addr:housenumber": "48",
                "addr:city:simc": 190940,
                "phone": "+48 757824363",
                "email": "sekretariat@zsetrakowice.pl",
                "website": "http:\/\/www.zsetrakowice.pl",
                "ref:regon": "231185791",
                "operator": "Powiat Lw\u00f3wecki",
                "operator:type": "government",
                "amenity": "school",
                "note": "Parent RSPO: 52672"
            }
        },
        {
            "id": 84234,
            "type": "Feature",
            "geometry": {
                "type": "Point",
                "coordinates": [
                    15.565677,
                    51.128944
                ]
            },
            "properties": {
                "isced:level": "3",
                "ref:rspo": 84234,
                "official_name": "Bran\u017cowa Szko\u0142a I Stopnia",
                "name": "Bran\u017cowa Szko\u0142a I Stopnia",
                "addr:postcode": "59-600",
                "addr:place": "Rakowice Wielkie",
                "addr:housenumber": "48",
                "addr:city:simc": 190940,
                "phone": "+48 757824363",
                "email": "sekretariat@zsetrakowice.pl",
                "website": "http:\/\/www.zsetrakowice.pl",
                "ref:regon": "231185897",
                "operator": "Powiat Lw\u00f3wecki",
                "operator:type": "government",
                "amenity": "school",
                "note": "Parent RSPO: 52672"
            }
        },
        {
            "id": 104653,
            "type": "Feature",
            "geometry": {
                "type": "Point",
                "coordinates": [
                    15.674029,
                    51.145311
                ]
            },
            "properties": {
                "isced:level": "1;2",
                "ref:rspo": 104653,
                "official_name": "Szko\u0142a Podstawowa nr 3 im. Szarych Szereg\u00f3w - Filia w Zbylutowie",
                "name": "Szko\u0142a Podstawowa nr 3",
                "addr:postcode": "59-600",
                "addr:place": "Zbylut\u00f3w",
                "addr:housenumber": "133",
                "addr:city:simc": 191017,
                "phone": "+48 757843291",
                "email": "sp3@lwowekslaski.pl",
                "ref:regon": "711110000",
                "operator": "Gmina I Miasto Lw\u00f3wek \u015al\u0105ski",
                "operator:type": "government",
                "amenity": "school",
                "note": "Parent RSPO: 60781"
            }
        },
        {
            "id": 104377,
            "type": "Feature",
            "geometry": {
                "type": "Point",
                "coordinates": [
                    15.552292,
                    51.181607
                ]
            },
            "properties": {
                "isced:level": "1;2",
                "ref:rspo": 104377,
                "official_name": "Szko\u0142a Podstawowa we W\u0142odzicach Wielkich",
                "name": "Szko\u0142a Podstawowa we W\u0142odzicach Wielkich",
                "addr:postcode": "59-600",
                "addr:place": "W\u0142odzice Wielkie",
                "addr:housenumber": "32",
                "addr:city:simc": 191000,
                "phone": "+48 757841126",
                "email": "spwlodzice@onet.pl",
                "ref:regon": "022031414",
                "operator": "Stowarzyszenie Rozwoju Wsi W\u0142odzice",
                "operator:type": "ngo",
                "amenity": "school"
            }
        }
    ]
}