{
    "type": "FeatureCollection",
    "features": [
        {
            "id": 49721,
            "type": "Feature",
            "geometry": {
                "type": "Point",
                "coordinates": [
                    15.30981,
                    50.928672
                ]
            },
            "properties": {
                "isced:level": "1;2",
                "ref:rspo": 49721,
                "official_name": "Szko\u0142a Podstawowa w Giebu\u0142towie",
                "name": "Szko\u0142a Podstawowa w Giebu\u0142towie",
                "addr:country": "PL",
                "addr:postcode": "59-630",
                "addr:place": "Giebu\u0142t\u00f3w",
                "addr:housenumber": "1",
                "addr:teryt:sym_ul": 191158,
                "contact:phone": "+48 757834692",
                "contact:email": "szk.gieb@poczta.onet.pl",
                "ref:regon": "001179136",
                "ref:vatin": "PL6161435367",
                "operator": "Gmina Mirsk",
                "operator:type": "government",
                "amenity": "school"
            }
        },
        {
            "id": 69409,
            "type": "Feature",
            "geometry": {
                "type": "Point",
                "coordinates": [
                    15.443313,
                    50.9541679
                ]
            },
            "properties": {
                "isced:level": "1;2",
                "ref:rspo": 69409,
                "official_name": "Szko\u0142a Podstawowa im. \u015aw. Floriana w R\u0119biszowie",
                "name": "Szko\u0142a Podstawowa",
                "addr:country": "PL",
                "addr:postcode": "59-630",
                "addr:place": "R\u0119bisz\u00f3w",
                "addr:housenumber": "125",
                "addr:teryt:sym_ul": 191359,
                "contact:phone": "+48 757839185",
                "contact:email": "sprebiszow@gmail.com",
                "ref:regon": "001179120",
                "ref:vatin": "PL6161435410",
                "operator": "Gmina Mirsk",
                "operator:type": "government",
                "amenity": "school"
            }
        },
        {
            "id": 79165,
            "type": "Feature",
            "geometry": {
                "type": "Point",
                "coordinates": [
                    15.37823,
                    50.96576
                ]
            },
            "properties": {
                "isced:level": "3",
                "ref:rspo": 79165,
                "official_name": "Liceum Og\u00f3lnokszta\u0142c\u0105ce im. Bohater\u00f3w II Armii Wojska Polskiego w Mirsku",
                "name": "Liceum Og\u00f3lnokszta\u0142c\u0105ce",
                "addr:country": "PL",
                "addr:postcode": "59-630",
                "addr:city": "Mirsk",
                "addr:street": "Wodna",
                "addr:housenumber": "2",
                "addr:teryt:simc": 24550,
                "addr:teryt:sym_ul": 936233,
                "contact:phone": "+48 757834250",
                "contact:email": "zslgmirsk@tlen.pl",
                "contact:website": "http:\/\/www.zslgmirsk.nazwa.pl",
                "ref:regon": "000233796",
                "operator": "Gmina Mirsk",
                "operator:type": "government",
                "amenity": "school",
                "note": "Parent RSPO: 81688"
            }
        },
        {
            "id": 80440,
            "type": "Feature",
            "geometry": {
                "type": "Point",
                "coordinates": [
                    15.37823,
                    50.96573
                ]
            },
            "properties": {
                "isced:level": "3",
                "ref:rspo": 80440,
                "official_name": "Technikum Hotelarsko-Turystyczne w Mirsku",
                "name": "Technikum Hotelarsko-Turystyczne w Mirsku",
                "addr:country": "PL",
                "addr:postcode": "59-630",
                "addr:city": "Mirsk",
                "addr:street": "Wodna",
                "addr:housenumber": "2",
                "addr:teryt:simc": 24550,
                "addr:teryt:sym_ul": 936233,
                "contact:phone": "+48 757834250",
                "contact:email": "zslgmirsk@tlen.pl",
                "contact:website": "http:\/\/www.zslgmirsk.nazwa.pl",
                "ref:regon": "020828315",
                "operator": "Gmina Mirsk",
                "operator:type": "government",
                "amenity": "school",
                "note": "Parent RSPO: 81688"
            }
        },
        {
            "id": 81688,
            "type": "Feature",
            "geometry": {
                "type": "Point",
                "coordinates": [
                    15.38473,
                    50.97346
                ]
            },
            "properties": {
                "ref:rspo": 81688,
                "official_name": "Zesp\u00f3\u0142 Szkolno-Przedszkolny w Mirsku",
                "name": "Zesp\u00f3\u0142 Szkolno-Przedszkolny w Mirsku",
                "addr:country": "PL",
                "addr:postcode": "59-630",
                "addr:city": "Mirsk",
                "addr:street": "Kapitana Stanis\u0142awa Betleja",
                "addr:housenumber": "32",
                "addr:teryt:simc": 1110,
                "addr:teryt:sym_ul": 936233,
                "contact:phone": "+48 757834223",
                "contact:email": "sekretariat@spmirsk.pl",
                "contact:website": "http:\/\/spmirsk.edupage.org",
                "ref:regon": "020107099",
                "ref:vatin": "PL6161435396",
                "operator": "Gmina Mirsk",
                "operator:type": "government",
                "landuse": "education",
                "fixme": "amenity=school, amenity=college albo landuse=education w zale\u017cno\u015bci od tego, jakie plac\u00f3wki wchodz\u0105 w sk\u0142ad zespo\u0142u. Sprawd\u017a, kiedy stosowa\u0107 amenity=* a kiedy landuse=education.",
                "note": "Children RSPO: 79165;80440;86796;86817"
            }
        },
        {
            "id": 86796,
            "type": "Feature",
            "geometry": {
                "type": "Point",
                "coordinates": [
                    15.38473,
                    50.97343
                ]
            },
            "properties": {
                "isced:level": "1;2",
                "ref:rspo": 86796,
                "official_name": "Szko\u0142a Podstawowa im. Osadnik\u00f3w Ziemi Mirskiej w Mirsku",
                "name": "Szko\u0142a Podstawowa",
                "addr:country": "PL",
                "addr:postcode": "59-630",
                "addr:city": "Mirsk",
                "addr:street": "Kapitana Stanis\u0142awa Betleja",
                "addr:housenumber": "32",
                "addr:teryt:simc": 1110,
                "addr:teryt:sym_ul": 936233,
                "contact:phone": "+48 757834223",
                "contact:email": "sekretariat@spmirsk.pl",
                "contact:website": "http:\/\/www.spmirsk.com",
                "ref:regon": "000264733",
                "ref:vatin": "PL6161496831",
                "operator": "Gmina Mirsk",
                "operator:type": "government",
                "amenity": "school",
                "note": "Parent RSPO: 81688"
            }
        },
        {
            "id": 86817,
            "type": "Feature",
            "geometry": {
                "type": "Point",
                "coordinates": [
                    15.38392,
                    50.97412
                ]
            },
            "properties": {
                "ref:rspo": 86817,
                "official_name": "Przedszkole Publiczne im. Izerskich Skrzat\u00f3w w Mirsku",
                "name": "Przedszkole Publiczne",
                "addr:country": "PL",
                "addr:postcode": "59-630",
                "addr:city": "Mirsk",
                "addr:street": "Kapitana Stanis\u0142awa Betleja",
                "addr:housenumber": "27",
                "addr:teryt:simc": 1110,
                "addr:teryt:sym_ul": 936233,
                "contact:phone": "+48 757834277",
                "contact:email": "izerskieskrzaty@onet.pl",
                "ref:regon": "230896610",
                "ref:vatin": "PL6161435700",
                "operator": "Gmina Mirsk",
                "operator:type": "government",
                "amenity": "kindergarten",
                "note": "Parent RSPO: 81688"
            }
        }
    ]
}