{
    "type": "FeatureCollection",
    "features": [
        {
            "id": 73845,
            "type": "Feature",
            "geometry": {
                "type": "Point",
                "coordinates": [
                    15.45072,
                    53.51921
                ]
            },
            "properties": {
                "ref:rspo": 73845,
                "official_name": "Niepubliczne Przedszkole \"S\u0142oneczko\" Towarzystwa Przyjaci\u00f3\u0142 Dzieci w Cieszynie",
                "name": "Niepubliczne Przedszkole \"S\u0142oneczko\" Towarzystwa Przyjaci\u00f3\u0142 Dzieci w Cieszynie",
                "addr:country": "PL",
                "addr:postcode": "73-155",
                "addr:place": "Cieszyno",
                "addr:housenumber": "9",
                "addr:teryt:sym_ul": 785030,
                "contact:phone": "+48 914345128",
                "contact:email": "zarzad@tpd.szczecin.pl",
                "ref:regon": "321297342",
                "ref:vatin": "PL8512805432",
                "operator": "Towarzystwo Przyjaci\u00f3\u0142 Dzieci Zachodniopomorski Oddzia\u0142 Regionalny W Szczecinie",
                "operator:type": "ngo",
                "amenity": "kindergarten"
            }
        },
        {
            "id": 27979,
            "type": "Feature",
            "geometry": {
                "type": "Point",
                "coordinates": [
                    15.55963,
                    53.53974
                ]
            },
            "properties": {
                "isced:level": "1;2",
                "ref:rspo": 27979,
                "official_name": "Szko\u0142a Podstawowa im.k.I.ga\u0142czy\u0144skiego w W\u0119gorzynie",
                "name": "Szko\u0142a Podstawowa im.k.I.ga\u0142czy\u0144skiego w W\u0119gorzynie",
                "addr:country": "PL",
                "addr:postcode": "73-155",
                "addr:city": "W\u0119gorzyno",
                "addr:street": "ul. Grunwaldzka",
                "addr:housenumber": "2",
                "addr:teryt:simc": 6260,
                "addr:teryt:sym_ul": 980062,
                "contact:phone": "+48 913971808",
                "contact:email": "spwegorzyno@poczta.onet.pl",
                "ref:regon": "810569049",
                "ref:vatin": "PL2530291839",
                "operator": "Gmina W\u0119gorzyno",
                "operator:type": "government",
                "amenity": "school"
            }
        },
        {
            "id": 64330,
            "type": "Feature",
            "geometry": {
                "type": "Point",
                "coordinates": [
                    15.5526,
                    53.54181
                ]
            },
            "properties": {
                "ref:rspo": 64330,
                "official_name": "Przedszkole Publiczne im. Kr\u00f3la Lwa w W\u0119gorzynie",
                "name": "Przedszkole Publiczne",
                "addr:country": "PL",
                "addr:postcode": "73-155",
                "addr:city": "W\u0119gorzyno",
                "addr:street": "os. S\u0142oneczne",
                "addr:housenumber": "9",
                "addr:teryt:simc": 20256,
                "addr:teryt:sym_ul": 980062,
                "contact:phone": "+48 600879245",
                "contact:email": "przedszkoleweg@op.pl",
                "ref:regon": "810014831",
                "ref:vatin": "PL2530291822",
                "operator": "Gmina W\u0119gorzyno",
                "operator:type": "government",
                "amenity": "kindergarten"
            }
        },
        {
            "id": 64327,
            "type": "Feature",
            "geometry": {
                "type": "Point",
                "coordinates": [
                    15.53173,
                    53.5527299
                ]
            },
            "properties": {
                "isced:level": "1;2",
                "ref:rspo": 64327,
                "official_name": "Szko\u0142a Podstawowa im.II \u0141uzyckiej Dywizji Artylerii Lwp",
                "name": "Szko\u0142a Podstawowa im.II \u0141uzyckiej Dywizji Artylerii Lwp",
                "addr:country": "PL",
                "addr:postcode": "73-155",
                "addr:city": "Runowo Pomorskie",
                "addr:street": "ul. W\u0119gorzy\u0144ska",
                "addr:housenumber": "29",
                "addr:teryt:simc": 23943,
                "addr:teryt:sym_ul": 785219,
                "contact:phone": "+48 913971440",
                "contact:email": "sprunowopom@wp.pl",
                "ref:regon": "001222524",
                "ref:vatin": "PL2530292276",
                "operator": "Gmina W\u0119gorzyno",
                "operator:type": "government",
                "amenity": "school"
            }
        },
        {
            "id": 64333,
            "type": "Feature",
            "geometry": {
                "type": "Point",
                "coordinates": [
                    15.47009,
                    53.58149
                ]
            },
            "properties": {
                "ref:rspo": 64333,
                "official_name": "Niepubliczne Przedszkole \"S\u0142oneczko\" Towarzystwa Przyjaci\u00f3\u0142 Dzieci w Sielsku",
                "name": "Niepubliczne Przedszkole \"S\u0142oneczko\" Towarzystwa Przyjaci\u00f3\u0142 Dzieci w Sielsku",
                "addr:country": "PL",
                "addr:postcode": "73-155",
                "addr:place": "Sielsko",
                "addr:housenumber": "20",
                "addr:teryt:sym_ul": 785231,
                "contact:phone": "+48 913972638",
                "ref:regon": "321293350",
                "operator": "Towarzystwo Przyjaci\u00f3\u0142 Dzieci Zachodniopomorski Oddzia\u0142 Regionalny W Szczecinie",
                "operator:type": "ngo",
                "amenity": "kindergarten"
            }
        },
        {
            "id": 64332,
            "type": "Feature",
            "geometry": {
                "type": "Point",
                "coordinates": [
                    15.38159,
                    53.60034
                ]
            },
            "properties": {
                "ref:rspo": 64332,
                "official_name": "Niepubliczne Przedszkole \"S\u0142oneczko\" Towarzystwa Przyjaci\u00f3\u0142 Dzieci w Mieszewie",
                "name": "Niepubliczne Przedszkole \"S\u0142oneczko\" Towarzystwa Przyjaci\u00f3\u0142 Dzieci w Mieszewie",
                "addr:country": "PL",
                "addr:postcode": "73-155",
                "addr:place": "Mieszewo",
                "addr:housenumber": "21",
                "addr:teryt:sym_ul": 785136,
                "contact:phone": "+48 913972638",
                "contact:email": "zarzad@tpd.szczecin.pl",
                "ref:regon": "321293338",
                "operator": "Towarzystwo Przyjaci\u00f3\u0142 Dzieci Zachodniopomorski Oddzia\u0142 Regionalny W Szczecinie",
                "operator:type": "ngo",
                "amenity": "kindergarten"
            }
        }
    ]
}