{
    "type": "FeatureCollection",
    "features": [
        {
            "id": 90197,
            "type": "Feature",
            "geometry": {
                "type": "Point",
                "coordinates": [
                    15.19309,
                    53.56487
                ]
            },
            "properties": {
                "isced:level": "1;2",
                "ref:rspo": 90197,
                "official_name": "Szko\u0142a Podstawowa w Wojtaszycach",
                "name": "Szko\u0142a Podstawowa w Wojtaszycach",
                "addr:postcode": "72-210",
                "addr:place": "Wojtaszyce",
                "addr:housenumber": "39",
                "addr:city:simc": 774121,
                "phone": "+48 913910527",
                "email": "szkolawojtaszyce@op.pl",
                "ref:regon": "321304697",
                "ref:vatin": "PL6721353269",
                "operator": "Katarzyna Kur\u0142owicz",
                "operator:type": "private",
                "amenity": "school"
            }
        },
        {
            "id": 276947,
            "type": "Feature",
            "geometry": {
                "type": "Point",
                "coordinates": [
                    15.19309,
                    53.56484
                ]
            },
            "properties": {
                "ref:rspo": 276947,
                "official_name": "Przedszkole Integracyjne w Wojtaszycach",
                "name": "Przedszkole Integracyjne w Wojtaszycach",
                "addr:postcode": "72-210",
                "addr:place": "Wojtaszyce",
                "addr:housenumber": "39",
                "addr:city:simc": 774121,
                "phone": "+48 913973190",
                "email": "uslugiedukacyjne@wp.pl",
                "website": "http:\/\/www.lobez-edukacja.pl",
                "ref:regon": "387865585",
                "operator": "Zygmunt Heland",
                "operator:type": "private",
                "amenity": "kindergarten"
            }
        },
        {
            "id": 11969,
            "type": "Feature",
            "geometry": {
                "type": "Point",
                "coordinates": [
                    15.30869,
                    53.58278
                ]
            },
            "properties": {
                "isced:level": "1;2",
                "ref:rspo": 11969,
                "official_name": "Szko\u0142a Podstawowa w Dobrej im. Polskich Olimpijczyk\u00f3w",
                "name": "Szko\u0142a Podstawowa w Dobrej",
                "addr:postcode": "72-210",
                "addr:city": "Dobra",
                "addr:street": "Mieszcza\u0144ska",
                "addr:housenumber": "2",
                "addr:city:simc": 978852,
                "addr:street:sym_ul": 12825,
                "phone": "+48 913914410",
                "email": "sekretariat.sp@dobragmina.pl",
                "ref:regon": "000261798",
                "ref:vatin": "PL2530335347",
                "operator": "Gmina Dobra",
                "operator:type": "government",
                "amenity": "school"
            }
        }
    ]
}