{
    "type": "FeatureCollection",
    "features": [
        {
            "id": 21280,
            "type": "Feature",
            "geometry": {
                "type": "Point",
                "coordinates": [
                    15.6156,
                    53.63188
                ]
            },
            "properties": {
                "ref:rspo": 21280,
                "official_name": "Zesp\u00f3\u0142 Szk\u00f3\u0142 im. Tadeusza Ko\u015bciuszki w \u0141obzie",
                "name": "Zesp\u00f3\u0142 Szk\u00f3\u0142",
                "addr:postcode": "73-150",
                "addr:city": "\u0141obez",
                "addr:street": "Niepodleg\u0142o\u015bci",
                "addr:housenumber": "54",
                "addr:city:simc": 979136,
                "addr:street:sym_ul": 14203,
                "phone": "+48 913974349",
                "email": "lobezlo@post.pl",
                "website": "http:\/\/www.zslobez.pl",
                "ref:regon": "000229412",
                "ref:vatin": "PL8541684190",
                "operator": "Powiat \u0141obeski",
                "operator:type": "government",
                "landuse": "education",
                "fixme": "amenity=school, amenity=college albo landuse=education w zale\u017cno\u015bci od tego, jakie plac\u00f3wki wchodz\u0105 w sk\u0142ad zespo\u0142u. Sprawd\u017a, kiedy stosowa\u0107 amenity=* a kiedy landuse=education.",
                "note": "Children RSPO: 23862;23863;24148;133330"
            }
        },
        {
            "id": 23862,
            "type": "Feature",
            "geometry": {
                "type": "Point",
                "coordinates": [
                    15.6156,
                    53.63185
                ]
            },
            "properties": {
                "isced:level": "3",
                "ref:rspo": 23862,
                "official_name": "Liceum Og\u00f3lnokszta\u0142c\u0105ce",
                "name": "Liceum Og\u00f3lnokszta\u0142c\u0105ce",
                "addr:postcode": "73-150",
                "addr:city": "\u0141obez",
                "addr:street": "Niepodleg\u0142o\u015bci",
                "addr:housenumber": "54",
                "addr:city:simc": 979136,
                "addr:street:sym_ul": 14203,
                "phone": "+48 913974349",
                "email": "lobezlo@post.pl",
                "website": "http:\/\/www.zslobez.pl",
                "ref:regon": "812633969",
                "operator": "Powiat \u0141obeski",
                "operator:type": "government",
                "amenity": "school",
                "note": "Parent RSPO: 21280"
            }
        },
        {
            "id": 23863,
            "type": "Feature",
            "geometry": {
                "type": "Point",
                "coordinates": [
                    15.6156,
                    53.631820000000005
                ]
            },
            "properties": {
                "isced:level": "3",
                "ref:rspo": 23863,
                "official_name": "Technikum Zawodowe",
                "name": "Technikum Zawodowe",
                "addr:postcode": "73-150",
                "addr:city": "\u0141obez",
                "addr:street": "Niepodleg\u0142o\u015bci",
                "addr:housenumber": "54",
                "addr:city:simc": 979136,
                "addr:street:sym_ul": 14203,
                "phone": "+48 913974349",
                "email": "lobezlo@post.pl",
                "website": "http:\/\/www.zslobez.pl",
                "ref:regon": "320540177",
                "operator": "Powiat \u0141obeski",
                "operator:type": "government",
                "amenity": "school",
                "note": "Parent RSPO: 21280"
            }
        },
        {
            "id": 24148,
            "type": "Feature",
            "geometry": {
                "type": "Point",
                "coordinates": [
                    15.6156,
                    53.63179
                ]
            },
            "properties": {
                "isced:level": "3",
                "ref:rspo": 24148,
                "official_name": "Bran\u017cowa Szko\u0142a I Stopnia",
                "name": "Bran\u017cowa Szko\u0142a I Stopnia",
                "addr:postcode": "73-150",
                "addr:city": "\u0141obez",
                "addr:street": "Niepodleg\u0142o\u015bci",
                "addr:housenumber": "54",
                "addr:city:simc": 979136,
                "addr:street:sym_ul": 14203,
                "phone": "+48 913974349",
                "email": "lobezlo@post.pl",
                "website": "http:\/\/www.zslobez.pl",
                "ref:regon": "812077652",
                "operator": "Powiat \u0141obeski",
                "operator:type": "government",
                "amenity": "school",
                "note": "Parent RSPO: 21280"
            }
        },
        {
            "id": 133330,
            "type": "Feature",
            "geometry": {
                "type": "Point",
                "coordinates": [
                    15.6156,
                    53.63176
                ]
            },
            "properties": {
                "isced:level": "1;2",
                "ref:rspo": 133330,
                "official_name": "Szko\u0142a Podstawowa dla Doros\u0142ych w \u0141obzie",
                "name": "Szko\u0142a Podstawowa dla Doros\u0142ych w \u0141obzie",
                "addr:postcode": "73-150",
                "addr:city": "\u0141obez",
                "addr:street": "Niepodleg\u0142o\u015bci",
                "addr:housenumber": "54",
                "addr:city:simc": 979136,
                "addr:street:sym_ul": 14203,
                "phone": "+48 913974349",
                "email": "lobezlo@post.pl",
                "website": "http:\/\/zslobez.pl",
                "ref:regon": "367033937",
                "operator": "Powiat \u0141obeski",
                "operator:type": "government",
                "amenity": "school",
                "note": "Parent RSPO: 21280"
            }
        },
        {
            "id": 24619,
            "type": "Feature",
            "geometry": {
                "type": "Point",
                "coordinates": [
                    15.61395,
                    53.63367
                ]
            },
            "properties": {
                "ref:rspo": 24619,
                "official_name": "Poradnia Psychologiczno - Pedagogiczna w \u0141obzie",
                "name": "Poradnia Psychologiczno - Pedagogiczna w \u0141obzie",
                "addr:postcode": "73-150",
                "addr:city": "\u0141obez",
                "addr:street": "Marii Konopnickiej",
                "addr:housenumber": "42",
                "addr:city:simc": 979136,
                "addr:street:sym_ul": 9182,
                "phone": "+48 913974162",
                "email": "ppp@powiatlobeski.pl",
                "website": "http:\/\/ppp.lobez.ibip.pl",
                "ref:regon": "000703227",
                "ref:vatin": "PL8541128572",
                "operator": "Powiat \u0141obeski",
                "operator:type": "government",
                "healthcare": "counselling",
                "counselling_type": "education",
                "fixme": "w zale\u017cno\u015bci od przedmiotu dzia\u0142alno\u015bci (np. healthcare=counselling + counselling_type=education albo healthcare=psychotherapist)"
            }
        },
        {
            "id": 266661,
            "type": "Feature",
            "geometry": {
                "type": "Point",
                "coordinates": [
                    15.6261591,
                    53.63442
                ]
            },
            "properties": {
                "ref:rspo": 266661,
                "official_name": "Plac\u00f3wka Kszta\u0142cenia Ustawicznego I Praktycznego",
                "name": "Plac\u00f3wka Kszta\u0142cenia Ustawicznego I Praktycznego",
                "addr:postcode": "73-150",
                "addr:city": "\u0141obez",
                "addr:street": "Magazynowa",
                "addr:housenumber": "1",
                "addr:city:simc": 979136,
                "addr:street:sym_ul": 11891,
                "phone": "+48 913973250",
                "email": "gregorkot@wp.pl",
                "ref:regon": "369648413",
                "operator": "Grzegorz Kotwicki",
                "operator:type": "consortium",
                "fixme": "w zale\u017cno\u015bci od przedmiotu dzia\u0142alno\u015bci (np. amenity=training + training=*, amenity=dancing_school, amenity=language_school, amenity=music_school)"
            }
        },
        {
            "id": 133866,
            "type": "Feature",
            "geometry": {
                "type": "Point",
                "coordinates": [
                    15.62064,
                    53.63639
                ]
            },
            "properties": {
                "isced:level": "1;2",
                "ref:rspo": 133866,
                "official_name": "Szko\u0142a Podstawowa nr 3, im. Adama Mickiewicza w \u0141obzie",
                "name": "Szko\u0142a Podstawowa nr 3,",
                "addr:postcode": "73-150",
                "addr:city": "\u0141obez",
                "addr:street": "Tadeusza Ko\u015bciuszki",
                "addr:housenumber": "17",
                "addr:city:simc": 979136,
                "addr:street:sym_ul": 9572,
                "phone": "+48 913974761",
                "email": "sp3lobez@onet.pl",
                "website": "http:\/\/www.sp3lobez.edupage.org",
                "ref:regon": "367697028",
                "ref:vatin": "PL8542019342",
                "operator": "Gmina \u0141obez",
                "operator:type": "government",
                "amenity": "school"
            }
        },
        {
            "id": 7834,
            "type": "Feature",
            "geometry": {
                "type": "Point",
                "coordinates": [
                    15.62771,
                    53.63841
                ]
            },
            "properties": {
                "ref:rspo": 7834,
                "official_name": "Plac\u00f3wka Niepubliczna Kszta\u0142cenia Ustawicznego Ligi Obrony Kraju w \u0141obzie",
                "name": "Plac\u00f3wka Niepubliczna Kszta\u0142cenia Ustawicznego Ligi Obrony Kraju w \u0141obzie",
                "addr:postcode": "73-150",
                "addr:city": "\u0141obez",
                "addr:street": "Pocztowa",
                "addr:housenumber": "17a",
                "addr:city:simc": 979136,
                "addr:street:sym_ul": 16579,
                "phone": "+48 913973146",
                "email": "biuro.osklobez@lok.org.pl",
                "website": "http:\/\/www.lok.org.pl",
                "ref:regon": "321269676",
                "operator": "Liga Obrony Kraju Oddzia\u0142 Biura Zarz\u0105du G\u0142\u00f3wnego W Poznaniu",
                "operator:type": "ngo",
                "fixme": "w zale\u017cno\u015bci od przedmiotu dzia\u0142alno\u015bci (np. amenity=training + training=*, amenity=dancing_school, amenity=language_school, amenity=music_school)"
            }
        },
        {
            "id": 62097,
            "type": "Feature",
            "geometry": {
                "type": "Point",
                "coordinates": [
                    15.623490333557,
                    53.638671875
                ]
            },
            "properties": {
                "isced:level": "1;2",
                "ref:rspo": 62097,
                "official_name": "Szko\u0142a Podstawowa nr 1 im. Marii Sk\u0142odowskiej - Curie w \u0141obzie",
                "name": "Szko\u0142a Podstawowa nr 1",
                "addr:postcode": "73-150",
                "addr:city": "\u0141obez",
                "addr:street": "J\u00f3zefa Bema",
                "addr:housenumber": "6",
                "addr:city:simc": 979136,
                "addr:street:sym_ul": 1010,
                "phone": "+48 913974399",
                "email": "szkola1.lobez@wp.pl",
                "website": "http:\/\/www.szkola1-lobez.edupage.org",
                "ref:regon": "000702452",
                "ref:vatin": "PL8541087873",
                "operator": "Gmina \u0141obez",
                "operator:type": "government",
                "amenity": "school"
            }
        },
        {
            "id": 60130,
            "type": "Feature",
            "geometry": {
                "type": "Point",
                "coordinates": [
                    15.61744,
                    53.64
                ]
            },
            "properties": {
                "ref:rspo": 60130,
                "official_name": "Przedszkole Miejskie nr 1 im. Krasnala Ha\u0142aba\u0142y w \u0141obzie",
                "name": "Przedszkole Miejskie nr 1",
                "addr:postcode": "73-150",
                "addr:city": "\u0141obez",
                "addr:street": "Adama Mickiewicza",
                "addr:housenumber": "11",
                "addr:city:simc": 979136,
                "addr:street:sym_ul": 12734,
                "phone": "+48 913974611",
                "email": "sekretariat@pm1-lobez.pl",
                "website": "http:\/\/www.krasnal.lobez.blizej.info",
                "ref:regon": "320936573",
                "ref:vatin": "PL2530322557",
                "operator": "Gmina \u0141obez",
                "operator:type": "government",
                "amenity": "kindergarten"
            }
        },
        {
            "id": 60464,
            "type": "Feature",
            "geometry": {
                "type": "Point",
                "coordinates": [
                    15.61628,
                    53.64098
                ]
            },
            "properties": {
                "isced:level": "1;2",
                "ref:rspo": 60464,
                "official_name": "Szko\u0142a Podstawowa nr 2 im. Miko\u0142aja Kopernika \u0141obez",
                "name": "Szko\u0142a Podstawowa nr 2",
                "addr:postcode": "73-150",
                "addr:city": "\u0141obez",
                "addr:street": "Spokojna",
                "addr:housenumber": "4",
                "addr:city:simc": 979136,
                "addr:street:sym_ul": 20677,
                "phone": "+48 973974370",
                "email": "lobezsp2@wp.pl",
                "website": "http:\/\/www.lobezsp2.pl",
                "ref:regon": "001222790",
                "ref:vatin": "PL8541087933",
                "operator": "Gmina \u0141obez",
                "operator:type": "government",
                "amenity": "school"
            }
        },
        {
            "id": 276089,
            "type": "Feature",
            "geometry": {
                "type": "Point",
                "coordinates": [
                    15.61896,
                    53.642
                ]
            },
            "properties": {
                "ref:rspo": 276089,
                "official_name": "Niepubliczne Przedszkole Raz, Dwa, Trzy - My!",
                "name": "Niepubliczne Przedszkole Raz, Dwa, Trzy - My!",
                "addr:postcode": "73-150",
                "addr:city": "\u0141obez",
                "addr:street": "J\u00f3zefa Bema",
                "addr:housenumber": "23a",
                "addr:city:simc": 979136,
                "addr:street:sym_ul": 1010,
                "email": "joanna.suchodolska@op.pl",
                "ref:regon": "386987139",
                "operator": "Joanna Suchodolska",
                "operator:type": "private",
                "amenity": "kindergarten"
            }
        },
        {
            "id": 80601,
            "type": "Feature",
            "geometry": {
                "type": "Point",
                "coordinates": [
                    15.61286,
                    53.64515
                ]
            },
            "properties": {
                "isced:level": "3",
                "ref:rspo": 80601,
                "official_name": "Prywatna Bran\u017cowa Szko\u0142a I Stopnia",
                "name": "Prywatna Bran\u017cowa Szko\u0142a I Stopnia",
                "addr:postcode": "73-150",
                "addr:city": "\u0141obez",
                "addr:street": "Armii Krajowej",
                "addr:housenumber": "25",
                "addr:city:simc": 979136,
                "addr:street:sym_ul": 432,
                "phone": "+48 913973190",
                "email": "uslugiedukacyjne@wp.pl",
                "website": "http:\/\/www.edukacja-lobez.pl",
                "ref:regon": "321299000",
                "operator": "Zygmunt Heland",
                "operator:type": "private",
                "amenity": "school"
            }
        },
        {
            "id": 80604,
            "type": "Feature",
            "geometry": {
                "type": "Point",
                "coordinates": [
                    15.61286,
                    53.64512
                ]
            },
            "properties": {
                "ref:rspo": 80604,
                "official_name": "Centrum Kszta\u0142cenia Ustawicznego I Praktycznego w \u0141obzie",
                "name": "Centrum Kszta\u0142cenia Ustawicznego I Praktycznego w \u0141obzie",
                "addr:postcode": "73-150",
                "addr:city": "\u0141obez",
                "addr:street": "Armii Krajowej",
                "addr:housenumber": "25",
                "addr:city:simc": 979136,
                "addr:street:sym_ul": 432,
                "phone": "+48 913973190",
                "email": "uslugiedukacyjne@wp.pl",
                "website": "http:\/\/www.edukacja-lobez.pl",
                "ref:regon": "321299074",
                "operator": "Zygmunt Heland",
                "operator:type": "private",
                "fixme": "w zale\u017cno\u015bci od przedmiotu dzia\u0142alno\u015bci (np. amenity=training + training=*, amenity=dancing_school, amenity=language_school, amenity=music_school)"
            }
        },
        {
            "id": 61425,
            "type": "Feature",
            "geometry": {
                "type": "Point",
                "coordinates": [
                    15.52931,
                    53.69918
                ]
            },
            "properties": {
                "ref:rspo": 61425,
                "official_name": "Niepubliczny Punkt Przedszkolny w Karwowie",
                "name": "Niepubliczny Punkt Przedszkolny w Karwowie",
                "addr:postcode": "73-150",
                "addr:place": "Karwowo",
                "addr:housenumber": "22A",
                "addr:city:simc": 778509,
                "phone": "+48 733700994",
                "email": "karwowo@wp.pl",
                "website": "http:\/\/www.brak",
                "ref:regon": "321292971",
                "ref:vatin": "PL2530205739",
                "operator": "Stowarzyszenie Przyjaci\u00f3\u0142 Karwowa Gm.\u0142obez",
                "operator:type": "ngo",
                "amenity": "kindergarten"
            }
        },
        {
            "id": 60451,
            "type": "Feature",
            "geometry": {
                "type": "Point",
                "coordinates": [
                    15.59258,
                    53.71589
                ]
            },
            "properties": {
                "isced:level": "1;2",
                "ref:rspo": 60451,
                "official_name": "Publiczna Szko\u0142a Podstawowa w Be\u0142cznie",
                "name": "Publiczna Szko\u0142a Podstawowa w Be\u0142cznie",
                "addr:postcode": "73-150",
                "addr:place": "Be\u0142czna",
                "addr:housenumber": "28A",
                "addr:city:simc": 778403,
                "phone": "+48 913978105",
                "email": "pspbelczna@gmail.com",
                "website": "http:\/\/www.spbelczna.edupage.org",
                "ref:regon": "001222777",
                "ref:vatin": "PL8542073324",
                "operator": "Gmina \u0141obez",
                "operator:type": "government",
                "amenity": "school"
            }
        }
    ]
}