{
    "type": "FeatureCollection",
    "features": [
        {
            "id": 16747,
            "type": "Feature",
            "geometry": {
                "type": "Point",
                "coordinates": [
                    15.27099,
                    53.7003
                ]
            },
            "properties": {
                "ref:rspo": 16747,
                "official_name": "Przedszkole Niepubliczne \"Moje Ma\u0142e Przedszkole\"",
                "name": "Przedszkole Niepubliczne \"Moje Ma\u0142e Przedszkole\"",
                "addr:postcode": "72-315",
                "addr:place": "\u0141oso\u015bnica",
                "addr:housenumber": "23",
                "addr:teryt:simc": 782570,
                "phone": "+48 513610160",
                "email": "swissy@o2.pl",
                "ref:regon": "321276535",
                "operator": "Monika Cielica",
                "operator:type": "private",
                "amenity": "kindergarten"
            }
        },
        {
            "id": 122048,
            "type": "Feature",
            "geometry": {
                "type": "Point",
                "coordinates": [
                    15.27099,
                    53.700269999999996
                ]
            },
            "properties": {
                "isced:level": "1;2",
                "ref:rspo": 122048,
                "official_name": "Szko\u0142a Podstwowa \nIm. Mjr Henryka Sucharskiego\nSzko\u0142a Filialna\nW \u0141oso\u015bnicy",
                "name": "Szko\u0142a Podstwowa \nIm. Mjr Henryka Sucharskiego\nSzko\u0142a Filialna\nW \u0141oso\u015bnicy",
                "addr:postcode": "72-315",
                "addr:place": "\u0141oso\u015bnica",
                "addr:housenumber": "23",
                "addr:teryt:simc": 782570,
                "phone": "+48 913950129",
                "ref:regon": "580500000",
                "operator": "Gmina Resko",
                "operator:type": "government",
                "amenity": "school",
                "note": "Parent RSPO: 21187"
            }
        },
        {
            "id": 5691,
            "type": "Feature",
            "geometry": {
                "type": "Point",
                "coordinates": [
                    15.53347,
                    53.76083
                ]
            },
            "properties": {
                "isced:level": "1;2",
                "ref:rspo": 5691,
                "official_name": "Szko\u0142a Podstawowa im. Ireny Sendlerowej w Starogardzie",
                "name": "Szko\u0142a Podstawowa",
                "addr:postcode": "72-315",
                "addr:place": "Starogard",
                "addr:housenumber": "12",
                "addr:teryt:simc": 782793,
                "phone": "+48 913950023",
                "email": "sp_starogard@poczta.onet.pl",
                "website": "http:\/\/www.spstarogard.edupage.org",
                "ref:regon": "001222270",
                "ref:vatin": "PL8571380218",
                "operator": "Gmina Resko",
                "operator:type": "government",
                "amenity": "school"
            }
        },
        {
            "id": 121827,
            "type": "Feature",
            "geometry": {
                "type": "Point",
                "coordinates": [
                    15.53347,
                    53.760799999999996
                ]
            },
            "properties": {
                "ref:rspo": 121827,
                "official_name": "Punkt Przedszkolny w Szkole Podstawowej w Starogardzie",
                "name": "Punkt Przedszkolny w Szkole Podstawowej w Starogardzie",
                "addr:postcode": "72-315",
                "addr:place": "Starogard",
                "addr:housenumber": "12",
                "addr:teryt:simc": 782793,
                "phone": "+48 913950023",
                "email": "sp_starogard@poczta.onet.pl",
                "ref:regon": "321480655",
                "operator": "Gmina Resko",
                "operator:type": "government",
                "amenity": "kindergarten"
            }
        },
        {
            "id": 262601,
            "type": "Feature",
            "geometry": {
                "type": "Point",
                "coordinates": [
                    15.3993,
                    53.76967
                ]
            },
            "properties": {
                "ref:rspo": 262601,
                "official_name": "Zesp\u00f3\u0142 Szk\u00f3\u0142 w Resku",
                "name": "Zesp\u00f3\u0142 Szk\u00f3\u0142 w Resku",
                "addr:postcode": "72-315",
                "addr:city": "Resko",
                "addr:street": "Boles\u0142awa Prusa",
                "addr:housenumber": "2",
                "addr:teryt:simc": 979580,
                "addr:teryt:sym_ul": 17577,
                "phone": "+48 913951853",
                "email": "gimresko@wp.pl",
                "website": "http:\/\/www.zsresko.pl",
                "ref:regon": "368043151",
                "ref:vatin": "PL8571530942",
                "operator": "Gmina Resko",
                "operator:type": "government",
                "landuse": "education",
                "fixme": "amenity=school, amenity=college albo landuse=education w zale\u017cno\u015bci od tego, jakie plac\u00f3wki wchodz\u0105 w sk\u0142ad zespo\u0142u. Sprawd\u017a, kiedy stosowa\u0107 amenity=* a kiedy landuse=education.",
                "note": "Children RSPO: 21187;44193;109935"
            }
        },
        {
            "id": 21187,
            "type": "Feature",
            "geometry": {
                "type": "Point",
                "coordinates": [
                    15.3993,
                    53.769639999999995
                ]
            },
            "properties": {
                "isced:level": "1;2",
                "ref:rspo": 21187,
                "official_name": "Szko\u0142a Podstawowa im. Mjr Henryka Sucharskiego",
                "name": "Szko\u0142a Podstawowa",
                "addr:postcode": "72-315",
                "addr:city": "Resko",
                "addr:street": "Boles\u0142awa Prusa",
                "addr:housenumber": "2",
                "addr:teryt:simc": 979580,
                "addr:teryt:sym_ul": 17577,
                "phone": "+48 913951800",
                "email": "gimresko@wp.pl",
                "website": "http:\/\/www.spresko.szkolnastrona.pl",
                "ref:regon": "000580500",
                "ref:vatin": "PL8571380365",
                "operator": "Gmina Resko",
                "operator:type": "government",
                "amenity": "school",
                "note": "Children RSPO: 122048Parent RSPO: 262601"
            }
        },
        {
            "id": 44193,
            "type": "Feature",
            "geometry": {
                "type": "Point",
                "coordinates": [
                    15.39855,
                    53.77087
                ]
            },
            "properties": {
                "isced:level": "3",
                "ref:rspo": 44193,
                "official_name": "Liceum Og\u00f3lnokszta\u0142c\u0105ce im. Krzysztofa Kamila Baczy\u0144skiego",
                "name": "Liceum Og\u00f3lnokszta\u0142c\u0105ce",
                "addr:postcode": "72-315",
                "addr:city": "Resko",
                "addr:street": "Mariana Buczka",
                "addr:housenumber": "15",
                "addr:teryt:simc": 979580,
                "addr:teryt:sym_ul": 2316,
                "phone": "+48 913951204",
                "email": "loresko@op.pl",
                "website": "http:\/\/www.zsresko.republika.pl",
                "ref:regon": "812078203",
                "operator": "Gmina Resko",
                "operator:type": "government",
                "amenity": "school",
                "note": "Parent RSPO: 262601"
            }
        },
        {
            "id": 109935,
            "type": "Feature",
            "geometry": {
                "type": "Point",
                "coordinates": [
                    15.39855,
                    53.77084
                ]
            },
            "properties": {
                "isced:level": "3",
                "ref:rspo": 109935,
                "official_name": "Bran\u017cowa Szko\u0142a I Stopnia w Resku",
                "name": "Bran\u017cowa Szko\u0142a I Stopnia w Resku",
                "addr:postcode": "72-315",
                "addr:city": "Resko",
                "addr:street": "Mariana Buczka",
                "addr:housenumber": "15",
                "addr:teryt:simc": 979580,
                "addr:teryt:sym_ul": 2316,
                "phone": "+48 913951204",
                "email": "loresko@op.pl",
                "website": "http:\/\/www.zsresko.republika.pl",
                "ref:regon": "812078189",
                "operator": "Gmina Resko",
                "operator:type": "government",
                "amenity": "school",
                "note": "Parent RSPO: 262601"
            }
        },
        {
            "id": 132732,
            "type": "Feature",
            "geometry": {
                "type": "Point",
                "coordinates": [
                    15.40052,
                    53.77129
                ]
            },
            "properties": {
                "ref:rspo": 132732,
                "official_name": "Plac\u00f3wka Kszta\u0142cenia",
                "name": "Plac\u00f3wka Kszta\u0142cenia",
                "addr:postcode": "72-314",
                "addr:city": "Resko",
                "addr:street": "Aleja Wolno\u015bci",
                "addr:housenumber": "34",
                "addr:teryt:simc": 979580,
                "addr:teryt:sym_ul": 24682,
                "phone": "+48 693322406",
                "email": "szkoleniabhpmagomet@wp.pl",
                "website": "http:\/\/magomet.pl\/szkoleniabhp",
                "ref:regon": "366133855",
                "operator": "Us\u0142ugi Bhp I Ppo\u017c Katarzyna Jaworska",
                "operator:type": "consortium",
                "fixme": "w zale\u017cno\u015bci od przedmiotu dzia\u0142alno\u015bci (np. amenity=training + training=*, amenity=dancing_school, amenity=language_school, amenity=music_school)"
            }
        },
        {
            "id": 20891,
            "type": "Feature",
            "geometry": {
                "type": "Point",
                "coordinates": [
                    15.40996,
                    53.77335
                ]
            },
            "properties": {
                "ref:rspo": 20891,
                "official_name": "Przedszkole Miejskie im.kubusia Puchatka",
                "name": "Przedszkole Miejskie im.kubusia Puchatka",
                "addr:postcode": "72-315",
                "addr:city": "Resko",
                "addr:street": "1 Maja",
                "addr:housenumber": "6",
                "addr:teryt:simc": 979580,
                "addr:teryt:sym_ul": 11926,
                "phone": "+48 913951128",
                "email": "przedszkolak.resko@wp.pl",
                "website": "http:\/\/www.przedszkola.resko.eu",
                "ref:regon": "001004224",
                "ref:vatin": "PL8571380626",
                "operator": "Gmina Resko",
                "operator:type": "government",
                "amenity": "kindergarten"
            }
        }
    ]
}