{
    "type": "FeatureCollection",
    "features": [
        {
            "id": 5151,
            "type": "Feature",
            "geometry": {
                "type": "Point",
                "coordinates": [
                    18.5644199,
                    54.42892
                ]
            },
            "properties": {
                "ref:rspo": 5151,
                "official_name": "Oddk Sp\u00f3\u0142ka Z Ograniczon\u0105 Odpowiedzialno\u015bci\u0105 Sp.k. w Sopocie",
                "name": "Oddk Sp\u00f3\u0142ka Z Ograniczon\u0105 Odpowiedzialno\u015bci\u0105 Sp.k. w Sopocie",
                "addr:country": "PL",
                "addr:postcode": "81-855",
                "addr:city": "Sopot",
                "addr:street": "Rzemie\u015blnicza",
                "addr:housenumber": "7",
                "addr:teryt:simc": 19335,
                "addr:teryt:sym_ul": 934783,
                "contact:phone": "+48 585542917",
                "contact:email": "szkolenia@oddk.pl",
                "ref:regon": "221735029",
                "ref:vatin": "PL5840305419",
                "operator": "Oddk Sp\u00f3\u0142ka Z Ograniczon\u0105 Odpowiedzialno\u015bci\u0105 Sp\u00f3\u0142ka Komandytowa",
                "operator:type": "private",
                "fixme": "w zale\u017cno\u015bci od przedmiotu dzia\u0142alno\u015bci (np. amenity=training + training=*, amenity=dancing_school, amenity=language_school, amenity=music_school)"
            }
        },
        {
            "id": 264345,
            "type": "Feature",
            "geometry": {
                "type": "Point",
                "coordinates": [
                    18.5644199,
                    54.428889999999996
                ]
            },
            "properties": {
                "ref:rspo": 264345,
                "official_name": "Terapeutyczny Punkt Przedszkolny Dreamlab w Sopocie",
                "name": "Terapeutyczny Punkt Przedszkolny Dreamlab w Sopocie",
                "addr:country": "PL",
                "addr:postcode": "81-855",
                "addr:city": "Sopot",
                "addr:street": "Rzemie\u015blnicza",
                "addr:housenumber": "7",
                "addr:teryt:simc": 19335,
                "addr:teryt:sym_ul": 934783,
                "contact:phone": "+48 602576876",
                "contact:email": "grazyna.bejster@dreamlab.edu.pl",
                "ref:regon": "368316063",
                "operator": "Edventure Research Lab Sp\u00f3\u0142ka Z Ograniczon\u0105 Odpowiedzialno\u015bci\u0105",
                "operator:type": "private",
                "amenity": "kindergarten"
            }
        },
        {
            "id": 264348,
            "type": "Feature",
            "geometry": {
                "type": "Point",
                "coordinates": [
                    18.5644199,
                    54.42886
                ]
            },
            "properties": {
                "ref:rspo": 264348,
                "official_name": "Niepubliczna Poradnia Wspomagania Rozwoju Dreamlab w Sopocie",
                "name": "Niepubliczna Poradnia Wspomagania Rozwoju Dreamlab w Sopocie",
                "addr:country": "PL",
                "addr:postcode": "81-855",
                "addr:city": "Sopot",
                "addr:street": "Rzemie\u015blnicza",
                "addr:housenumber": "7",
                "addr:teryt:simc": 19335,
                "addr:teryt:sym_ul": 934783,
                "contact:phone": "+48 510061140",
                "contact:email": "grazyna.bejster@edventurelab.eu",
                "ref:regon": "368317329",
                "operator": "Edventure Research Lab Sp\u00f3\u0142ka Z Ograniczon\u0105 Odpowiedzialno\u015bci\u0105",
                "operator:type": "private",
                "healthcare": "counselling",
                "counselling_type": "education",
                "fixme": "w zale\u017cno\u015bci od przedmiotu dzia\u0142alno\u015bci (np. healthcare=counselling + counselling_type=education albo healthcare=psychotherapist)"
            }
        },
        {
            "id": 5515,
            "type": "Feature",
            "geometry": {
                "type": "Point",
                "coordinates": [
                    18.56334,
                    54.43055
                ]
            },
            "properties": {
                "isced:level": "1;2",
                "ref:rspo": 5515,
                "official_name": "Niepubliczna Szko\u0142a Podstawowa Lokomotywa w Sopocie",
                "name": "Niepubliczna Szko\u0142a Podstawowa Lokomotywa w Sopocie",
                "addr:country": "PL",
                "addr:postcode": "81-859",
                "addr:city": "Sopot",
                "addr:street": "Jana z Kolna",
                "addr:housenumber": "35",
                "addr:teryt:simc": 7134,
                "addr:teryt:sym_ul": 934783,
                "contact:phone": "+48 583422325",
                "contact:email": "sekretariat@lokomotywa.edu.pl",
                "contact:website": "http:\/\/www.lokomotywa.edu.pl",
                "ref:regon": "221730210",
                "ref:vatin": "PL5862242577",
                "operator": "Towarzystwo Edukacyjne Lokomotywa",
                "operator:type": "ngo",
                "amenity": "school"
            }
        },
        {
            "id": 8179,
            "type": "Feature",
            "geometry": {
                "type": "Point",
                "coordinates": [
                    18.56334,
                    54.430519999999994
                ]
            },
            "properties": {
                "ref:rspo": 8179,
                "official_name": "Zak\u0142ad Us\u0142ugowy 'Butowski'",
                "name": "Zak\u0142ad Us\u0142ugowy 'Butowski'",
                "addr:country": "PL",
                "addr:postcode": "81-859",
                "addr:city": "Sopot",
                "addr:street": "Jana z Kolna",
                "addr:housenumber": "35",
                "addr:teryt:simc": 7134,
                "addr:teryt:sym_ul": 934783,
                "contact:phone": "+48 503536686",
                "contact:email": "sappog@poczta.onet.pl",
                "contact:website": "http:\/\/bhpbutowski.pl",
                "ref:regon": "221735064",
                "ref:vatin": "PL9580047921",
                "operator": "Mariusz Butowski",
                "operator:type": "private",
                "fixme": "w zale\u017cno\u015bci od przedmiotu dzia\u0142alno\u015bci (np. amenity=training + training=*, amenity=dancing_school, amenity=language_school, amenity=music_school)"
            }
        },
        {
            "id": 12406,
            "type": "Feature",
            "geometry": {
                "type": "Point",
                "coordinates": [
                    18.56334,
                    54.43049
                ]
            },
            "properties": {
                "ref:rspo": 12406,
                "official_name": "Biuro Bhp 'Fast' Sc w Sopocie",
                "name": "Biuro Bhp 'Fast' Sc w Sopocie",
                "addr:country": "PL",
                "addr:postcode": "81-859",
                "addr:city": "Sopot",
                "addr:street": "Jana z Kolna",
                "addr:housenumber": "35",
                "addr:teryt:simc": 7134,
                "addr:teryt:sym_ul": 934783,
                "contact:phone": "+48 585516594",
                "contact:email": "bhp@server.pl",
                "ref:regon": "221739139",
                "ref:vatin": "PL5851204900",
                "operator": "Stanis\u0142aw Florczak",
                "operator:type": "private",
                "fixme": "w zale\u017cno\u015bci od przedmiotu dzia\u0142alno\u015bci (np. amenity=training + training=*, amenity=dancing_school, amenity=language_school, amenity=music_school)"
            }
        },
        {
            "id": 5380,
            "type": "Feature",
            "geometry": {
                "type": "Point",
                "coordinates": [
                    18.56948,
                    54.43378
                ]
            },
            "properties": {
                "ref:rspo": 5380,
                "official_name": "Przedszkole Nr 8 w Sopocie",
                "name": "Przedszkole Nr 8 w Sopocie",
                "addr:country": "PL",
                "addr:postcode": "81-746",
                "addr:city": "Sopot",
                "addr:street": "Jana z Kolna",
                "addr:housenumber": "3",
                "addr:teryt:simc": 7134,
                "addr:teryt:sym_ul": 934783,
                "contact:phone": "+48 585511470",
                "contact:email": "przedszkole8@sopot.pl",
                "ref:regon": "221162421",
                "ref:vatin": "PL5851072574",
                "operator": "Gmina Miasta Sopotu",
                "operator:type": "government",
                "amenity": "kindergarten"
            }
        },
        {
            "id": 5060,
            "type": "Feature",
            "geometry": {
                "type": "Point",
                "coordinates": [
                    18.56328,
                    54.43516
                ]
            },
            "properties": {
                "isced:level": "3",
                "ref:rspo": 5060,
                "official_name": "Sopocka Akademia Tenisowa Prywatne Liceum Og\u00f3lnokszta\u0142c\u0105ce",
                "name": "Sopocka Akademia Tenisowa Prywatne Liceum Og\u00f3lnokszta\u0142c\u0105ce",
                "addr:country": "PL",
                "addr:postcode": "81-850",
                "addr:city": "Sopot",
                "addr:street": "3 Maja",
                "addr:housenumber": "73",
                "addr:teryt:simc": 11937,
                "addr:teryt:sym_ul": 934783,
                "contact:phone": "+48 585502912",
                "contact:email": "akademia@akademiatenisowa.pl",
                "contact:website": "http:\/\/www.akademiatenisowa.pl",
                "ref:regon": "221728897",
                "ref:vatin": "PL5851040930",
                "operator": "Andrzej Szczepa\u0144ski",
                "operator:type": "private",
                "amenity": "school"
            }
        },
        {
            "id": 5174,
            "type": "Feature",
            "geometry": {
                "type": "Point",
                "coordinates": [
                    18.57002,
                    54.43526
                ]
            },
            "properties": {
                "ref:rspo": 5174,
                "official_name": "Poradnia Psychologiczno-Pedagogiczna w Sopocie",
                "name": "Poradnia Psychologiczno-Pedagogiczna w Sopocie",
                "addr:country": "PL",
                "addr:postcode": "81-742",
                "addr:city": "Sopot",
                "addr:street": "W\u0142adys\u0142awa IV",
                "addr:housenumber": "23\/25",
                "addr:teryt:simc": 24490,
                "addr:teryt:sym_ul": 934783,
                "contact:phone": "+48 585515133",
                "contact:email": "ppp@poradniasopot.pl",
                "ref:regon": "000957821",
                "ref:vatin": "PL5851228740",
                "operator": "Gmina Miasta Sopotu",
                "operator:type": "government",
                "healthcare": "counselling",
                "counselling_type": "education",
                "fixme": "w zale\u017cno\u015bci od przedmiotu dzia\u0142alno\u015bci (np. healthcare=counselling + counselling_type=education albo healthcare=psychotherapist)"
            }
        },
        {
            "id": 4700,
            "type": "Feature",
            "geometry": {
                "type": "Point",
                "coordinates": [
                    18.5621,
                    54.4353
                ]
            },
            "properties": {
                "ref:rspo": 4700,
                "official_name": "Sopocki Cech Rzemios\u0142 R\u00f3\u017cnych - O\u015brodek Dzia\u0142alno\u015bci Kursowej",
                "name": "Sopocki Cech Rzemios\u0142 R\u00f3\u017cnych - O\u015brodek Dzia\u0142alno\u015bci Kursowej",
                "addr:country": "PL",
                "addr:postcode": "81-858",
                "addr:city": "Sopot",
                "addr:street": "3 Maja",
                "addr:housenumber": "56",
                "addr:teryt:simc": 11937,
                "addr:teryt:sym_ul": 934783,
                "contact:phone": "+48 585512743",
                "contact:email": "biuro@cechsopot.pl",
                "ref:regon": "221726935",
                "ref:vatin": "PL5851011420",
                "operator": "Sopocki Cech Rzemios\u0142 R\u00f3\u017cnych",
                "operator:type": "cooperative",
                "fixme": "w zale\u017cno\u015bci od przedmiotu dzia\u0142alno\u015bci (np. amenity=training + training=*, amenity=dancing_school, amenity=language_school, amenity=music_school)"
            }
        },
        {
            "id": 4623,
            "type": "Feature",
            "geometry": {
                "type": "Point",
                "coordinates": [
                    18.5594,
                    54.43599
                ]
            },
            "properties": {
                "isced:level": "1;2",
                "ref:rspo": 4623,
                "official_name": "Szko\u0142a Podstawowa Z Oddzia\u0142ami Integracyjnymi Nr 1 im.armii Krajowej w Sopocie",
                "name": "Szko\u0142a Podstawowa Z Oddzia\u0142ami Integracyjnymi Nr 1 im.armii Krajowej w Sopocie",
                "addr:country": "PL",
                "addr:postcode": "81-843",
                "addr:city": "Sopot",
                "addr:street": "Armii Krajowej",
                "addr:housenumber": "50\/54",
                "addr:teryt:simc": 432,
                "addr:teryt:sym_ul": 934783,
                "contact:phone": "+48 585513824",
                "contact:email": "sekretariat@sp1sopot.eu",
                "contact:website": "http:\/\/www.sp1sopot.eu",
                "ref:regon": "190408587",
                "ref:vatin": "PL5851119206",
                "operator": "Gmina Miasta Sopotu",
                "operator:type": "government",
                "amenity": "school"
            }
        },
        {
            "id": 84893,
            "type": "Feature",
            "geometry": {
                "type": "Point",
                "coordinates": [
                    18.5594,
                    54.435959999999994
                ]
            },
            "properties": {
                "isced:level": "4",
                "ref:rspo": 84893,
                "official_name": "Policealna Szko\u0142a Fotografii Tr\u00f3jmiejska Szko\u0142a Fotografii w Sopocie",
                "name": "Policealna Szko\u0142a Fotografii Tr\u00f3jmiejska Szko\u0142a Fotografii w Sopocie",
                "addr:country": "PL",
                "addr:postcode": "81-843",
                "addr:city": "Sopot",
                "addr:street": "Armii Krajowej",
                "addr:housenumber": "50\/54",
                "addr:teryt:simc": 432,
                "addr:teryt:sym_ul": 934783,
                "contact:email": "biuro@tsf.edu.pl",
                "ref:regon": "221780001",
                "operator": "Rados\u0142aw Brzozowski",
                "operator:type": "private",
                "amenity": "college"
            }
        },
        {
            "id": 12388,
            "type": "Feature",
            "geometry": {
                "type": "Point",
                "coordinates": [
                    18.56688,
                    54.43638
                ]
            },
            "properties": {
                "ref:rspo": 12388,
                "official_name": "Niepubliczne Przedszkole Angloj\u0119zyczne w Sopocie",
                "name": "Niepubliczne Przedszkole Angloj\u0119zyczne w Sopocie",
                "addr:country": "PL",
                "addr:postcode": "81-703",
                "addr:city": "Sopot",
                "addr:street": "Marii Sk\u0142odowskiej-Curie",
                "addr:housenumber": "10\/12",
                "addr:teryt:simc": 20068,
                "addr:teryt:sym_ul": 934783,
                "contact:phone": "+48 585514141",
                "contact:email": "biuro@przedszkole-sopot.pl",
                "contact:website": "http:\/\/www.przedszkole-sopot.pl",
                "ref:regon": "221739116",
                "ref:vatin": "PL5841693547",
                "operator": "Anna \u0141ubi\u0144ska",
                "operator:type": "private",
                "amenity": "kindergarten"
            }
        },
        {
            "id": 5616,
            "type": "Feature",
            "geometry": {
                "type": "Point",
                "coordinates": [
                    18.55829,
                    54.43696
                ]
            },
            "properties": {
                "ref:rspo": 5616,
                "official_name": "Przedszkole Nr 1 w Sopocie",
                "name": "Przedszkole Nr 1 w Sopocie",
                "addr:country": "PL",
                "addr:postcode": "81-843",
                "addr:city": "Sopot",
                "addr:street": "Armii Krajowej",
                "addr:housenumber": "58",
                "addr:teryt:simc": 432,
                "addr:teryt:sym_ul": 934783,
                "contact:phone": "+48 585511443",
                "contact:email": "przedszkole1sopot@wp.pl",
                "contact:website": "http:\/\/www.p1sopot.szkolnastrona.pl",
                "ref:regon": "221162450",
                "ref:vatin": "PL5851072597",
                "operator": "Gmina Miasta Sopotu",
                "operator:type": "government",
                "amenity": "kindergarten"
            }
        },
        {
            "id": 269886,
            "type": "Feature",
            "geometry": {
                "type": "Point",
                "coordinates": [
                    18.56132,
                    54.43698
                ]
            },
            "properties": {
                "ref:rspo": 269886,
                "official_name": "\u201eCasa Mia\u201d Niepubliczne Przedszkole Montessori",
                "name": "\u201eCasa Mia\u201d Niepubliczne Przedszkole Montessori",
                "addr:country": "PL",
                "addr:postcode": "81-840",
                "addr:city": "Sopot",
                "addr:street": "Aleja Niepodleg\u0142o\u015bci",
                "addr:housenumber": "735",
                "addr:door": "1",
                "addr:teryt:simc": 30816,
                "addr:teryt:sym_ul": 934783,
                "contact:phone": "+48 660661177",
                "contact:email": "biuro@casamia-montessori.pl",
                "contact:website": "http:\/\/www.casamia-montessori.pl",
                "ref:regon": "381826093",
                "operator": "Ma\u0142gorzata Wici\u0144ska-Mo\u015b",
                "operator:type": "private",
                "amenity": "kindergarten"
            }
        },
        {
            "id": 5253,
            "type": "Feature",
            "geometry": {
                "type": "Point",
                "coordinates": [
                    18.56202,
                    54.43758
                ]
            },
            "properties": {
                "ref:rspo": 5253,
                "official_name": "Sopockie Szko\u0142y Autonomiczne",
                "name": "Sopockie Szko\u0142y Autonomiczne",
                "addr:country": "PL",
                "addr:postcode": "81-838",
                "addr:city": "Sopot",
                "addr:street": "Aleja Niepodleg\u0142o\u015bci",
                "addr:housenumber": "739a",
                "addr:teryt:simc": 14199,
                "addr:teryt:sym_ul": 934783,
                "contact:phone": "+48 585513749",
                "contact:email": "ssa.sekretariat@gfo.pl",
                "ref:regon": "221730138",
                "ref:vatin": "PL5851355295",
                "operator": "Gda\u0144ska Fundacja O\u015bwiatowa",
                "operator:type": "ngo",
                "landuse": "education",
                "fixme": "amenity=school, amenity=college albo landuse=education w zale\u017cno\u015bci od tego, jakie plac\u00f3wki wchodz\u0105 w sk\u0142ad zespo\u0142u. Sprawd\u017a, kiedy stosowa\u0107 amenity=* a kiedy landuse=education.",
                "note": "Children RSPO: 12126;12356"
            }
        },
        {
            "id": 12126,
            "type": "Feature",
            "geometry": {
                "type": "Point",
                "coordinates": [
                    18.56202,
                    54.437549999999995
                ]
            },
            "properties": {
                "isced:level": "3",
                "ref:rspo": 12126,
                "official_name": "Sopockie Autonomiczne Liceum",
                "name": "Sopockie Autonomiczne Liceum",
                "addr:country": "PL",
                "addr:postcode": "81-838",
                "addr:city": "Sopot",
                "addr:street": "Aleja Niepodleg\u0142o\u015bci",
                "addr:housenumber": "739a",
                "addr:teryt:simc": 30816,
                "addr:teryt:sym_ul": 934783,
                "contact:phone": "+48 585513749",
                "contact:email": "ssa.sekretariat@gfo.pl",
                "contact:website": "http:\/\/www.sal.gfo.pl",
                "ref:regon": "221744436",
                "operator": "Gda\u0144ska Fundacja O\u015bwiatowa",
                "operator:type": "ngo",
                "amenity": "school",
                "note": "Parent RSPO: 5253"
            }
        },
        {
            "id": 12356,
            "type": "Feature",
            "geometry": {
                "type": "Point",
                "coordinates": [
                    18.56202,
                    54.43752
                ]
            },
            "properties": {
                "isced:level": "1;2",
                "ref:rspo": 12356,
                "official_name": "Sopocka Autonomiczna Szko\u0142a Podstawowa",
                "name": "Sopocka Autonomiczna Szko\u0142a Podstawowa",
                "addr:country": "PL",
                "addr:postcode": "81-838",
                "addr:city": "Sopot",
                "addr:street": "Aleja Niepodleg\u0142o\u015bci",
                "addr:housenumber": "739a",
                "addr:teryt:simc": 30816,
                "addr:teryt:sym_ul": 934783,
                "contact:phone": "+48 585513749",
                "contact:email": "ssa.sekretariat@gfo.pl",
                "contact:website": "http:\/\/www.sasp.gfo.pl",
                "ref:regon": "221744442",
                "operator": "Gda\u0144ska Fundacja O\u015bwiatowa",
                "operator:type": "ngo",
                "amenity": "school",
                "note": "Parent RSPO: 5253"
            }
        },
        {
            "id": 133468,
            "type": "Feature",
            "geometry": {
                "type": "Point",
                "coordinates": [
                    18.56399,
                    54.43796
                ]
            },
            "properties": {
                "ref:rspo": 133468,
                "official_name": "Labelpoland.com Szkolenia Sp\u00f3\u0142ka Z Ograniczon\u0105 Odpowiedzialno\u015bci\u0105 w Sopocie",
                "name": "Labelpoland.com Szkolenia Sp\u00f3\u0142ka Z Ograniczon\u0105 Odpowiedzialno\u015bci\u0105 w Sopocie",
                "addr:country": "PL",
                "addr:postcode": "81-702",
                "addr:city": "Sopot",
                "addr:street": "Tadeusza Ko\u015bciuszki",
                "addr:housenumber": "44",
                "addr:door": "1",
                "addr:teryt:simc": 9582,
                "addr:teryt:sym_ul": 934783,
                "contact:phone": "+48 585245065",
                "contact:email": "biuro@szkolenia-graficzne.pl",
                "contact:website": "http:\/\/szkolenia-graficzne.pl",
                "ref:regon": "367342644",
                "operator": "Labelpoland.com Szkolenia Sp\u00f3\u0142ka Z Ograniczon\u0105 Odpowiedzialno\u015bci\u0105 Sp\u00f3\u0142ka Komandytowa",
                "operator:type": "private",
                "fixme": "w zale\u017cno\u015bci od przedmiotu dzia\u0142alno\u015bci (np. amenity=training + training=*, amenity=dancing_school, amenity=language_school, amenity=music_school)"
            }
        },
        {
            "id": 12459,
            "type": "Feature",
            "geometry": {
                "type": "Point",
                "coordinates": [
                    18.55694,
                    54.43871
                ]
            },
            "properties": {
                "ref:rspo": 12459,
                "official_name": "Eukids w Sopocie",
                "name": "Eukids w Sopocie",
                "addr:country": "PL",
                "addr:postcode": "81-844",
                "addr:city": "Sopot",
                "addr:street": "Armii Krajowej",
                "addr:housenumber": "73",
                "addr:teryt:simc": 432,
                "addr:teryt:sym_ul": 934783,
                "contact:phone": "+48 532792403",
                "contact:email": "info@eukids.pl",
                "ref:regon": "221739085",
                "operator": "\"International College\" Sp\u00f3\u0142ka Z Ograniczon\u0105 Odpowiedzialno\u015bci\u0105",
                "operator:type": "private",
                "amenity": "kindergarten"
            }
        },
        {
            "id": 12233,
            "type": "Feature",
            "geometry": {
                "type": "Point",
                "coordinates": [
                    18.5698599,
                    54.43879
                ]
            },
            "properties": {
                "isced:level": "3",
                "ref:rspo": 12233,
                "official_name": "I Liceum Og\u00f3lnokszta\u0142c\u0105ce Z Oddzia\u0142ami Mistrzostwa Sportowego im. Marii Sk\u0142odowskiej-Curie",
                "name": "I Liceum Og\u00f3lnokszta\u0142c\u0105ce Z Oddzia\u0142ami Mistrzostwa Sportowego",
                "addr:country": "PL",
                "addr:postcode": "81-749",
                "addr:city": "Sopot",
                "addr:street": "Ksi\u0105\u017c\u0105t Pomorskich",
                "addr:housenumber": "16\/18",
                "addr:teryt:simc": 10217,
                "addr:teryt:sym_ul": 934783,
                "contact:phone": "+48 585511493",
                "contact:email": "szkola@1losopot.pl",
                "ref:regon": "192926464",
                "operator": "Gmina Miasta Sopotu",
                "operator:type": "government",
                "amenity": "school"
            }
        },
        {
            "id": 5431,
            "type": "Feature",
            "geometry": {
                "type": "Point",
                "coordinates": [
                    18.56105,
                    54.43885
                ]
            },
            "properties": {
                "isced:level": "3",
                "ref:rspo": 5431,
                "official_name": "Ii Liceum Og\u00f3lnokszta\u0142c\u0105ce im. Boles\u0142awa Chrobrego w Sopocie",
                "name": "Ii Liceum Og\u00f3lnokszta\u0142c\u0105ce",
                "addr:country": "PL",
                "addr:postcode": "81-838",
                "addr:city": "Sopot",
                "addr:street": "Aleja Niepodleg\u0142o\u015bci",
                "addr:housenumber": "751",
                "addr:teryt:simc": 30816,
                "addr:teryt:sym_ul": 934783,
                "contact:phone": "+48 585511184",
                "contact:email": "lo2@sopot.pl",
                "contact:website": "http:\/\/www.lo2.sopot.pl",
                "ref:regon": "190408682",
                "ref:vatin": "PL5851119235",
                "operator": "Gmina Miasta Sopotu",
                "operator:type": "government",
                "amenity": "school"
            }
        },
        {
            "id": 6877,
            "type": "Feature",
            "geometry": {
                "type": "Point",
                "coordinates": [
                    18.56105,
                    54.43882
                ]
            },
            "properties": {
                "isced:level": "3",
                "ref:rspo": 6877,
                "official_name": "Liceum Og\u00f3lnokszta\u0142c\u0105ce Zaoczne w Sopocie",
                "name": "Liceum Og\u00f3lnokszta\u0142c\u0105ce Zaoczne w Sopocie",
                "addr:country": "PL",
                "addr:postcode": "81-838",
                "addr:city": "Sopot",
                "addr:street": "Aleja Niepodleg\u0142o\u015bci",
                "addr:housenumber": "751",
                "addr:teryt:simc": 30816,
                "addr:teryt:sym_ul": 934783,
                "contact:phone": "+48 585512626",
                "contact:email": "liceumzaoczne@op.pl",
                "ref:regon": "221737420",
                "ref:vatin": "PL5851384842",
                "operator": "Beata Kapela-Bagi\u0144ska",
                "operator:type": "private",
                "amenity": "school"
            }
        },
        {
            "id": 5423,
            "type": "Feature",
            "geometry": {
                "type": "Point",
                "coordinates": [
                    18.56648,
                    54.43934
                ]
            },
            "properties": {
                "ref:rspo": 5423,
                "official_name": "Przedszkole Nr 10 w Sopocie",
                "name": "Przedszkole Nr 10 w Sopocie",
                "addr:country": "PL",
                "addr:postcode": "81-704",
                "addr:city": "Sopot",
                "addr:street": "Tadeusza Ko\u015bciuszki",
                "addr:housenumber": "31",
                "addr:teryt:simc": 9582,
                "addr:teryt:sym_ul": 934783,
                "contact:phone": "+48 585511744",
                "contact:email": "przedszkole10@sopot.pl",
                "contact:website": "http:\/\/przedszkole10sopot.edupage.org",
                "ref:regon": "221162409",
                "ref:vatin": "PL5851072580",
                "operator": "Gmina Miasta Sopotu",
                "operator:type": "government",
                "amenity": "kindergarten"
            }
        },
        {
            "id": 5229,
            "type": "Feature",
            "geometry": {
                "type": "Point",
                "coordinates": [
                    18.57063,
                    54.43976
                ]
            },
            "properties": {
                "ref:rspo": 5229,
                "official_name": "Zesp\u00f3\u0142 Szk\u00f3\u0142 Specjalnych Nr 5 im. Marii Grzegorzewskiej w Sopocie",
                "name": "Zesp\u00f3\u0142 Szk\u00f3\u0142 Specjalnych Nr 5",
                "addr:country": "PL",
                "addr:postcode": "81-780",
                "addr:city": "Sopot",
                "addr:street": "Kazimierza Wielkiego",
                "addr:housenumber": "14",
                "addr:teryt:simc": 8265,
                "addr:teryt:sym_ul": 934783,
                "contact:phone": "+48 585511815",
                "contact:email": "zss5@sopot.pl",
                "ref:regon": "000212216",
                "ref:vatin": "PL5851228728",
                "operator": "Gmina Miasta Sopotu",
                "operator:type": "government",
                "landuse": "education",
                "fixme": "amenity=school, amenity=college albo landuse=education w zale\u017cno\u015bci od tego, jakie plac\u00f3wki wchodz\u0105 w sk\u0142ad zespo\u0142u. Sprawd\u017a, kiedy stosowa\u0107 amenity=* a kiedy landuse=education.",
                "note": "Children RSPO: 12520;12530;12561;12586"
            }
        },
        {
            "id": 12520,
            "type": "Feature",
            "geometry": {
                "type": "Point",
                "coordinates": [
                    18.57063,
                    54.43973
                ]
            },
            "properties": {
                "ref:rspo": 12520,
                "official_name": "Przedszkole Specjalne Nr 14 w Sopocie",
                "name": "Przedszkole Specjalne Nr 14 w Sopocie",
                "addr:country": "PL",
                "addr:postcode": "81-780",
                "addr:city": "Sopot",
                "addr:street": "Kazimierza Wielkiego",
                "addr:housenumber": "14",
                "addr:teryt:simc": 8265,
                "addr:teryt:sym_ul": 934783,
                "contact:phone": "+48 585511815",
                "contact:email": "zss5@sopot.pl",
                "ref:regon": "193078890",
                "operator": "Gmina Miasta Sopotu",
                "operator:type": "government",
                "amenity": "kindergarten",
                "note": "Parent RSPO: 5229"
            }
        },
        {
            "id": 12530,
            "type": "Feature",
            "geometry": {
                "type": "Point",
                "coordinates": [
                    18.57063,
                    54.4397
                ]
            },
            "properties": {
                "isced:level": "1;2",
                "ref:rspo": 12530,
                "official_name": "Szko\u0142a Podstawowa Specjalna Nr 5 w Sopocie",
                "name": "Szko\u0142a Podstawowa Specjalna Nr 5 w Sopocie",
                "addr:country": "PL",
                "addr:postcode": "81-780",
                "addr:city": "Sopot",
                "addr:street": "Kazimierza Wielkiego",
                "addr:housenumber": "14",
                "addr:teryt:simc": 8265,
                "addr:teryt:sym_ul": 934783,
                "contact:phone": "+48 585511815",
                "contact:email": "zss5@sopot.pl",
                "ref:regon": "192926091",
                "operator": "Gmina Miasta Sopotu",
                "operator:type": "government",
                "amenity": "school",
                "note": "Parent RSPO: 5229"
            }
        },
        {
            "id": 12561,
            "type": "Feature",
            "geometry": {
                "type": "Point",
                "coordinates": [
                    18.57063,
                    54.43967
                ]
            },
            "properties": {
                "isced:level": "3",
                "ref:rspo": 12561,
                "official_name": "Bran\u017cowa Szko\u0142a Specjalna I Stopnia Nr 2 w Sopocie",
                "name": "Bran\u017cowa Szko\u0142a Specjalna I Stopnia Nr 2 w Sopocie",
                "addr:country": "PL",
                "addr:postcode": "81-780",
                "addr:city": "Sopot",
                "addr:street": "Kazimierza Wielkiego",
                "addr:housenumber": "14",
                "addr:teryt:simc": 8265,
                "addr:teryt:sym_ul": 934783,
                "contact:phone": "+48 585511815",
                "contact:email": "zss5@sopot.pl",
                "ref:regon": "192926168",
                "operator": "Gmina Miasta Sopotu",
                "operator:type": "government",
                "amenity": "school",
                "note": "Parent RSPO: 5229"
            }
        },
        {
            "id": 12586,
            "type": "Feature",
            "geometry": {
                "type": "Point",
                "coordinates": [
                    18.57063,
                    54.43964
                ]
            },
            "properties": {
                "ref:rspo": 12586,
                "official_name": "Szko\u0142a Specjalna Przysposabiaj\u0105ca Do Pracy dla Uczni\u00f3w Z Niepe\u0142nosprawno\u015bci\u0105 Intelektualn\u0105 w Stopniu Umiarkowanym Lub Znacznym I Niepe\u0142nosprawno\u015bciami Sprz\u0119\u017conymi w Sopocie",
                "name": "Szko\u0142a Specjalna Przysposabiaj\u0105ca Do Pracy dla Uczni\u00f3w Z Niepe\u0142nosprawno\u015bci\u0105 Intelektualn\u0105 w Stopniu Umiarkowanym Lub Znacznym I Niepe\u0142nosprawno\u015bciami Sprz\u0119\u017conymi w Sopocie",
                "addr:country": "PL",
                "addr:postcode": "81-780",
                "addr:city": "Sopot",
                "addr:street": "Kazimierza Wielkiego",
                "addr:housenumber": "14",
                "addr:teryt:simc": 8265,
                "addr:teryt:sym_ul": 934783,
                "contact:phone": "+48 585511815",
                "contact:email": "zss5@sopot.pl",
                "ref:regon": "193079820",
                "operator": "Gmina Miasta Sopotu",
                "operator:type": "government",
                "amenity": "school",
                "note": "Parent RSPO: 5229"
            }
        },
        {
            "id": 5211,
            "type": "Feature",
            "geometry": {
                "type": "Point",
                "coordinates": [
                    18.56363,
                    54.44008
                ]
            },
            "properties": {
                "ref:rspo": 5211,
                "official_name": "Centrum Kszta\u0142cenia Ustawicznego im.bohater\u00f3w Wybrze\u017ca w Sopocie",
                "name": "Centrum Kszta\u0142cenia Ustawicznego im.bohater\u00f3w Wybrze\u017ca w Sopocie",
                "addr:country": "PL",
                "addr:postcode": "81-704",
                "addr:city": "Sopot",
                "addr:street": "Tadeusza Ko\u015bciuszki",
                "addr:housenumber": "22\/24",
                "addr:teryt:simc": 9582,
                "addr:teryt:sym_ul": 934783,
                "contact:phone": "+48 585510011",
                "contact:email": "zaoczny@ckusopot.pl",
                "ref:regon": "191896755",
                "ref:vatin": "PL5851221407",
                "operator": "Gmina Miasta Sopotu",
                "operator:type": "government",
                "amenity": "school",
                "fixme": "amenity=school lub amenity=college",
                "note": "Children RSPO: 12050;12063;132828"
            }
        },
        {
            "id": 12050,
            "type": "Feature",
            "geometry": {
                "type": "Point",
                "coordinates": [
                    18.56363,
                    54.44005
                ]
            },
            "properties": {
                "isced:level": "3",
                "ref:rspo": 12050,
                "official_name": "Iv Liceum Og\u00f3lnokszta\u0142c\u0105ce dla Doros\u0142ych",
                "name": "Iv Liceum Og\u00f3lnokszta\u0142c\u0105ce dla Doros\u0142ych",
                "addr:country": "PL",
                "addr:postcode": "81-704",
                "addr:city": "Sopot",
                "addr:street": "Tadeusza Ko\u015bciuszki",
                "addr:housenumber": "22\/24",
                "addr:teryt:simc": 9582,
                "addr:teryt:sym_ul": 934783,
                "contact:phone": "+48 585510011",
                "contact:email": "zaoczny@ckusopot.pl",
                "ref:regon": "192950698",
                "operator": "Gmina Miasta Sopotu",
                "operator:type": "government",
                "amenity": "school",
                "note": "Parent RSPO: 5211"
            }
        },
        {
            "id": 12063,
            "type": "Feature",
            "geometry": {
                "type": "Point",
                "coordinates": [
                    18.56363,
                    54.440020000000004
                ]
            },
            "properties": {
                "isced:level": "4",
                "ref:rspo": 12063,
                "official_name": "Szko\u0142a Policealna Nr 2 w Sopocie",
                "name": "Szko\u0142a Policealna Nr 2 w Sopocie",
                "addr:country": "PL",
                "addr:postcode": "81-704",
                "addr:city": "Sopot",
                "addr:street": "Tadeusza Ko\u015bciuszki",
                "addr:housenumber": "22\/24",
                "addr:teryt:simc": 9582,
                "addr:teryt:sym_ul": 934783,
                "contact:phone": "+48 585510011",
                "contact:email": "zaoczny@sopot.pl",
                "ref:regon": "192950422",
                "operator": "Gmina Miasta Sopotu",
                "operator:type": "government",
                "amenity": "college",
                "note": "Parent RSPO: 5211"
            }
        },
        {
            "id": 132828,
            "type": "Feature",
            "geometry": {
                "type": "Point",
                "coordinates": [
                    18.56363,
                    54.43999
                ]
            },
            "properties": {
                "ref:rspo": 132828,
                "official_name": "Sopocki O\u015brodek Doskonalenia Nauczycieli",
                "name": "Sopocki O\u015brodek Doskonalenia Nauczycieli",
                "addr:country": "PL",
                "addr:postcode": "81-704",
                "addr:city": "Sopot",
                "addr:street": "Tadeusza Ko\u015bciuszki",
                "addr:housenumber": "22\/24",
                "addr:teryt:simc": 9582,
                "addr:teryt:sym_ul": 934783,
                "contact:phone": "+48 585510011",
                "contact:email": "sodn@sodn.pl",
                "ref:regon": "192950764",
                "operator": "Gmina Miasta Sopotu",
                "operator:type": "government",
                "amenity": "training",
                "note": "Parent RSPO: 5211"
            }
        },
        {
            "id": 4893,
            "type": "Feature",
            "geometry": {
                "type": "Point",
                "coordinates": [
                    18.56071,
                    54.44034
                ]
            },
            "properties": {
                "ref:rspo": 4893,
                "official_name": "M\u0142odzie\u017cowy Dom Kultury w Sopocie",
                "name": "M\u0142odzie\u017cowy Dom Kultury w Sopocie",
                "addr:country": "PL",
                "addr:postcode": "81-838",
                "addr:city": "Sopot",
                "addr:street": "Aleja Niepodleg\u0142o\u015bci",
                "addr:housenumber": "763",
                "addr:teryt:simc": 30816,
                "addr:teryt:sym_ul": 934783,
                "contact:phone": "+48 585514131",
                "contact:email": "mdk@sopot.pl",
                "contact:website": "http:\/\/www.mdk.sopot.pl\/",
                "ref:regon": "190408742",
                "ref:vatin": "PL5851245709",
                "operator": "Gmina Miasta Sopotu",
                "operator:type": "government",
                "amenity": "community_centre",
                "community_centre:for": "juvenile"
            }
        },
        {
            "id": 5967,
            "type": "Feature",
            "geometry": {
                "type": "Point",
                "coordinates": [
                    18.55686378479,
                    54.443470001221
                ]
            },
            "properties": {
                "isced:level": "1;2",
                "ref:rspo": 5967,
                "official_name": "Szko\u0142a Podstawowa Z Oddzia\u0142ami Integracyjnymi Nr 8 im.jana Matejki",
                "name": "Szko\u0142a Podstawowa Z Oddzia\u0142ami Integracyjnymi Nr 8 im.jana Matejki",
                "addr:country": "PL",
                "addr:postcode": "81-743",
                "addr:city": "Sopot",
                "addr:street": "J\u00f3zefa Golca",
                "addr:housenumber": "3",
                "addr:teryt:simc": 53647,
                "addr:teryt:sym_ul": 934783,
                "contact:phone": "+48 585513537",
                "contact:email": "zielonaosemka@wp.pl",
                "contact:website": "http:\/\/www.sp8.sopot.pl",
                "ref:regon": "190408624",
                "operator": "Gmina Miasta Sopotu",
                "operator:type": "government",
                "amenity": "school"
            }
        },
        {
            "id": 5278,
            "type": "Feature",
            "geometry": {
                "type": "Point",
                "coordinates": [
                    18.559719085693,
                    54.443660736084
                ]
            },
            "properties": {
                "ref:rspo": 5278,
                "official_name": "Sp\u00f3\u0142dzielnia Os\u00f3b Prawnych \"Ineksplo\" w Sopocie",
                "name": "Sp\u00f3\u0142dzielnia Os\u00f3b Prawnych \"Ineksplo\" w Sopocie",
                "addr:country": "PL",
                "addr:postcode": "81-874",
                "addr:city": "Sopot",
                "addr:street": "Miko\u0142aja Reja",
                "addr:housenumber": "13\/15",
                "addr:teryt:simc": 18565,
                "addr:teryt:sym_ul": 934783,
                "contact:phone": "+48 585514546",
                "contact:email": "szkolenia@ineksplo.pl",
                "ref:regon": "221729856",
                "ref:vatin": "PL5850001069",
                "operator": "Sp\u00f3\u0142dzielnia Os\u00f3b Prawnych Ineksplo",
                "operator:type": "cooperative",
                "fixme": "w zale\u017cno\u015bci od przedmiotu dzia\u0142alno\u015bci (np. amenity=training + training=*, amenity=dancing_school, amenity=language_school, amenity=music_school)"
            }
        },
        {
            "id": 5644,
            "type": "Feature",
            "geometry": {
                "type": "Point",
                "coordinates": [
                    18.56149,
                    54.44462
                ]
            },
            "properties": {
                "ref:rspo": 5644,
                "official_name": "Przedszkole Niepubliczne Lokomotywa w Sopocie",
                "name": "Przedszkole Niepubliczne Lokomotywa w Sopocie",
                "addr:country": "PL",
                "addr:postcode": "81-706",
                "addr:city": "Sopot",
                "addr:street": "Obro\u0144c\u00f3w Westerplatte",
                "addr:housenumber": "17",
                "addr:teryt:simc": 14655,
                "addr:teryt:sym_ul": 934783,
                "contact:phone": "+48 583422325",
                "contact:email": "sekretariat@lokomotywa.edu.pl",
                "contact:website": "http:\/\/www.lokomotywa.edu.pl",
                "ref:regon": "221730316",
                "ref:vatin": "PL5862242577",
                "operator": "Towarzystwo Edukacyjne Lokomotywa",
                "operator:type": "ngo",
                "amenity": "kindergarten"
            }
        },
        {
            "id": 12599,
            "type": "Feature",
            "geometry": {
                "type": "Point",
                "coordinates": [
                    18.56223,
                    54.44546
                ]
            },
            "properties": {
                "ref:rspo": 12599,
                "official_name": "Sopocka Szko\u0142a Muzyczna I St.im.stanis\u0142awa Moniuszki w Sopocie",
                "name": "Sopocka Szko\u0142a Muzyczna I St.im.stanis\u0142awa Moniuszki w Sopocie",
                "addr:country": "PL",
                "addr:postcode": "81-706",
                "addr:city": "Sopot",
                "addr:street": "Obro\u0144c\u00f3w Westerplatte",
                "addr:housenumber": "18\/20",
                "addr:teryt:simc": 14655,
                "addr:teryt:sym_ul": 934783,
                "contact:phone": "+48 585512628",
                "contact:email": "ssm@sopockaszkolamuzyczna.pl",
                "ref:regon": "190408765",
                "ref:vatin": "PL5851120876",
                "operator": "Gmina Miasta Sopotu",
                "operator:type": "government",
                "amenity": "music_school"
            }
        },
        {
            "id": 5071,
            "type": "Feature",
            "geometry": {
                "type": "Point",
                "coordinates": [
                    18.56614,
                    54.44595
                ]
            },
            "properties": {
                "ref:rspo": 5071,
                "official_name": "Bursa Sportowa Fundacji \"Trefl\" w Sopocie",
                "name": "Bursa Sportowa Fundacji \"Trefl\" w Sopocie",
                "addr:country": "PL",
                "addr:postcode": "81-719",
                "addr:city": "Sopot",
                "addr:street": "Doktora Aleksandra Majkowskiego",
                "addr:housenumber": "11",
                "addr:teryt:simc": 11978,
                "addr:teryt:sym_ul": 934783,
                "contact:phone": "+48 585513221",
                "contact:email": "j.kociolek@sport.trefl.com",
                "ref:regon": "221730078",
                "ref:vatin": "PL5851406058",
                "operator": "Fundacja Rozwoju Edukacji \"Trefl\"",
                "operator:type": "ngo",
                "building": "dormitory"
            }
        },
        {
            "id": 275265,
            "type": "Feature",
            "geometry": {
                "type": "Point",
                "coordinates": [
                    18.54043,
                    54.44725
                ]
            },
            "properties": {
                "ref:rspo": 275265,
                "official_name": "Zesp\u00f3\u0142 Szk\u00f3\u0142 Specjalnych Nr 6 w Sopocie",
                "name": "Zesp\u00f3\u0142 Szk\u00f3\u0142 Specjalnych Nr 6 w Sopocie",
                "addr:country": "PL",
                "addr:postcode": "81-820",
                "addr:city": "Sopot",
                "addr:street": "23 Marca",
                "addr:housenumber": "93",
                "addr:teryt:simc": 12259,
                "addr:teryt:sym_ul": 934783,
                "contact:phone": "+48 585550623",
                "contact:email": "sp11@sopot.pl",
                "ref:regon": "386786837",
                "ref:vatin": "PL5851491615",
                "operator": "Gmina Miasta Sopotu",
                "operator:type": "government",
                "landuse": "education",
                "fixme": "amenity=school, amenity=college albo landuse=education w zale\u017cno\u015bci od tego, jakie plac\u00f3wki wchodz\u0105 w sk\u0142ad zespo\u0142u. Sprawd\u017a, kiedy stosowa\u0107 amenity=* a kiedy landuse=education.",
                "note": "Children RSPO: 11699;275264"
            }
        },
        {
            "id": 11699,
            "type": "Feature",
            "geometry": {
                "type": "Point",
                "coordinates": [
                    18.54043,
                    54.447219999999994
                ]
            },
            "properties": {
                "isced:level": "1;2",
                "ref:rspo": 11699,
                "official_name": "Szko\u0142a Podstawowa Specjalna Nr 11 w Sopocie",
                "name": "Szko\u0142a Podstawowa Specjalna Nr 11 w Sopocie",
                "addr:country": "PL",
                "addr:postcode": "81-820",
                "addr:city": "Sopot",
                "addr:street": "23 Marca",
                "addr:housenumber": "93",
                "addr:teryt:simc": 12259,
                "addr:teryt:sym_ul": 934783,
                "contact:phone": "+48 585550623",
                "contact:email": "sp11@sopot.pl",
                "ref:regon": "192926381",
                "operator": "Gmina Miasta Sopotu",
                "operator:type": "government",
                "amenity": "school",
                "note": "Parent RSPO: 275265"
            }
        },
        {
            "id": 275264,
            "type": "Feature",
            "geometry": {
                "type": "Point",
                "coordinates": [
                    18.54043,
                    54.44719
                ]
            },
            "properties": {
                "isced:level": "3",
                "ref:rspo": 275264,
                "official_name": "Vi Liceum Og\u00f3lnokszta\u0142c\u0105ce Specjalne",
                "name": "Vi Liceum Og\u00f3lnokszta\u0142c\u0105ce Specjalne",
                "addr:country": "PL",
                "addr:postcode": "81-820",
                "addr:city": "Sopot",
                "addr:street": "23 Marca",
                "addr:housenumber": "93",
                "addr:teryt:simc": 12259,
                "addr:teryt:sym_ul": 934783,
                "contact:phone": "+48 585550623",
                "contact:email": "sp11@sopot.pl",
                "ref:regon": "386786777",
                "operator": "Gmina Miasta Sopotu",
                "operator:type": "government",
                "amenity": "school",
                "note": "Parent RSPO: 275265"
            }
        },
        {
            "id": 20892,
            "type": "Feature",
            "geometry": {
                "type": "Point",
                "coordinates": [
                    18.56568,
                    54.44783
                ]
            },
            "properties": {
                "ref:rspo": 20892,
                "official_name": "Integracyjny Punkt Przedszkolny \"Tuptusie\" w Sopocie",
                "name": "Integracyjny Punkt Przedszkolny \"Tuptusie\" w Sopocie",
                "addr:country": "PL",
                "addr:postcode": "81-718",
                "addr:city": "Sopot",
                "addr:street": "Floriana Ceynowy",
                "addr:housenumber": "16",
                "addr:door": "1",
                "addr:teryt:simc": 2648,
                "addr:teryt:sym_ul": 934783,
                "contact:phone": "+48 691617617",
                "contact:email": "sekretariat@tuptusie.pl",
                "ref:regon": "221750158",
                "operator": "Ma\u0142gorzata Hebel",
                "operator:type": "private",
                "amenity": "kindergarten"
            }
        },
        {
            "id": 4680,
            "type": "Feature",
            "geometry": {
                "type": "Point",
                "coordinates": [
                    18.54173,
                    54.44841
                ]
            },
            "properties": {
                "ref:rspo": 4680,
                "official_name": "Przedszkole Nr 2 im.jana Brzechwy w Sopocie",
                "name": "Przedszkole Nr 2 im.jana Brzechwy w Sopocie",
                "addr:country": "PL",
                "addr:postcode": "81-820",
                "addr:city": "Sopot",
                "addr:street": "23 Marca",
                "addr:housenumber": "88\/90",
                "addr:teryt:simc": 12259,
                "addr:teryt:sym_ul": 934783,
                "contact:phone": "+48 585516731",
                "contact:email": "przedszkole2@sopot.pl",
                "ref:regon": "221161634",
                "ref:vatin": "PL5851072611",
                "operator": "Gmina Miasta Sopotu",
                "operator:type": "government",
                "amenity": "kindergarten"
            }
        },
        {
            "id": 12499,
            "type": "Feature",
            "geometry": {
                "type": "Point",
                "coordinates": [
                    18.56253,
                    54.44907
                ]
            },
            "properties": {
                "isced:level": "1;2",
                "ref:rspo": 12499,
                "official_name": "Szko\u0142a Podstawowa Z Oddzia\u0142ami Sportowymi Nr 7 im.tadeusza Ko\u015bciuszki",
                "name": "Szko\u0142a Podstawowa Z Oddzia\u0142ami Sportowymi Nr 7 im.tadeusza Ko\u015bciuszki",
                "addr:country": "PL",
                "addr:postcode": "81-715",
                "addr:city": "Sopot",
                "addr:street": "Jana Jerzego Haffnera",
                "addr:housenumber": "55",
                "addr:teryt:simc": 6450,
                "addr:teryt:sym_ul": 934783,
                "contact:phone": "+48 585510111",
                "contact:email": "sekretariat@sp7.sopot.pl",
                "contact:website": "http:\/\/www.sp7.sopot.pl",
                "ref:regon": "192942322",
                "operator": "Gmina Miasta Sopotu",
                "operator:type": "government",
                "amenity": "school"
            }
        },
        {
            "id": 31726,
            "type": "Feature",
            "geometry": {
                "type": "Point",
                "coordinates": [
                    18.56253,
                    54.44904
                ]
            },
            "properties": {
                "isced:level": "4",
                "ref:rspo": 31726,
                "official_name": "Policealna Sopocka Szko\u0142a Fotografii Wfh",
                "name": "Policealna Sopocka Szko\u0142a Fotografii Wfh",
                "addr:country": "PL",
                "addr:postcode": "81-715",
                "addr:city": "Sopot",
                "addr:street": "Jana Jerzego Haffnera",
                "addr:housenumber": "55",
                "addr:teryt:simc": 6450,
                "addr:teryt:sym_ul": 934783,
                "contact:phone": "+48 585511307",
                "ref:regon": "221760582",
                "operator": "Fundacja Edukacji Fotograficznej",
                "operator:type": "ngo",
                "amenity": "college"
            }
        },
        {
            "id": 5205,
            "type": "Feature",
            "geometry": {
                "type": "Point",
                "coordinates": [
                    18.55085,
                    54.44984
                ]
            },
            "properties": {
                "ref:rspo": 5205,
                "official_name": "Sopockie Przedszkole Niepubliczne",
                "name": "Sopockie Przedszkole Niepubliczne",
                "addr:country": "PL",
                "addr:postcode": "81-821",
                "addr:city": "Sopot",
                "addr:street": "Ksi\u0119\u017cycowa",
                "addr:housenumber": "3b",
                "addr:teryt:simc": 10268,
                "addr:teryt:sym_ul": 934783,
                "contact:phone": "+48 585500569",
                "contact:email": "przedszkole.ksiezycowa@wp.pl",
                "ref:regon": "221729891",
                "ref:vatin": "PL5861593731",
                "operator": "Agnieszka Arndt",
                "operator:type": "private",
                "amenity": "kindergarten"
            }
        },
        {
            "id": 88669,
            "type": "Feature",
            "geometry": {
                "type": "Point",
                "coordinates": [
                    18.55085,
                    54.44981
                ]
            },
            "properties": {
                "ref:rspo": 88669,
                "official_name": "Sopockie Ognisko Plastyczne w Sopocie",
                "name": "Sopockie Ognisko Plastyczne w Sopocie",
                "addr:country": "PL",
                "addr:postcode": "81-821",
                "addr:city": "Sopot",
                "addr:street": "Ksi\u0119\u017cycowa",
                "addr:housenumber": "3b",
                "addr:teryt:simc": 10268,
                "addr:teryt:sym_ul": 934783,
                "contact:phone": "+48 585514114",
                "contact:email": "sop@sopot.pl",
                "ref:regon": "190408759",
                "operator": "Gmina Miasta Sopotu",
                "operator:type": "government",
                "fixme": "w zale\u017cno\u015bci od przedmiotu dzia\u0142alno\u015bci (np. amenity=community_centre + community_centre:for=child;juvenile, amenity=training + training=*, amenity=dancing_school, amenity=music_school),"
            }
        },
        {
            "id": 5419,
            "type": "Feature",
            "geometry": {
                "type": "Point",
                "coordinates": [
                    18.56207,
                    54.45093
                ]
            },
            "properties": {
                "ref:rspo": 5419,
                "official_name": "Przedszkole Nr 5 w Sopocie",
                "name": "Przedszkole Nr 5 w Sopocie",
                "addr:country": "PL",
                "addr:postcode": "81-715",
                "addr:city": "Sopot",
                "addr:street": "Jana Jerzego Haffnera",
                "addr:housenumber": "72",
                "addr:teryt:simc": 6450,
                "addr:teryt:sym_ul": 934783,
                "contact:phone": "+48 585511612",
                "contact:email": "przedszkole5@sopot.pl",
                "contact:website": "http:\/\/przedszkolenr5sopot.pl",
                "ref:regon": "221162444",
                "ref:vatin": "PL5851072605",
                "operator": "Gmina Miasta Sopotu",
                "operator:type": "government",
                "amenity": "kindergarten"
            }
        },
        {
            "id": 6280,
            "type": "Feature",
            "geometry": {
                "type": "Point",
                "coordinates": [
                    18.55444,
                    54.45304
                ]
            },
            "properties": {
                "ref:rspo": 6280,
                "official_name": "Zesp\u00f3\u0142 Szk\u00f3\u0142 Technicznych w Sopocie",
                "name": "Zesp\u00f3\u0142 Szk\u00f3\u0142 Technicznych w Sopocie",
                "addr:country": "PL",
                "addr:postcode": "81-814",
                "addr:city": "Sopot",
                "addr:street": "Wejherowska",
                "addr:housenumber": "1",
                "addr:teryt:simc": 23842,
                "addr:teryt:sym_ul": 934783,
                "contact:phone": "+48 585511192",
                "contact:email": "sekretariat@zstsopot.pl",
                "contact:website": "http:\/\/zshsopot.edupage.org",
                "ref:regon": "190408713",
                "ref:vatin": "PL5851119258",
                "operator": "Gmina Miasta Sopotu",
                "operator:type": "government",
                "landuse": "education",
                "fixme": "amenity=school, amenity=college albo landuse=education w zale\u017cno\u015bci od tego, jakie plac\u00f3wki wchodz\u0105 w sk\u0142ad zespo\u0142u. Sprawd\u017a, kiedy stosowa\u0107 amenity=* a kiedy landuse=education.",
                "note": "Children RSPO: 11657;11663;11694"
            }
        },
        {
            "id": 11657,
            "type": "Feature",
            "geometry": {
                "type": "Point",
                "coordinates": [
                    18.55444,
                    54.45301
                ]
            },
            "properties": {
                "isced:level": "3",
                "ref:rspo": 11657,
                "official_name": "Technikum Nr 1 im.danuty Siedzik\u00f3wny \"Inki\" w Sopocie",
                "name": "Technikum Nr 1 im.danuty Siedzik\u00f3wny \"Inki\" w Sopocie",
                "addr:country": "PL",
                "addr:postcode": "81-814",
                "addr:city": "Sopot",
                "addr:street": "Wejherowska",
                "addr:housenumber": "1",
                "addr:teryt:simc": 23842,
                "addr:teryt:sym_ul": 934783,
                "contact:phone": "+48 585511192",
                "contact:email": "sekretariat@zstsopot.pl",
                "ref:regon": "192925016",
                "operator": "Gmina Miasta Sopotu",
                "operator:type": "government",
                "amenity": "school",
                "note": "Parent RSPO: 6280"
            }
        },
        {
            "id": 11663,
            "type": "Feature",
            "geometry": {
                "type": "Point",
                "coordinates": [
                    18.55444,
                    54.452980000000004
                ]
            },
            "properties": {
                "isced:level": "3",
                "ref:rspo": 11663,
                "official_name": "Bran\u017cowa Szko\u0142a I Stopnia Nr 1 im.danuty Siedzik\u00f3wny \"Inki\" w Sopocie",
                "name": "Bran\u017cowa Szko\u0142a I Stopnia Nr 1 im.danuty Siedzik\u00f3wny \"Inki\" w Sopocie",
                "addr:country": "PL",
                "addr:postcode": "81-814",
                "addr:city": "Sopot",
                "addr:street": "Wejherowska",
                "addr:housenumber": "1",
                "addr:teryt:simc": 23842,
                "addr:teryt:sym_ul": 934783,
                "contact:phone": "+48 585511192",
                "contact:email": "sekretariat@zstsopot.pl",
                "ref:regon": "192924979",
                "operator": "Gmina Miasta Sopotu",
                "operator:type": "government",
                "amenity": "school",
                "note": "Parent RSPO: 6280"
            }
        },
        {
            "id": 11694,
            "type": "Feature",
            "geometry": {
                "type": "Point",
                "coordinates": [
                    18.55444,
                    54.45295
                ]
            },
            "properties": {
                "isced:level": "4",
                "ref:rspo": 11694,
                "official_name": "Szko\u0142a Policealna Nr 1 w Sopocie",
                "name": "Szko\u0142a Policealna Nr 1 w Sopocie",
                "addr:country": "PL",
                "addr:postcode": "81-814",
                "addr:city": "Sopot",
                "addr:street": "Wejherowska",
                "addr:housenumber": "1",
                "addr:teryt:simc": 23842,
                "addr:teryt:sym_ul": 934783,
                "contact:phone": "+48 585511192",
                "contact:email": "sekretariat@zstsopot.pl",
                "ref:regon": "192924956",
                "operator": "Gmina Miasta Sopotu",
                "operator:type": "government",
                "amenity": "college",
                "note": "Parent RSPO: 6280"
            }
        },
        {
            "id": 124170,
            "type": "Feature",
            "geometry": {
                "type": "Point",
                "coordinates": [
                    18.54956,
                    54.45483
                ]
            },
            "properties": {
                "ref:rspo": 124170,
                "official_name": "Sopockie Przedszkole Niepubliczne \"Montessori\" w Sopocie",
                "name": "Sopockie Przedszkole Niepubliczne \"Montessori\" w Sopocie",
                "addr:country": "PL",
                "addr:postcode": "81-814",
                "addr:city": "Sopot",
                "addr:street": "Tatrza\u0144ska",
                "addr:housenumber": "19",
                "addr:teryt:simc": 22717,
                "addr:teryt:sym_ul": 934783,
                "contact:phone": "+48 515256107",
                "contact:email": "sopotmontessoripreschool@gmail.com",
                "contact:website": "http:\/\/montessori.sopot.pl",
                "ref:regon": "222144744",
                "operator": "Joanna Ustowska",
                "operator:type": "private",
                "amenity": "kindergarten"
            }
        },
        {
            "id": 124172,
            "type": "Feature",
            "geometry": {
                "type": "Point",
                "coordinates": [
                    18.54956,
                    54.4548
                ]
            },
            "properties": {
                "isced:level": "1;2",
                "ref:rspo": 124172,
                "official_name": "Niepubliczna Szko\u0142a Podstawowa \"Sopocka Szko\u0142a Montessori\" w Sopocie",
                "name": "Niepubliczna Szko\u0142a Podstawowa \"Sopocka Szko\u0142a Montessori\" w Sopocie",
                "addr:country": "PL",
                "addr:postcode": "81-814",
                "addr:city": "Sopot",
                "addr:street": "Tatrza\u0144ska",
                "addr:housenumber": "19",
                "addr:teryt:simc": 22717,
                "addr:teryt:sym_ul": 934783,
                "contact:phone": "+48 515256107",
                "contact:email": "sopotmontessorischool@gmail.com",
                "contact:website": "http:\/\/sopotmontessori.com",
                "ref:regon": "222144750",
                "operator": "Fundacja \"Szko\u0142a Montessori\"",
                "operator:type": "ngo",
                "amenity": "school"
            }
        },
        {
            "id": 124115,
            "type": "Feature",
            "geometry": {
                "type": "Point",
                "coordinates": [
                    18.5521299,
                    54.45532
                ]
            },
            "properties": {
                "ref:rspo": 124115,
                "official_name": "Przedszkole Montessori \u201eNasz Wsp\u00f3lny \u015awiat\u201d",
                "name": "Przedszkole Montessori \u201eNasz Wsp\u00f3lny \u015awiat\u201d",
                "addr:country": "PL",
                "addr:postcode": "81-812",
                "addr:city": "Sopot",
                "addr:street": "Obodrzyc\u00f3w",
                "addr:housenumber": "3",
                "addr:teryt:simc": 14591,
                "addr:teryt:sym_ul": 934783,
                "contact:phone": "+48 608650772",
                "contact:email": "bjaks@poczta.fm",
                "ref:regon": "222142863",
                "operator": "Barbara Jaks-Pietrucha",
                "operator:type": "private",
                "amenity": "kindergarten"
            }
        },
        {
            "id": 265811,
            "type": "Feature",
            "geometry": {
                "type": "Point",
                "coordinates": [
                    18.5521299,
                    54.45529
                ]
            },
            "properties": {
                "isced:level": "1;2",
                "ref:rspo": 265811,
                "official_name": "Niepubliczna Szko\u0142a Podstawowa Montessori Latawiec",
                "name": "Niepubliczna Szko\u0142a Podstawowa Montessori Latawiec",
                "addr:country": "PL",
                "addr:postcode": "81-812",
                "addr:city": "Sopot",
                "addr:street": "Obodrzyc\u00f3w",
                "addr:housenumber": "3",
                "addr:teryt:simc": 14591,
                "addr:teryt:sym_ul": 934783,
                "contact:phone": "+48 537007345",
                "contact:email": "kontakt@latawiecmontessori.com",
                "contact:website": "http:\/\/www.latawiecmontessori.com",
                "ref:regon": "368925891",
                "operator": "Krystyna Kolwas",
                "operator:type": "private",
                "amenity": "school"
            }
        },
        {
            "id": 73120,
            "type": "Feature",
            "geometry": {
                "type": "Point",
                "coordinates": [
                    18.54967,
                    54.45608
                ]
            },
            "properties": {
                "ref:rspo": 73120,
                "official_name": "Przedszkole Nr 4 \"Nad Potokiem\" w Sopocie",
                "name": "Przedszkole Nr 4 \"Nad Potokiem\" w Sopocie",
                "addr:country": "PL",
                "addr:postcode": "81-812",
                "addr:city": "Sopot",
                "addr:street": "Obodrzyc\u00f3w",
                "addr:housenumber": "20",
                "addr:teryt:simc": 14591,
                "addr:teryt:sym_ul": 934783,
                "contact:phone": "+48 585514028",
                "contact:email": "przedzkole4@sopot.pl",
                "ref:regon": "221161640",
                "ref:vatin": "PL5851072539",
                "operator": "Gmina Miasta Sopotu",
                "operator:type": "government",
                "amenity": "kindergarten"
            }
        },
        {
            "id": 5007,
            "type": "Feature",
            "geometry": {
                "type": "Point",
                "coordinates": [
                    18.5324,
                    54.45691
                ]
            },
            "properties": {
                "ref:rspo": 5007,
                "official_name": "Kora Centrum Szkole\u0144 Niepubliczna Plac\u00f3wka Kszta\u0142cenia Ustawicznego w Sopocie",
                "name": "Kora Centrum Szkole\u0144 Niepubliczna Plac\u00f3wka Kszta\u0142cenia Ustawicznego w Sopocie",
                "addr:country": "PL",
                "addr:postcode": "81-881",
                "addr:city": "Sopot",
                "addr:street": "Oskara Kolberga",
                "addr:housenumber": "15",
                "addr:teryt:simc": 8812,
                "addr:teryt:sym_ul": 934783,
                "contact:phone": "+48 585519896",
                "contact:email": "kora@kora.pl",
                "contact:website": "http:\/\/www.sopockie.edu.pl",
                "ref:regon": "221728673",
                "ref:vatin": "PL5841110190",
                "operator": "Marek Wojda",
                "operator:type": "private",
                "fixme": "w zale\u017cno\u015bci od przedmiotu dzia\u0142alno\u015bci (np. amenity=training + training=*, amenity=dancing_school, amenity=language_school, amenity=music_school)"
            }
        },
        {
            "id": 5084,
            "type": "Feature",
            "geometry": {
                "type": "Point",
                "coordinates": [
                    18.5324,
                    54.45688
                ]
            },
            "properties": {
                "isced:level": "1;2",
                "ref:rspo": 5084,
                "official_name": "Szko\u0142a Podstawowa Z Oddzia\u0142ami Integracyjnymi Nr 9 Im Gen.w\u0142adys\u0142awa Sikorskiego w Sopocie",
                "name": "Szko\u0142a Podstawowa Z Oddzia\u0142ami Integracyjnymi Nr 9 Im Gen.w\u0142adys\u0142awa Sikorskiego w Sopocie",
                "addr:country": "PL",
                "addr:postcode": "81-881",
                "addr:city": "Sopot",
                "addr:street": "Oskara Kolberga",
                "addr:housenumber": "15",
                "addr:teryt:simc": 8812,
                "addr:teryt:sym_ul": 934783,
                "contact:phone": "+48 585519096",
                "contact:email": "sp9@sp9.edu.pl",
                "contact:website": "http:\/\/www.sp9.edu.pl",
                "ref:regon": "191411120",
                "ref:vatin": "PL5851318294",
                "operator": "Gmina Miasta Sopotu",
                "operator:type": "government",
                "amenity": "school"
            }
        },
        {
            "id": 5519,
            "type": "Feature",
            "geometry": {
                "type": "Point",
                "coordinates": [
                    18.5324,
                    54.45685
                ]
            },
            "properties": {
                "isced:level": "3",
                "ref:rspo": 5519,
                "official_name": "Iii Liceum Og\u00f3lnokszta\u0142c\u0105ce im. Agnieszki Osieckiej w Sopocie",
                "name": "Iii Liceum Og\u00f3lnokszta\u0142c\u0105ce",
                "addr:country": "PL",
                "addr:postcode": "81-881",
                "addr:city": "Sopot",
                "addr:street": "Oskara Kolberga",
                "addr:housenumber": "15",
                "addr:teryt:simc": 8812,
                "addr:teryt:sym_ul": 934783,
                "contact:phone": "+48 585506981",
                "contact:email": "sekretariat@3lo.sopot.pl",
                "ref:regon": "191411114",
                "ref:vatin": "PL5851318288",
                "operator": "Gmina Miasta Sopotu",
                "operator:type": "government",
                "amenity": "school"
            }
        },
        {
            "id": 272515,
            "type": "Feature",
            "geometry": {
                "type": "Point",
                "coordinates": [
                    18.54448,
                    54.45697
                ]
            },
            "properties": {
                "ref:rspo": 272515,
                "official_name": "Niepubliczna Szko\u0142a Muzyczna I Stopnia Las Academy w Sopocie",
                "name": "Niepubliczna Szko\u0142a Muzyczna I Stopnia Las Academy w Sopocie",
                "addr:country": "PL",
                "addr:postcode": "81-862",
                "addr:city": "Sopot",
                "addr:street": "Kujawska",
                "addr:housenumber": "50-52",
                "addr:teryt:simc": 10344,
                "addr:teryt:sym_ul": 934783,
                "contact:phone": "+48 583513567",
                "contact:email": "sekretariat@lasacademy.pl",
                "ref:regon": "384279600",
                "operator": "Wilandt Institute",
                "operator:type": "ngo",
                "amenity": "music_school"
            }
        },
        {
            "id": 272546,
            "type": "Feature",
            "geometry": {
                "type": "Point",
                "coordinates": [
                    18.54448,
                    54.456939999999996
                ]
            },
            "properties": {
                "isced:level": "1;2",
                "ref:rspo": 272546,
                "official_name": "Niepubliczna Szko\u0142a Podstawowa \u201eLas Academy\u201d",
                "name": "Niepubliczna Szko\u0142a Podstawowa \u201eLas Academy\u201d",
                "addr:country": "PL",
                "addr:postcode": "81-862",
                "addr:city": "Sopot",
                "addr:street": "Kujawska",
                "addr:housenumber": "50-52",
                "addr:teryt:simc": 10344,
                "addr:teryt:sym_ul": 934783,
                "contact:phone": "+48 583513567",
                "contact:email": "contact@wilandtinstitute.pl",
                "ref:regon": "384279668",
                "operator": "Wilandt Institute",
                "operator:type": "ngo",
                "amenity": "school"
            }
        },
        {
            "id": 272957,
            "type": "Feature",
            "geometry": {
                "type": "Point",
                "coordinates": [
                    18.54448,
                    54.45691
                ]
            },
            "properties": {
                "isced:level": "1;2",
                "ref:rspo": 272957,
                "official_name": "Niepubliczna Og\u00f3lnokszta\u0142c\u0105ca Szko\u0142a Muzyczna I Stopnia Las Academy w Sopocie",
                "name": "Niepubliczna Og\u00f3lnokszta\u0142c\u0105ca Szko\u0142a Muzyczna I Stopnia Las Academy w Sopocie",
                "addr:country": "PL",
                "addr:postcode": "81-862",
                "addr:city": "Sopot",
                "addr:street": "Kujawska",
                "addr:housenumber": "50\/52",
                "addr:teryt:simc": 10344,
                "addr:teryt:sym_ul": 934783,
                "contact:phone": "+48 583513567",
                "contact:email": "sekretariat@lasacademy.pl",
                "ref:regon": "384346293",
                "operator": "Wilandt Institute",
                "operator:type": "ngo",
                "amenity": "school"
            }
        },
        {
            "id": 276226,
            "type": "Feature",
            "geometry": {
                "type": "Point",
                "coordinates": [
                    18.54448,
                    54.45688
                ]
            },
            "properties": {
                "ref:rspo": 276226,
                "official_name": "Niepubliczna Szko\u0142a Muzyczna II Stopnia Las Academy w Sopocie",
                "name": "Niepubliczna Szko\u0142a Muzyczna II Stopnia Las Academy w Sopocie",
                "addr:country": "PL",
                "addr:postcode": "81-862",
                "addr:city": "Sopot",
                "addr:street": "Kujawska",
                "addr:housenumber": "50-52",
                "addr:teryt:simc": 10344,
                "addr:teryt:sym_ul": 934783,
                "contact:email": "sekretariat@lasacademy.pl",
                "contact:website": "http:\/\/www.szkolylasacademy.pl",
                "ref:regon": "387038592",
                "operator": "Wilandt Institute",
                "operator:type": "ngo",
                "amenity": "music_school"
            }
        },
        {
            "id": 4847,
            "type": "Feature",
            "geometry": {
                "type": "Point",
                "coordinates": [
                    18.53832,
                    54.45754
                ]
            },
            "properties": {
                "ref:rspo": 4847,
                "official_name": "Przedszkole Z Oddzia\u0142ami Integracyjnymi Nr 12 w Sopocie",
                "name": "Przedszkole Z Oddzia\u0142ami Integracyjnymi Nr 12 w Sopocie",
                "addr:country": "PL",
                "addr:postcode": "81-881",
                "addr:city": "Sopot",
                "addr:street": "Oskara Kolberga",
                "addr:housenumber": "8",
                "addr:teryt:simc": 8812,
                "addr:teryt:sym_ul": 934783,
                "contact:phone": "+48 585519097",
                "contact:email": "przedszkole12@sopot.pl",
                "contact:website": "http:\/\/www.przedszkole12.sopot.pl",
                "ref:regon": "221161657",
                "ref:vatin": "PL5851072545",
                "operator": "Gmina Miasta Sopotu",
                "operator:type": "government",
                "amenity": "kindergarten"
            }
        }
    ]
}