{
    "type": "FeatureCollection",
    "features": [
        {
            "id": 262444,
            "type": "Feature",
            "geometry": {
                "type": "Point",
                "coordinates": [
                    19.28594,
                    51.95524
                ]
            },
            "properties": {
                "isced:level": "1;2",
                "ref:rspo": 262444,
                "official_name": "Szko\u0142a Podstawowa Nr 2 im. \u015aw. Jana Paw\u0142a II Z Oddzia\u0142ami Integracyjnymi w Ozorkowie",
                "name": "Szko\u0142a Podstawowa Nr 2",
                "addr:country": "PL",
                "addr:postcode": "95-035",
                "addr:city": "Ozork\u00f3w",
                "addr:street": "Lotnicza",
                "addr:housenumber": "1",
                "addr:teryt:simc": 958967,
                "addr:teryt:sym_ul": 11270,
                "contact:phone": "+48 427103153",
                "contact:email": "sekretariat@sp2ozorkow.pl",
                "contact:website": "http:\/\/www.sp2ozorkow.pl",
                "ref:regon": "368011926",
                "operator": "Miasto Ozork\u00f3w",
                "operator:type": "government",
                "amenity": "school"
            }
        },
        {
            "id": 263829,
            "type": "Feature",
            "geometry": {
                "type": "Point",
                "coordinates": [
                    19.28594,
                    51.95521
                ]
            },
            "properties": {
                "ref:rspo": 263829,
                "official_name": "Niepubliczna Szko\u0142a Muzyczna I St. im. Fryderyka Chopina w Ozorkowie",
                "name": "Niepubliczna Szko\u0142a Muzyczna I St.",
                "addr:country": "PL",
                "addr:postcode": "95-035",
                "addr:city": "Ozork\u00f3w",
                "addr:street": "Lotnicza",
                "addr:housenumber": "1",
                "addr:teryt:simc": 958967,
                "addr:teryt:sym_ul": 11270,
                "contact:email": "muzycznaozorkow@gmail.com",
                "ref:regon": "368228784",
                "operator": "Dariusz Igielski",
                "operator:type": "private",
                "amenity": "music_school"
            }
        },
        {
            "id": 89572,
            "type": "Feature",
            "geometry": {
                "type": "Point",
                "coordinates": [
                    19.28426,
                    51.95525
                ]
            },
            "properties": {
                "ref:rspo": 89572,
                "official_name": "Przedszkole Miejskie Nr 4",
                "name": "Przedszkole Miejskie Nr 4",
                "addr:country": "PL",
                "addr:postcode": "95-035",
                "addr:city": "Ozork\u00f3w",
                "addr:street": "Lotnicza",
                "addr:housenumber": "3",
                "addr:teryt:simc": 958967,
                "addr:teryt:sym_ul": 11270,
                "contact:phone": "+48 427103175",
                "contact:email": "mp4ozorkow@wikom.pl",
                "contact:website": "http:\/\/www.pm4ozorkow.wikom.pl\/",
                "ref:regon": "470008635",
                "ref:vatin": "PL7321998253",
                "operator": "Miasto Ozork\u00f3w",
                "operator:type": "government",
                "amenity": "kindergarten"
            }
        },
        {
            "id": 89577,
            "type": "Feature",
            "geometry": {
                "type": "Point",
                "coordinates": [
                    19.28104,
                    51.95552
                ]
            },
            "properties": {
                "ref:rspo": 89577,
                "official_name": "Klub dla Dzieci \"Dzieciniec\" Renata Pacholska",
                "name": "Klub dla Dzieci \"Dzieciniec\" Renata Pacholska",
                "addr:country": "PL",
                "addr:postcode": "95-035",
                "addr:city": "Ozork\u00f3w",
                "addr:street": "Ksi\u0119dza Stanis\u0142awa Staszica",
                "addr:housenumber": "28a",
                "addr:teryt:simc": 958967,
                "addr:teryt:sym_ul": 21068,
                "contact:phone": "+48 427180461",
                "contact:email": "klub.dzieciniec@o2.pl",
                "contact:website": "http:\/\/www.klub-dzieciniec.pl",
                "ref:regon": "101503639",
                "ref:vatin": "PL7321831151",
                "operator": "Dane Do Uzupe\u0142nienia",
                "operator:type": "private",
                "amenity": "kindergarten"
            }
        },
        {
            "id": 89571,
            "type": "Feature",
            "geometry": {
                "type": "Point",
                "coordinates": [
                    19.30255,
                    51.95742
                ]
            },
            "properties": {
                "ref:rspo": 89571,
                "official_name": "Przedszkole Miejskie Nr 3",
                "name": "Przedszkole Miejskie Nr 3",
                "addr:country": "PL",
                "addr:postcode": "95-035",
                "addr:city": "Ozork\u00f3w",
                "addr:street": "Zgierska",
                "addr:housenumber": "15a",
                "addr:teryt:simc": 958967,
                "addr:teryt:sym_ul": 26018,
                "contact:phone": "+48 427013178",
                "contact:email": "m.rajska@montessorek.pl",
                "contact:website": "http:\/\/www.montessorek.pl",
                "ref:regon": "470008629",
                "ref:vatin": "PL7321984423",
                "operator": "Miasto Ozork\u00f3w",
                "operator:type": "government",
                "amenity": "kindergarten"
            }
        },
        {
            "id": 89573,
            "type": "Feature",
            "geometry": {
                "type": "Point",
                "coordinates": [
                    19.2853299,
                    51.95841
                ]
            },
            "properties": {
                "ref:rspo": 89573,
                "official_name": "Przedszkole Miejskie Nr 5",
                "name": "Przedszkole Miejskie Nr 5",
                "addr:country": "PL",
                "addr:postcode": "95-035",
                "addr:city": "Ozork\u00f3w",
                "addr:street": "Obro\u0144c\u00f3w Westerplatte",
                "addr:housenumber": "1a",
                "addr:teryt:simc": 958967,
                "addr:teryt:sym_ul": 14655,
                "contact:phone": "+48 427103179",
                "contact:email": "wesola_piatka@op.pl",
                "contact:website": "http:\/\/www.pm5ozorkow.wikom.pl\/",
                "ref:regon": "470618575",
                "ref:vatin": "PL7321998276",
                "operator": "Miasto Ozork\u00f3w",
                "operator:type": "government",
                "amenity": "kindergarten"
            }
        },
        {
            "id": 89574,
            "type": "Feature",
            "geometry": {
                "type": "Point",
                "coordinates": [
                    19.30632,
                    51.95899
                ]
            },
            "properties": {
                "isced:level": "1;2",
                "ref:rspo": 89574,
                "official_name": "Szko\u0142a Podstawowa Nr 4 Z Oddzia\u0142ami Integracyjnymi Imienia Tadeusza Ko\u015bciuszki",
                "name": "Szko\u0142a Podstawowa Nr 4 Z Oddzia\u0142ami Integracyjnymi Imienia Tadeusza Ko\u015bciuszki",
                "addr:country": "PL",
                "addr:postcode": "95-035",
                "addr:city": "Ozork\u00f3w",
                "addr:street": "\u015arednia",
                "addr:housenumber": "30",
                "addr:teryt:simc": 958967,
                "addr:teryt:sym_ul": 22409,
                "contact:phone": "+48 427103180",
                "contact:email": "sp4ozorkow@interia.pl",
                "contact:website": "http:\/\/sp4ozorkow.pl\/new\/",
                "ref:regon": "000270461",
                "ref:vatin": "PL7321100192",
                "operator": "Miasto Ozork\u00f3w",
                "operator:type": "government",
                "amenity": "school"
            }
        },
        {
            "id": 87762,
            "type": "Feature",
            "geometry": {
                "type": "Point",
                "coordinates": [
                    19.30024,
                    51.95914
                ]
            },
            "properties": {
                "ref:rspo": 87762,
                "official_name": "Przedszkole Miejskie Nr 1",
                "name": "Przedszkole Miejskie Nr 1",
                "addr:country": "PL",
                "addr:postcode": "95-035",
                "addr:city": "Ozork\u00f3w",
                "addr:street": "Pilota Stanis\u0142awa Wigury",
                "addr:housenumber": "7a",
                "addr:teryt:simc": 958967,
                "addr:teryt:sym_ul": 24242,
                "contact:phone": "+48 427103176",
                "contact:email": "mp1ozorkow@wikom.pl",
                "contact:website": "http:\/\/www.wikom.pl\/mp1ozorkow\/",
                "ref:regon": "470008606",
                "ref:vatin": "PL7321998282",
                "operator": "Miasto Ozork\u00f3w",
                "operator:type": "government",
                "amenity": "kindergarten"
            }
        },
        {
            "id": 87764,
            "type": "Feature",
            "geometry": {
                "type": "Point",
                "coordinates": [
                    19.27875,
                    51.9612
                ]
            },
            "properties": {
                "isced:level": "1;2",
                "ref:rspo": 87764,
                "official_name": "Szko\u0142a Podstawowa Nr 5 Z Oddzia\u0142ami Integracyjnymi Imienia Marii Curie-Sk\u0142odowskiej",
                "name": "Szko\u0142a Podstawowa Nr 5 Z Oddzia\u0142ami Integracyjnymi Imienia Marii Curie-Sk\u0142odowskiej",
                "addr:country": "PL",
                "addr:postcode": "95-035",
                "addr:city": "Ozork\u00f3w",
                "addr:street": "Cegielniana",
                "addr:housenumber": "25",
                "addr:teryt:simc": 958967,
                "addr:teryt:sym_ul": 2580,
                "contact:phone": "+48 427103184",
                "contact:email": "sekretariat@sp5ozorkow.pl",
                "contact:website": "https:\/\/sp5ozorkow.pl\/",
                "ref:regon": "000732364",
                "ref:vatin": "PL7321100329",
                "operator": "Miasto Ozork\u00f3w",
                "operator:type": "government",
                "amenity": "school"
            }
        },
        {
            "id": 6983,
            "type": "Feature",
            "geometry": {
                "type": "Point",
                "coordinates": [
                    19.28915,
                    51.96175
                ]
            },
            "properties": {
                "ref:rspo": 6983,
                "official_name": "Zesp\u00f3\u0142 Szk\u00f3\u0142 Og\u00f3lnokszta\u0142c\u0105cych w Ozorkowie",
                "name": "Zesp\u00f3\u0142 Szk\u00f3\u0142 Og\u00f3lnokszta\u0142c\u0105cych w Ozorkowie",
                "addr:country": "PL",
                "addr:postcode": "95-035",
                "addr:city": "Ozork\u00f3w",
                "addr:street": "Genera\u0142a Romualda Traugutta",
                "addr:housenumber": "1",
                "addr:teryt:simc": 958967,
                "addr:teryt:sym_ul": 22963,
                "contact:phone": "+48 427189350",
                "contact:email": "zsosekretariat@lo-ozorkow.pl",
                "ref:regon": "000732370",
                "ref:vatin": "PL7321103374",
                "operator": "Powiat Zgierski",
                "operator:type": "government",
                "landuse": "education",
                "fixme": "amenity=school, amenity=college albo landuse=education w zale\u017cno\u015bci od tego, jakie plac\u00f3wki wchodz\u0105 w sk\u0142ad zespo\u0142u. Sprawd\u017a, kiedy stosowa\u0107 amenity=* a kiedy landuse=education.",
                "note": "Children RSPO: 8230;8239"
            }
        },
        {
            "id": 7336,
            "type": "Feature",
            "geometry": {
                "type": "Point",
                "coordinates": [
                    19.28915,
                    51.96172
                ]
            },
            "properties": {
                "ref:rspo": 7336,
                "official_name": "Poradnia Psychologiczno - Pedagogiczna w Ozorkowie",
                "name": "Poradnia Psychologiczno - Pedagogiczna w Ozorkowie",
                "addr:country": "PL",
                "addr:postcode": "95-035",
                "addr:city": "Ozork\u00f3w",
                "addr:street": "Genera\u0142a Romualda Traugutta",
                "addr:housenumber": "1",
                "addr:teryt:simc": 958967,
                "addr:teryt:sym_ul": 22963,
                "contact:phone": "+48 427189354",
                "contact:email": "sekretariat@poradniaozorkow.pl",
                "ref:regon": "472404648",
                "ref:vatin": "PL7321165487",
                "operator": "Powiat Zgierski",
                "operator:type": "government",
                "healthcare": "counselling",
                "counselling_type": "education",
                "fixme": "w zale\u017cno\u015bci od przedmiotu dzia\u0142alno\u015bci (np. healthcare=counselling + counselling_type=education albo healthcare=psychotherapist)"
            }
        },
        {
            "id": 8230,
            "type": "Feature",
            "geometry": {
                "type": "Point",
                "coordinates": [
                    19.28915,
                    51.961690000000004
                ]
            },
            "properties": {
                "isced:level": "3",
                "ref:rspo": 8230,
                "official_name": "I Liceum Og\u00f3lnokszta\u0142c\u0105ce im. Stefana \u017beromskiego w Ozorkowie w Zespole Szk\u00f3\u0142 Og\u00f3lnokszta\u0142c\u0105cych w O",
                "name": "I Liceum Og\u00f3lnokszta\u0142c\u0105ce",
                "addr:country": "PL",
                "addr:postcode": "95-035",
                "addr:city": "Ozork\u00f3w",
                "addr:street": "Genera\u0142a Romualda Traugutta",
                "addr:housenumber": "1",
                "addr:teryt:simc": 958967,
                "addr:teryt:sym_ul": 22963,
                "contact:phone": "+48 427189350",
                "contact:email": "zsosekretariat@lo-ozorkow.pl",
                "contact:website": "http:\/\/www.lo-ozorkow.pl",
                "ref:regon": "472920019",
                "operator": "Powiat Zgierski",
                "operator:type": "government",
                "amenity": "school",
                "note": "Parent RSPO: 6983"
            }
        },
        {
            "id": 8239,
            "type": "Feature",
            "geometry": {
                "type": "Point",
                "coordinates": [
                    19.28915,
                    51.96166
                ]
            },
            "properties": {
                "isced:level": "3",
                "ref:rspo": 8239,
                "official_name": "Liceum Og\u00f3lnokszta\u0142c\u0105ce dla Doros\u0142ych w Ozorkowie w Zespole Szk\u00f3\u0142 Og\u00f3lnokszta\u0142c\u0105cych w Ozorkowie",
                "name": "Liceum Og\u00f3lnokszta\u0142c\u0105ce dla Doros\u0142ych w Ozorkowie w Zespole Szk\u00f3\u0142 Og\u00f3lnokszta\u0142c\u0105cych w Ozorkowie",
                "addr:country": "PL",
                "addr:postcode": "95-035",
                "addr:city": "Ozork\u00f3w",
                "addr:street": "Genera\u0142a Romualda Traugutta",
                "addr:housenumber": "1",
                "addr:teryt:simc": 958967,
                "addr:teryt:sym_ul": 22963,
                "contact:phone": "+48 427189350",
                "contact:email": "zsosekretariat@lo-ozorkow.pl",
                "contact:website": "http:\/\/www.lo-ozorkow.pl",
                "ref:regon": "100043816",
                "operator": "Powiat Zgierski",
                "operator:type": "government",
                "amenity": "school",
                "note": "Parent RSPO: 6983"
            }
        },
        {
            "id": 121282,
            "type": "Feature",
            "geometry": {
                "type": "Point",
                "coordinates": [
                    19.28557,
                    51.96308
                ]
            },
            "properties": {
                "ref:rspo": 121282,
                "official_name": "Punkt Przedszkolny Mini Maluch",
                "name": "Punkt Przedszkolny Mini Maluch",
                "addr:country": "PL",
                "addr:postcode": "95-035",
                "addr:city": "Ozork\u00f3w",
                "addr:street": "Romualda Traugutta",
                "addr:housenumber": "7",
                "addr:teryt:simc": 958967,
                "addr:teryt:sym_ul": 22965,
                "contact:phone": "+48 605453336",
                "contact:email": "marlenakarolak@onet.eu",
                "ref:regon": "101713437",
                "ref:vatin": "PL7322068929",
                "operator": "Dane Do Uzupe\u0142nienia",
                "operator:type": "private",
                "amenity": "kindergarten"
            }
        },
        {
            "id": 7394,
            "type": "Feature",
            "geometry": {
                "type": "Point",
                "coordinates": [
                    19.28925,
                    51.96443
                ]
            },
            "properties": {
                "ref:rspo": 7394,
                "official_name": "M\u0142odzie\u017cowy Dom Kultury im. Ma\u0142ego Ksi\u0119cia w Ozorkowie",
                "name": "M\u0142odzie\u017cowy Dom Kultury",
                "addr:country": "PL",
                "addr:postcode": "95-035",
                "addr:city": "Ozork\u00f3w",
                "addr:street": "Listopadowa",
                "addr:housenumber": "6b",
                "addr:teryt:simc": 958967,
                "addr:teryt:sym_ul": 11211,
                "contact:phone": "+48 427189353",
                "ref:regon": "000781486",
                "ref:vatin": "PL7321045599",
                "operator": "Miasto Ozork\u00f3w",
                "operator:type": "government",
                "amenity": "community_centre",
                "community_centre:for": "juvenile"
            }
        },
        {
            "id": 7153,
            "type": "Feature",
            "geometry": {
                "type": "Point",
                "coordinates": [
                    19.29026,
                    51.96669
                ]
            },
            "properties": {
                "ref:rspo": 7153,
                "official_name": "Zesp\u00f3\u0142 Szk\u00f3\u0142 Specjalnych w Ozorkowie",
                "name": "Zesp\u00f3\u0142 Szk\u00f3\u0142 Specjalnych w Ozorkowie",
                "addr:country": "PL",
                "addr:postcode": "95-035",
                "addr:city": "Ozork\u00f3w",
                "addr:street": "Genera\u0142a Tadeusza Ko\u015bciuszki",
                "addr:housenumber": "27",
                "addr:teryt:simc": 958967,
                "addr:teryt:sym_ul": 9574,
                "contact:phone": "+48 427189351",
                "contact:email": "sekretariat@zss-ozorkow.pl",
                "ref:regon": "000732387",
                "ref:vatin": "PL7321829390",
                "operator": "Powiat Zgierski",
                "operator:type": "government",
                "landuse": "education",
                "fixme": "amenity=school, amenity=college albo landuse=education w zale\u017cno\u015bci od tego, jakie plac\u00f3wki wchodz\u0105 w sk\u0142ad zespo\u0142u. Sprawd\u017a, kiedy stosowa\u0107 amenity=* a kiedy landuse=education.",
                "note": "Children RSPO: 9393;9396"
            }
        },
        {
            "id": 89570,
            "type": "Feature",
            "geometry": {
                "type": "Point",
                "coordinates": [
                    19.29026,
                    51.96666
                ]
            },
            "properties": {
                "ref:rspo": 89570,
                "official_name": "Przedszkole Miejskie Nr 2",
                "name": "Przedszkole Miejskie Nr 2",
                "addr:country": "PL",
                "addr:postcode": "95-035",
                "addr:city": "Ozork\u00f3w",
                "addr:street": "Tadeusza Ko\u015bciuszki",
                "addr:housenumber": "27",
                "addr:teryt:simc": 958967,
                "addr:teryt:sym_ul": 9582,
                "contact:phone": "+48 427103177",
                "contact:email": "pm2ozorkow@interia.pl",
                "contact:website": "http:\/\/www.pm2ozorkow.wikom.pl\/",
                "ref:regon": "470008612",
                "ref:vatin": "PL7321998299",
                "operator": "Miasto Ozork\u00f3w",
                "operator:type": "government",
                "amenity": "kindergarten"
            }
        },
        {
            "id": 9393,
            "type": "Feature",
            "geometry": {
                "type": "Point",
                "coordinates": [
                    19.29026,
                    51.96663
                ]
            },
            "properties": {
                "isced:level": "1;2",
                "ref:rspo": 9393,
                "official_name": "Szko\u0142a Podstawowa Specjalna Nr 1 w Zespole Szk\u00f3\u0142 Specjalnych w Ozorkowie",
                "name": "Szko\u0142a Podstawowa Specjalna Nr 1 w Zespole Szk\u00f3\u0142 Specjalnych w Ozorkowie",
                "addr:country": "PL",
                "addr:postcode": "95-035",
                "addr:city": "Ozork\u00f3w",
                "addr:street": "Genera\u0142a Tadeusza Ko\u015bciuszki",
                "addr:housenumber": "27",
                "addr:teryt:simc": 958967,
                "addr:teryt:sym_ul": 9574,
                "contact:phone": "+48 427189351",
                "contact:email": "sekretariat@zss-ozorkow.pl",
                "contact:website": "http:\/\/www.new.zss-ozorkow.pl",
                "ref:regon": "472891364",
                "operator": "Powiat Zgierski",
                "operator:type": "government",
                "amenity": "school",
                "note": "Parent RSPO: 7153"
            }
        },
        {
            "id": 9396,
            "type": "Feature",
            "geometry": {
                "type": "Point",
                "coordinates": [
                    19.29026,
                    51.9666
                ]
            },
            "properties": {
                "ref:rspo": 9396,
                "official_name": "Szko\u0142a Specjalna Przysposabiaj\u0105ca Do Pracy w Zespole Szk\u00f3\u0142 Specjalnych w Ozorkowie",
                "name": "Szko\u0142a Specjalna Przysposabiaj\u0105ca Do Pracy w Zespole Szk\u00f3\u0142 Specjalnych w Ozorkowie",
                "addr:country": "PL",
                "addr:postcode": "95-035",
                "addr:city": "Ozork\u00f3w",
                "addr:street": "Genera\u0142a Tadeusza Ko\u015bciuszki",
                "addr:housenumber": "27",
                "addr:teryt:simc": 958967,
                "addr:teryt:sym_ul": 9574,
                "contact:phone": "+48 427189351",
                "contact:email": "sekretariat@zss-ozorkow.pl",
                "contact:website": "http:\/\/ww.new.zss-ozorkow.pl",
                "ref:regon": "473266740",
                "operator": "Powiat Zgierski",
                "operator:type": "government",
                "amenity": "school",
                "note": "Parent RSPO: 7153"
            }
        },
        {
            "id": 7118,
            "type": "Feature",
            "geometry": {
                "type": "Point",
                "coordinates": [
                    19.29101,
                    51.96718
                ]
            },
            "properties": {
                "ref:rspo": 7118,
                "official_name": "Zesp\u00f3\u0142 Szk\u00f3\u0142 Zawodowych w Ozorkowie",
                "name": "Zesp\u00f3\u0142 Szk\u00f3\u0142 Zawodowych w Ozorkowie",
                "addr:country": "PL",
                "addr:postcode": "95-035",
                "addr:city": "Ozork\u00f3w",
                "addr:street": "Juliusza S\u0142owackiego",
                "addr:housenumber": "2",
                "addr:teryt:simc": 958967,
                "addr:teryt:sym_ul": 20291,
                "contact:phone": "+48 427189352",
                "contact:email": "sekretariat@zsz-ozorkow.org",
                "contact:website": "http:\/\/www.zsz-ozorkow.org",
                "ref:regon": "000182797",
                "ref:vatin": "PL7321111623",
                "operator": "Powiat Zgierski",
                "operator:type": "government",
                "landuse": "education",
                "fixme": "amenity=school, amenity=college albo landuse=education w zale\u017cno\u015bci od tego, jakie plac\u00f3wki wchodz\u0105 w sk\u0142ad zespo\u0142u. Sprawd\u017a, kiedy stosowa\u0107 amenity=* a kiedy landuse=education.",
                "note": "Children RSPO: 10934;10955;10956"
            }
        },
        {
            "id": 10934,
            "type": "Feature",
            "geometry": {
                "type": "Point",
                "coordinates": [
                    19.29101,
                    51.96715
                ]
            },
            "properties": {
                "isced:level": "3",
                "ref:rspo": 10934,
                "official_name": "Szko\u0142a Bran\u017cowa I Stopnia Z Oddzia\u0142ami Specjalnymi w Ozorkowie",
                "name": "Szko\u0142a Bran\u017cowa I Stopnia Z Oddzia\u0142ami Specjalnymi w Ozorkowie",
                "addr:country": "PL",
                "addr:postcode": "95-035",
                "addr:city": "Ozork\u00f3w",
                "addr:street": "Juliusza S\u0142owackiego",
                "addr:housenumber": "2",
                "addr:teryt:simc": 958967,
                "addr:teryt:sym_ul": 20291,
                "contact:phone": "+48 427189352",
                "contact:email": "sekretariat@zsz-ozorkow.org",
                "contact:website": "http:\/\/www.zsz-ozorkow.org",
                "ref:regon": "472903587",
                "operator": "Powiat Zgierski",
                "operator:type": "government",
                "amenity": "school",
                "note": "Parent RSPO: 7118"
            }
        },
        {
            "id": 10955,
            "type": "Feature",
            "geometry": {
                "type": "Point",
                "coordinates": [
                    19.29101,
                    51.96712
                ]
            },
            "properties": {
                "isced:level": "3",
                "ref:rspo": 10955,
                "official_name": "Technikum w Ozorkowie",
                "name": "Technikum w Ozorkowie",
                "addr:country": "PL",
                "addr:postcode": "95-035",
                "addr:city": "Ozork\u00f3w",
                "addr:street": "Juliusza S\u0142owackiego",
                "addr:housenumber": "2",
                "addr:teryt:simc": 958967,
                "addr:teryt:sym_ul": 20291,
                "contact:phone": "+48 427189352",
                "contact:email": "sekretariat@zsz-ozorkow.org",
                "contact:website": "http:\/\/www.zsz-ozorkow.org",
                "ref:regon": "473070280",
                "operator": "Powiat Zgierski",
                "operator:type": "government",
                "amenity": "school",
                "note": "Parent RSPO: 7118"
            }
        },
        {
            "id": 10956,
            "type": "Feature",
            "geometry": {
                "type": "Point",
                "coordinates": [
                    19.29101,
                    51.96709
                ]
            },
            "properties": {
                "isced:level": "3",
                "ref:rspo": 10956,
                "official_name": "Ii Liceum Og\u00f3lnokszta\u0142c\u0105ce w Ozorkowie",
                "name": "Ii Liceum Og\u00f3lnokszta\u0142c\u0105ce w Ozorkowie",
                "addr:country": "PL",
                "addr:postcode": "95-035",
                "addr:city": "Ozork\u00f3w",
                "addr:street": "Juliusza S\u0142owackiego",
                "addr:housenumber": "2",
                "addr:teryt:simc": 958967,
                "addr:teryt:sym_ul": 20291,
                "contact:phone": "+48 427189352",
                "contact:email": "sekretariat@zsz-ozorkow.org",
                "contact:website": "http:\/\/www.zsz-ozorkow.org",
                "ref:regon": "472917201",
                "operator": "Powiat Zgierski",
                "operator:type": "government",
                "amenity": "school",
                "note": "Parent RSPO: 7118"
            }
        },
        {
            "id": 89758,
            "type": "Feature",
            "geometry": {
                "type": "Point",
                "coordinates": [
                    19.27213,
                    51.96957
                ]
            },
            "properties": {
                "ref:rspo": 89758,
                "official_name": "Niepubliczne Przedszkole Si\u00f3str Urszulanek Sjk \u015aw.urszuli Led\u00f3chowskiej",
                "name": "Niepubliczne Przedszkole Si\u00f3str Urszulanek Sjk \u015aw.urszuli Led\u00f3chowskiej",
                "addr:country": "PL",
                "addr:postcode": "95-035",
                "addr:city": "Ozork\u00f3w",
                "addr:street": "\u0141\u0119czycka",
                "addr:housenumber": "30",
                "addr:teryt:simc": 958967,
                "addr:teryt:sym_ul": 11607,
                "contact:phone": "+48 422771119",
                "contact:email": "przedszkole.urszulanki@interia.pl",
                "ref:regon": "101504923",
                "ref:vatin": "PL7321997265",
                "operator": "Dom Zakonny Zgromadzenia Si\u00f3str Urszulanek Serca Jezusa Konaj\u0105cego",
                "operator:type": "religious",
                "amenity": "kindergarten"
            }
        }
    ]
}