{
    "type": "FeatureCollection",
    "features": [
        {
            "id": 106469,
            "type": "Feature",
            "geometry": {
                "type": "Point",
                "coordinates": [
                    19.25221,
                    51.92371
                ]
            },
            "properties": {
                "isced:level": "1;2",
                "ref:rspo": 106469,
                "official_name": "Szko\u0142a Podstawowa w Chociszewie",
                "name": "Szko\u0142a Podstawowa w Chociszewie",
                "addr:postcode": "95-045",
                "addr:place": "Chociszew",
                "addr:housenumber": "40",
                "addr:city:simc": 415043,
                "phone": "+48 427186094",
                "email": "spchociszew@wp.pl",
                "website": "http:\/\/www.spchociszew.pl",
                "ref:regon": "001157755",
                "ref:vatin": "PL7321064361",
                "operator": "Gmina Parz\u0119czew",
                "operator:type": "government",
                "amenity": "school"
            }
        },
        {
            "id": 118515,
            "type": "Feature",
            "geometry": {
                "type": "Point",
                "coordinates": [
                    19.25221,
                    51.92368
                ]
            },
            "properties": {
                "ref:rspo": 118515,
                "official_name": "Punkt Przedszkolny \"Plastu\u015b\"",
                "name": "Punkt Przedszkolny \"Plastu\u015b\"",
                "addr:postcode": "95-045",
                "addr:place": "Chociszew",
                "addr:housenumber": "40",
                "addr:city:simc": 415043,
                "phone": "+48 783692893",
                "email": "sylwiaszymanska-galon@wp.pl",
                "ref:regon": "101584017",
                "operator": "Sylwia Szyma\u0144ska-Galon",
                "operator:type": "private",
                "amenity": "kindergarten"
            }
        },
        {
            "id": 106470,
            "type": "Feature",
            "geometry": {
                "type": "Point",
                "coordinates": [
                    19.20188,
                    51.94362
                ]
            },
            "properties": {
                "isced:level": "1;2",
                "ref:rspo": 106470,
                "official_name": "Szko\u0142a Podstawowa im. Juliana Tuwima w Parz\u0119czewie",
                "name": "Szko\u0142a Podstawowa",
                "addr:postcode": "95-045",
                "addr:city": "Parz\u0119czew",
                "addr:street": "Parkowa",
                "addr:housenumber": "6",
                "addr:city:simc": 415340,
                "addr:street:sym_ul": 15710,
                "phone": "+48 427186091",
                "email": "spparzeczew@wp.pl",
                "website": "http:\/\/www.sp-parzeczew.com",
                "ref:regon": "472240709",
                "ref:vatin": "PL7321071415",
                "operator": "Gmina Parz\u0119czew",
                "operator:type": "government",
                "amenity": "school"
            }
        },
        {
            "id": 113554,
            "type": "Feature",
            "geometry": {
                "type": "Point",
                "coordinates": [
                    19.20188,
                    51.94359
                ]
            },
            "properties": {
                "ref:rspo": 113554,
                "official_name": "Punkt Przedszkolny \"Plastu\u015b\"",
                "name": "Punkt Przedszkolny \"Plastu\u015b\"",
                "addr:postcode": "95-045",
                "addr:city": "Parz\u0119czew",
                "addr:street": "Parkowa",
                "addr:housenumber": "6",
                "addr:city:simc": 415340,
                "addr:street:sym_ul": 15710,
                "phone": "+48 783692893",
                "email": "sylwiaszymanska-galon@wp.pl",
                "ref:regon": "101583986",
                "operator": "Sylwia Szyma\u0144ska-Galon",
                "operator:type": "private",
                "amenity": "kindergarten"
            }
        },
        {
            "id": 72824,
            "type": "Feature",
            "geometry": {
                "type": "Point",
                "coordinates": [
                    19.12619,
                    51.99213
                ]
            },
            "properties": {
                "ref:rspo": 72824,
                "official_name": "Przedszkole Wojskowe Nr 147",
                "name": "Przedszkole Wojskowe Nr 147",
                "addr:postcode": "85-043",
                "addr:place": "Le\u017anica Wielka-Osiedle",
                "addr:housenumber": "4",
                "addr:city:simc": 415215,
                "phone": "+48 422011835",
                "email": "przedszkole.leznicawielka@o2.pl",
                "ref:regon": "101493929",
                "operator": "Ministerstwo Obrony Narodowej",
                "operator:type": "public",
                "amenity": "kindergarten"
            }
        }
    ]
}