{
    "type": "FeatureCollection",
    "features": [
        {
            "id": 24527,
            "type": "Feature",
            "geometry": {
                "type": "Point",
                "coordinates": [
                    19.31723,
                    51.78931
                ]
            },
            "properties": {
                "ref:rspo": 24527,
                "official_name": "\"Sielankowo\" - Przedszkole Niepubliczne",
                "name": "\"Sielankowo\" - Przedszkole Niepubliczne",
                "addr:postcode": "95-071",
                "addr:city": "R\u0105bie\u0144",
                "addr:street": "Pa\u0144ska",
                "addr:housenumber": "15",
                "addr:city:simc": 412910,
                "addr:street:sym_ul": 15648,
                "phone": "+48 422996299",
                "email": "biuro@sielankowo.com.pl",
                "website": "http:\/\/www.sielankowo.com.pl",
                "ref:regon": "101478255",
                "ref:vatin": "PL7261689211",
                "operator": "Ma\u0142gorzata Jasi\u0144skanowak",
                "operator:type": "private",
                "amenity": "kindergarten"
            }
        },
        {
            "id": 75371,
            "type": "Feature",
            "geometry": {
                "type": "Point",
                "coordinates": [
                    19.32232,
                    51.79002
                ]
            },
            "properties": {
                "isced:level": "1;2",
                "ref:rspo": 75371,
                "official_name": "Szko\u0142a im. Ks. Stefana Kard. Wyszy\u0144skiego Prymasa Tysi\u0105clecia",
                "name": "Szko\u0142a",
                "addr:postcode": "95-070",
                "addr:city": "R\u0105bie\u0144",
                "addr:street": "S\u0142owia\u0144ska",
                "addr:housenumber": "5",
                "addr:city:simc": 412910,
                "addr:street:sym_ul": 20294,
                "phone": "+48 427121924",
                "email": "sektretariat@sprabien.edu.pl",
                "website": "http:\/\/sprabien.edu.pl",
                "ref:regon": "000732217",
                "ref:vatin": "PL9471089530",
                "operator": "Gmina Aleksandr\u00f3w \u0141\u00f3dzki",
                "operator:type": "government",
                "amenity": "school"
            }
        },
        {
            "id": 278426,
            "type": "Feature",
            "geometry": {
                "type": "Point",
                "coordinates": [
                    19.31366,
                    51.80742
                ]
            },
            "properties": {
                "ref:rspo": 278426,
                "official_name": "Publiczne Przedszkole Nr 6 Kido",
                "name": "Publiczne Przedszkole Nr 6 Kido",
                "addr:postcode": "95-070",
                "addr:city": "R\u0105bie\u0144 AB",
                "addr:street": "Irysowa",
                "addr:housenumber": "21",
                "addr:city:simc": 412926,
                "addr:street:sym_ul": 6933,
                "email": "sekretariat@przedszkolekido.pl",
                "website": "http:\/\/www.przedszkolekido.pl",
                "ref:regon": "389894533",
                "operator": "Katarzyna Cicha",
                "operator:type": "private",
                "amenity": "kindergarten"
            }
        },
        {
            "id": 6738,
            "type": "Feature",
            "geometry": {
                "type": "Point",
                "coordinates": [
                    19.2919074,
                    51.8111962
                ]
            },
            "properties": {
                "ref:rspo": 6738,
                "official_name": "Zesp\u00f3\u0142 Szk\u00f3\u0142 Specjalnych im. Stefana Kopci\u0144skiego w Aleksandrowie \u0141\u00f3dzkim",
                "name": "Zesp\u00f3\u0142 Szk\u00f3\u0142 Specjalnych",
                "addr:postcode": "95-070",
                "addr:city": "Aleksandr\u00f3w \u0141\u00f3dzki",
                "addr:street": "Franciszka\u0144ska",
                "addr:housenumber": "14\/16",
                "addr:city:simc": 958654,
                "addr:street:sym_ul": 5151,
                "phone": "+48 427124467",
                "email": "sekretariat@zssaleksandrow.pl",
                "website": "http:\/\/www.zssaleksandrow.pl",
                "ref:regon": "000989962",
                "ref:vatin": "PL9471388474",
                "operator": "Powiat Zgierski",
                "operator:type": "government",
                "landuse": "education",
                "fixme": "amenity=school, amenity=college albo landuse=education w zale\u017cno\u015bci od tego, jakie plac\u00f3wki wchodz\u0105 w sk\u0142ad zespo\u0142u. Sprawd\u017a, kiedy stosowa\u0107 amenity=* a kiedy landuse=education.",
                "note": "Children RSPO: 7861;9457;9478;9483"
            }
        },
        {
            "id": 7861,
            "type": "Feature",
            "geometry": {
                "type": "Point",
                "coordinates": [
                    19.2919074,
                    51.811166199999995
                ]
            },
            "properties": {
                "ref:rspo": 7861,
                "official_name": "Przedszkole Specjalne w Aleksandrowie \u0141\u00f3dzkim w Zespole Szk\u00f3\u0142 Specjalnych im. Stefana Kopci\u0144skiego W",
                "name": "Przedszkole Specjalne w Aleksandrowie \u0141\u00f3dzkim w Zespole Szk\u00f3\u0142 Specjalnych",
                "addr:postcode": "95-070",
                "addr:city": "Aleksandr\u00f3w \u0141\u00f3dzki",
                "addr:street": "Franciszka\u0144ska",
                "addr:housenumber": "14",
                "addr:city:simc": 958654,
                "addr:street:sym_ul": 5151,
                "phone": "+48 427124467",
                "email": "aleksandrowzss@onet.pl",
                "website": "http:\/\/www.zssaleksandrow.wikom.pl",
                "ref:regon": "101460752",
                "operator": "Powiat Zgierski",
                "operator:type": "government",
                "amenity": "kindergarten",
                "note": "Parent RSPO: 6738"
            }
        },
        {
            "id": 9457,
            "type": "Feature",
            "geometry": {
                "type": "Point",
                "coordinates": [
                    19.2919074,
                    51.8111362
                ]
            },
            "properties": {
                "isced:level": "1;2",
                "ref:rspo": 9457,
                "official_name": "Szko\u0142a Podstawowa Specjalna Nr 5 w Zespole Szk\u00f3\u0142 Specjalnych w Aleksandrowie \u0141\u00f3dzkim",
                "name": "Szko\u0142a Podstawowa Specjalna Nr 5 w Zespole Szk\u00f3\u0142 Specjalnych w Aleksandrowie \u0141\u00f3dzkim",
                "addr:postcode": "95-070",
                "addr:city": "Aleksandr\u00f3w \u0141\u00f3dzki",
                "addr:street": "Franciszka\u0144ska",
                "addr:housenumber": "14",
                "addr:city:simc": 958654,
                "addr:street:sym_ul": 5151,
                "phone": "+48 427124467",
                "email": "sekretariat@zssaleksandrow.pl",
                "website": "http:\/\/www.zssaleksandrow.pl",
                "ref:regon": "000732246",
                "operator": "Powiat Zgierski",
                "operator:type": "government",
                "amenity": "school",
                "note": "Parent RSPO: 6738"
            }
        },
        {
            "id": 9478,
            "type": "Feature",
            "geometry": {
                "type": "Point",
                "coordinates": [
                    19.2919074,
                    51.8111062
                ]
            },
            "properties": {
                "isced:level": "3",
                "ref:rspo": 9478,
                "official_name": "Specjalna Szko\u0142a Bran\u017cowa I Stopnia Nr 2 w Zespole Szk\u00f3\u0142 Specjalnych w Aleksandrowie \u0141\u00f3dzkim",
                "name": "Specjalna Szko\u0142a Bran\u017cowa I Stopnia Nr 2 w Zespole Szk\u00f3\u0142 Specjalnych w Aleksandrowie \u0141\u00f3dzkim",
                "addr:postcode": "95-070",
                "addr:city": "Aleksandr\u00f3w \u0141\u00f3dzki",
                "addr:street": "Franciszka\u0144ska",
                "addr:housenumber": "14",
                "addr:city:simc": 958654,
                "addr:street:sym_ul": 5151,
                "phone": "+48 427124467",
                "email": "sekretariat@zssaleksandrow.pl",
                "website": "http:\/\/www.zssaleksandrow.pl",
                "ref:regon": "000989979",
                "operator": "Powiat Zgierski",
                "operator:type": "government",
                "amenity": "school",
                "note": "Parent RSPO: 6738"
            }
        },
        {
            "id": 9483,
            "type": "Feature",
            "geometry": {
                "type": "Point",
                "coordinates": [
                    19.2919074,
                    51.811076199999995
                ]
            },
            "properties": {
                "ref:rspo": 9483,
                "official_name": "Szko\u0142a Specjalna Przysposabiaj\u0105ca Do Pracy w Zespole Szk\u00f3\u0142 Specjalnych w Aleksandrowie \u0141\u00f3dzkim",
                "name": "Szko\u0142a Specjalna Przysposabiaj\u0105ca Do Pracy w Zespole Szk\u00f3\u0142 Specjalnych w Aleksandrowie \u0141\u00f3dzkim",
                "addr:postcode": "95-070",
                "addr:city": "Aleksandr\u00f3w \u0141\u00f3dzki",
                "addr:street": "Franciszka\u0144ska",
                "addr:housenumber": "14",
                "addr:city:simc": 958654,
                "addr:street:sym_ul": 5151,
                "phone": "+48 427124467",
                "email": "sekretariat@zssaleksandrow.pl",
                "website": "http:\/\/www.zssaleksandrow.pl",
                "ref:regon": "100072278",
                "operator": "Powiat Zgierski",
                "operator:type": "government",
                "amenity": "school",
                "note": "Parent RSPO: 6738"
            }
        },
        {
            "id": 266045,
            "type": "Feature",
            "geometry": {
                "type": "Point",
                "coordinates": [
                    19.31486,
                    51.81272
                ]
            },
            "properties": {
                "ref:rspo": 266045,
                "official_name": "Niepubliczne Przedszkole Artystyczno-J\u0119zykowe \"Kolorowe Klocki\"",
                "name": "Niepubliczne Przedszkole Artystyczno-J\u0119zykowe \"Kolorowe Klocki\"",
                "addr:postcode": "95-070",
                "addr:city": "Aleksandr\u00f3w \u0141\u00f3dzki",
                "addr:street": "Pabianicka",
                "addr:housenumber": "105",
                "addr:city:simc": 958654,
                "addr:street:sym_ul": 15498,
                "email": "biuro@kolorowe-klocki.pl",
                "ref:regon": "369188986",
                "operator": "Maria P\u00f3lkowska",
                "operator:type": "private",
                "amenity": "kindergarten"
            }
        },
        {
            "id": 22014,
            "type": "Feature",
            "geometry": {
                "type": "Point",
                "coordinates": [
                    19.30818,
                    51.81331
                ]
            },
            "properties": {
                "isced:level": "1;2",
                "ref:rspo": 22014,
                "official_name": "Szko\u0142a Podstawowa Nr 1 im. Jana Paw\u0142a II w Aleksandrowie \u0141\u00f3dzkim",
                "name": "Szko\u0142a Podstawowa Nr 1",
                "addr:postcode": "95-070",
                "addr:city": "Aleksandr\u00f3w \u0141\u00f3dzki",
                "addr:street": "Ludwika Wary\u0144skiego",
                "addr:housenumber": "22\/26",
                "addr:city:simc": 958654,
                "addr:street:sym_ul": 23707,
                "phone": "+48 427121860",
                "email": "mzs@szkoly.lodz.pl",
                "website": "http:\/\/www.mzs.szkoly.lodz.pl",
                "ref:regon": "000732170",
                "operator": "Gmina Aleksandr\u00f3w \u0141\u00f3dzki",
                "operator:type": "government",
                "amenity": "school"
            }
        },
        {
            "id": 124528,
            "type": "Feature",
            "geometry": {
                "type": "Point",
                "coordinates": [
                    19.311847,
                    51.8158423
                ]
            },
            "properties": {
                "ref:rspo": 124528,
                "official_name": "Przedszkole Publiczne \"Ala\"",
                "name": "Przedszkole Publiczne \"Ala\"",
                "addr:postcode": "95-070",
                "addr:city": "Aleksandr\u00f3w \u0141\u00f3dzki",
                "addr:street": "P\u00f3\u0142nocna",
                "addr:housenumber": "15",
                "addr:city:simc": 958654,
                "addr:street:sym_ul": 17421,
                "phone": "+48 534779900",
                "email": "przedszkoleala@przedszkoleala.pl",
                "website": "http:\/\/www.przedszkoleala.pl",
                "ref:regon": "101833012",
                "ref:vatin": "PL7260015746",
                "operator": "Mariusz Witczak",
                "operator:type": "private",
                "amenity": "kindergarten"
            }
        },
        {
            "id": 76047,
            "type": "Feature",
            "geometry": {
                "type": "Point",
                "coordinates": [
                    19.30649,
                    51.81724
                ]
            },
            "properties": {
                "ref:rspo": 76047,
                "official_name": "Miejskie Przedszkole Nr1 Im Marii Konopnickiej",
                "name": "Miejskie Przedszkole Nr1 Im Marii Konopnickiej",
                "addr:postcode": "95-070",
                "addr:city": "Aleksandr\u00f3w \u0141\u00f3dzki",
                "addr:street": "Stefana Okrzei",
                "addr:housenumber": "6",
                "addr:city:simc": 958654,
                "addr:street:sym_ul": 14914,
                "phone": "+48 422764015",
                "email": "jedyneczka@wikom.pl",
                "website": "http:\/\/www.jedyneczka.wikom.pl\/",
                "ref:regon": "470010610",
                "ref:vatin": "PL7321910703",
                "operator": "Gmina Aleksandr\u00f3w \u0141\u00f3dzki",
                "operator:type": "government",
                "amenity": "kindergarten"
            }
        },
        {
            "id": 20656,
            "type": "Feature",
            "geometry": {
                "type": "Point",
                "coordinates": [
                    19.3056899,
                    51.81794
                ]
            },
            "properties": {
                "isced:level": "1;2",
                "ref:rspo": 20656,
                "official_name": "Sportowa Szko\u0142a Podstawowa Nr 3 im. J\u00f3zefa Jaworskiego",
                "name": "Sportowa Szko\u0142a Podstawowa Nr 3",
                "addr:postcode": "95-070",
                "addr:city": "Aleksandr\u00f3w \u0141\u00f3dzki",
                "addr:street": "Bankowa",
                "addr:housenumber": "7\/11",
                "addr:city:simc": 958654,
                "addr:street:sym_ul": 692,
                "phone": "+48 427121568",
                "email": "szkolasport@wp.pl",
                "website": "http:\/\/www.szkolasport.pl",
                "ref:regon": "000732192",
                "ref:vatin": "PL7321868792",
                "operator": "Gmina Aleksandr\u00f3w \u0141\u00f3dzki",
                "operator:type": "government",
                "amenity": "school"
            }
        },
        {
            "id": 278792,
            "type": "Feature",
            "geometry": {
                "type": "Point",
                "coordinates": [
                    19.30694,
                    51.81895
                ]
            },
            "properties": {
                "ref:rspo": 278792,
                "official_name": "Sleepconcept",
                "name": "Sleepconcept",
                "addr:postcode": "95-070",
                "addr:city": "Aleksandr\u00f3w \u0141\u00f3dzki",
                "addr:street": "Wojska Polskiego",
                "addr:housenumber": "20",
                "addr:door": "2.08",
                "addr:city:simc": 958654,
                "addr:street:sym_ul": 24628,
                "email": "kontakt@sleepconcept.pl",
                "website": "http:\/\/www.sleepconcept.pl",
                "ref:regon": "520069644",
                "operator": "Sleepconcept Sp\u00f3\u0142ka Z Ograniczon\u0105 Odpowiedzialno\u015bci\u0105",
                "operator:type": "private",
                "healthcare": "counselling",
                "counselling_type": "education",
                "fixme": "w zale\u017cno\u015bci od przedmiotu dzia\u0142alno\u015bci (np. healthcare=counselling + counselling_type=education albo healthcare=psychotherapist)"
            }
        },
        {
            "id": 17562,
            "type": "Feature",
            "geometry": {
                "type": "Point",
                "coordinates": [
                    19.30936,
                    51.82015
                ]
            },
            "properties": {
                "isced:level": "1;2",
                "ref:rspo": 17562,
                "official_name": "Szko\u0142a Podstawowa Nr 4 im. Marii Sk\u0142odowskiej-Curie",
                "name": "Szko\u0142a Podstawowa Nr 4",
                "addr:postcode": "95-070",
                "addr:city": "Aleksandr\u00f3w \u0141\u00f3dzki",
                "addr:street": "Aleja Wyzwolenia",
                "addr:housenumber": "3",
                "addr:city:simc": 958654,
                "addr:street:sym_ul": 25130,
                "phone": "+48 427121651",
                "email": "sekretariat@sp4al.edu.pl",
                "website": "http:\/\/www.sp4al.edu.pl",
                "ref:regon": "000732200",
                "ref:vatin": "PL9471103164",
                "operator": "Gmina Aleksandr\u00f3w \u0141\u00f3dzki",
                "operator:type": "government",
                "amenity": "school"
            }
        },
        {
            "id": 27354,
            "type": "Feature",
            "geometry": {
                "type": "Point",
                "coordinates": [
                    19.30099,
                    51.82034
                ]
            },
            "properties": {
                "ref:rspo": 27354,
                "official_name": "Niepubliczna Poradnia Psychologiczno - Pedagogiczna w Aleksandrowie \u0141\u00f3dzkim",
                "name": "Niepubliczna Poradnia Psychologiczno - Pedagogiczna w Aleksandrowie \u0141\u00f3dzkim",
                "addr:postcode": "95-070",
                "addr:city": "Aleksandr\u00f3w \u0141\u00f3dzki",
                "addr:street": "Ogrodowa",
                "addr:housenumber": "1",
                "addr:city:simc": 958654,
                "addr:street:sym_ul": 14834,
                "phone": "+48 422807700",
                "email": "sekretariat@scholar-erazmus.pl",
                "website": "http:\/\/scholar-erazmus.pl",
                "ref:regon": "101485232",
                "ref:vatin": "PL7322010516",
                "operator": "Ekumeniczne Centrum Dialogu Religii I Kultur",
                "operator:type": "ngo",
                "healthcare": "counselling",
                "counselling_type": "education",
                "fixme": "w zale\u017cno\u015bci od przedmiotu dzia\u0142alno\u015bci (np. healthcare=counselling + counselling_type=education albo healthcare=psychotherapist)"
            }
        },
        {
            "id": 263161,
            "type": "Feature",
            "geometry": {
                "type": "Point",
                "coordinates": [
                    19.30099,
                    51.82031
                ]
            },
            "properties": {
                "isced:level": "1;2",
                "ref:rspo": 263161,
                "official_name": "Prywatna Szko\u0142a Podstawowa Z Oddzia\u0142ami Integracyjnymi \"Scholar\"",
                "name": "Prywatna Szko\u0142a Podstawowa Z Oddzia\u0142ami Integracyjnymi \"Scholar\"",
                "addr:postcode": "95-070",
                "addr:city": "Aleksandr\u00f3w \u0141\u00f3dzki",
                "addr:street": "Ogrodowa",
                "addr:housenumber": "1",
                "addr:city:simc": 958654,
                "addr:street:sym_ul": 14834,
                "phone": "+48 422807700",
                "email": "scholarerazmus@gmail.com",
                "ref:regon": "368111438",
                "operator": "Jacek Stasiak",
                "operator:type": "private",
                "amenity": "school"
            }
        },
        {
            "id": 273889,
            "type": "Feature",
            "geometry": {
                "type": "Point",
                "coordinates": [
                    19.30099,
                    51.820280000000004
                ]
            },
            "properties": {
                "isced:level": "3",
                "ref:rspo": 273889,
                "official_name": "Prywatne Liceum Og\u00f3lnokszta\u0142c\u0105ce \"Erazmus\" w Aleksandrowie \u0141\u00f3dzkim",
                "name": "Prywatne Liceum Og\u00f3lnokszta\u0142c\u0105ce \"Erazmus\" w Aleksandrowie \u0141\u00f3dzkim",
                "addr:postcode": "95-070",
                "addr:city": "Aleksandr\u00f3w \u0141\u00f3dzki",
                "addr:street": "Ogrodowa",
                "addr:housenumber": "1",
                "addr:city:simc": 958654,
                "addr:street:sym_ul": 14834,
                "phone": "+48 422807700",
                "email": "scholarerazmus@gmail.com",
                "ref:regon": "384811301",
                "operator": "Jacek Stasiak",
                "operator:type": "private",
                "amenity": "school"
            }
        },
        {
            "id": 4636,
            "type": "Feature",
            "geometry": {
                "type": "Point",
                "coordinates": [
                    19.30083,
                    51.82127
                ]
            },
            "properties": {
                "ref:rspo": 4636,
                "official_name": "Miejskie Przedszkole Nr 2 im. J. Tuwima",
                "name": "Miejskie Przedszkole Nr 2",
                "addr:postcode": "95-070",
                "addr:city": "Aleksandr\u00f3w \u0141\u00f3dzki",
                "addr:street": "\u0141\u0119czycka",
                "addr:housenumber": "4",
                "addr:city:simc": 958654,
                "addr:street:sym_ul": 11607,
                "phone": "+48 427121538",
                "email": "sercadwa@wikom.pl",
                "website": "http:\/\/mp2.bipgminy.pl",
                "ref:regon": "470010626",
                "ref:vatin": "PL7321910695",
                "operator": "Gmina Aleksandr\u00f3w \u0141\u00f3dzki",
                "operator:type": "government",
                "amenity": "kindergarten"
            }
        },
        {
            "id": 7081,
            "type": "Feature",
            "geometry": {
                "type": "Point",
                "coordinates": [
                    19.30192,
                    51.82153
                ]
            },
            "properties": {
                "ref:rspo": 7081,
                "official_name": "Zesp\u00f3\u0142 Szk\u00f3\u0142 Zawodowych im. Stanis\u0142awa Staszica w Aleksandrowie \u0141\u00f3dzkim",
                "name": "Zesp\u00f3\u0142 Szk\u00f3\u0142 Zawodowych",
                "addr:postcode": "95-070",
                "addr:city": "Aleksandr\u00f3w \u0141\u00f3dzki",
                "addr:street": "\u0141\u0119czycka",
                "addr:housenumber": "1",
                "addr:city:simc": 958654,
                "addr:street:sym_ul": 11607,
                "phone": "+48 427121156",
                "email": "sekretariat@alestaszic.edu.pl",
                "ref:regon": "000833496",
                "ref:vatin": "PL9471089599",
                "operator": "Powiat Zgierski",
                "operator:type": "government",
                "landuse": "education",
                "fixme": "amenity=school, amenity=college albo landuse=education w zale\u017cno\u015bci od tego, jakie plac\u00f3wki wchodz\u0105 w sk\u0142ad zespo\u0142u. Sprawd\u017a, kiedy stosowa\u0107 amenity=* a kiedy landuse=education.",
                "note": "Children RSPO: 8489;8492;119390"
            }
        },
        {
            "id": 8489,
            "type": "Feature",
            "geometry": {
                "type": "Point",
                "coordinates": [
                    19.30192,
                    51.8215
                ]
            },
            "properties": {
                "isced:level": "3",
                "ref:rspo": 8489,
                "official_name": "Szko\u0142a Bran\u017cowa I Stopnia Nr 1 w Zespole Szk\u00f3\u0142 Zawodowych w Aleksandrowie \u0141\u00f3dzkim",
                "name": "Szko\u0142a Bran\u017cowa I Stopnia Nr 1 w Zespole Szk\u00f3\u0142 Zawodowych w Aleksandrowie \u0141\u00f3dzkim",
                "addr:postcode": "95-070",
                "addr:city": "Aleksandr\u00f3w \u0141\u00f3dzki",
                "addr:street": "\u0141\u0119czycka",
                "addr:housenumber": "1",
                "addr:city:simc": 958654,
                "addr:street:sym_ul": 11607,
                "phone": "+48 427121156",
                "email": "sekretariat@alestaszic.edu.pl",
                "website": "http:\/\/www.alestaszic.edu.pl",
                "ref:regon": "472892004",
                "operator": "Powiat Zgierski",
                "operator:type": "government",
                "amenity": "school",
                "note": "Parent RSPO: 7081"
            }
        },
        {
            "id": 8492,
            "type": "Feature",
            "geometry": {
                "type": "Point",
                "coordinates": [
                    19.30192,
                    51.821470000000005
                ]
            },
            "properties": {
                "isced:level": "3",
                "ref:rspo": 8492,
                "official_name": "Technikum w Zespole Szk\u00f3\u0142 Zawodowych w Aleksandrowie \u0141\u00f3dzkim",
                "name": "Technikum w Zespole Szk\u00f3\u0142 Zawodowych w Aleksandrowie \u0141\u00f3dzkim",
                "addr:postcode": "95-070",
                "addr:city": "Aleksandr\u00f3w \u0141\u00f3dzki",
                "addr:street": "\u0141\u0119czycka",
                "addr:housenumber": "1",
                "addr:city:simc": 958654,
                "addr:street:sym_ul": 11607,
                "phone": "+48 427121156",
                "email": "sekretariat@alestaszic.edu.pl",
                "website": "http:\/\/www.alestaszic.edu.pl",
                "ref:regon": "472891980",
                "operator": "Powiat Zgierski",
                "operator:type": "government",
                "amenity": "school",
                "note": "Parent RSPO: 7081"
            }
        },
        {
            "id": 119390,
            "type": "Feature",
            "geometry": {
                "type": "Point",
                "coordinates": [
                    19.30192,
                    51.82144
                ]
            },
            "properties": {
                "isced:level": "3",
                "ref:rspo": 119390,
                "official_name": "Liceum Og\u00f3lnokszta\u0142c\u0105ce dla Doros\u0142ych w Aleksandrowie \u0141\u00f3dzkim",
                "name": "Liceum Og\u00f3lnokszta\u0142c\u0105ce dla Doros\u0142ych w Aleksandrowie \u0141\u00f3dzkim",
                "addr:postcode": "95-070",
                "addr:city": "Aleksandr\u00f3w \u0141\u00f3dzki",
                "addr:street": "\u0141\u0119czycka",
                "addr:housenumber": "1",
                "addr:city:simc": 958654,
                "addr:street:sym_ul": 11607,
                "phone": "+48 427121156",
                "email": "sekretariat@alestaszic.edu.pl",
                "website": "http:\/\/www.alestaszic.edu.pl",
                "ref:regon": "101657785",
                "operator": "Powiat Zgierski",
                "operator:type": "government",
                "amenity": "school",
                "note": "Parent RSPO: 7081"
            }
        },
        {
            "id": 70502,
            "type": "Feature",
            "geometry": {
                "type": "Point",
                "coordinates": [
                    19.31657,
                    51.82188
                ]
            },
            "properties": {
                "ref:rspo": 70502,
                "official_name": "Przedszkole Niepubliczne Artystyczno-Ekologiczne \"Bajkowe Ogrody\" Urszula Stegli\u0144ska",
                "name": "Przedszkole Niepubliczne Artystyczno-Ekologiczne \"Bajkowe Ogrody\" Urszula Stegli\u0144ska",
                "addr:postcode": "95-070",
                "addr:city": "Aleksandr\u00f3w \u0141\u00f3dzki",
                "addr:street": "Piotrkowska",
                "addr:housenumber": "64",
                "addr:city:simc": 958654,
                "addr:street:sym_ul": 16308,
                "phone": "+48 728980249",
                "email": "bajkoweogrody@vp.pl",
                "website": "http:\/\/www.bajkoweogrody.com",
                "ref:regon": "101493651",
                "ref:vatin": "PL9471023910",
                "operator": "Urszula Stegli\u0144ska",
                "operator:type": "private",
                "amenity": "kindergarten"
            }
        },
        {
            "id": 262523,
            "type": "Feature",
            "geometry": {
                "type": "Point",
                "coordinates": [
                    19.31657,
                    51.82185
                ]
            },
            "properties": {
                "ref:rspo": 262523,
                "official_name": "Publiczne Przedszkole Nr 5",
                "name": "Publiczne Przedszkole Nr 5",
                "addr:postcode": "95-070",
                "addr:city": "Aleksandr\u00f3w \u0141\u00f3dzki",
                "addr:street": "Piotrkowska",
                "addr:housenumber": "64",
                "addr:city:simc": 958654,
                "addr:street:sym_ul": 16308,
                "phone": "+48 668373401",
                "email": "przedszkole5aleksandrow@gmail.com",
                "website": "http:\/\/www.przedszkole5aleksandrow.pl",
                "ref:regon": "368028364",
                "operator": "Dawid Stegli\u0144ski",
                "operator:type": "private",
                "amenity": "kindergarten"
            }
        },
        {
            "id": 276666,
            "type": "Feature",
            "geometry": {
                "type": "Point",
                "coordinates": [
                    19.28504,
                    51.82227
                ]
            },
            "properties": {
                "ref:rspo": 276666,
                "official_name": "Niepubliczny O\u015brodek Doskonalenia Nauczycieli\"Ad Astra\"",
                "name": "Niepubliczny O\u015brodek Doskonalenia Nauczycieli\"Ad Astra\"",
                "addr:postcode": "95-070",
                "addr:city": "Aleksandr\u00f3w \u0141\u00f3dzki",
                "addr:street": "\u015awierkowa",
                "addr:housenumber": "16",
                "addr:city:simc": 958654,
                "addr:street:sym_ul": 22508,
                "email": "b-michalska@o2.pl",
                "ref:regon": "387346425",
                "operator": "Marianna Michalska",
                "operator:type": "private",
                "amenity": "training"
            }
        },
        {
            "id": 130675,
            "type": "Feature",
            "geometry": {
                "type": "Point",
                "coordinates": [
                    19.30318,
                    51.82259
                ]
            },
            "properties": {
                "ref:rspo": 130675,
                "official_name": "Zesp\u00f3\u0142 Licealno - Sportowy w Aleksandrowie \u0141\u00f3dzkim",
                "name": "Zesp\u00f3\u0142 Licealno - Sportowy w Aleksandrowie \u0141\u00f3dzkim",
                "addr:postcode": "95-070",
                "addr:city": "Aleksandr\u00f3w \u0141\u00f3dzki",
                "addr:street": "Marii Sk\u0142odowskiej-Curie",
                "addr:housenumber": "5",
                "addr:city:simc": 958654,
                "addr:street:sym_ul": 20068,
                "phone": "+48 427127440",
                "email": "sekretariat@sms-kopernik.pl",
                "website": "http:\/\/www.sms-kopernik.pl",
                "ref:regon": "364321110",
                "operator": "Powiat Zgierski",
                "operator:type": "government",
                "landuse": "education",
                "fixme": "amenity=school, amenity=college albo landuse=education w zale\u017cno\u015bci od tego, jakie plac\u00f3wki wchodz\u0105 w sk\u0142ad zespo\u0142u. Sprawd\u017a, kiedy stosowa\u0107 amenity=* a kiedy landuse=education.",
                "note": "Children RSPO: 6964;130686"
            }
        },
        {
            "id": 6964,
            "type": "Feature",
            "geometry": {
                "type": "Point",
                "coordinates": [
                    19.30318,
                    51.822559999999996
                ]
            },
            "properties": {
                "isced:level": "3",
                "ref:rspo": 6964,
                "official_name": "Szko\u0142a Mistrzostwa Sportowego - Liceum Og\u00f3lnokszta\u0142c\u0105ce im. Miko\u0142aja Kopernika w Aleksandrowie \u0141\u00f3dzkim",
                "name": "Szko\u0142a Mistrzostwa Sportowego - Liceum Og\u00f3lnokszta\u0142c\u0105ce",
                "addr:postcode": "95-070",
                "addr:city": "Aleksandr\u00f3w \u0141\u00f3dzki",
                "addr:street": "Marii Sk\u0142odowskiej-Curie",
                "addr:housenumber": "5",
                "addr:city:simc": 958654,
                "addr:street:sym_ul": 20068,
                "phone": "+48 427127440",
                "email": "sekretariat@sms-kopernik.pl",
                "ref:regon": "000228878",
                "ref:vatin": "PL9471388764",
                "operator": "Powiat Zgierski",
                "operator:type": "government",
                "amenity": "school",
                "note": "Parent RSPO: 130675"
            }
        },
        {
            "id": 130686,
            "type": "Feature",
            "geometry": {
                "type": "Point",
                "coordinates": [
                    19.30318,
                    51.82253
                ]
            },
            "properties": {
                "ref:rspo": 130686,
                "official_name": "Bursa w Aleksandrowie \u0141\u00f3dzkim",
                "name": "Bursa w Aleksandrowie \u0141\u00f3dzkim",
                "addr:postcode": "95-070",
                "addr:city": "Aleksandr\u00f3w \u0141\u00f3dzki",
                "addr:street": "Marii Sk\u0142odowskiej-Curie",
                "addr:housenumber": "5",
                "addr:city:simc": 958654,
                "addr:street:sym_ul": 20068,
                "phone": "+48 427127440",
                "email": "sekretariat@sms-kopernik.pl",
                "website": "http:\/\/www.sms-kopernik.pl",
                "ref:regon": "364338091",
                "operator": "Powiat Zgierski",
                "operator:type": "government",
                "building": "dormitory",
                "note": "Parent RSPO: 130675"
            }
        },
        {
            "id": 17711,
            "type": "Feature",
            "geometry": {
                "type": "Point",
                "coordinates": [
                    19.30145,
                    51.82267
                ]
            },
            "properties": {
                "ref:rspo": 17711,
                "official_name": "Miejskie Przedszkole Nr 3 w Aleksandrowie \u0141\u00f3dzkim",
                "name": "Miejskie Przedszkole Nr 3 w Aleksandrowie \u0141\u00f3dzkim",
                "addr:postcode": "95-070",
                "addr:city": "Aleksandr\u00f3w \u0141\u00f3dzki",
                "addr:street": "Ksi\u0119dza Piotra \u015aciegiennego",
                "addr:housenumber": "5\/6",
                "addr:city:simc": 958654,
                "addr:street:sym_ul": 22290,
                "phone": "+48 422764017",
                "email": "cichecka2@wp.pl",
                "website": "http:\/\/mp3aleksandrow.wikom.pl",
                "ref:regon": "000245629",
                "ref:vatin": "PL7321910689",
                "operator": "Gmina Aleksandr\u00f3w \u0141\u00f3dzki",
                "operator:type": "government",
                "amenity": "kindergarten"
            }
        },
        {
            "id": 17011,
            "type": "Feature",
            "geometry": {
                "type": "Point",
                "coordinates": [
                    19.29818,
                    51.82284
                ]
            },
            "properties": {
                "ref:rspo": 17011,
                "official_name": "M\u0142odzie\u017cowy Dom Kultury im. Grzegorza Pintery",
                "name": "M\u0142odzie\u017cowy Dom Kultury",
                "addr:postcode": "95-070",
                "addr:city": "Aleksandr\u00f3w \u0141\u00f3dzki",
                "addr:street": "1 Maja",
                "addr:housenumber": "17\/19",
                "addr:city:simc": 958654,
                "addr:street:sym_ul": 11926,
                "phone": "+48 427120276",
                "email": "sekretariat@mdk-aleksandrow.pl",
                "website": "http:\/\/mdk-aleksandrow.pl\/",
                "ref:regon": "000240891",
                "ref:vatin": "PL9471401097",
                "operator": "Gmina Aleksandr\u00f3w \u0141\u00f3dzki",
                "operator:type": "government",
                "amenity": "community_centre",
                "community_centre:for": "juvenile"
            }
        },
        {
            "id": 7382,
            "type": "Feature",
            "geometry": {
                "type": "Point",
                "coordinates": [
                    19.30669,
                    51.8234
                ]
            },
            "properties": {
                "ref:rspo": 7382,
                "official_name": "Poradnia Psychologiczno - Pedagogiczna w Aleksandrowie \u0141\u00f3dzkim",
                "name": "Poradnia Psychologiczno - Pedagogiczna w Aleksandrowie \u0141\u00f3dzkim",
                "addr:postcode": "95-070",
                "addr:city": "Aleksandr\u00f3w \u0141\u00f3dzki",
                "addr:street": "Piotrkowska",
                "addr:housenumber": "4\/6",
                "addr:city:simc": 958654,
                "addr:street:sym_ul": 16308,
                "phone": "+48 505363525",
                "email": "kontakt@pppaleksandrow.pl",
                "website": "http:\/\/www.pppaleksandrow.pl",
                "ref:regon": "000732269",
                "ref:vatin": "PL7321896908",
                "operator": "Gmina Aleksandr\u00f3w \u0141\u00f3dzki",
                "operator:type": "government",
                "healthcare": "counselling",
                "counselling_type": "education",
                "fixme": "w zale\u017cno\u015bci od przedmiotu dzia\u0142alno\u015bci (np. healthcare=counselling + counselling_type=education albo healthcare=psychotherapist)"
            }
        },
        {
            "id": 17339,
            "type": "Feature",
            "geometry": {
                "type": "Point",
                "coordinates": [
                    19.18658,
                    51.82574
                ]
            },
            "properties": {
                "isced:level": "1;2",
                "ref:rspo": 17339,
                "official_name": "Szko\u0142a Podstawowa im. Ryszarda Wyrzykowskiego w Be\u0142dowie",
                "name": "Szko\u0142a Podstawowa",
                "addr:postcode": "95-070",
                "addr:place": "Be\u0142d\u00f3w",
                "addr:housenumber": "37",
                "addr:city:simc": 412748,
                "phone": "+48 427121494",
                "email": "sekretariat@spbeldow.pl",
                "website": "https:\/\/spbeldow.pl\/",
                "ref:regon": "001316870",
                "ref:vatin": "PL7321790239",
                "operator": "Gmina Aleksandr\u00f3w \u0141\u00f3dzki",
                "operator:type": "government",
                "amenity": "school"
            }
        },
        {
            "id": 19407,
            "type": "Feature",
            "geometry": {
                "type": "Point",
                "coordinates": [
                    19.28194,
                    51.83475
                ]
            },
            "properties": {
                "isced:level": "1;2",
                "ref:rspo": 19407,
                "official_name": "Szko\u0142a Podstawowa Z Oddzia\u0142ami Integracyjnymi im. Janusza Korczaka w Rudzie Bugaj",
                "name": "Szko\u0142a Podstawowa Z Oddzia\u0142ami Integracyjnymi",
                "addr:postcode": "95-070",
                "addr:place": "Ruda-Bugaj",
                "addr:housenumber": "54",
                "addr:city:simc": 412932,
                "phone": "+48 427121092",
                "email": "sekretariat@spruda-aleksandrow-lodzki.pl",
                "website": "http:\/\/www.spruda.szkoly.lodz.pl",
                "ref:regon": "000732223",
                "ref:vatin": "PL9471103129",
                "operator": "Gmina Aleksandr\u00f3w \u0141\u00f3dzki",
                "operator:type": "government",
                "amenity": "school"
            }
        }
    ]
}