{
    "type": "FeatureCollection",
    "features": [
        {
            "id": 49525,
            "type": "Feature",
            "geometry": {
                "type": "Point",
                "coordinates": [
                    19.72526,
                    51.94641
                ]
            },
            "properties": {
                "ref:rspo": 49525,
                "official_name": "Niepubliczna Szko\u0142a Muzyczna I St. w G\u0142ownie",
                "name": "Niepubliczna Szko\u0142a Muzyczna I St. w G\u0142ownie",
                "addr:postcode": "95-015",
                "addr:city": "G\u0142owno",
                "addr:street": "Ludwika Norblina",
                "addr:housenumber": "1",
                "addr:city:simc": 958714,
                "addr:street:sym_ul": 43687,
                "ref:regon": "101487544",
                "operator": "Aleksandra Guni",
                "operator:type": "private",
                "amenity": "music_school"
            }
        },
        {
            "id": 120830,
            "type": "Feature",
            "geometry": {
                "type": "Point",
                "coordinates": [
                    19.72157,
                    51.94863
                ]
            },
            "properties": {
                "ref:rspo": 120830,
                "official_name": "Niepubliczne Przedszkole Integracyjne \"Osinkowo\"",
                "name": "Niepubliczne Przedszkole Integracyjne \"Osinkowo\"",
                "addr:postcode": "95-015",
                "addr:city": "G\u0142owno",
                "addr:street": "Genera\u0142a W\u0142adys\u0142awa Sikorskiego",
                "addr:housenumber": "42",
                "addr:city:simc": 958714,
                "addr:street:sym_ul": 19907,
                "phone": "+48 427194527",
                "email": "prodesse@interia.pl",
                "website": "http:\/\/www.osinkowo.pl",
                "ref:regon": "101694800",
                "ref:vatin": "PL8361846188",
                "operator": "Stowarzyszenie Wspierania Dobrej Praktyki Pedagogicznej \"Prodesse\"",
                "operator:type": "ngo",
                "amenity": "kindergarten"
            }
        },
        {
            "id": 70716,
            "type": "Feature",
            "geometry": {
                "type": "Point",
                "coordinates": [
                    19.71915,
                    51.95518
                ]
            },
            "properties": {
                "isced:level": "1;2",
                "ref:rspo": 70716,
                "official_name": "Szko\u0142a Podstawowa nr 2 im. Adama Mickiewicza w G\u0142ownie",
                "name": "Szko\u0142a Podstawowa nr 2",
                "addr:postcode": "95-015",
                "addr:city": "G\u0142owno",
                "addr:street": "Genera\u0142a W\u0142adys\u0142awa Andersa",
                "addr:housenumber": "37",
                "addr:city:simc": 958714,
                "addr:street:sym_ul": 285,
                "phone": "+48 427191025",
                "email": "sp2glowno2@wp.pl",
                "website": "http:\/\/sp2glowno.pl",
                "ref:regon": "000732281",
                "ref:vatin": "PL7331021933",
                "operator": "Gmina Miasta G\u0142owno",
                "operator:type": "government",
                "amenity": "school"
            }
        },
        {
            "id": 7313,
            "type": "Feature",
            "geometry": {
                "type": "Point",
                "coordinates": [
                    19.72972,
                    51.95564
                ]
            },
            "properties": {
                "ref:rspo": 7313,
                "official_name": "Zesp\u00f3\u0142 Szk\u00f3\u0142 Specjalnych w G\u0142ownie",
                "name": "Zesp\u00f3\u0142 Szk\u00f3\u0142 Specjalnych w G\u0142ownie",
                "addr:postcode": "95-015",
                "addr:city": "G\u0142owno",
                "addr:street": "Miko\u0142aja Kopernika",
                "addr:housenumber": "26a",
                "addr:city:simc": 958714,
                "addr:street:sym_ul": 9282,
                "phone": "+48 427190854",
                "email": "sekretariat@zssglowno.pl",
                "website": "http:\/\/zssglowno.pl",
                "ref:regon": "000732306",
                "ref:vatin": "PL7331291288",
                "operator": "Powiat Zgierski",
                "operator:type": "government",
                "landuse": "education",
                "fixme": "amenity=school, amenity=college albo landuse=education w zale\u017cno\u015bci od tego, jakie plac\u00f3wki wchodz\u0105 w sk\u0142ad zespo\u0142u. Sprawd\u017a, kiedy stosowa\u0107 amenity=* a kiedy landuse=education.",
                "note": "Children RSPO: 9703;10197;10200;123018"
            }
        },
        {
            "id": 9703,
            "type": "Feature",
            "geometry": {
                "type": "Point",
                "coordinates": [
                    19.72972,
                    51.95561
                ]
            },
            "properties": {
                "ref:rspo": 9703,
                "official_name": "Przedszkole Specjalne \"Szafirek\" nr 4 w Zespole Szk\u00f3\u0142 Specjalnych w G\u0142ownie",
                "name": "Przedszkole Specjalne \"Szafirek\" nr 4 w Zespole Szk\u00f3\u0142 Specjalnych w G\u0142ownie",
                "addr:postcode": "95-015",
                "addr:city": "G\u0142owno",
                "addr:street": "Miko\u0142aja Kopernika",
                "addr:housenumber": "26a",
                "addr:city:simc": 958714,
                "addr:street:sym_ul": 9282,
                "phone": "+48 427190854",
                "email": "sekretariat@zssglowno.pl",
                "website": "http:\/\/www.zssglowno.pl",
                "ref:regon": "101462018",
                "operator": "Powiat Zgierski",
                "operator:type": "government",
                "amenity": "kindergarten",
                "note": "Parent RSPO: 7313"
            }
        },
        {
            "id": 10197,
            "type": "Feature",
            "geometry": {
                "type": "Point",
                "coordinates": [
                    19.72972,
                    51.955580000000005
                ]
            },
            "properties": {
                "ref:rspo": 10197,
                "official_name": "Szko\u0142a Specjalna Przysposabiaj\u0105ca do Pracy w G\u0142ownie",
                "name": "Szko\u0142a Specjalna Przysposabiaj\u0105ca do Pracy w G\u0142ownie",
                "addr:postcode": "95-015",
                "addr:city": "G\u0142owno",
                "addr:street": "Miko\u0142aja Kopernika",
                "addr:housenumber": "26a",
                "addr:city:simc": 958714,
                "addr:street:sym_ul": 9282,
                "phone": "+48 427190854",
                "email": "sekretariat@zssglowno.pl",
                "website": "http:\/\/www.zssglowno.pl",
                "ref:regon": "100027852",
                "operator": "Powiat Zgierski",
                "operator:type": "government",
                "amenity": "school",
                "note": "Parent RSPO: 7313"
            }
        },
        {
            "id": 10200,
            "type": "Feature",
            "geometry": {
                "type": "Point",
                "coordinates": [
                    19.72972,
                    51.95555
                ]
            },
            "properties": {
                "isced:level": "1;2",
                "ref:rspo": 10200,
                "official_name": "Szko\u0142a Podstawowa Specjalna nr 5 w G\u0142ownie",
                "name": "Szko\u0142a Podstawowa Specjalna nr 5 w G\u0142ownie",
                "addr:postcode": "95-015",
                "addr:city": "G\u0142owno",
                "addr:street": "Miko\u0142aja Kopernika",
                "addr:housenumber": "26a",
                "addr:city:simc": 958714,
                "addr:street:sym_ul": 9282,
                "phone": "+48 427190854",
                "email": "sekretariat@zssglowno.pl",
                "website": "http:\/\/www.zssglowno.pl",
                "ref:regon": "472910370",
                "operator": "Powiat Zgierski",
                "operator:type": "government",
                "amenity": "school",
                "note": "Parent RSPO: 7313"
            }
        },
        {
            "id": 123018,
            "type": "Feature",
            "geometry": {
                "type": "Point",
                "coordinates": [
                    19.72972,
                    51.95552
                ]
            },
            "properties": {
                "isced:level": "3",
                "ref:rspo": 123018,
                "official_name": "Specjalna Szko\u0142a Bran\u017cowa I Stopnia nr 2 w G\u0142ownie w Zespole Szk\u00f3\u0142 Specjalnych w G\u0142ownie",
                "name": "Specjalna Szko\u0142a Bran\u017cowa I Stopnia nr 2 w G\u0142ownie w Zespole Szk\u00f3\u0142 Specjalnych w G\u0142ownie",
                "addr:postcode": "95-015",
                "addr:city": "G\u0142owno",
                "addr:street": "Miko\u0142aja Kopernika",
                "addr:housenumber": "26a",
                "addr:city:simc": 958714,
                "addr:street:sym_ul": 9282,
                "phone": "+48 427190854",
                "email": "sekretariat@zssglowno.pl",
                "website": "http:\/\/www.zssglowno.pl",
                "ref:regon": "101775160",
                "operator": "Powiat Zgierski",
                "operator:type": "government",
                "amenity": "school",
                "note": "Parent RSPO: 7313"
            }
        },
        {
            "id": 120831,
            "type": "Feature",
            "geometry": {
                "type": "Point",
                "coordinates": [
                    19.72915,
                    51.95632
                ]
            },
            "properties": {
                "ref:rspo": 120831,
                "official_name": "Prywatne Przedszkole Niepubliczne \"Nibylandia\"",
                "name": "Prywatne Przedszkole Niepubliczne \"Nibylandia\"",
                "addr:postcode": "95-015",
                "addr:city": "G\u0142owno",
                "addr:street": "Miko\u0142aja Kopernika",
                "addr:housenumber": "29",
                "addr:city:simc": 958714,
                "addr:street:sym_ul": 9282,
                "phone": "+48 427160206",
                "email": "przedszkole@nibylandia.info",
                "website": "http:\/\/www.przedszkole-glowno.pl",
                "ref:regon": "101694817",
                "ref:vatin": "PL7331142364",
                "operator": "Hubert Rosak",
                "operator:type": "private",
                "amenity": "kindergarten"
            }
        },
        {
            "id": 7110,
            "type": "Feature",
            "geometry": {
                "type": "Point",
                "coordinates": [
                    19.72986,
                    51.95641
                ]
            },
            "properties": {
                "ref:rspo": 7110,
                "official_name": "Zesp\u00f3\u0142 Szk\u00f3\u0142 nr 1 w G\u0142ownie",
                "name": "Zesp\u00f3\u0142 Szk\u00f3\u0142 nr 1 w G\u0142ownie",
                "addr:postcode": "95-015",
                "addr:city": "G\u0142owno",
                "addr:street": "Miko\u0142aja Kopernika",
                "addr:housenumber": "24\/26",
                "addr:city:simc": 958714,
                "addr:street:sym_ul": 9282,
                "phone": "+48 427190788",
                "email": "szkola@cebertowicz.com.pl",
                "ref:regon": "000179690",
                "ref:vatin": "PL7331040451",
                "operator": "Powiat Zgierski",
                "operator:type": "government",
                "landuse": "education",
                "fixme": "amenity=school, amenity=college albo landuse=education w zale\u017cno\u015bci od tego, jakie plac\u00f3wki wchodz\u0105 w sk\u0142ad zespo\u0142u. Sprawd\u017a, kiedy stosowa\u0107 amenity=* a kiedy landuse=education.",
                "note": "Children RSPO: 9338;9355;9360;9379"
            }
        },
        {
            "id": 9338,
            "type": "Feature",
            "geometry": {
                "type": "Point",
                "coordinates": [
                    19.72986,
                    51.956379999999996
                ]
            },
            "properties": {
                "isced:level": "3",
                "ref:rspo": 9338,
                "official_name": "Szko\u0142a Bran\u017cowa I Stopnia nr 1 w Zespole Szk\u00f3\u0142 nr 1 w G\u0142ownie",
                "name": "Szko\u0142a Bran\u017cowa I Stopnia nr 1 w Zespole Szk\u00f3\u0142 nr 1 w G\u0142ownie",
                "addr:postcode": "95-015",
                "addr:city": "G\u0142owno",
                "addr:street": "Miko\u0142aja Kopernika",
                "addr:housenumber": "24",
                "addr:city:simc": 958714,
                "addr:street:sym_ul": 9282,
                "phone": "+48 427190788",
                "email": "szkola@cebertowicz.com.pl",
                "website": "http:\/\/www.cebertowicz.com.pl",
                "ref:regon": "472898633",
                "operator": "Powiat Zgierski",
                "operator:type": "government",
                "amenity": "school",
                "note": "Parent RSPO: 7110"
            }
        },
        {
            "id": 9355,
            "type": "Feature",
            "geometry": {
                "type": "Point",
                "coordinates": [
                    19.72986,
                    51.95635
                ]
            },
            "properties": {
                "isced:level": "3",
                "ref:rspo": 9355,
                "official_name": "Technikum w Zespole Szk\u00f3\u0142 nr 1 w G\u0142ownie",
                "name": "Technikum w Zespole Szk\u00f3\u0142 nr 1 w G\u0142ownie",
                "addr:postcode": "95-015",
                "addr:city": "G\u0142owno",
                "addr:street": "Miko\u0142aja Kopernika",
                "addr:housenumber": "24",
                "addr:city:simc": 958714,
                "addr:street:sym_ul": 9282,
                "phone": "+48 427190788",
                "email": "szkola@cebertowicz.com.pl",
                "website": "http:\/\/www.cebertowicz.com.pl",
                "ref:regon": "100085000",
                "operator": "Powiat Zgierski",
                "operator:type": "government",
                "amenity": "school",
                "note": "Parent RSPO: 7110"
            }
        },
        {
            "id": 9360,
            "type": "Feature",
            "geometry": {
                "type": "Point",
                "coordinates": [
                    19.72986,
                    51.95632
                ]
            },
            "properties": {
                "isced:level": "3",
                "ref:rspo": 9360,
                "official_name": "Ii Liceum Og\u00f3lnokszta\u0142c\u0105ce w Zespole Szk\u00f3\u0142 nr 1 w G\u0142ownie",
                "name": "Ii Liceum Og\u00f3lnokszta\u0142c\u0105ce w Zespole Szk\u00f3\u0142 nr 1 w G\u0142ownie",
                "addr:postcode": "95-015",
                "addr:city": "G\u0142owno",
                "addr:street": "Miko\u0142aja Kopernika",
                "addr:housenumber": "24",
                "addr:city:simc": 958714,
                "addr:street:sym_ul": 9282,
                "phone": "+48 427190788",
                "email": "szkola@cebertowicz.com.pl",
                "website": "http:\/\/www.cebertowicz.com.pl",
                "ref:regon": "100430217",
                "operator": "Powiat Zgierski",
                "operator:type": "government",
                "amenity": "school",
                "note": "Parent RSPO: 7110"
            }
        },
        {
            "id": 9379,
            "type": "Feature",
            "geometry": {
                "type": "Point",
                "coordinates": [
                    19.72986,
                    51.956289999999996
                ]
            },
            "properties": {
                "isced:level": "4",
                "ref:rspo": 9379,
                "official_name": "Szko\u0142a Policealna w Zespole Szk\u00f3\u0142 nr 1 w G\u0142ownie",
                "name": "Szko\u0142a Policealna w Zespole Szk\u00f3\u0142 nr 1 w G\u0142ownie",
                "addr:postcode": "95-015",
                "addr:city": "G\u0142owno",
                "addr:street": "Miko\u0142aja Kopernika",
                "addr:housenumber": "24",
                "addr:city:simc": 958714,
                "addr:street:sym_ul": 9282,
                "phone": "+48 427190788",
                "email": "szkola@cebertowicz.com.pl",
                "website": "http:\/\/www.cebertowicz.com.pl",
                "ref:regon": "472898679",
                "operator": "Powiat Zgierski",
                "operator:type": "government",
                "amenity": "college",
                "note": "Parent RSPO: 7110"
            }
        },
        {
            "id": 70655,
            "type": "Feature",
            "geometry": {
                "type": "Point",
                "coordinates": [
                    19.71436,
                    51.95681
                ]
            },
            "properties": {
                "ref:rspo": 70655,
                "official_name": "Miejskie Przedszkole nr 2 w G\u0142ownie",
                "name": "Miejskie Przedszkole nr 2 w G\u0142ownie",
                "addr:postcode": "95-015",
                "addr:city": "G\u0142owno",
                "addr:street": "Genera\u0142a W\u0142adys\u0142awa Sikorskiego",
                "addr:housenumber": "53A",
                "addr:city:simc": 958714,
                "addr:street:sym_ul": 19907,
                "phone": "+48 427191069",
                "email": "mp2@glowno.pl",
                "ref:regon": "470010649",
                "ref:vatin": "PL7331140359",
                "operator": "Gmina Miasta G\u0142owno",
                "operator:type": "government",
                "amenity": "kindergarten"
            }
        },
        {
            "id": 10387,
            "type": "Feature",
            "geometry": {
                "type": "Point",
                "coordinates": [
                    19.73116,
                    51.95942
                ]
            },
            "properties": {
                "isced:level": "3",
                "ref:rspo": 10387,
                "official_name": "Publiczne Katolickie Liceum Og\u00f3lnokszta\u0142c\u0105ce im. Jana Paw\u0142a II w G\u0142ownie",
                "name": "Publiczne Katolickie Liceum Og\u00f3lnokszta\u0142c\u0105ce",
                "addr:postcode": "95-015",
                "addr:city": "G\u0142owno",
                "addr:street": "Tadeusza Ko\u015bciuszki",
                "addr:housenumber": "11\/13",
                "addr:city:simc": 958714,
                "addr:street:sym_ul": 9582,
                "phone": "+48 725021905",
                "email": "liceumjp2glowno@tlen.pl",
                "website": "http:\/\/pkloglowno.superszkolna.pl\/",
                "ref:regon": "101467004",
                "operator": "Parafia Rzymsko-Katolicka P.w. \u015awi\u0119tego Jakuba Aposto\u0142a",
                "operator:type": "religious",
                "amenity": "school"
            }
        },
        {
            "id": 7316,
            "type": "Feature",
            "geometry": {
                "type": "Point",
                "coordinates": [
                    19.73133,
                    51.96
                ]
            },
            "properties": {
                "ref:rspo": 7316,
                "official_name": "Poradnia Psychologiczno - Pedagogiczna w G\u0142ownie",
                "name": "Poradnia Psychologiczno - Pedagogiczna w G\u0142ownie",
                "addr:postcode": "95-015",
                "addr:city": "G\u0142owno",
                "addr:street": "Tadeusza Ko\u015bciuszki",
                "addr:housenumber": "10",
                "addr:city:simc": 958714,
                "addr:street:sym_ul": 9582,
                "phone": "+48 427190767",
                "email": "poradniaglowno@gmail.com",
                "website": "http:\/\/www.poradniapp-glowno.pl",
                "ref:regon": "000814530",
                "ref:vatin": "PL7331274597",
                "operator": "Powiat Zgierski",
                "operator:type": "government",
                "healthcare": "counselling",
                "counselling_type": "education",
                "fixme": "w zale\u017cno\u015bci od przedmiotu dzia\u0142alno\u015bci (np. healthcare=counselling + counselling_type=education albo healthcare=psychotherapist)"
            }
        },
        {
            "id": 8027,
            "type": "Feature",
            "geometry": {
                "type": "Point",
                "coordinates": [
                    19.73133,
                    51.95997
                ]
            },
            "properties": {
                "isced:level": "3",
                "ref:rspo": 8027,
                "official_name": "I Liceum Og\u00f3lnokszta\u0142c\u0105ce w G\u0142ownie",
                "name": "I Liceum Og\u00f3lnokszta\u0142c\u0105ce w G\u0142ownie",
                "addr:postcode": "95-015",
                "addr:city": "G\u0142owno",
                "addr:street": "Tadeusza Ko\u015bciuszki",
                "addr:housenumber": "10",
                "addr:city:simc": 958714,
                "addr:street:sym_ul": 9582,
                "phone": "+48 427190780",
                "email": "sekretariat@1loglowno.pl",
                "website": "http:\/\/www.1loglowno.pl",
                "ref:regon": "471219251",
                "operator": "Powiat Zgierski",
                "operator:type": "government",
                "amenity": "school"
            }
        },
        {
            "id": 70657,
            "type": "Feature",
            "geometry": {
                "type": "Point",
                "coordinates": [
                    19.69237,
                    51.9608
                ]
            },
            "properties": {
                "ref:rspo": 70657,
                "official_name": "Miejskie Przedszkole nr 3 w G\u0142ownie",
                "name": "Miejskie Przedszkole nr 3 w G\u0142ownie",
                "addr:postcode": "95-015",
                "addr:city": "G\u0142owno",
                "addr:street": "Genera\u0142a Juliana Skokowskiego",
                "addr:housenumber": "8\/10",
                "addr:city:simc": 958714,
                "addr:street:sym_ul": 53630,
                "phone": "+48 427191445",
                "email": "mp3glowno@poczta.fm",
                "ref:regon": "470562700",
                "ref:vatin": "PL7331140365",
                "operator": "Gmina Miasta G\u0142owno",
                "operator:type": "government",
                "amenity": "kindergarten"
            }
        },
        {
            "id": 120832,
            "type": "Feature",
            "geometry": {
                "type": "Point",
                "coordinates": [
                    19.69713,
                    51.9618899
                ]
            },
            "properties": {
                "ref:rspo": 120832,
                "official_name": "Przedszkole Niepubliczne Artystyczno-J\u0119zykowe \"Tygrysek\"",
                "name": "Przedszkole Niepubliczne Artystyczno-J\u0119zykowe \"Tygrysek\"",
                "addr:postcode": "95-015",
                "addr:city": "G\u0142owno",
                "addr:street": "Karasicka",
                "addr:housenumber": "30\/30A",
                "addr:city:simc": 958714,
                "addr:street:sym_ul": 8009,
                "phone": "+48 604214165",
                "email": "kontakt@przedszkole-tygrysek.pl",
                "website": "http:\/\/www.przedszkole-tygrysek.pl",
                "ref:regon": "101694823",
                "ref:vatin": "PL7331347132",
                "operator": "Familia Funk S.c. Maria Banasiak, Jadwiga Pawlicka",
                "operator:type": "private",
                "amenity": "kindergarten"
            }
        },
        {
            "id": 70645,
            "type": "Feature",
            "geometry": {
                "type": "Point",
                "coordinates": [
                    19.69323,
                    51.9619799
                ]
            },
            "properties": {
                "isced:level": "1;2",
                "ref:rspo": 70645,
                "official_name": "Szko\u0142a Podstawowa nr 3 im. Tadeusza Ko\u015bciuszki",
                "name": "Szko\u0142a Podstawowa nr 3",
                "addr:postcode": "95-015",
                "addr:city": "G\u0142owno",
                "addr:street": "Karasicka",
                "addr:housenumber": "35",
                "addr:city:simc": 958714,
                "addr:street:sym_ul": 8009,
                "phone": "+48 427191038",
                "email": "sp3glowno@op.pl",
                "ref:regon": "000563559",
                "ref:vatin": "PL7331015281",
                "operator": "Gmina Miasta G\u0142owno",
                "operator:type": "government",
                "amenity": "school"
            }
        },
        {
            "id": 10553,
            "type": "Feature",
            "geometry": {
                "type": "Point",
                "coordinates": [
                    19.71966,
                    51.96473
                ]
            },
            "properties": {
                "isced:level": "3",
                "ref:rspo": 10553,
                "official_name": "Liceum Og\u00f3lnokszta\u0142c\u0105ce dla Doros\u0142ych w G\u0142ownie",
                "name": "Liceum Og\u00f3lnokszta\u0142c\u0105ce dla Doros\u0142ych w G\u0142ownie",
                "addr:postcode": "95-015",
                "addr:city": "G\u0142owno",
                "addr:street": "plac Wolno\u015bci",
                "addr:housenumber": "11",
                "addr:city:simc": 958714,
                "addr:street:sym_ul": 53632,
                "phone": "+48 790878991",
                "email": "loglowno@gmail.com",
                "website": "http:\/\/loglowno.pl",
                "ref:regon": "101466973",
                "ref:vatin": "PL7331113670",
                "operator": "Jadwiga Pawlicka",
                "operator:type": "private",
                "amenity": "school"
            }
        },
        {
            "id": 120828,
            "type": "Feature",
            "geometry": {
                "type": "Point",
                "coordinates": [
                    19.7253599,
                    51.96799
                ]
            },
            "properties": {
                "ref:rspo": 120828,
                "official_name": "Miejskie Przedszkole nr 1 w G\u0142ownie",
                "name": "Miejskie Przedszkole nr 1 w G\u0142ownie",
                "addr:postcode": "95-015",
                "addr:city": "G\u0142owno",
                "addr:street": "Stanis\u0142awa Wigury",
                "addr:housenumber": "7",
                "addr:city:simc": 958714,
                "addr:street:sym_ul": 24243,
                "phone": "+48 427191085",
                "email": "mp1@glowno.pl",
                "website": "http:\/\/www.mp1.glowno.pl",
                "ref:regon": "470010632",
                "ref:vatin": "PL7331140342",
                "operator": "Gmina Miasta G\u0142owno",
                "operator:type": "government",
                "amenity": "kindergarten"
            }
        },
        {
            "id": 70712,
            "type": "Feature",
            "geometry": {
                "type": "Point",
                "coordinates": [
                    19.72189,
                    51.96906
                ]
            },
            "properties": {
                "isced:level": "1;2",
                "ref:rspo": 70712,
                "official_name": "Szko\u0142a Podstawowa nr 1 im. J\u00f3zefa Pi\u0142sudskiego w G\u0142ownie",
                "name": "Szko\u0142a Podstawowa nr 1",
                "addr:postcode": "95-015",
                "addr:city": "G\u0142owno",
                "addr:street": "plac W\u0142adys\u0142awa Reymonta",
                "addr:housenumber": "2",
                "addr:city:simc": 958714,
                "addr:street:sym_ul": 53631,
                "phone": "+48 427191013",
                "email": "szkola@sp1.glowno.pl",
                "ref:regon": "000732275",
                "ref:vatin": "PL7331021962",
                "operator": "Gmina Miasta G\u0142owno",
                "operator:type": "government",
                "amenity": "school"
            }
        },
        {
            "id": 120829,
            "type": "Feature",
            "geometry": {
                "type": "Point",
                "coordinates": [
                    19.71529,
                    51.9692099
                ]
            },
            "properties": {
                "ref:rspo": 120829,
                "official_name": "Akademia Trzylatka",
                "name": "Akademia Trzylatka",
                "addr:postcode": "95-015",
                "addr:city": "G\u0142owno",
                "addr:street": "Z\u0142ota",
                "addr:housenumber": "30",
                "addr:city:simc": 958714,
                "addr:street:sym_ul": 26188,
                "phone": "+48 427191622",
                "email": "akademiaglowno@wp.pl",
                "ref:regon": "101694792",
                "ref:vatin": "PL7331221164",
                "operator": "Agata Zielinska",
                "operator:type": "private",
                "amenity": "kindergarten"
            }
        }
    ]
}