{
    "type": "FeatureCollection",
    "features": [
        {
            "id": 26792,
            "type": "Feature",
            "geometry": {
                "type": "Point",
                "coordinates": [
                    19.42639,
                    51.8913
                ]
            },
            "properties": {
                "isced:level": "1;2",
                "ref:rspo": 26792,
                "official_name": "Szko\u0142a Podstawowa im. Marii Kownackiej w D\u0105br\u00f3wce Wielkiej",
                "name": "Szko\u0142a Podstawowa",
                "addr:postcode": "95-100",
                "addr:city": "D\u0105br\u00f3wka Wielka",
                "addr:street": "G\u0142\u00f3wna",
                "addr:housenumber": "49",
                "addr:teryt:simc": 416663,
                "addr:teryt:sym_ul": 5635,
                "phone": "+48 427178252",
                "email": "sp.dabrowka@op.pl",
                "website": "http:\/\/www.spdabrowkawielka.pl",
                "ref:regon": "001113769",
                "ref:vatin": "PL7321919325",
                "operator": "Gmina Zgierz",
                "operator:type": "government",
                "amenity": "school"
            }
        },
        {
            "id": 272436,
            "type": "Feature",
            "geometry": {
                "type": "Point",
                "coordinates": [
                    19.31237,
                    51.89285
                ]
            },
            "properties": {
                "ref:rspo": 272436,
                "official_name": "Zesp\u00f3\u0142 Szkolno - Przedszkolny w Grotnikach",
                "name": "Zesp\u00f3\u0142 Szkolno - Przedszkolny w Grotnikach",
                "addr:postcode": "95-073",
                "addr:city": "Grotniki",
                "addr:street": "Brzozowa",
                "addr:housenumber": "4",
                "addr:teryt:simc": 416829,
                "addr:teryt:sym_ul": 2276,
                "phone": "+48 427179190",
                "email": "zsg.grotniki@poczta.fm",
                "website": "http:\/\/zspgrotniki.edupage.org.pl",
                "ref:regon": "384172640",
                "ref:vatin": "PL7321976346",
                "operator": "Gmina Zgierz",
                "operator:type": "government",
                "landuse": "education",
                "fixme": "amenity=school, amenity=college albo landuse=education w zale\u017cno\u015bci od tego, jakie plac\u00f3wki wchodz\u0105 w sk\u0142ad zespo\u0142u. Sprawd\u017a, kiedy stosowa\u0107 amenity=* a kiedy landuse=education.",
                "note": "Children RSPO: 27292;115457"
            }
        },
        {
            "id": 27292,
            "type": "Feature",
            "geometry": {
                "type": "Point",
                "coordinates": [
                    19.31237,
                    51.89282
                ]
            },
            "properties": {
                "isced:level": "1;2",
                "ref:rspo": 27292,
                "official_name": "Szko\u0142a Podstawowa w Grotnikach",
                "name": "Szko\u0142a Podstawowa w Grotnikach",
                "addr:postcode": "95-073",
                "addr:city": "Grotniki",
                "addr:street": "Brzozowa",
                "addr:housenumber": "4",
                "addr:teryt:simc": 416829,
                "addr:teryt:sym_ul": 2276,
                "phone": "+48 427179190",
                "email": "zsg.grotniki@poczta.fm",
                "website": "http:\/\/zspgrotniki.edupage.org",
                "ref:regon": "001113700",
                "operator": "Gmina Zgierz",
                "operator:type": "government",
                "amenity": "school",
                "note": "Parent RSPO: 272436"
            }
        },
        {
            "id": 115457,
            "type": "Feature",
            "geometry": {
                "type": "Point",
                "coordinates": [
                    19.31237,
                    51.892790000000005
                ]
            },
            "properties": {
                "ref:rspo": 115457,
                "official_name": "Przedszkole w Grotnikach",
                "name": "Przedszkole w Grotnikach",
                "addr:postcode": "95-073",
                "addr:city": "Grotniki",
                "addr:street": "Brzozowa",
                "addr:housenumber": "4",
                "addr:teryt:simc": 416829,
                "addr:teryt:sym_ul": 2276,
                "phone": "+48 427179190",
                "email": "zsg.grotniki@poczta.fm",
                "ref:regon": "470850125",
                "operator": "Gmina Zgierz",
                "operator:type": "government",
                "amenity": "kindergarten",
                "note": "Parent RSPO: 272436"
            }
        },
        {
            "id": 71186,
            "type": "Feature",
            "geometry": {
                "type": "Point",
                "coordinates": [
                    19.4879,
                    51.90028
                ]
            },
            "properties": {
                "isced:level": "1;2",
                "ref:rspo": 71186,
                "official_name": "Szko\u0142a Podstawowa im. Kr\u00f3la Stefana Batorego w Szczawinie",
                "name": "Szko\u0142a Podstawowa",
                "addr:postcode": "95-002",
                "addr:city": "Szczawin",
                "addr:street": "Ko\u015bcielna",
                "addr:housenumber": "21",
                "addr:teryt:simc": 417250,
                "addr:teryt:sym_ul": 9546,
                "phone": "+48 427169010",
                "email": "gimszczawin@op.pl",
                "website": "http:\/\/www.spszczawin.szkoly.lodz.pl",
                "ref:regon": "001113752",
                "ref:vatin": "PL7321976731",
                "operator": "Gmina Zgierz",
                "operator:type": "government",
                "amenity": "school"
            }
        },
        {
            "id": 269481,
            "type": "Feature",
            "geometry": {
                "type": "Point",
                "coordinates": [
                    19.50742,
                    51.90041
                ]
            },
            "properties": {
                "ref:rspo": 269481,
                "official_name": "Niepubliczne Przedszkole Integracyjne \"Szczawinkowo\"",
                "name": "Niepubliczne Przedszkole Integracyjne \"Szczawinkowo\"",
                "addr:postcode": "95-002",
                "addr:city": "Szczawin Du\u017cy",
                "addr:street": "Strykowska",
                "addr:housenumber": "76\/78",
                "addr:teryt:simc": 417266,
                "addr:teryt:sym_ul": 21347,
                "phone": "+48 427176542",
                "email": "biuro@szczawinkowo.pl",
                "website": "http:\/\/www.szczawinkowo.pl",
                "ref:regon": "381511231",
                "operator": "Stowarzyszenie Wspierania Dobrej Praktyki Pedagogicznej \"Prodesse\"",
                "operator:type": "ngo",
                "amenity": "kindergarten"
            }
        },
        {
            "id": 26656,
            "type": "Feature",
            "geometry": {
                "type": "Point",
                "coordinates": [
                    19.44653,
                    51.9295199
                ]
            },
            "properties": {
                "isced:level": "1;2",
                "ref:rspo": 26656,
                "official_name": "Szko\u0142a Podstawowa im. Jana Kasi\u0144skiego w Bia\u0142ej",
                "name": "Szko\u0142a Podstawowa",
                "addr:postcode": "95-001",
                "addr:city": "Bia\u0142a",
                "addr:street": "Ko\u015bcielna",
                "addr:housenumber": "4",
                "addr:teryt:simc": 416516,
                "addr:teryt:sym_ul": 9546,
                "phone": "+48 427178413",
                "email": "spbiala4@gmail.com",
                "website": "http:\/\/www.spbiala.szkolnastrona.pl",
                "ref:regon": "001113686",
                "ref:vatin": "PL7321919302",
                "operator": "Gmina Zgierz",
                "operator:type": "government",
                "amenity": "school"
            }
        },
        {
            "id": 27355,
            "type": "Feature",
            "geometry": {
                "type": "Point",
                "coordinates": [
                    19.35219,
                    51.92962
                ]
            },
            "properties": {
                "isced:level": "1;2",
                "ref:rspo": 27355,
                "official_name": "Szko\u0142a Podstawowa im. Henryka Sienkiewicza w S\u0142owiku",
                "name": "Szko\u0142a Podstawowa",
                "addr:postcode": "95-100",
                "addr:city": "S\u0142owik",
                "addr:street": "Gda\u0144ska",
                "addr:housenumber": "42",
                "addr:teryt:simc": 417220,
                "addr:teryt:sym_ul": 5431,
                "phone": "+48 427170236",
                "email": "zsg.slowik@wp.pl",
                "website": "http:\/\/www.zsgslowik.szkoly.lodz.pl",
                "ref:regon": "001113730",
                "ref:vatin": "PL7321984392",
                "operator": "Gmina Zgierz",
                "operator:type": "government",
                "amenity": "school"
            }
        },
        {
            "id": 26763,
            "type": "Feature",
            "geometry": {
                "type": "Point",
                "coordinates": [
                    19.49065,
                    51.95271
                ]
            },
            "properties": {
                "isced:level": "1;2",
                "ref:rspo": 26763,
                "official_name": "Szko\u0142a Podstawowa im. 28 Pu\u0142ku Strzelc\u00f3w Kaniowskich w Besiekierzu Rudnym",
                "name": "Szko\u0142a Podstawowa",
                "addr:postcode": "95-001",
                "addr:place": "Besiekierz Rudny",
                "addr:housenumber": "20",
                "addr:teryt:simc": 416491,
                "phone": "+48 427178479",
                "email": "besiekierz@o2.pl",
                "website": "http:\/\/www.spbesiekierz.szkolnastrona.pl",
                "ref:regon": "001113692",
                "ref:vatin": "PL7321919354",
                "operator": "Gmina Zgierz",
                "operator:type": "government",
                "amenity": "school"
            }
        },
        {
            "id": 26909,
            "type": "Feature",
            "geometry": {
                "type": "Point",
                "coordinates": [
                    19.4508699,
                    51.9936
                ]
            },
            "properties": {
                "isced:level": "1;2",
                "ref:rspo": 26909,
                "official_name": "Szko\u0142a Podstawowa w Giecznie",
                "name": "Szko\u0142a Podstawowa w Giecznie",
                "addr:postcode": "95-001",
                "addr:city": "Gieczno",
                "addr:street": "Szkolna",
                "addr:housenumber": "2",
                "addr:teryt:simc": 416752,
                "addr:teryt:sym_ul": 21970,
                "phone": "+48 427178310",
                "email": "zsggieczno@op.pl",
                "website": "http:\/\/www.gieczno.szkolnastrona.pl",
                "ref:regon": "001113717",
                "ref:vatin": "PL7322186095",
                "operator": "Gmina Zgierz",
                "operator:type": "government",
                "amenity": "school"
            }
        }
    ]
}