{
    "type": "FeatureCollection",
    "features": [
        {
            "id": 263145,
            "type": "Feature",
            "geometry": {
                "type": "Point",
                "coordinates": [
                    19.59224,
                    51.8511
                ]
            },
            "properties": {
                "isced:level": "3",
                "ref:rspo": 263145,
                "official_name": "Niepubliczna Bran\u017cowa Szko\u0142a I Stopnia w Dobieszkowie",
                "name": "Niepubliczna Bran\u017cowa Szko\u0142a I Stopnia w Dobieszkowie",
                "addr:postcode": "95-010",
                "addr:place": "Dobieszk\u00f3w",
                "addr:housenumber": "68",
                "addr:teryt:simc": 416060,
                "phone": "+48 427109660",
                "email": "zuzanna.jeziorska@gmail.com",
                "ref:regon": "368109571",
                "operator": "Stowarzyszenie Rehabilitacji I Readaptacji Spo\u0142ecznej \"Wyspa\"",
                "operator:type": "ngo",
                "amenity": "school"
            }
        },
        {
            "id": 269486,
            "type": "Feature",
            "geometry": {
                "type": "Point",
                "coordinates": [
                    19.59224,
                    51.85107
                ]
            },
            "properties": {
                "ref:rspo": 269486,
                "official_name": "Niepubliczny M\u0142odzie\u017cowy O\u015brodek Socjoterapii w Dobieszkowie",
                "name": "Niepubliczny M\u0142odzie\u017cowy O\u015brodek Socjoterapii w Dobieszkowie",
                "addr:postcode": "95-010",
                "addr:place": "Dobieszk\u00f3w",
                "addr:housenumber": "68",
                "addr:teryt:simc": 416060,
                "phone": "+48 427109660",
                "email": "branzowawyspa@o2.pl",
                "ref:regon": "381514554",
                "operator": "Stowarzyszenie Rehabilitacji I Readaptacji Spo\u0142ecznej \"Wyspa\"",
                "operator:type": "ngo",
                "fixme": "amenity=social_facility + social_facility=group_home + social_facility:for=juvenile",
                "note": "Children RSPO: 269491"
            }
        },
        {
            "id": 269491,
            "type": "Feature",
            "geometry": {
                "type": "Point",
                "coordinates": [
                    19.59224,
                    51.851040000000005
                ]
            },
            "properties": {
                "isced:level": "1;2",
                "ref:rspo": 269491,
                "official_name": "Niepubliczna Szko\u0142a Podstawowa Specjalna Z Oddzia\u0142ami Przysposabiaj\u0105cymi Do Pracy w Dobieszkowie",
                "name": "Niepubliczna Szko\u0142a Podstawowa Specjalna Z Oddzia\u0142ami Przysposabiaj\u0105cymi Do Pracy w Dobieszkowie",
                "addr:postcode": "95-010",
                "addr:place": "Dobieszk\u00f3w",
                "addr:housenumber": "68",
                "addr:teryt:simc": 416060,
                "phone": "+48 427109660",
                "email": "branzowawyspa@o2.pl",
                "ref:regon": "381522097",
                "operator": "Stowarzyszenie Rehabilitacji I Readaptacji Spo\u0142ecznej \"Wyspa\"",
                "operator:type": "ngo",
                "amenity": "school",
                "note": "Parent RSPO: 269486"
            }
        },
        {
            "id": 34488,
            "type": "Feature",
            "geometry": {
                "type": "Point",
                "coordinates": [
                    19.55895,
                    51.87008
                ]
            },
            "properties": {
                "isced:level": "1;2",
                "ref:rspo": 34488,
                "official_name": "Szko\u0142a Podstawowa im. 24 Lutego 1863 Roku w Dobrej",
                "name": "Szko\u0142a Podstawowa",
                "addr:postcode": "95-010",
                "addr:city": "Dobra",
                "addr:street": "Witan\u00f3wek",
                "addr:housenumber": "8",
                "addr:teryt:simc": 415913,
                "addr:teryt:sym_ul": 24422,
                "phone": "+48 427198724",
                "email": "mal.mon@wp.pl",
                "website": "http:\/\/www.sp-dobra.pl",
                "ref:regon": "001157784",
                "ref:vatin": "PL7331021620",
                "operator": "Gmina Stryk\u00f3w",
                "operator:type": "government",
                "amenity": "school"
            }
        },
        {
            "id": 34489,
            "type": "Feature",
            "geometry": {
                "type": "Point",
                "coordinates": [
                    19.6816,
                    51.88413
                ]
            },
            "properties": {
                "isced:level": "1;2",
                "ref:rspo": 34489,
                "official_name": "Szko\u0142a Podstawowa im. Henryka Sienkiewicza w Niesu\u0142kowie",
                "name": "Szko\u0142a Podstawowa",
                "addr:postcode": "95-010",
                "addr:place": "Niesu\u0142k\u00f3w",
                "addr:housenumber": "68",
                "addr:teryt:simc": 416114,
                "phone": "+48 427197014",
                "email": "sekretariat@sp-niesulkow.pl",
                "website": "http:\/\/www.sp-niesulkow.pl",
                "ref:regon": "001157790",
                "ref:vatin": "PL7331021583",
                "operator": "Gmina Stryk\u00f3w",
                "operator:type": "government",
                "amenity": "school"
            }
        },
        {
            "id": 35077,
            "type": "Feature",
            "geometry": {
                "type": "Point",
                "coordinates": [
                    19.68221,
                    51.8848
                ]
            },
            "properties": {
                "ref:rspo": 35077,
                "official_name": "Niepubliczne Przedszkole \u015awi\u0119tej Rodziny w Niesu\u0142kowie",
                "name": "Niepubliczne Przedszkole \u015awi\u0119tej Rodziny w Niesu\u0142kowie",
                "addr:postcode": "95-010",
                "addr:place": "Niesu\u0142k\u00f3w",
                "addr:housenumber": "69",
                "addr:teryt:simc": 416114,
                "phone": "+48 509971370",
                "email": "przedszkolerodziny@poczta.onet.pl",
                "website": "http:\/\/www.niepubliczne przedszkole \u015bw. rodziny.facebook.pl",
                "ref:regon": "101488680",
                "ref:vatin": "PL7331335956",
                "operator": "Stowarzyszenie Rodzin Katolickich Archidiecezji \u0141\u00f3dzkiej",
                "operator:type": "ngo",
                "amenity": "kindergarten"
            }
        },
        {
            "id": 34492,
            "type": "Feature",
            "geometry": {
                "type": "Point",
                "coordinates": [
                    19.60446,
                    51.89726
                ]
            },
            "properties": {
                "isced:level": "1;2",
                "ref:rspo": 34492,
                "official_name": "Szko\u0142a Podstawowa Nr 2 im. Noblist\u00f3w Polskich w Strykowie",
                "name": "Szko\u0142a Podstawowa Nr 2",
                "addr:postcode": "95-010",
                "addr:city": "Stryk\u00f3w",
                "addr:street": "Targowa",
                "addr:housenumber": "21",
                "addr:teryt:simc": 959240,
                "addr:teryt:sym_ul": 22659,
                "phone": "+48 427198144",
                "email": "sp2strykow@vp.pl",
                "website": "http:\/\/sp2strykow.edupage.org",
                "ref:regon": "472889284",
                "ref:vatin": "PL7331278968",
                "operator": "Gmina Stryk\u00f3w",
                "operator:type": "government",
                "amenity": "school"
            }
        },
        {
            "id": 131265,
            "type": "Feature",
            "geometry": {
                "type": "Point",
                "coordinates": [
                    19.60446,
                    51.89723
                ]
            },
            "properties": {
                "ref:rspo": 131265,
                "official_name": "Niepubliczna Szko\u0142a Muzyczna I St. im. Fryderyka Chopina w Strykowie",
                "name": "Niepubliczna Szko\u0142a Muzyczna I St.",
                "addr:postcode": "95-010",
                "addr:city": "Stryk\u00f3w",
                "addr:street": "Targowa",
                "addr:housenumber": "21",
                "addr:teryt:simc": 959240,
                "addr:teryt:sym_ul": 22659,
                "email": "muzycznastrykow@gmail.com",
                "ref:regon": "365076204",
                "operator": "Dariusz Igielski",
                "operator:type": "private",
                "amenity": "music_school"
            }
        },
        {
            "id": 34800,
            "type": "Feature",
            "geometry": {
                "type": "Point",
                "coordinates": [
                    19.60314,
                    51.90018
                ]
            },
            "properties": {
                "ref:rspo": 34800,
                "official_name": "Niepubliczne Przedszkole Si\u00f3str S\u0142u\u017cebniczek Nmp Np w Strykowie",
                "name": "Niepubliczne Przedszkole Si\u00f3str S\u0142u\u017cebniczek Nmp Np w Strykowie",
                "addr:postcode": "95-010",
                "addr:city": "Stryk\u00f3w",
                "addr:street": "Warszawska",
                "addr:housenumber": "46",
                "addr:teryt:simc": 959240,
                "addr:teryt:sym_ul": 23682,
                "phone": "+48 427198093",
                "email": "strykow@przedszkolesluzebniczek.pl",
                "website": "http:\/\/www.przedszkolesluzebniczek.pl",
                "ref:regon": "101488199",
                "ref:vatin": "PL7331213696",
                "operator": "Zgromadzenie Si\u00f3str S\u0142u\u017cebniczek Nmp Prowincja \u0141\u00f3dzka",
                "operator:type": "religious",
                "amenity": "kindergarten"
            }
        },
        {
            "id": 120686,
            "type": "Feature",
            "geometry": {
                "type": "Point",
                "coordinates": [
                    19.57946,
                    51.90023
                ]
            },
            "properties": {
                "ref:rspo": 120686,
                "official_name": "Przedszkole Niepubliczne \"Kucykowe Przedszkole\"",
                "name": "Przedszkole Niepubliczne \"Kucykowe Przedszkole\"",
                "addr:postcode": "95-010",
                "addr:place": "Smolice",
                "addr:housenumber": "86",
                "addr:teryt:simc": 416210,
                "phone": "+48 604063404",
                "email": "kucykoweprzedszkole@gmail.com",
                "website": "http:\/\/www.kucykowe-przedszkole.pl",
                "ref:regon": "101683268",
                "ref:vatin": "PL7321814218",
                "operator": "Marcelina Budziarska",
                "operator:type": "private",
                "amenity": "kindergarten"
            }
        },
        {
            "id": 31600,
            "type": "Feature",
            "geometry": {
                "type": "Point",
                "coordinates": [
                    19.60418,
                    51.90172
                ]
            },
            "properties": {
                "isced:level": "1;2",
                "ref:rspo": 31600,
                "official_name": "Szko\u0142a Podstawowa Nr 1 im. W\u0142adys\u0142awa Jagie\u0142\u0142y w Strykowie",
                "name": "Szko\u0142a Podstawowa Nr 1",
                "addr:postcode": "95-010",
                "addr:city": "Stryk\u00f3w",
                "addr:street": "Warszawska",
                "addr:housenumber": "39",
                "addr:teryt:simc": 959240,
                "addr:teryt:sym_ul": 23682,
                "phone": "+48 427198005",
                "email": "sp1strykow@gmail.com",
                "website": "http:\/\/www.sp1strykow.superszkolna.pl",
                "ref:regon": "001157815",
                "ref:vatin": "PL7331050047",
                "operator": "Gmina Stryk\u00f3w",
                "operator:type": "government",
                "amenity": "school"
            }
        },
        {
            "id": 34491,
            "type": "Feature",
            "geometry": {
                "type": "Point",
                "coordinates": [
                    19.64915,
                    51.93067
                ]
            },
            "properties": {
                "isced:level": "1;2",
                "ref:rspo": 34491,
                "official_name": "Szko\u0142a Podstawowa im. Ks. Idziego Radziszewskiego w Bratoszewicach",
                "name": "Szko\u0142a Podstawowa",
                "addr:postcode": "95-011",
                "addr:city": "Bratoszewice",
                "addr:street": "\u0141\u00f3dzka",
                "addr:housenumber": "30",
                "addr:teryt:simc": 415876,
                "addr:teryt:sym_ul": 11710,
                "phone": "+48 427198916",
                "email": "spbratoszewice@wp.pl",
                "website": "http:\/\/www.spbratoszewice.pl\/",
                "ref:regon": "001157809",
                "ref:vatin": "PL7331013247",
                "operator": "Gmina Stryk\u00f3w",
                "operator:type": "government",
                "amenity": "school"
            }
        },
        {
            "id": 7097,
            "type": "Feature",
            "geometry": {
                "type": "Point",
                "coordinates": [
                    19.65318,
                    51.931
                ]
            },
            "properties": {
                "ref:rspo": 7097,
                "official_name": "Zesp\u00f3\u0142 Szk\u00f3\u0142 Nr 1 im. Batalion\u00f3w Ch\u0142opskich w Bratoszewicach",
                "name": "Zesp\u00f3\u0142 Szk\u00f3\u0142 Nr 1",
                "addr:postcode": "95-011",
                "addr:city": "Bratoszewice",
                "addr:street": "Plac Stanis\u0142awa Staszica",
                "addr:housenumber": "14",
                "addr:teryt:simc": 415876,
                "addr:teryt:sym_ul": 55034,
                "phone": "+48 427198983",
                "email": "sekretariat@zs1bratoszewice.pl",
                "website": "http:\/\/www.zs1bratoszewice.pl\/",
                "ref:regon": "000098192",
                "ref:vatin": "PL7331021956",
                "operator": "Gmina Stryk\u00f3w",
                "operator:type": "government",
                "landuse": "education",
                "fixme": "amenity=school, amenity=college albo landuse=education w zale\u017cno\u015bci od tego, jakie plac\u00f3wki wchodz\u0105 w sk\u0142ad zespo\u0142u. Sprawd\u017a, kiedy stosowa\u0107 amenity=* a kiedy landuse=education.",
                "note": "Children RSPO: 9123;9130;9165;9252"
            }
        },
        {
            "id": 9123,
            "type": "Feature",
            "geometry": {
                "type": "Point",
                "coordinates": [
                    19.65318,
                    51.930969999999995
                ]
            },
            "properties": {
                "isced:level": "3",
                "ref:rspo": 9123,
                "official_name": "Technikum w Zespole Szk\u00f3\u0142 Nr 1 w Bratoszewicach",
                "name": "Technikum w Zespole Szk\u00f3\u0142 Nr 1 w Bratoszewicach",
                "addr:postcode": "95-011",
                "addr:city": "Bratoszewice",
                "addr:street": "Plac Stanis\u0142awa Staszica",
                "addr:housenumber": "14",
                "addr:teryt:simc": 415876,
                "addr:teryt:sym_ul": 55034,
                "phone": "+48 427198983",
                "email": "sekretariat@zs1bratoszewice.pl",
                "website": "http:\/\/www.zs1bratoszewice.pl\/",
                "ref:regon": "100162805",
                "operator": "Gmina Stryk\u00f3w",
                "operator:type": "government",
                "amenity": "school",
                "note": "Parent RSPO: 7097"
            }
        },
        {
            "id": 9130,
            "type": "Feature",
            "geometry": {
                "type": "Point",
                "coordinates": [
                    19.65318,
                    51.93094
                ]
            },
            "properties": {
                "isced:level": "3",
                "ref:rspo": 9130,
                "official_name": "Liceum Og\u00f3lnokszta\u0142c\u0105ce w Zespole Szk\u00f3\u0142 Nr 1 w Bratoszewicach",
                "name": "Liceum Og\u00f3lnokszta\u0142c\u0105ce w Zespole Szk\u00f3\u0142 Nr 1 w Bratoszewicach",
                "addr:postcode": "95-011",
                "addr:city": "Bratoszewice",
                "addr:street": "Plac Stanis\u0142awa Staszica",
                "addr:housenumber": "14",
                "addr:teryt:simc": 415876,
                "addr:teryt:sym_ul": 55034,
                "phone": "+48 427198983",
                "email": "sekretariat@zs1bratoszewice.pl",
                "website": "http:\/\/www.zs1bratoszewice.pl\/",
                "ref:regon": "100851806",
                "operator": "Gmina Stryk\u00f3w",
                "operator:type": "government",
                "amenity": "school",
                "note": "Parent RSPO: 7097"
            }
        },
        {
            "id": 9165,
            "type": "Feature",
            "geometry": {
                "type": "Point",
                "coordinates": [
                    19.65318,
                    51.93091
                ]
            },
            "properties": {
                "isced:level": "3",
                "ref:rspo": 9165,
                "official_name": "Bran\u017cowa Szko\u0142a I Stopnia w Zespole Szk\u00f3\u0142 Nr 1 w Bratoszewicach",
                "name": "Bran\u017cowa Szko\u0142a I Stopnia w Zespole Szk\u00f3\u0142 Nr 1 w Bratoszewicach",
                "addr:postcode": "95-011",
                "addr:city": "Bratoszewice",
                "addr:street": "Plac Stanis\u0142awa Staszica",
                "addr:housenumber": "14",
                "addr:teryt:simc": 415876,
                "addr:teryt:sym_ul": 55034,
                "phone": "+48 427198983",
                "email": "sekretariat@zs1bratoszewice.pl",
                "website": "http:\/\/www.zs1bratoszewice.pl\/",
                "ref:regon": "472895238",
                "operator": "Gmina Stryk\u00f3w",
                "operator:type": "government",
                "amenity": "school",
                "note": "Parent RSPO: 7097"
            }
        },
        {
            "id": 9252,
            "type": "Feature",
            "geometry": {
                "type": "Point",
                "coordinates": [
                    19.65318,
                    51.930879999999995
                ]
            },
            "properties": {
                "ref:rspo": 9252,
                "official_name": "O\u015brodek Doskonalenia I Dokszta\u0142cania Zawodowego w Zespole Szk\u00f3\u0142 Nr 1 w Bratoszewicach",
                "name": "O\u015brodek Doskonalenia I Dokszta\u0142cania Zawodowego w Zespole Szk\u00f3\u0142 Nr 1 w Bratoszewicach",
                "addr:postcode": "95-011",
                "addr:city": "Bratoszewice",
                "addr:street": "Plac Stanis\u0142awa Staszica",
                "addr:housenumber": "14",
                "addr:teryt:simc": 415876,
                "addr:teryt:sym_ul": 55034,
                "phone": "+48 427198983",
                "email": "sekretariat@zs1bratoszewice.pl",
                "website": "http:\/\/www.zs1bratoszewice.pl\/",
                "ref:regon": "101461881",
                "operator": "Gmina Stryk\u00f3w",
                "operator:type": "government",
                "fixme": "w zale\u017cno\u015bci od przedmiotu dzia\u0142alno\u015bci (np. amenity=training + training=*, amenity=dancing_school, amenity=language_school, amenity=music_school) albo amenity=school, amenity=college, albo landuse=education w zale\u017cno\u015bci od tego, jakie plac\u00f3wki wchodz\u0105 w sk\u0142ad zespo\u0142u. Sprawd\u017a, kiedy stosowa\u0107 amenity=* a kiedy landuse=education.",
                "note": "Parent RSPO: 7097"
            }
        },
        {
            "id": 34490,
            "type": "Feature",
            "geometry": {
                "type": "Point",
                "coordinates": [
                    19.5892899,
                    51.93788
                ]
            },
            "properties": {
                "isced:level": "1;2",
                "ref:rspo": 34490,
                "official_name": "Szko\u0142a Podstawowa im. Gen. Dyw. Tadeusza Kutrzeby w Ko\u017alu",
                "name": "Szko\u0142a Podstawowa",
                "addr:postcode": "95-011",
                "addr:place": "Ko\u017ale",
                "addr:housenumber": "65",
                "addr:teryt:simc": 416031,
                "phone": "+48 427198909",
                "email": "kozle_szkola@wp.pl",
                "website": "http:\/\/kozleszkola.superszkolna.pl",
                "ref:regon": "001157821",
                "ref:vatin": "PL7331012992",
                "operator": "Gmina Stryk\u00f3w",
                "operator:type": "government",
                "amenity": "school"
            }
        },
        {
            "id": 34496,
            "type": "Feature",
            "geometry": {
                "type": "Point",
                "coordinates": [
                    19.2930199,
                    51.96355
                ]
            },
            "properties": {
                "ref:rspo": 34496,
                "official_name": "Przedszkole Samorz\u0105dowe w Strykowie",
                "name": "Przedszkole Samorz\u0105dowe w Strykowie",
                "addr:postcode": "95-010",
                "addr:city": "Stryk\u00f3w",
                "addr:street": "Jana Paw\u0142a II",
                "addr:housenumber": "7",
                "addr:teryt:simc": 959240,
                "addr:teryt:sym_ul": 7123,
                "phone": "+48 427198087",
                "email": "przedszkole_targowa4@op.pl",
                "website": "http:\/\/www.przedszkole.strykow.superszkolna.pl",
                "ref:regon": "471328490",
                "ref:vatin": "PL7331115918",
                "operator": "Gmina Stryk\u00f3w",
                "operator:type": "government",
                "amenity": "kindergarten"
            }
        }
    ]
}