{
    "type": "FeatureCollection",
    "features": [
        {
            "id": 14303,
            "type": "Feature",
            "geometry": {
                "type": "Point",
                "coordinates": [
                    19.41388,
                    51.84483
                ]
            },
            "properties": {
                "ref:rspo": 14303,
                "official_name": "Miejskie Przedszkole nr 8 w Zgierzu",
                "name": "Miejskie Przedszkole nr 8 w Zgierzu",
                "addr:postcode": "95-100",
                "addr:city": "Zgierz",
                "addr:street": "\u0141\u00f3dzka",
                "addr:housenumber": "86",
                "addr:city:simc": 959263,
                "addr:street:sym_ul": 11710,
                "phone": "+48 427162839",
                "email": "mp8zgierz@wikom.pl",
                "ref:regon": "100883611",
                "ref:vatin": "PL7322142985",
                "operator": "Gmina Miasto Zgierz",
                "operator:type": "government",
                "amenity": "kindergarten"
            }
        },
        {
            "id": 75608,
            "type": "Feature",
            "geometry": {
                "type": "Point",
                "coordinates": [
                    19.4007599,
                    51.84801
                ]
            },
            "properties": {
                "ref:rspo": 75608,
                "official_name": "Pa\u0144stwowa Szko\u0142a Muzyczna I St. w Zgierzu",
                "name": "Pa\u0144stwowa Szko\u0142a Muzyczna I St. w Zgierzu",
                "addr:postcode": "95-100",
                "addr:city": "Zgierz",
                "addr:street": "Soko\u0142owska",
                "addr:housenumber": "4",
                "addr:city:simc": 959263,
                "addr:street:sym_ul": 20500,
                "phone": "+48 427164817",
                "email": "psm.zgierz@wp.pl",
                "website": "http:\/\/miasto.zgierz.pl\/psm",
                "ref:regon": "000277291",
                "operator": "Ministerstwo Kultury I Dziedzictwa Narodowego",
                "operator:type": "public",
                "amenity": "music_school"
            }
        },
        {
            "id": 106209,
            "type": "Feature",
            "geometry": {
                "type": "Point",
                "coordinates": [
                    19.4007599,
                    51.84798
                ]
            },
            "properties": {
                "ref:rspo": 106209,
                "official_name": "Spo\u0142eczna Szko\u0142a Muzyczna II St. Towarzystwa Przyjaci\u00f3\u0142 Zgierza w Zgierzu",
                "name": "Spo\u0142eczna Szko\u0142a Muzyczna II St. Towarzystwa Przyjaci\u00f3\u0142 Zgierza w Zgierzu",
                "addr:postcode": "95-100",
                "addr:city": "Zgierz",
                "addr:street": "Soko\u0142owska",
                "addr:housenumber": "4",
                "addr:city:simc": 959263,
                "addr:street:sym_ul": 20500,
                "phone": "+48 427164817",
                "ref:regon": "101567616",
                "operator": "Towarzystwo Przyjaci\u00f3\u0142 Zgierza",
                "operator:type": "ngo",
                "amenity": "music_school"
            }
        },
        {
            "id": 263181,
            "type": "Feature",
            "geometry": {
                "type": "Point",
                "coordinates": [
                    19.39826,
                    51.84912
                ]
            },
            "properties": {
                "ref:rspo": 263181,
                "official_name": "Niepubliczne Przedszkole \"U Anio\u0142\u00f3w\" w Zgierzu z Oddzia\u0142ami Integracyjnymi",
                "name": "Niepubliczne Przedszkole \"U Anio\u0142\u00f3w\" w Zgierzu z Oddzia\u0142ami Integracyjnymi",
                "addr:postcode": "95-100",
                "addr:city": "Zgierz",
                "addr:street": "Andrzeja Struga",
                "addr:housenumber": "23",
                "addr:city:simc": 959263,
                "addr:street:sym_ul": 21308,
                "email": "joan.gaj@wp.pl",
                "ref:regon": "368116482",
                "operator": "Instytut Rozwoju Przedsi\u0119biorczo\u015bci I Inicjatyw Spo\u0142ecznych",
                "operator:type": "ngo",
                "amenity": "kindergarten"
            }
        },
        {
            "id": 25100,
            "type": "Feature",
            "geometry": {
                "type": "Point",
                "coordinates": [
                    19.39996,
                    51.84922
                ]
            },
            "properties": {
                "ref:rspo": 25100,
                "official_name": "Niepubliczne Przedszkole \"Kurczaczek\"",
                "name": "Niepubliczne Przedszkole \"Kurczaczek\"",
                "addr:postcode": "95-100",
                "addr:city": "Zgierz",
                "addr:street": "Andrzeja Struga",
                "addr:housenumber": "13\/21",
                "addr:city:simc": 959263,
                "addr:street:sym_ul": 21308,
                "email": "saj81@wp.pl",
                "ref:regon": "101478545",
                "ref:vatin": "PL7321087215",
                "operator": "Agnieszka Stankowska-J\u0119drzejczak",
                "operator:type": "private",
                "amenity": "kindergarten"
            }
        },
        {
            "id": 262582,
            "type": "Feature",
            "geometry": {
                "type": "Point",
                "coordinates": [
                    19.42226,
                    51.85132
                ]
            },
            "properties": {
                "isced:level": "1;2",
                "ref:rspo": 262582,
                "official_name": "Szko\u0142a Podstawowa nr 6 im. Jana Kochanowskiego w Zgierzu z Oddzia\u0142ami Dwuj\u0119zycznymi I Oddzia\u0142ami Sportowymi",
                "name": "Szko\u0142a Podstawowa nr 6",
                "addr:postcode": "95-100",
                "addr:city": "Zgierz",
                "addr:street": "3 Maja",
                "addr:housenumber": "46a",
                "addr:city:simc": 959263,
                "addr:street:sym_ul": 11937,
                "phone": "+48 427162676",
                "email": "sp6@miasto.zgierz.pl",
                "website": "http:\/\/www.sp6.miasto.zgierz.pl",
                "ref:regon": "368040900",
                "ref:vatin": "PL7322186190",
                "operator": "Gmina Miasto Zgierz",
                "operator:type": "government",
                "amenity": "school"
            }
        },
        {
            "id": 123206,
            "type": "Feature",
            "geometry": {
                "type": "Point",
                "coordinates": [
                    19.4208399,
                    51.85151
                ]
            },
            "properties": {
                "ref:rspo": 123206,
                "official_name": "Centrum Rozwoju Edukacji Wojew\u00f3dztwa \u0141\u00f3dzkiego w Zgierzu",
                "name": "Centrum Rozwoju Edukacji Wojew\u00f3dztwa \u0141\u00f3dzkiego w Zgierzu",
                "addr:postcode": "95-100",
                "addr:city": "Zgierz",
                "addr:street": "3 Maja",
                "addr:housenumber": "46",
                "addr:city:simc": 959263,
                "addr:street:sym_ul": 11937,
                "phone": "+48 427162472",
                "email": "sekretariat@lodzkie.edu.pl",
                "website": "http:\/\/policealna.lodzkie.edu.pl",
                "ref:regon": "101788323",
                "operator": "Wojew\u00f3dztwo \u0141\u00f3dzkie",
                "operator:type": "government",
                "landuse": "education",
                "fixme": "amenity=school, amenity=college albo landuse=education w zale\u017cno\u015bci od tego, jakie plac\u00f3wki wchodz\u0105 w sk\u0142ad zespo\u0142u. Sprawd\u017a, kiedy stosowa\u0107 amenity=* a kiedy landuse=education.",
                "note": "Children RSPO: 123218;278349"
            }
        },
        {
            "id": 279288,
            "type": "Feature",
            "geometry": {
                "type": "Point",
                "coordinates": [
                    19.4208399,
                    51.851479999999995
                ]
            },
            "properties": {
                "ref:rspo": 279288,
                "official_name": "Biblioteka Pedagogiczna w Zgierzu",
                "name": "Biblioteka Pedagogiczna w Zgierzu",
                "addr:postcode": "95-100",
                "addr:city": "Zgierz",
                "addr:street": "3 Maja",
                "addr:housenumber": "46",
                "addr:city:simc": 959263,
                "addr:street:sym_ul": 11937,
                "phone": "+48 427162472",
                "email": "sekretariat@lodzkie.edu.pl",
                "ref:regon": "521134237",
                "operator": "Wojew\u00f3dztwo \u0141\u00f3dzkie",
                "operator:type": "government",
                "amenity": "library"
            }
        },
        {
            "id": 18463,
            "type": "Feature",
            "geometry": {
                "type": "Point",
                "coordinates": [
                    19.4208399,
                    51.85145
                ]
            },
            "properties": {
                "ref:rspo": 18463,
                "official_name": "Pedagogiczna Biblioteka Wojew\u00f3dzka im. Prof. Tadeusza Kotarbi\u0144skiego w \u0141odzi Filia w Zgierzu",
                "name": "Pedagogiczna Biblioteka Wojew\u00f3dzka",
                "addr:postcode": "95-100",
                "addr:city": "Zgierz",
                "addr:street": "3 Maja",
                "addr:housenumber": "46",
                "addr:city:simc": 959263,
                "addr:street:sym_ul": 11937,
                "phone": "+48 427174304",
                "email": "zgierz@pbw.lodz.pl",
                "ref:regon": "196836000",
                "operator": "Wojew\u00f3dztwo \u0141\u00f3dzkie",
                "operator:type": "government",
                "amenity": "library",
                "note": "Parent RSPO: 14754"
            }
        },
        {
            "id": 123218,
            "type": "Feature",
            "geometry": {
                "type": "Point",
                "coordinates": [
                    19.4208399,
                    51.85142
                ]
            },
            "properties": {
                "ref:rspo": 123218,
                "official_name": "Wojew\u00f3dzki O\u015brodek Doskonalenia Nauczycieli w Zgierzu",
                "name": "Wojew\u00f3dzki O\u015brodek Doskonalenia Nauczycieli w Zgierzu",
                "addr:postcode": "95-100",
                "addr:city": "Zgierz",
                "addr:street": "3 Maja",
                "addr:housenumber": "46",
                "addr:city:simc": 959263,
                "addr:street:sym_ul": 11937,
                "phone": "+48 427162472",
                "email": "wodn@lodzkie.edu.pl",
                "website": "http:\/\/wodn.lodzkie.edu.pl",
                "ref:regon": "101788903",
                "operator": "Wojew\u00f3dztwo \u0141\u00f3dzkie",
                "operator:type": "government",
                "amenity": "training",
                "note": "Parent RSPO: 123206"
            }
        },
        {
            "id": 278349,
            "type": "Feature",
            "geometry": {
                "type": "Point",
                "coordinates": [
                    19.4208399,
                    51.851389999999995
                ]
            },
            "properties": {
                "ref:rspo": 278349,
                "official_name": "Centrum Kszta\u0142cenia Ustawicznego Wojew\u00f3dztwa \u0141\u00f3dzkiego w Zgierzu",
                "name": "Centrum Kszta\u0142cenia Ustawicznego Wojew\u00f3dztwa \u0141\u00f3dzkiego w Zgierzu",
                "addr:postcode": "95-100",
                "addr:city": "Zgierz",
                "addr:street": "3 Maja",
                "addr:housenumber": "46",
                "addr:city:simc": 959263,
                "addr:street:sym_ul": 11937,
                "phone": "+48 427162472",
                "email": "organizacja@lodzkie.edu.pl",
                "ref:regon": "389863981",
                "operator": "Wojew\u00f3dztwo \u0141\u00f3dzkie",
                "operator:type": "government",
                "amenity": "school",
                "fixme": "amenity=school lub amenity=college",
                "note": "Children RSPO: 123217Parent RSPO: 123206"
            }
        },
        {
            "id": 123217,
            "type": "Feature",
            "geometry": {
                "type": "Point",
                "coordinates": [
                    19.4208399,
                    51.85136
                ]
            },
            "properties": {
                "isced:level": "4",
                "ref:rspo": 123217,
                "official_name": "Szko\u0142a Policealna Wojew\u00f3dztwa \u0141\u00f3dzkiego w Zgierzu",
                "name": "Szko\u0142a Policealna Wojew\u00f3dztwa \u0141\u00f3dzkiego w Zgierzu",
                "addr:postcode": "95-100",
                "addr:city": "Zgierz",
                "addr:street": "3 Maja",
                "addr:housenumber": "46",
                "addr:city:simc": 959263,
                "addr:street:sym_ul": 11937,
                "phone": "+48 427162472",
                "email": "organizacja@lodzkie.edu.pl",
                "website": "http:\/\/policealna.lodzkie.edu.pl",
                "ref:regon": "101788895",
                "operator": "Wojew\u00f3dztwo \u0141\u00f3dzkie",
                "operator:type": "government",
                "amenity": "college",
                "note": "Parent RSPO: 278349"
            }
        },
        {
            "id": 14403,
            "type": "Feature",
            "geometry": {
                "type": "Point",
                "coordinates": [
                    19.42127,
                    51.85202
                ]
            },
            "properties": {
                "isced:level": "1;2",
                "ref:rspo": 14403,
                "official_name": "Szko\u0142a Podstawowa nr 5 w Zgierzu",
                "name": "Szko\u0142a Podstawowa nr 5 w Zgierzu",
                "addr:postcode": "95-100",
                "addr:city": "Zgierz",
                "addr:street": "1 Maja",
                "addr:housenumber": "63",
                "addr:city:simc": 959263,
                "addr:street:sym_ul": 11926,
                "phone": "+48 427162073",
                "email": "sp5@miasto.zgierz.pl",
                "website": "http:\/\/www.sp5.miasto.zgierz.pl",
                "ref:regon": "000735747",
                "ref:vatin": "PL7321050229",
                "operator": "Gmina Miasto Zgierz",
                "operator:type": "government",
                "amenity": "school"
            }
        },
        {
            "id": 263732,
            "type": "Feature",
            "geometry": {
                "type": "Point",
                "coordinates": [
                    19.42127,
                    51.85199
                ]
            },
            "properties": {
                "isced:level": "1;2",
                "ref:rspo": 263732,
                "official_name": "Pierwsza Prywatna Szko\u0142a Podstawowa w Zgierzu \"Edukacja Przyjazna Dziecku\"",
                "name": "Pierwsza Prywatna Szko\u0142a Podstawowa w Zgierzu \"Edukacja Przyjazna Dziecku\"",
                "addr:postcode": "95-100",
                "addr:city": "Zgierz",
                "addr:street": "3 Maja",
                "addr:housenumber": "63",
                "addr:city:simc": 959263,
                "addr:street:sym_ul": 11937,
                "phone": "+48 791011311",
                "email": "pspzgierz@wp.pl",
                "website": "http:\/\/www.pspzgierz.com.pl",
                "ref:regon": "368220593",
                "operator": "Agnieszka Miksa",
                "operator:type": "private",
                "amenity": "school"
            }
        },
        {
            "id": 272986,
            "type": "Feature",
            "geometry": {
                "type": "Point",
                "coordinates": [
                    19.42127,
                    51.851960000000005
                ]
            },
            "properties": {
                "ref:rspo": 272986,
                "official_name": "Niepubliczne Przedszkole \"B\u0142\u0119kitny Pa\u0142acyk\" w Zgierzu",
                "name": "Niepubliczne Przedszkole \"B\u0142\u0119kitny Pa\u0142acyk\" w Zgierzu",
                "addr:postcode": "95-100",
                "addr:city": "Zgierz",
                "addr:street": "3 Maja",
                "addr:housenumber": "63",
                "addr:city:simc": 959263,
                "addr:street:sym_ul": 11937,
                "email": "pspzgierz@wp.pl",
                "website": "http:\/\/www.pspzgierz.com.pl",
                "ref:regon": "384346436",
                "operator": "Agnieszka Miksa",
                "operator:type": "private",
                "amenity": "kindergarten"
            }
        },
        {
            "id": 25101,
            "type": "Feature",
            "geometry": {
                "type": "Point",
                "coordinates": [
                    19.41464,
                    51.85253
                ]
            },
            "properties": {
                "ref:rspo": 25101,
                "official_name": "Przedszkole Niepubliczne \"Promyczek\" Ewa Sosnowska",
                "name": "Przedszkole Niepubliczne \"Promyczek\" Ewa Sosnowska",
                "addr:postcode": "95-100",
                "addr:city": "Zgierz",
                "addr:street": "3 Maja",
                "addr:housenumber": "26",
                "addr:city:simc": 959263,
                "addr:street:sym_ul": 11937,
                "phone": "+48 427162382",
                "email": "promyczekzgierz@interia.pl",
                "ref:regon": "101478539",
                "ref:vatin": "PL7321156376",
                "operator": "Ewa Sosnowska",
                "operator:type": "private",
                "amenity": "kindergarten"
            }
        },
        {
            "id": 6993,
            "type": "Feature",
            "geometry": {
                "type": "Point",
                "coordinates": [
                    19.41742,
                    51.85278
                ]
            },
            "properties": {
                "ref:rspo": 6993,
                "official_name": "Zesp\u00f3\u0142 Szk\u00f3\u0142 Og\u00f3lnokszta\u0142c\u0105cych im. Stanis\u0142awa Staszica w Zgierzu",
                "name": "Zesp\u00f3\u0142 Szk\u00f3\u0142 Og\u00f3lnokszta\u0142c\u0105cych",
                "addr:postcode": "95-100",
                "addr:city": "Zgierz",
                "addr:street": "3 Maja",
                "addr:housenumber": "41",
                "addr:city:simc": 959263,
                "addr:street:sym_ul": 11937,
                "phone": "+48 427190879",
                "email": "sekr@staszic.zgierz.pl",
                "website": "http:\/\/www.staszic.zgierz.pl",
                "ref:regon": "000228921",
                "ref:vatin": "PL7321052234",
                "operator": "Powiat Zgierski",
                "operator:type": "government",
                "landuse": "education",
                "fixme": "amenity=school, amenity=college albo landuse=education w zale\u017cno\u015bci od tego, jakie plac\u00f3wki wchodz\u0105 w sk\u0142ad zespo\u0142u. Sprawd\u017a, kiedy stosowa\u0107 amenity=* a kiedy landuse=education.",
                "note": "Children RSPO: 8264;8270"
            }
        },
        {
            "id": 8264,
            "type": "Feature",
            "geometry": {
                "type": "Point",
                "coordinates": [
                    19.41742,
                    51.85275
                ]
            },
            "properties": {
                "isced:level": "3",
                "ref:rspo": 8264,
                "official_name": "I Liceum Og\u00f3lnokszta\u0142c\u0105ce im. Stanis\u0142awa Staszica w Zespole Szk\u00f3\u0142 Og\u00f3lnokszta\u0142c\u0105cych w Zgierzu",
                "name": "I Liceum Og\u00f3lnokszta\u0142c\u0105ce",
                "addr:postcode": "95-100",
                "addr:city": "Zgierz",
                "addr:street": "3 Maja",
                "addr:housenumber": "41",
                "addr:city:simc": 959263,
                "addr:street:sym_ul": 11937,
                "phone": "+48 427190879",
                "email": "sekr@staszic.zgierz.pl",
                "website": "http:\/\/www.staszic.zgierz.pl",
                "ref:regon": "473270530",
                "operator": "Powiat Zgierski",
                "operator:type": "government",
                "amenity": "school",
                "note": "Parent RSPO: 6993"
            }
        },
        {
            "id": 8270,
            "type": "Feature",
            "geometry": {
                "type": "Point",
                "coordinates": [
                    19.41742,
                    51.852720000000005
                ]
            },
            "properties": {
                "isced:level": "3",
                "ref:rspo": 8270,
                "official_name": "Liceum Og\u00f3lnokszta\u0142c\u0105ce dla Doros\u0142ych w Zespole Szk\u00f3\u0142 Og\u00f3lnokszta\u0142c\u0105cych w Zgierzu",
                "name": "Liceum Og\u00f3lnokszta\u0142c\u0105ce dla Doros\u0142ych w Zespole Szk\u00f3\u0142 Og\u00f3lnokszta\u0142c\u0105cych w Zgierzu",
                "addr:postcode": "95-100",
                "addr:city": "Zgierz",
                "addr:street": "3 Maja",
                "addr:housenumber": "41",
                "addr:city:simc": 959263,
                "addr:street:sym_ul": 11937,
                "phone": "+48 427190879",
                "email": "sekr@staszic.zgierz.pl",
                "website": "http:\/\/www.staszic.zgierz.pl",
                "ref:regon": "473270546",
                "operator": "Powiat Zgierski",
                "operator:type": "government",
                "amenity": "school",
                "note": "Parent RSPO: 6993"
            }
        },
        {
            "id": 14300,
            "type": "Feature",
            "geometry": {
                "type": "Point",
                "coordinates": [
                    19.4183999,
                    51.85322
                ]
            },
            "properties": {
                "ref:rspo": 14300,
                "official_name": "Miejskie Przedszkole nr 3 Integracyjne z Oddzia\u0142ami Specjalnymi w Zgierzu",
                "name": "Miejskie Przedszkole nr 3 Integracyjne z Oddzia\u0142ami Specjalnymi w Zgierzu",
                "addr:postcode": "95-100",
                "addr:city": "Zgierz",
                "addr:street": "Romualda Mielczarskiego",
                "addr:housenumber": "26",
                "addr:city:simc": 959263,
                "addr:street:sym_ul": 12782,
                "phone": "+48 427162672",
                "email": "mp3zgierz@gmail.com",
                "ref:regon": "100896223",
                "ref:vatin": "PL7322143714",
                "operator": "Gmina Miasto Zgierz",
                "operator:type": "government",
                "amenity": "kindergarten"
            }
        },
        {
            "id": 14302,
            "type": "Feature",
            "geometry": {
                "type": "Point",
                "coordinates": [
                    19.42383,
                    51.85337
                ]
            },
            "properties": {
                "ref:rspo": 14302,
                "official_name": "Miejskie Przedszkole nr 7 w Zgierzu",
                "name": "Miejskie Przedszkole nr 7 w Zgierzu",
                "addr:postcode": "95-100",
                "addr:city": "Zgierz",
                "addr:street": "D\u0142uga",
                "addr:housenumber": "62",
                "addr:city:simc": 959263,
                "addr:street:sym_ul": 3839,
                "phone": "+48 427162387",
                "email": "mp7zgierz@poczta.onet.pl",
                "ref:regon": "100874322",
                "ref:vatin": "PL7322143536",
                "operator": "Gmina Miasto Zgierz",
                "operator:type": "government",
                "amenity": "kindergarten"
            }
        },
        {
            "id": 7131,
            "type": "Feature",
            "geometry": {
                "type": "Point",
                "coordinates": [
                    19.4261899,
                    51.85392
                ]
            },
            "properties": {
                "ref:rspo": 7131,
                "official_name": "Zesp\u00f3\u0142 Szk\u00f3\u0142 nr 1 im. Jakuba Stefana Cezaka w Zgierzu",
                "name": "Zesp\u00f3\u0142 Szk\u00f3\u0142 nr 1",
                "addr:postcode": "95-100",
                "addr:city": "Zgierz",
                "addr:street": "D\u0142uga",
                "addr:housenumber": "89\/91",
                "addr:city:simc": 959263,
                "addr:street:sym_ul": 3839,
                "phone": "+48 427150744",
                "email": "ekonomik@miasto.zgierz.pl",
                "website": "http:\/\/cezak.pl",
                "ref:regon": "000193430",
                "ref:vatin": "PL7321064763",
                "operator": "Powiat Zgierski",
                "operator:type": "government",
                "landuse": "education",
                "fixme": "amenity=school, amenity=college albo landuse=education w zale\u017cno\u015bci od tego, jakie plac\u00f3wki wchodz\u0105 w sk\u0142ad zespo\u0142u. Sprawd\u017a, kiedy stosowa\u0107 amenity=* a kiedy landuse=education.",
                "note": "Children RSPO: 9769;9805;9892;9901;130673"
            }
        },
        {
            "id": 7387,
            "type": "Feature",
            "geometry": {
                "type": "Point",
                "coordinates": [
                    19.4261899,
                    51.85389
                ]
            },
            "properties": {
                "ref:rspo": 7387,
                "official_name": "Poradnia Psychologiczno - Pedagogiczna w Zgierzu",
                "name": "Poradnia Psychologiczno - Pedagogiczna w Zgierzu",
                "addr:postcode": "95-100",
                "addr:city": "Zgierz",
                "addr:street": "D\u0142uga",
                "addr:housenumber": "89\/91",
                "addr:city:simc": 959263,
                "addr:street:sym_ul": 3839,
                "phone": "+48 427183179",
                "email": "poradnia@powiat.zgierz.pl",
                "ref:regon": "472402201",
                "ref:vatin": "PL7321414513",
                "operator": "Powiat Zgierski",
                "operator:type": "government",
                "healthcare": "counselling",
                "counselling_type": "education",
                "fixme": "w zale\u017cno\u015bci od przedmiotu dzia\u0142alno\u015bci (np. healthcare=counselling + counselling_type=education albo healthcare=psychotherapist)"
            }
        },
        {
            "id": 9769,
            "type": "Feature",
            "geometry": {
                "type": "Point",
                "coordinates": [
                    19.4261899,
                    51.853860000000005
                ]
            },
            "properties": {
                "isced:level": "3",
                "ref:rspo": 9769,
                "official_name": "Technikum nr 1 im. Jakuba Stefana Cezaka w Zgierzu",
                "name": "Technikum nr 1",
                "addr:postcode": "95-100",
                "addr:city": "Zgierz",
                "addr:street": "D\u0142uga",
                "addr:housenumber": "89\/91",
                "addr:city:simc": 959263,
                "addr:street:sym_ul": 3839,
                "phone": "+48 427150744",
                "email": "ekonomik@miasto.zgierz.pl",
                "website": "http:\/\/www.ekonomik.miasto.zgierz.pl",
                "ref:regon": "473072645",
                "operator": "Powiat Zgierski",
                "operator:type": "government",
                "amenity": "school",
                "note": "Parent RSPO: 7131"
            }
        },
        {
            "id": 9805,
            "type": "Feature",
            "geometry": {
                "type": "Point",
                "coordinates": [
                    19.4261899,
                    51.85383
                ]
            },
            "properties": {
                "isced:level": "3",
                "ref:rspo": 9805,
                "official_name": "Szko\u0142a Bran\u017cowa I Stopnia nr 1 im. Jakuba Stefana Cezaka w Zgierzu",
                "name": "Szko\u0142a Bran\u017cowa I Stopnia nr 1",
                "addr:postcode": "95-100",
                "addr:city": "Zgierz",
                "addr:street": "D\u0142uga",
                "addr:housenumber": "89\/91",
                "addr:city:simc": 959263,
                "addr:street:sym_ul": 3839,
                "phone": "+48 427150744",
                "email": "ekonomik@miasto.zgierz.pl",
                "website": "http:\/\/www.ekonomik.miasto.zgierz.pl",
                "ref:regon": "472915604",
                "operator": "Powiat Zgierski",
                "operator:type": "government",
                "amenity": "school",
                "note": "Parent RSPO: 7131"
            }
        },
        {
            "id": 9892,
            "type": "Feature",
            "geometry": {
                "type": "Point",
                "coordinates": [
                    19.4261899,
                    51.8538
                ]
            },
            "properties": {
                "isced:level": "4",
                "ref:rspo": 9892,
                "official_name": "Szko\u0142a Policealna nr 1 im. Jakuba Stefana Cezaka w Zgierzu",
                "name": "Szko\u0142a Policealna nr 1",
                "addr:postcode": "95-100",
                "addr:city": "Zgierz",
                "addr:street": "D\u0142uga",
                "addr:housenumber": "89\/91",
                "addr:city:simc": 959263,
                "addr:street:sym_ul": 3839,
                "phone": "+48 427150744",
                "email": "ekonomik@miasto.zgierz.pl",
                "website": "http:\/\/www.ekonomik.miasto.zgierz.pl",
                "ref:regon": "472915633",
                "operator": "Powiat Zgierski",
                "operator:type": "government",
                "amenity": "college",
                "note": "Parent RSPO: 7131"
            }
        },
        {
            "id": 9901,
            "type": "Feature",
            "geometry": {
                "type": "Point",
                "coordinates": [
                    19.4261899,
                    51.853770000000004
                ]
            },
            "properties": {
                "isced:level": "3",
                "ref:rspo": 9901,
                "official_name": "Iii Liceum Og\u00f3lnokszta\u0142c\u0105ce im. Jakuba Stefana Cezaka w Zgierzu",
                "name": "Iii Liceum Og\u00f3lnokszta\u0142c\u0105ce",
                "addr:postcode": "95-100",
                "addr:city": "Zgierz",
                "addr:street": "D\u0142uga",
                "addr:housenumber": "89\/91",
                "addr:city:simc": 959263,
                "addr:street:sym_ul": 3839,
                "phone": "+48 427150744",
                "email": "ekonomik@miasto.zgierz.pl",
                "website": "http:\/\/www.ekonomik.miasto.zgierz.pl",
                "ref:regon": "472397167",
                "operator": "Powiat Zgierski",
                "operator:type": "government",
                "amenity": "school",
                "note": "Parent RSPO: 7131"
            }
        },
        {
            "id": 130673,
            "type": "Feature",
            "geometry": {
                "type": "Point",
                "coordinates": [
                    19.4261899,
                    51.85374
                ]
            },
            "properties": {
                "ref:rspo": 130673,
                "official_name": "Bursa w Zgierzu",
                "name": "Bursa w Zgierzu",
                "addr:postcode": "95-100",
                "addr:city": "Zgierz",
                "addr:street": "D\u0142uga",
                "addr:housenumber": "89\/91",
                "addr:city:simc": 959263,
                "addr:street:sym_ul": 3839,
                "phone": "+48 427150744",
                "email": "ekonomik@miasto.zgierz.pl",
                "website": "http:\/\/www.ekonomik.miasto.zgierz.pl",
                "ref:regon": "364321104",
                "operator": "Powiat Zgierski",
                "operator:type": "government",
                "building": "dormitory",
                "note": "Parent RSPO: 7131"
            }
        },
        {
            "id": 7397,
            "type": "Feature",
            "geometry": {
                "type": "Point",
                "coordinates": [
                    19.41855,
                    51.85428
                ]
            },
            "properties": {
                "ref:rspo": 7397,
                "official_name": "M\u0142odzie\u017cowy Dom Kultury w Zgierzu",
                "name": "M\u0142odzie\u017cowy Dom Kultury w Zgierzu",
                "addr:postcode": "95-100",
                "addr:city": "Zgierz",
                "addr:street": "D\u0142uga",
                "addr:housenumber": "42",
                "addr:city:simc": 959263,
                "addr:street:sym_ul": 3839,
                "phone": "+48 427190852",
                "email": "mdkzgierz@o2.pl",
                "website": "http:\/\/mdkzgierz.pl",
                "ref:regon": "004335690",
                "ref:vatin": "PL7321199084",
                "operator": "Powiat Zgierski",
                "operator:type": "government",
                "amenity": "community_centre",
                "community_centre:for": "juvenile"
            }
        },
        {
            "id": 7142,
            "type": "Feature",
            "geometry": {
                "type": "Point",
                "coordinates": [
                    19.41727,
                    51.85441
                ]
            },
            "properties": {
                "ref:rspo": 7142,
                "official_name": "Zgierski Zesp\u00f3\u0142 Szk\u00f3\u0142 Ponadpodstawowych im. Jana Paw\u0142a Ii",
                "name": "Zgierski Zesp\u00f3\u0142 Szk\u00f3\u0142 Ponadpodstawowych",
                "addr:postcode": "95-100",
                "addr:city": "Zgierz",
                "addr:street": "Plac Jana Kili\u0144skiego",
                "addr:housenumber": "8",
                "addr:city:simc": 959263,
                "addr:street:sym_ul": 42875,
                "phone": "+48 427190866",
                "email": "sekretariat_zzsp@miasto.zgierz.pl",
                "website": "http:\/\/www.zgierz.edu.pl",
                "ref:regon": "473062546",
                "ref:vatin": "PL7321950016",
                "operator": "Powiat Zgierski",
                "operator:type": "government",
                "landuse": "education",
                "fixme": "amenity=school, amenity=college albo landuse=education w zale\u017cno\u015bci od tego, jakie plac\u00f3wki wchodz\u0105 w sk\u0142ad zespo\u0142u. Sprawd\u017a, kiedy stosowa\u0107 amenity=* a kiedy landuse=education.",
                "note": "Children RSPO: 9957;9959;9967;9985;30019"
            }
        },
        {
            "id": 275426,
            "type": "Feature",
            "geometry": {
                "type": "Point",
                "coordinates": [
                    19.41727,
                    51.85438
                ]
            },
            "properties": {
                "isced:level": "3",
                "ref:rspo": 275426,
                "official_name": "Bran\u017cowa Szko\u0142a II Stopnia Prymus w Zgierzu",
                "name": "Bran\u017cowa Szko\u0142a II Stopnia Prymus w Zgierzu",
                "addr:postcode": "95-100",
                "addr:city": "Zgierz",
                "addr:street": "Plac Jana Kili\u0144skiego",
                "addr:housenumber": "8",
                "addr:city:simc": 959263,
                "addr:street:sym_ul": 42875,
                "phone": "+48 575435223",
                "email": "zgierz@darmoweszkoly.pl",
                "website": "http:\/\/www.darmoweszkoly.pl",
                "ref:regon": "386916688",
                "operator": "Ksko Sp\u00f3\u0142ka Z Ograniczon\u0105 Odpowiedzialno\u015bci\u0105",
                "operator:type": "private",
                "amenity": "school"
            }
        },
        {
            "id": 9957,
            "type": "Feature",
            "geometry": {
                "type": "Point",
                "coordinates": [
                    19.41727,
                    51.854350000000004
                ]
            },
            "properties": {
                "isced:level": "4",
                "ref:rspo": 9957,
                "official_name": "Szko\u0142a Policealna nr 2 im. Jana Paw\u0142a II w Zgierzu",
                "name": "Szko\u0142a Policealna nr 2",
                "addr:postcode": "95-100",
                "addr:city": "Zgierz",
                "addr:street": "Plac Jana Kili\u0144skiego",
                "addr:housenumber": "8",
                "addr:city:simc": 959263,
                "addr:street:sym_ul": 42875,
                "phone": "+48 427190866",
                "email": "sekretariat_zzsp@miasto.zgierz.pl",
                "website": "http:\/\/www.zzsp.miasto.zgierz.pl",
                "ref:regon": "473062575",
                "operator": "Powiat Zgierski",
                "operator:type": "government",
                "amenity": "college",
                "note": "Parent RSPO: 7142"
            }
        },
        {
            "id": 9959,
            "type": "Feature",
            "geometry": {
                "type": "Point",
                "coordinates": [
                    19.41727,
                    51.85432
                ]
            },
            "properties": {
                "isced:level": "3",
                "ref:rspo": 9959,
                "official_name": "Iv Liceum Og\u00f3lnokszta\u0142c\u0105ce im. Jana Paw\u0142a II w Zgierzu",
                "name": "Iv Liceum Og\u00f3lnokszta\u0142c\u0105ce",
                "addr:postcode": "95-100",
                "addr:city": "Zgierz",
                "addr:street": "Plac Jana Kili\u0144skiego",
                "addr:housenumber": "8",
                "addr:city:simc": 959263,
                "addr:street:sym_ul": 42875,
                "phone": "+48 427190866",
                "email": "sekretariat_zzsp@miasto.zgierz.pl",
                "website": "http:\/\/www.zzsp.miasto.zgierz.pl",
                "ref:regon": "100241261",
                "operator": "Powiat Zgierski",
                "operator:type": "government",
                "amenity": "school",
                "note": "Parent RSPO: 7142"
            }
        },
        {
            "id": 9967,
            "type": "Feature",
            "geometry": {
                "type": "Point",
                "coordinates": [
                    19.41727,
                    51.85429
                ]
            },
            "properties": {
                "isced:level": "3",
                "ref:rspo": 9967,
                "official_name": "Szko\u0142a Bran\u017cowa I Stopnia nr 2 im. Jana Paw\u0142a II w Zgierzu",
                "name": "Szko\u0142a Bran\u017cowa I Stopnia nr 2",
                "addr:postcode": "95-100",
                "addr:city": "Zgierz",
                "addr:street": "Plac Jana Kili\u0144skiego",
                "addr:housenumber": "8",
                "addr:city:simc": 959263,
                "addr:street:sym_ul": 42875,
                "phone": "+48 427190866",
                "email": "sekretariat_zzsp@miasto.zgierz.pl",
                "website": "http:\/\/www.zzsp.miasto.zgierz.pl",
                "ref:regon": "473062569",
                "operator": "Powiat Zgierski",
                "operator:type": "government",
                "amenity": "school",
                "note": "Parent RSPO: 7142"
            }
        },
        {
            "id": 9985,
            "type": "Feature",
            "geometry": {
                "type": "Point",
                "coordinates": [
                    19.41727,
                    51.854260000000004
                ]
            },
            "properties": {
                "ref:rspo": 9985,
                "official_name": "Centrum Kszta\u0142cenia Zawodowego w Zgierzu",
                "name": "Centrum Kszta\u0142cenia Zawodowego w Zgierzu",
                "addr:postcode": "95-100",
                "addr:city": "Zgierz",
                "addr:street": "Plac Jana Kili\u0144skiego",
                "addr:housenumber": "8",
                "addr:city:simc": 959263,
                "addr:street:sym_ul": 42875,
                "phone": "+48 427190866",
                "email": "sekretariat_zzsp@miasto.zgierz.pl",
                "website": "http:\/\/www.zzsp.miasto.zgierz.pl",
                "ref:regon": "100164164",
                "operator": "Powiat Zgierski",
                "operator:type": "government",
                "fixme": "w zale\u017cno\u015bci od przedmiotu dzia\u0142alno\u015bci (np. amenity=training + training=*, amenity=dancing_school, amenity=language_school, amenity=music_school) albo amenity=school, amenity=college, albo landuse=education w zale\u017cno\u015bci od tego, jakie plac\u00f3wki wchodz\u0105 w sk\u0142ad zespo\u0142u. Sprawd\u017a, kiedy stosowa\u0107 amenity=* a kiedy landuse=education.",
                "note": "Parent RSPO: 7142"
            }
        },
        {
            "id": 30019,
            "type": "Feature",
            "geometry": {
                "type": "Point",
                "coordinates": [
                    19.41727,
                    51.85423
                ]
            },
            "properties": {
                "isced:level": "3",
                "ref:rspo": 30019,
                "official_name": "Technikum nr 2 im. Jana Paw\u0142a II w Zgierzu",
                "name": "Technikum nr 2",
                "addr:postcode": "95-100",
                "addr:city": "Zgierz",
                "addr:street": "Plac Jana Kili\u0144skiego",
                "addr:housenumber": "8",
                "addr:city:simc": 959263,
                "addr:street:sym_ul": 42875,
                "phone": "+48 427190866",
                "email": "sekretriat_zzsp@miasto.zgierz.pl",
                "website": "http:\/\/www.zzsp.miasto.zgierz.pl",
                "ref:regon": "473062581",
                "operator": "Powiat Zgierski",
                "operator:type": "government",
                "amenity": "school",
                "note": "Parent RSPO: 7142"
            }
        },
        {
            "id": 14499,
            "type": "Feature",
            "geometry": {
                "type": "Point",
                "coordinates": [
                    19.4052276,
                    51.8545952
                ]
            },
            "properties": {
                "isced:level": "1;2",
                "ref:rspo": 14499,
                "official_name": "Szko\u0142a Podstawowa nr 4 im. Jana Niepokoja w Zgierzu",
                "name": "Szko\u0142a Podstawowa nr 4",
                "addr:postcode": "95-100",
                "addr:city": "Zgierz",
                "addr:street": "\u0141\u00f3dzka",
                "addr:housenumber": "2",
                "addr:city:simc": 959263,
                "addr:street:sym_ul": 11710,
                "phone": "+48 427154478",
                "email": "sp4@miasto.zgierz.pl",
                "website": "http:\/\/www.sp4.miasto.zgierz.pl",
                "ref:regon": "000735730",
                "ref:vatin": "PL7321070278",
                "operator": "Gmina Miasto Zgierz",
                "operator:type": "government",
                "amenity": "school"
            }
        },
        {
            "id": 10748,
            "type": "Feature",
            "geometry": {
                "type": "Point",
                "coordinates": [
                    19.4133299,
                    51.85528
                ]
            },
            "properties": {
                "ref:rspo": 10748,
                "official_name": "Zak\u0142ad Doskonalenia Zawodowego w \u0141odzi - O\u015brodek Kszta\u0142cenia Zawodowego nr 15 w Zgierzu",
                "name": "Zak\u0142ad Doskonalenia Zawodowego w \u0141odzi - O\u015brodek Kszta\u0142cenia Zawodowego nr 15 w Zgierzu",
                "addr:postcode": "95-100",
                "addr:city": "Zgierz",
                "addr:street": "D\u0142uga",
                "addr:housenumber": "33",
                "addr:city:simc": 959263,
                "addr:street:sym_ul": 3839,
                "phone": "+48 427162922",
                "email": "okzzgierz@zdz.lodz.pl",
                "ref:regon": "101464477",
                "ref:vatin": "PL7270126097",
                "operator": "Zak\u0142ad Doskonalenia Zawodowego W \u0141odzi",
                "operator:type": "ngo",
                "fixme": "w zale\u017cno\u015bci od przedmiotu dzia\u0142alno\u015bci (np. amenity=training + training=*, amenity=dancing_school, amenity=language_school, amenity=music_school)"
            }
        },
        {
            "id": 14405,
            "type": "Feature",
            "geometry": {
                "type": "Point",
                "coordinates": [
                    19.42472,
                    51.85725
                ]
            },
            "properties": {
                "isced:level": "1;2",
                "ref:rspo": 14405,
                "official_name": "Szko\u0142a Podstawowa nr 11 w Zgierzu",
                "name": "Szko\u0142a Podstawowa nr 11 w Zgierzu",
                "addr:postcode": "95-100",
                "addr:city": "Zgierz",
                "addr:street": "Stanis\u0142awa Dubois",
                "addr:housenumber": "26",
                "addr:city:simc": 959263,
                "addr:street:sym_ul": 4337,
                "phone": "+48 427163036",
                "email": "sp11@miasto.zgierz.pl",
                "website": "http:\/\/www.sp11.miasto.zgierz.pl\/",
                "ref:regon": "000735776",
                "ref:vatin": "PL7321128983",
                "operator": "Gmina Miasto Zgierz",
                "operator:type": "government",
                "amenity": "school"
            }
        },
        {
            "id": 14304,
            "type": "Feature",
            "geometry": {
                "type": "Point",
                "coordinates": [
                    19.42172,
                    51.85741
                ]
            },
            "properties": {
                "ref:rspo": 14304,
                "official_name": "Miejskie Przedszkole nr 9 \"S\u0142oneczny Dom\" w Zgierzu",
                "name": "Miejskie Przedszkole nr 9 \"S\u0142oneczny Dom\" w Zgierzu",
                "addr:postcode": "95-100",
                "addr:city": "Zgierz",
                "addr:street": "Stanis\u0142awa Dubois",
                "addr:housenumber": "10",
                "addr:city:simc": 959263,
                "addr:street:sym_ul": 4337,
                "phone": "+48 427165749",
                "email": "slonecznydom@interia.pl",
                "ref:regon": "100881925",
                "ref:vatin": "PL7322142979",
                "operator": "Gmina Miasto Zgierz",
                "operator:type": "government",
                "amenity": "kindergarten"
            }
        },
        {
            "id": 264531,
            "type": "Feature",
            "geometry": {
                "type": "Point",
                "coordinates": [
                    19.3816099,
                    51.85747
                ]
            },
            "properties": {
                "ref:rspo": 264531,
                "official_name": "Przedszkole Niepubliczne Ma\u0142y Domek Patrycja Kociemska",
                "name": "Przedszkole Niepubliczne Ma\u0142y Domek Patrycja Kociemska",
                "addr:postcode": "95-100",
                "addr:city": "Zgierz",
                "addr:street": "\u017bytnia",
                "addr:housenumber": "76",
                "addr:city:simc": 959263,
                "addr:street:sym_ul": 26635,
                "email": "kontakt@malydomekzgierz.pl",
                "website": "http:\/\/www.malydomekzgierz.pl",
                "ref:regon": "368374735",
                "operator": "Patrycja Kociemska",
                "operator:type": "private",
                "amenity": "kindergarten"
            }
        },
        {
            "id": 25102,
            "type": "Feature",
            "geometry": {
                "type": "Point",
                "coordinates": [
                    19.39928,
                    51.85906
                ]
            },
            "properties": {
                "ref:rspo": 25102,
                "official_name": "Przedszkole Niepubliczne Bim Bam Bom",
                "name": "Przedszkole Niepubliczne Bim Bam Bom",
                "addr:postcode": "95-100",
                "addr:city": "Zgierz",
                "addr:street": "Parz\u0119czewska",
                "addr:housenumber": "8",
                "addr:city:simc": 959263,
                "addr:street:sym_ul": 15746,
                "phone": "+48 517870482",
                "email": "przedszkole@bimbambom.info",
                "ref:regon": "101478522",
                "ref:vatin": "PL7251822973",
                "operator": "Koda Public Relations Beata Kostrzewska I S\u0142awomir Darzycki Sp\u00f3\u0142ka Jawna",
                "operator:type": "private",
                "amenity": "kindergarten"
            }
        },
        {
            "id": 14306,
            "type": "Feature",
            "geometry": {
                "type": "Point",
                "coordinates": [
                    19.39268,
                    51.85963
                ]
            },
            "properties": {
                "ref:rspo": 14306,
                "official_name": "Miejskie Przedszkole nr 12 w Zgierzu",
                "name": "Miejskie Przedszkole nr 12 w Zgierzu",
                "addr:postcode": "95-100",
                "addr:city": "Zgierz",
                "addr:street": "Konstantego Ildefonsa Ga\u0142czy\u0144skiego",
                "addr:housenumber": "30",
                "addr:city:simc": 959263,
                "addr:street:sym_ul": 5300,
                "phone": "+48 427165254",
                "email": "topola@wikom.pl",
                "website": "http:\/\/www.topola.wikom.pl",
                "ref:regon": "100884355",
                "ref:vatin": "PL7322143306",
                "operator": "Gmina Miasto Zgierz",
                "operator:type": "government",
                "amenity": "kindergarten"
            }
        },
        {
            "id": 14402,
            "type": "Feature",
            "geometry": {
                "type": "Point",
                "coordinates": [
                    19.3825499,
                    51.86008
                ]
            },
            "properties": {
                "isced:level": "1;2",
                "ref:rspo": 14402,
                "official_name": "Szko\u0142a Podstawowa nr 8 w Zgierzu",
                "name": "Szko\u0142a Podstawowa nr 8 w Zgierzu",
                "addr:postcode": "95-100",
                "addr:city": "Zgierz",
                "addr:street": "Tadeusza Boya-\u017bele\u0144skiego",
                "addr:housenumber": "4",
                "addr:city:simc": 959263,
                "addr:street:sym_ul": 1929,
                "phone": "+48 427165450",
                "email": "zgierzsp8@gmail.com",
                "ref:regon": "470538267",
                "ref:vatin": "PL7321083275",
                "operator": "Gmina Miasto Zgierz",
                "operator:type": "government",
                "amenity": "school"
            }
        },
        {
            "id": 14299,
            "type": "Feature",
            "geometry": {
                "type": "Point",
                "coordinates": [
                    19.38213,
                    51.86067
                ]
            },
            "properties": {
                "ref:rspo": 14299,
                "official_name": "Miejskie Przedszkole nr 2 im. Wandy Chotomskiej w Zgierzu",
                "name": "Miejskie Przedszkole nr 2",
                "addr:postcode": "95-100",
                "addr:city": "Zgierz",
                "addr:street": "Tadeusza Boya-\u017bele\u0144skiego",
                "addr:housenumber": "6",
                "addr:city:simc": 959263,
                "addr:street:sym_ul": 1929,
                "phone": "+48 427165261",
                "email": "mp2zgierz@wikom.pl",
                "website": "http:\/\/www.mp2zgierz.wikom.pl",
                "ref:regon": "100881859",
                "ref:vatin": "PL7322143275",
                "operator": "Gmina Miasto Zgierz",
                "operator:type": "government",
                "amenity": "kindergarten"
            }
        },
        {
            "id": 23367,
            "type": "Feature",
            "geometry": {
                "type": "Point",
                "coordinates": [
                    19.3906879,
                    51.8606965
                ]
            },
            "properties": {
                "ref:rspo": 23367,
                "official_name": "Zesp\u00f3\u0142 Szk\u00f3\u0142 Spo\u0142ecznych Towarzystwa Przyjaci\u00f3\u0142 Zgierza",
                "name": "Zesp\u00f3\u0142 Szk\u00f3\u0142 Spo\u0142ecznych Towarzystwa Przyjaci\u00f3\u0142 Zgierza",
                "addr:postcode": "95-100",
                "addr:city": "Zgierz",
                "addr:street": "Boles\u0142awa Le\u015bmiana",
                "addr:housenumber": "1b",
                "addr:city:simc": 959263,
                "addr:street:sym_ul": 10895,
                "phone": "+48 422352915",
                "email": "zsstpz@gmail.com",
                "website": "http:\/\/www.zsstpz.pl",
                "ref:regon": "101476842",
                "operator": "Towarzystwo Przyjaci\u00f3\u0142 Zgierza",
                "operator:type": "ngo",
                "landuse": "education",
                "fixme": "amenity=school, amenity=college albo landuse=education w zale\u017cno\u015bci od tego, jakie plac\u00f3wki wchodz\u0105 w sk\u0142ad zespo\u0142u. Sprawd\u017a, kiedy stosowa\u0107 amenity=* a kiedy landuse=education.",
                "note": "Children RSPO: 24268;31917"
            }
        },
        {
            "id": 24268,
            "type": "Feature",
            "geometry": {
                "type": "Point",
                "coordinates": [
                    19.3906879,
                    51.8606665
                ]
            },
            "properties": {
                "isced:level": "3",
                "ref:rspo": 24268,
                "official_name": "Spo\u0142eczne Liceum Og\u00f3lnokszta\u0142c\u0105ce Towarzystwa Przyjaci\u00f3\u0142 Zgierza",
                "name": "Spo\u0142eczne Liceum Og\u00f3lnokszta\u0142c\u0105ce Towarzystwa Przyjaci\u00f3\u0142 Zgierza",
                "addr:postcode": "95-100",
                "addr:city": "Zgierz",
                "addr:street": "Boles\u0142awa Le\u015bmiana",
                "addr:housenumber": "1b",
                "addr:city:simc": 959263,
                "addr:street:sym_ul": 10895,
                "phone": "+48 422352915",
                "email": "zsstpz@gmail.com",
                "website": "http:\/\/www.zsstpz.pl",
                "ref:regon": "101495041",
                "operator": "Towarzystwo Przyjaci\u00f3\u0142 Zgierza",
                "operator:type": "ngo",
                "amenity": "school",
                "note": "Parent RSPO: 23367"
            }
        },
        {
            "id": 31917,
            "type": "Feature",
            "geometry": {
                "type": "Point",
                "coordinates": [
                    19.3906879,
                    51.860636500000005
                ]
            },
            "properties": {
                "isced:level": "1;2",
                "ref:rspo": 31917,
                "official_name": "I Spo\u0142eczna Szko\u0142a Podstawowa Towarzystwa Przyjaci\u00f3\u0142 Zgierza",
                "name": "I Spo\u0142eczna Szko\u0142a Podstawowa Towarzystwa Przyjaci\u00f3\u0142 Zgierza",
                "addr:postcode": "95-100",
                "addr:city": "Zgierz",
                "addr:street": "Boles\u0142awa Le\u015bmiana",
                "addr:housenumber": "1",
                "addr:city:simc": 959263,
                "addr:street:sym_ul": 10895,
                "phone": "+48 427161668",
                "email": "ssp_zgierz@o2.pl",
                "ref:regon": "101483084",
                "operator": "Towarzystwo Przyjaci\u00f3\u0142 Zgierza",
                "operator:type": "ngo",
                "amenity": "school",
                "note": "Parent RSPO: 23367"
            }
        },
        {
            "id": 14308,
            "type": "Feature",
            "geometry": {
                "type": "Point",
                "coordinates": [
                    19.38104,
                    51.8611
                ]
            },
            "properties": {
                "ref:rspo": 14308,
                "official_name": "Miejskie Przedszkole nr 14 w Zgierzu",
                "name": "Miejskie Przedszkole nr 14 w Zgierzu",
                "addr:postcode": "95-100",
                "addr:city": "Zgierz",
                "addr:street": "Tadeusza Boya-\u017bele\u0144skiego",
                "addr:housenumber": "17",
                "addr:city:simc": 959263,
                "addr:street:sym_ul": 1929,
                "phone": "+48 427165128",
                "email": "mp14zgierz@wikom.pl",
                "ref:regon": "100878120",
                "ref:vatin": "PL7322143542",
                "operator": "Gmina Miasto Zgierz",
                "operator:type": "government",
                "amenity": "kindergarten"
            }
        },
        {
            "id": 14309,
            "type": "Feature",
            "geometry": {
                "type": "Point",
                "coordinates": [
                    19.3822699,
                    51.86133
                ]
            },
            "properties": {
                "ref:rspo": 14309,
                "official_name": "Miejskie Przedszkole nr 15 w Zgierzu",
                "name": "Miejskie Przedszkole nr 15 w Zgierzu",
                "addr:postcode": "95-100",
                "addr:city": "Zgierz",
                "addr:street": "Tadeusza Boya-\u017bele\u0144skiego",
                "addr:housenumber": "10",
                "addr:city:simc": 959263,
                "addr:street:sym_ul": 1929,
                "phone": "+48 427165376",
                "email": "mp15zgierz@wikom.pl",
                "website": "http:\/\/mp15zgierz.wikom.pl",
                "ref:regon": "100890835",
                "ref:vatin": "PL7322142991",
                "operator": "Gmina Miasto Zgierz",
                "operator:type": "government",
                "amenity": "kindergarten"
            }
        },
        {
            "id": 263683,
            "type": "Feature",
            "geometry": {
                "type": "Point",
                "coordinates": [
                    19.41165,
                    51.8614
                ]
            },
            "properties": {
                "ref:rspo": 263683,
                "official_name": "Niepubliczne Przedszkole \"Akademia U\u015bmiechu\" w Zgierzu",
                "name": "Niepubliczne Przedszkole \"Akademia U\u015bmiechu\" w Zgierzu",
                "addr:postcode": "95-100",
                "addr:city": "Zgierz",
                "addr:street": "Norberta Barlickiego",
                "addr:housenumber": "2",
                "addr:city:simc": 959263,
                "addr:street:sym_ul": 763,
                "email": "malgorzata.oset@poczta.fm",
                "website": "http:\/\/www.akademiausmiechu.info",
                "ref:regon": "368221598",
                "operator": "Ma\u0142gorzata Oset",
                "operator:type": "private",
                "amenity": "kindergarten"
            }
        },
        {
            "id": 14399,
            "type": "Feature",
            "geometry": {
                "type": "Point",
                "coordinates": [
                    19.40932,
                    51.86148
                ]
            },
            "properties": {
                "isced:level": "1;2",
                "ref:rspo": 14399,
                "official_name": "Szko\u0142a Podstawowa nr 1 z Oddzia\u0142ami Integracyjnymi w Zgierzu",
                "name": "Szko\u0142a Podstawowa nr 1 z Oddzia\u0142ami Integracyjnymi w Zgierzu",
                "addr:postcode": "95-100",
                "addr:city": "Zgierz",
                "addr:street": "J\u00f3zefa Pi\u0142sudskiego",
                "addr:housenumber": "1",
                "addr:city:simc": 959263,
                "addr:street:sym_ul": 16264,
                "phone": "+48 427162650",
                "email": "sp1@miasto.zgierz.pl",
                "website": "http:\/\/www.sp1.miasto.zgierz.pl",
                "ref:regon": "000735701",
                "operator": "Gmina Miasto Zgierz",
                "operator:type": "government",
                "amenity": "school"
            }
        },
        {
            "id": 14301,
            "type": "Feature",
            "geometry": {
                "type": "Point",
                "coordinates": [
                    19.39699,
                    51.8618
                ]
            },
            "properties": {
                "ref:rspo": 14301,
                "official_name": "Miejskie Przedszkole nr 6 w Zgierzu",
                "name": "Miejskie Przedszkole nr 6 w Zgierzu",
                "addr:postcode": "95-100",
                "addr:city": "Zgierz",
                "addr:street": "Konstantego Ildefonsa Ga\u0142czy\u0144skiego",
                "addr:housenumber": "38",
                "addr:city:simc": 959263,
                "addr:street:sym_ul": 5300,
                "phone": "+48 427162035",
                "email": "przedszkole6zgierz@wp.pl",
                "ref:regon": "100882400",
                "ref:vatin": "PL7322142761",
                "operator": "Gmina Miasto Zgierz",
                "operator:type": "government",
                "amenity": "kindergarten"
            }
        },
        {
            "id": 10591,
            "type": "Feature",
            "geometry": {
                "type": "Point",
                "coordinates": [
                    19.41307,
                    51.86192
                ]
            },
            "properties": {
                "ref:rspo": 10591,
                "official_name": "\"Atena - Us\u0142ugi, Szkolenia,Doradztwo\" w Zgierzu",
                "name": "\"Atena - Us\u0142ugi, Szkolenia,Doradztwo\" w Zgierzu",
                "addr:postcode": "95-100",
                "addr:city": "Zgierz",
                "addr:street": "J\u00f3zefa Pi\u0142sudskiego",
                "addr:housenumber": "9",
                "addr:door": "5",
                "addr:city:simc": 959263,
                "addr:street:sym_ul": 16264,
                "phone": "+48 698528847",
                "email": "biuro@atena-bhp.pl",
                "ref:regon": "101463928",
                "ref:vatin": "PL7321730786",
                "operator": "Aneta Szyma\u0144ska - Kubiak",
                "operator:type": "private",
                "fixme": "w zale\u017cno\u015bci od przedmiotu dzia\u0142alno\u015bci (np. amenity=training + training=*, amenity=dancing_school, amenity=language_school, amenity=music_school)"
            }
        },
        {
            "id": 7191,
            "type": "Feature",
            "geometry": {
                "type": "Point",
                "coordinates": [
                    19.39357,
                    51.8636399
                ]
            },
            "properties": {
                "ref:rspo": 7191,
                "official_name": "Specjalny O\u015brodek Szkolno - Wychowawczy im. Kornela Makuszy\u0144skiego w Zgierzu",
                "name": "Specjalny O\u015brodek Szkolno - Wychowawczy",
                "addr:postcode": "95-100",
                "addr:city": "Zgierz",
                "addr:street": "Parz\u0119czewska",
                "addr:housenumber": "46",
                "addr:city:simc": 959263,
                "addr:street:sym_ul": 15746,
                "phone": "+48 427190861",
                "email": "soswzgierz@op.pl",
                "website": "http:\/\/soswzgierz.pl",
                "ref:regon": "000196032",
                "ref:vatin": "PL7321050264",
                "operator": "Powiat Zgierski",
                "operator:type": "government",
                "amenity": "school",
                "note": "Children RSPO: 10203;10207;10209;127931"
            }
        },
        {
            "id": 10203,
            "type": "Feature",
            "geometry": {
                "type": "Point",
                "coordinates": [
                    19.39357,
                    51.8636099
                ]
            },
            "properties": {
                "isced:level": "1;2",
                "ref:rspo": 10203,
                "official_name": "Szko\u0142a Podstawowa Specjalna nr 13 im. Kornela Makuszy\u0144skiego w Zgierzu",
                "name": "Szko\u0142a Podstawowa Specjalna nr 13",
                "addr:postcode": "95-100",
                "addr:city": "Zgierz",
                "addr:street": "Parz\u0119czewska",
                "addr:housenumber": "46",
                "addr:city:simc": 959263,
                "addr:street:sym_ul": 15746,
                "phone": "+48 427152567",
                "email": "soswzgierz@op.pl",
                "website": "http:\/\/www.soswzgierz.pl",
                "ref:regon": "000735813",
                "operator": "Powiat Zgierski",
                "operator:type": "government",
                "amenity": "school",
                "note": "Parent RSPO: 7191"
            }
        },
        {
            "id": 10207,
            "type": "Feature",
            "geometry": {
                "type": "Point",
                "coordinates": [
                    19.39357,
                    51.863579900000005
                ]
            },
            "properties": {
                "isced:level": "3",
                "ref:rspo": 10207,
                "official_name": "Specjalna Szko\u0142a Bran\u017cowa I Stopnia nr 3 im. Kornela Makuszy\u0144skiego w Zgierzu",
                "name": "Specjalna Szko\u0142a Bran\u017cowa I Stopnia nr 3",
                "addr:postcode": "95-100",
                "addr:city": "Zgierz",
                "addr:street": "Parz\u0119czewska",
                "addr:housenumber": "46",
                "addr:city:simc": 959263,
                "addr:street:sym_ul": 15746,
                "phone": "+48 427152567",
                "email": "soswzgierz@op.pl",
                "website": "http:\/\/www.soswzgierz.pl",
                "ref:regon": "473269098",
                "operator": "Powiat Zgierski",
                "operator:type": "government",
                "amenity": "school",
                "note": "Parent RSPO: 7191"
            }
        },
        {
            "id": 10209,
            "type": "Feature",
            "geometry": {
                "type": "Point",
                "coordinates": [
                    19.39357,
                    51.8635499
                ]
            },
            "properties": {
                "ref:rspo": 10209,
                "official_name": "Szko\u0142a Specjalna Przysposabiaj\u0105ca do Pracy im. Kornela Makuszy\u0144skiego w Zgierzu",
                "name": "Szko\u0142a Specjalna Przysposabiaj\u0105ca do Pracy",
                "addr:postcode": "95-100",
                "addr:city": "Zgierz",
                "addr:street": "Parz\u0119czewska",
                "addr:housenumber": "46",
                "addr:city:simc": 959263,
                "addr:street:sym_ul": 15746,
                "phone": "+48 427190861",
                "email": "soswzgierz@op.pl",
                "website": "http:\/\/www.soswzgierz.pl",
                "ref:regon": "473269170",
                "operator": "Powiat Zgierski",
                "operator:type": "government",
                "amenity": "school",
                "note": "Parent RSPO: 7191"
            }
        },
        {
            "id": 127931,
            "type": "Feature",
            "geometry": {
                "type": "Point",
                "coordinates": [
                    19.39357,
                    51.8635199
                ]
            },
            "properties": {
                "ref:rspo": 127931,
                "official_name": "Przedszkole Specjalne nr 16 im. Kornela Makuszy\u0144skiego w Zgierzu",
                "name": "Przedszkole Specjalne nr 16",
                "addr:postcode": "95-100",
                "addr:city": "Zgierz",
                "addr:street": "Parz\u0119czewska",
                "addr:housenumber": "46",
                "addr:city:simc": 959263,
                "addr:street:sym_ul": 15746,
                "phone": "+48 427152567",
                "email": "soswzgierz@op.pl",
                "website": "http:\/\/www.soswzgierz.pl",
                "ref:regon": "361975644",
                "operator": "Powiat Zgierski",
                "operator:type": "government",
                "amenity": "kindergarten",
                "note": "Parent RSPO: 7191"
            }
        },
        {
            "id": 14305,
            "type": "Feature",
            "geometry": {
                "type": "Point",
                "coordinates": [
                    19.43294,
                    51.8638
                ]
            },
            "properties": {
                "ref:rspo": 14305,
                "official_name": "Miejskie Przedszkole nr 10 w Zgierzu",
                "name": "Miejskie Przedszkole nr 10 w Zgierzu",
                "addr:postcode": "95-100",
                "addr:city": "Zgierz",
                "addr:street": "Micha\u0142a Ossowskiego",
                "addr:housenumber": "26",
                "addr:city:simc": 959263,
                "addr:street:sym_ul": 15350,
                "phone": "+48 427164208",
                "email": "mp10zgierz@wikom.pl",
                "ref:regon": "100881894",
                "ref:vatin": "PL7322143281",
                "operator": "Gmina Miasto Zgierz",
                "operator:type": "government",
                "amenity": "kindergarten"
            }
        },
        {
            "id": 14410,
            "type": "Feature",
            "geometry": {
                "type": "Point",
                "coordinates": [
                    19.4038499,
                    51.86394
                ]
            },
            "properties": {
                "isced:level": "3",
                "ref:rspo": 14410,
                "official_name": "Samorz\u0105dowe Liceum Og\u00f3lnokszta\u0142c\u0105ce im. Romualda Traugutta w Zgierzu",
                "name": "Samorz\u0105dowe Liceum Og\u00f3lnokszta\u0142c\u0105ce",
                "addr:postcode": "95-100",
                "addr:city": "Zgierz",
                "addr:street": "Arkadiusza Musierowicza",
                "addr:housenumber": "2",
                "addr:city:simc": 959263,
                "addr:street:sym_ul": 13507,
                "phone": "+48 427177000",
                "email": "traugutt@miasto.zgierz.pl",
                "ref:regon": "470650656",
                "ref:vatin": "PL7321009379",
                "operator": "Gmina Miasto Zgierz",
                "operator:type": "government",
                "amenity": "school"
            }
        },
        {
            "id": 273890,
            "type": "Feature",
            "geometry": {
                "type": "Point",
                "coordinates": [
                    19.4038499,
                    51.86391
                ]
            },
            "properties": {
                "isced:level": "3",
                "ref:rspo": 273890,
                "official_name": "Liceum Og\u00f3lnokszta\u0142c\u0105ce dla Doros\u0142ych \"Baka\u0142arz\"",
                "name": "Liceum Og\u00f3lnokszta\u0142c\u0105ce dla Doros\u0142ych \"Baka\u0142arz\"",
                "addr:postcode": "95-100",
                "addr:city": "Zgierz",
                "addr:street": "Arkadiusza Musierowicza",
                "addr:housenumber": "2",
                "addr:city:simc": 959263,
                "addr:street:sym_ul": 13507,
                "email": "bakalarz.zgierz@gmail.com",
                "website": "http:\/\/www.liceumbakalarz.pl",
                "ref:regon": "384810767",
                "operator": "Krystyna Bakalarz",
                "operator:type": "private",
                "amenity": "school"
            }
        },
        {
            "id": 14406,
            "type": "Feature",
            "geometry": {
                "type": "Point",
                "coordinates": [
                    19.3796,
                    51.86407
                ]
            },
            "properties": {
                "isced:level": "1;2",
                "ref:rspo": 14406,
                "official_name": "Szko\u0142a Podstawowa nr 12 im. Armii Krajowej w Zgierzu",
                "name": "Szko\u0142a Podstawowa nr 12",
                "addr:postcode": "95-100",
                "addr:city": "Zgierz",
                "addr:street": "Leopolda Staffa",
                "addr:housenumber": "26",
                "addr:city:simc": 959263,
                "addr:street:sym_ul": 20798,
                "phone": "+48 427166547",
                "email": "sp12@miasto.zgierz.pl",
                "website": "http:\/\/www.sp12.miasto.zgierz.pl",
                "ref:regon": "470884058",
                "ref:vatin": "PL7321038576",
                "operator": "Gmina Miasto Zgierz",
                "operator:type": "government",
                "amenity": "school"
            }
        },
        {
            "id": 14307,
            "type": "Feature",
            "geometry": {
                "type": "Point",
                "coordinates": [
                    19.41508,
                    51.86447
                ]
            },
            "properties": {
                "ref:rspo": 14307,
                "official_name": "Miejskie Przedszkole nr 13 im. \"Bajkowe Przedszkole\" w Zgierzu",
                "name": "Miejskie Przedszkole nr 13",
                "addr:postcode": "95-100",
                "addr:city": "Zgierz",
                "addr:street": "Juliusza S\u0142owackiego",
                "addr:housenumber": "8",
                "addr:city:simc": 959263,
                "addr:street:sym_ul": 20291,
                "phone": "+48 427162573",
                "email": "mp13zgierz@wikom.pl",
                "ref:regon": "100880239",
                "ref:vatin": "PL7322143298",
                "operator": "Gmina Miasto Zgierz",
                "operator:type": "government",
                "amenity": "kindergarten"
            }
        },
        {
            "id": 14400,
            "type": "Feature",
            "geometry": {
                "type": "Point",
                "coordinates": [
                    19.42526,
                    51.86451
                ]
            },
            "properties": {
                "isced:level": "1;2",
                "ref:rspo": 14400,
                "official_name": "Szko\u0142a Podstawowa nr 3 w Zgierzu",
                "name": "Szko\u0142a Podstawowa nr 3 w Zgierzu",
                "addr:postcode": "95-100",
                "addr:city": "Zgierz",
                "addr:street": "Szczawi\u0144ska",
                "addr:housenumber": "2",
                "addr:city:simc": 959263,
                "addr:street:sym_ul": 21798,
                "phone": "+48 427164187",
                "email": "sp3@miasto.zgierz.pl",
                "website": "http:\/\/www.sp3.miasto.zgierz.pl",
                "ref:regon": "000735724",
                "ref:vatin": "PL7321071384",
                "operator": "Gmina Miasto Zgierz",
                "operator:type": "government",
                "amenity": "school"
            }
        },
        {
            "id": 277020,
            "type": "Feature",
            "geometry": {
                "type": "Point",
                "coordinates": [
                    19.43143,
                    51.86794
                ]
            },
            "properties": {
                "ref:rspo": 277020,
                "official_name": "Niepubliczne Przedszkole Sportowo-J\u0119zykowe \"Guziczek\" w Zgierzu",
                "name": "Niepubliczne Przedszkole Sportowo-J\u0119zykowe \"Guziczek\" w Zgierzu",
                "addr:postcode": "95-100",
                "addr:city": "Zgierz",
                "addr:street": "Prz\u0119dzalniana",
                "addr:housenumber": "16",
                "addr:city:simc": 959263,
                "addr:street:sym_ul": 17793,
                "email": "wesolymaluch@wp.pl",
                "ref:regon": "388010615",
                "operator": "Sylwia Krzewina",
                "operator:type": "private",
                "amenity": "kindergarten"
            }
        },
        {
            "id": 14404,
            "type": "Feature",
            "geometry": {
                "type": "Point",
                "coordinates": [
                    19.39258,
                    51.87669
                ]
            },
            "properties": {
                "isced:level": "1;2",
                "ref:rspo": 14404,
                "official_name": "Szko\u0142a Podstawowa nr 10 w Zgierzu",
                "name": "Szko\u0142a Podstawowa nr 10 w Zgierzu",
                "addr:postcode": "95-100",
                "addr:city": "Zgierz",
                "addr:street": "Ozorkowska",
                "addr:housenumber": "68\/70",
                "addr:city:simc": 959263,
                "addr:street:sym_ul": 15490,
                "phone": "+48 427164709",
                "email": "sp10@miasto.zgierz.pl",
                "website": "http:\/\/www.sp10.miasto.zgierz.pl",
                "ref:regon": "001113723",
                "ref:vatin": "PL7321045659",
                "operator": "Gmina Miasto Zgierz",
                "operator:type": "government",
                "amenity": "school"
            }
        }
    ]
}