{
    "type": "FeatureCollection",
    "features": [
        {
            "id": 6181,
            "type": "Feature",
            "geometry": {
                "type": "Point",
                "coordinates": [
                    16.52075,
                    52.81812
                ]
            },
            "properties": {
                "isced:level": "1;2",
                "ref:rspo": 6181,
                "official_name": "Publiczna Szko\u0142a Podstawowa Im Marii D\u0105browskiej w Mi\u0142kowie",
                "name": "Publiczna Szko\u0142a Podstawowa Im Marii D\u0105browskiej w Mi\u0142kowie",
                "addr:postcode": "64-720",
                "addr:place": "Mi\u0142kowo",
                "addr:housenumber": "12",
                "addr:city:simc": 527339,
                "phone": "+48 672556090",
                "email": "milkowo11@wp.pl",
                "website": "http:\/\/www.spmilkowo.superszkolna.pl",
                "ref:regon": "001142162",
                "ref:vatin": "PL7631877549",
                "operator": "Gmina Lubasz",
                "operator:type": "government",
                "amenity": "school"
            }
        },
        {
            "id": 48678,
            "type": "Feature",
            "geometry": {
                "type": "Point",
                "coordinates": [
                    16.60962,
                    52.84247
                ]
            },
            "properties": {
                "isced:level": "1;2",
                "ref:rspo": 48678,
                "official_name": "Publiczna Szko\u0142a Podstawowa Im Jana Brzechwy w J\u0119drzejewie",
                "name": "Publiczna Szko\u0142a Podstawowa Im Jana Brzechwy w J\u0119drzejewie",
                "addr:postcode": "64-720",
                "addr:place": "J\u0119drzejewo",
                "addr:housenumber": "40a",
                "addr:city:simc": 527240,
                "phone": "+48 672551723",
                "email": "spj1@op.pl",
                "ref:regon": "001142191",
                "ref:vatin": "PL7631877578",
                "operator": "Gmina Lubasz",
                "operator:type": "government",
                "amenity": "school"
            }
        },
        {
            "id": 6182,
            "type": "Feature",
            "geometry": {
                "type": "Point",
                "coordinates": [
                    16.41398,
                    52.8460899
                ]
            },
            "properties": {
                "isced:level": "1;2",
                "ref:rspo": 6182,
                "official_name": "Publiczna Szko\u0142a Podstawowa w Kruczu",
                "name": "Publiczna Szko\u0142a Podstawowa w Kruczu",
                "addr:postcode": "64-720",
                "addr:place": "Krucz",
                "addr:housenumber": "62",
                "addr:city:simc": 527279,
                "phone": "+48 672551876",
                "email": "szkolakrucz@wp.pl",
                "website": "http:\/\/www.spkrucz.szkolnastrona.pl",
                "ref:regon": "001142156",
                "ref:vatin": "PL7631877561",
                "operator": "Gmina Lubasz",
                "operator:type": "government",
                "amenity": "school"
            }
        },
        {
            "id": 59889,
            "type": "Feature",
            "geometry": {
                "type": "Point",
                "coordinates": [
                    16.52299,
                    52.84955
                ]
            },
            "properties": {
                "ref:rspo": 59889,
                "official_name": "\"Edukacja Lubasz\" Sp\u00f3\u0142ka Z Ograniczon\u0105 Odpowiedzialno\u015bci\u0105",
                "name": "\"Edukacja Lubasz\" Sp\u00f3\u0142ka Z Ograniczon\u0105 Odpowiedzialno\u015bci\u0105",
                "addr:postcode": "64-720",
                "addr:city": "Lubasz",
                "addr:street": "Boles\u0142awa Chrobrego",
                "addr:housenumber": "33",
                "addr:city:simc": 527300,
                "addr:street:sym_ul": 1742,
                "phone": "+48 672556055",
                "email": "psp_lubasz@poczta.onet.pl",
                "ref:regon": "302251197",
                "ref:vatin": "PL7631959833",
                "operator": "\"Edukacja Lubasz\" Sp\u00f3\u0142ka Z Ograniczon\u0105 Odpowiedzialno\u015bci\u0105",
                "operator:type": "private",
                "landuse": "education",
                "fixme": "amenity=school, amenity=college albo landuse=education w zale\u017cno\u015bci od tego, jakie plac\u00f3wki wchodz\u0105 w sk\u0142ad zespo\u0142u. Sprawd\u017a, kiedy stosowa\u0107 amenity=* a kiedy landuse=education.",
                "note": "Children RSPO: 80483;80773;88557;264066;264116;264578;268833"
            }
        },
        {
            "id": 80483,
            "type": "Feature",
            "geometry": {
                "type": "Point",
                "coordinates": [
                    16.52299,
                    52.84952
                ]
            },
            "properties": {
                "isced:level": "3",
                "ref:rspo": 80483,
                "official_name": "Prywatne Liceum Og\u00f3lnokszta\u0142c\u0105ce im. I. J. Paderewskiego w Lubaszu",
                "name": "Prywatne Liceum Og\u00f3lnokszta\u0142c\u0105ce",
                "addr:postcode": "64-720",
                "addr:city": "Lubasz",
                "addr:street": "Boles\u0142awa Chrobrego",
                "addr:housenumber": "33",
                "addr:city:simc": 527300,
                "addr:street:sym_ul": 1742,
                "phone": "+48 672556055",
                "email": "psp_lubasz@poczta.onet.pl",
                "ref:regon": "302268306",
                "ref:vatin": "PL7631959833",
                "operator": "\"Edukacja Lubasz\" Sp\u00f3\u0142ka Z Ograniczon\u0105 Odpowiedzialno\u015bci\u0105",
                "operator:type": "private",
                "amenity": "school",
                "note": "Parent RSPO: 59889"
            }
        },
        {
            "id": 80773,
            "type": "Feature",
            "geometry": {
                "type": "Point",
                "coordinates": [
                    16.52299,
                    52.84949
                ]
            },
            "properties": {
                "isced:level": "3",
                "ref:rspo": 80773,
                "official_name": "Bran\u017cowa Szko\u0142a I Stopnia im. I. J. Paderewskiego w Lubaszu",
                "name": "Bran\u017cowa Szko\u0142a I Stopnia",
                "addr:postcode": "64-720",
                "addr:city": "Lubasz",
                "addr:street": "Boles\u0142awa Chrobrego",
                "addr:housenumber": "33",
                "addr:city:simc": 527300,
                "addr:street:sym_ul": 1742,
                "phone": "+48 672556055",
                "email": "psp_lubasz@poczta.onet.pl",
                "ref:regon": "302268571",
                "ref:vatin": "PL7631959833",
                "operator": "\"Edukacja Lubasz\" Sp\u00f3\u0142ka Z Ograniczon\u0105 Odpowiedzialno\u015bci\u0105",
                "operator:type": "private",
                "amenity": "school",
                "note": "Parent RSPO: 59889"
            }
        },
        {
            "id": 88557,
            "type": "Feature",
            "geometry": {
                "type": "Point",
                "coordinates": [
                    16.52299,
                    52.84946
                ]
            },
            "properties": {
                "isced:level": "3",
                "ref:rspo": 88557,
                "official_name": "Prywatne Technikum im. I. J. Paderewskiego w Lubaszu",
                "name": "Prywatne Technikum",
                "addr:postcode": "64-720",
                "addr:city": "Lubasz",
                "addr:street": "Boles\u0142awa Chrobrego",
                "addr:housenumber": "33",
                "addr:city:simc": 527300,
                "addr:street:sym_ul": 1742,
                "phone": "+48 672556055",
                "email": "psp_lubasz@poczta.onet.pl",
                "ref:regon": "302276033",
                "ref:vatin": "PL7631959833",
                "operator": "\"Edukacja Lubasz\" Sp\u00f3\u0142ka Z Ograniczon\u0105 Odpowiedzialno\u015bci\u0105",
                "operator:type": "private",
                "amenity": "school",
                "note": "Parent RSPO: 59889"
            }
        },
        {
            "id": 264116,
            "type": "Feature",
            "geometry": {
                "type": "Point",
                "coordinates": [
                    16.52299,
                    52.84943
                ]
            },
            "properties": {
                "isced:level": "1;2",
                "ref:rspo": 264116,
                "official_name": "Niepubliczna Szko\u0142a Podstawowa im. Ignacego Jana Paderewskiego w Lubaszu",
                "name": "Niepubliczna Szko\u0142a Podstawowa",
                "addr:postcode": "64-720",
                "addr:city": "Lubasz",
                "addr:street": "Boles\u0142awa Chrobrego",
                "addr:housenumber": "33",
                "addr:city:simc": 527300,
                "addr:street:sym_ul": 1742,
                "phone": "+48 672556055",
                "website": "http:\/\/www.lubasz.edu.pl",
                "ref:regon": "368265800",
                "ref:vatin": "PL7631959833",
                "operator": "\"Edukacja Lubasz\" Sp\u00f3\u0142ka Z Ograniczon\u0105 Odpowiedzialno\u015bci\u0105",
                "operator:type": "private",
                "amenity": "school",
                "note": "Parent RSPO: 59889"
            }
        },
        {
            "id": 6178,
            "type": "Feature",
            "geometry": {
                "type": "Point",
                "coordinates": [
                    16.52019,
                    52.85034
                ]
            },
            "properties": {
                "isced:level": "1;2",
                "ref:rspo": 6178,
                "official_name": "Publiczna Szko\u0142a Podstawowa Im Pp\u0142k. Zdzis\u0142awa Or\u0142owskiego w Lubaszu",
                "name": "Publiczna Szko\u0142a Podstawowa Im Pp\u0142k. Zdzis\u0142awa Or\u0142owskiego w Lubaszu",
                "addr:postcode": "64-720",
                "addr:city": "Lubasz",
                "addr:street": "Szkolna",
                "addr:housenumber": "6",
                "addr:city:simc": 527300,
                "addr:street:sym_ul": 21970,
                "phone": "+48 672556024",
                "email": "splubasz@wp.pl",
                "website": "http:\/\/splubasz.szkolnastrona.pl",
                "ref:regon": "000268180",
                "ref:vatin": "PL7631877555",
                "operator": "Gmina Lubasz",
                "operator:type": "government",
                "amenity": "school"
            }
        },
        {
            "id": 6281,
            "type": "Feature",
            "geometry": {
                "type": "Point",
                "coordinates": [
                    16.51962,
                    52.85128
                ]
            },
            "properties": {
                "ref:rspo": 6281,
                "official_name": "Przedszkole \"Bajka\" w Lubaszu",
                "name": "Przedszkole \"Bajka\" w Lubaszu",
                "addr:postcode": "64-720",
                "addr:city": "Lubasz",
                "addr:street": "Podg\u00f3rna",
                "addr:housenumber": "5",
                "addr:city:simc": 527300,
                "addr:street:sym_ul": 16742,
                "email": "przedszkole.bajka@poczta.onet.pl",
                "website": "http:\/\/www.przedszkolelubasz.pl\/",
                "ref:regon": "570176803",
                "ref:vatin": "PL7631191409",
                "operator": "Gmina Lubasz",
                "operator:type": "government",
                "amenity": "kindergarten"
            }
        }
    ]
}