{
    "type": "FeatureCollection",
    "features": [
        {
            "id": 41153,
            "type": "Feature",
            "geometry": {
                "type": "Point",
                "coordinates": [
                    16.01479,
                    52.87767
                ]
            },
            "properties": {
                "ref:rspo": 41153,
                "official_name": "Zesp\u00f3\u0142 Szk\u00f3\u0142 im. Powsta\u0144c\u00f3w Wielkopolskich 1918-1919 w Krzy\u017cu Wlkp.",
                "name": "Zesp\u00f3\u0142 Szk\u00f3\u0142",
                "addr:country": "PL",
                "addr:postcode": "64-761",
                "addr:city": "Krzy\u017c Wielkopolski",
                "addr:street": "ul. gen. W\u0142adys\u0142awa Sikorskiego",
                "addr:housenumber": "15",
                "addr:teryt:simc": 19907,
                "addr:teryt:sym_ul": 966961,
                "contact:phone": "+48 672564076",
                "contact:email": "zszkrzyz@poczta.onet.pl",
                "ref:regon": "570177889",
                "ref:vatin": "PL7631540873",
                "operator": "Powiat Czarnkowsko-Trzcianecki",
                "operator:type": "government",
                "landuse": "education",
                "fixme": "amenity=school, amenity=college albo landuse=education w zale\u017cno\u015bci od tego, jakie plac\u00f3wki wchodz\u0105 w sk\u0142ad zespo\u0142u. Sprawd\u017a, kiedy stosowa\u0107 amenity=* a kiedy landuse=education.",
                "note": "Children RSPO: 107025;107055;107083"
            }
        },
        {
            "id": 107025,
            "type": "Feature",
            "geometry": {
                "type": "Point",
                "coordinates": [
                    16.01479,
                    52.87764
                ]
            },
            "properties": {
                "isced:level": "3",
                "ref:rspo": 107025,
                "official_name": "Bran\u017cowa Szko\u0142a I Stopnia im. Powsta\u0144c\u00f3w Wlkp. 1918-1919 w Krzy\u017cu Wlkp.",
                "name": "Bran\u017cowa Szko\u0142a I Stopnia",
                "addr:country": "PL",
                "addr:postcode": "64-761",
                "addr:city": "Krzy\u017c Wielkopolski",
                "addr:street": "ul. gen. W\u0142adys\u0142awa Sikorskiego",
                "addr:housenumber": "15",
                "addr:teryt:simc": 19907,
                "addr:teryt:sym_ul": 966961,
                "contact:phone": "+48 672564076",
                "ref:regon": "572044224",
                "ref:vatin": "PL7631540873",
                "operator": "Powiat Czarnkowsko-Trzcianecki",
                "operator:type": "government",
                "amenity": "school",
                "note": "Parent RSPO: 41153"
            }
        },
        {
            "id": 107055,
            "type": "Feature",
            "geometry": {
                "type": "Point",
                "coordinates": [
                    16.01479,
                    52.877610000000004
                ]
            },
            "properties": {
                "isced:level": "3",
                "ref:rspo": 107055,
                "official_name": "Liceum Og\u00f3lnokszta\u0142c\u0105ce dla Doros\u0142ych im. Powsta\u0144c\u00f3w Wlkp. 1918-1919 w Krzy\u017cu Wlkp.",
                "name": "Liceum Og\u00f3lnokszta\u0142c\u0105ce dla Doros\u0142ych",
                "addr:country": "PL",
                "addr:postcode": "64-761",
                "addr:city": "Krzy\u017c Wielkopolski",
                "addr:street": "ul. gen. W\u0142adys\u0142awa Sikorskiego",
                "addr:housenumber": "15",
                "addr:teryt:simc": 19907,
                "addr:teryt:sym_ul": 966961,
                "contact:phone": "+48 672564076",
                "ref:regon": "572044164",
                "ref:vatin": "PL7631540873",
                "operator": "Powiat Czarnkowsko-Trzcianecki",
                "operator:type": "government",
                "amenity": "school",
                "note": "Parent RSPO: 41153"
            }
        },
        {
            "id": 107083,
            "type": "Feature",
            "geometry": {
                "type": "Point",
                "coordinates": [
                    16.01479,
                    52.87758
                ]
            },
            "properties": {
                "isced:level": "3",
                "ref:rspo": 107083,
                "official_name": "Technikum im. Powsta\u0144c\u00f3w Wielkopolskich 1918-1919 w Krzyzu Wlkp.",
                "name": "Technikum",
                "addr:country": "PL",
                "addr:postcode": "64-761",
                "addr:city": "Krzy\u017c Wielkopolski",
                "addr:street": "ul. gen. W\u0142adys\u0142awa Sikorskiego",
                "addr:housenumber": "15",
                "addr:teryt:simc": 19907,
                "addr:teryt:sym_ul": 966961,
                "contact:phone": "+48 672564076",
                "contact:email": "zszkrzyz@poczta.onet.pl",
                "ref:regon": "572044158",
                "ref:vatin": "PL7631540873",
                "operator": "Powiat Czarnkowsko-Trzcianecki",
                "operator:type": "government",
                "amenity": "school",
                "note": "Parent RSPO: 41153"
            }
        },
        {
            "id": 123917,
            "type": "Feature",
            "geometry": {
                "type": "Point",
                "coordinates": [
                    16.01115,
                    52.87872
                ]
            },
            "properties": {
                "ref:rspo": 123917,
                "official_name": "Zesp\u00f3\u0142 Szk\u00f3\u0142 Og\u00f3lnokszta\u0142c\u0105cych w Krzy\u017cu Wielkopolskim",
                "name": "Zesp\u00f3\u0142 Szk\u00f3\u0142 Og\u00f3lnokszta\u0142c\u0105cych w Krzy\u017cu Wielkopolskim",
                "addr:country": "PL",
                "addr:postcode": "64-761",
                "addr:city": "Krzy\u017c Wielkopolski",
                "addr:street": "ul. Henryka Sienkiewicza",
                "addr:housenumber": "1",
                "addr:teryt:simc": 19834,
                "addr:teryt:sym_ul": 966961,
                "contact:phone": "+48 672564087",
                "contact:email": "zsokrzyz@wp.pl",
                "contact:website": "http:\/\/www.zso.krzyz.pl",
                "ref:regon": "302792852",
                "operator": "Gmina Krzy\u017c Wielkopolski",
                "operator:type": "government",
                "landuse": "education",
                "fixme": "amenity=school, amenity=college albo landuse=education w zale\u017cno\u015bci od tego, jakie plac\u00f3wki wchodz\u0105 w sk\u0142ad zespo\u0142u. Sprawd\u017a, kiedy stosowa\u0107 amenity=* a kiedy landuse=education.",
                "note": "Children RSPO: 28504;123932"
            }
        },
        {
            "id": 123932,
            "type": "Feature",
            "geometry": {
                "type": "Point",
                "coordinates": [
                    16.01115,
                    52.87869
                ]
            },
            "properties": {
                "isced:level": "3",
                "ref:rspo": 123932,
                "official_name": "Liceum Og\u00f3lnokszta\u0142c\u0105ce w Krzy\u017cu Wielkopolskim",
                "name": "Liceum Og\u00f3lnokszta\u0142c\u0105ce w Krzy\u017cu Wielkopolskim",
                "addr:country": "PL",
                "addr:postcode": "64-761",
                "addr:city": "Krzy\u017c Wielkopolski",
                "addr:street": "ul. Henryka Sienkiewicza",
                "addr:housenumber": "1",
                "addr:teryt:simc": 19834,
                "addr:teryt:sym_ul": 966961,
                "contact:phone": "+48 672564087",
                "contact:email": "zsokrzyz@wp.pl",
                "ref:regon": "302793640",
                "operator": "Gmina Krzy\u017c Wielkopolski",
                "operator:type": "government",
                "amenity": "school",
                "note": "Parent RSPO: 123917"
            }
        },
        {
            "id": 272013,
            "type": "Feature",
            "geometry": {
                "type": "Point",
                "coordinates": [
                    16.00655,
                    52.88046
                ]
            },
            "properties": {
                "ref:rspo": 272013,
                "official_name": "Przedszkole Nr 2 Harmonia w Krzy\u017cu Wielkopolskim",
                "name": "Przedszkole Nr 2 Harmonia w Krzy\u017cu Wielkopolskim",
                "addr:country": "PL",
                "addr:postcode": "64-761",
                "addr:city": "Krzy\u017c Wielkopolski",
                "addr:street": "ul. Zachodnia",
                "addr:housenumber": "15",
                "addr:teryt:simc": 25305,
                "addr:teryt:sym_ul": 966961,
                "contact:phone": "+48 672564427",
                "contact:email": "sekretariat@przedszkole.krzyz.pl",
                "ref:regon": "383874185",
                "operator": "Gmina Krzy\u017c Wielkopolski",
                "operator:type": "government",
                "amenity": "kindergarten"
            }
        },
        {
            "id": 113682,
            "type": "Feature",
            "geometry": {
                "type": "Point",
                "coordinates": [
                    16.00772,
                    52.88061
                ]
            },
            "properties": {
                "ref:rspo": 113682,
                "official_name": "\"O\u015brodek Doskonalenia Rs Edukacja\nRafa\u0142 Sroka\"",
                "name": "\"O\u015brodek Doskonalenia Rs Edukacja\nRafa\u0142 Sroka\"",
                "addr:country": "PL",
                "addr:postcode": "64-761",
                "addr:city": "Krzy\u017c Wielkopolski",
                "addr:street": "ul. Juliana Marchlewskiego",
                "addr:housenumber": "10b",
                "addr:door": "12",
                "addr:teryt:simc": 12278,
                "addr:teryt:sym_ul": 966961,
                "contact:phone": "+48 604229190",
                "ref:regon": "302399379",
                "operator": "Dane Do Uzupe\u0142nienia",
                "operator:type": "private",
                "amenity": "training"
            }
        },
        {
            "id": 28504,
            "type": "Feature",
            "geometry": {
                "type": "Point",
                "coordinates": [
                    16.00825,
                    52.88177
                ]
            },
            "properties": {
                "isced:level": "1;2",
                "ref:rspo": 28504,
                "official_name": "Szko\u0142a Podstawowa w Krzy\u017cu Wielkopolskim",
                "name": "Szko\u0142a Podstawowa w Krzy\u017cu Wielkopolskim",
                "addr:country": "PL",
                "addr:postcode": "64-761",
                "addr:city": "Krzy\u017c Wielkopolski",
                "addr:street": "ul. Wojska Polskiego",
                "addr:housenumber": "31",
                "addr:teryt:simc": 24628,
                "addr:teryt:sym_ul": 966961,
                "contact:phone": "+48 672564087",
                "contact:email": "zsokrzyz@wp.pl",
                "contact:website": "http:\/\/zsokrzyz.pl",
                "ref:regon": "000237446",
                "ref:vatin": "PL7631786580",
                "operator": "Gmina Krzy\u017c Wielkopolski",
                "operator:type": "government",
                "amenity": "school",
                "note": "Parent RSPO: 123917"
            }
        },
        {
            "id": 69335,
            "type": "Feature",
            "geometry": {
                "type": "Point",
                "coordinates": [
                    16.01208,
                    52.88228
                ]
            },
            "properties": {
                "ref:rspo": 69335,
                "official_name": "Centrum Kszta\u0142cenia J\u0119zyk\u00f3w Obcych \"Akropol\".",
                "name": "Centrum Kszta\u0142cenia J\u0119zyk\u00f3w Obcych \"Akropol\".",
                "addr:country": "PL",
                "addr:postcode": "64-761",
                "addr:city": "Krzy\u017c Wielkopolski",
                "addr:street": "os. M\u0142odych",
                "addr:housenumber": "6",
                "addr:teryt:simc": 13085,
                "addr:teryt:sym_ul": 966961,
                "contact:phone": "+48 692115555",
                "ref:regon": "302253150",
                "ref:vatin": "PL7631488084",
                "operator": "Dane Do Uzupe\u0142nienia",
                "operator:type": "private"
            }
        },
        {
            "id": 28509,
            "type": "Feature",
            "geometry": {
                "type": "Point",
                "coordinates": [
                    16.01137,
                    52.88337
                ]
            },
            "properties": {
                "ref:rspo": 28509,
                "official_name": "Przedszkole im. Marii Konopnickiej",
                "name": "Przedszkole",
                "addr:country": "PL",
                "addr:postcode": "64-761",
                "addr:city": "Krzy\u017c Wielkopolski",
                "addr:street": "ul. Akacjowa",
                "addr:housenumber": "1",
                "addr:teryt:simc": 157,
                "addr:teryt:sym_ul": 966961,
                "contact:phone": "+48 672564228",
                "contact:email": "gminnepp@poczta.onet.pl",
                "ref:regon": "301451066",
                "ref:vatin": "PL7632108362",
                "operator": "Gmina Krzy\u017c Wielkopolski",
                "operator:type": "government",
                "amenity": "kindergarten"
            }
        },
        {
            "id": 55382,
            "type": "Feature",
            "geometry": {
                "type": "Point",
                "coordinates": [
                    16.00563,
                    52.88349
                ]
            },
            "properties": {
                "ref:rspo": 55382,
                "official_name": "Poradnia Psychologiczno-Pedagogiczna w Krzy\u017cu Wlkp.",
                "name": "Poradnia Psychologiczno-Pedagogiczna w Krzy\u017cu Wlkp.",
                "addr:country": "PL",
                "addr:postcode": "64-761",
                "addr:city": "Krzy\u017c Wielkopolski",
                "addr:street": "ul. Wojska Polskiego",
                "addr:housenumber": "73",
                "addr:teryt:simc": 24628,
                "addr:teryt:sym_ul": 966961,
                "contact:phone": "+48 672565143",
                "contact:email": "ppp_krzyz@onet.pl",
                "ref:regon": "001238784",
                "ref:vatin": "PL7631876113",
                "operator": "Powiat Czarnkowsko-Trzcianecki",
                "operator:type": "government",
                "healthcare": "counselling",
                "counselling_type": "education",
                "fixme": "w zale\u017cno\u015bci od przedmiotu dzia\u0142alno\u015bci (np. healthcare=counselling + counselling_type=education albo healthcare=psychotherapist)"
            }
        },
        {
            "id": 28506,
            "type": "Feature",
            "geometry": {
                "type": "Point",
                "coordinates": [
                    16.367296218872,
                    52.912147521973
                ]
            },
            "properties": {
                "ref:rspo": 28506,
                "official_name": "Niepubliczne Przedszkole Krecikowo Lubcz Wielki",
                "name": "Niepubliczne Przedszkole Krecikowo Lubcz Wielki",
                "addr:country": "PL",
                "addr:postcode": "64-761",
                "addr:place": "Lubcz Wielki",
                "addr:housenumber": "1",
                "addr:teryt:sym_ul": 526860,
                "contact:phone": "+48 672533161",
                "ref:regon": "302239397",
                "ref:vatin": "PL7631956556",
                "operator": "Karolina Smatlan",
                "operator:type": "private",
                "amenity": "kindergarten"
            }
        }
    ]
}