{
    "type": "FeatureCollection",
    "features": [
        {
            "id": 30515,
            "type": "Feature",
            "geometry": {
                "type": "Point",
                "coordinates": [
                    16.05262,
                    52.79822
                ]
            },
            "properties": {
                "isced:level": "1;2",
                "ref:rspo": 30515,
                "official_name": "Szko\u0142a Podstawowa im. Jana Paw\u0142a II w Pi\u0142ce",
                "name": "Szko\u0142a Podstawowa",
                "addr:country": "PL",
                "addr:postcode": "64-733",
                "addr:place": "Pi\u0142ka",
                "addr:housenumber": "24",
                "addr:teryt:simc": 525926,
                "contact:phone": "+48 672560425",
                "contact:email": "sppilka@poczta.onet.pl",
                "contact:website": "http:\/\/www.sppilka.szkolnastrona.pl",
                "ref:regon": "001142311",
                "ref:vatin": "PL7631911140",
                "operator": "Gmina Drawsko",
                "operator:type": "government",
                "amenity": "school"
            }
        },
        {
            "id": 44607,
            "type": "Feature",
            "geometry": {
                "type": "Point",
                "coordinates": [
                    15.9727,
                    52.82684
                ]
            },
            "properties": {
                "isced:level": "1;2",
                "ref:rspo": 44607,
                "official_name": "Szko\u0142a Podstawowa im. J\u00f3zefa Chociszewskiego w Che\u0142\u015bcie",
                "name": "Szko\u0142a Podstawowa",
                "addr:country": "PL",
                "addr:postcode": "64-733",
                "addr:place": "Che\u0142st",
                "addr:housenumber": "113",
                "addr:teryt:simc": 525748,
                "contact:phone": "+48 672560124",
                "contact:email": "spchelst@wp.pl",
                "contact:website": "http:\/\/www.spchelst.szkolnastrona.pl",
                "ref:regon": "001142328",
                "ref:vatin": "PL7631911128",
                "operator": "Gmina Drawsko",
                "operator:type": "government",
                "amenity": "school"
            }
        },
        {
            "id": 30501,
            "type": "Feature",
            "geometry": {
                "type": "Point",
                "coordinates": [
                    16.08635,
                    52.83575
                ]
            },
            "properties": {
                "isced:level": "1;2",
                "ref:rspo": 30501,
                "official_name": "Szko\u0142a Podstawowa im. J\u00f3zefa Noji w P\u0119ckowie",
                "name": "Szko\u0142a Podstawowa",
                "addr:country": "PL",
                "addr:postcode": "64-733",
                "addr:city": "P\u0119ckowo",
                "addr:street": "Powsta\u0144c\u00f3w Wielkopolskich",
                "addr:housenumber": "1",
                "addr:teryt:simc": 525910,
                "addr:teryt:sym_ul": 17377,
                "contact:phone": "+48 672569058",
                "contact:email": "sppeckowo@wp.pl",
                "contact:website": "http:\/\/www.sppeckowo.pl",
                "ref:regon": "001142334",
                "ref:vatin": "PL7631911134",
                "operator": "Gmina Drawsko",
                "operator:type": "government",
                "amenity": "school"
            }
        },
        {
            "id": 30506,
            "type": "Feature",
            "geometry": {
                "type": "Point",
                "coordinates": [
                    16.03069,
                    52.85393
                ]
            },
            "properties": {
                "isced:level": "1;2",
                "ref:rspo": 30506,
                "official_name": "Szko\u0142a Podstawowa im. Gen.dyw. Tadeusza Kutrzeby w Drawsku",
                "name": "Szko\u0142a Podstawowa",
                "addr:country": "PL",
                "addr:postcode": "64-733",
                "addr:city": "Drawsko",
                "addr:street": "Powsta\u0144c\u00f3w Wielkopolskich",
                "addr:housenumber": "83-85",
                "addr:teryt:simc": 525760,
                "addr:teryt:sym_ul": 17377,
                "contact:phone": "+48 672569775",
                "contact:email": "dyrpiatek@poczta.onet.pl",
                "contact:website": "http:\/\/www.spdrawsko.szkolnastrona.pl",
                "ref:regon": "001142104",
                "ref:vatin": "PL7631911105",
                "operator": "Gmina Drawsko",
                "operator:type": "government",
                "amenity": "school"
            }
        },
        {
            "id": 44609,
            "type": "Feature",
            "geometry": {
                "type": "Point",
                "coordinates": [
                    16.03122,
                    52.85527
                ]
            },
            "properties": {
                "ref:rspo": 44609,
                "official_name": "Gminne Przedszkole Publiczne im. Jana Brzechwy w Drawsku",
                "name": "Gminne Przedszkole Publiczne",
                "addr:country": "PL",
                "addr:postcode": "64-733",
                "addr:city": "Drawsko",
                "addr:street": "Nadnotecka",
                "addr:housenumber": "22A",
                "addr:teryt:simc": 525760,
                "addr:teryt:sym_ul": 13892,
                "contact:phone": "+48 672569024",
                "contact:email": "przebrze@wp.pl",
                "contact:website": "http:\/\/gppdrawsko.szkolnastrona.pl",
                "ref:regon": "301609863",
                "ref:vatin": "PL7632114782",
                "operator": "Gmina Drawsko",
                "operator:type": "government",
                "amenity": "kindergarten"
            }
        },
        {
            "id": 30499,
            "type": "Feature",
            "geometry": {
                "type": "Point",
                "coordinates": [
                    16.08624,
                    52.86169
                ]
            },
            "properties": {
                "isced:level": "1;2",
                "ref:rspo": 30499,
                "official_name": "Szko\u0142a Podstawowa im. \u015awi\u0119tej Urszuli Led\u00f3chowskiej w Drawskim M\u0142ynie",
                "name": "Szko\u0142a Podstawowa",
                "addr:country": "PL",
                "addr:postcode": "64-731",
                "addr:city": "Drawski M\u0142yn",
                "addr:street": "Szosa Dworcowa",
                "addr:housenumber": "2",
                "addr:teryt:simc": 525754,
                "addr:teryt:sym_ul": 45254,
                "contact:phone": "+48 672569601",
                "contact:email": "szkoladrawskimlyn@poczta.onet.pl",
                "contact:website": "http:\/\/www.szkoladrawskimlyn.szkolnastrona.pl",
                "ref:regon": "000266873",
                "ref:vatin": "PL7631911111",
                "operator": "Gmina Drawsko",
                "operator:type": "government",
                "amenity": "school"
            }
        }
    ]
}