{
    "type": "FeatureCollection",
    "features": [
        {
            "id": 4366,
            "type": "Feature",
            "geometry": {
                "type": "Point",
                "coordinates": [
                    16.17004,
                    52.80622
                ]
            },
            "properties": {
                "isced:level": "1;2",
                "ref:rspo": 4366,
                "official_name": "Szko\u0142a Podstawowa im. Powsta\u0144c\u00f3w Wielkopolskich w Mia\u0142ach",
                "name": "Szko\u0142a Podstawowa",
                "addr:postcode": "64-730",
                "addr:city": "Mia\u0142y",
                "addr:street": "Powsta\u0144c\u00f3w Wielkopolskich",
                "addr:housenumber": "13",
                "addr:teryt:simc": 532576,
                "addr:teryt:sym_ul": 17377,
                "phone": "+48 672563160",
                "email": "sp_mialy@poczta.fm",
                "website": "http:\/\/www.spmialy.info",
                "ref:regon": "001142274",
                "ref:vatin": "PL7631920127",
                "operator": "Gmina Wiele\u0144",
                "operator:type": "government",
                "amenity": "school"
            }
        },
        {
            "id": 107395,
            "type": "Feature",
            "geometry": {
                "type": "Point",
                "coordinates": [
                    16.31277,
                    52.8744
                ]
            },
            "properties": {
                "isced:level": "1;2",
                "ref:rspo": 107395,
                "official_name": "Szko\u0142a Podstawowa im. Powsta\u0144c\u00f3w Wielkopolskich w Rosku",
                "name": "Szko\u0142a Podstawowa",
                "addr:postcode": "64-730",
                "addr:city": "Rosko",
                "addr:street": "Powsta\u0144c\u00f3w Wielkopolskich",
                "addr:housenumber": "15",
                "addr:teryt:simc": 532599,
                "addr:teryt:sym_ul": 17377,
                "phone": "+48 672563644",
                "email": "sprosko@wp.pl",
                "website": "http:\/\/sprosko.pl",
                "ref:regon": "302328847",
                "ref:vatin": "PL7632126242",
                "operator": "Gmina Wiele\u0144",
                "operator:type": "government",
                "amenity": "school"
            }
        },
        {
            "id": 4416,
            "type": "Feature",
            "geometry": {
                "type": "Point",
                "coordinates": [
                    16.3793599,
                    52.87908
                ]
            },
            "properties": {
                "isced:level": "1;2",
                "ref:rspo": 4416,
                "official_name": "Szko\u0142a Podstawowa im. Polonii Ameryka\u0144skiej w Gulczu",
                "name": "Szko\u0142a Podstawowa",
                "addr:postcode": "64-730",
                "addr:city": "Gulcz",
                "addr:street": "Czarnkowska",
                "addr:housenumber": "10",
                "addr:teryt:simc": 532412,
                "addr:teryt:sym_ul": 3284,
                "phone": "+48 672563781",
                "email": "spgulcz@wp.pl",
                "website": "http:\/\/www.spgulcz.pl",
                "ref:regon": "001170371",
                "ref:vatin": "PL7631920179",
                "operator": "Gmina Wiele\u0144",
                "operator:type": "government",
                "amenity": "school"
            }
        },
        {
            "id": 4800,
            "type": "Feature",
            "geometry": {
                "type": "Point",
                "coordinates": [
                    16.16388,
                    52.88351
                ]
            },
            "properties": {
                "ref:rspo": 4800,
                "official_name": "Zesp\u00f3\u0142 Szk\u00f3\u0142 w Wieleniu",
                "name": "Zesp\u00f3\u0142 Szk\u00f3\u0142 w Wieleniu",
                "addr:postcode": "64-730",
                "addr:city": "Wiele\u0144",
                "addr:street": "Drawska",
                "addr:housenumber": "1",
                "addr:teryt:simc": 967334,
                "addr:teryt:sym_ul": 4168,
                "phone": "+48 672561711",
                "email": "liceum_wielen@poczta.onet.pl",
                "website": "http:\/\/www.zswielen.com.pl",
                "ref:regon": "572074410",
                "ref:vatin": "PL7631931177",
                "operator": "Gmina Wiele\u0144",
                "operator:type": "government",
                "landuse": "education",
                "fixme": "amenity=school, amenity=college albo landuse=education w zale\u017cno\u015bci od tego, jakie plac\u00f3wki wchodz\u0105 w sk\u0142ad zespo\u0142u. Sprawd\u017a, kiedy stosowa\u0107 amenity=* a kiedy landuse=education.",
                "note": "Children RSPO: 15784;15805;15832;119528"
            }
        },
        {
            "id": 15784,
            "type": "Feature",
            "geometry": {
                "type": "Point",
                "coordinates": [
                    16.16388,
                    52.88348
                ]
            },
            "properties": {
                "isced:level": "3",
                "ref:rspo": 15784,
                "official_name": "Zesp\u00f3\u0142 Szk\u00f3\u0142 w Wieleniu Liceum Og\u00f3lnokszta\u0142c\u0105ce",
                "name": "Zesp\u00f3\u0142 Szk\u00f3\u0142 w Wieleniu Liceum Og\u00f3lnokszta\u0142c\u0105ce",
                "addr:postcode": "64-730",
                "addr:city": "Wiele\u0144",
                "addr:street": "Drawska",
                "addr:housenumber": "1",
                "addr:teryt:simc": 967334,
                "addr:teryt:sym_ul": 4168,
                "phone": "+48 672561711",
                "email": "liceum_wielen@poczta.onet.pl",
                "website": "http:\/\/www.zswielen.com.pl",
                "ref:regon": "572128257",
                "ref:vatin": "PL7631967459",
                "operator": "Gmina Wiele\u0144",
                "operator:type": "government",
                "amenity": "school",
                "note": "Parent RSPO: 4800"
            }
        },
        {
            "id": 15805,
            "type": "Feature",
            "geometry": {
                "type": "Point",
                "coordinates": [
                    16.16388,
                    52.88345
                ]
            },
            "properties": {
                "isced:level": "3",
                "ref:rspo": 15805,
                "official_name": "Zesp\u00f3\u0142 Szk\u00f3\u0142 w Wieleniu Technikum",
                "name": "Zesp\u00f3\u0142 Szk\u00f3\u0142 w Wieleniu Technikum",
                "addr:postcode": "64-730",
                "addr:city": "Wiele\u0144",
                "addr:street": "Drawska",
                "addr:housenumber": "1",
                "addr:teryt:simc": 967334,
                "addr:teryt:sym_ul": 4168,
                "phone": "+48 672561711",
                "email": "liceum_wielen@poczta.onet.pl",
                "website": "http:\/\/www.zswielen.com.pl",
                "ref:regon": "300612640",
                "ref:vatin": "PL7632072799",
                "operator": "Gmina Wiele\u0144",
                "operator:type": "government",
                "amenity": "school",
                "note": "Parent RSPO: 4800"
            }
        },
        {
            "id": 15832,
            "type": "Feature",
            "geometry": {
                "type": "Point",
                "coordinates": [
                    16.16388,
                    52.88342
                ]
            },
            "properties": {
                "isced:level": "4",
                "ref:rspo": 15832,
                "official_name": "Szko\u0142a Policealna dla Doros\u0142ych",
                "name": "Szko\u0142a Policealna dla Doros\u0142ych",
                "addr:postcode": "64-730",
                "addr:city": "Wiele\u0144",
                "addr:street": "Drawska",
                "addr:housenumber": "1",
                "addr:teryt:simc": 967334,
                "addr:teryt:sym_ul": 4168,
                "phone": "+48 672561711",
                "email": "liceum_wielen@poczta.onet.pl",
                "website": "http:\/\/www.zswiele.com.pl",
                "ref:regon": "300612716",
                "ref:vatin": "PL7632072776",
                "operator": "Gmina Wiele\u0144",
                "operator:type": "government",
                "amenity": "college",
                "note": "Parent RSPO: 4800"
            }
        },
        {
            "id": 119528,
            "type": "Feature",
            "geometry": {
                "type": "Point",
                "coordinates": [
                    16.16388,
                    52.88339
                ]
            },
            "properties": {
                "isced:level": "3",
                "ref:rspo": 119528,
                "official_name": "Liceum Og\u00f3lnokszta\u0142c\u0105ce dla Doros\u0142ych",
                "name": "Liceum Og\u00f3lnokszta\u0142c\u0105ce dla Doros\u0142ych",
                "addr:postcode": "64-730",
                "addr:city": "Wiele\u0144",
                "addr:street": "Drawska",
                "addr:housenumber": "1",
                "addr:teryt:simc": 967334,
                "addr:teryt:sym_ul": 4168,
                "phone": "+48 672561711",
                "email": "liceum_wielen@poczta.onet.pl",
                "website": "http:\/\/www.zswielen.com.pl",
                "ref:regon": "302518915",
                "operator": "Gmina Wiele\u0144",
                "operator:type": "government",
                "amenity": "school",
                "note": "Parent RSPO: 4800"
            }
        },
        {
            "id": 4490,
            "type": "Feature",
            "geometry": {
                "type": "Point",
                "coordinates": [
                    16.1701,
                    52.8862
                ]
            },
            "properties": {
                "ref:rspo": 4490,
                "official_name": "Gminne Przedszkole w Wieleniu",
                "name": "Gminne Przedszkole w Wieleniu",
                "addr:postcode": "64-730",
                "addr:city": "Wiele\u0144",
                "addr:street": "Sportowa",
                "addr:housenumber": "1",
                "addr:teryt:simc": 967334,
                "addr:teryt:sym_ul": 20683,
                "phone": "+48 672561103",
                "email": "przedszkolewielen1@wp.pl",
                "website": "http:\/\/przedszkole1wielen.edupage.org",
                "ref:regon": "301609840",
                "ref:vatin": "PL7632114807",
                "operator": "Gmina Wiele\u0144",
                "operator:type": "government",
                "amenity": "kindergarten"
            }
        },
        {
            "id": 15759,
            "type": "Feature",
            "geometry": {
                "type": "Point",
                "coordinates": [
                    16.17202,
                    52.8923
                ]
            },
            "properties": {
                "isced:level": "1;2",
                "ref:rspo": 15759,
                "official_name": "Szko\u0142a Podstawowa Nr 1 im. Kazimierza Wielkiego w Wieleniu",
                "name": "Szko\u0142a Podstawowa Nr 1",
                "addr:postcode": "64-730",
                "addr:city": "Wiele\u0144",
                "addr:street": "Szkolna",
                "addr:housenumber": "4",
                "addr:teryt:simc": 967334,
                "addr:teryt:sym_ul": 21970,
                "phone": "+48 672561056",
                "email": "spwielen@poczta.onet.pl",
                "website": "http:\/\/www.spwielen.pl",
                "ref:regon": "000241169",
                "ref:vatin": "PL7631923278",
                "operator": "Gmina Wiele\u0144",
                "operator:type": "government",
                "amenity": "school"
            }
        },
        {
            "id": 196312,
            "type": "Feature",
            "geometry": {
                "type": "Point",
                "coordinates": [
                    16.18479,
                    52.91274
                ]
            },
            "properties": {
                "isced:level": "1;2",
                "ref:rspo": 196312,
                "official_name": "Szko\u0142a Podstawowa Nr 2 im. Jana Paw\u0142a II w Wieleniu",
                "name": "Szko\u0142a Podstawowa Nr 2",
                "addr:postcode": "64-730",
                "addr:city": "Wiele\u0144",
                "addr:street": "Jana Paw\u0142a II",
                "addr:housenumber": "3",
                "addr:teryt:simc": 967334,
                "addr:teryt:sym_ul": 7123,
                "phone": "+48 672561346",
                "email": "sekretariat@sp2wielen.edu.pl",
                "website": "http:\/\/sp2wielen.edu.pl",
                "ref:regon": "367991354",
                "operator": "Gmina Wiele\u0144",
                "operator:type": "government",
                "amenity": "school"
            }
        },
        {
            "id": 4425,
            "type": "Feature",
            "geometry": {
                "type": "Point",
                "coordinates": [
                    16.20902,
                    53.0081
                ]
            },
            "properties": {
                "isced:level": "1;2",
                "ref:rspo": 4425,
                "official_name": "Szko\u0142a Podstawowa im. Henryka Sienkiewicza w Dzier\u017c\u0105\u017cnie Wielkim",
                "name": "Szko\u0142a Podstawowa",
                "addr:postcode": "64-730",
                "addr:place": "Dzier\u017c\u0105\u017cno Wielkie",
                "addr:housenumber": "24",
                "addr:teryt:simc": 532381,
                "phone": "+48 696423521",
                "email": "spdzierzazno@interia.pl",
                "website": "http:\/\/www.spdzierzazno.edupage.org",
                "ref:regon": "001170388",
                "ref:vatin": "PL7631908652",
                "operator": "Gmina Wiele\u0144",
                "operator:type": "government",
                "amenity": "school"
            }
        }
    ]
}