{
    "type": "FeatureCollection",
    "features": [
        {
            "id": 21625,
            "type": "Feature",
            "geometry": {
                "type": "Point",
                "coordinates": [
                    16.53429,
                    52.89089
                ]
            },
            "properties": {
                "ref:rspo": 21625,
                "official_name": "Przedszkole Niepubliczne Lesne Skrzaty J.gajewska,M.durczak S.c",
                "name": "Przedszkole Niepubliczne Lesne Skrzaty J.gajewska,M.durczak S.c",
                "addr:country": "PL",
                "addr:postcode": "64-700",
                "addr:city": "Czarnk\u00f3w",
                "addr:street": "ul. Przemys\u0142owa",
                "addr:housenumber": "2",
                "addr:teryt:simc": 17742,
                "addr:teryt:sym_ul": 966777,
                "contact:phone": "+48 695600660",
                "contact:email": "lesneskrzaty@onet.com.pl",
                "ref:regon": "302229051",
                "ref:vatin": "PL7632117409",
                "operator": "Justyna Gajewska",
                "operator:type": "private",
                "amenity": "kindergarten"
            }
        },
        {
            "id": 18602,
            "type": "Feature",
            "geometry": {
                "type": "Point",
                "coordinates": [
                    16.54882,
                    52.89344
                ]
            },
            "properties": {
                "ref:rspo": 18602,
                "official_name": "Przedszkole Miejskie Nr 2 im.jana Brzechwy",
                "name": "Przedszkole Miejskie Nr 2 im.jana Brzechwy",
                "addr:country": "PL",
                "addr:postcode": "64-700",
                "addr:city": "Czarnk\u00f3w",
                "addr:street": "os. Parkowe",
                "addr:housenumber": "10",
                "addr:teryt:simc": 15711,
                "addr:teryt:sym_ul": 966777,
                "contact:phone": "+48 672553140",
                "contact:email": "przedszkolepl@o2.pl",
                "contact:website": "http:\/\/www.przedszkole2.czarnkow.pl",
                "ref:regon": "570178676",
                "ref:vatin": "PL7631882059",
                "operator": "Gmina Miasta Czarnk\u00f3w",
                "operator:type": "government",
                "amenity": "kindergarten"
            }
        },
        {
            "id": 133432,
            "type": "Feature",
            "geometry": {
                "type": "Point",
                "coordinates": [
                    16.55535,
                    52.8947
                ]
            },
            "properties": {
                "isced:level": "1;2",
                "ref:rspo": 133432,
                "official_name": "Szko\u0142a Podstawowa Nr 2 im.janusza Korczaka",
                "name": "Szko\u0142a Podstawowa Nr 2 im.janusza Korczaka",
                "addr:country": "PL",
                "addr:postcode": "64-700",
                "addr:city": "Czarnk\u00f3w",
                "addr:street": "ul. Wroniecka",
                "addr:housenumber": "136",
                "addr:teryt:simc": 24813,
                "addr:teryt:sym_ul": 966777,
                "contact:phone": "+48 672552283",
                "contact:email": "sekretariat@sp2.czarnkow.pl",
                "contact:website": "http:\/\/www.sp2.czarnkow.pl",
                "ref:regon": "367290551",
                "ref:vatin": "PL7632136430",
                "operator": "Gmina Miasta Czarnk\u00f3w",
                "operator:type": "government",
                "amenity": "school"
            }
        },
        {
            "id": 14088,
            "type": "Feature",
            "geometry": {
                "type": "Point",
                "coordinates": [
                    16.55775,
                    52.89809
                ]
            },
            "properties": {
                "isced:level": "3",
                "ref:rspo": 14088,
                "official_name": "Liceum Og\u00f3lnokszta\u0142c\u0105ce im. Janka Z Czarnkowa",
                "name": "Liceum Og\u00f3lnokszta\u0142c\u0105ce",
                "addr:country": "PL",
                "addr:postcode": "64-700",
                "addr:city": "Czarnk\u00f3w",
                "addr:street": "ul. Ko\u015bciuszki",
                "addr:housenumber": "92",
                "addr:teryt:simc": 9572,
                "addr:teryt:sym_ul": 966777,
                "contact:phone": "+48 672552613",
                "contact:email": "liceumwczarnkowie@o2.pl",
                "contact:website": "http:\/\/www.loczarnkow.pl",
                "ref:regon": "000229004",
                "ref:vatin": "PL7631006501",
                "operator": "Powiat Czarnkowsko-Trzcianecki",
                "operator:type": "government",
                "amenity": "school"
            }
        },
        {
            "id": 55380,
            "type": "Feature",
            "geometry": {
                "type": "Point",
                "coordinates": [
                    16.55841,
                    52.89838
                ]
            },
            "properties": {
                "ref:rspo": 55380,
                "official_name": "Poradnia Psychologiczno-Pedagogiczna w Czarnkowie",
                "name": "Poradnia Psychologiczno-Pedagogiczna w Czarnkowie",
                "addr:country": "PL",
                "addr:postcode": "64-700",
                "addr:city": "Czarnk\u00f3w",
                "addr:street": "ul. Ko\u015bciuszki",
                "addr:housenumber": "90",
                "addr:teryt:simc": 9572,
                "addr:teryt:sym_ul": 966777,
                "contact:phone": "+48 672552306",
                "contact:email": "poradniapp@post.pl",
                "ref:regon": "001238838",
                "ref:vatin": "PL7631885661",
                "operator": "Powiat Czarnkowsko-Trzcianecki",
                "operator:type": "government",
                "healthcare": "counselling",
                "counselling_type": "education",
                "fixme": "w zale\u017cno\u015bci od przedmiotu dzia\u0142alno\u015bci (np. healthcare=counselling + counselling_type=education albo healthcare=psychotherapist)"
            }
        },
        {
            "id": 18599,
            "type": "Feature",
            "geometry": {
                "type": "Point",
                "coordinates": [
                    16.56445,
                    52.90171
                ]
            },
            "properties": {
                "isced:level": "1;2",
                "ref:rspo": 18599,
                "official_name": "Szko\u0142a Podstawowa Nr 1 im.h.sienkiewicza",
                "name": "Szko\u0142a Podstawowa Nr 1 im.h.sienkiewicza",
                "addr:country": "PL",
                "addr:postcode": "64-700",
                "addr:city": "Czarnk\u00f3w",
                "addr:street": "ul. Wroniecka",
                "addr:housenumber": "30",
                "addr:teryt:simc": 24813,
                "addr:teryt:sym_ul": 966777,
                "contact:phone": "+48 672552093",
                "contact:email": "jedynka@czarnkow.pl",
                "contact:website": "http:\/\/www.jedynka.czarnkow.pl",
                "ref:regon": "000265572",
                "ref:vatin": "PL7631882036",
                "operator": "Gmina Miasta Czarnk\u00f3w",
                "operator:type": "government",
                "amenity": "school"
            }
        },
        {
            "id": 38765,
            "type": "Feature",
            "geometry": {
                "type": "Point",
                "coordinates": [
                    16.56435,
                    52.90246
                ]
            },
            "properties": {
                "ref:rspo": 38765,
                "official_name": "Przedszkole Miejskie Nr 1 Bajkowy Swiat",
                "name": "Przedszkole Miejskie Nr 1 Bajkowy Swiat",
                "addr:country": "PL",
                "addr:postcode": "64-700",
                "addr:city": "Czarnk\u00f3w",
                "addr:street": "ul. Wroniecka",
                "addr:housenumber": "13",
                "addr:teryt:simc": 24813,
                "addr:teryt:sym_ul": 966777,
                "contact:phone": "+48 672552771",
                "contact:email": "przedszkole1@czarnkow.pl",
                "contact:website": "http:\/\/przedszkole1.czarnkow.pl",
                "ref:regon": "570238881",
                "ref:vatin": "PL7631882088",
                "operator": "Gmina Miasta Czarnk\u00f3w",
                "operator:type": "government",
                "amenity": "kindergarten"
            }
        },
        {
            "id": 276457,
            "type": "Feature",
            "geometry": {
                "type": "Point",
                "coordinates": [
                    16.5792499,
                    52.903
                ]
            },
            "properties": {
                "ref:rspo": 276457,
                "official_name": "Punkt Przedszkolny \"Senso Szkraby\"",
                "name": "Punkt Przedszkolny \"Senso Szkraby\"",
                "addr:country": "PL",
                "addr:postcode": "64-700",
                "addr:city": "Czarnk\u00f3w",
                "addr:street": "os. S\u0142oneczne",
                "addr:housenumber": "7",
                "addr:door": "a",
                "addr:teryt:simc": 20256,
                "addr:teryt:sym_ul": 966777,
                "contact:phone": "+48 606332056",
                "contact:email": "przedszkole@senso-szkraby.pl",
                "contact:website": "http:\/\/www.senso-szkraby.pl",
                "ref:regon": "387145394",
                "operator": "Pawe\u0142 Wieczorek",
                "operator:type": "private",
                "amenity": "kindergarten"
            }
        },
        {
            "id": 74159,
            "type": "Feature",
            "geometry": {
                "type": "Point",
                "coordinates": [
                    16.59025,
                    52.90348
                ]
            },
            "properties": {
                "ref:rspo": 74159,
                "official_name": "Zesp\u00f3\u0142 Szk\u00f3\u0142 im. J. Nojego w Czarnkowie",
                "name": "Zesp\u00f3\u0142 Szk\u00f3\u0142",
                "addr:country": "PL",
                "addr:postcode": "64-700",
                "addr:city": "Czarnk\u00f3w",
                "addr:street": "ul. Chodzieska",
                "addr:housenumber": "29",
                "addr:teryt:simc": 2812,
                "addr:teryt:sym_ul": 966777,
                "contact:phone": "+48 672552327",
                "contact:email": "sekretariat@zsczarnkow.edu.pl",
                "contact:website": "http:\/\/zsczarnkow.edu.pl",
                "ref:regon": "000705315",
                "ref:vatin": "PL7630011925",
                "operator": "Powiat Czarnkowsko-Trzcianecki",
                "operator:type": "government",
                "landuse": "education",
                "fixme": "amenity=school, amenity=college albo landuse=education w zale\u017cno\u015bci od tego, jakie plac\u00f3wki wchodz\u0105 w sk\u0142ad zespo\u0142u. Sprawd\u017a, kiedy stosowa\u0107 amenity=* a kiedy landuse=education.",
                "note": "Children RSPO: 109913;109914;109917;109923;275445"
            }
        },
        {
            "id": 110304,
            "type": "Feature",
            "geometry": {
                "type": "Point",
                "coordinates": [
                    16.59025,
                    52.90345
                ]
            },
            "properties": {
                "ref:rspo": 110304,
                "official_name": "Centrum Kszta\u0142cenia Zawodowego w Czarnkowie.",
                "name": "Centrum Kszta\u0142cenia Zawodowego w Czarnkowie.",
                "addr:country": "PL",
                "addr:postcode": "64-700",
                "addr:city": "Czarnk\u00f3w",
                "addr:street": "ul. Chodzieska",
                "addr:housenumber": "29",
                "addr:teryt:simc": 2812,
                "addr:teryt:sym_ul": 966777,
                "contact:phone": "+48 672552568",
                "contact:email": "sekretariat@ckzczarnkow.edu.pl",
                "ref:regon": "572120008",
                "ref:vatin": "PL7631903057",
                "operator": "Powiat Czarnkowsko-Trzcianecki",
                "operator:type": "government",
                "fixme": "w zale\u017cno\u015bci od przedmiotu dzia\u0142alno\u015bci (np. amenity=training + training=*, amenity=dancing_school, amenity=language_school, amenity=music_school) albo amenity=school, amenity=college, albo landuse=education w zale\u017cno\u015bci od tego, jakie plac\u00f3wki wchodz\u0105 w sk\u0142ad zespo\u0142u. Sprawd\u017a, kiedy stosowa\u0107 amenity=* a kiedy landuse=education."
            }
        },
        {
            "id": 109913,
            "type": "Feature",
            "geometry": {
                "type": "Point",
                "coordinates": [
                    16.59025,
                    52.903420000000004
                ]
            },
            "properties": {
                "isced:level": "3",
                "ref:rspo": 109913,
                "official_name": "Bran\u017cowa Szko\u0142a I Stopnia im. J. Nojego w Czarnkowie",
                "name": "Bran\u017cowa Szko\u0142a I Stopnia",
                "addr:country": "PL",
                "addr:postcode": "64-700",
                "addr:city": "Czarnk\u00f3w",
                "addr:street": "ul. Chodzieska",
                "addr:housenumber": "29",
                "addr:teryt:simc": 2812,
                "addr:teryt:sym_ul": 966777,
                "contact:phone": "+48 672552346",
                "contact:email": "sekretariat@zsczarnkow.edu.pl",
                "contact:website": "http:\/\/www.zsczarnkow.edu.pl",
                "ref:regon": "572082348",
                "ref:vatin": "PL7630011925",
                "operator": "Powiat Czarnkowsko-Trzcianecki",
                "operator:type": "government",
                "amenity": "school",
                "note": "Parent RSPO: 74159"
            }
        },
        {
            "id": 109914,
            "type": "Feature",
            "geometry": {
                "type": "Point",
                "coordinates": [
                    16.59025,
                    52.90339
                ]
            },
            "properties": {
                "isced:level": "3",
                "ref:rspo": 109914,
                "official_name": "Technikum im. J. Nojego w Czarnkowie",
                "name": "Technikum",
                "addr:country": "PL",
                "addr:postcode": "64-700",
                "addr:city": "Czarnk\u00f3w",
                "addr:street": "ul. Chodzieska",
                "addr:housenumber": "29",
                "addr:teryt:simc": 2812,
                "addr:teryt:sym_ul": 966777,
                "contact:phone": "+48 672552346",
                "contact:email": "sekretariat@zsczarnkow.edu.pl",
                "contact:website": "http:\/\/www.zsczarnkow.edu.pl",
                "ref:regon": "572082294",
                "ref:vatin": "PL7630011925",
                "operator": "Powiat Czarnkowsko-Trzcianecki",
                "operator:type": "government",
                "amenity": "school",
                "note": "Parent RSPO: 74159"
            }
        },
        {
            "id": 109917,
            "type": "Feature",
            "geometry": {
                "type": "Point",
                "coordinates": [
                    16.59025,
                    52.90336
                ]
            },
            "properties": {
                "isced:level": "3",
                "ref:rspo": 109917,
                "official_name": "Liceum Og\u00f3lnokszta\u0142c\u0105ce dla Doros\u0142ych im. J. Nojego w Czarnkowie",
                "name": "Liceum Og\u00f3lnokszta\u0142c\u0105ce dla Doros\u0142ych",
                "addr:country": "PL",
                "addr:postcode": "64-700",
                "addr:city": "Czarnk\u00f3w",
                "addr:street": "ul. Chodzieska",
                "addr:housenumber": "29",
                "addr:teryt:simc": 2812,
                "addr:teryt:sym_ul": 966777,
                "contact:phone": "+48 672552346",
                "contact:email": "sekretariat@zsczarnkow.edu.pl",
                "contact:website": "http:\/\/www.zsczarnkow.edu.pl",
                "ref:regon": "302158701",
                "ref:vatin": "PL7630011925",
                "operator": "Powiat Czarnkowsko-Trzcianecki",
                "operator:type": "government",
                "amenity": "school",
                "note": "Parent RSPO: 74159"
            }
        },
        {
            "id": 109923,
            "type": "Feature",
            "geometry": {
                "type": "Point",
                "coordinates": [
                    16.59025,
                    52.903330000000004
                ]
            },
            "properties": {
                "isced:level": "4",
                "ref:rspo": 109923,
                "official_name": "Szko\u0142a Policealna im. J. Nojego w Czarnkowie.",
                "name": "Szko\u0142a Policealna",
                "addr:country": "PL",
                "addr:postcode": "64-700",
                "addr:city": "Czarnk\u00f3w",
                "addr:street": "ul. Chodzieska",
                "addr:housenumber": "29",
                "addr:teryt:simc": 2812,
                "addr:teryt:sym_ul": 966777,
                "contact:phone": "+48 672552346",
                "contact:email": "zsp@zspczarnkow.edu.pl",
                "ref:regon": "572138586",
                "ref:vatin": "PL7630011925",
                "operator": "Powiat Czarnkowsko-Trzcianecki",
                "operator:type": "government",
                "amenity": "college",
                "note": "Parent RSPO: 74159"
            }
        },
        {
            "id": 275445,
            "type": "Feature",
            "geometry": {
                "type": "Point",
                "coordinates": [
                    16.59025,
                    52.9033
                ]
            },
            "properties": {
                "isced:level": "3",
                "ref:rspo": 275445,
                "official_name": "Bran\u017cowa Szko\u0142a II Stopnia Zesp\u00f3\u0142 Szk\u00f3\u0142 im. J\u00f3zefa Nojego w Czarnkowie",
                "name": "Bran\u017cowa Szko\u0142a II Stopnia Zesp\u00f3\u0142 Szk\u00f3\u0142",
                "addr:country": "PL",
                "addr:postcode": "64-700",
                "addr:city": "Czarnk\u00f3w",
                "addr:street": "ul. Chodzieska",
                "addr:housenumber": "29",
                "addr:teryt:simc": 2812,
                "addr:teryt:sym_ul": 966777,
                "contact:phone": "+48 672552346",
                "contact:email": "sekretariat@zsczarnkow.edu.pl",
                "contact:website": "http:\/\/www.zsczarnkow.edu.pl",
                "ref:regon": "386917015",
                "ref:vatin": "PL7630011925",
                "operator": "Powiat Czarnkowsko-Trzcianecki",
                "operator:type": "government",
                "amenity": "school",
                "note": "Parent RSPO: 74159"
            }
        },
        {
            "id": 8907,
            "type": "Feature",
            "geometry": {
                "type": "Point",
                "coordinates": [
                    16.56813,
                    52.90404
                ]
            },
            "properties": {
                "isced:level": "3",
                "ref:rspo": 8907,
                "official_name": "Liceum Og\u00f3lnokszta\u0142c\u0105ce dla Doros\u0142ych Przy Prywatnym Zespole Szk\u00f3\u0142 w Czarnkowie",
                "name": "Liceum Og\u00f3lnokszta\u0142c\u0105ce dla Doros\u0142ych Przy Prywatnym Zespole Szk\u00f3\u0142 w Czarnkowie",
                "addr:country": "PL",
                "addr:postcode": "64-700",
                "addr:city": "Czarnk\u00f3w",
                "addr:street": "ul. Harcerska",
                "addr:housenumber": "4",
                "addr:teryt:simc": 6523,
                "addr:teryt:sym_ul": 966777,
                "contact:phone": "+48 672554481",
                "contact:email": "sekretariat@pzsczarnkow.edu.pl",
                "ref:regon": "302203130",
                "operator": "Kazimierz Lewandowski",
                "operator:type": "private",
                "amenity": "school"
            }
        },
        {
            "id": 40134,
            "type": "Feature",
            "geometry": {
                "type": "Point",
                "coordinates": [
                    16.56813,
                    52.90401
                ]
            },
            "properties": {
                "ref:rspo": 40134,
                "official_name": "Prywatny Zesp\u00f3\u0142 Szk\u00f3\u0142 w Czarnkowie",
                "name": "Prywatny Zesp\u00f3\u0142 Szk\u00f3\u0142 w Czarnkowie",
                "addr:country": "PL",
                "addr:postcode": "64-700",
                "addr:city": "Czarnk\u00f3w",
                "addr:street": "ul. Harcerska",
                "addr:housenumber": "4",
                "addr:teryt:simc": 6523,
                "addr:teryt:sym_ul": 966777,
                "contact:phone": "+48 672554481",
                "contact:email": "sekretariat@pzsczarnkow.edu.pl",
                "ref:regon": "302246144",
                "ref:vatin": "PL7631129126",
                "operator": "Kazimierz Lewandowski",
                "operator:type": "private",
                "landuse": "education",
                "fixme": "amenity=school, amenity=college albo landuse=education w zale\u017cno\u015bci od tego, jakie plac\u00f3wki wchodz\u0105 w sk\u0142ad zespo\u0142u. Sprawd\u017a, kiedy stosowa\u0107 amenity=* a kiedy landuse=education.",
                "note": "Children RSPO: 56031;56464;57389;59664;74131;133579"
            }
        },
        {
            "id": 56031,
            "type": "Feature",
            "geometry": {
                "type": "Point",
                "coordinates": [
                    16.56813,
                    52.903980000000004
                ]
            },
            "properties": {
                "isced:level": "4",
                "ref:rspo": 56031,
                "official_name": "Szko\u0142a Policealna Przy Prywatnym Zespole Szk\u00f3\u0142 w Czarnkowie",
                "name": "Szko\u0142a Policealna Przy Prywatnym Zespole Szk\u00f3\u0142 w Czarnkowie",
                "addr:country": "PL",
                "addr:postcode": "64-700",
                "addr:city": "Czarnk\u00f3w",
                "addr:street": "ul. Harcerska",
                "addr:housenumber": "4",
                "addr:teryt:simc": 6523,
                "addr:teryt:sym_ul": 966777,
                "contact:phone": "+48 672554481",
                "contact:email": "sekretariat@pzsczarnkow.edu.pl",
                "ref:regon": "302251228",
                "ref:vatin": "PL7631129126",
                "operator": "Kazimierz Lewandowski",
                "operator:type": "private",
                "amenity": "college",
                "note": "Parent RSPO: 40134"
            }
        },
        {
            "id": 56464,
            "type": "Feature",
            "geometry": {
                "type": "Point",
                "coordinates": [
                    16.56813,
                    52.90395
                ]
            },
            "properties": {
                "isced:level": "3",
                "ref:rspo": 56464,
                "official_name": "Technikum Przy Prywatnym Zespole Szk\u00f3\u0142 w Czarnkowie",
                "name": "Technikum Przy Prywatnym Zespole Szk\u00f3\u0142 w Czarnkowie",
                "addr:country": "PL",
                "addr:postcode": "64-700",
                "addr:city": "Czarnk\u00f3w",
                "addr:street": "ul. Harcerska",
                "addr:housenumber": "4",
                "addr:teryt:simc": 6523,
                "addr:teryt:sym_ul": 966777,
                "contact:phone": "+48 672554481",
                "contact:email": "sekretariat@pzsczarnkow.edu.pl",
                "ref:regon": "302251234",
                "ref:vatin": "PL7631129126",
                "operator": "Kazimierz Lewandowski",
                "operator:type": "private",
                "amenity": "school",
                "note": "Parent RSPO: 40134"
            }
        },
        {
            "id": 57389,
            "type": "Feature",
            "geometry": {
                "type": "Point",
                "coordinates": [
                    16.56813,
                    52.90392
                ]
            },
            "properties": {
                "isced:level": "3",
                "ref:rspo": 57389,
                "official_name": "Liceum Og\u00f3lnokszta\u0142c\u0105ce Przy Prywatnym Zespole Szk\u00f3\u0142 w Czarnkowie.",
                "name": "Liceum Og\u00f3lnokszta\u0142c\u0105ce Przy Prywatnym Zespole Szk\u00f3\u0142 w Czarnkowie.",
                "addr:country": "PL",
                "addr:postcode": "64-700",
                "addr:city": "Czarnk\u00f3w",
                "addr:street": "ul. Harcerska",
                "addr:housenumber": "4",
                "addr:teryt:simc": 6523,
                "addr:teryt:sym_ul": 966777,
                "contact:phone": "+48 672554481",
                "contact:email": "sekretariat@pzsczarnkow.edu.pl",
                "ref:regon": "302254340",
                "ref:vatin": "PL7631129126",
                "operator": "Kazimierz Lewandowski",
                "operator:type": "private",
                "amenity": "school",
                "note": "Parent RSPO: 40134"
            }
        },
        {
            "id": 59664,
            "type": "Feature",
            "geometry": {
                "type": "Point",
                "coordinates": [
                    16.56813,
                    52.903890000000004
                ]
            },
            "properties": {
                "isced:level": "4",
                "ref:rspo": 59664,
                "official_name": "Szko\u0142a Policealna Przy Prywatnym Zespole Szk\u00f3\u0142 w Czarnkowie.",
                "name": "Szko\u0142a Policealna Przy Prywatnym Zespole Szk\u00f3\u0142 w Czarnkowie.",
                "addr:country": "PL",
                "addr:postcode": "64-700",
                "addr:city": "Czarnk\u00f3w",
                "addr:street": "ul. Harcerska",
                "addr:housenumber": "4",
                "addr:teryt:simc": 6523,
                "addr:teryt:sym_ul": 966777,
                "contact:phone": "+48 672554481",
                "contact:email": "sekretariat@pzsczarnkow.edu.pl",
                "ref:regon": "302254379",
                "ref:vatin": "PL7631129126",
                "operator": "Kazimierz Lewandowski",
                "operator:type": "private",
                "amenity": "college",
                "note": "Parent RSPO: 40134"
            }
        },
        {
            "id": 74131,
            "type": "Feature",
            "geometry": {
                "type": "Point",
                "coordinates": [
                    16.56813,
                    52.90386
                ]
            },
            "properties": {
                "isced:level": "3",
                "ref:rspo": 74131,
                "official_name": "Bran\u017cowa Szko\u0142a I Stopnia Przy Prywatnym Zespole Szk\u00f3\u0142 w Czarnkowie.",
                "name": "Bran\u017cowa Szko\u0142a I Stopnia Przy Prywatnym Zespole Szk\u00f3\u0142 w Czarnkowie.",
                "addr:country": "PL",
                "addr:postcode": "64-700",
                "addr:city": "Czarnk\u00f3w",
                "addr:street": "ul. Harcerska",
                "addr:housenumber": "4",
                "addr:teryt:simc": 6523,
                "addr:teryt:sym_ul": 966777,
                "contact:phone": "+48 672554481",
                "contact:email": "sekretariat@pzsczarnkow.edu.pl",
                "ref:regon": "302260345",
                "ref:vatin": "PL7631129126",
                "operator": "Kazimierz Lewandowski",
                "operator:type": "private",
                "amenity": "school",
                "note": "Parent RSPO: 40134"
            }
        },
        {
            "id": 133579,
            "type": "Feature",
            "geometry": {
                "type": "Point",
                "coordinates": [
                    16.56813,
                    52.90383
                ]
            },
            "properties": {
                "isced:level": "1;2",
                "ref:rspo": 133579,
                "official_name": "Szko\u0142a Podstawowa Przy Prywatnym Zespole Szk\u00f3\u0142 w Czarnkowie",
                "name": "Szko\u0142a Podstawowa Przy Prywatnym Zespole Szk\u00f3\u0142 w Czarnkowie",
                "addr:country": "PL",
                "addr:postcode": "64-700",
                "addr:city": "Czarnk\u00f3w",
                "addr:street": "ul. Harcerska",
                "addr:housenumber": "4",
                "addr:teryt:simc": 6523,
                "addr:teryt:sym_ul": 966777,
                "contact:phone": "+48 672554720",
                "contact:email": "sekretariat@pzsczarnkow.edu.pl",
                "ref:regon": "367421668",
                "operator": "Kazimierz Lewandowski",
                "operator:type": "private",
                "amenity": "school",
                "note": "Parent RSPO: 40134"
            }
        },
        {
            "id": 278299,
            "type": "Feature",
            "geometry": {
                "type": "Point",
                "coordinates": [
                    16.56976,
                    52.90507
                ]
            },
            "properties": {
                "ref:rspo": 278299,
                "official_name": "Niepubliczny \u017b\u0142obek I Przedszkole Niepubliczne Ma\u0142e St\u00f3pki",
                "name": "Niepubliczny \u017b\u0142obek I Przedszkole Niepubliczne Ma\u0142e St\u00f3pki",
                "addr:country": "PL",
                "addr:postcode": "64-700",
                "addr:city": "Czarnk\u00f3w",
                "addr:street": "ul. Staromiejska",
                "addr:housenumber": "42",
                "addr:teryt:simc": 20952,
                "addr:teryt:sym_ul": 966777,
                "contact:phone": "+48 514143587",
                "contact:email": "biuro@malestopki-montessori.pl",
                "ref:regon": "389861427",
                "ref:vatin": "PL7631969501",
                "operator": "Paulina J\u0119drzejak",
                "operator:type": "private",
                "amenity": "kindergarten"
            }
        },
        {
            "id": 118723,
            "type": "Feature",
            "geometry": {
                "type": "Point",
                "coordinates": [
                    16.57215,
                    52.90969
                ]
            },
            "properties": {
                "ref:rspo": 118723,
                "official_name": "Niepubliczne Przedszkole \"Przysta\u0144 Elf\u00f3w\" Anna Krzy\u017costaniak",
                "name": "Niepubliczne Przedszkole \"Przysta\u0144 Elf\u00f3w\" Anna Krzy\u017costaniak",
                "addr:country": "PL",
                "addr:postcode": "64-700",
                "addr:city": "Czarnk\u00f3w",
                "addr:street": "ul. Podpu\u0142kownika Zdzis\u0142awa Or\u0142owskiego",
                "addr:housenumber": "3",
                "addr:teryt:simc": 54183,
                "addr:teryt:sym_ul": 966777,
                "contact:phone": "+48 602356630",
                "contact:email": "przystan.elfow@onet.pl",
                "ref:regon": "302499804",
                "operator": "Anna Krzy\u017costaniak",
                "operator:type": "private",
                "amenity": "kindergarten"
            }
        },
        {
            "id": 269004,
            "type": "Feature",
            "geometry": {
                "type": "Point",
                "coordinates": [
                    16.57171,
                    52.91016
                ]
            },
            "properties": {
                "ref:rspo": 269004,
                "official_name": "Centrum Doskonalenia Nauczycieli Publiczna Biblioteka Pedagogiczna w Pile Filia w Czarnkowie",
                "name": "Centrum Doskonalenia Nauczycieli Publiczna Biblioteka Pedagogiczna w Pile Filia w Czarnkowie",
                "addr:country": "PL",
                "addr:postcode": "64-700",
                "addr:city": "Czarnk\u00f3w",
                "addr:street": "ul. Podpu\u0142kownika Zdzis\u0142awa Or\u0142owskiego",
                "addr:housenumber": "1",
                "addr:teryt:simc": 54183,
                "addr:teryt:sym_ul": 966777,
                "contact:phone": "+48 672553031",
                "ref:regon": "674276000",
                "operator": "Wojew\u00f3dztwo Wielkopolskie",
                "operator:type": "government",
                "amenity": "library",
                "note": "Parent RSPO: 112145"
            }
        }
    ]
}