{
    "type": "FeatureCollection",
    "features": [
        {
            "id": 52343,
            "type": "Feature",
            "geometry": {
                "type": "Point",
                "coordinates": [
                    16.31135,
                    52.82998
                ]
            },
            "properties": {
                "ref:rspo": 52343,
                "official_name": "M\u0142odzie\u017cowy O\u015brodek Socjoterapii w Bia\u0142ej",
                "name": "M\u0142odzie\u017cowy O\u015brodek Socjoterapii w Bia\u0142ej",
                "addr:postcode": "64-980",
                "addr:city": "Bia\u0142a",
                "addr:street": "Parkowa",
                "addr:housenumber": "1",
                "addr:city:simc": 530264,
                "addr:street:sym_ul": 15710,
                "phone": "+48 672163066",
                "email": "mosbiala@gmail.com",
                "ref:regon": "301774622",
                "ref:vatin": "PL7632120067",
                "operator": "Powiat Czarnkowsko-Trzcianecki",
                "operator:type": "government",
                "fixme": "amenity=social_facility + social_facility=group_home + social_facility:for=juvenile",
                "note": "Children RSPO: 263205;271293;271294"
            }
        },
        {
            "id": 263205,
            "type": "Feature",
            "geometry": {
                "type": "Point",
                "coordinates": [
                    16.31135,
                    52.82995
                ]
            },
            "properties": {
                "isced:level": "1;2",
                "ref:rspo": 263205,
                "official_name": "Szko\u0142a Podstawowa Specjalna M\u0142odzie\u017cowy O\u015brodek Socjoterapii im. Ireny Sendlerowej w Bia\u0142ej",
                "name": "Szko\u0142a Podstawowa Specjalna M\u0142odzie\u017cowy O\u015brodek Socjoterapii",
                "addr:postcode": "64-980",
                "addr:city": "Bia\u0142a",
                "addr:street": "Parkowa",
                "addr:housenumber": "1",
                "addr:city:simc": 530264,
                "addr:street:sym_ul": 15710,
                "phone": "+48 672163066",
                "email": "mosbiala@gmail.com",
                "website": "http:\/\/osrodeksocjoterapiibiala.pl",
                "ref:regon": "368119842",
                "ref:vatin": "PL7632120067",
                "operator": "Powiat Czarnkowsko-Trzcianecki",
                "operator:type": "government",
                "amenity": "school",
                "note": "Parent RSPO: 52343"
            }
        },
        {
            "id": 271293,
            "type": "Feature",
            "geometry": {
                "type": "Point",
                "coordinates": [
                    16.31135,
                    52.82992
                ]
            },
            "properties": {
                "isced:level": "3",
                "ref:rspo": 271293,
                "official_name": "Bran\u017cowa Szko\u0142a I Stopnia Specjalna w M\u0142odzie\u017cowym O\u015brodku Socjoterapii im. Ireny Sendlerowej w Bia\u0142ej",
                "name": "Bran\u017cowa Szko\u0142a I Stopnia Specjalna w M\u0142odzie\u017cowym O\u015brodku Socjoterapii",
                "addr:postcode": "64-980",
                "addr:city": "Bia\u0142a",
                "addr:street": "Parkowa",
                "addr:housenumber": "1",
                "addr:city:simc": 530264,
                "addr:street:sym_ul": 15710,
                "phone": "+48 672163066",
                "email": "mosbiala@gmail.com",
                "website": "http:\/\/www.osrodeksocjoterapiibiala.pl",
                "ref:regon": "383266920",
                "ref:vatin": "PL7632120067",
                "operator": "Powiat Czarnkowsko-Trzcianecki",
                "operator:type": "government",
                "amenity": "school",
                "note": "Parent RSPO: 52343"
            }
        },
        {
            "id": 271294,
            "type": "Feature",
            "geometry": {
                "type": "Point",
                "coordinates": [
                    16.31135,
                    52.82989
                ]
            },
            "properties": {
                "isced:level": "3",
                "ref:rspo": 271294,
                "official_name": "Liceum Og\u00f3lnokszta\u0142c\u0105ce Specjalne w M\u0142odzie\u017cowym O\u015brodku Socjoterapii im. Ireny Sendlerowej w Bia\u0142ej",
                "name": "Liceum Og\u00f3lnokszta\u0142c\u0105ce Specjalne w M\u0142odzie\u017cowym O\u015brodku Socjoterapii",
                "addr:postcode": "64-980",
                "addr:city": "Bia\u0142a",
                "addr:street": "Parkowa",
                "addr:housenumber": "1",
                "addr:city:simc": 530264,
                "addr:street:sym_ul": 15710,
                "phone": "+48 672163066",
                "email": "mosbiala@gmail.com",
                "website": "http:\/\/www.osrodeksocjoterapiibiala.pl",
                "ref:regon": "383268160",
                "ref:vatin": "PL7632120067",
                "operator": "Powiat Czarnkowsko-Trzcianecki",
                "operator:type": "government",
                "amenity": "school",
                "note": "Parent RSPO: 52343"
            }
        },
        {
            "id": 125557,
            "type": "Feature",
            "geometry": {
                "type": "Point",
                "coordinates": [
                    16.33087,
                    52.97372
                ]
            },
            "properties": {
                "isced:level": "1;2",
                "ref:rspo": 125557,
                "official_name": "Szko\u0142a Podstawowa w Przy\u0142\u0119kach",
                "name": "Szko\u0142a Podstawowa w Przy\u0142\u0119kach",
                "addr:postcode": "64-980",
                "addr:place": "Przy\u0142\u0119ki",
                "addr:housenumber": "38a",
                "addr:city:simc": 530420,
                "phone": "+48 608356725",
                "email": "przyleki@o2.pl",
                "website": "http:\/\/www.spprzyleki.szkolnastrona.pl",
                "ref:regon": "001142044",
                "ref:vatin": "PL7631372329",
                "operator": "Stowarzyszenie Rozwoju Wsi \"Przyja\u017a\u0144\"",
                "operator:type": "ngo",
                "amenity": "school"
            }
        },
        {
            "id": 11399,
            "type": "Feature",
            "geometry": {
                "type": "Point",
                "coordinates": [
                    16.41134,
                    52.99522
                ]
            },
            "properties": {
                "ref:rspo": 11399,
                "official_name": "Gminne Przedszkole w Siedlisku",
                "name": "Gminne Przedszkole w Siedlisku",
                "addr:postcode": "64-980",
                "addr:place": "Siedlisko",
                "addr:housenumber": "160",
                "addr:city:simc": 530525,
                "phone": "+48 574146709",
                "email": "przedszkole@siedlisko.dlaedu.pl",
                "website": "http:\/\/gminneprzedszkolesiedlisko.przedszkolowo.pl",
                "ref:regon": "301594133",
                "ref:vatin": "PL7632114368",
                "operator": "Gmina Trzcianka",
                "operator:type": "government",
                "amenity": "kindergarten"
            }
        },
        {
            "id": 14596,
            "type": "Feature",
            "geometry": {
                "type": "Point",
                "coordinates": [
                    16.41134,
                    52.99519
                ]
            },
            "properties": {
                "isced:level": "1;2",
                "ref:rspo": 14596,
                "official_name": "Szko\u0142a Podstawowa im. Mi\u0142o\u015bnik\u00f3w Przyrody w Siedlisku",
                "name": "Szko\u0142a Podstawowa",
                "addr:postcode": "64-980",
                "addr:place": "Siedlisko",
                "addr:housenumber": "160",
                "addr:city:simc": 530525,
                "phone": "+48 672167710",
                "email": "zssiedlisko@gmail.com",
                "website": "http:\/\/www.spsiedlisko.pl",
                "ref:regon": "001142386",
                "ref:vatin": "PL7631372401",
                "operator": "Gmina Trzcianka",
                "operator:type": "government",
                "amenity": "school"
            }
        },
        {
            "id": 16313,
            "type": "Feature",
            "geometry": {
                "type": "Point",
                "coordinates": [
                    16.33645,
                    53.00386
                ]
            },
            "properties": {
                "isced:level": "1;2",
                "ref:rspo": 16313,
                "official_name": "Szko\u0142a Podstawowa im. Przyjaci\u00f3\u0142 Lasu w Rychliku",
                "name": "Szko\u0142a Podstawowa",
                "addr:postcode": "64-980",
                "addr:place": "Rychlik",
                "addr:housenumber": "16",
                "addr:city:simc": 530471,
                "phone": "+48 694403939",
                "email": "sprychlik@op.pl",
                "website": "http:\/\/www.sprychlik.edupage.org",
                "ref:regon": "001272640",
                "ref:vatin": "PL7631372252",
                "operator": "Stowarzyszenie Rozwoju Wsi Rychlik",
                "operator:type": "ngo",
                "amenity": "school"
            }
        },
        {
            "id": 11158,
            "type": "Feature",
            "geometry": {
                "type": "Point",
                "coordinates": [
                    16.45909,
                    53.03551
                ]
            },
            "properties": {
                "ref:rspo": 11158,
                "official_name": "Gminne Przedszkole nr 1 w Trzciance",
                "name": "Gminne Przedszkole nr 1 w Trzciance",
                "addr:postcode": "64-980",
                "addr:city": "Trzcianka",
                "addr:street": "Adama Mickiewicza",
                "addr:housenumber": "49",
                "addr:city:simc": 967162,
                "addr:street:sym_ul": 12740,
                "phone": "+48 672162216",
                "email": "gpp1trzcianka@op.pl",
                "website": "http:\/\/gp1trzciankaprzedszkolowo.pl",
                "ref:regon": "301594239",
                "ref:vatin": "PL7632114351",
                "operator": "Gmina Trzcianka",
                "operator:type": "government",
                "amenity": "kindergarten"
            }
        },
        {
            "id": 55381,
            "type": "Feature",
            "geometry": {
                "type": "Point",
                "coordinates": [
                    16.4643,
                    53.03575
                ]
            },
            "properties": {
                "ref:rspo": 55381,
                "official_name": "Poradnia Psychologiczno-Pedagogiczna w Trzciance",
                "name": "Poradnia Psychologiczno-Pedagogiczna w Trzciance",
                "addr:postcode": "64-980",
                "addr:city": "Trzcianka",
                "addr:street": "Fabryczna",
                "addr:housenumber": "1",
                "addr:city:simc": 967162,
                "addr:street:sym_ul": 4863,
                "phone": "+48 672163583",
                "email": "poradnia@trzcianka.com.pl",
                "ref:regon": "001238695",
                "ref:vatin": "PL7631873758",
                "operator": "Powiat Czarnkowsko-Trzcianecki",
                "operator:type": "government",
                "healthcare": "counselling",
                "counselling_type": "education",
                "fixme": "w zale\u017cno\u015bci od przedmiotu dzia\u0142alno\u015bci (np. healthcare=counselling + counselling_type=education albo healthcare=psychotherapist)"
            }
        },
        {
            "id": 128877,
            "type": "Feature",
            "geometry": {
                "type": "Point",
                "coordinates": [
                    16.4643,
                    53.03572
                ]
            },
            "properties": {
                "ref:rspo": 128877,
                "official_name": "Centrum Doskonalenia Nauczycieli Publiczna Biblioteka Pedagogiczna w Pile Filia w Trzciance",
                "name": "Centrum Doskonalenia Nauczycieli Publiczna Biblioteka Pedagogiczna w Pile Filia w Trzciance",
                "addr:postcode": "64-980",
                "addr:city": "Trzcianka",
                "addr:street": "Fabryczna",
                "addr:housenumber": "1",
                "addr:city:simc": 967162,
                "addr:street:sym_ul": 4863,
                "phone": "+48 672162040",
                "email": "trzcianka@cdn.pila.pl",
                "website": "http:\/\/www.trzcianka.bp.pila.pl",
                "ref:regon": "674276000",
                "operator": "Wojew\u00f3dztwo Wielkopolskie",
                "operator:type": "government",
                "amenity": "library",
                "note": "Parent RSPO: 112145"
            }
        },
        {
            "id": 274236,
            "type": "Feature",
            "geometry": {
                "type": "Point",
                "coordinates": [
                    16.47445,
                    53.03595
                ]
            },
            "properties": {
                "ref:rspo": 274236,
                "official_name": "Niepubliczny Punkt Przedszkolny Dolina \u017byrafy",
                "name": "Niepubliczny Punkt Przedszkolny Dolina \u017byrafy",
                "addr:postcode": "64-980",
                "addr:city": "Trzcianka",
                "addr:street": "Rzeczna",
                "addr:housenumber": "41",
                "addr:city:simc": 967162,
                "addr:street:sym_ul": 19326,
                "phone": "+48 793926069",
                "email": "klaudia25154@o2.pl",
                "ref:regon": "385448400",
                "ref:vatin": "PL7632142896",
                "operator": "Klaudia Wernik",
                "operator:type": "private",
                "amenity": "kindergarten"
            }
        },
        {
            "id": 14394,
            "type": "Feature",
            "geometry": {
                "type": "Point",
                "coordinates": [
                    16.45345,
                    53.03631
                ]
            },
            "properties": {
                "ref:rspo": 14394,
                "official_name": "Gminne Przedszkole nr 3 w Trzciance",
                "name": "Gminne Przedszkole nr 3 w Trzciance",
                "addr:postcode": "64-980",
                "addr:city": "Trzcianka",
                "addr:street": "Osiedle Juliusza S\u0142owackiego",
                "addr:housenumber": "24a",
                "addr:city:simc": 967162,
                "addr:street:sym_ul": 20289,
                "phone": "+48 672164270",
                "email": "p3trzcianka@op.pl",
                "website": "http:\/\/przedszkole3trzcianka.przedszkolowo.pl",
                "ref:regon": "301594185",
                "ref:vatin": "PL7632114397",
                "operator": "Gmina Trzcianka",
                "operator:type": "government",
                "amenity": "kindergarten"
            }
        },
        {
            "id": 74160,
            "type": "Feature",
            "geometry": {
                "type": "Point",
                "coordinates": [
                    16.46332,
                    53.03704
                ]
            },
            "properties": {
                "ref:rspo": 74160,
                "official_name": "Zesp\u00f3\u0142 Szk\u00f3\u0142 im. Henryka Sienkiewicza w Trzciance",
                "name": "Zesp\u00f3\u0142 Szk\u00f3\u0142",
                "addr:postcode": "64-980",
                "addr:city": "Trzcianka",
                "addr:street": "Genera\u0142a W\u0142adys\u0142awa Sikorskiego",
                "addr:housenumber": "36",
                "addr:city:simc": 967162,
                "addr:street:sym_ul": 19907,
                "phone": "+48 672163287",
                "email": "sekretariat@zstrzcianka.pl",
                "ref:regon": "000778550",
                "ref:vatin": "PL7631394472",
                "operator": "Powiat Czarnkowsko-Trzcianecki",
                "operator:type": "government",
                "landuse": "education",
                "fixme": "amenity=school, amenity=college albo landuse=education w zale\u017cno\u015bci od tego, jakie plac\u00f3wki wchodz\u0105 w sk\u0142ad zespo\u0142u. Sprawd\u017a, kiedy stosowa\u0107 amenity=* a kiedy landuse=education.",
                "note": "Children RSPO: 106880;106891;106902;267975"
            }
        },
        {
            "id": 106880,
            "type": "Feature",
            "geometry": {
                "type": "Point",
                "coordinates": [
                    16.46332,
                    53.037009999999995
                ]
            },
            "properties": {
                "isced:level": "3",
                "ref:rspo": 106880,
                "official_name": "Bran\u017cowa Szko\u0142a I Stopnia im. Henryka Sienkiewicza w Trzciance",
                "name": "Bran\u017cowa Szko\u0142a I Stopnia",
                "addr:postcode": "64-980",
                "addr:city": "Trzcianka",
                "addr:street": "Genera\u0142a W\u0142adys\u0142awa Sikorskiego",
                "addr:housenumber": "36",
                "addr:city:simc": 967162,
                "addr:street:sym_ul": 19907,
                "phone": "+48 672163287",
                "email": "sekretariat@zstrzcianka.pl",
                "website": "http:\/\/www.zstrzcianka.pl",
                "ref:regon": "572042840",
                "ref:vatin": "PL7631394472",
                "operator": "Powiat Czarnkowsko-Trzcianecki",
                "operator:type": "government",
                "amenity": "school",
                "note": "Parent RSPO: 74160"
            }
        },
        {
            "id": 106891,
            "type": "Feature",
            "geometry": {
                "type": "Point",
                "coordinates": [
                    16.46332,
                    53.03698
                ]
            },
            "properties": {
                "isced:level": "3",
                "ref:rspo": 106891,
                "official_name": "Technikum im. Henryka Sienkiewicza w Trzciance",
                "name": "Technikum",
                "addr:postcode": "64-980",
                "addr:city": "Trzcianka",
                "addr:street": "Genera\u0142a W\u0142adys\u0142awa Sikorskiego",
                "addr:housenumber": "36",
                "addr:city:simc": 967162,
                "addr:street:sym_ul": 19907,
                "phone": "+48 672163287",
                "email": "sekretariat@zstrzcianka.pl",
                "website": "http:\/\/www.zstrzcianka.pl",
                "ref:regon": "572042828",
                "ref:vatin": "PL7631394472",
                "operator": "Powiat Czarnkowsko-Trzcianecki",
                "operator:type": "government",
                "amenity": "school",
                "note": "Parent RSPO: 74160"
            }
        },
        {
            "id": 106902,
            "type": "Feature",
            "geometry": {
                "type": "Point",
                "coordinates": [
                    16.46332,
                    53.03695
                ]
            },
            "properties": {
                "isced:level": "4",
                "ref:rspo": 106902,
                "official_name": "Szko\u0142a Policealna im. Henryka Sienkiewicza w Trzciance",
                "name": "Szko\u0142a Policealna",
                "addr:postcode": "64-980",
                "addr:city": "Trzcianka",
                "addr:street": "Genera\u0142a W\u0142adys\u0142awa Sikorskiego",
                "addr:housenumber": "36",
                "addr:city:simc": 967162,
                "addr:street:sym_ul": 19907,
                "phone": "+48 672163287",
                "email": "sekretariat@pct.bipst.pl",
                "ref:regon": "572137196",
                "ref:vatin": "PL7631394472",
                "operator": "Powiat Czarnkowsko-Trzcianecki",
                "operator:type": "government",
                "amenity": "college",
                "note": "Parent RSPO: 74160"
            }
        },
        {
            "id": 11400,
            "type": "Feature",
            "geometry": {
                "type": "Point",
                "coordinates": [
                    16.46148,
                    53.03728
                ]
            },
            "properties": {
                "ref:rspo": 11400,
                "official_name": "Gminne Przedszkole nr 4 w Trzciance",
                "name": "Gminne Przedszkole nr 4 w Trzciance",
                "addr:postcode": "64-980",
                "addr:city": "Trzcianka",
                "addr:street": "W\u0142adys\u0142awa Broniewskiego",
                "addr:housenumber": "2a",
                "addr:city:simc": 967162,
                "addr:street:sym_ul": 2125,
                "phone": "+48 672163001",
                "email": "gptrzcianka4@gmail.com",
                "website": "http:\/\/gp4.przedszkolowo.pl",
                "ref:regon": "301594156",
                "ref:vatin": "PL7632114380",
                "operator": "Gmina Trzcianka",
                "operator:type": "government",
                "amenity": "kindergarten"
            }
        },
        {
            "id": 15545,
            "type": "Feature",
            "geometry": {
                "type": "Point",
                "coordinates": [
                    16.46104,
                    53.03794
                ]
            },
            "properties": {
                "isced:level": "1;2",
                "ref:rspo": 15545,
                "official_name": "Szko\u0142a Podstawowa nr 3 im. Miko\u0142aja Kopernika w Trzciance",
                "name": "Szko\u0142a Podstawowa nr 3",
                "addr:postcode": "64-980",
                "addr:city": "Trzcianka",
                "addr:street": "W\u0142adys\u0142awa Broniewskiego",
                "addr:housenumber": "2",
                "addr:city:simc": 967162,
                "addr:street:sym_ul": 2125,
                "phone": "+48 672162132",
                "email": "sp3trzcianka@wp.pl",
                "website": "http:\/\/trojka.sp3trzcianka.linuxpl.com\/",
                "ref:regon": "000701352",
                "ref:vatin": "PL7631132708",
                "operator": "Gmina Trzcianka",
                "operator:type": "government",
                "amenity": "school"
            }
        },
        {
            "id": 75075,
            "type": "Feature",
            "geometry": {
                "type": "Point",
                "coordinates": [
                    16.46282,
                    53.03812
                ]
            },
            "properties": {
                "ref:rspo": 75075,
                "official_name": "M\u0142odzie\u017cowy Dom Kultury w Trzciance",
                "name": "M\u0142odzie\u017cowy Dom Kultury w Trzciance",
                "addr:postcode": "64-980",
                "addr:city": "Trzcianka",
                "addr:street": "Genera\u0142a W\u0142adys\u0142awa Sikorskiego",
                "addr:housenumber": "26",
                "addr:city:simc": 967162,
                "addr:street:sym_ul": 19907,
                "email": "sekretariat@mdktrzcianka.pl",
                "ref:regon": "000701518",
                "ref:vatin": "PL7631873971",
                "operator": "Powiat Czarnkowsko-Trzcianecki",
                "operator:type": "government",
                "amenity": "community_centre",
                "community_centre:for": "juvenile"
            }
        },
        {
            "id": 14654,
            "type": "Feature",
            "geometry": {
                "type": "Point",
                "coordinates": [
                    16.53913,
                    53.03858
                ]
            },
            "properties": {
                "isced:level": "1;2",
                "ref:rspo": 14654,
                "official_name": "Szko\u0142a Podstawowa im.ppor. Alfreda Sofki w Bia\u0142ej",
                "name": "Szko\u0142a Podstawowa im.ppor. Alfreda Sofki w Bia\u0142ej",
                "addr:postcode": "64-980",
                "addr:city": "Bia\u0142a",
                "addr:street": "Radoli\u0144ska",
                "addr:housenumber": "9",
                "addr:city:simc": 530264,
                "addr:street:sym_ul": 18314,
                "phone": "+48 672164512",
                "email": "sekretariat@spbiala.dlaedu.pl",
                "website": "http:\/\/spbiala.szkolna.net",
                "ref:regon": "570220941",
                "ref:vatin": "PL7631191556",
                "operator": "Gmina Trzcianka",
                "operator:type": "government",
                "amenity": "school"
            }
        },
        {
            "id": 273923,
            "type": "Feature",
            "geometry": {
                "type": "Point",
                "coordinates": [
                    16.45854,
                    53.03942
                ]
            },
            "properties": {
                "ref:rspo": 273923,
                "official_name": "Punkt Przedszkolny Przedszkole Terapeutyczne \"Piccoli Cuori - Ma\u0142e Serca\"",
                "name": "Punkt Przedszkolny Przedszkole Terapeutyczne \"Piccoli Cuori - Ma\u0142e Serca\"",
                "addr:postcode": "64-980",
                "addr:city": "Trzcianka",
                "addr:street": "Adama Mickiewicza",
                "addr:housenumber": "62",
                "addr:city:simc": 967162,
                "addr:street:sym_ul": 12740,
                "phone": "+48 662202119",
                "email": "maleserca@gmail.com",
                "ref:regon": "384872314",
                "ref:vatin": "PL7632142979",
                "operator": "Dominik Zawiszewski",
                "operator:type": "private",
                "amenity": "kindergarten"
            }
        },
        {
            "id": 15734,
            "type": "Feature",
            "geometry": {
                "type": "Point",
                "coordinates": [
                    16.44209,
                    53.04085
                ]
            },
            "properties": {
                "ref:rspo": 15734,
                "official_name": "Punkt Przedszkolny \"Zaczarowany Domek\"",
                "name": "Punkt Przedszkolny \"Zaczarowany Domek\"",
                "addr:postcode": "64-980",
                "addr:city": "Trzcianka",
                "addr:street": "Osiedle Stanis\u0142awa Poniatowskiego",
                "addr:housenumber": "17a",
                "addr:city:simc": 967162,
                "addr:street:sym_ul": 37472,
                "phone": "+48 502525901",
                "email": "przedszkole@zaczarowanydomek.com.pl",
                "website": "http:\/\/zaczarowanydomek.com.pl",
                "ref:regon": "302215385",
                "ref:vatin": "PL7631748131",
                "operator": "Agnieszka Dubrawska - Kukiel",
                "operator:type": "private",
                "amenity": "kindergarten"
            }
        },
        {
            "id": 40119,
            "type": "Feature",
            "geometry": {
                "type": "Point",
                "coordinates": [
                    16.4552731,
                    53.0414037
                ]
            },
            "properties": {
                "isced:level": "3",
                "ref:rspo": 40119,
                "official_name": "Liceum Og\u00f3lnokszta\u0142c\u0105ce im. Stanis\u0142awa Staszica w Trzciance",
                "name": "Liceum Og\u00f3lnokszta\u0142c\u0105ce",
                "addr:postcode": "64-980",
                "addr:city": "Trzcianka",
                "addr:street": "Stefana \u017beromskiego",
                "addr:housenumber": "28",
                "addr:city:simc": 967162,
                "addr:street:sym_ul": 26469,
                "phone": "+48 672163081",
                "email": "liceumtrzcianka@gmail.com",
                "website": "http:\/\/www.lo.trzcianka.com.pl",
                "ref:regon": "000229180",
                "ref:vatin": "PL7631081170",
                "operator": "Powiat Czarnkowsko-Trzcianecki",
                "operator:type": "government",
                "amenity": "school"
            }
        },
        {
            "id": 23217,
            "type": "Feature",
            "geometry": {
                "type": "Point",
                "coordinates": [
                    16.46298,
                    53.04337
                ]
            },
            "properties": {
                "isced:level": "1;2",
                "ref:rspo": 23217,
                "official_name": "Katolicka Szko\u0142a Podstawowa im. \u015aw. Siostry Faustyny w Trzciance",
                "name": "Katolicka Szko\u0142a Podstawowa",
                "addr:postcode": "64-980",
                "addr:city": "Trzcianka",
                "addr:street": "Spokojna",
                "addr:housenumber": "2",
                "addr:city:simc": 967162,
                "addr:street:sym_ul": 20677,
                "phone": "+48 518609991",
                "email": "katolik.trzcianka@gmail.com",
                "website": "http:\/\/www.katolik.trzcianka.com.pl",
                "ref:regon": "302249935",
                "ref:vatin": "PL7632136341",
                "operator": "Parafia Rzymsko-Katolicka P.w. \u015aw. Jana Chrzciciela",
                "operator:type": "religious",
                "amenity": "school"
            }
        },
        {
            "id": 15567,
            "type": "Feature",
            "geometry": {
                "type": "Point",
                "coordinates": [
                    16.44662,
                    53.04415
                ]
            },
            "properties": {
                "ref:rspo": 15567,
                "official_name": "Punkt Przedszkolny \"Educhatka\"",
                "name": "Punkt Przedszkolny \"Educhatka\"",
                "addr:postcode": "64-980",
                "addr:city": "Trzcianka",
                "addr:street": "Gorzowska",
                "addr:housenumber": "39",
                "addr:city:simc": 967162,
                "addr:street:sym_ul": 5839,
                "phone": "+48 662822090",
                "email": "joanna.juchnowicz@gmail.com",
                "website": "http:\/\/educhatka.pl",
                "ref:regon": "302215304",
                "ref:vatin": "PL7632056949",
                "operator": "Joanna Juchnowicz",
                "operator:type": "private",
                "amenity": "kindergarten"
            }
        },
        {
            "id": 74162,
            "type": "Feature",
            "geometry": {
                "type": "Point",
                "coordinates": [
                    16.46451,
                    53.04449
                ]
            },
            "properties": {
                "ref:rspo": 74162,
                "official_name": "Zesp\u00f3\u0142 Szk\u00f3\u0142 Technicznych w Trzciance",
                "name": "Zesp\u00f3\u0142 Szk\u00f3\u0142 Technicznych w Trzciance",
                "addr:postcode": "64-980",
                "addr:city": "Trzcianka",
                "addr:street": "27 Stycznia",
                "addr:housenumber": "100",
                "addr:city:simc": 967162,
                "addr:street:sym_ul": 21461,
                "phone": "+48 672162468",
                "email": "zst@trzcianka.com.pl",
                "ref:regon": "000405323",
                "ref:vatin": "PL7631438011",
                "operator": "Powiat Czarnkowsko-Trzcianecki",
                "operator:type": "government",
                "landuse": "education",
                "fixme": "amenity=school, amenity=college albo landuse=education w zale\u017cno\u015bci od tego, jakie plac\u00f3wki wchodz\u0105 w sk\u0142ad zespo\u0142u. Sprawd\u017a, kiedy stosowa\u0107 amenity=* a kiedy landuse=education.",
                "note": "Children RSPO: 109930"
            }
        },
        {
            "id": 109930,
            "type": "Feature",
            "geometry": {
                "type": "Point",
                "coordinates": [
                    16.46451,
                    53.04446
                ]
            },
            "properties": {
                "isced:level": "3",
                "ref:rspo": 109930,
                "official_name": "Technikum im. Noblist\u00f3w Polskich w Trzciance.",
                "name": "Technikum",
                "addr:postcode": "64-980",
                "addr:city": "Trzcianka",
                "addr:street": "27 Stycznia",
                "addr:housenumber": "100",
                "addr:city:simc": 967162,
                "addr:street:sym_ul": 21461,
                "phone": "+48 672162468",
                "email": "zst@trzcianka.com.pl",
                "ref:regon": "572083046",
                "ref:vatin": "PL7631438011",
                "operator": "Powiat Czarnkowsko-Trzcianecki",
                "operator:type": "government",
                "amenity": "school",
                "note": "Parent RSPO: 74162"
            }
        },
        {
            "id": 14938,
            "type": "Feature",
            "geometry": {
                "type": "Point",
                "coordinates": [
                    16.46262,
                    53.04504
                ]
            },
            "properties": {
                "isced:level": "1;2",
                "ref:rspo": 14938,
                "official_name": "Szko\u0142a Podstawowa nr 2 im. W\u0142.broniewskiego w Trzciance",
                "name": "Szko\u0142a Podstawowa nr 2",
                "addr:postcode": "64-980",
                "addr:city": "Trzcianka",
                "addr:street": "Fryderyka Chopina",
                "addr:housenumber": "36",
                "addr:city:simc": 967162,
                "addr:street:sym_ul": 2849,
                "phone": "+48 672163019",
                "email": "sp2wt@interia.pl",
                "website": "http:\/\/sp2trzcianka.com.pl",
                "ref:regon": "000235677",
                "ref:vatin": "PL7631437508",
                "operator": "Gmina Trzcianka",
                "operator:type": "government",
                "amenity": "school"
            }
        },
        {
            "id": 267975,
            "type": "Feature",
            "geometry": {
                "type": "Point",
                "coordinates": [
                    16.45204,
                    53.04536
                ]
            },
            "properties": {
                "isced:level": "3",
                "ref:rspo": 267975,
                "official_name": "Liceum Og\u00f3lnokszta\u0142c\u0105ce dla Doros\u0142ych",
                "name": "Liceum Og\u00f3lnokszta\u0142c\u0105ce dla Doros\u0142ych",
                "addr:postcode": "64-980",
                "addr:city": "Trzcianka",
                "addr:street": "Henryka Sienkiewicza",
                "addr:housenumber": "36",
                "addr:city:simc": 967162,
                "addr:street:sym_ul": 19834,
                "phone": "+48 672163287",
                "email": "sekretariat@zstrzcianka.pl",
                "ref:regon": "380806711",
                "ref:vatin": "PL7631394472",
                "operator": "Powiat Czarnkowsko-Trzcianecki",
                "operator:type": "government",
                "amenity": "school",
                "note": "Parent RSPO: 74160"
            }
        },
        {
            "id": 11159,
            "type": "Feature",
            "geometry": {
                "type": "Point",
                "coordinates": [
                    16.46523,
                    53.04658
                ]
            },
            "properties": {
                "ref:rspo": 11159,
                "official_name": "Gminne Przedszkole nr 2 w Trzciance",
                "name": "Gminne Przedszkole nr 2 w Trzciance",
                "addr:postcode": "64-980",
                "addr:city": "Trzcianka",
                "addr:street": "27 Stycznia",
                "addr:housenumber": "90\/92",
                "addr:city:simc": 967162,
                "addr:street:sym_ul": 21461,
                "phone": "+48 672163343",
                "email": "p2trzcianka@wp.pl",
                "website": "http:\/\/przedszkole2trzcianka.przedszkolowo.pl",
                "ref:regon": "301594216",
                "ref:vatin": "PL7632114405",
                "operator": "Gmina Trzcianka",
                "operator:type": "government",
                "amenity": "kindergarten"
            }
        },
        {
            "id": 262352,
            "type": "Feature",
            "geometry": {
                "type": "Point",
                "coordinates": [
                    16.54277,
                    53.0469
                ]
            },
            "properties": {
                "isced:level": "1;2",
                "ref:rspo": 262352,
                "official_name": "Szko\u0142a Podstawowa nr 1 im. Juliusza S\u0142owackiego w Trzciance",
                "name": "Szko\u0142a Podstawowa nr 1",
                "addr:postcode": "64-980",
                "addr:city": "Trzcianka",
                "addr:street": "Stanis\u0142awa Staszica",
                "addr:housenumber": "6",
                "addr:city:simc": 967162,
                "addr:street:sym_ul": 21071,
                "phone": "+48 672163495",
                "email": "sekretariat@trzcianka1.pl",
                "website": "http:\/\/trzcianka1.pl",
                "ref:regon": "367987950",
                "ref:vatin": "PL7632136424",
                "operator": "Gmina Trzcianka",
                "operator:type": "government",
                "amenity": "school"
            }
        },
        {
            "id": 126811,
            "type": "Feature",
            "geometry": {
                "type": "Point",
                "coordinates": [
                    16.466999053955,
                    53.04999923706
                ]
            },
            "properties": {
                "ref:rspo": 126811,
                "official_name": "Punkt Przedszkolny \"Chatka Puchatka\"",
                "name": "Punkt Przedszkolny \"Chatka Puchatka\"",
                "addr:postcode": "64-980",
                "addr:city": "Trzcianka",
                "addr:street": "Joachima Lelewela",
                "addr:housenumber": "31",
                "addr:city:simc": 967162,
                "addr:street:sym_ul": 10793,
                "phone": "+48 608760560",
                "email": "ilonagorkowska@wp.pl",
                "website": "http:\/\/przedszkolechatkapuchatka.pl",
                "ref:regon": "360761817",
                "ref:vatin": "PL7632112903",
                "operator": "Ilona Gorkowska",
                "operator:type": "private",
                "amenity": "kindergarten"
            }
        },
        {
            "id": 15618,
            "type": "Feature",
            "geometry": {
                "type": "Point",
                "coordinates": [
                    16.47244,
                    53.05406
                ]
            },
            "properties": {
                "ref:rspo": 15618,
                "official_name": "Niepubliczne Przedszkole \"S\u0142oneczko\"",
                "name": "Niepubliczne Przedszkole \"S\u0142oneczko\"",
                "addr:postcode": "64-980",
                "addr:city": "Trzcianka",
                "addr:street": "\u0141omnicka",
                "addr:housenumber": "5",
                "addr:city:simc": 967162,
                "addr:street:sym_ul": 11655,
                "phone": "+48 668463443",
                "email": "magda@sloneczkotrzcianka.com.pl",
                "website": "http:\/\/www.sloneczkotrzcianka.com.pl",
                "ref:regon": "302215340",
                "ref:vatin": "PL7631767074",
                "operator": "Magdalena Kapela",
                "operator:type": "private",
                "amenity": "kindergarten"
            }
        },
        {
            "id": 14629,
            "type": "Feature",
            "geometry": {
                "type": "Point",
                "coordinates": [
                    16.54775,
                    53.09131
                ]
            },
            "properties": {
                "isced:level": "1;2",
                "ref:rspo": 14629,
                "official_name": "Szko\u0142a Podstawowa im. Henryka Sienkiewicza w \u0141omnicy",
                "name": "Szko\u0142a Podstawowa",
                "addr:postcode": "64-980",
                "addr:place": "\u0141omnica",
                "addr:housenumber": "7",
                "addr:city:simc": 530324,
                "phone": "+48 672164220",
                "email": "szkolalomnica@gmail.com",
                "website": "http:\/\/www.splomnica.pl",
                "ref:regon": "001141412",
                "ref:vatin": "PL7631437425",
                "operator": "Gmina Trzcianka",
                "operator:type": "government",
                "amenity": "school"
            }
        }
    ]
}