{
    "type": "FeatureCollection",
    "features": [
        {
            "id": 110428,
            "type": "Feature",
            "geometry": {
                "type": "Point",
                "coordinates": [
                    17.1663,
                    51.0105
                ]
            },
            "properties": {
                "ref:rspo": 110428,
                "official_name": "Przedszkole Niepubliczne \"Le\u015bne Skrzaty\"",
                "name": "Przedszkole Niepubliczne \"Le\u015bne Skrzaty\"",
                "addr:country": "PL",
                "addr:postcode": "55-010",
                "addr:city": "Z\u0119bice",
                "addr:street": "Le\u015bna",
                "addr:housenumber": "16",
                "addr:teryt:simc": 881259,
                "addr:teryt:sym_ul": 10898,
                "contact:phone": "+48 606963011",
                "contact:email": "pati.kuczynska@gmail.com",
                "ref:regon": "022087751",
                "operator": "Patrycja Kuczy\u0144ska",
                "operator:type": "private",
                "amenity": "kindergarten"
            }
        },
        {
            "id": 132045,
            "type": "Feature",
            "geometry": {
                "type": "Point",
                "coordinates": [
                    17.17616,
                    51.01115
                ]
            },
            "properties": {
                "ref:rspo": 132045,
                "official_name": "Niepubliczne Przedszkole \"Mali Odkrywcy\"",
                "name": "Niepubliczne Przedszkole \"Mali Odkrywcy\"",
                "addr:country": "PL",
                "addr:postcode": "55-011",
                "addr:city": "Siechnice",
                "addr:street": "Opolska",
                "addr:housenumber": "29",
                "addr:teryt:simc": 881160,
                "addr:teryt:sym_ul": 15095,
                "contact:phone": "+48 790729565",
                "contact:email": "agnieszka.mikolajczak1@gmail.com",
                "ref:regon": "365436482",
                "operator": "Mali Odkrywcy Sp\u00f3\u0142ka Z Ograniczon\u0105 Odpowiedzialno\u015bci\u0105",
                "operator:type": "private",
                "amenity": "kindergarten"
            }
        },
        {
            "id": 85174,
            "type": "Feature",
            "geometry": {
                "type": "Point",
                "coordinates": [
                    17.11703,
                    51.02313
                ]
            },
            "properties": {
                "ref:rspo": 85174,
                "official_name": "Przedszkole Publiczne Uk\u0142adanka",
                "name": "Przedszkole Publiczne Uk\u0142adanka",
                "addr:country": "PL",
                "addr:postcode": "55-010",
                "addr:city": "\u015awi\u0119ta Katarzyna",
                "addr:street": "Genera\u0142a D\u0105browskiego",
                "addr:housenumber": "3",
                "addr:teryt:simc": 881213,
                "addr:teryt:sym_ul": 38361,
                "contact:phone": "+48 713116246",
                "contact:email": "przedszkole.katarzyna@gmail.com",
                "contact:website": "http:\/\/przedszkole-katarzyna.pl\/",
                "ref:regon": "933032408",
                "ref:vatin": "PL8961505975",
                "operator": "Gmina Siechnice",
                "operator:type": "government",
                "amenity": "kindergarten"
            }
        },
        {
            "id": 84880,
            "type": "Feature",
            "geometry": {
                "type": "Point",
                "coordinates": [
                    17.11357,
                    51.02479
                ]
            },
            "properties": {
                "isced:level": "1;2",
                "ref:rspo": 84880,
                "official_name": "Publiczna Szko\u0142a Podstawowa w \u015awi\u0119tej Katarzynie im. Stefana Kardyna\u0142a Wyszy\u0144skiego Prymasa Tysi\u0105clecia",
                "name": "Publiczna Szko\u0142a Podstawowa w \u015awi\u0119tej Katarzynie",
                "addr:country": "PL",
                "addr:postcode": "55-010",
                "addr:city": "\u015awi\u0119ta Katarzyna",
                "addr:street": "G\u0142\u00f3wna",
                "addr:housenumber": "94",
                "addr:teryt:simc": 881213,
                "addr:teryt:sym_ul": 5635,
                "contact:phone": "+48 713116378",
                "contact:email": "sp.katarzyna94@gmail.com",
                "contact:website": "http:\/\/www.spkatarzyna.pl",
                "ref:regon": "001181021",
                "ref:vatin": "PL8961347370",
                "operator": "Gmina Siechnice",
                "operator:type": "government",
                "amenity": "school"
            }
        },
        {
            "id": 85053,
            "type": "Feature",
            "geometry": {
                "type": "Point",
                "coordinates": [
                    17.22371,
                    51.02537
                ]
            },
            "properties": {
                "isced:level": "1;2",
                "ref:rspo": 85053,
                "official_name": "Katolicka Szko\u0142a Podstawowa Caritas Archidiecezji Wroc\u0142awskiej w Kotowicach im. Ks. Jana Twardowskiego",
                "name": "Katolicka Szko\u0142a Podstawowa Caritas Archidiecezji Wroc\u0142awskiej w Kotowicach",
                "addr:country": "PL",
                "addr:postcode": "55-010",
                "addr:city": "Kotowice",
                "addr:street": "Podwalna",
                "addr:housenumber": "1",
                "addr:teryt:simc": 881093,
                "addr:teryt:sym_ul": 16880,
                "contact:phone": "+48 713029478",
                "contact:email": "kotowice@wroclaw.caritas.pl",
                "contact:website": "https:\/\/www.kspkotowicecaritas.pl",
                "ref:regon": "022010033",
                "operator": "Caritas Archidiecezji Wroc\u0142awskiej",
                "operator:type": "religious",
                "amenity": "school"
            }
        },
        {
            "id": 21744,
            "type": "Feature",
            "geometry": {
                "type": "Point",
                "coordinates": [
                    17.15231,
                    51.02662
                ]
            },
            "properties": {
                "ref:rspo": 21744,
                "official_name": "Centrum Edukacji Atut Dolny \u015aL\u0105sk",
                "name": "Centrum Edukacji Atut Dolny \u015aL\u0105sk",
                "addr:country": "PL",
                "addr:postcode": "55-011",
                "addr:city": "Siechnice",
                "addr:street": "Osiedlowa",
                "addr:housenumber": "23a",
                "addr:teryt:simc": 881160,
                "addr:teryt:sym_ul": 15300,
                "contact:phone": "+48 774160489",
                "ref:regon": "021979909",
                "operator": "Centrum Edukacji Atut Dolny \u015al\u0105sk S.c. J. Jastrz\u0119bski, Przedsi\u0119biorstwo Produkcyjno-Us\u0142ugowo-Handlowe\"Viktoria\" Sp.z.o.o. Sp\u00f3\u0142ka Cywilna",
                "operator:type": "private",
                "fixme": "w zale\u017cno\u015bci od przedmiotu dzia\u0142alno\u015bci (np. amenity=training + training=*, amenity=dancing_school, amenity=language_school, amenity=music_school)"
            }
        },
        {
            "id": 85143,
            "type": "Feature",
            "geometry": {
                "type": "Point",
                "coordinates": [
                    17.15231,
                    51.02659
                ]
            },
            "properties": {
                "ref:rspo": 85143,
                "official_name": "Przedszkole Publiczne im. \u015aw. Jana Paw\u0142a II w Siechnicach",
                "name": "Przedszkole Publiczne",
                "addr:country": "PL",
                "addr:postcode": "55-011",
                "addr:city": "Siechnice",
                "addr:street": "Osiedlowa",
                "addr:housenumber": "23a",
                "addr:teryt:simc": 881160,
                "addr:teryt:sym_ul": 15300,
                "contact:phone": "+48 713115225",
                "contact:email": "przedszkolesiechnicejp2@gmail.com",
                "contact:website": "http:\/\/www.przedszkolesiechnice.szkolnastrona.pl\/",
                "ref:regon": "930669460",
                "ref:vatin": "PL9121595712",
                "operator": "Gmina Siechnice",
                "operator:type": "government",
                "amenity": "kindergarten"
            }
        },
        {
            "id": 265862,
            "type": "Feature",
            "geometry": {
                "type": "Point",
                "coordinates": [
                    17.11471,
                    51.02702
                ]
            },
            "properties": {
                "ref:rspo": 265862,
                "official_name": "Przedszkole Sensoryczne \"Pluszaki\"",
                "name": "Przedszkole Sensoryczne \"Pluszaki\"",
                "addr:country": "PL",
                "addr:postcode": "55-010",
                "addr:city": "\u015awi\u0119ta Katarzyna",
                "addr:street": "Stra\u017cacka",
                "addr:housenumber": "12",
                "addr:teryt:simc": 881213,
                "addr:teryt:sym_ul": 21271,
                "contact:phone": "+48 609142997",
                "contact:email": "przedszkolesensoryczne@gmail.com",
                "contact:website": "http:\/\/www.przedszkolesensoryczne.pl",
                "ref:regon": "368965962",
                "operator": "Katarzyna Pytlewska",
                "operator:type": "private",
                "amenity": "kindergarten"
            }
        },
        {
            "id": 196389,
            "type": "Feature",
            "geometry": {
                "type": "Point",
                "coordinates": [
                    17.146780014038,
                    51.0280418396
                ]
            },
            "properties": {
                "isced:level": "1;2",
                "ref:rspo": 196389,
                "official_name": "Szko\u0142a Podstawowa Nr 2 w Siechnicach",
                "name": "Szko\u0142a Podstawowa Nr 2 w Siechnicach",
                "addr:country": "PL",
                "addr:postcode": "55-011",
                "addr:city": "Siechnice",
                "addr:street": "Ksi\u0119\u017cnej Anny z Przemy\u015blid\u00f3w",
                "addr:housenumber": "6",
                "addr:teryt:simc": 881160,
                "addr:teryt:sym_ul": 51598,
                "contact:phone": "+48 713902036",
                "contact:email": "sp2siechnice@wp.pl",
                "contact:website": "http:\/\/www.sp2.siechnice.com.pl\/",
                "ref:regon": "367993821",
                "ref:vatin": "PL8961567344",
                "operator": "Gmina Siechnice",
                "operator:type": "government",
                "amenity": "school"
            }
        },
        {
            "id": 275914,
            "type": "Feature",
            "geometry": {
                "type": "Point",
                "coordinates": [
                    17.16373,
                    51.02838
                ]
            },
            "properties": {
                "ref:rspo": 275914,
                "official_name": "Publiczne Przedszkole \"Sportowa Kraina\"",
                "name": "Publiczne Przedszkole \"Sportowa Kraina\"",
                "addr:country": "PL",
                "addr:postcode": "55-011",
                "addr:city": "Siechnice",
                "addr:street": "Eugeniusza Kwiatkowskiego",
                "addr:housenumber": "24",
                "addr:teryt:simc": 881160,
                "addr:teryt:sym_ul": 10559,
                "contact:phone": "+48 717152631",
                "contact:email": "biuro@przedszkolesportowakraina.pl",
                "ref:regon": "386952201",
                "operator": "\u0141ukasz Klujew",
                "operator:type": "private",
                "amenity": "kindergarten"
            }
        },
        {
            "id": 120651,
            "type": "Feature",
            "geometry": {
                "type": "Point",
                "coordinates": [
                    17.15298,
                    51.02869
                ]
            },
            "properties": {
                "ref:rspo": 120651,
                "official_name": "Niepubliczne Przedszkole \"Happy Kids\"",
                "name": "Niepubliczne Przedszkole \"Happy Kids\"",
                "addr:country": "PL",
                "addr:postcode": "55-011",
                "addr:city": "Siechnice",
                "addr:street": "Jarz\u0119binowa",
                "addr:housenumber": "23",
                "addr:teryt:simc": 881160,
                "addr:teryt:sym_ul": 7290,
                "contact:phone": "+48 502063412",
                "contact:email": "kontakt@happykids-siechnice.pl",
                "contact:website": "http:\/\/www.happykids-siechnice.pl",
                "ref:regon": "022276110",
                "operator": "Beata Saba\u0142a",
                "operator:type": "private",
                "amenity": "kindergarten"
            }
        },
        {
            "id": 269117,
            "type": "Feature",
            "geometry": {
                "type": "Point",
                "coordinates": [
                    17.05383,
                    51.03035
                ]
            },
            "properties": {
                "ref:rspo": 269117,
                "official_name": "Publiczne Przedszkole Wedanek",
                "name": "Publiczne Przedszkole Wedanek",
                "addr:country": "PL",
                "addr:postcode": "55-010",
                "addr:city": "\u017berniki Wroc\u0142awskie",
                "addr:street": "Wroc\u0142awska",
                "addr:housenumber": "35",
                "addr:teryt:simc": 881271,
                "addr:teryt:sym_ul": 24806,
                "contact:phone": "+48 661094662",
                "contact:email": "wedanek@gmail.com",
                "contact:website": "http:\/\/www.wedanek.pl",
                "ref:regon": "381381751",
                "operator": "Monika Mostowy - Hibner",
                "operator:type": "private",
                "amenity": "kindergarten"
            }
        },
        {
            "id": 85217,
            "type": "Feature",
            "geometry": {
                "type": "Point",
                "coordinates": [
                    17.064,
                    51.03075
                ]
            },
            "properties": {
                "ref:rspo": 85217,
                "official_name": "Przedszkole Publiczne w \u017bernikach Wroc\u0142awskich Z Integracyjnym Oddzia\u0142em Zamiejscowym w Iwinach",
                "name": "Przedszkole Publiczne w \u017bernikach Wroc\u0142awskich Z Integracyjnym Oddzia\u0142em Zamiejscowym w Iwinach",
                "addr:country": "PL",
                "addr:postcode": "55-010",
                "addr:city": "\u017berniki Wroc\u0142awskie",
                "addr:street": "Kolejowa",
                "addr:housenumber": "2",
                "addr:teryt:simc": 881271,
                "addr:teryt:sym_ul": 8828,
                "contact:phone": "+48 713113225",
                "contact:email": "dyrektor@przedszkole-zerniki.pl",
                "contact:website": "http:\/\/przedszkole-zerniki.edupage.org",
                "ref:regon": "933032414",
                "ref:vatin": "PL8961505969",
                "operator": "Gmina Siechnice",
                "operator:type": "government",
                "amenity": "kindergarten"
            }
        },
        {
            "id": 84978,
            "type": "Feature",
            "geometry": {
                "type": "Point",
                "coordinates": [
                    17.06018,
                    51.03116
                ]
            },
            "properties": {
                "isced:level": "1;2",
                "ref:rspo": 84978,
                "official_name": "Szko\u0142a Podstawowa im. \u015aw. Jadwigi \u015aL\u0105skiej w \u017bernikach Wroc\u0142awskich",
                "name": "Szko\u0142a Podstawowa",
                "addr:country": "PL",
                "addr:postcode": "55-010",
                "addr:city": "\u017berniki Wroc\u0142awskie",
                "addr:street": "Kolejowa",
                "addr:housenumber": "7a",
                "addr:teryt:simc": 881271,
                "addr:teryt:sym_ul": 8828,
                "contact:phone": "+48 713113219",
                "contact:email": "sp.zerniki.wr@interia.pl",
                "contact:website": "http:\/\/sp-zerniki-wr.pl\/",
                "ref:regon": "001181038",
                "ref:vatin": "PL8961343596",
                "operator": "Gmina Siechnice",
                "operator:type": "government",
                "amenity": "school"
            }
        },
        {
            "id": 127283,
            "type": "Feature",
            "geometry": {
                "type": "Point",
                "coordinates": [
                    17.15123,
                    51.03213
                ]
            },
            "properties": {
                "ref:rspo": 127283,
                "official_name": "Przedszkole Niepubliczne Supe\u0142ek",
                "name": "Przedszkole Niepubliczne Supe\u0142ek",
                "addr:country": "PL",
                "addr:postcode": "55-011",
                "addr:city": "Siechnice",
                "addr:street": "Jana Paw\u0142a II",
                "addr:housenumber": "25",
                "addr:door": "1",
                "addr:teryt:simc": 881160,
                "addr:teryt:sym_ul": 7123,
                "contact:phone": "+48 604972440",
                "contact:email": "biuro@supelek.net.pl",
                "contact:website": "http:\/\/www.supelek.net.pl",
                "ref:regon": "361339747",
                "operator": "Katarzyna Moczulska",
                "operator:type": "private",
                "amenity": "kindergarten"
            }
        },
        {
            "id": 84833,
            "type": "Feature",
            "geometry": {
                "type": "Point",
                "coordinates": [
                    17.14692,
                    51.03508
                ]
            },
            "properties": {
                "isced:level": "1;2",
                "ref:rspo": 84833,
                "official_name": "Szko\u0142a Podstawowa Nr 1 im. Miko\u0142aja Kopernika w Siechnicach",
                "name": "Szko\u0142a Podstawowa Nr 1",
                "addr:country": "PL",
                "addr:postcode": "55-011",
                "addr:city": "Siechnice",
                "addr:street": "Szkolna",
                "addr:housenumber": "4",
                "addr:teryt:simc": 881160,
                "addr:teryt:sym_ul": 21970,
                "contact:phone": "+48 713115880",
                "contact:email": "spsiechnice@interia.pl",
                "contact:website": "http:\/\/www.spsiechnice.pl\/",
                "ref:regon": "000572239",
                "ref:vatin": "PL8961368343",
                "operator": "Gmina Siechnice",
                "operator:type": "government",
                "amenity": "school"
            }
        },
        {
            "id": 277563,
            "type": "Feature",
            "geometry": {
                "type": "Point",
                "coordinates": [
                    17.14974,
                    51.03547
                ]
            },
            "properties": {
                "ref:rspo": 277563,
                "official_name": "Niepubliczne Przedszole Domek Biedronek",
                "name": "Niepubliczne Przedszole Domek Biedronek",
                "addr:country": "PL",
                "addr:postcode": "55-011",
                "addr:city": "Siechnice",
                "addr:street": "Piast\u00f3w \u015al\u0105skich",
                "addr:housenumber": "41",
                "addr:teryt:simc": 881160,
                "addr:teryt:sym_ul": 16060,
                "ref:regon": "389139890",
                "operator": "Danuta Witkowska",
                "operator:type": "private",
                "amenity": "kindergarten"
            }
        },
        {
            "id": 85285,
            "type": "Feature",
            "geometry": {
                "type": "Point",
                "coordinates": [
                    17.04514,
                    51.0445
                ]
            },
            "properties": {
                "ref:rspo": 85285,
                "official_name": "Przedszkole Niepubliczne \"Wsp\u00f3lny \u015awiat\" w Radomierzycach",
                "name": "Przedszkole Niepubliczne \"Wsp\u00f3lny \u015awiat\" w Radomierzycach",
                "addr:country": "PL",
                "addr:postcode": "55-010",
                "addr:city": "Radomierzyce",
                "addr:street": "Sadowa",
                "addr:housenumber": "8",
                "addr:teryt:simc": 881035,
                "addr:teryt:sym_ul": 19404,
                "contact:phone": "+48 501174592",
                "contact:email": "biuro@wpolnyswiat.com.pl",
                "ref:regon": "022011506",
                "operator": "Beata Dr\u00f3\u017cdz",
                "operator:type": "private",
                "amenity": "kindergarten"
            }
        },
        {
            "id": 132012,
            "type": "Feature",
            "geometry": {
                "type": "Point",
                "coordinates": [
                    17.04514,
                    51.04447
                ]
            },
            "properties": {
                "ref:rspo": 132012,
                "official_name": "Punkt Przedszkolny \"Wsp\u00f3lny \u015awiat\"",
                "name": "Punkt Przedszkolny \"Wsp\u00f3lny \u015awiat\"",
                "addr:country": "PL",
                "addr:postcode": "55-010",
                "addr:city": "Radomierzyce",
                "addr:street": "Sadowa",
                "addr:housenumber": "8",
                "addr:teryt:simc": 881035,
                "addr:teryt:sym_ul": 19404,
                "contact:phone": "+48 501174592",
                "contact:email": "biuro@wspolnyswiat.com.pl",
                "ref:regon": "365417869",
                "operator": "Beata Dr\u00f3\u017cdz",
                "operator:type": "private",
                "amenity": "kindergarten"
            }
        },
        {
            "id": 107021,
            "type": "Feature",
            "geometry": {
                "type": "Point",
                "coordinates": [
                    17.06348,
                    51.04776
                ]
            },
            "properties": {
                "ref:rspo": 107021,
                "official_name": "Niepubliczne Przedszkole \"Pimpu\u015b Sade\u0142ko\"",
                "name": "Niepubliczne Przedszkole \"Pimpu\u015b Sade\u0142ko\"",
                "addr:country": "PL",
                "addr:postcode": "52-116",
                "addr:city": "Iwiny",
                "addr:street": "\u015awi\u0119tego Judy Tadeusza",
                "addr:housenumber": "64,66",
                "addr:teryt:simc": 881087,
                "addr:teryt:sym_ul": 45183,
                "contact:phone": "+48 883428877",
                "contact:email": "rodowicz.marcin@o2.pl",
                "contact:website": "https:\/\/www.facebook.com\/pages\/category\/education\/przedszkole-pimpu%c5%9b-sade%c5%82ko-225597822141615\/",
                "ref:regon": "022056331",
                "operator": "Marcin Rodowicz",
                "operator:type": "private",
                "amenity": "kindergarten"
            }
        },
        {
            "id": 106951,
            "type": "Feature",
            "geometry": {
                "type": "Point",
                "coordinates": [
                    17.10066,
                    51.06299
                ]
            },
            "properties": {
                "ref:rspo": 106951,
                "official_name": "Przedszkole Niepubliczne Tuptusie",
                "name": "Przedszkole Niepubliczne Tuptusie",
                "addr:country": "PL",
                "addr:postcode": "55-010",
                "addr:city": "Radwanice",
                "addr:street": "Piastowska",
                "addr:housenumber": "2",
                "addr:teryt:simc": 881147,
                "addr:teryt:sym_ul": 16046,
                "contact:phone": "+48 608516758",
                "contact:email": "przedszkoletuptusie@gmail.com",
                "ref:regon": "022056207",
                "operator": "Katarzyna Honc",
                "operator:type": "private",
                "amenity": "kindergarten"
            }
        },
        {
            "id": 121517,
            "type": "Feature",
            "geometry": {
                "type": "Point",
                "coordinates": [
                    17.1823,
                    51.06894
                ]
            },
            "properties": {
                "ref:rspo": 121517,
                "official_name": "Niepubliczne Przedszkole Kolorowy K\u0105cik",
                "name": "Niepubliczne Przedszkole Kolorowy K\u0105cik",
                "addr:country": "PL",
                "addr:postcode": "55-010",
                "addr:city": "Radwanice",
                "addr:street": "Szkolna",
                "addr:housenumber": "27",
                "addr:teryt:simc": 881147,
                "addr:teryt:sym_ul": 21970,
                "contact:email": "kolorowy.kacik.radwanice@gmail.com",
                "contact:website": "http:\/\/www.kolorowykacik.pl",
                "ref:regon": "022331292",
                "operator": "Joanna Hara\u015b",
                "operator:type": "private",
                "amenity": "kindergarten"
            }
        },
        {
            "id": 268789,
            "type": "Feature",
            "geometry": {
                "type": "Point",
                "coordinates": [
                    16.995655059814,
                    51.127716064453
                ]
            },
            "properties": {
                "ref:rspo": 268789,
                "official_name": "Niepubliczne Przedszkole Kinder Jagodno",
                "name": "Niepubliczne Przedszkole Kinder Jagodno",
                "addr:country": "PL",
                "addr:postcode": "52-116",
                "addr:city": "Iwiny",
                "addr:street": "Franza Petera Schuberta",
                "addr:housenumber": "19B",
                "addr:teryt:simc": 881087,
                "addr:teryt:sym_ul": 45304,
                "contact:email": "kontakt@kinderjagodno.pl",
                "contact:website": "http:\/\/kinderjagodno.pl\/",
                "ref:regon": "381260817",
                "operator": "Eduarkadia Sp\u00f3\u0142ka Z Ograniczon\u0105 Odpowiedzialno\u015bci\u0105",
                "operator:type": "private",
                "amenity": "kindergarten"
            }
        },
        {
            "id": 84926,
            "type": "Feature",
            "geometry": {
                "type": "Point",
                "coordinates": [
                    15.93653,
                    51.57202
                ]
            },
            "properties": {
                "isced:level": "1;2",
                "ref:rspo": 84926,
                "official_name": "Szko\u0142a Podstawowa im. Jana Brzechwy w Radwanicach",
                "name": "Szko\u0142a Podstawowa",
                "addr:country": "PL",
                "addr:postcode": "55-010",
                "addr:city": "Radwanice",
                "addr:street": "Szkolna",
                "addr:housenumber": "14a",
                "addr:teryt:simc": 881147,
                "addr:teryt:sym_ul": 21970,
                "contact:phone": "+48 713117009",
                "contact:email": "radwanice-sekretariat@wp.pl",
                "contact:website": "http:\/\/www.spradwanice.pl\/",
                "ref:regon": "001268319",
                "ref:vatin": "PL8961341870",
                "operator": "Gmina Siechnice",
                "operator:type": "government",
                "amenity": "school"
            }
        }
    ]
}