{
    "type": "FeatureCollection",
    "features": [
        {
            "id": 92933,
            "type": "Feature",
            "geometry": {
                "type": "Point",
                "coordinates": [
                    17.037574,
                    50.927413
                ]
            },
            "properties": {
                "isced:level": "1;2",
                "ref:rspo": 92933,
                "official_name": "Szko\u0142a Podstawowa w W\u0119grach",
                "name": "Szko\u0142a Podstawowa w W\u0119grach",
                "addr:country": "PL",
                "addr:postcode": "55-020",
                "addr:city": "W\u0119gry",
                "addr:street": "Szkolna",
                "addr:housenumber": "2",
                "addr:teryt:simc": 21970,
                "addr:teryt:sym_ul": 884795,
                "contact:phone": "+48 713114825",
                "contact:email": "zsp5wegry2@wp.pl",
                "contact:website": "https:\/\/spwegry.edupage.org\/",
                "ref:regon": "932984957",
                "ref:vatin": "PL8961367875",
                "operator": "Gmina \u017b\u00f3rawina",
                "operator:type": "government",
                "amenity": "school"
            }
        },
        {
            "id": 92320,
            "type": "Feature",
            "geometry": {
                "type": "Point",
                "coordinates": [
                    17.0638,
                    50.9453699
                ]
            },
            "properties": {
                "isced:level": "1;2",
                "ref:rspo": 92320,
                "official_name": "Szko\u0142a Podstawowa im. Janusza Kusoci\u0144skiego w Polakowicach",
                "name": "Szko\u0142a Podstawowa",
                "addr:country": "PL",
                "addr:postcode": "55-020",
                "addr:city": "Polakowice",
                "addr:street": "Szkolna",
                "addr:housenumber": "5",
                "addr:teryt:simc": 21970,
                "addr:teryt:sym_ul": 884708,
                "contact:phone": "+48 713114829",
                "contact:email": "szkolapolakowice4@o2.pl",
                "contact:website": "http:\/\/sp.polakowice.szkolnastrona.pl",
                "ref:regon": "932915100",
                "operator": "Gmina \u017b\u00f3rawina",
                "operator:type": "government",
                "amenity": "school"
            }
        },
        {
            "id": 92318,
            "type": "Feature",
            "geometry": {
                "type": "Point",
                "coordinates": [
                    16.98393,
                    50.96807
                ]
            },
            "properties": {
                "isced:level": "1;2",
                "ref:rspo": 92318,
                "official_name": "Szko\u0142a Podstawowa im. Jana Paw\u0142a II w Wilczkowie",
                "name": "Szko\u0142a Podstawowa",
                "addr:country": "PL",
                "addr:postcode": "55-020",
                "addr:city": "Wilczk\u00f3w",
                "addr:street": "Miko\u0142aja Kopernika",
                "addr:housenumber": "29",
                "addr:teryt:simc": 9282,
                "addr:teryt:sym_ul": 884803,
                "contact:phone": "+48 713165039",
                "contact:email": "sekretariat@spwilczkow.pl",
                "contact:website": "http:\/\/spwilczkow.edupage.org",
                "ref:regon": "932903841",
                "operator": "Gmina \u017b\u00f3rawina",
                "operator:type": "government",
                "amenity": "school"
            }
        },
        {
            "id": 92840,
            "type": "Feature",
            "geometry": {
                "type": "Point",
                "coordinates": [
                    16.98017,
                    50.96889
                ]
            },
            "properties": {
                "isced:level": "1;2",
                "ref:rspo": 92840,
                "official_name": "Szko\u0142a Podstawowa im.boles\u0142awa Chrobrego w \u017b\u00f3rawinie",
                "name": "Szko\u0142a Podstawowa im.boles\u0142awa Chrobrego w \u017b\u00f3rawinie",
                "addr:country": "PL",
                "addr:postcode": "55-020",
                "addr:city": "\u017b\u00f3rawina",
                "addr:street": "Miko\u0142aja Kopernika",
                "addr:housenumber": "15",
                "addr:teryt:simc": 9282,
                "addr:teryt:sym_ul": 884849,
                "contact:phone": "+48 713165038",
                "contact:email": "zspnr1@poczta.onet.pl",
                "contact:website": "http:\/\/www.sp-zorawina.pl",
                "ref:regon": "932903870",
                "ref:vatin": "PL8961347329",
                "operator": "Gmina \u017b\u00f3rawina",
                "operator:type": "government",
                "amenity": "school"
            }
        },
        {
            "id": 92841,
            "type": "Feature",
            "geometry": {
                "type": "Point",
                "coordinates": [
                    17.04202,
                    50.98067
                ]
            },
            "properties": {
                "ref:rspo": 92841,
                "official_name": "Tup Tup Ma\u0142ych St\u00f3p",
                "name": "Tup Tup Ma\u0142ych St\u00f3p",
                "addr:country": "PL",
                "addr:postcode": "55-020",
                "addr:city": "\u017b\u00f3rawina",
                "addr:street": "Urz\u0119dnicza",
                "addr:housenumber": "4",
                "addr:teryt:simc": 23421,
                "addr:teryt:sym_ul": 884849,
                "contact:phone": "+48 713165464",
                "contact:website": "http:\/\/www.tuptupmalychstop.pl",
                "ref:regon": "022027683",
                "ref:vatin": "PL9141389789",
                "operator": "Dane Do Uzupe\u0142nienia",
                "operator:type": "private",
                "amenity": "kindergarten"
            }
        },
        {
            "id": 264352,
            "type": "Feature",
            "geometry": {
                "type": "Point",
                "coordinates": [
                    17.04202,
                    50.98064
                ]
            },
            "properties": {
                "ref:rspo": 264352,
                "official_name": "Tup Tup Ma\u0142ych St\u00f3p",
                "name": "Tup Tup Ma\u0142ych St\u00f3p",
                "addr:country": "PL",
                "addr:postcode": "55-020",
                "addr:city": "\u017b\u00f3rawina",
                "addr:street": "Urz\u0119dnicza",
                "addr:housenumber": "4b",
                "addr:teryt:simc": 23421,
                "addr:teryt:sym_ul": 884849,
                "contact:phone": "+48 713165464",
                "contact:email": "tuptupmalychstop@wp.pl",
                "contact:website": "http:\/\/www.tuptupmalychstop.pl",
                "ref:regon": "368322359",
                "ref:vatin": "PL9141389789",
                "operator": "Aleksandra Putek",
                "operator:type": "private",
                "amenity": "kindergarten"
            }
        },
        {
            "id": 269816,
            "type": "Feature",
            "geometry": {
                "type": "Point",
                "coordinates": [
                    17.00232,
                    50.98119
                ]
            },
            "properties": {
                "ref:rspo": 269816,
                "official_name": "Przedszkole Niepubliczne Szcze\u015bliwe Lata",
                "name": "Przedszkole Niepubliczne Szcze\u015bliwe Lata",
                "addr:country": "PL",
                "addr:postcode": "55-020",
                "addr:city": "Galowice",
                "addr:street": "Szcz\u0119\u015bliwa",
                "addr:housenumber": "3",
                "addr:teryt:simc": 21846,
                "addr:teryt:sym_ul": 884571,
                "contact:phone": "+48 513000401",
                "contact:email": "przedszkole@szczesliwelata.pl",
                "contact:website": "http:\/\/www.szczesliwelata.pl",
                "ref:regon": "381776700",
                "ref:vatin": "PL8821728310",
                "operator": "Tomasz Czarnik",
                "operator:type": "private",
                "amenity": "kindergarten"
            }
        },
        {
            "id": 92857,
            "type": "Feature",
            "geometry": {
                "type": "Point",
                "coordinates": [
                    17.04644,
                    50.98307
                ]
            },
            "properties": {
                "ref:rspo": 92857,
                "official_name": "Przedszkole w \u017b\u00f3rawinie",
                "name": "Przedszkole w \u017b\u00f3rawinie",
                "addr:country": "PL",
                "addr:postcode": "55-020",
                "addr:city": "\u017b\u00f3rawina",
                "addr:street": "Urz\u0119dnicza",
                "addr:housenumber": "18A",
                "addr:teryt:simc": 23421,
                "addr:teryt:sym_ul": 884849,
                "contact:phone": "+48 713165092",
                "contact:email": "przedszkolezorawina18@gmail.com",
                "ref:regon": "000924709",
                "ref:vatin": "PL8961347312",
                "operator": "Gmina \u017b\u00f3rawina",
                "operator:type": "government",
                "amenity": "kindergarten"
            }
        },
        {
            "id": 129910,
            "type": "Feature",
            "geometry": {
                "type": "Point",
                "coordinates": [
                    17.036,
                    50.98682
                ]
            },
            "properties": {
                "ref:rspo": 129910,
                "official_name": "\"T\u0119czowy Zak\u0105tek\" Marcin Zi\u00f3\u0142kowski",
                "name": "\"T\u0119czowy Zak\u0105tek\" Marcin Zi\u00f3\u0142kowski",
                "addr:country": "PL",
                "addr:postcode": "55-020",
                "addr:city": "\u017b\u00f3rawina",
                "addr:street": "Porzeczkowa",
                "addr:housenumber": "4",
                "addr:teryt:simc": 17226,
                "addr:teryt:sym_ul": 884849,
                "contact:phone": "+48 600938060",
                "contact:email": "teczowyzakatek@eprzedszkole.com",
                "contact:website": "http:\/\/www.teczowyzakatek.eprzedszkole.com",
                "ref:regon": "363077493",
                "ref:vatin": "PL8991128744",
                "operator": "Marcin Zi\u00f3\u0142kowski",
                "operator:type": "private",
                "amenity": "kindergarten"
            }
        },
        {
            "id": 92877,
            "type": "Feature",
            "geometry": {
                "type": "Point",
                "coordinates": [
                    17.01646,
                    51.0033699
                ]
            },
            "properties": {
                "isced:level": "1;2",
                "ref:rspo": 92877,
                "official_name": "Szko\u0142a Podstawowa im. Jana Paw\u0142a II w Rzeplinie",
                "name": "Szko\u0142a Podstawowa",
                "addr:country": "PL",
                "addr:postcode": "55-020",
                "addr:city": "Rzeplin",
                "addr:street": "Aleja Lipowa",
                "addr:housenumber": "46",
                "addr:teryt:simc": 11138,
                "addr:teryt:sym_ul": 884743,
                "contact:phone": "+48 713165042",
                "contact:email": "sekretariat@sprzeplin.pl",
                "contact:website": "http:\/\/sprzeplin.szkolnastrona.pl",
                "ref:regon": "932968579",
                "ref:vatin": "PL8961362010",
                "operator": "Gmina \u017b\u00f3rawina",
                "operator:type": "government",
                "amenity": "school"
            }
        }
    ]
}