{
    "type": "FeatureCollection",
    "features": [
        {
            "id": 272360,
            "type": "Feature",
            "geometry": {
                "type": "Point",
                "coordinates": [
                    16.79835,
                    50.87296
                ]
            },
            "properties": {
                "ref:rspo": 272360,
                "official_name": "Zesp\u00f3\u0142 Szkolno-Przedszkolny w \u015awi\u0105tnikach",
                "name": "Zesp\u00f3\u0142 Szkolno-Przedszkolny w \u015awi\u0105tnikach",
                "addr:country": "PL",
                "addr:postcode": "55-050",
                "addr:city": "\u015awi\u0105tniki",
                "addr:street": "Parkowa",
                "addr:housenumber": "6",
                "addr:teryt:simc": 15710,
                "addr:teryt:sym_ul": 880254,
                "contact:phone": "+48 713913611",
                "contact:email": "sp.swiatniki@wp.pl",
                "ref:regon": "384149865",
                "ref:vatin": "PL8961589009",
                "operator": "Gmina Sob\u00f3tka",
                "operator:type": "government",
                "landuse": "education",
                "fixme": "amenity=school, amenity=college albo landuse=education w zale\u017cno\u015bci od tego, jakie plac\u00f3wki wchodz\u0105 w sk\u0142ad zespo\u0142u. Sprawd\u017a, kiedy stosowa\u0107 amenity=* a kiedy landuse=education.",
                "note": "Children RSPO: 63436;272358"
            }
        },
        {
            "id": 63436,
            "type": "Feature",
            "geometry": {
                "type": "Point",
                "coordinates": [
                    16.79835,
                    50.87293
                ]
            },
            "properties": {
                "isced:level": "1;2",
                "ref:rspo": 63436,
                "official_name": "Szko\u0142a Podstawowa w \u015awi\u0105tnikach",
                "name": "Szko\u0142a Podstawowa w \u015awi\u0105tnikach",
                "addr:country": "PL",
                "addr:postcode": "55-050",
                "addr:city": "\u015awi\u0105tniki",
                "addr:street": "Parkowa",
                "addr:housenumber": "6",
                "addr:teryt:simc": 15710,
                "addr:teryt:sym_ul": 880254,
                "contact:phone": "+48 713162261",
                "contact:email": "sp.swiatniki@wp.pl",
                "contact:website": "http:\/\/www.spswiatniki@wp.pl",
                "ref:regon": "001180932",
                "ref:vatin": "PL8961281197",
                "operator": "Gmina Sob\u00f3tka",
                "operator:type": "government",
                "amenity": "school",
                "note": "Parent RSPO: 272360"
            }
        },
        {
            "id": 272358,
            "type": "Feature",
            "geometry": {
                "type": "Point",
                "coordinates": [
                    16.79835,
                    50.8729
                ]
            },
            "properties": {
                "ref:rspo": 272358,
                "official_name": "Przedszkole Publiczne w \u015awi\u0105tnikach",
                "name": "Przedszkole Publiczne w \u015awi\u0105tnikach",
                "addr:country": "PL",
                "addr:postcode": "55-050",
                "addr:city": "\u015awi\u0105tniki",
                "addr:street": "Parkowa",
                "addr:housenumber": "6",
                "addr:teryt:simc": 15710,
                "addr:teryt:sym_ul": 880254,
                "contact:phone": "+48 713913611",
                "contact:email": "sp.swiatniki@wp.pl",
                "ref:regon": "384149782",
                "operator": "Gmina Sob\u00f3tka",
                "operator:type": "government",
                "amenity": "kindergarten",
                "note": "Parent RSPO: 272360"
            }
        },
        {
            "id": 29127,
            "type": "Feature",
            "geometry": {
                "type": "Point",
                "coordinates": [
                    16.74362,
                    50.89608
                ]
            },
            "properties": {
                "ref:rspo": 29127,
                "official_name": "Powiatowy Zesp\u00f3\u0142 Szk\u00f3\u0142 Nr 3 w Sob\u00f3tce",
                "name": "Powiatowy Zesp\u00f3\u0142 Szk\u00f3\u0142 Nr 3 w Sob\u00f3tce",
                "addr:country": "PL",
                "addr:postcode": "55-050",
                "addr:city": "Sob\u00f3tka",
                "addr:street": "\u015awi\u0119tego Jakuba",
                "addr:housenumber": "20",
                "addr:teryt:simc": 7078,
                "addr:teryt:sym_ul": 987294,
                "contact:phone": "+48 713162300",
                "contact:email": "licsob@wp.pl",
                "contact:website": "http:\/\/www.pzs3.cba.pl",
                "ref:regon": "932824751",
                "ref:vatin": "PL8961294509",
                "operator": "Powiat Wroc\u0142awski",
                "operator:type": "government",
                "landuse": "education",
                "fixme": "amenity=school, amenity=college albo landuse=education w zale\u017cno\u015bci od tego, jakie plac\u00f3wki wchodz\u0105 w sk\u0142ad zespo\u0142u. Sprawd\u017a, kiedy stosowa\u0107 amenity=* a kiedy landuse=education.",
                "note": "Children RSPO: 35149;35239"
            }
        },
        {
            "id": 35149,
            "type": "Feature",
            "geometry": {
                "type": "Point",
                "coordinates": [
                    16.74362,
                    50.896049999999995
                ]
            },
            "properties": {
                "isced:level": "3",
                "ref:rspo": 35149,
                "official_name": "Liceum Og\u00f3lnokszta\u0142c\u0105ce w Sob\u00f3tce",
                "name": "Liceum Og\u00f3lnokszta\u0142c\u0105ce w Sob\u00f3tce",
                "addr:country": "PL",
                "addr:postcode": "55-050",
                "addr:city": "Sob\u00f3tka",
                "addr:street": "\u015awi\u0119tego Jakuba",
                "addr:housenumber": "20",
                "addr:teryt:simc": 7078,
                "addr:teryt:sym_ul": 987294,
                "contact:phone": "+48 713162300",
                "contact:email": "licsob@wp.pl",
                "ref:regon": "930372687",
                "operator": "Powiat Wroc\u0142awski",
                "operator:type": "government",
                "amenity": "school",
                "note": "Parent RSPO: 29127"
            }
        },
        {
            "id": 35239,
            "type": "Feature",
            "geometry": {
                "type": "Point",
                "coordinates": [
                    16.74362,
                    50.89602
                ]
            },
            "properties": {
                "isced:level": "3",
                "ref:rspo": 35239,
                "official_name": "Technikum w Sob\u00f3tce",
                "name": "Technikum w Sob\u00f3tce",
                "addr:country": "PL",
                "addr:postcode": "55-050",
                "addr:city": "Sob\u00f3tka",
                "addr:street": "\u015awi\u0119tego Jakuba",
                "addr:housenumber": "20",
                "addr:teryt:simc": 7078,
                "addr:teryt:sym_ul": 987294,
                "contact:phone": "+48 713162300",
                "contact:email": "licsob@wp.pl",
                "ref:regon": "021331841",
                "operator": "Powiat Wroc\u0142awski",
                "operator:type": "government",
                "amenity": "school",
                "note": "Parent RSPO: 29127"
            }
        },
        {
            "id": 31660,
            "type": "Feature",
            "geometry": {
                "type": "Point",
                "coordinates": [
                    16.73133,
                    50.89676
                ]
            },
            "properties": {
                "ref:rspo": 31660,
                "official_name": "M\u0142odzie\u017cowy O\u015brodek Wychowawczy w Sob\u00f3tce",
                "name": "M\u0142odzie\u017cowy O\u015brodek Wychowawczy w Sob\u00f3tce",
                "addr:country": "PL",
                "addr:postcode": "55-050",
                "addr:city": "Sob\u00f3tka",
                "addr:street": "S\u0142oneczna",
                "addr:housenumber": "31",
                "addr:teryt:simc": 20254,
                "addr:teryt:sym_ul": 987294,
                "contact:phone": "+48 717334541",
                "contact:email": "mowsobadm@interia.pl",
                "contact:website": "http:\/\/mow.sobotka.pl",
                "ref:regon": "000230450",
                "ref:vatin": "PL8961020048",
                "operator": "Powiat Wroc\u0142awski",
                "operator:type": "government",
                "fixme": "amenity=social_facility + social_facility=group_home + social_facility:for=juvenile",
                "note": "Children RSPO: 34910;126075"
            }
        },
        {
            "id": 34910,
            "type": "Feature",
            "geometry": {
                "type": "Point",
                "coordinates": [
                    16.73133,
                    50.89673
                ]
            },
            "properties": {
                "isced:level": "3",
                "ref:rspo": 34910,
                "official_name": "Szko\u0142a Bran\u017cowa I Stopnia Specjalna w Sob\u00f3tce",
                "name": "Szko\u0142a Bran\u017cowa I Stopnia Specjalna w Sob\u00f3tce",
                "addr:country": "PL",
                "addr:postcode": "55-050",
                "addr:city": "Sob\u00f3tka",
                "addr:street": "S\u0142oneczna",
                "addr:housenumber": "31",
                "addr:teryt:simc": 20254,
                "addr:teryt:sym_ul": 987294,
                "contact:phone": "+48 717334541",
                "contact:email": "mowsobadm@interia.pl",
                "contact:website": "http:\/\/mow.sobotka.pl",
                "ref:regon": "001101335",
                "operator": "Powiat Wroc\u0142awski",
                "operator:type": "government",
                "amenity": "school",
                "note": "Parent RSPO: 31660"
            }
        },
        {
            "id": 126075,
            "type": "Feature",
            "geometry": {
                "type": "Point",
                "coordinates": [
                    16.73133,
                    50.8967
                ]
            },
            "properties": {
                "isced:level": "1;2",
                "ref:rspo": 126075,
                "official_name": "Szko\u0142a Podstawowa Specjalna Przy M\u0142odzie\u017cowym O\u015brodku Wychowawczym",
                "name": "Szko\u0142a Podstawowa Specjalna Przy M\u0142odzie\u017cowym O\u015brodku Wychowawczym",
                "addr:country": "PL",
                "addr:postcode": "55-050",
                "addr:city": "Sob\u00f3tka",
                "addr:street": "S\u0142oneczna",
                "addr:housenumber": "31",
                "addr:teryt:simc": 20254,
                "addr:teryt:sym_ul": 987294,
                "contact:phone": "+48 717334541",
                "contact:email": "mowsobadm@interia.pl",
                "contact:website": "http:\/\/www.mow.sobotka.pl",
                "ref:regon": "001012413",
                "operator": "Powiat Wroc\u0142awski",
                "operator:type": "government",
                "amenity": "school",
                "note": "Parent RSPO: 31660"
            }
        },
        {
            "id": 81048,
            "type": "Feature",
            "geometry": {
                "type": "Point",
                "coordinates": [
                    16.73397,
                    50.89797
                ]
            },
            "properties": {
                "ref:rspo": 81048,
                "official_name": "Przedszkole Nr 1 w Sob\u00f3tce",
                "name": "Przedszkole Nr 1 w Sob\u00f3tce",
                "addr:country": "PL",
                "addr:postcode": "55-050",
                "addr:city": "Sob\u00f3tka",
                "addr:street": "S\u0142oneczna",
                "addr:housenumber": "34",
                "addr:teryt:simc": 20254,
                "addr:teryt:sym_ul": 987294,
                "contact:phone": "+48 713162914",
                "contact:email": "przedszkole1sobotka@gmail.com",
                "contact:website": "http:\/\/przedszkole1sobotka.szkolnastrona.pl\/index.php",
                "ref:regon": "021410405",
                "ref:vatin": "PL8961512225",
                "operator": "Gmina Sob\u00f3tka",
                "operator:type": "government",
                "amenity": "kindergarten"
            }
        },
        {
            "id": 272348,
            "type": "Feature",
            "geometry": {
                "type": "Point",
                "coordinates": [
                    16.7386,
                    50.89967
                ]
            },
            "properties": {
                "ref:rspo": 272348,
                "official_name": "Zesp\u00f3\u0142 Szkolno-Przedszkolny im. Janusza Korczaka w Sob\u00f3tce",
                "name": "Zesp\u00f3\u0142 Szkolno-Przedszkolny",
                "addr:country": "PL",
                "addr:postcode": "55-050",
                "addr:city": "Sob\u00f3tka",
                "addr:street": "\u015awidnicka",
                "addr:housenumber": "20, 20A",
                "addr:teryt:simc": 22461,
                "addr:teryt:sym_ul": 987294,
                "contact:phone": "+48 713162565",
                "contact:email": "info@sp1sobotka.pl",
                "ref:regon": "384149894",
                "ref:vatin": "PL8961588949",
                "operator": "Gmina Sob\u00f3tka",
                "operator:type": "government",
                "landuse": "education",
                "fixme": "amenity=school, amenity=college albo landuse=education w zale\u017cno\u015bci od tego, jakie plac\u00f3wki wchodz\u0105 w sk\u0142ad zespo\u0142u. Sprawd\u017a, kiedy stosowa\u0107 amenity=* a kiedy landuse=education.",
                "note": "Children RSPO: 63437;272346"
            }
        },
        {
            "id": 63437,
            "type": "Feature",
            "geometry": {
                "type": "Point",
                "coordinates": [
                    16.7386,
                    50.89964
                ]
            },
            "properties": {
                "isced:level": "1;2",
                "ref:rspo": 63437,
                "official_name": "Szko\u0142a Podstawowa Nr 1 im. Janusza Korczaka",
                "name": "Szko\u0142a Podstawowa Nr 1",
                "addr:country": "PL",
                "addr:postcode": "55-050",
                "addr:city": "Sob\u00f3tka",
                "addr:street": "\u015awidnicka",
                "addr:housenumber": "20, 20A",
                "addr:teryt:simc": 22461,
                "addr:teryt:sym_ul": 987294,
                "contact:phone": "+48 713162565",
                "contact:email": "info@sp1sobotka.pl",
                "contact:website": "http:\/\/www.sp1sobotka.pl\/",
                "ref:regon": "000263053",
                "ref:vatin": "PL8961281174",
                "operator": "Gmina Sob\u00f3tka",
                "operator:type": "government",
                "amenity": "school",
                "note": "Parent RSPO: 272348"
            }
        },
        {
            "id": 272346,
            "type": "Feature",
            "geometry": {
                "type": "Point",
                "coordinates": [
                    16.7386,
                    50.89961
                ]
            },
            "properties": {
                "ref:rspo": 272346,
                "official_name": "Przedszkole Publiczne Nr 2 w Sob\u00f3tce",
                "name": "Przedszkole Publiczne Nr 2 w Sob\u00f3tce",
                "addr:country": "PL",
                "addr:postcode": "55-050",
                "addr:city": "Sob\u00f3tka",
                "addr:street": "\u015awidnicka",
                "addr:housenumber": "20, 20A",
                "addr:teryt:simc": 22461,
                "addr:teryt:sym_ul": 987294,
                "contact:phone": "+48 713162565",
                "contact:email": "info@sp1sobotka.pl",
                "ref:regon": "384149888",
                "operator": "Gmina Sob\u00f3tka",
                "operator:type": "government",
                "amenity": "kindergarten",
                "note": "Parent RSPO: 272348"
            }
        },
        {
            "id": 73744,
            "type": "Feature",
            "geometry": {
                "type": "Point",
                "coordinates": [
                    16.7045,
                    50.89973
                ]
            },
            "properties": {
                "isced:level": "1;2",
                "ref:rspo": 73744,
                "official_name": "Szko\u0142a Podstawowa Nr 2 im. Marii Sk\u0142odowskiej -Curie",
                "name": "Szko\u0142a Podstawowa Nr 2",
                "addr:country": "PL",
                "addr:postcode": "55-050",
                "addr:city": "Sob\u00f3tka",
                "addr:street": "Marii Sk\u0142odowskiej-Curie",
                "addr:housenumber": "19",
                "addr:teryt:simc": 20068,
                "addr:teryt:sym_ul": 987294,
                "contact:phone": "+48 713330312",
                "contact:email": "sp2sobotka@gazeta.pl",
                "contact:website": "http:\/\/www.sp2.sobotka.pl\/",
                "ref:regon": "000701949",
                "ref:vatin": "PL8961281168",
                "operator": "Gmina Sob\u00f3tka",
                "operator:type": "government",
                "amenity": "school"
            }
        },
        {
            "id": 126481,
            "type": "Feature",
            "geometry": {
                "type": "Point",
                "coordinates": [
                    16.74909,
                    50.90144
                ]
            },
            "properties": {
                "ref:rspo": 126481,
                "official_name": "Niepubliczny Punkt Przedszkolny \"Misiowa Chatka\"",
                "name": "Niepubliczny Punkt Przedszkolny \"Misiowa Chatka\"",
                "addr:country": "PL",
                "addr:postcode": "55-050",
                "addr:city": "Sob\u00f3tka",
                "addr:street": "Czere\u015bniowa",
                "addr:housenumber": "5",
                "addr:teryt:simc": 3376,
                "addr:teryt:sym_ul": 987294,
                "contact:phone": "+48 713162571",
                "contact:email": "anetakuriata@op.pl",
                "contact:website": "http:\/\/www.misowachatka.sobotka.pl",
                "ref:regon": "360400203",
                "ref:vatin": "PL8961232738",
                "operator": "Tomasz Kuriata",
                "operator:type": "private",
                "amenity": "kindergarten"
            }
        },
        {
            "id": 69346,
            "type": "Feature",
            "geometry": {
                "type": "Point",
                "coordinates": [
                    16.83352,
                    50.92584
                ]
            },
            "properties": {
                "isced:level": "1;2",
                "ref:rspo": 69346,
                "official_name": "Niepubliczna Szko\u0142a Podstawowa Z Oddzia\u0142ami Integracyjnymi w R\u0119kowie",
                "name": "Niepubliczna Szko\u0142a Podstawowa Z Oddzia\u0142ami Integracyjnymi w R\u0119kowie",
                "addr:country": "PL",
                "addr:postcode": "55-050",
                "addr:city": "R\u0119k\u00f3w",
                "addr:street": "Nas\u0142awicka",
                "addr:housenumber": "21",
                "addr:teryt:simc": 14029,
                "addr:teryt:sym_ul": 880165,
                "contact:phone": "+48 713162691",
                "contact:email": "biuro@stowarzyszenie-aktywni.pl",
                "contact:website": "http:\/\/stowarzyszenie-aktywni.pl\/",
                "ref:regon": "022007657",
                "ref:vatin": "PL8961551343",
                "operator": "Aktywni - Stowarzyszenie Wsparcia I Rozwoju Regionu",
                "operator:type": "ngo",
                "amenity": "school"
            }
        },
        {
            "id": 69804,
            "type": "Feature",
            "geometry": {
                "type": "Point",
                "coordinates": [
                    16.83352,
                    50.92581
                ]
            },
            "properties": {
                "ref:rspo": 69804,
                "official_name": "Niepubliczny Punkt Przedszkolny w R\u0119kowie \"Ma\u0142e Przedszkole\"",
                "name": "Niepubliczny Punkt Przedszkolny w R\u0119kowie \"Ma\u0142e Przedszkole\"",
                "addr:country": "PL",
                "addr:postcode": "55-050",
                "addr:city": "R\u0119k\u00f3w",
                "addr:street": "Nas\u0142awicka",
                "addr:housenumber": "21",
                "addr:teryt:simc": 14029,
                "addr:teryt:sym_ul": 880165,
                "contact:phone": "+48 713162691",
                "contact:email": "biuro@stowarzyszenie-aktywni.pl",
                "contact:website": "http:\/\/www.stowarzyszenie-aktywni.pl\/",
                "ref:regon": "022007210",
                "ref:vatin": "PL8961521833",
                "operator": "Aktywni - Stowarzyszenie Wsparcia I Rozwoju Regionu",
                "operator:type": "ngo",
                "amenity": "kindergarten"
            }
        },
        {
            "id": 272356,
            "type": "Feature",
            "geometry": {
                "type": "Point",
                "coordinates": [
                    16.7610199,
                    50.92713
                ]
            },
            "properties": {
                "ref:rspo": 272356,
                "official_name": "Zesp\u00f3\u0142 Szkolno-Przedszkolny im. Marii Konopnickiej w Rogowie Sob\u00f3ckim",
                "name": "Zesp\u00f3\u0142 Szkolno-Przedszkolny",
                "addr:country": "PL",
                "addr:postcode": "55-050",
                "addr:city": "Rog\u00f3w Sob\u00f3cki",
                "addr:street": "Szkolna",
                "addr:housenumber": "7",
                "addr:teryt:simc": 21970,
                "addr:teryt:sym_ul": 880171,
                "contact:phone": "+48 713162649",
                "contact:email": "dyrekcja@sprogow.sobotka.pl",
                "contact:website": "https:\/\/sprogow-sobotka.edupage.org",
                "ref:regon": "384149701",
                "ref:vatin": "PL8961589015",
                "operator": "Gmina Sob\u00f3tka",
                "operator:type": "government",
                "landuse": "education",
                "fixme": "amenity=school, amenity=college albo landuse=education w zale\u017cno\u015bci od tego, jakie plac\u00f3wki wchodz\u0105 w sk\u0142ad zespo\u0142u. Sprawd\u017a, kiedy stosowa\u0107 amenity=* a kiedy landuse=education.",
                "note": "Children RSPO: 73745;272353"
            }
        },
        {
            "id": 73745,
            "type": "Feature",
            "geometry": {
                "type": "Point",
                "coordinates": [
                    16.7610199,
                    50.927099999999996
                ]
            },
            "properties": {
                "isced:level": "1;2",
                "ref:rspo": 73745,
                "official_name": "Szko\u0142a Podstawowa im. Marii Konopnickiej w Rogowie Sob\u00f3ckim",
                "name": "Szko\u0142a Podstawowa",
                "addr:country": "PL",
                "addr:postcode": "55-050",
                "addr:city": "Rog\u00f3w Sob\u00f3cki",
                "addr:street": "Szkolna",
                "addr:housenumber": "7",
                "addr:teryt:simc": 21970,
                "addr:teryt:sym_ul": 880171,
                "contact:phone": "+48 713162649",
                "contact:email": "dyrekcja@sprogow.sobotka.pl",
                "contact:website": "http:\/\/sprogow-sobotka.edupage.org",
                "ref:regon": "001180903",
                "ref:vatin": "PL8961281180",
                "operator": "Gmina Sob\u00f3tka",
                "operator:type": "government",
                "amenity": "school",
                "note": "Parent RSPO: 272356"
            }
        },
        {
            "id": 272353,
            "type": "Feature",
            "geometry": {
                "type": "Point",
                "coordinates": [
                    16.7610199,
                    50.92707
                ]
            },
            "properties": {
                "ref:rspo": 272353,
                "official_name": "Przedszkole Publiczne w Rogowie Sob\u00f3ckim",
                "name": "Przedszkole Publiczne w Rogowie Sob\u00f3ckim",
                "addr:country": "PL",
                "addr:postcode": "55-050",
                "addr:city": "Rog\u00f3w Sob\u00f3cki",
                "addr:street": "Szkolna",
                "addr:housenumber": "7",
                "addr:teryt:simc": 21970,
                "addr:teryt:sym_ul": 880171,
                "contact:phone": "+48 713162649",
                "contact:email": "dyrekcja@sprogow.sobotka.pl",
                "contact:website": "https:\/\/sprogow-sobotka.edupage.org",
                "ref:regon": "384149635",
                "operator": "Gmina Sob\u00f3tka",
                "operator:type": "government",
                "amenity": "kindergarten",
                "note": "Parent RSPO: 272356"
            }
        },
        {
            "id": 276285,
            "type": "Feature",
            "geometry": {
                "type": "Point",
                "coordinates": [
                    16.66106,
                    50.95414
                ]
            },
            "properties": {
                "ref:rspo": 276285,
                "official_name": "Punkt Przedszkolny \"Bajkolandia\"",
                "name": "Punkt Przedszkolny \"Bajkolandia\"",
                "addr:country": "PL",
                "addr:postcode": "55-050",
                "addr:city": "Sob\u00f3tka",
                "addr:street": "Panoramy \u015al\u0119\u017ca\u0144skiej",
                "addr:housenumber": "33",
                "addr:teryt:simc": 45010,
                "addr:teryt:sym_ul": 987294,
                "contact:phone": "+48 784458108",
                "contact:email": "paulina-laskarzewska@wp.pl",
                "ref:regon": "387072471",
                "operator": "Paulina \u0141askarzewska",
                "operator:type": "private",
                "amenity": "kindergarten"
            }
        }
    ]
}