{
    "type": "FeatureCollection",
    "features": [
        {
            "id": 51293,
            "type": "Feature",
            "geometry": {
                "type": "Point",
                "coordinates": [
                    16.8807,
                    50.90599
                ]
            },
            "properties": {
                "isced:level": "1;2",
                "ref:rspo": 51293,
                "official_name": "Szko\u0142a Podstawowa w Pustkowie Wilczkowskim",
                "name": "Szko\u0142a Podstawowa w Pustkowie Wilczkowskim",
                "addr:postcode": "55-040",
                "addr:city": "Pustk\u00f3w Wilczkowski",
                "addr:street": "K\u0142odzka",
                "addr:housenumber": "2",
                "addr:city:simc": 875543,
                "addr:street:sym_ul": 8622,
                "phone": "+48 713118391",
                "email": "szkolapustkowwilcz@gmail.com",
                "website": "http:\/\/www.sppustkowwilcz.szkolnastrona.pl",
                "ref:regon": "001181720",
                "ref:vatin": "PL8961294521",
                "operator": "Gmina Kobierzyce",
                "operator:type": "government",
                "amenity": "school"
            }
        },
        {
            "id": 89337,
            "type": "Feature",
            "geometry": {
                "type": "Point",
                "coordinates": [
                    16.8807,
                    50.90596
                ]
            },
            "properties": {
                "ref:rspo": 89337,
                "official_name": "Punkt Przedszkolny w Szkole Podstawowej w Pustkowie Wilczkowskim",
                "name": "Punkt Przedszkolny w Szkole Podstawowej w Pustkowie Wilczkowskim",
                "addr:postcode": "55-040",
                "addr:city": "Pustk\u00f3w Wilczkowski",
                "addr:street": "K\u0142odzka",
                "addr:housenumber": "2",
                "addr:city:simc": 875543,
                "addr:street:sym_ul": 8622,
                "phone": "+48 713118391",
                "email": "szkolapustkowwilcz@gmail.com",
                "website": "http:\/\/sppustkowwilcz.szkolnastrona.pl",
                "ref:regon": "022013971",
                "operator": "Gmina Kobierzyce",
                "operator:type": "government",
                "amenity": "kindergarten"
            }
        },
        {
            "id": 21741,
            "type": "Feature",
            "geometry": {
                "type": "Point",
                "coordinates": [
                    16.89204,
                    50.95385
                ]
            },
            "properties": {
                "ref:rspo": 21741,
                "official_name": "Zesp\u00f3\u0142 Szk\u00f3\u0142 Specjalnych im. \u015aw. Ks. Zygmunta Gorazdowskiego w Wierzbicach",
                "name": "Zesp\u00f3\u0142 Szk\u00f3\u0142 Specjalnych",
                "addr:postcode": "55-040",
                "addr:city": "Wierzbice",
                "addr:street": "Lipowa",
                "addr:housenumber": "44",
                "addr:city:simc": 875649,
                "addr:street:sym_ul": 11139,
                "phone": "+48 713908778",
                "email": "gimnazjumwierzbice@wp.pl",
                "website": "http:\/\/zsswierzbice.szkolnastrona.pl",
                "ref:regon": "932633927",
                "ref:vatin": "PL8961297057",
                "operator": "Powiat Wroc\u0142awski",
                "operator:type": "government",
                "landuse": "education",
                "fixme": "amenity=school, amenity=college albo landuse=education w zale\u017cno\u015bci od tego, jakie plac\u00f3wki wchodz\u0105 w sk\u0142ad zespo\u0142u. Sprawd\u017a, kiedy stosowa\u0107 amenity=* a kiedy landuse=education.",
                "note": "Children RSPO: 31699;31703"
            }
        },
        {
            "id": 119253,
            "type": "Feature",
            "geometry": {
                "type": "Point",
                "coordinates": [
                    16.89204,
                    50.95382
                ]
            },
            "properties": {
                "ref:rspo": 119253,
                "official_name": "Zesp\u00f3\u0142 Plac\u00f3wek O\u015bwiatowych Prowadzony Przez Zgromadzenie Si\u00f3str \u015aw. J\u00f3zefa",
                "name": "Zesp\u00f3\u0142 Plac\u00f3wek O\u015bwiatowych Prowadzony Przez Zgromadzenie Si\u00f3str \u015aw. J\u00f3zefa",
                "addr:postcode": "55-040",
                "addr:city": "Wierzbice",
                "addr:street": "Lipowa",
                "addr:housenumber": "44",
                "addr:city:simc": 875649,
                "addr:street:sym_ul": 11139,
                "phone": "+48 713908832",
                "email": "orw.wierzbice@gmail.com",
                "ref:regon": "022228460",
                "operator": "Zgromadzenie Si\u00f3str \u015aw. J\u00f3zefa, Prowincja Wroc\u0142awska",
                "operator:type": "religious",
                "landuse": "education",
                "fixme": "amenity=school, amenity=college albo landuse=education w zale\u017cno\u015bci od tego, jakie plac\u00f3wki wchodz\u0105 w sk\u0142ad zespo\u0142u. Sprawd\u017a, kiedy stosowa\u0107 amenity=* a kiedy landuse=education.",
                "note": "Children RSPO: 22081;119142"
            }
        },
        {
            "id": 31699,
            "type": "Feature",
            "geometry": {
                "type": "Point",
                "coordinates": [
                    16.89204,
                    50.953790000000005
                ]
            },
            "properties": {
                "isced:level": "1;2",
                "ref:rspo": 31699,
                "official_name": "Szko\u0142a Podstawowa Specjalna w Wierzbicach",
                "name": "Szko\u0142a Podstawowa Specjalna w Wierzbicach",
                "addr:postcode": "55-040",
                "addr:city": "Wierzbice",
                "addr:street": "Lipowa",
                "addr:housenumber": "44",
                "addr:city:simc": 875649,
                "addr:street:sym_ul": 11139,
                "phone": "+48 713908778",
                "email": "gimnazjumwierzbice@wp.pl",
                "ref:regon": "000704400",
                "operator": "Powiat Wroc\u0142awski",
                "operator:type": "government",
                "amenity": "school",
                "note": "Parent RSPO: 21741"
            }
        },
        {
            "id": 31703,
            "type": "Feature",
            "geometry": {
                "type": "Point",
                "coordinates": [
                    16.89204,
                    50.95376
                ]
            },
            "properties": {
                "isced:level": "3",
                "ref:rspo": 31703,
                "official_name": "Liceum Og\u00f3lnokszta\u0142c\u0105ce Specjalne w Wierzbicach",
                "name": "Liceum Og\u00f3lnokszta\u0142c\u0105ce Specjalne w Wierzbicach",
                "addr:postcode": "55-040",
                "addr:city": "Wierzbice",
                "addr:street": "Lipowa",
                "addr:housenumber": "44",
                "addr:city:simc": 875649,
                "addr:street:sym_ul": 11139,
                "phone": "+48 713908778",
                "email": "gimnazjumwierzbice@wp.pl",
                "ref:regon": "020350530",
                "operator": "Powiat Wroc\u0142awski",
                "operator:type": "government",
                "amenity": "school",
                "note": "Parent RSPO: 21741"
            }
        },
        {
            "id": 22081,
            "type": "Feature",
            "geometry": {
                "type": "Point",
                "coordinates": [
                    16.89204,
                    50.95373
                ]
            },
            "properties": {
                "ref:rspo": 22081,
                "official_name": "Specjalny O\u015brodek Wychowawczyprowadzony Przez Zgromadzenie Si\u00f3str \u015aw. J\u00f3zefa",
                "name": "Specjalny O\u015brodek Wychowawczyprowadzony Przez Zgromadzenie Si\u00f3str \u015aw. J\u00f3zefa",
                "addr:postcode": "55-040",
                "addr:city": "Wierzbice",
                "addr:street": "Lipowa",
                "addr:housenumber": "44",
                "addr:city:simc": 875649,
                "addr:street:sym_ul": 11139,
                "phone": "+48 713908832",
                "email": "sow.wierzbice@gmail.com",
                "website": "http:\/\/www.wierzbice.jozefitki.pl\/",
                "ref:regon": "021979565",
                "operator": "Zgromadzenie Si\u00f3str \u015aw. J\u00f3zefa, Prowincja Wroc\u0142awska",
                "operator:type": "religious",
                "amenity": "social_facility",
                "social_facility": "group_home",
                "social_facility:for": "child;juvenile",
                "note": "Parent RSPO: 119253"
            }
        },
        {
            "id": 119142,
            "type": "Feature",
            "geometry": {
                "type": "Point",
                "coordinates": [
                    16.89204,
                    50.953700000000005
                ]
            },
            "properties": {
                "ref:rspo": 119142,
                "official_name": "O\u015brodek Rewalidacyjno-Wychowawczy Prowadzony Prze Zgromadzenie \u015aI\u00f3str \u015aw. J\u00f3zefa",
                "name": "O\u015brodek Rewalidacyjno-Wychowawczy Prowadzony Prze Zgromadzenie \u015aI\u00f3str \u015aw. J\u00f3zefa",
                "addr:postcode": "55-040",
                "addr:city": "Wierzbice",
                "addr:street": "Lipowa",
                "addr:housenumber": "44",
                "addr:city:simc": 875649,
                "addr:street:sym_ul": 11139,
                "phone": "+48 713908832",
                "email": "orw.wierzbice@gmail.com",
                "ref:regon": "022220138",
                "operator": "Zgromadzenie Si\u00f3str \u015aw. J\u00f3zefa, Prowincja Wroc\u0142awska",
                "operator:type": "religious",
                "amenity": "school",
                "note": "Parent RSPO: 119253"
            }
        },
        {
            "id": 118546,
            "type": "Feature",
            "geometry": {
                "type": "Point",
                "coordinates": [
                    16.8592799,
                    50.959
                ]
            },
            "properties": {
                "ref:rspo": 118546,
                "official_name": "Zesp\u00f3\u0142 Szkolno-Przedszkolny w Pustkowie \u017burawskim",
                "name": "Zesp\u00f3\u0142 Szkolno-Przedszkolny w Pustkowie \u017burawskim",
                "addr:postcode": "55-040",
                "addr:city": "Pustk\u00f3w \u017burawski",
                "addr:street": "Kolejowa",
                "addr:housenumber": "46",
                "addr:city:simc": 875550,
                "addr:street:sym_ul": 8828,
                "phone": "+48 713908580",
                "email": "sppz@zsppustkow.pl",
                "website": "http:\/\/zsp.pustkow.szkolnastrona.pl",
                "ref:regon": "022204990",
                "operator": "Gmina Kobierzyce",
                "operator:type": "government",
                "landuse": "education",
                "fixme": "amenity=school, amenity=college albo landuse=education w zale\u017cno\u015bci od tego, jakie plac\u00f3wki wchodz\u0105 w sk\u0142ad zespo\u0142u. Sprawd\u017a, kiedy stosowa\u0107 amenity=* a kiedy landuse=education.",
                "note": "Children RSPO: 70078;83767"
            }
        },
        {
            "id": 70078,
            "type": "Feature",
            "geometry": {
                "type": "Point",
                "coordinates": [
                    16.8592799,
                    50.95897
                ]
            },
            "properties": {
                "isced:level": "1;2",
                "ref:rspo": 70078,
                "official_name": "Szko\u0142a Podstawowa im. Romualda Traugutta w Pustkowie \u017burawskim",
                "name": "Szko\u0142a Podstawowa",
                "addr:postcode": "55-040",
                "addr:city": "Pustk\u00f3w \u017burawski",
                "addr:street": "Kolejowa",
                "addr:housenumber": "46",
                "addr:city:simc": 875550,
                "addr:street:sym_ul": 8828,
                "phone": "+48 713908580",
                "email": "sppz@zsppustkow.pl",
                "website": "http:\/\/zsp.pustkow.szkolnastrona.pl",
                "ref:regon": "001181699",
                "ref:vatin": "PL8961295472",
                "operator": "Gmina Kobierzyce",
                "operator:type": "government",
                "amenity": "school",
                "note": "Parent RSPO: 118546"
            }
        },
        {
            "id": 83767,
            "type": "Feature",
            "geometry": {
                "type": "Point",
                "coordinates": [
                    16.8592799,
                    50.958940000000005
                ]
            },
            "properties": {
                "ref:rspo": 83767,
                "official_name": "Przedszkole Samorz\u0105dowe w Pustkowie \u017burawskim",
                "name": "Przedszkole Samorz\u0105dowe w Pustkowie \u017burawskim",
                "addr:postcode": "55-040",
                "addr:city": "Pustk\u00f3w \u017burawski",
                "addr:street": "Kolejowa",
                "addr:housenumber": "46",
                "addr:city:simc": 875550,
                "addr:street:sym_ul": 8828,
                "phone": "+48 713908580",
                "email": "sppz@zsppustkow.pl",
                "website": "http:\/\/zsp.pustkow.szkolnastrona.pl",
                "ref:regon": "930304912",
                "ref:vatin": "PL8961294544",
                "operator": "Gmina Kobierzyce",
                "operator:type": "government",
                "amenity": "kindergarten",
                "note": "Parent RSPO: 118546"
            }
        },
        {
            "id": 89284,
            "type": "Feature",
            "geometry": {
                "type": "Point",
                "coordinates": [
                    16.92765,
                    50.96826
                ]
            },
            "properties": {
                "ref:rspo": 89284,
                "official_name": "Przedszkole Samorz\u0105dowe w Kobierzycach",
                "name": "Przedszkole Samorz\u0105dowe w Kobierzycach",
                "addr:postcode": "55-040",
                "addr:city": "Kobierzyce",
                "addr:street": "Robotnicza",
                "addr:housenumber": "19",
                "addr:city:simc": 875425,
                "addr:street:sym_ul": 18695,
                "phone": "+48 713111241",
                "email": "sekretariat@przedszkolekobierzyce.pl",
                "website": "http:\/\/www.przedszkole-kobierzyce.pl",
                "ref:regon": "000925519",
                "ref:vatin": "PL8961299949",
                "operator": "Gmina Kobierzyce",
                "operator:type": "government",
                "amenity": "kindergarten"
            }
        },
        {
            "id": 21745,
            "type": "Feature",
            "geometry": {
                "type": "Point",
                "coordinates": [
                    16.87792,
                    50.99573
                ]
            },
            "properties": {
                "ref:rspo": 21745,
                "official_name": "Powiatowy Zesp\u00f3\u0142 Szk\u00f3\u0142 nr 1 w Krzy\u017cowicach",
                "name": "Powiatowy Zesp\u00f3\u0142 Szk\u00f3\u0142 nr 1 w Krzy\u017cowicach",
                "addr:postcode": "55-040",
                "addr:city": "Krzy\u017cowice",
                "addr:street": "G\u0142\u00f3wna",
                "addr:housenumber": "2",
                "addr:city:simc": 875448,
                "addr:street:sym_ul": 5635,
                "phone": "+48 713118479",
                "email": "sekretariat@pzs-krzyzowice.wroc.pl",
                "website": "http:\/\/www.pzs-krzyzowice.wroc.pl",
                "ref:regon": "000115335",
                "ref:vatin": "PL8961003340",
                "operator": "Powiat Wroc\u0142awski",
                "operator:type": "government",
                "landuse": "education",
                "fixme": "amenity=school, amenity=college albo landuse=education w zale\u017cno\u015bci od tego, jakie plac\u00f3wki wchodz\u0105 w sk\u0142ad zespo\u0142u. Sprawd\u017a, kiedy stosowa\u0107 amenity=* a kiedy landuse=education.",
                "note": "Children RSPO: 31170;31186;31237"
            }
        },
        {
            "id": 31170,
            "type": "Feature",
            "geometry": {
                "type": "Point",
                "coordinates": [
                    16.87792,
                    50.9957
                ]
            },
            "properties": {
                "isced:level": "3",
                "ref:rspo": 31170,
                "official_name": "Technikum w Krzy\u017cowicach",
                "name": "Technikum w Krzy\u017cowicach",
                "addr:postcode": "55-040",
                "addr:city": "Krzy\u017cowice",
                "addr:street": "G\u0142\u00f3wna",
                "addr:housenumber": "2",
                "addr:city:simc": 875448,
                "addr:street:sym_ul": 5635,
                "phone": "+48 713118479",
                "email": "sekretariat@pzs-krzyzowice.wroc.pl",
                "website": "http:\/\/www.pzs-krzyzowice.wroc.pl",
                "ref:regon": "932840595",
                "operator": "Powiat Wroc\u0142awski",
                "operator:type": "government",
                "amenity": "school",
                "note": "Parent RSPO: 21745"
            }
        },
        {
            "id": 31186,
            "type": "Feature",
            "geometry": {
                "type": "Point",
                "coordinates": [
                    16.87792,
                    50.995670000000004
                ]
            },
            "properties": {
                "isced:level": "3",
                "ref:rspo": 31186,
                "official_name": "Szko\u0142a Bran\u017cowa I Stopnia",
                "name": "Szko\u0142a Bran\u017cowa I Stopnia",
                "addr:postcode": "55-040",
                "addr:city": "Krzy\u017cowice",
                "addr:street": "G\u0142\u00f3wna",
                "addr:housenumber": "2",
                "addr:city:simc": 875448,
                "addr:street:sym_ul": 5635,
                "phone": "+48 713118631",
                "email": "sekretariat@pzs-krzyzowice.wroc.pl",
                "website": "http:\/\/www.pzs-krzyzowice.wroc.pl",
                "ref:regon": "932840603",
                "operator": "Powiat Wroc\u0142awski",
                "operator:type": "government",
                "amenity": "school",
                "note": "Parent RSPO: 21745"
            }
        },
        {
            "id": 31237,
            "type": "Feature",
            "geometry": {
                "type": "Point",
                "coordinates": [
                    16.87792,
                    50.99564
                ]
            },
            "properties": {
                "isced:level": "4",
                "ref:rspo": 31237,
                "official_name": "Szko\u0142a Policealna w Krzy\u017cowicach",
                "name": "Szko\u0142a Policealna w Krzy\u017cowicach",
                "addr:postcode": "55-040",
                "addr:city": "Krzy\u017cowice",
                "addr:street": "G\u0142\u00f3wna",
                "addr:housenumber": "2",
                "addr:city:simc": 875448,
                "addr:street:sym_ul": 5635,
                "phone": "+48 713118631",
                "email": "sekretariat@pzs-krzyzowice.wroc.pl",
                "website": "http:\/\/www.pzs-krzyzowice.wroc.pl",
                "ref:regon": "020234290",
                "operator": "Powiat Wroc\u0142awski",
                "operator:type": "government",
                "amenity": "college",
                "note": "Parent RSPO: 21745"
            }
        },
        {
            "id": 123364,
            "type": "Feature",
            "geometry": {
                "type": "Point",
                "coordinates": [
                    16.91013,
                    51.02073
                ]
            },
            "properties": {
                "ref:rspo": 123364,
                "official_name": "Zesp\u00f3\u0142 Szkolno-Przedszkolny w Ty\u0144cu Ma\u0142ym",
                "name": "Zesp\u00f3\u0142 Szkolno-Przedszkolny w Ty\u0144cu Ma\u0142ym",
                "addr:postcode": "55-040",
                "addr:city": "Tyniec Ma\u0142y",
                "addr:street": "Szkolna",
                "addr:housenumber": "2",
                "addr:city:simc": 875610,
                "addr:street:sym_ul": 21970,
                "phone": "+48 717151800",
                "email": "sekretariat.szkola@szkolatyniecmaly.pl",
                "website": "http:\/\/szkolatyniecmaly.pl",
                "ref:regon": "022444582",
                "ref:vatin": "PL8961538584",
                "operator": "Gmina Kobierzyce",
                "operator:type": "government",
                "landuse": "education",
                "fixme": "amenity=school, amenity=college albo landuse=education w zale\u017cno\u015bci od tego, jakie plac\u00f3wki wchodz\u0105 w sk\u0142ad zespo\u0142u. Sprawd\u017a, kiedy stosowa\u0107 amenity=* a kiedy landuse=education.",
                "note": "Children RSPO: 49969;124021"
            }
        },
        {
            "id": 49969,
            "type": "Feature",
            "geometry": {
                "type": "Point",
                "coordinates": [
                    16.91013,
                    51.0207
                ]
            },
            "properties": {
                "isced:level": "1;2",
                "ref:rspo": 49969,
                "official_name": "Szko\u0142a Podstawowa w Ty\u0144cu Ma\u0142ym",
                "name": "Szko\u0142a Podstawowa w Ty\u0144cu Ma\u0142ym",
                "addr:postcode": "55-040",
                "addr:city": "Tyniec Ma\u0142y",
                "addr:street": "Szkolna",
                "addr:housenumber": "2",
                "addr:city:simc": 875610,
                "addr:street:sym_ul": 21970,
                "phone": "+48 717151800",
                "email": "sekretariat.szkola@szkolatyniecmaly.pl",
                "website": "http:\/\/szkolatyniecmaly.pl",
                "ref:regon": "001181682",
                "ref:vatin": "PL8961294573",
                "operator": "Gmina Kobierzyce",
                "operator:type": "government",
                "amenity": "school",
                "note": "Parent RSPO: 123364"
            }
        },
        {
            "id": 124021,
            "type": "Feature",
            "geometry": {
                "type": "Point",
                "coordinates": [
                    16.91013,
                    51.02067
                ]
            },
            "properties": {
                "ref:rspo": 124021,
                "official_name": "Przedszkole Samorz\u0105dowe w Ty\u0144cu Ma\u0142ym",
                "name": "Przedszkole Samorz\u0105dowe w Ty\u0144cu Ma\u0142ym",
                "addr:postcode": "55-040",
                "addr:city": "Tyniec Ma\u0142y",
                "addr:street": "Szkolna",
                "addr:housenumber": "2",
                "addr:city:simc": 875610,
                "addr:street:sym_ul": 21970,
                "phone": "+48 717151806",
                "email": "sekretariat.przedszkole@szkolatyniecmaly.pl",
                "website": "http:\/\/szkolatyniecmaly.pl",
                "ref:regon": "022472176",
                "operator": "Gmina Kobierzyce",
                "operator:type": "government",
                "amenity": "kindergarten",
                "note": "Parent RSPO: 123364"
            }
        },
        {
            "id": 124181,
            "type": "Feature",
            "geometry": {
                "type": "Point",
                "coordinates": [
                    16.91228,
                    51.02098
                ]
            },
            "properties": {
                "ref:rspo": 124181,
                "official_name": "Niepubliczne Przedszkole \"Zielony Zak\u0105tek Montessori\"",
                "name": "Niepubliczne Przedszkole \"Zielony Zak\u0105tek Montessori\"",
                "addr:postcode": "55-040",
                "addr:city": "Tyniec Ma\u0142y",
                "addr:street": "Biskupicka",
                "addr:housenumber": "21",
                "addr:city:simc": 875610,
                "addr:street:sym_ul": 1366,
                "phone": "+48 790361961",
                "email": "zakatekmontessori@gmail.com",
                "website": "http:\/\/www.zielonyzakatekmontessori.pl",
                "ref:regon": "022477794",
                "operator": "Paulina Burdzy-Kasprzak",
                "operator:type": "private",
                "amenity": "kindergarten"
            }
        },
        {
            "id": 70088,
            "type": "Feature",
            "geometry": {
                "type": "Point",
                "coordinates": [
                    16.9206,
                    51.02113
                ]
            },
            "properties": {
                "isced:level": "1;2",
                "ref:rspo": 70088,
                "official_name": "Szko\u0142a Podstawowa im. Polskich Odkrywc\u00f3w I Podr\u00f3\u017cnik\u00f3w w Kobierzycach",
                "name": "Szko\u0142a Podstawowa",
                "addr:postcode": "55-040",
                "addr:city": "Kobierzyce",
                "addr:street": "Parkowa",
                "addr:housenumber": "7",
                "addr:city:simc": 875425,
                "addr:street:sym_ul": 15710,
                "phone": "+48 713111664",
                "email": "szkola@spkobierzyce.pl",
                "website": "http:\/\/www.spkobierzyce.szkolnastrona.pl",
                "ref:regon": "000579388",
                "ref:vatin": "PL8961393631",
                "operator": "Gmina Kobierzyce",
                "operator:type": "government",
                "amenity": "school"
            }
        },
        {
            "id": 278660,
            "type": "Feature",
            "geometry": {
                "type": "Point",
                "coordinates": [
                    16.96775,
                    51.02766
                ]
            },
            "properties": {
                "isced:level": "1;2",
                "ref:rspo": 278660,
                "official_name": "Niepubliczna Szko\u0142a Podstawowa Montessori Dcem",
                "name": "Niepubliczna Szko\u0142a Podstawowa Montessori Dcem",
                "addr:postcode": "55-040",
                "addr:city": "Bielany Wroc\u0142awskie",
                "addr:street": "\u015anie\u017cna",
                "addr:housenumber": "1",
                "addr:city:simc": 875313,
                "addr:street:sym_ul": 22400,
                "phone": "+48 537212370",
                "email": "szkola@dcem.pl",
                "website": "http:\/\/www.dcem.pl",
                "ref:regon": "520042993",
                "operator": "Fundacja Dolno\u015bl\u0105skie Centrum Edukacji Montessori",
                "operator:type": "ngo",
                "amenity": "school"
            }
        },
        {
            "id": 129871,
            "type": "Feature",
            "geometry": {
                "type": "Point",
                "coordinates": [
                    16.96192,
                    51.03528
                ]
            },
            "properties": {
                "ref:rspo": 129871,
                "official_name": "Niepubliczny Punkt Przedszkolny Lingua Junior",
                "name": "Niepubliczny Punkt Przedszkolny Lingua Junior",
                "addr:postcode": "55-040",
                "addr:city": "Bielany Wroc\u0142awskie",
                "addr:street": "Malinowa",
                "addr:housenumber": "17",
                "addr:city:simc": 875313,
                "addr:street:sym_ul": 12065,
                "phone": "+48 538744443",
                "email": "biuro@lingua-land.pl",
                "ref:regon": "363076737",
                "operator": "Pro Lingua Sp\u00f3\u0142ka Z Ograniczon\u0105 Odpowiedzialno\u015bci\u0105",
                "operator:type": "private",
                "amenity": "kindergarten"
            }
        },
        {
            "id": 278413,
            "type": "Feature",
            "geometry": {
                "type": "Point",
                "coordinates": [
                    16.95941,
                    51.03652
                ]
            },
            "properties": {
                "ref:rspo": 278413,
                "official_name": "Niepubliczne Przedszkole \u017byrafka",
                "name": "Niepubliczne Przedszkole \u017byrafka",
                "addr:postcode": "55-040",
                "addr:city": "Bielany Wroc\u0142awskie",
                "addr:street": "Przestrzenna",
                "addr:housenumber": "35",
                "addr:city:simc": 875313,
                "addr:street:sym_ul": 17769,
                "phone": "+48 577066123",
                "email": "zlobek.zyrafka@gmail.com",
                "website": "http:\/\/zlobek-zyrafka-bielany.pl\/przedszkole",
                "ref:regon": "389898130",
                "operator": "Aneta Ani\u015bkiewicz",
                "operator:type": "private",
                "amenity": "kindergarten"
            }
        },
        {
            "id": 89912,
            "type": "Feature",
            "geometry": {
                "type": "Point",
                "coordinates": [
                    16.98508,
                    51.03716
                ]
            },
            "properties": {
                "ref:rspo": 89912,
                "official_name": "Przedszkole Samorz\u0105dowe w \u015aL\u0119zie",
                "name": "Przedszkole Samorz\u0105dowe w \u015aL\u0119zie",
                "addr:postcode": "55-040",
                "addr:city": "\u015al\u0119za",
                "addr:street": "Przystankowa",
                "addr:housenumber": "2",
                "addr:city:simc": 875603,
                "addr:street:sym_ul": 17990,
                "phone": "+48 717896899",
                "email": "przedszkolebw@lpt.pl",
                "website": "https:\/\/www.przedszkolesleza.pl\/",
                "ref:regon": "932238295",
                "ref:vatin": "PL8961292433",
                "operator": "Gmina Kobierzyce",
                "operator:type": "government",
                "amenity": "kindergarten"
            }
        },
        {
            "id": 268196,
            "type": "Feature",
            "geometry": {
                "type": "Point",
                "coordinates": [
                    16.9716099,
                    51.03803
                ]
            },
            "properties": {
                "ref:rspo": 268196,
                "official_name": "Zesp\u00f3\u0142 Szkolno-Przedszkolny w Bielanach Wroc\u0142awskich",
                "name": "Zesp\u00f3\u0142 Szkolno-Przedszkolny w Bielanach Wroc\u0142awskich",
                "addr:postcode": "55-040",
                "addr:city": "Bielany Wroc\u0142awskie",
                "addr:street": "Akacjowa",
                "addr:housenumber": "1",
                "addr:city:simc": 875313,
                "addr:street:sym_ul": 157,
                "phone": "+48 713112793",
                "email": "szkola@sisco.pl",
                "ref:regon": "381038579",
                "ref:vatin": "PL8961580617",
                "operator": "Gmina Kobierzyce",
                "operator:type": "government",
                "landuse": "education",
                "fixme": "amenity=school, amenity=college albo landuse=education w zale\u017cno\u015bci od tego, jakie plac\u00f3wki wchodz\u0105 w sk\u0142ad zespo\u0142u. Sprawd\u017a, kiedy stosowa\u0107 amenity=* a kiedy landuse=education.",
                "note": "Children RSPO: 83769;268317"
            }
        },
        {
            "id": 83769,
            "type": "Feature",
            "geometry": {
                "type": "Point",
                "coordinates": [
                    16.9716099,
                    51.038
                ]
            },
            "properties": {
                "isced:level": "1;2",
                "ref:rspo": 83769,
                "official_name": "Szko\u0142a Podstawowa im. Unicef w Bielanach Wroc\u0142awskich",
                "name": "Szko\u0142a Podstawowa",
                "addr:postcode": "55-040",
                "addr:city": "Bielany Wroc\u0142awskie",
                "addr:street": "Akacjowa",
                "addr:housenumber": "1",
                "addr:city:simc": 875313,
                "addr:street:sym_ul": 157,
                "phone": "+48 713112793",
                "email": "szkola@sisco.pl",
                "ref:regon": "932245266",
                "operator": "Gmina Kobierzyce",
                "operator:type": "government",
                "amenity": "school",
                "note": "Parent RSPO: 268196"
            }
        },
        {
            "id": 268317,
            "type": "Feature",
            "geometry": {
                "type": "Point",
                "coordinates": [
                    16.9716099,
                    51.03797
                ]
            },
            "properties": {
                "ref:rspo": 268317,
                "official_name": "Przedszkole Samorz\u0105dowe w Bielanach Wroc\u0142awskich",
                "name": "Przedszkole Samorz\u0105dowe w Bielanach Wroc\u0142awskich",
                "addr:postcode": "55-040",
                "addr:city": "Bielany Wroc\u0142awskie",
                "addr:street": "Akacjowa",
                "addr:housenumber": "1",
                "addr:city:simc": 875313,
                "addr:street:sym_ul": 157,
                "phone": "+48 713112793",
                "email": "szkola@sisco.pl",
                "ref:regon": "381104684",
                "operator": "Gmina Kobierzyce",
                "operator:type": "government",
                "amenity": "kindergarten",
                "note": "Parent RSPO: 268196"
            }
        },
        {
            "id": 264435,
            "type": "Feature",
            "geometry": {
                "type": "Point",
                "coordinates": [
                    16.98785,
                    51.0388499
                ]
            },
            "properties": {
                "ref:rspo": 264435,
                "official_name": "\"\u0179r\u00f3d\u0142o Montessori\" Przedszkole Niepubliczne",
                "name": "\"\u0179r\u00f3d\u0142o Montessori\" Przedszkole Niepubliczne",
                "addr:postcode": "55-040",
                "addr:city": "\u015al\u0119za",
                "addr:street": "Akacjowa",
                "addr:housenumber": "4",
                "addr:door": "o",
                "addr:city:simc": 875603,
                "addr:street:sym_ul": 157,
                "phone": "+48 693862085",
                "email": "czekoladowa@klubkrasnoludka.pl",
                "ref:regon": "368343960",
                "operator": "Iweta Szolc",
                "operator:type": "private",
                "amenity": "kindergarten"
            }
        },
        {
            "id": 126241,
            "type": "Feature",
            "geometry": {
                "type": "Point",
                "coordinates": [
                    16.98638,
                    51.04019
                ]
            },
            "properties": {
                "ref:rspo": 126241,
                "official_name": "Przedszkole Niepubliczne Bright Beginners",
                "name": "Przedszkole Niepubliczne Bright Beginners",
                "addr:postcode": "55-040",
                "addr:city": "\u015al\u0119za",
                "addr:street": "Szyszkowa",
                "addr:housenumber": "7",
                "addr:city:simc": 875603,
                "addr:street:sym_ul": 22280,
                "phone": "+48 509239038",
                "email": "office@bbpreschool.pl",
                "ref:regon": "360207245",
                "operator": "International Education Center Sp\u00f3\u0142ka Z Ograniczon\u0105 Odpowiedzialno\u015bci\u0105",
                "operator:type": "private",
                "amenity": "kindergarten"
            }
        },
        {
            "id": 276342,
            "type": "Feature",
            "geometry": {
                "type": "Point",
                "coordinates": [
                    16.98917,
                    51.04115
                ]
            },
            "properties": {
                "ref:rspo": 276342,
                "official_name": "\"Sensoryczny Most\" Niepubliczna Poradnia Psychologiczno-Pedagogiczna",
                "name": "\"Sensoryczny Most\" Niepubliczna Poradnia Psychologiczno-Pedagogiczna",
                "addr:postcode": "55-040",
                "addr:city": "\u015al\u0119za",
                "addr:street": "Pszenna",
                "addr:housenumber": "8",
                "addr:city:simc": 875603,
                "addr:street:sym_ul": 18049,
                "phone": "+48 730000224",
                "email": "joagol100@wp.pl",
                "ref:regon": "387101681",
                "operator": "Synapsa Terapia I Edukacja Sp\u00f3\u0142ka Z Ograniczon\u0105 Odpowiedzialno\u015bci\u0105",
                "operator:type": "private",
                "healthcare": "counselling",
                "counselling_type": "education",
                "fixme": "w zale\u017cno\u015bci od przedmiotu dzia\u0142alno\u015bci (np. healthcare=counselling + counselling_type=education albo healthcare=psychotherapist)"
            }
        },
        {
            "id": 61600,
            "type": "Feature",
            "geometry": {
                "type": "Point",
                "coordinates": [
                    16.97633,
                    51.04354
                ]
            },
            "properties": {
                "ref:rspo": 61600,
                "official_name": "Przedszkole Niepubliczne \"Z\u0142ote Krople\"",
                "name": "Przedszkole Niepubliczne \"Z\u0142ote Krople\"",
                "addr:postcode": "55-040",
                "addr:city": "Bielany Wroc\u0142awskie",
                "addr:street": "Dwa \u015awiaty",
                "addr:housenumber": "4",
                "addr:city:simc": 875313,
                "addr:street:sym_ul": 33865,
                "phone": "+48 503161168",
                "email": "office@przedszkole-zlotekrople.pl",
                "website": "http:\/\/www.przedszkole-zlotekrople.pl",
                "ref:regon": "022006020",
                "ref:vatin": "PL8841045933",
                "operator": "Izabela Michalak",
                "operator:type": "private",
                "amenity": "kindergarten"
            }
        },
        {
            "id": 61555,
            "type": "Feature",
            "geometry": {
                "type": "Point",
                "coordinates": [
                    16.97422,
                    51.04436
                ]
            },
            "properties": {
                "ref:rspo": 61555,
                "official_name": "Niepubliczne Przedszkole \"Bielanek\"",
                "name": "Niepubliczne Przedszkole \"Bielanek\"",
                "addr:postcode": "55-040",
                "addr:city": "Bielany Wroc\u0142awskie",
                "addr:street": "Magnoliowa",
                "addr:housenumber": "13",
                "addr:city:simc": 875313,
                "addr:street:sym_ul": 11908,
                "phone": "+48 512374797",
                "email": "przedszkolebielanek@gmail.com",
                "ref:regon": "022001117",
                "ref:vatin": "PL9161262922",
                "operator": "Emilia Halicka",
                "operator:type": "private",
                "amenity": "kindergarten"
            }
        },
        {
            "id": 130809,
            "type": "Feature",
            "geometry": {
                "type": "Point",
                "coordinates": [
                    17.00122,
                    51.04852
                ]
            },
            "properties": {
                "ref:rspo": 130809,
                "official_name": "Zesp\u00f3\u0142 Szkolno-Przedszkolny w Wysokiej",
                "name": "Zesp\u00f3\u0142 Szkolno-Przedszkolny w Wysokiej",
                "addr:postcode": "52-200",
                "addr:city": "Wysoka",
                "addr:street": "Chabrowa",
                "addr:housenumber": "99",
                "addr:city:simc": 875655,
                "addr:street:sym_ul": 2657,
                "phone": "+48 717151599",
                "email": "sekretariat-szkola@zspwysoka.pl",
                "website": "http:\/\/www.zspwysoka.pl",
                "ref:regon": "364537005",
                "ref:vatin": "PL8961551811",
                "operator": "Gmina Kobierzyce",
                "operator:type": "government",
                "landuse": "education",
                "fixme": "amenity=school, amenity=college albo landuse=education w zale\u017cno\u015bci od tego, jakie plac\u00f3wki wchodz\u0105 w sk\u0142ad zespo\u0142u. Sprawd\u017a, kiedy stosowa\u0107 amenity=* a kiedy landuse=education.",
                "note": "Children RSPO: 130807;130808"
            }
        },
        {
            "id": 130807,
            "type": "Feature",
            "geometry": {
                "type": "Point",
                "coordinates": [
                    17.00122,
                    51.04849
                ]
            },
            "properties": {
                "isced:level": "1;2",
                "ref:rspo": 130807,
                "official_name": "Szko\u0142a Podstawowa im. Janusza Korczaka w Wysokiej",
                "name": "Szko\u0142a Podstawowa",
                "addr:postcode": "52-200",
                "addr:city": "Wysoka",
                "addr:street": "Chabrowa",
                "addr:housenumber": "99",
                "addr:city:simc": 875655,
                "addr:street:sym_ul": 2657,
                "phone": "+48 717151599",
                "email": "sekretariat-szkola@zspwysoka.pl",
                "website": "http:\/\/www.zspwysoka.pl",
                "ref:regon": "364537123",
                "operator": "Gmina Kobierzyce",
                "operator:type": "government",
                "amenity": "school",
                "note": "Parent RSPO: 130809"
            }
        },
        {
            "id": 130808,
            "type": "Feature",
            "geometry": {
                "type": "Point",
                "coordinates": [
                    17.00122,
                    51.048460000000006
                ]
            },
            "properties": {
                "ref:rspo": 130808,
                "official_name": "Przedszkole Samorz\u0105dowe w Wysokiej",
                "name": "Przedszkole Samorz\u0105dowe w Wysokiej",
                "addr:postcode": "52-200",
                "addr:city": "Wysoka",
                "addr:street": "Chabrowa",
                "addr:housenumber": "99",
                "addr:city:simc": 875655,
                "addr:street:sym_ul": 2657,
                "phone": "+48 717151599",
                "email": "sekretariat-przedszkole@zspwysoka.pl",
                "website": "http:\/\/www.zspwysoka.pl",
                "ref:regon": "364537034",
                "operator": "Gmina Kobierzyce",
                "operator:type": "government",
                "amenity": "kindergarten",
                "note": "Parent RSPO: 130809"
            }
        },
        {
            "id": 60833,
            "type": "Feature",
            "geometry": {
                "type": "Point",
                "coordinates": [
                    17.00723,
                    51.0492
                ]
            },
            "properties": {
                "ref:rspo": 60833,
                "official_name": "Punkt Przedszkolny \"Chaberek\"",
                "name": "Punkt Przedszkolny \"Chaberek\"",
                "addr:postcode": "55-040",
                "addr:city": "Wysoka",
                "addr:street": "Chabrowa",
                "addr:housenumber": "97D",
                "addr:city:simc": 875655,
                "addr:street:sym_ul": 2657,
                "phone": "+48 509377576",
                "email": "sekretariat@chaberek.pl",
                "website": "http:\/\/www.chaberek.pl",
                "ref:regon": "022000431",
                "ref:vatin": "PL8990102375",
                "operator": "Aleksandra Hybel",
                "operator:type": "private",
                "amenity": "kindergarten"
            }
        },
        {
            "id": 61544,
            "type": "Feature",
            "geometry": {
                "type": "Point",
                "coordinates": [
                    17.00723,
                    51.04917
                ]
            },
            "properties": {
                "ref:rspo": 61544,
                "official_name": "Punkt Przedszkolny \"Chaberek\"",
                "name": "Punkt Przedszkolny \"Chaberek\"",
                "addr:postcode": "55-040",
                "addr:city": "Wysoka",
                "addr:street": "Chabrowa",
                "addr:housenumber": "97E",
                "addr:city:simc": 875655,
                "addr:street:sym_ul": 2657,
                "phone": "+48 509377576",
                "email": "sekretariat@chaberek.pl",
                "website": "http:\/\/www.chaberek.pl",
                "ref:regon": "022001063",
                "ref:vatin": "PL8990102375",
                "operator": "Aleksandra Hybel",
                "operator:type": "private",
                "amenity": "kindergarten"
            }
        },
        {
            "id": 132159,
            "type": "Feature",
            "geometry": {
                "type": "Point",
                "coordinates": [
                    17.00547,
                    51.04957
                ]
            },
            "properties": {
                "ref:rspo": 132159,
                "official_name": "Punk Przedszkolny \"Zaczarowana Kraina III\"",
                "name": "Punk Przedszkolny \"Zaczarowana Kraina III\"",
                "addr:postcode": "52-200",
                "addr:city": "Wysoka",
                "addr:street": "Brzozowa",
                "addr:housenumber": "42a",
                "addr:city:simc": 875655,
                "addr:street:sym_ul": 2276,
                "phone": "+48 504279445",
                "email": "zaczarowana-kraina@wp.pl",
                "website": "http:\/\/www.zaczarowana-kraina.pl",
                "ref:regon": "365487841",
                "operator": "Agata Liberska-Stec",
                "operator:type": "private",
                "amenity": "kindergarten"
            }
        },
        {
            "id": 122911,
            "type": "Feature",
            "geometry": {
                "type": "Point",
                "coordinates": [
                    17.00612,
                    51.05406
                ]
            },
            "properties": {
                "ref:rspo": 122911,
                "official_name": "Niepubliczne Przedszkole \"Dzieci \u015awiata\"",
                "name": "Niepubliczne Przedszkole \"Dzieci \u015awiata\"",
                "addr:postcode": "52-200",
                "addr:city": "Wysoka",
                "addr:street": "Jasna",
                "addr:housenumber": "1",
                "addr:door": "2",
                "addr:city:simc": 875655,
                "addr:street:sym_ul": 7335,
                "phone": "+48 512226402",
                "email": "dzieciswiatawysoka@gmail.com",
                "website": "http:\/\/dzieci-swiata.pl",
                "ref:regon": "022405056",
                "operator": "Filtom Sp\u00f3\u0142ka Z Ograniczon\u0105 Odpowiedzialno\u015bci\u0105",
                "operator:type": "private",
                "amenity": "kindergarten"
            }
        },
        {
            "id": 61632,
            "type": "Feature",
            "geometry": {
                "type": "Point",
                "coordinates": [
                    17.15253,
                    51.12851
                ]
            },
            "properties": {
                "ref:rspo": 61632,
                "official_name": "Punkt Przedszkolny Bursztynek",
                "name": "Punkt Przedszkolny Bursztynek",
                "addr:postcode": "55-040",
                "addr:city": "\u017burawice",
                "addr:street": "Topolowa",
                "addr:housenumber": "9",
                "addr:city:simc": 875678,
                "addr:street:sym_ul": 22880,
                "phone": "+48 728345870",
                "email": "kamilaginardo@yahoo.com",
                "website": "http:\/\/www.przedszkolebursztynek.pl",
                "ref:regon": "022001241",
                "ref:vatin": "PL8961384916",
                "operator": "Kamila Ginardo",
                "operator:type": "private",
                "amenity": "kindergarten"
            }
        }
    ]
}