{
    "type": "FeatureCollection",
    "features": [
        {
            "id": 132011,
            "type": "Feature",
            "geometry": {
                "type": "Point",
                "coordinates": [
                    17.18104,
                    51.116
                ]
            },
            "properties": {
                "ref:rspo": 132011,
                "official_name": "Niepubliczne Przedszkole \"Weso\u0142e Motylki\"",
                "name": "Niepubliczne Przedszkole \"Weso\u0142e Motylki\"",
                "addr:country": "PL",
                "addr:postcode": "51-311",
                "addr:city": "Kie\u0142cz\u00f3wek",
                "addr:street": "Tulipanowa",
                "addr:housenumber": "4b",
                "addr:teryt:simc": 23129,
                "addr:teryt:sym_ul": 873863,
                "contact:phone": "+48 735399370",
                "contact:email": "wesolemotylki@op.pl",
                "ref:regon": "365417993",
                "ref:vatin": "PL8992776391",
                "operator": "Justxu Sp\u00f3\u0142ka Z Ograniczon\u0105 Odpowiedzialno\u015bci\u0105",
                "operator:type": "private",
                "amenity": "kindergarten"
            }
        },
        {
            "id": 119834,
            "type": "Feature",
            "geometry": {
                "type": "Point",
                "coordinates": [
                    17.24435,
                    51.12256
                ]
            },
            "properties": {
                "ref:rspo": 119834,
                "official_name": "Punkt Przedszkolny \"T\u0119czowy Pajacyk\" Agnieszka Gradka",
                "name": "Punkt Przedszkolny \"T\u0119czowy Pajacyk\" Agnieszka Gradka",
                "addr:country": "PL",
                "addr:postcode": "55-093",
                "addr:city": "Brzezia \u0141\u0105ka",
                "addr:street": "M\u0142y\u0144ska",
                "addr:housenumber": "3",
                "addr:teryt:simc": 13132,
                "addr:teryt:sym_ul": 873685,
                "contact:phone": "+48 604753863",
                "contact:email": "przedszkole@teczowy-pajacyk.pl",
                "ref:regon": "022247404",
                "ref:vatin": "PL8981569820",
                "operator": "Agnieszka Gradka",
                "operator:type": "private",
                "amenity": "kindergarten"
            }
        },
        {
            "id": 131896,
            "type": "Feature",
            "geometry": {
                "type": "Point",
                "coordinates": [
                    17.24435,
                    51.12253
                ]
            },
            "properties": {
                "ref:rspo": 131896,
                "official_name": "Punkt Przedszkolny \"T\u0119czowy Pajacyk II\" Agnieszka Gradka",
                "name": "Punkt Przedszkolny \"T\u0119czowy Pajacyk II\" Agnieszka Gradka",
                "addr:country": "PL",
                "addr:postcode": "55-093",
                "addr:city": "Brzezia \u0141\u0105ka",
                "addr:street": "M\u0142y\u0144ska",
                "addr:housenumber": "3",
                "addr:teryt:simc": 13132,
                "addr:teryt:sym_ul": 873685,
                "contact:phone": "+48 604753863",
                "contact:email": "agagradka@op.pl",
                "ref:regon": "365377035",
                "ref:vatin": "PL8981569820",
                "operator": "Agnieszka Gradka",
                "operator:type": "private",
                "amenity": "kindergarten"
            }
        },
        {
            "id": 110464,
            "type": "Feature",
            "geometry": {
                "type": "Point",
                "coordinates": [
                    17.24859,
                    51.12506
                ]
            },
            "properties": {
                "isced:level": "1;2",
                "ref:rspo": 110464,
                "official_name": "Szko\u0142a Podstawowa im. Noblist\u00f3w Polskich w Brzeziej \u0141\u0105ce",
                "name": "Szko\u0142a Podstawowa",
                "addr:country": "PL",
                "addr:postcode": "55-093",
                "addr:city": "Brzezia \u0141\u0105ka",
                "addr:street": "Szkolna",
                "addr:housenumber": "10",
                "addr:teryt:simc": 21970,
                "addr:teryt:sym_ul": 873685,
                "contact:phone": "+48 713148223",
                "contact:email": "edubrzezia@op.pl",
                "contact:website": "http:\/\/www.spbrzezia.edupage.org",
                "ref:regon": "001181512",
                "ref:vatin": "PL9111376983",
                "operator": "Gmina D\u0142ugo\u0142\u0119ka",
                "operator:type": "government",
                "amenity": "school"
            }
        },
        {
            "id": 12996,
            "type": "Feature",
            "geometry": {
                "type": "Point",
                "coordinates": [
                    17.17432,
                    51.12797
                ]
            },
            "properties": {
                "ref:rspo": 12996,
                "official_name": "Niepubliczne Przedszkole \"Weso\u0142a Kraina\" w Kie\u0142czowie",
                "name": "Niepubliczne Przedszkole \"Weso\u0142a Kraina\" w Kie\u0142czowie",
                "addr:country": "PL",
                "addr:postcode": "55-093",
                "addr:city": "Kie\u0142cz\u00f3w",
                "addr:street": "Rzeczna",
                "addr:housenumber": "22",
                "addr:teryt:simc": 19326,
                "addr:teryt:sym_ul": 873857,
                "contact:phone": "+48 605666642",
                "contact:email": "biuro@wesola-kraina.pl",
                "contact:website": "http:\/\/www.wesola-kraina.pl",
                "ref:regon": "021969928",
                "operator": "Sylwia Lupa",
                "operator:type": "private",
                "amenity": "kindergarten"
            }
        },
        {
            "id": 278414,
            "type": "Feature",
            "geometry": {
                "type": "Point",
                "coordinates": [
                    17.15401,
                    51.1282
                ]
            },
            "properties": {
                "ref:rspo": 278414,
                "official_name": "Niepubliczny Punkt Przedszkolny \"Bystre Imbirki\"",
                "name": "Niepubliczny Punkt Przedszkolny \"Bystre Imbirki\"",
                "addr:country": "PL",
                "addr:postcode": "51-361",
                "addr:city": "Wilczyce",
                "addr:street": "Kasztanowa",
                "addr:housenumber": "2",
                "addr:teryt:simc": 8171,
                "addr:teryt:sym_ul": 874070,
                "contact:email": "biuro@imbirki.pl",
                "contact:website": "http:\/\/www.bystre-imbirki.pl",
                "ref:regon": "389898169",
                "operator": "Akademia Mama I Maluch Sp\u00f3\u0142ka Z Ograniczon\u0105 Odpowiedzialno\u015bci\u0105",
                "operator:type": "private",
                "amenity": "kindergarten"
            }
        },
        {
            "id": 263100,
            "type": "Feature",
            "geometry": {
                "type": "Point",
                "coordinates": [
                    17.15212,
                    51.12946
                ]
            },
            "properties": {
                "isced:level": "1;2",
                "ref:rspo": 263100,
                "official_name": "Szko\u0142a Podstawowa im. Marii Sk\u0142odowskiej-Curie w Wilczycach",
                "name": "Szko\u0142a Podstawowa",
                "addr:country": "PL",
                "addr:postcode": "51-361",
                "addr:city": "Wilczyce",
                "addr:street": "Wroc\u0142awska",
                "addr:housenumber": "15",
                "addr:teryt:simc": 24806,
                "addr:teryt:sym_ul": 874070,
                "contact:phone": "+48 713988002",
                "contact:email": "szkola@spwilczyce.com.pl",
                "contact:website": "http:\/\/spwilczyce.com.pl",
                "ref:regon": "368103060",
                "operator": "Gmina D\u0142ugo\u0142\u0119ka",
                "operator:type": "government",
                "amenity": "school"
            }
        },
        {
            "id": 276858,
            "type": "Feature",
            "geometry": {
                "type": "Point",
                "coordinates": [
                    17.17546,
                    51.1397
                ]
            },
            "properties": {
                "ref:rspo": 276858,
                "official_name": "Przedszkole w Kie\u0142czowie",
                "name": "Przedszkole w Kie\u0142czowie",
                "addr:country": "PL",
                "addr:postcode": "55-093",
                "addr:city": "Kie\u0142cz\u00f3w",
                "addr:street": "Wroc\u0142awska",
                "addr:housenumber": "113",
                "addr:teryt:simc": 24806,
                "addr:teryt:sym_ul": 873857,
                "contact:phone": "+48 665433000",
                "contact:email": "przedszkolekielczow@edu.dlugoleka.pl",
                "ref:regon": "387750936",
                "ref:vatin": "PL8961599887",
                "operator": "Gmina D\u0142ugo\u0142\u0119ka",
                "operator:type": "government",
                "amenity": "kindergarten"
            }
        },
        {
            "id": 5144,
            "type": "Feature",
            "geometry": {
                "type": "Point",
                "coordinates": [
                    17.17603,
                    51.13977
                ]
            },
            "properties": {
                "isced:level": "1;2",
                "ref:rspo": 5144,
                "official_name": "Szko\u0142a Podstawowa im. Wandy Chotomskiej w Kie\u0142czowie",
                "name": "Szko\u0142a Podstawowa",
                "addr:country": "PL",
                "addr:postcode": "55-093",
                "addr:city": "Kie\u0142cz\u00f3w",
                "addr:street": "Szkolna",
                "addr:housenumber": "3",
                "addr:teryt:simc": 21970,
                "addr:teryt:sym_ul": 873857,
                "contact:phone": "+48 717159520",
                "contact:email": "kontakt@szkolakielczow.pl",
                "contact:website": "http:\/\/www.szkolakielczow.edupage.org",
                "ref:regon": "001181587",
                "ref:vatin": "PL9111444822",
                "operator": "Gmina D\u0142ugo\u0142\u0119ka",
                "operator:type": "government",
                "amenity": "school"
            }
        },
        {
            "id": 119521,
            "type": "Feature",
            "geometry": {
                "type": "Point",
                "coordinates": [
                    17.16364,
                    51.14323
                ]
            },
            "properties": {
                "ref:rspo": 119521,
                "official_name": "Prywatne Przedszkole \"Mini Bambini\"",
                "name": "Prywatne Przedszkole \"Mini Bambini\"",
                "addr:country": "PL",
                "addr:postcode": "55-093",
                "addr:city": "Kie\u0142cz\u00f3w",
                "addr:street": "Wroc\u0142awska",
                "addr:housenumber": "20b",
                "addr:teryt:simc": 24806,
                "addr:teryt:sym_ul": 873857,
                "contact:phone": "+48 609302800",
                "contact:email": "pakula01@interia.pl",
                "ref:regon": "022240276",
                "ref:vatin": "PL9111571791",
                "operator": "Kinga Paku\u0142a",
                "operator:type": "private",
                "amenity": "kindergarten"
            }
        },
        {
            "id": 11932,
            "type": "Feature",
            "geometry": {
                "type": "Point",
                "coordinates": [
                    17.15919,
                    51.14391
                ]
            },
            "properties": {
                "ref:rspo": 11932,
                "official_name": "Europejskie Przedszkole \"Klub Kubusia Puchatka IV\" w Kie\u0142czowie",
                "name": "Europejskie Przedszkole \"Klub Kubusia Puchatka IV\" w Kie\u0142czowie",
                "addr:country": "PL",
                "addr:postcode": "55-093",
                "addr:city": "Kie\u0142cz\u00f3w",
                "addr:street": "Wroc\u0142awska",
                "addr:housenumber": "14",
                "addr:door": "c",
                "addr:teryt:simc": 24806,
                "addr:teryt:sym_ul": 873857,
                "contact:phone": "+48 606387264",
                "contact:email": "puchatekbiuro@neostrada.pl",
                "ref:regon": "021969905",
                "ref:vatin": "PL9491774111",
                "operator": "Anna Bartosz",
                "operator:type": "private",
                "amenity": "kindergarten"
            }
        },
        {
            "id": 120354,
            "type": "Feature",
            "geometry": {
                "type": "Point",
                "coordinates": [
                    17.15903,
                    51.14562
                ]
            },
            "properties": {
                "ref:rspo": 120354,
                "official_name": "Przedszkole \"Alto\"",
                "name": "Przedszkole \"Alto\"",
                "addr:country": "PL",
                "addr:postcode": "55-093",
                "addr:city": "Kie\u0142cz\u00f3w",
                "addr:street": "Ogrodowa",
                "addr:housenumber": "69\/71",
                "addr:teryt:simc": 14834,
                "addr:teryt:sym_ul": 873857,
                "contact:phone": "+48 501508578",
                "contact:email": "nowak.marta@gmail.com",
                "ref:regon": "022264970",
                "operator": "Marta Nowak",
                "operator:type": "private",
                "amenity": "kindergarten"
            }
        },
        {
            "id": 4427,
            "type": "Feature",
            "geometry": {
                "type": "Point",
                "coordinates": [
                    17.1569499,
                    51.16631
                ]
            },
            "properties": {
                "ref:rspo": 4427,
                "official_name": "Zesp\u00f3\u0142 Szkolno-Przedszkolny w Mirkowie",
                "name": "Zesp\u00f3\u0142 Szkolno-Przedszkolny w Mirkowie",
                "addr:country": "PL",
                "addr:postcode": "55-095",
                "addr:city": "Mirk\u00f3w",
                "addr:street": "Juliusza S\u0142owackiego",
                "addr:housenumber": "17",
                "addr:teryt:simc": 20291,
                "addr:teryt:sym_ul": 873917,
                "contact:phone": "+48 173151030",
                "contact:email": "szkola@mirkow.pl",
                "contact:website": "https:\/\/zspmirkow.edupage.org",
                "ref:regon": "001268242",
                "ref:vatin": "PL8961512863",
                "operator": "Gmina D\u0142ugo\u0142\u0119ka",
                "operator:type": "government",
                "landuse": "education",
                "fixme": "amenity=school, amenity=college albo landuse=education w zale\u017cno\u015bci od tego, jakie plac\u00f3wki wchodz\u0105 w sk\u0142ad zespo\u0142u. Sprawd\u017a, kiedy stosowa\u0107 amenity=* a kiedy landuse=education.",
                "note": "Children RSPO: 7469;7471"
            }
        },
        {
            "id": 7469,
            "type": "Feature",
            "geometry": {
                "type": "Point",
                "coordinates": [
                    17.1569499,
                    51.16628
                ]
            },
            "properties": {
                "ref:rspo": 7469,
                "official_name": "Przedszkole im. Kawaler\u00f3w Orderu U\u015bmiechu w Mirkowie",
                "name": "Przedszkole",
                "addr:country": "PL",
                "addr:postcode": "55-095",
                "addr:city": "Mirk\u00f3w",
                "addr:street": "Juliusza S\u0142owackiego",
                "addr:housenumber": "17",
                "addr:teryt:simc": 20291,
                "addr:teryt:sym_ul": 873917,
                "contact:phone": "+48 713151030",
                "contact:email": "szkola@mirkow.pl",
                "contact:website": "http:\/\/www.zspmirkow.edupage.org",
                "ref:regon": "930048320",
                "ref:vatin": "PL9111103587",
                "operator": "Gmina D\u0142ugo\u0142\u0119ka",
                "operator:type": "government",
                "amenity": "kindergarten",
                "note": "Parent RSPO: 4427"
            }
        },
        {
            "id": 7471,
            "type": "Feature",
            "geometry": {
                "type": "Point",
                "coordinates": [
                    17.1569499,
                    51.166250000000005
                ]
            },
            "properties": {
                "isced:level": "1;2",
                "ref:rspo": 7471,
                "official_name": "Szko\u0142a Podstawowa im. Kawaler\u00f3w Orderu U\u015bmiechu w Mirkowie",
                "name": "Szko\u0142a Podstawowa",
                "addr:country": "PL",
                "addr:postcode": "55-095",
                "addr:city": "Mirk\u00f3w",
                "addr:street": "Juliusza S\u0142owackiego",
                "addr:housenumber": "17",
                "addr:teryt:simc": 20291,
                "addr:teryt:sym_ul": 873917,
                "contact:phone": "+48 713151030",
                "contact:email": "szkola@mirkow.pl",
                "contact:website": "http:\/\/www.zspmirkow.edupage.org",
                "ref:regon": "932825905",
                "ref:vatin": "PL9111369701",
                "operator": "Gmina D\u0142ugo\u0142\u0119ka",
                "operator:type": "government",
                "amenity": "school",
                "note": "Parent RSPO: 4427"
            }
        },
        {
            "id": 131321,
            "type": "Feature",
            "geometry": {
                "type": "Point",
                "coordinates": [
                    16.06004,
                    51.16726
                ]
            },
            "properties": {
                "ref:rspo": 131321,
                "official_name": "Kosmetyczne Centrum Szkoleniowe Clarena - Plac\u00f3wka Kszta\u0142cenia Ustawicznego",
                "name": "Kosmetyczne Centrum Szkoleniowe Clarena - Plac\u00f3wka Kszta\u0142cenia Ustawicznego",
                "addr:country": "PL",
                "addr:postcode": "51-361",
                "addr:city": "Wilczyce",
                "addr:street": "Clareny",
                "addr:housenumber": "2",
                "addr:teryt:simc": 50738,
                "addr:teryt:sym_ul": 874070,
                "contact:phone": "+48 713280711",
                "contact:email": "sylwia.rzaca@clarena.pl",
                "contact:website": "http:\/\/www.clarena.pl",
                "ref:regon": "365134350",
                "operator": "Poplawska Group Sp\u00f3\u0142ka Z Ograniczon\u0105 Odpowiedzialno\u015bci\u0105",
                "operator:type": "private",
                "fixme": "w zale\u017cno\u015bci od przedmiotu dzia\u0142alno\u015bci (np. amenity=training + training=*, amenity=dancing_school, amenity=language_school, amenity=music_school)"
            }
        },
        {
            "id": 5429,
            "type": "Feature",
            "geometry": {
                "type": "Point",
                "coordinates": [
                    17.15635,
                    51.1675899
                ]
            },
            "properties": {
                "ref:rspo": 5429,
                "official_name": "Przedszkole Niepubliczne \"Happy Bees\"",
                "name": "Przedszkole Niepubliczne \"Happy Bees\"",
                "addr:country": "PL",
                "addr:postcode": "55-095",
                "addr:city": "Mirk\u00f3w",
                "addr:street": "Wolno\u015bci",
                "addr:housenumber": "15",
                "addr:door": "a",
                "addr:teryt:simc": 24687,
                "addr:teryt:sym_ul": 873917,
                "contact:phone": "+48 601980444",
                "contact:email": "mirkow@happy-bees.pl",
                "contact:website": "http:\/\/www.happy-bees.pl",
                "ref:regon": "021949825",
                "ref:vatin": "PL8952037859",
                "operator": "Happy Bees Sp\u00f3\u0142ka Z Ograniczon\u0105 Odpowiedzialno\u015bci\u0105",
                "operator:type": "private",
                "amenity": "kindergarten"
            }
        },
        {
            "id": 29067,
            "type": "Feature",
            "geometry": {
                "type": "Point",
                "coordinates": [
                    17.12017,
                    51.1745
                ]
            },
            "properties": {
                "ref:rspo": 29067,
                "official_name": "Europejskie Przedszkole \"Klub Kubusia Puchatka VII\"",
                "name": "Europejskie Przedszkole \"Klub Kubusia Puchatka VII\"",
                "addr:country": "PL",
                "addr:postcode": "51-217",
                "addr:place": "Ramisz\u00f3w",
                "addr:housenumber": "111",
                "addr:teryt:sym_ul": 874006,
                "contact:phone": "+48 713943733",
                "contact:email": "puchatekbiuro@gmail.com",
                "contact:website": "http:\/\/www.klub-puchatka.pl",
                "ref:regon": "021987599",
                "ref:vatin": "PL9491774111",
                "operator": "Anna Bartosz",
                "operator:type": "private",
                "amenity": "kindergarten"
            }
        },
        {
            "id": 4351,
            "type": "Feature",
            "geometry": {
                "type": "Point",
                "coordinates": [
                    17.18901,
                    51.1751
                ]
            },
            "properties": {
                "ref:rspo": 4351,
                "official_name": "Zesp\u00f3\u0142 Szkolno-Przedszkolny w D\u0142ugo\u0142\u0119ce",
                "name": "Zesp\u00f3\u0142 Szkolno-Przedszkolny w D\u0142ugo\u0142\u0119ce",
                "addr:country": "PL",
                "addr:postcode": "55-095",
                "addr:city": "D\u0142ugo\u0142\u0119ka",
                "addr:street": "Szkolna",
                "addr:housenumber": "40",
                "addr:teryt:simc": 21970,
                "addr:teryt:sym_ul": 873739,
                "contact:phone": "+48 713152682",
                "contact:email": "zs-pdlugoleka@gmina.dlugoleka.pl",
                "ref:regon": "932696520",
                "ref:vatin": "PL8961312093",
                "operator": "Gmina D\u0142ugo\u0142\u0119ka",
                "operator:type": "government",
                "landuse": "education",
                "fixme": "amenity=school, amenity=college albo landuse=education w zale\u017cno\u015bci od tego, jakie plac\u00f3wki wchodz\u0105 w sk\u0142ad zespo\u0142u. Sprawd\u017a, kiedy stosowa\u0107 amenity=* a kiedy landuse=education.",
                "note": "Children RSPO: 7467;7468"
            }
        },
        {
            "id": 11876,
            "type": "Feature",
            "geometry": {
                "type": "Point",
                "coordinates": [
                    17.18901,
                    51.17507
                ]
            },
            "properties": {
                "isced:level": "3",
                "ref:rspo": 11876,
                "official_name": "Liceum Og\u00f3lnokszta\u0142c\u0105ce im. Olimpijczyk\u00f3w Polskich w D\u0142ugo\u0142\u0119ce",
                "name": "Liceum Og\u00f3lnokszta\u0142c\u0105ce",
                "addr:country": "PL",
                "addr:postcode": "55-095",
                "addr:city": "D\u0142ugo\u0142\u0119ka",
                "addr:street": "Szkolna",
                "addr:housenumber": "40",
                "addr:teryt:simc": 21970,
                "addr:teryt:sym_ul": 873739,
                "contact:phone": "+48 713152289",
                "contact:email": "zlgdlugoleka@wp.pl",
                "contact:website": "http:\/\/www.zlgdlugoleka.edupage.org",
                "ref:regon": "932693007",
                "ref:vatin": "PL9111307120",
                "operator": "Gmina D\u0142ugo\u0142\u0119ka",
                "operator:type": "government",
                "amenity": "school"
            }
        },
        {
            "id": 7467,
            "type": "Feature",
            "geometry": {
                "type": "Point",
                "coordinates": [
                    17.18901,
                    51.17504
                ]
            },
            "properties": {
                "ref:rspo": 7467,
                "official_name": "Przedszkole im.\u015bw. Jana Paw\u0142a II w D\u0142ugo\u0142\u0119ce",
                "name": "Przedszkole im.\u015bw. Jana Paw\u0142a II w D\u0142ugo\u0142\u0119ce",
                "addr:country": "PL",
                "addr:postcode": "55-095",
                "addr:city": "D\u0142ugo\u0142\u0119ka",
                "addr:street": "Szkolna",
                "addr:housenumber": "40",
                "addr:teryt:simc": 21970,
                "addr:teryt:sym_ul": 873739,
                "contact:phone": "+48 713152682",
                "ref:regon": "001012287",
                "ref:vatin": "PL9111103469",
                "operator": "Gmina D\u0142ugo\u0142\u0119ka",
                "operator:type": "government",
                "amenity": "kindergarten",
                "note": "Parent RSPO: 4351"
            }
        },
        {
            "id": 7468,
            "type": "Feature",
            "geometry": {
                "type": "Point",
                "coordinates": [
                    17.18901,
                    51.17501
                ]
            },
            "properties": {
                "isced:level": "1;2",
                "ref:rspo": 7468,
                "official_name": "Szko\u0142a Podstawowa im. Jana Paw\u0142a II w D\u0142ugo\u0142\u0119ce",
                "name": "Szko\u0142a Podstawowa",
                "addr:country": "PL",
                "addr:postcode": "55-095",
                "addr:city": "D\u0142ugo\u0142\u0119ka",
                "addr:street": "Szkolna",
                "addr:housenumber": "40",
                "addr:teryt:simc": 21970,
                "addr:teryt:sym_ul": 873739,
                "contact:phone": "+48 713152682",
                "contact:email": "zs-pdlugoleka@gmina.dlugoleka.pl",
                "ref:regon": "000581540",
                "ref:vatin": "PL9111307048",
                "operator": "Gmina D\u0142ugo\u0142\u0119ka",
                "operator:type": "government",
                "amenity": "school",
                "note": "Parent RSPO: 4351"
            }
        },
        {
            "id": 11931,
            "type": "Feature",
            "geometry": {
                "type": "Point",
                "coordinates": [
                    17.20013,
                    51.1788
                ]
            },
            "properties": {
                "ref:rspo": 11931,
                "official_name": "Niepubliczne Przedszkole \"Zielony Zak\u0105tek\" w D\u0142ugo\u0142\u0119ce",
                "name": "Niepubliczne Przedszkole \"Zielony Zak\u0105tek\" w D\u0142ugo\u0142\u0119ce",
                "addr:country": "PL",
                "addr:postcode": "55-095",
                "addr:city": "D\u0142ugo\u0142\u0119ka",
                "addr:street": "Robotnicza",
                "addr:housenumber": "44",
                "addr:teryt:simc": 18695,
                "addr:teryt:sym_ul": 873739,
                "contact:phone": "+48 791283545",
                "contact:email": "biuro@zielonyzakatek.edu.pl",
                "contact:website": "http:\/\/www.zielonyzakatek.edu.pl",
                "ref:regon": "021969816",
                "operator": "Dariusz Podyma",
                "operator:type": "private",
                "amenity": "kindergarten"
            }
        },
        {
            "id": 5428,
            "type": "Feature",
            "geometry": {
                "type": "Point",
                "coordinates": [
                    17.2768799,
                    51.18821
                ]
            },
            "properties": {
                "isced:level": "1;2",
                "ref:rspo": 5428,
                "official_name": "Szko\u0142a Podstawowa im. Odkrywc\u00f3w I Podr\u00f3\u017cnik\u00f3w w Borowej",
                "name": "Szko\u0142a Podstawowa",
                "addr:country": "PL",
                "addr:postcode": "55-095",
                "addr:city": "Borowa",
                "addr:street": "Parkowa",
                "addr:housenumber": "2",
                "addr:door": "4",
                "addr:teryt:simc": 15710,
                "addr:teryt:sym_ul": 873679,
                "contact:phone": "+48 713148183",
                "contact:email": "sp-borowa@wp.pl",
                "contact:website": "http:\/\/www.spborowa.pl",
                "ref:regon": "001181570",
                "ref:vatin": "PL9111010928",
                "operator": "Gmina D\u0142ugo\u0142\u0119ka",
                "operator:type": "government",
                "amenity": "school"
            }
        },
        {
            "id": 275196,
            "type": "Feature",
            "geometry": {
                "type": "Point",
                "coordinates": [
                    17.2787,
                    51.18963
                ]
            },
            "properties": {
                "ref:rspo": 275196,
                "official_name": "Przedszkole w Borowej",
                "name": "Przedszkole w Borowej",
                "addr:country": "PL",
                "addr:postcode": "55-093",
                "addr:city": "Borowa",
                "addr:street": "Lipowa",
                "addr:housenumber": "36",
                "addr:teryt:simc": 11139,
                "addr:teryt:sym_ul": 873679,
                "contact:phone": "+48 718891380",
                "contact:email": "sekretariat@przedszkoleborowa.pl",
                "contact:website": "http:\/\/www.przedszkole-borowa.edupage.org",
                "ref:regon": "386695448",
                "ref:vatin": "PL8961596819",
                "operator": "Gmina D\u0142ugo\u0142\u0119ka",
                "operator:type": "government",
                "amenity": "kindergarten"
            }
        },
        {
            "id": 5147,
            "type": "Feature",
            "geometry": {
                "type": "Point",
                "coordinates": [
                    17.18521,
                    51.19517
                ]
            },
            "properties": {
                "isced:level": "1;2",
                "ref:rspo": 5147,
                "official_name": "Szko\u0142a Podstawowa im. Polskiej Niezapominajki w Szczodrem",
                "name": "Szko\u0142a Podstawowa",
                "addr:country": "PL",
                "addr:postcode": "55-095",
                "addr:city": "Szczodre",
                "addr:street": "Trzebnicka",
                "addr:housenumber": "42",
                "addr:teryt:simc": 23073,
                "addr:teryt:sym_ul": 874035,
                "contact:phone": "+48 713998646",
                "contact:email": "spszczodre@op.pl",
                "contact:website": "http:\/\/spszczodre.pl",
                "ref:regon": "001181541",
                "ref:vatin": "PL9111349963",
                "operator": "Gmina D\u0142ugo\u0142\u0119ka",
                "operator:type": "government",
                "amenity": "school"
            }
        },
        {
            "id": 278570,
            "type": "Feature",
            "geometry": {
                "type": "Point",
                "coordinates": [
                    17.18471,
                    51.19548
                ]
            },
            "properties": {
                "ref:rspo": 278570,
                "official_name": "Punkt Przedszkolny \"Nizio\u0142ki\"",
                "name": "Punkt Przedszkolny \"Nizio\u0142ki\"",
                "addr:country": "PL",
                "addr:postcode": "55-095",
                "addr:city": "Szczodre",
                "addr:street": "Trzebnicka",
                "addr:housenumber": "41",
                "addr:teryt:simc": 23073,
                "addr:teryt:sym_ul": 874035,
                "contact:email": "bast.3@wp.pl",
                "contact:website": "http:\/\/niziolki.pl",
                "ref:regon": "389996110",
                "operator": "Agnieszka Florczak",
                "operator:type": "private",
                "amenity": "kindergarten"
            }
        },
        {
            "id": 276608,
            "type": "Feature",
            "geometry": {
                "type": "Point",
                "coordinates": [
                    17.13913,
                    51.2113
                ]
            },
            "properties": {
                "ref:rspo": 276608,
                "official_name": "Terapeutyczny Punkt Przedszkolny",
                "name": "Terapeutyczny Punkt Przedszkolny",
                "addr:country": "PL",
                "addr:postcode": "55-095",
                "addr:place": "Bukowina",
                "addr:housenumber": "28a",
                "addr:teryt:sym_ul": 873700,
                "contact:phone": "+48 501599829",
                "contact:email": "artur.sobie@gmail.com",
                "ref:regon": "387286440",
                "operator": "Artur Sobieski",
                "operator:type": "private",
                "amenity": "kindergarten"
            }
        },
        {
            "id": 11874,
            "type": "Feature",
            "geometry": {
                "type": "Point",
                "coordinates": [
                    17.1144399,
                    51.22918
                ]
            },
            "properties": {
                "isced:level": "1;2",
                "ref:rspo": 11874,
                "official_name": "Szko\u0142a Podstawowa im. Ks. Jana Twardowskiego w Siedlcu",
                "name": "Szko\u0142a Podstawowa",
                "addr:country": "PL",
                "addr:postcode": "55-095",
                "addr:city": "Siedlec",
                "addr:street": "Wroc\u0142awska",
                "addr:housenumber": "22",
                "addr:teryt:simc": 24806,
                "addr:teryt:sym_ul": 874012,
                "contact:phone": "+48 713987695",
                "contact:email": "szkolasiedlec@wp.pl",
                "contact:website": "http:\/\/www.spsiedlect.edupage.org",
                "ref:regon": "001181535",
                "ref:vatin": "PL9111483319",
                "operator": "Gmina D\u0142ugo\u0142\u0119ka",
                "operator:type": "government",
                "amenity": "school"
            }
        },
        {
            "id": 129081,
            "type": "Feature",
            "geometry": {
                "type": "Point",
                "coordinates": [
                    17.12198,
                    51.23365
                ]
            },
            "properties": {
                "ref:rspo": 129081,
                "official_name": "Niepubliczne Przedszkole \"Bajkowo\"",
                "name": "Niepubliczne Przedszkole \"Bajkowo\"",
                "addr:country": "PL",
                "addr:postcode": "55-095",
                "addr:city": "Siedlec",
                "addr:street": "Osiedlowa",
                "addr:housenumber": "1",
                "addr:teryt:simc": 15300,
                "addr:teryt:sym_ul": 874012,
                "contact:phone": "+48 575101075",
                "contact:email": "bajkowoprzedszkole@gmail.com",
                "ref:regon": "362502155",
                "ref:vatin": "PL8951797290",
                "operator": "Witold I Piotr Darmoros \"Zielona\" Sp\u00f3\u0142ka Jawna",
                "operator:type": "consortium",
                "amenity": "kindergarten"
            }
        },
        {
            "id": 10226,
            "type": "Feature",
            "geometry": {
                "type": "Point",
                "coordinates": [
                    17.1803,
                    51.23373
                ]
            },
            "properties": {
                "isced:level": "1;2",
                "ref:rspo": 10226,
                "official_name": "Szko\u0142a Podstawowa im. Kazimierza G\u00f3rskiego w \u0141ozinie",
                "name": "Szko\u0142a Podstawowa",
                "addr:country": "PL",
                "addr:postcode": "55-095",
                "addr:city": "\u0141ozina",
                "addr:street": "Milicka",
                "addr:housenumber": "10",
                "addr:teryt:simc": 12937,
                "addr:teryt:sym_ul": 873892,
                "contact:phone": "+48 713154870",
                "contact:email": "zslozina@poczta.onet.pl",
                "contact:website": "http:\/\/www.zslozina.edupage.org",
                "ref:regon": "001181564",
                "ref:vatin": "PL9111382529",
                "operator": "Gmina D\u0142ugo\u0142\u0119ka",
                "operator:type": "government",
                "amenity": "school"
            }
        }
    ]
}