{
    "type": "FeatureCollection",
    "features": [
        {
            "id": 31755,
            "type": "Feature",
            "geometry": {
                "type": "Point",
                "coordinates": [
                    17.5439679,
                    53.3050629
                ]
            },
            "properties": {
                "isced:level": "1;2",
                "ref:rspo": 31755,
                "official_name": "Szko\u0142a Podstawowa im. Marii Konopnickiej w P\u0119perzynie",
                "name": "Szko\u0142a Podstawowa",
                "addr:postcode": "89-410",
                "addr:place": "P\u0119perzyn",
                "addr:housenumber": "33",
                "addr:city:simc": 99808,
                "phone": "+48 523899277",
                "email": "sekretariat@sppeperzyn.pl",
                "website": "http:\/\/www.sppeperzyn.pl",
                "ref:regon": "001156299",
                "ref:vatin": "PL5611495743",
                "operator": "Gmina Wi\u0119cbork",
                "operator:type": "government",
                "amenity": "school"
            }
        },
        {
            "id": 28737,
            "type": "Feature",
            "geometry": {
                "type": "Point",
                "coordinates": [
                    17.4504919,
                    53.3269994
                ]
            },
            "properties": {
                "isced:level": "1;2",
                "ref:rspo": 28737,
                "official_name": "Szko\u0142a Podstawowa im. El\u017cbiety I Jana Orzelskich w Runowie Kraje\u0144skim",
                "name": "Szko\u0142a Podstawowa",
                "addr:postcode": "89-421",
                "addr:place": "Runowo Kraje\u0144skie",
                "addr:housenumber": "58",
                "addr:city:simc": 99872,
                "phone": "+48 523899010",
                "email": "sekretariat@sprunowo.edu.pl",
                "website": "http:\/\/www.sprunowo.edu.pl",
                "ref:regon": "001156313",
                "ref:vatin": "PL5611406834",
                "operator": "Gmina Wi\u0119cbork",
                "operator:type": "government",
                "amenity": "school"
            }
        },
        {
            "id": 28740,
            "type": "Feature",
            "geometry": {
                "type": "Point",
                "coordinates": [
                    17.48356,
                    53.34643
                ]
            },
            "properties": {
                "isced:level": "1;2",
                "ref:rspo": 28740,
                "official_name": "Szko\u0142a Podstawowa Nr 2 im. Kornela Makuszy\u0144skiego w Wi\u0119cborku",
                "name": "Szko\u0142a Podstawowa Nr 2",
                "addr:postcode": "89-410",
                "addr:city": "Wi\u0119cbork",
                "addr:street": "Wyzwolenia",
                "addr:housenumber": "19",
                "addr:city:simc": 929820,
                "addr:street:sym_ul": 25133,
                "phone": "+48 523897163",
                "email": "szkola@spwiecbork.pl",
                "website": "http:\/\/spwiecbork.pl\/",
                "ref:regon": "001156260",
                "ref:vatin": "PL5611406917",
                "operator": "Gmina Wi\u0119cbork",
                "operator:type": "government",
                "amenity": "school"
            }
        },
        {
            "id": 8422,
            "type": "Feature",
            "geometry": {
                "type": "Point",
                "coordinates": [
                    17.48927,
                    53.35526
                ]
            },
            "properties": {
                "isced:level": "3",
                "ref:rspo": 8422,
                "official_name": "Liceum Og\u00f3lnokszta\u0142c\u0105ce im. Janusza Korczaka",
                "name": "Liceum Og\u00f3lnokszta\u0142c\u0105ce",
                "addr:postcode": "89-410",
                "addr:city": "Wi\u0119cbork",
                "addr:street": "Pocztowa",
                "addr:housenumber": "14a",
                "addr:city:simc": 929820,
                "addr:street:sym_ul": 16579,
                "phone": "+48 523897066",
                "email": "lo-wiecbork@wp.pl",
                "website": "http:\/\/lowiecbork.edu.pl",
                "ref:regon": "000264242",
                "ref:vatin": "PL5581539015",
                "operator": "Powiat S\u0119pole\u0144ski",
                "operator:type": "government",
                "amenity": "school"
            }
        },
        {
            "id": 128920,
            "type": "Feature",
            "geometry": {
                "type": "Point",
                "coordinates": [
                    17.48927,
                    53.35523
                ]
            },
            "properties": {
                "isced:level": "3",
                "ref:rspo": 128920,
                "official_name": "Technikum",
                "name": "Technikum",
                "addr:postcode": "89-410",
                "addr:city": "Wi\u0119cbork",
                "addr:street": "Pocztowa",
                "addr:housenumber": "14",
                "addr:door": "b",
                "addr:city:simc": 929820,
                "addr:street:sym_ul": 16579,
                "phone": "+48 523897055",
                "email": "sekretariat@ckziu-wiecbork.pl",
                "ref:regon": "362438776",
                "operator": "Powiat S\u0119pole\u0144ski",
                "operator:type": "government",
                "amenity": "school",
                "note": "Parent RSPO: 8431"
            }
        },
        {
            "id": 17677,
            "type": "Feature",
            "geometry": {
                "type": "Point",
                "coordinates": [
                    17.48612,
                    53.35602
                ]
            },
            "properties": {
                "ref:rspo": 17677,
                "official_name": "Szkolne Schronisko M\u0142odzie\u017cowe w Wi\u0119cborku",
                "name": "Szkolne Schronisko M\u0142odzie\u017cowe w Wi\u0119cborku",
                "addr:postcode": "89-410",
                "addr:city": "Wi\u0119cbork",
                "addr:street": "Aleja 600-lecia",
                "addr:housenumber": "9",
                "addr:city:simc": 929820,
                "addr:street:sym_ul": 41746,
                "phone": "+48 523897055",
                "email": "sekretariat@ckziu-wiecbork.pl",
                "ref:regon": "340814890",
                "ref:vatin": "PL5581563835",
                "operator": "Powiat S\u0119pole\u0144ski",
                "operator:type": "government",
                "tourism": "hostel",
                "note": "Parent RSPO: 8431"
            }
        },
        {
            "id": 8431,
            "type": "Feature",
            "geometry": {
                "type": "Point",
                "coordinates": [
                    17.48921,
                    53.35614
                ]
            },
            "properties": {
                "ref:rspo": 8431,
                "official_name": "Centrum Kszta\u0142cenia Zawodowego I Ustawicznego w Wi\u0119cborku",
                "name": "Centrum Kszta\u0142cenia Zawodowego I Ustawicznego w Wi\u0119cborku",
                "addr:postcode": "89-410",
                "addr:city": "Wi\u0119cbork",
                "addr:street": "Pocztowa",
                "addr:housenumber": "14b",
                "addr:city:simc": 929820,
                "addr:street:sym_ul": 16579,
                "phone": "+48 523897055",
                "email": "sekretariat@ckziu-wiecbork.pl",
                "website": "http:\/\/www.ckziu-wiecbork.pl",
                "ref:regon": "000333368",
                "ref:vatin": "PL5581563835",
                "operator": "Powiat S\u0119pole\u0144ski",
                "operator:type": "government",
                "landuse": "education",
                "fixme": "amenity=school, amenity=college albo landuse=education w zale\u017cno\u015bci od tego, jakie plac\u00f3wki wchodz\u0105 w sk\u0142ad zespo\u0142u. Sprawd\u017a, kiedy stosowa\u0107 amenity=* a kiedy landuse=education.",
                "note": "Children RSPO: 17536;17554;17606;17677;128920"
            }
        },
        {
            "id": 17536,
            "type": "Feature",
            "geometry": {
                "type": "Point",
                "coordinates": [
                    17.48921,
                    53.35611
                ]
            },
            "properties": {
                "isced:level": "3",
                "ref:rspo": 17536,
                "official_name": "Bran\u017cowa Szko\u0142a I Stopnia",
                "name": "Bran\u017cowa Szko\u0142a I Stopnia",
                "addr:postcode": "89-410",
                "addr:city": "Wi\u0119cbork",
                "addr:street": "Pocztowa",
                "addr:housenumber": "14b",
                "addr:city:simc": 929820,
                "addr:street:sym_ul": 16579,
                "phone": "+48 523897055",
                "email": "sekretariat@ckziu-wiecbork.pl",
                "ref:regon": "093044692",
                "ref:vatin": "PL5581563835",
                "operator": "Powiat S\u0119pole\u0144ski",
                "operator:type": "government",
                "amenity": "school",
                "note": "Parent RSPO: 8431"
            }
        },
        {
            "id": 17554,
            "type": "Feature",
            "geometry": {
                "type": "Point",
                "coordinates": [
                    17.48921,
                    53.356080000000006
                ]
            },
            "properties": {
                "isced:level": "3",
                "ref:rspo": 17554,
                "official_name": "Liceum Og\u00f3lnokszta\u0142c\u0105ce dla Doros\u0142ych",
                "name": "Liceum Og\u00f3lnokszta\u0142c\u0105ce dla Doros\u0142ych",
                "addr:postcode": "89-410",
                "addr:city": "Wi\u0119cbork",
                "addr:street": "Pocztowa",
                "addr:housenumber": "14b",
                "addr:city:simc": 929820,
                "addr:street:sym_ul": 16579,
                "phone": "+48 523897055",
                "email": "sekretariat@ckziu-wiecbork.pl",
                "ref:regon": "093130552",
                "ref:vatin": "PL5581563835",
                "operator": "Powiat S\u0119pole\u0144ski",
                "operator:type": "government",
                "amenity": "school",
                "note": "Parent RSPO: 8431"
            }
        },
        {
            "id": 17606,
            "type": "Feature",
            "geometry": {
                "type": "Point",
                "coordinates": [
                    17.48921,
                    53.35605
                ]
            },
            "properties": {
                "isced:level": "4",
                "ref:rspo": 17606,
                "official_name": "Szko\u0142a Policealna",
                "name": "Szko\u0142a Policealna",
                "addr:postcode": "89-410",
                "addr:city": "Wi\u0119cbork",
                "addr:street": "Pocztowa",
                "addr:housenumber": "14b",
                "addr:city:simc": 929820,
                "addr:street:sym_ul": 16579,
                "phone": "+48 523897055",
                "email": "sekretariat@ckziu-wiecbork.pl",
                "ref:regon": "341331796",
                "ref:vatin": "PL5581563835",
                "operator": "Powiat S\u0119pole\u0144ski",
                "operator:type": "government",
                "amenity": "college",
                "note": "Parent RSPO: 8431"
            }
        },
        {
            "id": 29233,
            "type": "Feature",
            "geometry": {
                "type": "Point",
                "coordinates": [
                    17.5994647,
                    53.3563275
                ]
            },
            "properties": {
                "isced:level": "1;2",
                "ref:rspo": 29233,
                "official_name": "Szko\u0142a Podstawowa Z Oddzia\u0142ami Integracyjnymi im. Ks. Jana Twardowskiego w Jastrz\u0119bcu",
                "name": "Szko\u0142a Podstawowa Z Oddzia\u0142ami Integracyjnymi",
                "addr:postcode": "89-410",
                "addr:place": "Jastrz\u0119biec",
                "addr:housenumber": "17",
                "addr:city:simc": 99702,
                "phone": "+48 523899329",
                "email": "dyrektor@szkolajastrzebiec.pl",
                "website": "http:\/\/szkolajastrzebiec.pl",
                "ref:regon": "001156307",
                "ref:vatin": "PL5611476616",
                "operator": "Gmina Wi\u0119cbork",
                "operator:type": "government",
                "amenity": "school"
            }
        },
        {
            "id": 262270,
            "type": "Feature",
            "geometry": {
                "type": "Point",
                "coordinates": [
                    17.48574,
                    53.35706
                ]
            },
            "properties": {
                "isced:level": "1;2",
                "ref:rspo": 262270,
                "official_name": "Szko\u0142a Podstawowa Nr 1 im. Polskich Noblist\u00f3w w Wi\u0119cborku",
                "name": "Szko\u0142a Podstawowa Nr 1",
                "addr:postcode": "89-410",
                "addr:city": "Wi\u0119cbork",
                "addr:street": "Aleja 600-lecia",
                "addr:housenumber": "4",
                "addr:city:simc": 929820,
                "addr:street:sym_ul": 41746,
                "phone": "+48 523897027",
                "email": "szkola@sp1wiecbork.pl",
                "website": "http:\/\/sp1wiecbork.pl\/",
                "ref:regon": "367993318",
                "operator": "Gmina Wi\u0119cbork",
                "operator:type": "government",
                "amenity": "school"
            }
        },
        {
            "id": 31780,
            "type": "Feature",
            "geometry": {
                "type": "Point",
                "coordinates": [
                    17.48894,
                    53.3592299
                ]
            },
            "properties": {
                "ref:rspo": 31780,
                "official_name": "Przedszkole Gminne \"Niezapominajka\" w Wi\u0119cborku",
                "name": "Przedszkole Gminne \"Niezapominajka\" w Wi\u0119cborku",
                "addr:postcode": "89-410",
                "addr:city": "Wi\u0119cbork",
                "addr:street": "Gda\u0144ska",
                "addr:housenumber": "13",
                "addr:city:simc": 929820,
                "addr:street:sym_ul": 5431,
                "phone": "+48 523897080",
                "email": "sekretariat@przedszkole-wiecbork.pl",
                "website": "http:\/\/przedszkole-wiecbork.pl",
                "ref:regon": "091323525",
                "ref:vatin": "PL5611406952",
                "operator": "Gmina Wi\u0119cbork",
                "operator:type": "government",
                "amenity": "kindergarten"
            }
        },
        {
            "id": 8424,
            "type": "Feature",
            "geometry": {
                "type": "Point",
                "coordinates": [
                    17.32434,
                    53.3681399
                ]
            },
            "properties": {
                "ref:rspo": 8424,
                "official_name": "Zesp\u00f3\u0142 Szk\u00f3\u0142 Centrum Kszta\u0142cenia Rolniczego w Sypniewie",
                "name": "Zesp\u00f3\u0142 Szk\u00f3\u0142 Centrum Kszta\u0142cenia Rolniczego w Sypniewie",
                "addr:postcode": "89-422",
                "addr:city": "Sypniewo",
                "addr:street": "Kwiatowa",
                "addr:housenumber": "3",
                "addr:city:simc": 99949,
                "addr:street:sym_ul": 10562,
                "phone": "+48 523892069",
                "email": "sekretariat@zsckrsypniewo.pl",
                "website": "http:\/\/www.zsckrsypniewo.pl",
                "ref:regon": "000097264",
                "ref:vatin": "PL5581374146",
                "operator": "Ministerstwo Rolnictwa I Rozwoju Wsi",
                "operator:type": "public",
                "landuse": "education",
                "fixme": "amenity=school, amenity=college albo landuse=education w zale\u017cno\u015bci od tego, jakie plac\u00f3wki wchodz\u0105 w sk\u0142ad zespo\u0142u. Sprawd\u017a, kiedy stosowa\u0107 amenity=* a kiedy landuse=education.",
                "note": "Children RSPO: 10968;11055;128928;276603"
            }
        },
        {
            "id": 10968,
            "type": "Feature",
            "geometry": {
                "type": "Point",
                "coordinates": [
                    17.32434,
                    53.3681099
                ]
            },
            "properties": {
                "isced:level": "3",
                "ref:rspo": 10968,
                "official_name": "Bran\u017cowa Szko\u0142a I Stopnia",
                "name": "Bran\u017cowa Szko\u0142a I Stopnia",
                "addr:postcode": "89-422",
                "addr:city": "Sypniewo",
                "addr:street": "Kwiatowa",
                "addr:housenumber": "3",
                "addr:city:simc": 99949,
                "addr:street:sym_ul": 10562,
                "phone": "+48 523892069",
                "email": "centrum_sypniewo@wp.pl",
                "website": "http:\/\/www.zsckrsypniewo.pl",
                "ref:regon": "092972444",
                "ref:vatin": "PL5581374146",
                "operator": "Ministerstwo Rolnictwa I Rozwoju Wsi",
                "operator:type": "public",
                "amenity": "school",
                "note": "Parent RSPO: 8424"
            }
        },
        {
            "id": 11055,
            "type": "Feature",
            "geometry": {
                "type": "Point",
                "coordinates": [
                    17.32434,
                    53.368079900000005
                ]
            },
            "properties": {
                "isced:level": "4",
                "ref:rspo": 11055,
                "official_name": "Szko\u0142a Policealna",
                "name": "Szko\u0142a Policealna",
                "addr:postcode": "89-422",
                "addr:city": "Sypniewo",
                "addr:street": "Kwiatowa",
                "addr:housenumber": "3",
                "addr:city:simc": 99949,
                "addr:street:sym_ul": 10562,
                "phone": "+48 523892069",
                "email": "centrum_sypniewo@wp.pl",
                "website": "http:\/\/www.zsckrsypniewo.pl",
                "ref:regon": "340573356",
                "ref:vatin": "PL5581374146",
                "operator": "Ministerstwo Rolnictwa I Rozwoju Wsi",
                "operator:type": "public",
                "amenity": "college",
                "note": "Parent RSPO: 8424"
            }
        },
        {
            "id": 128928,
            "type": "Feature",
            "geometry": {
                "type": "Point",
                "coordinates": [
                    17.32434,
                    53.3680499
                ]
            },
            "properties": {
                "isced:level": "3",
                "ref:rspo": 128928,
                "official_name": "Technikum",
                "name": "Technikum",
                "addr:postcode": "89-422",
                "addr:city": "Sypniewo",
                "addr:street": "Kwiatowa",
                "addr:housenumber": "3",
                "addr:city:simc": 99949,
                "addr:street:sym_ul": 10562,
                "phone": "+48 523892069",
                "email": "sekretariat@zsckrsypniewo.pl",
                "ref:regon": "362439126",
                "operator": "Ministerstwo Rolnictwa I Rozwoju Wsi",
                "operator:type": "public",
                "amenity": "school",
                "note": "Parent RSPO: 8424"
            }
        },
        {
            "id": 276603,
            "type": "Feature",
            "geometry": {
                "type": "Point",
                "coordinates": [
                    17.32434,
                    53.3680199
                ]
            },
            "properties": {
                "ref:rspo": 276603,
                "official_name": "Centrum Kszta\u0142cenia Ustawicznego w Sypniewie",
                "name": "Centrum Kszta\u0142cenia Ustawicznego w Sypniewie",
                "addr:postcode": "89-422",
                "addr:city": "Sypniewo",
                "addr:street": "Kwiatowa",
                "addr:housenumber": "3",
                "addr:city:simc": 99949,
                "addr:street:sym_ul": 10562,
                "phone": "+48 523892069",
                "website": "http:\/\/www.zsckrsypniewo.pl",
                "ref:regon": "387290469",
                "operator": "Ministerstwo Rolnictwa I Rozwoju Wsi",
                "operator:type": "public",
                "fixme": "w zale\u017cno\u015bci od przedmiotu dzia\u0142alno\u015bci (np. amenity=training + training=*, amenity=dancing_school, amenity=language_school, amenity=music_school)",
                "note": "Parent RSPO: 8424"
            }
        },
        {
            "id": 28735,
            "type": "Feature",
            "geometry": {
                "type": "Point",
                "coordinates": [
                    17.32458,
                    53.37008
                ]
            },
            "properties": {
                "isced:level": "1;2",
                "ref:rspo": 28735,
                "official_name": "Szko\u0142a Podstawowa im. Ziemi Kraje\u0144skiej w Sypniewie",
                "name": "Szko\u0142a Podstawowa",
                "addr:postcode": "89-422",
                "addr:city": "Sypniewo",
                "addr:street": "Szkolna",
                "addr:housenumber": "1",
                "addr:city:simc": 99949,
                "addr:street:sym_ul": 21970,
                "phone": "+48 523892023",
                "email": "szkola@sp-sypniewo.pl",
                "website": "http:\/\/www.sp-sypniewo.pl",
                "ref:regon": "001156276",
                "ref:vatin": "PL5040072971",
                "operator": "Gmina Wi\u0119cbork",
                "operator:type": "government",
                "amenity": "school"
            }
        },
        {
            "id": 28741,
            "type": "Feature",
            "geometry": {
                "type": "Point",
                "coordinates": [
                    17.4358149,
                    53.375093
                ]
            },
            "properties": {
                "isced:level": "1;2",
                "ref:rspo": 28741,
                "official_name": "Szko\u0142a Podstawowa w Zakrzewku",
                "name": "Szko\u0142a Podstawowa w Zakrzewku",
                "addr:postcode": "89-410",
                "addr:place": "Zakrzewek",
                "addr:housenumber": "25",
                "addr:city:simc": 100109,
                "phone": "+48 523897461",
                "email": "szkola@spzakrzewek.edu.pl",
                "website": "http:\/\/www.spzakrzewek.edupage.org",
                "ref:regon": "001156282",
                "ref:vatin": "PL5611406857",
                "operator": "Gmina Wi\u0119cbork",
                "operator:type": "government",
                "amenity": "school"
            }
        }
    ]
}