{
    "type": "FeatureCollection",
    "features": [
        {
            "id": 106463,
            "type": "Feature",
            "geometry": {
                "type": "Point",
                "coordinates": [
                    17.66641,
                    53.32179
                ]
            },
            "properties": {
                "isced:level": "1;2",
                "ref:rspo": 106463,
                "official_name": "Szko\u0142a Podstawowa im. Mieczys\u0142awa Droboszewskiego w W\u0105welnie",
                "name": "Szko\u0142a Podstawowa",
                "addr:postcode": "89-413",
                "addr:city": "W\u0105welno",
                "addr:street": "Szkolna",
                "addr:housenumber": "1",
                "addr:teryt:simc": 96359,
                "addr:teryt:sym_ul": 21970,
                "phone": "+48 523893012",
                "email": "sekretariat@spw.sosno.pl",
                "website": "http:\/\/spw.sosno.pl",
                "ref:regon": "001157703",
                "ref:vatin": "PL5040065178",
                "operator": "Gmina So\u015bno",
                "operator:type": "government",
                "amenity": "school"
            }
        },
        {
            "id": 106165,
            "type": "Feature",
            "geometry": {
                "type": "Point",
                "coordinates": [
                    17.68915,
                    53.3892
                ]
            },
            "properties": {
                "isced:level": "1;2",
                "ref:rspo": 106165,
                "official_name": "Szko\u0142a Podstawowa im. Janusza Korczaka w So\u015bnie",
                "name": "Szko\u0142a Podstawowa",
                "addr:postcode": "89-412",
                "addr:city": "So\u015bno",
                "addr:street": "Kami\u0144skiego",
                "addr:housenumber": "1",
                "addr:teryt:simc": 96230,
                "addr:teryt:sym_ul": 7902,
                "phone": "+48 523891210",
                "email": "sekretariat@sps.sosno.pl",
                "website": "http:\/\/www.zssosno.szkolna.net",
                "ref:regon": "000562844",
                "ref:vatin": "PL5040065161",
                "operator": "Gmina So\u015bno",
                "operator:type": "government",
                "amenity": "school"
            }
        },
        {
            "id": 103679,
            "type": "Feature",
            "geometry": {
                "type": "Point",
                "coordinates": [
                    17.68676,
                    53.39026
                ]
            },
            "properties": {
                "ref:rspo": 103679,
                "official_name": "Samorz\u0105dowe Przedszkole w So\u015bnie",
                "name": "Samorz\u0105dowe Przedszkole w So\u015bnie",
                "addr:postcode": "89-412",
                "addr:city": "So\u015bno",
                "addr:street": "Parkowa",
                "addr:housenumber": "4",
                "addr:teryt:simc": 96230,
                "addr:teryt:sym_ul": 15710,
                "phone": "+48 523891216",
                "email": "dyrektor@ps.sosno.pl",
                "website": "http:\/\/www.przedszkolesosno.com",
                "ref:regon": "091475092",
                "ref:vatin": "PL5611465914",
                "operator": "Gmina So\u015bno",
                "operator:type": "government",
                "amenity": "kindergarten"
            }
        },
        {
            "id": 103680,
            "type": "Feature",
            "geometry": {
                "type": "Point",
                "coordinates": [
                    17.663496,
                    53.442191
                ]
            },
            "properties": {
                "isced:level": "1;2",
                "ref:rspo": 103680,
                "official_name": "Szko\u0142a Podstawowa w Przepa\u0142kowie",
                "name": "Szko\u0142a Podstawowa w Przepa\u0142kowie",
                "addr:postcode": "89-412",
                "addr:place": "Przepa\u0142kowo",
                "addr:housenumber": "7",
                "addr:teryt:simc": 96098,
                "phone": "+48 523884678",
                "email": "sekretariat@spp.sosno.pl",
                "website": "http:\/\/przepalkowo.edupage.org\/",
                "ref:regon": "001157710",
                "ref:vatin": "PL5611403913",
                "operator": "Gmina So\u015bno",
                "operator:type": "government",
                "amenity": "school"
            }
        }
    ]
}