{
    "type": "FeatureCollection",
    "features": [
        {
            "id": 53565,
            "type": "Feature",
            "geometry": {
                "type": "Point",
                "coordinates": [
                    17.6284199,
                    54.28767
                ]
            },
            "properties": {
                "isced:level": "1;2",
                "ref:rspo": 53565,
                "official_name": "Szko\u0142a Podstawowa w Jasieniu",
                "name": "Szko\u0142a Podstawowa w Jasieniu",
                "addr:postcode": "77-116",
                "addr:place": "Jasie\u0144",
                "addr:housenumber": "22",
                "addr:city:simc": 741943,
                "phone": "+48 598232225",
                "email": "szkola@jasien.kaszuby.pl",
                "ref:regon": "001141731",
                "ref:vatin": "PL8421558850",
                "operator": "Gmina Czarna D\u0105br\u00f3wka",
                "operator:type": "government",
                "amenity": "school"
            }
        },
        {
            "id": 71603,
            "type": "Feature",
            "geometry": {
                "type": "Point",
                "coordinates": [
                    17.49337,
                    54.31511
                ]
            },
            "properties": {
                "isced:level": "1;2",
                "ref:rspo": 71603,
                "official_name": "Szko\u0142a Podstawowa w No\u017cynie im. \u015aw. Jana Paw\u0142a Ii",
                "name": "Szko\u0142a Podstawowa w No\u017cynie",
                "addr:postcode": "77-115",
                "addr:place": "No\u017cyno",
                "addr:housenumber": "40",
                "addr:city:simc": 742256,
                "phone": "+48 598212685",
                "email": "spnozyno@czarnadabrowka.pl",
                "ref:regon": "001141725",
                "ref:vatin": "PL8421765885",
                "operator": "Gmina Czarna D\u0105br\u00f3wka",
                "operator:type": "government",
                "amenity": "school"
            }
        },
        {
            "id": 72704,
            "type": "Feature",
            "geometry": {
                "type": "Point",
                "coordinates": [
                    17.68955,
                    54.34001
                ]
            },
            "properties": {
                "isced:level": "1;2",
                "ref:rspo": 72704,
                "official_name": "Szko\u0142a Podstawowa w Rokitach im. Gryfa Pomorskiego",
                "name": "Szko\u0142a Podstawowa w Rokitach",
                "addr:postcode": "77-123",
                "addr:place": "Rokity",
                "addr:housenumber": "34",
                "addr:city:simc": 742405,
                "phone": "+48 598212821",
                "email": "szkola@rokity.pl",
                "ref:regon": "001141719",
                "ref:vatin": "PL8421769297",
                "operator": "Gmina Czarna D\u0105br\u00f3wka",
                "operator:type": "government",
                "amenity": "school"
            }
        },
        {
            "id": 127872,
            "type": "Feature",
            "geometry": {
                "type": "Point",
                "coordinates": [
                    17.55608,
                    54.35503
                ]
            },
            "properties": {
                "ref:rspo": 127872,
                "official_name": "Patrycja Mroszczyk Etogram Centrum Szkole\u0144",
                "name": "Patrycja Mroszczyk Etogram Centrum Szkole\u0144",
                "addr:postcode": "77-116",
                "addr:city": "Czarna D\u0105br\u00f3wka",
                "addr:street": "Ogrodowa",
                "addr:housenumber": "2",
                "addr:door": "1",
                "addr:city:simc": 741860,
                "addr:street:sym_ul": 14834,
                "email": "patrycja.mroszczyk@gmail.com",
                "ref:regon": "361937483",
                "ref:vatin": "PL5842627989",
                "operator": "Patrycja Mroszczyk",
                "operator:type": "private",
                "fixme": "w zale\u017cno\u015bci od przedmiotu dzia\u0142alno\u015bci (np. amenity=training + training=*, amenity=dancing_school, amenity=language_school, amenity=music_school) albo amenity=school, amenity=college, albo landuse=education w zale\u017cno\u015bci od tego, jakie plac\u00f3wki wchodz\u0105 w sk\u0142ad zespo\u0142u. Sprawd\u017a, kiedy stosowa\u0107 amenity=* a kiedy landuse=education."
            }
        },
        {
            "id": 79033,
            "type": "Feature",
            "geometry": {
                "type": "Point",
                "coordinates": [
                    17.5579,
                    54.35793
                ]
            },
            "properties": {
                "isced:level": "1;2",
                "ref:rspo": 79033,
                "official_name": "Szko\u0142a Podstawowa im.27 Wo\u0142y\u0144skiej Dywizji Piechoty Armii Krajowej w Czarnej D\u0105br\u00f3wce",
                "name": "Szko\u0142a Podstawowa im.27 Wo\u0142y\u0144skiej Dywizji Piechoty Armii Krajowej w Czarnej D\u0105br\u00f3wce",
                "addr:postcode": "77-116",
                "addr:city": "Czarna D\u0105br\u00f3wka",
                "addr:street": "S\u0142upska",
                "addr:housenumber": "17",
                "addr:city:simc": 741860,
                "addr:street:sym_ul": 20316,
                "phone": "+48 598212462",
                "email": "szkola@czarnadabrowka.pl",
                "ref:regon": "000676163",
                "ref:vatin": "PL8421769245",
                "operator": "Gmina Czarna D\u0105br\u00f3wka",
                "operator:type": "government",
                "amenity": "school"
            }
        }
    ]
}