{"type":"FeatureCollection","features":[{"id":60112,"type":"Feature","geometry":{"type":"Point","coordinates":[16.98915,53.94365]},"properties":{"isced:level":"1;2","ref:rspo":60112,"official_name":"Szko\u0142a Podstawowa im. Ksi\u0119dza Zdzis\u0142awa Jastrz\u0119biec Peszkowskiego w S\u0142osinku","name":"Szko\u0142a Podstawowa","addr:country":"PL","addr:postcode":"77-200","addr:place":"S\u0142osinko","addr:housenumber":"4","addr:teryt:sym_ul":747897,"contact:phone":"+48 593330081","contact:email":"szkola_slosinko@op.pl","contact:website":"http:\/\/spslosinko.szkolnastrona.pl","ref:regon":"000908389","ref:vatin":"PL8421640244","operator":"Gmina Miastko","operator:type":"government","amenity":"school"}},{"id":59709,"type":"Feature","geometry":{"type":"Point","coordinates":[16.9738599,53.99425]},"properties":{"isced:level":"1;2","ref:rspo":59709,"official_name":"Szko\u0142a Podstawowa Nr 2 im. Boles\u0142awa Chrobrego w Miastku","name":"Szko\u0142a Podstawowa Nr 2","addr:country":"PL","addr:postcode":"77-200","addr:city":"Miastko","addr:street":"ul. Kujawska","addr:housenumber":"1","addr:teryt:simc":10344,"addr:teryt:sym_ul":977404,"contact:phone":"+48 598572843","contact:email":"sp2miastko@o2.pl","contact:website":"http:\/\/www.sp2.miastko.pl","ref:regon":"000908136","ref:vatin":"PL8421640209","operator":"Gmina Miastko","operator:type":"government","amenity":"school"}},{"id":121396,"type":"Feature","geometry":{"type":"Point","coordinates":[16.97695,53.99876]},"properties":{"ref:rspo":121396,"official_name":"Niepubliczne Przedszkole Montessori Miastko","name":"Niepubliczne Przedszkole Montessori Miastko","addr:country":"PL","addr:postcode":"77-200","addr:city":"Miastko","addr:street":"ul. Kazimierza Wielkiego","addr:housenumber":"7","addr:teryt:simc":8265,"addr:teryt:sym_ul":977404,"contact:phone":"+48 508507140","contact:email":"jaroslaw.dwulit@op.pl","contact:website":"http:\/\/montessorimiastko.pl","ref:regon":"222013982","ref:vatin":"PL8421628415","operator":"Jaros\u0142aw Dwulit","operator:type":"private","amenity":"kindergarten"}},{"id":24587,"type":"Feature","geometry":{"type":"Point","coordinates":[16.97174,54.0002]},"properties":{"ref:rspo":24587,"official_name":"Powiatowy M\u0142odzie\u017cowy Dom Kultury","name":"Powiatowy M\u0142odzie\u017cowy Dom Kultury","addr:country":"PL","addr:postcode":"77-200","addr:city":"Miastko","addr:street":"ul. M\u0142odzie\u017cowa","addr:housenumber":"5","addr:teryt:simc":13096,"addr:teryt:sym_ul":977404,"contact:phone":"+48 598573206","contact:email":"sekretariat@mdk.miastko.com.pl","contact:website":"http:\/\/www.mdk.miastko.com.pl","ref:regon":"770761205","ref:vatin":"PL8421557939","operator":"Powiat Bytowski","operator:type":"government","amenity":"community_centre","community_centre:for":"juvenile"}},{"id":16267,"type":"Feature","geometry":{"type":"Point","coordinates":[16.97099,54.00054]},"properties":{"ref:rspo":16267,"official_name":"Poradnia Psychologiczno-Pedagogiczna w Miastku","name":"Poradnia Psychologiczno-Pedagogiczna w Miastku","addr:country":"PL","addr:postcode":"77-200","addr:city":"Miastko","addr:street":"ul. M\u0142odzie\u017cowa","addr:housenumber":"4a","addr:teryt:simc":13096,"addr:teryt:sym_ul":977404,"contact:phone":"+48 598570400","contact:email":"biuro@poradnia.miastko.com.pl","contact:website":"http:\/\/poradnia.miastko.com.pl","ref:regon":"000908515","ref:vatin":"PL8421022428","operator":"Powiat Bytowski","operator:type":"government","healthcare":"councelling","counselling_type":"education","fixme":"w zale\u017cno\u015bci od przedmiotu dzia\u0142alno\u015bci (np. healthcare=councelling + counselling_type=education albo healthcare=psychotherapist)"}},{"id":8245,"type":"Feature","geometry":{"type":"Point","coordinates":[16.97176,54.00061]},"properties":{"ref:rspo":8245,"official_name":"Zesp\u00f3\u0142 Szk\u00f3\u0142 Og\u00f3lnokszta\u0142c\u0105cych I Technicznych w Miastku","name":"Zesp\u00f3\u0142 Szk\u00f3\u0142 Og\u00f3lnokszta\u0142c\u0105cych I Technicznych w Miastku","addr:country":"PL","addr:postcode":"77-200","addr:city":"Miastko","addr:street":"ul. M\u0142odzie\u017cowa","addr:housenumber":"3","addr:teryt:simc":13096,"addr:teryt:sym_ul":977404,"contact:phone":"+48 598572649","contact:email":"sekretariat@zsoitmiastko.pl","contact:website":"http:\/\/www.zsoit.miastko.pl","ref:regon":"000190727","ref:vatin":"PL8421022486","operator":"Powiat Bytowski","operator:type":"government","landuse":"education","fixme":"amenity=school, amenity=college albo landuse=education w zale\u017cno\u015bci od tego, jakie plac\u00f3wki wchodz\u0105 w sk\u0142ad zespo\u0142u. Sprawd\u017a, kiedy stosowa\u0107 amenity=* a kiedy landuse=education.","note":"Children RSPO: 15030;15031;15032;15033;15034"}},{"id":15030,"type":"Feature","geometry":{"type":"Point","coordinates":[16.97176,54.00058]},"properties":{"isced:level":"3","ref:rspo":15030,"official_name":"Technikum","name":"Technikum","addr:country":"PL","addr:postcode":"77-200","addr:city":"Miastko","addr:street":"ul. M\u0142odzie\u017cowa","addr:housenumber":"3","addr:teryt:simc":13096,"addr:teryt:sym_ul":977404,"contact:phone":"+48 598572649","contact:email":"sekretariat@zsoitmiastko.pl","contact:website":"http:\/\/www.zsoit.miastko.pl","ref:regon":"771601350","operator":"Powiat Bytowski","operator:type":"government","amenity":"school","note":"Parent RSPO: 8245"}},{"id":15031,"type":"Feature","geometry":{"type":"Point","coordinates":[16.97176,54.000550000000004]},"properties":{"isced:level":"3","ref:rspo":15031,"official_name":"Liceum Og\u00f3lnokszta\u0142c\u0105ce Z Oddzia\u0142ami Mistrzostwa Sportowego w Miastku","name":"Liceum Og\u00f3lnokszta\u0142c\u0105ce Z Oddzia\u0142ami Mistrzostwa Sportowego w Miastku","addr:country":"PL","addr:postcode":"77-200","addr:city":"Miastko","addr:street":"ul. M\u0142odzie\u017cowa","addr:housenumber":"3","addr:teryt:simc":13096,"addr:teryt:sym_ul":977404,"contact:phone":"+48 598572649","contact:email":"sekretariat@zsoitmiastko.pl","contact:website":"http:\/\/www.zsoit.miastko.pl","ref:regon":"220097236","operator":"Powiat Bytowski","operator:type":"government","amenity":"school","note":"Parent RSPO: 8245"}},{"id":15032,"type":"Feature","geometry":{"type":"Point","coordinates":[16.97176,54.00052]},"properties":{"isced:level":"3","ref:rspo":15032,"official_name":"Bran\u017cowa Szko\u0142a I Stopnia","name":"Bran\u017cowa Szko\u0142a I Stopnia","addr:country":"PL","addr:postcode":"77-200","addr:city":"Miastko","addr:street":"ul. M\u0142odzie\u017cowa","addr:housenumber":"3","addr:teryt:simc":13096,"addr:teryt:sym_ul":977404,"contact:phone":"+48 598572649","contact:email":"sekretariat@zsoitmiastko.pl","contact:website":"http:\/\/www.zsoit.miastko.pl","ref:regon":"771601337","operator":"Powiat Bytowski","operator:type":"government","amenity":"school","note":"Parent RSPO: 8245"}},{"id":15033,"type":"Feature","geometry":{"type":"Point","coordinates":[16.97176,54.00049]},"properties":{"isced:level":"4","ref:rspo":15033,"official_name":"Szko\u0142a Policealna","name":"Szko\u0142a Policealna","addr:country":"PL","addr:postcode":"77-200","addr:city":"Miastko","addr:street":"ul. M\u0142odzie\u017cowa","addr:housenumber":"3","addr:teryt:simc":13096,"addr:teryt:sym_ul":977404,"contact:phone":"+48 598572649","contact:email":"sekretariat@zsoit.miastko.pl","contact:website":"http:\/\/www.zsoit.miastko.pl","ref:regon":"220057478","operator":"Powiat Bytowski","operator:type":"government","amenity":"college","note":"Parent RSPO: 8245"}},{"id":15034,"type":"Feature","geometry":{"type":"Point","coordinates":[16.97176,54.000460000000004]},"properties":{"isced:level":"3","ref:rspo":15034,"official_name":"Liceum Og\u00f3lnokszta\u0142c\u0105ce dla Doros\u0142ych","name":"Liceum Og\u00f3lnokszta\u0142c\u0105ce dla Doros\u0142ych","addr:country":"PL","addr:postcode":"77-200","addr:city":"Miastko","addr:street":"ul. M\u0142odzie\u017cowa","addr:housenumber":"3","addr:teryt:simc":13096,"addr:teryt:sym_ul":977404,"contact:phone":"+48 598572649","contact:email":"sekretariat@zsoitmiastko.pl","contact:website":"http:\/\/www.zsoitmiastko.pl","ref:regon":"771601372","operator":"Powiat Bytowski","operator:type":"government","amenity":"school","note":"Parent RSPO: 8245"}},{"id":23120,"type":"Feature","geometry":{"type":"Point","coordinates":[16.97709,54.00084]},"properties":{"ref:rspo":23120,"official_name":"Pa\u0144stwowa Szko\u0142a Muzyczna I St. im. Fryderyka Chopina w Miastku","name":"Pa\u0144stwowa Szko\u0142a Muzyczna I St.","addr:country":"PL","addr:postcode":"77-200","addr:city":"Miastko","addr:street":"ul. Armii Krajowej","addr:housenumber":"30a","addr:teryt:simc":432,"addr:teryt:sym_ul":977404,"contact:phone":"+48 598572308","contact:email":"sekretariat@psmmiastko.pl","contact:website":"http:\/\/psmmiastko.pl","ref:regon":"000281944","operator":"Ministerstwo Kultury I Dziedzictwa Narodowego","operator:type":"public","amenity":"music_school"}},{"id":56656,"type":"Feature","geometry":{"type":"Point","coordinates":[16.97551,54.00089]},"properties":{"ref:rspo":56656,"official_name":"Przedszkole Miejskie Nr 1 w Miastku","name":"Przedszkole Miejskie Nr 1 w Miastku","addr:country":"PL","addr:postcode":"77-200","addr:city":"Miastko","addr:street":"ul. Koszali\u0144ska","addr:housenumber":"19","addr:teryt:simc":9509,"addr:teryt:sym_ul":977404,"contact:phone":"+48 598572537","contact:email":"przedszkole1@miastko.pl","ref:regon":"770500290","ref:vatin":"PL8421331690","operator":"Gmina Miastko","operator:type":"government","amenity":"kindergarten"}},{"id":86204,"type":"Feature","geometry":{"type":"Point","coordinates":[16.98019,54.00161]},"properties":{"ref:rspo":86204,"official_name":"'Lingua\" Szko\u0142a J\u0119zyk\u00f3w Obcych Anna Kalka","name":"'Lingua\" Szko\u0142a J\u0119zyk\u00f3w Obcych Anna Kalka","addr:country":"PL","addr:postcode":"77-200","addr:city":"Miastko","addr:street":"ul. Armii Krajowej","addr:housenumber":"39c","addr:teryt:simc":432,"addr:teryt:sym_ul":977404,"contact:phone":"+48 609956395","contact:email":"kontakt@lingua-miastko.pl","contact:website":"http:\/\/www.lingua-miastko.pl","ref:regon":"221782610","ref:vatin":"PL8421612621","operator":"Anna Kalka","operator:type":"private","fixme":"w zale\u017cno\u015bci od przedmiotu dzia\u0142alno\u015bci (np. amenity=training + training=*, amenity=dancing_school, amenity=language_school, amenity=music_school)"}},{"id":59101,"type":"Feature","geometry":{"type":"Point","coordinates":[16.97688,54.00172]},"properties":{"isced:level":"1;2","ref:rspo":59101,"official_name":"Szko\u0142a Podstawowa Nr 1 im. Miko\u0142aja Kopernika w Miastku","name":"Szko\u0142a Podstawowa Nr 1","addr:country":"PL","addr:postcode":"77-200","addr:city":"Miastko","addr:street":"ul. Boles\u0142awa Chrobrego","addr:housenumber":"7","addr:teryt:simc":1742,"addr:teryt:sym_ul":977404,"contact:phone":"+48 598572962","contact:email":"szp1miastko@interia.pl","contact:website":"http:\/\/sp1.miastko.pl","ref:regon":"000204091","ref:vatin":"PL8421640215","operator":"Gmina Miastko","operator:type":"government","amenity":"school"}},{"id":111386,"type":"Feature","geometry":{"type":"Point","coordinates":[16.97688,54.001689999999996]},"properties":{"ref:rspo":111386,"official_name":"Pedagogiczna Biblioteka Wojew\u00f3dzka w S\u0142upsku Filia Nr 4 w Miastku","name":"Pedagogiczna Biblioteka Wojew\u00f3dzka w S\u0142upsku Filia Nr 4 w Miastku","addr:country":"PL","addr:postcode":"77-200","addr:city":"Miastko","addr:street":"ul. Boles\u0142awa Chrobrego","addr:housenumber":"7","addr:teryt:simc":1742,"addr:teryt:sym_ul":977404,"contact:phone":"+48 598572554","contact:email":"filia.miastko@pbw.slupsk.pl","contact:website":"http:\/\/www.pbw.slupsk.pl\/miastko","ref:regon":"786549000","operator":"Wojew\u00f3dztwo Pomorskie","operator:type":"government","amenity":"library","note":"Parent RSPO: 9620"}},{"id":120103,"type":"Feature","geometry":{"type":"Point","coordinates":[16.98557,54.00443]},"properties":{"ref:rspo":120103,"official_name":"Zak\u0142ad Us\u0142ugowo-Szkoleniowy \"Wiedza\"","name":"Zak\u0142ad Us\u0142ugowo-Szkoleniowy \"Wiedza\"","addr:country":"PL","addr:postcode":"77-200","addr:city":"Miastko","addr:street":"ul. D\u0142uga","addr:housenumber":"10","addr:teryt:simc":3839,"addr:teryt:sym_ul":977404,"contact:phone":"+48 502532775","contact:email":"wiedzamiastko@wp.pl","ref:regon":"221958019","ref:vatin":"PL5551238183","operator":"Justyna Springer-Bucholc","operator:type":"private","fixme":"w zale\u017cno\u015bci od przedmiotu dzia\u0142alno\u015bci (np. amenity=training + training=*, amenity=dancing_school, amenity=language_school, amenity=music_school)"}},{"id":133893,"type":"Feature","geometry":{"type":"Point","coordinates":[16.96821,54.00531]},"properties":{"isced:level":"1;2","ref:rspo":133893,"official_name":"Szko\u0142a Podstawowa Nr 3 im. Jana Paw\u0142a II w Miastku","name":"Szko\u0142a Podstawowa Nr 3","addr:country":"PL","addr:postcode":"77-200","addr:city":"Miastko","addr:street":"ul. Wrzosowa","addr:housenumber":"1","addr:teryt:simc":24870,"addr:teryt:sym_ul":977404,"contact:phone":"+48 598578280","contact:email":"sp3miastko@gmail.com","contact:website":"http:\/\/www.sp3.miastko.pl\/","ref:regon":"367717311","operator":"Gmina Miastko","operator:type":"government","amenity":"school"}},{"id":56537,"type":"Feature","geometry":{"type":"Point","coordinates":[16.88748,54.01676]},"properties":{"isced:level":"1;2","ref:rspo":56537,"official_name":"Publiczna Szko\u0142a Podstawowa im. Karola Wojty\u0142y w Kamnicy","name":"Publiczna Szko\u0142a Podstawowa","addr:country":"PL","addr:postcode":"77-200","addr:place":"Kamnica","addr:housenumber":"1","addr:door":"1","addr:teryt:sym_ul":747555,"contact:phone":"+48 598583114","contact:email":"szkola_kamnica@wp.pl","contact:website":"http:\/\/spkamnica.pl","ref:regon":"221765680","ref:vatin":"PL8421287983","operator":"Krystyna Hingst","operator:type":"private","amenity":"school"}},{"id":275629,"type":"Feature","geometry":{"type":"Point","coordinates":[16.88748,54.016729999999995]},"properties":{"isced:level":"1;2","ref:rspo":275629,"official_name":"Niepubliczna Szko\u0142a Podstawowa Z Oddzia\u0142ami Przedszkolnymi I Integracyjnymi","name":"Niepubliczna Szko\u0142a Podstawowa Z Oddzia\u0142ami Przedszkolnymi I Integracyjnymi","addr:country":"PL","addr:postcode":"77-200","addr:place":"Kamnica","addr:housenumber":"1","addr:door":"1","addr:teryt:sym_ul":747555,"contact:phone":"+48 598583114","contact:email":"szkola_kamnica@wp.pl","contact:website":"http:\/\/spkamnica.szkolnastrona.pl","ref:regon":"386932983","operator":"Krystyna Hingst","operator:type":"private","amenity":"school"}},{"id":6905,"type":"Feature","geometry":{"type":"Point","coordinates":[16.95184,54.02019]},"properties":{"ref:rspo":6905,"official_name":"Zesp\u00f3\u0142 Szk\u00f3\u0142 Ponadpodstawowych w \u0141odzierzy","name":"Zesp\u00f3\u0142 Szk\u00f3\u0142 Ponadpodstawowych w \u0141odzierzy","addr:country":"PL","addr:postcode":"77-200","addr:place":"\u0141odzierz","addr:housenumber":"11","addr:teryt:sym_ul":748112,"contact:phone":"+48 598572409","contact:email":"zspsekretariat@lodzierz.pl","contact:website":"http:\/\/www.lodzierz.pl","ref:regon":"221734805","operator":"Powiat Bytowski","operator:type":"government","landuse":"education","fixme":"amenity=school, amenity=college albo landuse=education w zale\u017cno\u015bci od tego, jakie plac\u00f3wki wchodz\u0105 w sk\u0142ad zespo\u0142u. Sprawd\u017a, kiedy stosowa\u0107 amenity=* a kiedy landuse=education.","note":"Children RSPO: 83498;92957;133882"}},{"id":83498,"type":"Feature","geometry":{"type":"Point","coordinates":[16.95184,54.02016]},"properties":{"isced:level":"3","ref:rspo":83498,"official_name":"Technikum w \u0141odzierzy","name":"Technikum w \u0141odzierzy","addr:country":"PL","addr:postcode":"77-200","addr:place":"\u0141odzierz","addr:housenumber":"11","addr:teryt:sym_ul":748112,"contact:phone":"+48 598572409","contact:email":"zspsekretariat@lodzierz.pl","contact:website":"http:\/\/www.lodzierz.pl","ref:regon":"221778458","operator":"Powiat Bytowski","operator:type":"government","amenity":"school","note":"Parent RSPO: 6905"}},{"id":92957,"type":"Feature","geometry":{"type":"Point","coordinates":[16.95184,54.02013]},"properties":{"ref:rspo":92957,"official_name":"Rolnicze Centrum Kszta\u0142cenia Ustawicznego w \u0141odzierzy","name":"Rolnicze Centrum Kszta\u0142cenia Ustawicznego w \u0141odzierzy","addr:country":"PL","addr:postcode":"77-200","addr:place":"\u0141odzierz","addr:housenumber":"11","addr:teryt:sym_ul":748112,"contact:phone":"+48 598572409","contact:email":"zsp@lodzierz.pl","contact:website":"http:\/\/www.lodzierz.pl","ref:regon":"221790991","operator":"Powiat Bytowski","operator:type":"government","fixme":"w zale\u017cno\u015bci od przedmiotu dzia\u0142alno\u015bci (np. amenity=training + training=*, amenity=dancing_school, amenity=language_school, amenity=music_school)","note":"Parent RSPO: 6905"}},{"id":133882,"type":"Feature","geometry":{"type":"Point","coordinates":[16.95184,54.0201]},"properties":{"isced:level":"3","ref:rspo":133882,"official_name":"Bran\u017cowa Szko\u0142a I Stopnia","name":"Bran\u017cowa Szko\u0142a I Stopnia","addr:country":"PL","addr:postcode":"77-200","addr:place":"\u0141odzierz","addr:housenumber":"11","addr:teryt:sym_ul":748112,"contact:phone":"+48 598572409","contact:email":"zspsekretariat@lodzierz.pl","contact:website":"http:\/\/www.lodzierz.pl","ref:regon":"221791000","operator":"Powiat Bytowski","operator:type":"government","amenity":"school","note":"Parent RSPO: 6905"}},{"id":60750,"type":"Feature","geometry":{"type":"Point","coordinates":[17.1720027,54.0227984]},"properties":{"isced:level":"1;2","ref:rspo":60750,"official_name":"Szko\u0142a Podstawowa im. Hieronima Derdowskiego w Piaszczynie","name":"Szko\u0142a Podstawowa","addr:country":"PL","addr:postcode":"77-200","addr:place":"Piaszczyna","addr:housenumber":"6-7","addr:teryt:sym_ul":747756,"contact:phone":"+48 598571227","contact:email":"sppiaszczyna@interia.pl","ref:regon":"000908366","ref:vatin":"PL8421640267","operator":"Gmina Miastko","operator:type":"government","amenity":"school"}},{"id":132815,"type":"Feature","geometry":{"type":"Point","coordinates":[17.16442,54.05515]},"properties":{"isced:level":"1;2","ref:rspo":132815,"official_name":"Szko\u0142a Podstawowa im. Kawaler\u00f3w Orderu U\u015bmiechu w Wa\u0142dowie","name":"Szko\u0142a Podstawowa","addr:country":"PL","addr:postcode":"77-200","addr:place":"Wa\u0142dowo","addr:housenumber":"1","addr:teryt:sym_ul":748046,"contact:phone":"+48 598571307","contact:email":"szkola_waldowo@wp.pl","ref:regon":"366234332","operator":"Anna Pali\u0144ska","operator:type":"private","amenity":"school"}},{"id":59988,"type":"Feature","geometry":{"type":"Point","coordinates":[16.8502699,54.0722]},"properties":{"isced:level":"1;2","ref:rspo":59988,"official_name":"Szko\u0142a Podstawowa im. Henryka Sienkiewicza w \u015awierznie","name":"Szko\u0142a Podstawowa","addr:country":"PL","addr:postcode":"77-200","addr:place":"\u015awierzno","addr:housenumber":"4","addr:teryt:sym_ul":747957,"contact:phone":"+48 598583267","contact:email":"sp.swierzno@op.pl","contact:website":"http:\/\/swierznosp.pl","ref:regon":"000908350","ref:vatin":"PL8421640238","operator":"Gmina Miastko","operator:type":"government","amenity":"school"}},{"id":73452,"type":"Feature","geometry":{"type":"Point","coordinates":[16.98797,54.10048]},"properties":{"isced:level":"1;2","ref:rspo":73452,"official_name":"Szko\u0142a Podstawowa im. Polskich Noblist\u00f3w w Dretyniu","name":"Szko\u0142a Podstawowa","addr:country":"PL","addr:postcode":"77-200","addr:place":"Drety\u0144","addr:housenumber":"26","addr:teryt:sym_ul":747472,"contact:phone":"+48 598581617","contact:email":"sp.dretyn@wp.pl","contact:website":"http:\/\/spdretyn.pl","ref:regon":"000739283","ref:vatin":"PL8421668389","operator":"Gmina Miastko","operator:type":"government","amenity":"school"}},{"id":16328,"type":"Feature","geometry":{"type":"Point","coordinates":[16.94754,54.12107]},"properties":{"ref:rspo":16328,"official_name":"Specjalny O\u015brodek Szkolno-Wychowawczy w Tursku","name":"Specjalny O\u015brodek Szkolno-Wychowawczy w Tursku","addr:country":"PL","addr:postcode":"77-200","addr:place":"Tursko","addr:housenumber":"4","addr:teryt:sym_ul":748030,"contact:phone":"+48 598581694","contact:email":"sosw_tursko@op.pl","contact:website":"http:\/\/www.soswtursko.szkolnastrona.pl","ref:regon":"000191388","ref:vatin":"PL8421022322","operator":"Powiat Bytowski","operator:type":"government","amenity":"school","note":"Children RSPO: 26235;26237"}},{"id":26235,"type":"Feature","geometry":{"type":"Point","coordinates":[16.94754,54.12104]},"properties":{"isced:level":"1;2","ref:rspo":26235,"official_name":"Szko\u0142a Podstawowa Specjalna w Tursku","name":"Szko\u0142a Podstawowa Specjalna w Tursku","addr:country":"PL","addr:postcode":"77-200","addr:place":"Tursko","addr:housenumber":"4","addr:teryt:sym_ul":748030,"contact:phone":"+48 598581694","contact:email":"sosw_tursko@op.pl","contact:website":"http:\/\/www.soswtursko.szkolnastrona.pl","ref:regon":"221755983","operator":"Powiat Bytowski","operator:type":"government","amenity":"school","note":"Parent RSPO: 16328"}},{"id":26237,"type":"Feature","geometry":{"type":"Point","coordinates":[16.94754,54.121010000000005]},"properties":{"ref:rspo":26237,"official_name":"Szko\u0142a Specjalna Przysposabiaj\u0105ca Do Pracy w Tursku","name":"Szko\u0142a Specjalna Przysposabiaj\u0105ca Do Pracy w Tursku","addr:country":"PL","addr:postcode":"77-200","addr:place":"Tursko","addr:housenumber":"4","addr:teryt:sym_ul":748030,"contact:phone":"+48 598581694","contact:email":"sosw_tursko@op.pl","contact:website":"http:\/\/www.soswtursko.szkolnastrona.pl","ref:regon":"221755954","operator":"Powiat Bytowski","operator:type":"government","amenity":"school","note":"Parent RSPO: 16328"}},{"id":59740,"type":"Feature","geometry":{"type":"Point","coordinates":[17.50405,54.18322]},"properties":{"ref:rspo":59740,"official_name":"Przedszkole Miejskie Nr 3 im. Przyjaci\u00f3\u0142 Stumilowego Lasu w Miastku","name":"Przedszkole Miejskie Nr 3","addr:country":"PL","addr:postcode":"77-200","addr:city":"Miastko","addr:street":"ul. Juliana Tuwima","addr:housenumber":"2","addr:teryt:simc":23196,"addr:teryt:sym_ul":977404,"contact:phone":"+48 598572922","contact:email":"przedszkole3m@poczta.onet.pl","ref:regon":"770545022","ref:vatin":"PL8421331715","operator":"Gmina Miastko","operator:type":"government","amenity":"kindergarten"}}]}