{
    "type": "FeatureCollection",
    "features": [
        {
            "id": 60080,
            "type": "Feature",
            "geometry": {
                "type": "Point",
                "coordinates": [
                    17.46318,
                    54.08158
                ]
            },
            "properties": {
                "ref:rspo": 60080,
                "official_name": "Niepubliczne Przedszkole \"\u015awi\u0119tego Filipa\"",
                "name": "Niepubliczne Przedszkole \"\u015awi\u0119tego Filipa\"",
                "addr:postcode": "77-100",
                "addr:city": "Byt\u00f3w",
                "addr:street": "\u015awi\u0119tego Filipa Neri",
                "addr:housenumber": "1",
                "addr:teryt:simc": 977290,
                "addr:teryt:sym_ul": 29077,
                "phone": "+48 598224515",
                "email": "i.gospdarek@gmail.com",
                "ref:regon": "221768550",
                "ref:vatin": "PL8421102340",
                "operator": "Irena Gospodarek",
                "operator:type": "private",
                "amenity": "kindergarten"
            }
        },
        {
            "id": 69950,
            "type": "Feature",
            "geometry": {
                "type": "Point",
                "coordinates": [
                    17.42689,
                    54.13492
                ]
            },
            "properties": {
                "isced:level": "1;2",
                "ref:rspo": 69950,
                "official_name": "Szko\u0142a Podstawowa im. Marsza\u0142ka J\u00f3zefa Pi\u0142sudskiego w Niezabyszewie Z Fili\u0105 w Rekowie",
                "name": "Szko\u0142a Podstawowa",
                "addr:postcode": "77-132",
                "addr:city": "Niezabyszewo",
                "addr:street": "Bytowska",
                "addr:housenumber": "10",
                "addr:teryt:simc": 741044,
                "addr:teryt:sym_ul": 2530,
                "phone": "+48 598570010",
                "email": "szponie1@poczta.onet.pl",
                "website": "https:\/\/spniezabyszewo.stronyzklasa.pl\/",
                "ref:regon": "000908343",
                "ref:vatin": "PL8421023267",
                "operator": "Gmina Byt\u00f3w",
                "operator:type": "government",
                "amenity": "school"
            }
        },
        {
            "id": 69919,
            "type": "Feature",
            "geometry": {
                "type": "Point",
                "coordinates": [
                    17.4927,
                    54.14341
                ]
            },
            "properties": {
                "ref:rspo": 69919,
                "official_name": "Wojciech Wiktorowicz, Niepubliczne Przedszkole \"Bolek I Lolek\"",
                "name": "Wojciech Wiktorowicz, Niepubliczne Przedszkole \"Bolek I Lolek\"",
                "addr:postcode": "77-100",
                "addr:place": "Udorpie",
                "addr:housenumber": "40",
                "addr:teryt:simc": 741297,
                "phone": "+48 661822788",
                "email": "przedszkole@bolekilolek-bytow.pl",
                "ref:regon": "221771597",
                "ref:vatin": "PL8421602491",
                "operator": "Wojciech Wiktorowicz",
                "operator:type": "private",
                "amenity": "kindergarten"
            }
        },
        {
            "id": 269403,
            "type": "Feature",
            "geometry": {
                "type": "Point",
                "coordinates": [
                    17.48718,
                    54.16468
                ]
            },
            "properties": {
                "ref:rspo": 269403,
                "official_name": "Niepubliczne Przedszkole J\u0119zykowe Montessori Byt\u00f3w",
                "name": "Niepubliczne Przedszkole J\u0119zykowe Montessori Byt\u00f3w",
                "addr:postcode": "77-100",
                "addr:city": "Byt\u00f3w",
                "addr:street": "Dworcowa",
                "addr:housenumber": "3B",
                "addr:teryt:simc": 977290,
                "addr:teryt:sym_ul": 4434,
                "phone": "+48 508507140",
                "email": "montessori.bytow@gmail.com",
                "ref:regon": "381472650",
                "operator": "Jaros\u0142aw Dwulit",
                "operator:type": "private",
                "amenity": "kindergarten"
            }
        },
        {
            "id": 55916,
            "type": "Feature",
            "geometry": {
                "type": "Point",
                "coordinates": [
                    17.4806,
                    54.16569
                ]
            },
            "properties": {
                "ref:rspo": 55916,
                "official_name": "Atelier Niepubliczne Przedszkole \"Smyki\"",
                "name": "Atelier Niepubliczne Przedszkole \"Smyki\"",
                "addr:postcode": "77-100",
                "addr:city": "Byt\u00f3w",
                "addr:street": "Szarych Szereg\u00f3w",
                "addr:housenumber": "3",
                "addr:teryt:simc": 977290,
                "addr:teryt:sym_ul": 21787,
                "phone": "+48 667598600",
                "email": "aani@poczta.onet.pl",
                "ref:regon": "221766159",
                "ref:vatin": "PL8421627539",
                "operator": "Anna Nowodworska",
                "operator:type": "private",
                "amenity": "kindergarten"
            }
        },
        {
            "id": 15063,
            "type": "Feature",
            "geometry": {
                "type": "Point",
                "coordinates": [
                    17.4880299,
                    54.16587
                ]
            },
            "properties": {
                "ref:rspo": 15063,
                "official_name": "Zesp\u00f3\u0142 Szk\u00f3\u0142 Ekonomiczno-Us\u0142ugowych",
                "name": "Zesp\u00f3\u0142 Szk\u00f3\u0142 Ekonomiczno-Us\u0142ugowych",
                "addr:postcode": "77-100",
                "addr:city": "Byt\u00f3w",
                "addr:street": "Hieronima Derdowskiego",
                "addr:housenumber": "3",
                "addr:teryt:simc": 977290,
                "addr:teryt:sym_ul": 3769,
                "phone": "+48 598223014",
                "email": "sekretariat@zseu.edu.pl",
                "website": "http:\/\/www.zseu.edu.pl",
                "ref:regon": "000190495",
                "ref:vatin": "PL8421022440",
                "operator": "Powiat Bytowski",
                "operator:type": "government",
                "landuse": "education",
                "fixme": "amenity=school, amenity=college albo landuse=education w zale\u017cno\u015bci od tego, jakie plac\u00f3wki wchodz\u0105 w sk\u0142ad zespo\u0142u. Sprawd\u017a, kiedy stosowa\u0107 amenity=* a kiedy landuse=education.",
                "note": "Children RSPO: 23788;23790"
            }
        },
        {
            "id": 23788,
            "type": "Feature",
            "geometry": {
                "type": "Point",
                "coordinates": [
                    17.4880299,
                    54.165839999999996
                ]
            },
            "properties": {
                "isced:level": "3",
                "ref:rspo": 23788,
                "official_name": "Technikum Nr 2",
                "name": "Technikum Nr 2",
                "addr:postcode": "77-100",
                "addr:city": "Byt\u00f3w",
                "addr:street": "Hieronima Derdowskiego",
                "addr:housenumber": "3",
                "addr:teryt:simc": 977290,
                "addr:teryt:sym_ul": 3769,
                "phone": "+48 598223014",
                "email": "sekretariat@zseu.edu.pl",
                "website": "http:\/\/www.zseu.edu.pl",
                "ref:regon": "771598612",
                "operator": "Powiat Bytowski",
                "operator:type": "government",
                "amenity": "school",
                "note": "Parent RSPO: 15063"
            }
        },
        {
            "id": 23790,
            "type": "Feature",
            "geometry": {
                "type": "Point",
                "coordinates": [
                    17.4880299,
                    54.16581
                ]
            },
            "properties": {
                "isced:level": "3",
                "ref:rspo": 23790,
                "official_name": "Iii Liceum Og\u00f3lnokszta\u0142c\u0105ce",
                "name": "Iii Liceum Og\u00f3lnokszta\u0142c\u0105ce",
                "addr:postcode": "77-100",
                "addr:city": "Byt\u00f3w",
                "addr:street": "Hieronima Derdowskiego",
                "addr:housenumber": "3",
                "addr:teryt:simc": 977290,
                "addr:teryt:sym_ul": 3769,
                "phone": "+48 598223014",
                "email": "sekretariat@zseu.edu.pl",
                "website": "http:\/\/www.zseu.edu.pl",
                "ref:regon": "771628891",
                "operator": "Powiat Bytowski",
                "operator:type": "government",
                "amenity": "school",
                "note": "Parent RSPO: 15063"
            }
        },
        {
            "id": 74835,
            "type": "Feature",
            "geometry": {
                "type": "Point",
                "coordinates": [
                    17.49298,
                    54.16677
                ]
            },
            "properties": {
                "ref:rspo": 74835,
                "official_name": "Prywatne Centrum Edukacyjne \"Marmo\u0142owski\" S.c - Alicja Marmo\u0142owska, Ewa Marmo\u0142owska",
                "name": "Prywatne Centrum Edukacyjne \"Marmo\u0142owski\" S.c - Alicja Marmo\u0142owska, Ewa Marmo\u0142owska",
                "addr:postcode": "77-100",
                "addr:city": "Byt\u00f3w",
                "addr:street": "11 Listopada",
                "addr:housenumber": "1",
                "addr:teryt:simc": 977290,
                "addr:teryt:sym_ul": 11205,
                "phone": "+48 598227402",
                "email": "pce@marmolowski.pl",
                "website": "http:\/\/www.marmolowski.pl",
                "ref:regon": "221774779",
                "ref:vatin": "PL8421535665",
                "operator": "Alicja Marmo\u0142owska",
                "operator:type": "private",
                "amenity": "school",
                "fixme": "amenity=school lub amenity=college",
                "note": "Children RSPO: 86580"
            }
        },
        {
            "id": 86580,
            "type": "Feature",
            "geometry": {
                "type": "Point",
                "coordinates": [
                    17.49298,
                    54.16674
                ]
            },
            "properties": {
                "isced:level": "3",
                "ref:rspo": 86580,
                "official_name": "Zaoczne Liceum Og\u00f3lnoksztalc\u0105ce dla Doros\u0142ych w Bytowie",
                "name": "Zaoczne Liceum Og\u00f3lnoksztalc\u0105ce dla Doros\u0142ych w Bytowie",
                "addr:postcode": "77-100",
                "addr:city": "Byt\u00f3w",
                "addr:street": "11 Listopada",
                "addr:housenumber": "1",
                "addr:teryt:simc": 977290,
                "addr:teryt:sym_ul": 11205,
                "phone": "+48 598227402",
                "email": "pce@marmolowski.pl",
                "website": "http:\/\/www.marmolowski.pl",
                "ref:regon": "221781673",
                "operator": "Alicja Marmo\u0142owska",
                "operator:type": "private",
                "amenity": "school",
                "note": "Parent RSPO: 74835"
            }
        },
        {
            "id": 54328,
            "type": "Feature",
            "geometry": {
                "type": "Point",
                "coordinates": [
                    17.4875,
                    54.16684
                ]
            },
            "properties": {
                "isced:level": "1;2",
                "ref:rspo": 54328,
                "official_name": "Szko\u0142a Podstawowa Nr 5 Im Mjr Henryka Sucharskiego w Bytowie",
                "name": "Szko\u0142a Podstawowa Nr 5 Im Mjr Henryka Sucharskiego w Bytowie",
                "addr:postcode": "77-100",
                "addr:city": "Byt\u00f3w",
                "addr:street": "M\u0142y\u0144ska",
                "addr:housenumber": "11",
                "addr:teryt:simc": 977290,
                "addr:teryt:sym_ul": 13132,
                "phone": "+48 598223559",
                "email": "szkola@sp5.bytow.pl",
                "website": "http:\/\/www.sp5.bytow.pl",
                "ref:regon": "001073596",
                "ref:vatin": "PL8421023244",
                "operator": "Gmina Byt\u00f3w",
                "operator:type": "government",
                "amenity": "school"
            }
        },
        {
            "id": 27340,
            "type": "Feature",
            "geometry": {
                "type": "Point",
                "coordinates": [
                    17.4989199,
                    54.1676
                ]
            },
            "properties": {
                "isced:level": "1;2",
                "ref:rspo": 27340,
                "official_name": "Szko\u0142a Podstawowa Nr 3",
                "name": "Szko\u0142a Podstawowa Nr 3",
                "addr:postcode": "77-100",
                "addr:city": "Byt\u00f3w",
                "addr:street": "Jana Styp-Rekowskiego",
                "addr:housenumber": "2A",
                "addr:teryt:simc": 977290,
                "addr:teryt:sym_ul": 33870,
                "phone": "+48 598222589",
                "email": "sekretariat@sosw-bytow.com.pl",
                "website": "http:\/\/www.sosw-bytow.com.pl",
                "ref:regon": "771598747",
                "operator": "Powiat Bytowski",
                "operator:type": "government",
                "amenity": "school",
                "note": "Parent RSPO: 16327"
            }
        },
        {
            "id": 27342,
            "type": "Feature",
            "geometry": {
                "type": "Point",
                "coordinates": [
                    17.4989199,
                    54.16757
                ]
            },
            "properties": {
                "isced:level": "3",
                "ref:rspo": 27342,
                "official_name": "Bran\u017cowa Szko\u0142a I Stopnia Specjalna Nr 2",
                "name": "Bran\u017cowa Szko\u0142a I Stopnia Specjalna Nr 2",
                "addr:postcode": "77-100",
                "addr:city": "Byt\u00f3w",
                "addr:street": "Jana Styp-Rekowskiego",
                "addr:housenumber": "2A",
                "addr:teryt:simc": 977290,
                "addr:teryt:sym_ul": 33870,
                "phone": "+48 598222589",
                "email": "sekretariat@sosw-bytow.com.pl",
                "website": "http:\/\/www.sosw-bytow.com.pl",
                "ref:regon": "771598753",
                "operator": "Powiat Bytowski",
                "operator:type": "government",
                "amenity": "school",
                "note": "Parent RSPO: 16327"
            }
        },
        {
            "id": 27343,
            "type": "Feature",
            "geometry": {
                "type": "Point",
                "coordinates": [
                    17.4989199,
                    54.16754
                ]
            },
            "properties": {
                "ref:rspo": 27343,
                "official_name": "Szko\u0142a Przysposabiaj\u0105ca Do Pracy",
                "name": "Szko\u0142a Przysposabiaj\u0105ca Do Pracy",
                "addr:postcode": "77-100",
                "addr:city": "Byt\u00f3w",
                "addr:street": "Jana Styp-Rekowskiego",
                "addr:housenumber": "2A",
                "addr:teryt:simc": 977290,
                "addr:teryt:sym_ul": 33870,
                "phone": "+48 598222589",
                "email": "sekretariat@sosw-bytow.com.pl",
                "website": "http:\/\/www.sosw-bytow.com.pl",
                "ref:regon": "220038127",
                "operator": "Powiat Bytowski",
                "operator:type": "government",
                "amenity": "school",
                "note": "Parent RSPO: 16327"
            }
        },
        {
            "id": 119919,
            "type": "Feature",
            "geometry": {
                "type": "Point",
                "coordinates": [
                    17.48797,
                    54.16781
                ]
            },
            "properties": {
                "ref:rspo": 119919,
                "official_name": "Pa\u0144stwowa Szko\u0142a Muzyczna I St. w S\u0142upsku Filia w Bytowie",
                "name": "Pa\u0144stwowa Szko\u0142a Muzyczna I St. w S\u0142upsku Filia w Bytowie",
                "addr:postcode": "77-100",
                "addr:city": "Byt\u00f3w",
                "addr:street": "M\u0142y\u0144ska",
                "addr:housenumber": "8",
                "addr:teryt:simc": 977290,
                "addr:teryt:sym_ul": 13132,
                "phone": "+48 598445893",
                "email": "filiabytow@psm.slupsk.pl",
                "ref:regon": "220039747",
                "operator": "Ministerstwo Kultury I Dziedzictwa Narodowego",
                "operator:type": "public",
                "amenity": "music_school",
                "note": "Parent RSPO: 22928"
            }
        },
        {
            "id": 60083,
            "type": "Feature",
            "geometry": {
                "type": "Point",
                "coordinates": [
                    17.4972,
                    54.16796
                ]
            },
            "properties": {
                "ref:rspo": 60083,
                "official_name": "Przedszkole Nr 1 w Bytowie",
                "name": "Przedszkole Nr 1 w Bytowie",
                "addr:postcode": "77-100",
                "addr:city": "Byt\u00f3w",
                "addr:street": "1 Maja",
                "addr:housenumber": "17",
                "addr:teryt:simc": 977290,
                "addr:teryt:sym_ul": 30090,
                "phone": "+48 598222424",
                "email": "przedszkole3b@o2.pl",
                "website": "http:\/\/www.bajka-bytow.pl",
                "ref:regon": "221088140",
                "ref:vatin": "PL8421753178",
                "operator": "Gmina Byt\u00f3w",
                "operator:type": "government",
                "amenity": "kindergarten"
            }
        },
        {
            "id": 111383,
            "type": "Feature",
            "geometry": {
                "type": "Point",
                "coordinates": [
                    17.4918799,
                    54.16871
                ]
            },
            "properties": {
                "ref:rspo": 111383,
                "official_name": "Pedagogiczna Biblioteka Wojew\u00f3dzka w S\u0142upsku Filia Nr 1 w Bytowie",
                "name": "Pedagogiczna Biblioteka Wojew\u00f3dzka w S\u0142upsku Filia Nr 1 w Bytowie",
                "addr:postcode": "77-100",
                "addr:city": "Byt\u00f3w",
                "addr:street": "Zamkowa",
                "addr:housenumber": "2",
                "addr:teryt:simc": 977290,
                "addr:teryt:sym_ul": 25547,
                "phone": "+48 598222010",
                "email": "filia.bytow@pbw.slupsk.pl",
                "website": "http:\/\/www.pbw.slupsk.pl\/bytow",
                "ref:regon": "786549000",
                "operator": "Wojew\u00f3dztwo Pomorskie",
                "operator:type": "government",
                "amenity": "library",
                "note": "Parent RSPO: 9620"
            }
        },
        {
            "id": 74604,
            "type": "Feature",
            "geometry": {
                "type": "Point",
                "coordinates": [
                    17.49365,
                    54.16901
                ]
            },
            "properties": {
                "ref:rspo": 74604,
                "official_name": "Prywatny O\u015brodek Nauki w Bytowie",
                "name": "Prywatny O\u015brodek Nauki w Bytowie",
                "addr:postcode": "77-100",
                "addr:city": "Byt\u00f3w",
                "addr:street": "1 Maja",
                "addr:housenumber": "7",
                "addr:teryt:simc": 977290,
                "addr:teryt:sym_ul": 11926,
                "phone": "+48 598222640",
                "email": "kancelaria@pon.bytow.pl",
                "website": "http:\/\/www.pon.bytow.pl",
                "ref:regon": "221774696",
                "ref:vatin": "PL8421001923",
                "operator": "Miros\u0142aw Fr\u0105ckowiak",
                "operator:type": "private",
                "fixme": "w zale\u017cno\u015bci od przedmiotu dzia\u0142alno\u015bci (np. amenity=training + training=*, amenity=dancing_school, amenity=language_school, amenity=music_school)"
            }
        },
        {
            "id": 123336,
            "type": "Feature",
            "geometry": {
                "type": "Point",
                "coordinates": [
                    17.47515,
                    54.16902
                ]
            },
            "properties": {
                "isced:level": "3",
                "ref:rspo": 123336,
                "official_name": "Szko\u0142a Bran\u017cowa w Bytowie",
                "name": "Szko\u0142a Bran\u017cowa w Bytowie",
                "addr:postcode": "77-100",
                "addr:city": "Byt\u00f3w",
                "addr:street": "Micha\u0142a Drzyma\u0142y",
                "addr:housenumber": "26",
                "addr:door": "A",
                "addr:teryt:simc": 977290,
                "addr:teryt:sym_ul": 4317,
                "phone": "+48 598225005",
                "email": "weronika.chirk@marmolowski.pl",
                "website": "http:\/\/www.marmolowski.pl",
                "ref:regon": "222110656",
                "ref:vatin": "PL8421535665",
                "operator": "Marmo\u0142owski Sp\u00f3\u0142ka Z Ograniczon\u0105 Odpowiedzialno\u015bci\u0105",
                "operator:type": "private",
                "amenity": "school"
            }
        },
        {
            "id": 271518,
            "type": "Feature",
            "geometry": {
                "type": "Point",
                "coordinates": [
                    17.47551,
                    54.16902
                ]
            },
            "properties": {
                "ref:rspo": 271518,
                "official_name": "Przedszkole J\u0119zykowe For Kids",
                "name": "Przedszkole J\u0119zykowe For Kids",
                "addr:postcode": "77-100",
                "addr:city": "Byt\u00f3w",
                "addr:street": "Micha\u0142a Drzyma\u0142y",
                "addr:housenumber": "26A",
                "addr:teryt:simc": 977290,
                "addr:teryt:sym_ul": 4317,
                "phone": "+48 598227402",
                "email": "forkids@marmolowski.pl",
                "website": "http:\/\/www.forkids.marmolowski.pl",
                "ref:regon": "383377067",
                "operator": "Alicja Marmo\u0142owska",
                "operator:type": "private",
                "amenity": "kindergarten"
            }
        },
        {
            "id": 16327,
            "type": "Feature",
            "geometry": {
                "type": "Point",
                "coordinates": [
                    17.50036,
                    54.16906
                ]
            },
            "properties": {
                "ref:rspo": 16327,
                "official_name": "Specjalny O\u015brodek Szkolno-Wychowawczy w Bytowie",
                "name": "Specjalny O\u015brodek Szkolno-Wychowawczy w Bytowie",
                "addr:postcode": "77-100",
                "addr:city": "Byt\u00f3w",
                "addr:street": "Jana Styp-Rekowskiego",
                "addr:housenumber": "5",
                "addr:teryt:simc": 977290,
                "addr:teryt:sym_ul": 33870,
                "phone": "+48 598222589",
                "email": "sekretariat@sosw-bytow.com.pl",
                "website": "http:\/\/www.sosw-bytow.com.pl",
                "ref:regon": "000194122",
                "ref:vatin": "PL8421023043",
                "operator": "Powiat Bytowski",
                "operator:type": "government",
                "amenity": "school",
                "note": "Children RSPO: 27340;27342;27343;27465"
            }
        },
        {
            "id": 27465,
            "type": "Feature",
            "geometry": {
                "type": "Point",
                "coordinates": [
                    17.50036,
                    54.16903
                ]
            },
            "properties": {
                "ref:rspo": 27465,
                "official_name": "Przedszkole Specjalne",
                "name": "Przedszkole Specjalne",
                "addr:postcode": "77-100",
                "addr:city": "Byt\u00f3w",
                "addr:street": "Jana Styp-Rekowskiego",
                "addr:housenumber": "5",
                "addr:teryt:simc": 977290,
                "addr:teryt:sym_ul": 33870,
                "phone": "+48 598222589",
                "email": "sekretariat@sosw-bytow.com.pl",
                "website": "http:\/\/www.sosw-bytow.com.pl",
                "ref:regon": "220891773",
                "operator": "Powiat Bytowski",
                "operator:type": "government",
                "amenity": "kindergarten",
                "note": "Parent RSPO: 16327"
            }
        },
        {
            "id": 272628,
            "type": "Feature",
            "geometry": {
                "type": "Point",
                "coordinates": [
                    17.48563,
                    54.16926
                ]
            },
            "properties": {
                "ref:rspo": 272628,
                "official_name": "Centrum Kszta\u0142cenia Ustawicznego Edukacja",
                "name": "Centrum Kszta\u0142cenia Ustawicznego Edukacja",
                "addr:postcode": "77-100",
                "addr:city": "Byt\u00f3w",
                "addr:street": "Zau\u0142ek Drozdowy",
                "addr:housenumber": "2",
                "addr:teryt:simc": 977290,
                "addr:teryt:sym_ul": 25755,
                "email": "kancelaria@marmolowski.pl",
                "ref:regon": "384283954",
                "operator": "Marmo\u0142owski Sp\u00f3\u0142ka Z Ograniczon\u0105 Odpowiedzialno\u015bci\u0105",
                "operator:type": "private",
                "fixme": "w zale\u017cno\u015bci od przedmiotu dzia\u0142alno\u015bci (np. amenity=training + training=*, amenity=dancing_school, amenity=language_school, amenity=music_school)"
            }
        },
        {
            "id": 53709,
            "type": "Feature",
            "geometry": {
                "type": "Point",
                "coordinates": [
                    17.49419,
                    54.1693
                ]
            },
            "properties": {
                "ref:rspo": 53709,
                "official_name": "Przedszkole Niepubliczne \"Mi\u015b Puchatek\" Katarzyna Koz\u0142owska",
                "name": "Przedszkole Niepubliczne \"Mi\u015b Puchatek\" Katarzyna Koz\u0142owska",
                "addr:postcode": "77-100",
                "addr:city": "Byt\u00f3w",
                "addr:street": "Genera\u0142a Ludwika Mieros\u0142awskiego",
                "addr:housenumber": "2",
                "addr:teryt:simc": 977290,
                "addr:teryt:sym_ul": 12809,
                "phone": "+48 598222753",
                "email": "kasiakozlowska71@wp.pl",
                "ref:regon": "221765622",
                "ref:vatin": "PL8421029821",
                "operator": "Katarzyna Koz\u0142owska",
                "operator:type": "private",
                "amenity": "kindergarten"
            }
        },
        {
            "id": 74392,
            "type": "Feature",
            "geometry": {
                "type": "Point",
                "coordinates": [
                    17.48422,
                    54.16953
                ]
            },
            "properties": {
                "ref:rspo": 74392,
                "official_name": "O\u015brodek Kszta\u0142cenia Zawodowego",
                "name": "O\u015brodek Kszta\u0142cenia Zawodowego",
                "addr:postcode": "77-100",
                "addr:city": "Byt\u00f3w",
                "addr:street": "Prosta",
                "addr:housenumber": "8",
                "addr:teryt:simc": 977290,
                "addr:teryt:sym_ul": 17547,
                "phone": "+48 598222651",
                "email": "bytow@zdz.slupsk.pl",
                "website": "http:\/\/www.zdzbytow.pl",
                "ref:regon": "221774590",
                "operator": "Zak\u0142ad Doskonalenia Zawodowego W S\u0142upsku",
                "operator:type": "ngo",
                "fixme": "w zale\u017cno\u015bci od przedmiotu dzia\u0142alno\u015bci (np. amenity=training + training=*, amenity=dancing_school, amenity=language_school, amenity=music_school) albo amenity=school, amenity=college, albo landuse=education w zale\u017cno\u015bci od tego, jakie plac\u00f3wki wchodz\u0105 w sk\u0142ad zespo\u0142u. Sprawd\u017a, kiedy stosowa\u0107 amenity=* a kiedy landuse=education."
            }
        },
        {
            "id": 60085,
            "type": "Feature",
            "geometry": {
                "type": "Point",
                "coordinates": [
                    17.48571,
                    54.17032
                ]
            },
            "properties": {
                "ref:rspo": 60085,
                "official_name": "Przedszkole Nr 2 w Bytowie",
                "name": "Przedszkole Nr 2 w Bytowie",
                "addr:postcode": "77-100",
                "addr:city": "Byt\u00f3w",
                "addr:street": "Jana Bauera",
                "addr:housenumber": "9",
                "addr:teryt:simc": 977290,
                "addr:teryt:sym_ul": 904,
                "phone": "+48 598222019",
                "email": "przedszkole2bytow@wp.pl",
                "ref:regon": "000893570",
                "ref:vatin": "PL8421022960",
                "operator": "Gmina Byt\u00f3w",
                "operator:type": "government",
                "amenity": "kindergarten"
            }
        },
        {
            "id": 262922,
            "type": "Feature",
            "geometry": {
                "type": "Point",
                "coordinates": [
                    17.49595,
                    54.17068
                ]
            },
            "properties": {
                "isced:level": "1;2",
                "ref:rspo": 262922,
                "official_name": "Szko\u0142a Podstawowa Nr 1 w Bytowie",
                "name": "Szko\u0142a Podstawowa Nr 1 w Bytowie",
                "addr:postcode": "77-100",
                "addr:city": "Byt\u00f3w",
                "addr:street": "Genera\u0142a Ludwika Mieros\u0142awskiego",
                "addr:housenumber": "7",
                "addr:teryt:simc": 977290,
                "addr:teryt:sym_ul": 12809,
                "phone": "+48 598222557",
                "email": "sp1bytow@gmail.com",
                "website": "http:\/\/www.sp1bytow.pl",
                "ref:regon": "368073710",
                "ref:vatin": "PL8421776297",
                "operator": "Gmina Byt\u00f3w",
                "operator:type": "government",
                "amenity": "school"
            }
        },
        {
            "id": 74677,
            "type": "Feature",
            "geometry": {
                "type": "Point",
                "coordinates": [
                    17.49041,
                    54.17193
                ]
            },
            "properties": {
                "ref:rspo": 74677,
                "official_name": "Centrum Kszta\u0142cenia Ustawicznego Twin Media",
                "name": "Centrum Kszta\u0142cenia Ustawicznego Twin Media",
                "addr:postcode": "77-100",
                "addr:city": "Byt\u00f3w",
                "addr:street": "Genera\u0142a W\u0142adys\u0142awa Sikorskiego",
                "addr:housenumber": "27",
                "addr:teryt:simc": 977290,
                "addr:teryt:sym_ul": 19907,
                "phone": "+48 593070366",
                "email": "biuro@twinmedia.pl",
                "ref:regon": "221774740",
                "ref:vatin": "PL8421759494",
                "operator": "Twin Media Sp\u00f3\u0142ka Z Ograniczon\u0105 Odpowiedzialno\u015bci\u0105",
                "operator:type": "private",
                "fixme": "w zale\u017cno\u015bci od przedmiotu dzia\u0142alno\u015bci (np. amenity=training + training=*, amenity=dancing_school, amenity=language_school, amenity=music_school)"
            }
        },
        {
            "id": 15082,
            "type": "Feature",
            "geometry": {
                "type": "Point",
                "coordinates": [
                    17.48866,
                    54.1731
                ]
            },
            "properties": {
                "ref:rspo": 15082,
                "official_name": "Zesp\u00f3\u0142 Szk\u00f3\u0142 Ponadpodstawowych w Bytowie",
                "name": "Zesp\u00f3\u0142 Szk\u00f3\u0142 Ponadpodstawowych w Bytowie",
                "addr:postcode": "77-100",
                "addr:city": "Byt\u00f3w",
                "addr:street": "Genera\u0142a W\u0142adys\u0142awa Sikorskiego",
                "addr:housenumber": "35",
                "addr:teryt:simc": 977290,
                "addr:teryt:sym_ul": 19907,
                "phone": "+48 598223006",
                "email": "sekretariat@zspbytow.pl",
                "website": "http:\/\/www.zspbytow.pl",
                "ref:regon": "000183845",
                "ref:vatin": "PL8421022457",
                "operator": "Powiat Bytowski",
                "operator:type": "government",
                "landuse": "education",
                "fixme": "amenity=school, amenity=college albo landuse=education w zale\u017cno\u015bci od tego, jakie plac\u00f3wki wchodz\u0105 w sk\u0142ad zespo\u0142u. Sprawd\u017a, kiedy stosowa\u0107 amenity=* a kiedy landuse=education.",
                "note": "Children RSPO: 22914;22915;127204"
            }
        },
        {
            "id": 130025,
            "type": "Feature",
            "geometry": {
                "type": "Point",
                "coordinates": [
                    17.48866,
                    54.173069999999996
                ]
            },
            "properties": {
                "ref:rspo": 130025,
                "official_name": "Firma Doradczo-Szkoleniowa Tomasz Drab",
                "name": "Firma Doradczo-Szkoleniowa Tomasz Drab",
                "addr:postcode": "77-100",
                "addr:city": "Byt\u00f3w",
                "addr:street": "Genera\u0142a W\u0142adys\u0142awa Sikorskiego",
                "addr:housenumber": "35",
                "addr:teryt:simc": 977290,
                "addr:teryt:sym_ul": 19907,
                "phone": "+48 606228518",
                "ref:regon": "363541341",
                "ref:vatin": "PL8421383161",
                "operator": "Tomasz Drab",
                "operator:type": "private",
                "fixme": "w zale\u017cno\u015bci od przedmiotu dzia\u0142alno\u015bci (np. amenity=training + training=*, amenity=dancing_school, amenity=language_school, amenity=music_school)"
            }
        },
        {
            "id": 22914,
            "type": "Feature",
            "geometry": {
                "type": "Point",
                "coordinates": [
                    17.48866,
                    54.17304
                ]
            },
            "properties": {
                "isced:level": "3",
                "ref:rspo": 22914,
                "official_name": "Bran\u017cowa Szko\u0142a I Stopnia Nr 1",
                "name": "Bran\u017cowa Szko\u0142a I Stopnia Nr 1",
                "addr:postcode": "77-100",
                "addr:city": "Byt\u00f3w",
                "addr:street": "Genera\u0142a W\u0142adys\u0142awa Sikorskiego",
                "addr:housenumber": "35",
                "addr:teryt:simc": 977290,
                "addr:teryt:sym_ul": 19907,
                "phone": "+48 598223006",
                "email": "sekretariat@zspbytow.pl",
                "website": "http:\/\/www.zspbytow.pl",
                "ref:regon": "771598799",
                "operator": "Powiat Bytowski",
                "operator:type": "government",
                "amenity": "school",
                "note": "Parent RSPO: 15082"
            }
        },
        {
            "id": 22915,
            "type": "Feature",
            "geometry": {
                "type": "Point",
                "coordinates": [
                    17.48866,
                    54.17301
                ]
            },
            "properties": {
                "isced:level": "3",
                "ref:rspo": 22915,
                "official_name": "Technikum Nr 1 w Bytowie",
                "name": "Technikum Nr 1 w Bytowie",
                "addr:postcode": "77-100",
                "addr:city": "Byt\u00f3w",
                "addr:street": "Genera\u0142a W\u0142adys\u0142awa Sikorskiego",
                "addr:housenumber": "35",
                "addr:teryt:simc": 977290,
                "addr:teryt:sym_ul": 19907,
                "phone": "+48 598223006",
                "email": "sekretariat@zspbytow.pl",
                "website": "http:\/\/www.zspbytow.pl",
                "ref:regon": "771598782",
                "operator": "Powiat Bytowski",
                "operator:type": "government",
                "amenity": "school",
                "note": "Parent RSPO: 15082"
            }
        },
        {
            "id": 127204,
            "type": "Feature",
            "geometry": {
                "type": "Point",
                "coordinates": [
                    17.48866,
                    54.172979999999995
                ]
            },
            "properties": {
                "isced:level": "3",
                "ref:rspo": 127204,
                "official_name": "Ii Liceum Og\u00f3lnokszta\u0142c\u0105ce Mistrzostwa Sportowego w Bytowie",
                "name": "Ii Liceum Og\u00f3lnokszta\u0142c\u0105ce Mistrzostwa Sportowego w Bytowie",
                "addr:postcode": "77-100",
                "addr:city": "Byt\u00f3w",
                "addr:street": "Genera\u0142a W\u0142adys\u0142awa Sikorskiego",
                "addr:housenumber": "35",
                "addr:teryt:simc": 977290,
                "addr:teryt:sym_ul": 19907,
                "phone": "+48 598223006",
                "email": "sekretariat@zspbytow.pl",
                "website": "http:\/\/www.zspbytow.pl",
                "ref:regon": "361207827",
                "operator": "Powiat Bytowski",
                "operator:type": "government",
                "amenity": "school",
                "note": "Parent RSPO: 15082"
            }
        },
        {
            "id": 53897,
            "type": "Feature",
            "geometry": {
                "type": "Point",
                "coordinates": [
                    17.50796,
                    54.17329
                ]
            },
            "properties": {
                "ref:rspo": 53897,
                "official_name": "Przedszkole Niepubliczne \u201eS\u0142oneczne Stacyjkowo\u201d w Bytowie",
                "name": "Przedszkole Niepubliczne \u201eS\u0142oneczne Stacyjkowo\u201d w Bytowie",
                "addr:postcode": "77-100",
                "addr:city": "Byt\u00f3w",
                "addr:street": "Jana Styp-Rekowskiego",
                "addr:housenumber": "68A",
                "addr:teryt:simc": 977290,
                "addr:teryt:sym_ul": 33870,
                "phone": "+48 598226157",
                "email": "sekretariat@sloneczne-stacyjkowo.pl",
                "website": "http:\/\/www.sloneczne-stacyjkowo.pl",
                "ref:regon": "221771249",
                "ref:vatin": "PL8421769713",
                "operator": "Gremium Sp\u00f3\u0142ka Cywilna  Ma\u0142gorzata Jab\u0142onowska-Glazik  Dariusz Glazik",
                "operator:type": "private",
                "amenity": "kindergarten"
            }
        },
        {
            "id": 269594,
            "type": "Feature",
            "geometry": {
                "type": "Point",
                "coordinates": [
                    17.49392,
                    54.17778
                ]
            },
            "properties": {
                "ref:rspo": 269594,
                "official_name": "Niepubliczne Przedszkole \"Bolek I Lolek\" Z Oddzia\u0142em S\u0142onecznego Przedszkola J\u0119zykowego",
                "name": "Niepubliczne Przedszkole \"Bolek I Lolek\" Z Oddzia\u0142em S\u0142onecznego Przedszkola J\u0119zykowego",
                "addr:postcode": "77-100",
                "addr:city": "Byt\u00f3w",
                "addr:street": "S\u0142oneczna",
                "addr:housenumber": "22",
                "addr:teryt:simc": 977290,
                "addr:teryt:sym_ul": 20254,
                "phone": "+48 661822788",
                "email": "przedszkole@bolekilolek-bytow.pl",
                "ref:regon": "381583035",
                "operator": "Wojciech Wiktorowicz",
                "operator:type": "private",
                "amenity": "kindergarten"
            }
        },
        {
            "id": 55747,
            "type": "Feature",
            "geometry": {
                "type": "Point",
                "coordinates": [
                    17.5017,
                    54.17871
                ]
            },
            "properties": {
                "isced:level": "1;2",
                "ref:rspo": 55747,
                "official_name": "Szko\u0142a Podstawowa Nr 2 w Bytowie",
                "name": "Szko\u0142a Podstawowa Nr 2 w Bytowie",
                "addr:postcode": "77-100",
                "addr:city": "Byt\u00f3w",
                "addr:street": "Ksi\u0119dza Doktora Boles\u0142awa Doma\u0144skiego",
                "addr:housenumber": "13",
                "addr:teryt:simc": 977290,
                "addr:teryt:sym_ul": 4085,
                "phone": "+48 598222732",
                "email": "sekretariat@sp2bytow.pl",
                "website": "http:\/\/www.sp2bytow.pl",
                "ref:regon": "000908248",
                "ref:vatin": "PL8421023089",
                "operator": "Gmina Byt\u00f3w",
                "operator:type": "government",
                "amenity": "school"
            }
        },
        {
            "id": 15970,
            "type": "Feature",
            "geometry": {
                "type": "Point",
                "coordinates": [
                    17.49307,
                    54.17916
                ]
            },
            "properties": {
                "ref:rspo": 15970,
                "official_name": "Zesp\u00f3\u0142 Szk\u00f3\u0142 Og\u00f3lnokszta\u0142c\u0105cych w Bytowie",
                "name": "Zesp\u00f3\u0142 Szk\u00f3\u0142 Og\u00f3lnokszta\u0142c\u0105cych w Bytowie",
                "addr:postcode": "77-100",
                "addr:city": "Byt\u00f3w",
                "addr:street": "Gda\u0144ska",
                "addr:housenumber": "57",
                "addr:teryt:simc": 977290,
                "addr:teryt:sym_ul": 5431,
                "phone": "+48 598226920",
                "email": "dyrekcja@lo.bytow.pl",
                "website": "http:\/\/www.lo.bytow.pl oraz https:\/\/lobytow.edupage.org",
                "ref:regon": "000228542",
                "ref:vatin": "PL8421331661",
                "operator": "Powiat Bytowski",
                "operator:type": "government",
                "landuse": "education",
                "fixme": "amenity=school, amenity=college albo landuse=education w zale\u017cno\u015bci od tego, jakie plac\u00f3wki wchodz\u0105 w sk\u0142ad zespo\u0142u. Sprawd\u017a, kiedy stosowa\u0107 amenity=* a kiedy landuse=education.",
                "note": "Children RSPO: 23586;23587;23588"
            }
        },
        {
            "id": 23586,
            "type": "Feature",
            "geometry": {
                "type": "Point",
                "coordinates": [
                    17.49307,
                    54.17913
                ]
            },
            "properties": {
                "isced:level": "3",
                "ref:rspo": 23586,
                "official_name": "I Liceum Og\u00f3lnokszta\u0142c\u0105ce",
                "name": "I Liceum Og\u00f3lnokszta\u0142c\u0105ce",
                "addr:postcode": "77-100",
                "addr:city": "Byt\u00f3w",
                "addr:street": "Gda\u0144ska",
                "addr:housenumber": "57",
                "addr:teryt:simc": 977290,
                "addr:teryt:sym_ul": 5431,
                "phone": "+48 598226920",
                "email": "dyrekcja@lo.bytow.pl",
                "website": "http:\/\/www.lo.bytow.pl",
                "ref:regon": "771601797",
                "operator": "Powiat Bytowski",
                "operator:type": "government",
                "amenity": "school",
                "note": "Parent RSPO: 15970"
            }
        },
        {
            "id": 23587,
            "type": "Feature",
            "geometry": {
                "type": "Point",
                "coordinates": [
                    17.49307,
                    54.179100000000005
                ]
            },
            "properties": {
                "isced:level": "3",
                "ref:rspo": 23587,
                "official_name": "Liceum Og\u00f3lnokszta\u0142c\u0105ce dla Doros\u0142ych w Bytowie",
                "name": "Liceum Og\u00f3lnokszta\u0142c\u0105ce dla Doros\u0142ych w Bytowie",
                "addr:postcode": "77-100",
                "addr:city": "Byt\u00f3w",
                "addr:street": "Gda\u0144ska",
                "addr:housenumber": "57",
                "addr:teryt:simc": 977290,
                "addr:teryt:sym_ul": 5431,
                "phone": "+48 598226920",
                "email": "dyrekcja@lo.bytow.pl",
                "website": "http:\/\/www.lo.bytow.pl",
                "ref:regon": "771601780",
                "operator": "Powiat Bytowski",
                "operator:type": "government",
                "amenity": "school",
                "note": "Parent RSPO: 15970"
            }
        },
        {
            "id": 23588,
            "type": "Feature",
            "geometry": {
                "type": "Point",
                "coordinates": [
                    17.49307,
                    54.17907
                ]
            },
            "properties": {
                "isced:level": "4",
                "ref:rspo": 23588,
                "official_name": "Szko\u0142a Policealna Nr 1 w Bytowie",
                "name": "Szko\u0142a Policealna Nr 1 w Bytowie",
                "addr:postcode": "77-100",
                "addr:city": "Byt\u00f3w",
                "addr:street": "Gda\u0144ska",
                "addr:housenumber": "57",
                "addr:teryt:simc": 977290,
                "addr:teryt:sym_ul": 5431,
                "phone": "+48 598226920",
                "email": "dyrekcja@lo.bytow.pl",
                "website": "http:\/\/www.lo.bytow.pl",
                "ref:regon": "220291560",
                "operator": "Powiat Bytowski",
                "operator:type": "government",
                "amenity": "college",
                "note": "Parent RSPO: 15970"
            }
        },
        {
            "id": 16266,
            "type": "Feature",
            "geometry": {
                "type": "Point",
                "coordinates": [
                    17.49408,
                    54.17944
                ]
            },
            "properties": {
                "ref:rspo": 16266,
                "official_name": "Poradnia Psychologiczno-Pedagogiczna w Bytowie",
                "name": "Poradnia Psychologiczno-Pedagogiczna w Bytowie",
                "addr:postcode": "77-100",
                "addr:city": "Byt\u00f3w",
                "addr:street": "Gda\u0144ska",
                "addr:housenumber": "59",
                "addr:teryt:simc": 977290,
                "addr:teryt:sym_ul": 5431,
                "phone": "+48 598222520",
                "email": "sekretariat@poradniabytow.pl",
                "website": "http:\/\/www.poradniabytow.pl",
                "ref:regon": "000908490",
                "ref:vatin": "PL8421023184",
                "operator": "Powiat Bytowski",
                "operator:type": "government",
                "healthcare": "counselling",
                "counselling_type": "education",
                "fixme": "w zale\u017cno\u015bci od przedmiotu dzia\u0142alno\u015bci (np. healthcare=counselling + counselling_type=education albo healthcare=psychotherapist)"
            }
        },
        {
            "id": 271045,
            "type": "Feature",
            "geometry": {
                "type": "Point",
                "coordinates": [
                    17.51348,
                    54.18443
                ]
            },
            "properties": {
                "ref:rspo": 271045,
                "official_name": "Niepubliczne Przedszkole I \u017b\u0142obek \"Przyjaciele Myszki Miki\"",
                "name": "Niepubliczne Przedszkole I \u017b\u0142obek \"Przyjaciele Myszki Miki\"",
                "addr:postcode": "77-100",
                "addr:city": "Rzepnica",
                "addr:street": "Kazimierza Wielkiego",
                "addr:housenumber": "4F",
                "addr:teryt:simc": 741216,
                "addr:teryt:sym_ul": 8265,
                "phone": "+48 535335849",
                "email": "marlenajablonskabyt@wp.pl",
                "ref:regon": "383063386",
                "operator": "Marlena Jab\u0142o\u0144ska",
                "operator:type": "private",
                "amenity": "kindergarten"
            }
        },
        {
            "id": 27371,
            "type": "Feature",
            "geometry": {
                "type": "Point",
                "coordinates": [
                    17.490282941059,
                    54.187352536698
                ]
            },
            "properties": {
                "ref:rspo": 27371,
                "official_name": "Powiatowe Centrum Edukacji Zawodowej w Bytowie",
                "name": "Powiatowe Centrum Edukacji Zawodowej w Bytowie",
                "addr:postcode": "77-100",
                "addr:city": "Byt\u00f3w",
                "addr:street": "Genera\u0142a J\u00f3zefa Wybickiego",
                "addr:housenumber": "4",
                "addr:teryt:simc": 977290,
                "addr:teryt:sym_ul": 48860,
                "phone": "+48 598223077",
                "email": "sekretariat@pcez-bytow.pl",
                "website": "http:\/\/www.pcez-bytow.pl",
                "ref:regon": "220157688",
                "ref:vatin": "PL8421675490",
                "operator": "Powiat Bytowski",
                "operator:type": "government",
                "landuse": "education",
                "fixme": "amenity=school, amenity=college albo landuse=education w zale\u017cno\u015bci od tego, jakie plac\u00f3wki wchodz\u0105 w sk\u0142ad zespo\u0142u. Sprawd\u017a, kiedy stosowa\u0107 amenity=* a kiedy landuse=education.",
                "note": "Children RSPO: 74398;271191;275514"
            }
        },
        {
            "id": 74398,
            "type": "Feature",
            "geometry": {
                "type": "Point",
                "coordinates": [
                    17.490282941059,
                    54.187322536698
                ]
            },
            "properties": {
                "ref:rspo": 74398,
                "official_name": "Centrum Kszta\u0142cenia Zawodowego w Bytowie",
                "name": "Centrum Kszta\u0142cenia Zawodowego w Bytowie",
                "addr:postcode": "77-100",
                "addr:city": "Byt\u00f3w",
                "addr:street": "Genera\u0142a J\u00f3zefa Wybickiego",
                "addr:housenumber": "4",
                "addr:teryt:simc": 977290,
                "addr:teryt:sym_ul": 48860,
                "phone": "+48 598223077",
                "email": "sekretariat@pcez-bytow.pl",
                "website": "http:\/\/www.pcez-bytow.pl",
                "ref:regon": "221774638",
                "operator": "Powiat Bytowski",
                "operator:type": "government",
                "fixme": "w zale\u017cno\u015bci od przedmiotu dzia\u0142alno\u015bci (np. amenity=training + training=*, amenity=dancing_school, amenity=language_school, amenity=music_school) albo amenity=school, amenity=college, albo landuse=education w zale\u017cno\u015bci od tego, jakie plac\u00f3wki wchodz\u0105 w sk\u0142ad zespo\u0142u. Sprawd\u017a, kiedy stosowa\u0107 amenity=* a kiedy landuse=education.",
                "note": "Parent RSPO: 27371"
            }
        },
        {
            "id": 271191,
            "type": "Feature",
            "geometry": {
                "type": "Point",
                "coordinates": [
                    17.490282941059,
                    54.187292536698
                ]
            },
            "properties": {
                "ref:rspo": 271191,
                "official_name": "Centrum Kszta\u0142cenia Ustawicznego w Bytowie",
                "name": "Centrum Kszta\u0142cenia Ustawicznego w Bytowie",
                "addr:postcode": "77-100",
                "addr:city": "Byt\u00f3w",
                "addr:street": "Genera\u0142a J\u00f3zefa Wybickiego",
                "addr:housenumber": "4",
                "addr:teryt:simc": 977290,
                "addr:teryt:sym_ul": 48860,
                "phone": "+48 598223077",
                "email": "sekretariat@pcez-bytow.pl",
                "website": "http:\/\/www.pcez-bytow.pl",
                "ref:regon": "383153178",
                "operator": "Powiat Bytowski",
                "operator:type": "government",
                "fixme": "w zale\u017cno\u015bci od przedmiotu dzia\u0142alno\u015bci (np. amenity=training + training=*, amenity=dancing_school, amenity=language_school, amenity=music_school)",
                "note": "Parent RSPO: 27371"
            }
        },
        {
            "id": 275514,
            "type": "Feature",
            "geometry": {
                "type": "Point",
                "coordinates": [
                    17.490282941059,
                    54.187262536698
                ]
            },
            "properties": {
                "isced:level": "3",
                "ref:rspo": 275514,
                "official_name": "Bran\u017cowa Szko\u0142a II Stopnia w Bytowie",
                "name": "Bran\u017cowa Szko\u0142a II Stopnia w Bytowie",
                "addr:postcode": "77-100",
                "addr:city": "Byt\u00f3w",
                "addr:street": "Genera\u0142a J\u00f3zefa Wybickiego",
                "addr:housenumber": "4",
                "addr:teryt:simc": 977290,
                "addr:teryt:sym_ul": 48860,
                "phone": "+48 598223077",
                "email": "sekretariat@pcez-bytow.pl",
                "website": "http:\/\/www.pcez-bytow.pl",
                "ref:regon": "386932629",
                "operator": "Powiat Bytowski",
                "operator:type": "government",
                "amenity": "school",
                "note": "Parent RSPO: 27371"
            }
        },
        {
            "id": 69920,
            "type": "Feature",
            "geometry": {
                "type": "Point",
                "coordinates": [
                    17.56092,
                    54.20742
                ]
            },
            "properties": {
                "isced:level": "1;2",
                "ref:rspo": 69920,
                "official_name": "Szko\u0142a Podstawowa im. \u015aw. Jana Paw\u0142a II w Pomysku Wielkim",
                "name": "Szko\u0142a Podstawowa",
                "addr:postcode": "77-121",
                "addr:city": "Pomysk Wielki",
                "addr:street": "Gda\u0144ska",
                "addr:housenumber": "33",
                "addr:teryt:simc": 741133,
                "addr:teryt:sym_ul": 5431,
                "phone": "+48 598224910",
                "email": "szkola_pomysk@wp.pl",
                "website": "https:\/\/sppomysk.edupage.org\/",
                "ref:regon": "000908320",
                "ref:vatin": "PL8421023161",
                "operator": "Gmina Byt\u00f3w",
                "operator:type": "government",
                "amenity": "school"
            }
        },
        {
            "id": 127198,
            "type": "Feature",
            "geometry": {
                "type": "Point",
                "coordinates": [
                    17.56739,
                    54.21603
                ]
            },
            "properties": {
                "ref:rspo": 127198,
                "official_name": "Centrum Szkole\u0144 Specjalistycznych Brs Robert Chirk",
                "name": "Centrum Szkole\u0144 Specjalistycznych Brs Robert Chirk",
                "addr:postcode": "77-121",
                "addr:place": "Pomysk Ma\u0142y",
                "addr:housenumber": "27 c",
                "addr:teryt:simc": 741104,
                "phone": "+48 501455593",
                "email": "planetsports@planetsports.pl",
                "website": "http:\/\/www.planetsports.pl",
                "ref:regon": "361194740",
                "ref:vatin": "PL7651252930",
                "operator": "Robert Chirk",
                "operator:type": "private",
                "fixme": "w zale\u017cno\u015bci od przedmiotu dzia\u0142alno\u015bci (np. amenity=training + training=*, amenity=dancing_school, amenity=language_school, amenity=music_school)"
            }
        },
        {
            "id": 60076,
            "type": "Feature",
            "geometry": {
                "type": "Point",
                "coordinates": [
                    17.47744,
                    54.22587
                ]
            },
            "properties": {
                "isced:level": "1;2",
                "ref:rspo": 60076,
                "official_name": "Szko\u0142a Podstawowa im. Gen. J\u00f3zefa Wybickiego w Gostkowie",
                "name": "Szko\u0142a Podstawowa",
                "addr:postcode": "77-114",
                "addr:place": "Gostkowo",
                "addr:housenumber": "20",
                "addr:teryt:simc": 740978,
                "phone": "+48 598228048",
                "email": "spgostkowo@gmail.com",
                "website": "http:\/\/www.spgostkowo.edupage.org",
                "ref:regon": "000908337",
                "ref:vatin": "PL8421022664",
                "operator": "Gmina Byt\u00f3w",
                "operator:type": "government",
                "amenity": "school"
            }
        },
        {
            "id": 110224,
            "type": "Feature",
            "geometry": {
                "type": "Point",
                "coordinates": [
                    17.48102,
                    54.25478
                ]
            },
            "properties": {
                "ref:rspo": 110224,
                "official_name": "Centrum Szkole\u0144 Specjalistycznych \"Le\u015bnik\"",
                "name": "Centrum Szkole\u0144 Specjalistycznych \"Le\u015bnik\"",
                "addr:postcode": "77-100",
                "addr:place": "Sarniak",
                "addr:housenumber": "1",
                "addr:teryt:simc": 740984,
                "phone": "+48 606620914",
                "email": "michal@kurspilarza.pl",
                "website": "http:\/\/www.kurspilarza.pl",
                "ref:regon": "221835185",
                "ref:vatin": "PL8421516076",
                "operator": "Micha\u0142 Sudo\u0142",
                "operator:type": "private",
                "fixme": "w zale\u017cno\u015bci od przedmiotu dzia\u0142alno\u015bci (np. amenity=training + training=*, amenity=dancing_school, amenity=language_school, amenity=music_school)"
            }
        }
    ]
}