{"type":"FeatureCollection","features":[{"id":56124,"type":"Feature","geometry":{"type":"Point","coordinates":[17.08810043335,54.201530456543]},"properties":{"isced:level":"1;2","ref:rspo":56124,"official_name":"Szko\u0142a Podstawowa im. Sportowc\u00f3w Polskich w Trzebielinie","name":"Szko\u0142a Podstawowa","addr:country":"PL","addr:postcode":"77-235","addr:city":"Trzebielino","addr:street":"ul. M\u0142odzie\u017cowa","addr:housenumber":"1","addr:teryt:simc":13096,"addr:teryt:sym_ul":751798,"contact:phone":"+48 598580130","contact:email":"szkola77@poczta.onet.pl","contact:website":"http:\/\/www.szkolatrzebielino.pl","ref:regon":"000647428","ref:vatin":"PL8421331833","operator":"Gmina Trzebielino","operator:type":"government","amenity":"school"}},{"id":114936,"type":"Feature","geometry":{"type":"Point","coordinates":[17.08810043335,54.201500456542995]},"properties":{"ref:rspo":114936,"official_name":"Punkt Przedszkolny w Trzebielinie","name":"Punkt Przedszkolny w Trzebielinie","addr:country":"PL","addr:postcode":"77-235","addr:city":"Trzebielino","addr:street":"ul. M\u0142odzie\u017cowa","addr:housenumber":"1","addr:teryt:simc":13096,"addr:teryt:sym_ul":751798,"contact:phone":"+48 598580205","contact:email":"szkola77@poczta.onet.pl","contact:website":"http:\/\/www.szkola.trzebielino.pl","ref:regon":"221894302","ref:vatin":"PL8421331833","operator":"Gmina Trzebielino","operator:type":"government","amenity":"kindergarten"}},{"id":262389,"type":"Feature","geometry":{"type":"Point","coordinates":[17.11874,54.25108]},"properties":{"isced:level":"1;2","ref:rspo":262389,"official_name":"Szko\u0142a Podstawowa im. Zjednoczonej Europy w Starkowie","name":"Szko\u0142a Podstawowa","addr:country":"PL","addr:postcode":"77-235","addr:place":"Starkowo","addr:housenumber":"10","addr:teryt:sym_ul":751775,"contact:phone":"+48 598580077","contact:email":"spstarkowo@poczta.fm","ref:regon":"367997167","ref:vatin":"PL8421776280","operator":"Gmina Trzebielino","operator:type":"government","amenity":"school"}},{"id":56122,"type":"Feature","geometry":{"type":"Point","coordinates":[17.09801,54.27396]},"properties":{"isced:level":"1;2","ref:rspo":56122,"official_name":"Szko\u0142a Podstawowa im. Marii Konopnickiej w Suchorzu","name":"Szko\u0142a Podstawowa","addr:country":"PL","addr:postcode":"77-235","addr:city":"Suchorze","addr:street":"ul. Szkolna","addr:housenumber":"5","addr:teryt:simc":21970,"addr:teryt:sym_ul":751887,"contact:phone":"+48 598580710","contact:email":"suchsp.hot@home.pl","contact:website":"http:\/\/www.spsuchorze.szkolna.net","ref:regon":"001174251","ref:vatin":"PL8421331856","operator":"Gmina Trzebielino","operator:type":"government","amenity":"school"}},{"id":115445,"type":"Feature","geometry":{"type":"Point","coordinates":[17.09801,54.27393]},"properties":{"ref:rspo":115445,"official_name":"Punkt Przedszkolny w Suchorzu","name":"Punkt Przedszkolny w Suchorzu","addr:country":"PL","addr:postcode":"77-235","addr:city":"Suchorze","addr:street":"ul. Szkolna","addr:housenumber":"5","addr:teryt:simc":21970,"addr:teryt:sym_ul":751887,"contact:phone":"+48 598580710","contact:email":"suchsp@hot.pl","contact:website":"http:\/\/www.spsuchorze.blogspot.com","ref:regon":"221912655","ref:vatin":"PL8421331856","operator":"Gmina Trzebielino","operator:type":"government","amenity":"kindergarten"}}]}