{"type":"FeatureCollection","features":[{"id":20054,"type":"Feature","geometry":{"type":"Point","coordinates":[19.91975,49.63958]},"properties":{"ref:rspo":20054,"official_name":"O\u015brodek Doskonalenia Nauczycieli \"Wiedza\"","name":"O\u015brodek Doskonalenia Nauczycieli \"Wiedza\"","addr:country":"PL","addr:postcode":"32-434","addr:place":"Skomielna Bia\u0142a","addr:housenumber":"685","addr:teryt:sym_ul":441767,"contact:phone":"+48 182687995","contact:email":"elremot@poczta.fm","ref:regon":"122669295","operator":"O\u015brodek Kszta\u0142cenia Zawodowego \"Elremot\" Sp\u00f3\u0142ka Z Ograniczon\u0105 Odpowiedzialno\u015bci\u0105","operator:type":"private","amenity":"training"}},{"id":51824,"type":"Feature","geometry":{"type":"Point","coordinates":[19.91975,49.63955]},"properties":{"ref:rspo":51824,"official_name":"O\u015brodek Szkolenia Zawodowego Elremot w Skomielnej Bia\u0142ej","name":"O\u015brodek Szkolenia Zawodowego Elremot w Skomielnej Bia\u0142ej","addr:country":"PL","addr:postcode":"32-434","addr:place":"Skomielna Bia\u0142a","addr:housenumber":"685","addr:teryt:sym_ul":441767,"contact:phone":"+48 607382868","contact:email":"elremot@poczta.fm","contact:website":"http:\/\/www.elremot.pl","ref:regon":"122690935","ref:vatin":"PL7350006538","operator":"O\u015brodek Kszta\u0142cenia Zawodowego \"Elremot\" Sp\u00f3\u0142ka Z Ograniczon\u0105 Odpowiedzialno\u015bci\u0105","operator:type":"private","fixme":"w zale\u017cno\u015bci od przedmiotu dzia\u0142alno\u015bci (np. amenity=training + training=*, amenity=dancing_school, amenity=language_school, amenity=music_school)"}},{"id":121496,"type":"Feature","geometry":{"type":"Point","coordinates":[19.91975,49.639520000000005]},"properties":{"ref:rspo":121496,"official_name":"O\u015brodek Dokszta\u0142cania I Doskonalenia Zawodowego \"Elremot\"","name":"O\u015brodek Dokszta\u0142cania I Doskonalenia Zawodowego \"Elremot\"","addr:country":"PL","addr:postcode":"32-434","addr:place":"Skomielna Bia\u0142a","addr:housenumber":"685","addr:teryt:sym_ul":441767,"contact:phone":"+48 182687995","contact:email":"elremot@poczta.fm","contact:website":"http:\/\/www.elremot.pl","ref:regon":"123022957","ref:vatin":"PL7350006538","operator":"Ryszard Macio\u0142","operator:type":"private","fixme":"w zale\u017cno\u015bci od przedmiotu dzia\u0142alno\u015bci (np. amenity=training + training=*, amenity=dancing_school, amenity=language_school, amenity=music_school) albo amenity=school, amenity=college, albo landuse=education w zale\u017cno\u015bci od tego, jakie plac\u00f3wki wchodz\u0105 w sk\u0142ad zespo\u0142u. Sprawd\u017a, kiedy stosowa\u0107 amenity=* a kiedy landuse=education."}},{"id":47989,"type":"Feature","geometry":{"type":"Point","coordinates":[19.91572,49.64055]},"properties":{"ref:rspo":47989,"official_name":"Samorz\u0105dowe Przedszkole w Skomielnej Bia\u0142ej","name":"Samorz\u0105dowe Przedszkole w Skomielnej Bia\u0142ej","addr:country":"PL","addr:postcode":"32-434","addr:place":"Skomielna Bia\u0142a","addr:housenumber":"1","addr:teryt:sym_ul":441767,"contact:phone":"+48 182687149","contact:email":"przedszkole.skomielna@poczta.fm","contact:website":"http:\/\/pskomielna.dlaprzedszkoli.eu","ref:regon":"356731050","ref:vatin":"PL7351067938","operator":"Gmina Lubie\u0144","operator:type":"government","amenity":"kindergarten"}},{"id":47996,"type":"Feature","geometry":{"type":"Point","coordinates":[19.91572,49.640519999999995]},"properties":{"isced:level":"1;2","ref:rspo":47996,"official_name":"Szko\u0142a Podstawowa im. W\u0142adys\u0142awa Orkana w Skomielnej Bia\u0142ej","name":"Szko\u0142a Podstawowa","addr:country":"PL","addr:postcode":"32-434","addr:place":"Skomielna Bia\u0142a","addr:housenumber":"1","addr:teryt:sym_ul":441767,"contact:phone":"+48 182687287","contact:email":"spgskomielna@interia.pl","contact:website":"http:\/\/www.spgskomielna.witronik.pl","ref:regon":"490664737","ref:vatin":"PL7351071408","operator":"Gmina Lubie\u0144","operator:type":"government","amenity":"school"}},{"id":47988,"type":"Feature","geometry":{"type":"Point","coordinates":[19.97186,49.68381]},"properties":{"ref:rspo":47988,"official_name":"Samorz\u0105dowe Przedszkole w Tenczynie","name":"Samorz\u0105dowe Przedszkole w Tenczynie","addr:country":"PL","addr:postcode":"32-433","addr:place":"Tenczyn","addr:housenumber":"171","addr:teryt:sym_ul":442130,"contact:phone":"+48 182682862","contact:email":"przedszkole.tenczyn@op.pl","contact:website":"http:\/\/www.przedszkoletenczyn.szkolnastrona.pl","ref:regon":"356741870","ref:vatin":"PL7351067938","operator":"Gmina Lubie\u0144","operator:type":"government","amenity":"kindergarten"}},{"id":47995,"type":"Feature","geometry":{"type":"Point","coordinates":[19.97186,49.68378]},"properties":{"isced:level":"1;2","ref:rspo":47995,"official_name":"Szko\u0142a Podstawowa im. Adama Mickiewicza w Tenczynie","name":"Szko\u0142a Podstawowa","addr:country":"PL","addr:postcode":"32-433","addr:place":"Tenczyn","addr:housenumber":"171","addr:teryt:sym_ul":442130,"contact:phone":"+48 182682029","contact:email":"tenspig@poczta.onet.pl","contact:website":"http:\/\/www.sptenczyn.edupage.org","ref:regon":"490665866","ref:vatin":"PL7351073324","operator":"Gmina Lubie\u0144","operator:type":"government","amenity":"school"}},{"id":55417,"type":"Feature","geometry":{"type":"Point","coordinates":[19.91146,49.68436]},"properties":{"isced:level":"1;2","ref:rspo":55417,"official_name":"Szko\u0142a Podstawowa im. \u015awi\u0119tej Jadwigi Kr\u00f3lowej w Krzeczowie","name":"Szko\u0142a Podstawowa","addr:country":"PL","addr:postcode":"32-433","addr:place":"Krzecz\u00f3w","addr:housenumber":"174","addr:teryt:sym_ul":441030,"contact:phone":"+48 182682075","contact:email":"zs.krzeczow@poczta.fm","contact:website":"http:\/\/zskrzeczow.edupage.org","ref:regon":"490664714","ref:vatin":"PL6812064559","operator":"Gmina Lubie\u0144","operator:type":"government","amenity":"school"}},{"id":47992,"type":"Feature","geometry":{"type":"Point","coordinates":[19.90457,49.6862]},"properties":{"ref:rspo":47992,"official_name":"Niepubliczny Punkt Przedszkolny Imienia B\u0142ogos\u0142awionego Edmunda Bojanowskiego w Krzeczowie","name":"Niepubliczny Punkt Przedszkolny Imienia B\u0142ogos\u0142awionego Edmunda Bojanowskiego w Krzeczowie","addr:country":"PL","addr:postcode":"32-433","addr:place":"Krzecz\u00f3w","addr:housenumber":"47","addr:teryt:sym_ul":441030,"contact:phone":"+48 182682711","ref:regon":"122692377","ref:vatin":"PL6812030520","operator":"Zgromadzenie Si\u00f3str S\u0142u\u017cebniczek Naj\u015bwi\u0119tszej Maryi Panny Niepokalanie Pocz\u0119tej, Prowincja Krakowska","operator:type":"religious","amenity":"kindergarten"}},{"id":266099,"type":"Feature","geometry":{"type":"Point","coordinates":[19.96544,49.70592]},"properties":{"ref:rspo":266099,"official_name":"Przedszkole Niepubliczne \"Nibylandia\"","name":"Przedszkole Niepubliczne \"Nibylandia\"","addr:country":"PL","addr:postcode":"32-433","addr:place":"Lubie\u0144","addr:housenumber":"696","addr:teryt:sym_ul":441247,"contact:email":"aniaderen@vp.pl","ref:regon":"369256400","operator":"Anna Dere\u0144","operator:type":"private","amenity":"kindergarten"}},{"id":8805,"type":"Feature","geometry":{"type":"Point","coordinates":[19.9732,49.71382]},"properties":{"ref:rspo":8805,"official_name":"Zesp\u00f3\u0142 Szk\u00f3\u0142 Og\u00f3lnokszta\u0142c\u0105cych I Zawodowych im. Bohater\u00f3w Monte Cassino w Lubniu, Lubie\u0144 20","name":"Zesp\u00f3\u0142 Szk\u00f3\u0142 Og\u00f3lnokszta\u0142c\u0105cych I Zawodowych","addr:country":"PL","addr:postcode":"32-443","addr:place":"Lubie\u0144","addr:housenumber":"20","addr:teryt:sym_ul":441247,"contact:phone":"+48 182682020","contact:email":"sekretariat@zsoizlubien.kki.pl","contact:website":"http:\/\/www.zsoizlubien.kki.pl","ref:regon":"000706036","ref:vatin":"PL7351614369","operator":"Powiat My\u015blenicki","operator:type":"government","landuse":"education","fixme":"amenity=school, amenity=college albo landuse=education w zale\u017cno\u015bci od tego, jakie plac\u00f3wki wchodz\u0105 w sk\u0142ad zespo\u0142u. Sprawd\u017a, kiedy stosowa\u0107 amenity=* a kiedy landuse=education.","note":"Children RSPO: 39754;40193;40703;43677;43679;113507"}},{"id":39754,"type":"Feature","geometry":{"type":"Point","coordinates":[19.9732,49.713789999999996]},"properties":{"isced:level":"3","ref:rspo":39754,"official_name":"Technikum w Lubniu, Lubie\u0144 20","name":"Technikum w Lubniu, Lubie\u0144 20","addr:country":"PL","addr:postcode":"32-433","addr:place":"Lubie\u0144","addr:housenumber":"20","addr:teryt:sym_ul":441247,"contact:phone":"+48 182682020","contact:email":"sekretariat@zsoizlubien.kki.pl","contact:website":"http:\/\/www.zsoizlubien.kki.pl","ref:regon":"356685226","operator":"Powiat My\u015blenicki","operator:type":"government","amenity":"school","note":"Parent RSPO: 8805"}},{"id":40193,"type":"Feature","geometry":{"type":"Point","coordinates":[19.9732,49.71376]},"properties":{"isced:level":"3","ref:rspo":40193,"official_name":"Bran\u017cowa Szko\u0142a I Stopnia w Lubniu, Lubie\u0144 20","name":"Bran\u017cowa Szko\u0142a I Stopnia w Lubniu, Lubie\u0144 20","addr:country":"PL","addr:postcode":"32-433","addr:place":"Lubie\u0144","addr:housenumber":"20","addr:teryt:sym_ul":441247,"contact:phone":"+48 182682020","contact:email":"sekretariat@zsoizlubien.kki.pl","contact:website":"http:\/\/www.zsoizlubien.kki.pl","ref:regon":"356685195","operator":"Powiat My\u015blenicki","operator:type":"government","amenity":"school","note":"Parent RSPO: 8805"}},{"id":40703,"type":"Feature","geometry":{"type":"Point","coordinates":[19.9732,49.71373]},"properties":{"ref:rspo":40703,"official_name":"Centrum Kszta\u0142cenia Zawodowego Wchodz\u0105cego w Sk\u0142ad Zespo\u0142u Szk\u00f3\u0142 Og\u00f3lnokszta\u0142c\u0105cych I Zawodowych im. Bohater\u00f3w Monte Cassino w Lubniu","name":"Centrum Kszta\u0142cenia Zawodowego Wchodz\u0105cego w Sk\u0142ad Zespo\u0142u Szk\u00f3\u0142 Og\u00f3lnokszta\u0142c\u0105cych I Zawodowych","addr:country":"PL","addr:postcode":"32-433","addr:place":"Lubie\u0144","addr:housenumber":"20","addr:teryt:sym_ul":441247,"contact:phone":"+48 182682020","contact:email":"sekretariat@zsoizlubien.kki.pl","contact:website":"http:\/\/www.zsoizlubien.kki.pl","ref:regon":"120630573","operator":"Powiat My\u015blenicki","operator:type":"government","fixme":"w zale\u017cno\u015bci od przedmiotu dzia\u0142alno\u015bci (np. amenity=training + training=*, amenity=dancing_school, amenity=language_school, amenity=music_school) albo amenity=school, amenity=college, albo landuse=education w zale\u017cno\u015bci od tego, jakie plac\u00f3wki wchodz\u0105 w sk\u0142ad zespo\u0142u. Sprawd\u017a, kiedy stosowa\u0107 amenity=* a kiedy landuse=education.","note":"Parent RSPO: 8805"}},{"id":43677,"type":"Feature","geometry":{"type":"Point","coordinates":[19.9732,49.713699999999996]},"properties":{"isced:level":"4","ref:rspo":43677,"official_name":"Szko\u0142a Policealna dla Doros\u0142ych w Lubniu","name":"Szko\u0142a Policealna dla Doros\u0142ych w Lubniu","addr:country":"PL","addr:postcode":"32-433","addr:place":"Lubie\u0144","addr:housenumber":"20","addr:teryt:sym_ul":441247,"contact:phone":"+48 182682020","contact:email":"sekretariat@zsoizlubien.kki.pl","contact:website":"http:\/\/www.zsoizlubien.kki.pl","ref:regon":"120096990","operator":"Powiat My\u015blenicki","operator:type":"government","amenity":"college","note":"Parent RSPO: 8805"}},{"id":43679,"type":"Feature","geometry":{"type":"Point","coordinates":[19.9732,49.71367]},"properties":{"isced:level":"3","ref:rspo":43679,"official_name":"Liceum Og\u00f3lnokszta\u0142c\u0105ce w Lubniu, Lubie\u0144 20","name":"Liceum Og\u00f3lnokszta\u0142c\u0105ce w Lubniu, Lubie\u0144 20","addr:country":"PL","addr:postcode":"32-433","addr:place":"Lubie\u0144","addr:housenumber":"20","addr:teryt:sym_ul":441247,"contact:phone":"+48 182682020","contact:email":"sekretariat@zsoizlubien.kki.pl","contact:website":"http:\/\/www.zsoizlubien.kki.pl","ref:regon":"122687152","operator":"Powiat My\u015blenicki","operator:type":"government","amenity":"school","note":"Parent RSPO: 8805"}},{"id":113507,"type":"Feature","geometry":{"type":"Point","coordinates":[19.9732,49.71364]},"properties":{"isced:level":"3","ref:rspo":113507,"official_name":"Liceum Og\u00f3lnokszta\u0142cace dla Doros\u0142ych w Lubniu","name":"Liceum Og\u00f3lnokszta\u0142cace dla Doros\u0142ych w Lubniu","addr:country":"PL","addr:postcode":"32-433","addr:place":"Lubie\u0144","addr:housenumber":"20","addr:teryt:sym_ul":441247,"contact:phone":"+48 182682020","contact:email":"sekretariat@zsoizlubien.kki.pl","contact:website":"http:\/\/www.kki.pl\/zsrlubien\/newzsoiz\/indexnew.htm","ref:regon":"122824910","operator":"Powiat My\u015blenicki","operator:type":"government","amenity":"school","note":"Parent RSPO: 8805"}},{"id":47994,"type":"Feature","geometry":{"type":"Point","coordinates":[19.99963,49.72101]},"properties":{"isced:level":"1;2","ref:rspo":47994,"official_name":"Szko\u0142a Podstawowa im. \u015awi\u0119tego Jana Paw\u0142a II w Lubniu","name":"Szko\u0142a Podstawowa","addr:country":"PL","addr:postcode":"32-433","addr:place":"Lubie\u0144","addr:housenumber":"885","addr:teryt:sym_ul":441247,"contact:phone":"+48 182683105","contact:email":"szkola@splubien.pl","contact:website":"http:\/\/www.splubien.pl","ref:regon":"490664772","ref:vatin":"PL7351068027","operator":"Gmina Lubie\u0144","operator:type":"government","amenity":"school"}},{"id":47997,"type":"Feature","geometry":{"type":"Point","coordinates":[19.99963,49.72098]},"properties":{"ref:rspo":47997,"official_name":"Samorz\u0105dowe Przedszkole w Lubniu","name":"Samorz\u0105dowe Przedszkole w Lubniu","addr:country":"PL","addr:postcode":"32-433","addr:place":"Lubie\u0144","addr:housenumber":"885","addr:teryt:sym_ul":441247,"contact:phone":"+48 182682001","contact:email":"przedszkolelubien@onet.eu","contact:website":"http:\/\/www.przedlubien.blizej.info","ref:regon":"356732316","ref:vatin":"PL7351067938","operator":"Gmina Lubie\u0144","operator:type":"government","amenity":"kindergarten"}}]}