{
    "type": "FeatureCollection",
    "features": [
        {
            "id": 85884,
            "type": "Feature",
            "geometry": {
                "type": "Point",
                "coordinates": [
                    20.0817799,
                    49.74722
                ]
            },
            "properties": {
                "isced:level": "1;2",
                "ref:rspo": 85884,
                "official_name": "Szko\u0142a Podstawowa im. \u015aw. J\u00f3zefa w W\u0119gl\u00f3wce",
                "name": "Szko\u0142a Podstawowa",
                "addr:country": "PL",
                "addr:postcode": "32-412",
                "addr:place": "W\u0119gl\u00f3wka",
                "addr:housenumber": "203",
                "addr:teryt:sym_ul": 342580,
                "contact:phone": "+48 123739090",
                "contact:email": "szkola@weglowka.pl",
                "contact:website": "http:\/\/weglowka.pl",
                "ref:regon": "120029982",
                "operator": "Gmina Wi\u015bniowa",
                "operator:type": "government",
                "amenity": "school"
            }
        },
        {
            "id": 119596,
            "type": "Feature",
            "geometry": {
                "type": "Point",
                "coordinates": [
                    20.09431,
                    49.76782
                ]
            },
            "properties": {
                "ref:rspo": 119596,
                "official_name": "Zesp\u00f3\u0142 Plac\u00f3wek O\u015bwiatowych w Kobielniku",
                "name": "Zesp\u00f3\u0142 Plac\u00f3wek O\u015bwiatowych w Kobielniku",
                "addr:country": "PL",
                "addr:postcode": "32-412",
                "addr:place": "Kobielnik",
                "addr:housenumber": "84",
                "addr:teryt:sym_ul": 342321,
                "contact:phone": "+48 122714018",
                "contact:email": "zpokobielnik@wp.pl",
                "contact:website": "http:\/\/www.kobielnik.edu.pl",
                "ref:regon": "122937270",
                "ref:vatin": "PL6812056413",
                "operator": "Stowarzyszenie \"Nasz Kobielnik\"",
                "operator:type": "ngo",
                "landuse": "education",
                "fixme": "amenity=school, amenity=college albo landuse=education w zale\u017cno\u015bci od tego, jakie plac\u00f3wki wchodz\u0105 w sk\u0142ad zespo\u0142u. Sprawd\u017a, kiedy stosowa\u0107 amenity=* a kiedy landuse=education.",
                "note": "Children RSPO: 119448;119451"
            }
        },
        {
            "id": 119448,
            "type": "Feature",
            "geometry": {
                "type": "Point",
                "coordinates": [
                    20.09431,
                    49.76779
                ]
            },
            "properties": {
                "isced:level": "1;2",
                "ref:rspo": 119448,
                "official_name": "Szko\u0142a Podstawowa w Kobielniku",
                "name": "Szko\u0142a Podstawowa w Kobielniku",
                "addr:country": "PL",
                "addr:postcode": "32-412",
                "addr:place": "Kobielnik",
                "addr:housenumber": "84",
                "addr:teryt:sym_ul": 342321,
                "contact:phone": "+48 122714018",
                "contact:email": "zpokobielnik@wp.pl",
                "contact:website": "http:\/\/www.kobielnik.edu.pl",
                "ref:regon": "122935437",
                "operator": "Stowarzyszenie \"Nasz Kobielnik\"",
                "operator:type": "ngo",
                "amenity": "school",
                "note": "Parent RSPO: 119596"
            }
        },
        {
            "id": 119451,
            "type": "Feature",
            "geometry": {
                "type": "Point",
                "coordinates": [
                    20.09431,
                    49.76776
                ]
            },
            "properties": {
                "ref:rspo": 119451,
                "official_name": "Oddzia\u0142 Przedszkolny w Kobielniku",
                "name": "Oddzia\u0142 Przedszkolny w Kobielniku",
                "addr:country": "PL",
                "addr:postcode": "32-412",
                "addr:place": "Kobielnik",
                "addr:housenumber": "84",
                "addr:teryt:sym_ul": 342321,
                "contact:phone": "+48 122714018",
                "ref:regon": "122935466",
                "operator": "Stowarzyszenie \"Nasz Kobielnik\"",
                "operator:type": "ngo",
                "amenity": "kindergarten",
                "note": "Parent RSPO: 119596"
            }
        },
        {
            "id": 85040,
            "type": "Feature",
            "geometry": {
                "type": "Point",
                "coordinates": [
                    20.12154,
                    49.78642
                ]
            },
            "properties": {
                "ref:rspo": 85040,
                "official_name": "Przedszkole Samorz\u0105dowe w Wi\u015bniowej",
                "name": "Przedszkole Samorz\u0105dowe w Wi\u015bniowej",
                "addr:country": "PL",
                "addr:postcode": "32-412",
                "addr:place": "Wi\u015bniowa",
                "addr:housenumber": "312",
                "addr:teryt:sym_ul": 343059,
                "contact:phone": "+48 122714905",
                "ref:regon": "350132905",
                "operator": "Gmina Wi\u015bniowa",
                "operator:type": "government",
                "amenity": "kindergarten",
                "note": "Parent RSPO: 68329"
            }
        },
        {
            "id": 68329,
            "type": "Feature",
            "geometry": {
                "type": "Point",
                "coordinates": [
                    20.1197,
                    49.7872
                ]
            },
            "properties": {
                "ref:rspo": 68329,
                "official_name": "Zesp\u00f3\u0142 Plac\u00f3wek O\u015bwiatowych w Wi\u015bniowej",
                "name": "Zesp\u00f3\u0142 Plac\u00f3wek O\u015bwiatowych w Wi\u015bniowej",
                "addr:country": "PL",
                "addr:postcode": "32-412",
                "addr:place": "Wi\u015bniowa",
                "addr:housenumber": "323a",
                "addr:teryt:sym_ul": 343059,
                "contact:phone": "+48 122714060",
                "contact:email": "spwisniowa@o2.pl",
                "contact:website": "http:\/\/zpowisniowa.edupage.org",
                "ref:regon": "000700217",
                "ref:vatin": "PL6811640162",
                "operator": "Gmina Wi\u015bniowa",
                "operator:type": "government",
                "landuse": "education",
                "fixme": "amenity=school, amenity=college albo landuse=education w zale\u017cno\u015bci od tego, jakie plac\u00f3wki wchodz\u0105 w sk\u0142ad zespo\u0142u. Sprawd\u017a, kiedy stosowa\u0107 amenity=* a kiedy landuse=education.",
                "note": "Children RSPO: 85038;85040"
            }
        },
        {
            "id": 85038,
            "type": "Feature",
            "geometry": {
                "type": "Point",
                "coordinates": [
                    20.1197,
                    49.787169999999996
                ]
            },
            "properties": {
                "isced:level": "1;2",
                "ref:rspo": 85038,
                "official_name": "Szko\u0142a Podstawowa im. W\u0142adys\u0142awa Orkana w Wi\u015bniowej",
                "name": "Szko\u0142a Podstawowa",
                "addr:country": "PL",
                "addr:postcode": "32-412",
                "addr:place": "Wi\u015bniowa",
                "addr:housenumber": "323a",
                "addr:teryt:sym_ul": 343059,
                "contact:phone": "+48 122714060",
                "contact:email": "spwisniowa@o2.pl",
                "contact:website": "https:\/\/zpowisniowa.edupage.org\/",
                "ref:regon": "120013426",
                "operator": "Gmina Wi\u015bniowa",
                "operator:type": "government",
                "amenity": "school",
                "note": "Parent RSPO: 68329"
            }
        },
        {
            "id": 131929,
            "type": "Feature",
            "geometry": {
                "type": "Point",
                "coordinates": [
                    20.11589,
                    49.78949
                ]
            },
            "properties": {
                "ref:rspo": 131929,
                "official_name": "Niepubliczne \"Bajkowe Przedszkole\"",
                "name": "Niepubliczne \"Bajkowe Przedszkole\"",
                "addr:country": "PL",
                "addr:postcode": "32-412",
                "addr:place": "Wi\u015bniowa",
                "addr:housenumber": "82",
                "addr:teryt:sym_ul": 343059,
                "contact:email": "bajkoweprzedszkole123@gmail.com",
                "ref:regon": "365384970",
                "ref:vatin": "PL6812020332",
                "operator": "Natalia Dudzik",
                "operator:type": "private",
                "amenity": "kindergarten"
            }
        },
        {
            "id": 273256,
            "type": "Feature",
            "geometry": {
                "type": "Point",
                "coordinates": [
                    20.08528,
                    49.79082
                ]
            },
            "properties": {
                "ref:rspo": 273256,
                "official_name": "O\u015brodek Rewalidacyjno \u2013 Wychowawczy Dw\u00f3r \u201eZwyci\u0105\u017c\u201d w Lipniku",
                "name": "O\u015brodek Rewalidacyjno \u2013 Wychowawczy Dw\u00f3r \u201eZwyci\u0105\u017c\u201d w Lipniku",
                "addr:country": "PL",
                "addr:postcode": "32-412",
                "addr:place": "Lipnik",
                "addr:housenumber": "485",
                "addr:teryt:sym_ul": 342485,
                "contact:phone": "+48 123736070",
                "contact:email": "urbaniak.mar@interia.pl",
                "ref:regon": "384418704",
                "operator": "Maria Urbaniak",
                "operator:type": "private",
                "amenity": "school"
            }
        },
        {
            "id": 68868,
            "type": "Feature",
            "geometry": {
                "type": "Point",
                "coordinates": [
                    20.09052,
                    49.79255
                ]
            },
            "properties": {
                "ref:rspo": 68868,
                "official_name": "Zesp\u00f3\u0142 Plac\u00f3wek O\u015bwiatowych w Lipniku",
                "name": "Zesp\u00f3\u0142 Plac\u00f3wek O\u015bwiatowych w Lipniku",
                "addr:country": "PL",
                "addr:postcode": "32-412",
                "addr:place": "Lipnik",
                "addr:housenumber": "14",
                "addr:teryt:sym_ul": 342485,
                "contact:phone": "+48 122714092",
                "contact:email": "zpo_lipnik@poczta.onet.pl",
                "contact:website": "http:\/\/zpolipnik.pl",
                "ref:regon": "001236101",
                "ref:vatin": "PL6811773302",
                "operator": "Gmina Wi\u015bniowa",
                "operator:type": "government",
                "landuse": "education",
                "fixme": "amenity=school, amenity=college albo landuse=education w zale\u017cno\u015bci od tego, jakie plac\u00f3wki wchodz\u0105 w sk\u0142ad zespo\u0142u. Sprawd\u017a, kiedy stosowa\u0107 amenity=* a kiedy landuse=education.",
                "note": "Children RSPO: 86082;86085"
            }
        },
        {
            "id": 86082,
            "type": "Feature",
            "geometry": {
                "type": "Point",
                "coordinates": [
                    20.09052,
                    49.792519999999996
                ]
            },
            "properties": {
                "isced:level": "1;2",
                "ref:rspo": 86082,
                "official_name": "Szko\u0142a Podstawowa im. Partyzant\u00f3w w Lipniku",
                "name": "Szko\u0142a Podstawowa",
                "addr:country": "PL",
                "addr:postcode": "32-412",
                "addr:place": "Lipnik",
                "addr:housenumber": "14",
                "addr:teryt:sym_ul": 342485,
                "contact:phone": "+48 122714092",
                "contact:email": "zpo_lipnik@poczta.onet.pl",
                "contact:website": "http:\/\/zpolipnik.pl\/",
                "ref:regon": "356909000",
                "operator": "Gmina Wi\u015bniowa",
                "operator:type": "government",
                "amenity": "school",
                "note": "Parent RSPO: 68868"
            }
        },
        {
            "id": 86085,
            "type": "Feature",
            "geometry": {
                "type": "Point",
                "coordinates": [
                    20.09052,
                    49.79249
                ]
            },
            "properties": {
                "ref:rspo": 86085,
                "official_name": "Zesp\u00f3\u0142 Plac\u00f3wek O\u015bwiatowych - Przedszkole Samorz\u0105dowe w Lipniku",
                "name": "Zesp\u00f3\u0142 Plac\u00f3wek O\u015bwiatowych - Przedszkole Samorz\u0105dowe w Lipniku",
                "addr:country": "PL",
                "addr:postcode": "32-412",
                "addr:place": "Lipnik",
                "addr:housenumber": "14",
                "addr:teryt:sym_ul": 342485,
                "contact:phone": "+48 122714092",
                "ref:regon": "350132957",
                "operator": "Gmina Wi\u015bniowa",
                "operator:type": "government",
                "amenity": "kindergarten",
                "note": "Parent RSPO: 68868"
            }
        },
        {
            "id": 70245,
            "type": "Feature",
            "geometry": {
                "type": "Point",
                "coordinates": [
                    20.11874,
                    49.79591
                ]
            },
            "properties": {
                "ref:rspo": 70245,
                "official_name": "Niepubliczne Przedszkole \"Frajda\"",
                "name": "Niepubliczne Przedszkole \"Frajda\"",
                "addr:country": "PL",
                "addr:postcode": "32-412",
                "addr:place": "Wi\u015bniowa",
                "addr:housenumber": "728",
                "addr:teryt:sym_ul": 343059,
                "contact:phone": "+48 122735025",
                "contact:email": "kaga1110@interia.pl",
                "ref:regon": "122704206",
                "ref:vatin": "PL6811315019",
                "operator": "Gra\u017cyna Kasprzycka",
                "operator:type": "private",
                "amenity": "kindergarten"
            }
        },
        {
            "id": 119588,
            "type": "Feature",
            "geometry": {
                "type": "Point",
                "coordinates": [
                    20.09676,
                    49.81821
                ]
            },
            "properties": {
                "ref:rspo": 119588,
                "official_name": "Zesp\u00f3\u0142 Plac\u00f3wek O\u015bwiatowych w Glichowie",
                "name": "Zesp\u00f3\u0142 Plac\u00f3wek O\u015bwiatowych w Glichowie",
                "addr:country": "PL",
                "addr:postcode": "32-412",
                "addr:place": "Glich\u00f3w",
                "addr:housenumber": "29",
                "addr:teryt:sym_ul": 342249,
                "contact:phone": "+48 122714082",
                "contact:email": "zpoglichow@interia.pl",
                "ref:regon": "122937258",
                "ref:vatin": "PL6812056407",
                "operator": "Stowarzyszenie Rozwoju Wsi Glich\u00f3w I Okolic",
                "operator:type": "ngo",
                "landuse": "education",
                "fixme": "amenity=school, amenity=college albo landuse=education w zale\u017cno\u015bci od tego, jakie plac\u00f3wki wchodz\u0105 w sk\u0142ad zespo\u0142u. Sprawd\u017a, kiedy stosowa\u0107 amenity=* a kiedy landuse=education.",
                "note": "Children RSPO: 119435;119438"
            }
        },
        {
            "id": 119435,
            "type": "Feature",
            "geometry": {
                "type": "Point",
                "coordinates": [
                    20.09676,
                    49.81818
                ]
            },
            "properties": {
                "ref:rspo": 119435,
                "official_name": "Oddzia\u0142 Przedszkolny w Glichowie",
                "name": "Oddzia\u0142 Przedszkolny w Glichowie",
                "addr:country": "PL",
                "addr:postcode": "32-412",
                "addr:place": "Glich\u00f3w",
                "addr:housenumber": "29",
                "addr:teryt:sym_ul": 342249,
                "contact:phone": "+48 122714082",
                "ref:regon": "122935325",
                "operator": "Stowarzyszenie Rozwoju Wsi Glich\u00f3w I Okolic",
                "operator:type": "ngo",
                "amenity": "kindergarten",
                "note": "Parent RSPO: 119588"
            }
        },
        {
            "id": 119438,
            "type": "Feature",
            "geometry": {
                "type": "Point",
                "coordinates": [
                    20.09676,
                    49.81815
                ]
            },
            "properties": {
                "isced:level": "1;2",
                "ref:rspo": 119438,
                "official_name": "Szko\u0142a Podstawowa im. Marii Konopnickiej w Glichowie",
                "name": "Szko\u0142a Podstawowa",
                "addr:country": "PL",
                "addr:postcode": "32-412",
                "addr:place": "Glich\u00f3w",
                "addr:housenumber": "29",
                "addr:teryt:sym_ul": 342249,
                "contact:phone": "+48 122714082",
                "contact:email": "zpoglichow@interia.pl",
                "ref:regon": "122935348",
                "operator": "Stowarzyszenie Rozwoju Wsi Glich\u00f3w I Okolic",
                "operator:type": "ngo",
                "amenity": "school",
                "note": "Parent RSPO: 119588"
            }
        }
    ]
}