{
    "type": "FeatureCollection",
    "features": [
        {
            "id": 7609,
            "type": "Feature",
            "geometry": {
                "type": "Point",
                "coordinates": [
                    19.9888,
                    49.88418
                ]
            },
            "properties": {
                "ref:rspo": 7609,
                "official_name": "Zesp\u00f3\u0142 Plac\u00f3wek O\u015bwiatowych w Zakliczynie",
                "name": "Zesp\u00f3\u0142 Plac\u00f3wek O\u015bwiatowych w Zakliczynie",
                "addr:country": "PL",
                "addr:postcode": "32-406",
                "addr:city": "Zakliczyn",
                "addr:street": "Podg\u00f3rska",
                "addr:housenumber": "123",
                "addr:teryt:simc": 16743,
                "addr:teryt:sym_ul": 333990,
                "contact:phone": "+48 122746517",
                "contact:email": "spzakliczyn@siepraw.pl",
                "ref:regon": "350548280",
                "ref:vatin": "PL6811795893",
                "operator": "Gmina Siepraw",
                "operator:type": "government",
                "landuse": "education",
                "fixme": "amenity=school, amenity=college albo landuse=education w zale\u017cno\u015bci od tego, jakie plac\u00f3wki wchodz\u0105 w sk\u0142ad zespo\u0142u. Sprawd\u017a, kiedy stosowa\u0107 amenity=* a kiedy landuse=education.",
                "note": "Children RSPO: 7619;11744"
            }
        },
        {
            "id": 7619,
            "type": "Feature",
            "geometry": {
                "type": "Point",
                "coordinates": [
                    19.9888,
                    49.88415
                ]
            },
            "properties": {
                "isced:level": "1;2",
                "ref:rspo": 7619,
                "official_name": "Szko\u0142a Podstawowa im. Prymasa Tysi\u0105clecia Stefana Kardyna\u0142a Wyszy\u0144skiego w Zakliczynie",
                "name": "Szko\u0142a Podstawowa",
                "addr:country": "PL",
                "addr:postcode": "32-406",
                "addr:city": "Zakliczyn",
                "addr:street": "Podg\u00f3rska",
                "addr:housenumber": "123",
                "addr:teryt:simc": 16743,
                "addr:teryt:sym_ul": 333990,
                "contact:phone": "+48 122746517",
                "contact:email": "spzakliczyn@siepraw.pl",
                "ref:regon": "356745490",
                "operator": "Gmina Siepraw",
                "operator:type": "government",
                "amenity": "school",
                "note": "Parent RSPO: 7609"
            }
        },
        {
            "id": 11744,
            "type": "Feature",
            "geometry": {
                "type": "Point",
                "coordinates": [
                    19.9888,
                    49.88412
                ]
            },
            "properties": {
                "ref:rspo": 11744,
                "official_name": "Przedszkole Gminy Siepraw w Zakliczynie",
                "name": "Przedszkole Gminy Siepraw w Zakliczynie",
                "addr:country": "PL",
                "addr:postcode": "32-406",
                "addr:city": "Zakliczyn",
                "addr:street": "Podg\u00f3rska",
                "addr:housenumber": "123",
                "addr:teryt:simc": 16743,
                "addr:teryt:sym_ul": 333990,
                "contact:phone": "+48 122746517",
                "contact:email": "spzakliczyn@siepraw.pl",
                "ref:regon": "356745460",
                "operator": "Gmina Siepraw",
                "operator:type": "government",
                "amenity": "kindergarten",
                "note": "Parent RSPO: 7609"
            }
        },
        {
            "id": 3432,
            "type": "Feature",
            "geometry": {
                "type": "Point",
                "coordinates": [
                    20.02224,
                    49.90265
                ]
            },
            "properties": {
                "isced:level": "1;2",
                "ref:rspo": 3432,
                "official_name": "Szko\u0142a Podstawowa im. \u015aw. Brata Alberta w Czech\u00f3wce",
                "name": "Szko\u0142a Podstawowa",
                "addr:country": "PL",
                "addr:postcode": "32-406",
                "addr:city": "Czech\u00f3wka",
                "addr:street": "Szkolna",
                "addr:housenumber": "72",
                "addr:teryt:simc": 21970,
                "addr:teryt:sym_ul": 333747,
                "contact:phone": "+48 122746570",
                "contact:email": "spczechowka@interia.pl",
                "ref:regon": "357242778",
                "ref:vatin": "PL6811795901",
                "operator": "Gmina Siepraw",
                "operator:type": "government",
                "amenity": "school"
            }
        },
        {
            "id": 3354,
            "type": "Feature",
            "geometry": {
                "type": "Point",
                "coordinates": [
                    19.961170196533,
                    49.90752029419
                ]
            },
            "properties": {
                "ref:rspo": 3354,
                "official_name": "Zesp\u00f3\u0142 Plac\u00f3wek O\u015bwiatowych w Sieprawiu",
                "name": "Zesp\u00f3\u0142 Plac\u00f3wek O\u015bwiatowych w Sieprawiu",
                "addr:country": "PL",
                "addr:postcode": "32-447",
                "addr:city": "Siepraw",
                "addr:street": "Ksi\u0119dza Jana Przytockiego",
                "addr:housenumber": "10",
                "addr:teryt:simc": 45687,
                "addr:teryt:sym_ul": 333842,
                "contact:email": "zpospsiepraw@op.pl",
                "ref:regon": "350548304",
                "ref:vatin": "PL6811795918",
                "operator": "Gmina Siepraw",
                "operator:type": "government",
                "landuse": "education",
                "fixme": "amenity=school, amenity=college albo landuse=education w zale\u017cno\u015bci od tego, jakie plac\u00f3wki wchodz\u0105 w sk\u0142ad zespo\u0142u. Sprawd\u017a, kiedy stosowa\u0107 amenity=* a kiedy landuse=education.",
                "note": "Children RSPO: 7548;7598"
            }
        },
        {
            "id": 7598,
            "type": "Feature",
            "geometry": {
                "type": "Point",
                "coordinates": [
                    19.961170196533,
                    49.90749029419
                ]
            },
            "properties": {
                "isced:level": "1;2",
                "ref:rspo": 7598,
                "official_name": "Szko\u0142a Podstawowa im. Tadeusza Ko\u015bciuszki w Sieprawiu",
                "name": "Szko\u0142a Podstawowa",
                "addr:country": "PL",
                "addr:postcode": "32-447",
                "addr:city": "Siepraw",
                "addr:street": "Ksi\u0119dza Jana Przytockiego",
                "addr:housenumber": "10",
                "addr:teryt:simc": 45687,
                "addr:teryt:sym_ul": 333842,
                "contact:phone": "+48 122746346",
                "contact:email": "zpospsiepraw@op.pl",
                "ref:regon": "356745075",
                "operator": "Gmina Siepraw",
                "operator:type": "government",
                "amenity": "school",
                "note": "Parent RSPO: 3354"
            }
        },
        {
            "id": 7548,
            "type": "Feature",
            "geometry": {
                "type": "Point",
                "coordinates": [
                    19.96796,
                    49.90799
                ]
            },
            "properties": {
                "ref:rspo": 7548,
                "official_name": "Przedszkole Gminy Siepraw w Sieprawiu",
                "name": "Przedszkole Gminy Siepraw w Sieprawiu",
                "addr:country": "PL",
                "addr:postcode": "32-447",
                "addr:city": "Siepraw",
                "addr:street": "Jana Paw\u0142a II",
                "addr:housenumber": "40",
                "addr:teryt:simc": 7123,
                "addr:teryt:sym_ul": 333842,
                "contact:phone": "+48 122746147",
                "contact:email": "zpospsiepraw@op.pl",
                "ref:regon": "356745170",
                "operator": "Gmina Siepraw",
                "operator:type": "government",
                "amenity": "kindergarten",
                "note": "Parent RSPO: 3354"
            }
        },
        {
            "id": 7490,
            "type": "Feature",
            "geometry": {
                "type": "Point",
                "coordinates": [
                    19.98776,
                    49.92035
                ]
            },
            "properties": {
                "isced:level": "1;2",
                "ref:rspo": 7490,
                "official_name": "Szko\u0142a Podstawowa w \u0141yczance",
                "name": "Szko\u0142a Podstawowa w \u0141yczance",
                "addr:country": "PL",
                "addr:postcode": "32-447",
                "addr:city": "\u0141yczanka",
                "addr:street": "Dworska",
                "addr:housenumber": "1",
                "addr:teryt:simc": 4446,
                "addr:teryt:sym_ul": 333782,
                "contact:phone": "+48 122746092",
                "contact:email": "splyczanka@interia.pl",
                "contact:website": "http:\/\/www.splyczanka.pl",
                "ref:regon": "357242761",
                "ref:vatin": "PL6811795887",
                "operator": "Gmina Siepraw",
                "operator:type": "government",
                "amenity": "school"
            }
        }
    ]
}