{
    "type": "FeatureCollection",
    "features": [
        {
            "id": 71567,
            "type": "Feature",
            "geometry": {
                "type": "Point",
                "coordinates": [
                    20.005758,
                    49.751424
                ]
            },
            "properties": {
                "isced:level": "1;2",
                "ref:rspo": 71567,
                "official_name": "Szko\u0142a Podstawowa nr 3 im. Armii Krajowej w Pcimiu",
                "name": "Szko\u0142a Podstawowa nr 3",
                "addr:postcode": "32-432",
                "addr:place": "Pcim",
                "addr:housenumber": "598",
                "addr:city:simc": 329898,
                "phone": "+48 122748016",
                "email": "szkola3pcim3@wp.pl",
                "website": "http:\/\/sp3pcim.pl",
                "ref:regon": "001235001",
                "ref:vatin": "PL6812037479",
                "operator": "Gmina Pcim",
                "operator:type": "government",
                "amenity": "school"
            }
        },
        {
            "id": 88672,
            "type": "Feature",
            "geometry": {
                "type": "Point",
                "coordinates": [
                    20.005758,
                    49.751394
                ]
            },
            "properties": {
                "ref:rspo": 88672,
                "official_name": "Punkt Przedszkolny Przy Szkole Podstawowej nr 3 im. Armii Krajowej w Pcimiu",
                "name": "Punkt Przedszkolny Przy Szkole Podstawowej nr 3",
                "addr:postcode": "32-432",
                "addr:place": "Pcim",
                "addr:housenumber": "598",
                "addr:city:simc": 329898,
                "phone": "+48 122748016",
                "email": "szkola3pcim3@wp.pl",
                "ref:regon": "122714854",
                "ref:vatin": "PL6812037479",
                "operator": "Gmina Pcim",
                "operator:type": "government",
                "amenity": "kindergarten"
            }
        },
        {
            "id": 70934,
            "type": "Feature",
            "geometry": {
                "type": "Point",
                "coordinates": [
                    19.9671052,
                    49.751638
                ]
            },
            "properties": {
                "ref:rspo": 70934,
                "official_name": "Przedszkole Samorz\u0105dowe nr 1 w Pcimiu",
                "name": "Przedszkole Samorz\u0105dowe nr 1 w Pcimiu",
                "addr:postcode": "32-432",
                "addr:place": "Pcim",
                "addr:housenumber": "1186",
                "addr:city:simc": 329898,
                "email": "przedszkole1pcim@wp.pl",
                "website": "http:\/\/www.ps1pcim.szkolnastrona.pl",
                "ref:regon": "351501316",
                "ref:vatin": "PL6812037309",
                "operator": "Gmina Pcim",
                "operator:type": "government",
                "amenity": "kindergarten"
            }
        },
        {
            "id": 71136,
            "type": "Feature",
            "geometry": {
                "type": "Point",
                "coordinates": [
                    19.9659089,
                    49.7528839
                ]
            },
            "properties": {
                "isced:level": "1;2",
                "ref:rspo": 71136,
                "official_name": "Szko\u0142a Podstawowa nr 1 im. Kr\u00f3lowej Jadwigi w Pcimiu",
                "name": "Szko\u0142a Podstawowa nr 1",
                "addr:postcode": "32-432",
                "addr:place": "Pcim",
                "addr:housenumber": "599",
                "addr:city:simc": 329898,
                "phone": "+48 122748008",
                "email": "sp1pcim599@wp.pl",
                "website": "http:\/\/www.pcimsp1.edupage.org",
                "ref:regon": "000703457",
                "ref:vatin": "PL6812037120",
                "operator": "Gmina Pcim",
                "operator:type": "government",
                "amenity": "school"
            }
        },
        {
            "id": 71020,
            "type": "Feature",
            "geometry": {
                "type": "Point",
                "coordinates": [
                    20.020157,
                    49.7765951
                ]
            },
            "properties": {
                "ref:rspo": 71020,
                "official_name": "Przedszkole Samorz\u0105dowe nr 2 w Pcimiu",
                "name": "Przedszkole Samorz\u0105dowe nr 2 w Pcimiu",
                "addr:postcode": "32-432",
                "addr:place": "Pcim",
                "addr:housenumber": "564",
                "addr:city:simc": 329898,
                "email": "przedszkole.nr2@o2.pl",
                "website": "http:\/\/ps2pcim.szkolnastrona.pl",
                "ref:regon": "351501322",
                "ref:vatin": "PL6812037315",
                "operator": "Gmina Pcim",
                "operator:type": "government",
                "amenity": "kindergarten"
            }
        },
        {
            "id": 74451,
            "type": "Feature",
            "geometry": {
                "type": "Point",
                "coordinates": [
                    19.9465419,
                    49.784554
                ]
            },
            "properties": {
                "isced:level": "1;2",
                "ref:rspo": 74451,
                "official_name": "Szko\u0142a Podstawowa nr 3 im. Adama Mickiewicza w Str\u00f3\u017cy",
                "name": "Szko\u0142a Podstawowa nr 3",
                "addr:postcode": "32-431",
                "addr:place": "Str\u00f3\u017ca",
                "addr:housenumber": "168",
                "addr:city:simc": 330602,
                "phone": "+48 123733161",
                "email": "sp3stroza@interia.pl",
                "website": "http:\/\/www.sp3stroza.szkolnastrona.pl",
                "ref:regon": "001235024",
                "ref:vatin": "PL6812037137",
                "operator": "Gmina Pcim",
                "operator:type": "government",
                "amenity": "school"
            }
        },
        {
            "id": 88671,
            "type": "Feature",
            "geometry": {
                "type": "Point",
                "coordinates": [
                    19.9465419,
                    49.784524
                ]
            },
            "properties": {
                "ref:rspo": 88671,
                "official_name": "Punkt Przedszkolny Przy Szkole Podstawowej nr 3 im. Adama Mickiewicza w Str\u00f3\u017cy",
                "name": "Punkt Przedszkolny Przy Szkole Podstawowej nr 3",
                "addr:postcode": "32-431",
                "addr:place": "Str\u00f3\u017ca",
                "addr:housenumber": "168",
                "addr:city:simc": 330602,
                "phone": "+48 123733161",
                "email": "sp3stroza@interia.pl",
                "ref:regon": "122714831",
                "ref:vatin": "PL6812037137",
                "operator": "Gmina Pcim",
                "operator:type": "government",
                "amenity": "kindergarten"
            }
        },
        {
            "id": 92935,
            "type": "Feature",
            "geometry": {
                "type": "Point",
                "coordinates": [
                    19.8527239,
                    49.789417
                ]
            },
            "properties": {
                "isced:level": "1;2",
                "ref:rspo": 92935,
                "official_name": "Szko\u0142a Podstawowa im. Marii Konopnickiej w Trzebuni",
                "name": "Szko\u0142a Podstawowa",
                "addr:postcode": "32-438",
                "addr:place": "Trzebunia",
                "addr:housenumber": "444",
                "addr:city:simc": 331234,
                "phone": "+48 122734529",
                "email": "szkola_trzebunia@wp.pl",
                "ref:regon": "001235030",
                "ref:vatin": "PL6812036994",
                "operator": "Gmina Pcim",
                "operator:type": "government",
                "amenity": "school"
            }
        },
        {
            "id": 92964,
            "type": "Feature",
            "geometry": {
                "type": "Point",
                "coordinates": [
                    19.8527239,
                    49.789387
                ]
            },
            "properties": {
                "ref:rspo": 92964,
                "official_name": "Punkt Przedszkolny Przy Szkole Podstawowej im. Marii Konopnickiej w Trzebuni",
                "name": "Punkt Przedszkolny Przy Szkole Podstawowej",
                "addr:postcode": "32-438",
                "addr:place": "Trzebunia",
                "addr:housenumber": "444",
                "addr:city:simc": 331234,
                "phone": "+48 122734529",
                "email": "szkola_trzebunia@wp.pl",
                "ref:regon": "122727325",
                "ref:vatin": "PL6812036994",
                "operator": "Gmina Pcim",
                "operator:type": "government",
                "amenity": "kindergarten"
            }
        },
        {
            "id": 74453,
            "type": "Feature",
            "geometry": {
                "type": "Point",
                "coordinates": [
                    19.926372,
                    49.795378
                ]
            },
            "properties": {
                "isced:level": "1;2",
                "ref:rspo": 74453,
                "official_name": "Szko\u0142a Podstawowa nr 1 im. Marii Curie - Sk\u0142odowskiej w Str\u00f3\u017cy",
                "name": "Szko\u0142a Podstawowa nr 1",
                "addr:postcode": "32-431",
                "addr:place": "Str\u00f3\u017ca",
                "addr:housenumber": "1",
                "addr:city:simc": 330602,
                "phone": "+48 123733162",
                "email": "prima0@poczta.onet.pl",
                "ref:regon": "001235018",
                "ref:vatin": "PL6812037485",
                "operator": "Gmina Pcim",
                "operator:type": "government",
                "amenity": "school"
            }
        },
        {
            "id": 88670,
            "type": "Feature",
            "geometry": {
                "type": "Point",
                "coordinates": [
                    19.926372,
                    49.795348
                ]
            },
            "properties": {
                "ref:rspo": 88670,
                "official_name": "Punkt Przedszkolny Przy Szkole Podstawowej nr 1 im. Marii Curie Sk\u0142odowskiej w Str\u00f3\u017cy",
                "name": "Punkt Przedszkolny Przy Szkole Podstawowej nr 1",
                "addr:postcode": "32-431",
                "addr:place": "Str\u00f3\u017ca",
                "addr:housenumber": "1",
                "addr:city:simc": 330602,
                "phone": "+48 123733162",
                "email": "prima0@poczta.onet.pl",
                "ref:regon": "122714825",
                "ref:vatin": "PL6812037485",
                "operator": "Gmina Pcim",
                "operator:type": "government",
                "amenity": "kindergarten"
            }
        }
    ]
}