{
    "type": "FeatureCollection",
    "features": [
        {
            "id": 64492,
            "type": "Feature",
            "geometry": {
                "type": "Point",
                "coordinates": [
                    20.016597,
                    49.79808
                ]
            },
            "properties": {
                "isced:level": "1;2",
                "ref:rspo": 64492,
                "official_name": "Szko\u0142a Podstawowa im. Tadeusza Banachiewicza w Por\u0119bie",
                "name": "Szko\u0142a Podstawowa",
                "addr:country": "PL",
                "addr:postcode": "32-425",
                "addr:place": "Por\u0119ba",
                "addr:housenumber": "16",
                "addr:teryt:sym_ul": 328261,
                "contact:phone": "+48 122735578",
                "contact:email": "szkolaporeba4@wp.pl",
                "contact:website": "http:\/\/www.spopreba.szkolnastrona.pl",
                "ref:regon": "000698845",
                "ref:vatin": "PL6812061673",
                "operator": "Gmina My\u015blenice",
                "operator:type": "government",
                "amenity": "school"
            }
        },
        {
            "id": 53047,
            "type": "Feature",
            "geometry": {
                "type": "Point",
                "coordinates": [
                    19.94185,
                    49.81794
                ]
            },
            "properties": {
                "ref:rspo": 53047,
                "official_name": "Przedszkole Samorz\u0105dowe Nr 3 w My\u015blenicach",
                "name": "Przedszkole Samorz\u0105dowe Nr 3 w My\u015blenicach",
                "addr:country": "PL",
                "addr:postcode": "32-400",
                "addr:city": "My\u015blenice",
                "addr:street": "Lipowa",
                "addr:housenumber": "2",
                "addr:door": "a",
                "addr:teryt:simc": 11139,
                "addr:teryt:sym_ul": 951617,
                "contact:phone": "+48 122720937",
                "contact:email": "ps3m-ce@neostrada.pl",
                "contact:website": "http:\/\/www.ps3myslenice.szkolnastrona.pl",
                "ref:regon": "350530942",
                "ref:vatin": "PL6812061710",
                "operator": "Gmina My\u015blenice",
                "operator:type": "government",
                "amenity": "kindergarten"
            }
        },
        {
            "id": 43583,
            "type": "Feature",
            "geometry": {
                "type": "Point",
                "coordinates": [
                    20.0484935,
                    49.8203165
                ]
            },
            "properties": {
                "isced:level": "1;2",
                "ref:rspo": 43583,
                "official_name": "Szko\u0142a Podstawowa im. Kr\u00f3la Kazimierza III Wielkiego w Zasani",
                "name": "Szko\u0142a Podstawowa",
                "addr:country": "PL",
                "addr:postcode": "32-425",
                "addr:place": "Zasa\u0144",
                "addr:housenumber": "91",
                "addr:teryt:sym_ul": 328456,
                "contact:phone": "+48 122735570",
                "contact:email": "sp.zasan@interia.pl",
                "contact:website": "http:\/\/www.spzasan.pl",
                "ref:regon": "001067420",
                "ref:vatin": "PL6812061905",
                "operator": "Gmina My\u015blenice",
                "operator:type": "government",
                "amenity": "school"
            }
        },
        {
            "id": 49624,
            "type": "Feature",
            "geometry": {
                "type": "Point",
                "coordinates": [
                    20.017915,
                    49.8215409
                ]
            },
            "properties": {
                "isced:level": "1;2",
                "ref:rspo": 49624,
                "official_name": "Szko\u0142a Podstawowa im. Ksi\u0119dza Profesora J\u00f3zefa Tischnera w Trzeme\u015bni",
                "name": "Szko\u0142a Podstawowa",
                "addr:country": "PL",
                "addr:postcode": "32-425",
                "addr:place": "Trzeme\u015bnia",
                "addr:housenumber": "250",
                "addr:teryt:sym_ul": 328373,
                "contact:phone": "+48 122735611",
                "contact:email": "sptrzemesnia@poczta.onet.pl",
                "contact:website": "http:\/\/www.sptrzemesnia.edu.pl",
                "ref:regon": "000698851",
                "operator": "Gmina My\u015blenice",
                "operator:type": "government",
                "amenity": "school"
            }
        },
        {
            "id": 69872,
            "type": "Feature",
            "geometry": {
                "type": "Point",
                "coordinates": [
                    19.94966,
                    49.82192
                ]
            },
            "properties": {
                "isced:level": "1;2",
                "ref:rspo": 69872,
                "official_name": "Szko\u0142a Podstawowa Nr 4 im. \u015aw. Jadwigi Kr\u00f3lowej w My\u015blenicach",
                "name": "Szko\u0142a Podstawowa Nr 4",
                "addr:country": "PL",
                "addr:postcode": "32-400",
                "addr:city": "My\u015blenice",
                "addr:street": "Zdrojowa",
                "addr:housenumber": "16 A",
                "addr:teryt:simc": 25944,
                "addr:teryt:sym_ul": 951617,
                "contact:phone": "+48 123731400",
                "contact:email": "sp4zarabie@poczta.fm",
                "ref:regon": "001098260",
                "ref:vatin": "PL6812061650",
                "operator": "Gmina My\u015blenice",
                "operator:type": "government",
                "amenity": "school"
            }
        },
        {
            "id": 75588,
            "type": "Feature",
            "geometry": {
                "type": "Point",
                "coordinates": [
                    19.94966,
                    49.821889999999996
                ]
            },
            "properties": {
                "ref:rspo": 75588,
                "official_name": "Pa\u0144stwowa Szko\u0142a Muzyczna I St. im. Ludomira R\u00f3\u017cyckiego w My\u015blenicach",
                "name": "Pa\u0144stwowa Szko\u0142a Muzyczna I St.",
                "addr:country": "PL",
                "addr:postcode": "32-400",
                "addr:city": "My\u015blenice",
                "addr:street": "Zdrojowa",
                "addr:housenumber": "16",
                "addr:teryt:simc": 25944,
                "addr:teryt:sym_ul": 951617,
                "contact:phone": "+48 122720813",
                "contact:email": "psmmyslenice@op.pl",
                "contact:website": "http:\/\/psm.myslenice.pl",
                "ref:regon": "000844850",
                "operator": "Ministerstwo Kultury I Dziedzictwa Narodowego",
                "operator:type": "public",
                "amenity": "music_school"
            }
        },
        {
            "id": 19427,
            "type": "Feature",
            "geometry": {
                "type": "Point",
                "coordinates": [
                    19.95056,
                    49.82245
                ]
            },
            "properties": {
                "ref:rspo": 19427,
                "official_name": "Zesp\u00f3\u0142 Szk\u00f3\u0142 \u2013 Ma\u0142opolska Szko\u0142a Go\u015bcinno\u015bci im. Tytusa Cha\u0142ubi\u0144skiego w My\u015blenicach",
                "name": "Zesp\u00f3\u0142 Szk\u00f3\u0142 \u2013 Ma\u0142opolska Szko\u0142a Go\u015bcinno\u015bci",
                "addr:country": "PL",
                "addr:postcode": "32-400",
                "addr:city": "My\u015blenice",
                "addr:street": "Zdrojowa",
                "addr:housenumber": "18",
                "addr:teryt:simc": 25944,
                "addr:teryt:sym_ul": 951617,
                "contact:phone": "+48 122720424",
                "contact:email": "sekretariat@zsp.edu.pl",
                "contact:website": "http:\/\/www.zsp.edu.pl",
                "ref:regon": "000292020",
                "ref:vatin": "PL6811400423",
                "operator": "Wojew\u00f3dztwo Ma\u0142opolskie",
                "operator:type": "government",
                "landuse": "education",
                "fixme": "amenity=school, amenity=college albo landuse=education w zale\u017cno\u015bci od tego, jakie plac\u00f3wki wchodz\u0105 w sk\u0142ad zespo\u0142u. Sprawd\u017a, kiedy stosowa\u0107 amenity=* a kiedy landuse=education.",
                "note": "Children RSPO: 24939;31439;48102;48103"
            }
        },
        {
            "id": 24939,
            "type": "Feature",
            "geometry": {
                "type": "Point",
                "coordinates": [
                    19.95056,
                    49.82242
                ]
            },
            "properties": {
                "isced:level": "4",
                "ref:rspo": 24939,
                "official_name": "Szko\u0142a Policealna Turystyki I Zdrowia",
                "name": "Szko\u0142a Policealna Turystyki I Zdrowia",
                "addr:country": "PL",
                "addr:postcode": "32-400",
                "addr:city": "My\u015blenice",
                "addr:street": "Zdrojowa",
                "addr:housenumber": "18",
                "addr:teryt:simc": 25944,
                "addr:teryt:sym_ul": 951617,
                "contact:phone": "+48 122720424",
                "contact:email": "sekretariat@zsp.edu.pl",
                "contact:website": "http:\/\/www.zsp.edu.pl",
                "ref:regon": "120095140",
                "operator": "Wojew\u00f3dztwo Ma\u0142opolskie",
                "operator:type": "government",
                "amenity": "college",
                "note": "Parent RSPO: 19427"
            }
        },
        {
            "id": 31439,
            "type": "Feature",
            "geometry": {
                "type": "Point",
                "coordinates": [
                    19.95056,
                    49.822390000000006
                ]
            },
            "properties": {
                "isced:level": "3",
                "ref:rspo": 31439,
                "official_name": "Technikum Turystyczno-Gastronomiczne w My\u015blenicach",
                "name": "Technikum Turystyczno-Gastronomiczne w My\u015blenicach",
                "addr:country": "PL",
                "addr:postcode": "32-400",
                "addr:city": "My\u015blenice",
                "addr:street": "Zdrojowa",
                "addr:housenumber": "18",
                "addr:teryt:simc": 25944,
                "addr:teryt:sym_ul": 951617,
                "contact:phone": "+48 122720424",
                "contact:email": "sekretariat@zsp.edu.pl",
                "contact:website": "http:\/\/www.zsp.edu.pl",
                "ref:regon": "121331772",
                "operator": "Wojew\u00f3dztwo Ma\u0142opolskie",
                "operator:type": "government",
                "amenity": "school",
                "note": "Parent RSPO: 19427"
            }
        },
        {
            "id": 48102,
            "type": "Feature",
            "geometry": {
                "type": "Point",
                "coordinates": [
                    19.95056,
                    49.82236
                ]
            },
            "properties": {
                "isced:level": "3",
                "ref:rspo": 48102,
                "official_name": "Ii Liceum Og\u00f3lnokszta\u0142c\u0105ce w My\u015blenicach",
                "name": "Ii Liceum Og\u00f3lnokszta\u0142c\u0105ce w My\u015blenicach",
                "addr:country": "PL",
                "addr:postcode": "32-400",
                "addr:city": "My\u015blenice",
                "addr:street": "Zdrojowa",
                "addr:housenumber": "18",
                "addr:teryt:simc": 25944,
                "addr:teryt:sym_ul": 951617,
                "contact:phone": "+48 122720820",
                "contact:email": "sekretariat@zsp.edu.pl",
                "contact:website": "http:\/\/www.zsp.edu.pl",
                "ref:regon": "356729998",
                "operator": "Powiat My\u015blenicki",
                "operator:type": "government",
                "amenity": "school",
                "note": "Parent RSPO: 19427"
            }
        },
        {
            "id": 48103,
            "type": "Feature",
            "geometry": {
                "type": "Point",
                "coordinates": [
                    19.95056,
                    49.82233
                ]
            },
            "properties": {
                "ref:rspo": 48103,
                "official_name": "Ma\u0142opolskie Centrum Kszta\u0142cenia Zawodowego w My\u015blenicach",
                "name": "Ma\u0142opolskie Centrum Kszta\u0142cenia Zawodowego w My\u015blenicach",
                "addr:country": "PL",
                "addr:postcode": "32-400",
                "addr:city": "My\u015blenice",
                "addr:street": "Zdrojowa",
                "addr:housenumber": "18",
                "addr:teryt:simc": 25944,
                "addr:teryt:sym_ul": 951617,
                "contact:phone": "+48 122720424",
                "contact:email": "sekretariat@zsp.edu.pl",
                "contact:website": "http:\/\/www.zsp.edu.pl",
                "ref:regon": "356887438",
                "operator": "Wojew\u00f3dztwo Ma\u0142opolskie",
                "operator:type": "government",
                "fixme": "w zale\u017cno\u015bci od przedmiotu dzia\u0142alno\u015bci (np. amenity=training + training=*, amenity=dancing_school, amenity=language_school, amenity=music_school) albo amenity=school, amenity=college, albo landuse=education w zale\u017cno\u015bci od tego, jakie plac\u00f3wki wchodz\u0105 w sk\u0142ad zespo\u0142u. Sprawd\u017a, kiedy stosowa\u0107 amenity=* a kiedy landuse=education.",
                "note": "Parent RSPO: 19427"
            }
        },
        {
            "id": 57684,
            "type": "Feature",
            "geometry": {
                "type": "Point",
                "coordinates": [
                    20.019965,
                    49.822519
                ]
            },
            "properties": {
                "ref:rspo": 57684,
                "official_name": "Przedszkole Samorz\u0105dowe w Trzeme\u015bni",
                "name": "Przedszkole Samorz\u0105dowe w Trzeme\u015bni",
                "addr:country": "PL",
                "addr:postcode": "32-425",
                "addr:place": "Trzeme\u015bnia",
                "addr:housenumber": "306",
                "addr:teryt:sym_ul": 328373,
                "contact:phone": "+48 122735577",
                "contact:email": "przedszkole.306@wp.pl",
                "ref:regon": "350537513",
                "operator": "Gmina My\u015blenice",
                "operator:type": "government",
                "amenity": "kindergarten"
            }
        },
        {
            "id": 49726,
            "type": "Feature",
            "geometry": {
                "type": "Point",
                "coordinates": [
                    19.8460201,
                    49.8228337
                ]
            },
            "properties": {
                "ref:rspo": 49726,
                "official_name": "Zesp\u00f3\u0142 Plac\u00f3wek O\u015bwiatowych w Jasienicy",
                "name": "Zesp\u00f3\u0142 Plac\u00f3wek O\u015bwiatowych w Jasienicy",
                "addr:country": "PL",
                "addr:postcode": "32-400",
                "addr:place": "Jasienica",
                "addr:housenumber": "48",
                "addr:teryt:sym_ul": 327698,
                "contact:phone": "+48 122731712",
                "contact:email": "sp_jasienica@interia.pl",
                "contact:website": "http:\/\/www.jasienica.szkolnastrona.pl",
                "ref:regon": "356571244",
                "ref:vatin": "PL6812061839",
                "operator": "Gmina My\u015blenice",
                "operator:type": "government",
                "landuse": "education",
                "fixme": "amenity=school, amenity=college albo landuse=education w zale\u017cno\u015bci od tego, jakie plac\u00f3wki wchodz\u0105 w sk\u0142ad zespo\u0142u. Sprawd\u017a, kiedy stosowa\u0107 amenity=* a kiedy landuse=education.",
                "note": "Children RSPO: 62041;62325"
            }
        },
        {
            "id": 62041,
            "type": "Feature",
            "geometry": {
                "type": "Point",
                "coordinates": [
                    19.8460201,
                    49.822803699999994
                ]
            },
            "properties": {
                "isced:level": "1;2",
                "ref:rspo": 62041,
                "official_name": "Szko\u0142a Podstawowa im.prof.karoliny Lanckoro\u0144skiej w Jasienicy",
                "name": "Szko\u0142a Podstawowa im.prof.karoliny Lanckoro\u0144skiej w Jasienicy",
                "addr:country": "PL",
                "addr:postcode": "32-400",
                "addr:place": "Jasienica",
                "addr:housenumber": "48",
                "addr:teryt:sym_ul": 327698,
                "contact:phone": "+48 122731712",
                "contact:email": "sp_jasienica@interia.pl",
                "contact:website": "http:\/\/www.jasienica.szkolnastrona.pl",
                "ref:regon": "000698963",
                "operator": "Gmina My\u015blenice",
                "operator:type": "government",
                "amenity": "school",
                "note": "Parent RSPO: 49726"
            }
        },
        {
            "id": 62325,
            "type": "Feature",
            "geometry": {
                "type": "Point",
                "coordinates": [
                    19.8460201,
                    49.8227737
                ]
            },
            "properties": {
                "ref:rspo": 62325,
                "official_name": "Przedszkole Samorz\u0105dowe w Jasienicy",
                "name": "Przedszkole Samorz\u0105dowe w Jasienicy",
                "addr:country": "PL",
                "addr:postcode": "32-400",
                "addr:place": "Jasienica",
                "addr:housenumber": "48",
                "addr:teryt:sym_ul": 327698,
                "contact:phone": "+48 122731760",
                "contact:email": "sp_jasienica@interia.pl",
                "contact:website": "http:\/\/www.jasienica.szkolnastrona.pl",
                "ref:regon": "350537460",
                "operator": "Gmina My\u015blenice",
                "operator:type": "government",
                "amenity": "kindergarten",
                "note": "Parent RSPO: 49726"
            }
        },
        {
            "id": 62579,
            "type": "Feature",
            "geometry": {
                "type": "Point",
                "coordinates": [
                    19.8876709,
                    49.82796
                ]
            },
            "properties": {
                "ref:rspo": 62579,
                "official_name": "Zesp\u00f3\u0142 Plac\u00f3wek O\u015bwiatowych w Bysinie",
                "name": "Zesp\u00f3\u0142 Plac\u00f3wek O\u015bwiatowych w Bysinie",
                "addr:country": "PL",
                "addr:postcode": "32-400",
                "addr:place": "Bysina",
                "addr:housenumber": "284",
                "addr:teryt:sym_ul": 327480,
                "contact:phone": "+48 122720782",
                "contact:email": "sekretariat@zpobysina.pl",
                "contact:website": "http:\/\/www.zpobysina.pl",
                "ref:regon": "120030152",
                "ref:vatin": "PL6812061934",
                "operator": "Gmina My\u015blenice",
                "operator:type": "government",
                "landuse": "education",
                "fixme": "amenity=school, amenity=college albo landuse=education w zale\u017cno\u015bci od tego, jakie plac\u00f3wki wchodz\u0105 w sk\u0142ad zespo\u0142u. Sprawd\u017a, kiedy stosowa\u0107 amenity=* a kiedy landuse=education.",
                "note": "Children RSPO: 74965;74980"
            }
        },
        {
            "id": 74965,
            "type": "Feature",
            "geometry": {
                "type": "Point",
                "coordinates": [
                    19.8876709,
                    49.827929999999995
                ]
            },
            "properties": {
                "isced:level": "1;2",
                "ref:rspo": 74965,
                "official_name": "Szko\u0142a Podstawowa im.ksi\u0119cia Kardyna\u0142a Adama Stefana Sapiehy w Bysinie",
                "name": "Szko\u0142a Podstawowa im.ksi\u0119cia Kardyna\u0142a Adama Stefana Sapiehy w Bysinie",
                "addr:country": "PL",
                "addr:postcode": "32-400",
                "addr:place": "Bysina",
                "addr:housenumber": "284",
                "addr:teryt:sym_ul": 327480,
                "contact:phone": "+48 122720782",
                "contact:email": "sekretariat@zpobysina.pl",
                "contact:website": "http:\/\/www.zpobysina.pl",
                "ref:regon": "000698934",
                "operator": "Gmina My\u015blenice",
                "operator:type": "government",
                "amenity": "school",
                "note": "Parent RSPO: 62579"
            }
        },
        {
            "id": 74980,
            "type": "Feature",
            "geometry": {
                "type": "Point",
                "coordinates": [
                    19.8876709,
                    49.8279
                ]
            },
            "properties": {
                "ref:rspo": 74980,
                "official_name": "Przedszkole Samorz\u0105dowe w Bysinie",
                "name": "Przedszkole Samorz\u0105dowe w Bysinie",
                "addr:country": "PL",
                "addr:postcode": "32-400",
                "addr:place": "Bysina",
                "addr:housenumber": "284",
                "addr:teryt:sym_ul": 327480,
                "contact:phone": "+48 122720782",
                "contact:email": "przedszkole@zpobysina.pl",
                "contact:website": "http:\/\/www.zpobysina.pl",
                "ref:regon": "350531025",
                "operator": "Gmina My\u015blenice",
                "operator:type": "government",
                "amenity": "kindergarten",
                "note": "Parent RSPO: 62579"
            }
        },
        {
            "id": 44012,
            "type": "Feature",
            "geometry": {
                "type": "Point",
                "coordinates": [
                    19.93984,
                    49.82914
                ]
            },
            "properties": {
                "ref:rspo": 44012,
                "official_name": "Przedszkole Samorz\u0105dowe Nr 5",
                "name": "Przedszkole Samorz\u0105dowe Nr 5",
                "addr:country": "PL",
                "addr:postcode": "32-400",
                "addr:city": "My\u015blenice",
                "addr:street": "Niepodleg\u0142o\u015bci",
                "addr:housenumber": "50",
                "addr:teryt:simc": 14203,
                "addr:teryt:sym_ul": 951617,
                "contact:phone": "+48 122742218",
                "contact:email": "przedszkole_5@tlen.pl",
                "contact:website": "http:\/\/myslenice.przedszkole5n.dlaprzedszkoli.eu\/",
                "ref:regon": "350530965",
                "operator": "Gmina My\u015blenice",
                "operator:type": "government",
                "amenity": "kindergarten"
            }
        },
        {
            "id": 273714,
            "type": "Feature",
            "geometry": {
                "type": "Point",
                "coordinates": [
                    19.93792,
                    49.82958
                ]
            },
            "properties": {
                "ref:rspo": 273714,
                "official_name": "Niepubliczne Ognisko Artystyczne Szko\u0142a Rysunku Zalubowski w My\u015blenicach",
                "name": "Niepubliczne Ognisko Artystyczne Szko\u0142a Rysunku Zalubowski w My\u015blenicach",
                "addr:country": "PL",
                "addr:postcode": "32-400",
                "addr:city": "My\u015blenice",
                "addr:street": "Ogrodowa",
                "addr:housenumber": "20",
                "addr:teryt:simc": 14834,
                "addr:teryt:sym_ul": 951617,
                "contact:phone": "+48 533458111",
                "contact:email": "kontakt@zalubowski.pl",
                "ref:regon": "384573563",
                "operator": "Rafa\u0142 Zalubowski",
                "operator:type": "private",
                "fixme": "w zale\u017cno\u015bci od przedmiotu dzia\u0142alno\u015bci (np. amenity=community_centre + community_centre:for=child;juvenile, amenity=training + training=*, amenity=dancing_school, amenity=music_school),"
            }
        },
        {
            "id": 274943,
            "type": "Feature",
            "geometry": {
                "type": "Point",
                "coordinates": [
                    19.93792,
                    49.82955
                ]
            },
            "properties": {
                "ref:rspo": 274943,
                "official_name": "Niepubliczna Plac\u00f3wka Szko\u0142a Matematyki Mobius w My\u015blenicach",
                "name": "Niepubliczna Plac\u00f3wka Szko\u0142a Matematyki Mobius w My\u015blenicach",
                "addr:country": "PL",
                "addr:postcode": "32-400",
                "addr:city": "My\u015blenice",
                "addr:street": "Ogrodowa",
                "addr:housenumber": "20",
                "addr:teryt:simc": 14834,
                "addr:teryt:sym_ul": 951617,
                "contact:phone": "+48 884856222",
                "contact:email": "szkolamobius@gmail.com",
                "contact:website": "http:\/\/www.szkolamobius@gmail.com",
                "ref:regon": "386421515",
                "operator": "Ma\u0142gorzata Maj",
                "operator:type": "private",
                "fixme": "w zale\u017cno\u015bci od przedmiotu dzia\u0142alno\u015bci (np. amenity=training + training=*, amenity=dancing_school, amenity=language_school, amenity=music_school)"
            }
        },
        {
            "id": 278610,
            "type": "Feature",
            "geometry": {
                "type": "Point",
                "coordinates": [
                    19.94043,
                    49.82964
                ]
            },
            "properties": {
                "ref:rspo": 278610,
                "official_name": "Przedszkole Niepubliczne Pyramid \"Daj U\u015bmiech\"",
                "name": "Przedszkole Niepubliczne Pyramid \"Daj U\u015bmiech\"",
                "addr:country": "PL",
                "addr:postcode": "32-400",
                "addr:city": "My\u015blenice",
                "addr:street": "Niepodleg\u0142o\u015bci",
                "addr:housenumber": "67",
                "addr:teryt:simc": 14203,
                "addr:teryt:sym_ul": 951617,
                "contact:email": "zenon@cedu.edu.pl",
                "contact:website": "http:\/\/www.cedu.edu.pl",
                "ref:regon": "389992477",
                "operator": "Cedu-Edu Sp\u00f3\u0142ka Z Ograniczon\u0105 Odpowiedzialno\u015bci\u0105",
                "operator:type": "private",
                "amenity": "kindergarten"
            }
        },
        {
            "id": 124567,
            "type": "Feature",
            "geometry": {
                "type": "Point",
                "coordinates": [
                    19.93318,
                    49.8300399
                ]
            },
            "properties": {
                "ref:rspo": 124567,
                "official_name": "Niepubliczne Przedszkole \"Chatka Puchatka'",
                "name": "Niepubliczne Przedszkole \"Chatka Puchatka'",
                "addr:country": "PL",
                "addr:postcode": "32-400",
                "addr:city": "My\u015blenice",
                "addr:street": "Solidarno\u015bci",
                "addr:housenumber": "68 d",
                "addr:teryt:simc": 20532,
                "addr:teryt:sym_ul": 951617,
                "contact:phone": "+48 603707992",
                "contact:email": "chatkapuchatka.myslenice@interia.pl",
                "contact:website": "http:\/\/www.puchatka-chatka.pl",
                "ref:regon": "123199880",
                "ref:vatin": "PL6811719389",
                "operator": "Agata Ro\u017cek",
                "operator:type": "private",
                "amenity": "kindergarten"
            }
        },
        {
            "id": 7963,
            "type": "Feature",
            "geometry": {
                "type": "Point",
                "coordinates": [
                    19.94309,
                    49.83024
                ]
            },
            "properties": {
                "ref:rspo": 7963,
                "official_name": "Zesp\u00f3\u0142 Szk\u00f3\u0142 Og\u00f3lnokszta\u0142c\u0105cych w My\u015blenicach, Ul. Jagiello\u0144ska 8",
                "name": "Zesp\u00f3\u0142 Szk\u00f3\u0142 Og\u00f3lnokszta\u0142c\u0105cych w My\u015blenicach, Ul. Jagiello\u0144ska 8",
                "addr:country": "PL",
                "addr:postcode": "32-400",
                "addr:city": "My\u015blenice",
                "addr:street": "Jagiello\u0144ska",
                "addr:housenumber": "8",
                "addr:teryt:simc": 7029,
                "addr:teryt:sym_ul": 951617,
                "contact:phone": "+48 122740070",
                "contact:email": "zso@almalo.edu.pl",
                "contact:website": "http:\/\/www.almalo.edu.pl",
                "ref:regon": "356586079",
                "ref:vatin": "PL6811349811",
                "operator": "Powiat My\u015blenicki",
                "operator:type": "government",
                "landuse": "education",
                "fixme": "amenity=school, amenity=college albo landuse=education w zale\u017cno\u015bci od tego, jakie plac\u00f3wki wchodz\u0105 w sk\u0142ad zespo\u0142u. Sprawd\u017a, kiedy stosowa\u0107 amenity=* a kiedy landuse=education.",
                "note": "Children RSPO: 20939;113506"
            }
        },
        {
            "id": 20939,
            "type": "Feature",
            "geometry": {
                "type": "Point",
                "coordinates": [
                    19.94309,
                    49.83021
                ]
            },
            "properties": {
                "isced:level": "3",
                "ref:rspo": 20939,
                "official_name": "I Liceum Og\u00f3lnokszta\u0142c\u0105ce im. Tadeusza Ko\u015bciuszki w My\u015blenicach, Ul. Jagiello\u0144ska 8",
                "name": "I Liceum Og\u00f3lnokszta\u0142c\u0105ce",
                "addr:country": "PL",
                "addr:postcode": "32-400",
                "addr:city": "My\u015blenice",
                "addr:street": "Jagiello\u0144ska",
                "addr:housenumber": "8",
                "addr:teryt:simc": 7029,
                "addr:teryt:sym_ul": 951617,
                "contact:phone": "+48 122740070",
                "contact:email": "sekretariat@almalo.edu.pl",
                "contact:website": "http:\/\/almalo.edu.pl",
                "ref:regon": "356586091",
                "operator": "Powiat My\u015blenicki",
                "operator:type": "government",
                "amenity": "school",
                "note": "Parent RSPO: 7963"
            }
        },
        {
            "id": 113506,
            "type": "Feature",
            "geometry": {
                "type": "Point",
                "coordinates": [
                    19.94309,
                    49.830180000000006
                ]
            },
            "properties": {
                "isced:level": "3",
                "ref:rspo": 113506,
                "official_name": "Ii Liceum Og\u00f3lnokszta\u0142c\u0105ce dla Doros\u0142ych w My\u015blenicach",
                "name": "Ii Liceum Og\u00f3lnokszta\u0142c\u0105ce dla Doros\u0142ych w My\u015blenicach",
                "addr:country": "PL",
                "addr:postcode": "32-400",
                "addr:city": "My\u015blenice",
                "addr:street": "Jagiello\u0144ska",
                "addr:housenumber": "8",
                "addr:teryt:simc": 7029,
                "addr:teryt:sym_ul": 951617,
                "contact:phone": "+48 122740070",
                "contact:email": "zso@almalo.edu.pl",
                "contact:website": "http:\/\/www.almalo.edu.pl",
                "ref:regon": "122824896",
                "operator": "Powiat My\u015blenicki",
                "operator:type": "government",
                "amenity": "school",
                "note": "Parent RSPO: 7963"
            }
        },
        {
            "id": 47373,
            "type": "Feature",
            "geometry": {
                "type": "Point",
                "coordinates": [
                    19.96865,
                    49.83088
                ]
            },
            "properties": {
                "ref:rspo": 47373,
                "official_name": "O\u015brodek Rehabilitacyjno - Edukacyjno - Wychowawczy w My\u015blenicach",
                "name": "O\u015brodek Rehabilitacyjno - Edukacyjno - Wychowawczy w My\u015blenicach",
                "addr:country": "PL",
                "addr:postcode": "32-400",
                "addr:city": "My\u015blenice",
                "addr:street": "Zdrojowa",
                "addr:housenumber": "119",
                "addr:teryt:simc": 25944,
                "addr:teryt:sym_ul": 951617,
                "contact:phone": "+48 124524415",
                "contact:email": "psouu@myslenice.net.pl",
                "contact:website": "http:\/\/www.psouumyslenice.pl\/kontakt.html",
                "ref:regon": "122689659",
                "ref:vatin": "PL6811890315",
                "operator": "Polskie Stowarzyszenie Na Rzecz Os\u00f3b Z Niepe\u0142nosprawno\u015bci\u0105 Intelektualn\u0105 Ko\u0142o W My\u015blenicach",
                "operator:type": "ngo",
                "amenity": "school"
            }
        },
        {
            "id": 276471,
            "type": "Feature",
            "geometry": {
                "type": "Point",
                "coordinates": [
                    19.94547,
                    49.83123
                ]
            },
            "properties": {
                "ref:rspo": 276471,
                "official_name": "Niepubliczne Przedszkole \"Bullerbyn\" Z Oddzia\u0142ami Specjalnymi",
                "name": "Niepubliczne Przedszkole \"Bullerbyn\" Z Oddzia\u0142ami Specjalnymi",
                "addr:country": "PL",
                "addr:postcode": "32-400",
                "addr:city": "My\u015blenice",
                "addr:street": "\u017bwirki i Wigury",
                "addr:housenumber": "8",
                "addr:teryt:simc": 26608,
                "addr:teryt:sym_ul": 951617,
                "contact:email": "przedszkolebullerbyn@gmail.com",
                "ref:regon": "387153318",
                "operator": "Diacor Sp\u00f3\u0142ka Z Ograniczon\u0105 Odpowiedzialno\u015bci\u0105",
                "operator:type": "private",
                "amenity": "kindergarten"
            }
        },
        {
            "id": 66376,
            "type": "Feature",
            "geometry": {
                "type": "Point",
                "coordinates": [
                    19.93779,
                    49.83175
                ]
            },
            "properties": {
                "ref:rspo": 66376,
                "official_name": "Przedszkole Samorz\u0105dowe Nr 6 im. Wandy Chotomskiej w My\u015blenicach",
                "name": "Przedszkole Samorz\u0105dowe Nr 6",
                "addr:country": "PL",
                "addr:postcode": "32-400",
                "addr:city": "My\u015blenice",
                "addr:street": "Ogrodowa",
                "addr:housenumber": "7",
                "addr:teryt:simc": 14834,
                "addr:teryt:sym_ul": 951617,
                "contact:phone": "+48 122720516",
                "contact:email": "przedszkole6@o2.pl",
                "contact:website": "http:\/\/www.p6.przedszkola.net.pl",
                "ref:regon": "350530971",
                "operator": "Gmina My\u015blenice",
                "operator:type": "government",
                "amenity": "kindergarten"
            }
        },
        {
            "id": 66452,
            "type": "Feature",
            "geometry": {
                "type": "Point",
                "coordinates": [
                    19.91703,
                    49.83206
                ]
            },
            "properties": {
                "ref:rspo": 66452,
                "official_name": "Przedszkole Samorz\u0105dowe Nr 1 w My\u015blenicach",
                "name": "Przedszkole Samorz\u0105dowe Nr 1 w My\u015blenicach",
                "addr:country": "PL",
                "addr:postcode": "32-400",
                "addr:city": "My\u015blenice",
                "addr:street": "3 Maja",
                "addr:housenumber": "98",
                "addr:teryt:simc": 11937,
                "addr:teryt:sym_ul": 951617,
                "contact:phone": "+48 122720673",
                "contact:email": "ps1myslenice@wp.pl",
                "contact:website": "http:\/\/ps1myslenice.edupage.org",
                "ref:regon": "350530920",
                "ref:vatin": "PL6812061704",
                "operator": "Gmina My\u015blenice",
                "operator:type": "government",
                "amenity": "kindergarten"
            }
        },
        {
            "id": 8569,
            "type": "Feature",
            "geometry": {
                "type": "Point",
                "coordinates": [
                    19.9175,
                    49.83213
                ]
            },
            "properties": {
                "ref:rspo": 8569,
                "official_name": "Zesp\u00f3\u0142 Szk\u00f3\u0142 im. Andrzeja \u015aredniawskiego w My\u015blenicach, Ul. 3 Maja 97B",
                "name": "Zesp\u00f3\u0142 Szk\u00f3\u0142",
                "addr:country": "PL",
                "addr:postcode": "32-400",
                "addr:city": "My\u015blenice",
                "addr:street": "3 Maja",
                "addr:housenumber": "97 b",
                "addr:teryt:simc": 11937,
                "addr:teryt:sym_ul": 951617,
                "contact:phone": "+48 122720118",
                "contact:email": "sekretariat@sredniawski.pl",
                "contact:website": "http:\/\/www.sredniawski.pl",
                "ref:regon": "350720996",
                "ref:vatin": "PL6811448068",
                "operator": "Powiat My\u015blenicki",
                "operator:type": "government",
                "landuse": "education",
                "fixme": "amenity=school, amenity=college albo landuse=education w zale\u017cno\u015bci od tego, jakie plac\u00f3wki wchodz\u0105 w sk\u0142ad zespo\u0142u. Sprawd\u017a, kiedy stosowa\u0107 amenity=* a kiedy landuse=education.",
                "note": "Children RSPO: 20942;20943;20944;20946;20947"
            }
        },
        {
            "id": 19745,
            "type": "Feature",
            "geometry": {
                "type": "Point",
                "coordinates": [
                    19.9175,
                    49.8321
                ]
            },
            "properties": {
                "ref:rspo": 19745,
                "official_name": "Specjalny O\u015brodek Szkolno-Wychowawczy w My\u015blenicach",
                "name": "Specjalny O\u015brodek Szkolno-Wychowawczy w My\u015blenicach",
                "addr:country": "PL",
                "addr:postcode": "32-400",
                "addr:city": "My\u015blenice",
                "addr:street": "3 Maja",
                "addr:housenumber": "97b",
                "addr:teryt:simc": 11937,
                "addr:teryt:sym_ul": 951617,
                "contact:phone": "+48 122721304",
                "contact:email": "sekretariat@soswmyslenice.edu.pl",
                "contact:website": "http:\/\/www.soswmyslenice.edu.pl",
                "ref:regon": "000707509",
                "ref:vatin": "PL6811348438",
                "operator": "Wojew\u00f3dztwo Ma\u0142opolskie",
                "operator:type": "government",
                "amenity": "school",
                "note": "Children RSPO: 24932;24934;24935"
            }
        },
        {
            "id": 20942,
            "type": "Feature",
            "geometry": {
                "type": "Point",
                "coordinates": [
                    19.9175,
                    49.83207
                ]
            },
            "properties": {
                "isced:level": "3",
                "ref:rspo": 20942,
                "official_name": "Technikum Nr 2 w My\u015blenicach, Ul. 3 Maja 97B",
                "name": "Technikum Nr 2 w My\u015blenicach, Ul. 3 Maja 97B",
                "addr:country": "PL",
                "addr:postcode": "32-400",
                "addr:city": "My\u015blenice",
                "addr:street": "3 Maja",
                "addr:housenumber": "97 b",
                "addr:teryt:simc": 11937,
                "addr:teryt:sym_ul": 951617,
                "contact:phone": "+48 122720118",
                "contact:email": "sekretariat@sredniawski.pl",
                "contact:website": "http:\/\/www.sredniawski.pl",
                "ref:regon": "356580533",
                "operator": "Powiat My\u015blenicki",
                "operator:type": "government",
                "amenity": "school",
                "note": "Parent RSPO: 8569"
            }
        },
        {
            "id": 20943,
            "type": "Feature",
            "geometry": {
                "type": "Point",
                "coordinates": [
                    19.9175,
                    49.83204
                ]
            },
            "properties": {
                "isced:level": "3",
                "ref:rspo": 20943,
                "official_name": "Iv Liceum Og\u00f3lnokszta\u0142c\u0105ce w My\u015blenicach, Ul. 3 Maja 97B",
                "name": "Iv Liceum Og\u00f3lnokszta\u0142c\u0105ce w My\u015blenicach, Ul. 3 Maja 97B",
                "addr:country": "PL",
                "addr:postcode": "32-400",
                "addr:city": "My\u015blenice",
                "addr:street": "3 Maja",
                "addr:housenumber": "97 b",
                "addr:teryt:simc": 11937,
                "addr:teryt:sym_ul": 951617,
                "contact:phone": "+48 122720118",
                "contact:email": "sekretariat@sredniawski.pl",
                "contact:website": "http:\/\/www.sredniawski.pl",
                "ref:regon": "122670980",
                "operator": "Powiat My\u015blenicki",
                "operator:type": "government",
                "amenity": "school",
                "note": "Parent RSPO: 8569"
            }
        },
        {
            "id": 20944,
            "type": "Feature",
            "geometry": {
                "type": "Point",
                "coordinates": [
                    19.9175,
                    49.83201
                ]
            },
            "properties": {
                "isced:level": "3",
                "ref:rspo": 20944,
                "official_name": "Bran\u017cowa Szko\u0142a I Stopnia Nr 2 w My\u015blenicach, Ul. 3 Maja 97B",
                "name": "Bran\u017cowa Szko\u0142a I Stopnia Nr 2 w My\u015blenicach, Ul. 3 Maja 97B",
                "addr:country": "PL",
                "addr:postcode": "32-400",
                "addr:city": "My\u015blenice",
                "addr:street": "3 Maja",
                "addr:housenumber": "97 b",
                "addr:teryt:simc": 11937,
                "addr:teryt:sym_ul": 951617,
                "contact:phone": "+48 122720118",
                "contact:email": "sekretariat@sredniawski.pl",
                "contact:website": "http:\/\/www.sredniawski.pl",
                "ref:regon": "122671004",
                "operator": "Powiat My\u015blenicki",
                "operator:type": "government",
                "amenity": "school",
                "note": "Parent RSPO: 8569"
            }
        },
        {
            "id": 20946,
            "type": "Feature",
            "geometry": {
                "type": "Point",
                "coordinates": [
                    19.9175,
                    49.83198
                ]
            },
            "properties": {
                "isced:level": "3",
                "ref:rspo": 20946,
                "official_name": "Liceum Og\u00f3lnokszta\u0142c\u0105ce dla Doros\u0142ych Zs w My\u015blenicach",
                "name": "Liceum Og\u00f3lnokszta\u0142c\u0105ce dla Doros\u0142ych Zs w My\u015blenicach",
                "addr:country": "PL",
                "addr:postcode": "32-400",
                "addr:city": "My\u015blenice",
                "addr:street": "3 Maja",
                "addr:housenumber": "97 b",
                "addr:teryt:simc": 11937,
                "addr:teryt:sym_ul": 951617,
                "contact:phone": "+48 122720118",
                "contact:email": "sekretariat@sredniawski.pl",
                "contact:website": "http:\/\/www.sredniawski.pl",
                "ref:regon": "120999901",
                "operator": "Powiat My\u015blenicki",
                "operator:type": "government",
                "amenity": "school",
                "note": "Parent RSPO: 8569"
            }
        },
        {
            "id": 20947,
            "type": "Feature",
            "geometry": {
                "type": "Point",
                "coordinates": [
                    19.9175,
                    49.83195
                ]
            },
            "properties": {
                "isced:level": "4",
                "ref:rspo": 20947,
                "official_name": "Szko\u0142a Policealna dla Doros\u0142ych Nr 1 Zs w My\u015blenicach",
                "name": "Szko\u0142a Policealna dla Doros\u0142ych Nr 1 Zs w My\u015blenicach",
                "addr:country": "PL",
                "addr:postcode": "32-400",
                "addr:city": "My\u015blenice",
                "addr:street": "3 Maja",
                "addr:housenumber": "97 b",
                "addr:teryt:simc": 11937,
                "addr:teryt:sym_ul": 951617,
                "contact:phone": "+48 122720118",
                "contact:email": "sekretariat@sredniawski.pl",
                "contact:website": "http:\/\/www.sredniawski.pl",
                "ref:regon": "356580556",
                "operator": "Powiat My\u015blenicki",
                "operator:type": "government",
                "amenity": "college",
                "note": "Parent RSPO: 8569"
            }
        },
        {
            "id": 24932,
            "type": "Feature",
            "geometry": {
                "type": "Point",
                "coordinates": [
                    19.9175,
                    49.83192
                ]
            },
            "properties": {
                "isced:level": "1;2",
                "ref:rspo": 24932,
                "official_name": "Szko\u0142a Podstawowa Specjalna w My\u015blenicach",
                "name": "Szko\u0142a Podstawowa Specjalna w My\u015blenicach",
                "addr:country": "PL",
                "addr:postcode": "32-400",
                "addr:city": "My\u015blenice",
                "addr:street": "3 Maja",
                "addr:housenumber": "97B",
                "addr:teryt:simc": 11937,
                "addr:teryt:sym_ul": 951617,
                "contact:phone": "+48 122721304",
                "contact:email": "sekretariat@soswmyslenice.edu.pl",
                "contact:website": "http:\/\/www.soswmyslenice.edu.pl",
                "ref:regon": "000999133",
                "operator": "Wojew\u00f3dztwo Ma\u0142opolskie",
                "operator:type": "government",
                "amenity": "school",
                "note": "Parent RSPO: 19745"
            }
        },
        {
            "id": 24934,
            "type": "Feature",
            "geometry": {
                "type": "Point",
                "coordinates": [
                    19.9175,
                    49.83189
                ]
            },
            "properties": {
                "isced:level": "3",
                "ref:rspo": 24934,
                "official_name": "Bran\u017cowa Szko\u0142a I Stopnia Specjalna w My\u015blenicach",
                "name": "Bran\u017cowa Szko\u0142a I Stopnia Specjalna w My\u015blenicach",
                "addr:country": "PL",
                "addr:postcode": "32-400",
                "addr:city": "My\u015blenice",
                "addr:street": "3 Maja",
                "addr:housenumber": "97B",
                "addr:teryt:simc": 11937,
                "addr:teryt:sym_ul": 951617,
                "contact:phone": "+48 122721304",
                "contact:email": "sekretariat@soswmyslenice.edu.pl",
                "contact:website": "http:\/\/www.soswmyslenice.edu.pl",
                "ref:regon": "356748091",
                "operator": "Wojew\u00f3dztwo Ma\u0142opolskie",
                "operator:type": "government",
                "amenity": "school",
                "note": "Parent RSPO: 19745"
            }
        },
        {
            "id": 24935,
            "type": "Feature",
            "geometry": {
                "type": "Point",
                "coordinates": [
                    19.9175,
                    49.83186
                ]
            },
            "properties": {
                "ref:rspo": 24935,
                "official_name": "Szko\u0142a Specjalna Przysposobiaj\u0105ca Do Pracy w My\u015blenicach",
                "name": "Szko\u0142a Specjalna Przysposobiaj\u0105ca Do Pracy w My\u015blenicach",
                "addr:country": "PL",
                "addr:postcode": "32-400",
                "addr:city": "My\u015blenice",
                "addr:street": "3 Maja",
                "addr:housenumber": "97B",
                "addr:teryt:simc": 11937,
                "addr:teryt:sym_ul": 951617,
                "contact:phone": "+48 122721304",
                "contact:email": "soswsekretariat@interia.pl",
                "contact:website": "http:\/\/www.soswmyslenice.edu.pl",
                "ref:regon": "356873703",
                "operator": "Wojew\u00f3dztwo Ma\u0142opolskie",
                "operator:type": "government",
                "amenity": "school",
                "note": "Parent RSPO: 19745"
            }
        },
        {
            "id": 48361,
            "type": "Feature",
            "geometry": {
                "type": "Point",
                "coordinates": [
                    19.93861,
                    49.83215
                ]
            },
            "properties": {
                "ref:rspo": 48361,
                "official_name": "Poradnia Psychologiczno - Pedagogiczna w My\u015blenicach",
                "name": "Poradnia Psychologiczno - Pedagogiczna w My\u015blenicach",
                "addr:country": "PL",
                "addr:postcode": "32-400",
                "addr:city": "My\u015blenice",
                "addr:street": "Stanis\u0142awa Pardyaka",
                "addr:housenumber": "2",
                "addr:teryt:simc": 15696,
                "addr:teryt:sym_ul": 951617,
                "contact:phone": "+48 122720589",
                "contact:email": "ppp-myslenice@wp.pl",
                "contact:website": "http:\/\/www.poradniamyslenice.pl",
                "ref:regon": "000705700",
                "ref:vatin": "PL6811693477",
                "operator": "Powiat My\u015blenicki",
                "operator:type": "government",
                "healthcare": "counselling",
                "counselling_type": "education",
                "fixme": "w zale\u017cno\u015bci od przedmiotu dzia\u0142alno\u015bci (np. healthcare=counselling + counselling_type=education albo healthcare=psychotherapist)"
            }
        },
        {
            "id": 69965,
            "type": "Feature",
            "geometry": {
                "type": "Point",
                "coordinates": [
                    19.94622,
                    49.83216
                ]
            },
            "properties": {
                "ref:rspo": 69965,
                "official_name": "Przedszkole Samorz\u0105dowe Nr 8 w My\u015blenicach",
                "name": "Przedszkole Samorz\u0105dowe Nr 8 w My\u015blenicach",
                "addr:country": "PL",
                "addr:postcode": "32-400",
                "addr:city": "My\u015blenice",
                "addr:street": "Stefana Batorego",
                "addr:housenumber": "1",
                "addr:door": "a",
                "addr:teryt:simc": 891,
                "addr:teryt:sym_ul": 951617,
                "contact:phone": "+48 122720514",
                "contact:email": "przedszkole.nr8@interia.pl",
                "ref:regon": "350530994",
                "operator": "Gmina My\u015blenice",
                "operator:type": "government",
                "amenity": "kindergarten"
            }
        },
        {
            "id": 50374,
            "type": "Feature",
            "geometry": {
                "type": "Point",
                "coordinates": [
                    19.9281,
                    49.83233
                ]
            },
            "properties": {
                "isced:level": "1;2",
                "ref:rspo": 50374,
                "official_name": "Szko\u0142a Podstawowa Nr 3 im. Jana Paw\u0142a II w My\u015blenicach",
                "name": "Szko\u0142a Podstawowa Nr 3",
                "addr:country": "PL",
                "addr:postcode": "32-400",
                "addr:city": "My\u015blenice",
                "addr:street": "Stanis\u0142awa Pardyaka",
                "addr:housenumber": "26",
                "addr:teryt:simc": 15696,
                "addr:teryt:sym_ul": 951617,
                "contact:phone": "+48 122721665",
                "contact:email": "sp3myslenice@interia.pl",
                "contact:website": "http:\/\/www.sp3myslenice.edu.pl",
                "ref:regon": "001098410",
                "ref:vatin": "PL6812061874",
                "operator": "Gmina My\u015blenice",
                "operator:type": "government",
                "amenity": "school"
            }
        },
        {
            "id": 48363,
            "type": "Feature",
            "geometry": {
                "type": "Point",
                "coordinates": [
                    19.93815,
                    49.83283
                ]
            },
            "properties": {
                "ref:rspo": 48363,
                "official_name": "Niepubliczna Poradnia Psychologiczno - Pedagogiczna w My\u015blenicach",
                "name": "Niepubliczna Poradnia Psychologiczno - Pedagogiczna w My\u015blenicach",
                "addr:country": "PL",
                "addr:postcode": "32-400",
                "addr:city": "My\u015blenice",
                "addr:street": "Ksi\u0119cia J\u00f3zefa Poniatowskiego",
                "addr:housenumber": "3",
                "addr:teryt:simc": 17113,
                "addr:teryt:sym_ul": 951617,
                "contact:phone": "+48 503029093",
                "contact:email": "poradnia@pppmyslenice.pl",
                "contact:website": "http:\/\/www.pppmyslenice.pl",
                "ref:regon": "122689665",
                "ref:vatin": "PL6811362237",
                "operator": "Halina Kustosz-Mi\u015bko",
                "operator:type": "private",
                "healthcare": "counselling",
                "counselling_type": "education",
                "fixme": "w zale\u017cno\u015bci od przedmiotu dzia\u0142alno\u015bci (np. healthcare=counselling + counselling_type=education albo healthcare=psychotherapist)"
            }
        },
        {
            "id": 124470,
            "type": "Feature",
            "geometry": {
                "type": "Point",
                "coordinates": [
                    19.93357,
                    49.83343
                ]
            },
            "properties": {
                "isced:level": "1;2",
                "ref:rspo": 124470,
                "official_name": "1. Niepubliczna Szko\u0142a Podstawowa Neo Montessori School w My\u015blenicach",
                "name": "1. Niepubliczna Szko\u0142a Podstawowa Neo Montessori School w My\u015blenicach",
                "addr:country": "PL",
                "addr:postcode": "32-400",
                "addr:city": "My\u015blenice",
                "addr:street": "Andrzeja \u015aredniawskiego",
                "addr:housenumber": "27",
                "addr:teryt:simc": 22411,
                "addr:teryt:sym_ul": 951617,
                "contact:phone": "+48 690950222",
                "contact:email": "montessori@neoschool.pl",
                "contact:website": "http:\/\/www.podstawowa.neoschool.pl",
                "ref:regon": "123196775",
                "ref:vatin": "PL6812057594",
                "operator": "Neo School Sp\u00f3\u0142ka Z Ograniczon\u0105 Odpowiedzialno\u015bci\u0105",
                "operator:type": "private",
                "amenity": "school"
            }
        },
        {
            "id": 263664,
            "type": "Feature",
            "geometry": {
                "type": "Point",
                "coordinates": [
                    19.93357,
                    49.8334
                ]
            },
            "properties": {
                "ref:rspo": 263664,
                "official_name": "Niepubliczne Przedszkole Montessori Pre-School",
                "name": "Niepubliczne Przedszkole Montessori Pre-School",
                "addr:country": "PL",
                "addr:postcode": "32-400",
                "addr:city": "My\u015blenice",
                "addr:street": "Andrzeja \u015aredniawskiego",
                "addr:housenumber": "27",
                "addr:teryt:simc": 22411,
                "addr:teryt:sym_ul": 951617,
                "contact:email": "anna.gac@neoschool.pl",
                "contact:website": "http:\/\/przedszkole-myslenice.neoschool.pl\/",
                "ref:regon": "368213080",
                "ref:vatin": "PL6812057594",
                "operator": "Neo School Sp\u00f3\u0142ka Z Ograniczon\u0105 Odpowiedzialno\u015bci\u0105",
                "operator:type": "private",
                "amenity": "kindergarten"
            }
        },
        {
            "id": 24931,
            "type": "Feature",
            "geometry": {
                "type": "Point",
                "coordinates": [
                    19.94343,
                    49.834
                ]
            },
            "properties": {
                "ref:rspo": 24931,
                "official_name": "Pedagogiczna Biblioteka Wojew\u00f3dzka im. Hugona Ko\u0142\u0142\u0105taja w Krakowie Filia w My\u015blenicach",
                "name": "Pedagogiczna Biblioteka Wojew\u00f3dzka",
                "addr:country": "PL",
                "addr:postcode": "32-400",
                "addr:city": "My\u015blenice",
                "addr:street": "Stefana \u017beromskiego",
                "addr:housenumber": "9",
                "addr:teryt:simc": 26469,
                "addr:teryt:sym_ul": 951617,
                "contact:phone": "+48 122720507",
                "contact:email": "filia.myslenice@pbw.edu.pl",
                "contact:website": "http:\/\/biblped.myslenice.edu.pl\/index.htm",
                "ref:regon": "197729000",
                "operator": "Wojew\u00f3dztwo Ma\u0142opolskie",
                "operator:type": "government",
                "amenity": "library",
                "note": "Parent RSPO: 19644"
            }
        },
        {
            "id": 65197,
            "type": "Feature",
            "geometry": {
                "type": "Point",
                "coordinates": [
                    19.94484,
                    49.83409
                ]
            },
            "properties": {
                "isced:level": "1;2",
                "ref:rspo": 65197,
                "official_name": "Szko\u0142a Podstawowa Nr 2 im. Bohater\u00f3w Westerplatte w My\u015blenicach",
                "name": "Szko\u0142a Podstawowa Nr 2",
                "addr:country": "PL",
                "addr:postcode": "32-400",
                "addr:city": "My\u015blenice",
                "addr:street": "Stefana \u017beromskiego",
                "addr:housenumber": "2",
                "addr:teryt:simc": 26469,
                "addr:teryt:sym_ul": 951617,
                "contact:phone": "+48 122721673",
                "contact:email": "sp2mce@poczta.fm",
                "contact:website": "http:\/\/www.sp2myslenice.edu.pl",
                "ref:regon": "000698897",
                "operator": "Gmina My\u015blenice",
                "operator:type": "government",
                "amenity": "school"
            }
        },
        {
            "id": 124301,
            "type": "Feature",
            "geometry": {
                "type": "Point",
                "coordinates": [
                    19.93858,
                    49.83412
                ]
            },
            "properties": {
                "isced:level": "3",
                "ref:rspo": 124301,
                "official_name": "1. Niepubliczne Liceum Og\u00f3lnokszta\u0142c\u0105ce Neo Tm School w My\u015blenicach",
                "name": "1. Niepubliczne Liceum Og\u00f3lnokszta\u0142c\u0105ce Neo Tm School w My\u015blenicach",
                "addr:country": "PL",
                "addr:postcode": "32-400",
                "addr:city": "My\u015blenice",
                "addr:street": "Rynek",
                "addr:housenumber": "23",
                "addr:teryt:simc": 19252,
                "addr:teryt:sym_ul": 951617,
                "contact:phone": "+48 690010022",
                "contact:email": "sekretariat@liceum.neoschool.pl",
                "contact:website": "http:\/\/www.liceum.neoschool.pl",
                "ref:regon": "123193370",
                "operator": "Neo School Sp\u00f3\u0142ka Z Ograniczon\u0105 Odpowiedzialno\u015bci\u0105",
                "operator:type": "private",
                "amenity": "school"
            }
        },
        {
            "id": 44006,
            "type": "Feature",
            "geometry": {
                "type": "Point",
                "coordinates": [
                    19.94212,
                    49.83422
                ]
            },
            "properties": {
                "ref:rspo": 44006,
                "official_name": "Przedszkole Samorz\u0105dowe Nr 4 w My\u015blenicach",
                "name": "Przedszkole Samorz\u0105dowe Nr 4 w My\u015blenicach",
                "addr:country": "PL",
                "addr:postcode": "32-400",
                "addr:city": "My\u015blenice",
                "addr:street": "Berka Joselewicza",
                "addr:housenumber": "1",
                "addr:teryt:simc": 7617,
                "addr:teryt:sym_ul": 951617,
                "contact:phone": "+48 122720255",
                "contact:email": "przedszkole4.myslenice@wp.pl",
                "contact:website": "https:\/\/www.ps4.edu.pl\/",
                "ref:regon": "350530959",
                "ref:vatin": "PL6812061727",
                "operator": "Gmina My\u015blenice",
                "operator:type": "government",
                "amenity": "kindergarten"
            }
        },
        {
            "id": 271661,
            "type": "Feature",
            "geometry": {
                "type": "Point",
                "coordinates": [
                    19.93692,
                    49.83491
                ]
            },
            "properties": {
                "isced:level": "1;2",
                "ref:rspo": 271661,
                "official_name": "Szko\u0142a Podstawowa Nr 1 im. J. S\u0142owackiego w My\u015blenicach",
                "name": "Szko\u0142a Podstawowa Nr 1",
                "addr:country": "PL",
                "addr:postcode": "32-400",
                "addr:city": "My\u015blenice",
                "addr:street": "Jana Sobieskiego",
                "addr:housenumber": "1",
                "addr:teryt:simc": 20427,
                "addr:teryt:sym_ul": 951617,
                "contact:phone": "+48 122721338",
                "contact:email": "sp1myslenice@interia.pl",
                "contact:website": "http:\/\/sp1myslenice.pl",
                "ref:regon": "383498598",
                "ref:vatin": "PL6812078395",
                "operator": "Gmina My\u015blenice",
                "operator:type": "government",
                "amenity": "school"
            }
        },
        {
            "id": 275882,
            "type": "Feature",
            "geometry": {
                "type": "Point",
                "coordinates": [
                    19.94462,
                    49.83537
                ]
            },
            "properties": {
                "ref:rspo": 275882,
                "official_name": "Niepubliczne Przedszkole Sportowo-J\u0119zykowe Fair Play",
                "name": "Niepubliczne Przedszkole Sportowo-J\u0119zykowe Fair Play",
                "addr:country": "PL",
                "addr:postcode": "32-400",
                "addr:city": "My\u015blenice",
                "addr:street": "Rzemie\u015blnicza",
                "addr:housenumber": "20",
                "addr:teryt:simc": 19335,
                "addr:teryt:sym_ul": 951617,
                "contact:phone": "+48 782206440",
                "contact:email": "biuro@przedszkolefairplay-myslenice.pl",
                "ref:regon": "387126830",
                "ref:vatin": "PL9442267578",
                "operator": "Malwina Moszkowicz",
                "operator:type": "private",
                "amenity": "kindergarten"
            }
        },
        {
            "id": 8571,
            "type": "Feature",
            "geometry": {
                "type": "Point",
                "coordinates": [
                    19.94271,
                    49.83545
                ]
            },
            "properties": {
                "ref:rspo": 8571,
                "official_name": "Zesp\u00f3\u0142 Szk\u00f3\u0142 Techniczno - Ekonomicznych im. Miko\u0142aja Reja w My\u015blenicach, Ul. \u017beromskiego 17",
                "name": "Zesp\u00f3\u0142 Szk\u00f3\u0142 Techniczno - Ekonomicznych",
                "addr:country": "PL",
                "addr:postcode": "32-400",
                "addr:city": "My\u015blenice",
                "addr:street": "Stefana \u017beromskiego",
                "addr:housenumber": "17",
                "addr:teryt:simc": 26469,
                "addr:teryt:sym_ul": 951617,
                "contact:phone": "+48 123720040",
                "contact:email": "zste@myslenice.pl",
                "contact:website": "http:\/\/www.zste.myslenice.pl",
                "ref:regon": "000182774",
                "ref:vatin": "PL6811447382",
                "operator": "Powiat My\u015blenicki",
                "operator:type": "government",
                "landuse": "education",
                "fixme": "amenity=school, amenity=college albo landuse=education w zale\u017cno\u015bci od tego, jakie plac\u00f3wki wchodz\u0105 w sk\u0142ad zespo\u0142u. Sprawd\u017a, kiedy stosowa\u0107 amenity=* a kiedy landuse=education.",
                "note": "Children RSPO: 22561;22566;22569;22626;271767"
            }
        },
        {
            "id": 22561,
            "type": "Feature",
            "geometry": {
                "type": "Point",
                "coordinates": [
                    19.94271,
                    49.83542
                ]
            },
            "properties": {
                "isced:level": "3",
                "ref:rspo": 22561,
                "official_name": "Bran\u017cowa Szko\u0142a I Stopnia Nr 1 w My\u015blenicach, Ul. \u017beromskiego 17",
                "name": "Bran\u017cowa Szko\u0142a I Stopnia Nr 1 w My\u015blenicach, Ul. \u017beromskiego 17",
                "addr:country": "PL",
                "addr:postcode": "32-400",
                "addr:city": "My\u015blenice",
                "addr:street": "Stefana \u017beromskiego",
                "addr:housenumber": "17",
                "addr:teryt:simc": 26469,
                "addr:teryt:sym_ul": 951617,
                "contact:phone": "+48 123720040",
                "contact:email": "zste@myslenice.pl",
                "contact:website": "http:\/\/zste.myslenice.pl",
                "ref:regon": "120084260",
                "operator": "Powiat My\u015blenicki",
                "operator:type": "government",
                "amenity": "school",
                "note": "Parent RSPO: 8571"
            }
        },
        {
            "id": 22566,
            "type": "Feature",
            "geometry": {
                "type": "Point",
                "coordinates": [
                    19.94271,
                    49.835390000000004
                ]
            },
            "properties": {
                "isced:level": "3",
                "ref:rspo": 22566,
                "official_name": "Technikum Nr 1 w My\u015blenicach, Ul. \u017beromskiego 17",
                "name": "Technikum Nr 1 w My\u015blenicach, Ul. \u017beromskiego 17",
                "addr:country": "PL",
                "addr:postcode": "32-400",
                "addr:city": "My\u015blenice",
                "addr:street": "Stefana \u017beromskiego",
                "addr:housenumber": "17",
                "addr:teryt:simc": 26469,
                "addr:teryt:sym_ul": 951617,
                "contact:phone": "+48 123720040",
                "contact:email": "zste@myslenice.pl",
                "contact:website": "http:\/\/zste.myslenice.pl",
                "ref:regon": "120075315",
                "operator": "Powiat My\u015blenicki",
                "operator:type": "government",
                "amenity": "school",
                "note": "Parent RSPO: 8571"
            }
        },
        {
            "id": 22569,
            "type": "Feature",
            "geometry": {
                "type": "Point",
                "coordinates": [
                    19.94271,
                    49.83536
                ]
            },
            "properties": {
                "ref:rspo": 22569,
                "official_name": "Centrum Kszta\u0142cenia Zawodowego Wchodz\u0105cego w Sk\u0142ad Zespo\u0142u Szk\u00f3\u0142 Techniczno - Ekonomicznych im. Miko\u0142aja Reja w My\u015blenicach",
                "name": "Centrum Kszta\u0142cenia Zawodowego Wchodz\u0105cego w Sk\u0142ad Zespo\u0142u Szk\u00f3\u0142 Techniczno - Ekonomicznych",
                "addr:country": "PL",
                "addr:postcode": "32-400",
                "addr:city": "My\u015blenice",
                "addr:street": "Stefana \u017beromskiego",
                "addr:housenumber": "17",
                "addr:teryt:simc": 26469,
                "addr:teryt:sym_ul": 951617,
                "contact:phone": "+48 123720040",
                "contact:email": "zste@myslenice.pl",
                "contact:website": "http:\/\/zste.myslenice.pl",
                "ref:regon": "122674600",
                "operator": "Powiat My\u015blenicki",
                "operator:type": "government",
                "fixme": "w zale\u017cno\u015bci od przedmiotu dzia\u0142alno\u015bci (np. amenity=training + training=*, amenity=dancing_school, amenity=language_school, amenity=music_school) albo amenity=school, amenity=college, albo landuse=education w zale\u017cno\u015bci od tego, jakie plac\u00f3wki wchodz\u0105 w sk\u0142ad zespo\u0142u. Sprawd\u017a, kiedy stosowa\u0107 amenity=* a kiedy landuse=education.",
                "note": "Parent RSPO: 8571"
            }
        },
        {
            "id": 22626,
            "type": "Feature",
            "geometry": {
                "type": "Point",
                "coordinates": [
                    19.94271,
                    49.83533
                ]
            },
            "properties": {
                "isced:level": "3",
                "ref:rspo": 22626,
                "official_name": "Iii Liceum Og\u00f3lnokszta\u0142c\u0105ce w My\u015blenicach, Ul. \u017beromskiego 17",
                "name": "Iii Liceum Og\u00f3lnokszta\u0142c\u0105ce w My\u015blenicach, Ul. \u017beromskiego 17",
                "addr:country": "PL",
                "addr:postcode": "32-400",
                "addr:city": "My\u015blenice",
                "addr:street": "Stefana \u017beromskiego",
                "addr:housenumber": "17",
                "addr:teryt:simc": 26469,
                "addr:teryt:sym_ul": 951617,
                "contact:phone": "+48 123720040",
                "contact:email": "zste@myslenice.pl",
                "contact:website": "http:\/\/zste.myslenice.pl",
                "ref:regon": "356687225",
                "operator": "Powiat My\u015blenicki",
                "operator:type": "government",
                "amenity": "school",
                "note": "Parent RSPO: 8571"
            }
        },
        {
            "id": 271767,
            "type": "Feature",
            "geometry": {
                "type": "Point",
                "coordinates": [
                    19.94271,
                    49.835300000000004
                ]
            },
            "properties": {
                "isced:level": "4",
                "ref:rspo": 271767,
                "official_name": "Szko\u0142a Policealna dla Doros\u0142ych Nr 2",
                "name": "Szko\u0142a Policealna dla Doros\u0142ych Nr 2",
                "addr:country": "PL",
                "addr:postcode": "32-400",
                "addr:city": "My\u015blenice",
                "addr:street": "Stefana \u017beromskiego",
                "addr:housenumber": "17",
                "addr:teryt:simc": 26469,
                "addr:teryt:sym_ul": 951617,
                "contact:phone": "+48 123720040",
                "contact:email": "zste@myslenice.pl",
                "contact:website": "http:\/\/www.zste.myslenice.pl",
                "ref:regon": "383623922",
                "operator": "Powiat My\u015blenicki",
                "operator:type": "government",
                "amenity": "college",
                "note": "Parent RSPO: 8571"
            }
        },
        {
            "id": 61553,
            "type": "Feature",
            "geometry": {
                "type": "Point",
                "coordinates": [
                    19.94553,
                    49.83653
                ]
            },
            "properties": {
                "ref:rspo": 61553,
                "official_name": "Przedszkole Samorz\u0105dowe Nr 7 w My\u015blenicach",
                "name": "Przedszkole Samorz\u0105dowe Nr 7 w My\u015blenicach",
                "addr:country": "PL",
                "addr:postcode": "32-400",
                "addr:city": "My\u015blenice",
                "addr:street": "Kazimierza Wielkiego",
                "addr:housenumber": "20",
                "addr:teryt:simc": 8265,
                "addr:teryt:sym_ul": 951617,
                "contact:phone": "+48 122721607",
                "contact:email": "przedszkole7myslenice@interia.pl",
                "contact:website": "https:\/\/ps7myslenice.szkolnastrona.pl\/",
                "ref:regon": "350530988",
                "operator": "Gmina My\u015blenice",
                "operator:type": "government",
                "amenity": "kindergarten"
            }
        },
        {
            "id": 48365,
            "type": "Feature",
            "geometry": {
                "type": "Point",
                "coordinates": [
                    19.94406,
                    49.83663
                ]
            },
            "properties": {
                "ref:rspo": 48365,
                "official_name": "Mi\u0119dzyszkolny O\u015brodek Sportowy w My\u015blenicach",
                "name": "Mi\u0119dzyszkolny O\u015brodek Sportowy w My\u015blenicach",
                "addr:country": "PL",
                "addr:postcode": "32-400",
                "addr:city": "My\u015blenice",
                "addr:street": "Kazimierza Wielkiego",
                "addr:housenumber": "5",
                "addr:teryt:simc": 8265,
                "addr:teryt:sym_ul": 951617,
                "contact:phone": "+48 122721658",
                "contact:email": "mos@mos.myslenicki.pl",
                "contact:website": "http:\/\/mos.myslenice.edu.pl\/",
                "ref:regon": "000707337",
                "ref:vatin": "PL6811693460",
                "operator": "Powiat My\u015blenicki",
                "operator:type": "government",
                "leisure": "sports_centre"
            }
        },
        {
            "id": 50289,
            "type": "Feature",
            "geometry": {
                "type": "Point",
                "coordinates": [
                    19.94845,
                    49.83866
                ]
            },
            "properties": {
                "isced:level": "3",
                "ref:rspo": 50289,
                "official_name": "Prywatna Bran\u017cowa Szko\u0142a I Stopnia w My\u015blenicach",
                "name": "Prywatna Bran\u017cowa Szko\u0142a I Stopnia w My\u015blenicach",
                "addr:country": "PL",
                "addr:postcode": "32-400",
                "addr:city": "My\u015blenice",
                "addr:street": "Kazimierza Wielkiego",
                "addr:housenumber": "53",
                "addr:teryt:simc": 8265,
                "addr:teryt:sym_ul": 951617,
                "contact:phone": "+48 122721259",
                "contact:email": "dyrektorosinski@gmail.com",
                "contact:website": "http:\/\/osinskiszkola.pl",
                "ref:regon": "122690846",
                "ref:vatin": "PL6811081047",
                "operator": "Andrzej Osi\u0144ski",
                "operator:type": "private",
                "amenity": "school"
            }
        },
        {
            "id": 51825,
            "type": "Feature",
            "geometry": {
                "type": "Point",
                "coordinates": [
                    19.94845,
                    49.838629999999995
                ]
            },
            "properties": {
                "isced:level": "3",
                "ref:rspo": 51825,
                "official_name": "Prywatne Technikum w My\u015blenicach",
                "name": "Prywatne Technikum w My\u015blenicach",
                "addr:country": "PL",
                "addr:postcode": "32-400",
                "addr:city": "My\u015blenice",
                "addr:street": "Kazimierza Wielkiego",
                "addr:housenumber": "53",
                "addr:teryt:simc": 8265,
                "addr:teryt:sym_ul": 951617,
                "contact:phone": "+48 122721259",
                "contact:email": "dyrektorosinski@gmail.com",
                "contact:website": "http:\/\/osinskiszkola.pl",
                "ref:regon": "122699110",
                "ref:vatin": "PL6811081047",
                "operator": "Andrzej Osi\u0144ski",
                "operator:type": "private",
                "amenity": "school"
            }
        },
        {
            "id": 56005,
            "type": "Feature",
            "geometry": {
                "type": "Point",
                "coordinates": [
                    19.94845,
                    49.8386
                ]
            },
            "properties": {
                "isced:level": "3",
                "ref:rspo": 56005,
                "official_name": "Prywatne Liceum Og\u00f3lnokszta\u0142cace dla Doros\u0142ych w My\u015blenicach",
                "name": "Prywatne Liceum Og\u00f3lnokszta\u0142cace dla Doros\u0142ych w My\u015blenicach",
                "addr:country": "PL",
                "addr:postcode": "32-400",
                "addr:city": "My\u015blenice",
                "addr:street": "Kazimierza Wielkiego",
                "addr:housenumber": "53",
                "addr:teryt:simc": 8265,
                "addr:teryt:sym_ul": 951617,
                "contact:phone": "+48 122721259",
                "contact:email": "dyrektorosinski@gmail.com",
                "contact:website": "http:\/\/osinskiszkola.pl\/",
                "ref:regon": "122700792",
                "ref:vatin": "PL6811081047",
                "operator": "Andrzej Osi\u0144ski",
                "operator:type": "private",
                "amenity": "school"
            }
        },
        {
            "id": 120497,
            "type": "Feature",
            "geometry": {
                "type": "Point",
                "coordinates": [
                    19.9890126,
                    49.840259
                ]
            },
            "properties": {
                "ref:rspo": 120497,
                "official_name": "Niepubliczne Przedszkole Smykolandia",
                "name": "Niepubliczne Przedszkole Smykolandia",
                "addr:country": "PL",
                "addr:postcode": "32-400",
                "addr:place": "Osieczany",
                "addr:housenumber": "545",
                "addr:teryt:sym_ul": 328054,
                "contact:phone": "+48 663144535",
                "ref:regon": "122959892",
                "ref:vatin": "PL6811005046",
                "operator": "Zuzanna Kasprzycka",
                "operator:type": "private",
                "amenity": "kindergarten"
            }
        },
        {
            "id": 111029,
            "type": "Feature",
            "geometry": {
                "type": "Point",
                "coordinates": [
                    19.9652636,
                    49.8410196
                ]
            },
            "properties": {
                "ref:rspo": 111029,
                "official_name": "Niepubliczne Przedszkole \"Eureka\" W.kopp W.panek S.c.",
                "name": "Niepubliczne Przedszkole \"Eureka\" W.kopp W.panek S.c.",
                "addr:country": "PL",
                "addr:postcode": "32-400",
                "addr:city": "My\u015blenice",
                "addr:street": "Juliusza S\u0142owackiego",
                "addr:housenumber": "86",
                "addr:teryt:simc": 20291,
                "addr:teryt:sym_ul": 951617,
                "contact:phone": "+48 122742201",
                "contact:email": "eureka@eurekamyslenice.pl",
                "contact:website": "http:\/\/www.eurekamyslenice.pl",
                "ref:regon": "122799112",
                "ref:vatin": "PL6812030425",
                "operator": "Dane Do Uzupe\u0142nienia",
                "operator:type": "private",
                "amenity": "kindergarten"
            }
        },
        {
            "id": 276383,
            "type": "Feature",
            "geometry": {
                "type": "Point",
                "coordinates": [
                    19.95215,
                    49.84149
                ]
            },
            "properties": {
                "ref:rspo": 276383,
                "official_name": "Niepubliczne Przedszkole \"Malowniczy Ogr\u00f3d\"",
                "name": "Niepubliczne Przedszkole \"Malowniczy Ogr\u00f3d\"",
                "addr:country": "PL",
                "addr:postcode": "32-400",
                "addr:city": "My\u015blenice",
                "addr:street": "W\u0142adys\u0142awa \u0141okietka",
                "addr:housenumber": "13",
                "addr:teryt:simc": 11653,
                "addr:teryt:sym_ul": 951617,
                "contact:email": "beti34a@gmail.com",
                "ref:regon": "387114620",
                "operator": "Beata Pi\u0105tek",
                "operator:type": "private",
                "amenity": "kindergarten"
            }
        },
        {
            "id": 51272,
            "type": "Feature",
            "geometry": {
                "type": "Point",
                "coordinates": [
                    19.982042,
                    49.841556
                ]
            },
            "properties": {
                "ref:rspo": 51272,
                "official_name": "Zesp\u00f3\u0142 Plac\u00f3wek O\u015bwiatowych im. Obro\u0144c\u00f3w Warszawy w Osieczanach",
                "name": "Zesp\u00f3\u0142 Plac\u00f3wek O\u015bwiatowych",
                "addr:country": "PL",
                "addr:postcode": "32-400",
                "addr:place": "Osieczany",
                "addr:housenumber": "100",
                "addr:teryt:sym_ul": 328054,
                "contact:phone": "+48 122720879",
                "contact:email": "zpo-osieczany@wp.pl",
                "contact:website": "http:\/\/osieczany.edu.pl",
                "ref:regon": "356546068",
                "ref:vatin": "PL6812061963",
                "operator": "Gmina My\u015blenice",
                "operator:type": "government",
                "landuse": "education",
                "fixme": "amenity=school, amenity=college albo landuse=education w zale\u017cno\u015bci od tego, jakie plac\u00f3wki wchodz\u0105 w sk\u0142ad zespo\u0142u. Sprawd\u017a, kiedy stosowa\u0107 amenity=* a kiedy landuse=education.",
                "note": "Children RSPO: 68397;68613"
            }
        },
        {
            "id": 68397,
            "type": "Feature",
            "geometry": {
                "type": "Point",
                "coordinates": [
                    19.982042,
                    49.841525999999995
                ]
            },
            "properties": {
                "isced:level": "1;2",
                "ref:rspo": 68397,
                "official_name": "Szko\u0142a Podstawowa im. Obro\u0144c\u00f3w Warszawy w Osieczanach",
                "name": "Szko\u0142a Podstawowa",
                "addr:country": "PL",
                "addr:postcode": "32-400",
                "addr:place": "Osieczany",
                "addr:housenumber": "100",
                "addr:teryt:sym_ul": 328054,
                "contact:phone": "+48 122720879",
                "contact:email": "zpo-osieczany@wp.pl",
                "contact:website": "http:\/\/osieczany.edu.pl",
                "ref:regon": "000698822",
                "operator": "Gmina My\u015blenice",
                "operator:type": "government",
                "amenity": "school",
                "note": "Parent RSPO: 51272"
            }
        },
        {
            "id": 68613,
            "type": "Feature",
            "geometry": {
                "type": "Point",
                "coordinates": [
                    19.982042,
                    49.841496
                ]
            },
            "properties": {
                "ref:rspo": 68613,
                "official_name": "Przedszkole Samorz\u0105dowe w Osieczanach",
                "name": "Przedszkole Samorz\u0105dowe w Osieczanach",
                "addr:country": "PL",
                "addr:postcode": "32-400",
                "addr:place": "Osieczany",
                "addr:housenumber": "100",
                "addr:teryt:sym_ul": 328054,
                "contact:phone": "+48 122741617",
                "contact:email": "zpo-osieczany@wp.pl",
                "ref:regon": "350537507",
                "operator": "Gmina My\u015blenice",
                "operator:type": "government",
                "amenity": "kindergarten",
                "note": "Parent RSPO: 51272"
            }
        },
        {
            "id": 132166,
            "type": "Feature",
            "geometry": {
                "type": "Point",
                "coordinates": [
                    19.95188,
                    49.84209
                ]
            },
            "properties": {
                "ref:rspo": 132166,
                "official_name": "Niepubliczny Punkt Przedszkolny 'Malowniczy Ogr\u00f3d\"",
                "name": "Niepubliczny Punkt Przedszkolny 'Malowniczy Ogr\u00f3d\"",
                "addr:country": "PL",
                "addr:postcode": "32-400",
                "addr:city": "My\u015blenice",
                "addr:street": "Kornela Ujejskiego",
                "addr:housenumber": "34 a",
                "addr:teryt:simc": 23317,
                "addr:teryt:sym_ul": 951617,
                "contact:phone": "+48 665887209",
                "contact:email": "beti34a@gmail.com",
                "ref:regon": "365489395",
                "ref:vatin": "PL6811423890",
                "operator": "Beata Pi\u0105tek",
                "operator:type": "private",
                "amenity": "kindergarten"
            }
        },
        {
            "id": 61794,
            "type": "Feature",
            "geometry": {
                "type": "Point",
                "coordinates": [
                    19.95635,
                    49.84211
                ]
            },
            "properties": {
                "ref:rspo": 61794,
                "official_name": "Przedszkole Samorz\u0105dowe Nr 2 w My\u015blenicach",
                "name": "Przedszkole Samorz\u0105dowe Nr 2 w My\u015blenicach",
                "addr:country": "PL",
                "addr:postcode": "32-400",
                "addr:city": "My\u015blenice",
                "addr:street": "Kazimierza Wielkiego",
                "addr:housenumber": "123",
                "addr:teryt:simc": 8265,
                "addr:teryt:sym_ul": 951617,
                "contact:phone": "+48 122721421",
                "contact:email": "ps2@przedszkole2myslenice.edu.pl",
                "contact:website": "http:\/\/www.przedszkole2myslenice.edu.pl",
                "ref:regon": "350530936",
                "ref:vatin": "PL6812082698",
                "operator": "Gmina My\u015blenice",
                "operator:type": "government",
                "amenity": "kindergarten"
            }
        },
        {
            "id": 44000,
            "type": "Feature",
            "geometry": {
                "type": "Point",
                "coordinates": [
                    20.008008,
                    49.8469429
                ]
            },
            "properties": {
                "ref:rspo": 44000,
                "official_name": "Zesp\u00f3\u0142 Plac\u00f3wek O\u015bwiatowych w Drogini",
                "name": "Zesp\u00f3\u0142 Plac\u00f3wek O\u015bwiatowych w Drogini",
                "addr:country": "PL",
                "addr:postcode": "32-400",
                "addr:place": "Droginia",
                "addr:housenumber": "20",
                "addr:teryt:sym_ul": 327534,
                "contact:phone": "+48 123723320",
                "contact:email": "zpo.droginia@gmail.com",
                "contact:website": "http:\/\/www.zpodroginia.edupage.org",
                "ref:regon": "356546039",
                "ref:vatin": "PL6812061940",
                "operator": "Gmina My\u015blenice",
                "operator:type": "government",
                "landuse": "education",
                "fixme": "amenity=school, amenity=college albo landuse=education w zale\u017cno\u015bci od tego, jakie plac\u00f3wki wchodz\u0105 w sk\u0142ad zespo\u0142u. Sprawd\u017a, kiedy stosowa\u0107 amenity=* a kiedy landuse=education.",
                "note": "Children RSPO: 107551;107552"
            }
        },
        {
            "id": 107551,
            "type": "Feature",
            "geometry": {
                "type": "Point",
                "coordinates": [
                    20.008008,
                    49.8469129
                ]
            },
            "properties": {
                "isced:level": "1;2",
                "ref:rspo": 107551,
                "official_name": "Szko\u0142a Podstawowa w Drogini im. Jana Dunin-Brzezi\u0144skiego",
                "name": "Szko\u0142a Podstawowa w Drogini",
                "addr:country": "PL",
                "addr:postcode": "32-400",
                "addr:place": "Droginia",
                "addr:housenumber": "20",
                "addr:teryt:sym_ul": 327534,
                "contact:phone": "+48 123723320",
                "contact:email": "zpo.droginia@gmail.com",
                "contact:website": "http:\/\/zpodroginia.edupage.org",
                "ref:regon": "000698940",
                "operator": "Gmina My\u015blenice",
                "operator:type": "government",
                "amenity": "school",
                "note": "Parent RSPO: 44000"
            }
        },
        {
            "id": 107552,
            "type": "Feature",
            "geometry": {
                "type": "Point",
                "coordinates": [
                    20.008008,
                    49.846882900000004
                ]
            },
            "properties": {
                "ref:rspo": 107552,
                "official_name": "Przedszkole Samorz\u0105dowe w Drogini",
                "name": "Przedszkole Samorz\u0105dowe w Drogini",
                "addr:country": "PL",
                "addr:postcode": "32-400",
                "addr:place": "Droginia",
                "addr:housenumber": "20",
                "addr:teryt:sym_ul": 327534,
                "contact:phone": "+48 122736110",
                "contact:email": "zpo.droginia@gmail.com",
                "contact:website": "http:\/\/przedszkoledroginia.edupage.org",
                "ref:regon": "350537482",
                "operator": "Gmina My\u015blenice",
                "operator:type": "government",
                "amenity": "kindergarten",
                "note": "Parent RSPO: 44000"
            }
        },
        {
            "id": 129929,
            "type": "Feature",
            "geometry": {
                "type": "Point",
                "coordinates": [
                    19.92438,
                    49.84772
                ]
            },
            "properties": {
                "ref:rspo": 129929,
                "official_name": "Niepubliczne Przedszkole Integracyjne \"Ekoludek\"",
                "name": "Niepubliczne Przedszkole Integracyjne \"Ekoludek\"",
                "addr:country": "PL",
                "addr:postcode": "32-400",
                "addr:city": "My\u015blenice",
                "addr:street": "Tarn\u00f3wka",
                "addr:housenumber": "3K",
                "addr:teryt:simc": 22688,
                "addr:teryt:sym_ul": 951617,
                "contact:phone": "+48 504078524",
                "contact:email": "ekoludek@ekoludekmyslenice.pl",
                "ref:regon": "363111853",
                "ref:vatin": "PL6811336139",
                "operator": "Waldemar Kopp",
                "operator:type": "private",
                "amenity": "kindergarten"
            }
        },
        {
            "id": 61462,
            "type": "Feature",
            "geometry": {
                "type": "Point",
                "coordinates": [
                    19.938384,
                    49.8577669
                ]
            },
            "properties": {
                "isced:level": "1;2",
                "ref:rspo": 61462,
                "official_name": "Szko\u0142a Podstawowa im. Janusza Korczaka w Polance",
                "name": "Szko\u0142a Podstawowa",
                "addr:country": "PL",
                "addr:postcode": "32-400",
                "addr:place": "Polanka",
                "addr:housenumber": "71",
                "addr:teryt:sym_ul": 328120,
                "contact:phone": "+48 122720364",
                "contact:email": "sp_polanka@wp.pl",
                "contact:website": "http:\/\/szkolapolanka.edupage.org",
                "ref:regon": "000698839",
                "ref:vatin": "PL6812061667",
                "operator": "Gmina My\u015blenice",
                "operator:type": "government",
                "amenity": "school"
            }
        },
        {
            "id": 55122,
            "type": "Feature",
            "geometry": {
                "type": "Point",
                "coordinates": [
                    19.902933,
                    49.8578259
                ]
            },
            "properties": {
                "isced:level": "1;2",
                "ref:rspo": 55122,
                "official_name": "Szko\u0142a Podstawowa im. Ks. Jana Twardowskiego w Jaworniku",
                "name": "Szko\u0142a Podstawowa",
                "addr:country": "PL",
                "addr:postcode": "32-400",
                "addr:place": "Jawornik",
                "addr:housenumber": "293",
                "addr:teryt:sym_ul": 327793,
                "contact:phone": "+48 122743929",
                "contact:email": "sp.jawornik@interia.pl",
                "contact:website": "http:\/\/www.spjawornik.pl",
                "ref:regon": "000698970",
                "ref:vatin": "PL6812061621",
                "operator": "Gmina My\u015blenice",
                "operator:type": "government",
                "amenity": "school"
            }
        },
        {
            "id": 72330,
            "type": "Feature",
            "geometry": {
                "type": "Point",
                "coordinates": [
                    19.904578,
                    49.860121
                ]
            },
            "properties": {
                "ref:rspo": 72330,
                "official_name": "Przedszkole Samorz\u0105dowe w Jaworniku",
                "name": "Przedszkole Samorz\u0105dowe w Jaworniku",
                "addr:country": "PL",
                "addr:postcode": "32-400",
                "addr:place": "Jawornik",
                "addr:housenumber": "172",
                "addr:teryt:sym_ul": 327793,
                "contact:phone": "+48 122720639",
                "contact:email": "przedszkolejawornik@op.pl",
                "contact:website": "http:\/\/www.przedszkolejawornik.szkolnastrona.pl",
                "ref:regon": "350537499",
                "operator": "Gmina My\u015blenice",
                "operator:type": "government",
                "amenity": "kindergarten"
            }
        },
        {
            "id": 61302,
            "type": "Feature",
            "geometry": {
                "type": "Point",
                "coordinates": [
                    19.986567,
                    49.865722
                ]
            },
            "properties": {
                "ref:rspo": 61302,
                "official_name": "Zesp\u00f3\u0142 Plac\u00f3wek O\u015bwiatowych im. Stanis\u0142awa Wyspia\u0144skiego w Borz\u0119cie",
                "name": "Zesp\u00f3\u0142 Plac\u00f3wek O\u015bwiatowych",
                "addr:country": "PL",
                "addr:postcode": "32-400",
                "addr:place": "Borz\u0119ta",
                "addr:housenumber": "368",
                "addr:teryt:sym_ul": 327416,
                "contact:phone": "+48 122721369",
                "contact:email": "zpoborzeta@op.pl",
                "contact:website": "http:\/\/www.zpoborzeta.pl",
                "ref:regon": "356545442",
                "ref:vatin": "PL6812061928",
                "operator": "Gmina My\u015blenice",
                "operator:type": "government",
                "landuse": "education",
                "fixme": "amenity=school, amenity=college albo landuse=education w zale\u017cno\u015bci od tego, jakie plac\u00f3wki wchodz\u0105 w sk\u0142ad zespo\u0142u. Sprawd\u017a, kiedy stosowa\u0107 amenity=* a kiedy landuse=education.",
                "note": "Children RSPO: 73665;73749"
            }
        },
        {
            "id": 73665,
            "type": "Feature",
            "geometry": {
                "type": "Point",
                "coordinates": [
                    19.986567,
                    49.865691999999996
                ]
            },
            "properties": {
                "ref:rspo": 73665,
                "official_name": "Przedszkole Samorz\u0105dowe w Borz\u0119cie",
                "name": "Przedszkole Samorz\u0105dowe w Borz\u0119cie",
                "addr:country": "PL",
                "addr:postcode": "32-400",
                "addr:place": "Borz\u0119ta",
                "addr:housenumber": "368",
                "addr:teryt:sym_ul": 327416,
                "contact:phone": "+48 122721369",
                "contact:email": "zpoborzeta@op.pl",
                "ref:regon": "350531019",
                "operator": "Gmina My\u015blenice",
                "operator:type": "government",
                "amenity": "kindergarten",
                "note": "Parent RSPO: 61302"
            }
        },
        {
            "id": 73749,
            "type": "Feature",
            "geometry": {
                "type": "Point",
                "coordinates": [
                    19.986567,
                    49.865662
                ]
            },
            "properties": {
                "isced:level": "1;2",
                "ref:rspo": 73749,
                "official_name": "Szko\u0142a Podstawowa w Borz\u0119cie",
                "name": "Szko\u0142a Podstawowa w Borz\u0119cie",
                "addr:country": "PL",
                "addr:postcode": "32-400",
                "addr:place": "Borz\u0119ta",
                "addr:housenumber": "368",
                "addr:teryt:sym_ul": 327416,
                "contact:phone": "+48 122721369",
                "contact:email": "zpoborzeta@op.pl",
                "contact:website": "http:\/\/www.zpoborzeta.pl",
                "ref:regon": "000698928",
                "operator": "Gmina My\u015blenice",
                "operator:type": "government",
                "amenity": "school",
                "note": "Parent RSPO: 61302"
            }
        },
        {
            "id": 73722,
            "type": "Feature",
            "geometry": {
                "type": "Point",
                "coordinates": [
                    19.8615609,
                    49.8750189
                ]
            },
            "properties": {
                "ref:rspo": 73722,
                "official_name": "Przedszkole Samorz\u0105dowe w B\u0119czarce",
                "name": "Przedszkole Samorz\u0105dowe w B\u0119czarce",
                "addr:country": "PL",
                "addr:postcode": "32-444",
                "addr:place": "B\u0119czarka",
                "addr:housenumber": "104",
                "addr:teryt:sym_ul": 327340,
                "contact:phone": "+48 123736329",
                "contact:email": "przedszkolebeczarka@interia.pl",
                "contact:website": "http:\/\/www.przedszkolebeczarka.szkolnastrona.pl",
                "ref:regon": "350531002",
                "operator": "Gmina My\u015blenice",
                "operator:type": "government",
                "amenity": "kindergarten"
            }
        },
        {
            "id": 79123,
            "type": "Feature",
            "geometry": {
                "type": "Point",
                "coordinates": [
                    19.8615609,
                    49.8749889
                ]
            },
            "properties": {
                "isced:level": "1;2",
                "ref:rspo": 79123,
                "official_name": "Szko\u0142a Podstawowa im. Jana Kochanowskiego w B\u0119czarce",
                "name": "Szko\u0142a Podstawowa",
                "addr:country": "PL",
                "addr:postcode": "32-444",
                "addr:place": "B\u0119czarka",
                "addr:housenumber": "14",
                "addr:teryt:sym_ul": 327340,
                "contact:phone": "+48 123736390",
                "contact:email": "szkolabeczarka@interia.pl",
                "contact:website": "http:\/\/www.spbeczarka.szkolnastrona.pl",
                "ref:regon": "000698911",
                "ref:vatin": "PL6812061638",
                "operator": "Gmina My\u015blenice",
                "operator:type": "government",
                "amenity": "school"
            }
        },
        {
            "id": 63401,
            "type": "Feature",
            "geometry": {
                "type": "Point",
                "coordinates": [
                    19.9226539,
                    49.8760259
                ]
            },
            "properties": {
                "isced:level": "1;2",
                "ref:rspo": 63401,
                "official_name": "Szko\u0142a Podstawowa im. \u015aw. Stanis\u0142awa Kostki w Krzyszkowicach",
                "name": "Szko\u0142a Podstawowa",
                "addr:country": "PL",
                "addr:postcode": "32-445",
                "addr:place": "Krzyszkowice",
                "addr:housenumber": "368",
                "addr:teryt:sym_ul": 327860,
                "contact:phone": "+48 122737671",
                "contact:email": "spkrzyszkowice@op.pl",
                "contact:website": "http:\/\/www.spkrzyszkowice. myslenice.pl",
                "ref:regon": "000698816",
                "operator": "Gmina My\u015blenice",
                "operator:type": "government",
                "amenity": "school"
            }
        },
        {
            "id": 55121,
            "type": "Feature",
            "geometry": {
                "type": "Point",
                "coordinates": [
                    19.9494009,
                    49.881282
                ]
            },
            "properties": {
                "isced:level": "1;2",
                "ref:rspo": 55121,
                "official_name": "Szko\u0142a Podstawowa w Zawadzie",
                "name": "Szko\u0142a Podstawowa w Zawadzie",
                "addr:country": "PL",
                "addr:postcode": "32-445",
                "addr:place": "Zawada",
                "addr:housenumber": "24",
                "addr:teryt:sym_ul": 328500,
                "contact:phone": "+48 122720597",
                "contact:email": "spzawada@o2.pl",
                "contact:website": "http:\/\/www.spzawada.szkolnastrona.pl",
                "ref:regon": "000880024",
                "ref:vatin": "PL6812061696",
                "operator": "Gmina My\u015blenice",
                "operator:type": "government",
                "amenity": "school"
            }
        },
        {
            "id": 70060,
            "type": "Feature",
            "geometry": {
                "type": "Point",
                "coordinates": [
                    19.8700342,
                    49.900904
                ]
            },
            "properties": {
                "ref:rspo": 70060,
                "official_name": "Zesp\u00f3\u0142 Plac\u00f3wek O\u015bwiatowych im. Tadeusza Ko\u015bciuszki w G\u0142ogoczowie",
                "name": "Zesp\u00f3\u0142 Plac\u00f3wek O\u015bwiatowych",
                "addr:country": "PL",
                "addr:postcode": "32-444",
                "addr:place": "G\u0142ogocz\u00f3w",
                "addr:housenumber": "297",
                "addr:teryt:sym_ul": 327592,
                "contact:phone": "+48 122737712",
                "contact:email": "zpoglogoczow@op.pl",
                "contact:website": "http:\/\/www.zpoglogoczow.myslenice.pl",
                "ref:regon": "356583684",
                "ref:vatin": "PL6812061957",
                "operator": "Gmina My\u015blenice",
                "operator:type": "government",
                "landuse": "education",
                "fixme": "amenity=school, amenity=college albo landuse=education w zale\u017cno\u015bci od tego, jakie plac\u00f3wki wchodz\u0105 w sk\u0142ad zespo\u0142u. Sprawd\u017a, kiedy stosowa\u0107 amenity=* a kiedy landuse=education.",
                "note": "Children RSPO: 79124;79125"
            }
        },
        {
            "id": 79124,
            "type": "Feature",
            "geometry": {
                "type": "Point",
                "coordinates": [
                    19.8700342,
                    49.900873999999995
                ]
            },
            "properties": {
                "isced:level": "1;2",
                "ref:rspo": 79124,
                "official_name": "Szko\u0142a Podstawowa im.tadeusza Ko\u015bciuszki w G\u0142ogoczowie",
                "name": "Szko\u0142a Podstawowa im.tadeusza Ko\u015bciuszki w G\u0142ogoczowie",
                "addr:country": "PL",
                "addr:postcode": "32-444",
                "addr:place": "G\u0142ogocz\u00f3w",
                "addr:housenumber": "297",
                "addr:teryt:sym_ul": 327592,
                "contact:phone": "+48 122737712",
                "contact:email": "zpoglogoczow@op.pl",
                "contact:website": "http:\/\/www.zpoglogoczow.myslenice.pl",
                "ref:regon": "000698957",
                "operator": "Gmina My\u015blenice",
                "operator:type": "government",
                "amenity": "school",
                "note": "Parent RSPO: 70060"
            }
        },
        {
            "id": 79125,
            "type": "Feature",
            "geometry": {
                "type": "Point",
                "coordinates": [
                    19.8700342,
                    49.900844
                ]
            },
            "properties": {
                "ref:rspo": 79125,
                "official_name": "Przedszkole Samorz\u0105dowe w G\u0142ogoczowie",
                "name": "Przedszkole Samorz\u0105dowe w G\u0142ogoczowie",
                "addr:country": "PL",
                "addr:postcode": "32-444",
                "addr:place": "G\u0142ogocz\u00f3w",
                "addr:housenumber": "297",
                "addr:teryt:sym_ul": 327592,
                "contact:phone": "+48 122737712",
                "contact:email": "zpoglogoczow@op.pl",
                "ref:regon": "350537476",
                "operator": "Gmina My\u015blenice",
                "operator:type": "government",
                "amenity": "kindergarten",
                "note": "Parent RSPO: 70060"
            }
        }
    ]
}