{"type":"FeatureCollection","features":[{"id":69931,"type":"Feature","geometry":{"type":"Point","coordinates":[20.193739,49.811369]},"properties":{"isced:level":"1;2","ref:rspo":69931,"official_name":"Szko\u0142a Podstawowa im. Tadeusza Ko\u015bciuszki","name":"Szko\u0142a Podstawowa","addr:country":"PL","addr:postcode":"32-415","addr:place":"Krzes\u0142awice","addr:housenumber":"146","addr:teryt:sym_ul":332742,"contact:phone":"+48 123723070","contact:email":"krzeslawice@raciechowice.pl","contact:website":"http:\/\/zs4krzeslawice.manifo.com","ref:regon":"001236176","operator":"Gmina Raciechowice","operator:type":"government","amenity":"school"}},{"id":69940,"type":"Feature","geometry":{"type":"Point","coordinates":[20.190566,49.830838]},"properties":{"isced:level":"1;2","ref:rspo":69940,"official_name":"Szko\u0142a Podstawowa w Zegartowicach","name":"Szko\u0142a Podstawowa w Zegartowicach","addr:country":"PL","addr:postcode":"32-413","addr:place":"Zegartowice","addr:housenumber":"114","addr:teryt:sym_ul":333227,"contact:phone":"+48 122715072","contact:email":"spzegartowice@onet.eu","ref:regon":"122704181","operator":"Dane Do Uzupe\u0142nienia","operator:type":"private","amenity":"school"}},{"id":133280,"type":"Feature","geometry":{"type":"Point","coordinates":[20.1313229,49.841311]},"properties":{"ref:rspo":133280,"official_name":"Niepubliczne Przedszkole T\u0119czowa Kraina","name":"Niepubliczne Przedszkole T\u0119czowa Kraina","addr:country":"PL","addr:postcode":"32-415","addr:place":"Raciechowice","addr:housenumber":"137A","addr:teryt:sym_ul":333090,"contact:phone":"+48 122715041","contact:email":"przedszkole@teczowakraina.org","ref:regon":"366915670","ref:vatin":"PL6811961647","operator":"Rafa\u0142 Majka","operator:type":"private","amenity":"kindergarten"}},{"id":74188,"type":"Feature","geometry":{"type":"Point","coordinates":[20.1153476,49.8473856]},"properties":{"ref:rspo":74188,"official_name":"Szko\u0142a Muzyczna I Stopnia w Czas\u0142awiu","name":"Szko\u0142a Muzyczna I Stopnia w Czas\u0142awiu","addr:country":"PL","addr:postcode":"32-415","addr:place":"Czas\u0142aw","addr:housenumber":"105","addr:teryt:sym_ul":332452,"contact:phone":"+48 122715501","contact:email":"smczaslaw@interia.pl","ref:regon":"120964274","ref:vatin":"PL6812008199","operator":"Gmina Raciechowice","operator:type":"government","amenity":"music_school"}},{"id":115108,"type":"Feature","geometry":{"type":"Point","coordinates":[20.1153476,49.8473556]},"properties":{"isced:level":"1;2","ref:rspo":115108,"official_name":"Szko\u0142a Podstawowa im. Milo\u0142aja Kopernika w Czas\u0142awiu","name":"Szko\u0142a Podstawowa","addr:country":"PL","addr:postcode":"32-415","addr:place":"Czas\u0142aw","addr:housenumber":"105","addr:teryt:sym_ul":332452,"contact:phone":"+48 122743328","contact:email":"spczaslaw@interia.pl","ref:regon":"122879851","operator":"Dane Do Uzupe\u0142nienia","operator:type":"private","amenity":"school"}},{"id":274632,"type":"Feature","geometry":{"type":"Point","coordinates":[20.1153476,49.847325600000005]},"properties":{"ref:rspo":274632,"official_name":"Niepubliczne Wielokulturowe Przedszkole w Czas\u0142awiu","name":"Niepubliczne Wielokulturowe Przedszkole w Czas\u0142awiu","addr:country":"PL","addr:postcode":"32-415","addr:place":"Czas\u0142aw","addr:housenumber":"105","addr:teryt:sym_ul":332452,"contact:phone":"+48 122743328","contact:email":"spczaslaw@interia.pl","ref:regon":"386107144","operator":"Stowarzyszenie Integracji, Rozwoju I Promocji Wsi Czas\u0142aw","operator:type":"ngo","amenity":"kindergarten"}},{"id":11540,"type":"Feature","geometry":{"type":"Point","coordinates":[20.2087249,49.853958]},"properties":{"ref:rspo":11540,"official_name":"Zesp\u00f3\u0142 Szkolno - Przedszkolny w Gruszowie","name":"Zesp\u00f3\u0142 Szkolno - Przedszkolny w Gruszowie","addr:country":"PL","addr:postcode":"32-414","addr:place":"Grusz\u00f3w","addr:housenumber":"150","addr:teryt:sym_ul":332541,"contact:phone":"+48 122716208","contact:email":"gimgr@poczta.onet.pl","ref:regon":"356728800","ref:vatin":"PL6811839484","operator":"Gmina Raciechowice","operator:type":"government","landuse":"education","fixme":"amenity=school, amenity=college albo landuse=education w zale\u017cno\u015bci od tego, jakie plac\u00f3wki wchodz\u0105 w sk\u0142ad zespo\u0142u. Sprawd\u017a, kiedy stosowa\u0107 amenity=* a kiedy landuse=education.","note":"Children RSPO: 68377;69943"}},{"id":68377,"type":"Feature","geometry":{"type":"Point","coordinates":[20.2087249,49.853927999999996]},"properties":{"ref:rspo":68377,"official_name":"Samorz\u0105dowe Przedszkole Przy Zespole Szk\u00f3\u0142 Nr 2 w Gruszowie","name":"Samorz\u0105dowe Przedszkole Przy Zespole Szk\u00f3\u0142 Nr 2 w Gruszowie","addr:country":"PL","addr:postcode":"32-414","addr:place":"Grusz\u00f3w","addr:housenumber":"150","addr:teryt:sym_ul":332541,"contact:phone":"+48 122716208","ref:regon":"122400558","operator":"Gmina Raciechowice","operator:type":"government","amenity":"kindergarten","note":"Parent RSPO: 11540"}},{"id":69943,"type":"Feature","geometry":{"type":"Point","coordinates":[20.2087249,49.853898]},"properties":{"isced:level":"1;2","ref:rspo":69943,"official_name":"Szko\u0142a Podstawowa w Gruszowie im. Komisji Edukacji Narodowej","name":"Szko\u0142a Podstawowa w Gruszowie","addr:country":"PL","addr:postcode":"32-414","addr:place":"Grusz\u00f3w","addr:housenumber":"150","addr:teryt:sym_ul":332541,"contact:phone":"+48 122716208","contact:email":"gimgr@poczta.onet.pl","ref:regon":"001236160","operator":"Gmina Raciechowice","operator:type":"government","amenity":"school","note":"Parent RSPO: 11540"}},{"id":11977,"type":"Feature","geometry":{"type":"Point","coordinates":[20.1614782,49.8591602]},"properties":{"ref:rspo":11977,"official_name":"Samorz\u0105dowe Przedszkole w Raciechowicach","name":"Samorz\u0105dowe Przedszkole w Raciechowicach","addr:country":"PL","addr:postcode":"32-415","addr:place":"Raciechowice","addr:housenumber":"106","addr:teryt:sym_ul":333090,"contact:phone":"+48 603574131","contact:email":"przedszkole_raciechowice@o2.pl","ref:regon":"351501457","ref:vatin":"PL6811839521","operator":"Gmina Raciechowice","operator:type":"government","amenity":"kindergarten"}},{"id":61536,"type":"Feature","geometry":{"type":"Point","coordinates":[20.1614782,49.859130199999996]},"properties":{"isced:level":"1;2","ref:rspo":61536,"official_name":"Szko\u0142a Podstawowa Im Jana Kochanowskiego w Raciechowicach","name":"Szko\u0142a Podstawowa Im Jana Kochanowskiego w Raciechowicach","addr:country":"PL","addr:postcode":"32-415","addr:place":"Raciechowice","addr:housenumber":"106","addr:teryt:sym_ul":333090,"contact:phone":"+48 122715014","contact:email":"raciechowice@wp.pl","ref:regon":"000699603","operator":"Gmina Raciechowice","operator:type":"government","amenity":"school"}}]}