{
    "type": "FeatureCollection",
    "features": [
        {
            "id": 60820,
            "type": "Feature",
            "geometry": {
                "type": "Point",
                "coordinates": [
                    17.22296,
                    53.5366799
                ]
            },
            "properties": {
                "ref:rspo": 60820,
                "official_name": "Przedszkole Samorz\u0105dowe im. Jasia I Ma\u0142gosi w Gl\u0119dowie",
                "name": "Przedszkole Samorz\u0105dowe",
                "addr:postcode": "77-300",
                "addr:city": "Gl\u0119dowo",
                "addr:street": "Kwiatowa",
                "addr:housenumber": "23",
                "addr:city:simc": 742842,
                "addr:street:sym_ul": 10562,
                "phone": "+48 598342177",
                "email": "eprzedszkole@op.pl",
                "website": "http:\/\/www.eprzedszkole.az.pl",
                "ref:regon": "770538950",
                "ref:vatin": "PL8431552412",
                "operator": "Gmina Cz\u0142uch\u00f3w",
                "operator:type": "government",
                "amenity": "kindergarten"
            }
        },
        {
            "id": 25082,
            "type": "Feature",
            "geometry": {
                "type": "Point",
                "coordinates": [
                    17.438890457153,
                    53.611671447754
                ]
            },
            "properties": {
                "ref:rspo": 25082,
                "official_name": "M\u0142odzie\u017cowy O\u015brodek Socjoterapii w Wierzchowie",
                "name": "M\u0142odzie\u017cowy O\u015brodek Socjoterapii w Wierzchowie",
                "addr:postcode": "77-300",
                "addr:city": "Wierzchowo-Dworzec",
                "addr:street": "Szkolna",
                "addr:housenumber": "9",
                "addr:city:simc": 743250,
                "addr:street:sym_ul": 21970,
                "phone": "+48 598331517",
                "email": "sekretariat@mos.czluchow.org.pl",
                "website": "http:\/\/www.moswierzchowo.pl",
                "ref:regon": "220856200",
                "ref:vatin": "PL8431591091",
                "operator": "Powiat Cz\u0142uchowski",
                "operator:type": "government",
                "fixme": "amenity=social_facility + social_facility=group_home + social_facility:for=juvenile",
                "note": "Children RSPO: 55769"
            }
        },
        {
            "id": 271752,
            "type": "Feature",
            "geometry": {
                "type": "Point",
                "coordinates": [
                    17.438890457153,
                    53.611641447753996
                ]
            },
            "properties": {
                "ref:rspo": 271752,
                "official_name": "Zesp\u00f3\u0142 Szkolno - Przedszkolny w Wierzchowie - Dworcu",
                "name": "Zesp\u00f3\u0142 Szkolno - Przedszkolny w Wierzchowie - Dworcu",
                "addr:postcode": "77-300",
                "addr:city": "Wierzchowo-Dworzec",
                "addr:street": "Szkolna",
                "addr:housenumber": "16",
                "addr:city:simc": 743250,
                "addr:street:sym_ul": 21970,
                "phone": "+48 598337723",
                "email": "wierzchowosp@wp.pl",
                "website": "http:\/\/www.szkolawierzchowodworzec.eduszkoly.pl",
                "ref:regon": "383601524",
                "ref:vatin": "PL8431621478",
                "operator": "Gmina Cz\u0142uch\u00f3w",
                "operator:type": "government",
                "landuse": "education",
                "fixme": "amenity=school, amenity=college albo landuse=education w zale\u017cno\u015bci od tego, jakie plac\u00f3wki wchodz\u0105 w sk\u0142ad zespo\u0142u. Sprawd\u017a, kiedy stosowa\u0107 amenity=* a kiedy landuse=education.",
                "note": "Children RSPO: 55377;59742"
            }
        },
        {
            "id": 55769,
            "type": "Feature",
            "geometry": {
                "type": "Point",
                "coordinates": [
                    17.438890457153,
                    53.611611447754
                ]
            },
            "properties": {
                "isced:level": "1;2",
                "ref:rspo": 55769,
                "official_name": "Szko\u0142a Podstawowa Nr 2",
                "name": "Szko\u0142a Podstawowa Nr 2",
                "addr:postcode": "77-300",
                "addr:city": "Wierzchowo-Dworzec",
                "addr:street": "Szkolna",
                "addr:housenumber": "9",
                "addr:city:simc": 743250,
                "addr:street:sym_ul": 21970,
                "phone": "+48 598331517",
                "email": "sekretariat@mos.czluchow.org.pl",
                "website": "http:\/\/www.moswierzchowo.pl",
                "ref:regon": "220867898",
                "operator": "Powiat Cz\u0142uchowski",
                "operator:type": "government",
                "amenity": "school",
                "note": "Parent RSPO: 25082"
            }
        },
        {
            "id": 55377,
            "type": "Feature",
            "geometry": {
                "type": "Point",
                "coordinates": [
                    17.438890457153,
                    53.611581447754
                ]
            },
            "properties": {
                "isced:level": "1;2",
                "ref:rspo": 55377,
                "official_name": "Szko\u0142a Podstawowa w Wierzchowie",
                "name": "Szko\u0142a Podstawowa w Wierzchowie",
                "addr:postcode": "77-300",
                "addr:city": "Wierzchowo-Dworzec",
                "addr:street": "Szkolna",
                "addr:housenumber": "16",
                "addr:city:simc": 743250,
                "addr:street:sym_ul": 21970,
                "phone": "+48 598337723",
                "email": "wierzchowosp@wp.pl",
                "website": "http:\/\/www.spwierzchowo.pl",
                "ref:regon": "000648497",
                "ref:vatin": "PL8431552435",
                "operator": "Gmina Cz\u0142uch\u00f3w",
                "operator:type": "government",
                "amenity": "school",
                "note": "Parent RSPO: 271752"
            }
        },
        {
            "id": 59742,
            "type": "Feature",
            "geometry": {
                "type": "Point",
                "coordinates": [
                    17.438890457153,
                    53.611551447753996
                ]
            },
            "properties": {
                "ref:rspo": 59742,
                "official_name": "Przedszkole Samorz\u0105dowe w Wierzchowie",
                "name": "Przedszkole Samorz\u0105dowe w Wierzchowie",
                "addr:postcode": "77-300",
                "addr:city": "Wierzchowo-Dworzec",
                "addr:street": "Szkolna",
                "addr:housenumber": "13",
                "addr:city:simc": 743250,
                "addr:street:sym_ul": 21970,
                "phone": "+48 598337715",
                "email": "przedszkolewierzchowo@wp.pl",
                "website": "http:\/\/www.przedszkolewierzchowo.pl",
                "ref:regon": "000908662",
                "ref:vatin": "PL8431552398",
                "operator": "Gmina Cz\u0142uch\u00f3w",
                "operator:type": "government",
                "amenity": "kindergarten",
                "note": "Parent RSPO: 271752"
            }
        },
        {
            "id": 73162,
            "type": "Feature",
            "geometry": {
                "type": "Point",
                "coordinates": [
                    17.25865,
                    53.709
                ]
            },
            "properties": {
                "isced:level": "1;2",
                "ref:rspo": 73162,
                "official_name": "Szko\u0142a Podstawowa im. Mariana Rejewskiego w Sto\u0142cznie",
                "name": "Szko\u0142a Podstawowa",
                "addr:postcode": "77-300",
                "addr:place": "Sto\u0142czno",
                "addr:housenumber": "1",
                "addr:city:simc": 743221,
                "phone": "+48 598323505",
                "email": "spstolczno@wp.pl",
                "website": "http:\/\/www.spstolczno.pl",
                "ref:regon": "001141642",
                "ref:vatin": "PL8431552441",
                "operator": "Gmina Cz\u0142uch\u00f3w",
                "operator:type": "government",
                "amenity": "school"
            }
        },
        {
            "id": 73164,
            "type": "Feature",
            "geometry": {
                "type": "Point",
                "coordinates": [
                    17.168815612793,
                    53.728771209717
                ]
            },
            "properties": {
                "isced:level": "1;2",
                "ref:rspo": 73164,
                "official_name": "Szko\u0142a Podstawowa w Rychnowach",
                "name": "Szko\u0142a Podstawowa w Rychnowach",
                "addr:postcode": "77-300",
                "addr:place": "Rychnowy",
                "addr:housenumber": "5",
                "addr:city:simc": 743161,
                "phone": "+48 796998189",
                "email": "sp.rychnowy3@wp.pl",
                "website": "http:\/\/www.sprychnowy.szkolnastrona.pl",
                "ref:regon": "001141671",
                "ref:vatin": "PL8431552458",
                "operator": "Gmina Cz\u0142uch\u00f3w",
                "operator:type": "government",
                "amenity": "school"
            }
        },
        {
            "id": 73165,
            "type": "Feature",
            "geometry": {
                "type": "Point",
                "coordinates": [
                    17.39955,
                    53.75159
                ]
            },
            "properties": {
                "ref:rspo": 73165,
                "official_name": "Przedszkole Samorzadowe w Polnicy",
                "name": "Przedszkole Samorzadowe w Polnicy",
                "addr:postcode": "77-300",
                "addr:place": "Polnica",
                "addr:housenumber": "29",
                "addr:city:simc": 743072,
                "phone": "+48 796998731",
                "email": "sp_wybicki@vp.pl",
                "ref:regon": "770538967",
                "ref:vatin": "PL8431552406",
                "operator": "Gmina Cz\u0142uch\u00f3w",
                "operator:type": "government",
                "amenity": "kindergarten",
                "note": "Parent RSPO: 272375"
            }
        },
        {
            "id": 272375,
            "type": "Feature",
            "geometry": {
                "type": "Point",
                "coordinates": [
                    17.40054,
                    53.75209
                ]
            },
            "properties": {
                "ref:rspo": 272375,
                "official_name": "Zesp\u00f3\u0142 Szkolno - Przedszkolny w Polnicy",
                "name": "Zesp\u00f3\u0142 Szkolno - Przedszkolny w Polnicy",
                "addr:postcode": "77-300",
                "addr:place": "Polnica",
                "addr:housenumber": "72",
                "addr:city:simc": 743072,
                "phone": "+48 598323468",
                "email": "sp_wybicki@vp.pl",
                "ref:regon": "384158947",
                "ref:vatin": "PL8431621202",
                "operator": "Gmina Cz\u0142uch\u00f3w",
                "operator:type": "government",
                "landuse": "education",
                "fixme": "amenity=school, amenity=college albo landuse=education w zale\u017cno\u015bci od tego, jakie plac\u00f3wki wchodz\u0105 w sk\u0142ad zespo\u0142u. Sprawd\u017a, kiedy stosowa\u0107 amenity=* a kiedy landuse=education.",
                "note": "Children RSPO: 47604;73165"
            }
        },
        {
            "id": 47604,
            "type": "Feature",
            "geometry": {
                "type": "Point",
                "coordinates": [
                    17.40054,
                    53.75206
                ]
            },
            "properties": {
                "isced:level": "1;2",
                "ref:rspo": 47604,
                "official_name": "Szko\u0142a Podstawowa im.j.wybickiego w Polnicy",
                "name": "Szko\u0142a Podstawowa im.j.wybickiego w Polnicy",
                "addr:postcode": "77-300",
                "addr:place": "Polnica",
                "addr:housenumber": "72",
                "addr:city:simc": 743072,
                "phone": "+48 598323468",
                "email": "sp_wybicki@vp.pl",
                "website": "http:\/\/www.sp.polnica.szkolnastrona.pl",
                "ref:regon": "001141688",
                "ref:vatin": "PL8431552464",
                "operator": "Gmina Cz\u0142uch\u00f3w",
                "operator:type": "government",
                "amenity": "school",
                "note": "Parent RSPO: 272375"
            }
        }
    ]
}