{
    "type": "FeatureCollection",
    "features": [
        {
            "id": 131918,
            "type": "Feature",
            "geometry": {
                "type": "Point",
                "coordinates": [
                    17.19259,
                    53.73731
                ]
            },
            "properties": {
                "ref:rspo": 131918,
                "official_name": "Zesp\u00f3\u0142 Szk\u00f3\u0142 w Rzeczenicy Samorz\u0105dowe Przedszkole w Gwie\u017adzinie",
                "name": "Zesp\u00f3\u0142 Szk\u00f3\u0142 w Rzeczenicy Samorz\u0105dowe Przedszkole w Gwie\u017adzinie",
                "addr:country": "PL",
                "addr:postcode": "77-304",
                "addr:place": "Gwie\u017adzin",
                "addr:housenumber": "26",
                "addr:teryt:sym_ul": 750072,
                "contact:phone": "+48 598331711",
                "contact:email": "szkola@rzeczenica.pl",
                "ref:regon": "365386146",
                "operator": "Gmina Rzeczenica",
                "operator:type": "government",
                "amenity": "kindergarten",
                "note": "Parent RSPO: 17046"
            }
        },
        {
            "id": 22283,
            "type": "Feature",
            "geometry": {
                "type": "Point",
                "coordinates": [
                    17.11182,
                    53.75654
                ]
            },
            "properties": {
                "ref:rspo": 22283,
                "official_name": "Zesp\u00f3\u0142 Szk\u00f3\u0142 w Rzeczenicy Samorz\u0105dowe Przedszkole w Rzeczenicy",
                "name": "Zesp\u00f3\u0142 Szk\u00f3\u0142 w Rzeczenicy Samorz\u0105dowe Przedszkole w Rzeczenicy",
                "addr:country": "PL",
                "addr:postcode": "77-304",
                "addr:city": "Rzeczenica",
                "addr:street": "ul. Cz\u0142uchowska",
                "addr:housenumber": "22",
                "addr:teryt:simc": 3461,
                "addr:teryt:sym_ul": 750184,
                "contact:phone": "+48 598331715",
                "contact:email": "przedszkole@rzeczenica.pl",
                "ref:regon": "000908573",
                "ref:vatin": "PL8431557674",
                "operator": "Gmina Rzeczenica",
                "operator:type": "government",
                "amenity": "kindergarten",
                "note": "Parent RSPO: 17046"
            }
        },
        {
            "id": 17046,
            "type": "Feature",
            "geometry": {
                "type": "Point",
                "coordinates": [
                    17.11215,
                    53.7572
                ]
            },
            "properties": {
                "ref:rspo": 17046,
                "official_name": "Zesp\u00f3\u0142 Szk\u00f3\u0142 w Rzeczenicy",
                "name": "Zesp\u00f3\u0142 Szk\u00f3\u0142 w Rzeczenicy",
                "addr:country": "PL",
                "addr:postcode": "77-304",
                "addr:city": "Rzeczenica",
                "addr:street": "ul. Przechlewska",
                "addr:housenumber": "6",
                "addr:teryt:simc": 17633,
                "addr:teryt:sym_ul": 750184,
                "contact:phone": "+48 598331711",
                "contact:email": "szkola@rzeczenica.pl",
                "ref:regon": "220668070",
                "ref:vatin": "PL8431580348",
                "operator": "Gmina Rzeczenica",
                "operator:type": "government",
                "landuse": "education",
                "fixme": "amenity=school, amenity=college albo landuse=education w zale\u017cno\u015bci od tego, jakie plac\u00f3wki wchodz\u0105 w sk\u0142ad zespo\u0142u. Sprawd\u017a, kiedy stosowa\u0107 amenity=* a kiedy landuse=education.",
                "note": "Children RSPO: 22165;22283;22396;131918"
            }
        },
        {
            "id": 22396,
            "type": "Feature",
            "geometry": {
                "type": "Point",
                "coordinates": [
                    17.11215,
                    53.757169999999995
                ]
            },
            "properties": {
                "isced:level": "1;2",
                "ref:rspo": 22396,
                "official_name": "Szko\u0142a Podstawowa w Rzeczenicy im. Genera\u0142a W\u0142adys\u0142awa Andersa",
                "name": "Szko\u0142a Podstawowa w Rzeczenicy",
                "addr:country": "PL",
                "addr:postcode": "77-304",
                "addr:city": "Rzeczenica",
                "addr:street": "ul. Przechlewska",
                "addr:housenumber": "6",
                "addr:teryt:simc": 17633,
                "addr:teryt:sym_ul": 750184,
                "contact:phone": "+48 598331711",
                "contact:email": "szkola@rzeczenica.pl",
                "contact:website": "http:\/\/www.zsrzeczenica.szkolnastrona.pl",
                "ref:regon": "000271549",
                "ref:vatin": "PL8431556976",
                "operator": "Gmina Rzeczenica",
                "operator:type": "government",
                "amenity": "school",
                "note": "Children RSPO: 127150Parent RSPO: 17046"
            }
        },
        {
            "id": 22165,
            "type": "Feature",
            "geometry": {
                "type": "Point",
                "coordinates": [
                    17.0001399,
                    53.77627
                ]
            },
            "properties": {
                "ref:rspo": 22165,
                "official_name": "Zesp\u00f3\u0142 Szk\u00f3\u0142 w Rzeczenicy Samorz\u0105dowe Przedszkole w Mi\u0119dzyborzu",
                "name": "Zesp\u00f3\u0142 Szk\u00f3\u0142 w Rzeczenicy Samorz\u0105dowe Przedszkole w Mi\u0119dzyborzu",
                "addr:country": "PL",
                "addr:postcode": "77-304",
                "addr:place": "Mi\u0119dzyb\u00f3rz",
                "addr:housenumber": "18",
                "addr:teryt:sym_ul": 750095,
                "contact:phone": "+48 598333448",
                "contact:email": "przedszkole.miedzyborz@rzeczenica.pl",
                "ref:regon": "770545789",
                "ref:vatin": "PL8431557668",
                "operator": "Gmina Rzeczenica",
                "operator:type": "government",
                "amenity": "kindergarten",
                "note": "Parent RSPO: 17046"
            }
        },
        {
            "id": 127150,
            "type": "Feature",
            "geometry": {
                "type": "Point",
                "coordinates": [
                    16.96058,
                    53.85839
                ]
            },
            "properties": {
                "isced:level": "1;2",
                "ref:rspo": 127150,
                "official_name": "Szko\u0142a Podstawowa w Rzeczenicy Filia Pieni\u0119\u017cnica",
                "name": "Szko\u0142a Podstawowa w Rzeczenicy Filia Pieni\u0119\u017cnica",
                "addr:country": "PL",
                "addr:postcode": "77-304",
                "addr:place": "Pieni\u0119\u017cnica",
                "addr:housenumber": "55",
                "addr:teryt:sym_ul": 750161,
                "contact:email": "szkola@rzeczenica.pl",
                "ref:regon": "271549000",
                "operator": "Gmina Rzeczenica",
                "operator:type": "government",
                "amenity": "school",
                "note": "Parent RSPO: 22396"
            }
        }
    ]
}