{
    "type": "FeatureCollection",
    "features": [
        {
            "id": 5130,
            "type": "Feature",
            "geometry": {
                "type": "Point",
                "coordinates": [
                    17.0087699,
                    53.60718
                ]
            },
            "properties": {
                "isced:level": "1;2",
                "ref:rspo": 5130,
                "official_name": "Szko\u0142a Podstawowa w Krzemieniewie",
                "name": "Szko\u0142a Podstawowa w Krzemieniewie",
                "addr:postcode": "77-330",
                "addr:place": "Krzemieniewo",
                "addr:housenumber": "16",
                "addr:city:simc": 742523,
                "phone": "+48 598322694",
                "email": "spgrazyna@op.pl",
                "ref:regon": "001126826",
                "ref:vatin": "PL8431428942",
                "operator": "Gmina Czarne",
                "operator:type": "government",
                "amenity": "school"
            }
        },
        {
            "id": 16395,
            "type": "Feature",
            "geometry": {
                "type": "Point",
                "coordinates": [
                    16.95095,
                    53.67929
                ]
            },
            "properties": {
                "ref:rspo": 16395,
                "official_name": "Zesp\u00f3\u0142 Szk\u00f3\u0142 Ponadpodstawowych im. Jana Paw\u0142a Ii",
                "name": "Zesp\u00f3\u0142 Szk\u00f3\u0142 Ponadpodstawowych",
                "addr:postcode": "77-330",
                "addr:city": "Czarne",
                "addr:street": "Le\u015bna",
                "addr:housenumber": "2",
                "addr:city:simc": 977309,
                "addr:street:sym_ul": 10898,
                "phone": "+48 598333740",
                "email": "zspczarne.sekretariat@wp.pl",
                "website": "http:\/\/www.zspczarne.pl",
                "ref:regon": "220308667",
                "ref:vatin": "PL8431554500",
                "operator": "Powiat Cz\u0142uchowski",
                "operator:type": "government",
                "landuse": "education",
                "fixme": "amenity=school, amenity=college albo landuse=education w zale\u017cno\u015bci od tego, jakie plac\u00f3wki wchodz\u0105 w sk\u0142ad zespo\u0142u. Sprawd\u017a, kiedy stosowa\u0107 amenity=* a kiedy landuse=education.",
                "note": "Children RSPO: 49344;49531;50270"
            }
        },
        {
            "id": 49344,
            "type": "Feature",
            "geometry": {
                "type": "Point",
                "coordinates": [
                    16.95095,
                    53.67926
                ]
            },
            "properties": {
                "isced:level": "3",
                "ref:rspo": 49344,
                "official_name": "Liceum Og\u00f3lnokszta\u0142c\u0105ce w Czarnem",
                "name": "Liceum Og\u00f3lnokszta\u0142c\u0105ce w Czarnem",
                "addr:postcode": "77-330",
                "addr:city": "Czarne",
                "addr:street": "Le\u015bna",
                "addr:housenumber": "2",
                "addr:city:simc": 977309,
                "addr:street:sym_ul": 10898,
                "phone": "+48 598333740",
                "email": "zspczarne.sekretariat@wp.pl",
                "website": "http:\/\/www.zspczarne.pl",
                "ref:regon": "220225036",
                "operator": "Powiat Cz\u0142uchowski",
                "operator:type": "government",
                "amenity": "school",
                "note": "Parent RSPO: 16395"
            }
        },
        {
            "id": 49531,
            "type": "Feature",
            "geometry": {
                "type": "Point",
                "coordinates": [
                    16.95095,
                    53.679230000000004
                ]
            },
            "properties": {
                "isced:level": "3",
                "ref:rspo": 49531,
                "official_name": "Bran\u017cowa Szko\u0142a I Stopnia",
                "name": "Bran\u017cowa Szko\u0142a I Stopnia",
                "addr:postcode": "77-330",
                "addr:city": "Czarne",
                "addr:street": "Le\u015bna",
                "addr:housenumber": "2",
                "addr:city:simc": 977309,
                "addr:street:sym_ul": 10898,
                "phone": "+48 598333740",
                "email": "zspczarne.sekretariat@wp.pl",
                "website": "http:\/\/www.zspczarne.pl",
                "ref:regon": "220481555",
                "operator": "Powiat Cz\u0142uchowski",
                "operator:type": "government",
                "amenity": "school",
                "note": "Parent RSPO: 16395"
            }
        },
        {
            "id": 50270,
            "type": "Feature",
            "geometry": {
                "type": "Point",
                "coordinates": [
                    16.95095,
                    53.6792
                ]
            },
            "properties": {
                "isced:level": "3",
                "ref:rspo": 50270,
                "official_name": "Technikum w Czarnem",
                "name": "Technikum w Czarnem",
                "addr:postcode": "77-330",
                "addr:city": "Czarne",
                "addr:street": "Le\u015bna",
                "addr:housenumber": "2",
                "addr:city:simc": 977309,
                "addr:street:sym_ul": 10898,
                "phone": "+48 598333740",
                "email": "zspczarne.sekretariat@wp.pl",
                "website": "http:\/\/www.zspczarne.pl",
                "ref:regon": "220225042",
                "operator": "Powiat Cz\u0142uchowski",
                "operator:type": "government",
                "amenity": "school",
                "note": "Parent RSPO: 16395"
            }
        },
        {
            "id": 22047,
            "type": "Feature",
            "geometry": {
                "type": "Point",
                "coordinates": [
                    16.94058,
                    53.68142
                ]
            },
            "properties": {
                "isced:level": "1;2",
                "ref:rspo": 22047,
                "official_name": "Szko\u0142a Podstawowa im. Danuty Siedzik\u00f3wny Ps. Inka",
                "name": "Szko\u0142a Podstawowa",
                "addr:postcode": "77-330",
                "addr:city": "Czarne",
                "addr:street": "Parkowa",
                "addr:housenumber": "4",
                "addr:city:simc": 977309,
                "addr:street:sym_ul": 15710,
                "phone": "+48 598332741",
                "email": "zsczarne@wp.pl",
                "website": "http:\/\/www.spczarne.pl",
                "ref:regon": "771602673",
                "ref:vatin": "PL8431445679",
                "operator": "Gmina Czarne",
                "operator:type": "government",
                "amenity": "school"
            }
        },
        {
            "id": 7069,
            "type": "Feature",
            "geometry": {
                "type": "Point",
                "coordinates": [
                    16.95011,
                    53.68171
                ]
            },
            "properties": {
                "isced:level": "3",
                "ref:rspo": 7069,
                "official_name": "Liceum Og\u00f3lnokszta\u0142c\u0105ce dla Doros\u0142ych",
                "name": "Liceum Og\u00f3lnokszta\u0142c\u0105ce dla Doros\u0142ych",
                "addr:postcode": "77-330",
                "addr:place": "Czarne",
                "addr:housenumber": "1",
                "addr:city:simc": 977309,
                "phone": "+48 598330670",
                "email": "cku_czarne@sw.gov.pl",
                "ref:regon": "221734596",
                "operator": "Ministerstwo Sprawiedliwo\u015bci",
                "operator:type": "government",
                "amenity": "school",
                "note": "Parent RSPO: 4255"
            }
        },
        {
            "id": 5131,
            "type": "Feature",
            "geometry": {
                "type": "Point",
                "coordinates": [
                    16.93757,
                    53.68199
                ]
            },
            "properties": {
                "ref:rspo": 5131,
                "official_name": "Przedszkole Gminne w Czarnem",
                "name": "Przedszkole Gminne w Czarnem",
                "addr:postcode": "77-330",
                "addr:city": "Czarne",
                "addr:street": "Parkowa",
                "addr:housenumber": "7",
                "addr:city:simc": 977309,
                "addr:street:sym_ul": 15710,
                "phone": "+48 598332714",
                "email": "naszeprzedszkole7@wp.pl",
                "website": "http:\/\/www.oswiata.czarne.pl",
                "ref:regon": "000893587",
                "ref:vatin": "PL8431428847",
                "operator": "Gmina Czarne",
                "operator:type": "government",
                "amenity": "kindergarten"
            }
        },
        {
            "id": 4255,
            "type": "Feature",
            "geometry": {
                "type": "Point",
                "coordinates": [
                    16.92083,
                    53.68262
                ]
            },
            "properties": {
                "ref:rspo": 4255,
                "official_name": "Centrum Kszta\u0142cenia Ustawicznego Przy Zak\u0142adzie Karnym w Czarnem",
                "name": "Centrum Kszta\u0142cenia Ustawicznego Przy Zak\u0142adzie Karnym w Czarnem",
                "addr:postcode": "77-330",
                "addr:city": "Czarne",
                "addr:street": "Pomorska",
                "addr:housenumber": "1",
                "addr:city:simc": 977309,
                "addr:street:sym_ul": 17088,
                "phone": "+48 598330670",
                "email": "cku_czarne@sw.gov.pl",
                "ref:regon": "220234450",
                "operator": "Ministerstwo Sprawiedliwo\u015bci",
                "operator:type": "government",
                "amenity": "school",
                "fixme": "amenity=school lub amenity=college",
                "note": "Children RSPO: 7069;20177"
            }
        },
        {
            "id": 20177,
            "type": "Feature",
            "geometry": {
                "type": "Point",
                "coordinates": [
                    16.92083,
                    53.68259
                ]
            },
            "properties": {
                "isced:level": "1;2",
                "ref:rspo": 20177,
                "official_name": "Szko\u0142a Podstawowa dla Doros\u0142ych",
                "name": "Szko\u0142a Podstawowa dla Doros\u0142ych",
                "addr:postcode": "77-330",
                "addr:city": "Czarne",
                "addr:street": "Pomorska",
                "addr:housenumber": "1",
                "addr:city:simc": 977309,
                "addr:street:sym_ul": 17088,
                "phone": "+48 598330670",
                "email": "cku_czarne@sw.gov.pl",
                "ref:regon": "221749333",
                "operator": "Ministerstwo Sprawiedliwo\u015bci",
                "operator:type": "government",
                "amenity": "school",
                "note": "Parent RSPO: 4255"
            }
        },
        {
            "id": 5129,
            "type": "Feature",
            "geometry": {
                "type": "Point",
                "coordinates": [
                    17.04319,
                    53.68773
                ]
            },
            "properties": {
                "isced:level": "1;2",
                "ref:rspo": 5129,
                "official_name": "Szko\u0142a Podstawowa w Wyczechach",
                "name": "Szko\u0142a Podstawowa w Wyczechach",
                "addr:postcode": "77-330",
                "addr:place": "Wyczechy",
                "addr:housenumber": "29",
                "addr:city:simc": 1005198,
                "phone": "+48 598333328",
                "email": "spwyczechy1@wp.pl",
                "ref:regon": "001126810",
                "ref:vatin": "PL8431428882",
                "operator": "Gmina Czarne",
                "operator:type": "government",
                "amenity": "school"
            }
        }
    ]
}