{
    "type": "FeatureCollection",
    "features": [
        {
            "id": 34753,
            "type": "Feature",
            "geometry": {
                "type": "Point",
                "coordinates": [
                    17.38851,
                    53.53845
                ]
            },
            "properties": {
                "isced:level": "1;2",
                "ref:rspo": 34753,
                "official_name": "Szko\u0142a Podstawowa w Starym Gronowie",
                "name": "Szko\u0142a Podstawowa w Starym Gronowie",
                "addr:country": "PL",
                "addr:postcode": "77-310",
                "addr:place": "Stare Gronowo",
                "addr:housenumber": "2",
                "addr:teryt:sym_ul": 743847,
                "contact:phone": "+48 598337025",
                "contact:email": "staregronowo@gmail.com",
                "contact:website": "http:\/\/www.staregronowo.szkolna.net",
                "ref:regon": "001126750",
                "ref:vatin": "PL8431534265",
                "operator": "Gmina Debrzno",
                "operator:type": "government",
                "amenity": "school"
            }
        },
        {
            "id": 47211,
            "type": "Feature",
            "geometry": {
                "type": "Point",
                "coordinates": [
                    17.22854,
                    53.53938
                ]
            },
            "properties": {
                "ref:rspo": 47211,
                "official_name": "Przedszkole Miejskie im.jana Brzechwy",
                "name": "Przedszkole Miejskie im.jana Brzechwy",
                "addr:country": "PL",
                "addr:postcode": "77-310",
                "addr:city": "Debrzno",
                "addr:street": "Ogrodowa",
                "addr:housenumber": "20",
                "addr:teryt:simc": 14834,
                "addr:teryt:sym_ul": 977338,
                "contact:phone": "+48 598335217",
                "contact:email": "przedszkolemiejskiedebrzno@wp.pl",
                "ref:regon": "000893593",
                "ref:vatin": "PL8431362781",
                "operator": "Gmina Debrzno",
                "operator:type": "government",
                "amenity": "kindergarten"
            }
        },
        {
            "id": 114477,
            "type": "Feature",
            "geometry": {
                "type": "Point",
                "coordinates": [
                    17.38035,
                    53.54015
                ]
            },
            "properties": {
                "isced:level": "3",
                "ref:rspo": 114477,
                "official_name": "Liceum Og\u00f3lnokszta\u0142c\u0105ce dla Doros\u0142ych Progres w Cz\u0142uchowie",
                "name": "Liceum Og\u00f3lnokszta\u0142c\u0105ce dla Doros\u0142ych Progres w Cz\u0142uchowie",
                "addr:country": "PL",
                "addr:postcode": "77-310",
                "addr:place": "Stare Gronowo",
                "addr:housenumber": "49",
                "addr:door": "1",
                "addr:teryt:sym_ul": 743847,
                "contact:phone": "+48 791316681",
                "ref:regon": "221877769",
                "operator": "Monika Malak",
                "operator:type": "private",
                "amenity": "school"
            }
        },
        {
            "id": 114534,
            "type": "Feature",
            "geometry": {
                "type": "Point",
                "coordinates": [
                    17.38035,
                    53.540119999999995
                ]
            },
            "properties": {
                "isced:level": "4",
                "ref:rspo": 114534,
                "official_name": "Szko\u0142a Policealna Progres w Cz\u0142uchowie",
                "name": "Szko\u0142a Policealna Progres w Cz\u0142uchowie",
                "addr:country": "PL",
                "addr:postcode": "77-310",
                "addr:place": "Stare Gronowo",
                "addr:housenumber": "49",
                "addr:door": "1",
                "addr:teryt:sym_ul": 743847,
                "contact:phone": "+48 791316681",
                "ref:regon": "221879290",
                "operator": "Monika Malak",
                "operator:type": "private",
                "amenity": "college"
            }
        },
        {
            "id": 25083,
            "type": "Feature",
            "geometry": {
                "type": "Point",
                "coordinates": [
                    17.23414,
                    53.5414699
                ]
            },
            "properties": {
                "ref:rspo": 25083,
                "official_name": "M\u0142odzie\u017cowy O\u015brodek Wychowawczy w Debrznie",
                "name": "M\u0142odzie\u017cowy O\u015brodek Wychowawczy w Debrznie",
                "addr:country": "PL",
                "addr:postcode": "77-310",
                "addr:city": "Debrzno",
                "addr:street": "Kr\u00f3lewska",
                "addr:housenumber": "5",
                "addr:teryt:simc": 9987,
                "addr:teryt:sym_ul": 977338,
                "contact:phone": "+48 598335158",
                "contact:email": "sekretariat@mowdebrzno.pl",
                "contact:website": "http:\/\/www.mowdebrzno.pl\/",
                "ref:regon": "000194889",
                "ref:vatin": "PL8431415744",
                "operator": "Powiat Cz\u0142uchowski",
                "operator:type": "government",
                "fixme": "amenity=social_facility + social_facility=group_home + social_facility:for=juvenile",
                "note": "Children RSPO: 55513;264105"
            }
        },
        {
            "id": 55513,
            "type": "Feature",
            "geometry": {
                "type": "Point",
                "coordinates": [
                    17.23414,
                    53.5414399
                ]
            },
            "properties": {
                "isced:level": "1;2",
                "ref:rspo": 55513,
                "official_name": "Szko\u0142a Podstawowa Nr 2",
                "name": "Szko\u0142a Podstawowa Nr 2",
                "addr:country": "PL",
                "addr:postcode": "77-300",
                "addr:city": "Debrzno",
                "addr:street": "Kr\u00f3lewska",
                "addr:housenumber": "5",
                "addr:teryt:simc": 9987,
                "addr:teryt:sym_ul": 977338,
                "contact:phone": "+48 598337285",
                "ref:regon": "771601113",
                "operator": "Powiat Cz\u0142uchowski",
                "operator:type": "government",
                "amenity": "school",
                "note": "Parent RSPO: 25083"
            }
        },
        {
            "id": 264105,
            "type": "Feature",
            "geometry": {
                "type": "Point",
                "coordinates": [
                    17.23414,
                    53.541409900000005
                ]
            },
            "properties": {
                "isced:level": "3",
                "ref:rspo": 264105,
                "official_name": "Bran\u017cowa Szko\u0142a I Stopnia",
                "name": "Bran\u017cowa Szko\u0142a I Stopnia",
                "addr:country": "PL",
                "addr:postcode": "77-310",
                "addr:city": "Debrzno",
                "addr:street": "Kr\u00f3lewska",
                "addr:housenumber": "5",
                "addr:teryt:simc": 9987,
                "addr:teryt:sym_ul": 977338,
                "contact:phone": "+48 598337285",
                "contact:email": "mowdebrzno@poczta.onet.pl",
                "ref:regon": "368262947",
                "operator": "Powiat Cz\u0142uchowski",
                "operator:type": "government",
                "amenity": "school",
                "note": "Parent RSPO: 25083"
            }
        },
        {
            "id": 47147,
            "type": "Feature",
            "geometry": {
                "type": "Point",
                "coordinates": [
                    17.2323099,
                    53.54282
                ]
            },
            "properties": {
                "isced:level": "1;2",
                "ref:rspo": 47147,
                "official_name": "Szko\u0142a Podstawowa w Debrznie",
                "name": "Szko\u0142a Podstawowa w Debrznie",
                "addr:country": "PL",
                "addr:postcode": "77-310",
                "addr:city": "Debrzno",
                "addr:street": "Kr\u00f3lewska",
                "addr:housenumber": "8",
                "addr:teryt:simc": 9987,
                "addr:teryt:sym_ul": 977338,
                "contact:phone": "+48 598335333",
                "contact:email": "gimdeb@onet.pl",
                "contact:website": "http:\/\/www.zsdebrznosuperszkolna.pl",
                "ref:regon": "221761133",
                "operator": "Gmina Debrzno",
                "operator:type": "government",
                "amenity": "school"
            }
        },
        {
            "id": 125214,
            "type": "Feature",
            "geometry": {
                "type": "Point",
                "coordinates": [
                    17.2323099,
                    53.54279
                ]
            },
            "properties": {
                "ref:rspo": 125214,
                "official_name": "Niepubliczna Poradnia Psychologiczno - Pedagogiczna \"Ja\u015b I Ma\u0142gosia\"",
                "name": "Niepubliczna Poradnia Psychologiczno - Pedagogiczna \"Ja\u015b I Ma\u0142gosia\"",
                "addr:country": "PL",
                "addr:postcode": "77-310",
                "addr:city": "Debrzno",
                "addr:street": "Kr\u00f3lewska",
                "addr:housenumber": "8",
                "addr:teryt:simc": 9987,
                "addr:teryt:sym_ul": 977338,
                "contact:email": "sekretariat@fikk.pl",
                "ref:regon": "222163061",
                "ref:vatin": "PL6731788371",
                "operator": "\"Ja\u015b I Ma\u0142gosia\" Szko\u0142y I Plac\u00f3wki Terapeutyczne",
                "operator:type": "ngo",
                "healthcare": "counselling",
                "counselling_type": "education",
                "fixme": "w zale\u017cno\u015bci od przedmiotu dzia\u0142alno\u015bci (np. healthcare=counselling + counselling_type=education albo healthcare=psychotherapist)"
            }
        },
        {
            "id": 34569,
            "type": "Feature",
            "geometry": {
                "type": "Point",
                "coordinates": [
                    17.29857,
                    53.56621
                ]
            },
            "properties": {
                "isced:level": "1;2",
                "ref:rspo": 34569,
                "official_name": "Szko\u0142a Podstawowa w My\u015bligoszczy",
                "name": "Szko\u0142a Podstawowa w My\u015bligoszczy",
                "addr:country": "PL",
                "addr:postcode": "77-310",
                "addr:place": "My\u015bligoszcz",
                "addr:housenumber": "42",
                "addr:teryt:sym_ul": 743675,
                "contact:email": "sp_mysl@wp.pl",
                "contact:website": "http:\/\/spmysligoszcz.eu",
                "ref:regon": "001126743",
                "ref:vatin": "PL8431534242",
                "operator": "Gmina Debrzno",
                "operator:type": "government",
                "amenity": "school"
            }
        },
        {
            "id": 34394,
            "type": "Feature",
            "geometry": {
                "type": "Point",
                "coordinates": [
                    17.13332,
                    53.59788
                ]
            },
            "properties": {
                "isced:level": "1;2",
                "ref:rspo": 34394,
                "official_name": "Szko\u0142a Podstawowa w Uniechowie",
                "name": "Szko\u0142a Podstawowa w Uniechowie",
                "addr:country": "PL",
                "addr:postcode": "77-310",
                "addr:place": "Uniech\u00f3w",
                "addr:housenumber": "16",
                "addr:teryt:sym_ul": 743882,
                "contact:phone": "+48 598321850",
                "contact:email": "szkolauniechow@wp.pl",
                "contact:website": "http:\/\/www.spuniechow.szkolnastrona.pl\/",
                "ref:regon": "001126766",
                "ref:vatin": "PL8431534259",
                "operator": "Gmina Debrzno",
                "operator:type": "government",
                "amenity": "school"
            }
        }
    ]
}