{
    "type": "FeatureCollection",
    "features": [
        {
            "id": 49650,
            "type": "Feature",
            "geometry": {
                "type": "Point",
                "coordinates": [
                    19.6030975,
                    49.7769165
                ]
            },
            "properties": {
                "ref:rspo": 49650,
                "official_name": "Zesp\u00f3\u0142 Szk\u00f3\u0142 w Zembrzycach",
                "name": "Zesp\u00f3\u0142 Szk\u00f3\u0142 w Zembrzycach",
                "addr:postcode": "34-210",
                "addr:place": "Zembrzyce",
                "addr:housenumber": "490",
                "addr:city:simc": 79148,
                "phone": "+48 338746653",
                "email": "gim_zem@poczta.onet.pl",
                "ref:regon": "356556977",
                "ref:vatin": "PL5521542634",
                "operator": "Gmina Zembrzyce",
                "operator:type": "government",
                "landuse": "education",
                "fixme": "amenity=school, amenity=college albo landuse=education w zale\u017cno\u015bci od tego, jakie plac\u00f3wki wchodz\u0105 w sk\u0142ad zespo\u0142u. Sprawd\u017a, kiedy stosowa\u0107 amenity=* a kiedy landuse=education.",
                "note": "Children RSPO: 61498;61499"
            }
        },
        {
            "id": 61498,
            "type": "Feature",
            "geometry": {
                "type": "Point",
                "coordinates": [
                    19.6030975,
                    49.776886499999996
                ]
            },
            "properties": {
                "ref:rspo": 61498,
                "official_name": "Zesp\u00f3\u0142 Szk\u00f3\u0142-Przedszkole w Zembrzycach",
                "name": "Zesp\u00f3\u0142 Szk\u00f3\u0142-Przedszkole w Zembrzycach",
                "addr:postcode": "34-210",
                "addr:place": "Zembrzyce",
                "addr:housenumber": "490",
                "addr:city:simc": 79148,
                "email": "gim_zem@poczta.onet.pl",
                "ref:regon": "357052977",
                "operator": "Gmina Zembrzyce",
                "operator:type": "government",
                "amenity": "kindergarten",
                "note": "Parent RSPO: 49650"
            }
        },
        {
            "id": 61499,
            "type": "Feature",
            "geometry": {
                "type": "Point",
                "coordinates": [
                    19.6030975,
                    49.7768565
                ]
            },
            "properties": {
                "isced:level": "1;2",
                "ref:rspo": 61499,
                "official_name": "Zesp\u00f3\u0142 Szk\u00f3\u0142-Szko\u0142a Podstawowa w Zembrzycach",
                "name": "Zesp\u00f3\u0142 Szk\u00f3\u0142-Szko\u0142a Podstawowa w Zembrzycach",
                "addr:postcode": "34-210",
                "addr:place": "Zembrzyce",
                "addr:housenumber": "490",
                "addr:city:simc": 79148,
                "phone": "+48 338746653",
                "email": "gim_zem@poczta.onet.pl",
                "website": "http:\/\/www.zszembrzyce.supreszkolna.pl",
                "ref:regon": "070449547",
                "operator": "Gmina Zembrzyce",
                "operator:type": "government",
                "amenity": "school",
                "note": "Parent RSPO: 49650"
            }
        },
        {
            "id": 272548,
            "type": "Feature",
            "geometry": {
                "type": "Point",
                "coordinates": [
                    19.50304,
                    49.77872
                ]
            },
            "properties": {
                "ref:rspo": 272548,
                "official_name": "O\u015brodek Rehabilitacyjno-Edukacyjno-Wychowawczy w Tarnawie G\u00f3rnej",
                "name": "O\u015brodek Rehabilitacyjno-Edukacyjno-Wychowawczy w Tarnawie G\u00f3rnej",
                "addr:postcode": "34-210",
                "addr:place": "Tarnawa G\u00f3rna",
                "addr:housenumber": "61",
                "addr:city:simc": 79065,
                "phone": "+48 338763964",
                "email": "katarzynaczaicka.orew@gmail.com",
                "website": "http:\/\/www.orewtarnawa.pl",
                "ref:regon": "384263414",
                "operator": "Polskie Stowarzyszenie Na Rzecz Os\u00f3b Z Niepe\u0142nosprawno\u015bci\u0105 Intelektualn\u0105 Ko\u0142o W Zawoi",
                "operator:type": "ngo",
                "amenity": "school"
            }
        },
        {
            "id": 61496,
            "type": "Feature",
            "geometry": {
                "type": "Point",
                "coordinates": [
                    19.5651447,
                    49.7790359
                ]
            },
            "properties": {
                "isced:level": "1;2",
                "ref:rspo": 61496,
                "official_name": "Szko\u0142a Podstawowa im. Marii Konopnickiej w Tarnawie Dolnej",
                "name": "Szko\u0142a Podstawowa",
                "addr:postcode": "34-210",
                "addr:place": "Tarnawa Dolna",
                "addr:housenumber": "272",
                "addr:city:simc": 78812,
                "phone": "+48 338746707",
                "email": "gim_tar@poczta.onet.pl",
                "website": "http:\/\/zstarnawadolna.superszkolna.pl",
                "ref:regon": "070449524",
                "ref:vatin": "PL5521542640",
                "operator": "Gmina Zembrzyce",
                "operator:type": "government",
                "amenity": "school"
            }
        },
        {
            "id": 49641,
            "type": "Feature",
            "geometry": {
                "type": "Point",
                "coordinates": [
                    19.52681,
                    49.78336
                ]
            },
            "properties": {
                "isced:level": "1;2",
                "ref:rspo": 49641,
                "official_name": "Szko\u0142a Podstawowa im.dywizjonu 303 w \u015aleszowicach",
                "name": "Szko\u0142a Podstawowa im.dywizjonu 303 w \u015aleszowicach",
                "addr:postcode": "34-210",
                "addr:place": "\u015aleszowice",
                "addr:housenumber": "166a",
                "addr:city:simc": 78611,
                "phone": "+48 338746327",
                "email": "spsleszowice@wp.pl",
                "website": "http:\/\/spsleszowice.superszkolna.pl",
                "ref:regon": "070449553",
                "ref:vatin": "PL5521512969",
                "operator": "Gmina Zembrzyce",
                "operator:type": "government",
                "amenity": "school"
            }
        },
        {
            "id": 49647,
            "type": "Feature",
            "geometry": {
                "type": "Point",
                "coordinates": [
                    19.629804,
                    49.783971
                ]
            },
            "properties": {
                "isced:level": "1;2",
                "ref:rspo": 49647,
                "official_name": "Szko\u0142a Podstawowa im. Bohater\u00f3w Westerplatte w Marc\u00f3wce",
                "name": "Szko\u0142a Podstawowa",
                "addr:postcode": "34-210",
                "addr:place": "Marc\u00f3wka",
                "addr:housenumber": "120",
                "addr:city:simc": 78433,
                "phone": "+48 338746023",
                "email": "sp_marcowka@op.pl",
                "website": "http:\/\/spmarcowka.xip.pl, spmarcowka.szkolnastrona.pl",
                "ref:regon": "070449530",
                "ref:vatin": "PL5521512975",
                "operator": "Gmina Zembrzyce",
                "operator:type": "government",
                "amenity": "school"
            }
        }
    ]
}