{
    "type": "FeatureCollection",
    "features": [
        {
            "id": 268661,
            "type": "Feature",
            "geometry": {
                "type": "Point",
                "coordinates": [
                    19.70311,
                    49.69476
                ]
            },
            "properties": {
                "ref:rspo": 268661,
                "official_name": "Niepubliczne Przedszkole T\u0119czowa Kraina w Juszczynie",
                "name": "Niepubliczne Przedszkole T\u0119czowa Kraina w Juszczynie",
                "addr:country": "PL",
                "addr:postcode": "34-231",
                "addr:place": "Juszczyn",
                "addr:housenumber": "53",
                "addr:teryt:sym_ul": 60717,
                "contact:phone": "+48 604079552",
                "contact:email": "dana333b6@wp.pl",
                "ref:regon": "381224922",
                "operator": "Danuta Rusin",
                "operator:type": "private",
                "amenity": "kindergarten"
            }
        },
        {
            "id": 88872,
            "type": "Feature",
            "geometry": {
                "type": "Point",
                "coordinates": [
                    19.7032366,
                    49.6947849
                ]
            },
            "properties": {
                "isced:level": "1;2",
                "ref:rspo": 88872,
                "official_name": "Szko\u0142a Podstawowa im.\u015bw.jadwigi Kr\u00f3lowej Polski w Juszczynie",
                "name": "Szko\u0142a Podstawowa im.\u015bw.jadwigi Kr\u00f3lowej Polski w Juszczynie",
                "addr:country": "PL",
                "addr:postcode": "34-231",
                "addr:place": "Juszczyn",
                "addr:housenumber": "268",
                "addr:teryt:sym_ul": 60717,
                "contact:phone": "+48 338773886",
                "contact:email": "sp.juszczyn@makow-podhalanski.pl",
                "contact:website": "http:\/\/www.spjuszczyn.pl",
                "ref:regon": "070704531",
                "ref:vatin": "PL5521566971",
                "operator": "Gmina Mak\u00f3w Podhala\u0144ski",
                "operator:type": "government",
                "amenity": "school"
            }
        },
        {
            "id": 42519,
            "type": "Feature",
            "geometry": {
                "type": "Point",
                "coordinates": [
                    19.732759,
                    49.695661
                ]
            },
            "properties": {
                "isced:level": "1;2",
                "ref:rspo": 42519,
                "official_name": "Szko\u0142a Podstawowa im.fryderyka Chopina w Kojsz\u00f3wce",
                "name": "Szko\u0142a Podstawowa im.fryderyka Chopina w Kojsz\u00f3wce",
                "addr:country": "PL",
                "addr:postcode": "34-231",
                "addr:place": "Kojsz\u00f3wka",
                "addr:housenumber": "154",
                "addr:teryt:sym_ul": 61208,
                "contact:phone": "+48 338771155",
                "contact:email": "sp.kojszowka@makow-podhalanski.pl",
                "contact:website": "https:\/\/spkojszowka.szkolnastrona.pl\/",
                "ref:regon": "070704560",
                "ref:vatin": "PL5521514000",
                "operator": "Gmina Mak\u00f3w Podhala\u0144ski",
                "operator:type": "government",
                "amenity": "school"
            }
        },
        {
            "id": 77463,
            "type": "Feature",
            "geometry": {
                "type": "Point",
                "coordinates": [
                    19.7084248,
                    49.697218
                ]
            },
            "properties": {
                "ref:rspo": 77463,
                "official_name": "O\u015brodek Rehabilitacyjno - Edukacyjno - Wychowawczy w Juszczynie",
                "name": "O\u015brodek Rehabilitacyjno - Edukacyjno - Wychowawczy w Juszczynie",
                "addr:country": "PL",
                "addr:postcode": "34-231",
                "addr:place": "Juszczyn",
                "addr:housenumber": "542b",
                "addr:teryt:sym_ul": 60717,
                "contact:phone": "+48 338771510",
                "contact:email": "orew.juszczyn@psoni.org.pl",
                "contact:website": "http:\/\/www.orewjuszczyn.pl",
                "ref:regon": "122708894",
                "operator": "Polskie Stowarzyszenie Na Rzecz Os\u00f3b Z Niepe\u0142nosprawno\u015bci\u0105 Intelektualn\u0105 Ko\u0142o W Zawoi",
                "operator:type": "ngo",
                "amenity": "school"
            }
        },
        {
            "id": 88870,
            "type": "Feature",
            "geometry": {
                "type": "Point",
                "coordinates": [
                    19.675853,
                    49.6999969
                ]
            },
            "properties": {
                "isced:level": "1;2",
                "ref:rspo": 88870,
                "official_name": "Szko\u0142a Podstawowa im.miko\u0142aja Kopernika w Bia\u0142ce",
                "name": "Szko\u0142a Podstawowa im.miko\u0142aja Kopernika w Bia\u0142ce",
                "addr:country": "PL",
                "addr:postcode": "34-220",
                "addr:place": "Bia\u0142ka",
                "addr:housenumber": "334",
                "addr:teryt:sym_ul": 59967,
                "contact:phone": "+48 338771683",
                "contact:email": "sp.bialka@makow-podhalanski.pl",
                "contact:website": "http:\/\/spbialka.szkolnastrona.pl",
                "ref:regon": "070704519",
                "ref:vatin": "PL5521566965",
                "operator": "Gmina Mak\u00f3w Podhala\u0144ski",
                "operator:type": "government",
                "amenity": "school"
            }
        },
        {
            "id": 88867,
            "type": "Feature",
            "geometry": {
                "type": "Point",
                "coordinates": [
                    19.7653611,
                    49.712343
                ]
            },
            "properties": {
                "isced:level": "1;2",
                "ref:rspo": 88867,
                "official_name": "Szko\u0142a Podstawowa im.mieczys\u0142awa Kar\u0142owicza w Wieprzcu",
                "name": "Szko\u0142a Podstawowa im.mieczys\u0142awa Kar\u0142owicza w Wieprzcu",
                "addr:country": "PL",
                "addr:postcode": "34-231",
                "addr:place": "Wieprzec",
                "addr:housenumber": "100",
                "addr:teryt:sym_ul": 61384,
                "contact:phone": "+48 338771117",
                "contact:email": "sp.wieprzec@makow-podhalanski.pl",
                "contact:website": "http:\/\/sp.wieprzec.szkolnastrona.pl",
                "ref:regon": "070704577",
                "ref:vatin": "PL5521514098",
                "operator": "Gmina Mak\u00f3w Podhala\u0144ski",
                "operator:type": "government",
                "amenity": "school"
            }
        },
        {
            "id": 88875,
            "type": "Feature",
            "geometry": {
                "type": "Point",
                "coordinates": [
                    19.637653,
                    49.7135169
                ]
            },
            "properties": {
                "isced:level": "1;2",
                "ref:rspo": 88875,
                "official_name": "Szko\u0142a Podstawowa im. Miko\u0142aja Reja w Grzechyni",
                "name": "Szko\u0142a Podstawowa",
                "addr:country": "PL",
                "addr:postcode": "34-220",
                "addr:place": "Grzechynia",
                "addr:housenumber": "314",
                "addr:teryt:sym_ul": 60255,
                "contact:phone": "+48 338771661",
                "contact:email": "sp.grzechynia@makow-podhalanski.pl",
                "contact:website": "http:\/\/zsgrzechynia.szkolnastrona.pl",
                "ref:regon": "070704525",
                "ref:vatin": "PL5521581396",
                "operator": "Gmina Mak\u00f3w Podhala\u0144ski",
                "operator:type": "government",
                "amenity": "school"
            }
        },
        {
            "id": 64879,
            "type": "Feature",
            "geometry": {
                "type": "Point",
                "coordinates": [
                    19.67374,
                    49.72838
                ]
            },
            "properties": {
                "isced:level": "1;2",
                "ref:rspo": 64879,
                "official_name": "Szko\u0142a Podstawowa Specjalna w Specjalnym O\u015brodku Szkolno-Wychowawczym w Makowie Podhala\u0144skim",
                "name": "Szko\u0142a Podstawowa Specjalna w Specjalnym O\u015brodku Szkolno-Wychowawczym w Makowie Podhala\u0144skim",
                "addr:country": "PL",
                "addr:postcode": "34-220",
                "addr:city": "Mak\u00f3w Podhala\u0144ski",
                "addr:street": "Orkana",
                "addr:housenumber": "24",
                "addr:teryt:simc": 15139,
                "addr:teryt:sym_ul": 924537,
                "contact:phone": "+48 338772130",
                "contact:email": "sosw@soswmakow.pl",
                "contact:website": "http:\/\/www.soswmakow.pl",
                "ref:regon": "356733907",
                "operator": "Powiat Suski",
                "operator:type": "government",
                "amenity": "school",
                "note": "Parent RSPO: 44471"
            }
        },
        {
            "id": 64880,
            "type": "Feature",
            "geometry": {
                "type": "Point",
                "coordinates": [
                    19.67374,
                    49.72835
                ]
            },
            "properties": {
                "ref:rspo": 64880,
                "official_name": "Szko\u0142a Specjalna Przysposabiaj\u0105ca Do Pracy",
                "name": "Szko\u0142a Specjalna Przysposabiaj\u0105ca Do Pracy",
                "addr:country": "PL",
                "addr:postcode": "34-220",
                "addr:city": "Mak\u00f3w Podhala\u0144ski",
                "addr:street": "Orkana",
                "addr:housenumber": "24",
                "addr:teryt:simc": 15139,
                "addr:teryt:sym_ul": 924537,
                "contact:phone": "+48 338771527",
                "contact:email": "sosw@soswmakow.pl",
                "contact:website": "http:\/\/www.soswmakow.pl",
                "ref:regon": "120279331",
                "operator": "Powiat Suski",
                "operator:type": "government",
                "amenity": "school",
                "note": "Parent RSPO: 44471"
            }
        },
        {
            "id": 41141,
            "type": "Feature",
            "geometry": {
                "type": "Point",
                "coordinates": [
                    19.66897,
                    49.73008
                ]
            },
            "properties": {
                "ref:rspo": 41141,
                "official_name": "Zesp\u00f3\u0142 Szk\u00f3\u0142 w Makowie Podhala\u0144skim",
                "name": "Zesp\u00f3\u0142 Szk\u00f3\u0142 w Makowie Podhala\u0144skim",
                "addr:country": "PL",
                "addr:postcode": "34-220",
                "addr:city": "Mak\u00f3w Podhala\u0144ski",
                "addr:street": "Wolno\u015bci",
                "addr:housenumber": "53",
                "addr:teryt:simc": 24687,
                "addr:teryt:sym_ul": 924537,
                "contact:phone": "+48 338771616",
                "contact:email": "zs.makow@makow-podhalanski.pl",
                "contact:website": "http:\/\/www.zsmakow.szkolnastrona.pl",
                "ref:regon": "356349994",
                "ref:vatin": "PL5521566988",
                "operator": "Gmina Mak\u00f3w Podhala\u0144ski",
                "operator:type": "government",
                "landuse": "education",
                "fixme": "amenity=school, amenity=college albo landuse=education w zale\u017cno\u015bci od tego, jakie plac\u00f3wki wchodz\u0105 w sk\u0142ad zespo\u0142u. Sprawd\u017a, kiedy stosowa\u0107 amenity=* a kiedy landuse=education.",
                "note": "Children RSPO: 88877;88878"
            }
        },
        {
            "id": 88877,
            "type": "Feature",
            "geometry": {
                "type": "Point",
                "coordinates": [
                    19.66897,
                    49.73005
                ]
            },
            "properties": {
                "ref:rspo": 88877,
                "official_name": "Zesp\u00f3\u0142 Szk\u00f3\u0142 - Gminne Przedszkole Samorz\u0105dowe w Makowie\n\nPodhala\u0144skim",
                "name": "Zesp\u00f3\u0142 Szk\u00f3\u0142 - Gminne Przedszkole Samorz\u0105dowe w Makowie\n\nPodhala\u0144skim",
                "addr:country": "PL",
                "addr:postcode": "34-220",
                "addr:city": "Mak\u00f3w Podhala\u0144ski",
                "addr:street": "Wolno\u015bci",
                "addr:housenumber": "53",
                "addr:teryt:simc": 24687,
                "addr:teryt:sym_ul": 924537,
                "contact:phone": "+48 338771616",
                "contact:email": "zs.makow@makow-podhalanski.pl",
                "contact:website": "http:\/\/zsmakow.szkolnastrona.pl",
                "ref:regon": "070032818",
                "ref:vatin": "PL5521514069",
                "operator": "Gmina Mak\u00f3w Podhala\u0144ski",
                "operator:type": "government",
                "amenity": "kindergarten",
                "note": "Parent RSPO: 41141"
            }
        },
        {
            "id": 88878,
            "type": "Feature",
            "geometry": {
                "type": "Point",
                "coordinates": [
                    19.66897,
                    49.73002
                ]
            },
            "properties": {
                "isced:level": "1;2",
                "ref:rspo": 88878,
                "official_name": "Zesp\u00f3\u0142 Szk\u00f3\u0142 - Szko\u0142a Podstawowa Nr 1 im.henryka Sienkiewicza w Makowie Podhala\u0144skim",
                "name": "Zesp\u00f3\u0142 Szk\u00f3\u0142 - Szko\u0142a Podstawowa Nr 1 im.henryka Sienkiewicza w Makowie Podhala\u0144skim",
                "addr:country": "PL",
                "addr:postcode": "34-220",
                "addr:city": "Mak\u00f3w Podhala\u0144ski",
                "addr:street": "Wolno\u015bci",
                "addr:housenumber": "53",
                "addr:teryt:simc": 24687,
                "addr:teryt:sym_ul": 924537,
                "contact:phone": "+48 338771616",
                "contact:email": "zs.makow@makow-podhalanski.pl",
                "contact:website": "http:\/\/zsmakow.szkolnastrona.pl",
                "ref:regon": "070704471",
                "ref:vatin": "PL5521513934",
                "operator": "Gmina Mak\u00f3w Podhala\u0144ski",
                "operator:type": "government",
                "amenity": "school",
                "note": "Parent RSPO: 41141"
            }
        },
        {
            "id": 34594,
            "type": "Feature",
            "geometry": {
                "type": "Point",
                "coordinates": [
                    19.67783,
                    49.7301
                ]
            },
            "properties": {
                "ref:rspo": 34594,
                "official_name": "Poradnia Psychologiczno - Pedagogiczna w Makowie Podhala\u0144skim",
                "name": "Poradnia Psychologiczno - Pedagogiczna w Makowie Podhala\u0144skim",
                "addr:country": "PL",
                "addr:postcode": "34-220",
                "addr:city": "Mak\u00f3w Podhala\u0144ski",
                "addr:street": "Rynek",
                "addr:housenumber": "8",
                "addr:teryt:simc": 19253,
                "addr:teryt:sym_ul": 924537,
                "contact:phone": "+48 338742606",
                "contact:email": "ppp@powiatsuski.pl",
                "contact:website": "http:\/\/www.ppp.powiatsuski.pl",
                "ref:regon": "000745600",
                "ref:vatin": "PL5521461829",
                "operator": "Powiat Suski",
                "operator:type": "government",
                "healthcare": "counselling",
                "counselling_type": "education",
                "fixme": "w zale\u017cno\u015bci od przedmiotu dzia\u0142alno\u015bci (np. healthcare=counselling + counselling_type=education albo healthcare=psychotherapist)"
            }
        },
        {
            "id": 44471,
            "type": "Feature",
            "geometry": {
                "type": "Point",
                "coordinates": [
                    19.68302,
                    49.73012
                ]
            },
            "properties": {
                "ref:rspo": 44471,
                "official_name": "Specjalny O\u015brodek Szkolno - Wychowawczy w Makowie Podhalanskim",
                "name": "Specjalny O\u015brodek Szkolno - Wychowawczy w Makowie Podhalanskim",
                "addr:country": "PL",
                "addr:postcode": "34-220",
                "addr:city": "Mak\u00f3w Podhala\u0144ski",
                "addr:street": "Stanis\u0142awa Moniuszki",
                "addr:housenumber": "1",
                "addr:teryt:simc": 13242,
                "addr:teryt:sym_ul": 924537,
                "contact:phone": "+48 338772130",
                "contact:email": "sosw@soswmakow.pl",
                "contact:website": "http:\/\/www.soswmakow.iap.pl",
                "ref:regon": "000196463",
                "ref:vatin": "PL5521233502",
                "operator": "Powiat Suski",
                "operator:type": "government",
                "amenity": "school",
                "note": "Children RSPO: 64879;64880"
            }
        },
        {
            "id": 103562,
            "type": "Feature",
            "geometry": {
                "type": "Point",
                "coordinates": [
                    19.67022,
                    49.7304
                ]
            },
            "properties": {
                "ref:rspo": 103562,
                "official_name": "Przedszkole Niepubliczne \" S\u0142oneczny U\u015bmiech\" w Makowie Podhala\u0144skim",
                "name": "Przedszkole Niepubliczne \" S\u0142oneczny U\u015bmiech\" w Makowie Podhala\u0144skim",
                "addr:country": "PL",
                "addr:postcode": "34-220",
                "addr:city": "Mak\u00f3w Podhala\u0144ski",
                "addr:street": "Wolno\u015bci",
                "addr:housenumber": "52",
                "addr:teryt:simc": 24687,
                "addr:teryt:sym_ul": 924537,
                "contact:phone": "+48 787745558",
                "contact:email": "slonecznyusmiech@poczta.onet.pl",
                "ref:regon": "122736175",
                "ref:vatin": "PL5521383182",
                "operator": "Barbara Pi\u00f3rkowska",
                "operator:type": "private",
                "amenity": "kindergarten"
            }
        },
        {
            "id": 88868,
            "type": "Feature",
            "geometry": {
                "type": "Point",
                "coordinates": [
                    19.67398,
                    49.7304
                ]
            },
            "properties": {
                "ref:rspo": 88868,
                "official_name": "Przedszkole Niepubliczne Zgromadzenia Si\u00f3str Serafitek w Makowie Podhala\u0144skim",
                "name": "Przedszkole Niepubliczne Zgromadzenia Si\u00f3str Serafitek w Makowie Podhala\u0144skim",
                "addr:country": "PL",
                "addr:postcode": "34-220",
                "addr:city": "Mak\u00f3w Podhala\u0144ski",
                "addr:street": "Genera\u0142a Sikorskiego",
                "addr:housenumber": "5",
                "addr:teryt:simc": 37683,
                "addr:teryt:sym_ul": 924537,
                "contact:phone": "+48 338771153",
                "contact:email": "przedszkole.serafitki@op.pl",
                "ref:regon": "122715084",
                "ref:vatin": "PL5521489288",
                "operator": "Zgromadzenie C\u00f3rek Matki Bo\u017cej Bolesnej (Siostry Serafitki) Prowincja O\u015bwi\u0119cimska",
                "operator:type": "religious",
                "amenity": "kindergarten"
            }
        },
        {
            "id": 5569,
            "type": "Feature",
            "geometry": {
                "type": "Point",
                "coordinates": [
                    19.62488,
                    49.73545
                ]
            },
            "properties": {
                "isced:level": "1;2",
                "ref:rspo": 5569,
                "official_name": "Szko\u0142a Podstawowa Stowarzyszenia Przyjaci\u00f3\u0142 Szk\u00f3\u0142 Katolickich im.\u015bw Dzieci Z Fatimy w Makowie Podhala\u0144skim",
                "name": "Szko\u0142a Podstawowa Stowarzyszenia Przyjaci\u00f3\u0142 Szk\u00f3\u0142 Katolickich im.\u015bw Dzieci Z Fatimy w Makowie Podhala\u0144skim",
                "addr:country": "PL",
                "addr:postcode": "34-220",
                "addr:city": "Mak\u00f3w Podhala\u0144ski",
                "addr:street": "Szkolna",
                "addr:housenumber": "3",
                "addr:teryt:simc": 21970,
                "addr:teryt:sym_ul": 924537,
                "contact:phone": "+48 338771676",
                "ref:regon": "243021011",
                "operator": "Stowarzyszenie Przyjaci\u00f3\u0142 Szk\u00f3\u0142 Katolickich",
                "operator:type": "ngo",
                "amenity": "school"
            }
        },
        {
            "id": 88866,
            "type": "Feature",
            "geometry": {
                "type": "Point",
                "coordinates": [
                    19.7600719,
                    49.738098
                ]
            },
            "properties": {
                "isced:level": "1;2",
                "ref:rspo": 88866,
                "official_name": "Szko\u0142a Podstawowa im.jana Paw\u0142a II w \u017barn\u00f3wce",
                "name": "Szko\u0142a Podstawowa im.jana Paw\u0142a II w \u017barn\u00f3wce",
                "addr:country": "PL",
                "addr:postcode": "34-220",
                "addr:place": "\u017barn\u00f3wka",
                "addr:housenumber": "325",
                "addr:teryt:sym_ul": 61480,
                "contact:phone": "+48 338771570",
                "contact:email": "sp.zarnowka@makow-podhalanski.pl",
                "contact:website": "http:\/\/www.spzarnowka.szkolnastrona.pl",
                "ref:regon": "070857275",
                "ref:vatin": "PL5521514075",
                "operator": "Gmina Mak\u00f3w Podhala\u0144ski",
                "operator:type": "government",
                "amenity": "school"
            }
        }
    ]
}