{
    "type": "FeatureCollection",
    "features": [
        {
            "id": 86306,
            "type": "Feature",
            "geometry": {
                "type": "Point",
                "coordinates": [
                    19.72944,
                    49.61146
                ]
            },
            "properties": {
                "isced:level": "1;2",
                "ref:rspo": 86306,
                "official_name": "Szko\u0142a Podstawowa im. Dzieci Zamojszczyzny w Sidzinie",
                "name": "Szko\u0142a Podstawowa",
                "addr:postcode": "34-236",
                "addr:place": "Sidzina",
                "addr:housenumber": "701",
                "addr:city:simc": 419207,
                "phone": "+48 182673182",
                "email": "gimsidzina1@wp.pl",
                "ref:regon": "001128825",
                "ref:vatin": "PL5521549412",
                "operator": "Gmina Bystra-Sidzina W Bystrej Podhala\u0144skiej",
                "operator:type": "government",
                "amenity": "school"
            }
        },
        {
            "id": 84743,
            "type": "Feature",
            "geometry": {
                "type": "Point",
                "coordinates": [
                    19.72762,
                    49.61157
                ]
            },
            "properties": {
                "ref:rspo": 84743,
                "official_name": "Przedszkole Publiczne w Sidzinie",
                "name": "Przedszkole Publiczne w Sidzinie",
                "addr:postcode": "34-236",
                "addr:place": "Sidzina",
                "addr:housenumber": "362",
                "addr:city:simc": 419207,
                "phone": "+48 182673189",
                "email": "barbara.krupa@sidzina.pl",
                "website": "https:\/\/ppsidzina.edupage.org\/",
                "ref:regon": "357171185",
                "ref:vatin": "PL7351059784",
                "operator": "Gmina Bystra-Sidzina W Bystrej Podhala\u0144skiej",
                "operator:type": "government",
                "amenity": "kindergarten"
            }
        },
        {
            "id": 123658,
            "type": "Feature",
            "geometry": {
                "type": "Point",
                "coordinates": [
                    19.74388,
                    49.6153199
                ]
            },
            "properties": {
                "ref:rspo": 123658,
                "official_name": "Chatka Ma\u0142olatka - Przedszkole Niepubliczne",
                "name": "Chatka Ma\u0142olatka - Przedszkole Niepubliczne",
                "addr:postcode": "34-236",
                "addr:place": "Sidzina",
                "addr:housenumber": "983",
                "addr:city:simc": 419207,
                "phone": "+48 509241655",
                "email": "mbinkus@gmail.com",
                "ref:regon": "123169991",
                "ref:vatin": "PL9451208204",
                "operator": "Marzena Binku\u015b-Trzop",
                "operator:type": "private",
                "amenity": "kindergarten"
            }
        },
        {
            "id": 34593,
            "type": "Feature",
            "geometry": {
                "type": "Point",
                "coordinates": [
                    19.70204,
                    49.61893
                ]
            },
            "properties": {
                "ref:rspo": 34593,
                "official_name": "Dom Wczas\u00f3w Dzieci\u0119cych nr 2 w Sidzinie",
                "name": "Dom Wczas\u00f3w Dzieci\u0119cych nr 2 w Sidzinie",
                "addr:postcode": "34-236",
                "addr:place": "Sidzina",
                "addr:housenumber": "602",
                "addr:city:simc": 419207,
                "phone": "+48 182673190",
                "email": "sekretariat@dwd2sidzina.pl",
                "website": "http:\/\/www.dwd2sidzina.pl",
                "ref:regon": "000197818",
                "ref:vatin": "PL7351033856",
                "operator": "Powiat Suski",
                "operator:type": "government",
                "leisure": "resort"
            }
        },
        {
            "id": 73054,
            "type": "Feature",
            "geometry": {
                "type": "Point",
                "coordinates": [
                    19.648052215576,
                    49.69116973877
                ]
            },
            "properties": {
                "ref:rspo": 73054,
                "official_name": "Przedszkole Publiczne w Bystrej Podhala\u0144skiej",
                "name": "Przedszkole Publiczne w Bystrej Podhala\u0144skiej",
                "addr:postcode": "34-235",
                "addr:place": "Bystra Podhala\u0144ska",
                "addr:housenumber": "401",
                "addr:city:simc": 418780,
                "phone": "+48 182681014",
                "email": "ppbystra401@gmail.com",
                "website": "http:\/\/www.ppbystra.eprzedszkola.pl\/",
                "ref:regon": "357171268",
                "ref:vatin": "PL7351059778",
                "operator": "Gmina Bystra-Sidzina W Bystrej Podhala\u0144skiej",
                "operator:type": "government",
                "amenity": "kindergarten"
            }
        },
        {
            "id": 86068,
            "type": "Feature",
            "geometry": {
                "type": "Point",
                "coordinates": [
                    19.648052215576,
                    49.69113973877
                ]
            },
            "properties": {
                "isced:level": "1;2",
                "ref:rspo": 86068,
                "official_name": "Szko\u0142a Podstawowa im. \u015aw. Jana Kantego w Bystrej Podhala\u0144skiej",
                "name": "Szko\u0142a Podstawowa",
                "addr:postcode": "34-235",
                "addr:place": "Bystra Podhala\u0144ska",
                "addr:housenumber": "353",
                "addr:city:simc": 418780,
                "phone": "+48 182681016",
                "email": "spbystra@poczta.onet.pl",
                "website": "http:\/\/spbystra.edupage.org",
                "ref:regon": "001128831",
                "ref:vatin": "PL5521548890",
                "operator": "Gmina Bystra-Sidzina W Bystrej Podhala\u0144skiej",
                "operator:type": "government",
                "amenity": "school"
            }
        }
    ]
}