{
    "type": "FeatureCollection",
    "features": [
        {
            "id": 130279,
            "type": "Feature",
            "geometry": {
                "type": "Point",
                "coordinates": [
                    19.56502,
                    49.73625
                ]
            },
            "properties": {
                "ref:rspo": 130279,
                "official_name": "Niepubliczne Przedszkole Klub Malucha",
                "name": "Niepubliczne Przedszkole Klub Malucha",
                "addr:postcode": "34-200",
                "addr:city": "Sucha Beskidzka",
                "addr:street": "Role",
                "addr:housenumber": "89",
                "addr:teryt:simc": 925287,
                "addr:teryt:sym_ul": 18814,
                "phone": "+48 519142919",
                "email": "klubmalucha_suchabeskidzka@poczta.fm",
                "website": "http:\/\/www.klubmalucha-suchabeskidzka.pl",
                "ref:regon": "363749892",
                "ref:vatin": "PL5521546856",
                "operator": "Piotr Balcer",
                "operator:type": "private",
                "amenity": "kindergarten"
            }
        },
        {
            "id": 84561,
            "type": "Feature",
            "geometry": {
                "type": "Point",
                "coordinates": [
                    19.57291,
                    49.73791
                ]
            },
            "properties": {
                "isced:level": "1;2",
                "ref:rspo": 84561,
                "official_name": "Szko\u0142a Podstawowa Nr 2 im. W\u0142. Broniewskiego w Suchej Beskidzkiej",
                "name": "Szko\u0142a Podstawowa Nr 2",
                "addr:postcode": "34-200",
                "addr:city": "Sucha Beskidzka",
                "addr:street": "Zasypnicka",
                "addr:housenumber": "1",
                "addr:teryt:simc": 925287,
                "addr:teryt:sym_ul": 25727,
                "phone": "+48 338742728",
                "email": "sp2sucha@poczta.onet.pl",
                "website": "http:\/\/sp2sucha.pl\/",
                "ref:regon": "070693721",
                "ref:vatin": "PL5521505188",
                "operator": "Gmina Sucha Beskidzka",
                "operator:type": "government",
                "amenity": "school",
                "note": "Children RSPO: 87242"
            }
        },
        {
            "id": 39021,
            "type": "Feature",
            "geometry": {
                "type": "Point",
                "coordinates": [
                    19.58186,
                    49.73807
                ]
            },
            "properties": {
                "ref:rspo": 39021,
                "official_name": "Zesp\u00f3\u0142 Szk\u00f3\u0142 im. Wincentego Witosa w Suchej Beskidzkiej",
                "name": "Zesp\u00f3\u0142 Szk\u00f3\u0142",
                "addr:postcode": "34-200",
                "addr:city": "Sucha Beskidzka",
                "addr:street": "Sp\u00f3\u0142dzielc\u00f3w",
                "addr:housenumber": "1",
                "addr:teryt:simc": 925287,
                "addr:teryt:sym_ul": 20695,
                "phone": "+48 338742771",
                "email": "sekretariat@zswsucha.pl",
                "website": "https:\/\/zswsucha.pl\/",
                "ref:regon": "357069475",
                "ref:vatin": "PL5520100905",
                "operator": "Powiat Suski",
                "operator:type": "government",
                "landuse": "education",
                "fixme": "amenity=school, amenity=college albo landuse=education w zale\u017cno\u015bci od tego, jakie plac\u00f3wki wchodz\u0105 w sk\u0142ad zespo\u0142u. Sprawd\u017a, kiedy stosowa\u0107 amenity=* a kiedy landuse=education.",
                "note": "Children RSPO: 56507;56508;133395;133588"
            }
        },
        {
            "id": 64881,
            "type": "Feature",
            "geometry": {
                "type": "Point",
                "coordinates": [
                    19.58186,
                    49.73804
                ]
            },
            "properties": {
                "ref:rspo": 64881,
                "official_name": "Europejskie Centrum Kszta\u0142cenia Ustawicznego w Suchej Beskidzkiej",
                "name": "Europejskie Centrum Kszta\u0142cenia Ustawicznego w Suchej Beskidzkiej",
                "addr:postcode": "34-200",
                "addr:city": "Sucha Beskidzka",
                "addr:street": "Sp\u00f3\u0142dzielc\u00f3w",
                "addr:housenumber": "1",
                "addr:teryt:simc": 925287,
                "addr:teryt:sym_ul": 20695,
                "phone": "+48 338744605",
                "email": "biuro@fundacja.monttis.com.pl",
                "ref:regon": "122722718",
                "operator": "Fundacja Edukacja, Zdrowie, Rozw\u00f3j",
                "operator:type": "ngo",
                "fixme": "w zale\u017cno\u015bci od przedmiotu dzia\u0142alno\u015bci (np. amenity=training + training=*, amenity=dancing_school, amenity=language_school, amenity=music_school)"
            }
        },
        {
            "id": 274824,
            "type": "Feature",
            "geometry": {
                "type": "Point",
                "coordinates": [
                    19.58186,
                    49.73801
                ]
            },
            "properties": {
                "isced:level": "3",
                "ref:rspo": 274824,
                "official_name": "Bran\u017cowa Szko\u0142a II Stopnia Nr 2 w Zespole Szk\u00f3\u0142 im. W. Witosa w Suchej Beskidzkiej",
                "name": "Bran\u017cowa Szko\u0142a II Stopnia Nr 2 w Zespole Szk\u00f3\u0142",
                "addr:postcode": "34-200",
                "addr:city": "Sucha Beskidzka",
                "addr:street": "Sp\u00f3\u0142dzielc\u00f3w",
                "addr:housenumber": "1",
                "addr:teryt:simc": 925287,
                "addr:teryt:sym_ul": 20695,
                "phone": "+48 338742771",
                "email": "zsw@powiatsuski.pl",
                "website": "http:\/\/www.zsw.powiatsuski.pl",
                "ref:regon": "386321185",
                "operator": "Powiat Suski",
                "operator:type": "government",
                "amenity": "school"
            }
        },
        {
            "id": 56507,
            "type": "Feature",
            "geometry": {
                "type": "Point",
                "coordinates": [
                    19.58186,
                    49.73798
                ]
            },
            "properties": {
                "isced:level": "3",
                "ref:rspo": 56507,
                "official_name": "Bran\u017cowa Szko\u0142a I Stopnia Nr 2 w Zespole Szk\u00f3\u0142 Im W.witosa w Suchej Beskidzkiej",
                "name": "Bran\u017cowa Szko\u0142a I Stopnia Nr 2 w Zespole Szk\u00f3\u0142 Im W.witosa w Suchej Beskidzkiej",
                "addr:postcode": "34-200",
                "addr:city": "Sucha Beskidzka",
                "addr:street": "Sp\u00f3\u0142dzielc\u00f3w",
                "addr:housenumber": "1",
                "addr:teryt:simc": 925287,
                "addr:teryt:sym_ul": 20695,
                "phone": "+48 338742771",
                "email": "sekretariat@zswsucha.pl",
                "website": "https:\/\/zswsucha.pl\/",
                "ref:regon": "356584710",
                "operator": "Powiat Suski",
                "operator:type": "government",
                "amenity": "school",
                "note": "Parent RSPO: 39021"
            }
        },
        {
            "id": 56508,
            "type": "Feature",
            "geometry": {
                "type": "Point",
                "coordinates": [
                    19.58186,
                    49.73795
                ]
            },
            "properties": {
                "isced:level": "3",
                "ref:rspo": 56508,
                "official_name": "Technikum Nr 1 w Zespole Szk\u00f3\u0142 im.w.witosa w Suchej Beskidzkiej",
                "name": "Technikum Nr 1 w Zespole Szk\u00f3\u0142 im.w.witosa w Suchej Beskidzkiej",
                "addr:postcode": "34-200",
                "addr:city": "Sucha Beskidzka",
                "addr:street": "Sp\u00f3\u0142dzielc\u00f3w",
                "addr:housenumber": "1",
                "addr:teryt:simc": 925287,
                "addr:teryt:sym_ul": 20695,
                "phone": "+48 338742771",
                "email": "sekretariat@zswsucha.pl",
                "website": "https:\/\/zswsucha.pl\/",
                "ref:regon": "120046957",
                "operator": "Powiat Suski",
                "operator:type": "government",
                "amenity": "school",
                "note": "Parent RSPO: 39021"
            }
        },
        {
            "id": 133395,
            "type": "Feature",
            "geometry": {
                "type": "Point",
                "coordinates": [
                    19.58186,
                    49.73792
                ]
            },
            "properties": {
                "ref:rspo": 133395,
                "official_name": "Centrum Kszta\u0142cenia Zawodowego Nr 2 w Suchej Beskidzkiej",
                "name": "Centrum Kszta\u0142cenia Zawodowego Nr 2 w Suchej Beskidzkiej",
                "addr:postcode": "34-200",
                "addr:city": "Sucha Beskidzka",
                "addr:street": "Sp\u00f3\u0142dzielc\u00f3w",
                "addr:housenumber": "1",
                "addr:teryt:simc": 925287,
                "addr:teryt:sym_ul": 20695,
                "phone": "+48 338742771",
                "email": "sekretariat@zswsucha.pl",
                "ref:regon": "367190186",
                "operator": "Powiat Suski",
                "operator:type": "government",
                "fixme": "w zale\u017cno\u015bci od przedmiotu dzia\u0142alno\u015bci (np. amenity=training + training=*, amenity=dancing_school, amenity=language_school, amenity=music_school) albo amenity=school, amenity=college, albo landuse=education w zale\u017cno\u015bci od tego, jakie plac\u00f3wki wchodz\u0105 w sk\u0142ad zespo\u0142u. Sprawd\u017a, kiedy stosowa\u0107 amenity=* a kiedy landuse=education.",
                "note": "Parent RSPO: 39021"
            }
        },
        {
            "id": 133588,
            "type": "Feature",
            "geometry": {
                "type": "Point",
                "coordinates": [
                    19.58186,
                    49.73789
                ]
            },
            "properties": {
                "ref:rspo": 133588,
                "official_name": "Szkolne Schronisko M\u0142odzie\u017cowe Przy Zespole Szk\u00f3\u0142 im. Wincentego Witosa w Suchej Beskidzkiej",
                "name": "Szkolne Schronisko M\u0142odzie\u017cowe Przy Zespole Szk\u00f3\u0142",
                "addr:postcode": "34-200",
                "addr:city": "Sucha Beskidzka",
                "addr:street": "Sp\u00f3\u0142dzielc\u00f3w",
                "addr:housenumber": "1",
                "addr:teryt:simc": 925287,
                "addr:teryt:sym_ul": 20695,
                "phone": "+48 338742771",
                "email": "sekretariat@zswsucha.pl",
                "website": "http:\/\/ssmsuchabeskidzka.pl\/",
                "ref:regon": "367454024",
                "operator": "Powiat Suski",
                "operator:type": "government",
                "tourism": "hostel",
                "note": "Parent RSPO: 39021"
            }
        },
        {
            "id": 59059,
            "type": "Feature",
            "geometry": {
                "type": "Point",
                "coordinates": [
                    19.6017,
                    49.73828
                ]
            },
            "properties": {
                "ref:rspo": 59059,
                "official_name": "Zesp\u00f3\u0142 Szk\u00f3\u0142 im.walerego Goetla w Suchej Beskidzkiej",
                "name": "Zesp\u00f3\u0142 Szk\u00f3\u0142 im.walerego Goetla w Suchej Beskidzkiej",
                "addr:postcode": "34-200",
                "addr:city": "Sucha Beskidzka",
                "addr:street": "Ko\u015bcielna",
                "addr:housenumber": "5",
                "addr:teryt:simc": 925287,
                "addr:teryt:sym_ul": 9546,
                "phone": "+48 338742146",
                "email": "zsg@powiatsuski.pl",
                "website": "http:\/\/www.zsgsucha.pl",
                "ref:regon": "000740949",
                "ref:vatin": "PL5521027317",
                "operator": "Powiat Suski",
                "operator:type": "government",
                "landuse": "education",
                "fixme": "amenity=school, amenity=college albo landuse=education w zale\u017cno\u015bci od tego, jakie plac\u00f3wki wchodz\u0105 w sk\u0142ad zespo\u0142u. Sprawd\u017a, kiedy stosowa\u0107 amenity=* a kiedy landuse=education.",
                "note": "Children RSPO: 71596;71597;133394"
            }
        },
        {
            "id": 66727,
            "type": "Feature",
            "geometry": {
                "type": "Point",
                "coordinates": [
                    19.6017,
                    49.73825
                ]
            },
            "properties": {
                "ref:rspo": 66727,
                "official_name": "Beskidzkie Centrum Kszta\u0142cenia Doros\u0142ych",
                "name": "Beskidzkie Centrum Kszta\u0142cenia Doros\u0142ych",
                "addr:postcode": "34-200",
                "addr:city": "Sucha Beskidzka",
                "addr:street": "Ko\u015bcielna",
                "addr:housenumber": "5",
                "addr:teryt:simc": 925287,
                "addr:teryt:sym_ul": 9546,
                "phone": "+48 338744536",
                "email": "bncdn@poczta.fm",
                "ref:regon": "122702584",
                "operator": "Agata Prokop",
                "operator:type": "private",
                "fixme": "w zale\u017cno\u015bci od przedmiotu dzia\u0142alno\u015bci (np. amenity=training + training=*, amenity=dancing_school, amenity=language_school, amenity=music_school)"
            }
        },
        {
            "id": 66729,
            "type": "Feature",
            "geometry": {
                "type": "Point",
                "coordinates": [
                    19.6017,
                    49.738220000000005
                ]
            },
            "properties": {
                "ref:rspo": 66729,
                "official_name": "Niepubliczne Centrum Kszta\u0142cenia Zawodowego w Suchej Beskidzkiej",
                "name": "Niepubliczne Centrum Kszta\u0142cenia Zawodowego w Suchej Beskidzkiej",
                "addr:postcode": "34-200",
                "addr:city": "Sucha Beskidzka",
                "addr:street": "Ko\u015bcielna",
                "addr:housenumber": "5",
                "addr:teryt:simc": 925287,
                "addr:teryt:sym_ul": 9546,
                "phone": "+48 338744536",
                "email": "bncdn@poczta.fm",
                "website": "http:\/\/beskidzka.weebly.com",
                "ref:regon": "122702578",
                "operator": "Agata Prokop",
                "operator:type": "private",
                "fixme": "w zale\u017cno\u015bci od przedmiotu dzia\u0142alno\u015bci (np. amenity=training + training=*, amenity=dancing_school, amenity=language_school, amenity=music_school) albo amenity=school, amenity=college, albo landuse=education w zale\u017cno\u015bci od tego, jakie plac\u00f3wki wchodz\u0105 w sk\u0142ad zespo\u0142u. Sprawd\u017a, kiedy stosowa\u0107 amenity=* a kiedy landuse=education."
            }
        },
        {
            "id": 66731,
            "type": "Feature",
            "geometry": {
                "type": "Point",
                "coordinates": [
                    19.6017,
                    49.73819
                ]
            },
            "properties": {
                "isced:level": "4",
                "ref:rspo": 66731,
                "official_name": "Beskidzka Medyczna Szko\u0142a Policealna w Suchej Beskidzkiej",
                "name": "Beskidzka Medyczna Szko\u0142a Policealna w Suchej Beskidzkiej",
                "addr:postcode": "34-200",
                "addr:city": "Sucha Beskidzka",
                "addr:street": "Ko\u015bcielna",
                "addr:housenumber": "5",
                "addr:teryt:simc": 925287,
                "addr:teryt:sym_ul": 9546,
                "phone": "+48 338744536",
                "email": "bncdn@poczta.fm",
                "website": "http:\/\/beskidzka.weebly.com",
                "ref:regon": "122702621",
                "operator": "Agata Prokop",
                "operator:type": "private",
                "amenity": "college"
            }
        },
        {
            "id": 66733,
            "type": "Feature",
            "geometry": {
                "type": "Point",
                "coordinates": [
                    19.6017,
                    49.73816
                ]
            },
            "properties": {
                "isced:level": "4",
                "ref:rspo": 66733,
                "official_name": "Beskidzka Szko\u0142a Policealna w Suchej Beskidzkiej",
                "name": "Beskidzka Szko\u0142a Policealna w Suchej Beskidzkiej",
                "addr:postcode": "34-200",
                "addr:city": "Sucha Beskidzka",
                "addr:street": "Ko\u015bcielna",
                "addr:housenumber": "5",
                "addr:teryt:simc": 925287,
                "addr:teryt:sym_ul": 9546,
                "phone": "+48 338744536",
                "email": "bncdn@poczta.fm",
                "website": "http:\/\/beskidzka.weebly.com",
                "ref:regon": "122702526",
                "operator": "Agata Prokop",
                "operator:type": "private",
                "amenity": "college"
            }
        },
        {
            "id": 66734,
            "type": "Feature",
            "geometry": {
                "type": "Point",
                "coordinates": [
                    19.6017,
                    49.738130000000005
                ]
            },
            "properties": {
                "isced:level": "4",
                "ref:rspo": 66734,
                "official_name": "Policealna Szko\u0142a Ochrony Fizycznej Os\u00f3b I Mienia w Suchej Beskidzkiej",
                "name": "Policealna Szko\u0142a Ochrony Fizycznej Os\u00f3b I Mienia w Suchej Beskidzkiej",
                "addr:postcode": "34-200",
                "addr:city": "Sucha Beskidzka",
                "addr:street": "Ko\u015bcielna",
                "addr:housenumber": "5",
                "addr:teryt:simc": 925287,
                "addr:teryt:sym_ul": 9546,
                "phone": "+48 338744536",
                "email": "bncdn@poczta.fm",
                "website": "http:\/\/beskidzka.weebly.com",
                "ref:regon": "122702555",
                "operator": "Agata Prokop",
                "operator:type": "private",
                "amenity": "college"
            }
        },
        {
            "id": 66736,
            "type": "Feature",
            "geometry": {
                "type": "Point",
                "coordinates": [
                    19.6017,
                    49.7381
                ]
            },
            "properties": {
                "isced:level": "3",
                "ref:rspo": 66736,
                "official_name": "Liceum Og\u00f3lnokszta\u0142c\u0105ce",
                "name": "Liceum Og\u00f3lnokszta\u0142c\u0105ce",
                "addr:postcode": "34-200",
                "addr:city": "Sucha Beskidzka",
                "addr:street": "Ko\u015bcielna",
                "addr:housenumber": "5",
                "addr:teryt:simc": 925287,
                "addr:teryt:sym_ul": 9546,
                "phone": "+48 338744536",
                "email": "bncdn@poczta.fm",
                "website": "http:\/\/beskidzka.weebly.com",
                "ref:regon": "122702532",
                "operator": "Agata Prokop",
                "operator:type": "private",
                "amenity": "school"
            }
        },
        {
            "id": 274783,
            "type": "Feature",
            "geometry": {
                "type": "Point",
                "coordinates": [
                    19.6017,
                    49.73807
                ]
            },
            "properties": {
                "isced:level": "3",
                "ref:rspo": 274783,
                "official_name": "Beskidzka Bran\u017cowa Szko\u0142a II Stopnia",
                "name": "Beskidzka Bran\u017cowa Szko\u0142a II Stopnia",
                "addr:postcode": "34-200",
                "addr:city": "Sucha Beskidzka",
                "addr:street": "Ko\u015bcielna",
                "addr:housenumber": "5",
                "addr:teryt:simc": 925287,
                "addr:teryt:sym_ul": 9546,
                "phone": "+48 338744536",
                "email": "bncdn@poczta.fm",
                "website": "http:\/\/beskidzka.weebly.com",
                "ref:regon": "386296910",
                "operator": "Agata Prokop",
                "operator:type": "private",
                "amenity": "school"
            }
        },
        {
            "id": 274820,
            "type": "Feature",
            "geometry": {
                "type": "Point",
                "coordinates": [
                    19.6017,
                    49.738040000000005
                ]
            },
            "properties": {
                "isced:level": "3",
                "ref:rspo": 274820,
                "official_name": "Bran\u017cowa Szko\u0142a II Stopnia Nr 1 w Zespole Szk\u00f3\u0142 im. W. Goetla w Suchej Beskidzkiej",
                "name": "Bran\u017cowa Szko\u0142a II Stopnia Nr 1 w Zespole Szk\u00f3\u0142",
                "addr:postcode": "34-200",
                "addr:city": "Sucha Beskidzka",
                "addr:street": "Ko\u015bcielna",
                "addr:housenumber": "5",
                "addr:teryt:simc": 925287,
                "addr:teryt:sym_ul": 9546,
                "phone": "+48 338742146",
                "email": "zsg@powiatsuski.pl",
                "website": "http:\/\/www.zsgsucha.pl",
                "ref:regon": "386321200",
                "operator": "Powiat Suski",
                "operator:type": "government",
                "amenity": "school"
            }
        },
        {
            "id": 71596,
            "type": "Feature",
            "geometry": {
                "type": "Point",
                "coordinates": [
                    19.6017,
                    49.73801
                ]
            },
            "properties": {
                "isced:level": "3",
                "ref:rspo": 71596,
                "official_name": "Technikum Nr 2 w Zespole Szk\u00f3\u0142 im.walerego Goetla w Suchej Beskidzkiej",
                "name": "Technikum Nr 2 w Zespole Szk\u00f3\u0142 im.walerego Goetla w Suchej Beskidzkiej",
                "addr:postcode": "34-200",
                "addr:city": "Sucha Beskidzka",
                "addr:street": "Ko\u015bcielna",
                "addr:housenumber": "5",
                "addr:teryt:simc": 925287,
                "addr:teryt:sym_ul": 9546,
                "phone": "+48 338742146",
                "email": "zsg@powiatsuski.pl",
                "website": "http:\/\/www.zsg.powiatsuski.pl",
                "ref:regon": "356692350",
                "operator": "Powiat Suski",
                "operator:type": "government",
                "amenity": "school",
                "note": "Parent RSPO: 59059"
            }
        },
        {
            "id": 71597,
            "type": "Feature",
            "geometry": {
                "type": "Point",
                "coordinates": [
                    19.6017,
                    49.73798
                ]
            },
            "properties": {
                "isced:level": "3",
                "ref:rspo": 71597,
                "official_name": "Bran\u017cowa Szko\u0142a I Stopnia Nr 1 w Zespole Szk\u00f3\u0142 im. Walerego Goetla w Suchej Beskidzkiej",
                "name": "Bran\u017cowa Szko\u0142a I Stopnia Nr 1 w Zespole Szk\u00f3\u0142",
                "addr:postcode": "34-200",
                "addr:city": "Sucha Beskidzka",
                "addr:street": "Ko\u015bcielna",
                "addr:housenumber": "5",
                "addr:teryt:simc": 925287,
                "addr:teryt:sym_ul": 9546,
                "phone": "+48 338742146",
                "email": "zsg@powiatsuski.pl",
                "website": "http:\/\/zsg.powiatsuski.pl",
                "ref:regon": "356692373",
                "operator": "Powiat Suski",
                "operator:type": "government",
                "amenity": "school",
                "note": "Parent RSPO: 59059"
            }
        },
        {
            "id": 133394,
            "type": "Feature",
            "geometry": {
                "type": "Point",
                "coordinates": [
                    19.6017,
                    49.737950000000005
                ]
            },
            "properties": {
                "ref:rspo": 133394,
                "official_name": "Centrum Kszta\u0142cenia Zawodowego Nr 1 w Suchej Beskidzkiej",
                "name": "Centrum Kszta\u0142cenia Zawodowego Nr 1 w Suchej Beskidzkiej",
                "addr:postcode": "34-200",
                "addr:city": "Sucha Beskidzka",
                "addr:street": "Ko\u015bcielna",
                "addr:housenumber": "5",
                "addr:teryt:simc": 925287,
                "addr:teryt:sym_ul": 9546,
                "phone": "+48 338742146",
                "email": "zsg@powiatsuski.pl",
                "ref:regon": "367190111",
                "operator": "Powiat Suski",
                "operator:type": "government",
                "fixme": "w zale\u017cno\u015bci od przedmiotu dzia\u0142alno\u015bci (np. amenity=training + training=*, amenity=dancing_school, amenity=language_school, amenity=music_school) albo amenity=school, amenity=college, albo landuse=education w zale\u017cno\u015bci od tego, jakie plac\u00f3wki wchodz\u0105 w sk\u0142ad zespo\u0142u. Sprawd\u017a, kiedy stosowa\u0107 amenity=* a kiedy landuse=education.",
                "note": "Parent RSPO: 59059"
            }
        },
        {
            "id": 4594,
            "type": "Feature",
            "geometry": {
                "type": "Point",
                "coordinates": [
                    19.59383,
                    49.73939
                ]
            },
            "properties": {
                "ref:rspo": 4594,
                "official_name": "Szko\u0142a Muzyczna I Stopnia w Suchej Beskidzkiej",
                "name": "Szko\u0142a Muzyczna I Stopnia w Suchej Beskidzkiej",
                "addr:postcode": "34-200",
                "addr:city": "Sucha Beskidzka",
                "addr:street": "Pu\u0142kownika Tadeusza Semika",
                "addr:housenumber": "3",
                "addr:teryt:simc": 925287,
                "addr:teryt:sym_ul": 27076,
                "phone": "+48 338733305",
                "email": "smsucha@gmail.com",
                "ref:regon": "122640860",
                "operator": "Gmina Sucha Beskidzka",
                "operator:type": "government",
                "amenity": "music_school"
            }
        },
        {
            "id": 84554,
            "type": "Feature",
            "geometry": {
                "type": "Point",
                "coordinates": [
                    19.59383,
                    49.73936
                ]
            },
            "properties": {
                "isced:level": "1;2",
                "ref:rspo": 84554,
                "official_name": "Szko\u0142a Podstawowa Nr 1 im. Jana Paw\u0142a II w Suchej Beskidzkiej",
                "name": "Szko\u0142a Podstawowa Nr 1",
                "addr:postcode": "34-200",
                "addr:city": "Sucha Beskidzka",
                "addr:street": "Pu\u0142kownika Tadeusza Semika",
                "addr:housenumber": "3",
                "addr:teryt:simc": 925287,
                "addr:teryt:sym_ul": 27076,
                "phone": "+48 338742218",
                "email": "sekretariat@zssucha.pl",
                "website": "http:\/\/www.zssucha.pl",
                "ref:regon": "070693744",
                "ref:vatin": "PL5521548915",
                "operator": "Gmina Sucha Beskidzka",
                "operator:type": "government",
                "amenity": "school"
            }
        },
        {
            "id": 24928,
            "type": "Feature",
            "geometry": {
                "type": "Point",
                "coordinates": [
                    19.59361,
                    49.74118
                ]
            },
            "properties": {
                "ref:rspo": 24928,
                "official_name": "Pedagogiczna Biblioteka Wojew\u00f3dzka im. Hugona Ko\u0142\u0142\u0105taja w Krakowie Filia w Suchej Beskidzkiej",
                "name": "Pedagogiczna Biblioteka Wojew\u00f3dzka",
                "addr:postcode": "34-200",
                "addr:city": "Sucha Beskidzka",
                "addr:street": "Adama Mickiewicza",
                "addr:housenumber": "23A",
                "addr:teryt:simc": 925287,
                "addr:teryt:sym_ul": 12740,
                "phone": "+48 338742404",
                "email": "filia.sucha@pbw.edu.pl",
                "ref:regon": "197729001",
                "operator": "Wojew\u00f3dztwo Ma\u0142opolskie",
                "operator:type": "government",
                "amenity": "library",
                "note": "Parent RSPO: 19644"
            }
        },
        {
            "id": 49823,
            "type": "Feature",
            "geometry": {
                "type": "Point",
                "coordinates": [
                    19.59309,
                    49.74145
                ]
            },
            "properties": {
                "isced:level": "3",
                "ref:rspo": 49823,
                "official_name": "Liceum Og\u00f3lnokszta\u0142c\u0105ce Nr I im.marii Sk\u0142odowskiej-Curie w Suchej Beskidzkiej",
                "name": "Liceum Og\u00f3lnokszta\u0142c\u0105ce Nr I im.marii Sk\u0142odowskiej-Curie w Suchej Beskidzkiej",
                "addr:postcode": "34-200",
                "addr:city": "Sucha Beskidzka",
                "addr:street": "Pu\u0142kownika Tadeusza Semika",
                "addr:housenumber": "1",
                "addr:teryt:simc": 925287,
                "addr:teryt:sym_ul": 27076,
                "phone": "+48 338742355",
                "email": "losucha@losucha.pl",
                "website": "http:\/\/www.losucha.pl",
                "ref:regon": "070455252",
                "ref:vatin": "PL5521719015",
                "operator": "Powiat Suski",
                "operator:type": "government",
                "amenity": "school"
            }
        },
        {
            "id": 57271,
            "type": "Feature",
            "geometry": {
                "type": "Point",
                "coordinates": [
                    19.5942599,
                    49.7416
                ]
            },
            "properties": {
                "ref:rspo": 57271,
                "official_name": "Miejskie Przedszkole Samorz\u0105dowe w Suchej Beskidzkiej",
                "name": "Miejskie Przedszkole Samorz\u0105dowe w Suchej Beskidzkiej",
                "addr:postcode": "34-200",
                "addr:city": "Sucha Beskidzka",
                "addr:street": "Adama Mickiewicza",
                "addr:housenumber": "23",
                "addr:teryt:simc": 925287,
                "addr:teryt:sym_ul": 12740,
                "phone": "+48 338742047",
                "email": "mps.sucha@onet.pl",
                "website": "http:\/\/www.przedszkole.sucha.beskidzka.pl",
                "ref:regon": "357185738",
                "ref:vatin": "PL5521497342",
                "operator": "Gmina Sucha Beskidzka",
                "operator:type": "government",
                "amenity": "kindergarten"
            }
        },
        {
            "id": 66719,
            "type": "Feature",
            "geometry": {
                "type": "Point",
                "coordinates": [
                    19.60194,
                    49.74257
                ]
            },
            "properties": {
                "isced:level": "4",
                "ref:rspo": 66719,
                "official_name": "Niepubliczne Medyczne Studium Zawodowe w Suchej Beskidzkiej Zak\u0142adu Doskonalenia Zawodowego w Katowicach",
                "name": "Niepubliczne Medyczne Studium Zawodowe w Suchej Beskidzkiej Zak\u0142adu Doskonalenia Zawodowego w Katowicach",
                "addr:postcode": "34-200",
                "addr:city": "Sucha Beskidzka",
                "addr:street": "Rynek",
                "addr:housenumber": "16",
                "addr:teryt:simc": 925287,
                "addr:teryt:sym_ul": 19253,
                "phone": "+48 338744381",
                "email": "suchab@zdz.katowice.pl",
                "website": "http:\/\/www.szkoly.sucha.zdz.pl",
                "ref:regon": "122703678",
                "operator": "Zak\u0142ad Doskonalenia Zawodowego W Katowicach",
                "operator:type": "ngo",
                "amenity": "college"
            }
        },
        {
            "id": 66722,
            "type": "Feature",
            "geometry": {
                "type": "Point",
                "coordinates": [
                    19.60194,
                    49.74254
                ]
            },
            "properties": {
                "ref:rspo": 66722,
                "official_name": "O\u015brodek Kszta\u0142cenia Zawodowego w Suchej Beskidzkiej Zak\u0142adu Doskonalenia Zawodowego w Katowicach",
                "name": "O\u015brodek Kszta\u0142cenia Zawodowego w Suchej Beskidzkiej Zak\u0142adu Doskonalenia Zawodowego w Katowicach",
                "addr:postcode": "34-200",
                "addr:city": "Sucha Beskidzka",
                "addr:street": "Rynek",
                "addr:housenumber": "16",
                "addr:teryt:simc": 925287,
                "addr:teryt:sym_ul": 19253,
                "phone": "+48 338744381",
                "email": "suchab@zdz.katowice.pl",
                "website": "http:\/\/www.kursy.sucha.zdz.pl",
                "ref:regon": "122703709",
                "operator": "Zak\u0142ad Doskonalenia Zawodowego W Katowicach",
                "operator:type": "ngo",
                "fixme": "w zale\u017cno\u015bci od przedmiotu dzia\u0142alno\u015bci (np. amenity=training + training=*, amenity=dancing_school, amenity=language_school, amenity=music_school)"
            }
        },
        {
            "id": 127625,
            "type": "Feature",
            "geometry": {
                "type": "Point",
                "coordinates": [
                    19.60194,
                    49.74251
                ]
            },
            "properties": {
                "isced:level": "4",
                "ref:rspo": 127625,
                "official_name": "Policealne Studium Zawodowe w Suchej Beskidzkiej Zak\u0142adu Doskonalenia Zawodowego w Katowicach",
                "name": "Policealne Studium Zawodowe w Suchej Beskidzkiej Zak\u0142adu Doskonalenia Zawodowego w Katowicach",
                "addr:postcode": "34-200",
                "addr:city": "Sucha Beskidzka",
                "addr:street": "Rynek",
                "addr:housenumber": "16",
                "addr:teryt:simc": 925287,
                "addr:teryt:sym_ul": 19253,
                "phone": "+48 338744381",
                "email": "suchab@zdz.katowice.pl",
                "website": "http:\/\/www.szkoly.sucha.zdz.pl",
                "ref:regon": "361779021",
                "operator": "Zak\u0142ad Doskonalenia Zawodowego W Katowicach",
                "operator:type": "ngo",
                "amenity": "college"
            }
        },
        {
            "id": 127998,
            "type": "Feature",
            "geometry": {
                "type": "Point",
                "coordinates": [
                    19.60194,
                    49.74248
                ]
            },
            "properties": {
                "isced:level": "3",
                "ref:rspo": 127998,
                "official_name": "Liceum Og\u00f3lnokszta\u0142c\u0105ce dla Doros\u0142ych w Suchej Beskidzkiej Zak\u0142adu Doskonalenia Zawodowego w Katowicach",
                "name": "Liceum Og\u00f3lnokszta\u0142c\u0105ce dla Doros\u0142ych w Suchej Beskidzkiej Zak\u0142adu Doskonalenia Zawodowego w Katowicach",
                "addr:postcode": "34-200",
                "addr:city": "Sucha Beskidzka",
                "addr:street": "Rynek",
                "addr:housenumber": "16",
                "addr:teryt:simc": 925287,
                "addr:teryt:sym_ul": 19253,
                "phone": "+48 338744381",
                "email": "suchab@zdz.katowice.pl",
                "website": "http:\/\/www.szkoly.sucha.zdz.pl",
                "ref:regon": "362019039",
                "operator": "Zak\u0142ad Doskonalenia Zawodowego W Katowicach",
                "operator:type": "ngo",
                "amenity": "school"
            }
        },
        {
            "id": 263201,
            "type": "Feature",
            "geometry": {
                "type": "Point",
                "coordinates": [
                    19.60194,
                    49.74245
                ]
            },
            "properties": {
                "isced:level": "4",
                "ref:rspo": 263201,
                "official_name": "Niepubliczna Policealna Szko\u0142a Medyczna w Suchej Beskidzkiej Zak\u0142adu Doskonalenia Zawodowego w Katowicach",
                "name": "Niepubliczna Policealna Szko\u0142a Medyczna w Suchej Beskidzkiej Zak\u0142adu Doskonalenia Zawodowego w Katowicach",
                "addr:postcode": "34-200",
                "addr:city": "Sucha Beskidzka",
                "addr:street": "Rynek",
                "addr:housenumber": "16",
                "addr:teryt:simc": 925287,
                "addr:teryt:sym_ul": 19253,
                "phone": "+48 338744381",
                "email": "suchab@zdz.katowice.pl",
                "ref:regon": "368121655",
                "operator": "Zak\u0142ad Doskonalenia Zawodowego W Katowicach",
                "operator:type": "ngo",
                "amenity": "college"
            }
        },
        {
            "id": 64872,
            "type": "Feature",
            "geometry": {
                "type": "Point",
                "coordinates": [
                    19.603929519653,
                    49.743309020996
                ]
            },
            "properties": {
                "ref:rspo": 64872,
                "official_name": "Lobus Pracownia Diagnozy I Terpii Dziecka, Specjalistyczna Niepubliczna Poradnia Psychologiczno-Pedagogiczna",
                "name": "Lobus Pracownia Diagnozy I Terpii Dziecka, Specjalistyczna Niepubliczna Poradnia Psychologiczno-Pedagogiczna",
                "addr:postcode": "34-200",
                "addr:city": "Sucha Beskidzka",
                "addr:street": "Billy Wildera",
                "addr:housenumber": "14",
                "addr:teryt:simc": 925287,
                "addr:teryt:sym_ul": 29170,
                "phone": "+48 608837744",
                "email": "pracownialobus@gmail.com",
                "ref:regon": "122692472",
                "operator": "Gra\u017cyna Kryjak - Lenart",
                "operator:type": "private",
                "fixme": "w zale\u017cno\u015bci od przedmiotu dzia\u0142alno\u015bci (np. healthcare=counselling + counselling_type=education albo healthcare=psychotherapist)"
            }
        },
        {
            "id": 119956,
            "type": "Feature",
            "geometry": {
                "type": "Point",
                "coordinates": [
                    19.603929519653,
                    49.743279020996
                ]
            },
            "properties": {
                "ref:rspo": 119956,
                "official_name": "Niepubliczne Przedszkole Lobus Z Oddzia\u0142ami Integracyjnymi I Oddzia\u0142ami Specjalnymi",
                "name": "Niepubliczne Przedszkole Lobus Z Oddzia\u0142ami Integracyjnymi I Oddzia\u0142ami Specjalnymi",
                "addr:postcode": "34-200",
                "addr:city": "Sucha Beskidzka",
                "addr:street": "Billy Wildera",
                "addr:housenumber": "14",
                "addr:teryt:simc": 925287,
                "addr:teryt:sym_ul": 29170,
                "phone": "+48 600753463",
                "email": "przedszkolelobus@gmail.com",
                "website": "http:\/\/www.przedszkolelobus.pl",
                "ref:regon": "122946240",
                "ref:vatin": "PL5521046415",
                "operator": "Gra\u017cyna Kryjak - Lenart",
                "operator:type": "private",
                "amenity": "kindergarten"
            }
        },
        {
            "id": 84562,
            "type": "Feature",
            "geometry": {
                "type": "Point",
                "coordinates": [
                    19.5917373,
                    49.7454717
                ]
            },
            "properties": {
                "ref:rspo": 84562,
                "official_name": "Przedszkole Niepubliczne Bajkowe Ranczo S\u0142awomir Klimasara I Marta Klimasara Sp\u00f3\u0142ka Cywilna",
                "name": "Przedszkole Niepubliczne Bajkowe Ranczo S\u0142awomir Klimasara I Marta Klimasara Sp\u00f3\u0142ka Cywilna",
                "addr:postcode": "34-200",
                "addr:city": "Sucha Beskidzka",
                "addr:street": "Batalion\u00f3w Ch\u0142opskich",
                "addr:housenumber": "11",
                "addr:teryt:simc": 925287,
                "addr:teryt:sym_ul": 868,
                "phone": "+48 781744864",
                "email": "p.n.bajkowe-ranczo@interia.pl",
                "ref:regon": "122708300",
                "ref:vatin": "PL5521686362",
                "operator": "S\u0142awomir Klimasara",
                "operator:type": "private",
                "amenity": "kindergarten"
            }
        },
        {
            "id": 87242,
            "type": "Feature",
            "geometry": {
                "type": "Point",
                "coordinates": [
                    19.54832,
                    49.75434
                ]
            },
            "properties": {
                "isced:level": "1;2",
                "ref:rspo": 87242,
                "official_name": "Filia Szko\u0142y Podstawowej Nr 2 w Suchej Beskidzkiej",
                "name": "Filia Szko\u0142y Podstawowej Nr 2 w Suchej Beskidzkiej",
                "addr:postcode": "34-200",
                "addr:city": "Sucha Beskidzka",
                "addr:street": "B\u0142\u0105dzonka",
                "addr:housenumber": "118",
                "addr:teryt:simc": 925287,
                "addr:teryt:sym_ul": 1454,
                "phone": "+48 338742334",
                "email": "sp2sucha@poczta.onet.pl",
                "website": "http:\/\/sp2sucha.pl",
                "ref:regon": "706937210",
                "ref:vatin": "PL5521505254",
                "operator": "Gmina Sucha Beskidzka",
                "operator:type": "government",
                "amenity": "school",
                "note": "Parent RSPO: 84561"
            }
        }
    ]
}