{
    "type": "FeatureCollection",
    "features": [
        {
            "id": 131164,
            "type": "Feature",
            "geometry": {
                "type": "Point",
                "coordinates": [
                    19.5065967,
                    49.6174882
                ]
            },
            "properties": {
                "ref:rspo": 131164,
                "official_name": "Niepubliczne Przedszkole \"Entliczek Pentliczek\"",
                "name": "Niepubliczne Przedszkole \"Entliczek Pentliczek\"",
                "addr:postcode": "34-222",
                "addr:place": "Zawoja",
                "addr:housenumber": "2343",
                "addr:teryt:simc": 77356,
                "email": "magdamordarska@interia.pl",
                "ref:regon": "364984974",
                "ref:vatin": "PL5521582071",
                "operator": "Magdalena \u017bywczak",
                "operator:type": "private",
                "amenity": "kindergarten"
            }
        },
        {
            "id": 81215,
            "type": "Feature",
            "geometry": {
                "type": "Point",
                "coordinates": [
                    19.5229551,
                    49.6284519
                ]
            },
            "properties": {
                "ref:rspo": 81215,
                "official_name": "Zesp\u00f3\u0142 Szk\u00f3\u0142 w Zawoi Wilcznej",
                "name": "Zesp\u00f3\u0142 Szk\u00f3\u0142 w Zawoi Wilcznej",
                "addr:postcode": "34-222",
                "addr:place": "Zawoja",
                "addr:housenumber": "1570",
                "addr:teryt:simc": 77356,
                "phone": "+48 338775106",
                "email": "zszw.1570@interia.pl",
                "website": "http:\/\/www.zswilczna.szkolnastrona.pl",
                "ref:regon": "357215416",
                "ref:vatin": "PL5521512998",
                "operator": "Gmina Zawoja",
                "operator:type": "government",
                "landuse": "education",
                "fixme": "amenity=school, amenity=college albo landuse=education w zale\u017cno\u015bci od tego, jakie plac\u00f3wki wchodz\u0105 w sk\u0142ad zespo\u0142u. Sprawd\u017a, kiedy stosowa\u0107 amenity=* a kiedy landuse=education.",
                "note": "Children RSPO: 121914;121916"
            }
        },
        {
            "id": 276935,
            "type": "Feature",
            "geometry": {
                "type": "Point",
                "coordinates": [
                    19.5229551,
                    49.6284219
                ]
            },
            "properties": {
                "isced:level": "3",
                "ref:rspo": 276935,
                "official_name": "Niepubliczne Liceum Og\u00f3lnokszta\u0142c\u0105ce Mistrzostwa Sportowego Beskidzkie Centrum Edukacji I Sportu",
                "name": "Niepubliczne Liceum Og\u00f3lnokszta\u0142c\u0105ce Mistrzostwa Sportowego Beskidzkie Centrum Edukacji I Sportu",
                "addr:postcode": "34-223",
                "addr:place": "Zawoja",
                "addr:housenumber": "1570",
                "addr:teryt:simc": 77356,
                "ref:regon": "387860903",
                "operator": "Rs Sport  Sp\u00f3\u0142ka Z Ograniczon\u0105 Odpowiedzialno\u015bci\u0105",
                "operator:type": "private",
                "amenity": "school"
            }
        },
        {
            "id": 121914,
            "type": "Feature",
            "geometry": {
                "type": "Point",
                "coordinates": [
                    19.5229551,
                    49.628391900000004
                ]
            },
            "properties": {
                "isced:level": "1;2",
                "ref:rspo": 121914,
                "official_name": "Szko\u0142a Podstawowa Nr 2 im.kardyna\u0142a Karola Wojty\u0142y w Zawoi Wilcznej",
                "name": "Szko\u0142a Podstawowa Nr 2 im.kardyna\u0142a Karola Wojty\u0142y w Zawoi Wilcznej",
                "addr:postcode": "34-222",
                "addr:place": "Zawoja",
                "addr:housenumber": "1570",
                "addr:teryt:simc": 77356,
                "phone": "+48 338776044",
                "email": "zszw.1570@interia.pl",
                "ref:regon": "070855595",
                "ref:vatin": "PL5521474944",
                "operator": "Gmina Zawoja",
                "operator:type": "government",
                "amenity": "school",
                "note": "Parent RSPO: 81215"
            }
        },
        {
            "id": 121916,
            "type": "Feature",
            "geometry": {
                "type": "Point",
                "coordinates": [
                    19.5229551,
                    49.6283619
                ]
            },
            "properties": {
                "isced:level": "3",
                "ref:rspo": 121916,
                "official_name": "Liceum Og\u00f3lnokszta\u0142c\u0105ce w Zawoi Wilcznej",
                "name": "Liceum Og\u00f3lnokszta\u0142c\u0105ce w Zawoi Wilcznej",
                "addr:postcode": "34-222",
                "addr:place": "Zawoja",
                "addr:housenumber": "1570",
                "addr:teryt:simc": 77356,
                "phone": "+48 338776044",
                "ref:regon": "357192425",
                "ref:vatin": "PL5521505171",
                "operator": "Gmina Zawoja",
                "operator:type": "government",
                "amenity": "school",
                "note": "Parent RSPO: 81215"
            }
        },
        {
            "id": 81233,
            "type": "Feature",
            "geometry": {
                "type": "Point",
                "coordinates": [
                    19.540015,
                    49.6425799
                ]
            },
            "properties": {
                "ref:rspo": 81233,
                "official_name": "Zesp\u00f3\u0142 Szkolno Przedszkolny Zawoja Mosorne",
                "name": "Zesp\u00f3\u0142 Szkolno Przedszkolny Zawoja Mosorne",
                "addr:postcode": "34-222",
                "addr:place": "Zawoja",
                "addr:housenumber": "900",
                "addr:teryt:simc": 77356,
                "phone": "+48 338775005",
                "email": "zsp.zawoja@wp.pl",
                "website": "http:\/\/www.zsp.zawoja.szkolnastrona.pl",
                "ref:regon": "357215480",
                "ref:vatin": "PL5521512981",
                "operator": "Gmina Zawoja",
                "operator:type": "government",
                "landuse": "education",
                "fixme": "amenity=school, amenity=college albo landuse=education w zale\u017cno\u015bci od tego, jakie plac\u00f3wki wchodz\u0105 w sk\u0142ad zespo\u0142u. Sprawd\u017a, kiedy stosowa\u0107 amenity=* a kiedy landuse=education.",
                "note": "Children RSPO: 121912;121915"
            }
        },
        {
            "id": 121912,
            "type": "Feature",
            "geometry": {
                "type": "Point",
                "coordinates": [
                    19.540015,
                    49.6425499
                ]
            },
            "properties": {
                "isced:level": "1;2",
                "ref:rspo": 121912,
                "official_name": "Szko\u0142a Podstawowa Nr 8 im.s.staszica w Zawoi Mosorne",
                "name": "Szko\u0142a Podstawowa Nr 8 im.s.staszica w Zawoi Mosorne",
                "addr:postcode": "34-222",
                "addr:place": "Zawoja",
                "addr:housenumber": "900",
                "addr:teryt:simc": 77356,
                "phone": "+48 338775005",
                "email": "zspspmosorne@wp.pl",
                "website": "http:\/\/www.zsp.zawoja.szkolnastrona.pl",
                "ref:regon": "070692319",
                "ref:vatin": "PL5521475010",
                "operator": "Gmina Zawoja",
                "operator:type": "government",
                "amenity": "school",
                "note": "Parent RSPO: 81233"
            }
        },
        {
            "id": 121915,
            "type": "Feature",
            "geometry": {
                "type": "Point",
                "coordinates": [
                    19.540015,
                    49.6425199
                ]
            },
            "properties": {
                "ref:rspo": 121915,
                "official_name": "Publiczne Przedszkole w Zawoi Mosorne",
                "name": "Publiczne Przedszkole w Zawoi Mosorne",
                "addr:postcode": "34-222",
                "addr:place": "Zawoja",
                "addr:housenumber": "900",
                "addr:teryt:simc": 77356,
                "phone": "+48 338775005",
                "email": "zsp.zawoja@wp.pl",
                "website": "http:\/\/www.zsp.zawoja.szkolnastrona.pl",
                "ref:regon": "070041740",
                "ref:vatin": "PL5521474973",
                "operator": "Gmina Zawoja",
                "operator:type": "government",
                "amenity": "kindergarten",
                "note": "Parent RSPO: 81233"
            }
        },
        {
            "id": 9727,
            "type": "Feature",
            "geometry": {
                "type": "Point",
                "coordinates": [
                    19.512574,
                    49.6518729
                ]
            },
            "properties": {
                "ref:rspo": 9727,
                "official_name": "Szkolne Schronisko M\u0142odzie\u017cowe w Zawoi",
                "name": "Szkolne Schronisko M\u0142odzie\u017cowe w Zawoi",
                "addr:postcode": "34-222",
                "addr:place": "Zawoja",
                "addr:housenumber": "991",
                "addr:teryt:simc": 77356,
                "phone": "+48 338775059",
                "ref:regon": "122651355",
                "operator": "Gmina Zawoja",
                "operator:type": "government",
                "tourism": "hostel"
            }
        },
        {
            "id": 268733,
            "type": "Feature",
            "geometry": {
                "type": "Point",
                "coordinates": [
                    19.55549,
                    49.65927
                ]
            },
            "properties": {
                "ref:rspo": 268733,
                "official_name": "Zesp\u00f3\u0142 Szkolno-Przedszkolny Nr 1 w Zawoi Centrum",
                "name": "Zesp\u00f3\u0142 Szkolno-Przedszkolny Nr 1 w Zawoi Centrum",
                "addr:postcode": "34-222",
                "addr:place": "Zawoja",
                "addr:housenumber": "2000",
                "addr:teryt:simc": 77356,
                "phone": "+48 338775020",
                "email": "zszawojacentrum@gmail.com",
                "ref:regon": "381240542",
                "ref:vatin": "PL5521723206",
                "operator": "Gmina Zawoja",
                "operator:type": "government",
                "landuse": "education",
                "fixme": "amenity=school, amenity=college albo landuse=education w zale\u017cno\u015bci od tego, jakie plac\u00f3wki wchodz\u0105 w sk\u0142ad zespo\u0142u. Sprawd\u017a, kiedy stosowa\u0107 amenity=* a kiedy landuse=education.",
                "note": "Children RSPO: 121913;268760"
            }
        },
        {
            "id": 121913,
            "type": "Feature",
            "geometry": {
                "type": "Point",
                "coordinates": [
                    19.55549,
                    49.65924
                ]
            },
            "properties": {
                "isced:level": "1;2",
                "ref:rspo": 121913,
                "official_name": "Szko\u0142a Podstawowa Nr 1 im.h.zapa\u0142owicza w Zawoi Centrum",
                "name": "Szko\u0142a Podstawowa Nr 1 im.h.zapa\u0142owicza w Zawoi Centrum",
                "addr:postcode": "34-222",
                "addr:place": "Zawoja",
                "addr:housenumber": "2000",
                "addr:teryt:simc": 77356,
                "phone": "+48 338775020",
                "email": "zszawojacentrum@gmail.com",
                "ref:regon": "070692259",
                "ref:vatin": "PL5521543846",
                "operator": "Gmina Zawoja",
                "operator:type": "government",
                "amenity": "school",
                "note": "Parent RSPO: 268733"
            }
        },
        {
            "id": 268760,
            "type": "Feature",
            "geometry": {
                "type": "Point",
                "coordinates": [
                    19.55549,
                    49.65921
                ]
            },
            "properties": {
                "ref:rspo": 268760,
                "official_name": "Przedszkole Nr 1 w Zawoi Centrum",
                "name": "Przedszkole Nr 1 w Zawoi Centrum",
                "addr:postcode": "34-222",
                "addr:place": "Zawoja",
                "addr:housenumber": "2000",
                "addr:teryt:simc": 77356,
                "phone": "+48 338775020",
                "ref:regon": "381245580",
                "ref:vatin": "PL5521723229",
                "operator": "Gmina Zawoja",
                "operator:type": "government",
                "amenity": "kindergarten",
                "note": "Parent RSPO: 268733"
            }
        },
        {
            "id": 268734,
            "type": "Feature",
            "geometry": {
                "type": "Point",
                "coordinates": [
                    19.631162,
                    49.67834
                ]
            },
            "properties": {
                "ref:rspo": 268734,
                "official_name": "Zesp\u00f3\u0142 Szkolno-Przedszkolny w Skawicy",
                "name": "Zesp\u00f3\u0142 Szkolno-Przedszkolny w Skawicy",
                "addr:postcode": "34-221",
                "addr:place": "Skawica",
                "addr:housenumber": "278",
                "addr:teryt:simc": 76990,
                "phone": "+48 338775309",
                "email": "skawica@poczta.onet.pl",
                "ref:regon": "381240571",
                "ref:vatin": "PL5521723198",
                "operator": "Gmina Zawoja",
                "operator:type": "government",
                "landuse": "education",
                "fixme": "amenity=school, amenity=college albo landuse=education w zale\u017cno\u015bci od tego, jakie plac\u00f3wki wchodz\u0105 w sk\u0142ad zespo\u0142u. Sprawd\u017a, kiedy stosowa\u0107 amenity=* a kiedy landuse=education.",
                "note": "Children RSPO: 85309;268759"
            }
        },
        {
            "id": 85309,
            "type": "Feature",
            "geometry": {
                "type": "Point",
                "coordinates": [
                    19.631162,
                    49.678309999999996
                ]
            },
            "properties": {
                "isced:level": "1;2",
                "ref:rspo": 85309,
                "official_name": "Szko\u0142a Podstawowa Nr 1 im. Z.klemensiewicza w Skawicy",
                "name": "Szko\u0142a Podstawowa Nr 1",
                "addr:postcode": "34-221",
                "addr:place": "Skawica",
                "addr:housenumber": "278",
                "addr:teryt:simc": 76990,
                "phone": "+48 338775309",
                "email": "skawica@poczta.onet.pl",
                "website": "http:\/\/www.zsskawica.szkolnastrona.pl",
                "ref:regon": "070692325",
                "ref:vatin": "PL5521543852",
                "operator": "Gmina Zawoja",
                "operator:type": "government",
                "amenity": "school",
                "note": "Parent RSPO: 268734"
            }
        },
        {
            "id": 268759,
            "type": "Feature",
            "geometry": {
                "type": "Point",
                "coordinates": [
                    19.631162,
                    49.67828
                ]
            },
            "properties": {
                "ref:rspo": 268759,
                "official_name": "Przedszkole w Skawicy",
                "name": "Przedszkole w Skawicy",
                "addr:postcode": "34-221",
                "addr:place": "Skawica",
                "addr:housenumber": "278",
                "addr:teryt:simc": 76990,
                "phone": "+48 338775309",
                "email": "skawica@poczta.onet.pl",
                "ref:regon": "381245462",
                "ref:vatin": "PL5521723212",
                "operator": "Gmina Zawoja",
                "operator:type": "government",
                "amenity": "kindergarten",
                "note": "Parent RSPO: 268734"
            }
        }
    ]
}