{
    "type": "FeatureCollection",
    "features": [
        {
            "id": 30241,
            "type": "Feature",
            "geometry": {
                "type": "Point",
                "coordinates": [
                    19.82958,
                    49.64729
                ]
            },
            "properties": {
                "ref:rspo": 30241,
                "official_name": "Zesp\u00f3\u0142 Szk\u00f3\u0142 im. Hugona Ko\u0142\u0142\u0105taja w Jordanowie",
                "name": "Zesp\u00f3\u0142 Szk\u00f3\u0142",
                "addr:country": "PL",
                "addr:postcode": "34-240",
                "addr:city": "Jordan\u00f3w",
                "addr:street": "Kolejowa",
                "addr:housenumber": "9",
                "addr:teryt:simc": 960154,
                "addr:teryt:sym_ul": 8828,
                "contact:phone": "+48 182675514",
                "contact:email": "zskjordanow@iap.pl",
                "contact:website": "http:\/\/www.zskjordanow.pl",
                "ref:regon": "356324735",
                "ref:vatin": "PL5521526629",
                "operator": "Powiat Suski",
                "operator:type": "government",
                "landuse": "education",
                "fixme": "amenity=school, amenity=college albo landuse=education w zale\u017cno\u015bci od tego, jakie plac\u00f3wki wchodz\u0105 w sk\u0142ad zespo\u0142u. Sprawd\u017a, kiedy stosowa\u0107 amenity=* a kiedy landuse=education.",
                "note": "Children RSPO: 39018;40948;130467"
            }
        },
        {
            "id": 39018,
            "type": "Feature",
            "geometry": {
                "type": "Point",
                "coordinates": [
                    19.82958,
                    49.647259999999996
                ]
            },
            "properties": {
                "isced:level": "3",
                "ref:rspo": 39018,
                "official_name": "Bran\u017cowa Szko\u0142a I Stopnia Nr 1 w Zespole Szk\u00f3\u0142 im. H. Ko\u0142\u0142\u0105taja w Jordanowie",
                "name": "Bran\u017cowa Szko\u0142a I Stopnia Nr 1 w Zespole Szk\u00f3\u0142",
                "addr:country": "PL",
                "addr:postcode": "34-240",
                "addr:city": "Jordan\u00f3w",
                "addr:street": "Kolejowa",
                "addr:housenumber": "9",
                "addr:teryt:simc": 960154,
                "addr:teryt:sym_ul": 8828,
                "contact:phone": "+48 182675514",
                "contact:email": "zskjordanow@iap.pl",
                "contact:website": "http:\/\/www.zskjordanow.pl",
                "ref:regon": "356593978",
                "operator": "Powiat Suski",
                "operator:type": "government",
                "amenity": "school",
                "note": "Parent RSPO: 30241"
            }
        },
        {
            "id": 40948,
            "type": "Feature",
            "geometry": {
                "type": "Point",
                "coordinates": [
                    19.82958,
                    49.64723
                ]
            },
            "properties": {
                "isced:level": "3",
                "ref:rspo": 40948,
                "official_name": "Liceum Og\u00f3lnokszta\u0142c\u0105ce Nr I, Zesp\u00f3\u0142 Szk\u00f3\u0142 im. H.ko\u0142\u0142\u0105taja w Jordanowie",
                "name": "Liceum Og\u00f3lnokszta\u0142c\u0105ce Nr I, Zesp\u00f3\u0142 Szk\u00f3\u0142",
                "addr:country": "PL",
                "addr:postcode": "34-240",
                "addr:city": "Jordan\u00f3w",
                "addr:street": "Kolejowa",
                "addr:housenumber": "9",
                "addr:teryt:simc": 960154,
                "addr:teryt:sym_ul": 8828,
                "contact:phone": "+48 182675514",
                "contact:email": "zskjordanow@powiatuski.pl",
                "contact:website": "http:\/\/www.zskjordanow.powiatsuski.pl",
                "ref:regon": "356593926",
                "operator": "Powiat Suski",
                "operator:type": "government",
                "amenity": "school",
                "note": "Parent RSPO: 30241"
            }
        },
        {
            "id": 130467,
            "type": "Feature",
            "geometry": {
                "type": "Point",
                "coordinates": [
                    19.82958,
                    49.6472
                ]
            },
            "properties": {
                "isced:level": "3",
                "ref:rspo": 130467,
                "official_name": "Technikum Nr 2 - Zesp\u00f3\u0142 Szk\u00f3\u0142 im. Hugona Ko\u0142\u0142\u0105taja w Jordanowie",
                "name": "Technikum Nr 2 - Zesp\u00f3\u0142 Szk\u00f3\u0142",
                "addr:country": "PL",
                "addr:postcode": "34-240",
                "addr:city": "Jordan\u00f3w",
                "addr:street": "Kolejowa",
                "addr:housenumber": "9",
                "addr:teryt:simc": 960154,
                "addr:teryt:sym_ul": 8828,
                "contact:phone": "+48 182675514",
                "contact:email": "zskjordanow@iap.pl",
                "ref:regon": "364075190",
                "operator": "Powiat Suski",
                "operator:type": "government",
                "amenity": "school",
                "note": "Parent RSPO: 30241"
            }
        },
        {
            "id": 86352,
            "type": "Feature",
            "geometry": {
                "type": "Point",
                "coordinates": [
                    19.8297199,
                    49.64777
                ]
            },
            "properties": {
                "isced:level": "1;2",
                "ref:rspo": 86352,
                "official_name": "Szko\u0142a Podstawowa im.bohater\u00f3w Wrze\u015bnia 1939R.w Jordanowie",
                "name": "Szko\u0142a Podstawowa im.bohater\u00f3w Wrze\u015bnia 1939R.w Jordanowie",
                "addr:country": "PL",
                "addr:postcode": "34-240",
                "addr:city": "Jordan\u00f3w",
                "addr:street": "Kolejowa",
                "addr:housenumber": "7",
                "addr:teryt:simc": 960154,
                "addr:teryt:sym_ul": 8828,
                "contact:phone": "+48 182675531",
                "contact:email": "szkola@spjordanow.pl",
                "contact:website": "http:\/\/www.spjordanow.pl",
                "ref:regon": "490669491",
                "ref:vatin": "PL7351026129",
                "operator": "Miasto Jordan\u00f3w",
                "operator:type": "government",
                "amenity": "school"
            }
        },
        {
            "id": 21803,
            "type": "Feature",
            "geometry": {
                "type": "Point",
                "coordinates": [
                    19.829050064087,
                    49.649158477783
                ]
            },
            "properties": {
                "ref:rspo": 21803,
                "official_name": "Zesp\u00f3\u0142 Szk\u00f3\u0142 im. B\u0142. Ks. Piotra Da\u0144kowskiego w Jordanowie",
                "name": "Zesp\u00f3\u0142 Szk\u00f3\u0142",
                "addr:country": "PL",
                "addr:postcode": "34-240",
                "addr:city": "Jordan\u00f3w",
                "addr:street": "Genera\u0142a Maczka",
                "addr:housenumber": "131",
                "addr:teryt:simc": 960154,
                "addr:teryt:sym_ul": 39480,
                "contact:phone": "+48 182675658",
                "contact:email": "zsd@powiatsuski.pl",
                "contact:website": "http:\/\/zsdjordanow.iap.pl",
                "ref:regon": "000098631",
                "ref:vatin": "PL7351059608",
                "operator": "Powiat Suski",
                "operator:type": "government",
                "landuse": "education",
                "fixme": "amenity=school, amenity=college albo landuse=education w zale\u017cno\u015bci od tego, jakie plac\u00f3wki wchodz\u0105 w sk\u0142ad zespo\u0142u. Sprawd\u017a, kiedy stosowa\u0107 amenity=* a kiedy landuse=education.",
                "note": "Children RSPO: 23184;23365;23455;23743;130468"
            }
        },
        {
            "id": 86356,
            "type": "Feature",
            "geometry": {
                "type": "Point",
                "coordinates": [
                    19.829050064087,
                    49.649128477782995
                ]
            },
            "properties": {
                "ref:rspo": 86356,
                "official_name": "Niepubliczne Przedszkole T\u0119czowa Kraina w Jordanowie",
                "name": "Niepubliczne Przedszkole T\u0119czowa Kraina w Jordanowie",
                "addr:country": "PL",
                "addr:postcode": "34-240",
                "addr:city": "Jordan\u00f3w",
                "addr:street": "Spytka Jordana",
                "addr:housenumber": "32",
                "addr:teryt:simc": 960154,
                "addr:teryt:sym_ul": 7607,
                "contact:phone": "+48 604079552",
                "contact:email": "dana333b6@wp.pl",
                "contact:website": "http:\/\/www.teczowa-kraina.net",
                "ref:regon": "122710840",
                "ref:vatin": "PL7352076709",
                "operator": "Danuta Rusin",
                "operator:type": "private",
                "amenity": "kindergarten"
            }
        },
        {
            "id": 23184,
            "type": "Feature",
            "geometry": {
                "type": "Point",
                "coordinates": [
                    19.829050064087,
                    49.649098477783
                ]
            },
            "properties": {
                "isced:level": "3",
                "ref:rspo": 23184,
                "official_name": "Technikum Nr 1 - Zesp\u00f3\u0142 Szk\u00f3\u0142 im.b\u0142. Ks. Piotra Da\u0144kowskiego w Jordanowie",
                "name": "Technikum Nr 1 - Zesp\u00f3\u0142 Szk\u00f3\u0142 im.b\u0142. Ks. Piotra Da\u0144kowskiego w Jordanowie",
                "addr:country": "PL",
                "addr:postcode": "34-240",
                "addr:city": "Jordan\u00f3w",
                "addr:street": "Genera\u0142a Maczka",
                "addr:housenumber": "131",
                "addr:teryt:simc": 960154,
                "addr:teryt:sym_ul": 39480,
                "contact:phone": "+48 182675658",
                "contact:email": "zsd@powiatsuski.pl",
                "contact:website": "http:\/\/zsdjordanow.iap.pl",
                "ref:regon": "356591488",
                "operator": "Powiat Suski",
                "operator:type": "government",
                "amenity": "school",
                "note": "Parent RSPO: 21803"
            }
        },
        {
            "id": 23365,
            "type": "Feature",
            "geometry": {
                "type": "Point",
                "coordinates": [
                    19.829050064087,
                    49.649068477783
                ]
            },
            "properties": {
                "isced:level": "3",
                "ref:rspo": 23365,
                "official_name": "Liceum Og\u00f3lnokszta\u0142c\u0105ce Nr II - Zesp\u00f3\u0142 Szk\u00f3\u0142 im. B\u0142. Ks.piotra Da\u0144kowskiego w Jordanowie",
                "name": "Liceum Og\u00f3lnokszta\u0142c\u0105ce Nr II - Zesp\u00f3\u0142 Szk\u00f3\u0142",
                "addr:country": "PL",
                "addr:postcode": "34-240",
                "addr:city": "Jordan\u00f3w",
                "addr:street": "Genera\u0142a Maczka",
                "addr:housenumber": "131",
                "addr:teryt:simc": 960154,
                "addr:teryt:sym_ul": 39480,
                "contact:phone": "+48 182675658",
                "contact:email": "zsd@powiatsuski.pl",
                "contact:website": "http:\/\/zsdjordanow.iap.pl",
                "ref:regon": "356591502",
                "operator": "Powiat Suski",
                "operator:type": "government",
                "amenity": "school",
                "note": "Parent RSPO: 21803"
            }
        },
        {
            "id": 23455,
            "type": "Feature",
            "geometry": {
                "type": "Point",
                "coordinates": [
                    19.829050064087,
                    49.649038477782995
                ]
            },
            "properties": {
                "ref:rspo": 23455,
                "official_name": "Szkolne Schronisko M\u0142odzie\u017cowe \"Chrobacze\" w Jordanowie",
                "name": "Szkolne Schronisko M\u0142odzie\u017cowe \"Chrobacze\" w Jordanowie",
                "addr:country": "PL",
                "addr:postcode": "34-240",
                "addr:city": "Jordan\u00f3w",
                "addr:street": "Genera\u0142a Maczka",
                "addr:housenumber": "131",
                "addr:teryt:simc": 960154,
                "addr:teryt:sym_ul": 39480,
                "contact:phone": "+48 182675658",
                "contact:email": "zsd@powiatsuski.pl",
                "contact:website": "http:\/\/zsdjordanow.iap.pl",
                "ref:regon": "122674764",
                "operator": "Powiat Suski",
                "operator:type": "government",
                "tourism": "hostel",
                "note": "Parent RSPO: 21803"
            }
        },
        {
            "id": 23743,
            "type": "Feature",
            "geometry": {
                "type": "Point",
                "coordinates": [
                    19.829050064087,
                    49.649008477783
                ]
            },
            "properties": {
                "isced:level": "4",
                "ref:rspo": 23743,
                "official_name": "Szko\u0142a Policealna dla Doros\u0142ych",
                "name": "Szko\u0142a Policealna dla Doros\u0142ych",
                "addr:country": "PL",
                "addr:postcode": "34-240",
                "addr:city": "Jordan\u00f3w",
                "addr:street": "Genera\u0142a Maczka",
                "addr:housenumber": "131",
                "addr:teryt:simc": 960154,
                "addr:teryt:sym_ul": 39480,
                "contact:phone": "+48 182675658",
                "contact:email": "zsd@powiatsuski.pl",
                "ref:regon": "122674847",
                "operator": "Powiat Suski",
                "operator:type": "government",
                "amenity": "college",
                "note": "Parent RSPO: 21803"
            }
        },
        {
            "id": 130468,
            "type": "Feature",
            "geometry": {
                "type": "Point",
                "coordinates": [
                    19.829050064087,
                    49.648978477783
                ]
            },
            "properties": {
                "isced:level": "3",
                "ref:rspo": 130468,
                "official_name": "Bran\u017cowa Szko\u0142a I Stopnia Nr 2 - Zesp\u00f3\u0142 Szk\u00f3\u0142 im. B\u0142. Ks. Piotra Da\u0144kowskiego w Jordanowie",
                "name": "Bran\u017cowa Szko\u0142a I Stopnia Nr 2 - Zesp\u00f3\u0142 Szk\u00f3\u0142",
                "addr:country": "PL",
                "addr:postcode": "34-240",
                "addr:city": "Jordan\u00f3w",
                "addr:street": "Genera\u0142a Maczka",
                "addr:housenumber": "131",
                "addr:teryt:simc": 960154,
                "addr:teryt:sym_ul": 39480,
                "contact:phone": "+48 182675658",
                "contact:email": "zsd@powiatsuski.pl",
                "ref:regon": "364075272",
                "operator": "Powiat Suski",
                "operator:type": "government",
                "amenity": "school",
                "note": "Parent RSPO: 21803"
            }
        },
        {
            "id": 86360,
            "type": "Feature",
            "geometry": {
                "type": "Point",
                "coordinates": [
                    19.8274,
                    49.64943
                ]
            },
            "properties": {
                "ref:rspo": 86360,
                "official_name": "Przedszkole Niepubliczne \"Balonik\"",
                "name": "Przedszkole Niepubliczne \"Balonik\"",
                "addr:country": "PL",
                "addr:postcode": "34-240",
                "addr:city": "Jordan\u00f3w",
                "addr:street": "Adama Mickiewicza",
                "addr:housenumber": "8",
                "addr:teryt:simc": 960154,
                "addr:teryt:sym_ul": 12734,
                "contact:phone": "+48 667296383",
                "contact:email": "info@ebalonik.pl",
                "contact:website": "http:\/\/www.ebalonik.pl",
                "ref:regon": "122710833",
                "ref:vatin": "PL5521574775",
                "operator": "Anna Suwada",
                "operator:type": "private",
                "amenity": "kindergarten"
            }
        },
        {
            "id": 86354,
            "type": "Feature",
            "geometry": {
                "type": "Point",
                "coordinates": [
                    19.8358818,
                    49.6531188
                ]
            },
            "properties": {
                "ref:rspo": 86354,
                "official_name": "Miejskie Przedszkole",
                "name": "Miejskie Przedszkole",
                "addr:country": "PL",
                "addr:postcode": "34-240",
                "addr:city": "Jordan\u00f3w",
                "addr:street": "Marii Konopnickiej",
                "addr:housenumber": "6",
                "addr:teryt:simc": 960154,
                "addr:teryt:sym_ul": 9182,
                "contact:phone": "+48 182675556",
                "contact:email": "danutapindel@vp.pl",
                "contact:website": "http:\/\/www.przedszkole jordanow.pl",
                "ref:regon": "490629646",
                "ref:vatin": "PL7351026135",
                "operator": "Miasto Jordan\u00f3w",
                "operator:type": "government",
                "amenity": "kindergarten"
            }
        },
        {
            "id": 278217,
            "type": "Feature",
            "geometry": {
                "type": "Point",
                "coordinates": [
                    19.83533,
                    49.65662
                ]
            },
            "properties": {
                "ref:rspo": 278217,
                "official_name": "Niepubliczne Przedszkole T\u0119czowa Kraina 3 w Jordanowie",
                "name": "Niepubliczne Przedszkole T\u0119czowa Kraina 3 w Jordanowie",
                "addr:country": "PL",
                "addr:postcode": "34-240",
                "addr:city": "Jordan\u00f3w",
                "addr:street": "Genera\u0142a Maczka",
                "addr:housenumber": "85F",
                "addr:teryt:simc": 960154,
                "addr:teryt:sym_ul": 39480,
                "contact:phone": "+48 604079552",
                "contact:email": "dana333b6@wp.pl",
                "contact:website": "http:\/\/www.teczowa-kraina.net",
                "ref:regon": "389850091",
                "operator": "Danuta Rusin",
                "operator:type": "private",
                "amenity": "kindergarten"
            }
        }
    ]
}