{
    "type": "FeatureCollection",
    "features": [
        {
            "id": 91350,
            "type": "Feature",
            "geometry": {
                "type": "Point",
                "coordinates": [
                    19.511197,
                    49.689743
                ]
            },
            "properties": {
                "ref:rspo": 91350,
                "official_name": "Szkolne Schronisko M\u0142odzie\u017cowe w Stryszawie",
                "name": "Szkolne Schronisko M\u0142odzie\u017cowe w Stryszawie",
                "addr:postcode": "34-205",
                "addr:place": "Stryszawa",
                "addr:housenumber": "496",
                "addr:city:simc": 69575,
                "phone": "+48 338747187",
                "ref:regon": "120957110",
                "operator": "Gmina Stryszawa",
                "operator:type": "government",
                "tourism": "hostel",
                "note": "Parent RSPO: 81830"
            }
        },
        {
            "id": 85216,
            "type": "Feature",
            "geometry": {
                "type": "Point",
                "coordinates": [
                    19.4042796,
                    49.6936062
                ]
            },
            "properties": {
                "isced:level": "1;2",
                "ref:rspo": 85216,
                "official_name": "Publiczna Szko\u0142a Podstawowa Stowarzyszenia Przyjaci\u00f3\u0142 Szk\u00f3\u0142 Katolickich w Hucisku-Pewelce",
                "name": "Publiczna Szko\u0142a Podstawowa Stowarzyszenia Przyjaci\u00f3\u0142 Szk\u00f3\u0142 Katolickich w Hucisku-Pewelce",
                "addr:postcode": "34-233",
                "addr:place": "Pewelka",
                "addr:housenumber": "63",
                "addr:city:simc": 69492,
                "phone": "+48 338748920",
                "email": "sp.hucisko@interia.pl",
                "ref:regon": "122713547",
                "operator": "Stowarzyszenie Przyjaci\u00f3\u0142 Szk\u00f3\u0142 Katolickich",
                "operator:type": "ngo",
                "amenity": "school"
            }
        },
        {
            "id": 81827,
            "type": "Feature",
            "geometry": {
                "type": "Point",
                "coordinates": [
                    19.450007,
                    49.6984643
                ]
            },
            "properties": {
                "ref:rspo": 81827,
                "official_name": "Zesp\u00f3\u0142 Szkolno-Przedszkolny w Lachowicach",
                "name": "Zesp\u00f3\u0142 Szkolno-Przedszkolny w Lachowicach",
                "addr:postcode": "34-232",
                "addr:place": "Lachowice",
                "addr:housenumber": "392",
                "addr:city:simc": 69144,
                "phone": "+48 338748217",
                "email": "podstawowa1@op.pl",
                "website": "https:\/\/splachowice.edupage.org\/",
                "ref:regon": "120284600",
                "ref:vatin": "PL5521639411",
                "operator": "Gmina Stryszawa",
                "operator:type": "government",
                "landuse": "education",
                "fixme": "amenity=school, amenity=college albo landuse=education w zale\u017cno\u015bci od tego, jakie plac\u00f3wki wchodz\u0105 w sk\u0142ad zespo\u0142u. Sprawd\u017a, kiedy stosowa\u0107 amenity=* a kiedy landuse=education.",
                "note": "Children RSPO: 90304;91348"
            }
        },
        {
            "id": 90304,
            "type": "Feature",
            "geometry": {
                "type": "Point",
                "coordinates": [
                    19.450007,
                    49.698434299999995
                ]
            },
            "properties": {
                "isced:level": "1;2",
                "ref:rspo": 90304,
                "official_name": "Szko\u0142a Podstawowa w Lachowicach im. Adama Mickiewicza",
                "name": "Szko\u0142a Podstawowa w Lachowicach",
                "addr:postcode": "34-232",
                "addr:place": "Lachowice",
                "addr:housenumber": "392",
                "addr:city:simc": 69144,
                "phone": "+48 338748217",
                "email": "podstawowa1@op.pl",
                "ref:regon": "070449435",
                "operator": "Gmina Stryszawa",
                "operator:type": "government",
                "amenity": "school",
                "note": "Parent RSPO: 81827"
            }
        },
        {
            "id": 81830,
            "type": "Feature",
            "geometry": {
                "type": "Point",
                "coordinates": [
                    19.520891,
                    49.711327
                ]
            },
            "properties": {
                "ref:rspo": 81830,
                "official_name": "Zesp\u00f3\u0142 Szko\u0142y I Schroniska M\u0142odzie\u017cowego w Stryszawie",
                "name": "Zesp\u00f3\u0142 Szko\u0142y I Schroniska M\u0142odzie\u017cowego w Stryszawie",
                "addr:postcode": "34-205",
                "addr:place": "Stryszawa",
                "addr:housenumber": "400A",
                "addr:city:simc": 69575,
                "phone": "+48 338747593",
                "ref:regon": "121282743",
                "ref:vatin": "PL5521479574",
                "operator": "Gmina Stryszawa",
                "operator:type": "government",
                "landuse": "education",
                "fixme": "amenity=school, amenity=college albo landuse=education w zale\u017cno\u015bci od tego, jakie plac\u00f3wki wchodz\u0105 w sk\u0142ad zespo\u0142u. Sprawd\u017a, kiedy stosowa\u0107 amenity=* a kiedy landuse=education.",
                "note": "Children RSPO: 91349;91350"
            }
        },
        {
            "id": 91349,
            "type": "Feature",
            "geometry": {
                "type": "Point",
                "coordinates": [
                    19.520891,
                    49.711296999999995
                ]
            },
            "properties": {
                "isced:level": "1;2",
                "ref:rspo": 91349,
                "official_name": "Szko\u0142a Podstawowa Nr 1 w Stryszawie im. Tadeusza Ko\u015bciuszki",
                "name": "Szko\u0142a Podstawowa Nr 1 w Stryszawie",
                "addr:postcode": "34-205",
                "addr:place": "Stryszawa",
                "addr:housenumber": "400A",
                "addr:city:simc": 69575,
                "phone": "+48 338747008",
                "email": "sp3stryszawa@interia.pl",
                "ref:regon": "070743614",
                "operator": "Gmina Stryszawa",
                "operator:type": "government",
                "amenity": "school",
                "note": "Parent RSPO: 81830"
            }
        },
        {
            "id": 91348,
            "type": "Feature",
            "geometry": {
                "type": "Point",
                "coordinates": [
                    19.4719047,
                    49.7125677
                ]
            },
            "properties": {
                "ref:rspo": 91348,
                "official_name": "Przedszkole w Lachowicach",
                "name": "Przedszkole w Lachowicach",
                "addr:postcode": "34-232",
                "addr:place": "Lachowice",
                "addr:housenumber": "230",
                "addr:city:simc": 69144,
                "phone": "+48 387487073",
                "ref:regon": "120036350",
                "operator": "Gmina Stryszawa",
                "operator:type": "government",
                "amenity": "kindergarten",
                "note": "Parent RSPO: 81827"
            }
        },
        {
            "id": 85190,
            "type": "Feature",
            "geometry": {
                "type": "Point",
                "coordinates": [
                    19.4400476,
                    49.722697
                ]
            },
            "properties": {
                "isced:level": "1;2",
                "ref:rspo": 85190,
                "official_name": "Publiczna Szko\u0142a Podstawowa Stowarzyszenia Przyjaci\u00f3\u0142 Szk\u00f3\u0142 Katolickich Kurowie",
                "name": "Publiczna Szko\u0142a Podstawowa Stowarzyszenia Przyjaci\u00f3\u0142 Szk\u00f3\u0142 Katolickich Kurowie",
                "addr:postcode": "34-233",
                "addr:place": "Kur\u00f3w",
                "addr:housenumber": "101a",
                "addr:city:simc": 69026,
                "phone": "+48 338748908",
                "email": "kurowsp@interia.pl",
                "ref:regon": "122713470",
                "operator": "Stowarzyszenie Przyjaci\u00f3\u0142 Szk\u00f3\u0142 Katolickich",
                "operator:type": "ngo",
                "amenity": "school"
            }
        },
        {
            "id": 81826,
            "type": "Feature",
            "geometry": {
                "type": "Point",
                "coordinates": [
                    19.5269759,
                    49.732366
                ]
            },
            "properties": {
                "ref:rspo": 81826,
                "official_name": "Przedszkole Samorz\u0105dowe w Stryszawie",
                "name": "Przedszkole Samorz\u0105dowe w Stryszawie",
                "addr:postcode": "34-205",
                "addr:place": "Stryszawa",
                "addr:housenumber": "278D",
                "addr:city:simc": 69575,
                "phone": "+48 338747198",
                "email": "ps.stryszawa@interia.pl",
                "ref:regon": "356741373",
                "ref:vatin": "PL5521561488",
                "operator": "Gmina Stryszawa",
                "operator:type": "government",
                "amenity": "kindergarten"
            }
        },
        {
            "id": 44172,
            "type": "Feature",
            "geometry": {
                "type": "Point",
                "coordinates": [
                    19.52655,
                    49.73289
                ]
            },
            "properties": {
                "isced:level": "1;2",
                "ref:rspo": 44172,
                "official_name": "Szko\u0142a Podstawowa Nr 2 w Stryszawie",
                "name": "Szko\u0142a Podstawowa Nr 2 w Stryszawie",
                "addr:postcode": "34-205",
                "addr:place": "Stryszawa",
                "addr:housenumber": "278 b",
                "addr:city:simc": 69575,
                "phone": "+48 338747018",
                "email": "sp2stryszawa@wp.pl",
                "website": "http:\/\/www.sp2stryszawa.szkolnastrona.pl",
                "ref:regon": "070449398",
                "ref:vatin": "PL5521476765",
                "operator": "Gmina Stryszawa",
                "operator:type": "government",
                "amenity": "school"
            }
        },
        {
            "id": 81814,
            "type": "Feature",
            "geometry": {
                "type": "Point",
                "coordinates": [
                    19.4599349,
                    49.743392
                ]
            },
            "properties": {
                "isced:level": "1;2",
                "ref:rspo": 81814,
                "official_name": "Szko\u0142a Podstawowa w Kukowie",
                "name": "Szko\u0142a Podstawowa w Kukowie",
                "addr:postcode": "34-206",
                "addr:place": "Kuk\u00f3w",
                "addr:housenumber": "52",
                "addr:city:simc": 68647,
                "phone": "+48 338748009",
                "email": "sp2kukow@poczta.onet.pl",
                "website": "http:\/\/www.spkukow.edupage.org",
                "ref:regon": "070449470",
                "ref:vatin": "PL5521476788",
                "operator": "Gmina Stryszawa",
                "operator:type": "government",
                "amenity": "school"
            }
        },
        {
            "id": 81829,
            "type": "Feature",
            "geometry": {
                "type": "Point",
                "coordinates": [
                    19.48549,
                    49.75641
                ]
            },
            "properties": {
                "ref:rspo": 81829,
                "official_name": "Zesp\u00f3\u0142 Szkolno-Przedszkolny w Krzeszowie",
                "name": "Zesp\u00f3\u0142 Szkolno-Przedszkolny w Krzeszowie",
                "addr:postcode": "34-206",
                "addr:place": "Krzesz\u00f3w",
                "addr:housenumber": "216",
                "addr:city:simc": 68430,
                "phone": "+48 338748173",
                "email": "zskrzeszow@op.pl",
                "ref:regon": "356741479",
                "ref:vatin": "PL5521561471",
                "operator": "Gmina Stryszawa",
                "operator:type": "government",
                "landuse": "education",
                "fixme": "amenity=school, amenity=college albo landuse=education w zale\u017cno\u015bci od tego, jakie plac\u00f3wki wchodz\u0105 w sk\u0142ad zespo\u0142u. Sprawd\u017a, kiedy stosowa\u0107 amenity=* a kiedy landuse=education.",
                "note": "Children RSPO: 91352;91354"
            }
        },
        {
            "id": 91352,
            "type": "Feature",
            "geometry": {
                "type": "Point",
                "coordinates": [
                    19.48549,
                    49.75638
                ]
            },
            "properties": {
                "isced:level": "1;2",
                "ref:rspo": 91352,
                "official_name": "Szko\u0142a Podstawowa w Krzeszowie im. Ks. Pra\u0142ata W\u0142adys\u0142awa Bo\u017cka",
                "name": "Szko\u0142a Podstawowa w Krzeszowie",
                "addr:postcode": "34-206",
                "addr:place": "Krzesz\u00f3w",
                "addr:housenumber": "216",
                "addr:city:simc": 68430,
                "phone": "+48 338748173",
                "email": "zskrzeszow@op.pl",
                "ref:regon": "070449501",
                "operator": "Gmina Stryszawa",
                "operator:type": "government",
                "amenity": "school",
                "note": "Parent RSPO: 81829"
            }
        },
        {
            "id": 91354,
            "type": "Feature",
            "geometry": {
                "type": "Point",
                "coordinates": [
                    19.488865,
                    49.759515
                ]
            },
            "properties": {
                "ref:rspo": 91354,
                "official_name": "Przedszkole w Krzeszowie",
                "name": "Przedszkole w Krzeszowie",
                "addr:postcode": "34-206",
                "addr:place": "Krzesz\u00f3w",
                "addr:housenumber": "78a",
                "addr:city:simc": 68430,
                "phone": "+48 338748187",
                "ref:regon": "070040025",
                "operator": "Gmina Stryszawa",
                "operator:type": "government",
                "amenity": "kindergarten",
                "note": "Parent RSPO: 81829"
            }
        }
    ]
}