{
    "type": "FeatureCollection",
    "features": [
        {
            "id": 53756,
            "type": "Feature",
            "geometry": {
                "type": "Point",
                "coordinates": [
                    19.84972,
                    49.6179
                ]
            },
            "properties": {
                "isced:level": "1;2",
                "ref:rspo": 53756,
                "official_name": "Szko\u0142a Podstawowa im. Wojska Polskiego w Wysokiej",
                "name": "Szko\u0142a Podstawowa",
                "addr:country": "PL",
                "addr:postcode": "34-240",
                "addr:place": "Wysoka",
                "addr:housenumber": "42",
                "addr:teryt:sym_ul": 432596,
                "contact:phone": "+48 182672835",
                "contact:email": "szkola-wysoka@o2.pl",
                "ref:regon": "490548971",
                "ref:vatin": "PL5521550102",
                "operator": "Gmina Jordan\u00f3w",
                "operator:type": "government",
                "amenity": "school"
            }
        },
        {
            "id": 53755,
            "type": "Feature",
            "geometry": {
                "type": "Point",
                "coordinates": [
                    19.78377,
                    49.62004
                ]
            },
            "properties": {
                "isced:level": "1;2",
                "ref:rspo": 53755,
                "official_name": "Szko\u0142a Podstawowa im. Jana Kochanowskiego w Toporzysku",
                "name": "Szko\u0142a Podstawowa",
                "addr:country": "PL",
                "addr:postcode": "34-240",
                "addr:place": "Toporzysko",
                "addr:housenumber": "166",
                "addr:teryt:sym_ul": 432159,
                "contact:phone": "+48 182873318",
                "contact:email": "zs.toporzysko@gmail.com",
                "contact:website": "http:\/\/www.nowa.zstoporzysko.h2.pl",
                "ref:regon": "490548988",
                "ref:vatin": "PL5521550119",
                "operator": "Gmina Jordan\u00f3w",
                "operator:type": "government",
                "amenity": "school"
            }
        },
        {
            "id": 124349,
            "type": "Feature",
            "geometry": {
                "type": "Point",
                "coordinates": [
                    19.89866,
                    49.64947
                ]
            },
            "properties": {
                "ref:rspo": 124349,
                "official_name": "Niepubliczne Przedszkole Akademia Dziecka w Naprawie",
                "name": "Niepubliczne Przedszkole Akademia Dziecka w Naprawie",
                "addr:country": "PL",
                "addr:postcode": "34-240",
                "addr:place": "Naprawa",
                "addr:housenumber": "541",
                "addr:teryt:sym_ul": 431438,
                "contact:email": "akademiadziecka2014@gmail.com",
                "ref:regon": "123195126",
                "ref:vatin": "PL7352704784",
                "operator": "Aneta Tempka",
                "operator:type": "private",
                "amenity": "kindergarten"
            }
        },
        {
            "id": 272452,
            "type": "Feature",
            "geometry": {
                "type": "Point",
                "coordinates": [
                    19.87688,
                    49.66208
                ]
            },
            "properties": {
                "ref:rspo": 272452,
                "official_name": "Zesp\u00f3\u0142 Szkolno-Przedszkolny w Naprawie",
                "name": "Zesp\u00f3\u0142 Szkolno-Przedszkolny w Naprawie",
                "addr:country": "PL",
                "addr:postcode": "34-240",
                "addr:place": "Naprawa",
                "addr:housenumber": "378",
                "addr:teryt:sym_ul": 431438,
                "contact:phone": "+48 182672003",
                "contact:email": "sekretariat@spnaprawa.edu.pl",
                "contact:website": "http:\/\/spnaprawa.edu.pl",
                "ref:regon": "384176916",
                "ref:vatin": "PL5521725352",
                "operator": "Gmina Jordan\u00f3w",
                "operator:type": "government",
                "landuse": "education",
                "fixme": "amenity=school, amenity=college albo landuse=education w zale\u017cno\u015bci od tego, jakie plac\u00f3wki wchodz\u0105 w sk\u0142ad zespo\u0142u. Sprawd\u017a, kiedy stosowa\u0107 amenity=* a kiedy landuse=education.",
                "note": "Children RSPO: 40739;53753"
            }
        },
        {
            "id": 40739,
            "type": "Feature",
            "geometry": {
                "type": "Point",
                "coordinates": [
                    19.87688,
                    49.66205
                ]
            },
            "properties": {
                "ref:rspo": 40739,
                "official_name": "Przedszkole Samorz\u0105dowe w Naprawie",
                "name": "Przedszkole Samorz\u0105dowe w Naprawie",
                "addr:country": "PL",
                "addr:postcode": "34-240",
                "addr:place": "Naprawa",
                "addr:housenumber": "378",
                "addr:teryt:sym_ul": 431438,
                "contact:phone": "+48 182672008",
                "contact:email": "sekretariat@spnaprawa.edu.pl",
                "contact:website": "http:\/\/spnaprawa.edu.pl",
                "ref:regon": "490689281",
                "ref:vatin": "PL7351412855",
                "operator": "Gmina Jordan\u00f3w",
                "operator:type": "government",
                "amenity": "kindergarten",
                "note": "Parent RSPO: 272452"
            }
        },
        {
            "id": 53753,
            "type": "Feature",
            "geometry": {
                "type": "Point",
                "coordinates": [
                    19.87688,
                    49.662020000000005
                ]
            },
            "properties": {
                "isced:level": "1;2",
                "ref:rspo": 53753,
                "official_name": "Szko\u0142a Podstawowa w Naprawie",
                "name": "Szko\u0142a Podstawowa w Naprawie",
                "addr:country": "PL",
                "addr:postcode": "34-240",
                "addr:place": "Naprawa",
                "addr:housenumber": "378",
                "addr:teryt:sym_ul": 431438,
                "contact:phone": "+48 182672003",
                "contact:email": "sekretariat@spnaprawa.edu.pl",
                "contact:website": "http:\/\/spnaprawa.edu.pl",
                "ref:regon": "490549002",
                "ref:vatin": "PL5521550125",
                "operator": "Gmina Jordan\u00f3w",
                "operator:type": "government",
                "amenity": "school",
                "note": "Parent RSPO: 272452"
            }
        },
        {
            "id": 40738,
            "type": "Feature",
            "geometry": {
                "type": "Point",
                "coordinates": [
                    19.77367,
                    49.6699
                ]
            },
            "properties": {
                "ref:rspo": 40738,
                "official_name": "Przedszkole Samorz\u0105dowe w Osielcu",
                "name": "Przedszkole Samorz\u0105dowe w Osielcu",
                "addr:country": "PL",
                "addr:postcode": "34-234",
                "addr:place": "Osielec",
                "addr:housenumber": "824",
                "addr:teryt:sym_ul": 431728,
                "contact:phone": "+48 182772139",
                "contact:email": "przedszkole.osielec@onet.eu",
                "contact:website": "http:\/\/www.osielec-przedszkole.pl",
                "ref:regon": "490689298",
                "ref:vatin": "PL7351412890",
                "operator": "Gmina Jordan\u00f3w",
                "operator:type": "government",
                "amenity": "kindergarten"
            }
        },
        {
            "id": 53754,
            "type": "Feature",
            "geometry": {
                "type": "Point",
                "coordinates": [
                    19.7675899,
                    49.67129
                ]
            },
            "properties": {
                "isced:level": "1;2",
                "ref:rspo": 53754,
                "official_name": "Szko\u0142a Podstawowa im. Karola Szymanowskiego w Osielcu",
                "name": "Szko\u0142a Podstawowa",
                "addr:country": "PL",
                "addr:postcode": "34-234",
                "addr:place": "Osielec",
                "addr:housenumber": "440",
                "addr:teryt:sym_ul": 431728,
                "contact:phone": "+48 182773902",
                "contact:email": "osielecszkola@wp.pl",
                "contact:website": "http:\/\/www.zsosielec.pl",
                "ref:regon": "490548994",
                "ref:vatin": "PL5521549808",
                "operator": "Gmina Jordan\u00f3w",
                "operator:type": "government",
                "amenity": "school"
            }
        },
        {
            "id": 40740,
            "type": "Feature",
            "geometry": {
                "type": "Point",
                "coordinates": [
                    19.7717,
                    49.67183
                ]
            },
            "properties": {
                "ref:rspo": 40740,
                "official_name": "Niepubliczne Przedszkole \"Le\u015bna Kraina\" w Osielcu",
                "name": "Niepubliczne Przedszkole \"Le\u015bna Kraina\" w Osielcu",
                "addr:country": "PL",
                "addr:postcode": "34-234",
                "addr:place": "Osielec",
                "addr:housenumber": "639",
                "addr:teryt:sym_ul": 431728,
                "contact:phone": "+48 182773614",
                "contact:email": "przedszkole.lucyna.kudzia@vp.pl",
                "contact:website": "http:\/\/www.przedszkole-osielec.pl",
                "ref:regon": "122686879",
                "ref:vatin": "PL7351681182",
                "operator": "Lucyna Kudzia",
                "operator:type": "private",
                "amenity": "kindergarten"
            }
        },
        {
            "id": 53752,
            "type": "Feature",
            "geometry": {
                "type": "Point",
                "coordinates": [
                    19.86924,
                    49.69668
                ]
            },
            "properties": {
                "isced:level": "1;2",
                "ref:rspo": 53752,
                "official_name": "Szko\u0142a Podstawowa im. Jana Paw\u0142a II w \u0141\u0119towni",
                "name": "Szko\u0142a Podstawowa",
                "addr:country": "PL",
                "addr:postcode": "34-242",
                "addr:place": "\u0141\u0119townia",
                "addr:housenumber": "286",
                "addr:teryt:sym_ul": 431007,
                "contact:phone": "+48 182773001",
                "contact:email": "zswlentowni@onet.eu",
                "contact:website": "http:\/\/www.spletownia.szkolnastrona.pl",
                "ref:regon": "490549019",
                "ref:vatin": "PL5521550131",
                "operator": "Gmina Jordan\u00f3w",
                "operator:type": "government",
                "amenity": "school"
            }
        },
        {
            "id": 40737,
            "type": "Feature",
            "geometry": {
                "type": "Point",
                "coordinates": [
                    19.87199,
                    49.6967799
                ]
            },
            "properties": {
                "ref:rspo": 40737,
                "official_name": "Przedszkole Samorz\u0105dowe w \u0141\u0119towni",
                "name": "Przedszkole Samorz\u0105dowe w \u0141\u0119towni",
                "addr:country": "PL",
                "addr:postcode": "34-242",
                "addr:place": "\u0141\u0119townia",
                "addr:housenumber": "187",
                "addr:teryt:sym_ul": 431007,
                "contact:phone": "+48 182773004",
                "contact:email": "przedszkole.letowna@vp.pl",
                "contact:website": "http:\/\/www.przedszkoleletownia.szkolnastrona.pl",
                "ref:regon": "490689275",
                "ref:vatin": "PL7351412944",
                "operator": "Gmina Jordan\u00f3w",
                "operator:type": "government",
                "amenity": "kindergarten"
            }
        }
    ]
}