{
    "type": "FeatureCollection",
    "features": [
        {
            "id": 64506,
            "type": "Feature",
            "geometry": {
                "type": "Point",
                "coordinates": [
                    14.44336,
                    53.87791
                ]
            },
            "properties": {
                "isced:level": "1;2",
                "ref:rspo": 64506,
                "official_name": "Szko\u0142a Podstawowa Nr 2 im. Prof. Dra W\u0142adys\u0142awa Szafera w Wapnicy",
                "name": "Szko\u0142a Podstawowa Nr 2",
                "addr:country": "PL",
                "addr:postcode": "72-500",
                "addr:city": "Wapnica",
                "addr:street": "Jod\u0142owa",
                "addr:housenumber": "3",
                "addr:teryt:simc": 779443,
                "addr:teryt:sym_ul": 7582,
                "contact:phone": "+48 913284106",
                "contact:email": "sekretariat@sp2wapnica.pl",
                "contact:website": "http:\/\/www.sp2wapnica.pl",
                "ref:regon": "001269833",
                "ref:vatin": "PL8551344969",
                "operator": "Gmina Mi\u0119dzyzdroje",
                "operator:type": "government",
                "amenity": "school"
            }
        },
        {
            "id": 81008,
            "type": "Feature",
            "geometry": {
                "type": "Point",
                "coordinates": [
                    14.44336,
                    53.87788
                ]
            },
            "properties": {
                "ref:rspo": 81008,
                "official_name": "Punkt Przedszkolny Przy Szkole Podstawowej Nr 2 im. Prof. Dra W\u0142adys\u0142awa Szafera w Wapnicy",
                "name": "Punkt Przedszkolny Przy Szkole Podstawowej Nr 2",
                "addr:country": "PL",
                "addr:postcode": "72-500",
                "addr:city": "Wapnica",
                "addr:street": "Jod\u0142owa",
                "addr:housenumber": "3",
                "addr:teryt:simc": 779443,
                "addr:teryt:sym_ul": 7582,
                "contact:phone": "+48 913284106",
                "contact:email": "sekretariat@sp2wapnica.pl",
                "contact:website": "http:\/\/www.sp2wapnica.pl",
                "ref:regon": "321299364",
                "ref:vatin": "PL8551344969",
                "operator": "Gmina Mi\u0119dzyzdroje",
                "operator:type": "government",
                "amenity": "kindergarten"
            }
        },
        {
            "id": 64831,
            "type": "Feature",
            "geometry": {
                "type": "Point",
                "coordinates": [
                    14.44167,
                    53.9259
                ]
            },
            "properties": {
                "ref:rspo": 64831,
                "official_name": "Przedszkole Miejskie Nr 1 \"Morskie Skarby\" w Mi\u0119dzyzdrojach",
                "name": "Przedszkole Miejskie Nr 1 \"Morskie Skarby\" w Mi\u0119dzyzdrojach",
                "addr:country": "PL",
                "addr:postcode": "72-500",
                "addr:city": "Mi\u0119dzyzdroje",
                "addr:street": "My\u015bliwska",
                "addr:housenumber": "13",
                "addr:teryt:simc": 979248,
                "addr:teryt:sym_ul": 13563,
                "contact:phone": "+48 913280362",
                "contact:email": "pmmiedzyzdroje@wp.pl",
                "contact:website": "http:\/\/www.morskieskarby.szkolnastrona.pl",
                "ref:regon": "001238672",
                "ref:vatin": "PL8551090983",
                "operator": "Gmina Mi\u0119dzyzdroje",
                "operator:type": "government",
                "amenity": "kindergarten"
            }
        },
        {
            "id": 23874,
            "type": "Feature",
            "geometry": {
                "type": "Point",
                "coordinates": [
                    14.45702,
                    53.92907
                ]
            },
            "properties": {
                "ref:rspo": 23874,
                "official_name": "Dom Wczas\u00f3w Dzieci\u0119cych w Mi\u0119dzyzdrojach",
                "name": "Dom Wczas\u00f3w Dzieci\u0119cych w Mi\u0119dzyzdrojach",
                "addr:country": "PL",
                "addr:postcode": "72-500",
                "addr:city": "Mi\u0119dzyzdroje",
                "addr:street": "Le\u015bna",
                "addr:housenumber": "24",
                "addr:teryt:simc": 979248,
                "addr:teryt:sym_ul": 10898,
                "contact:phone": "+48 913280194",
                "contact:email": "biuro@dwdmiedzyzdroje.pl",
                "contact:website": "http:\/\/dwd-miedzyzdroje.eu",
                "ref:regon": "000210944",
                "ref:vatin": "PL8551056880",
                "operator": "Powiat Kamie\u0144ski",
                "operator:type": "government",
                "leisure": "resort"
            }
        },
        {
            "id": 64630,
            "type": "Feature",
            "geometry": {
                "type": "Point",
                "coordinates": [
                    14.45783,
                    53.93004
                ]
            },
            "properties": {
                "isced:level": "1;2",
                "ref:rspo": 64630,
                "official_name": "Szko\u0142a Podstawowa Nr 1 im. Boles\u0142awa Chrobrego w Mi\u0119dzyzdrojach",
                "name": "Szko\u0142a Podstawowa Nr 1",
                "addr:country": "PL",
                "addr:postcode": "72-500",
                "addr:city": "Mi\u0119dzyzdroje",
                "addr:street": "Le\u015bna",
                "addr:housenumber": "17",
                "addr:teryt:simc": 979248,
                "addr:teryt:sym_ul": 10898,
                "contact:phone": "+48 913280611",
                "contact:email": "sp1mz@wp.pl",
                "contact:website": "http:\/\/www.sp1.com.pl",
                "ref:regon": "000738059",
                "ref:vatin": "PL8551068943",
                "operator": "Gmina Mi\u0119dzyzdroje",
                "operator:type": "government",
                "amenity": "school"
            }
        }
    ]
}