{
    "type": "FeatureCollection",
    "features": [
        {
            "id": 83390,
            "type": "Feature",
            "geometry": {
                "type": "Point",
                "coordinates": [
                    14.65672,
                    53.80733
                ]
            },
            "properties": {
                "isced:level": "1;2",
                "ref:rspo": 83390,
                "official_name": "Publiczna Szko\u0142a Podstawowa w Koniewie",
                "name": "Publiczna Szko\u0142a Podstawowa w Koniewie",
                "addr:postcode": "72-510",
                "addr:place": "Koniewo",
                "addr:housenumber": "9",
                "addr:city:simc": 785828,
                "phone": "+48 913266322",
                "email": "koniewo9@wp.pl",
                "website": "http:\/\/pspkoniewo.pl",
                "ref:regon": "001222458",
                "ref:vatin": "PL9860214484",
                "operator": "Gmina Wolin",
                "operator:type": "government",
                "amenity": "school"
            }
        },
        {
            "id": 23876,
            "type": "Feature",
            "geometry": {
                "type": "Point",
                "coordinates": [
                    14.75962,
                    53.81967
                ]
            },
            "properties": {
                "ref:rspo": 23876,
                "official_name": "O\u015brodek Rehabilitacyjno-Edukacyjno-Wychowawczy",
                "name": "O\u015brodek Rehabilitacyjno-Edukacyjno-Wychowawczy",
                "addr:postcode": "72-510",
                "addr:place": "Ostromice",
                "addr:housenumber": "17",
                "addr:city:simc": 785930,
                "phone": "+48 913262424",
                "email": "orew.ostromice@psoniwolin.org",
                "website": "http:\/\/www.psoniwolin.org",
                "ref:regon": "321282300",
                "ref:vatin": "PL9860133426",
                "operator": "Polskie Stowarzyszenie Na Rzecz Os\u00f3b Z Niepe\u0142nosprawno\u015bci\u0105 Intelektualn\u0105 Ko\u0142o W Wolinie",
                "operator:type": "ngo",
                "amenity": "school"
            }
        },
        {
            "id": 80353,
            "type": "Feature",
            "geometry": {
                "type": "Point",
                "coordinates": [
                    14.71459,
                    53.83963
                ]
            },
            "properties": {
                "isced:level": "1;2",
                "ref:rspo": 80353,
                "official_name": "Publiczna Szko\u0142a Podstawowa w Troszynie",
                "name": "Publiczna Szko\u0142a Podstawowa w Troszynie",
                "addr:postcode": "72-511",
                "addr:place": "Troszyn",
                "addr:housenumber": "15",
                "addr:city:simc": 786070,
                "phone": "+48 913263178",
                "email": "psptroszyn@op.pl",
                "website": "http:\/\/sptroszyn.szkolnastrona.pl",
                "ref:regon": "001236791",
                "operator": "Gmina Wolin",
                "operator:type": "government",
                "amenity": "school"
            }
        },
        {
            "id": 52497,
            "type": "Feature",
            "geometry": {
                "type": "Point",
                "coordinates": [
                    14.61187,
                    53.84413
                ]
            },
            "properties": {
                "ref:rspo": 52497,
                "official_name": "Zesp\u00f3\u0142 Szk\u00f3\u0142 Ponadpodstawowych w Wolinie",
                "name": "Zesp\u00f3\u0142 Szk\u00f3\u0142 Ponadpodstawowych w Wolinie",
                "addr:postcode": "72-510",
                "addr:city": "Wolin",
                "addr:street": "S\u0142owia\u0144ska",
                "addr:housenumber": "2",
                "addr:city:simc": 980079,
                "addr:street:sym_ul": 20294,
                "phone": "+48 913261335",
                "email": "zspwwolinie@gmail.com",
                "website": "http:\/\/www.zspwolin.pl",
                "ref:regon": "000099620",
                "ref:vatin": "PL8551338549",
                "operator": "Powiat Kamie\u0144ski",
                "operator:type": "government",
                "landuse": "education",
                "fixme": "amenity=school, amenity=college albo landuse=education w zale\u017cno\u015bci od tego, jakie plac\u00f3wki wchodz\u0105 w sk\u0142ad zespo\u0142u. Sprawd\u017a, kiedy stosowa\u0107 amenity=* a kiedy landuse=education.",
                "note": "Children RSPO: 55168;111326;269771;276843"
            }
        },
        {
            "id": 55168,
            "type": "Feature",
            "geometry": {
                "type": "Point",
                "coordinates": [
                    14.61187,
                    53.8441
                ]
            },
            "properties": {
                "isced:level": "3",
                "ref:rspo": 55168,
                "official_name": "Liceum Og\u00f3lnokszta\u0142c\u0105ce im. Prof. Adama Wodziczki w Wolinie w Zespole Szk\u00f3\u0142 Ponadpodstawowych",
                "name": "Liceum Og\u00f3lnokszta\u0142c\u0105ce",
                "addr:postcode": "72-510",
                "addr:city": "Wolin",
                "addr:street": "S\u0142owia\u0144ska",
                "addr:housenumber": "2",
                "addr:city:simc": 980079,
                "addr:street:sym_ul": 20294,
                "phone": "+48 913261335",
                "email": "zspwwolinie@gmail.com",
                "website": "http:\/\/www.zspwolin.pl",
                "ref:regon": "812527210",
                "operator": "Powiat Kamie\u0144ski",
                "operator:type": "government",
                "amenity": "school",
                "note": "Parent RSPO: 52497"
            }
        },
        {
            "id": 111326,
            "type": "Feature",
            "geometry": {
                "type": "Point",
                "coordinates": [
                    14.61187,
                    53.84407
                ]
            },
            "properties": {
                "isced:level": "3",
                "ref:rspo": 111326,
                "official_name": "Technikum im. Prof. Adama Wodziczki w Wolinie w Zespole Szk\u00f3\u0142 Ponadpodstawowych",
                "name": "Technikum",
                "addr:postcode": "72-510",
                "addr:city": "Wolin",
                "addr:street": "S\u0142owia\u0144ska",
                "addr:housenumber": "2",
                "addr:city:simc": 980079,
                "addr:street:sym_ul": 20294,
                "phone": "+48 913261335",
                "email": "zspwwolinie@gmail.com",
                "website": "http:\/\/zspwolin.pl",
                "ref:regon": "321347442",
                "operator": "Powiat Kamie\u0144ski",
                "operator:type": "government",
                "amenity": "school",
                "note": "Parent RSPO: 52497"
            }
        },
        {
            "id": 269771,
            "type": "Feature",
            "geometry": {
                "type": "Point",
                "coordinates": [
                    14.61187,
                    53.84404
                ]
            },
            "properties": {
                "isced:level": "3",
                "ref:rspo": 269771,
                "official_name": "Bran\u017cowa Szko\u0142a I Stopnia im.prof.adama Wodziczki w Wolinie",
                "name": "Bran\u017cowa Szko\u0142a I Stopnia im.prof.adama Wodziczki w Wolinie",
                "addr:postcode": "72-510",
                "addr:city": "Wolin",
                "addr:street": "S\u0142owia\u0144ska",
                "addr:housenumber": "2",
                "addr:city:simc": 980079,
                "addr:street:sym_ul": 20294,
                "phone": "+48 913261335",
                "email": "zspwwolinie@gmail.com",
                "website": "http:\/\/www.zspwolin.pl",
                "ref:regon": "381761092",
                "operator": "Powiat Kamie\u0144ski",
                "operator:type": "government",
                "amenity": "school",
                "note": "Parent RSPO: 52497"
            }
        },
        {
            "id": 276843,
            "type": "Feature",
            "geometry": {
                "type": "Point",
                "coordinates": [
                    14.61187,
                    53.84401
                ]
            },
            "properties": {
                "isced:level": "3",
                "ref:rspo": 276843,
                "official_name": "Bran\u017cowa Szko\u0142a II Stopnia im.prof. Adama Wodziczki w Wolinie",
                "name": "Bran\u017cowa Szko\u0142a II Stopnia im.prof. Adama Wodziczki w Wolinie",
                "addr:postcode": "72-510",
                "addr:city": "Wolin",
                "addr:street": "S\u0142owia\u0144ska",
                "addr:housenumber": "2",
                "addr:city:simc": 980079,
                "addr:street:sym_ul": 20294,
                "phone": "+48 913261335",
                "email": "zspwwolinie@gmail.com",
                "website": "http:\/\/www.zspwolin.pl",
                "ref:regon": "387684620",
                "operator": "Powiat Kamie\u0144ski",
                "operator:type": "government",
                "amenity": "school",
                "note": "Parent RSPO: 52497"
            }
        },
        {
            "id": 74307,
            "type": "Feature",
            "geometry": {
                "type": "Point",
                "coordinates": [
                    14.60966,
                    53.84559
                ]
            },
            "properties": {
                "isced:level": "1;2",
                "ref:rspo": 74307,
                "official_name": "Publiczna Szko\u0142a Podstawowa im. \"Boles\u0142awa Krzywoustego\" w Wolinie",
                "name": "Publiczna Szko\u0142a Podstawowa",
                "addr:postcode": "72-510",
                "addr:city": "Wolin",
                "addr:street": "Spokojna",
                "addr:housenumber": "1",
                "addr:city:simc": 980079,
                "addr:street:sym_ul": 20677,
                "phone": "+48 913261790",
                "email": "pspwolinsekretariat@vp.pl",
                "website": "http:\/\/pspwolin.edupage.org",
                "ref:regon": "810832392",
                "ref:vatin": "PL9860214490",
                "operator": "Gmina Wolin",
                "operator:type": "government",
                "amenity": "school"
            }
        },
        {
            "id": 125994,
            "type": "Feature",
            "geometry": {
                "type": "Point",
                "coordinates": [
                    14.60966,
                    53.84556
                ]
            },
            "properties": {
                "ref:rspo": 125994,
                "official_name": "Sezonowe Schronisko M\u0142odzie\u017cowe",
                "name": "Sezonowe Schronisko M\u0142odzie\u017cowe",
                "addr:postcode": "72-510",
                "addr:city": "Wolin",
                "addr:street": "Spokojna",
                "addr:housenumber": "1",
                "addr:city:simc": 980079,
                "addr:street:sym_ul": 20677,
                "phone": "+48 913261790",
                "ref:regon": "360141115",
                "operator": "Gmina Wolin",
                "operator:type": "government",
                "tourism": "hostel"
            }
        },
        {
            "id": 86018,
            "type": "Feature",
            "geometry": {
                "type": "Point",
                "coordinates": [
                    14.60482,
                    53.84646
                ]
            },
            "properties": {
                "ref:rspo": 86018,
                "official_name": "Przedszkole Miejskie w Wolinie \"Kraina U\u015bmiechu\"",
                "name": "Przedszkole Miejskie w Wolinie \"Kraina U\u015bmiechu\"",
                "addr:postcode": "75-510",
                "addr:city": "Wolin",
                "addr:street": "Wiejska",
                "addr:housenumber": "10",
                "addr:city:simc": 980079,
                "addr:street:sym_ul": 24048,
                "phone": "+48 913261741",
                "email": "przedszkole@gminawolin.pl",
                "ref:regon": "000269720",
                "ref:vatin": "PL9860214478",
                "operator": "Gmina Wolin",
                "operator:type": "government",
                "amenity": "kindergarten"
            }
        },
        {
            "id": 25295,
            "type": "Feature",
            "geometry": {
                "type": "Point",
                "coordinates": [
                    14.60805,
                    53.84748
                ]
            },
            "properties": {
                "ref:rspo": 25295,
                "official_name": "Poradnia Psychologiczno -Pedagogiczna w Wolinie",
                "name": "Poradnia Psychologiczno -Pedagogiczna w Wolinie",
                "addr:postcode": "72-510",
                "addr:city": "Wolin",
                "addr:street": "Kolejowa",
                "addr:housenumber": "1",
                "addr:city:simc": 980079,
                "addr:street:sym_ul": 8828,
                "phone": "+48 913261490",
                "email": "poradnia.wolin@idsl.pl",
                "ref:regon": "810487216",
                "ref:vatin": "PL8551081033",
                "operator": "Powiat Kamie\u0144ski",
                "operator:type": "government",
                "healthcare": "counselling",
                "counselling_type": "education",
                "fixme": "w zale\u017cno\u015bci od przedmiotu dzia\u0142alno\u015bci (np. healthcare=counselling + counselling_type=education albo healthcare=psychotherapist)"
            }
        },
        {
            "id": 83393,
            "type": "Feature",
            "geometry": {
                "type": "Point",
                "coordinates": [
                    14.54354,
                    53.86803
                ]
            },
            "properties": {
                "isced:level": "1;2",
                "ref:rspo": 83393,
                "official_name": "Publiczna Szko\u0142a Podstawowa im. Zofii Kossak-Szczuckiej w Dargob\u0105dzu",
                "name": "Publiczna Szko\u0142a Podstawowa",
                "addr:postcode": "72-510",
                "addr:place": "Dargob\u0105dz",
                "addr:housenumber": "89",
                "addr:city:simc": 785610,
                "phone": "+48 913260222",
                "email": "sekretariat@spdargobadz.pl",
                "website": "http:\/\/szkola-dargobadz.edupage.org",
                "ref:regon": "001222501",
                "ref:vatin": "PL9860214604",
                "operator": "Gmina Wolin",
                "operator:type": "government",
                "amenity": "school"
            }
        },
        {
            "id": 126096,
            "type": "Feature",
            "geometry": {
                "type": "Point",
                "coordinates": [
                    14.54354,
                    53.867999999999995
                ]
            },
            "properties": {
                "ref:rspo": 126096,
                "official_name": "Punkt Przedszkolny \"Pod Daglezj\u0105\" Przy Publicznej Szkole Podstawowej w Dargob\u0105dzu",
                "name": "Punkt Przedszkolny \"Pod Daglezj\u0105\" Przy Publicznej Szkole Podstawowej w Dargob\u0105dzu",
                "addr:postcode": "72-510",
                "addr:place": "Dargob\u0105dz",
                "addr:housenumber": "89",
                "addr:city:simc": 785610,
                "phone": "+48 913260222",
                "email": "sekretariat@spdargobadz.pl",
                "website": "https:\/\/szkola-dargobadz.edupage.org\/",
                "ref:regon": "360148502",
                "operator": "Gmina Wolin",
                "operator:type": "government",
                "amenity": "kindergarten"
            }
        },
        {
            "id": 89598,
            "type": "Feature",
            "geometry": {
                "type": "Point",
                "coordinates": [
                    14.56998,
                    53.90575
                ]
            },
            "properties": {
                "isced:level": "1;2",
                "ref:rspo": 89598,
                "official_name": "Spo\u0142eczna Szko\u0142a Podstawowa w \u0141adzinie",
                "name": "Spo\u0142eczna Szko\u0142a Podstawowa w \u0141adzinie",
                "addr:postcode": "72-518",
                "addr:place": "\u0141adzin",
                "addr:housenumber": "56",
                "addr:city:simc": 785857,
                "phone": "+48 913264022",
                "email": "szkolaladzin@op.pl",
                "website": "http:\/\/srwww.org",
                "ref:regon": "321304533",
                "operator": "Stowarzyszenie Rozwoju Wiosek Wyspy Wolin",
                "operator:type": "ngo",
                "amenity": "school"
            }
        },
        {
            "id": 126093,
            "type": "Feature",
            "geometry": {
                "type": "Point",
                "coordinates": [
                    14.56998,
                    53.905719999999995
                ]
            },
            "properties": {
                "ref:rspo": 126093,
                "official_name": "Punkt Przedszkolny Przy Spo\u0142ecznej Szkole Podstawowej w \u0141adzinie",
                "name": "Punkt Przedszkolny Przy Spo\u0142ecznej Szkole Podstawowej w \u0141adzinie",
                "addr:postcode": "72-518",
                "addr:place": "\u0141adzin",
                "addr:housenumber": "56",
                "addr:city:simc": 785857,
                "phone": "+48 913264022",
                "email": "szkolaladzin@op.pl",
                "ref:regon": "360147052",
                "operator": "Stowarzyszenie Rozwoju Wiosek Wyspy Wolin",
                "operator:type": "ngo",
                "amenity": "kindergarten"
            }
        },
        {
            "id": 23877,
            "type": "Feature",
            "geometry": {
                "type": "Point",
                "coordinates": [
                    14.61805,
                    53.96236
                ]
            },
            "properties": {
                "isced:level": "4",
                "ref:rspo": 23877,
                "official_name": "Policealna Szko\u0142a Biznesu im. \u015aw. Ottona z Bambergu",
                "name": "Policealna Szko\u0142a Biznesu",
                "addr:postcode": "72-510",
                "addr:city": "Wolin",
                "addr:street": "Ko\u015bcielna",
                "addr:housenumber": "19",
                "addr:city:simc": 980079,
                "addr:street:sym_ul": 9546,
                "phone": "+48 913260251",
                "email": "ottonwolin@wp.pl",
                "website": "http:\/\/www.szkolyottona.pl",
                "ref:regon": "321290297",
                "ref:vatin": "PL8581268428",
                "operator": "Pawe\u0142 Czapkin",
                "operator:type": "private",
                "amenity": "college"
            }
        },
        {
            "id": 23878,
            "type": "Feature",
            "geometry": {
                "type": "Point",
                "coordinates": [
                    14.61805,
                    53.962329999999994
                ]
            },
            "properties": {
                "isced:level": "3",
                "ref:rspo": 23878,
                "official_name": "Liceum Og\u00f3lnokszta\u0142c\u0105ce im. \u015aw. Ottona z Bambergu",
                "name": "Liceum Og\u00f3lnokszta\u0142c\u0105ce",
                "addr:postcode": "72-510",
                "addr:city": "Wolin",
                "addr:street": "Ko\u015bcielna",
                "addr:housenumber": "19",
                "addr:city:simc": 980079,
                "addr:street:sym_ul": 9546,
                "phone": "+48 913260251",
                "email": "ottonwolin@wp.pl",
                "website": "http:\/\/www.szkolyottona.pl",
                "ref:regon": "321283682",
                "ref:vatin": "PL9860109505",
                "operator": "Pawe\u0142 Czapkin",
                "operator:type": "private",
                "amenity": "school"
            }
        },
        {
            "id": 104267,
            "type": "Feature",
            "geometry": {
                "type": "Point",
                "coordinates": [
                    14.61805,
                    53.9623
                ]
            },
            "properties": {
                "isced:level": "3",
                "ref:rspo": 104267,
                "official_name": "Liceum Og\u00f3lnokszta\u0142c\u0105ce im. \u015aw. Ottona z Bambergu dla Doros\u0142ych",
                "name": "Liceum Og\u00f3lnokszta\u0142c\u0105ce",
                "addr:postcode": "72-510",
                "addr:city": "Wolin",
                "addr:street": "Ko\u015bcielna",
                "addr:housenumber": "19",
                "addr:city:simc": 980079,
                "addr:street:sym_ul": 9546,
                "phone": "+48 913260251",
                "email": "ottonwolin@wp.pl",
                "website": "http:\/\/www.szkolyottona.pl",
                "ref:regon": "321313934",
                "ref:vatin": "PL9860109505",
                "operator": "Pawe\u0142 Czapkin",
                "operator:type": "private",
                "amenity": "school"
            }
        },
        {
            "id": 127601,
            "type": "Feature",
            "geometry": {
                "type": "Point",
                "coordinates": [
                    14.61805,
                    53.96227
                ]
            },
            "properties": {
                "isced:level": "3",
                "ref:rspo": 127601,
                "official_name": "Wielobran\u017cowa Szko\u0142a I Stopnia im. \u015aw. Ottona z Bambergu",
                "name": "Wielobran\u017cowa Szko\u0142a I Stopnia",
                "addr:postcode": "72-510",
                "addr:city": "Wolin",
                "addr:street": "Ko\u015bcielna",
                "addr:housenumber": "19",
                "addr:city:simc": 980079,
                "addr:street:sym_ul": 9546,
                "phone": "+48 913260251",
                "email": "ottonwolin@wp.pl",
                "website": "http:\/\/www.szkolyottona.pl",
                "ref:regon": "361743490",
                "operator": "Pawe\u0142 Czapkin",
                "operator:type": "private",
                "amenity": "school"
            }
        },
        {
            "id": 82427,
            "type": "Feature",
            "geometry": {
                "type": "Point",
                "coordinates": [
                    14.57071,
                    53.96563
                ]
            },
            "properties": {
                "ref:rspo": 82427,
                "official_name": "Szkolne Schronisko M\u0142odzie\u017cowe \"Siedemdziesi\u0105tka\"",
                "name": "Szkolne Schronisko M\u0142odzie\u017cowe \"Siedemdziesi\u0105tka\"",
                "addr:postcode": "72-513",
                "addr:city": "Wise\u0142ka",
                "addr:street": "Nowowiejska",
                "addr:housenumber": "19",
                "addr:city:simc": 786147,
                "addr:street:sym_ul": 14495,
                "phone": "+48 243642730",
                "email": "sekretariat_zst@go2.pl",
                "ref:regon": "321299401",
                "ref:vatin": "PL7743182775",
                "operator": "Gmina - Miasto P\u0142ock",
                "operator:type": "government",
                "tourism": "hostel",
                "note": "Parent RSPO: 47967"
            }
        },
        {
            "id": 16397,
            "type": "Feature",
            "geometry": {
                "type": "Point",
                "coordinates": [
                    14.61841,
                    53.96879
                ]
            },
            "properties": {
                "isced:level": "1;2",
                "ref:rspo": 16397,
                "official_name": "Publiczna Szko\u0142a Podstawowa im. \"Boles\u0142awa Chrobrego\" w Ko\u0142czewie",
                "name": "Publiczna Szko\u0142a Podstawowa",
                "addr:postcode": "72-514",
                "addr:city": "Ko\u0142czewo",
                "addr:street": "Zwyci\u0119stwa",
                "addr:housenumber": "3",
                "addr:city:simc": 785780,
                "addr:street:sym_ul": 26326,
                "phone": "+48 913265081",
                "email": "sekretariat@szkolakolczewo.pl",
                "website": "http:\/\/szkolakolczewo.pl\/",
                "ref:regon": "001222487",
                "ref:vatin": "PL9860214610",
                "operator": "Gmina Wolin",
                "operator:type": "government",
                "amenity": "school"
            }
        },
        {
            "id": 126092,
            "type": "Feature",
            "geometry": {
                "type": "Point",
                "coordinates": [
                    14.61841,
                    53.968759999999996
                ]
            },
            "properties": {
                "ref:rspo": 126092,
                "official_name": "Punkt Przedszkolny Przy Publicznej Szkole Podstawowej w Ko\u0142czewie",
                "name": "Punkt Przedszkolny Przy Publicznej Szkole Podstawowej w Ko\u0142czewie",
                "addr:postcode": "72-514",
                "addr:city": "Ko\u0142czewo",
                "addr:street": "Zwyci\u0119stwa",
                "addr:housenumber": "3",
                "addr:city:simc": 785780,
                "addr:street:sym_ul": 26326,
                "phone": "+48 913265081",
                "email": "pspkolczewo@wp.pl",
                "ref:regon": "360147023",
                "operator": "Gmina Wolin",
                "operator:type": "government",
                "amenity": "kindergarten"
            }
        }
    ]
}