{
    "type": "FeatureCollection",
    "features": [
        {
            "id": 52555,
            "type": "Feature",
            "geometry": {
                "type": "Point",
                "coordinates": [
                    14.90811,
                    53.892
                ]
            },
            "properties": {
                "ref:rspo": 52555,
                "official_name": "Zesp\u00f3\u0142 Szk\u00f3\u0142 Ponadpodstawowych w Benicach",
                "name": "Zesp\u00f3\u0142 Szk\u00f3\u0142 Ponadpodstawowych w Benicach",
                "addr:postcode": "72-400",
                "addr:place": "Benice",
                "addr:housenumber": "12a",
                "addr:teryt:simc": 776835,
                "phone": "+48 913832121",
                "email": "sekretariat@zspbenice.pl",
                "website": "http:\/\/www.zspbenice.pl",
                "ref:regon": "812391696",
                "ref:vatin": "PL8571506412",
                "operator": "Powiat Kamie\u0144ski",
                "operator:type": "government",
                "landuse": "education",
                "fixme": "amenity=school, amenity=college albo landuse=education w zale\u017cno\u015bci od tego, jakie plac\u00f3wki wchodz\u0105 w sk\u0142ad zespo\u0142u. Sprawd\u017a, kiedy stosowa\u0107 amenity=* a kiedy landuse=education.",
                "note": "Children RSPO: 56604;128258;276780"
            }
        },
        {
            "id": 56604,
            "type": "Feature",
            "geometry": {
                "type": "Point",
                "coordinates": [
                    14.90811,
                    53.89197
                ]
            },
            "properties": {
                "isced:level": "3",
                "ref:rspo": 56604,
                "official_name": "Technikum w Zespole Szk\u00f3\u0142 Ponadpodstawowych w Benicach",
                "name": "Technikum w Zespole Szk\u00f3\u0142 Ponadpodstawowych w Benicach",
                "addr:postcode": "72-400",
                "addr:place": "Benice",
                "addr:housenumber": "12a",
                "addr:teryt:simc": 776835,
                "phone": "+48 913832121",
                "email": "sekretariat@zspbenice.pl",
                "website": "http:\/\/www.zspbenice.pl",
                "ref:regon": "320865270",
                "operator": "Powiat Kamie\u0144ski",
                "operator:type": "government",
                "amenity": "school",
                "note": "Parent RSPO: 52555"
            }
        },
        {
            "id": 128258,
            "type": "Feature",
            "geometry": {
                "type": "Point",
                "coordinates": [
                    14.90811,
                    53.891940000000005
                ]
            },
            "properties": {
                "isced:level": "3",
                "ref:rspo": 128258,
                "official_name": "Bran\u017cowa Szko\u0142a I Stopnia w Benicach",
                "name": "Bran\u017cowa Szko\u0142a I Stopnia w Benicach",
                "addr:postcode": "72-400",
                "addr:place": "Benice",
                "addr:housenumber": "12a",
                "addr:teryt:simc": 776835,
                "phone": "+48 913832121",
                "email": "sekretariat@zspbenice.pl",
                "website": "http:\/\/www.zspbenice.pl",
                "ref:regon": "362205109",
                "operator": "Powiat Kamie\u0144ski",
                "operator:type": "government",
                "amenity": "school",
                "note": "Parent RSPO: 52555"
            }
        },
        {
            "id": 276780,
            "type": "Feature",
            "geometry": {
                "type": "Point",
                "coordinates": [
                    14.90811,
                    53.89191
                ]
            },
            "properties": {
                "isced:level": "3",
                "ref:rspo": 276780,
                "official_name": "Bran\u017cowa Szko\u0142a II Stopnia w Benicach",
                "name": "Bran\u017cowa Szko\u0142a II Stopnia w Benicach",
                "addr:postcode": "72-400",
                "addr:place": "Benice",
                "addr:housenumber": "12a",
                "addr:teryt:simc": 776835,
                "phone": "+48 913832121",
                "email": "sekretariat@zspbenice.pl",
                "website": "http:\/\/www.zspbenice.pl",
                "ref:regon": "387567646",
                "operator": "Powiat Kamie\u0144ski",
                "operator:type": "government",
                "amenity": "school",
                "note": "Parent RSPO: 52555"
            }
        },
        {
            "id": 12679,
            "type": "Feature",
            "geometry": {
                "type": "Point",
                "coordinates": [
                    14.78982,
                    53.9266
                ]
            },
            "properties": {
                "isced:level": "1;2",
                "ref:rspo": 12679,
                "official_name": "Szko\u0142a Podstawowa w Jarszewie",
                "name": "Szko\u0142a Podstawowa w Jarszewie",
                "addr:postcode": "72-400",
                "addr:place": "Jarszewo",
                "addr:housenumber": "32",
                "addr:teryt:simc": 776999,
                "phone": "+48 913832426",
                "email": "spjarszewo@poczta.onet.pl",
                "website": "http:\/\/spjarszewoedupage.org",
                "ref:regon": "001222837",
                "ref:vatin": "PL9860242196",
                "operator": "Gmina Kamie\u0144 Pomorski",
                "operator:type": "government",
                "amenity": "school"
            }
        },
        {
            "id": 27306,
            "type": "Feature",
            "geometry": {
                "type": "Point",
                "coordinates": [
                    14.77834,
                    53.96024
                ]
            },
            "properties": {
                "ref:rspo": 27306,
                "official_name": "Specjalny O\u015brodek Szkolno-Wychowawczy w Kamieniu Pomorskim",
                "name": "Specjalny O\u015brodek Szkolno-Wychowawczy w Kamieniu Pomorskim",
                "addr:postcode": "72-400",
                "addr:city": "Kamie\u0144 Pomorski",
                "addr:street": "Woli\u0144ska",
                "addr:housenumber": "9a",
                "addr:teryt:simc": 979113,
                "addr:teryt:sym_ul": 24673,
                "phone": "+48 913821794",
                "email": "sosw_kamien@interia.pl",
                "website": "http:\/\/www.soswkamien.edupage.org",
                "ref:regon": "810496304",
                "ref:vatin": "PL9860043924",
                "operator": "Powiat Kamie\u0144ski",
                "operator:type": "government",
                "amenity": "school",
                "note": "Children RSPO: 29861;29863;272574"
            }
        },
        {
            "id": 29861,
            "type": "Feature",
            "geometry": {
                "type": "Point",
                "coordinates": [
                    14.77834,
                    53.96021
                ]
            },
            "properties": {
                "isced:level": "1;2",
                "ref:rspo": 29861,
                "official_name": "Szko\u0142a Podstawowa Specjalna w Specjalnym O\u015brodku Szkolno - Wychowawczym",
                "name": "Szko\u0142a Podstawowa Specjalna w Specjalnym O\u015brodku Szkolno - Wychowawczym",
                "addr:postcode": "72-400",
                "addr:city": "Kamie\u0144 Pomorski",
                "addr:street": "Woli\u0144ska",
                "addr:housenumber": "9a",
                "addr:teryt:simc": 979113,
                "addr:teryt:sym_ul": 24673,
                "phone": "+48 913821794",
                "email": "sosw_kamien@interia.pl",
                "website": "http:\/\/www.soswkamien.edupage.org",
                "ref:regon": "812007344",
                "ref:vatin": "PL9860043924",
                "operator": "Powiat Kamie\u0144ski",
                "operator:type": "government",
                "amenity": "school",
                "note": "Parent RSPO: 27306"
            }
        },
        {
            "id": 29863,
            "type": "Feature",
            "geometry": {
                "type": "Point",
                "coordinates": [
                    14.77834,
                    53.96018
                ]
            },
            "properties": {
                "ref:rspo": 29863,
                "official_name": "Szko\u0142a Specjalna Przysposabiaj\u0105ca Do Pracy w Specjalnym O\u015brodku Szkolno - Wychowawczym",
                "name": "Szko\u0142a Specjalna Przysposabiaj\u0105ca Do Pracy w Specjalnym O\u015brodku Szkolno - Wychowawczym",
                "addr:postcode": "72-400",
                "addr:city": "Kamie\u0144 Pomorski",
                "addr:street": "Woli\u0144ska",
                "addr:housenumber": "9a",
                "addr:teryt:simc": 979113,
                "addr:teryt:sym_ul": 24673,
                "phone": "+48 913821794",
                "email": "sosw_kamien@interia.pl",
                "website": "http:\/\/www.soswkamien.edupage.org",
                "ref:regon": "321007960",
                "ref:vatin": "PL9860043924",
                "operator": "Powiat Kamie\u0144ski",
                "operator:type": "government",
                "amenity": "school",
                "note": "Parent RSPO: 27306"
            }
        },
        {
            "id": 272574,
            "type": "Feature",
            "geometry": {
                "type": "Point",
                "coordinates": [
                    14.77834,
                    53.96015
                ]
            },
            "properties": {
                "isced:level": "3",
                "ref:rspo": 272574,
                "official_name": "Bran\u017cowa Szko\u0142a I Stopnia Specjalna w Kamieniu Pomorskim w Specjalnym O\u015brodku Szkolno-Wychowawczym",
                "name": "Bran\u017cowa Szko\u0142a I Stopnia Specjalna w Kamieniu Pomorskim w Specjalnym O\u015brodku Szkolno-Wychowawczym",
                "addr:postcode": "72-400",
                "addr:city": "Kamie\u0144 Pomorski",
                "addr:street": "Woli\u0144ska",
                "addr:housenumber": "9A",
                "addr:teryt:simc": 979113,
                "addr:teryt:sym_ul": 24673,
                "phone": "+48 913821794",
                "email": "sosw_kamien@interia.pl",
                "website": "http:\/\/www.soswkamien.edupage.org",
                "ref:regon": "384270259",
                "operator": "Powiat Kamie\u0144ski",
                "operator:type": "government",
                "amenity": "school",
                "note": "Parent RSPO: 27306"
            }
        },
        {
            "id": 12682,
            "type": "Feature",
            "geometry": {
                "type": "Point",
                "coordinates": [
                    14.77645,
                    53.96129
                ]
            },
            "properties": {
                "isced:level": "1;2",
                "ref:rspo": 12682,
                "official_name": "Szko\u0142a Podstawowa Nr 2 im. Leonida Teligi w Kamieniu Pomorskim",
                "name": "Szko\u0142a Podstawowa Nr 2",
                "addr:postcode": "72-400",
                "addr:city": "Kamie\u0144 Pomorski",
                "addr:street": "Woli\u0144ska",
                "addr:housenumber": "9",
                "addr:teryt:simc": 979113,
                "addr:teryt:sym_ul": 24673,
                "phone": "+48 913820784",
                "email": "sp2kamienpom@op.pl",
                "website": "http:\/\/sp2kamienpomorski.pl",
                "ref:regon": "810824754",
                "ref:vatin": "PL9860242204",
                "operator": "Gmina Kamie\u0144 Pomorski",
                "operator:type": "government",
                "amenity": "school"
            }
        },
        {
            "id": 127043,
            "type": "Feature",
            "geometry": {
                "type": "Point",
                "coordinates": [
                    14.77645,
                    53.961259999999996
                ]
            },
            "properties": {
                "ref:rspo": 127043,
                "official_name": "Centrum Kszta\u0142cenia Zawodowego w Kamieniu Pomorskim",
                "name": "Centrum Kszta\u0142cenia Zawodowego w Kamieniu Pomorskim",
                "addr:postcode": "72-400",
                "addr:city": "Kamie\u0144 Pomorski",
                "addr:street": "Woli\u0144ska",
                "addr:housenumber": "9",
                "addr:teryt:simc": 979113,
                "addr:teryt:sym_ul": 24673,
                "phone": "+48 913820784",
                "email": "pszkampom@o2.pl",
                "ref:regon": "361049831",
                "operator": "Gra\u017cyna Misiak",
                "operator:type": "private",
                "fixme": "w zale\u017cno\u015bci od przedmiotu dzia\u0142alno\u015bci (np. amenity=training + training=*, amenity=dancing_school, amenity=language_school, amenity=music_school) albo amenity=school, amenity=college, albo landuse=education w zale\u017cno\u015bci od tego, jakie plac\u00f3wki wchodz\u0105 w sk\u0142ad zespo\u0142u. Sprawd\u017a, kiedy stosowa\u0107 amenity=* a kiedy landuse=education."
            }
        },
        {
            "id": 123375,
            "type": "Feature",
            "geometry": {
                "type": "Point",
                "coordinates": [
                    14.77726,
                    53.96158
                ]
            },
            "properties": {
                "ref:rspo": 123375,
                "official_name": "Pa\u0144stwowa Szko\u0142a Muzyczna I Stopnia",
                "name": "Pa\u0144stwowa Szko\u0142a Muzyczna I Stopnia",
                "addr:postcode": "72-400",
                "addr:city": "Kamie\u0144 Pomorski",
                "addr:street": "Woli\u0144ska",
                "addr:housenumber": "9B",
                "addr:teryt:simc": 979113,
                "addr:teryt:sym_ul": 24673,
                "phone": "+48 913210102",
                "email": "psmkamienpomorski@wp.pl",
                "website": "http:\/\/psmkamienpomorski.jimdo.com",
                "ref:regon": "321539621",
                "ref:vatin": "PL9860242285",
                "operator": "Gmina Kamie\u0144 Pomorski",
                "operator:type": "government",
                "amenity": "music_school"
            }
        },
        {
            "id": 23871,
            "type": "Feature",
            "geometry": {
                "type": "Point",
                "coordinates": [
                    14.77509,
                    53.96241
                ]
            },
            "properties": {
                "ref:rspo": 23871,
                "official_name": "Poradnia Psychologiczno-Pedagogiczna w Kamieniu Pomorskim",
                "name": "Poradnia Psychologiczno-Pedagogiczna w Kamieniu Pomorskim",
                "addr:postcode": "72-400",
                "addr:city": "Kamie\u0144 Pomorski",
                "addr:street": "Woli\u0144ska",
                "addr:housenumber": "7b",
                "addr:teryt:simc": 979113,
                "addr:teryt:sym_ul": 24673,
                "phone": "+48 913820773",
                "email": "sekretariat@pppkamien.pl",
                "website": "http:\/\/pppkamien.pl",
                "ref:regon": "810488747",
                "ref:vatin": "PL8571162740",
                "operator": "Powiat Kamie\u0144ski",
                "operator:type": "government",
                "healthcare": "counselling",
                "counselling_type": "education",
                "fixme": "w zale\u017cno\u015bci od przedmiotu dzia\u0142alno\u015bci (np. healthcare=counselling + counselling_type=education albo healthcare=psychotherapist)"
            }
        },
        {
            "id": 29880,
            "type": "Feature",
            "geometry": {
                "type": "Point",
                "coordinates": [
                    14.77509,
                    53.962379999999996
                ]
            },
            "properties": {
                "ref:rspo": 29880,
                "official_name": "Zesp\u00f3\u0142 Szk\u00f3\u0142 Ponadpodstawowych im. Stanis\u0142awa Staszica w Kamieniu Pomorskim",
                "name": "Zesp\u00f3\u0142 Szk\u00f3\u0142 Ponadpodstawowych",
                "addr:postcode": "72-400",
                "addr:city": "Kamie\u0144 Pomorski",
                "addr:street": "Woli\u0144ska",
                "addr:housenumber": "7",
                "addr:teryt:simc": 979113,
                "addr:teryt:sym_ul": 24673,
                "phone": "+48 913820472",
                "email": "sekretariat@zspkamien.com",
                "website": "http:\/\/www.zspkamien.edupage.org",
                "ref:regon": "000181987",
                "ref:vatin": "PL8571063877",
                "operator": "Powiat Kamie\u0144ski",
                "operator:type": "government",
                "landuse": "education",
                "fixme": "amenity=school, amenity=college albo landuse=education w zale\u017cno\u015bci od tego, jakie plac\u00f3wki wchodz\u0105 w sk\u0142ad zespo\u0142u. Sprawd\u017a, kiedy stosowa\u0107 amenity=* a kiedy landuse=education.",
                "note": "Children RSPO: 42411;42412;42415;42424;112230;276803"
            }
        },
        {
            "id": 42411,
            "type": "Feature",
            "geometry": {
                "type": "Point",
                "coordinates": [
                    14.77509,
                    53.96235
                ]
            },
            "properties": {
                "isced:level": "3",
                "ref:rspo": 42411,
                "official_name": "Bran\u017cowa Szko\u0142a I Stopnia w Kamieniu Pomorskim w Zespole Szk\u00f3\u0142 Ponadpodstawowych",
                "name": "Bran\u017cowa Szko\u0142a I Stopnia w Kamieniu Pomorskim w Zespole Szk\u00f3\u0142 Ponadpodstawowych",
                "addr:postcode": "72-400",
                "addr:city": "Kamie\u0144 Pomorski",
                "addr:street": "Woli\u0144ska",
                "addr:housenumber": "7",
                "addr:teryt:simc": 979113,
                "addr:teryt:sym_ul": 24673,
                "phone": "+48 913820472",
                "email": "sekretariat@zspkamien.com",
                "website": "http:\/\/zspkamien.edupage.org",
                "ref:regon": "812543462",
                "operator": "Powiat Kamie\u0144ski",
                "operator:type": "government",
                "amenity": "school",
                "note": "Parent RSPO: 29880"
            }
        },
        {
            "id": 42412,
            "type": "Feature",
            "geometry": {
                "type": "Point",
                "coordinates": [
                    14.77509,
                    53.96232
                ]
            },
            "properties": {
                "isced:level": "3",
                "ref:rspo": 42412,
                "official_name": "Liceum Og\u00f3lnokszta\u0142c\u0105ce Nr 2 w Kamieniu Pomorskim w Zespole Szk\u00f3\u0142 Ponadpodstawowych im. Stanis\u0142awa Staszica",
                "name": "Liceum Og\u00f3lnokszta\u0142c\u0105ce Nr 2 w Kamieniu Pomorskim w Zespole Szk\u00f3\u0142 Ponadpodstawowych",
                "addr:postcode": "72-400",
                "addr:city": "Kamie\u0144 Pomorski",
                "addr:street": "Woli\u0144ska",
                "addr:housenumber": "7",
                "addr:teryt:simc": 979113,
                "addr:teryt:sym_ul": 24673,
                "phone": "+48 913820472",
                "email": "sekretariat@zspkamien.com",
                "website": "http:\/\/zspkamien.edupage.org",
                "ref:regon": "320409508",
                "operator": "Powiat Kamie\u0144ski",
                "operator:type": "government",
                "amenity": "school",
                "note": "Parent RSPO: 29880"
            }
        },
        {
            "id": 42415,
            "type": "Feature",
            "geometry": {
                "type": "Point",
                "coordinates": [
                    14.77509,
                    53.962289999999996
                ]
            },
            "properties": {
                "isced:level": "3",
                "ref:rspo": 42415,
                "official_name": "Liceum Og\u00f3lnokszta\u0142c\u0105ce dla Doros\u0142ych w Kamieniu Pomorskim w Zespole Szk\u00f3\u0142 Ponadpodstawowych",
                "name": "Liceum Og\u00f3lnokszta\u0142c\u0105ce dla Doros\u0142ych w Kamieniu Pomorskim w Zespole Szk\u00f3\u0142 Ponadpodstawowych",
                "addr:postcode": "72-400",
                "addr:city": "Kamie\u0144 Pomorski",
                "addr:street": "Woli\u0144ska",
                "addr:housenumber": "7",
                "addr:teryt:simc": 979113,
                "addr:teryt:sym_ul": 24673,
                "phone": "+48 913820472",
                "email": "sekretariat@zspkamien.com",
                "website": "http:\/\/zspkamien.edupage.org",
                "ref:regon": "812090397",
                "operator": "Powiat Kamie\u0144ski",
                "operator:type": "government",
                "amenity": "school",
                "note": "Parent RSPO: 29880"
            }
        },
        {
            "id": 42424,
            "type": "Feature",
            "geometry": {
                "type": "Point",
                "coordinates": [
                    14.77509,
                    53.96226
                ]
            },
            "properties": {
                "isced:level": "4",
                "ref:rspo": 42424,
                "official_name": "Szko\u0142a Policealna w Kamieniu Pomorskim w Zespole Szk\u00f3\u0142 Ponadpodstawowych im. Stanisa\u0142a Staszica",
                "name": "Szko\u0142a Policealna w Kamieniu Pomorskim w Zespole Szk\u00f3\u0142 Ponadpodstawowych",
                "addr:postcode": "72-400",
                "addr:city": "Kamie\u0144 Pomorski",
                "addr:street": "Woli\u0144ska",
                "addr:housenumber": "7",
                "addr:teryt:simc": 979113,
                "addr:teryt:sym_ul": 24673,
                "phone": "+48 913820472",
                "email": "sekretariat@zspkamien.com",
                "website": "http:\/\/zspkamien.edupage.org",
                "ref:regon": "320244154",
                "operator": "Powiat Kamie\u0144ski",
                "operator:type": "government",
                "amenity": "college",
                "note": "Parent RSPO: 29880"
            }
        },
        {
            "id": 112230,
            "type": "Feature",
            "geometry": {
                "type": "Point",
                "coordinates": [
                    14.77509,
                    53.96223
                ]
            },
            "properties": {
                "isced:level": "3",
                "ref:rspo": 112230,
                "official_name": "Technikum w Kamieniu Pomorskim w Zespole Szk\u00f3\u0142 Ponadpodstawowych im.stanis\u0142awa Staszica",
                "name": "Technikum w Kamieniu Pomorskim w Zespole Szk\u00f3\u0142 Ponadpodstawowych im.stanis\u0142awa Staszica",
                "addr:postcode": "72-400",
                "addr:city": "Kamie\u0144 Pomorski",
                "addr:street": "Woli\u0144ska",
                "addr:housenumber": "7",
                "addr:teryt:simc": 979113,
                "addr:teryt:sym_ul": 24673,
                "phone": "+48 913820472",
                "email": "sekretariat@zspkamien.com",
                "website": "http:\/\/zspkamien.edupage.org",
                "ref:regon": "321352756",
                "operator": "Powiat Kamie\u0144ski",
                "operator:type": "government",
                "amenity": "school",
                "note": "Parent RSPO: 29880"
            }
        },
        {
            "id": 276803,
            "type": "Feature",
            "geometry": {
                "type": "Point",
                "coordinates": [
                    14.77509,
                    53.962199999999996
                ]
            },
            "properties": {
                "isced:level": "3",
                "ref:rspo": 276803,
                "official_name": "Bran\u017cowa Szko\u0142a II Stopnia w Kamieniu Pomorskim",
                "name": "Bran\u017cowa Szko\u0142a II Stopnia w Kamieniu Pomorskim",
                "addr:postcode": "72-400",
                "addr:city": "Kamie\u0144 Pomorski",
                "addr:street": "Woli\u0144ska",
                "addr:housenumber": "7",
                "addr:teryt:simc": 979113,
                "addr:teryt:sym_ul": 24673,
                "phone": "+48 913820472",
                "email": "sekretariat@zspkamien.com",
                "website": "http:\/\/zspkamien.edupage.org",
                "ref:regon": "387600770",
                "operator": "Powiat Kamie\u0144ski",
                "operator:type": "government",
                "amenity": "school",
                "note": "Parent RSPO: 29880"
            }
        },
        {
            "id": 23872,
            "type": "Feature",
            "geometry": {
                "type": "Point",
                "coordinates": [
                    14.77972,
                    53.96494
                ]
            },
            "properties": {
                "isced:level": "3",
                "ref:rspo": 23872,
                "official_name": "Liceum Og\u00f3lnokszta\u0142c\u0105ce im. Boles\u0142awa Krzywoustego w Kamieniu Pomorskim",
                "name": "Liceum Og\u00f3lnokszta\u0142c\u0105ce",
                "addr:postcode": "72-400",
                "addr:city": "Kamie\u0144 Pomorski",
                "addr:street": "Marii Konopnickiej",
                "addr:housenumber": "19",
                "addr:teryt:simc": 979113,
                "addr:teryt:sym_ul": 9186,
                "phone": "+48 913820492",
                "email": "lokamien@o2.pl",
                "website": "http:\/\/lokamien.edupage.org",
                "ref:regon": "810974287",
                "ref:vatin": "PL9860078012",
                "operator": "Powiat Kamie\u0144ski",
                "operator:type": "government",
                "amenity": "school"
            }
        },
        {
            "id": 12685,
            "type": "Feature",
            "geometry": {
                "type": "Point",
                "coordinates": [
                    14.771900177002,
                    53.965438842773
                ]
            },
            "properties": {
                "ref:rspo": 12685,
                "official_name": "Przedszkole Publiczne Nr 2 w Kamieniu Pomorskim",
                "name": "Przedszkole Publiczne Nr 2 w Kamieniu Pomorskim",
                "addr:postcode": "72-400",
                "addr:city": "Kamie\u0144 Pomorski",
                "addr:street": "Kornela Makuszy\u0144skiego",
                "addr:housenumber": "4",
                "addr:teryt:simc": 979113,
                "addr:teryt:sym_ul": 12024,
                "phone": "+48 913821120",
                "email": "pp2kamien@wp.pl",
                "ref:regon": "810974270",
                "ref:vatin": "PL9860242279",
                "operator": "Gmina Kamie\u0144 Pomorski",
                "operator:type": "government",
                "amenity": "kindergarten"
            }
        },
        {
            "id": 29866,
            "type": "Feature",
            "geometry": {
                "type": "Point",
                "coordinates": [
                    14.77001,
                    53.96631
                ]
            },
            "properties": {
                "ref:rspo": 29866,
                "official_name": "Centrum Kszta\u0142cenia Ustawicznego I Praktycznego Przy Cechu Rzemios\u0142 R\u00f3\u017cnych I Przedsi\u0119biorc\u00f3w w Kamieniu Pomorskim",
                "name": "Centrum Kszta\u0142cenia Ustawicznego I Praktycznego Przy Cechu Rzemios\u0142 R\u00f3\u017cnych I Przedsi\u0119biorc\u00f3w w Kamieniu Pomorskim",
                "addr:postcode": "72-400",
                "addr:city": "Kamie\u0144 Pomorski",
                "addr:street": "Mieszka I",
                "addr:housenumber": "6a",
                "addr:teryt:simc": 979113,
                "addr:teryt:sym_ul": 12832,
                "phone": "+48 913820653",
                "email": "kontakt@cechkamien.pl",
                "website": "https:\/\/cechkamien.pl\/",
                "ref:regon": "321285008",
                "operator": "Cech Rzemios\u0142 R\u00f3\u017cnych I Przedsi\u0119biorc\u00f3w W Kamieniu Pomorskim",
                "operator:type": "cooperative",
                "fixme": "w zale\u017cno\u015bci od przedmiotu dzia\u0142alno\u015bci (np. amenity=training + training=*, amenity=dancing_school, amenity=language_school, amenity=music_school)"
            }
        },
        {
            "id": 114975,
            "type": "Feature",
            "geometry": {
                "type": "Point",
                "coordinates": [
                    14.77649,
                    53.96773
                ]
            },
            "properties": {
                "ref:rspo": 114975,
                "official_name": "O\u015brodek Szkoleniowo - Doradczy",
                "name": "O\u015brodek Szkoleniowo - Doradczy",
                "addr:postcode": "72-400",
                "addr:city": "Kamie\u0144 Pomorski",
                "addr:street": "Dziwnowska",
                "addr:housenumber": "11",
                "addr:door": "2",
                "addr:teryt:simc": 979113,
                "addr:teryt:sym_ul": 4712,
                "phone": "+48 608388728",
                "email": "oskamien@wp.pl",
                "ref:regon": "321401325",
                "ref:vatin": "PL8571027491",
                "operator": "Lidia Konieczna",
                "operator:type": "private",
                "fixme": "w zale\u017cno\u015bci od przedmiotu dzia\u0142alno\u015bci (np. amenity=training + training=*, amenity=dancing_school, amenity=language_school, amenity=music_school)"
            }
        },
        {
            "id": 12684,
            "type": "Feature",
            "geometry": {
                "type": "Point",
                "coordinates": [
                    14.76772,
                    53.96989
                ]
            },
            "properties": {
                "ref:rspo": 12684,
                "official_name": "Przedszkole Publiczne Nr 1 w Kamieniu Pomorskim",
                "name": "Przedszkole Publiczne Nr 1 w Kamieniu Pomorskim",
                "addr:postcode": "72-400",
                "addr:city": "Kamie\u0144 Pomorski",
                "addr:street": "J\u00f3zefa Wysockiego",
                "addr:housenumber": "3a",
                "addr:teryt:simc": 979113,
                "addr:teryt:sym_ul": 25059,
                "phone": "+48 913820393",
                "email": "pp1kamienpom@wp.pl",
                "ref:regon": "000986828",
                "ref:vatin": "PL9860242262",
                "operator": "Gmina Kamie\u0144 Pomorski",
                "operator:type": "government",
                "amenity": "kindergarten"
            }
        },
        {
            "id": 12687,
            "type": "Feature",
            "geometry": {
                "type": "Point",
                "coordinates": [
                    14.77353,
                    53.97167
                ]
            },
            "properties": {
                "ref:rspo": 12687,
                "official_name": "Niepubliczne Przedszkole \"W Dech\u0119\"",
                "name": "Niepubliczne Przedszkole \"W Dech\u0119\"",
                "addr:postcode": "72-400",
                "addr:city": "Kamie\u0144 Pomorski",
                "addr:street": "Kr\u00f3tka",
                "addr:housenumber": "4",
                "addr:teryt:simc": 979113,
                "addr:teryt:sym_ul": 10009,
                "phone": "+48 607061026",
                "email": "akinom33@wp.pl",
                "ref:regon": "321272690",
                "ref:vatin": "PL8571438774",
                "operator": "Monika \u0141u\u017cna",
                "operator:type": "private",
                "amenity": "kindergarten"
            }
        },
        {
            "id": 12686,
            "type": "Feature",
            "geometry": {
                "type": "Point",
                "coordinates": [
                    14.76768,
                    53.97172
                ]
            },
            "properties": {
                "ref:rspo": 12686,
                "official_name": "Niepubliczne Przedszkole Integracyjne",
                "name": "Niepubliczne Przedszkole Integracyjne",
                "addr:postcode": "72-400",
                "addr:city": "Kamie\u0144 Pomorski",
                "addr:street": "Garncarska",
                "addr:housenumber": "4",
                "addr:teryt:simc": 979113,
                "addr:teryt:sym_ul": 5345,
                "phone": "+48 913824441",
                "email": "psouu@interia.pl",
                "ref:regon": "321272684",
                "ref:vatin": "PL9860046644",
                "operator": "Polskie Stowarzyszenie Na Rzecz Os\u00f3b Z Niepe\u0142nosprawno\u015bci\u0105 Intelektualn\u0105 Ko\u0142o W Kamieniu Pomorskim",
                "operator:type": "ngo",
                "amenity": "kindergarten"
            }
        },
        {
            "id": 27305,
            "type": "Feature",
            "geometry": {
                "type": "Point",
                "coordinates": [
                    14.76768,
                    53.971689999999995
                ]
            },
            "properties": {
                "ref:rspo": 27305,
                "official_name": "O\u015brodek Rehabilitacyjno-Edukacyjno-Wychowawczy w Kamieniu Pomorskim",
                "name": "O\u015brodek Rehabilitacyjno-Edukacyjno-Wychowawczy w Kamieniu Pomorskim",
                "addr:postcode": "72-400",
                "addr:city": "Kamie\u0144 Pomorski",
                "addr:street": "Garncarska",
                "addr:housenumber": "4",
                "addr:teryt:simc": 979113,
                "addr:teryt:sym_ul": 5345,
                "phone": "+48 913824441",
                "email": "psouu@interia.pl",
                "website": "http:\/\/www.psouukamien.org.pl",
                "ref:regon": "321284368",
                "ref:vatin": "PL9860046644",
                "operator": "Polskie Stowarzyszenie Na Rzecz Os\u00f3b Z Niepe\u0142nosprawno\u015bci\u0105 Intelektualn\u0105 Ko\u0142o W Kamieniu Pomorskim",
                "operator:type": "ngo",
                "amenity": "school"
            }
        },
        {
            "id": 29864,
            "type": "Feature",
            "geometry": {
                "type": "Point",
                "coordinates": [
                    14.76768,
                    53.97166
                ]
            },
            "properties": {
                "ref:rspo": 29864,
                "official_name": "Szko\u0142a Specjalna Przysposabiaj\u0105ca Do Pracy w Kamieniu Pomorskim",
                "name": "Szko\u0142a Specjalna Przysposabiaj\u0105ca Do Pracy w Kamieniu Pomorskim",
                "addr:postcode": "72-400",
                "addr:city": "Kamie\u0144 Pomorski",
                "addr:street": "Garncarska",
                "addr:housenumber": "4",
                "addr:teryt:simc": 979113,
                "addr:teryt:sym_ul": 5345,
                "phone": "+48 913824441",
                "email": "psouu@interia.pl",
                "website": "http:\/\/www.psonikamien.org",
                "ref:regon": "321285149",
                "ref:vatin": "PL9860046644",
                "operator": "Polskie Stowarzyszenie Na Rzecz Os\u00f3b Z Niepe\u0142nosprawno\u015bci\u0105 Intelektualn\u0105 Ko\u0142o W Kamieniu Pomorskim",
                "operator:type": "ngo",
                "amenity": "school"
            }
        },
        {
            "id": 12681,
            "type": "Feature",
            "geometry": {
                "type": "Point",
                "coordinates": [
                    14.77277,
                    53.97225
                ]
            },
            "properties": {
                "isced:level": "1;2",
                "ref:rspo": 12681,
                "official_name": "Szko\u0142a Podstawowa Nr 1 im. Boles\u0142awa Chrobrego w Kamieniu Pomorskim",
                "name": "Szko\u0142a Podstawowa Nr 1",
                "addr:postcode": "72-400",
                "addr:city": "Kamie\u0144 Pomorski",
                "addr:street": "Plac Katedralny",
                "addr:housenumber": "5",
                "addr:teryt:simc": 979113,
                "addr:teryt:sym_ul": 8203,
                "phone": "+48 913820841",
                "email": "chrobry80@wp.pl",
                "website": "http:\/\/sp1kamienpomorski.edupage.org",
                "ref:regon": "810974301",
                "ref:vatin": "PL9860242227",
                "operator": "Gmina Kamie\u0144 Pomorski",
                "operator:type": "government",
                "amenity": "school"
            }
        },
        {
            "id": 12678,
            "type": "Feature",
            "geometry": {
                "type": "Point",
                "coordinates": [
                    14.81233,
                    54.01679
                ]
            },
            "properties": {
                "isced:level": "1;2",
                "ref:rspo": 12678,
                "official_name": "Szko\u0142a Podstawowa im. Marii Konopnickiej we Wrzosowie",
                "name": "Szko\u0142a Podstawowa",
                "addr:postcode": "72-400",
                "addr:place": "Wrzosowo",
                "addr:housenumber": "37",
                "addr:teryt:simc": 777237,
                "phone": "+48 913812927",
                "email": "spwrzosowo@poczta.onet.pl",
                "ref:regon": "001222814",
                "ref:vatin": "PL9860242210",
                "operator": "Gmina Kamie\u0144 Pomorski",
                "operator:type": "government",
                "amenity": "school"
            }
        }
    ]
}