{
    "type": "FeatureCollection",
    "features": [
        {
            "id": 62095,
            "type": "Feature",
            "geometry": {
                "type": "Point",
                "coordinates": [
                    20.9226,
                    51.09169
                ]
            },
            "properties": {
                "isced:level": "1;2",
                "ref:rspo": 62095,
                "official_name": "Szko\u0142a Podstawowa im. Stefana \u017beromskiego w Majkowie",
                "name": "Szko\u0142a Podstawowa",
                "addr:country": "PL",
                "addr:postcode": "26-110",
                "addr:city": "Majk\u00f3w",
                "addr:street": "Stefana \u017beromskiego",
                "addr:housenumber": "106",
                "addr:teryt:simc": 276593,
                "addr:teryt:sym_ul": 26469,
                "contact:phone": "+48 412712122",
                "contact:email": "spmajkow@o2.pl",
                "ref:regon": "001218250",
                "ref:vatin": "PL6641465049",
                "operator": "Gmina Skar\u017cysko Ko\u015bcielne",
                "operator:type": "government",
                "amenity": "school"
            }
        },
        {
            "id": 122308,
            "type": "Feature",
            "geometry": {
                "type": "Point",
                "coordinates": [
                    20.9226,
                    51.09166
                ]
            },
            "properties": {
                "ref:rspo": 122308,
                "official_name": "Punkt Przedszkolny w Majkowie",
                "name": "Punkt Przedszkolny w Majkowie",
                "addr:country": "PL",
                "addr:postcode": "26-110",
                "addr:city": "Majk\u00f3w",
                "addr:street": "Stefana \u017beromskiego",
                "addr:housenumber": "106",
                "addr:teryt:simc": 276593,
                "addr:teryt:sym_ul": 26469,
                "contact:phone": "+48 412712122",
                "contact:email": "spmajkow@o2.pl",
                "ref:regon": "260751791",
                "ref:vatin": "PL6641465049",
                "operator": "Gmina Skar\u017cysko Ko\u015bcielne",
                "operator:type": "government",
                "amenity": "kindergarten"
            }
        },
        {
            "id": 68016,
            "type": "Feature",
            "geometry": {
                "type": "Point",
                "coordinates": [
                    20.95538,
                    51.13276
                ]
            },
            "properties": {
                "isced:level": "1;2",
                "ref:rspo": 68016,
                "official_name": "Szko\u0142a Podstawowa w Grzybowej G\u00f3rze",
                "name": "Szko\u0142a Podstawowa w Grzybowej G\u00f3rze",
                "addr:country": "PL",
                "addr:postcode": "26-115",
                "addr:city": "Grzybowa G\u00f3ra",
                "addr:street": "\u015awi\u0119tokrzyska",
                "addr:housenumber": "102",
                "addr:teryt:simc": 252598,
                "addr:teryt:sym_ul": 22552,
                "contact:phone": "+48 412714437",
                "contact:email": "spgrzybowagora@gazeta.pl",
                "ref:regon": "260645439",
                "ref:vatin": "PL6631277783",
                "operator": "Ma\u0142gorzata Strzelec",
                "operator:type": "private",
                "amenity": "school"
            }
        },
        {
            "id": 120420,
            "type": "Feature",
            "geometry": {
                "type": "Point",
                "coordinates": [
                    20.95538,
                    51.132729999999995
                ]
            },
            "properties": {
                "ref:rspo": 120420,
                "official_name": "Punkt Przedszkolny w Grzybowej G\u00f3rze",
                "name": "Punkt Przedszkolny w Grzybowej G\u00f3rze",
                "addr:country": "PL",
                "addr:postcode": "26-115",
                "addr:city": "Grzybowa G\u00f3ra",
                "addr:street": "\u015awi\u0119tokrzyska",
                "addr:housenumber": "102",
                "addr:teryt:simc": 252598,
                "addr:teryt:sym_ul": 22552,
                "contact:phone": "+48 412714437",
                "contact:email": "spgrzybowagora@gazeta.pl",
                "ref:regon": "260723978",
                "ref:vatin": "PL6631277783",
                "operator": "Ma\u0142gorzata Strzelec",
                "operator:type": "private",
                "amenity": "kindergarten"
            }
        },
        {
            "id": 59099,
            "type": "Feature",
            "geometry": {
                "type": "Point",
                "coordinates": [
                    20.91256,
                    51.13293
                ]
            },
            "properties": {
                "ref:rspo": 59099,
                "official_name": "Przedszkole Samorz\u0105dowe w Skar\u017cysku Ko\u015bcielnym",
                "name": "Przedszkole Samorz\u0105dowe w Skar\u017cysku Ko\u015bcielnym",
                "addr:country": "PL",
                "addr:postcode": "25-115",
                "addr:city": "Skar\u017cysko Ko\u015bcielne",
                "addr:street": "Ko\u015bcielna",
                "addr:housenumber": "21",
                "addr:teryt:simc": 252954,
                "addr:teryt:sym_ul": 9546,
                "contact:phone": "+48 412714807",
                "contact:email": "przedszkole.sk@interia.pl",
                "ref:regon": "290013503",
                "ref:vatin": "PL6631682147",
                "operator": "Gmina Skar\u017cysko Ko\u015bcielne",
                "operator:type": "government",
                "amenity": "kindergarten"
            }
        },
        {
            "id": 92489,
            "type": "Feature",
            "geometry": {
                "type": "Point",
                "coordinates": [
                    20.91049,
                    51.13827
                ]
            },
            "properties": {
                "isced:level": "1;2",
                "ref:rspo": 92489,
                "official_name": "Szko\u0142a Podstawowa im. Stanis\u0142awa Staszica w Skar\u017cysku Ko\u015bcielnym",
                "name": "Szko\u0142a Podstawowa",
                "addr:country": "PL",
                "addr:postcode": "26-115",
                "addr:city": "Skar\u017cysko Ko\u015bcielne",
                "addr:street": "Szkolna",
                "addr:housenumber": "5",
                "addr:teryt:simc": 252954,
                "addr:teryt:sym_ul": 21970,
                "contact:phone": "+48 412714660",
                "contact:email": "spkoscielne@o2.pl",
                "contact:website": "http:\/\/sp-sk.pl",
                "ref:regon": "001193544",
                "ref:vatin": "PL6631845537",
                "operator": "Gmina Skar\u017cysko Ko\u015bcielne",
                "operator:type": "government",
                "amenity": "school"
            }
        },
        {
            "id": 103421,
            "type": "Feature",
            "geometry": {
                "type": "Point",
                "coordinates": [
                    20.888889312744,
                    51.147258758545
                ]
            },
            "properties": {
                "isced:level": "1;2",
                "ref:rspo": 103421,
                "official_name": "Szko\u0142a Podstawowa Lipowe Pole Skarbowe",
                "name": "Szko\u0142a Podstawowa Lipowe Pole Skarbowe",
                "addr:country": "PL",
                "addr:postcode": "26-115",
                "addr:city": "Lipowe Pole Skarbowe",
                "addr:street": "Weso\u0142a",
                "addr:housenumber": "2",
                "addr:teryt:simc": 252701,
                "addr:teryt:sym_ul": 23884,
                "contact:phone": "+48 512280760",
                "contact:email": "splipowepole@wp.pl",
                "ref:regon": "260654970",
                "ref:vatin": "PL6631277820",
                "operator": "Wiedza I Rozw\u00f3j",
                "operator:type": "ngo",
                "amenity": "school"
            }
        },
        {
            "id": 120422,
            "type": "Feature",
            "geometry": {
                "type": "Point",
                "coordinates": [
                    20.888889312744,
                    51.147228758545
                ]
            },
            "properties": {
                "ref:rspo": 120422,
                "official_name": "Punkt Przedszkolny w Lipowym Polu Skarbowym",
                "name": "Punkt Przedszkolny w Lipowym Polu Skarbowym",
                "addr:country": "PL",
                "addr:postcode": "26-115",
                "addr:city": "Lipowe Pole Skarbowe",
                "addr:street": "Weso\u0142a",
                "addr:housenumber": "2",
                "addr:teryt:simc": 252701,
                "addr:teryt:sym_ul": 23884,
                "contact:phone": "+48 512280760",
                "contact:email": "splipowepole@wp.pl",
                "ref:regon": "260724009",
                "ref:vatin": "PL6631277820",
                "operator": "Wiedza I Rozw\u00f3j",
                "operator:type": "ngo",
                "amenity": "kindergarten"
            }
        },
        {
            "id": 68015,
            "type": "Feature",
            "geometry": {
                "type": "Point",
                "coordinates": [
                    20.94394,
                    51.17313
                ]
            },
            "properties": {
                "isced:level": "1;2",
                "ref:rspo": 68015,
                "official_name": "Szko\u0142a Podstawowa im. Rotmistrza Witolda Pileckiego w Kierzu Nied\u017awiedzim",
                "name": "Szko\u0142a Podstawowa",
                "addr:country": "PL",
                "addr:postcode": "26-115",
                "addr:city": "Kierz Nied\u017awiedzi",
                "addr:street": "Boczna",
                "addr:housenumber": "7",
                "addr:teryt:simc": 629100,
                "addr:teryt:sym_ul": 1528,
                "contact:phone": "+48 486292322",
                "contact:email": "psp.kierz@wp.pl",
                "ref:regon": "260645422",
                "ref:vatin": "PL7991892769",
                "operator": "Jacek Banaszczyk",
                "operator:type": "private",
                "amenity": "school"
            }
        },
        {
            "id": 120421,
            "type": "Feature",
            "geometry": {
                "type": "Point",
                "coordinates": [
                    20.94394,
                    51.1731
                ]
            },
            "properties": {
                "ref:rspo": 120421,
                "official_name": "Punkt Przedszkolny w Kierzu Nied\u017awiedzim",
                "name": "Punkt Przedszkolny w Kierzu Nied\u017awiedzim",
                "addr:country": "PL",
                "addr:postcode": "26-115",
                "addr:city": "Kierz Nied\u017awiedzi",
                "addr:street": "Boczna",
                "addr:housenumber": "7",
                "addr:teryt:simc": 629100,
                "addr:teryt:sym_ul": 1528,
                "contact:phone": "+48 486292322",
                "contact:email": "psp.kierz@wp.pl",
                "ref:regon": "260723990",
                "ref:vatin": "PL7991892769",
                "operator": "Jacek Banaszczyk",
                "operator:type": "private",
                "amenity": "kindergarten"
            }
        }
    ]
}