{
    "type": "FeatureCollection",
    "features": [
        {
            "id": 3200,
            "type": "Feature",
            "geometry": {
                "type": "Point",
                "coordinates": [
                    20.82219,
                    51.09304
                ]
            },
            "properties": {
                "ref:rspo": 3200,
                "official_name": "Zesp\u00f3\u0142 Plac\u00f3wek O\u015bwiatowych w Skar\u017cysku-Kamiennej",
                "name": "Zesp\u00f3\u0142 Plac\u00f3wek O\u015bwiatowych w Skar\u017cysku-Kamiennej",
                "addr:postcode": "26-110",
                "addr:city": "Skar\u017cysko-Kamienna",
                "addr:street": "Zwyci\u0119zc\u00f3w",
                "addr:housenumber": "13",
                "addr:city:simc": 947716,
                "addr:street:sym_ul": 26330,
                "phone": "+48 412532379",
                "email": "sp2sko@interia.pl",
                "ref:regon": "292424989",
                "ref:vatin": "PL6631737782",
                "operator": "Gmina Skar\u017cysko-Kamienna",
                "operator:type": "government",
                "landuse": "education",
                "fixme": "amenity=school, amenity=college albo landuse=education w zale\u017cno\u015bci od tego, jakie plac\u00f3wki wchodz\u0105 w sk\u0142ad zespo\u0142u. Sprawd\u017a, kiedy stosowa\u0107 amenity=* a kiedy landuse=education.",
                "note": "Children RSPO: 40606;40607"
            }
        },
        {
            "id": 40606,
            "type": "Feature",
            "geometry": {
                "type": "Point",
                "coordinates": [
                    20.82219,
                    51.09301
                ]
            },
            "properties": {
                "isced:level": "1;2",
                "ref:rspo": 40606,
                "official_name": "Szko\u0142a Podstawowa Nr 2 im. Or\u0142a Bia\u0142ego w Skar\u017cysku-Kamiennej",
                "name": "Szko\u0142a Podstawowa Nr 2",
                "addr:postcode": "26-110",
                "addr:city": "Skar\u017cysko-Kamienna",
                "addr:street": "Zwyci\u0119zc\u00f3w",
                "addr:housenumber": "13",
                "addr:city:simc": 947716,
                "addr:street:sym_ul": 26330,
                "phone": "+48 412532379",
                "email": "sp2sko@interia.pl",
                "website": "http:\/\/zposkarzysko.pl",
                "ref:regon": "290618838",
                "operator": "Gmina Skar\u017cysko-Kamienna",
                "operator:type": "government",
                "amenity": "school",
                "note": "Parent RSPO: 3200"
            }
        },
        {
            "id": 40607,
            "type": "Feature",
            "geometry": {
                "type": "Point",
                "coordinates": [
                    20.82219,
                    51.092980000000004
                ]
            },
            "properties": {
                "ref:rspo": 40607,
                "official_name": "Przedszkole Publiczne Nr 3 w Skar\u017cysku-Kamiennej",
                "name": "Przedszkole Publiczne Nr 3 w Skar\u017cysku-Kamiennej",
                "addr:postcode": "26-110",
                "addr:city": "Skar\u017cysko-Kamienna",
                "addr:street": "Zwyci\u0119zc\u00f3w",
                "addr:housenumber": "13",
                "addr:city:simc": 947716,
                "addr:street:sym_ul": 26330,
                "phone": "+48 412532379",
                "email": "sp2sko@interia.pl",
                "ref:regon": "290014371",
                "operator": "Gmina Skar\u017cysko-Kamienna",
                "operator:type": "government",
                "amenity": "kindergarten",
                "note": "Parent RSPO: 3200"
            }
        },
        {
            "id": 6602,
            "type": "Feature",
            "geometry": {
                "type": "Point",
                "coordinates": [
                    20.86702,
                    51.09324
                ]
            },
            "properties": {
                "ref:rspo": 6602,
                "official_name": "Zesp\u00f3\u0142 Plac\u00f3wek Edukacyjno-Wychowawczych w Skar\u017cysku-Kamiennej",
                "name": "Zesp\u00f3\u0142 Plac\u00f3wek Edukacyjno-Wychowawczych w Skar\u017cysku-Kamiennej",
                "addr:postcode": "26-110",
                "addr:city": "Skar\u017cysko-Kamienna",
                "addr:street": "Szkolna",
                "addr:housenumber": "15",
                "addr:door": "-",
                "addr:city:simc": 947716,
                "addr:street:sym_ul": 21970,
                "phone": "+48 412524817",
                "email": "zpewskar@wp.pl",
                "website": "http:\/\/www.zpewskarzysko.pl",
                "ref:regon": "260407384",
                "ref:vatin": "PL6631855518",
                "operator": "Powiat Skar\u017cyski",
                "operator:type": "government",
                "landuse": "education",
                "fixme": "amenity=school, amenity=college albo landuse=education w zale\u017cno\u015bci od tego, jakie plac\u00f3wki wchodz\u0105 w sk\u0142ad zespo\u0142u. Sprawd\u017a, kiedy stosowa\u0107 amenity=* a kiedy landuse=education.",
                "note": "Children RSPO: 17951;18148;19545;26949;79818"
            }
        },
        {
            "id": 17951,
            "type": "Feature",
            "geometry": {
                "type": "Point",
                "coordinates": [
                    20.86702,
                    51.09321
                ]
            },
            "properties": {
                "isced:level": "3",
                "ref:rspo": 17951,
                "official_name": "Liceum Og\u00f3lnokszta\u0142c\u0105ce Specjalne w Zespole Plac\u00f3wek Edukacyjno-Wychowawczych w Skar\u017cysku-Kamiennej",
                "name": "Liceum Og\u00f3lnokszta\u0142c\u0105ce Specjalne w Zespole Plac\u00f3wek Edukacyjno-Wychowawczych w Skar\u017cysku-Kamiennej",
                "addr:postcode": "26-110",
                "addr:city": "Skar\u017cysko-Kamienna",
                "addr:street": "Szkolna",
                "addr:housenumber": "15",
                "addr:city:simc": 947716,
                "addr:street:sym_ul": 21970,
                "phone": "+48 412524817",
                "email": "zpewskar@wp.pl",
                "website": "http:\/\/www.zpewskarzysko.pl",
                "ref:regon": "260250244",
                "operator": "Powiat Skar\u017cyski",
                "operator:type": "government",
                "amenity": "school",
                "note": "Parent RSPO: 6602"
            }
        },
        {
            "id": 19545,
            "type": "Feature",
            "geometry": {
                "type": "Point",
                "coordinates": [
                    20.86702,
                    51.093180000000004
                ]
            },
            "properties": {
                "isced:level": "4",
                "ref:rspo": 19545,
                "official_name": "Szko\u0142a Policealna Specjalna w Zespole Plac\u00f3wek Edukacyjno-Wychowawczych w Skar\u017cysku-Kamiennej",
                "name": "Szko\u0142a Policealna Specjalna w Zespole Plac\u00f3wek Edukacyjno-Wychowawczych w Skar\u017cysku-Kamiennej",
                "addr:postcode": "26-110",
                "addr:city": "Skar\u017cysko-Kamienna",
                "addr:street": "Szkolna",
                "addr:housenumber": "15",
                "addr:city:simc": 947716,
                "addr:street:sym_ul": 21970,
                "phone": "+48 412524817",
                "email": "zpewskar@wp.pl",
                "website": "http:\/\/zpewskarzysko.prv.pl",
                "ref:regon": "260635487",
                "operator": "Powiat Skar\u017cyski",
                "operator:type": "government",
                "amenity": "college",
                "note": "Parent RSPO: 6602"
            }
        },
        {
            "id": 26949,
            "type": "Feature",
            "geometry": {
                "type": "Point",
                "coordinates": [
                    20.86702,
                    51.09315
                ]
            },
            "properties": {
                "ref:rspo": 26949,
                "official_name": "Przedszkole Specjalne w Zespole Plac\u00f3wek Edukacyjno-Wychowawczych w Skar\u017cysku-Kamiennej",
                "name": "Przedszkole Specjalne w Zespole Plac\u00f3wek Edukacyjno-Wychowawczych w Skar\u017cysku-Kamiennej",
                "addr:postcode": "26-110",
                "addr:city": "Skar\u017cysko-Kamienna",
                "addr:street": "Szkolna",
                "addr:housenumber": "15",
                "addr:city:simc": 947716,
                "addr:street:sym_ul": 21970,
                "phone": "+48 412524817",
                "email": "zpewskar@wp.pl",
                "website": "http:\/\/www.zpewskarzysko.pl",
                "ref:regon": "291217975",
                "operator": "Powiat Skar\u017cyski",
                "operator:type": "government",
                "amenity": "kindergarten",
                "note": "Parent RSPO: 6602"
            }
        },
        {
            "id": 79818,
            "type": "Feature",
            "geometry": {
                "type": "Point",
                "coordinates": [
                    20.86702,
                    51.09312
                ]
            },
            "properties": {
                "ref:rspo": 79818,
                "official_name": "Specjalny O\u015brodek Szkolno-Wychowawczy Nr 1 im. Janusza Korczaka w Zespole Plac\u00f3wek Edukacyjno-Wychowawczych w Skar\u017cysku-Kamiennej",
                "name": "Specjalny O\u015brodek Szkolno-Wychowawczy Nr 1",
                "addr:postcode": "26-110",
                "addr:city": "Skar\u017cysko-Kamienna",
                "addr:street": "Szkolna",
                "addr:housenumber": "15",
                "addr:city:simc": 947716,
                "addr:street:sym_ul": 21970,
                "phone": "+48 412524817",
                "email": "zpewskar@wp.pl",
                "website": "http:\/\/www.zpewskarzysko.pl",
                "ref:regon": "291217811",
                "operator": "Powiat Skar\u017cyski",
                "operator:type": "government",
                "amenity": "school",
                "note": "Children RSPO: 88473;88475;88911Parent RSPO: 6602"
            }
        },
        {
            "id": 88473,
            "type": "Feature",
            "geometry": {
                "type": "Point",
                "coordinates": [
                    20.86702,
                    51.093090000000004
                ]
            },
            "properties": {
                "isced:level": "1;2",
                "ref:rspo": 88473,
                "official_name": "Szko\u0142a Podstawowa Specjalna Nr 1 w Specjalnym O\u015brodku Szkolno-Wychowawczym Nr 1 w Skar\u017cysku-Kamiennej",
                "name": "Szko\u0142a Podstawowa Specjalna Nr 1 w Specjalnym O\u015brodku Szkolno-Wychowawczym Nr 1 w Skar\u017cysku-Kamiennej",
                "addr:postcode": "26-110",
                "addr:city": "Skar\u017cysko-Kamienna",
                "addr:street": "Szkolna",
                "addr:housenumber": "15",
                "addr:city:simc": 947716,
                "addr:street:sym_ul": 21970,
                "phone": "+48 412524817",
                "email": "zpewskar@wp.pl",
                "website": "http:\/\/www.zpew.pl",
                "ref:regon": "291210915",
                "operator": "Powiat Skar\u017cyski",
                "operator:type": "government",
                "amenity": "school",
                "note": "Parent RSPO: 79818"
            }
        },
        {
            "id": 88475,
            "type": "Feature",
            "geometry": {
                "type": "Point",
                "coordinates": [
                    20.86702,
                    51.09306
                ]
            },
            "properties": {
                "isced:level": "3",
                "ref:rspo": 88475,
                "official_name": "Bran\u017cowa Szko\u0142a I Stopnia Specjalna Nr 1 Specjalnego O\u015brodka Szkolno-Wychowawczego Nr 1 im. Janusza Korczaka Zespo\u0142u Plac\u00f3wek Edukacyjno-Wychowawczych w Skar\u017cysku-Kamiennej",
                "name": "Bran\u017cowa Szko\u0142a I Stopnia Specjalna Nr 1 Specjalnego O\u015brodka Szkolno-Wychowawczego Nr 1",
                "addr:postcode": "26-110",
                "addr:city": "Skar\u017cysko-Kamienna",
                "addr:street": "Szkolna",
                "addr:housenumber": "15",
                "addr:city:simc": 947716,
                "addr:street:sym_ul": 21970,
                "phone": "+48 412524817",
                "email": "zpewskar@wp.pl",
                "website": "http:\/\/www.zpew.pl",
                "ref:regon": "291211702",
                "operator": "Powiat Skar\u017cyski",
                "operator:type": "government",
                "amenity": "school",
                "note": "Parent RSPO: 79818"
            }
        },
        {
            "id": 88911,
            "type": "Feature",
            "geometry": {
                "type": "Point",
                "coordinates": [
                    20.86702,
                    51.09303
                ]
            },
            "properties": {
                "ref:rspo": 88911,
                "official_name": "Szko\u0142a Specjalna Przysposabiaj\u0105ca Do Pracy Nr 1 w Specjalnym O\u015brodku Szkolno-Wychowawczym Nr 1 w Skar\u017cysku-Kamiennej",
                "name": "Szko\u0142a Specjalna Przysposabiaj\u0105ca Do Pracy Nr 1 w Specjalnym O\u015brodku Szkolno-Wychowawczym Nr 1 w Skar\u017cysku-Kamiennej",
                "addr:postcode": "26-110",
                "addr:city": "Skar\u017cysko-Kamienna",
                "addr:street": "Szkolna",
                "addr:housenumber": "15",
                "addr:city:simc": 947716,
                "addr:street:sym_ul": 21970,
                "phone": "+48 412524817",
                "email": "zpewskar@wp.pl",
                "website": "http:\/\/www.zpew.pl",
                "ref:regon": "292893767",
                "operator": "Powiat Skar\u017cyski",
                "operator:type": "government",
                "amenity": "school",
                "note": "Parent RSPO: 79818"
            }
        },
        {
            "id": 127587,
            "type": "Feature",
            "geometry": {
                "type": "Point",
                "coordinates": [
                    20.86875,
                    51.09421
                ]
            },
            "properties": {
                "ref:rspo": 127587,
                "official_name": "Przedsi\u0119biorstwo Budhydrem Polska",
                "name": "Przedsi\u0119biorstwo Budhydrem Polska",
                "addr:postcode": "26-110",
                "addr:city": "Skar\u017cysko-Kamienna",
                "addr:street": "Juliusza Osterwy",
                "addr:housenumber": "5",
                "addr:door": "13",
                "addr:city:simc": 947716,
                "addr:street:sym_ul": 15365,
                "phone": "+48 601195349",
                "email": "budhydrem@wp.pl",
                "ref:regon": "361732918",
                "operator": "Szymon Piechocki",
                "operator:type": "private",
                "fixme": "w zale\u017cno\u015bci od przedmiotu dzia\u0142alno\u015bci (np. amenity=training + training=*, amenity=dancing_school, amenity=language_school, amenity=music_school)"
            }
        },
        {
            "id": 18148,
            "type": "Feature",
            "geometry": {
                "type": "Point",
                "coordinates": [
                    20.86909,
                    51.09522
                ]
            },
            "properties": {
                "ref:rspo": 18148,
                "official_name": "Bursa Szkolna w Zespole Plac\u00f3wek Edukacyjno-Wychowawczych w Skar\u017cysku-Kamiennej",
                "name": "Bursa Szkolna w Zespole Plac\u00f3wek Edukacyjno-Wychowawczych w Skar\u017cysku-Kamiennej",
                "addr:postcode": "26-110",
                "addr:city": "Skar\u017cysko-Kamienna",
                "addr:street": "Szkolna",
                "addr:housenumber": "16",
                "addr:city:simc": 947716,
                "addr:street:sym_ul": 21970,
                "phone": "+48 412524817",
                "email": "zpewskar@wp.pl",
                "website": "http:\/\/www.zpewskarzysko.pl",
                "ref:regon": "260519775",
                "operator": "Powiat Skar\u017cyski",
                "operator:type": "government",
                "building": "dormitory",
                "note": "Parent RSPO: 6602"
            }
        },
        {
            "id": 131441,
            "type": "Feature",
            "geometry": {
                "type": "Point",
                "coordinates": [
                    20.86992,
                    51.09709
                ]
            },
            "properties": {
                "ref:rspo": 131441,
                "official_name": "Centrum Kszta\u0142cenia Zawodowego I Ustawicznego w Skar\u017cysku-Kamiennej",
                "name": "Centrum Kszta\u0142cenia Zawodowego I Ustawicznego w Skar\u017cysku-Kamiennej",
                "addr:postcode": "26-110",
                "addr:city": "Skar\u017cysko-Kamienna",
                "addr:street": "Legion\u00f3w",
                "addr:housenumber": "124",
                "addr:city:simc": 947716,
                "addr:street:sym_ul": 10769,
                "phone": "+48 412531946",
                "email": "kontakt@ckziu.pl",
                "website": "http:\/\/www.ckziu.pl",
                "ref:regon": "365189003",
                "ref:vatin": "PL6631872586",
                "operator": "Wojew\u00f3dztwo \u015awi\u0119tokrzyskie",
                "operator:type": "government",
                "landuse": "education",
                "fixme": "amenity=school, amenity=college albo landuse=education w zale\u017cno\u015bci od tego, jakie plac\u00f3wki wchodz\u0105 w sk\u0142ad zespo\u0142u. Sprawd\u017a, kiedy stosowa\u0107 amenity=* a kiedy landuse=education.",
                "note": "Children RSPO: 14092;14093;124450"
            }
        },
        {
            "id": 14092,
            "type": "Feature",
            "geometry": {
                "type": "Point",
                "coordinates": [
                    20.86992,
                    51.09706
                ]
            },
            "properties": {
                "isced:level": "4",
                "ref:rspo": 14092,
                "official_name": "Policealna Szko\u0142a Pracownik\u00f3w S\u0142u\u017cb Spo\u0142ecznych im. Mieczys\u0142awa Micha\u0142owicza w Skar\u017cysku-Kamiennej",
                "name": "Policealna Szko\u0142a Pracownik\u00f3w S\u0142u\u017cb Spo\u0142ecznych",
                "addr:postcode": "26-110",
                "addr:city": "Skar\u017cysko-Kamienna",
                "addr:street": "Legion\u00f3w",
                "addr:housenumber": "124",
                "addr:city:simc": 947716,
                "addr:street:sym_ul": 10769,
                "phone": "+48 412531946",
                "email": "kontakt@ckziu.pl",
                "website": "http:\/\/www.ckziu.pl",
                "ref:regon": "291123257",
                "ref:vatin": "PL6631338591",
                "operator": "Wojew\u00f3dztwo \u015awi\u0119tokrzyskie",
                "operator:type": "government",
                "amenity": "college",
                "note": "Parent RSPO: 131441"
            }
        },
        {
            "id": 14093,
            "type": "Feature",
            "geometry": {
                "type": "Point",
                "coordinates": [
                    20.86992,
                    51.097030000000004
                ]
            },
            "properties": {
                "isced:level": "5",
                "ref:rspo": 14093,
                "official_name": "Kolegium Pracownik\u00f3w S\u0142u\u017cb Spo\u0142ecznych im. Mieczys\u0142awa Micha\u0142owicza w Skar\u017cysku-Kamiennej",
                "name": "Kolegium Pracownik\u00f3w S\u0142u\u017cb Spo\u0142ecznych",
                "addr:postcode": "26-110",
                "addr:city": "Skar\u017cysko-Kamienna",
                "addr:street": "Legion\u00f3w",
                "addr:housenumber": "124",
                "addr:city:simc": 947716,
                "addr:street:sym_ul": 10769,
                "phone": "+48 412531946",
                "email": "kontakt@ckziu.pl",
                "website": "http:\/\/www.ckziu.pl",
                "ref:regon": "260118384",
                "ref:vatin": "PL6631800859",
                "operator": "Wojew\u00f3dztwo \u015awi\u0119tokrzyskie",
                "operator:type": "government",
                "amenity": "college",
                "note": "Parent RSPO: 131441"
            }
        },
        {
            "id": 124450,
            "type": "Feature",
            "geometry": {
                "type": "Point",
                "coordinates": [
                    20.86992,
                    51.097
                ]
            },
            "properties": {
                "ref:rspo": 124450,
                "official_name": "Centrum Kszta\u0142cenia Ustawicznego w Skar\u017cysku-Kamiennej",
                "name": "Centrum Kszta\u0142cenia Ustawicznego w Skar\u017cysku-Kamiennej",
                "addr:postcode": "26-110",
                "addr:city": "Skar\u017cysko-Kamienna",
                "addr:street": "Legion\u00f3w",
                "addr:housenumber": "124",
                "addr:city:simc": 947716,
                "addr:street:sym_ul": 10769,
                "phone": "+48 412531946",
                "email": "centrum.skarzysko@gmail.com",
                "website": "http:\/\/www.ckziu.pl",
                "ref:regon": "260791483",
                "ref:vatin": "PL6631869874",
                "operator": "Wojew\u00f3dztwo \u015awi\u0119tokrzyskie",
                "operator:type": "government",
                "fixme": "w zale\u017cno\u015bci od przedmiotu dzia\u0142alno\u015bci (np. amenity=training + training=*, amenity=dancing_school, amenity=language_school, amenity=music_school)",
                "note": "Parent RSPO: 131441"
            }
        },
        {
            "id": 3411,
            "type": "Feature",
            "geometry": {
                "type": "Point",
                "coordinates": [
                    20.85495,
                    51.09741
                ]
            },
            "properties": {
                "ref:rspo": 3411,
                "official_name": "Zesp\u00f3\u0142 Plac\u00f3wek O\u015bwiatowych Nr 3 w Skar\u017cysku-Kamiennej",
                "name": "Zesp\u00f3\u0142 Plac\u00f3wek O\u015bwiatowych Nr 3 w Skar\u017cysku-Kamiennej",
                "addr:postcode": "26-110",
                "addr:city": "Skar\u017cysko-Kamienna",
                "addr:street": "Sportowa",
                "addr:housenumber": "30",
                "addr:city:simc": 947716,
                "addr:street:sym_ul": 20683,
                "phone": "+48 413900750",
                "email": "sp3skarzysko@op.pl",
                "website": "http:\/\/sp3skarzysko.edupage.org",
                "ref:regon": "260624288",
                "operator": "Gmina Skar\u017cysko-Kamienna",
                "operator:type": "government",
                "landuse": "education",
                "fixme": "amenity=school, amenity=college albo landuse=education w zale\u017cno\u015bci od tego, jakie plac\u00f3wki wchodz\u0105 w sk\u0142ad zespo\u0142u. Sprawd\u017a, kiedy stosowa\u0107 amenity=* a kiedy landuse=education.",
                "note": "Children RSPO: 3243;3715"
            }
        },
        {
            "id": 3243,
            "type": "Feature",
            "geometry": {
                "type": "Point",
                "coordinates": [
                    20.85495,
                    51.09738
                ]
            },
            "properties": {
                "isced:level": "1;2",
                "ref:rspo": 3243,
                "official_name": "Szko\u0142a Podstawowa Nr 3 im. Henryka Sienkiewicza w Skar\u017cysku-Kamiennej",
                "name": "Szko\u0142a Podstawowa Nr 3",
                "addr:postcode": "26-110",
                "addr:city": "Skar\u017cysko-Kamienna",
                "addr:street": "Sportowa",
                "addr:housenumber": "30",
                "addr:city:simc": 947716,
                "addr:street:sym_ul": 20683,
                "phone": "+48 413900750",
                "email": "sp3skarzysko@op.pl",
                "website": "http:\/\/sp3skarzysko.edupage.org",
                "ref:regon": "290619045",
                "ref:vatin": "PL6631041508",
                "operator": "Gmina Skar\u017cysko-Kamienna",
                "operator:type": "government",
                "amenity": "school",
                "note": "Parent RSPO: 3411"
            }
        },
        {
            "id": 4026,
            "type": "Feature",
            "geometry": {
                "type": "Point",
                "coordinates": [
                    20.86859,
                    51.0987
                ]
            },
            "properties": {
                "ref:rspo": 4026,
                "official_name": "Zesp\u00f3\u0142 Plac\u00f3wek Resocjalizacyjno-Wychowawczych w Skar\u017cysku-Kamiennej",
                "name": "Zesp\u00f3\u0142 Plac\u00f3wek Resocjalizacyjno-Wychowawczych w Skar\u017cysku-Kamiennej",
                "addr:postcode": "26-110",
                "addr:city": "Skar\u017cysko-Kamienna",
                "addr:street": "Legion\u00f3w",
                "addr:housenumber": "131",
                "addr:door": "-",
                "addr:city:simc": 947716,
                "addr:street:sym_ul": 10769,
                "phone": "+48 412543083",
                "email": "mosskar@op.pl",
                "website": "http:\/\/www.mosskarzysko.prv.pl",
                "ref:regon": "260625112",
                "ref:vatin": "PL6631868231",
                "operator": "Powiat Skar\u017cyski",
                "operator:type": "government",
                "landuse": "education",
                "fixme": "amenity=school, amenity=college albo landuse=education w zale\u017cno\u015bci od tego, jakie plac\u00f3wki wchodz\u0105 w sk\u0142ad zespo\u0142u. Sprawd\u017a, kiedy stosowa\u0107 amenity=* a kiedy landuse=education.",
                "note": "Children RSPO: 79820;79822;87814;87820"
            }
        },
        {
            "id": 79820,
            "type": "Feature",
            "geometry": {
                "type": "Point",
                "coordinates": [
                    20.86859,
                    51.09867
                ]
            },
            "properties": {
                "ref:rspo": 79820,
                "official_name": "M\u0142odzie\u017cowy O\u015brodek Wychowawczy w Skar\u017cysku-Kamiennej",
                "name": "M\u0142odzie\u017cowy O\u015brodek Wychowawczy w Skar\u017cysku-Kamiennej",
                "addr:postcode": "26-110",
                "addr:city": "Skar\u017cysko-Kamienna",
                "addr:street": "Legion\u00f3w",
                "addr:housenumber": "131",
                "addr:city:simc": 947716,
                "addr:street:sym_ul": 10769,
                "phone": "+48 412543083",
                "email": "mosskar@op.pl",
                "website": "http:\/\/mosskarzysko.prv.pl",
                "ref:regon": "260648308",
                "operator": "Powiat Skar\u017cyski",
                "operator:type": "government",
                "fixme": "amenity=social_facility + social_facility=group_home + social_facility:for=juvenile",
                "note": "Parent RSPO: 4026"
            }
        },
        {
            "id": 79822,
            "type": "Feature",
            "geometry": {
                "type": "Point",
                "coordinates": [
                    20.86859,
                    51.09864
                ]
            },
            "properties": {
                "ref:rspo": 79822,
                "official_name": "M\u0142odzie\u017cowy O\u015brodek Socjoterapii w Skar\u017cysku-Kamiennej",
                "name": "M\u0142odzie\u017cowy O\u015brodek Socjoterapii w Skar\u017cysku-Kamiennej",
                "addr:postcode": "26-110",
                "addr:city": "Skar\u017cysko-Kamienna",
                "addr:street": "Legion\u00f3w",
                "addr:housenumber": "131",
                "addr:city:simc": 947716,
                "addr:street:sym_ul": 10769,
                "phone": "+48 412543083",
                "email": "mosskar@op.pl",
                "website": "http:\/\/mosskarzysko.prv.pl",
                "ref:regon": "260112217",
                "operator": "Powiat Skar\u017cyski",
                "operator:type": "government",
                "fixme": "amenity=social_facility + social_facility=group_home + social_facility:for=juvenile",
                "note": "Parent RSPO: 4026"
            }
        },
        {
            "id": 87814,
            "type": "Feature",
            "geometry": {
                "type": "Point",
                "coordinates": [
                    20.86859,
                    51.09861
                ]
            },
            "properties": {
                "isced:level": "3",
                "ref:rspo": 87814,
                "official_name": "Bran\u017cowa Szko\u0142a I Stopnia Specjalna Nr 2 w Zespole Plac\u00f3wek Resocjalizacyjno - Wychowawczych w Skar\u017cysku-Kamiennej",
                "name": "Bran\u017cowa Szko\u0142a I Stopnia Specjalna Nr 2 w Zespole Plac\u00f3wek Resocjalizacyjno - Wychowawczych w Skar\u017cysku-Kamiennej",
                "addr:postcode": "26-110",
                "addr:city": "Skar\u017cysko-Kamienna",
                "addr:street": "Legion\u00f3w",
                "addr:housenumber": "131",
                "addr:city:simc": 947716,
                "addr:street:sym_ul": 10769,
                "phone": "+48 412543083",
                "email": "mosskar@op.pl",
                "website": "http:\/\/mosskarzysko.prv.pl\/",
                "ref:regon": "260650156",
                "operator": "Powiat Skar\u017cyski",
                "operator:type": "government",
                "amenity": "school",
                "note": "Parent RSPO: 4026"
            }
        },
        {
            "id": 87820,
            "type": "Feature",
            "geometry": {
                "type": "Point",
                "coordinates": [
                    20.86859,
                    51.09858
                ]
            },
            "properties": {
                "isced:level": "1;2",
                "ref:rspo": 87820,
                "official_name": "Szko\u0142a Podstawowa Specjalna Nr 3 w Zespole Plac\u00f3wek Resocjalizacyjno - Wychowawczych w Skar\u017cysku-Kamiennej",
                "name": "Szko\u0142a Podstawowa Specjalna Nr 3 w Zespole Plac\u00f3wek Resocjalizacyjno - Wychowawczych w Skar\u017cysku-Kamiennej",
                "addr:postcode": "26-110",
                "addr:city": "Skar\u017cysko-Kamienna",
                "addr:street": "Legion\u00f3w",
                "addr:housenumber": "131",
                "addr:city:simc": 947716,
                "addr:street:sym_ul": 10769,
                "phone": "+48 412543083",
                "email": "mosskar@op.pl",
                "website": "http:\/\/mosskarzysko.prv.pl\/",
                "ref:regon": "260650200",
                "operator": "Powiat Skar\u017cyski",
                "operator:type": "government",
                "amenity": "school",
                "note": "Parent RSPO: 4026"
            }
        },
        {
            "id": 3715,
            "type": "Feature",
            "geometry": {
                "type": "Point",
                "coordinates": [
                    20.85663,
                    51.09912
                ]
            },
            "properties": {
                "ref:rspo": 3715,
                "official_name": "Przedszkole Publiczne Nr 12 Z Oddzia\u0142ami Integracyjnymi w Skar\u017cysku-Kamiennej",
                "name": "Przedszkole Publiczne Nr 12 Z Oddzia\u0142ami Integracyjnymi w Skar\u017cysku-Kamiennej",
                "addr:postcode": "26-110",
                "addr:city": "Skar\u017cysko-Kamienna",
                "addr:street": "Sportowa",
                "addr:housenumber": "34",
                "addr:city:simc": 947716,
                "addr:street:sym_ul": 20683,
                "phone": "+48 413900760",
                "email": "sp3skarzysko@op.pl",
                "website": "http:\/\/sp3skarzysko.edupage.org",
                "ref:regon": "260435073",
                "ref:vatin": "PL6631859077",
                "operator": "Gmina Skar\u017cysko-Kamienna",
                "operator:type": "government",
                "amenity": "kindergarten",
                "note": "Parent RSPO: 3411"
            }
        },
        {
            "id": 6601,
            "type": "Feature",
            "geometry": {
                "type": "Point",
                "coordinates": [
                    20.86555,
                    51.09972
                ]
            },
            "properties": {
                "ref:rspo": 6601,
                "official_name": "Zesp\u00f3\u0142 Szk\u00f3\u0142 Transportowo-Mechatronicznych w Skar\u017cysku-Kamiennej",
                "name": "Zesp\u00f3\u0142 Szk\u00f3\u0142 Transportowo-Mechatronicznych w Skar\u017cysku-Kamiennej",
                "addr:postcode": "26-110",
                "addr:city": "Skar\u017cysko-Kamienna",
                "addr:street": "Legion\u00f3w",
                "addr:housenumber": "119",
                "addr:city:simc": 947716,
                "addr:street:sym_ul": 10769,
                "phone": "+48 412532897",
                "email": "kontakt@zstm.pl",
                "website": "http:\/\/www.zstm.pl",
                "ref:regon": "260317209",
                "ref:vatin": "PL6631842094",
                "operator": "Powiat Skar\u017cyski",
                "operator:type": "government",
                "landuse": "education",
                "fixme": "amenity=school, amenity=college albo landuse=education w zale\u017cno\u015bci od tego, jakie plac\u00f3wki wchodz\u0105 w sk\u0142ad zespo\u0142u. Sprawd\u017a, kiedy stosowa\u0107 amenity=* a kiedy landuse=education.",
                "note": "Children RSPO: 18280;18281;18283"
            }
        },
        {
            "id": 132850,
            "type": "Feature",
            "geometry": {
                "type": "Point",
                "coordinates": [
                    20.86555,
                    51.099689999999995
                ]
            },
            "properties": {
                "ref:rspo": 132850,
                "official_name": "Centrum Kszta\u0142cenia Ustawicznego \u201eMultiedukator\u201d",
                "name": "Centrum Kszta\u0142cenia Ustawicznego \u201eMultiedukator\u201d",
                "addr:postcode": "26-110",
                "addr:city": "Skar\u017cysko-Kamienna",
                "addr:street": "Legion\u00f3w",
                "addr:housenumber": "119",
                "addr:city:simc": 947716,
                "addr:street:sym_ul": 10769,
                "phone": "+48 512653423",
                "email": "michal-bilski@o2.pl",
                "ref:regon": "366260714",
                "operator": "Fundacja Przestrze\u0144 Kultury",
                "operator:type": "ngo",
                "fixme": "w zale\u017cno\u015bci od przedmiotu dzia\u0142alno\u015bci (np. amenity=training + training=*, amenity=dancing_school, amenity=language_school, amenity=music_school)"
            }
        },
        {
            "id": 18280,
            "type": "Feature",
            "geometry": {
                "type": "Point",
                "coordinates": [
                    20.86555,
                    51.09966
                ]
            },
            "properties": {
                "isced:level": "3",
                "ref:rspo": 18280,
                "official_name": "Technikum Nr 4 im. In\u017c. Eugeniusza Kwiatkowskiego w Zespole Szk\u00f3\u0142 Transportowo-Mechatronicznych",
                "name": "Technikum Nr 4",
                "addr:postcode": "26-110",
                "addr:city": "Skar\u017cysko-Kamienna",
                "addr:street": "Legion\u00f3w",
                "addr:housenumber": "119",
                "addr:city:simc": 947716,
                "addr:street:sym_ul": 10769,
                "phone": "+48 412532897",
                "email": "kontakt@zstm.pl",
                "website": "http:\/\/zstm.pl\/",
                "ref:regon": "292440066",
                "operator": "Powiat Skar\u017cyski",
                "operator:type": "government",
                "amenity": "school",
                "note": "Parent RSPO: 6601"
            }
        },
        {
            "id": 18281,
            "type": "Feature",
            "geometry": {
                "type": "Point",
                "coordinates": [
                    20.86555,
                    51.09963
                ]
            },
            "properties": {
                "isced:level": "3",
                "ref:rspo": 18281,
                "official_name": "Bran\u017cowa Szko\u0142a I Stopnia Nr 4 im. \u201eIn\u017c. Eugeniusza Kwiatkowskiego\u201d Zespo\u0142u Szk\u00f3\u0142 Transportowo-Mechatronicznych w Skar\u017cysku-Kamiennej",
                "name": "Bran\u017cowa Szko\u0142a I Stopnia Nr 4",
                "addr:postcode": "26-110",
                "addr:city": "Skar\u017cysko-Kamienna",
                "addr:street": "Legion\u00f3w",
                "addr:housenumber": "119",
                "addr:city:simc": 947716,
                "addr:street:sym_ul": 10769,
                "phone": "+48 412532897",
                "email": "kontakt@zstm.pl",
                "website": "http:\/\/zstm.pl\/",
                "ref:regon": "260324899",
                "operator": "Powiat Skar\u017cyski",
                "operator:type": "government",
                "amenity": "school",
                "note": "Parent RSPO: 6601"
            }
        },
        {
            "id": 18283,
            "type": "Feature",
            "geometry": {
                "type": "Point",
                "coordinates": [
                    20.86555,
                    51.099599999999995
                ]
            },
            "properties": {
                "isced:level": "4",
                "ref:rspo": 18283,
                "official_name": "Szko\u0142a Policealna Nr 4 im. In\u017c. Eugeniusza Kwiatkowskiego w Zespole Szk\u00f3\u0142 Transportowo-Mechatronicznych w Skar\u017cysku-Kamiennej",
                "name": "Szko\u0142a Policealna Nr 4",
                "addr:postcode": "26-110",
                "addr:city": "Skar\u017cysko-Kamienna",
                "addr:street": "Legion\u00f3w",
                "addr:housenumber": "119",
                "addr:city:simc": 947716,
                "addr:street:sym_ul": 10769,
                "phone": "+48 412532897",
                "email": "kontakt@zstm.pl",
                "website": "http:\/\/zstm.pl\/",
                "ref:regon": "260324907",
                "operator": "Powiat Skar\u017cyski",
                "operator:type": "government",
                "amenity": "college",
                "note": "Parent RSPO: 6601"
            }
        },
        {
            "id": 3413,
            "type": "Feature",
            "geometry": {
                "type": "Point",
                "coordinates": [
                    20.852550506592,
                    51.105979919434
                ]
            },
            "properties": {
                "ref:rspo": 3413,
                "official_name": "Zesp\u00f3\u0142 Plac\u00f3wek O\u015bwiatowych Nr 4 w Skar\u017cysku-Kamiennej",
                "name": "Zesp\u00f3\u0142 Plac\u00f3wek O\u015bwiatowych Nr 4 w Skar\u017cysku-Kamiennej",
                "addr:postcode": "26-110",
                "addr:city": "Skar\u017cysko-Kamienna",
                "addr:street": "Cypriana Kamila Norwida",
                "addr:housenumber": "3",
                "addr:city:simc": 947716,
                "addr:street:sym_ul": 14317,
                "phone": "+48 413900770",
                "email": "sp_nr5@wp.pl",
                "ref:regon": "260624294",
                "operator": "Gmina Skar\u017cysko-Kamienna",
                "operator:type": "government",
                "landuse": "education",
                "fixme": "amenity=school, amenity=college albo landuse=education w zale\u017cno\u015bci od tego, jakie plac\u00f3wki wchodz\u0105 w sk\u0142ad zespo\u0142u. Sprawd\u017a, kiedy stosowa\u0107 amenity=* a kiedy landuse=education.",
                "note": "Children RSPO: 3595;3723"
            }
        },
        {
            "id": 27271,
            "type": "Feature",
            "geometry": {
                "type": "Point",
                "coordinates": [
                    20.852550506592,
                    51.105949919433996
                ]
            },
            "properties": {
                "ref:rspo": 27271,
                "official_name": "O\u015brodek Szkoleniowy Centrum Nauki I Biznesu \u201e\u017bak\u201d w Skar\u017cysku-Kamiennej",
                "name": "O\u015brodek Szkoleniowy Centrum Nauki I Biznesu \u201e\u017bak\u201d w Skar\u017cysku-Kamiennej",
                "addr:postcode": "26-110",
                "addr:city": "Skar\u017cysko-Kamienna",
                "addr:street": "Cypriana Kamila Norwida",
                "addr:housenumber": "3",
                "addr:city:simc": 947716,
                "addr:street:sym_ul": 14317,
                "phone": "+48 412539417",
                "email": "skarzyskokamienna@zak.edu.pl",
                "website": "http:\/\/www.zak.edu.pl",
                "ref:regon": "260646002",
                "operator": "Centrum Nauki I Biznesu \"\u017bak\" Sp\u00f3\u0142ka Z Ograniczon\u0105 Odpowiedzialno\u015bci\u0105",
                "operator:type": "private",
                "fixme": "w zale\u017cno\u015bci od przedmiotu dzia\u0142alno\u015bci (np. amenity=training + training=*, amenity=dancing_school, amenity=language_school, amenity=music_school)"
            }
        },
        {
            "id": 3595,
            "type": "Feature",
            "geometry": {
                "type": "Point",
                "coordinates": [
                    20.852550506592,
                    51.105919919434
                ]
            },
            "properties": {
                "isced:level": "1;2",
                "ref:rspo": 3595,
                "official_name": "Szko\u0142a Podstawowa Nr 5 im. Jana Paw\u0142a II w Skar\u017cysku-Kamiennej",
                "name": "Szko\u0142a Podstawowa Nr 5",
                "addr:postcode": "26-110",
                "addr:city": "Skar\u017cysko-Kamienna",
                "addr:street": "Cypriana Kamila Norwida",
                "addr:housenumber": "3",
                "addr:city:simc": 947716,
                "addr:street:sym_ul": 14317,
                "phone": "+48 413900770",
                "email": "sp_nr5@wp.pl",
                "ref:regon": "290619097",
                "operator": "Gmina Skar\u017cysko-Kamienna",
                "operator:type": "government",
                "amenity": "school",
                "note": "Parent RSPO: 3413"
            }
        },
        {
            "id": 18049,
            "type": "Feature",
            "geometry": {
                "type": "Point",
                "coordinates": [
                    20.8516,
                    51.10733
                ]
            },
            "properties": {
                "ref:rspo": 18049,
                "official_name": "Centrum Kszta\u0142cenia Zawodowego w Skar\u017cysku-Kamiennej",
                "name": "Centrum Kszta\u0142cenia Zawodowego w Skar\u017cysku-Kamiennej",
                "addr:postcode": "26-110",
                "addr:city": "Skar\u017cysko-Kamienna",
                "addr:street": "Metalowc\u00f3w",
                "addr:housenumber": "54",
                "addr:city:simc": 947716,
                "addr:street:sym_ul": 12632,
                "phone": "+48 412530483",
                "email": "skarzysko@zdz.kielce.pl",
                "website": "http:\/\/www.zdz.kielce.pl\/skarzysko-kamienna.htm",
                "ref:regon": "260634803",
                "operator": "Zak\u0142ad Doskonalenia Zawodowego W Kielcach",
                "operator:type": "ngo",
                "fixme": "w zale\u017cno\u015bci od przedmiotu dzia\u0142alno\u015bci (np. amenity=training + training=*, amenity=dancing_school, amenity=language_school, amenity=music_school) albo amenity=school, amenity=college, albo landuse=education w zale\u017cno\u015bci od tego, jakie plac\u00f3wki wchodz\u0105 w sk\u0142ad zespo\u0142u. Sprawd\u017a, kiedy stosowa\u0107 amenity=* a kiedy landuse=education."
            }
        },
        {
            "id": 123086,
            "type": "Feature",
            "geometry": {
                "type": "Point",
                "coordinates": [
                    20.8516,
                    51.107299999999995
                ]
            },
            "properties": {
                "isced:level": "3",
                "ref:rspo": 123086,
                "official_name": "Niepubliczna Bran\u017cowa Szko\u0142a I Stopnia w Skar\u017cysku-Kamiennej",
                "name": "Niepubliczna Bran\u017cowa Szko\u0142a I Stopnia w Skar\u017cysku-Kamiennej",
                "addr:postcode": "26-110",
                "addr:city": "Skar\u017cysko-Kamienna",
                "addr:street": "Metalowc\u00f3w",
                "addr:housenumber": "54",
                "addr:city:simc": 947716,
                "addr:street:sym_ul": 12632,
                "phone": "+48 412530483",
                "email": "skarzysko@zdz.kielce.pl",
                "website": "http:\/\/www.zdz.kielce.pl\/skarzysko-kamienna.html",
                "ref:regon": "260767817",
                "operator": "Zak\u0142ad Doskonalenia Zawodowego W Kielcach",
                "operator:type": "ngo",
                "amenity": "school"
            }
        },
        {
            "id": 125502,
            "type": "Feature",
            "geometry": {
                "type": "Point",
                "coordinates": [
                    20.8516,
                    51.10727
                ]
            },
            "properties": {
                "isced:level": "3",
                "ref:rspo": 125502,
                "official_name": "Niepubliczne Technikum w Skar\u017cysku-Kamiennej Zak\u0142adu Doskonalenia Zawodowego w Kielcach",
                "name": "Niepubliczne Technikum w Skar\u017cysku-Kamiennej Zak\u0142adu Doskonalenia Zawodowego w Kielcach",
                "addr:postcode": "26-110",
                "addr:city": "Skar\u017cysko-Kamienna",
                "addr:street": "Metalowc\u00f3w",
                "addr:housenumber": "54",
                "addr:city:simc": 947716,
                "addr:street:sym_ul": 12632,
                "phone": "+48 412530483",
                "email": "skarzysko@zdz.kielce.pl",
                "website": "http:\/\/www.zdz.kielce.pl\/skarzysko-kamienna.html",
                "ref:regon": "260798960",
                "operator": "Zak\u0142ad Doskonalenia Zawodowego W Kielcach",
                "operator:type": "ngo",
                "amenity": "school"
            }
        },
        {
            "id": 269050,
            "type": "Feature",
            "geometry": {
                "type": "Point",
                "coordinates": [
                    20.8516,
                    51.10724
                ]
            },
            "properties": {
                "isced:level": "4",
                "ref:rspo": 269050,
                "official_name": "Niepubliczna Szko\u0142a Policealna w Skar\u017cysku-Kamiennej Zak\u0142adu Doskonalenia Zawodowego w Kielcach",
                "name": "Niepubliczna Szko\u0142a Policealna w Skar\u017cysku-Kamiennej Zak\u0142adu Doskonalenia Zawodowego w Kielcach",
                "addr:postcode": "26-110",
                "addr:city": "Skar\u017cysko-Kamienna",
                "addr:street": "Metalowc\u00f3w",
                "addr:housenumber": "54",
                "addr:city:simc": 947716,
                "addr:street:sym_ul": 12632,
                "phone": "+48 412530483",
                "email": "skarzysko@zdz.kielce.pl",
                "ref:regon": "381343390",
                "operator": "Zak\u0142ad Doskonalenia Zawodowego W Kielcach",
                "operator:type": "ngo",
                "amenity": "college"
            }
        },
        {
            "id": 274898,
            "type": "Feature",
            "geometry": {
                "type": "Point",
                "coordinates": [
                    20.8516,
                    51.107209999999995
                ]
            },
            "properties": {
                "isced:level": "3",
                "ref:rspo": 274898,
                "official_name": "Niepubliczna Bran\u017cowa Szko\u0142a II Stopnia w Skar\u017cysku-Kamiennej",
                "name": "Niepubliczna Bran\u017cowa Szko\u0142a II Stopnia w Skar\u017cysku-Kamiennej",
                "addr:postcode": "26-110",
                "addr:city": "Skar\u017cysko-Kamienna",
                "addr:street": "Metalowc\u00f3w",
                "addr:housenumber": "54",
                "addr:city:simc": 947716,
                "addr:street:sym_ul": 12632,
                "phone": "+48 412530483",
                "email": "skarzysko@zdz.kielce.pl",
                "website": "http:\/\/www.szkolyskarzysko.zdz.kielce.pl",
                "ref:regon": "386372136",
                "operator": "Zak\u0142ad Doskonalenia Zawodowego W Kielcach",
                "operator:type": "ngo",
                "amenity": "school"
            }
        },
        {
            "id": 262602,
            "type": "Feature",
            "geometry": {
                "type": "Point",
                "coordinates": [
                    20.86269,
                    51.11299
                ]
            },
            "properties": {
                "ref:rspo": 262602,
                "official_name": "Niepubliczne Naukowe Przedszkole Integracyjne \u201eMini College\u201d w Skar\u017cysku-Kamiennej",
                "name": "Niepubliczne Naukowe Przedszkole Integracyjne \u201eMini College\u201d w Skar\u017cysku-Kamiennej",
                "addr:postcode": "26-110",
                "addr:city": "Skar\u017cysko-Kamienna",
                "addr:street": "Adama Mickiewicza",
                "addr:housenumber": "11",
                "addr:door": "3",
                "addr:city:simc": 947716,
                "addr:street:sym_ul": 12734,
                "phone": "+48 733332733",
                "email": "sekretariat@college-med.pl",
                "website": "http:\/\/www.minicollege.pl",
                "ref:regon": "368042358",
                "operator": "Fundacja Mini College",
                "operator:type": "ngo",
                "amenity": "kindergarten"
            }
        },
        {
            "id": 35254,
            "type": "Feature",
            "geometry": {
                "type": "Point",
                "coordinates": [
                    20.86629,
                    51.11305
                ]
            },
            "properties": {
                "isced:level": "1;2",
                "ref:rspo": 35254,
                "official_name": "Prywatna Szko\u0142a Podstawowa w Skar\u017cysku-Kamiennej",
                "name": "Prywatna Szko\u0142a Podstawowa w Skar\u017cysku-Kamiennej",
                "addr:postcode": "26-110",
                "addr:city": "Skar\u017cysko-Kamienna",
                "addr:street": "Juliusza S\u0142owackiego",
                "addr:housenumber": "29",
                "addr:city:simc": 947716,
                "addr:street:sym_ul": 20286,
                "phone": "+48 412511344",
                "email": "skarzysko@onet.eu",
                "ref:regon": "260640979",
                "operator": "Anna Grudzie\u0144",
                "operator:type": "private",
                "amenity": "school"
            }
        },
        {
            "id": 132588,
            "type": "Feature",
            "geometry": {
                "type": "Point",
                "coordinates": [
                    20.86629,
                    51.11302
                ]
            },
            "properties": {
                "ref:rspo": 132588,
                "official_name": "Prywatna Poradnia Psychologiczno-Pedagogiczna \u201eDobre Miejsce\u201d w Skar\u017cysku-Kamiennej",
                "name": "Prywatna Poradnia Psychologiczno-Pedagogiczna \u201eDobre Miejsce\u201d w Skar\u017cysku-Kamiennej",
                "addr:postcode": "26-110",
                "addr:city": "Skar\u017cysko-Kamienna",
                "addr:street": "Juliusza S\u0142owackiego",
                "addr:housenumber": "29",
                "addr:city:simc": 947716,
                "addr:street:sym_ul": 20286,
                "phone": "+48 696403678",
                "email": "kontakt@poradnia-skarzysko.pl",
                "ref:regon": "365864806",
                "operator": "Jakub Grudzie\u0144",
                "operator:type": "private",
                "healthcare": "counselling",
                "counselling_type": "education",
                "fixme": "w zale\u017cno\u015bci od przedmiotu dzia\u0142alno\u015bci (np. healthcare=counselling + counselling_type=education albo healthcare=psychotherapist)"
            }
        },
        {
            "id": 270062,
            "type": "Feature",
            "geometry": {
                "type": "Point",
                "coordinates": [
                    20.86629,
                    51.11299
                ]
            },
            "properties": {
                "ref:rspo": 270062,
                "official_name": "Prywatne Przedszkole J\u0119zykowe \u201eLittle People\u201d w Skar\u017cysku-Kamiennej",
                "name": "Prywatne Przedszkole J\u0119zykowe \u201eLittle People\u201d w Skar\u017cysku-Kamiennej",
                "addr:postcode": "26-110",
                "addr:city": "Skar\u017cysko-Kamienna",
                "addr:street": "Juliusza S\u0142owackiego",
                "addr:housenumber": "29",
                "addr:city:simc": 947716,
                "addr:street:sym_ul": 20286,
                "phone": "+48 412511344",
                "email": "anka.grudzien@gmail.com",
                "ref:regon": "382005027",
                "operator": "Anna Grudzie\u0144",
                "operator:type": "private",
                "amenity": "kindergarten"
            }
        },
        {
            "id": 3639,
            "type": "Feature",
            "geometry": {
                "type": "Point",
                "coordinates": [
                    20.85508,
                    51.1133499
                ]
            },
            "properties": {
                "ref:rspo": 3639,
                "official_name": "Przedszkole Publiczne Nr 9 w Skar\u017cysku-Kamiennej",
                "name": "Przedszkole Publiczne Nr 9 w Skar\u017cysku-Kamiennej",
                "addr:postcode": "26-110",
                "addr:city": "Skar\u017cysko-Kamienna",
                "addr:street": "Paryska",
                "addr:housenumber": "223",
                "addr:city:simc": 947716,
                "addr:street:sym_ul": 15741,
                "phone": "+48 412532512",
                "email": "dziewiatkauniludki@op.pl",
                "ref:regon": "260435044",
                "ref:vatin": "PL6631859114",
                "operator": "Gmina Skar\u017cysko-Kamienna",
                "operator:type": "government",
                "amenity": "kindergarten"
            }
        },
        {
            "id": 3603,
            "type": "Feature",
            "geometry": {
                "type": "Point",
                "coordinates": [
                    20.88808,
                    51.1134
                ]
            },
            "properties": {
                "isced:level": "1;2",
                "ref:rspo": 3603,
                "official_name": "Szko\u0142a Podstawowa Nr 8 im. Stefana \u017beromskiego w Skar\u017cysku-Kamiennej",
                "name": "Szko\u0142a Podstawowa Nr 8",
                "addr:postcode": "26-110",
                "addr:city": "Skar\u017cysko-Kamienna",
                "addr:street": "Podjazdowa",
                "addr:housenumber": "21",
                "addr:city:simc": 947716,
                "addr:street:sym_ul": 16761,
                "phone": "+48 412520620",
                "email": "sp8@sp8skarzysko.pl",
                "website": "http:\/\/www.sp8skarzysko.pl",
                "ref:regon": "290618809",
                "ref:vatin": "PL6631041402",
                "operator": "Gmina Skar\u017cysko-Kamienna",
                "operator:type": "government",
                "amenity": "school"
            }
        },
        {
            "id": 3717,
            "type": "Feature",
            "geometry": {
                "type": "Point",
                "coordinates": [
                    20.86316,
                    51.11383
                ]
            },
            "properties": {
                "ref:rspo": 3717,
                "official_name": "Przedszkole Publiczne Nr 10 im. Kubusia Puchatka w Skar\u017cysku-Kamiennej",
                "name": "Przedszkole Publiczne Nr 10",
                "addr:postcode": "26-110",
                "addr:city": "Skar\u017cysko-Kamienna",
                "addr:street": "Okrzei",
                "addr:housenumber": "4",
                "addr:city:simc": 947716,
                "addr:street:sym_ul": 14909,
                "phone": "+48 412530244",
                "email": "sp1sko@o2.pl",
                "ref:regon": "260435067",
                "operator": "Gmina Skar\u017cysko-Kamienna",
                "operator:type": "government",
                "amenity": "kindergarten",
                "note": "Parent RSPO: 3401"
            }
        },
        {
            "id": 15693,
            "type": "Feature",
            "geometry": {
                "type": "Point",
                "coordinates": [
                    20.86725,
                    51.11397
                ]
            },
            "properties": {
                "ref:rspo": 15693,
                "official_name": "Centrum Kszta\u0142cenia Zawodowego w Zespole Szk\u00f3\u0142 Technicznych w Skar\u017cysku-Kamiennej",
                "name": "Centrum Kszta\u0142cenia Zawodowego w Zespole Szk\u00f3\u0142 Technicznych w Skar\u017cysku-Kamiennej",
                "addr:postcode": "26-110",
                "addr:city": "Skar\u017cysko-Kamienna",
                "addr:street": "Aleja Tysi\u0105clecia",
                "addr:housenumber": "20",
                "addr:city:simc": 947716,
                "addr:street:sym_ul": 23266,
                "phone": "+48 412512161",
                "email": "zst.skarzysko@gmail.com",
                "ref:regon": "292460880",
                "operator": "Powiat Skar\u017cyski",
                "operator:type": "government",
                "fixme": "w zale\u017cno\u015bci od przedmiotu dzia\u0142alno\u015bci (np. amenity=training + training=*, amenity=dancing_school, amenity=language_school, amenity=music_school) albo amenity=school, amenity=college, albo landuse=education w zale\u017cno\u015bci od tego, jakie plac\u00f3wki wchodz\u0105 w sk\u0142ad zespo\u0142u. Sprawd\u017a, kiedy stosowa\u0107 amenity=* a kiedy landuse=education.",
                "note": "Parent RSPO: 5901"
            }
        },
        {
            "id": 5961,
            "type": "Feature",
            "geometry": {
                "type": "Point",
                "coordinates": [
                    20.86942,
                    51.11435
                ]
            },
            "properties": {
                "isced:level": "3",
                "ref:rspo": 5961,
                "official_name": "Ii Liceum Og\u00f3lnokszta\u0142c\u0105ce im. Adama Mickiewicza w Skar\u017cysku-Kamiennej",
                "name": "Ii Liceum Og\u00f3lnokszta\u0142c\u0105ce",
                "addr:postcode": "26-110",
                "addr:city": "Skar\u017cysko-Kamienna",
                "addr:street": "Aleja Marsza\u0142ka J\u00f3zefa Pi\u0142sudskiego",
                "addr:housenumber": "50",
                "addr:city:simc": 947716,
                "addr:street:sym_ul": 40017,
                "phone": "+48 412513970",
                "email": "sekretariat@mickiewicz.net",
                "website": "http:\/\/www.mickiewicz.net",
                "ref:regon": "000695278",
                "ref:vatin": "PL6631048278",
                "operator": "Powiat Skar\u017cyski",
                "operator:type": "government",
                "amenity": "school"
            }
        },
        {
            "id": 5901,
            "type": "Feature",
            "geometry": {
                "type": "Point",
                "coordinates": [
                    20.86797,
                    51.1145
                ]
            },
            "properties": {
                "ref:rspo": 5901,
                "official_name": "Zesp\u00f3\u0142 Szk\u00f3\u0142 Technicznych im. Armii Krajowej w Skar\u017cysku-Kamiennej",
                "name": "Zesp\u00f3\u0142 Szk\u00f3\u0142 Technicznych",
                "addr:postcode": "26-110",
                "addr:city": "Skar\u017cysko-Kamienna",
                "addr:street": "Aleja Tysi\u0105clecia",
                "addr:housenumber": "22",
                "addr:door": "-",
                "addr:city:simc": 947716,
                "addr:street:sym_ul": 23266,
                "phone": "+48 412512161",
                "email": "zst.skarzysko@gmail.com",
                "website": "http:\/\/www.zst-skarzysko.pl",
                "ref:regon": "260237723",
                "ref:vatin": "PL6631829308",
                "operator": "Powiat Skar\u017cyski",
                "operator:type": "government",
                "landuse": "education",
                "fixme": "amenity=school, amenity=college albo landuse=education w zale\u017cno\u015bci od tego, jakie plac\u00f3wki wchodz\u0105 w sk\u0142ad zespo\u0142u. Sprawd\u017a, kiedy stosowa\u0107 amenity=* a kiedy landuse=education.",
                "note": "Children RSPO: 15418;15439;15693;15779;113459;275902"
            }
        },
        {
            "id": 15418,
            "type": "Feature",
            "geometry": {
                "type": "Point",
                "coordinates": [
                    20.86797,
                    51.11447
                ]
            },
            "properties": {
                "isced:level": "3",
                "ref:rspo": 15418,
                "official_name": "Technikum Nr 1 Zespo\u0142u Szk\u00f3\u0142 Technicznych im. Armii Krajowej w Skar\u017cysku-Kamiennej",
                "name": "Technikum Nr 1 Zespo\u0142u Szk\u00f3\u0142 Technicznych",
                "addr:postcode": "26-110",
                "addr:city": "Skar\u017cysko-Kamienna",
                "addr:street": "Aleja Tysi\u0105clecia",
                "addr:housenumber": "22",
                "addr:city:simc": 947716,
                "addr:street:sym_ul": 23266,
                "phone": "+48 412512161",
                "email": "zst.skarzysko@gmail.com",
                "website": "http:\/\/www.zst-skarzysko.pl",
                "ref:regon": "292437220",
                "operator": "Powiat Skar\u017cyski",
                "operator:type": "government",
                "amenity": "school",
                "note": "Parent RSPO: 5901"
            }
        },
        {
            "id": 15439,
            "type": "Feature",
            "geometry": {
                "type": "Point",
                "coordinates": [
                    20.86797,
                    51.11444
                ]
            },
            "properties": {
                "isced:level": "3",
                "ref:rspo": 15439,
                "official_name": "Bran\u017cowa Szko\u0142a I Stopnia Nr 1 Zespo\u0142u Szk\u00f3\u0142 Technicznych im. Armii Krajowej w Skar\u017cysku-Kamiennej",
                "name": "Bran\u017cowa Szko\u0142a I Stopnia Nr 1 Zespo\u0142u Szk\u00f3\u0142 Technicznych",
                "addr:postcode": "26-110",
                "addr:city": "Skar\u017cysko-Kamienna",
                "addr:street": "Aleja Tysi\u0105clecia",
                "addr:housenumber": "22",
                "addr:city:simc": 947716,
                "addr:street:sym_ul": 23266,
                "phone": "+48 412512161",
                "email": "zst.skarzysko@gmail.com",
                "website": "http:\/\/www.zst-skarzysko.pl",
                "ref:regon": "292437288",
                "operator": "Powiat Skar\u017cyski",
                "operator:type": "government",
                "amenity": "school",
                "note": "Parent RSPO: 5901"
            }
        },
        {
            "id": 15779,
            "type": "Feature",
            "geometry": {
                "type": "Point",
                "coordinates": [
                    20.86797,
                    51.11441
                ]
            },
            "properties": {
                "isced:level": "4",
                "ref:rspo": 15779,
                "official_name": "Szko\u0142a Policealna Nr 1 w Zespole Szk\u00f3\u0142 Technicznych im. Armii Krajowej w Skar\u017cysku-Kamiennej",
                "name": "Szko\u0142a Policealna Nr 1 w Zespole Szk\u00f3\u0142 Technicznych",
                "addr:postcode": "26-110",
                "addr:city": "Skar\u017cysko-Kamienna",
                "addr:street": "Aleja Tysi\u0105clecia",
                "addr:housenumber": "22",
                "addr:city:simc": 947716,
                "addr:street:sym_ul": 23266,
                "phone": "+48 412512161",
                "email": "zst.skarzysko@gmail.com",
                "website": "http:\/\/www.zst-skarzysko.pl",
                "ref:regon": "260264281",
                "operator": "Powiat Skar\u017cyski",
                "operator:type": "government",
                "amenity": "college",
                "note": "Parent RSPO: 5901"
            }
        },
        {
            "id": 113459,
            "type": "Feature",
            "geometry": {
                "type": "Point",
                "coordinates": [
                    20.86797,
                    51.11438
                ]
            },
            "properties": {
                "isced:level": "3",
                "ref:rspo": 113459,
                "official_name": "I Liceum Og\u00f3lnokszta\u0142c\u0105ce dla Doros\u0142ych w Zespole Szk\u00f3\u0142 Technicznych im. Armii Krajowej w Skar\u017cysku-Kamiennej",
                "name": "I Liceum Og\u00f3lnokszta\u0142c\u0105ce dla Doros\u0142ych w Zespole Szk\u00f3\u0142 Technicznych",
                "addr:postcode": "26-110",
                "addr:city": "Skar\u017cysko-Kamienna",
                "addr:street": "Aleja Tysi\u0105clecia",
                "addr:housenumber": "22",
                "addr:city:simc": 947716,
                "addr:street:sym_ul": 23266,
                "phone": "+48 412512161",
                "email": "zst.skarzysko@gmail.com",
                "website": "http:\/\/www.zst-skarzysko.pl\/",
                "ref:regon": "260685290",
                "operator": "Powiat Skar\u017cyski",
                "operator:type": "government",
                "amenity": "school",
                "note": "Parent RSPO: 5901"
            }
        },
        {
            "id": 275902,
            "type": "Feature",
            "geometry": {
                "type": "Point",
                "coordinates": [
                    20.86797,
                    51.11435
                ]
            },
            "properties": {
                "isced:level": "3",
                "ref:rspo": 275902,
                "official_name": "Bran\u017cowa Szko\u0142a II Stopnia Nr 1 w Skar\u017cysku-Kamiennej Zespo\u0142u Szk\u00f3\u0142 Technicznych im. Armii Krajowej",
                "name": "Bran\u017cowa Szko\u0142a II Stopnia Nr 1 w Skar\u017cysku-Kamiennej Zespo\u0142u Szk\u00f3\u0142 Technicznych",
                "addr:postcode": "26-110",
                "addr:city": "Skar\u017cysko-Kamienna",
                "addr:street": "Aleja Tysi\u0105clecia",
                "addr:housenumber": "22",
                "addr:city:simc": 947716,
                "addr:street:sym_ul": 23266,
                "phone": "+48 412512161",
                "email": "zst.skarzysko@gmail.com",
                "website": "http:\/\/www.zst-skarzysko.pl",
                "ref:regon": "386955932",
                "operator": "Powiat Skar\u017cyski",
                "operator:type": "government",
                "amenity": "school",
                "note": "Parent RSPO: 5901"
            }
        },
        {
            "id": 29808,
            "type": "Feature",
            "geometry": {
                "type": "Point",
                "coordinates": [
                    20.8583,
                    51.1148
                ]
            },
            "properties": {
                "ref:rspo": 29808,
                "official_name": "Centrum Edukacji \u201eAtut\u201d Po\u0142udnie w Skar\u017cysku-Kamiennej",
                "name": "Centrum Edukacji \u201eAtut\u201d Po\u0142udnie w Skar\u017cysku-Kamiennej",
                "addr:postcode": "26-110",
                "addr:city": "Skar\u017cysko-Kamienna",
                "addr:street": "Sikorskiego",
                "addr:housenumber": "17",
                "addr:city:simc": 947716,
                "addr:street:sym_ul": 19900,
                "phone": "+48 343683710",
                "email": "krzysztof.kala@ceatut.pl",
                "website": "http:\/\/www.ceatut.pl\/",
                "ref:regon": "260641418",
                "operator": "Cl Sp\u00f3\u0142ka Z Ograniczon\u0105 Odpowiedzialno\u015bci\u0105",
                "operator:type": "private",
                "fixme": "w zale\u017cno\u015bci od przedmiotu dzia\u0142alno\u015bci (np. amenity=training + training=*, amenity=dancing_school, amenity=language_school, amenity=music_school)"
            }
        },
        {
            "id": 3723,
            "type": "Feature",
            "geometry": {
                "type": "Point",
                "coordinates": [
                    20.8583,
                    51.11477
                ]
            },
            "properties": {
                "ref:rspo": 3723,
                "official_name": "Przedszkole Publiczne Nr 4 im. Jana Brzechwy w Skar\u017cysku-Kamiennej",
                "name": "Przedszkole Publiczne Nr 4",
                "addr:postcode": "26-110",
                "addr:city": "Skar\u017cysko-Kamienna",
                "addr:street": "Sikorskiego",
                "addr:housenumber": "17",
                "addr:city:simc": 947716,
                "addr:street:sym_ul": 19900,
                "phone": "+48 413900780",
                "email": "sp_nr5@wp.pl",
                "ref:regon": "260434889",
                "operator": "Gmina Skar\u017cysko-Kamienna",
                "operator:type": "government",
                "amenity": "kindergarten",
                "note": "Parent RSPO: 3413"
            }
        },
        {
            "id": 5288,
            "type": "Feature",
            "geometry": {
                "type": "Point",
                "coordinates": [
                    20.89978,
                    51.11501
                ]
            },
            "properties": {
                "ref:rspo": 5288,
                "official_name": "Specjalny O\u015brodek Szkolno-Wychowawczy Nr 2 w Skar\u017cysku-Kamiennej",
                "name": "Specjalny O\u015brodek Szkolno-Wychowawczy Nr 2 w Skar\u017cysku-Kamiennej",
                "addr:postcode": "26-110",
                "addr:city": "Skar\u017cysko-Kamienna",
                "addr:street": "Spacerowa",
                "addr:housenumber": "31",
                "addr:door": "-",
                "addr:city:simc": 947716,
                "addr:street:sym_ul": 20641,
                "phone": "+48 412511041",
                "email": "sosw_nr2@poczta.onet.pl",
                "website": "http:\/\/sosw2.edupage.org",
                "ref:regon": "291121608",
                "ref:vatin": "PL6631053960",
                "operator": "Powiat Skar\u017cyski",
                "operator:type": "government",
                "amenity": "school",
                "note": "Children RSPO: 16375;16377;28548"
            }
        },
        {
            "id": 16375,
            "type": "Feature",
            "geometry": {
                "type": "Point",
                "coordinates": [
                    20.89978,
                    51.114979999999996
                ]
            },
            "properties": {
                "ref:rspo": 16375,
                "official_name": "Szko\u0142a Specjalna Przysposabiaj\u0105ca Do Pracy Nr 2 w Specjalnym O\u015brodku Szkolno-Wychowawczym Nr 2 w Skar\u017cysku-Kamiennej",
                "name": "Szko\u0142a Specjalna Przysposabiaj\u0105ca Do Pracy Nr 2 w Specjalnym O\u015brodku Szkolno-Wychowawczym Nr 2 w Skar\u017cysku-Kamiennej",
                "addr:postcode": "26-110",
                "addr:city": "Skar\u017cysko-Kamienna",
                "addr:street": "Spacerowa",
                "addr:housenumber": "31",
                "addr:city:simc": 947716,
                "addr:street:sym_ul": 20641,
                "phone": "+48 412511041",
                "email": "sosw_nr2@poczta.onet.pl",
                "website": "http:\/\/www.sosw2.vot.pl\/",
                "ref:regon": "292894028",
                "operator": "Powiat Skar\u017cyski",
                "operator:type": "government",
                "amenity": "school",
                "note": "Parent RSPO: 5288"
            }
        },
        {
            "id": 16377,
            "type": "Feature",
            "geometry": {
                "type": "Point",
                "coordinates": [
                    20.89978,
                    51.11495
                ]
            },
            "properties": {
                "isced:level": "1;2",
                "ref:rspo": 16377,
                "official_name": "Szko\u0142a Podstawowa Specjalna Nr 2 w Specjalnym O\u015brodku Szkolno-Wychowawczym Nr 2 w Skar\u017cysku-Kamiennej",
                "name": "Szko\u0142a Podstawowa Specjalna Nr 2 w Specjalnym O\u015brodku Szkolno-Wychowawczym Nr 2 w Skar\u017cysku-Kamiennej",
                "addr:postcode": "26-110",
                "addr:city": "Skar\u017cysko-Kamienna",
                "addr:street": "Spacerowa",
                "addr:housenumber": "31",
                "addr:city:simc": 947716,
                "addr:street:sym_ul": 20641,
                "phone": "+48 412511041",
                "email": "sosw_nr2@poczta.onet.pl",
                "website": "http:\/\/www.sosw2.edupage.org",
                "ref:regon": "291218740",
                "operator": "Powiat Skar\u017cyski",
                "operator:type": "government",
                "amenity": "school",
                "note": "Parent RSPO: 5288"
            }
        },
        {
            "id": 28548,
            "type": "Feature",
            "geometry": {
                "type": "Point",
                "coordinates": [
                    20.89978,
                    51.11492
                ]
            },
            "properties": {
                "ref:rspo": 28548,
                "official_name": "Przedszkole Specjalne Nr 2 Specjalnego O\u015brodka Szkolno-Wychowawczego Nr 2 w Skar\u017cysku-Kamiennej",
                "name": "Przedszkole Specjalne Nr 2 Specjalnego O\u015brodka Szkolno-Wychowawczego Nr 2 w Skar\u017cysku-Kamiennej",
                "addr:postcode": "26-110",
                "addr:city": "Skar\u017cysko-Kamienna",
                "addr:street": "Spacerowa",
                "addr:housenumber": "31",
                "addr:city:simc": 947716,
                "addr:street:sym_ul": 20641,
                "phone": "+48 412511041",
                "email": "sosw_nr2@poczta.onet.pl",
                "website": "http:\/\/www.sosw2.vot.pl",
                "ref:regon": "260617756",
                "operator": "Powiat Skar\u017cyski",
                "operator:type": "government",
                "amenity": "kindergarten",
                "note": "Parent RSPO: 5288"
            }
        },
        {
            "id": 3626,
            "type": "Feature",
            "geometry": {
                "type": "Point",
                "coordinates": [
                    20.89726,
                    51.11652
                ]
            },
            "properties": {
                "ref:rspo": 3626,
                "official_name": "Przedszkole Publiczne Nr 1 im. Wandy Chotomskiej w Skar\u017cysku-Kamiennej",
                "name": "Przedszkole Publiczne Nr 1",
                "addr:postcode": "26-110",
                "addr:city": "Skar\u017cysko-Kamienna",
                "addr:street": "Rynek",
                "addr:housenumber": "63",
                "addr:city:simc": 947716,
                "addr:street:sym_ul": 19253,
                "phone": "+48 412512711",
                "email": "jedyneczka63@gmail.com",
                "ref:regon": "260434790",
                "ref:vatin": "PL6631859203",
                "operator": "Gmina Skar\u017cysko-Kamienna",
                "operator:type": "government",
                "amenity": "kindergarten"
            }
        },
        {
            "id": 6586,
            "type": "Feature",
            "geometry": {
                "type": "Point",
                "coordinates": [
                    20.89173,
                    51.11654
                ]
            },
            "properties": {
                "isced:level": "3",
                "ref:rspo": 6586,
                "official_name": "I Liceum Og\u00f3lnokszta\u0142c\u0105ce im. Juliusza S\u0142owackiego w Skar\u017cysku-Kamiennej",
                "name": "I Liceum Og\u00f3lnokszta\u0142c\u0105ce",
                "addr:postcode": "26-110",
                "addr:city": "Skar\u017cysko-Kamienna",
                "addr:street": "1 Maja",
                "addr:housenumber": "82",
                "addr:city:simc": 947716,
                "addr:street:sym_ul": 11926,
                "phone": "+48 412513928",
                "email": "poczta@slowacki.info.pl",
                "website": "http:\/\/www.slowacki.info.pl",
                "ref:regon": "000695261",
                "ref:vatin": "PL6631394477",
                "operator": "Powiat Skar\u017cyski",
                "operator:type": "government",
                "amenity": "school"
            }
        },
        {
            "id": 3401,
            "type": "Feature",
            "geometry": {
                "type": "Point",
                "coordinates": [
                    20.8637,
                    51.11722
                ]
            },
            "properties": {
                "ref:rspo": 3401,
                "official_name": "Zesp\u00f3\u0142 Plac\u00f3wek O\u015bwiatowych Nr 2 w Skar\u017cysku-Kamiennej",
                "name": "Zesp\u00f3\u0142 Plac\u00f3wek O\u015bwiatowych Nr 2 w Skar\u017cysku-Kamiennej",
                "addr:postcode": "26-110",
                "addr:city": "Skar\u017cysko-Kamienna",
                "addr:street": "Konarskiego",
                "addr:housenumber": "17",
                "addr:city:simc": 947716,
                "addr:street:sym_ul": 9106,
                "phone": "+48 413900720",
                "email": "sp1sko@o2.pl",
                "ref:regon": "260624070",
                "operator": "Gmina Skar\u017cysko-Kamienna",
                "operator:type": "government",
                "landuse": "education",
                "fixme": "amenity=school, amenity=college albo landuse=education w zale\u017cno\u015bci od tego, jakie plac\u00f3wki wchodz\u0105 w sk\u0142ad zespo\u0142u. Sprawd\u017a, kiedy stosowa\u0107 amenity=* a kiedy landuse=education.",
                "note": "Children RSPO: 3179;3717"
            }
        },
        {
            "id": 3179,
            "type": "Feature",
            "geometry": {
                "type": "Point",
                "coordinates": [
                    20.8637,
                    51.11719
                ]
            },
            "properties": {
                "isced:level": "1;2",
                "ref:rspo": 3179,
                "official_name": "Szko\u0142a Podstawowa Nr 1 im. Tadeusza Ko\u015bciuszki w Skar\u017cysku-Kamiennej",
                "name": "Szko\u0142a Podstawowa Nr 1",
                "addr:postcode": "26-110",
                "addr:city": "Skar\u017cysko-Kamienna",
                "addr:street": "Konarskiego",
                "addr:housenumber": "17",
                "addr:city:simc": 947716,
                "addr:street:sym_ul": 9106,
                "phone": "+48 413900720",
                "email": "sp1sko@o2.pl",
                "ref:regon": "290618956",
                "ref:vatin": "PL6631041394",
                "operator": "Gmina Skar\u017cysko-Kamienna",
                "operator:type": "government",
                "amenity": "school",
                "note": "Parent RSPO: 3401"
            }
        },
        {
            "id": 13064,
            "type": "Feature",
            "geometry": {
                "type": "Point",
                "coordinates": [
                    20.85701,
                    51.11752
                ]
            },
            "properties": {
                "isced:level": "3",
                "ref:rspo": 13064,
                "official_name": "Liceum Og\u00f3lnokszta\u0142c\u0105ce dla Doros\u0142ych \u201e\u017bak\u201d w Skar\u017cysku-Kamiennej",
                "name": "Liceum Og\u00f3lnokszta\u0142c\u0105ce dla Doros\u0142ych \u201e\u017bak\u201d w Skar\u017cysku-Kamiennej",
                "addr:postcode": "26-110",
                "addr:city": "Skar\u017cysko-Kamienna",
                "addr:street": "Aleja Marsza\u0142ka J\u00f3zefa Pi\u0142sudskiego",
                "addr:housenumber": "23",
                "addr:city:simc": 947716,
                "addr:street:sym_ul": 40017,
                "phone": "+48 412539417",
                "email": "skarzyskokamienna@zak.edu.pl",
                "website": "http:\/\/www.zak.edu.pl",
                "ref:regon": "260633732",
                "operator": "Centrum Nauki I Biznesu \"\u017bak\" Sp\u00f3\u0142ka Z Ograniczon\u0105 Odpowiedzialno\u015bci\u0105",
                "operator:type": "private",
                "amenity": "school"
            }
        },
        {
            "id": 19072,
            "type": "Feature",
            "geometry": {
                "type": "Point",
                "coordinates": [
                    20.85701,
                    51.11749
                ]
            },
            "properties": {
                "isced:level": "4",
                "ref:rspo": 19072,
                "official_name": "Szko\u0142a Policealna Centrum Nauki I Biznesu \"\u017bak\" w Skar\u017cysku-Kamiennej",
                "name": "Szko\u0142a Policealna Centrum Nauki I Biznesu \"\u017bak\" w Skar\u017cysku-Kamiennej",
                "addr:postcode": "26-110",
                "addr:city": "Skar\u017cysko-Kamienna",
                "addr:street": "Aleja Marsza\u0142ka J\u00f3zefa Pi\u0142sudskiego",
                "addr:housenumber": "23",
                "addr:city:simc": 947716,
                "addr:street:sym_ul": 40017,
                "phone": "+48 412539417",
                "email": "skarzyskokamienna@zak.edu.pl",
                "website": "http:\/\/skarzysko-kamienna.zak.edu.pl",
                "ref:regon": "260635872",
                "operator": "Centrum Nauki I Biznesu \"\u017bak\" Sp\u00f3\u0142ka Z Ograniczon\u0105 Odpowiedzialno\u015bci\u0105",
                "operator:type": "private",
                "amenity": "college"
            }
        },
        {
            "id": 263539,
            "type": "Feature",
            "geometry": {
                "type": "Point",
                "coordinates": [
                    20.85701,
                    51.11746
                ]
            },
            "properties": {
                "isced:level": "4",
                "ref:rspo": 263539,
                "official_name": "Szko\u0142a Policealna Opieki Medycznej \u201e\u017bak\u201d w Skar\u017cysku-Kamiennej",
                "name": "Szko\u0142a Policealna Opieki Medycznej \u201e\u017bak\u201d w Skar\u017cysku-Kamiennej",
                "addr:postcode": "26-110",
                "addr:city": "Skar\u017cysko-Kamienna",
                "addr:street": "Aleja Marsza\u0142ka J\u00f3zefa Pi\u0142sudskiego",
                "addr:housenumber": "23",
                "addr:city:simc": 947716,
                "addr:street:sym_ul": 40017,
                "phone": "+48 412539417",
                "email": "skarzyskokamienna@zak.edu.pl",
                "ref:regon": "368198600",
                "operator": "Centrum Nauki I Biznesu \"\u017bak\" Sp\u00f3\u0142ka Z Ograniczon\u0105 Odpowiedzialno\u015bci\u0105",
                "operator:type": "private",
                "amenity": "college"
            }
        },
        {
            "id": 121213,
            "type": "Feature",
            "geometry": {
                "type": "Point",
                "coordinates": [
                    20.86582,
                    51.11786
                ]
            },
            "properties": {
                "ref:rspo": 121213,
                "official_name": "Powiatowe Centrum Rozwoju Edukacji w Skar\u017cysku-Kamiennej",
                "name": "Powiatowe Centrum Rozwoju Edukacji w Skar\u017cysku-Kamiennej",
                "addr:postcode": "26-110",
                "addr:city": "Skar\u017cysko-Kamienna",
                "addr:street": "Plac Floria\u0144ski",
                "addr:housenumber": "1",
                "addr:city:simc": 947716,
                "addr:street:sym_ul": 5086,
                "phone": "+48 412530686",
                "email": "ppp@pcreskarzysko.pl",
                "website": "http:\/\/pcreskarzysko.pl",
                "ref:regon": "260736113",
                "operator": "Powiat Skar\u017cyski",
                "operator:type": "government",
                "landuse": "education",
                "fixme": "amenity=school, amenity=college albo landuse=education w zale\u017cno\u015bci od tego, jakie plac\u00f3wki wchodz\u0105 w sk\u0142ad zespo\u0142u. Sprawd\u017a, kiedy stosowa\u0107 amenity=* a kiedy landuse=education.",
                "note": "Children RSPO: 5783;121246"
            }
        },
        {
            "id": 126711,
            "type": "Feature",
            "geometry": {
                "type": "Point",
                "coordinates": [
                    20.86582,
                    51.11783
                ]
            },
            "properties": {
                "ref:rspo": 126711,
                "official_name": "Niepubliczna Placowka Kszta\u0142cenia Ustawicznego Spectra Katarzyna St\u0119pie\u0144",
                "name": "Niepubliczna Placowka Kszta\u0142cenia Ustawicznego Spectra Katarzyna St\u0119pie\u0144",
                "addr:postcode": "26-110",
                "addr:city": "Skar\u017cysko-Kamienna",
                "addr:street": "Plac Floria\u0144ski",
                "addr:housenumber": "1",
                "addr:door": "309",
                "addr:city:simc": 947716,
                "addr:street:sym_ul": 5086,
                "phone": "+48 412546510",
                "email": "spectra.szkolenia@gmail.com",
                "website": "http:\/\/esc.edu.pl",
                "ref:regon": "360638650",
                "operator": "Katarzyna St\u0119pie\u0144",
                "operator:type": "private",
                "fixme": "w zale\u017cno\u015bci od przedmiotu dzia\u0142alno\u015bci (np. amenity=training + training=*, amenity=dancing_school, amenity=language_school, amenity=music_school) albo amenity=school, amenity=college, albo landuse=education w zale\u017cno\u015bci od tego, jakie plac\u00f3wki wchodz\u0105 w sk\u0142ad zespo\u0142u. Sprawd\u017a, kiedy stosowa\u0107 amenity=* a kiedy landuse=education."
            }
        },
        {
            "id": 5783,
            "type": "Feature",
            "geometry": {
                "type": "Point",
                "coordinates": [
                    20.86582,
                    51.1178
                ]
            },
            "properties": {
                "ref:rspo": 5783,
                "official_name": "Poradnia Psychologiczno-Pedagogiczna w Skar\u017cysku-Kamiennej",
                "name": "Poradnia Psychologiczno-Pedagogiczna w Skar\u017cysku-Kamiennej",
                "addr:postcode": "26-110",
                "addr:city": "Skar\u017cysko-Kamienna",
                "addr:street": "Plac Floria\u0144ski",
                "addr:housenumber": "1",
                "addr:city:simc": 947716,
                "addr:street:sym_ul": 5086,
                "phone": "+48 412530686",
                "email": "ppp@pcreskarzysko.pl",
                "website": "http:\/\/www.pcreskarzysko.pl",
                "ref:regon": "001014582",
                "ref:vatin": "PL6631869130",
                "operator": "Powiat Skar\u017cyski",
                "operator:type": "government",
                "healthcare": "counselling",
                "counselling_type": "education",
                "fixme": "w zale\u017cno\u015bci od przedmiotu dzia\u0142alno\u015bci (np. healthcare=counselling + counselling_type=education albo healthcare=psychotherapist)",
                "note": "Parent RSPO: 121213"
            }
        },
        {
            "id": 121246,
            "type": "Feature",
            "geometry": {
                "type": "Point",
                "coordinates": [
                    20.86582,
                    51.11777
                ]
            },
            "properties": {
                "ref:rspo": 121246,
                "official_name": "Powiatowa Biblioteka Pedagogiczna w Skar\u017cysku-Kamiennej",
                "name": "Powiatowa Biblioteka Pedagogiczna w Skar\u017cysku-Kamiennej",
                "addr:postcode": "26-110",
                "addr:city": "Skar\u017cysko-Kamienna",
                "addr:street": "Plac Floria\u0144ski",
                "addr:housenumber": "1",
                "addr:city:simc": 947716,
                "addr:street:sym_ul": 5086,
                "phone": "+48 412531463",
                "email": "biblioteka@pcreskarzysko.pl",
                "website": "http:\/\/www.pcreskarzysko.pl",
                "ref:regon": "260737130",
                "operator": "Powiat Skar\u017cyski",
                "operator:type": "government",
                "amenity": "library",
                "note": "Parent RSPO: 121213"
            }
        },
        {
            "id": 78195,
            "type": "Feature",
            "geometry": {
                "type": "Point",
                "coordinates": [
                    20.86754,
                    51.11828
                ]
            },
            "properties": {
                "ref:rspo": 78195,
                "official_name": "Pa\u0144stwowa Szko\u0142a Muzyczna I St. im. Zygmunta Noskowskiego w Skar\u017cysku-Kamiennej",
                "name": "Pa\u0144stwowa Szko\u0142a Muzyczna I St.",
                "addr:postcode": "26-110",
                "addr:city": "Skar\u017cysko-Kamienna",
                "addr:street": "Plac Floria\u0144ski",
                "addr:housenumber": "14",
                "addr:city:simc": 947716,
                "addr:street:sym_ul": 5086,
                "phone": "+48 575877957",
                "email": "sekretariat@psmskarzysko.pl",
                "website": "http:\/\/psmskarzysko.pl",
                "ref:regon": "000286321",
                "operator": "Ministerstwo Kultury I Dziedzictwa Narodowego",
                "operator:type": "public",
                "amenity": "music_school"
            }
        },
        {
            "id": 7987,
            "type": "Feature",
            "geometry": {
                "type": "Point",
                "coordinates": [
                    20.86664,
                    51.11951
                ]
            },
            "properties": {
                "ref:rspo": 7987,
                "official_name": "Zesp\u00f3\u0142 Szk\u00f3\u0142 Ekonomicznych im. Miko\u0142aja Kopernika w Skar\u017cysku-Kamiennej",
                "name": "Zesp\u00f3\u0142 Szk\u00f3\u0142 Ekonomicznych",
                "addr:postcode": "26-110",
                "addr:city": "Skar\u017cysko-Kamienna",
                "addr:street": "Powsta\u0144c\u00f3w Warszawy",
                "addr:housenumber": "11",
                "addr:city:simc": 947716,
                "addr:street:sym_ul": 17372,
                "phone": "+48 412538672",
                "email": "skarzyskozse@poczta.fm",
                "website": "http:\/\/www.zseskarzysko.pl\/",
                "ref:regon": "000188802",
                "ref:vatin": "PL6631338579",
                "operator": "Powiat Skar\u017cyski",
                "operator:type": "government",
                "landuse": "education",
                "fixme": "amenity=school, amenity=college albo landuse=education w zale\u017cno\u015bci od tego, jakie plac\u00f3wki wchodz\u0105 w sk\u0142ad zespo\u0142u. Sprawd\u017a, kiedy stosowa\u0107 amenity=* a kiedy landuse=education.",
                "note": "Children RSPO: 19424;26908;26935;124136"
            }
        },
        {
            "id": 19424,
            "type": "Feature",
            "geometry": {
                "type": "Point",
                "coordinates": [
                    20.86664,
                    51.119479999999996
                ]
            },
            "properties": {
                "isced:level": "3",
                "ref:rspo": 19424,
                "official_name": "Bran\u017cowa Szko\u0142a I Stopnia Nr 2 Zespo\u0142u Szk\u00f3\u0142 Ekonomicznych im. Miko\u0142aja Kopernika w Skar\u017cysku-Kamiennej",
                "name": "Bran\u017cowa Szko\u0142a I Stopnia Nr 2 Zespo\u0142u Szk\u00f3\u0142 Ekonomicznych",
                "addr:postcode": "26-110",
                "addr:city": "Skar\u017cysko-Kamienna",
                "addr:street": "Powsta\u0144c\u00f3w Warszawy",
                "addr:housenumber": "11",
                "addr:city:simc": 947716,
                "addr:street:sym_ul": 17372,
                "phone": "+48 412538672",
                "email": "skarzyskozse@poczta.fm",
                "website": "http:\/\/zseskarzysko.pl",
                "ref:regon": "292443923",
                "operator": "Powiat Skar\u017cyski",
                "operator:type": "government",
                "amenity": "school",
                "note": "Parent RSPO: 7987"
            }
        },
        {
            "id": 26908,
            "type": "Feature",
            "geometry": {
                "type": "Point",
                "coordinates": [
                    20.86664,
                    51.11945
                ]
            },
            "properties": {
                "isced:level": "3",
                "ref:rspo": 26908,
                "official_name": "Technikum Nr 2 Zespo\u0142u Szk\u00f3\u0142 Ekonomicznych w Skar\u017cysku-Kamiennej",
                "name": "Technikum Nr 2 Zespo\u0142u Szk\u00f3\u0142 Ekonomicznych w Skar\u017cysku-Kamiennej",
                "addr:postcode": "26-110",
                "addr:city": "Skar\u017cysko-Kamienna",
                "addr:street": "Powsta\u0144c\u00f3w Warszawy",
                "addr:housenumber": "11",
                "addr:city:simc": 947716,
                "addr:street:sym_ul": 17372,
                "phone": "+48 412538672",
                "email": "skarzyskozse@poczta.fm",
                "website": "http:\/\/www.zseskarzysko.ehost.pl\/",
                "ref:regon": "292443952",
                "operator": "Powiat Skar\u017cyski",
                "operator:type": "government",
                "amenity": "school",
                "note": "Parent RSPO: 7987"
            }
        },
        {
            "id": 26935,
            "type": "Feature",
            "geometry": {
                "type": "Point",
                "coordinates": [
                    20.86664,
                    51.11942
                ]
            },
            "properties": {
                "isced:level": "4",
                "ref:rspo": 26935,
                "official_name": "Szko\u0142a Policealna Nr 2 w Zespole Szk\u00f3\u0142 Ekonomicznych im. Miko\u0142aja Kopernika w Skar\u017cysku-Kamiennej",
                "name": "Szko\u0142a Policealna Nr 2 w Zespole Szk\u00f3\u0142 Ekonomicznych",
                "addr:postcode": "26-110",
                "addr:city": "Skar\u017cysko-Kamienna",
                "addr:street": "Powsta\u0144c\u00f3w Warszawy",
                "addr:housenumber": "11",
                "addr:city:simc": 947716,
                "addr:street:sym_ul": 17372,
                "phone": "+48 412538672",
                "email": "skarzyskozse@poczta.fm",
                "website": "http:\/\/www.zseskarzysko.pl\/",
                "ref:regon": "260033452",
                "operator": "Powiat Skar\u017cyski",
                "operator:type": "government",
                "amenity": "college",
                "note": "Parent RSPO: 7987"
            }
        },
        {
            "id": 124136,
            "type": "Feature",
            "geometry": {
                "type": "Point",
                "coordinates": [
                    20.86664,
                    51.119389999999996
                ]
            },
            "properties": {
                "isced:level": "3",
                "ref:rspo": 124136,
                "official_name": "Iii Liceum Og\u00f3lnokszta\u0142c\u0105ce dla Doros\u0142ych w Skar\u017cysku-Kamiennej",
                "name": "Iii Liceum Og\u00f3lnokszta\u0142c\u0105ce dla Doros\u0142ych w Skar\u017cysku-Kamiennej",
                "addr:postcode": "26-110",
                "addr:city": "Skar\u017cysko-Kamienna",
                "addr:street": "Powsta\u0144c\u00f3w Warszawy",
                "addr:housenumber": "11",
                "addr:city:simc": 947716,
                "addr:street:sym_ul": 17372,
                "phone": "+48 412538672",
                "email": "skarzyskozse@poczta.fm",
                "website": "http:\/\/www.zseskarzysko.pl\/",
                "ref:regon": "260788541",
                "operator": "Powiat Skar\u017cyski",
                "operator:type": "government",
                "amenity": "school",
                "note": "Parent RSPO: 7987"
            }
        },
        {
            "id": 3636,
            "type": "Feature",
            "geometry": {
                "type": "Point",
                "coordinates": [
                    20.88366,
                    51.12107
                ]
            },
            "properties": {
                "ref:rspo": 3636,
                "official_name": "Przedszkole Publiczne Nr 6 w Skar\u017cysku-Kamiennej",
                "name": "Przedszkole Publiczne Nr 6 w Skar\u017cysku-Kamiennej",
                "addr:postcode": "26-110",
                "addr:city": "Skar\u017cysko-Kamienna",
                "addr:street": "Kossaka",
                "addr:housenumber": "5",
                "addr:city:simc": 947716,
                "addr:street:sym_ul": 9459,
                "phone": "+48 412512655",
                "email": "halinakra@op.pl",
                "ref:regon": "260434895",
                "ref:vatin": "PL6631859410",
                "operator": "Gmina Skar\u017cysko-Kamienna",
                "operator:type": "government",
                "amenity": "kindergarten"
            }
        },
        {
            "id": 3716,
            "type": "Feature",
            "geometry": {
                "type": "Point",
                "coordinates": [
                    20.88032,
                    51.12117
                ]
            },
            "properties": {
                "ref:rspo": 3716,
                "official_name": "Przedszkole Publiczne Nr 7 im. Janusza Korczaka w Skar\u017cysku-Kamiennej",
                "name": "Przedszkole Publiczne Nr 7",
                "addr:postcode": "26-110",
                "addr:city": "Skar\u017cysko-Kamienna",
                "addr:street": "Zielna",
                "addr:housenumber": "27",
                "addr:city:simc": 947716,
                "addr:street:sym_ul": 26077,
                "phone": "+48 413900710",
                "email": "bajkowyraj@op.pl",
                "website": "http:\/\/www.pp7skarzysko.przedszkolna.net",
                "ref:regon": "260435038",
                "operator": "Gmina Skar\u017cysko-Kamienna",
                "operator:type": "government",
                "amenity": "kindergarten",
                "note": "Parent RSPO: 3415"
            }
        },
        {
            "id": 3415,
            "type": "Feature",
            "geometry": {
                "type": "Point",
                "coordinates": [
                    20.8808,
                    51.12176
                ]
            },
            "properties": {
                "ref:rspo": 3415,
                "official_name": "Zesp\u00f3\u0142 Plac\u00f3wek O\u015bwiatowych Nr 5 w Skar\u017cysku-Kamiennej",
                "name": "Zesp\u00f3\u0142 Plac\u00f3wek O\u015bwiatowych Nr 5 w Skar\u017cysku-Kamiennej",
                "addr:postcode": "26-110",
                "addr:city": "Skar\u017cysko-Kamienna",
                "addr:street": "Zielna",
                "addr:housenumber": "29",
                "addr:city:simc": 947716,
                "addr:street:sym_ul": 26077,
                "phone": "+48 413900700",
                "email": "sp7.skarzysko@op.pl",
                "website": "http:\/\/www.sp7skarzysko.szkolna.net",
                "ref:regon": "260624302",
                "operator": "Gmina Skar\u017cysko-Kamienna",
                "operator:type": "government",
                "landuse": "education",
                "fixme": "amenity=school, amenity=college albo landuse=education w zale\u017cno\u015bci od tego, jakie plac\u00f3wki wchodz\u0105 w sk\u0142ad zespo\u0142u. Sprawd\u017a, kiedy stosowa\u0107 amenity=* a kiedy landuse=education.",
                "note": "Children RSPO: 3601;3716"
            }
        },
        {
            "id": 3601,
            "type": "Feature",
            "geometry": {
                "type": "Point",
                "coordinates": [
                    20.8808,
                    51.12173
                ]
            },
            "properties": {
                "isced:level": "1;2",
                "ref:rspo": 3601,
                "official_name": "Szko\u0142a Podstawowa Nr 7 im. Obro\u0144c\u00f3w Westerplatte w Skar\u017cysku-Kamiennej",
                "name": "Szko\u0142a Podstawowa Nr 7",
                "addr:postcode": "26-110",
                "addr:city": "Skar\u017cysko-Kamienna",
                "addr:street": "Zielna",
                "addr:housenumber": "29",
                "addr:city:simc": 947716,
                "addr:street:sym_ul": 26077,
                "phone": "+48 413900700",
                "email": "sp7.skarzysko@op.pl",
                "website": "http:\/\/www.sp7skarzysko.szkolna.net",
                "ref:regon": "290619080",
                "ref:vatin": "PL6631041460",
                "operator": "Gmina Skar\u017cysko-Kamienna",
                "operator:type": "government",
                "amenity": "school",
                "note": "Parent RSPO: 3415"
            }
        },
        {
            "id": 6851,
            "type": "Feature",
            "geometry": {
                "type": "Point",
                "coordinates": [
                    20.88244,
                    51.12192
                ]
            },
            "properties": {
                "ref:rspo": 6851,
                "official_name": "Zesp\u00f3\u0142 Szk\u00f3\u0142 Samochodowo-Us\u0142ugowych im. W\u0142adys\u0142awa \u201eOseta\u201d Wasilewskiego w Skar\u017cysku-Kamiennej",
                "name": "Zesp\u00f3\u0142 Szk\u00f3\u0142 Samochodowo-Us\u0142ugowych",
                "addr:postcode": "26-110",
                "addr:city": "Skar\u017cysko-Kamienna",
                "addr:street": "Oseta Wasilewskiego",
                "addr:housenumber": "5",
                "addr:city:simc": 947716,
                "addr:street:sym_ul": 23720,
                "phone": "+48 412511834",
                "email": "zssu.skarzysko@gmail.com",
                "website": "http:\/\/www.zss-u.pl\/",
                "ref:regon": "000200064",
                "ref:vatin": "PL6631065644",
                "operator": "Powiat Skar\u017cyski",
                "operator:type": "government",
                "landuse": "education",
                "fixme": "amenity=school, amenity=college albo landuse=education w zale\u017cno\u015bci od tego, jakie plac\u00f3wki wchodz\u0105 w sk\u0142ad zespo\u0142u. Sprawd\u017a, kiedy stosowa\u0107 amenity=* a kiedy landuse=education.",
                "note": "Children RSPO: 15269;15287;15364;119277;275899"
            }
        },
        {
            "id": 15269,
            "type": "Feature",
            "geometry": {
                "type": "Point",
                "coordinates": [
                    20.88244,
                    51.12189
                ]
            },
            "properties": {
                "isced:level": "3",
                "ref:rspo": 15269,
                "official_name": "Bran\u017cowa Szko\u0142a I Stopnia Nr 3 Zespo\u0142u Szk\u00f3\u0142 Samochodowo-Us\u0142ugowych im. W\u0142adys\u0142awa Oseta Wasilewskiego w Skar\u017cysku-Kamiennej",
                "name": "Bran\u017cowa Szko\u0142a I Stopnia Nr 3 Zespo\u0142u Szk\u00f3\u0142 Samochodowo-Us\u0142ugowych",
                "addr:postcode": "26-110",
                "addr:city": "Skar\u017cysko-Kamienna",
                "addr:street": "Oseta Wasilewskiego",
                "addr:housenumber": "5",
                "addr:city:simc": 947716,
                "addr:street:sym_ul": 23720,
                "phone": "+48 412511834",
                "email": "zssu.skarzysko@gmail.com",
                "website": "http:\/\/www.zss-u.pl",
                "ref:regon": "292440712",
                "operator": "Powiat Skar\u017cyski",
                "operator:type": "government",
                "amenity": "school",
                "note": "Parent RSPO: 6851"
            }
        },
        {
            "id": 15287,
            "type": "Feature",
            "geometry": {
                "type": "Point",
                "coordinates": [
                    20.88244,
                    51.121860000000005
                ]
            },
            "properties": {
                "isced:level": "3",
                "ref:rspo": 15287,
                "official_name": "Technikum Nr 3 w Skar\u017cysku-Kamiennej",
                "name": "Technikum Nr 3 w Skar\u017cysku-Kamiennej",
                "addr:postcode": "26-110",
                "addr:city": "Skar\u017cysko-Kamienna",
                "addr:street": "Oseta Wasilewskiego",
                "addr:housenumber": "5",
                "addr:city:simc": 947716,
                "addr:street:sym_ul": 23720,
                "phone": "+48 412511834",
                "email": "zssu.skarzysko@gmail.com",
                "website": "http:\/\/www.zss-u.pl",
                "ref:regon": "292440669",
                "operator": "Powiat Skar\u017cyski",
                "operator:type": "government",
                "amenity": "school",
                "note": "Parent RSPO: 6851"
            }
        },
        {
            "id": 15364,
            "type": "Feature",
            "geometry": {
                "type": "Point",
                "coordinates": [
                    20.88244,
                    51.12183
                ]
            },
            "properties": {
                "isced:level": "4",
                "ref:rspo": 15364,
                "official_name": "Szko\u0142a Policealna Nr 3 w Skar\u017cysku-Kamiennej",
                "name": "Szko\u0142a Policealna Nr 3 w Skar\u017cysku-Kamiennej",
                "addr:postcode": "26-110",
                "addr:city": "Skar\u017cysko-Kamienna",
                "addr:street": "Oseta Wasilewskiego",
                "addr:housenumber": "5",
                "addr:city:simc": 947716,
                "addr:street:sym_ul": 23720,
                "phone": "+48 412511834",
                "email": "zssu.skarzysko@gmail.com",
                "website": "http:\/\/www.zss-u.pl",
                "ref:regon": "260594848",
                "operator": "Powiat Skar\u017cyski",
                "operator:type": "government",
                "amenity": "college",
                "note": "Parent RSPO: 6851"
            }
        },
        {
            "id": 119277,
            "type": "Feature",
            "geometry": {
                "type": "Point",
                "coordinates": [
                    20.88244,
                    51.1218
                ]
            },
            "properties": {
                "isced:level": "3",
                "ref:rspo": 119277,
                "official_name": "Ii Liceum Og\u00f3lnokszta\u0142c\u0105ce dla Doros\u0142ych Zespo\u0142u Szk\u00f3\u0142 Samochodowo-Us\u0142ugowych w Skar\u017cysku-Kamiennej",
                "name": "Ii Liceum Og\u00f3lnokszta\u0142c\u0105ce dla Doros\u0142ych Zespo\u0142u Szk\u00f3\u0142 Samochodowo-Us\u0142ugowych w Skar\u017cysku-Kamiennej",
                "addr:postcode": "26-110",
                "addr:city": "Skar\u017cysko-Kamienna",
                "addr:street": "Oseta Wasilewskiego",
                "addr:housenumber": "5",
                "addr:city:simc": 947716,
                "addr:street:sym_ul": 23720,
                "phone": "+48 412511834",
                "email": "zssu.skarzysko@gmail.com",
                "website": "http:\/\/www.zss-u.pl",
                "ref:regon": "260717185",
                "operator": "Powiat Skar\u017cyski",
                "operator:type": "government",
                "amenity": "school",
                "note": "Parent RSPO: 6851"
            }
        },
        {
            "id": 275899,
            "type": "Feature",
            "geometry": {
                "type": "Point",
                "coordinates": [
                    20.88244,
                    51.121770000000005
                ]
            },
            "properties": {
                "isced:level": "3",
                "ref:rspo": 275899,
                "official_name": "Bran\u017cowa Szko\u0142a II Stopnia Nr 2 w Skar\u017cysku-Kamiennej w Zespole Szk\u00f3\u0142 Samochodowo-Us\u0142ugowych im. W\u0142adys\u0142awa \"Oseta\" Wasilewskiego",
                "name": "Bran\u017cowa Szko\u0142a II Stopnia Nr 2 w Skar\u017cysku-Kamiennej w Zespole Szk\u00f3\u0142 Samochodowo-Us\u0142ugowych",
                "addr:postcode": "26-110",
                "addr:city": "Skar\u017cysko-Kamienna",
                "addr:street": "Oseta Wasilewskiego",
                "addr:housenumber": "5",
                "addr:city:simc": 947716,
                "addr:street:sym_ul": 23720,
                "phone": "+48 412511834",
                "email": "zssu.skarzysko@gmail.com",
                "website": "http:\/\/www.zss-u.pl\/",
                "ref:regon": "386955895",
                "operator": "Powiat Skar\u017cyski",
                "operator:type": "government",
                "amenity": "school",
                "note": "Parent RSPO: 6851"
            }
        },
        {
            "id": 3768,
            "type": "Feature",
            "geometry": {
                "type": "Point",
                "coordinates": [
                    20.8716,
                    51.12203
                ]
            },
            "properties": {
                "ref:rspo": 3768,
                "official_name": "Zesp\u00f3\u0142 Szk\u00f3\u0142 Publicznych Nr 1 w Skar\u017cysku-Kamiennej",
                "name": "Zesp\u00f3\u0142 Szk\u00f3\u0142 Publicznych Nr 1 w Skar\u017cysku-Kamiennej",
                "addr:postcode": "26-110",
                "addr:city": "Skar\u017cysko-Kamienna",
                "addr:street": "Sezamkowa",
                "addr:housenumber": "23",
                "addr:city:simc": 947716,
                "addr:street:sym_ul": 19719,
                "phone": "+48 412520601",
                "email": "zspnr1skarzysko@o2.pl",
                "ref:regon": "292892130",
                "ref:vatin": "PL6631759766",
                "operator": "Gmina Skar\u017cysko-Kamienna",
                "operator:type": "government",
                "landuse": "education",
                "fixme": "amenity=school, amenity=college albo landuse=education w zale\u017cno\u015bci od tego, jakie plac\u00f3wki wchodz\u0105 w sk\u0142ad zespo\u0142u. Sprawd\u017a, kiedy stosowa\u0107 amenity=* a kiedy landuse=education.",
                "note": "Children RSPO: 3650;74527"
            }
        },
        {
            "id": 74527,
            "type": "Feature",
            "geometry": {
                "type": "Point",
                "coordinates": [
                    20.8716,
                    51.122
                ]
            },
            "properties": {
                "isced:level": "1;2",
                "ref:rspo": 74527,
                "official_name": "Szko\u0142a Podstawowa Nr 13 im. Mjr. Henryka Dobrza\u0144skiego \u201eHubala\u201d w Skar\u017cysku-Kamiennej",
                "name": "Szko\u0142a Podstawowa Nr 13",
                "addr:postcode": "26-110",
                "addr:city": "Skar\u017cysko-Kamienna",
                "addr:street": "Sezamkowa",
                "addr:housenumber": "23",
                "addr:city:simc": 947716,
                "addr:street:sym_ul": 19719,
                "phone": "+48 412520601",
                "email": "zspnr1skarzysko@o2.pl",
                "ref:regon": "290618979",
                "operator": "Gmina Skar\u017cysko-Kamienna",
                "operator:type": "government",
                "amenity": "school",
                "note": "Parent RSPO: 3768"
            }
        },
        {
            "id": 3650,
            "type": "Feature",
            "geometry": {
                "type": "Point",
                "coordinates": [
                    20.8773,
                    51.1231
                ]
            },
            "properties": {
                "ref:rspo": 3650,
                "official_name": "Przedszkole Publiczne Nr 16 w Skar\u017cysku-Kamiennej",
                "name": "Przedszkole Publiczne Nr 16 w Skar\u017cysku-Kamiennej",
                "addr:postcode": "26-110",
                "addr:city": "Skar\u017cysko-Kamienna",
                "addr:street": "Sp\u00f3\u0142dzielcza",
                "addr:housenumber": "18",
                "addr:city:simc": 947716,
                "addr:street:sym_ul": 20696,
                "phone": "+48 412520601",
                "email": "zspnr1skarzysko@o2.pl",
                "ref:regon": "260435104",
                "ref:vatin": "PL6631859083",
                "operator": "Gmina Skar\u017cysko-Kamienna",
                "operator:type": "government",
                "amenity": "kindergarten",
                "note": "Parent RSPO: 3768"
            }
        },
        {
            "id": 29412,
            "type": "Feature",
            "geometry": {
                "type": "Point",
                "coordinates": [
                    20.8742899,
                    51.12397
                ]
            },
            "properties": {
                "ref:rspo": 29412,
                "official_name": "O\u015brodek Kszta\u0142cenia Ustawicznego \u201eAwans\u201d w Skar\u017cysku-Kamiennej",
                "name": "O\u015brodek Kszta\u0142cenia Ustawicznego \u201eAwans\u201d w Skar\u017cysku-Kamiennej",
                "addr:postcode": "26-110",
                "addr:city": "Skar\u017cysko-Kamienna",
                "addr:street": "Sokola",
                "addr:housenumber": "38",
                "addr:city:simc": 947716,
                "addr:street:sym_ul": 20478,
                "phone": "+48 412525218",
                "email": "kursy@awans.pl",
                "website": "http:\/\/www.awans-szkoly.pl",
                "ref:regon": "260639692",
                "operator": "Andrzej Miszczyk",
                "operator:type": "private",
                "fixme": "w zale\u017cno\u015bci od przedmiotu dzia\u0142alno\u015bci (np. amenity=training + training=*, amenity=dancing_school, amenity=language_school, amenity=music_school)"
            }
        },
        {
            "id": 118701,
            "type": "Feature",
            "geometry": {
                "type": "Point",
                "coordinates": [
                    20.8742899,
                    51.12394
                ]
            },
            "properties": {
                "ref:rspo": 118701,
                "official_name": "Niepubliczne Przedszkole Z Oddzia\u0142ami Integracyjnymi w Skar\u017cysku-Kamiennej",
                "name": "Niepubliczne Przedszkole Z Oddzia\u0142ami Integracyjnymi w Skar\u017cysku-Kamiennej",
                "addr:postcode": "26-110",
                "addr:city": "Skar\u017cysko-Kamienna",
                "addr:street": "Sokola",
                "addr:housenumber": "38",
                "addr:city:simc": 947716,
                "addr:street:sym_ul": 20478,
                "phone": "+48 412525218",
                "email": "sekretariat@babyworld.info.pl",
                "ref:regon": "260713193",
                "operator": "Andrzej Miszczyk",
                "operator:type": "private",
                "amenity": "kindergarten"
            }
        },
        {
            "id": 3814,
            "type": "Feature",
            "geometry": {
                "type": "Point",
                "coordinates": [
                    20.8874299,
                    51.12454
                ]
            },
            "properties": {
                "ref:rspo": 3814,
                "official_name": "Niepubliczne Przedszkole \u201ePlaneta Dziecka\u201d w Skar\u017cysku-Kamiennej",
                "name": "Niepubliczne Przedszkole \u201ePlaneta Dziecka\u201d w Skar\u017cysku-Kamiennej",
                "addr:postcode": "26-110",
                "addr:city": "Skar\u017cysko-Kamienna",
                "addr:street": "Rejowska",
                "addr:housenumber": "99",
                "addr:city:simc": 947716,
                "addr:street:sym_ul": 18570,
                "phone": "+48 509123506",
                "email": "biuro@planeta-dziecka.pl",
                "ref:regon": "260628197",
                "ref:vatin": "PL6631638146",
                "operator": "Ma\u0142gorzata Adamczyk",
                "operator:type": "private",
                "amenity": "kindergarten"
            }
        },
        {
            "id": 277229,
            "type": "Feature",
            "geometry": {
                "type": "Point",
                "coordinates": [
                    20.8874299,
                    51.12451
                ]
            },
            "properties": {
                "ref:rspo": 277229,
                "official_name": "Prywatne Przedszkole Montessori Z Oddzia\u0142ami Specjalnymi w Skar\u017cysku-Kamiennej",
                "name": "Prywatne Przedszkole Montessori Z Oddzia\u0142ami Specjalnymi w Skar\u017cysku-Kamiennej",
                "addr:postcode": "26-110",
                "addr:city": "Skar\u017cysko-Kamienna",
                "addr:street": "Rejowska",
                "addr:housenumber": "99",
                "addr:city:simc": 947716,
                "addr:street:sym_ul": 18570,
                "email": "monika.bekiel@gmail.com",
                "ref:regon": "388409719",
                "operator": "Monika \u0141ukomska- Dietrich",
                "operator:type": "private",
                "amenity": "kindergarten"
            }
        },
        {
            "id": 130056,
            "type": "Feature",
            "geometry": {
                "type": "Point",
                "coordinates": [
                    20.85751,
                    51.13274
                ]
            },
            "properties": {
                "isced:level": "1;2",
                "ref:rspo": 130056,
                "official_name": "Szko\u0142a Podstawowa Nr 9 im. Ksi\u0119dza Profesora W\u0142odzimierza Sedlaka w Skar\u017cysku-Kamiennej",
                "name": "Szko\u0142a Podstawowa Nr 9",
                "addr:postcode": "26-110",
                "addr:city": "Skar\u017cysko-Kamienna",
                "addr:street": "Warszawska",
                "addr:housenumber": "54",
                "addr:city:simc": 947716,
                "addr:street:sym_ul": 23682,
                "phone": "+48 412532355",
                "email": "sp9sko@interia.pl",
                "website": "http:\/\/www.sp9skarzysko.edupage.org",
                "ref:regon": "363374430",
                "operator": "Stowarzyszenie \"Nasze Pogorza\u0142e\"",
                "operator:type": "ngo",
                "amenity": "school"
            }
        },
        {
            "id": 25086,
            "type": "Feature",
            "geometry": {
                "type": "Point",
                "coordinates": [
                    20.87603,
                    51.14139
                ]
            },
            "properties": {
                "ref:rspo": 25086,
                "official_name": "Zesp\u00f3\u0142 Szk\u00f3\u0142 Publicznych Nr 4 im. Marii Curie-Sk\u0142odowskiej w Skar\u017cysku-Kamiennej",
                "name": "Zesp\u00f3\u0142 Szk\u00f3\u0142 Publicznych Nr 4",
                "addr:postcode": "26-110",
                "addr:city": "Skar\u017cysko-Kamienna",
                "addr:street": "Ksi\u0105\u017c\u0119ca",
                "addr:housenumber": "149",
                "addr:city:simc": 947716,
                "addr:street:sym_ul": 10223,
                "phone": "+48 412512925",
                "email": "sekretariat@zsp4.skarzysko.pl",
                "website": "http:\/\/www.zsp4-sko.edupage.org",
                "ref:regon": "292907021",
                "ref:vatin": "PL6631766772",
                "operator": "Gmina Skar\u017cysko-Kamienna",
                "operator:type": "government",
                "landuse": "education",
                "fixme": "amenity=school, amenity=college albo landuse=education w zale\u017cno\u015bci od tego, jakie plac\u00f3wki wchodz\u0105 w sk\u0142ad zespo\u0142u. Sprawd\u017a, kiedy stosowa\u0107 amenity=* a kiedy landuse=education.",
                "note": "Children RSPO: 31864;31866"
            }
        },
        {
            "id": 31864,
            "type": "Feature",
            "geometry": {
                "type": "Point",
                "coordinates": [
                    20.87603,
                    51.14136
                ]
            },
            "properties": {
                "isced:level": "1;2",
                "ref:rspo": 31864,
                "official_name": "Szko\u0142a Podstawowa Nr 4 w Skar\u017cysku-Kamiennej",
                "name": "Szko\u0142a Podstawowa Nr 4 w Skar\u017cysku-Kamiennej",
                "addr:postcode": "26-110",
                "addr:city": "Skar\u017cysko-Kamienna",
                "addr:street": "Ksi\u0105\u017c\u0119ca",
                "addr:housenumber": "149",
                "addr:city:simc": 947716,
                "addr:street:sym_ul": 10223,
                "phone": "+48 412512925",
                "email": "sekretariat@zsp4.skarzysko.pl",
                "ref:regon": "671961926",
                "operator": "Gmina Skar\u017cysko-Kamienna",
                "operator:type": "government",
                "amenity": "school",
                "note": "Parent RSPO: 25086"
            }
        },
        {
            "id": 31866,
            "type": "Feature",
            "geometry": {
                "type": "Point",
                "coordinates": [
                    20.87603,
                    51.14133
                ]
            },
            "properties": {
                "ref:rspo": 31866,
                "official_name": "Przedszkole Publiczne Nr 2 w Skar\u017cysku-Kamiennej",
                "name": "Przedszkole Publiczne Nr 2 w Skar\u017cysku-Kamiennej",
                "addr:postcode": "26-110",
                "addr:city": "Skar\u017cysko-Kamienna",
                "addr:street": "Ksi\u0105\u017c\u0119ca",
                "addr:housenumber": "149",
                "addr:city:simc": 947716,
                "addr:street:sym_ul": 10223,
                "phone": "+48 412512925",
                "email": "sekretariat@zsp4.skarzysko.pl",
                "ref:regon": "670889859",
                "operator": "Gmina Skar\u017cysko-Kamienna",
                "operator:type": "government",
                "amenity": "kindergarten",
                "note": "Parent RSPO: 25086"
            }
        }
    ]
}