{
    "type": "FeatureCollection",
    "features": [
        {
            "id": 70966,
            "type": "Feature",
            "geometry": {
                "type": "Point",
                "coordinates": [
                    20.639252,
                    51.090325
                ]
            },
            "properties": {
                "isced:level": "1;2",
                "ref:rspo": 70966,
                "official_name": "Szko\u0142a Podstawowa im. Henryka Sienkiewicza w Odrow\u0105\u017cku",
                "name": "Szko\u0142a Podstawowa",
                "addr:country": "PL",
                "addr:postcode": "26-120",
                "addr:place": "Odrow\u0105\u017cek",
                "addr:housenumber": "1",
                "addr:teryt:sym_ul": 228772,
                "contact:phone": "+48 413745584",
                "contact:email": "szkolaodrowazek@op.pl",
                "ref:regon": "290621020",
                "ref:vatin": "PL6631338415",
                "operator": "Gmina Bli\u017cyn",
                "operator:type": "government",
                "amenity": "school"
            }
        },
        {
            "id": 11962,
            "type": "Feature",
            "geometry": {
                "type": "Point",
                "coordinates": [
                    20.6879679,
                    51.1041079
                ]
            },
            "properties": {
                "isced:level": "1;2",
                "ref:rspo": 11962,
                "official_name": "Szko\u0142a Podstawowa im. 3 Pu\u0142ku Piechoty Legion\u00f3w Armii Krajowej w Sorbinie",
                "name": "Szko\u0142a Podstawowa",
                "addr:country": "PL",
                "addr:postcode": "26-120",
                "addr:place": "Sorbin",
                "addr:housenumber": "89",
                "addr:teryt:sym_ul": 228855,
                "contact:phone": "+48 412541108",
                "contact:email": "spsorbin@op.pl",
                "contact:website": "http:\/\/www.towarzystwo.sorbin.cba.pl\/szkola.html",
                "ref:regon": "260631035",
                "ref:vatin": "PL6631131594",
                "operator": "\"Towarzystwo Przyjaci\u00f3\u0142 Ziemi Nad Ku\u017aniczk\u0105\"",
                "operator:type": "ngo",
                "amenity": "school"
            }
        },
        {
            "id": 70046,
            "type": "Feature",
            "geometry": {
                "type": "Point",
                "coordinates": [
                    20.76119,
                    51.10545
                ]
            },
            "properties": {
                "isced:level": "1;2",
                "ref:rspo": 70046,
                "official_name": "Szko\u0142a Podstawowa im. Genera\u0142a Stanis\u0142awa Maczka w Bli\u017cynie",
                "name": "Szko\u0142a Podstawowa",
                "addr:country": "PL",
                "addr:postcode": "26-120",
                "addr:city": "Bli\u017cyn",
                "addr:street": "Piaskowa",
                "addr:housenumber": "6",
                "addr:teryt:simc": 16033,
                "addr:teryt:sym_ul": 228192,
                "contact:phone": "+48 412541810",
                "contact:email": "spblizyn@op.pl",
                "contact:website": "http:\/\/www.spblizyn.edupage.org",
                "ref:regon": "290621036",
                "ref:vatin": "PL6631835881",
                "operator": "Gmina Bli\u017cyn",
                "operator:type": "government",
                "amenity": "school"
            }
        },
        {
            "id": 11217,
            "type": "Feature",
            "geometry": {
                "type": "Point",
                "coordinates": [
                    20.7623,
                    51.10663
                ]
            },
            "properties": {
                "ref:rspo": 11217,
                "official_name": "Przedszkole Niepubliczne w Bli\u017cynie",
                "name": "Przedszkole Niepubliczne w Bli\u017cynie",
                "addr:country": "PL",
                "addr:postcode": "26-120",
                "addr:city": "Bli\u017cyn",
                "addr:street": "Tadeusza Ko\u015bciuszki",
                "addr:housenumber": "88A",
                "addr:teryt:simc": 9572,
                "addr:teryt:sym_ul": 228192,
                "contact:phone": "+48 412541031",
                "contact:email": "gspgrzes@poczta.onet.pl",
                "contact:website": "http:\/\/mojeprzedszkole.strefa.pl",
                "ref:regon": "260630550",
                "ref:vatin": "PL6631868248",
                "operator": "Towarzystwo Przyjaci\u00f3\u0142 Bli\u017cyna",
                "operator:type": "ngo",
                "amenity": "kindergarten"
            }
        },
        {
            "id": 268498,
            "type": "Feature",
            "geometry": {
                "type": "Point",
                "coordinates": [
                    20.75765,
                    51.10905
                ]
            },
            "properties": {
                "ref:rspo": 268498,
                "official_name": "Niepubliczne Przedszkole J\u0119zykowe Best",
                "name": "Niepubliczne Przedszkole J\u0119zykowe Best",
                "addr:country": "PL",
                "addr:postcode": "26-120",
                "addr:city": "Bli\u017cyn",
                "addr:street": "Szyd\u0142owiecka",
                "addr:housenumber": "1B",
                "addr:teryt:simc": 22219,
                "addr:teryt:sym_ul": 228192,
                "contact:phone": "+48 690006543",
                "contact:email": "cje.best@wp.pl",
                "ref:regon": "381197668",
                "operator": "Centrum J\u0119zykowo Edukacyjne Best Katarzyna Trzebi\u0144ska",
                "operator:type": "consortium",
                "amenity": "kindergarten"
            }
        },
        {
            "id": 20749,
            "type": "Feature",
            "geometry": {
                "type": "Point",
                "coordinates": [
                    20.70213,
                    51.135435
                ]
            },
            "properties": {
                "isced:level": "1;2",
                "ref:rspo": 20749,
                "official_name": "Szko\u0142a Podstawowa im. Wojska Polskiego w Mroczkowie",
                "name": "Szko\u0142a Podstawowa",
                "addr:country": "PL",
                "addr:postcode": "26-120",
                "addr:place": "Mroczk\u00f3w",
                "addr:housenumber": "25",
                "addr:teryt:sym_ul": 228683,
                "contact:phone": "+48 412541011",
                "contact:email": "mroczkowsp@wp.pl",
                "ref:regon": "290621042",
                "ref:vatin": "PL6631131625",
                "operator": "Gmina Bli\u017cyn",
                "operator:type": "government",
                "amenity": "school"
            }
        }
    ]
}