{
    "type": "FeatureCollection",
    "features": [
        {
            "id": 53643,
            "type": "Feature",
            "geometry": {
                "type": "Point",
                "coordinates": [
                    18.87995,
                    53.41223
                ]
            },
            "properties": {
                "isced:level": "1;2",
                "ref:rspo": 53643,
                "official_name": "Szko\u0142a Podstawowa im. 16. Pu\u0142ku Artylerii Lekkiej w Plemi\u0119tach",
                "name": "Szko\u0142a Podstawowa",
                "addr:postcode": "86-330",
                "addr:place": "Plemi\u0119ta",
                "addr:housenumber": "19",
                "addr:teryt:simc": 844650,
                "phone": "+48 564684785",
                "email": "spplemieta@op.pl",
                "ref:regon": "001212218",
                "ref:vatin": "PL8762119241",
                "operator": "Gmina Gruta",
                "operator:type": "government",
                "amenity": "school"
            }
        },
        {
            "id": 53641,
            "type": "Feature",
            "geometry": {
                "type": "Point",
                "coordinates": [
                    19.00748,
                    53.42374
                ]
            },
            "properties": {
                "isced:level": "1;2",
                "ref:rspo": 53641,
                "official_name": "Szko\u0142a Podstawowa im. Jana Paw\u0142a II w Boguszewie",
                "name": "Szko\u0142a Podstawowa",
                "addr:postcode": "86-330",
                "addr:place": "Boguszewo",
                "addr:housenumber": "28\/29",
                "addr:teryt:simc": 844519,
                "phone": "+48 564684329",
                "email": "spboguszewo@gmail.com",
                "website": "http:\/\/spboguszewo.gruta.pl",
                "ref:regon": "001212230",
                "ref:vatin": "PL8762119784",
                "operator": "Gmina Gruta",
                "operator:type": "government",
                "amenity": "school"
            }
        },
        {
            "id": 53647,
            "type": "Feature",
            "geometry": {
                "type": "Point",
                "coordinates": [
                    18.94161,
                    53.4373
                ]
            },
            "properties": {
                "ref:rspo": 53647,
                "official_name": "Przedszkole Samorz\u0105dowe w Me\u0142nie",
                "name": "Przedszkole Samorz\u0105dowe w Me\u0142nie",
                "addr:postcode": "86-330",
                "addr:place": "Me\u0142no",
                "addr:housenumber": "5",
                "addr:teryt:simc": 844590,
                "phone": "+48 564683518",
                "ref:regon": "341346941",
                "ref:vatin": "PL8762122852",
                "operator": "Gmina Gruta",
                "operator:type": "government",
                "amenity": "kindergarten"
            }
        },
        {
            "id": 108726,
            "type": "Feature",
            "geometry": {
                "type": "Point",
                "coordinates": [
                    18.96266,
                    53.45334
                ]
            },
            "properties": {
                "isced:level": "1;2",
                "ref:rspo": 108726,
                "official_name": "Szko\u0142a Podstawowa w Grucie im. P\u0142k. F. Laskowskiego",
                "name": "Szko\u0142a Podstawowa w Grucie",
                "addr:postcode": "86-330",
                "addr:place": "Gruta",
                "addr:housenumber": "70",
                "addr:teryt:simc": 844554,
                "phone": "+48 564683113",
                "email": "zsgruta@gmail.com",
                "website": "http:\/\/www.szkolagruta.com.pl",
                "ref:regon": "000267683",
                "ref:vatin": "PL8762119703",
                "operator": "Gmina Gruta",
                "operator:type": "government",
                "amenity": "school"
            }
        },
        {
            "id": 53644,
            "type": "Feature",
            "geometry": {
                "type": "Point",
                "coordinates": [
                    18.88863,
                    53.46377
                ]
            },
            "properties": {
                "isced:level": "1;2",
                "ref:rspo": 53644,
                "official_name": "Szko\u0142a Podstawowa w Nicwa\u0142dzie im. B\u0142. Ks. S.w.frelichowskiego",
                "name": "Szko\u0142a Podstawowa w Nicwa\u0142dzie",
                "addr:postcode": "86-330",
                "addr:place": "Nicwa\u0142d",
                "addr:housenumber": "26",
                "addr:teryt:simc": 844608,
                "phone": "+48 564685425",
                "email": "spnicwald@gruta.pl",
                "ref:regon": "001212247",
                "ref:vatin": "PL8762119761",
                "operator": "Gmina Gruta",
                "operator:type": "government",
                "amenity": "school"
            }
        },
        {
            "id": 53642,
            "type": "Feature",
            "geometry": {
                "type": "Point",
                "coordinates": [
                    19.02412,
                    53.46826
                ]
            },
            "properties": {
                "isced:level": "1;2",
                "ref:rspo": 53642,
                "official_name": "Szko\u0142a Podstawowa w S\u0142upie im. Ks. Jana Lesi\u0144skiego",
                "name": "Szko\u0142a Podstawowa w S\u0142upie",
                "addr:postcode": "86-330",
                "addr:place": "S\u0142up",
                "addr:housenumber": "3",
                "addr:teryt:simc": 844672,
                "phone": "+48 564685729",
                "email": "spslup@gmail.com",
                "website": "http:\/\/spslup.gruta.pl",
                "ref:regon": "001212224",
                "ref:vatin": "PL8762119258",
                "operator": "Gmina Gruta",
                "operator:type": "government",
                "amenity": "school"
            }
        }
    ]
}