{
    "type": "FeatureCollection",
    "features": [
        {
            "id": 61329,
            "type": "Feature",
            "geometry": {
                "type": "Point",
                "coordinates": [
                    18.92871,
                    53.53271
                ]
            },
            "properties": {
                "isced:level": "1;2",
                "ref:rspo": 61329,
                "official_name": "Szko\u0142a Podstawowa w Rog\u00f3\u017anie",
                "name": "Szko\u0142a Podstawowa w Rog\u00f3\u017anie",
                "addr:country": "PL",
                "addr:postcode": "86-318",
                "addr:place": "Rog\u00f3\u017ano",
                "addr:housenumber": "91A",
                "addr:teryt:sym_ul": 848919,
                "contact:phone": "+48 564688411",
                "contact:email": "sprogozno@e-rogozno.pl",
                "contact:website": "https:\/\/sprogozno.edupage.org",
                "ref:regon": "000269759",
                "ref:vatin": "PL8762128180",
                "operator": "Gmina Rog\u00f3\u017ano",
                "operator:type": "government",
                "amenity": "school"
            }
        },
        {
            "id": 61333,
            "type": "Feature",
            "geometry": {
                "type": "Point",
                "coordinates": [
                    18.93108,
                    53.53748
                ]
            },
            "properties": {
                "ref:rspo": 61333,
                "official_name": "Przedszkole Publiczne w Rog\u00f3\u017anie",
                "name": "Przedszkole Publiczne w Rog\u00f3\u017anie",
                "addr:country": "PL",
                "addr:postcode": "86-318",
                "addr:place": "Rog\u00f3\u017ano",
                "addr:housenumber": "73",
                "addr:teryt:sym_ul": 848919,
                "contact:email": "przedrog@neostrada.pl",
                "ref:regon": "341348756",
                "ref:vatin": "PL8762128145",
                "operator": "Gmina Rog\u00f3\u017ano",
                "operator:type": "government",
                "amenity": "kindergarten"
            }
        },
        {
            "id": 61341,
            "type": "Feature",
            "geometry": {
                "type": "Point",
                "coordinates": [
                    18.86104,
                    53.54459
                ]
            },
            "properties": {
                "isced:level": "1;2",
                "ref:rspo": 61341,
                "official_name": "Szko\u0142a Podstawowa w Bia\u0142ochowie",
                "name": "Szko\u0142a Podstawowa w Bia\u0142ochowie",
                "addr:country": "PL",
                "addr:postcode": "86-318",
                "addr:place": "Bia\u0142ochowo",
                "addr:housenumber": "74",
                "addr:teryt:sym_ul": 848820,
                "contact:phone": "+48 564681351",
                "contact:email": "spbialochowo@e-rogozno.pl",
                "contact:website": "http:\/\/www.spbialochowo.szkolnastrona.pl",
                "ref:regon": "001315326",
                "ref:vatin": "PL8762128168",
                "operator": "Gmina Rog\u00f3\u017ano",
                "operator:type": "government",
                "amenity": "school"
            }
        },
        {
            "id": 61335,
            "type": "Feature",
            "geometry": {
                "type": "Point",
                "coordinates": [
                    18.99682,
                    53.55867
                ]
            },
            "properties": {
                "isced:level": "1;2",
                "ref:rspo": 61335,
                "official_name": "Szko\u0142a Podstawowa w Szembruczku",
                "name": "Szko\u0142a Podstawowa w Szembruczku",
                "addr:country": "PL",
                "addr:postcode": "86-318",
                "addr:place": "Szembruczek",
                "addr:housenumber": "22",
                "addr:teryt:sym_ul": 848954,
                "contact:phone": "+48 564689279",
                "contact:email": "spszembruczek@e-rogozno.pl",
                "ref:regon": "001211578",
                "ref:vatin": "PL8762128174",
                "operator": "Gmina Rog\u00f3\u017ano",
                "operator:type": "government",
                "amenity": "school"
            }
        }
    ]
}