{
    "type": "FeatureCollection",
    "features": [
        {
            "id": 111024,
            "type": "Feature",
            "geometry": {
                "type": "Point",
                "coordinates": [
                    18.73399,
                    53.38665
                ]
            },
            "properties": {
                "isced:level": "1;2",
                "ref:rspo": 111024,
                "official_name": "Szko\u0142a Podstawowa im. Stanis\u0142awa Broniewskiego \"Orszy\" w Wa\u0142dowie Szlacheckim",
                "name": "Szko\u0142a Podstawowa",
                "addr:postcode": "86-302",
                "addr:place": "Wa\u0142dowo Szlacheckie",
                "addr:housenumber": "57",
                "addr:city:simc": 844420,
                "phone": "+48 564682777",
                "email": "spwaldowo@grudziadz.ug.gov.pl",
                "website": "http:\/\/www.orsza.pl\/\/",
                "ref:regon": "001212589",
                "ref:vatin": "PL8762371360",
                "operator": "Gmina Grudzi\u0105dz",
                "operator:type": "government",
                "amenity": "school"
            }
        },
        {
            "id": 83898,
            "type": "Feature",
            "geometry": {
                "type": "Point",
                "coordinates": [
                    18.61279,
                    53.4098
                ]
            },
            "properties": {
                "isced:level": "1;2",
                "ref:rspo": 83898,
                "official_name": "Szko\u0142a Podstawowa w Sosn\u00f3wce",
                "name": "Szko\u0142a Podstawowa w Sosn\u00f3wce",
                "addr:postcode": "86-302",
                "addr:place": "Sosn\u00f3wka",
                "addr:housenumber": "3",
                "addr:city:simc": 844360,
                "phone": "+48 564628640",
                "email": "spsosnowka@grudziadz.ug.gov.pl",
                "website": "http:\/\/spsosnowka.szkolnastrona.pl",
                "ref:regon": "001212514",
                "ref:vatin": "PL8762112701",
                "operator": "Gmina Grudzi\u0105dz",
                "operator:type": "government",
                "amenity": "school"
            }
        },
        {
            "id": 111035,
            "type": "Feature",
            "geometry": {
                "type": "Point",
                "coordinates": [
                    18.69712,
                    53.41071
                ]
            },
            "properties": {
                "isced:level": "1;2",
                "ref:rspo": 111035,
                "official_name": "Szko\u0142a Podstawowa im. Jana Paw\u0142a II w Sztynwagu",
                "name": "Szko\u0142a Podstawowa",
                "addr:postcode": "86-302",
                "addr:place": "Sztynwag",
                "addr:housenumber": "46",
                "addr:city:simc": 844382,
                "phone": "+48 564682628",
                "email": "spsztynwag@grudziadz.ug.gov.pl",
                "website": "http:\/\/www.szkolawrudzie.eu",
                "ref:regon": "001212566",
                "ref:vatin": "PL8762371822",
                "operator": "Gmina Grudzi\u0105dz",
                "operator:type": "government",
                "amenity": "school"
            }
        },
        {
            "id": 111150,
            "type": "Feature",
            "geometry": {
                "type": "Point",
                "coordinates": [
                    18.78497,
                    53.4199
                ]
            },
            "properties": {
                "isced:level": "1;2",
                "ref:rspo": 111150,
                "official_name": "Szko\u0142a Podstawowa im. Szarych Szereg\u00f3w w Piaskach",
                "name": "Szko\u0142a Podstawowa",
                "addr:postcode": "86-302",
                "addr:place": "Piaski",
                "addr:housenumber": "10",
                "addr:city:simc": 844293,
                "phone": "+48 564682123",
                "email": "sppiaski@grudziadz.ug.gov.pl",
                "ref:regon": "001212543",
                "ref:vatin": "PL8762371644",
                "operator": "Gmina Grudzi\u0105dz",
                "operator:type": "government",
                "amenity": "school"
            }
        },
        {
            "id": 127807,
            "type": "Feature",
            "geometry": {
                "type": "Point",
                "coordinates": [
                    18.8141,
                    53.46163
                ]
            },
            "properties": {
                "isced:level": "1;2",
                "ref:rspo": 127807,
                "official_name": "Niepubliczna Szko\u0142a Podstawowa im. Zbigniewa Wodeckiego w W\u0119growie",
                "name": "Niepubliczna Szko\u0142a Podstawowa",
                "addr:postcode": "86-302",
                "addr:place": "W\u0119growo",
                "addr:housenumber": "46",
                "addr:city:simc": 844436,
                "email": "szkola@szkolne-rewolucje.pl",
                "website": "http:\/\/www.szkolne-rewolucje.pl",
                "ref:regon": "361862199",
                "operator": "Fundacja Rozwoju Edukacji Najm\u0142odszych",
                "operator:type": "ngo",
                "amenity": "school"
            }
        },
        {
            "id": 86556,
            "type": "Feature",
            "geometry": {
                "type": "Point",
                "coordinates": [
                    18.956352233887,
                    53.477718353271
                ]
            },
            "properties": {
                "isced:level": "1;2",
                "ref:rspo": 86556,
                "official_name": "Szko\u0142a Podstawowa w Nowej Wsi\nIm. Marii Konopnickiej",
                "name": "Szko\u0142a Podstawowa w Nowej Wsi\nIm. Marii Konopnickiej",
                "addr:postcode": "86-302",
                "addr:city": "Nowa Wie\u015b",
                "addr:street": "Grudzi\u0105dzka",
                "addr:housenumber": "43",
                "addr:city:simc": 844270,
                "addr:street:sym_ul": 6236,
                "phone": "+48 564622556",
                "email": "spnowawies@grudziadz.ug.gov.pl",
                "ref:regon": "001212572",
                "ref:vatin": "PL8762112776",
                "operator": "Gmina Grudzi\u0105dz",
                "operator:type": "government",
                "amenity": "school"
            }
        },
        {
            "id": 86638,
            "type": "Feature",
            "geometry": {
                "type": "Point",
                "coordinates": [
                    18.956352233887,
                    53.477688353271
                ]
            },
            "properties": {
                "ref:rspo": 86638,
                "official_name": "Gminne Przedszkole w Ma\u0142ym Rudniku",
                "name": "Gminne Przedszkole w Ma\u0142ym Rudniku",
                "addr:postcode": "86-302",
                "addr:place": "Ma\u0142y Rudnik",
                "addr:housenumber": "33",
                "addr:city:simc": 844241,
                "phone": "+48 564682617",
                "ref:regon": "340486580",
                "ref:vatin": "PL8762396621",
                "operator": "Gmina Grudzi\u0105dz",
                "operator:type": "government",
                "amenity": "kindergarten"
            }
        },
        {
            "id": 104167,
            "type": "Feature",
            "geometry": {
                "type": "Point",
                "coordinates": [
                    18.956352233887,
                    53.477658353271
                ]
            },
            "properties": {
                "ref:rspo": 104167,
                "official_name": "Przedszkole Niepubliczne Krasnal",
                "name": "Przedszkole Niepubliczne Krasnal",
                "addr:postcode": "86-302",
                "addr:city": "Nowa Wie\u015b",
                "addr:street": "Grudzi\u0105dzka",
                "addr:housenumber": "18",
                "addr:city:simc": 844270,
                "addr:street:sym_ul": 6236,
                "phone": "+48 564650741",
                "email": "biuro@npkrasnal.pl",
                "ref:regon": "341365720",
                "operator": "Stowarzyszenie Przyjaci\u00f3\u0142 Przedszkola W Nowej Wsi",
                "operator:type": "ngo",
                "amenity": "kindergarten"
            }
        },
        {
            "id": 111149,
            "type": "Feature",
            "geometry": {
                "type": "Point",
                "coordinates": [
                    18.83491,
                    53.54522
                ]
            },
            "properties": {
                "isced:level": "1;2",
                "ref:rspo": 111149,
                "official_name": "Szko\u0142a Podstawowa im. Ks. Jana Twardowskiego w Mokrem",
                "name": "Szko\u0142a Podstawowa",
                "addr:postcode": "86-302",
                "addr:city": "Mokre",
                "addr:street": "Z\u0142ota",
                "addr:housenumber": "2",
                "addr:city:simc": 844264,
                "addr:street:sym_ul": 26188,
                "phone": "+48 564681310",
                "email": "spmokre@grudziadz.ug.gov.pl",
                "ref:regon": "001212537",
                "ref:vatin": "PL8762371302",
                "operator": "Gmina Grudzi\u0105dz",
                "operator:type": "government",
                "amenity": "school"
            }
        },
        {
            "id": 276213,
            "type": "Feature",
            "geometry": {
                "type": "Point",
                "coordinates": [
                    18.85939,
                    53.56655
                ]
            },
            "properties": {
                "isced:level": "1;2",
                "ref:rspo": 276213,
                "official_name": "Szko\u0142a Podstawowa w Dusocinie im. Dr. Ludwika Rydygiera",
                "name": "Szko\u0142a Podstawowa w Dusocinie",
                "addr:postcode": "86-302",
                "addr:place": "Dusocin",
                "addr:housenumber": "9",
                "addr:city:simc": 844494,
                "email": "spdusocin@grudziadz.ug.gov.pl",
                "ref:regon": "387032974",
                "operator": "Fundacja Rozwoju Edukacji Najm\u0142odszych",
                "operator:type": "ngo",
                "amenity": "school"
            }
        }
    ]
}