{
    "type": "FeatureCollection",
    "features": [
        {
            "id": 28685,
            "type": "Feature",
            "geometry": {
                "type": "Point",
                "coordinates": [
                    19.1146,
                    53.51137
                ]
            },
            "properties": {
                "isced:level": "1;2",
                "ref:rspo": 28685,
                "official_name": "Szko\u0142a Podstawowa w Szonowie",
                "name": "Szko\u0142a Podstawowa w Szonowie",
                "addr:country": "PL",
                "addr:postcode": "86-320",
                "addr:place": "Szonowo",
                "addr:housenumber": "81",
                "addr:teryt:simc": 846613,
                "contact:phone": "+48 564663428",
                "contact:email": "spszonowo@lasin.pl",
                "contact:website": "http:\/\/www.szkoszon.edupage.org",
                "ref:regon": "001224440",
                "ref:vatin": "PL8762108935",
                "operator": "Gmina \u0141asin",
                "operator:type": "government",
                "amenity": "school"
            }
        },
        {
            "id": 35277,
            "type": "Feature",
            "geometry": {
                "type": "Point",
                "coordinates": [
                    19.08665,
                    53.51526
                ]
            },
            "properties": {
                "ref:rspo": 35277,
                "official_name": "Przedszkole Miejskie",
                "name": "Przedszkole Miejskie",
                "addr:country": "PL",
                "addr:postcode": "86-320",
                "addr:city": "\u0141asin",
                "addr:street": "Aleja M\u0142odo\u015bci",
                "addr:housenumber": "1",
                "addr:teryt:simc": 983557,
                "addr:teryt:sym_ul": 13075,
                "contact:phone": "+48 564664277",
                "contact:email": "przedszkolelasin@interia.pl",
                "contact:website": "http:\/\/www.przeszkolelasin.edupage.org",
                "ref:regon": "341340364",
                "ref:vatin": "PL8762107261",
                "operator": "Gmina \u0141asin",
                "operator:type": "government",
                "amenity": "kindergarten"
            }
        },
        {
            "id": 41156,
            "type": "Feature",
            "geometry": {
                "type": "Point",
                "coordinates": [
                    19.08387,
                    53.51562
                ]
            },
            "properties": {
                "isced:level": "1;2",
                "ref:rspo": 41156,
                "official_name": "Szko\u0142a Podstawowa w \u0141asinie",
                "name": "Szko\u0142a Podstawowa w \u0141asinie",
                "addr:country": "PL",
                "addr:postcode": "86-320",
                "addr:city": "\u0141asin",
                "addr:street": "Marii Sk\u0142odowskiej-Curie",
                "addr:housenumber": "14",
                "addr:teryt:simc": 983557,
                "addr:teryt:sym_ul": 3145,
                "contact:phone": "+48 564664291",
                "contact:email": "zsplasin@interia.pl",
                "contact:website": "http:\/\/www.zsp-lasin.pl",
                "ref:regon": "000261433",
                "ref:vatin": "PL8762226592",
                "operator": "Gmina \u0141asin",
                "operator:type": "government",
                "amenity": "school"
            }
        },
        {
            "id": 21616,
            "type": "Feature",
            "geometry": {
                "type": "Point",
                "coordinates": [
                    19.08757,
                    53.51753
                ]
            },
            "properties": {
                "ref:rspo": 21616,
                "official_name": "Zesp\u00f3\u0142 Szk\u00f3\u0142 Ponadpodstawowych Im Kazimierza Jagiello\u0144czyka",
                "name": "Zesp\u00f3\u0142 Szk\u00f3\u0142 Ponadpodstawowych Im Kazimierza Jagiello\u0144czyka",
                "addr:country": "PL",
                "addr:postcode": "86-320",
                "addr:city": "\u0141asin",
                "addr:street": "Odrodzenia Polski",
                "addr:housenumber": "3",
                "addr:teryt:simc": 983557,
                "addr:teryt:sym_ul": 14757,
                "contact:phone": "+48 564664242",
                "contact:email": "zslasinsekretariat@wp.pl",
                "ref:regon": "000213983",
                "ref:vatin": "PL8761932738",
                "operator": "Powiat Grudzi\u0105dzki",
                "operator:type": "government",
                "landuse": "education",
                "fixme": "amenity=school, amenity=college albo landuse=education w zale\u017cno\u015bci od tego, jakie plac\u00f3wki wchodz\u0105 w sk\u0142ad zespo\u0142u. Sprawd\u017a, kiedy stosowa\u0107 amenity=* a kiedy landuse=education.",
                "note": "Children RSPO: 41402;41403;41407;55452;92235"
            }
        },
        {
            "id": 278661,
            "type": "Feature",
            "geometry": {
                "type": "Point",
                "coordinates": [
                    19.08757,
                    53.5175
                ]
            },
            "properties": {
                "isced:level": "3",
                "ref:rspo": 278661,
                "official_name": "Bran\u017cowa Szko\u0142a II Stopnia w \u0141asinie",
                "name": "Bran\u017cowa Szko\u0142a II Stopnia w \u0141asinie",
                "addr:country": "PL",
                "addr:postcode": "86-320",
                "addr:city": "\u0141asin",
                "addr:street": "Odrodzenia Polski",
                "addr:housenumber": "3",
                "addr:teryt:simc": 983557,
                "addr:teryt:sym_ul": 14757,
                "contact:phone": "+48 564664242",
                "contact:email": "zslasinsekretariat@wp.pl",
                "contact:website": "http:\/\/jagiellonczyklasin.edu.pl",
                "ref:regon": "520023910",
                "operator": "Powiat Grudzi\u0105dzki",
                "operator:type": "government",
                "amenity": "school"
            }
        },
        {
            "id": 41402,
            "type": "Feature",
            "geometry": {
                "type": "Point",
                "coordinates": [
                    19.08757,
                    53.51747
                ]
            },
            "properties": {
                "isced:level": "3",
                "ref:rspo": 41402,
                "official_name": "Liceum Og\u00f3lnokszta\u0142c\u0105ce",
                "name": "Liceum Og\u00f3lnokszta\u0142c\u0105ce",
                "addr:country": "PL",
                "addr:postcode": "86-320",
                "addr:city": "\u0141asin",
                "addr:street": "Odrodzenia Polski",
                "addr:housenumber": "3",
                "addr:teryt:simc": 983557,
                "addr:teryt:sym_ul": 14757,
                "contact:phone": "+48 564664242",
                "contact:email": "zslasinsekretariat@wp.pl",
                "contact:website": "http:\/\/www.jagielonczyklasin.edu.pl",
                "ref:regon": "005741971",
                "operator": "Powiat Grudzi\u0105dzki",
                "operator:type": "government",
                "amenity": "school",
                "note": "Parent RSPO: 21616"
            }
        },
        {
            "id": 41403,
            "type": "Feature",
            "geometry": {
                "type": "Point",
                "coordinates": [
                    19.08757,
                    53.51744
                ]
            },
            "properties": {
                "isced:level": "3",
                "ref:rspo": 41403,
                "official_name": "Technikum",
                "name": "Technikum",
                "addr:country": "PL",
                "addr:postcode": "86-320",
                "addr:city": "\u0141asin",
                "addr:street": "Odrodzenia Polski",
                "addr:housenumber": "3",
                "addr:teryt:simc": 983557,
                "addr:teryt:sym_ul": 14757,
                "contact:phone": "+48 564664242",
                "contact:email": "zslasinsekretariat@wp.pl",
                "contact:website": "http:\/\/www.jagielonczyklasin.edu.pl",
                "ref:regon": "340352052",
                "operator": "Powiat Grudzi\u0105dzki",
                "operator:type": "government",
                "amenity": "school",
                "note": "Parent RSPO: 21616"
            }
        },
        {
            "id": 41407,
            "type": "Feature",
            "geometry": {
                "type": "Point",
                "coordinates": [
                    19.08757,
                    53.51741
                ]
            },
            "properties": {
                "isced:level": "4",
                "ref:rspo": 41407,
                "official_name": "Szko\u0142a Policealna",
                "name": "Szko\u0142a Policealna",
                "addr:country": "PL",
                "addr:postcode": "86-320",
                "addr:city": "\u0141asin",
                "addr:street": "Odrodzenia Polski",
                "addr:housenumber": "3",
                "addr:teryt:simc": 983557,
                "addr:teryt:sym_ul": 14757,
                "contact:phone": "+48 564664242",
                "contact:email": "zslasinsekretariat@wp.pl",
                "contact:website": "http:\/\/www.jagiellonczyklasin.edu.pl",
                "ref:regon": "340023851",
                "operator": "Powiat Grudzi\u0105dzki",
                "operator:type": "government",
                "amenity": "college",
                "note": "Parent RSPO: 21616"
            }
        },
        {
            "id": 55452,
            "type": "Feature",
            "geometry": {
                "type": "Point",
                "coordinates": [
                    19.08757,
                    53.51738
                ]
            },
            "properties": {
                "isced:level": "3",
                "ref:rspo": 55452,
                "official_name": "Liceum Og\u00f3lnokszta\u0142c\u0105ce dla Doros\u0142ych",
                "name": "Liceum Og\u00f3lnokszta\u0142c\u0105ce dla Doros\u0142ych",
                "addr:country": "PL",
                "addr:postcode": "86-320",
                "addr:city": "\u0141asin",
                "addr:street": "Odrodzenia Polski",
                "addr:housenumber": "3",
                "addr:teryt:simc": 983557,
                "addr:teryt:sym_ul": 14757,
                "contact:phone": "+48 564664242",
                "contact:email": "zslasinsekretariat@wp.pl",
                "contact:website": "http:\/\/www.jagiellonczyklasin.edu.pl",
                "ref:regon": "341344913",
                "operator": "Powiat Grudzi\u0105dzki",
                "operator:type": "government",
                "amenity": "school",
                "note": "Parent RSPO: 21616"
            }
        },
        {
            "id": 92235,
            "type": "Feature",
            "geometry": {
                "type": "Point",
                "coordinates": [
                    19.08757,
                    53.51735
                ]
            },
            "properties": {
                "isced:level": "3",
                "ref:rspo": 92235,
                "official_name": "Bran\u017cowa Szko\u0142a I Stopnia",
                "name": "Bran\u017cowa Szko\u0142a I Stopnia",
                "addr:country": "PL",
                "addr:postcode": "86-320",
                "addr:city": "\u0141asin",
                "addr:street": "Odrodzenia Polski",
                "addr:housenumber": "3",
                "addr:teryt:simc": 983557,
                "addr:teryt:sym_ul": 14757,
                "contact:phone": "+48 564664242",
                "contact:email": "zslasinsekretariat@wp.pl",
                "ref:regon": "341361484",
                "operator": "Powiat Grudzi\u0105dzki",
                "operator:type": "government",
                "amenity": "school",
                "note": "Parent RSPO: 21616"
            }
        },
        {
            "id": 28683,
            "type": "Feature",
            "geometry": {
                "type": "Point",
                "coordinates": [
                    19.07299,
                    53.56218
                ]
            },
            "properties": {
                "isced:level": "1;2",
                "ref:rspo": 28683,
                "official_name": "Szko\u0142a Podstawowa w Wydrznie",
                "name": "Szko\u0142a Podstawowa w Wydrznie",
                "addr:country": "PL",
                "addr:postcode": "86-320",
                "addr:place": "Wydrzno",
                "addr:housenumber": "9",
                "addr:teryt:simc": 846665,
                "contact:phone": "+48 564689316",
                "contact:email": "wydrzno1@wp.pl",
                "contact:website": "http:\/\/www.spwydrzno.szkolnastrona.pl",
                "ref:regon": "001223972",
                "ref:vatin": "PL8762108958",
                "operator": "Gmina \u0141asin",
                "operator:type": "government",
                "amenity": "school"
            }
        },
        {
            "id": 28681,
            "type": "Feature",
            "geometry": {
                "type": "Point",
                "coordinates": [
                    19.16165,
                    53.57883
                ]
            },
            "properties": {
                "isced:level": "1;2",
                "ref:rspo": 28681,
                "official_name": "Szko\u0142a Podstawowa w Zawdzie",
                "name": "Szko\u0142a Podstawowa w Zawdzie",
                "addr:country": "PL",
                "addr:postcode": "86-320",
                "addr:place": "Zawda",
                "addr:housenumber": "14",
                "addr:teryt:simc": 846688,
                "contact:phone": "+48 564662060",
                "contact:email": "zawda@autograf.pl",
                "contact:website": "http:\/\/www.spzawda.szkolnastrona.pl",
                "ref:regon": "001224457",
                "ref:vatin": "PL8762108993",
                "operator": "Gmina \u0141asin",
                "operator:type": "government",
                "amenity": "school"
            }
        }
    ]
}