{
    "type": "FeatureCollection",
    "features": [
        {
            "id": 29074,
            "type": "Feature",
            "geometry": {
                "type": "Point",
                "coordinates": [
                    19.53056,
                    50.03
                ]
            },
            "properties": {
                "isced:level": "1;2",
                "ref:rspo": 29074,
                "official_name": "Szko\u0142a Podstawowa im. Ignacego Jana Paderewskiego w Okle\u015bnej",
                "name": "Szko\u0142a Podstawowa",
                "addr:country": "PL",
                "addr:postcode": "32-566",
                "addr:city": "Okle\u015bna",
                "addr:street": "Nowowiejska",
                "addr:housenumber": "3",
                "addr:teryt:simc": 314661,
                "addr:teryt:sym_ul": 14495,
                "contact:phone": "+48 122828699",
                "contact:email": "spoklesna@alwernia.pl",
                "contact:website": "http:\/\/spoklesna.nsf.pl",
                "ref:regon": "001233670",
                "operator": "Gmina Alwernia",
                "operator:type": "government",
                "amenity": "school"
            }
        },
        {
            "id": 61492,
            "type": "Feature",
            "geometry": {
                "type": "Point",
                "coordinates": [
                    19.575189590454,
                    50.045421600342
                ]
            },
            "properties": {
                "isced:level": "1;2",
                "ref:rspo": 61492,
                "official_name": "Szko\u0142a Podstawowa im. Henryka Sienkiewicza w Brod\u0142ach",
                "name": "Szko\u0142a Podstawowa",
                "addr:country": "PL",
                "addr:postcode": "32-566",
                "addr:city": "Brod\u0142a",
                "addr:street": "Edukacyjna",
                "addr:housenumber": "1",
                "addr:teryt:simc": 314460,
                "addr:teryt:sym_ul": 4733,
                "contact:phone": "+48 122832822",
                "contact:email": "spbrodla@alwernia.pl",
                "contact:website": "http:\/\/www.zs2brodla.nsf.pl",
                "ref:regon": "001233640",
                "operator": "Gmina Alwernia",
                "operator:type": "government",
                "amenity": "school"
            }
        },
        {
            "id": 29140,
            "type": "Feature",
            "geometry": {
                "type": "Point",
                "coordinates": [
                    19.56266,
                    50.06216
                ]
            },
            "properties": {
                "isced:level": "1;2",
                "ref:rspo": 29140,
                "official_name": "Szko\u0142a Podstawowa im. Stanis\u0142awa Wyspia\u0144skiego w Por\u0119bie \u017begoty",
                "name": "Szko\u0142a Podstawowa",
                "addr:country": "PL",
                "addr:postcode": "32-566",
                "addr:city": "Por\u0119ba \u017begoty",
                "addr:street": "Szembek\u00f3w",
                "addr:housenumber": "24",
                "addr:teryt:simc": 314709,
                "addr:teryt:sym_ul": 36140,
                "contact:phone": "+48 122831035",
                "contact:email": "spporebaz@alwernia.pl",
                "contact:website": "http:\/\/spporebaz.szkolna.net",
                "ref:regon": "001233686",
                "ref:vatin": "PL6751006785",
                "operator": "Gmina Alwernia",
                "operator:type": "government",
                "amenity": "school"
            }
        },
        {
            "id": 29566,
            "type": "Feature",
            "geometry": {
                "type": "Point",
                "coordinates": [
                    19.5430356,
                    50.0647668
                ]
            },
            "properties": {
                "ref:rspo": 29566,
                "official_name": "Przedszkole Samorz\u0105dowe \"T\u0119czowa Kraina\" w Alwerni Z Fili\u0105 w Grojcu",
                "name": "Przedszkole Samorz\u0105dowe \"T\u0119czowa Kraina\" w Alwerni Z Fili\u0105 w Grojcu",
                "addr:country": "PL",
                "addr:postcode": "32-566",
                "addr:city": "Alwernia",
                "addr:street": "Marii Sk\u0142odowskiej-Curie",
                "addr:housenumber": "2",
                "addr:teryt:simc": 314454,
                "addr:teryt:sym_ul": 20068,
                "contact:phone": "+48 122831652",
                "contact:email": "ps1alwernia@alwernia.pl",
                "contact:website": "http:\/\/www.przedszkole-alwernia.pl",
                "ref:regon": "350530853",
                "ref:vatin": "PL6282012571",
                "operator": "Gmina Alwernia",
                "operator:type": "government",
                "amenity": "kindergarten"
            }
        },
        {
            "id": 59853,
            "type": "Feature",
            "geometry": {
                "type": "Point",
                "coordinates": [
                    19.54276,
                    50.06495
                ]
            },
            "properties": {
                "isced:level": "1;2",
                "ref:rspo": 59853,
                "official_name": "Szko\u0142a Podstawowa im. Marii Sk\u0142odowskiej-Curie w Alwerni",
                "name": "Szko\u0142a Podstawowa",
                "addr:country": "PL",
                "addr:postcode": "32-566",
                "addr:city": "Alwernia",
                "addr:street": "Marii Sk\u0142odowskiej-Curie",
                "addr:housenumber": "4",
                "addr:teryt:simc": 314454,
                "addr:teryt:sym_ul": 20068,
                "contact:phone": "+48 122831156",
                "contact:email": "spalwernia@alwernia.pl",
                "contact:website": "http:\/\/www.spalwernia.pl",
                "ref:regon": "000703747",
                "operator": "Gmina Alwernia",
                "operator:type": "government",
                "amenity": "school"
            }
        },
        {
            "id": 62037,
            "type": "Feature",
            "geometry": {
                "type": "Point",
                "coordinates": [
                    19.49472,
                    50.06623
                ]
            },
            "properties": {
                "isced:level": "1;2",
                "ref:rspo": 62037,
                "official_name": "Szko\u0142a Podstawowa im. J\u00f3zefa Patelskiego w Kwaczale",
                "name": "Szko\u0142a Podstawowa",
                "addr:country": "PL",
                "addr:postcode": "32-566",
                "addr:city": "Kwacza\u0142a",
                "addr:street": "Jana Paw\u0142a II",
                "addr:housenumber": "2",
                "addr:teryt:simc": 314543,
                "addr:teryt:sym_ul": 7123,
                "contact:phone": "+48 122828007",
                "contact:email": "spkwaczala@alwernia.pl",
                "contact:website": "http:\/\/www.spkwaczala.pl",
                "ref:regon": "001233663",
                "operator": "Gmina Alwernia",
                "operator:type": "government",
                "amenity": "school"
            }
        },
        {
            "id": 29982,
            "type": "Feature",
            "geometry": {
                "type": "Point",
                "coordinates": [
                    19.49383,
                    50.06707
                ]
            },
            "properties": {
                "ref:rspo": 29982,
                "official_name": "Przedszkole Samorz\u0105dowe \"Fantazja\" w Kwaczale",
                "name": "Przedszkole Samorz\u0105dowe \"Fantazja\" w Kwaczale",
                "addr:country": "PL",
                "addr:postcode": "32-566",
                "addr:city": "Kwacza\u0142a",
                "addr:street": "Jana Paw\u0142a II",
                "addr:housenumber": "45",
                "addr:teryt:simc": 314543,
                "addr:teryt:sym_ul": 7123,
                "contact:phone": "+48 122828202",
                "contact:email": "pskwaczala@alwernia.pl",
                "contact:website": "http:\/\/www.przedszkole-kwaczala.pl",
                "ref:regon": "350530882",
                "ref:vatin": "PL6282012565",
                "operator": "Gmina Alwernia",
                "operator:type": "government",
                "amenity": "kindergarten"
            }
        },
        {
            "id": 29196,
            "type": "Feature",
            "geometry": {
                "type": "Point",
                "coordinates": [
                    19.53193,
                    50.08488
                ]
            },
            "properties": {
                "isced:level": "1;2",
                "ref:rspo": 29196,
                "official_name": "Szko\u0142a Podstawowa im. Tadeusza Ko\u015bciuszki w Regulicach",
                "name": "Szko\u0142a Podstawowa",
                "addr:country": "PL",
                "addr:postcode": "32-566",
                "addr:city": "Regulice",
                "addr:street": "Aleja Jana Paw\u0142a II",
                "addr:housenumber": "10",
                "addr:teryt:simc": 314780,
                "addr:teryt:sym_ul": 7120,
                "contact:phone": "+48 122831802",
                "contact:email": "spregulice@alwernia.pl",
                "contact:website": "http:\/\/www.spregulice.cba.pl",
                "ref:regon": "001233692",
                "operator": "Gmina Alwernia",
                "operator:type": "government",
                "amenity": "school"
            }
        },
        {
            "id": 30055,
            "type": "Feature",
            "geometry": {
                "type": "Point",
                "coordinates": [
                    19.53268,
                    50.08648
                ]
            },
            "properties": {
                "ref:rspo": 30055,
                "official_name": "Przedszkole Samorz\u0105dowe \"Dzieci\u0119ca Akademia\" w Regulicach",
                "name": "Przedszkole Samorz\u0105dowe \"Dzieci\u0119ca Akademia\" w Regulicach",
                "addr:country": "PL",
                "addr:postcode": "32-566",
                "addr:city": "Regulice",
                "addr:street": "Kijowska",
                "addr:housenumber": "2",
                "addr:teryt:simc": 314780,
                "addr:teryt:sym_ul": 8427,
                "contact:phone": "+48 122831569",
                "contact:email": "psregulice@alwernia.pl",
                "contact:website": "http:\/\/www.psregulice.szkolnastrona.pl",
                "ref:regon": "350530876",
                "ref:vatin": "PL6282013731",
                "operator": "Gmina Alwernia",
                "operator:type": "government",
                "amenity": "kindergarten"
            }
        },
        {
            "id": 47657,
            "type": "Feature",
            "geometry": {
                "type": "Point",
                "coordinates": [
                    19.3289939,
                    50.1049992
                ]
            },
            "properties": {
                "isced:level": "1;2",
                "ref:rspo": 47657,
                "official_name": "Szko\u0142a Podstawowa im. Szarych Szereg\u00f3w w Grojcu",
                "name": "Szko\u0142a Podstawowa",
                "addr:country": "PL",
                "addr:postcode": "32-566",
                "addr:city": "Grojec",
                "addr:street": "Bartosza G\u0142owackiego",
                "addr:housenumber": "11",
                "addr:teryt:simc": 314514,
                "addr:teryt:sym_ul": 5627,
                "contact:phone": "+48 122831150",
                "contact:email": "spgrojec@alwernia.pl",
                "contact:website": "http:\/\/www.spgrojec.nsf.pl",
                "ref:regon": "001233657",
                "operator": "Gmina Alwernia",
                "operator:type": "government",
                "amenity": "school"
            }
        }
    ]
}