{
    "type": "FeatureCollection",
    "features": [
        {
            "id": 30701,
            "type": "Feature",
            "geometry": {
                "type": "Point",
                "coordinates": [
                    19.2845799,
                    50.05494
                ]
            },
            "properties": {
                "ref:rspo": 30701,
                "official_name": "Zesp\u00f3\u0142 Szkolno-Przedszkolny im. Marii Konopnickiej w Gromcu",
                "name": "Zesp\u00f3\u0142 Szkolno-Przedszkolny",
                "addr:country": "PL",
                "addr:postcode": "32-590",
                "addr:city": "Gromiec",
                "addr:street": "Husarska",
                "addr:housenumber": "2",
                "addr:teryt:simc": 6815,
                "addr:teryt:sym_ul": 215841,
                "contact:phone": "+48 338777703",
                "contact:email": "zspg@libiaz.pl",
                "contact:website": "http:\/\/www.zspg.libiaz.pl",
                "ref:regon": "356034470",
                "ref:vatin": "PL6281996909",
                "operator": "Gmina Libi\u0105\u017c",
                "operator:type": "government",
                "landuse": "education",
                "fixme": "amenity=school, amenity=college albo landuse=education w zale\u017cno\u015bci od tego, jakie plac\u00f3wki wchodz\u0105 w sk\u0142ad zespo\u0142u. Sprawd\u017a, kiedy stosowa\u0107 amenity=* a kiedy landuse=education.",
                "note": "Children RSPO: 42831;42835"
            }
        },
        {
            "id": 42831,
            "type": "Feature",
            "geometry": {
                "type": "Point",
                "coordinates": [
                    19.2845799,
                    50.05491
                ]
            },
            "properties": {
                "ref:rspo": 42831,
                "official_name": "Przedszkole Samorz\u0105dowe w Gromcu",
                "name": "Przedszkole Samorz\u0105dowe w Gromcu",
                "addr:country": "PL",
                "addr:postcode": "32-590",
                "addr:city": "Gromiec",
                "addr:street": "Husarska",
                "addr:housenumber": "2",
                "addr:teryt:simc": 6815,
                "addr:teryt:sym_ul": 215841,
                "contact:phone": "+48 338777703",
                "contact:email": "zspg@libiaz.pl",
                "contact:website": "http:\/\/www.zspg.libiaz.pl",
                "ref:regon": "356035072",
                "ref:vatin": "PL6281996884",
                "operator": "Gmina Libi\u0105\u017c",
                "operator:type": "government",
                "amenity": "kindergarten",
                "note": "Parent RSPO: 30701"
            }
        },
        {
            "id": 42835,
            "type": "Feature",
            "geometry": {
                "type": "Point",
                "coordinates": [
                    19.2845799,
                    50.054880000000004
                ]
            },
            "properties": {
                "isced:level": "1;2",
                "ref:rspo": 42835,
                "official_name": "Szko\u0142a Podstawowa w Gromcu",
                "name": "Szko\u0142a Podstawowa w Gromcu",
                "addr:country": "PL",
                "addr:postcode": "32-590",
                "addr:city": "Gromiec",
                "addr:street": "Husarska",
                "addr:housenumber": "2",
                "addr:teryt:simc": 6815,
                "addr:teryt:sym_ul": 215841,
                "contact:phone": "+48 338777703",
                "contact:email": "zspg@libiaz.pl",
                "contact:website": "http:\/\/www.zspg.libiaz.pl",
                "ref:regon": "001205939",
                "ref:vatin": "PL6281996890",
                "operator": "Gmina Libi\u0105\u017c",
                "operator:type": "government",
                "amenity": "school",
                "note": "Parent RSPO: 30701"
            }
        },
        {
            "id": 40707,
            "type": "Feature",
            "geometry": {
                "type": "Point",
                "coordinates": [
                    19.3526451,
                    50.0835694
                ]
            },
            "properties": {
                "ref:rspo": 40707,
                "official_name": "Zesp\u00f3\u0142 Szk\u00f3\u0142 w \u017barkach",
                "name": "Zesp\u00f3\u0142 Szk\u00f3\u0142 w \u017barkach",
                "addr:country": "PL",
                "addr:postcode": "32-593",
                "addr:city": "\u017barki",
                "addr:street": "Astronaut\u00f3w",
                "addr:housenumber": "3",
                "addr:teryt:simc": 472,
                "addr:teryt:sym_ul": 215893,
                "contact:phone": "+48 326272114",
                "contact:email": "zsz@libiaz.pl",
                "contact:website": "http:\/\/www.szkolazarki.edupage.org",
                "ref:regon": "356556820",
                "ref:vatin": "PL6282028721",
                "operator": "Gmina Libi\u0105\u017c",
                "operator:type": "government",
                "landuse": "education",
                "fixme": "amenity=school, amenity=college albo landuse=education w zale\u017cno\u015bci od tego, jakie plac\u00f3wki wchodz\u0105 w sk\u0142ad zespo\u0142u. Sprawd\u017a, kiedy stosowa\u0107 amenity=* a kiedy landuse=education.",
                "note": "Children RSPO: 52664;52666"
            }
        },
        {
            "id": 52664,
            "type": "Feature",
            "geometry": {
                "type": "Point",
                "coordinates": [
                    19.3526451,
                    50.0835394
                ]
            },
            "properties": {
                "ref:rspo": 52664,
                "official_name": "Przedszkole Samorz\u0105dowe w \u017barkach",
                "name": "Przedszkole Samorz\u0105dowe w \u017barkach",
                "addr:country": "PL",
                "addr:postcode": "32-593",
                "addr:city": "\u017barki",
                "addr:street": "Astronaut\u00f3w",
                "addr:housenumber": "3",
                "addr:teryt:simc": 472,
                "addr:teryt:sym_ul": 215893,
                "contact:phone": "+48 326272114",
                "contact:email": "zsz@libiaz.pl",
                "contact:website": "http:\/\/www.szkolazarki.edupage.org",
                "ref:regon": "272001520",
                "ref:vatin": "PL6281996766",
                "operator": "Gmina Libi\u0105\u017c",
                "operator:type": "government",
                "amenity": "kindergarten",
                "note": "Parent RSPO: 40707"
            }
        },
        {
            "id": 52666,
            "type": "Feature",
            "geometry": {
                "type": "Point",
                "coordinates": [
                    19.3526451,
                    50.083509400000004
                ]
            },
            "properties": {
                "isced:level": "1;2",
                "ref:rspo": 52666,
                "official_name": "Szko\u0142a Podstawowa w \u017barkach",
                "name": "Szko\u0142a Podstawowa w \u017barkach",
                "addr:country": "PL",
                "addr:postcode": "32-593",
                "addr:city": "\u017barki",
                "addr:street": "Astronaut\u00f3w",
                "addr:housenumber": "3",
                "addr:teryt:simc": 472,
                "addr:teryt:sym_ul": 215893,
                "contact:phone": "+48 326272114",
                "contact:email": "zsz@libiaz.pl",
                "contact:website": "http:\/\/www.szkolazarki.edupage.org",
                "ref:regon": "001205922",
                "ref:vatin": "PL6281996861",
                "operator": "Gmina Libi\u0105\u017c",
                "operator:type": "government",
                "amenity": "school",
                "note": "Parent RSPO: 40707"
            }
        },
        {
            "id": 29974,
            "type": "Feature",
            "geometry": {
                "type": "Point",
                "coordinates": [
                    19.32411,
                    50.09903
                ]
            },
            "properties": {
                "isced:level": "1;2",
                "ref:rspo": 29974,
                "official_name": "Szko\u0142a Podstawowa Nr 3 im. Flagi Polski w Libi\u0105\u017cu",
                "name": "Szko\u0142a Podstawowa Nr 3",
                "addr:country": "PL",
                "addr:postcode": "32-590",
                "addr:city": "Libi\u0105\u017c",
                "addr:street": "\u015awi\u0119tej Barbary",
                "addr:housenumber": "5",
                "addr:teryt:simc": 40651,
                "addr:teryt:sym_ul": 940938,
                "contact:phone": "+48 326277336",
                "contact:email": "sp3@libiaz.pl",
                "contact:website": "http:\/\/www.sp3.libiaz.pl",
                "ref:regon": "000736511",
                "ref:vatin": "PL6281996915",
                "operator": "Gmina Libi\u0105\u017c",
                "operator:type": "government",
                "amenity": "school"
            }
        },
        {
            "id": 29543,
            "type": "Feature",
            "geometry": {
                "type": "Point",
                "coordinates": [
                    19.30565,
                    50.09948
                ]
            },
            "properties": {
                "isced:level": "1;2",
                "ref:rspo": 29543,
                "official_name": "Szko\u0142a Podstawowa Nr 2 im. B\u0142. Jana Paw\u0142a II w Libi\u0105\u017cu",
                "name": "Szko\u0142a Podstawowa Nr 2",
                "addr:country": "PL",
                "addr:postcode": "32-590",
                "addr:city": "Libi\u0105\u017c",
                "addr:street": "Plac Zwyci\u0119stwa",
                "addr:housenumber": "2",
                "addr:teryt:simc": 41645,
                "addr:teryt:sym_ul": 940938,
                "contact:phone": "+48 326271222",
                "contact:email": "sp2@libiaz.pl",
                "contact:website": "https:\/\/sp2libiaz.edupage.org\/",
                "ref:regon": "001205916",
                "ref:vatin": "PL6281996878",
                "operator": "Gmina Libi\u0105\u017c",
                "operator:type": "government",
                "amenity": "school"
            }
        },
        {
            "id": 41643,
            "type": "Feature",
            "geometry": {
                "type": "Point",
                "coordinates": [
                    19.30565,
                    50.09945
                ]
            },
            "properties": {
                "ref:rspo": 41643,
                "official_name": "Przedszkole Samorz\u0105dowe Nr 1 Z Oddzia\u0142ami Integracyjnymi w Libi\u0105\u017cu",
                "name": "Przedszkole Samorz\u0105dowe Nr 1 Z Oddzia\u0142ami Integracyjnymi w Libi\u0105\u017cu",
                "addr:country": "PL",
                "addr:postcode": "32-590",
                "addr:city": "Libi\u0105\u017c",
                "addr:street": "Plac Zwyci\u0119stwa",
                "addr:housenumber": "2",
                "addr:teryt:simc": 41645,
                "addr:teryt:sym_ul": 940938,
                "contact:phone": "+48 326271424",
                "contact:email": "ps1@libiaz.pl",
                "contact:website": "http:\/\/www.ps1.libiaz.pl",
                "ref:regon": "272001483",
                "ref:vatin": "PL6281996832",
                "operator": "Gmina Libi\u0105\u017c",
                "operator:type": "government",
                "amenity": "kindergarten"
            }
        },
        {
            "id": 72877,
            "type": "Feature",
            "geometry": {
                "type": "Point",
                "coordinates": [
                    19.33073,
                    50.10017
                ]
            },
            "properties": {
                "ref:rspo": 72877,
                "official_name": "Zesp\u00f3\u0142 Szk\u00f3\u0142 w Libi\u0105\u017cu",
                "name": "Zesp\u00f3\u0142 Szk\u00f3\u0142 w Libi\u0105\u017cu",
                "addr:country": "PL",
                "addr:postcode": "32-590",
                "addr:city": "Libi\u0105\u017c",
                "addr:street": "G\u00f3rnicza",
                "addr:housenumber": "3",
                "addr:teryt:simc": 5962,
                "addr:teryt:sym_ul": 940938,
                "contact:email": "sekretariatzs@interia.pl",
                "contact:website": "http:\/\/www.zs.libiaz.pl",
                "ref:regon": "000024236",
                "ref:vatin": "PL6281672555",
                "operator": "Powiat Chrzanowski",
                "operator:type": "government",
                "landuse": "education",
                "fixme": "amenity=school, amenity=college albo landuse=education w zale\u017cno\u015bci od tego, jakie plac\u00f3wki wchodz\u0105 w sk\u0142ad zespo\u0142u. Sprawd\u017a, kiedy stosowa\u0107 amenity=* a kiedy landuse=education.",
                "note": "Children RSPO: 105110;105111;105497;126814"
            }
        },
        {
            "id": 105110,
            "type": "Feature",
            "geometry": {
                "type": "Point",
                "coordinates": [
                    19.33073,
                    50.100139999999996
                ]
            },
            "properties": {
                "isced:level": "3",
                "ref:rspo": 105110,
                "official_name": "Technikum im. Marsza\u0142ka J\u00f3zefa Pi\u0142sudskiego w Libi\u0105\u017cu",
                "name": "Technikum",
                "addr:country": "PL",
                "addr:postcode": "32-590",
                "addr:city": "Libi\u0105\u017c",
                "addr:street": "G\u00f3rnicza",
                "addr:housenumber": "3",
                "addr:teryt:simc": 5962,
                "addr:teryt:sym_ul": 940938,
                "contact:phone": "+48 326277961",
                "contact:email": "sekretariatzs@interia.pl",
                "contact:website": "http:\/\/www.zs.libiaz.pl",
                "ref:regon": "356589988",
                "operator": "Powiat Chrzanowski",
                "operator:type": "government",
                "amenity": "school",
                "note": "Parent RSPO: 72877"
            }
        },
        {
            "id": 105111,
            "type": "Feature",
            "geometry": {
                "type": "Point",
                "coordinates": [
                    19.33073,
                    50.10011
                ]
            },
            "properties": {
                "isced:level": "3",
                "ref:rspo": 105111,
                "official_name": "Liceum Og\u00f3lnokszta\u0142c\u0105ce w Libi\u0105\u017cu",
                "name": "Liceum Og\u00f3lnokszta\u0142c\u0105ce w Libi\u0105\u017cu",
                "addr:country": "PL",
                "addr:postcode": "32-590",
                "addr:city": "Libi\u0105\u017c",
                "addr:street": "G\u00f3rnicza",
                "addr:housenumber": "3",
                "addr:teryt:simc": 5962,
                "addr:teryt:sym_ul": 940938,
                "contact:phone": "+48 326277961",
                "contact:email": "sekretariatzs@interia.pl",
                "contact:website": "http:\/\/www.zs.libiaz.pl",
                "ref:regon": "356589942",
                "operator": "Powiat Chrzanowski",
                "operator:type": "government",
                "amenity": "school",
                "note": "Parent RSPO: 72877"
            }
        },
        {
            "id": 105497,
            "type": "Feature",
            "geometry": {
                "type": "Point",
                "coordinates": [
                    19.33073,
                    50.10008
                ]
            },
            "properties": {
                "isced:level": "4",
                "ref:rspo": 105497,
                "official_name": "Szko\u0142a Policealna w Libi\u0105\u017cu",
                "name": "Szko\u0142a Policealna w Libi\u0105\u017cu",
                "addr:country": "PL",
                "addr:postcode": "32-590",
                "addr:city": "Libi\u0105\u017c",
                "addr:street": "G\u00f3rnicza",
                "addr:housenumber": "3",
                "addr:teryt:simc": 5962,
                "addr:teryt:sym_ul": 940938,
                "contact:phone": "+48 326277961",
                "contact:email": "sekretariatzs@interia.pl",
                "contact:website": "http:\/\/www.zs.libiaz.pl",
                "ref:regon": "356350141",
                "operator": "Powiat Chrzanowski",
                "operator:type": "government",
                "amenity": "college",
                "note": "Parent RSPO: 72877"
            }
        },
        {
            "id": 126814,
            "type": "Feature",
            "geometry": {
                "type": "Point",
                "coordinates": [
                    19.33073,
                    50.100049999999996
                ]
            },
            "properties": {
                "isced:level": "3",
                "ref:rspo": 126814,
                "official_name": "Bran\u017cowa Szko\u0142a I Stopnia w Libi\u0105\u017cu",
                "name": "Bran\u017cowa Szko\u0142a I Stopnia w Libi\u0105\u017cu",
                "addr:country": "PL",
                "addr:postcode": "32-590",
                "addr:city": "Libi\u0105\u017c",
                "addr:street": "G\u00f3rnicza",
                "addr:housenumber": "3",
                "addr:teryt:simc": 5962,
                "addr:teryt:sym_ul": 940938,
                "contact:phone": "+48 326277961",
                "contact:email": "sekretariatzs@interia.pl",
                "contact:website": "http:\/\/www.zs.libiaz.pl",
                "ref:regon": "360765471",
                "operator": "Powiat Chrzanowski",
                "operator:type": "government",
                "amenity": "school",
                "note": "Parent RSPO: 72877"
            }
        },
        {
            "id": 29691,
            "type": "Feature",
            "geometry": {
                "type": "Point",
                "coordinates": [
                    19.32847,
                    50.10039
                ]
            },
            "properties": {
                "ref:rspo": 29691,
                "official_name": "Przedszkole Samorz\u0105dowe Nr 2 w Libi\u0105\u017cu",
                "name": "Przedszkole Samorz\u0105dowe Nr 2 w Libi\u0105\u017cu",
                "addr:country": "PL",
                "addr:postcode": "32-590",
                "addr:city": "Libi\u0105\u017c",
                "addr:street": "Przedszkolna",
                "addr:housenumber": "10",
                "addr:teryt:simc": 17683,
                "addr:teryt:sym_ul": 940938,
                "contact:phone": "+48 513426011",
                "contact:email": "ps2@libiaz.pl",
                "ref:regon": "272001490",
                "ref:vatin": "PL6281996772",
                "operator": "Gmina Libi\u0105\u017c",
                "operator:type": "government",
                "amenity": "kindergarten"
            }
        },
        {
            "id": 277939,
            "type": "Feature",
            "geometry": {
                "type": "Point",
                "coordinates": [
                    19.31552,
                    50.10324
                ]
            },
            "properties": {
                "ref:rspo": 277939,
                "official_name": "Zesp\u00f3\u0142 Szkolno-Przedszkolny Nr 2 w Libi\u0105\u017cu",
                "name": "Zesp\u00f3\u0142 Szkolno-Przedszkolny Nr 2 w Libi\u0105\u017cu",
                "addr:country": "PL",
                "addr:postcode": "32-590",
                "addr:city": "Libi\u0105\u017c",
                "addr:street": "Szkolna",
                "addr:housenumber": "1",
                "addr:teryt:simc": 21970,
                "addr:teryt:sym_ul": 940938,
                "contact:phone": "+48 326271213",
                "contact:email": "sp1@libiaz.pl",
                "ref:regon": "389687797",
                "operator": "Gmina Libi\u0105\u017c",
                "operator:type": "government",
                "landuse": "education",
                "fixme": "amenity=school, amenity=college albo landuse=education w zale\u017cno\u015bci od tego, jakie plac\u00f3wki wchodz\u0105 w sk\u0142ad zespo\u0142u. Sprawd\u017a, kiedy stosowa\u0107 amenity=* a kiedy landuse=education.",
                "note": "Children RSPO: 29977;262499"
            }
        },
        {
            "id": 29977,
            "type": "Feature",
            "geometry": {
                "type": "Point",
                "coordinates": [
                    19.31552,
                    50.10321
                ]
            },
            "properties": {
                "ref:rspo": 29977,
                "official_name": "Przedszkole Samorz\u0105dowe Nr 4 im. Kubusia Puchatka w Libi\u0105\u017cu",
                "name": "Przedszkole Samorz\u0105dowe Nr 4",
                "addr:country": "PL",
                "addr:postcode": "32-590",
                "addr:city": "Libi\u0105\u017c",
                "addr:street": "Szkolna",
                "addr:housenumber": "1",
                "addr:teryt:simc": 21970,
                "addr:teryt:sym_ul": 940938,
                "contact:phone": "+48 326277792",
                "contact:email": "ps4@libiaz.pl",
                "ref:regon": "272001514",
                "ref:vatin": "PL6281996795",
                "operator": "Gmina Libi\u0105\u017c",
                "operator:type": "government",
                "amenity": "kindergarten",
                "note": "Parent RSPO: 277939"
            }
        },
        {
            "id": 262499,
            "type": "Feature",
            "geometry": {
                "type": "Point",
                "coordinates": [
                    19.31552,
                    50.10318
                ]
            },
            "properties": {
                "isced:level": "1;2",
                "ref:rspo": 262499,
                "official_name": "Szko\u0142a Podstawowa Nr 1 im. Jana III Sobieskiego w Libi\u0105\u017cu",
                "name": "Szko\u0142a Podstawowa Nr 1",
                "addr:country": "PL",
                "addr:postcode": "32-590",
                "addr:city": "Libi\u0105\u017c",
                "addr:street": "Szkolna",
                "addr:housenumber": "1",
                "addr:teryt:simc": 21970,
                "addr:teryt:sym_ul": 940938,
                "contact:phone": "+48 326271213",
                "contact:email": "sp1@libiaz.pl",
                "contact:website": "http:\/\/www.sp1libiaz.edupage.org",
                "ref:regon": "368022108",
                "operator": "Gmina Libi\u0105\u017c",
                "operator:type": "government",
                "amenity": "school",
                "note": "Parent RSPO: 277939"
            }
        },
        {
            "id": 40871,
            "type": "Feature",
            "geometry": {
                "type": "Point",
                "coordinates": [
                    19.32072,
                    50.10342
                ]
            },
            "properties": {
                "ref:rspo": 40871,
                "official_name": "Niepubliczne Przedszkole \"Dreptusie\" w Libi\u0105\u017cu",
                "name": "Niepubliczne Przedszkole \"Dreptusie\" w Libi\u0105\u017cu",
                "addr:country": "PL",
                "addr:postcode": "32-590",
                "addr:city": "Libi\u0105\u017c",
                "addr:street": "Ignacego Paderewskiego",
                "addr:housenumber": "6",
                "addr:teryt:simc": 15529,
                "addr:teryt:sym_ul": 940938,
                "contact:phone": "+48 504264834",
                "contact:email": "przedszkole.dreptusie@gmail.com",
                "ref:regon": "122687198",
                "ref:vatin": "PL6281046757",
                "operator": "Renata Kowalska",
                "operator:type": "private",
                "amenity": "kindergarten"
            }
        },
        {
            "id": 270448,
            "type": "Feature",
            "geometry": {
                "type": "Point",
                "coordinates": [
                    19.32381,
                    50.1034999
                ]
            },
            "properties": {
                "ref:rspo": 270448,
                "official_name": "Zesp\u00f3\u0142 Szkolno-Przedszkolny Z Oddzia\u0142ami Integracyjnymi w Libi\u0105\u017cu",
                "name": "Zesp\u00f3\u0142 Szkolno-Przedszkolny Z Oddzia\u0142ami Integracyjnymi w Libi\u0105\u017cu",
                "addr:country": "PL",
                "addr:postcode": "32-590",
                "addr:city": "Libi\u0105\u017c",
                "addr:street": "Ignacego Paderewskiego",
                "addr:housenumber": "2",
                "addr:teryt:simc": 15529,
                "addr:teryt:sym_ul": 940938,
                "contact:phone": "+48 326271203",
                "contact:email": "zspzoi@libiaz.pl",
                "contact:website": "http:\/\/sp4libiaz.aanet.pl",
                "ref:regon": "382587621",
                "operator": "Gmina Libi\u0105\u017c",
                "operator:type": "government",
                "landuse": "education",
                "fixme": "amenity=school, amenity=college albo landuse=education w zale\u017cno\u015bci od tego, jakie plac\u00f3wki wchodz\u0105 w sk\u0142ad zespo\u0142u. Sprawd\u017a, kiedy stosowa\u0107 amenity=* a kiedy landuse=education.",
                "note": "Children RSPO: 44030;270449"
            }
        },
        {
            "id": 44030,
            "type": "Feature",
            "geometry": {
                "type": "Point",
                "coordinates": [
                    19.32381,
                    50.1034699
                ]
            },
            "properties": {
                "isced:level": "1;2",
                "ref:rspo": 44030,
                "official_name": "Szko\u0142a Podstawowa Nr 4 Z Oddzia\u0142ami Integracyjnymi im. Ignacego Jana Paderewskiego w Libi\u0105\u017cu",
                "name": "Szko\u0142a Podstawowa Nr 4 Z Oddzia\u0142ami Integracyjnymi",
                "addr:country": "PL",
                "addr:postcode": "32-590",
                "addr:city": "Libi\u0105\u017c",
                "addr:street": "Ignacego Paderewskiego",
                "addr:housenumber": "2",
                "addr:teryt:simc": 15529,
                "addr:teryt:sym_ul": 940938,
                "contact:phone": "+48 326271203",
                "contact:email": "zspzoi@libiaz.pl",
                "contact:website": "http:\/\/sp4libiaz.aanet.pl",
                "ref:regon": "270642516",
                "ref:vatin": "PL6282248003",
                "operator": "Gmina Libi\u0105\u017c",
                "operator:type": "government",
                "amenity": "school",
                "note": "Parent RSPO: 270448"
            }
        },
        {
            "id": 270449,
            "type": "Feature",
            "geometry": {
                "type": "Point",
                "coordinates": [
                    19.32381,
                    50.103439900000005
                ]
            },
            "properties": {
                "ref:rspo": 270449,
                "official_name": "Przedszkole Samorz\u0105dowe Nr 3 Z Oddzia\u0142ami Integracyjnymi w Libi\u0105\u017cu",
                "name": "Przedszkole Samorz\u0105dowe Nr 3 Z Oddzia\u0142ami Integracyjnymi w Libi\u0105\u017cu",
                "addr:country": "PL",
                "addr:postcode": "32-590",
                "addr:city": "Libi\u0105\u017c",
                "addr:street": "Ignacego Paderewskiego",
                "addr:housenumber": "2",
                "addr:teryt:simc": 15529,
                "addr:teryt:sym_ul": 940938,
                "contact:phone": "+48 326271203",
                "contact:email": "zspzoi@libiaz.pl",
                "contact:website": "http:\/\/sp4libiaz.aanet.pl",
                "ref:regon": "382587667",
                "operator": "Gmina Libi\u0105\u017c",
                "operator:type": "government",
                "amenity": "kindergarten",
                "note": "Parent RSPO: 270448"
            }
        },
        {
            "id": 106303,
            "type": "Feature",
            "geometry": {
                "type": "Point",
                "coordinates": [
                    19.33042,
                    50.1068
                ]
            },
            "properties": {
                "ref:rspo": 106303,
                "official_name": "Zesp\u00f3\u0142 Szk\u00f3\u0142 Katolickiego Stowarzyszenia Wychowawc\u00f3w w Libi\u0105\u017cu",
                "name": "Zesp\u00f3\u0142 Szk\u00f3\u0142 Katolickiego Stowarzyszenia Wychowawc\u00f3w w Libi\u0105\u017cu",
                "addr:country": "PL",
                "addr:postcode": "32-590",
                "addr:city": "Libi\u0105\u017c",
                "addr:street": "Heleny Kmie\u0107",
                "addr:housenumber": "2",
                "addr:teryt:simc": 52068,
                "addr:teryt:sym_ul": 940938,
                "contact:phone": "+48 326271189",
                "contact:email": "sekretariat@libiaz.ksw.pl",
                "contact:website": "http:\/\/www.libiaz.ksw.pl",
                "ref:regon": "122760044",
                "ref:vatin": "PL6282266188",
                "operator": "Katolickie Stowarzyszenie Wychowawc\u00f3w Oddzia\u0142 W Libi\u0105\u017cu",
                "operator:type": "ngo",
                "landuse": "education",
                "fixme": "amenity=school, amenity=college albo landuse=education w zale\u017cno\u015bci od tego, jakie plac\u00f3wki wchodz\u0105 w sk\u0142ad zespo\u0142u. Sprawd\u017a, kiedy stosowa\u0107 amenity=* a kiedy landuse=education.",
                "note": "Children RSPO: 35162;81234"
            }
        },
        {
            "id": 35162,
            "type": "Feature",
            "geometry": {
                "type": "Point",
                "coordinates": [
                    19.33042,
                    50.10677
                ]
            },
            "properties": {
                "isced:level": "1;2",
                "ref:rspo": 35162,
                "official_name": "Szko\u0142a Podstawowa im. Ks. Stefana Kard. Wyszy\u0144skiego Katolickiego Stowarzyszenia Wychowawc\u00f3w",
                "name": "Szko\u0142a Podstawowa",
                "addr:country": "PL",
                "addr:postcode": "32-590",
                "addr:city": "Libi\u0105\u017c",
                "addr:street": "Heleny Kmie\u0107",
                "addr:housenumber": "2",
                "addr:teryt:simc": 52068,
                "addr:teryt:sym_ul": 940938,
                "contact:phone": "+48 326271189",
                "contact:email": "sekretariat@libiaz.ksw.pl",
                "ref:regon": "122698173",
                "operator": "Katolickie Stowarzyszenie Wychowawc\u00f3w Oddzia\u0142 W Libi\u0105\u017cu",
                "operator:type": "ngo",
                "amenity": "school",
                "note": "Parent RSPO: 106303"
            }
        },
        {
            "id": 81234,
            "type": "Feature",
            "geometry": {
                "type": "Point",
                "coordinates": [
                    19.33042,
                    50.10674
                ]
            },
            "properties": {
                "isced:level": "3",
                "ref:rspo": 81234,
                "official_name": "Liceum Og\u00f3lnokszta\u0142c\u0105ce im. Ks. Stefana Kardyna\u0142a Wyszy\u0144skiego Katolickiego Stowarzyszenia Wychowawc\u00f3w",
                "name": "Liceum Og\u00f3lnokszta\u0142c\u0105ce",
                "addr:country": "PL",
                "addr:postcode": "32-590",
                "addr:city": "Libi\u0105\u017c",
                "addr:street": "Heleny Kmie\u0107",
                "addr:housenumber": "2",
                "addr:teryt:simc": 52068,
                "addr:teryt:sym_ul": 940938,
                "contact:phone": "+48 326271189",
                "contact:email": "sekretariat@libiaz.ksw.pl",
                "contact:website": "http:\/\/www.libiaz.ksw.pl",
                "ref:regon": "122709899",
                "operator": "Katolickie Stowarzyszenie Wychowawc\u00f3w Oddzia\u0142 W Libi\u0105\u017cu",
                "operator:type": "ngo",
                "amenity": "school",
                "note": "Parent RSPO: 106303"
            }
        }
    ]
}