{"type":"FeatureCollection","features":[{"id":103436,"type":"Feature","geometry":{"type":"Point","coordinates":[19.49374,50.04558]},"properties":{"isced:level":"1;2","ref:rspo":103436,"official_name":"Szko\u0142a Podstawowa im. Bohater\u00f3w Westerplatte w Rozkochowie","name":"Szko\u0142a Podstawowa","addr:country":"PL","addr:postcode":"32-551","addr:city":"Rozkoch\u00f3w","addr:street":"ul. Chemik\u00f3w","addr:housenumber":"4","addr:teryt:simc":2714,"addr:teryt:sym_ul":211961,"contact:phone":"+48 326134032","contact:email":"sprozkochow@babice.pl","ref:regon":"001192651","ref:vatin":"PL6282012602","operator":"Gmina Babice","operator:type":"government","amenity":"school"}},{"id":109865,"type":"Feature","geometry":{"type":"Point","coordinates":[19.44788,50.04585]},"properties":{"isced:level":"1;2","ref:rspo":109865,"official_name":"Szko\u0142a Podstawowa im. Ks. Jana Twardowskiego","name":"Szko\u0142a Podstawowa","addr:country":"PL","addr:postcode":"32-551","addr:city":"Jankowice","addr:street":"ul. Stanis\u0142awa Staszica","addr:housenumber":"5","addr:teryt:simc":21071,"addr:teryt:sym_ul":211843,"contact:phone":"+48 326134005","contact:email":"zsjankowice@interia.pl","contact:website":"http:\/\/zsjankowice.szkolnastrona.pl","ref:regon":"001192674","ref:vatin":"PL6282179839","operator":"Gmina Babice","operator:type":"government","amenity":"school"}},{"id":103434,"type":"Feature","geometry":{"type":"Point","coordinates":[19.38032,50.05074]},"properties":{"ref:rspo":103434,"official_name":"Zesp\u00f3\u0142 Szk\u00f3\u0142 w M\u0119tkowie","name":"Zesp\u00f3\u0142 Szk\u00f3\u0142 w M\u0119tkowie","addr:country":"PL","addr:postcode":"32-551","addr:city":"M\u0119tk\u00f3w","addr:street":"ul. ks. Karola Wojty\u0142y","addr:housenumber":"21","addr:teryt:simc":38919,"addr:teryt:sym_ul":211889,"contact:phone":"+48 326134214","contact:email":"zsmetkow@babice.pl","contact:website":"http:\/\/zsmetkow.iq.pl","ref:regon":"356864704","ref:vatin":"PL6282113349","operator":"Gmina Babice","operator:type":"government","landuse":"education","fixme":"amenity=school, amenity=college albo landuse=education w zale\u017cno\u015bci od tego, jakie plac\u00f3wki wchodz\u0105 w sk\u0142ad zespo\u0142u. Sprawd\u017a, kiedy stosowa\u0107 amenity=* a kiedy landuse=education.","note":"Children RSPO: 109490;119586"}},{"id":109490,"type":"Feature","geometry":{"type":"Point","coordinates":[19.38032,50.050709999999995]},"properties":{"isced:level":"1;2","ref:rspo":109490,"official_name":"Zesp\u00f3\u0142 Szk\u00f3\u0142 w M\u0119tkowie - Szko\u0142a Podstawowa im. Miko\u0142aja Kopernika w M\u0119tkowie","name":"Zesp\u00f3\u0142 Szk\u00f3\u0142 w M\u0119tkowie - Szko\u0142a Podstawowa","addr:country":"PL","addr:postcode":"32-551","addr:city":"M\u0119tk\u00f3w","addr:street":"ul. ks. Karola Wojty\u0142y","addr:housenumber":"21","addr:teryt:simc":38919,"addr:teryt:sym_ul":211889,"contact:phone":"+48 326134214","contact:email":"zsmetkow@babice.pl","contact:website":"http:\/\/www.zsmetkow.iq.pl","ref:regon":"001192668","ref:vatin":"PL6282009959","operator":"Gmina Babice","operator:type":"government","amenity":"school","note":"Parent RSPO: 103434"}},{"id":119586,"type":"Feature","geometry":{"type":"Point","coordinates":[19.38032,50.05068]},"properties":{"ref:rspo":119586,"official_name":"Przedszkole Samorz\u0105dowe w M\u0119tkowie","name":"Przedszkole Samorz\u0105dowe w M\u0119tkowie","addr:country":"PL","addr:postcode":"32-551","addr:city":"M\u0119tk\u00f3w","addr:street":"ul. ks. Karola Wojty\u0142y","addr:housenumber":"21","addr:teryt:simc":38919,"addr:teryt:sym_ul":211889,"contact:phone":"+48 326134214","contact:email":"zsmetkow@babice.pl","ref:regon":"122938105","operator":"Gmina Babice","operator:type":"government","amenity":"kindergarten","note":"Parent RSPO: 103434"}},{"id":55362,"type":"Feature","geometry":{"type":"Point","coordinates":[19.45539,50.0532899]},"properties":{"ref:rspo":55362,"official_name":"Przedszkole Samorz\u0105dowe w Olszynach","name":"Przedszkole Samorz\u0105dowe w Olszynach","addr:country":"PL","addr:postcode":"32-551","addr:city":"Olszyny","addr:street":"ul. Przedszkolna","addr:housenumber":"4","addr:teryt:simc":17683,"addr:teryt:sym_ul":211910,"contact:phone":"+48 326134156","contact:email":"przedszkoleolszyny@onet.pl","ref:regon":"121309287","ref:vatin":"PL6282237353","operator":"Gmina Babice","operator:type":"government","amenity":"kindergarten"}},{"id":103433,"type":"Feature","geometry":{"type":"Point","coordinates":[19.44444,50.07257]},"properties":{"ref:rspo":103433,"official_name":"Zesp\u00f3\u0142 Szk\u00f3\u0142 w Babicach","name":"Zesp\u00f3\u0142 Szk\u00f3\u0142 w Babicach","addr:country":"PL","addr:postcode":"32-551","addr:city":"Babice","addr:street":"ul. Zamkowa","addr:housenumber":"3","addr:teryt:simc":25547,"addr:teryt:sym_ul":211808,"contact:phone":"+48 326134011","contact:email":"pgbabice@wp.pl","ref:regon":"356864733","ref:vatin":"PL6282113332","operator":"Gmina Babice","operator:type":"government","landuse":"education","fixme":"amenity=school, amenity=college albo landuse=education w zale\u017cno\u015bci od tego, jakie plac\u00f3wki wchodz\u0105 w sk\u0142ad zespo\u0142u. Sprawd\u017a, kiedy stosowa\u0107 amenity=* a kiedy landuse=education.","note":"Children RSPO: 62116;109593"}},{"id":62116,"type":"Feature","geometry":{"type":"Point","coordinates":[19.44444,50.07254]},"properties":{"ref:rspo":62116,"official_name":"Przedszkole Samorz\u0105dowe w Babicach","name":"Przedszkole Samorz\u0105dowe w Babicach","addr:country":"PL","addr:postcode":"32-551","addr:city":"Babice","addr:street":"ul. Zamkowa","addr:housenumber":"3","addr:teryt:simc":25547,"addr:teryt:sym_ul":211808,"contact:phone":"+48 326134018","contact:email":"psbabice@babice.pl","ref:regon":"121309235","ref:vatin":"PL6282237347","operator":"Gmina Babice","operator:type":"government","amenity":"kindergarten","note":"Parent RSPO: 103433"}},{"id":109593,"type":"Feature","geometry":{"type":"Point","coordinates":[19.44444,50.07251]},"properties":{"isced:level":"1;2","ref:rspo":109593,"official_name":"Zesp\u00f3\u0142 Szk\u00f3\u0142 w Babicach - Szko\u0142a Podstawowa im. Tadeusza Ko\u015bciuszki w Babicach","name":"Zesp\u00f3\u0142 Szk\u00f3\u0142 w Babicach - Szko\u0142a Podstawowa","addr:country":"PL","addr:postcode":"32-551","addr:city":"Babice","addr:street":"ul. Zamkowa","addr:housenumber":"3","addr:teryt:simc":25547,"addr:teryt:sym_ul":211808,"contact:phone":"+48 326134011","contact:email":"pgbabice@wp.pl","contact:website":"http:\/\/www.zsbabice.szkolnastrona.pl","ref:regon":"000815720","ref:vatin":"PL6282000852","operator":"Gmina Babice","operator:type":"government","amenity":"school","note":"Parent RSPO: 103433"}},{"id":92528,"type":"Feature","geometry":{"type":"Point","coordinates":[19.39931,50.09408]},"properties":{"isced:level":"1;2","ref:rspo":92528,"official_name":"Szko\u0142a Podstawowa w Zag\u00f3rzu im. Ks. Adolfa Chojnackiego","name":"Szko\u0142a Podstawowa w Zag\u00f3rzu","addr:country":"PL","addr:postcode":"32-555","addr:city":"Zag\u00f3rze","addr:street":"ul. Marsza\u0142ka J\u00f3zefa Pi\u0142sudskiego","addr:housenumber":"139","addr:teryt:simc":36029,"addr:teryt:sym_ul":212067,"contact:phone":"+48 326231955","contact:email":"zszagorze1@onet.eu","contact:website":"http:\/\/szkola.zag\u00f3rze.net","ref:regon":"001192645","ref:vatin":"PL6282178975","operator":"Gmina Babice","operator:type":"government","amenity":"school"}},{"id":61494,"type":"Feature","geometry":{"type":"Point","coordinates":[19.39146,50.09771]},"properties":{"ref:rspo":61494,"official_name":"Przedszkole Samorz\u0105dowe w Zag\u00f3rzu","name":"Przedszkole Samorz\u0105dowe w Zag\u00f3rzu","addr:country":"PL","addr:postcode":"32-555","addr:city":"Zag\u00f3rze","addr:street":"ul. \u017belatowa","addr:housenumber":"8","addr:teryt:simc":26431,"addr:teryt:sym_ul":212067,"contact:phone":"+48 326231995","contact:email":"pszagorze@babice.pl","ref:regon":"121309264","ref:vatin":"PL6282237330","operator":"Gmina Babice","operator:type":"government","amenity":"kindergarten"}}]}