{
    "type": "FeatureCollection",
    "features": [
        {
            "id": 68862,
            "type": "Feature",
            "geometry": {
                "type": "Point",
                "coordinates": [
                    19.46529,
                    50.09839
                ]
            },
            "properties": {
                "isced:level": "1;2",
                "ref:rspo": 68862,
                "official_name": "Szko\u0142a Podstawowa im. Wojska Polskiego w P\u0142azie",
                "name": "Szko\u0142a Podstawowa",
                "addr:country": "PL",
                "addr:postcode": "32-552",
                "addr:city": "P\u0142aza",
                "addr:street": "Wiosny Lud\u00f3w",
                "addr:housenumber": "2",
                "addr:teryt:simc": 24369,
                "addr:teryt:sym_ul": 213530,
                "contact:phone": "+48 326131223",
                "contact:email": "spplaza@chrzanow.pl",
                "contact:website": "http:\/\/spplaza.edupage.org",
                "ref:regon": "000726961",
                "ref:vatin": "PL6282202633",
                "operator": "Gmina Chrzan\u00f3w",
                "operator:type": "government",
                "amenity": "school"
            }
        },
        {
            "id": 56622,
            "type": "Feature",
            "geometry": {
                "type": "Point",
                "coordinates": [
                    19.46838,
                    50.1004999
                ]
            },
            "properties": {
                "ref:rspo": 56622,
                "official_name": "Przedszkole Samorz\u0105dowe w P\u0142azie",
                "name": "Przedszkole Samorz\u0105dowe w P\u0142azie",
                "addr:country": "PL",
                "addr:postcode": "32-552",
                "addr:city": "P\u0142aza",
                "addr:street": "Wiosny Lud\u00f3w",
                "addr:housenumber": "16A",
                "addr:teryt:simc": 24369,
                "addr:teryt:sym_ul": 213530,
                "contact:phone": "+48 326131219",
                "contact:email": "psplaza@chrzanow.pl",
                "ref:regon": "270555852",
                "ref:vatin": "PL6281967888",
                "operator": "Gmina Chrzan\u00f3w",
                "operator:type": "government",
                "amenity": "kindergarten"
            }
        },
        {
            "id": 65157,
            "type": "Feature",
            "geometry": {
                "type": "Point",
                "coordinates": [
                    19.41638,
                    50.10625
                ]
            },
            "properties": {
                "isced:level": "1;2",
                "ref:rspo": 65157,
                "official_name": "Szko\u0142a Podstawowa im.\u015bw.franciszka Z Asy\u017cu w Pogorzycach",
                "name": "Szko\u0142a Podstawowa im.\u015bw.franciszka Z Asy\u017cu w Pogorzycach",
                "addr:country": "PL",
                "addr:postcode": "32-501",
                "addr:city": "Pogorzyce",
                "addr:street": "Karola Szymanowskiego",
                "addr:housenumber": "21",
                "addr:teryt:simc": 22238,
                "addr:teryt:sym_ul": 213635,
                "contact:phone": "+48 326227961",
                "contact:email": "edu.vu@interia.pl",
                "ref:regon": "122699296",
                "ref:vatin": "PL6282051105",
                "operator": "Stowarzyszenie \"Nasze Dzieci\"",
                "operator:type": "ngo",
                "amenity": "school"
            }
        },
        {
            "id": 15356,
            "type": "Feature",
            "geometry": {
                "type": "Point",
                "coordinates": [
                    19.39036,
                    50.12706
                ]
            },
            "properties": {
                "ref:rspo": 15356,
                "official_name": "Zesp\u00f3\u0142 Szk\u00f3\u0142 Technicznych ,,Fablok\" w Chrzanowie",
                "name": "Zesp\u00f3\u0142 Szk\u00f3\u0142 Technicznych ,,Fablok\" w Chrzanowie",
                "addr:country": "PL",
                "addr:postcode": "32-500",
                "addr:city": "Chrzan\u00f3w",
                "addr:street": "Fabryczna",
                "addr:housenumber": "27",
                "addr:teryt:simc": 4863,
                "addr:teryt:sym_ul": 938982,
                "contact:phone": "+48 326232609",
                "contact:email": "sekretariat@zstfablok.edu.pl",
                "contact:website": "http:\/\/www.zstfablok.edu.pl",
                "ref:regon": "000188305",
                "ref:vatin": "PL6281036635",
                "operator": "Powiat Chrzanowski",
                "operator:type": "government",
                "landuse": "education",
                "fixme": "amenity=school, amenity=college albo landuse=education w zale\u017cno\u015bci od tego, jakie plac\u00f3wki wchodz\u0105 w sk\u0142ad zespo\u0142u. Sprawd\u017a, kiedy stosowa\u0107 amenity=* a kiedy landuse=education.",
                "note": "Children RSPO: 105101;105103;105105;105107;133235;276074"
            }
        },
        {
            "id": 105101,
            "type": "Feature",
            "geometry": {
                "type": "Point",
                "coordinates": [
                    19.39036,
                    50.12703
                ]
            },
            "properties": {
                "isced:level": "3",
                "ref:rspo": 105101,
                "official_name": "Bran\u017cowa Szko\u0142a I Stopnia Nr 1 w Chrzanowie",
                "name": "Bran\u017cowa Szko\u0142a I Stopnia Nr 1 w Chrzanowie",
                "addr:country": "PL",
                "addr:postcode": "32-500",
                "addr:city": "Chrzan\u00f3w",
                "addr:street": "Fabryczna",
                "addr:housenumber": "27",
                "addr:teryt:simc": 4863,
                "addr:teryt:sym_ul": 938982,
                "contact:phone": "+48 326232609",
                "contact:email": "sekretariat@zstfablok.edu.pl",
                "contact:website": "http:\/\/www.zstfablok.edu.pl",
                "ref:regon": "356581679",
                "operator": "Powiat Chrzanowski",
                "operator:type": "government",
                "amenity": "school",
                "note": "Parent RSPO: 15356"
            }
        },
        {
            "id": 105103,
            "type": "Feature",
            "geometry": {
                "type": "Point",
                "coordinates": [
                    19.39036,
                    50.127
                ]
            },
            "properties": {
                "isced:level": "3",
                "ref:rspo": 105103,
                "official_name": "Technikum Nr 1 w Chrzanowie",
                "name": "Technikum Nr 1 w Chrzanowie",
                "addr:country": "PL",
                "addr:postcode": "32-500",
                "addr:city": "Chrzan\u00f3w",
                "addr:street": "Fabryczna",
                "addr:housenumber": "27",
                "addr:teryt:simc": 4863,
                "addr:teryt:sym_ul": 938982,
                "contact:phone": "+48 326232609",
                "contact:email": "sekretariat@zstfablok.edu.pl",
                "contact:website": "http:\/\/www.zstfablok.edu.pl",
                "ref:regon": "356581700",
                "operator": "Powiat Chrzanowski",
                "operator:type": "government",
                "amenity": "school",
                "note": "Parent RSPO: 15356"
            }
        },
        {
            "id": 105105,
            "type": "Feature",
            "geometry": {
                "type": "Point",
                "coordinates": [
                    19.39036,
                    50.12697
                ]
            },
            "properties": {
                "isced:level": "4",
                "ref:rspo": 105105,
                "official_name": "Szko\u0142a Policealna Nr 1 w Chrzanowie",
                "name": "Szko\u0142a Policealna Nr 1 w Chrzanowie",
                "addr:country": "PL",
                "addr:postcode": "32-500",
                "addr:city": "Chrzan\u00f3w",
                "addr:street": "Fabryczna",
                "addr:housenumber": "27",
                "addr:teryt:simc": 4863,
                "addr:teryt:sym_ul": 938982,
                "contact:phone": "+48 326232609",
                "contact:email": "sekretariat@zstfablok.edu.pl",
                "contact:website": "http:\/\/www.zstfablok.edu.pl",
                "ref:regon": "122277632",
                "operator": "Powiat Chrzanowski",
                "operator:type": "government",
                "amenity": "college",
                "note": "Parent RSPO: 15356"
            }
        },
        {
            "id": 105107,
            "type": "Feature",
            "geometry": {
                "type": "Point",
                "coordinates": [
                    19.39036,
                    50.12694
                ]
            },
            "properties": {
                "isced:level": "3",
                "ref:rspo": 105107,
                "official_name": "Ii Liceum Og\u00f3lnokszta\u0142c\u0105ce dla Doros\u0142ych w Chrzanowie",
                "name": "Ii Liceum Og\u00f3lnokszta\u0142c\u0105ce dla Doros\u0142ych w Chrzanowie",
                "addr:country": "PL",
                "addr:postcode": "32-500",
                "addr:city": "Chrzan\u00f3w",
                "addr:street": "Fabryczna",
                "addr:housenumber": "27",
                "addr:teryt:simc": 4863,
                "addr:teryt:sym_ul": 938982,
                "contact:phone": "+48 326232609",
                "contact:email": "sekretariat@zstfablok.edu.pl",
                "contact:website": "http:\/\/www.zstfablok.edu.pl",
                "ref:regon": "122484420",
                "operator": "Powiat Chrzanowski",
                "operator:type": "government",
                "amenity": "school",
                "note": "Parent RSPO: 15356"
            }
        },
        {
            "id": 133235,
            "type": "Feature",
            "geometry": {
                "type": "Point",
                "coordinates": [
                    19.39036,
                    50.12691
                ]
            },
            "properties": {
                "ref:rspo": 133235,
                "official_name": "Centrum Kszta\u0142cenia Zawodowego w Chrzanowie",
                "name": "Centrum Kszta\u0142cenia Zawodowego w Chrzanowie",
                "addr:country": "PL",
                "addr:postcode": "32-500",
                "addr:city": "Chrzan\u00f3w",
                "addr:street": "Fabryczna",
                "addr:housenumber": "27",
                "addr:teryt:simc": 4863,
                "addr:teryt:sym_ul": 938982,
                "contact:phone": "+48 326232609",
                "contact:email": "sekretariat@zstfablok.edu.pl",
                "contact:website": "http:\/\/www.zstfablok.edu.pl",
                "ref:regon": "356555498",
                "operator": "Powiat Chrzanowski",
                "operator:type": "government",
                "fixme": "w zale\u017cno\u015bci od przedmiotu dzia\u0142alno\u015bci (np. amenity=training + training=*, amenity=dancing_school, amenity=language_school, amenity=music_school) albo amenity=school, amenity=college, albo landuse=education w zale\u017cno\u015bci od tego, jakie plac\u00f3wki wchodz\u0105 w sk\u0142ad zespo\u0142u. Sprawd\u017a, kiedy stosowa\u0107 amenity=* a kiedy landuse=education.",
                "note": "Parent RSPO: 15356"
            }
        },
        {
            "id": 276074,
            "type": "Feature",
            "geometry": {
                "type": "Point",
                "coordinates": [
                    19.39036,
                    50.12688
                ]
            },
            "properties": {
                "isced:level": "3",
                "ref:rspo": 276074,
                "official_name": "Bran\u017cowa Szko\u0142a II Stopnia w Chrzanowie",
                "name": "Bran\u017cowa Szko\u0142a II Stopnia w Chrzanowie",
                "addr:country": "PL",
                "addr:postcode": "32-500",
                "addr:city": "Chrzan\u00f3w",
                "addr:street": "Fabryczna",
                "addr:housenumber": "27",
                "addr:teryt:simc": 4863,
                "addr:teryt:sym_ul": 938982,
                "contact:phone": "+48 326232609",
                "contact:email": "sekretariat@zstfablok.edu.pl",
                "contact:website": "http:\/\/www.zstfablok.edu.pl",
                "ref:regon": "386981349",
                "operator": "Powiat Chrzanowski",
                "operator:type": "government",
                "amenity": "school",
                "note": "Parent RSPO: 15356"
            }
        },
        {
            "id": 56631,
            "type": "Feature",
            "geometry": {
                "type": "Point",
                "coordinates": [
                    19.4069567,
                    50.1272832
                ]
            },
            "properties": {
                "ref:rspo": 56631,
                "official_name": "Przedszkole Samorz\u0105dowe Nr 9 im. Jana Brzechwy w Chrzanowie",
                "name": "Przedszkole Samorz\u0105dowe Nr 9",
                "addr:country": "PL",
                "addr:postcode": "32-500",
                "addr:city": "Chrzan\u00f3w",
                "addr:street": "Brzezina",
                "addr:housenumber": "14",
                "addr:teryt:simc": 2238,
                "addr:teryt:sym_ul": 938982,
                "contact:phone": "+48 326234544",
                "contact:email": "ps9@chrzanow.pl",
                "contact:website": "http:\/\/ps9chrzanow.pl",
                "ref:regon": "270555792",
                "ref:vatin": "PL6281961147",
                "operator": "Gmina Chrzan\u00f3w",
                "operator:type": "government",
                "amenity": "kindergarten"
            }
        },
        {
            "id": 56632,
            "type": "Feature",
            "geometry": {
                "type": "Point",
                "coordinates": [
                    19.3938,
                    50.12929
                ]
            },
            "properties": {
                "ref:rspo": 56632,
                "official_name": "Przedszkole Samorz\u0105dowe Nr 11 Z Oddzia\u0142em Specjalnym w Chrzanowie",
                "name": "Przedszkole Samorz\u0105dowe Nr 11 Z Oddzia\u0142em Specjalnym w Chrzanowie",
                "addr:country": "PL",
                "addr:postcode": "32-500",
                "addr:city": "Chrzan\u00f3w",
                "addr:street": "Fabryczna",
                "addr:housenumber": "25",
                "addr:teryt:simc": 4863,
                "addr:teryt:sym_ul": 938982,
                "contact:phone": "+48 326233887",
                "contact:email": "ps11@chrzanow.pl",
                "ref:regon": "270555817",
                "ref:vatin": "PL6281971559",
                "operator": "Gmina Chrzan\u00f3w",
                "operator:type": "government",
                "amenity": "kindergarten"
            }
        },
        {
            "id": 65154,
            "type": "Feature",
            "geometry": {
                "type": "Point",
                "coordinates": [
                    19.3958,
                    50.1293999
                ]
            },
            "properties": {
                "isced:level": "1;2",
                "ref:rspo": 65154,
                "official_name": "Szko\u0142a Podstawowa Nr 5 im. Ks.micha\u0142a Potacza\u0142y w Chrzanowie",
                "name": "Szko\u0142a Podstawowa Nr 5",
                "addr:country": "PL",
                "addr:postcode": "32-500",
                "addr:city": "Chrzan\u00f3w",
                "addr:street": "Fabryczna",
                "addr:housenumber": "23a",
                "addr:teryt:simc": 4863,
                "addr:teryt:sym_ul": 938982,
                "contact:phone": "+48 326234945",
                "contact:email": "sp5@chrzanow.pl",
                "ref:regon": "000726903",
                "ref:vatin": "PL6281965990",
                "operator": "Gmina Chrzan\u00f3w",
                "operator:type": "government",
                "amenity": "school"
            }
        },
        {
            "id": 68021,
            "type": "Feature",
            "geometry": {
                "type": "Point",
                "coordinates": [
                    19.40737,
                    50.13322
                ]
            },
            "properties": {
                "isced:level": "1;2",
                "ref:rspo": 68021,
                "official_name": "Szko\u0142a Podstawowa Nr 8 Z Oddzia\u0142ami Integracyjnymi im. Szarych Szereg\u00f3w w Chrzanowie",
                "name": "Szko\u0142a Podstawowa Nr 8 Z Oddzia\u0142ami Integracyjnymi",
                "addr:country": "PL",
                "addr:postcode": "32-500",
                "addr:city": "Chrzan\u00f3w",
                "addr:street": "Pogorska",
                "addr:housenumber": "8c",
                "addr:teryt:simc": 16905,
                "addr:teryt:sym_ul": 938982,
                "contact:phone": "+48 326233766",
                "contact:email": "sekretariat8@interia.pl",
                "contact:website": "http:\/\/sp8chrzanow.edupage.org",
                "ref:regon": "001219189",
                "ref:vatin": "PL6282202627",
                "operator": "Gmina Chrzan\u00f3w",
                "operator:type": "government",
                "amenity": "school"
            }
        },
        {
            "id": 56624,
            "type": "Feature",
            "geometry": {
                "type": "Point",
                "coordinates": [
                    19.41668,
                    50.1340999
                ]
            },
            "properties": {
                "ref:rspo": 56624,
                "official_name": "Przedszkole Samorz\u0105dowe Nr 2 w Chrzanowie",
                "name": "Przedszkole Samorz\u0105dowe Nr 2 w Chrzanowie",
                "addr:country": "PL",
                "addr:postcode": "32-500",
                "addr:city": "Chrzan\u00f3w",
                "addr:street": "Dworska",
                "addr:housenumber": "2",
                "addr:teryt:simc": 4446,
                "addr:teryt:sym_ul": 938982,
                "contact:phone": "+48 326234393",
                "contact:email": "ps2@chrzanow.pl",
                "contact:website": "http:\/\/www.ps2chrzanow.edupage.org",
                "ref:regon": "270555728",
                "ref:vatin": "PL6281963548",
                "operator": "Gmina Chrzan\u00f3w",
                "operator:type": "government",
                "amenity": "kindergarten"
            }
        },
        {
            "id": 72665,
            "type": "Feature",
            "geometry": {
                "type": "Point",
                "coordinates": [
                    19.39823,
                    50.13415
                ]
            },
            "properties": {
                "ref:rspo": 72665,
                "official_name": "I Niepubliczne Przedszkole M\u0142odych Talent\u00f3w \"100 Bajek\" w Chrzanowie",
                "name": "I Niepubliczne Przedszkole M\u0142odych Talent\u00f3w \"100 Bajek\" w Chrzanowie",
                "addr:country": "PL",
                "addr:postcode": "32-500",
                "addr:city": "Chrzan\u00f3w",
                "addr:street": "Stara Huta",
                "addr:housenumber": "1",
                "addr:teryt:simc": 20864,
                "addr:teryt:sym_ul": 938982,
                "contact:phone": "+48 609773484",
                "contact:email": "stobajek@op.pl",
                "contact:website": "http:\/\/przedszkole100bajek.pl",
                "ref:regon": "122698428",
                "ref:vatin": "PL6281128113",
                "operator": "Monika Lorek-S\u0119dzielowska",
                "operator:type": "private",
                "amenity": "kindergarten"
            }
        },
        {
            "id": 79128,
            "type": "Feature",
            "geometry": {
                "type": "Point",
                "coordinates": [
                    19.403709411621,
                    50.13431930542
                ]
            },
            "properties": {
                "ref:rspo": 79128,
                "official_name": "Poradnia Psychologiczno-Pedagogiczna w Chrzanowie",
                "name": "Poradnia Psychologiczno-Pedagogiczna w Chrzanowie",
                "addr:country": "PL",
                "addr:postcode": "32-500",
                "addr:city": "Chrzan\u00f3w",
                "addr:street": "Marsza\u0142ka Ferdynanda Focha",
                "addr:housenumber": "3",
                "addr:teryt:simc": 33696,
                "addr:teryt:sym_ul": 938982,
                "contact:email": "pppchrzanow@post.pl",
                "contact:website": "http:\/\/www.ppp.powiat-chrzanowski.pl",
                "ref:regon": "000727021",
                "ref:vatin": "PL6281874371",
                "operator": "Powiat Chrzanowski",
                "operator:type": "government",
                "healthcare": "counselling",
                "counselling_type": "education",
                "fixme": "w zale\u017cno\u015bci od przedmiotu dzia\u0142alno\u015bci (np. healthcare=counselling + counselling_type=education albo healthcare=psychotherapist)"
            }
        },
        {
            "id": 82548,
            "type": "Feature",
            "geometry": {
                "type": "Point",
                "coordinates": [
                    19.403709411621,
                    50.13428930542
                ]
            },
            "properties": {
                "ref:rspo": 82548,
                "official_name": "Powiatowe Centrum Kszta\u0142cenia Ustawicznego w Chrzanowie",
                "name": "Powiatowe Centrum Kszta\u0142cenia Ustawicznego w Chrzanowie",
                "addr:country": "PL",
                "addr:postcode": "32-500",
                "addr:city": "Chrzan\u00f3w",
                "addr:street": "Marsza\u0142ka Ferdynanda Focha",
                "addr:housenumber": "3",
                "addr:teryt:simc": 33696,
                "addr:teryt:sym_ul": 938982,
                "contact:phone": "+48 326240018",
                "contact:email": "pcku@powiat-chrzanowski.pl",
                "contact:website": "http:\/\/www.pcku.edu.pl",
                "ref:regon": "120744443",
                "ref:vatin": "PL6282194655",
                "operator": "Powiat Chrzanowski",
                "operator:type": "government",
                "amenity": "school",
                "fixme": "amenity=school lub amenity=college",
                "note": "Children RSPO: 105108"
            }
        },
        {
            "id": 105638,
            "type": "Feature",
            "geometry": {
                "type": "Point",
                "coordinates": [
                    19.403709411621,
                    50.13425930542
                ]
            },
            "properties": {
                "ref:rspo": 105638,
                "official_name": "Niepubliczna Plac\u00f3wka Kszta\u0142cenia Ustawicznego Skwp w Chrzanowie",
                "name": "Niepubliczna Plac\u00f3wka Kszta\u0142cenia Ustawicznego Skwp w Chrzanowie",
                "addr:country": "PL",
                "addr:postcode": "32-500",
                "addr:city": "Chrzan\u00f3w",
                "addr:street": "Marsza\u0142ka Ferdynanda Focha",
                "addr:housenumber": "3",
                "addr:teryt:simc": 33696,
                "addr:teryt:sym_ul": 938982,
                "contact:phone": "+48 326230764",
                "contact:email": "biuro@chrzanow.skwp.pl",
                "contact:website": "http:\/\/www.chrzanow.skwp.pl",
                "ref:regon": "122748304",
                "operator": "Stowarzyszenie Ksi\u0119gowych W Polsce",
                "operator:type": "ngo",
                "fixme": "w zale\u017cno\u015bci od przedmiotu dzia\u0142alno\u015bci (np. amenity=training + training=*, amenity=dancing_school, amenity=language_school, amenity=music_school)"
            }
        },
        {
            "id": 125256,
            "type": "Feature",
            "geometry": {
                "type": "Point",
                "coordinates": [
                    19.403709411621,
                    50.13422930542
                ]
            },
            "properties": {
                "ref:rspo": 125256,
                "official_name": "\"Genius Loci\" Niepubliczna Specjalistyczna Poradnia Psychologiczno-Pedagogiczna",
                "name": "\"Genius Loci\" Niepubliczna Specjalistyczna Poradnia Psychologiczno-Pedagogiczna",
                "addr:country": "PL",
                "addr:postcode": "32-500",
                "addr:city": "Chrzan\u00f3w",
                "addr:street": "ks. J. Skorupki",
                "addr:housenumber": "1c",
                "addr:teryt:simc": 33667,
                "addr:teryt:sym_ul": 938982,
                "contact:email": "centrum@drsmolka.pl",
                "ref:regon": "123215254",
                "operator": "Centrum Medyczne Katarzyna Sm\u00f3\u0142ka",
                "operator:type": "consortium",
                "fixme": "w zale\u017cno\u015bci od przedmiotu dzia\u0142alno\u015bci (np. healthcare=counselling + counselling_type=education albo healthcare=psychotherapist)"
            }
        },
        {
            "id": 105108,
            "type": "Feature",
            "geometry": {
                "type": "Point",
                "coordinates": [
                    19.403709411621,
                    50.13419930542
                ]
            },
            "properties": {
                "isced:level": "4",
                "ref:rspo": 105108,
                "official_name": "Szko\u0142a Policealna Nr 2 w Chrzanowie",
                "name": "Szko\u0142a Policealna Nr 2 w Chrzanowie",
                "addr:country": "PL",
                "addr:postcode": "32-500",
                "addr:city": "Chrzan\u00f3w",
                "addr:street": "Marsza\u0142ka Ferdynanda Focha",
                "addr:housenumber": "3",
                "addr:teryt:simc": 33696,
                "addr:teryt:sym_ul": 938982,
                "contact:phone": "+48 326240018",
                "contact:email": "pcku@powiat-chrzanowski.pl",
                "contact:website": "http:\/\/www.pcku.edu.pl",
                "ref:regon": "120744466",
                "operator": "Powiat Chrzanowski",
                "operator:type": "government",
                "amenity": "college",
                "note": "Parent RSPO: 82548"
            }
        },
        {
            "id": 65155,
            "type": "Feature",
            "geometry": {
                "type": "Point",
                "coordinates": [
                    19.42025,
                    50.1349
                ]
            },
            "properties": {
                "isced:level": "1;2",
                "ref:rspo": 65155,
                "official_name": "Szko\u0142a Podstawowa Nr 6 im. Jana Paw\u0142a II w Chrzanowie",
                "name": "Szko\u0142a Podstawowa Nr 6",
                "addr:country": "PL",
                "addr:postcode": "32-500",
                "addr:city": "Chrzan\u00f3w",
                "addr:street": "Dworska",
                "addr:housenumber": "5",
                "addr:teryt:simc": 4446,
                "addr:teryt:sym_ul": 938982,
                "contact:phone": "+48 326232915",
                "contact:email": "sp6sekretariat@interia.eu",
                "contact:website": "http:\/\/www.sp6.chrzanow.pl",
                "ref:regon": "000726910",
                "ref:vatin": "PL6281960521",
                "operator": "Gmina Chrzan\u00f3w",
                "operator:type": "government",
                "amenity": "school"
            }
        },
        {
            "id": 79113,
            "type": "Feature",
            "geometry": {
                "type": "Point",
                "coordinates": [
                    19.39856,
                    50.13571
                ]
            },
            "properties": {
                "ref:rspo": 79113,
                "official_name": "Specjalny O\u015brodek Szkolno-Wychowawczy w Chrzanowie",
                "name": "Specjalny O\u015brodek Szkolno-Wychowawczy w Chrzanowie",
                "addr:country": "PL",
                "addr:postcode": "32-500",
                "addr:city": "Chrzan\u00f3w",
                "addr:street": "Ignacego Paderewskiego",
                "addr:housenumber": "1",
                "addr:teryt:simc": 15524,
                "addr:teryt:sym_ul": 938982,
                "contact:phone": "+48 326232665",
                "contact:email": "sekretariat@soswchrzanow.pl",
                "contact:website": "http:\/\/www.sosw.chrzanow.pl",
                "ref:regon": "000727015",
                "ref:vatin": "PL6281720395",
                "operator": "Powiat Chrzanowski",
                "operator:type": "government",
                "amenity": "school",
                "note": "Children RSPO: 105285;105288;105289"
            }
        },
        {
            "id": 105288,
            "type": "Feature",
            "geometry": {
                "type": "Point",
                "coordinates": [
                    19.39856,
                    50.13568
                ]
            },
            "properties": {
                "ref:rspo": 105288,
                "official_name": "Szko\u0142a Specjalna Przysposabiaj\u0105ca Do Pracy",
                "name": "Szko\u0142a Specjalna Przysposabiaj\u0105ca Do Pracy",
                "addr:country": "PL",
                "addr:postcode": "32-500",
                "addr:city": "Chrzan\u00f3w",
                "addr:street": "Ignacego Paderewskiego",
                "addr:housenumber": "1",
                "addr:teryt:simc": 15524,
                "addr:teryt:sym_ul": 938982,
                "contact:phone": "+48 326232665",
                "contact:email": "sekretariat@soswchrzanow.pl",
                "contact:website": "http:\/\/www.sosw.chrzanow.pl",
                "ref:regon": "356862415",
                "operator": "Powiat Chrzanowski",
                "operator:type": "government",
                "amenity": "school",
                "note": "Parent RSPO: 79113"
            }
        },
        {
            "id": 105289,
            "type": "Feature",
            "geometry": {
                "type": "Point",
                "coordinates": [
                    19.39856,
                    50.135650000000005
                ]
            },
            "properties": {
                "isced:level": "3",
                "ref:rspo": 105289,
                "official_name": "Bran\u017cowa Szko\u0142a I Stopnia w Chrzanowie",
                "name": "Bran\u017cowa Szko\u0142a I Stopnia w Chrzanowie",
                "addr:country": "PL",
                "addr:postcode": "32-500",
                "addr:city": "Chrzan\u00f3w",
                "addr:street": "Ignacego Paderewskiego",
                "addr:housenumber": "1",
                "addr:teryt:simc": 15524,
                "addr:teryt:sym_ul": 938982,
                "contact:phone": "+48 326232665",
                "contact:email": "sekretariat@soswchrzanow.pl",
                "contact:website": "http:\/\/www.sosw.chrzanow.pl",
                "ref:regon": "356568609",
                "operator": "Powiat Chrzanowski",
                "operator:type": "government",
                "amenity": "school",
                "note": "Parent RSPO: 79113"
            }
        },
        {
            "id": 105285,
            "type": "Feature",
            "geometry": {
                "type": "Point",
                "coordinates": [
                    19.39789,
                    50.13584
                ]
            },
            "properties": {
                "isced:level": "1;2",
                "ref:rspo": 105285,
                "official_name": "Szko\u0142a Podstawowa Nr 9 w Chrzanowie",
                "name": "Szko\u0142a Podstawowa Nr 9 w Chrzanowie",
                "addr:country": "PL",
                "addr:postcode": "32-500",
                "addr:city": "Chrzan\u00f3w",
                "addr:street": "Ignacego Paderewskiego",
                "addr:housenumber": "5",
                "addr:teryt:simc": 15524,
                "addr:teryt:sym_ul": 938982,
                "contact:phone": "+48 326232665",
                "contact:email": "sekretariat@soswchrzanow.pl",
                "contact:website": "http:\/\/www.sosw.chrzanow.pl",
                "ref:regon": "356568584",
                "operator": "Powiat Chrzanowski",
                "operator:type": "government",
                "amenity": "school",
                "note": "Parent RSPO: 79113"
            }
        },
        {
            "id": 24922,
            "type": "Feature",
            "geometry": {
                "type": "Point",
                "coordinates": [
                    19.40048,
                    50.13803
                ]
            },
            "properties": {
                "ref:rspo": 24922,
                "official_name": "Pedagogiczna Biblioteka Wojew\u00f3dzka im. Hugona Ko\u0142\u0142\u0105taja w Krakowie Filia w Chrzanowie",
                "name": "Pedagogiczna Biblioteka Wojew\u00f3dzka",
                "addr:country": "PL",
                "addr:postcode": "32-500",
                "addr:city": "Chrzan\u00f3w",
                "addr:street": "Aleja Henryka",
                "addr:housenumber": "53",
                "addr:teryt:simc": 40382,
                "addr:teryt:sym_ul": 938982,
                "contact:phone": "+48 326234513",
                "contact:email": "filia.chrzanow@pbw.edu.pl",
                "contact:website": "http:\/\/www.biblioteka.pedagog.chrzanow.pl",
                "ref:regon": "197729000",
                "operator": "Wojew\u00f3dztwo Ma\u0142opolskie",
                "operator:type": "government",
                "amenity": "library",
                "note": "Parent RSPO: 19644"
            }
        },
        {
            "id": 123649,
            "type": "Feature",
            "geometry": {
                "type": "Point",
                "coordinates": [
                    19.40411,
                    50.13874
                ]
            },
            "properties": {
                "ref:rspo": 123649,
                "official_name": "\"Promyk\" Niepubliczna Specjalistyczna Poradnia Psychologiczno-Pedagogiczna w Chrzanowie",
                "name": "\"Promyk\" Niepubliczna Specjalistyczna Poradnia Psychologiczno-Pedagogiczna w Chrzanowie",
                "addr:country": "PL",
                "addr:postcode": "32-500",
                "addr:city": "Chrzan\u00f3w",
                "addr:street": "\u015awi\u0119tokrzyska",
                "addr:housenumber": "33",
                "addr:teryt:simc": 22552,
                "addr:teryt:sym_ul": 938982,
                "contact:phone": "+48 733400299",
                "contact:email": "biuro@terapiapromyk.pl",
                "contact:website": "http:\/\/www.terapiapromyk.pl",
                "ref:regon": "123168833",
                "operator": "Agnieszka Starzykiewicz-Wysogl\u0105d",
                "operator:type": "private",
                "healthcare": "counselling",
                "counselling_type": "education",
                "fixme": "w zale\u017cno\u015bci od przedmiotu dzia\u0142alno\u015bci (np. healthcare=counselling + counselling_type=education albo healthcare=psychotherapist)"
            }
        },
        {
            "id": 123873,
            "type": "Feature",
            "geometry": {
                "type": "Point",
                "coordinates": [
                    19.40411,
                    50.138709999999996
                ]
            },
            "properties": {
                "ref:rspo": 123873,
                "official_name": "Promyk Niepubliczne Terapeutyczne Przedszkole Z Oddzia\u0142ami Specjalnymi I Integracyjnymi w Chrzanowie",
                "name": "Promyk Niepubliczne Terapeutyczne Przedszkole Z Oddzia\u0142ami Specjalnymi I Integracyjnymi w Chrzanowie",
                "addr:country": "PL",
                "addr:postcode": "32-500",
                "addr:city": "Chrzan\u00f3w",
                "addr:street": "\u015awi\u0119tokrzyska",
                "addr:housenumber": "33",
                "addr:teryt:simc": 22552,
                "addr:teryt:sym_ul": 938982,
                "contact:phone": "+48 733400299",
                "contact:email": "biuro@terapiapromyk.pl",
                "contact:website": "http:\/\/www.terapiapromyk.pl",
                "ref:regon": "123179015",
                "operator": "Agnieszka Starzykiewicz-Wysogl\u0105d",
                "operator:type": "private",
                "amenity": "kindergarten"
            }
        },
        {
            "id": 68003,
            "type": "Feature",
            "geometry": {
                "type": "Point",
                "coordinates": [
                    19.40112,
                    50.13911
                ]
            },
            "properties": {
                "isced:level": "1;2",
                "ref:rspo": 68003,
                "official_name": "Szko\u0142a Podstawowa Nr 3 im. Kr\u00f3lowej Jadwigi w Chrzanowie",
                "name": "Szko\u0142a Podstawowa Nr 3",
                "addr:country": "PL",
                "addr:postcode": "32-500",
                "addr:city": "Chrzan\u00f3w",
                "addr:street": "Aleja Henryka",
                "addr:housenumber": "43",
                "addr:teryt:simc": 40382,
                "addr:teryt:sym_ul": 938982,
                "contact:phone": "+48 326233757",
                "contact:email": "sekretariat.sp3@poczta.fm",
                "contact:website": "http:\/\/sp3chrzanow.edupage.org",
                "ref:regon": "000726889",
                "ref:vatin": "PL6282202610",
                "operator": "Gmina Chrzan\u00f3w",
                "operator:type": "government",
                "amenity": "school"
            }
        },
        {
            "id": 56627,
            "type": "Feature",
            "geometry": {
                "type": "Point",
                "coordinates": [
                    19.39825,
                    50.13949
                ]
            },
            "properties": {
                "ref:rspo": 56627,
                "official_name": "Przedszkole Samorz\u0105dowe Nr 5 w Chrzanowie",
                "name": "Przedszkole Samorz\u0105dowe Nr 5 w Chrzanowie",
                "addr:country": "PL",
                "addr:postcode": "32-500",
                "addr:city": "Chrzan\u00f3w",
                "addr:street": "Tadeusza Ko\u015bciuszki",
                "addr:housenumber": "27",
                "addr:teryt:simc": 9572,
                "addr:teryt:sym_ul": 938982,
                "contact:phone": "+48 326232741",
                "contact:email": "ps5@chrzanow.pl",
                "contact:website": "http:\/\/ps5.chrzanow.pl",
                "ref:regon": "270555757",
                "ref:vatin": "PL6281966179",
                "operator": "Gmina Chrzan\u00f3w",
                "operator:type": "government",
                "amenity": "kindergarten"
            }
        },
        {
            "id": 14339,
            "type": "Feature",
            "geometry": {
                "type": "Point",
                "coordinates": [
                    19.39727,
                    50.13957
                ]
            },
            "properties": {
                "isced:level": "3",
                "ref:rspo": 14339,
                "official_name": "I Liceum Og\u00f3lnokszta\u0142c\u0105ce im. Stanis\u0142awa Staszica w Chrzanowie",
                "name": "I Liceum Og\u00f3lnokszta\u0142c\u0105ce",
                "addr:country": "PL",
                "addr:postcode": "32-500",
                "addr:city": "Chrzan\u00f3w",
                "addr:street": "J\u00f3zefa Pi\u0142sudskiego",
                "addr:housenumber": "14",
                "addr:teryt:simc": 33663,
                "addr:teryt:sym_ul": 938982,
                "contact:email": "liceum1@poczta.fm",
                "contact:website": "http:\/\/www.1lo.pl",
                "ref:regon": "356732196",
                "ref:vatin": "PL6281671113",
                "operator": "Powiat Chrzanowski",
                "operator:type": "government",
                "amenity": "school"
            }
        },
        {
            "id": 105069,
            "type": "Feature",
            "geometry": {
                "type": "Point",
                "coordinates": [
                    19.39727,
                    50.13954
                ]
            },
            "properties": {
                "isced:level": "3",
                "ref:rspo": 105069,
                "official_name": "Liceum Og\u00f3lnokszta\u0142c\u0105ce dla Doros\u0142ych w Chrzanowie",
                "name": "Liceum Og\u00f3lnokszta\u0142c\u0105ce dla Doros\u0142ych w Chrzanowie",
                "addr:country": "PL",
                "addr:postcode": "32-500",
                "addr:city": "Chrzan\u00f3w",
                "addr:street": "J\u00f3zefa Pi\u0142sudskiego",
                "addr:housenumber": "14",
                "addr:teryt:simc": 33663,
                "addr:teryt:sym_ul": 938982,
                "contact:phone": "+48 326234162",
                "contact:email": "lodor@op.pl",
                "contact:website": "http:\/\/www.lodor.pl",
                "ref:regon": "120104710",
                "operator": "Powiat Chrzanowski",
                "operator:type": "government",
                "amenity": "school"
            }
        },
        {
            "id": 56630,
            "type": "Feature",
            "geometry": {
                "type": "Point",
                "coordinates": [
                    19.39853,
                    50.1415999
                ]
            },
            "properties": {
                "ref:rspo": 56630,
                "official_name": "Przedszkole Samorz\u0105dowe Nr 8 w Chrzanowie",
                "name": "Przedszkole Samorz\u0105dowe Nr 8 w Chrzanowie",
                "addr:country": "PL",
                "addr:postcode": "32-500",
                "addr:city": "Chrzan\u00f3w",
                "addr:street": "Tadeusza Ko\u015bciuszki",
                "addr:housenumber": "10",
                "addr:teryt:simc": 9572,
                "addr:teryt:sym_ul": 938982,
                "contact:phone": "+48 326233049",
                "contact:email": "ps8@chrzanow.pl",
                "contact:website": "http:\/\/przedszkolenr8chrzanow.pl",
                "ref:regon": "270555786",
                "ref:vatin": "PL6281961182",
                "operator": "Gmina Chrzan\u00f3w",
                "operator:type": "government",
                "amenity": "kindergarten"
            }
        },
        {
            "id": 107385,
            "type": "Feature",
            "geometry": {
                "type": "Point",
                "coordinates": [
                    19.39816,
                    50.14182
                ]
            },
            "properties": {
                "ref:rspo": 107385,
                "official_name": "Instytut Edukacja-Rozw\u00f3j-Praca",
                "name": "Instytut Edukacja-Rozw\u00f3j-Praca",
                "addr:country": "PL",
                "addr:postcode": "32-500",
                "addr:city": "Chrzan\u00f3w",
                "addr:street": "O\u015bwi\u0119cimska",
                "addr:housenumber": "9",
                "addr:teryt:simc": 15440,
                "addr:teryt:sym_ul": 938982,
                "contact:phone": "+48 793937379",
                "contact:email": "instytut.erp@gmail.com",
                "ref:regon": "122764266",
                "operator": "Bart\u0142omiej Kikla",
                "operator:type": "private",
                "fixme": "w zale\u017cno\u015bci od przedmiotu dzia\u0142alno\u015bci (np. amenity=training + training=*, amenity=dancing_school, amenity=language_school, amenity=music_school)"
            }
        },
        {
            "id": 56625,
            "type": "Feature",
            "geometry": {
                "type": "Point",
                "coordinates": [
                    19.42145,
                    50.14184
                ]
            },
            "properties": {
                "ref:rspo": 56625,
                "official_name": "Przedszkole Samorz\u0105dowe Nr 4 w Chrzanowie",
                "name": "Przedszkole Samorz\u0105dowe Nr 4 w Chrzanowie",
                "addr:country": "PL",
                "addr:postcode": "32-500",
                "addr:city": "Chrzan\u00f3w",
                "addr:street": "Kardyna\u0142a Stefana Wyszy\u0144skiego",
                "addr:housenumber": "5",
                "addr:teryt:simc": 25103,
                "addr:teryt:sym_ul": 938982,
                "contact:phone": "+48 326236333",
                "contact:email": "ps4@chrzanow.pl",
                "contact:website": "http:\/\/ps4chrzanow.edupage.org",
                "ref:regon": "270555740",
                "ref:vatin": "PL6281966618",
                "operator": "Gmina Chrzan\u00f3w",
                "operator:type": "government",
                "amenity": "kindergarten"
            }
        },
        {
            "id": 263038,
            "type": "Feature",
            "geometry": {
                "type": "Point",
                "coordinates": [
                    19.40553,
                    50.14191
                ]
            },
            "properties": {
                "isced:level": "3",
                "ref:rspo": 263038,
                "official_name": "Niepubliczne Liceum Og\u00f3lnokszta\u0142c\u0105ce dla Doros\u0142ych \"Copernicus\"",
                "name": "Niepubliczne Liceum Og\u00f3lnokszta\u0142c\u0105ce dla Doros\u0142ych \"Copernicus\"",
                "addr:country": "PL",
                "addr:postcode": "32-500",
                "addr:city": "Chrzan\u00f3w",
                "addr:street": "Rynek",
                "addr:housenumber": "12",
                "addr:teryt:simc": 19252,
                "addr:teryt:sym_ul": 938982,
                "contact:phone": "+48 326450974",
                "contact:email": "chrzanow@copernicus.edu.pl",
                "contact:website": "http:\/\/www.copernicus.edu.pl",
                "ref:regon": "368094415",
                "operator": "Centrum Edukacji Copernicus Sp\u00f3\u0142ka Z Ograniczon\u0105 Odpowiedzialno\u015bci\u0105",
                "operator:type": "private",
                "amenity": "school"
            }
        },
        {
            "id": 263071,
            "type": "Feature",
            "geometry": {
                "type": "Point",
                "coordinates": [
                    19.40553,
                    50.14188
                ]
            },
            "properties": {
                "isced:level": "4",
                "ref:rspo": 263071,
                "official_name": "Niepubliczna Szko\u0142a Policealna \"Copernicus\" w Chrzanowie",
                "name": "Niepubliczna Szko\u0142a Policealna \"Copernicus\" w Chrzanowie",
                "addr:country": "PL",
                "addr:postcode": "32-500",
                "addr:city": "Chrzan\u00f3w",
                "addr:street": "Rynek",
                "addr:housenumber": "12",
                "addr:teryt:simc": 19252,
                "addr:teryt:sym_ul": 938982,
                "contact:phone": "+48 326450974",
                "contact:email": "chrzanow@copernicus.edu.pl",
                "contact:website": "http:\/\/www.copernicus.edu.pl",
                "ref:regon": "368103054",
                "operator": "Centrum Edukacji Copernicus Sp\u00f3\u0142ka Z Ograniczon\u0105 Odpowiedzialno\u015bci\u0105",
                "operator:type": "private",
                "amenity": "college"
            }
        },
        {
            "id": 61828,
            "type": "Feature",
            "geometry": {
                "type": "Point",
                "coordinates": [
                    19.41844,
                    50.1428299
                ]
            },
            "properties": {
                "ref:rspo": 61828,
                "official_name": "Niepubliczne Przedszkole im. Walta Disneya w Chrzanowie",
                "name": "Niepubliczne Przedszkole",
                "addr:country": "PL",
                "addr:postcode": "32-500",
                "addr:city": "Chrzan\u00f3w",
                "addr:street": "Kardyna\u0142a Stefana Wyszy\u0144skiego",
                "addr:housenumber": "17A",
                "addr:teryt:simc": 25103,
                "addr:teryt:sym_ul": 938982,
                "contact:phone": "+48 530057356",
                "contact:email": "przedszkole_disneya@wp.pl",
                "contact:website": "http:\/\/przedszkole-disneya.pl",
                "ref:regon": "122692503",
                "ref:vatin": "PL6282215788",
                "operator": "Magdalena Nowak",
                "operator:type": "private",
                "amenity": "kindergarten"
            }
        },
        {
            "id": 14369,
            "type": "Feature",
            "geometry": {
                "type": "Point",
                "coordinates": [
                    19.41754,
                    50.14319
                ]
            },
            "properties": {
                "isced:level": "3",
                "ref:rspo": 14369,
                "official_name": "Ii Liceum Og\u00f3lnokszta\u0142c\u0105ce im. K. K. Baczy\u0144skiego w Chrzanowie",
                "name": "Ii Liceum Og\u00f3lnokszta\u0142c\u0105ce",
                "addr:country": "PL",
                "addr:postcode": "32-500",
                "addr:city": "Chrzan\u00f3w",
                "addr:street": "Kardyna\u0142a Stefana Wyszy\u0144skiego",
                "addr:housenumber": "19",
                "addr:teryt:simc": 25103,
                "addr:teryt:sym_ul": 938982,
                "contact:email": "sekretariat@lo2.edu.pl",
                "contact:website": "http:\/\/www.lo2.edu.pl",
                "ref:regon": "356745388",
                "ref:vatin": "PL6281671107",
                "operator": "Powiat Chrzanowski",
                "operator:type": "government",
                "amenity": "school"
            }
        },
        {
            "id": 70034,
            "type": "Feature",
            "geometry": {
                "type": "Point",
                "coordinates": [
                    19.41754,
                    50.143159999999995
                ]
            },
            "properties": {
                "isced:level": "1;2",
                "ref:rspo": 70034,
                "official_name": "Szko\u0142a Podstawowa Nr 10 im. Armii Krajowej w Chrzanowie",
                "name": "Szko\u0142a Podstawowa Nr 10",
                "addr:country": "PL",
                "addr:postcode": "32-500",
                "addr:city": "Chrzan\u00f3w",
                "addr:street": "Kardyna\u0142a Stefana Wyszy\u0144skiego",
                "addr:housenumber": "19",
                "addr:teryt:simc": 25103,
                "addr:teryt:sym_ul": 938982,
                "contact:phone": "+48 326236423",
                "contact:email": "sp10ak@interia.pl",
                "contact:website": "http:\/\/sp10chrzanow.weebly.com",
                "ref:regon": "271280021",
                "ref:vatin": "PL6282202604",
                "operator": "Gmina Chrzan\u00f3w",
                "operator:type": "government",
                "amenity": "school"
            }
        },
        {
            "id": 79120,
            "type": "Feature",
            "geometry": {
                "type": "Point",
                "coordinates": [
                    19.41754,
                    50.14313
                ]
            },
            "properties": {
                "ref:rspo": 79120,
                "official_name": "Powiatowy Mi\u0119dzyszkolny O\u015brodek Sportowy w Chrzanowie",
                "name": "Powiatowy Mi\u0119dzyszkolny O\u015brodek Sportowy w Chrzanowie",
                "addr:country": "PL",
                "addr:postcode": "32-500",
                "addr:city": "Chrzan\u00f3w",
                "addr:street": "Kardyna\u0142a Stefana Wyszy\u0144skiego",
                "addr:housenumber": "19",
                "addr:teryt:simc": 25103,
                "addr:teryt:sym_ul": 938982,
                "contact:email": "moschrzanow@wp.pl",
                "contact:website": "http:\/\/www.mos-chrzanow.prv.pl",
                "ref:regon": "270729170",
                "ref:vatin": "PL6281874365",
                "operator": "Powiat Chrzanowski",
                "operator:type": "government",
                "leisure": "sports_centre"
            }
        },
        {
            "id": 107484,
            "type": "Feature",
            "geometry": {
                "type": "Point",
                "coordinates": [
                    19.41754,
                    50.1431
                ]
            },
            "properties": {
                "ref:rspo": 107484,
                "official_name": "Biuro Us\u0142ug J\u0119zykowych \"Perfect\"",
                "name": "Biuro Us\u0142ug J\u0119zykowych \"Perfect\"",
                "addr:country": "PL",
                "addr:postcode": "32-500",
                "addr:city": "Chrzan\u00f3w",
                "addr:street": "Kardyna\u0142a Stefana Wyszy\u0144skiego",
                "addr:housenumber": "19",
                "addr:teryt:simc": 25103,
                "addr:teryt:sym_ul": 938982,
                "contact:phone": "+48 326234321",
                "contact:email": "biuro@perfectchrzanow.pl",
                "contact:website": "http:\/\/www.perfectchrzanow.pl",
                "ref:regon": "122764929",
                "operator": "Janusz Halbina",
                "operator:type": "private",
                "fixme": "w zale\u017cno\u015bci od przedmiotu dzia\u0142alno\u015bci (np. amenity=training + training=*, amenity=dancing_school, amenity=language_school, amenity=music_school)"
            }
        },
        {
            "id": 106602,
            "type": "Feature",
            "geometry": {
                "type": "Point",
                "coordinates": [
                    19.404035,
                    50.1433525
                ]
            },
            "properties": {
                "ref:rspo": 106602,
                "official_name": "Centrum Kszta\u0142cenia Zawodowego Ustawicznego w Chrzanowie",
                "name": "Centrum Kszta\u0142cenia Zawodowego Ustawicznego w Chrzanowie",
                "addr:country": "PL",
                "addr:postcode": "32-500",
                "addr:city": "Chrzan\u00f3w",
                "addr:street": "Janiny Woynarowskiej",
                "addr:housenumber": "1",
                "addr:teryt:simc": 33323,
                "addr:teryt:sym_ul": 938982,
                "contact:phone": "+48 326451998",
                "contact:email": "tozch@tozch.edu.pl",
                "contact:website": "http:\/\/www.ckzu.tozch.edu.pl",
                "ref:regon": "122757065",
                "operator": "Towarzystwo O\u015bwiatowe Ziemi Chrzanowskiej W Chrzanowie",
                "operator:type": "ngo",
                "fixme": "w zale\u017cno\u015bci od przedmiotu dzia\u0142alno\u015bci (np. amenity=training + training=*, amenity=dancing_school, amenity=language_school, amenity=music_school)"
            }
        },
        {
            "id": 61826,
            "type": "Feature",
            "geometry": {
                "type": "Point",
                "coordinates": [
                    19.41238,
                    50.14388
                ]
            },
            "properties": {
                "isced:level": "1;2",
                "ref:rspo": 61826,
                "official_name": "Szko\u0142a Podstawowa Nr 1 Z Oddzia\u0142ami Integracyjnymi im. Adama Mickiewicza w Chrzanowie",
                "name": "Szko\u0142a Podstawowa Nr 1 Z Oddzia\u0142ami Integracyjnymi",
                "addr:country": "PL",
                "addr:postcode": "32-500",
                "addr:city": "Chrzan\u00f3w",
                "addr:street": "Zielona",
                "addr:housenumber": "15",
                "addr:teryt:simc": 26081,
                "addr:teryt:sym_ul": 938982,
                "contact:phone": "+48 326276044",
                "contact:email": "sp1chrzanow@interia.pl",
                "contact:website": "http:\/\/www.sp1chrzanow.pl\/",
                "ref:regon": "000726866",
                "ref:vatin": "PL6281960863",
                "operator": "Gmina Chrzan\u00f3w",
                "operator:type": "government",
                "amenity": "school"
            }
        },
        {
            "id": 75587,
            "type": "Feature",
            "geometry": {
                "type": "Point",
                "coordinates": [
                    19.40149,
                    50.14408
                ]
            },
            "properties": {
                "ref:rspo": 75587,
                "official_name": "Pa\u0144stwowa Szko\u0142a Muzyczna I St. im. Janiny Gar\u015bci w Chrzanowie",
                "name": "Pa\u0144stwowa Szko\u0142a Muzyczna I St.",
                "addr:country": "PL",
                "addr:postcode": "32-500",
                "addr:city": "Chrzan\u00f3w",
                "addr:street": "Adama Mickiewicza",
                "addr:housenumber": "12",
                "addr:teryt:simc": 12734,
                "addr:teryt:sym_ul": 938982,
                "contact:phone": "+48 326233851",
                "contact:email": "psm.chrzanow@post.pl",
                "contact:website": "http:\/\/psm-chrzanow.pl",
                "ref:regon": "000276819",
                "operator": "Ministerstwo Kultury I Dziedzictwa Narodowego",
                "operator:type": "public",
                "amenity": "music_school"
            }
        },
        {
            "id": 111192,
            "type": "Feature",
            "geometry": {
                "type": "Point",
                "coordinates": [
                    19.4155799,
                    50.14431
                ]
            },
            "properties": {
                "ref:rspo": 111192,
                "official_name": "Centrum Terapii \"Ma\u0142y Ksi\u0105\u017c\u0119\" Niepubliczna Poradnia Psychologiczno-Pedagogiczna",
                "name": "Centrum Terapii \"Ma\u0142y Ksi\u0105\u017c\u0119\" Niepubliczna Poradnia Psychologiczno-Pedagogiczna",
                "addr:country": "PL",
                "addr:postcode": "32-500",
                "addr:city": "Chrzan\u00f3w",
                "addr:street": "W\u0142adys\u0142awa Sikorskiego",
                "addr:housenumber": "1z",
                "addr:teryt:simc": 19914,
                "addr:teryt:sym_ul": 938982,
                "contact:phone": "+48 609773484",
                "contact:email": "monikalorek@gmail.com",
                "ref:regon": "122802009",
                "operator": "Monika Lorek-S\u0119dzielowska",
                "operator:type": "private",
                "healthcare": "counselling",
                "counselling_type": "education",
                "fixme": "w zale\u017cno\u015bci od przedmiotu dzia\u0142alno\u015bci (np. healthcare=counselling + counselling_type=education albo healthcare=psychotherapist)"
            }
        },
        {
            "id": 269937,
            "type": "Feature",
            "geometry": {
                "type": "Point",
                "coordinates": [
                    19.4155799,
                    50.144279999999995
                ]
            },
            "properties": {
                "ref:rspo": 269937,
                "official_name": "Iii Niepubliczne Przedszkole \"100 Bajek\" w Chrzanowie",
                "name": "Iii Niepubliczne Przedszkole \"100 Bajek\" w Chrzanowie",
                "addr:country": "PL",
                "addr:postcode": "32-500",
                "addr:city": "Chrzan\u00f3w",
                "addr:street": "W\u0142adys\u0142awa Sikorskiego",
                "addr:housenumber": "1z",
                "addr:teryt:simc": 19914,
                "addr:teryt:sym_ul": 938982,
                "contact:phone": "+48 609773484",
                "contact:email": "monikalorek@gmail.com",
                "ref:regon": "381876116",
                "operator": "Monika Lorek-S\u0119dzielowska",
                "operator:type": "private",
                "amenity": "kindergarten"
            }
        },
        {
            "id": 56628,
            "type": "Feature",
            "geometry": {
                "type": "Point",
                "coordinates": [
                    19.4126198,
                    50.1462092
                ]
            },
            "properties": {
                "ref:rspo": 56628,
                "official_name": "Przedszkole Samorz\u0105dowe Nr 7 w Chrzanowie",
                "name": "Przedszkole Samorz\u0105dowe Nr 7 w Chrzanowie",
                "addr:country": "PL",
                "addr:postcode": "32-500",
                "addr:city": "Chrzan\u00f3w",
                "addr:street": "Grzybowa",
                "addr:housenumber": "7",
                "addr:teryt:simc": 6341,
                "addr:teryt:sym_ul": 938982,
                "contact:phone": "+48 326233291",
                "contact:email": "ps7@chrzanow.pl",
                "contact:website": "http:\/\/przedszkole7chrzanow.edupage.org",
                "ref:regon": "270555770",
                "ref:vatin": "PL6281978811",
                "operator": "Gmina Chrzan\u00f3w",
                "operator:type": "government",
                "amenity": "kindergarten"
            }
        },
        {
            "id": 65156,
            "type": "Feature",
            "geometry": {
                "type": "Point",
                "coordinates": [
                    19.41826,
                    50.14627
                ]
            },
            "properties": {
                "ref:rspo": 65156,
                "official_name": "Przedszkole Samorz\u0105dowe Nr 10 Z Oddzia\u0142ami Integracyjnymi w Chrzanowie",
                "name": "Przedszkole Samorz\u0105dowe Nr 10 Z Oddzia\u0142ami Integracyjnymi w Chrzanowie",
                "addr:country": "PL",
                "addr:postcode": "32-500",
                "addr:city": "Chrzan\u00f3w",
                "addr:street": "W\u0142adys\u0142awa Sikorskiego",
                "addr:housenumber": "6",
                "addr:teryt:simc": 19914,
                "addr:teryt:sym_ul": 938982,
                "contact:phone": "+48 326232288",
                "contact:email": "ps10@chrzanow.pl",
                "contact:website": "http:\/\/www.ps10chrzanow.edupage.org",
                "ref:regon": "270555800",
                "ref:vatin": "PL6281961153",
                "operator": "Gmina Chrzan\u00f3w",
                "operator:type": "government",
                "amenity": "kindergarten"
            }
        },
        {
            "id": 56623,
            "type": "Feature",
            "geometry": {
                "type": "Point",
                "coordinates": [
                    19.37662,
                    50.14899
                ]
            },
            "properties": {
                "ref:rspo": 56623,
                "official_name": "Przedszkole Samorz\u0105dowe Nr 1 w Chrzanowie",
                "name": "Przedszkole Samorz\u0105dowe Nr 1 w Chrzanowie",
                "addr:country": "PL",
                "addr:postcode": "32-500",
                "addr:city": "Chrzan\u00f3w",
                "addr:street": "\u015al\u0105ska",
                "addr:housenumber": "74b",
                "addr:teryt:simc": 22308,
                "addr:teryt:sym_ul": 938982,
                "contact:phone": "+48 326233780",
                "contact:email": "ps1@chrzanow.pl",
                "ref:regon": "270555711",
                "ref:vatin": "PL6281963494",
                "operator": "Gmina Chrzan\u00f3w",
                "operator:type": "government",
                "amenity": "kindergarten"
            }
        },
        {
            "id": 273512,
            "type": "Feature",
            "geometry": {
                "type": "Point",
                "coordinates": [
                    19.39011,
                    50.16527
                ]
            },
            "properties": {
                "ref:rspo": 273512,
                "official_name": "Niepubliczne Przedszkole \"Kreatywne Dzieciaki\" w Balinie",
                "name": "Niepubliczne Przedszkole \"Kreatywne Dzieciaki\" w Balinie",
                "addr:country": "PL",
                "addr:postcode": "32-500",
                "addr:city": "Balin",
                "addr:street": "Juliana Niemcewicza",
                "addr:housenumber": "2",
                "addr:teryt:simc": 27319,
                "addr:teryt:sym_ul": 213380,
                "contact:phone": "+48 793452953",
                "contact:email": "kreatywnedzieciaki.edu@gmail.com",
                "contact:website": "http:\/\/www.kreatywnedzieciaki.edu.pl",
                "ref:regon": "384482352",
                "operator": "Aleksandra Lis",
                "operator:type": "private",
                "amenity": "kindergarten"
            }
        },
        {
            "id": 61824,
            "type": "Feature",
            "geometry": {
                "type": "Point",
                "coordinates": [
                    19.38566,
                    50.16658
                ]
            },
            "properties": {
                "isced:level": "1;2",
                "ref:rspo": 61824,
                "official_name": "Szko\u0142a Podstawowa im. Miko\u0142aja Kopernika w Balinie",
                "name": "Szko\u0142a Podstawowa",
                "addr:country": "PL",
                "addr:postcode": "32-500",
                "addr:city": "Balin",
                "addr:street": "Jaworznicka",
                "addr:housenumber": "139",
                "addr:teryt:simc": 7407,
                "addr:teryt:sym_ul": 213380,
                "contact:phone": "+48 326131767",
                "contact:email": "spbalin@chrzanow.pl",
                "contact:website": "http:\/\/spbalin.edupage.org",
                "ref:regon": "000726932",
                "ref:vatin": "PL6281967055",
                "operator": "Gmina Chrzan\u00f3w",
                "operator:type": "government",
                "amenity": "school"
            }
        },
        {
            "id": 56633,
            "type": "Feature",
            "geometry": {
                "type": "Point",
                "coordinates": [
                    19.38598,
                    50.16745
                ]
            },
            "properties": {
                "ref:rspo": 56633,
                "official_name": "Przedszkole Samorz\u0105dowe im. \u015aw. Franciszka - Patrona Ekolog\u00f3w w Balinie",
                "name": "Przedszkole Samorz\u0105dowe",
                "addr:country": "PL",
                "addr:postcode": "32-500",
                "addr:city": "Balin",
                "addr:street": "Komisji Edukacji Narodowej",
                "addr:housenumber": "7",
                "addr:teryt:simc": 9066,
                "addr:teryt:sym_ul": 213380,
                "contact:phone": "+48 327113020",
                "contact:email": "przedszkolebalin@wp.pl",
                "contact:website": "http:\/\/przedszkolebalin.jawnet.pl",
                "ref:regon": "270555830",
                "ref:vatin": "PL6281963502",
                "operator": "Gmina Chrzan\u00f3w",
                "operator:type": "government",
                "amenity": "kindergarten"
            }
        },
        {
            "id": 61825,
            "type": "Feature",
            "geometry": {
                "type": "Point",
                "coordinates": [
                    19.406859,
                    50.1732649
                ]
            },
            "properties": {
                "isced:level": "1;2",
                "ref:rspo": 61825,
                "official_name": "Szko\u0142a Podstawowa im. Kr\u00f3la W\u0142adys\u0142awa Jagie\u0142\u0142y w Luszowicach",
                "name": "Szko\u0142a Podstawowa",
                "addr:country": "PL",
                "addr:postcode": "32-500",
                "addr:city": "Luszowice",
                "addr:street": "Stanis\u0142awa Przybyszewskiego",
                "addr:housenumber": "6",
                "addr:teryt:simc": 17892,
                "addr:teryt:sym_ul": 213440,
                "contact:phone": "+48 326234957",
                "contact:email": "szpluszowice@wp.pl",
                "contact:website": "http:\/\/spluszowice.edupage.org",
                "ref:regon": "000726949",
                "ref:vatin": "PL6281960857",
                "operator": "Gmina Chrzan\u00f3w",
                "operator:type": "government",
                "amenity": "school"
            }
        }
    ]
}