{
    "type": "FeatureCollection",
    "features": [
        {
            "id": 128549,
            "type": "Feature",
            "geometry": {
                "type": "Point",
                "coordinates": [
                    19.442630767822,
                    50.113052368164
                ]
            },
            "properties": {
                "ref:rspo": 128549,
                "official_name": "Zielone Przedszkole",
                "name": "Zielone Przedszkole",
                "addr:postcode": "32-546",
                "addr:place": "M\u0142oszowa",
                "addr:housenumber": "285",
                "addr:city:simc": 222953,
                "phone": "+48 507700000",
                "email": "monikawolszewska@onet.eu",
                "ref:regon": "362313939",
                "ref:vatin": "PL6761506414",
                "operator": "Monika Wolszewska",
                "operator:type": "private",
                "amenity": "kindergarten"
            }
        },
        {
            "id": 23115,
            "type": "Feature",
            "geometry": {
                "type": "Point",
                "coordinates": [
                    19.47775,
                    50.11368
                ]
            },
            "properties": {
                "isced:level": "1;2",
                "ref:rspo": 23115,
                "official_name": "Szko\u0142a Podstawowa im.tadeusza Ko\u015bciuszki w Bol\u0119cinie",
                "name": "Szko\u0142a Podstawowa im.tadeusza Ko\u015bciuszki w Bol\u0119cinie",
                "addr:postcode": "32-540",
                "addr:city": "Bol\u0119cin",
                "addr:street": "Zakopia\u0144ska",
                "addr:housenumber": "14",
                "addr:city:simc": 222730,
                "addr:street:sym_ul": 25458,
                "phone": "+48 326137574",
                "email": "spbolecin@aries.com.pl",
                "website": "http:\/\/www.szkolabolecin.republika.pl",
                "ref:regon": "000729563",
                "ref:vatin": "PL6281952881",
                "operator": "Gmina Trzebinia",
                "operator:type": "government",
                "amenity": "school"
            }
        },
        {
            "id": 11211,
            "type": "Feature",
            "geometry": {
                "type": "Point",
                "coordinates": [
                    19.47931,
                    50.11785
                ]
            },
            "properties": {
                "ref:rspo": 11211,
                "official_name": "Przedszkole Samorz\u0105dowe w Bol\u0119cinie",
                "name": "Przedszkole Samorz\u0105dowe w Bol\u0119cinie",
                "addr:postcode": "32-540",
                "addr:city": "Bol\u0119cin",
                "addr:street": "Krakowska",
                "addr:housenumber": "32",
                "addr:city:simc": 222730,
                "addr:street:sym_ul": 9796,
                "phone": "+48 326137571",
                "email": "psbolecin@tca.trzebinia.pl",
                "ref:regon": "271505023",
                "ref:vatin": "PL6281951628",
                "operator": "Gmina Trzebinia",
                "operator:type": "government",
                "amenity": "kindergarten"
            }
        },
        {
            "id": 23122,
            "type": "Feature",
            "geometry": {
                "type": "Point",
                "coordinates": [
                    19.52134,
                    50.15033
                ]
            },
            "properties": {
                "isced:level": "1;2",
                "ref:rspo": 23122,
                "official_name": "Szko\u0142a Podstawowa im.\u015bwi\u0119tej Jadwigi-Kr\u00f3lowej w Dulowej",
                "name": "Szko\u0142a Podstawowa im.\u015bwi\u0119tej Jadwigi-Kr\u00f3lowej w Dulowej",
                "addr:postcode": "32-540",
                "addr:city": "Dulowa",
                "addr:street": "Ignacego Paderewskiego",
                "addr:housenumber": "65",
                "addr:city:simc": 222812,
                "addr:street:sym_ul": 15524,
                "phone": "+48 326138005",
                "email": "spdulowa@op.pl",
                "website": "http:\/\/www.spdulowa.one.pl",
                "ref:regon": "000729540",
                "ref:vatin": "PL6281951769",
                "operator": "Gmina Trzebinia",
                "operator:type": "government",
                "amenity": "school"
            }
        },
        {
            "id": 22899,
            "type": "Feature",
            "geometry": {
                "type": "Point",
                "coordinates": [
                    19.48947,
                    50.15176
                ]
            },
            "properties": {
                "ref:rspo": 22899,
                "official_name": "Zesp\u00f3\u0142 Szkolno-Przedszkolny w M\u0142oszowej",
                "name": "Zesp\u00f3\u0142 Szkolno-Przedszkolny w M\u0142oszowej",
                "addr:postcode": "32-546",
                "addr:city": "M\u0142oszowa",
                "addr:street": "Kamieniec",
                "addr:housenumber": "1",
                "addr:city:simc": 222953,
                "addr:street:sym_ul": 7870,
                "phone": "+48 326122593",
                "email": "zspmloszowa@interia.pl",
                "website": "http:\/\/www.zspmloszowa.pl",
                "ref:regon": "120744928",
                "ref:vatin": "PL6282194968",
                "operator": "Gmina Trzebinia",
                "operator:type": "government",
                "landuse": "education",
                "fixme": "amenity=school, amenity=college albo landuse=education w zale\u017cno\u015bci od tego, jakie plac\u00f3wki wchodz\u0105 w sk\u0142ad zespo\u0142u. Sprawd\u017a, kiedy stosowa\u0107 amenity=* a kiedy landuse=education.",
                "note": "Children RSPO: 90434;90438"
            }
        },
        {
            "id": 90434,
            "type": "Feature",
            "geometry": {
                "type": "Point",
                "coordinates": [
                    19.48947,
                    50.15173
                ]
            },
            "properties": {
                "ref:rspo": 90434,
                "official_name": "Przedszkole Samorz\u0105dowe w M\u0142oszowej",
                "name": "Przedszkole Samorz\u0105dowe w M\u0142oszowej",
                "addr:postcode": "32-546",
                "addr:city": "M\u0142oszowa",
                "addr:street": "Kamieniec",
                "addr:housenumber": "1",
                "addr:city:simc": 222953,
                "addr:street:sym_ul": 7870,
                "phone": "+48 326122691",
                "email": "zspmloszowa@interia.pl",
                "ref:regon": "271504992",
                "ref:vatin": "PL6281951574",
                "operator": "Gmina Trzebinia",
                "operator:type": "government",
                "amenity": "kindergarten",
                "note": "Parent RSPO: 22899"
            }
        },
        {
            "id": 90438,
            "type": "Feature",
            "geometry": {
                "type": "Point",
                "coordinates": [
                    19.48947,
                    50.151700000000005
                ]
            },
            "properties": {
                "isced:level": "1;2",
                "ref:rspo": 90438,
                "official_name": "Szko\u0142a Podstawowa im. 550 Rocznicy Zwyci\u0119stwa Grunwaldzkiego w M\u0142oszowej",
                "name": "Szko\u0142a Podstawowa",
                "addr:postcode": "32-546",
                "addr:city": "M\u0142oszowa",
                "addr:street": "Kamieniec",
                "addr:housenumber": "1",
                "addr:city:simc": 222953,
                "addr:street:sym_ul": 7870,
                "phone": "+48 326122593",
                "email": "zspmloszowa@interia.pl",
                "website": "http:\/\/www.zspmloszowa.pl",
                "ref:regon": "000729534",
                "ref:vatin": "PL6281952183",
                "operator": "Gmina Trzebinia",
                "operator:type": "government",
                "amenity": "school",
                "note": "Parent RSPO: 22899"
            }
        },
        {
            "id": 118783,
            "type": "Feature",
            "geometry": {
                "type": "Point",
                "coordinates": [
                    19.44591,
                    50.15249
                ]
            },
            "properties": {
                "ref:rspo": 118783,
                "official_name": "Niepubliczne Przedszkole J\u0119zykowo-Muzyczne \"Akademia Miki\"",
                "name": "Niepubliczne Przedszkole J\u0119zykowo-Muzyczne \"Akademia Miki\"",
                "addr:postcode": "32-540",
                "addr:city": "Trzebinia",
                "addr:street": "Marii Konopnickiej",
                "addr:housenumber": "2",
                "addr:city:simc": 944149,
                "addr:street:sym_ul": 9182,
                "phone": "+48 506088058",
                "email": "biuro@przedszkolemiki.pl",
                "website": "http:\/\/przedszkolemiki.pl\/",
                "ref:regon": "122924712",
                "ref:vatin": "PL6281027553",
                "operator": "Marek Nowak",
                "operator:type": "private",
                "amenity": "kindergarten"
            }
        },
        {
            "id": 125288,
            "type": "Feature",
            "geometry": {
                "type": "Point",
                "coordinates": [
                    19.47713,
                    50.15392
                ]
            },
            "properties": {
                "ref:rspo": 125288,
                "official_name": "Niepubliczne Przedszkole \"Chmurkowe Opowie\u015bci\"",
                "name": "Niepubliczne Przedszkole \"Chmurkowe Opowie\u015bci\"",
                "addr:postcode": "32-540",
                "addr:city": "Trzebinia",
                "addr:street": "Kochanowskiego",
                "addr:housenumber": "22C",
                "addr:city:simc": 944149,
                "addr:street:sym_ul": 8725,
                "phone": "+48 505646770",
                "email": "biuro@chmurkoweopowiesci.pl",
                "website": "http:\/\/www.chmurkoweopowiesci.pl",
                "ref:regon": "123215290",
                "operator": "Niepubliczne Przedszkole Chmurkowe Opowie\u015bci Sp\u00f3\u0142ka Z Ograniczon\u0105 Odpowiedzialno\u015bci\u0105",
                "operator:type": "private",
                "amenity": "kindergarten"
            }
        },
        {
            "id": 73828,
            "type": "Feature",
            "geometry": {
                "type": "Point",
                "coordinates": [
                    19.4607199,
                    50.15779
                ]
            },
            "properties": {
                "ref:rspo": 73828,
                "official_name": "Powiatowy M\u0142odzie\u017cowy Dom Kultury im. Mjr. Henryka Sucharskiego w Trzebini",
                "name": "Powiatowy M\u0142odzie\u017cowy Dom Kultury",
                "addr:postcode": "32-540",
                "addr:city": "Trzebinia",
                "addr:street": "Tadeusza Ko\u015bciuszki",
                "addr:housenumber": "72",
                "addr:city:simc": 944149,
                "addr:street:sym_ul": 9582,
                "email": "mdktrzebinia@o2.pl",
                "website": "http:\/\/www.pmdk-trzebinia.pl",
                "ref:regon": "000729623",
                "ref:vatin": "PL6281015254",
                "operator": "Powiat Chrzanowski",
                "operator:type": "government",
                "amenity": "community_centre",
                "community_centre:for": "juvenile"
            }
        },
        {
            "id": 72959,
            "type": "Feature",
            "geometry": {
                "type": "Point",
                "coordinates": [
                    19.47725,
                    50.15785
                ]
            },
            "properties": {
                "ref:rspo": 72959,
                "official_name": "Zesp\u00f3\u0142 Szk\u00f3\u0142 Ekonomiczno-Chemicznych w Trzebini",
                "name": "Zesp\u00f3\u0142 Szk\u00f3\u0142 Ekonomiczno-Chemicznych w Trzebini",
                "addr:postcode": "32-540",
                "addr:city": "Trzebinia",
                "addr:street": "G\u0142ogowa",
                "addr:housenumber": "12",
                "addr:city:simc": 944149,
                "addr:street:sym_ul": 5610,
                "phone": "+48 326121185",
                "email": "sekretariat@zsech.edu.pl",
                "website": "http:\/\/www.zsech.edu.pl",
                "ref:regon": "000181042",
                "ref:vatin": "PL6281698980",
                "operator": "Powiat Chrzanowski",
                "operator:type": "government",
                "landuse": "education",
                "fixme": "amenity=school, amenity=college albo landuse=education w zale\u017cno\u015bci od tego, jakie plac\u00f3wki wchodz\u0105 w sk\u0142ad zespo\u0142u. Sprawd\u017a, kiedy stosowa\u0107 amenity=* a kiedy landuse=education.",
                "note": "Children RSPO: 105109;119078;121611;122071"
            }
        },
        {
            "id": 105109,
            "type": "Feature",
            "geometry": {
                "type": "Point",
                "coordinates": [
                    19.47725,
                    50.15782
                ]
            },
            "properties": {
                "isced:level": "3",
                "ref:rspo": 105109,
                "official_name": "Technikum Nr 1 w Trzebini",
                "name": "Technikum Nr 1 w Trzebini",
                "addr:postcode": "32-540",
                "addr:city": "Trzebinia",
                "addr:street": "G\u0142ogowa",
                "addr:housenumber": "12",
                "addr:city:simc": 944149,
                "addr:street:sym_ul": 5610,
                "phone": "+48 326121185",
                "email": "sekretariat@zsech.edu.pl",
                "website": "http:\/\/www.zsech.edu.pl",
                "ref:regon": "356572947",
                "operator": "Powiat Chrzanowski",
                "operator:type": "government",
                "amenity": "school",
                "note": "Parent RSPO: 72959"
            }
        },
        {
            "id": 119078,
            "type": "Feature",
            "geometry": {
                "type": "Point",
                "coordinates": [
                    19.47725,
                    50.157790000000006
                ]
            },
            "properties": {
                "isced:level": "3",
                "ref:rspo": 119078,
                "official_name": "Bran\u017cowa Szko\u0142a I Stopnia Nr 1 w Trzebini",
                "name": "Bran\u017cowa Szko\u0142a I Stopnia Nr 1 w Trzebini",
                "addr:postcode": "32-540",
                "addr:city": "Trzebinia",
                "addr:street": "G\u0142ogowa",
                "addr:housenumber": "12",
                "addr:city:simc": 944149,
                "addr:street:sym_ul": 5610,
                "phone": "+48 326121185",
                "email": "sekretariat@zsech.edu.pl",
                "website": "http:\/\/www.zsech.edu.pl",
                "ref:regon": "356572976",
                "operator": "Powiat Chrzanowski",
                "operator:type": "government",
                "amenity": "school",
                "note": "Parent RSPO: 72959"
            }
        },
        {
            "id": 121611,
            "type": "Feature",
            "geometry": {
                "type": "Point",
                "coordinates": [
                    19.47725,
                    50.15776
                ]
            },
            "properties": {
                "isced:level": "4",
                "ref:rspo": 121611,
                "official_name": "Szko\u0142a Policealna Nr 1 w Trzebini",
                "name": "Szko\u0142a Policealna Nr 1 w Trzebini",
                "addr:postcode": "32-540",
                "addr:city": "Trzebinia",
                "addr:street": "G\u0142ogowa",
                "addr:housenumber": "12",
                "addr:city:simc": 944149,
                "addr:street:sym_ul": 5610,
                "phone": "+48 326121185",
                "email": "sekretariat@zsech.edu.pl",
                "website": "http:\/\/www.zsech.edu.pl",
                "ref:regon": "270729192",
                "operator": "Powiat Chrzanowski",
                "operator:type": "government",
                "amenity": "college",
                "note": "Parent RSPO: 72959"
            }
        },
        {
            "id": 122071,
            "type": "Feature",
            "geometry": {
                "type": "Point",
                "coordinates": [
                    19.47725,
                    50.15773
                ]
            },
            "properties": {
                "isced:level": "3",
                "ref:rspo": 122071,
                "official_name": "I Liceum Og\u00f3lnokszta\u0142c\u0105ce im. Marii Sk\u0142odowskiej-Curie w Trzebini",
                "name": "I Liceum Og\u00f3lnokszta\u0142c\u0105ce",
                "addr:postcode": "32-540",
                "addr:city": "Trzebinia",
                "addr:street": "G\u0142ogowa",
                "addr:housenumber": "12",
                "addr:city:simc": 944149,
                "addr:street:sym_ul": 5610,
                "phone": "+48 326121185",
                "email": "sekretariat@zsech.edu.pl",
                "website": "http:\/\/www.zsech.edu.pl",
                "ref:regon": "000729617",
                "operator": "Powiat Chrzanowski",
                "operator:type": "government",
                "amenity": "school",
                "note": "Parent RSPO: 72959"
            }
        },
        {
            "id": 17639,
            "type": "Feature",
            "geometry": {
                "type": "Point",
                "coordinates": [
                    19.46877,
                    50.15822
                ]
            },
            "properties": {
                "ref:rspo": 17639,
                "official_name": "Przedszkole Samorz\u0105dowe Nr 2 w Trzebini",
                "name": "Przedszkole Samorz\u0105dowe Nr 2 w Trzebini",
                "addr:postcode": "32-540",
                "addr:city": "Trzebinia",
                "addr:street": "Ochronkowa",
                "addr:housenumber": "16",
                "addr:city:simc": 944149,
                "addr:street:sym_ul": 14701,
                "phone": "+48 326121322",
                "email": "psnr2trzebinia@o2.pl",
                "website": "http:\/\/ps2trzebinia.szkolnastrona.pl\/",
                "ref:regon": "271504986",
                "ref:vatin": "PL6281951580",
                "operator": "Gmina Trzebinia",
                "operator:type": "government",
                "amenity": "kindergarten"
            }
        },
        {
            "id": 270364,
            "type": "Feature",
            "geometry": {
                "type": "Point",
                "coordinates": [
                    19.47109,
                    50.15934
                ]
            },
            "properties": {
                "ref:rspo": 270364,
                "official_name": "Niepubliczny Punkt Przedszkolny \"Bombik I Przyjaciele\"",
                "name": "Niepubliczny Punkt Przedszkolny \"Bombik I Przyjaciele\"",
                "addr:postcode": "32-540",
                "addr:city": "Trzebinia",
                "addr:street": "Plac Ma\u0142y Rynek",
                "addr:housenumber": "3",
                "addr:city:simc": 944149,
                "addr:street:sym_ul": 12208,
                "phone": "+48 326462465",
                "email": "info@bombik.edu.pl",
                "website": "http:\/\/www.bombik.dlaprzedszkoli.eu",
                "ref:regon": "382441780",
                "operator": "Marek Stra\u017c",
                "operator:type": "private",
                "amenity": "kindergarten"
            }
        },
        {
            "id": 9917,
            "type": "Feature",
            "geometry": {
                "type": "Point",
                "coordinates": [
                    19.4683,
                    50.16005
                ]
            },
            "properties": {
                "ref:rspo": 9917,
                "official_name": "Przedszkole Samorz\u0105dowe Nr 1 im. Janusza Korczaka",
                "name": "Przedszkole Samorz\u0105dowe Nr 1",
                "addr:postcode": "32-540",
                "addr:city": "Trzebinia",
                "addr:street": "Tadeusza Ko\u015bciuszki",
                "addr:housenumber": "2",
                "addr:city:simc": 944149,
                "addr:street:sym_ul": 9572,
                "phone": "+48 326121245",
                "email": "ps1@tca.trzebinia.pl",
                "website": "http:\/\/www.przedszkoletrzebinia.cba.pl",
                "ref:regon": "271504970",
                "ref:vatin": "PL6281951597",
                "operator": "Gmina Trzebinia",
                "operator:type": "government",
                "amenity": "kindergarten"
            }
        },
        {
            "id": 41017,
            "type": "Feature",
            "geometry": {
                "type": "Point",
                "coordinates": [
                    19.47134,
                    50.16013
                ]
            },
            "properties": {
                "ref:rspo": 41017,
                "official_name": "Niepubliczne Przedszkole Artystyczno-J\u0119zykowe \"B\u0142\u0119kitna Laguna 2\"",
                "name": "Niepubliczne Przedszkole Artystyczno-J\u0119zykowe \"B\u0142\u0119kitna Laguna 2\"",
                "addr:postcode": "32-540",
                "addr:city": "Trzebinia",
                "addr:street": "Rynek",
                "addr:housenumber": "23B",
                "addr:city:simc": 944149,
                "addr:street:sym_ul": 19252,
                "phone": "+48 606352526",
                "email": "biuro@przedszkole.trzebinia.com",
                "website": "http:\/\/www.przedszkole.trzebinia.com",
                "ref:regon": "122688967",
                "operator": "Magdalena Hajdus-Kawala",
                "operator:type": "private",
                "amenity": "kindergarten"
            }
        },
        {
            "id": 111182,
            "type": "Feature",
            "geometry": {
                "type": "Point",
                "coordinates": [
                    19.47134,
                    50.1601
                ]
            },
            "properties": {
                "ref:rspo": 111182,
                "official_name": "Niepubliczna Poradnia Psychologiczno-Pedagogiczna w Trzebini",
                "name": "Niepubliczna Poradnia Psychologiczno-Pedagogiczna w Trzebini",
                "addr:postcode": "32-540",
                "addr:city": "Trzebinia",
                "addr:street": "Rynek",
                "addr:housenumber": "23b",
                "addr:city:simc": 944149,
                "addr:street:sym_ul": 19252,
                "phone": "+48 606352526",
                "email": "biuro@poradnia.trzebinia.com",
                "website": "http:\/\/www.poradnia.trzebinia.com",
                "ref:regon": "122801955",
                "operator": "Magdalena Hajdus-Kawala",
                "operator:type": "private",
                "healthcare": "counselling",
                "counselling_type": "education",
                "fixme": "w zale\u017cno\u015bci od przedmiotu dzia\u0142alno\u015bci (np. healthcare=counselling + counselling_type=education albo healthcare=psychotherapist)"
            }
        },
        {
            "id": 47603,
            "type": "Feature",
            "geometry": {
                "type": "Point",
                "coordinates": [
                    19.47767,
                    50.16062
                ]
            },
            "properties": {
                "isced:level": "1;2",
                "ref:rspo": 47603,
                "official_name": "Szko\u0142a Podstawowa 8 im. Jana Paw\u0142a II w Trzebini",
                "name": "Szko\u0142a Podstawowa 8",
                "addr:postcode": "32-540",
                "addr:city": "Trzebinia",
                "addr:street": "Osiedle Osiedle Widokowe",
                "addr:housenumber": "21",
                "addr:city:simc": 944149,
                "addr:street:sym_ul": 51468,
                "phone": "+48 326121956",
                "email": "sekretariat@sp8trzebinia.edu.pl",
                "website": "http:\/\/sp8trzebinia.edu.pl",
                "ref:regon": "271941712",
                "operator": "Gmina Trzebinia",
                "operator:type": "government",
                "amenity": "school"
            }
        },
        {
            "id": 111166,
            "type": "Feature",
            "geometry": {
                "type": "Point",
                "coordinates": [
                    19.47767,
                    50.16059
                ]
            },
            "properties": {
                "ref:rspo": 111166,
                "official_name": "O\u015brodek Kszta\u0142cenia Bezpiecze\u0144stwa I Higieny Pracy w Trzebini",
                "name": "O\u015brodek Kszta\u0142cenia Bezpiecze\u0144stwa I Higieny Pracy w Trzebini",
                "addr:postcode": "32-540",
                "addr:city": "Trzebinia",
                "addr:street": "Osiedle Osiedle Widokowe",
                "addr:housenumber": "21",
                "addr:city:simc": 944149,
                "addr:street:sym_ul": 51468,
                "phone": "+48 604219258",
                "email": "okbhp-af@wp.pl",
                "ref:regon": "122801926",
                "operator": "Andrzej Fijo\u0142ek",
                "operator:type": "private",
                "fixme": "w zale\u017cno\u015bci od przedmiotu dzia\u0142alno\u015bci (np. amenity=training + training=*, amenity=dancing_school, amenity=language_school, amenity=music_school)"
            }
        },
        {
            "id": 128606,
            "type": "Feature",
            "geometry": {
                "type": "Point",
                "coordinates": [
                    19.46668,
                    50.16087
                ]
            },
            "properties": {
                "isced:level": "3",
                "ref:rspo": 128606,
                "official_name": "Liceum Og\u00f3lnokszta\u0142c\u0105ce w Trzebini",
                "name": "Liceum Og\u00f3lnokszta\u0142c\u0105ce w Trzebini",
                "addr:postcode": "32-540",
                "addr:city": "Trzebinia",
                "addr:street": "Szkolna",
                "addr:housenumber": "3",
                "addr:city:simc": 944149,
                "addr:street:sym_ul": 21970,
                "phone": "+48 326122201",
                "email": "lo.trzebinia@gmail.com",
                "website": "http:\/\/www.lotrzebinia.pl",
                "ref:regon": "362332990",
                "operator": "Stowarzyszenie Proobronno-O\u015bwiatowe \"Kadet\"",
                "operator:type": "ngo",
                "amenity": "school"
            }
        },
        {
            "id": 29514,
            "type": "Feature",
            "geometry": {
                "type": "Point",
                "coordinates": [
                    19.4497,
                    50.17419
                ]
            },
            "properties": {
                "isced:level": "1;2",
                "ref:rspo": 29514,
                "official_name": "Szko\u0142a Podstawowa Nr 4 im. Or\u0142a Bia\u0142ego w Trzebini",
                "name": "Szko\u0142a Podstawowa Nr 4",
                "addr:postcode": "32-540",
                "addr:city": "Trzebinia",
                "addr:street": "Styczniowa",
                "addr:housenumber": "47",
                "addr:city:simc": 944149,
                "addr:street:sym_ul": 21474,
                "phone": "+48 326121320",
                "email": "sp4trzebinia@gazeta.pl",
                "website": "http:\/\/www.sp4trzebinia.superszkolna.pl",
                "ref:regon": "000729505",
                "ref:vatin": "PL6281951195",
                "operator": "Gmina Trzebinia",
                "operator:type": "government",
                "amenity": "school"
            }
        },
        {
            "id": 11760,
            "type": "Feature",
            "geometry": {
                "type": "Point",
                "coordinates": [
                    19.45116,
                    50.1753
                ]
            },
            "properties": {
                "ref:rspo": 11760,
                "official_name": "Przedszkole Samorz\u0105dowe Nr 4 w Trzebini",
                "name": "Przedszkole Samorz\u0105dowe Nr 4 w Trzebini",
                "addr:postcode": "32-540",
                "addr:city": "Trzebinia",
                "addr:street": "Poprzeczna",
                "addr:housenumber": "1",
                "addr:city:simc": 944149,
                "addr:street:sym_ul": 17171,
                "phone": "+48 327536171",
                "email": "psnr4@poczta.onet.pl",
                "website": "http:\/\/sloneczneprzedszkoletrzebinia.blogspot.com",
                "ref:regon": "271510076",
                "ref:vatin": "PL6281951605",
                "operator": "Gmina Trzebinia",
                "operator:type": "government",
                "amenity": "kindergarten"
            }
        },
        {
            "id": 272797,
            "type": "Feature",
            "geometry": {
                "type": "Point",
                "coordinates": [
                    19.45662,
                    50.17537
                ]
            },
            "properties": {
                "isced:level": "3",
                "ref:rspo": 272797,
                "official_name": "Bran\u017cowa Szko\u0142a I Stopnia w Trzebini Zak\u0142adu Doskonalenia Zawodowego w Katowicach",
                "name": "Bran\u017cowa Szko\u0142a I Stopnia w Trzebini Zak\u0142adu Doskonalenia Zawodowego w Katowicach",
                "addr:postcode": "32-540",
                "addr:city": "Trzebinia",
                "addr:street": "Lipcowa",
                "addr:housenumber": "50",
                "addr:city:simc": 944149,
                "addr:street:sym_ul": 11110,
                "email": "s-trzebinia@zdz.katowice.pl",
                "ref:regon": "384292284",
                "operator": "Zak\u0142ad Doskonalenia Zawodowego W Katowicach",
                "operator:type": "ngo",
                "amenity": "school"
            }
        },
        {
            "id": 275861,
            "type": "Feature",
            "geometry": {
                "type": "Point",
                "coordinates": [
                    19.45662,
                    50.17534
                ]
            },
            "properties": {
                "isced:level": "1;2",
                "ref:rspo": 275861,
                "official_name": "Szko\u0142a Podstawowa w Trzebini Z Oddzia\u0142ami Przysposabiaj\u0105cymi Do Pracy Zak\u0142adu Doskonalenia Zawodowego w Katowicach",
                "name": "Szko\u0142a Podstawowa w Trzebini Z Oddzia\u0142ami Przysposabiaj\u0105cymi Do Pracy Zak\u0142adu Doskonalenia Zawodowego w Katowicach",
                "addr:postcode": "32-540",
                "addr:city": "Trzebinia",
                "addr:street": "Lipcowa",
                "addr:housenumber": "50",
                "addr:city:simc": 944149,
                "addr:street:sym_ul": 11110,
                "phone": "+48 326121377",
                "email": "trzebinia@zdz.katowice.pl",
                "ref:regon": "386944176",
                "operator": "Zak\u0142ad Doskonalenia Zawodowego W Katowicach",
                "operator:type": "ngo",
                "amenity": "school"
            }
        },
        {
            "id": 47610,
            "type": "Feature",
            "geometry": {
                "type": "Point",
                "coordinates": [
                    19.42051,
                    50.1793
                ]
            },
            "properties": {
                "isced:level": "1;2",
                "ref:rspo": 47610,
                "official_name": "Szko\u0142a Podstawowa Nr 3 im. Ignacego \u0141ukasiewicza w Trzebini",
                "name": "Szko\u0142a Podstawowa Nr 3",
                "addr:postcode": "32-540",
                "addr:city": "Trzebinia",
                "addr:street": "1 Maja",
                "addr:housenumber": "60",
                "addr:city:simc": 944149,
                "addr:street:sym_ul": 11926,
                "phone": "+48 327535934",
                "email": "sp3@tca.trzebinia.pl",
                "website": "http:\/\/www.sp3trzebinia.pl",
                "ref:regon": "000729497",
                "ref:vatin": "PL6281953024",
                "operator": "Gmina Trzebinia",
                "operator:type": "government",
                "amenity": "school"
            }
        },
        {
            "id": 23108,
            "type": "Feature",
            "geometry": {
                "type": "Point",
                "coordinates": [
                    19.47742,
                    50.18348
                ]
            },
            "properties": {
                "isced:level": "1;2",
                "ref:rspo": 23108,
                "official_name": "Szko\u0142a Podstawowa w My\u015blachowicach",
                "name": "Szko\u0142a Podstawowa w My\u015blachowicach",
                "addr:postcode": "32-543",
                "addr:city": "My\u015blachowice",
                "addr:street": "Trzebi\u0144ska",
                "addr:housenumber": "15",
                "addr:city:simc": 223059,
                "addr:street:sym_ul": 23071,
                "phone": "+48 326137082",
                "email": "spmyslachowice@op.pl",
                "ref:regon": "000729570",
                "ref:vatin": "PL6281951226",
                "operator": "Gmina Trzebinia",
                "operator:type": "government",
                "amenity": "school"
            }
        },
        {
            "id": 12087,
            "type": "Feature",
            "geometry": {
                "type": "Point",
                "coordinates": [
                    19.47835,
                    50.18379
                ]
            },
            "properties": {
                "ref:rspo": 12087,
                "official_name": "Przedszkole Samorz\u0105dowe w My\u015blachowicach",
                "name": "Przedszkole Samorz\u0105dowe w My\u015blachowicach",
                "addr:postcode": "32-543",
                "addr:city": "My\u015blachowice",
                "addr:street": "Trzebi\u0144ska",
                "addr:housenumber": "5",
                "addr:city:simc": 223059,
                "addr:street:sym_ul": 23071,
                "phone": "+48 326137097",
                "email": "psmyslachowice@onet.pl",
                "website": "http:\/\/przedszkolemyslachowice.edupage.org",
                "ref:regon": "271505030",
                "ref:vatin": "PL6281951634",
                "operator": "Gmina Trzebinia",
                "operator:type": "government",
                "amenity": "kindergarten"
            }
        },
        {
            "id": 71874,
            "type": "Feature",
            "geometry": {
                "type": "Point",
                "coordinates": [
                    19.45742,
                    50.18456
                ]
            },
            "properties": {
                "ref:rspo": 71874,
                "official_name": "Zesp\u00f3\u0142 Szk\u00f3\u0142 Techniczno-Us\u0142ugowych w Trzebini",
                "name": "Zesp\u00f3\u0142 Szk\u00f3\u0142 Techniczno-Us\u0142ugowych w Trzebini",
                "addr:postcode": "32-541",
                "addr:city": "Trzebinia",
                "addr:street": "Gwark\u00f3w",
                "addr:housenumber": "3",
                "addr:city:simc": 944149,
                "addr:street:sym_ul": 6412,
                "phone": "+48 327115808",
                "email": "sekretariat@zstu.edu.pl",
                "website": "http:\/\/www.zstu.edu.pl",
                "ref:regon": "272220707",
                "ref:vatin": "PL6281038580",
                "operator": "Powiat Chrzanowski",
                "operator:type": "government",
                "landuse": "education",
                "fixme": "amenity=school, amenity=college albo landuse=education w zale\u017cno\u015bci od tego, jakie plac\u00f3wki wchodz\u0105 w sk\u0142ad zespo\u0142u. Sprawd\u017a, kiedy stosowa\u0107 amenity=* a kiedy landuse=education.",
                "note": "Children RSPO: 104525;105070;121635;276073"
            }
        },
        {
            "id": 104525,
            "type": "Feature",
            "geometry": {
                "type": "Point",
                "coordinates": [
                    19.45742,
                    50.184529999999995
                ]
            },
            "properties": {
                "isced:level": "3",
                "ref:rspo": 104525,
                "official_name": "Technikum Nr 2 w Trzebini",
                "name": "Technikum Nr 2 w Trzebini",
                "addr:postcode": "32-541",
                "addr:city": "Trzebinia",
                "addr:street": "Gwark\u00f3w",
                "addr:housenumber": "3",
                "addr:city:simc": 944149,
                "addr:street:sym_ul": 6412,
                "phone": "+48 327115808",
                "email": "sekretariat@zstu.edu.pl",
                "website": "http:\/\/www.zstu.edu.pl",
                "ref:regon": "356583164",
                "operator": "Powiat Chrzanowski",
                "operator:type": "government",
                "amenity": "school",
                "note": "Parent RSPO: 71874"
            }
        },
        {
            "id": 105070,
            "type": "Feature",
            "geometry": {
                "type": "Point",
                "coordinates": [
                    19.45742,
                    50.1845
                ]
            },
            "properties": {
                "isced:level": "3",
                "ref:rspo": 105070,
                "official_name": "Bran\u017cowa Szko\u0142a I Stopnia Nr 2 w Trzebini",
                "name": "Bran\u017cowa Szko\u0142a I Stopnia Nr 2 w Trzebini",
                "addr:postcode": "32-541",
                "addr:city": "Trzebinia",
                "addr:street": "Gwark\u00f3w",
                "addr:housenumber": "3",
                "addr:city:simc": 944149,
                "addr:street:sym_ul": 6412,
                "phone": "+48 327115808",
                "email": "sekretariat@zstu.edu.pl",
                "website": "http:\/\/www.zstu.edu.pl",
                "ref:regon": "356583135",
                "operator": "Powiat Chrzanowski",
                "operator:type": "government",
                "amenity": "school",
                "note": "Parent RSPO: 71874"
            }
        },
        {
            "id": 121635,
            "type": "Feature",
            "geometry": {
                "type": "Point",
                "coordinates": [
                    19.45742,
                    50.18447
                ]
            },
            "properties": {
                "isced:level": "4",
                "ref:rspo": 121635,
                "official_name": "Szko\u0142a Policealna Nr 2 w Trzebini",
                "name": "Szko\u0142a Policealna Nr 2 w Trzebini",
                "addr:postcode": "32-541",
                "addr:city": "Trzebinia",
                "addr:street": "Gwark\u00f3w",
                "addr:housenumber": "3",
                "addr:city:simc": 944149,
                "addr:street:sym_ul": 6412,
                "email": "sekretariat@zstu.edu.pl",
                "website": "http:\/\/www.zstu.edu.pl",
                "ref:regon": "357482761",
                "operator": "Powiat Chrzanowski",
                "operator:type": "government",
                "amenity": "college",
                "note": "Parent RSPO: 71874"
            }
        },
        {
            "id": 276073,
            "type": "Feature",
            "geometry": {
                "type": "Point",
                "coordinates": [
                    19.45742,
                    50.184439999999995
                ]
            },
            "properties": {
                "isced:level": "3",
                "ref:rspo": 276073,
                "official_name": "Bran\u017cowa Szko\u0142a II Stopnia w Trzebini",
                "name": "Bran\u017cowa Szko\u0142a II Stopnia w Trzebini",
                "addr:postcode": "32-541",
                "addr:city": "Trzebinia",
                "addr:street": "Gwark\u00f3w",
                "addr:housenumber": "3",
                "addr:city:simc": 944149,
                "addr:street:sym_ul": 6412,
                "phone": "+48 327115346",
                "email": "sekretariat@zstu.edu.pl",
                "website": "http:\/\/www.zstu.edu.pl",
                "ref:regon": "386981289",
                "operator": "Powiat Chrzanowski",
                "operator:type": "government",
                "amenity": "school",
                "note": "Parent RSPO: 71874"
            }
        },
        {
            "id": 268558,
            "type": "Feature",
            "geometry": {
                "type": "Point",
                "coordinates": [
                    19.44966,
                    50.1861
                ]
            },
            "properties": {
                "isced:level": "1;2",
                "ref:rspo": 268558,
                "official_name": "Terapeutyczna Szko\u0142a Podstawowa Specjalna w Trzebini",
                "name": "Terapeutyczna Szko\u0142a Podstawowa Specjalna w Trzebini",
                "addr:postcode": "32-540",
                "addr:city": "Trzebinia",
                "addr:street": "Grunwaldzka",
                "addr:housenumber": "67",
                "addr:city:simc": 944149,
                "addr:street:sym_ul": 6260,
                "email": "jmorawie1@gmail.com",
                "website": "http:\/\/www.placowkiterapeutyczne-trzebinia.pl",
                "ref:regon": "381201938",
                "operator": "Janusz Morawiec",
                "operator:type": "private",
                "amenity": "school"
            }
        },
        {
            "id": 273214,
            "type": "Feature",
            "geometry": {
                "type": "Point",
                "coordinates": [
                    19.44966,
                    50.18607
                ]
            },
            "properties": {
                "ref:rspo": 273214,
                "official_name": "Terapeutyczne Przedszkole Specjalne \"Harmonijka\" w Trzebini",
                "name": "Terapeutyczne Przedszkole Specjalne \"Harmonijka\" w Trzebini",
                "addr:postcode": "32-541",
                "addr:city": "Trzebinia",
                "addr:street": "Grunwaldzka",
                "addr:housenumber": "67",
                "addr:city:simc": 944149,
                "addr:street:sym_ul": 6260,
                "ref:regon": "384404560",
                "operator": "Janusz Morawiec",
                "operator:type": "private",
                "amenity": "kindergarten"
            }
        },
        {
            "id": 107673,
            "type": "Feature",
            "geometry": {
                "type": "Point",
                "coordinates": [
                    19.44837,
                    50.18681
                ]
            },
            "properties": {
                "ref:rspo": 107673,
                "official_name": "Niepubliczna Plac\u00f3wka O\u015bwiatowa w Trzebini Behap-Bud",
                "name": "Niepubliczna Plac\u00f3wka O\u015bwiatowa w Trzebini Behap-Bud",
                "addr:postcode": "32-541",
                "addr:city": "Trzebinia",
                "addr:street": "Grunwaldzka",
                "addr:housenumber": "71",
                "addr:door": "2",
                "addr:city:simc": 944149,
                "addr:street:sym_ul": 6260,
                "phone": "+48 327118284",
                "email": "behap@behap.pl",
                "website": "http:\/\/www.behap.pl",
                "ref:regon": "122768330",
                "operator": "Behap-Bud Sp\u00f3\u0142ka Cywilna Eugeniusz Winiarski, Piotr Winiarski",
                "operator:type": "consortium",
                "fixme": "w zale\u017cno\u015bci od przedmiotu dzia\u0142alno\u015bci (np. amenity=training + training=*, amenity=dancing_school, amenity=language_school, amenity=music_school)"
            }
        },
        {
            "id": 22696,
            "type": "Feature",
            "geometry": {
                "type": "Point",
                "coordinates": [
                    19.42744,
                    50.19569
                ]
            },
            "properties": {
                "ref:rspo": 22696,
                "official_name": "Niepubliczne Przedszkole Artystyczno-J\u0119zykowe \"B\u0142\u0119kitna Laguna\" Magdalena Hajdus-Kawala",
                "name": "Niepubliczne Przedszkole Artystyczno-J\u0119zykowe \"B\u0142\u0119kitna Laguna\" Magdalena Hajdus-Kawala",
                "addr:postcode": "32-541",
                "addr:city": "Trzebinia",
                "addr:street": "Grunwaldzka",
                "addr:housenumber": "93",
                "addr:city:simc": 944149,
                "addr:street:sym_ul": 6260,
                "phone": "+48 606352526",
                "email": "biuro@przedszkole.trzebinia.com",
                "website": "http:\/\/www.przedszkole.trzebinia.com",
                "ref:regon": "122674451",
                "ref:vatin": "PL6281720722",
                "operator": "Magdalena Hajdus-Kawala",
                "operator:type": "private",
                "amenity": "kindergarten"
            }
        },
        {
            "id": 262604,
            "type": "Feature",
            "geometry": {
                "type": "Point",
                "coordinates": [
                    19.42331,
                    50.19688
                ]
            },
            "properties": {
                "isced:level": "1;2",
                "ref:rspo": 262604,
                "official_name": "Szko\u0142a Podstawowa Nr 5 w Trzebini",
                "name": "Szko\u0142a Podstawowa Nr 5 w Trzebini",
                "addr:postcode": "32-540",
                "addr:city": "Trzebinia",
                "addr:street": "Jana III Sobieskiego",
                "addr:housenumber": "25",
                "addr:city:simc": 944149,
                "addr:street:sym_ul": 20431,
                "phone": "+48 326110161",
                "email": "spnr5trzebinia@gmail.com",
                "ref:regon": "368040595",
                "operator": "Gmina Trzebinia",
                "operator:type": "government",
                "amenity": "school"
            }
        },
        {
            "id": 264493,
            "type": "Feature",
            "geometry": {
                "type": "Point",
                "coordinates": [
                    19.42331,
                    50.19685
                ]
            },
            "properties": {
                "isced:level": "1;2",
                "ref:rspo": 264493,
                "official_name": "Szko\u0142a Podstawowa dla Doros\u0142ych w Trzebini",
                "name": "Szko\u0142a Podstawowa dla Doros\u0142ych w Trzebini",
                "addr:postcode": "32-540",
                "addr:city": "Trzebinia",
                "addr:street": "Jana III Sobieskiego",
                "addr:housenumber": "25",
                "addr:city:simc": 944149,
                "addr:street:sym_ul": 20431,
                "phone": "+48 326110161",
                "email": "spnr5trzebinia@gmail.com",
                "ref:regon": "368365156",
                "operator": "Gmina Trzebinia",
                "operator:type": "government",
                "amenity": "school"
            }
        },
        {
            "id": 272756,
            "type": "Feature",
            "geometry": {
                "type": "Point",
                "coordinates": [
                    19.42331,
                    50.19755
                ]
            },
            "properties": {
                "isced:level": "1;2",
                "ref:rspo": 272756,
                "official_name": "Niepubliczna Szko\u0142a Podstawowa Edison w Trzebini",
                "name": "Niepubliczna Szko\u0142a Podstawowa Edison w Trzebini",
                "addr:postcode": "32-540",
                "addr:city": "Trzebinia",
                "addr:street": "Grunwaldzka",
                "addr:housenumber": "101",
                "addr:city:simc": 944149,
                "addr:street:sym_ul": 6260,
                "email": "sekretariat@szkolaedison.pl",
                "website": "http:\/\/www.szkolaedison.pl",
                "ref:regon": "384290776",
                "operator": "Kinga Grzybowska",
                "operator:type": "private",
                "amenity": "school"
            }
        },
        {
            "id": 10997,
            "type": "Feature",
            "geometry": {
                "type": "Point",
                "coordinates": [
                    19.42191,
                    50.1977199
                ]
            },
            "properties": {
                "ref:rspo": 10997,
                "official_name": "Przedszkole Samorz\u0105dowe Nr 3 w Trzebini",
                "name": "Przedszkole Samorz\u0105dowe Nr 3 w Trzebini",
                "addr:postcode": "32-541",
                "addr:city": "Trzebinia",
                "addr:street": "Grunwaldzka",
                "addr:housenumber": "107",
                "addr:city:simc": 944149,
                "addr:street:sym_ul": 6260,
                "phone": "+48 326110145",
                "email": "ps3@tca.trzebinia.pl",
                "website": "http:\/\/psnr3trzebinia.przedszkolowo.pl",
                "ref:regon": "271505000",
                "ref:vatin": "PL6281951568",
                "operator": "Gmina Trzebinia",
                "operator:type": "government",
                "amenity": "kindergarten"
            }
        },
        {
            "id": 12086,
            "type": "Feature",
            "geometry": {
                "type": "Point",
                "coordinates": [
                    19.44451,
                    50.20037
                ]
            },
            "properties": {
                "ref:rspo": 12086,
                "official_name": "Przedszkole Samorz\u0105dowe Nr 6 im. Jana Paw\u0142a Ii",
                "name": "Przedszkole Samorz\u0105dowe Nr 6",
                "addr:postcode": "32-541",
                "addr:city": "Trzebinia",
                "addr:street": "Osiedle Osiedle Gaj",
                "addr:housenumber": "6",
                "addr:city:simc": 944149,
                "addr:street:sym_ul": 49784,
                "phone": "+48 327118666",
                "email": "ps6@tca.trzebinia.pl",
                "website": "http:\/\/www.przedszkole6.pl.tl",
                "ref:regon": "272536327",
                "ref:vatin": "PL6281951640",
                "operator": "Gmina Trzebinia",
                "operator:type": "government",
                "amenity": "kindergarten"
            }
        },
        {
            "id": 29515,
            "type": "Feature",
            "geometry": {
                "type": "Point",
                "coordinates": [
                    19.44031,
                    50.20116
                ]
            },
            "properties": {
                "isced:level": "1;2",
                "ref:rspo": 29515,
                "official_name": "Szko\u0142a Podstawowa Nr 6 im. W\u0142adys\u0142awa Broniewskiego",
                "name": "Szko\u0142a Podstawowa Nr 6",
                "addr:postcode": "32-541",
                "addr:city": "Trzebinia",
                "addr:street": "Osiedle Osiedle Gaj",
                "addr:housenumber": "39",
                "addr:city:simc": 944149,
                "addr:street:sym_ul": 49784,
                "phone": "+48 326122121",
                "email": "sp6.trzebinia@interia.pl",
                "website": "https:\/\/sp6trzebinia.edupage.org\/",
                "ref:regon": "000729528",
                "ref:vatin": "PL6281952993",
                "operator": "Gmina Trzebinia",
                "operator:type": "government",
                "amenity": "school"
            }
        },
        {
            "id": 132576,
            "type": "Feature",
            "geometry": {
                "type": "Point",
                "coordinates": [
                    19.5121,
                    50.20541
                ]
            },
            "properties": {
                "isced:level": "1;2",
                "ref:rspo": 132576,
                "official_name": "Publiczna Szko\u0142a Podstawowa w P\u0142okach",
                "name": "Publiczna Szko\u0142a Podstawowa w P\u0142okach",
                "addr:postcode": "32-543",
                "addr:city": "P\u0142oki",
                "addr:street": "Szkolna",
                "addr:housenumber": "6",
                "addr:city:simc": 223160,
                "addr:street:sym_ul": 21970,
                "phone": "+48 512596902",
                "email": "publicznaszkolaploki@gmail.com",
                "ref:regon": "365827892",
                "operator": "Stowarzyszenie Dzieciaki Na Bis",
                "operator:type": "ngo",
                "amenity": "school"
            }
        },
        {
            "id": 132578,
            "type": "Feature",
            "geometry": {
                "type": "Point",
                "coordinates": [
                    19.5121,
                    50.20538
                ]
            },
            "properties": {
                "ref:rspo": 132578,
                "official_name": "Publiczne Przedszkole w P\u0142okach",
                "name": "Publiczne Przedszkole w P\u0142okach",
                "addr:postcode": "32-543",
                "addr:city": "P\u0142oki",
                "addr:street": "Szkolna",
                "addr:housenumber": "6",
                "addr:city:simc": 223160,
                "addr:street:sym_ul": 21970,
                "phone": "+48 512596902",
                "email": "publicznaszkolaploki@gmail.com",
                "ref:regon": "365827998",
                "operator": "Stowarzyszenie Dzieciaki Na Bis",
                "operator:type": "ngo",
                "amenity": "kindergarten"
            }
        },
        {
            "id": 23118,
            "type": "Feature",
            "geometry": {
                "type": "Point",
                "coordinates": [
                    19.50909,
                    50.20655
                ]
            },
            "properties": {
                "isced:level": "1;2",
                "ref:rspo": 23118,
                "official_name": "Szko\u0142a Podstawowa im.w\u0142adys\u0142awa Broniewskiego w Psarach",
                "name": "Szko\u0142a Podstawowa im.w\u0142adys\u0142awa Broniewskiego w Psarach",
                "addr:postcode": "32-545",
                "addr:city": "Psary",
                "addr:street": "Szkolna",
                "addr:housenumber": "17",
                "addr:city:simc": 223208,
                "addr:street:sym_ul": 21970,
                "phone": "+48 326138006",
                "email": "sppsary@interia.pl",
                "website": "http:\/\/www.sppsary.pl",
                "ref:regon": "000729557",
                "ref:vatin": "PL6281952177",
                "operator": "Gmina Trzebinia",
                "operator:type": "government",
                "amenity": "school"
            }
        },
        {
            "id": 73729,
            "type": "Feature",
            "geometry": {
                "type": "Point",
                "coordinates": [
                    19.55431,
                    50.20721
                ]
            },
            "properties": {
                "isced:level": "1;2",
                "ref:rspo": 73729,
                "official_name": "Szko\u0142a Podstawowa im. Juliusza S\u0142owackiego w Lgocie",
                "name": "Szko\u0142a Podstawowa",
                "addr:postcode": "32-543",
                "addr:city": "Lgota",
                "addr:street": "Szkolna",
                "addr:housenumber": "1",
                "addr:city:simc": 222918,
                "addr:street:sym_ul": 21970,
                "phone": "+48 326137002",
                "email": "spslowlgota@interia.pl",
                "website": "http:\/\/www.splgota.pl",
                "ref:regon": "000729592",
                "ref:vatin": "PL6281950847",
                "operator": "Gmina Trzebinia",
                "operator:type": "government",
                "amenity": "school"
            }
        },
        {
            "id": 73757,
            "type": "Feature",
            "geometry": {
                "type": "Point",
                "coordinates": [
                    19.55431,
                    50.20718
                ]
            },
            "properties": {
                "ref:rspo": 73757,
                "official_name": "Punkt Przedszkolny Przy Szkole Podstawowej im. Juliusza S\u0142owackiego w Lgocie",
                "name": "Punkt Przedszkolny Przy Szkole Podstawowej",
                "addr:postcode": "32-543",
                "addr:city": "Lgota",
                "addr:street": "Szkolna",
                "addr:housenumber": "1",
                "addr:city:simc": 222918,
                "addr:street:sym_ul": 21970,
                "phone": "+48 326137002",
                "email": "spslowlgota@interia.pl",
                "website": "http:\/\/www.splgota.republika.pl",
                "ref:regon": "122698859",
                "ref:vatin": "PL6281950847",
                "operator": "Gmina Trzebinia",
                "operator:type": "government",
                "amenity": "kindergarten"
            }
        },
        {
            "id": 41018,
            "type": "Feature",
            "geometry": {
                "type": "Point",
                "coordinates": [
                    19.47376,
                    50.2083
                ]
            },
            "properties": {
                "ref:rspo": 41018,
                "official_name": "Zesp\u00f3\u0142 Szkolno-Przedszkolny w Czy\u017c\u00f3wce",
                "name": "Zesp\u00f3\u0142 Szkolno-Przedszkolny w Czy\u017c\u00f3wce",
                "addr:postcode": "32-541",
                "addr:city": "Czy\u017c\u00f3wka",
                "addr:street": "Szkolna",
                "addr:housenumber": "11",
                "addr:city:simc": 222806,
                "addr:street:sym_ul": 21970,
                "phone": "+48 327116466",
                "email": "pspczyzowka@gmail.com",
                "website": "http:\/\/www.czyzowka.edu.pl",
                "ref:regon": "122686738",
                "ref:vatin": "PL6281916164",
                "operator": "Joanna Jedynak-D\u0105bek",
                "operator:type": "private",
                "landuse": "education",
                "fixme": "amenity=school, amenity=college albo landuse=education w zale\u017cno\u015bci od tego, jakie plac\u00f3wki wchodz\u0105 w sk\u0142ad zespo\u0142u. Sprawd\u017a, kiedy stosowa\u0107 amenity=* a kiedy landuse=education.",
                "note": "Children RSPO: 105867;105868"
            }
        },
        {
            "id": 105867,
            "type": "Feature",
            "geometry": {
                "type": "Point",
                "coordinates": [
                    19.47376,
                    50.20827
                ]
            },
            "properties": {
                "isced:level": "1;2",
                "ref:rspo": 105867,
                "official_name": "Publiczna Szko\u0142a Podstawowa im. Adama Mickiewicza w Czy\u017c\u00f3wce",
                "name": "Publiczna Szko\u0142a Podstawowa",
                "addr:postcode": "32-541",
                "addr:city": "Czy\u017c\u00f3wka",
                "addr:street": "Szkolna",
                "addr:housenumber": "11",
                "addr:city:simc": 222806,
                "addr:street:sym_ul": 21970,
                "phone": "+48 327116466",
                "email": "pspczyzowka@gmail.com",
                "website": "http:\/\/www.czyzowka.edu.pl",
                "ref:regon": "122748669",
                "operator": "Joanna Jedynak-D\u0105bek",
                "operator:type": "private",
                "amenity": "school",
                "note": "Parent RSPO: 41018"
            }
        },
        {
            "id": 105868,
            "type": "Feature",
            "geometry": {
                "type": "Point",
                "coordinates": [
                    19.47376,
                    50.20824
                ]
            },
            "properties": {
                "ref:rspo": 105868,
                "official_name": "Publiczne Przedszkole w Czy\u017c\u00f3wce",
                "name": "Publiczne Przedszkole w Czy\u017c\u00f3wce",
                "addr:postcode": "32-541",
                "addr:city": "Czy\u017c\u00f3wka",
                "addr:street": "Szkolna",
                "addr:housenumber": "11",
                "addr:city:simc": 222806,
                "addr:street:sym_ul": 21970,
                "phone": "+48 327116466",
                "email": "pspczyzowka@gmail.com",
                "website": "http:\/\/www.czyzowka.edu.pl",
                "ref:regon": "122748698",
                "operator": "Joanna Jedynak-D\u0105bek",
                "operator:type": "private",
                "amenity": "kindergarten",
                "note": "Parent RSPO: 41018"
            }
        }
    ]
}