{
    "type": "FeatureCollection",
    "features": [
        {
            "id": 68372,
            "type": "Feature",
            "geometry": {
                "type": "Point",
                "coordinates": [
                    16.58054,
                    50.7098299
                ]
            },
            "properties": {
                "ref:rspo": 68372,
                "official_name": "Niepubliczne Przedszkole Si\u00f3str Salezjanek w Pieszycach",
                "name": "Niepubliczne Przedszkole Si\u00f3str Salezjanek w Pieszycach",
                "addr:postcode": "58-250",
                "addr:city": "Pieszyce",
                "addr:street": "Ogrodowa",
                "addr:housenumber": "48",
                "addr:city:simc": 984396,
                "addr:street:sym_ul": 14834,
                "phone": "+48 748365395",
                "email": "pieszycep@cmw.osw.pl",
                "website": "http:\/\/www.salezjanki.pieszyce.pl",
                "ref:regon": "022000454",
                "ref:vatin": "PL8821717625",
                "operator": "Zgromadzenie C\u00f3rek Maryi Wspomo\u017cycielki (Siostry Salezjanki) Inspektoria Wroc\u0142awska",
                "operator:type": "religious",
                "amenity": "kindergarten"
            }
        },
        {
            "id": 77892,
            "type": "Feature",
            "geometry": {
                "type": "Point",
                "coordinates": [
                    16.5855,
                    50.71196
                ]
            },
            "properties": {
                "ref:rspo": 77892,
                "official_name": "Przedszkole Publiczne Nr 2 w Pieszycach",
                "name": "Przedszkole Publiczne Nr 2 w Pieszycach",
                "addr:postcode": "58-250",
                "addr:city": "Pieszyce",
                "addr:street": "Piotra W\u0142asta",
                "addr:housenumber": "17",
                "addr:city:simc": 984396,
                "addr:street:sym_ul": 24502,
                "phone": "+48 748365425",
                "email": "przedszkolekonopnicka@wp.pl",
                "website": "http:\/\/www.pp2pieszyce.pl",
                "ref:regon": "890528690",
                "ref:vatin": "PL8821837430",
                "operator": "Gmina Pieszyce",
                "operator:type": "government",
                "amenity": "kindergarten"
            }
        },
        {
            "id": 61547,
            "type": "Feature",
            "geometry": {
                "type": "Point",
                "coordinates": [
                    16.58531,
                    50.71309
                ]
            },
            "properties": {
                "isced:level": "1;2",
                "ref:rspo": 61547,
                "official_name": "Szko\u0142a Podstawowa Nr 1 im. Pieszyckiej Harcerskiej Organizacji Podziemnej w Pieszycach",
                "name": "Szko\u0142a Podstawowa Nr 1",
                "addr:postcode": "58-250",
                "addr:city": "Pieszyce",
                "addr:street": "Ogrodowa",
                "addr:housenumber": "23",
                "addr:city:simc": 984396,
                "addr:street:sym_ul": 14834,
                "phone": "+48 748365220",
                "email": "sp1pieszyce@poczta.onet.pl",
                "website": "http:\/\/www.sp1pieszyce.pl",
                "ref:regon": "000691501",
                "ref:vatin": "PL8821840679",
                "operator": "Gmina Pieszyce",
                "operator:type": "government",
                "amenity": "school"
            }
        },
        {
            "id": 5576,
            "type": "Feature",
            "geometry": {
                "type": "Point",
                "coordinates": [
                    16.59734,
                    50.72629
                ]
            },
            "properties": {
                "isced:level": "1;2",
                "ref:rspo": 5576,
                "official_name": "Niepubliczna Szko\u0142a Podstawowa Z Oddzia\u0142ami Przedszkolnymi",
                "name": "Niepubliczna Szko\u0142a Podstawowa Z Oddzia\u0142ami Przedszkolnymi",
                "addr:postcode": "58-250",
                "addr:city": "Pieszyce",
                "addr:street": "\u015awidnicka",
                "addr:housenumber": "53",
                "addr:city:simc": 984396,
                "addr:street:sym_ul": 22461,
                "phone": "+48 748365394",
                "email": "nsp.pieszyce@op.pl",
                "website": "http:\/\/nauczycieledzieciom.pl",
                "ref:regon": "021949340",
                "ref:vatin": "PL8822117494",
                "operator": "Stowarzyszenie Nauczyciele Dzieciom",
                "operator:type": "ngo",
                "amenity": "school"
            }
        },
        {
            "id": 120403,
            "type": "Feature",
            "geometry": {
                "type": "Point",
                "coordinates": [
                    16.5720199,
                    50.74806
                ]
            },
            "properties": {
                "isced:level": "1;2",
                "ref:rspo": 120403,
                "official_name": "Specjalna Przyszpitalna Niepubliczna Szko\u0142a Podstawowa Przy Sudeckim Centrum Zdrowia w Pieszycach",
                "name": "Specjalna Przyszpitalna Niepubliczna Szko\u0142a Podstawowa Przy Sudeckim Centrum Zdrowia w Pieszycach",
                "addr:postcode": "58-250",
                "addr:city": "Pieszyce",
                "addr:street": "Ksi\u0119dza Emila Pagacza",
                "addr:housenumber": "6",
                "addr:city:simc": 984396,
                "addr:street:sym_ul": 51460,
                "phone": "+48 748124830",
                "email": "szkolyprzyszpitalnepieszyce@vp.pl",
                "ref:regon": "022262409",
                "ref:vatin": "PL8822119033",
                "operator": "Sudeckie Centrum Edukacyjne",
                "operator:type": "ngo",
                "amenity": "school"
            }
        }
    ]
}