{
    "type": "FeatureCollection",
    "features": [
        {
            "id": 28886,
            "type": "Feature",
            "geometry": {
                "type": "Point",
                "coordinates": [
                    16.74504,
                    50.67966
                ]
            },
            "properties": {
                "ref:rspo": 28886,
                "official_name": "Specjalny O\u015brodek Szkolno-Wychowawczy im. Ks. Jana Twardowskiego w Pi\u0142awie G\u00f3rnej",
                "name": "Specjalny O\u015brodek Szkolno-Wychowawczy",
                "addr:country": "PL",
                "addr:postcode": "58-240",
                "addr:city": "Pi\u0142awa G\u00f3rna",
                "addr:street": "ul. Szkolna",
                "addr:housenumber": "6",
                "addr:teryt:simc": 21970,
                "addr:teryt:sym_ul": 984491,
                "contact:phone": "+48 748371246",
                "contact:email": "soswpilawa@interia.pl",
                "contact:website": "http:\/\/www.soswpg.edu.pl",
                "ref:regon": "000207327",
                "ref:vatin": "PL8821474737",
                "operator": "Powiat Dzier\u017coniowski",
                "operator:type": "government",
                "amenity": "school",
                "note": "Children RSPO: 49587;49590"
            }
        },
        {
            "id": 49587,
            "type": "Feature",
            "geometry": {
                "type": "Point",
                "coordinates": [
                    16.74504,
                    50.679629999999996
                ]
            },
            "properties": {
                "isced:level": "1;2",
                "ref:rspo": 49587,
                "official_name": "Szko\u0142a Podstawowa Specjalna Nr 2 w Pi\u0142awie G\u00f3rnej - Specjalny O\u015brodek Szkolno-Wychowawczy im. Ks. Jana Twardowskiego w Pi\u0142awie G\u00f3rnej",
                "name": "Szko\u0142a Podstawowa Specjalna Nr 2 w Pi\u0142awie G\u00f3rnej - Specjalny O\u015brodek Szkolno-Wychowawczy",
                "addr:country": "PL",
                "addr:postcode": "58-240",
                "addr:city": "Pi\u0142awa G\u00f3rna",
                "addr:street": "ul. Szkolna",
                "addr:housenumber": "6",
                "addr:teryt:simc": 21970,
                "addr:teryt:sym_ul": 984491,
                "contact:phone": "+48 748371246",
                "contact:email": "soswpilawa@interia.pl",
                "contact:website": "http:\/\/www.soswpg.edu.pl",
                "ref:regon": "000705108",
                "ref:vatin": "PL8821474737",
                "operator": "Powiat Dzier\u017coniowski",
                "operator:type": "government",
                "amenity": "school",
                "note": "Parent RSPO: 28886"
            }
        },
        {
            "id": 49590,
            "type": "Feature",
            "geometry": {
                "type": "Point",
                "coordinates": [
                    16.74504,
                    50.6796
                ]
            },
            "properties": {
                "ref:rspo": 49590,
                "official_name": "Szko\u0142a Specjalna Przysposabiaj\u0105ca Do Pracy w Pi\u0142awie G\u00f3rnej - Specjalny O\u015brodek Szkolno-Wychowawczym im. Ks. Jana Twardowskiego w Pi\u0142awie G\u00f3rnej",
                "name": "Szko\u0142a Specjalna Przysposabiaj\u0105ca Do Pracy w Pi\u0142awie G\u00f3rnej - Specjalny O\u015brodek Szkolno-Wychowawczym",
                "addr:country": "PL",
                "addr:postcode": "58-240",
                "addr:city": "Pi\u0142awa G\u00f3rna",
                "addr:street": "ul. Szkolna",
                "addr:housenumber": "6",
                "addr:teryt:simc": 21970,
                "addr:teryt:sym_ul": 984491,
                "contact:phone": "+48 748371246",
                "contact:email": "soswpilawa@interia.pl",
                "contact:website": "http:\/\/www.soswpg.edu.pl",
                "ref:regon": "891551655",
                "ref:vatin": "PL8821474737",
                "operator": "Powiat Dzier\u017coniowski",
                "operator:type": "government",
                "amenity": "school",
                "note": "Parent RSPO: 28886"
            }
        },
        {
            "id": 23237,
            "type": "Feature",
            "geometry": {
                "type": "Point",
                "coordinates": [
                    16.75522,
                    50.68089
                ]
            },
            "properties": {
                "isced:level": "1;2",
                "ref:rspo": 23237,
                "official_name": "Szko\u0142a Podstawowa im. Krzysztofa Kamila Baczy\u0144skiego w Pi\u0142awie G\u00f3rnej",
                "name": "Szko\u0142a Podstawowa",
                "addr:country": "PL",
                "addr:postcode": "58-240",
                "addr:city": "Pi\u0142awa G\u00f3rna",
                "addr:street": "ul. Tadeusza Ko\u015bciuszki",
                "addr:housenumber": "1",
                "addr:teryt:simc": 9582,
                "addr:teryt:sym_ul": 984491,
                "contact:phone": "+48 748371381",
                "contact:email": "sekretariat@sppg.edu.pl",
                "contact:website": "https:\/\/sppg.edupage.org\/",
                "ref:regon": "000639802",
                "ref:vatin": "PL8821600231",
                "operator": "Gmina Pi\u0142awa G\u00f3rna",
                "operator:type": "government",
                "amenity": "school"
            }
        },
        {
            "id": 23354,
            "type": "Feature",
            "geometry": {
                "type": "Point",
                "coordinates": [
                    16.75088,
                    50.68109
                ]
            },
            "properties": {
                "ref:rspo": 23354,
                "official_name": "Przedszkole Publiczne T\u0119czowa Kraina w Pi\u0142awie G\u00f3rnej",
                "name": "Przedszkole Publiczne T\u0119czowa Kraina w Pi\u0142awie G\u00f3rnej",
                "addr:country": "PL",
                "addr:postcode": "58-240",
                "addr:city": "Pi\u0142awa G\u00f3rna",
                "addr:street": "ul. Adama Mickiewicza",
                "addr:housenumber": "5",
                "addr:teryt:simc": 12740,
                "addr:teryt:sym_ul": 984491,
                "contact:phone": "+48 748371218",
                "contact:email": "dyrekcja_przedszkolepg@interia.pl",
                "contact:website": "http:\/\/teczowakraina.org.pl\/",
                "ref:regon": "021405189",
                "ref:vatin": "PL8822103871",
                "operator": "Gmina Pi\u0142awa G\u00f3rna",
                "operator:type": "government",
                "amenity": "kindergarten"
            }
        }
    ]
}