{
    "type": "FeatureCollection",
    "features": [
        {
            "id": 8115,
            "type": "Feature",
            "geometry": {
                "type": "Point",
                "coordinates": [
                    16.60094,
                    50.66636
                ]
            },
            "properties": {
                "isced:level": "1;2",
                "ref:rspo": 8115,
                "official_name": "Szko\u0142a Podstawowa nr 4 z Oddzia\u0142ami Integracyjnymi w Bielawie",
                "name": "Szko\u0142a Podstawowa nr 4 z Oddzia\u0142ami Integracyjnymi w Bielawie",
                "addr:postcode": "58-260",
                "addr:city": "Bielawa",
                "addr:street": "Ludwika Wary\u0144skiego",
                "addr:housenumber": "50",
                "addr:city:simc": 983818,
                "addr:street:sym_ul": 23707,
                "phone": "+48 746452208",
                "email": "sp4bielawa@wp.pl",
                "website": "http:\/\/www.sp4bielawa.pl",
                "ref:regon": "000717590",
                "ref:vatin": "PL8821847500",
                "operator": "Gmina Bielawa",
                "operator:type": "government",
                "amenity": "school"
            }
        },
        {
            "id": 119974,
            "type": "Feature",
            "geometry": {
                "type": "Point",
                "coordinates": [
                    16.60187,
                    50.67448
                ]
            },
            "properties": {
                "ref:rspo": 119974,
                "official_name": "Zesp\u00f3\u0142 Szk\u00f3\u0142 Cechu Rzemios\u0142 R\u00f3\u017cnych w Bielawie",
                "name": "Zesp\u00f3\u0142 Szk\u00f3\u0142 Cechu Rzemios\u0142 R\u00f3\u017cnych w Bielawie",
                "addr:postcode": "58-260",
                "addr:city": "Bielawa",
                "addr:street": "Polna",
                "addr:housenumber": "2",
                "addr:city:simc": 983818,
                "addr:street:sym_ul": 17011,
                "phone": "+48 748332116",
                "ref:regon": "022251363",
                "ref:vatin": "PL8820003473",
                "operator": "Cech Rzemios\u0142 R\u00f3\u017cnych I Ma\u0142ej Przedsi\u0119biorczo\u015bci W Bielawie",
                "operator:type": "ngo",
                "landuse": "education",
                "fixme": "amenity=school, amenity=college albo landuse=education w zale\u017cno\u015bci od tego, jakie plac\u00f3wki wchodz\u0105 w sk\u0142ad zespo\u0142u. Sprawd\u017a, kiedy stosowa\u0107 amenity=* a kiedy landuse=education.",
                "note": "Children RSPO: 6212;262677;273911"
            }
        },
        {
            "id": 6212,
            "type": "Feature",
            "geometry": {
                "type": "Point",
                "coordinates": [
                    16.60187,
                    50.67445
                ]
            },
            "properties": {
                "isced:level": "3",
                "ref:rspo": 6212,
                "official_name": "Bran\u017cowa Szko\u0142a I Stopnia Cechu Rzemios\u0142 R\u00f3\u017cnych I Ma\u0142ej Przedsi\u0119biorczo\u015bci w Bielawie",
                "name": "Bran\u017cowa Szko\u0142a I Stopnia Cechu Rzemios\u0142 R\u00f3\u017cnych I Ma\u0142ej Przedsi\u0119biorczo\u015bci w Bielawie",
                "addr:postcode": "58-260",
                "addr:city": "Bielawa",
                "addr:street": "Polna",
                "addr:housenumber": "2",
                "addr:city:simc": 983818,
                "addr:street:sym_ul": 17011,
                "phone": "+48 748332116",
                "email": "zszc.bielawa@wp.pl",
                "ref:regon": "021952537",
                "ref:vatin": "PL8820003473",
                "operator": "Cech Rzemios\u0142 R\u00f3\u017cnych I Ma\u0142ej Przedsi\u0119biorczo\u015bci W Bielawie",
                "operator:type": "ngo",
                "amenity": "school",
                "note": "Parent RSPO: 119974"
            }
        },
        {
            "id": 262677,
            "type": "Feature",
            "geometry": {
                "type": "Point",
                "coordinates": [
                    16.60187,
                    50.674420000000005
                ]
            },
            "properties": {
                "isced:level": "1;2",
                "ref:rspo": 262677,
                "official_name": "Szko\u0142a Podstawowa z Oddzia\u0142ami Przysposabiaj\u0105cymi do Pracy Cechu Rzemios\u0142 R\u00f3\u017cnych I Ma\u0142ej Przedsi\u0119biorczo\u015bci",
                "name": "Szko\u0142a Podstawowa z Oddzia\u0142ami Przysposabiaj\u0105cymi do Pracy Cechu Rzemios\u0142 R\u00f3\u017cnych I Ma\u0142ej Przedsi\u0119biorczo\u015bci",
                "addr:postcode": "58-260",
                "addr:city": "Bielawa",
                "addr:street": "Polna",
                "addr:housenumber": "2",
                "addr:city:simc": 983818,
                "addr:street:sym_ul": 17011,
                "phone": "+48 748332116",
                "email": "zszc.bielawa@wp.pl",
                "website": "http:\/\/www.zsz-cech-bielawa.pl\/zszcrrimp\/",
                "ref:regon": "368050211",
                "operator": "Cech Rzemios\u0142 R\u00f3\u017cnych I Ma\u0142ej Przedsi\u0119biorczo\u015bci W Bielawie",
                "operator:type": "ngo",
                "amenity": "school",
                "note": "Parent RSPO: 119974"
            }
        },
        {
            "id": 273911,
            "type": "Feature",
            "geometry": {
                "type": "Point",
                "coordinates": [
                    16.60187,
                    50.67439
                ]
            },
            "properties": {
                "ref:rspo": 273911,
                "official_name": "Centrum Kszta\u0142cenia Zawodowego Cechu Rzemios\u0142 R\u00f3\u017cnych I Ma\u0142ej Przedsi\u0119biorczo\u015bci w Bielawie",
                "name": "Centrum Kszta\u0142cenia Zawodowego Cechu Rzemios\u0142 R\u00f3\u017cnych I Ma\u0142ej Przedsi\u0119biorczo\u015bci w Bielawie",
                "addr:postcode": "58-260",
                "addr:city": "Bielawa",
                "addr:street": "Polna",
                "addr:housenumber": "2",
                "addr:city:simc": 983818,
                "addr:street:sym_ul": 17011,
                "phone": "+48 748332116",
                "email": "zszc.bielawa@wp.pl",
                "website": "http:\/\/www.zsz-cech-bielawa.pl",
                "ref:regon": "384865194",
                "operator": "Cech Rzemios\u0142 R\u00f3\u017cnych I Ma\u0142ej Przedsi\u0119biorczo\u015bci W Bielawie",
                "operator:type": "ngo",
                "fixme": "w zale\u017cno\u015bci od przedmiotu dzia\u0142alno\u015bci (np. amenity=training + training=*, amenity=dancing_school, amenity=language_school, amenity=music_school)",
                "note": "Parent RSPO: 119974"
            }
        },
        {
            "id": 2935,
            "type": "Feature",
            "geometry": {
                "type": "Point",
                "coordinates": [
                    16.60754,
                    50.67671
                ]
            },
            "properties": {
                "ref:rspo": 2935,
                "official_name": "Sportowe Przedszkole Niepubliczne",
                "name": "Sportowe Przedszkole Niepubliczne",
                "addr:postcode": "58-260",
                "addr:city": "Bielawa",
                "addr:street": "Klonowa",
                "addr:housenumber": "4",
                "addr:city:simc": 983818,
                "addr:street:sym_ul": 8574,
                "phone": "+48 600773290",
                "email": "sportoweprzedszkole@o2.pl",
                "ref:regon": "021936159",
                "ref:vatin": "PL8821910262",
                "operator": "Agnieszka \u017by\u0142ka",
                "operator:type": "private",
                "amenity": "kindergarten"
            }
        },
        {
            "id": 10596,
            "type": "Feature",
            "geometry": {
                "type": "Point",
                "coordinates": [
                    16.62125,
                    50.67818
                ]
            },
            "properties": {
                "ref:rspo": 10596,
                "official_name": "Niepubliczny Punkt Przedszkolny \"Chatka Puchatka\"",
                "name": "Niepubliczny Punkt Przedszkolny \"Chatka Puchatka\"",
                "addr:postcode": "58-260",
                "addr:city": "Bielawa",
                "addr:street": "Elizy Orzeszkowej",
                "addr:housenumber": "1",
                "addr:city:simc": 983818,
                "addr:street:sym_ul": 15211,
                "phone": "+48 512088037",
                "email": "irena.kasprzyk@chatkapuchatka-bielawa.pl",
                "ref:regon": "021956989",
                "ref:vatin": "PL8821293332",
                "operator": "Irena Kasprzyk",
                "operator:type": "private",
                "amenity": "kindergarten"
            }
        },
        {
            "id": 16096,
            "type": "Feature",
            "geometry": {
                "type": "Point",
                "coordinates": [
                    16.60802,
                    50.6816699
                ]
            },
            "properties": {
                "ref:rspo": 16096,
                "official_name": "Niepubliczna Poradnia Psychologiczno-Pedagogiczna Anna Salij-Szyszka",
                "name": "Niepubliczna Poradnia Psychologiczno-Pedagogiczna Anna Salij-Szyszka",
                "addr:postcode": "58-260",
                "addr:city": "Bielawa",
                "addr:street": "Piastowska",
                "addr:housenumber": "18",
                "addr:door": "S\/1",
                "addr:city:simc": 983818,
                "addr:street:sym_ul": 16046,
                "phone": "+48 466461722",
                "email": "niepublicznaporadniabielawa@wp.pl",
                "ref:regon": "021968107",
                "ref:vatin": "PL8842168709",
                "operator": "Anna Salij-Szyszka",
                "operator:type": "private",
                "healthcare": "counselling",
                "counselling_type": "education",
                "fixme": "w zale\u017cno\u015bci od przedmiotu dzia\u0142alno\u015bci (np. healthcare=counselling + counselling_type=education albo healthcare=psychotherapist)"
            }
        },
        {
            "id": 267725,
            "type": "Feature",
            "geometry": {
                "type": "Point",
                "coordinates": [
                    16.60802,
                    50.6816399
                ]
            },
            "properties": {
                "isced:level": "1;2",
                "ref:rspo": 267725,
                "official_name": "Niepubliczna Szko\u0142a Podstawowa Auxilium w Bielawie",
                "name": "Niepubliczna Szko\u0142a Podstawowa Auxilium w Bielawie",
                "addr:postcode": "58-260",
                "addr:city": "Bielawa",
                "addr:street": "Piastowska",
                "addr:housenumber": "18",
                "addr:door": "s1",
                "addr:city:simc": 983818,
                "addr:street:sym_ul": 16046,
                "email": "annasalij@wp.pl",
                "ref:regon": "380558584",
                "operator": "Anna Salij-Szyszka",
                "operator:type": "private",
                "amenity": "school"
            }
        },
        {
            "id": 8117,
            "type": "Feature",
            "geometry": {
                "type": "Point",
                "coordinates": [
                    16.61692,
                    50.6825
                ]
            },
            "properties": {
                "isced:level": "1;2",
                "ref:rspo": 8117,
                "official_name": "Szko\u0142a Podstawowa nr 10 z Oddzia\u0142ami Sportowymi w Bielawie",
                "name": "Szko\u0142a Podstawowa nr 10 z Oddzia\u0142ami Sportowymi w Bielawie",
                "addr:postcode": "58-260",
                "addr:city": "Bielawa",
                "addr:street": "Gerera\u0142a Stefana Grota Roweckiego",
                "addr:housenumber": "6",
                "addr:city:simc": 983818,
                "addr:street:sym_ul": 27399,
                "phone": "+48 746452217",
                "email": "sekretariat@sp10.oswiata.bielawa.pl",
                "website": "http:\/\/www.sp10bielawa.edupage.org",
                "ref:regon": "000717643",
                "ref:vatin": "PL8821830362",
                "operator": "Gmina Bielawa",
                "operator:type": "government",
                "amenity": "school"
            }
        },
        {
            "id": 49102,
            "type": "Feature",
            "geometry": {
                "type": "Point",
                "coordinates": [
                    16.6132806,
                    50.6835251
                ]
            },
            "properties": {
                "isced:level": "3",
                "ref:rspo": 49102,
                "official_name": "Liceum Og\u00f3lnokszta\u0142c\u0105ce z Oddzia\u0142ami Dwuj\u0119zycznymi im. Boles\u0142awa Chrobrego w Bielawie",
                "name": "Liceum Og\u00f3lnokszta\u0142c\u0105ce z Oddzia\u0142ami Dwuj\u0119zycznymi",
                "addr:postcode": "58-260",
                "addr:city": "Bielawa",
                "addr:street": "Szkolna",
                "addr:housenumber": "5",
                "addr:city:simc": 983818,
                "addr:street:sym_ul": 21970,
                "phone": "+48 748334606",
                "email": "liceum@lo.um.bielawa.pl",
                "website": "http:\/\/www.liceumbielawa.pl",
                "ref:regon": "000717650",
                "ref:vatin": "PL8821042854",
                "operator": "Powiat Dzier\u017coniowski",
                "operator:type": "government",
                "amenity": "school"
            }
        },
        {
            "id": 130345,
            "type": "Feature",
            "geometry": {
                "type": "Point",
                "coordinates": [
                    16.6112,
                    50.6838
                ]
            },
            "properties": {
                "ref:rspo": 130345,
                "official_name": "Publiczne Przedszkole z Oddzia\u0142ami Integracyjnymi Prowadzone Przez Zgromadzenie Si\u00f3str Augustianek",
                "name": "Publiczne Przedszkole z Oddzia\u0142ami Integracyjnymi Prowadzone Przez Zgromadzenie Si\u00f3str Augustianek",
                "addr:postcode": "58-260",
                "addr:city": "Bielawa",
                "addr:street": "Miko\u0142aja Kopernika",
                "addr:housenumber": "2",
                "addr:city:simc": 983818,
                "addr:street:sym_ul": 9282,
                "phone": "+48 748334528",
                "email": "przedszkole_augustianki@onet.pl",
                "ref:regon": "363885017",
                "ref:vatin": "PL8822124614",
                "operator": "Zg.ss.\u015bw.augustyna, Dom Generalny W Krakowie",
                "operator:type": "religious",
                "amenity": "kindergarten"
            }
        },
        {
            "id": 277574,
            "type": "Feature",
            "geometry": {
                "type": "Point",
                "coordinates": [
                    16.62003,
                    50.68504
                ]
            },
            "properties": {
                "ref:rspo": 277574,
                "official_name": "O\u015brodek Szkolenia Kierowc\u00f3w Bogus\u0142aw Tusi\u0144ski",
                "name": "O\u015brodek Szkolenia Kierowc\u00f3w Bogus\u0142aw Tusi\u0144ski",
                "addr:postcode": "58-260",
                "addr:city": "Bielawa",
                "addr:street": "Genera\u0142a W\u0142adys\u0142awa Andersa",
                "addr:housenumber": "3",
                "addr:city:simc": 983818,
                "addr:street:sym_ul": 39357,
                "phone": "+48 603093987",
                "email": "boguslawtusinski@wp.pl",
                "ref:regon": "389166087",
                "ref:vatin": "PL8821140054",
                "operator": "Bogus\u0142aw Tusi\u0144ski",
                "operator:type": "private",
                "fixme": "w zale\u017cno\u015bci od przedmiotu dzia\u0142alno\u015bci (np. amenity=training + training=*, amenity=dancing_school, amenity=language_school, amenity=music_school)"
            }
        },
        {
            "id": 7700,
            "type": "Feature",
            "geometry": {
                "type": "Point",
                "coordinates": [
                    16.62488,
                    50.68577
                ]
            },
            "properties": {
                "ref:rspo": 7700,
                "official_name": "Ekologiczne Przedszkole Niepubliczne",
                "name": "Ekologiczne Przedszkole Niepubliczne",
                "addr:postcode": "58-260",
                "addr:city": "Bielawa",
                "addr:street": "Parkowa",
                "addr:housenumber": "11",
                "addr:city:simc": 983818,
                "addr:street:sym_ul": 15710,
                "phone": "+48 746452224",
                "email": "skrzaty@o2.pl",
                "ref:regon": "021954571",
                "ref:vatin": "PL8821197433",
                "operator": "Ma\u0142gorzata Domaga\u0142a",
                "operator:type": "private",
                "amenity": "kindergarten"
            }
        },
        {
            "id": 267784,
            "type": "Feature",
            "geometry": {
                "type": "Point",
                "coordinates": [
                    16.61853,
                    50.687
                ]
            },
            "properties": {
                "ref:rspo": 267784,
                "official_name": "Przedszkole Publiczne nr 3",
                "name": "Przedszkole Publiczne nr 3",
                "addr:postcode": "58-260",
                "addr:city": "Bielawa",
                "addr:street": "3 Maja",
                "addr:housenumber": "22",
                "addr:city:simc": 983818,
                "addr:street:sym_ul": 11937,
                "phone": "+48 746452229",
                "email": "sekretariat@pp3.oswiata.bielawa.pl",
                "ref:regon": "380679030",
                "ref:vatin": "PL8822130508",
                "operator": "Gmina Bielawa",
                "operator:type": "government",
                "amenity": "kindergarten"
            }
        },
        {
            "id": 6291,
            "type": "Feature",
            "geometry": {
                "type": "Point",
                "coordinates": [
                    16.62209,
                    50.68903
                ]
            },
            "properties": {
                "isced:level": "3",
                "ref:rspo": 6291,
                "official_name": "Niepubliczne Liceum Og\u00f3lnokszta\u0142c\u0105ce w Bielawie",
                "name": "Niepubliczne Liceum Og\u00f3lnokszta\u0142c\u0105ce w Bielawie",
                "addr:postcode": "58-260",
                "addr:city": "Bielawa",
                "addr:street": "Wolno\u015bci",
                "addr:housenumber": "105",
                "addr:city:simc": 983818,
                "addr:street:sym_ul": 24687,
                "phone": "+48 748331377",
                "email": "centrump@vp.pl",
                "website": "http:\/\/www.michalska.pl",
                "ref:regon": "021951584",
                "operator": "Daria Michalska",
                "operator:type": "private",
                "amenity": "school"
            }
        },
        {
            "id": 7133,
            "type": "Feature",
            "geometry": {
                "type": "Point",
                "coordinates": [
                    16.62209,
                    50.689
                ]
            },
            "properties": {
                "isced:level": "3",
                "ref:rspo": 7133,
                "official_name": "Szko\u0142a Wielobran\u017cowa w Bielawie",
                "name": "Szko\u0142a Wielobran\u017cowa w Bielawie",
                "addr:postcode": "58-260",
                "addr:city": "Bielawa",
                "addr:street": "Wolno\u015bci",
                "addr:housenumber": "105",
                "addr:city:simc": 983818,
                "addr:street:sym_ul": 24687,
                "phone": "+48 748331377",
                "email": "centrump@vp.pl",
                "website": "http:\/\/www.michalska.pl",
                "ref:regon": "021952945",
                "ref:vatin": "PL8821110521",
                "operator": "Daria Michalska",
                "operator:type": "private",
                "amenity": "school"
            }
        },
        {
            "id": 132103,
            "type": "Feature",
            "geometry": {
                "type": "Point",
                "coordinates": [
                    16.62209,
                    50.688970000000005
                ]
            },
            "properties": {
                "isced:level": "4",
                "ref:rspo": 132103,
                "official_name": "Prywatna \u015arednia Szko\u0142a Zawodowa Policealna w Bielawie",
                "name": "Prywatna \u015arednia Szko\u0142a Zawodowa Policealna w Bielawie",
                "addr:postcode": "58-260",
                "addr:city": "Bielawa",
                "addr:street": "Wolno\u015bci",
                "addr:housenumber": "105",
                "addr:city:simc": 983818,
                "addr:street:sym_ul": 24687,
                "phone": "+48 748331377",
                "email": "centrump@vp.pl",
                "ref:regon": "365460121",
                "operator": "Daria Michalska",
                "operator:type": "private",
                "amenity": "college"
            }
        },
        {
            "id": 262666,
            "type": "Feature",
            "geometry": {
                "type": "Point",
                "coordinates": [
                    16.62209,
                    50.68894
                ]
            },
            "properties": {
                "isced:level": "1;2",
                "ref:rspo": 262666,
                "official_name": "Europejska Szko\u0142a Podstawowa z Oddzia\u0142ami Przysposabiaj\u0105cymi do Pracy",
                "name": "Europejska Szko\u0142a Podstawowa z Oddzia\u0142ami Przysposabiaj\u0105cymi do Pracy",
                "addr:postcode": "58-260",
                "addr:city": "Bielawa",
                "addr:street": "Wolno\u015bci",
                "addr:housenumber": "105",
                "addr:city:simc": 983818,
                "addr:street:sym_ul": 24687,
                "phone": "+48 748331377",
                "email": "centrump@vp.pl",
                "website": "http:\/\/www.michalska.pl",
                "ref:regon": "368049716",
                "operator": "Daria Michalska",
                "operator:type": "private",
                "amenity": "school"
            }
        },
        {
            "id": 262669,
            "type": "Feature",
            "geometry": {
                "type": "Point",
                "coordinates": [
                    16.62209,
                    50.68891
                ]
            },
            "properties": {
                "isced:level": "1;2",
                "ref:rspo": 262669,
                "official_name": "Szko\u0142a Podstawowa dla Doros\u0142ych w Bielawie",
                "name": "Szko\u0142a Podstawowa dla Doros\u0142ych w Bielawie",
                "addr:postcode": "58-260",
                "addr:city": "Bielawa",
                "addr:street": "Wolno\u015bci",
                "addr:housenumber": "105",
                "addr:city:simc": 983818,
                "addr:street:sym_ul": 24687,
                "phone": "+48 748337777",
                "email": "centrump@vp.pl",
                "website": "http:\/\/www.michalska.pl",
                "ref:regon": "368049840",
                "operator": "Daria Michalska",
                "operator:type": "private",
                "amenity": "school"
            }
        },
        {
            "id": 270427,
            "type": "Feature",
            "geometry": {
                "type": "Point",
                "coordinates": [
                    16.62209,
                    50.688880000000005
                ]
            },
            "properties": {
                "ref:rspo": 270427,
                "official_name": "Prywatna Poradnia Psychologiczno-Pedagogiczna w Bielawie \"Mentor\"",
                "name": "Prywatna Poradnia Psychologiczno-Pedagogiczna w Bielawie \"Mentor\"",
                "addr:postcode": "58-260",
                "addr:city": "Bielawa",
                "addr:street": "Wolno\u015bci",
                "addr:housenumber": "105",
                "addr:city:simc": 983818,
                "addr:street:sym_ul": 24687,
                "phone": "+48 748331377",
                "email": "centrump@vp.pl",
                "ref:regon": "382581736",
                "operator": "Filip Michalski",
                "operator:type": "private",
                "healthcare": "counselling",
                "counselling_type": "education",
                "fixme": "w zale\u017cno\u015bci od przedmiotu dzia\u0142alno\u015bci (np. healthcare=counselling + counselling_type=education albo healthcare=psychotherapist)"
            }
        },
        {
            "id": 125270,
            "type": "Feature",
            "geometry": {
                "type": "Point",
                "coordinates": [
                    16.63193,
                    50.68945
                ]
            },
            "properties": {
                "ref:rspo": 125270,
                "official_name": "Przedszkole Niepubliczne Mi\u015b",
                "name": "Przedszkole Niepubliczne Mi\u015b",
                "addr:postcode": "58-260",
                "addr:city": "Bielawa",
                "addr:street": "Majowa",
                "addr:housenumber": "15 B",
                "addr:city:simc": 983818,
                "addr:street:sym_ul": 11988,
                "phone": "+48 667259867",
                "email": "kontakt@przedszkolebielawa.pl",
                "ref:regon": "022503296",
                "operator": "Leszek Markiewicz",
                "operator:type": "private",
                "amenity": "kindergarten"
            }
        },
        {
            "id": 7679,
            "type": "Feature",
            "geometry": {
                "type": "Point",
                "coordinates": [
                    16.61651,
                    50.68989
                ]
            },
            "properties": {
                "ref:rspo": 7679,
                "official_name": "Niepubliczne Przedszkole Montessori z Oddzia\u0142ami Integracyjnymi",
                "name": "Niepubliczne Przedszkole Montessori z Oddzia\u0142ami Integracyjnymi",
                "addr:postcode": "58-260",
                "addr:city": "Bielawa",
                "addr:street": "os. Osiedle W\u0142\u00f3kniarzy",
                "addr:housenumber": "11",
                "addr:city:simc": 983818,
                "addr:street:sym_ul": 55311,
                "phone": "+48 746452225",
                "email": "pp2bielawa@poczta.onet.pl",
                "ref:regon": "021954565",
                "ref:vatin": "PL8821413173",
                "operator": "Katarzyna Szulc",
                "operator:type": "private",
                "amenity": "kindergarten"
            }
        },
        {
            "id": 8116,
            "type": "Feature",
            "geometry": {
                "type": "Point",
                "coordinates": [
                    16.61651,
                    50.689859999999996
                ]
            },
            "properties": {
                "isced:level": "1;2",
                "ref:rspo": 8116,
                "official_name": "Ekologiczna Szko\u0142a Podstawowa nr 7 im. Juliana Tuwima w Bielawie",
                "name": "Ekologiczna Szko\u0142a Podstawowa nr 7",
                "addr:postcode": "58-260",
                "addr:city": "Bielawa",
                "addr:street": "os. Osiedle W\u0142\u00f3kniarzy",
                "addr:housenumber": "10",
                "addr:city:simc": 983818,
                "addr:street:sym_ul": 55311,
                "phone": "+48 746452230",
                "email": "sp7_szkola@wp.pl",
                "ref:regon": "000717620",
                "ref:vatin": "PL8821827466",
                "operator": "Gmina Bielawa",
                "operator:type": "government",
                "amenity": "school"
            }
        },
        {
            "id": 7022,
            "type": "Feature",
            "geometry": {
                "type": "Point",
                "coordinates": [
                    16.62287,
                    50.69149
                ]
            },
            "properties": {
                "ref:rspo": 7022,
                "official_name": "Zesp\u00f3\u0142 Szk\u00f3\u0142 I Plac\u00f3wek Kszta\u0142cenia Zawodowego w Bielawie",
                "name": "Zesp\u00f3\u0142 Szk\u00f3\u0142 I Plac\u00f3wek Kszta\u0142cenia Zawodowego w Bielawie",
                "addr:postcode": "58-260",
                "addr:city": "Bielawa",
                "addr:street": "Stefana \u017beromskiego",
                "addr:housenumber": "41",
                "addr:city:simc": 983818,
                "addr:street:sym_ul": 26469,
                "phone": "+48 748334567",
                "email": "zs-bielawa@wp.pl",
                "website": "http:\/\/zs-bielawa.pl",
                "ref:regon": "000179737",
                "ref:vatin": "PL8821080576",
                "operator": "Powiat Dzier\u017coniowski",
                "operator:type": "government",
                "landuse": "education",
                "fixme": "amenity=school, amenity=college albo landuse=education w zale\u017cno\u015bci od tego, jakie plac\u00f3wki wchodz\u0105 w sk\u0142ad zespo\u0142u. Sprawd\u017a, kiedy stosowa\u0107 amenity=* a kiedy landuse=education.",
                "note": "Children RSPO: 4755;78966;79061;80805"
            }
        },
        {
            "id": 4755,
            "type": "Feature",
            "geometry": {
                "type": "Point",
                "coordinates": [
                    16.62287,
                    50.69146
                ]
            },
            "properties": {
                "ref:rspo": 4755,
                "official_name": "Centrum Kszta\u0142cenia Zawodowego w Bielawie",
                "name": "Centrum Kszta\u0142cenia Zawodowego w Bielawie",
                "addr:postcode": "58-260",
                "addr:city": "Bielawa",
                "addr:street": "Stefana \u017beromskiego",
                "addr:housenumber": "41a",
                "addr:city:simc": 983818,
                "addr:street:sym_ul": 26469,
                "phone": "+48 748334449",
                "email": "pckp@poczta.onet.pl",
                "website": "http:\/\/www.zs-bielawa.pl",
                "ref:regon": "021288223",
                "ref:vatin": "PL8822094379",
                "operator": "Powiat Dzier\u017coniowski",
                "operator:type": "government",
                "fixme": "w zale\u017cno\u015bci od przedmiotu dzia\u0142alno\u015bci (np. amenity=training + training=*, amenity=dancing_school, amenity=language_school, amenity=music_school) albo amenity=school, amenity=college, albo landuse=education w zale\u017cno\u015bci od tego, jakie plac\u00f3wki wchodz\u0105 w sk\u0142ad zespo\u0142u. Sprawd\u017a, kiedy stosowa\u0107 amenity=* a kiedy landuse=education.",
                "note": "Parent RSPO: 7022"
            }
        },
        {
            "id": 78966,
            "type": "Feature",
            "geometry": {
                "type": "Point",
                "coordinates": [
                    16.62287,
                    50.691430000000004
                ]
            },
            "properties": {
                "isced:level": "3",
                "ref:rspo": 78966,
                "official_name": "Bran\u017cowa Szko\u0142a I Stopnia w Bielawie Zesp\u00f3\u0142 Szk\u00f3\u0142 I Plac\u00f3wek Kszta\u0142cenia Zawodowego w Bielawie",
                "name": "Bran\u017cowa Szko\u0142a I Stopnia w Bielawie Zesp\u00f3\u0142 Szk\u00f3\u0142 I Plac\u00f3wek Kszta\u0142cenia Zawodowego w Bielawie",
                "addr:postcode": "58-260",
                "addr:city": "Bielawa",
                "addr:street": "Stefana \u017beromskiego",
                "addr:housenumber": "41",
                "addr:city:simc": 983818,
                "addr:street:sym_ul": 26469,
                "phone": "+48 748334567",
                "email": "zs-bielawa@wp.pl",
                "website": "http:\/\/www.zs-bielawa.pl",
                "ref:regon": "891420700",
                "ref:vatin": "PL8821080576",
                "operator": "Powiat Dzier\u017coniowski",
                "operator:type": "government",
                "amenity": "school",
                "note": "Parent RSPO: 7022"
            }
        },
        {
            "id": 79061,
            "type": "Feature",
            "geometry": {
                "type": "Point",
                "coordinates": [
                    16.62287,
                    50.6914
                ]
            },
            "properties": {
                "isced:level": "4",
                "ref:rspo": 79061,
                "official_name": "Zesp\u00f3\u0142 Szk\u00f3\u0142 I Plac\u00f3wek Kszta\u0142cenia Zawodowego w Bielawie - Szko\u0142a Policealna dla Doros\u0142ych",
                "name": "Zesp\u00f3\u0142 Szk\u00f3\u0142 I Plac\u00f3wek Kszta\u0142cenia Zawodowego w Bielawie - Szko\u0142a Policealna dla Doros\u0142ych",
                "addr:postcode": "58-260",
                "addr:city": "Bielawa",
                "addr:street": "Stefana \u017beromskiego",
                "addr:housenumber": "41",
                "addr:city:simc": 983818,
                "addr:street:sym_ul": 26469,
                "phone": "+48 748334567",
                "email": "zs-bielawa@wp.pl",
                "website": "http:\/\/www.zs-bielawa.pl",
                "ref:regon": "020099023",
                "ref:vatin": "PL8821080576",
                "operator": "Powiat Dzier\u017coniowski",
                "operator:type": "government",
                "amenity": "college",
                "note": "Parent RSPO: 7022"
            }
        },
        {
            "id": 80805,
            "type": "Feature",
            "geometry": {
                "type": "Point",
                "coordinates": [
                    16.62287,
                    50.69137
                ]
            },
            "properties": {
                "isced:level": "3",
                "ref:rspo": 80805,
                "official_name": "Technikum w Bielawie - Zesp\u00f3\u0142 Szk\u00f3\u0142 I Plac\u00f3wek Kszta\u0142cenia Zawodowego w Bielawie",
                "name": "Technikum w Bielawie - Zesp\u00f3\u0142 Szk\u00f3\u0142 I Plac\u00f3wek Kszta\u0142cenia Zawodowego w Bielawie",
                "addr:postcode": "58-260",
                "addr:city": "Bielawa",
                "addr:street": "Stefana \u017beromskiego",
                "addr:housenumber": "41",
                "addr:city:simc": 983818,
                "addr:street:sym_ul": 26469,
                "phone": "+48 748334449",
                "email": "zs-bielawa@wp.pl",
                "website": "http:\/\/www.zs-bielawa.pl",
                "ref:regon": "891420686",
                "ref:vatin": "PL8821080576",
                "operator": "Powiat Dzier\u017coniowski",
                "operator:type": "government",
                "amenity": "school",
                "note": "Parent RSPO: 7022"
            }
        },
        {
            "id": 7708,
            "type": "Feature",
            "geometry": {
                "type": "Point",
                "coordinates": [
                    16.62483,
                    50.69154
                ]
            },
            "properties": {
                "ref:rspo": 7708,
                "official_name": "Przedszkole Niepubliczne z Oddzia\u0142ami Integracyjnymi",
                "name": "Przedszkole Niepubliczne z Oddzia\u0142ami Integracyjnymi",
                "addr:postcode": "58-260",
                "addr:city": "Bielawa",
                "addr:street": "Wolno\u015bci",
                "addr:housenumber": "88",
                "addr:city:simc": 983818,
                "addr:street:sym_ul": 24687,
                "phone": "+48 746452227",
                "email": "pac61@wp.pl",
                "ref:regon": "021961996",
                "ref:vatin": "PL8821413291",
                "operator": "Agnieszka Cygan",
                "operator:type": "private",
                "amenity": "kindergarten"
            }
        },
        {
            "id": 4602,
            "type": "Feature",
            "geometry": {
                "type": "Point",
                "coordinates": [
                    16.63292,
                    50.69527
                ]
            },
            "properties": {
                "ref:rspo": 4602,
                "official_name": "Przedszkole Publiczne nr 4",
                "name": "Przedszkole Publiczne nr 4",
                "addr:postcode": "58-260",
                "addr:city": "Bielawa",
                "addr:street": "Stefana \u017beromskiego",
                "addr:housenumber": "18",
                "addr:city:simc": 983818,
                "addr:street:sym_ul": 26469,
                "phone": "+48 746452242",
                "email": "pp4@oswiata.bielawa.pl",
                "ref:regon": "021661060",
                "ref:vatin": "PL8822112947",
                "operator": "Gmina Bielawa",
                "operator:type": "government",
                "amenity": "kindergarten"
            }
        },
        {
            "id": 104953,
            "type": "Feature",
            "geometry": {
                "type": "Point",
                "coordinates": [
                    16.63675,
                    50.69533
                ]
            },
            "properties": {
                "ref:rspo": 104953,
                "official_name": "Powiatowe Centrum Poradnictwa Psychologiczno-Pedagogicznego I Doradztwa Edukacyjnego Poradnia Psychologiczno-Pedagogiczna w Dzier\u017coniowie Filia w Bielawie",
                "name": "Powiatowe Centrum Poradnictwa Psychologiczno-Pedagogicznego I Doradztwa Edukacyjnego Poradnia Psychologiczno-Pedagogiczna w Dzier\u017coniowie Filia w Bielawie",
                "addr:postcode": "58-260",
                "addr:city": "Bielawa",
                "addr:street": "Wolno\u015bci",
                "addr:housenumber": "22-24",
                "addr:city:simc": 983818,
                "addr:street:sym_ul": 24687,
                "phone": "+48 748338299",
                "email": "poradniabielawa@wp.pl",
                "website": "http:\/\/powiatowecentrum.dzierzoniow.pl",
                "ref:regon": "891118510",
                "ref:vatin": "PL8821859911",
                "operator": "Powiat Dzier\u017coniowski",
                "operator:type": "government",
                "healthcare": "counselling",
                "counselling_type": "education",
                "fixme": "w zale\u017cno\u015bci od przedmiotu dzia\u0142alno\u015bci (np. healthcare=counselling + counselling_type=education albo healthcare=psychotherapist)",
                "note": "Parent RSPO: 18768"
            }
        },
        {
            "id": 68612,
            "type": "Feature",
            "geometry": {
                "type": "Point",
                "coordinates": [
                    16.6406,
                    50.6968
                ]
            },
            "properties": {
                "ref:rspo": 68612,
                "official_name": "Spo\u0142eczna Szko\u0142a Muzyczna I St. Spo\u0142ecznego Towarzystwa O\u015bwiatowego w Bielawie",
                "name": "Spo\u0142eczna Szko\u0142a Muzyczna I St. Spo\u0142ecznego Towarzystwa O\u015bwiatowego w Bielawie",
                "addr:postcode": "58-260",
                "addr:city": "Bielawa",
                "addr:street": "Stefana \u017beromskiego",
                "addr:housenumber": "1",
                "addr:city:simc": 983818,
                "addr:street:sym_ul": 26469,
                "phone": "+48 748333870",
                "email": "bielawa@sto.org.pl",
                "website": "http:\/\/www.zssbielawa.edupage.org",
                "ref:regon": "022000891",
                "operator": "Samodzielne Ko\u0142o Terenowe Nr 92 Spo\u0142ecznego Towarzystwa O\u015bwiatowego",
                "operator:type": "ngo",
                "amenity": "music_school"
            }
        },
        {
            "id": 89068,
            "type": "Feature",
            "geometry": {
                "type": "Point",
                "coordinates": [
                    16.6406,
                    50.69677
                ]
            },
            "properties": {
                "ref:rspo": 89068,
                "official_name": "Zesp\u00f3\u0142 Szk\u00f3\u0142 Spo\u0142ecznych Spo\u0142ecznego Towarzystwa O\u015bwiatowego",
                "name": "Zesp\u00f3\u0142 Szk\u00f3\u0142 Spo\u0142ecznych Spo\u0142ecznego Towarzystwa O\u015bwiatowego",
                "addr:postcode": "58-260",
                "addr:city": "Bielawa",
                "addr:street": "Stefana \u017beromskiego",
                "addr:housenumber": "1",
                "addr:city:simc": 983818,
                "addr:street:sym_ul": 26469,
                "phone": "+48 748333870",
                "email": "bielawa@sto.org.pl",
                "website": "http:\/\/spolecznabielawa.pl",
                "ref:regon": "022013014",
                "ref:vatin": "PL8821421445",
                "operator": "Samodzielne Ko\u0142o Terenowe Nr 92 Spo\u0142ecznego Towarzystwa O\u015bwiatowego",
                "operator:type": "ngo",
                "landuse": "education",
                "fixme": "amenity=school, amenity=college albo landuse=education w zale\u017cno\u015bci od tego, jakie plac\u00f3wki wchodz\u0105 w sk\u0142ad zespo\u0142u. Sprawd\u017a, kiedy stosowa\u0107 amenity=* a kiedy landuse=education.",
                "note": "Children RSPO: 112051"
            }
        },
        {
            "id": 112051,
            "type": "Feature",
            "geometry": {
                "type": "Point",
                "coordinates": [
                    16.6406,
                    50.696740000000005
                ]
            },
            "properties": {
                "isced:level": "1;2",
                "ref:rspo": 112051,
                "official_name": "Spo\u0142eczna Szko\u0142a Podstawowa Towarzystwa O\u015bwiatowego w Bielawie",
                "name": "Spo\u0142eczna Szko\u0142a Podstawowa Towarzystwa O\u015bwiatowego w Bielawie",
                "addr:postcode": "58-260",
                "addr:city": "Bielawa",
                "addr:street": "Stefana \u017beromskiego",
                "addr:housenumber": "1",
                "addr:city:simc": 983818,
                "addr:street:sym_ul": 26469,
                "phone": "+48 748333870",
                "email": "bielawa@sto.org.pl",
                "ref:regon": "022100859",
                "ref:vatin": "PL8821421445",
                "operator": "Samodzielne Ko\u0142o Terenowe Nr 92 Spo\u0142ecznego Towarzystwa O\u015bwiatowego",
                "operator:type": "ngo",
                "amenity": "school",
                "note": "Parent RSPO: 89068"
            }
        }
    ]
}