{
    "type": "FeatureCollection",
    "features": [
        {
            "id": 64044,
            "type": "Feature",
            "geometry": {
                "type": "Point",
                "coordinates": [
                    22.7374519,
                    51.70084
                ]
            },
            "properties": {
                "ref:rspo": 64044,
                "official_name": "Zesp\u00f3\u0142 Szk\u00f3\u0142 im. Seweryna Czetwerty\u0144skiego w Suchowoli",
                "name": "Zesp\u00f3\u0142 Szk\u00f3\u0142",
                "addr:country": "PL",
                "addr:postcode": "21-310",
                "addr:place": "Suchowola",
                "addr:housenumber": "133",
                "addr:teryt:sym_ul": 22467,
                "contact:phone": "+48 833530350",
                "contact:email": "zswsuchowoli@wp.pl",
                "contact:website": "http:\/\/suchowola.edupage.org",
                "ref:regon": "060607818",
                "ref:vatin": "PL5381855160",
                "operator": "Gmina Wohy\u0144",
                "operator:type": "government",
                "landuse": "education",
                "fixme": "amenity=school, amenity=college albo landuse=education w zale\u017cno\u015bci od tego, jakie plac\u00f3wki wchodz\u0105 w sk\u0142ad zespo\u0142u. Sprawd\u017a, kiedy stosowa\u0107 amenity=* a kiedy landuse=education.",
                "note": "Children RSPO: 87473;87601"
            }
        },
        {
            "id": 87473,
            "type": "Feature",
            "geometry": {
                "type": "Point",
                "coordinates": [
                    22.7374519,
                    51.70081
                ]
            },
            "properties": {
                "isced:level": "1;2",
                "ref:rspo": 87473,
                "official_name": "Szko\u0142a Podstawowa w Suchowoli",
                "name": "Szko\u0142a Podstawowa w Suchowoli",
                "addr:country": "PL",
                "addr:postcode": "21-310",
                "addr:place": "Suchowola",
                "addr:housenumber": "133",
                "addr:teryt:sym_ul": 22496,
                "contact:phone": "+48 833530350",
                "contact:email": "zswsuchowoli@wp.pl",
                "contact:website": "http:\/\/suchowola.edupage.org",
                "ref:regon": "001126513",
                "ref:vatin": "PL5381855160",
                "operator": "Gmina Wohy\u0144",
                "operator:type": "government",
                "amenity": "school",
                "note": "Parent RSPO: 64044"
            }
        },
        {
            "id": 87601,
            "type": "Feature",
            "geometry": {
                "type": "Point",
                "coordinates": [
                    22.7374519,
                    51.70078
                ]
            },
            "properties": {
                "ref:rspo": 87601,
                "official_name": "Przedszkole w Suchowoli",
                "name": "Przedszkole w Suchowoli",
                "addr:country": "PL",
                "addr:postcode": "21-310",
                "addr:place": "Suchowola",
                "addr:housenumber": "133",
                "addr:teryt:sym_ul": 22496,
                "contact:phone": "+48 833530350",
                "ref:regon": "030004204",
                "ref:vatin": "PL5381855160",
                "operator": "Gmina Wohy\u0144",
                "operator:type": "government",
                "amenity": "kindergarten",
                "note": "Parent RSPO: 64044"
            }
        },
        {
            "id": 64045,
            "type": "Feature",
            "geometry": {
                "type": "Point",
                "coordinates": [
                    22.79044,
                    51.75555
                ]
            },
            "properties": {
                "ref:rspo": 64045,
                "official_name": "Zesp\u00f3\u0142 Szk\u00f3\u0142 im. Unit\u00f3w Podlaskich",
                "name": "Zesp\u00f3\u0142 Szk\u00f3\u0142",
                "addr:country": "PL",
                "addr:postcode": "21-310",
                "addr:city": "Wohy\u0144",
                "addr:street": "ul. J\u00f3zefa Pi\u0142sudskiego",
                "addr:housenumber": "25",
                "addr:teryt:simc": 16264,
                "addr:teryt:sym_ul": 22527,
                "contact:phone": "+48 833530025",
                "contact:email": "sekretariat@szkolawohyn.pl",
                "contact:website": "http:\/\/szkolawohyn.pl",
                "ref:regon": "061479558",
                "ref:vatin": "PL5381855415",
                "operator": "Gmina Wohy\u0144",
                "operator:type": "government",
                "landuse": "education",
                "fixme": "amenity=school, amenity=college albo landuse=education w zale\u017cno\u015bci od tego, jakie plac\u00f3wki wchodz\u0105 w sk\u0142ad zespo\u0142u. Sprawd\u017a, kiedy stosowa\u0107 amenity=* a kiedy landuse=education.",
                "note": "Children RSPO: 87753;87916"
            }
        },
        {
            "id": 87753,
            "type": "Feature",
            "geometry": {
                "type": "Point",
                "coordinates": [
                    22.79044,
                    51.75552
                ]
            },
            "properties": {
                "isced:level": "1;2",
                "ref:rspo": 87753,
                "official_name": "Szko\u0142a Podstawowa w Wohyniu",
                "name": "Szko\u0142a Podstawowa w Wohyniu",
                "addr:country": "PL",
                "addr:postcode": "21-310",
                "addr:city": "Wohy\u0144",
                "addr:street": "ul. J\u00f3zefa Pi\u0142sudskiego",
                "addr:housenumber": "25",
                "addr:teryt:simc": 16264,
                "addr:teryt:sym_ul": 22527,
                "contact:phone": "+48 833530025",
                "contact:email": "sekretariat@szkolawohyn.pl",
                "ref:regon": "000713444",
                "ref:vatin": "PL5381855415",
                "operator": "Gmina Wohy\u0144",
                "operator:type": "government",
                "amenity": "school",
                "note": "Parent RSPO: 64045"
            }
        },
        {
            "id": 87916,
            "type": "Feature",
            "geometry": {
                "type": "Point",
                "coordinates": [
                    22.79044,
                    51.75549
                ]
            },
            "properties": {
                "ref:rspo": 87916,
                "official_name": "Przedszkole w Wohyniu",
                "name": "Przedszkole w Wohyniu",
                "addr:country": "PL",
                "addr:postcode": "21-310",
                "addr:city": "Wohy\u0144",
                "addr:street": "ul. J\u00f3zefa Pi\u0142sudskiego",
                "addr:housenumber": "25",
                "addr:teryt:simc": 16264,
                "addr:teryt:sym_ul": 22527,
                "contact:phone": "+48 833530023",
                "contact:email": "sekretariat@szkolawohyn.pl",
                "ref:regon": "000967618",
                "ref:vatin": "PL5381855415",
                "operator": "Gmina Wohy\u0144",
                "operator:type": "government",
                "amenity": "kindergarten",
                "note": "Parent RSPO: 64045"
            }
        },
        {
            "id": 71102,
            "type": "Feature",
            "geometry": {
                "type": "Point",
                "coordinates": [
                    22.75903,
                    51.803033
                ]
            },
            "properties": {
                "isced:level": "1;2",
                "ref:rspo": 71102,
                "official_name": "Szko\u0142a Podstawowa w Lisiow\u00f3lce",
                "name": "Szko\u0142a Podstawowa w Lisiow\u00f3lce",
                "addr:country": "PL",
                "addr:postcode": "21-310",
                "addr:place": "Lisiow\u00f3lka",
                "addr:housenumber": "74a",
                "addr:teryt:sym_ul": 22272,
                "contact:phone": "+48 833532355",
                "contact:email": "lisiowolkasp@wp.pl",
                "contact:website": "http:\/\/splisiowolka.pl",
                "ref:regon": "001126714",
                "ref:vatin": "PL5381855326",
                "operator": "Gmina Wohy\u0144",
                "operator:type": "government",
                "amenity": "school"
            }
        },
        {
            "id": 92965,
            "type": "Feature",
            "geometry": {
                "type": "Point",
                "coordinates": [
                    22.75903,
                    51.803003
                ]
            },
            "properties": {
                "ref:rspo": 92965,
                "official_name": "Zesp\u00f3\u0142 Przedszkolny w Lisiow\u00f3lce",
                "name": "Zesp\u00f3\u0142 Przedszkolny w Lisiow\u00f3lce",
                "addr:country": "PL",
                "addr:postcode": "21-310",
                "addr:place": "Lisiow\u00f3lka",
                "addr:housenumber": "74A",
                "addr:teryt:sym_ul": 22272,
                "contact:phone": "+48 833532355",
                "contact:email": "lisiowolkasp@wp.pl",
                "contact:website": "http:\/\/splisiowolka.pl",
                "ref:regon": "061496835",
                "ref:vatin": "PL5381543609",
                "operator": "Gmina Wohy\u0144",
                "operator:type": "government",
                "amenity": "kindergarten"
            }
        },
        {
            "id": 30644,
            "type": "Feature",
            "geometry": {
                "type": "Point",
                "coordinates": [
                    22.819021,
                    51.8451819
                ]
            },
            "properties": {
                "isced:level": "1;2",
                "ref:rspo": 30644,
                "official_name": "Szko\u0142a Podstawowa w Ostr\u00f3wkach",
                "name": "Szko\u0142a Podstawowa w Ostr\u00f3wkach",
                "addr:country": "PL",
                "addr:postcode": "21-310",
                "addr:place": "Ostr\u00f3wki",
                "addr:housenumber": "66B",
                "addr:teryt:sym_ul": 22332,
                "contact:phone": "+48 833533032",
                "contact:email": "szkolost@wp.pl",
                "contact:website": "http:\/\/szkola-ostrowki.cba.pl",
                "ref:regon": "001126507",
                "ref:vatin": "PL5381855177",
                "operator": "Gmina Wohy\u0144",
                "operator:type": "government",
                "amenity": "school"
            }
        },
        {
            "id": 92934,
            "type": "Feature",
            "geometry": {
                "type": "Point",
                "coordinates": [
                    22.819021,
                    51.8451519
                ]
            },
            "properties": {
                "ref:rspo": 92934,
                "official_name": "Zesp\u00f3\u0142 Przedszkoly w Ostr\u00f3wkach",
                "name": "Zesp\u00f3\u0142 Przedszkoly w Ostr\u00f3wkach",
                "addr:country": "PL",
                "addr:postcode": "21-310",
                "addr:place": "Ostr\u00f3wki",
                "addr:housenumber": "66B",
                "addr:teryt:sym_ul": 22332,
                "contact:phone": "+48 833533032",
                "contact:email": "szkolost@wp.pl",
                "ref:regon": "061496752",
                "ref:vatin": "PL5381543609",
                "operator": "Gmina Wohy\u0144",
                "operator:type": "government",
                "amenity": "kindergarten"
            }
        }
    ]
}