{
    "type": "FeatureCollection",
    "features": [
        {
            "id": 86091,
            "type": "Feature",
            "geometry": {
                "type": "Point",
                "coordinates": [
                    22.594732,
                    51.736528
                ]
            },
            "properties": {
                "isced:level": "1;2",
                "ref:rspo": 86091,
                "official_name": "Szko\u0142a Podstawowa w Paszkach Du\u017cych",
                "name": "Szko\u0142a Podstawowa w Paszkach Du\u017cych",
                "addr:postcode": "21-300",
                "addr:place": "Paszki Du\u017ce",
                "addr:housenumber": "39",
                "addr:city:simc": 18069,
                "phone": "+48 833529412",
                "email": "sppaszki@radzynpodlaski.pl",
                "ref:regon": "001119460",
                "ref:vatin": "PL5381676701",
                "operator": "Gmina Radzy\u0144 Podlaski",
                "operator:type": "government",
                "amenity": "school"
            }
        },
        {
            "id": 86536,
            "type": "Feature",
            "geometry": {
                "type": "Point",
                "coordinates": [
                    22.669957919225,
                    51.7533127938
                ]
            },
            "properties": {
                "isced:level": "1;2",
                "ref:rspo": 86536,
                "official_name": "Szko\u0142a Podstawowa w Branicy Radzy\u0144skiej",
                "name": "Szko\u0142a Podstawowa w Branicy Radzy\u0144skiej",
                "addr:postcode": "21-300",
                "addr:place": "Branica Radzy\u0144ska",
                "addr:housenumber": "41",
                "addr:city:simc": 17940,
                "phone": "+48 833528356",
                "email": "szpbranicaradz@gmail.com",
                "website": "http:\/\/www.spbranica.edupage.org",
                "ref:regon": "001119571",
                "ref:vatin": "PL5381677971",
                "operator": "Gmina Radzy\u0144 Podlaski",
                "operator:type": "government",
                "amenity": "school"
            }
        },
        {
            "id": 86232,
            "type": "Feature",
            "geometry": {
                "type": "Point",
                "coordinates": [
                    22.5864348,
                    51.767393
                ]
            },
            "properties": {
                "ref:rspo": 86232,
                "official_name": "Niepubliczne Przedszkole \"Ananas\"",
                "name": "Niepubliczne Przedszkole \"Ananas\"",
                "addr:postcode": "21-300",
                "addr:place": "Bia\u0142a",
                "addr:housenumber": "172B",
                "addr:city:simc": 17845,
                "phone": "+48 502643914",
                "ref:regon": "061487760",
                "ref:vatin": "PL5381709642",
                "operator": "Dane Do Uzupe\u0142nienia",
                "operator:type": "private",
                "amenity": "kindergarten"
            }
        },
        {
            "id": 86541,
            "type": "Feature",
            "geometry": {
                "type": "Point",
                "coordinates": [
                    22.59687,
                    51.7681569
                ]
            },
            "properties": {
                "ref:rspo": 86541,
                "official_name": "Zesp\u00f3\u0142 Szk\u00f3\u0142 w Zabielu",
                "name": "Zesp\u00f3\u0142 Szk\u00f3\u0142 w Zabielu",
                "addr:postcode": "21-300",
                "addr:place": "Zabiele",
                "addr:housenumber": "8b",
                "addr:city:simc": 18141,
                "phone": "+48 833117109",
                "email": "spzabiele8a@poczta.onet.pl",
                "website": "http:\/\/zszabiele.edupage.org",
                "ref:regon": "060273607",
                "ref:vatin": "PL5381803938",
                "operator": "Gmina Radzy\u0144 Podlaski",
                "operator:type": "government",
                "landuse": "education",
                "fixme": "amenity=school, amenity=college albo landuse=education w zale\u017cno\u015bci od tego, jakie plac\u00f3wki wchodz\u0105 w sk\u0142ad zespo\u0142u. Sprawd\u017a, kiedy stosowa\u0107 amenity=* a kiedy landuse=education.",
                "note": "Children RSPO: 106805;106828"
            }
        },
        {
            "id": 106805,
            "type": "Feature",
            "geometry": {
                "type": "Point",
                "coordinates": [
                    22.59687,
                    51.7681269
                ]
            },
            "properties": {
                "ref:rspo": 106805,
                "official_name": "Zesp\u00f3\u0142 Szk\u00f3\u0142 Przedszkole w Zabielu",
                "name": "Zesp\u00f3\u0142 Szk\u00f3\u0142 Przedszkole w Zabielu",
                "addr:postcode": "21-300",
                "addr:place": "Zabiele",
                "addr:housenumber": "8b",
                "addr:city:simc": 18141,
                "phone": "+48 833117109",
                "email": "zazabiele@radzynpodlaski.pl",
                "website": "http:\/\/zszabiele.edupage.org",
                "ref:regon": "030002688",
                "operator": "Gmina Radzy\u0144 Podlaski",
                "operator:type": "government",
                "amenity": "kindergarten",
                "note": "Parent RSPO: 86541"
            }
        },
        {
            "id": 106828,
            "type": "Feature",
            "geometry": {
                "type": "Point",
                "coordinates": [
                    22.59687,
                    51.7680969
                ]
            },
            "properties": {
                "isced:level": "1;2",
                "ref:rspo": 106828,
                "official_name": "Zesp\u00f3\u0142 Szk\u00f3\u0142 Szko\u0142a Podstawowa im. Gen. Walerego Wr\u00f3blewskiego",
                "name": "Zesp\u00f3\u0142 Szk\u00f3\u0142 Szko\u0142a Podstawowa",
                "addr:postcode": "21-300",
                "addr:place": "Zabiele",
                "addr:housenumber": "8b",
                "addr:city:simc": 18141,
                "phone": "+48 833117109",
                "email": "spzabiele8a@poczta.onet.pl",
                "website": "http:\/\/zszabiele.edupage.org",
                "ref:regon": "001119476",
                "ref:vatin": "PL5381678611",
                "operator": "Gmina Radzy\u0144 Podlaski",
                "operator:type": "government",
                "amenity": "school",
                "note": "Parent RSPO: 86541"
            }
        },
        {
            "id": 106903,
            "type": "Feature",
            "geometry": {
                "type": "Point",
                "coordinates": [
                    22.583828,
                    51.784811
                ]
            },
            "properties": {
                "isced:level": "1;2",
                "ref:rspo": 106903,
                "official_name": "Szko\u0142a Podstawowa im.romualda Traugutta w Bia\u0142ej",
                "name": "Szko\u0142a Podstawowa im.romualda Traugutta w Bia\u0142ej",
                "addr:postcode": "21-300",
                "addr:place": "Bia\u0142a",
                "addr:housenumber": "30",
                "addr:city:simc": 17845,
                "phone": "+48 833528329",
                "email": "zsbiala@radzynpodlaski.pl",
                "website": "http:\/\/www.zsbiala.org",
                "ref:regon": "001119559",
                "ref:vatin": "PL5381675541",
                "operator": "Gmina Radzy\u0144 Podlaski",
                "operator:type": "government",
                "amenity": "school"
            }
        },
        {
            "id": 85966,
            "type": "Feature",
            "geometry": {
                "type": "Point",
                "coordinates": [
                    22.5616929,
                    51.8028969
                ]
            },
            "properties": {
                "isced:level": "1;2",
                "ref:rspo": 85966,
                "official_name": "Szko\u0142a Podstawowa w \u017babikowie",
                "name": "Szko\u0142a Podstawowa w \u017babikowie",
                "addr:postcode": "21-300",
                "addr:place": "\u017babik\u00f3w",
                "addr:housenumber": "65",
                "addr:city:simc": 18164,
                "phone": "+48 33525556",
                "email": "spzabikow@radzynpodlaski.pl",
                "website": "http:\/\/www.spzabikow.edu.pl",
                "ref:regon": "001119482",
                "ref:vatin": "PL5381054537",
                "operator": "Gmina Radzy\u0144 Podlaski",
                "operator:type": "government",
                "amenity": "school"
            }
        },
        {
            "id": 106804,
            "type": "Feature",
            "geometry": {
                "type": "Point",
                "coordinates": [
                    22.660096,
                    51.8085759
                ]
            },
            "properties": {
                "isced:level": "1;2",
                "ref:rspo": 106804,
                "official_name": "Szko\u0142a Podstawowa im.\u015bwi\u0119tego Jana Paw\u0142a II w Bia\u0142ce",
                "name": "Szko\u0142a Podstawowa im.\u015bwi\u0119tego Jana Paw\u0142a II w Bia\u0142ce",
                "addr:postcode": "21-300",
                "addr:place": "Bia\u0142ka",
                "addr:housenumber": "49A",
                "addr:city:simc": 17905,
                "phone": "+48 833525009",
                "email": "zsbialka@radzynpodlaski.pl",
                "ref:regon": "001119565",
                "ref:vatin": "PL5381803921",
                "operator": "Gmina Radzy\u0144 Podlaski",
                "operator:type": "government",
                "amenity": "school"
            }
        },
        {
            "id": 85965,
            "type": "Feature",
            "geometry": {
                "type": "Point",
                "coordinates": [
                    22.584806,
                    51.834778
                ]
            },
            "properties": {
                "isced:level": "1;2",
                "ref:rspo": 85965,
                "official_name": "Szko\u0142a Podstawowa w Brzost\u00f3wcu",
                "name": "Szko\u0142a Podstawowa w Brzost\u00f3wcu",
                "addr:postcode": "21-300",
                "addr:place": "Brzost\u00f3wiec",
                "addr:housenumber": "72",
                "addr:city:simc": 17963,
                "phone": "+48 833524542",
                "email": "spbrzostowiec@radzynpodlaski.pl",
                "website": "http:\/\/szkola-brzostowiec.za.pl",
                "ref:regon": "001220554",
                "ref:vatin": "PL5381677942",
                "operator": "Gmina Radzy\u0144 Podlaski",
                "operator:type": "government",
                "amenity": "school"
            }
        }
    ]
}