{
    "type": "FeatureCollection",
    "features": [
        {
            "id": 114844,
            "type": "Feature",
            "geometry": {
                "type": "Point",
                "coordinates": [
                    22.5261,
                    51.68546
                ]
            },
            "properties": {
                "isced:level": "1;2",
                "ref:rspo": 114844,
                "official_name": "Szko\u0142a Podstawowa w Tch\u00f3rzewie Kolonii",
                "name": "Szko\u0142a Podstawowa w Tch\u00f3rzewie Kolonii",
                "addr:country": "PL",
                "addr:postcode": "21-345",
                "addr:place": "Tch\u00f3rzew-Kolonia",
                "addr:housenumber": "186",
                "addr:teryt:sym_ul": 379028,
                "contact:phone": "+48 818574215",
                "contact:email": "sp.tchorzew@gminaborki.pl",
                "ref:regon": "001177083",
                "ref:vatin": "PL5381653433",
                "operator": "Gmina Borki",
                "operator:type": "government",
                "amenity": "school"
            }
        },
        {
            "id": 115113,
            "type": "Feature",
            "geometry": {
                "type": "Point",
                "coordinates": [
                    22.5261,
                    51.68543
                ]
            },
            "properties": {
                "ref:rspo": 115113,
                "official_name": "Punkt Przedszkolny Przy Szkole Podstawowej w Tch\u00f3rzewie Kolonii",
                "name": "Punkt Przedszkolny Przy Szkole Podstawowej w Tch\u00f3rzewie Kolonii",
                "addr:country": "PL",
                "addr:postcode": "21-345",
                "addr:place": "Tch\u00f3rzew-Kolonia",
                "addr:housenumber": "186",
                "addr:teryt:sym_ul": 379028,
                "contact:phone": "+48 818574215",
                "contact:email": "sp.tchorzew@gminaborki.pl",
                "ref:regon": "061571933",
                "operator": "Gmina Borki",
                "operator:type": "government",
                "amenity": "kindergarten"
            }
        },
        {
            "id": 114839,
            "type": "Feature",
            "geometry": {
                "type": "Point",
                "coordinates": [
                    22.5220769,
                    51.7196225
                ]
            },
            "properties": {
                "ref:rspo": 114839,
                "official_name": "Zesp\u00f3\u0142 Plac\u00f3wek O\u015bwiatowych w Borkach",
                "name": "Zesp\u00f3\u0142 Plac\u00f3wek O\u015bwiatowych w Borkach",
                "addr:country": "PL",
                "addr:postcode": "21-345",
                "addr:city": "Borki",
                "addr:street": "ul. Wojska Polskiego",
                "addr:housenumber": "25",
                "addr:teryt:simc": 24628,
                "addr:teryt:sym_ul": 378885,
                "contact:phone": "+48 818574240",
                "contact:email": "zpo.borki@gminaborki.pl",
                "ref:regon": "060276959",
                "ref:vatin": "PL5381804375",
                "operator": "Gmina Borki",
                "operator:type": "government",
                "landuse": "education",
                "fixme": "amenity=school, amenity=college albo landuse=education w zale\u017cno\u015bci od tego, jakie plac\u00f3wki wchodz\u0105 w sk\u0142ad zespo\u0142u. Sprawd\u017a, kiedy stosowa\u0107 amenity=* a kiedy landuse=education.",
                "note": "Children RSPO: 115074;115078;273226"
            }
        },
        {
            "id": 115074,
            "type": "Feature",
            "geometry": {
                "type": "Point",
                "coordinates": [
                    22.5220769,
                    51.7195925
                ]
            },
            "properties": {
                "isced:level": "1;2",
                "ref:rspo": 115074,
                "official_name": "Szko\u0142a Podstawowa im. Jana Paw\u0142a II w Borkach",
                "name": "Szko\u0142a Podstawowa",
                "addr:country": "PL",
                "addr:postcode": "21-345",
                "addr:city": "Borki",
                "addr:street": "ul. Wojska Polskiego",
                "addr:housenumber": "25",
                "addr:teryt:simc": 24628,
                "addr:teryt:sym_ul": 378885,
                "contact:phone": "+48 818574240",
                "contact:email": "zpo.borki@gminaborki.pl",
                "contact:website": "http:\/\/www.zpoborki",
                "ref:regon": "000583119",
                "operator": "Gmina Borki",
                "operator:type": "government",
                "amenity": "school",
                "note": "Parent RSPO: 114839"
            }
        },
        {
            "id": 115078,
            "type": "Feature",
            "geometry": {
                "type": "Point",
                "coordinates": [
                    22.5220769,
                    51.7195625
                ]
            },
            "properties": {
                "ref:rspo": 115078,
                "official_name": "Punkt Przedszkolny w Borkach",
                "name": "Punkt Przedszkolny w Borkach",
                "addr:country": "PL",
                "addr:postcode": "21-345",
                "addr:city": "Borki",
                "addr:street": "ul. II Armii Wojska Polskiego",
                "addr:housenumber": "25",
                "addr:teryt:simc": 442,
                "addr:teryt:sym_ul": 378885,
                "contact:phone": "+48 818574240",
                "contact:email": "zpo.borki@borkiradzynskie.pl",
                "ref:regon": "061569050",
                "operator": "Gmina Borki",
                "operator:type": "government",
                "amenity": "kindergarten",
                "note": "Parent RSPO: 114839"
            }
        },
        {
            "id": 273226,
            "type": "Feature",
            "geometry": {
                "type": "Point",
                "coordinates": [
                    22.5220769,
                    51.7195325
                ]
            },
            "properties": {
                "ref:rspo": 273226,
                "official_name": "Publiczne Przedszkole w Borkach",
                "name": "Publiczne Przedszkole w Borkach",
                "addr:country": "PL",
                "addr:postcode": "21-345",
                "addr:city": "Borki",
                "addr:street": "ul. Wojska Polskiego",
                "addr:housenumber": "25",
                "addr:teryt:simc": 24628,
                "addr:teryt:sym_ul": 378885,
                "contact:phone": "+48 818574240",
                "contact:email": "zpo.borki@gminaborki.pl",
                "ref:regon": "384409214",
                "operator": "Gmina Borki",
                "operator:type": "government",
                "amenity": "kindergarten",
                "note": "Parent RSPO: 114839"
            }
        },
        {
            "id": 16757,
            "type": "Feature",
            "geometry": {
                "type": "Point",
                "coordinates": [
                    22.46595,
                    51.73346
                ]
            },
            "properties": {
                "ref:rspo": 16757,
                "official_name": "Zesp\u00f3\u0142 Szk\u00f3\u0142 Rolniczych w Woli Osowi\u0144skiej",
                "name": "Zesp\u00f3\u0142 Szk\u00f3\u0142 Rolniczych w Woli Osowi\u0144skiej",
                "addr:country": "PL",
                "addr:postcode": "21-345",
                "addr:city": "Wola Osowi\u0144ska",
                "addr:street": "ul. Parkowa",
                "addr:housenumber": "7",
                "addr:teryt:simc": 15710,
                "addr:teryt:sym_ul": 379063,
                "contact:phone": "+48 818574189",
                "contact:email": "zsrwolaosowinska@wp.pl",
                "contact:website": "http:\/\/zsr.powiatradzynski.pl",
                "ref:regon": "030270093",
                "ref:vatin": "PL5381606959",
                "operator": "Powiat Radzy\u0144ski",
                "operator:type": "government",
                "landuse": "education",
                "fixme": "amenity=school, amenity=college albo landuse=education w zale\u017cno\u015bci od tego, jakie plac\u00f3wki wchodz\u0105 w sk\u0142ad zespo\u0142u. Sprawd\u017a, kiedy stosowa\u0107 amenity=* a kiedy landuse=education.",
                "note": "Children RSPO: 105602;105604;105617;105619"
            }
        },
        {
            "id": 114843,
            "type": "Feature",
            "geometry": {
                "type": "Point",
                "coordinates": [
                    22.46595,
                    51.73343
                ]
            },
            "properties": {
                "ref:rspo": 114843,
                "official_name": "Zesp\u00f3\u0142 Plac\u00f3wek O\u015bwiatowych w Woli Osowi\u0144skiej",
                "name": "Zesp\u00f3\u0142 Plac\u00f3wek O\u015bwiatowych w Woli Osowi\u0144skiej",
                "addr:country": "PL",
                "addr:postcode": "21-345",
                "addr:city": "Wola Osowi\u0144ska",
                "addr:street": "ul. Parkowa",
                "addr:housenumber": "7",
                "addr:teryt:simc": 15710,
                "addr:teryt:sym_ul": 379063,
                "contact:phone": "+48 818574184",
                "contact:email": "zpo.wolaosowinska@gminaborki.pl",
                "ref:regon": "060276965",
                "ref:vatin": "PL5381804369",
                "operator": "Gmina Borki",
                "operator:type": "government",
                "landuse": "education",
                "fixme": "amenity=school, amenity=college albo landuse=education w zale\u017cno\u015bci od tego, jakie plac\u00f3wki wchodz\u0105 w sk\u0142ad zespo\u0142u. Sprawd\u017a, kiedy stosowa\u0107 amenity=* a kiedy landuse=education.",
                "note": "Children RSPO: 115109;115111"
            }
        },
        {
            "id": 105602,
            "type": "Feature",
            "geometry": {
                "type": "Point",
                "coordinates": [
                    22.46595,
                    51.7334
                ]
            },
            "properties": {
                "isced:level": "3",
                "ref:rspo": 105602,
                "official_name": "Technikum im. Wincentego Witosa w Woli Osowi\u0144skiej",
                "name": "Technikum",
                "addr:country": "PL",
                "addr:postcode": "21-345",
                "addr:city": "Wola Osowi\u0144ska",
                "addr:street": "ul. Parkowa",
                "addr:housenumber": "7",
                "addr:teryt:simc": 15710,
                "addr:teryt:sym_ul": 379063,
                "contact:phone": "+48 818574189",
                "contact:email": "zsrwolaosowinska@wp.pl",
                "ref:regon": "030887149",
                "operator": "Powiat Radzy\u0144ski",
                "operator:type": "government",
                "amenity": "school",
                "note": "Parent RSPO: 16757"
            }
        },
        {
            "id": 105604,
            "type": "Feature",
            "geometry": {
                "type": "Point",
                "coordinates": [
                    22.46595,
                    51.73337
                ]
            },
            "properties": {
                "isced:level": "3",
                "ref:rspo": 105604,
                "official_name": "Bran\u017cowa Szko\u0142a I Stopnia w Woli Osowi\u0144skiej",
                "name": "Bran\u017cowa Szko\u0142a I Stopnia w Woli Osowi\u0144skiej",
                "addr:country": "PL",
                "addr:postcode": "21-345",
                "addr:city": "Wola Osowi\u0144ska",
                "addr:street": "ul. Parkowa",
                "addr:housenumber": "7",
                "addr:teryt:simc": 15710,
                "addr:teryt:sym_ul": 379063,
                "contact:phone": "+48 818574189",
                "ref:regon": "030312236",
                "operator": "Powiat Radzy\u0144ski",
                "operator:type": "government",
                "amenity": "school",
                "note": "Parent RSPO: 16757"
            }
        },
        {
            "id": 105617,
            "type": "Feature",
            "geometry": {
                "type": "Point",
                "coordinates": [
                    22.46595,
                    51.73334
                ]
            },
            "properties": {
                "isced:level": "4",
                "ref:rspo": 105617,
                "official_name": "Policealna Szko\u0142a Zaoczna w Woli Osowi\u0144skiej",
                "name": "Policealna Szko\u0142a Zaoczna w Woli Osowi\u0144skiej",
                "addr:country": "PL",
                "addr:postcode": "21-345",
                "addr:city": "Wola Osowi\u0144ska",
                "addr:street": "ul. Parkowa",
                "addr:housenumber": "7",
                "addr:teryt:simc": 15710,
                "addr:teryt:sym_ul": 379063,
                "contact:phone": "+48 818574189",
                "ref:regon": "060397893",
                "operator": "Powiat Radzy\u0144ski",
                "operator:type": "government",
                "amenity": "college",
                "note": "Parent RSPO: 16757"
            }
        },
        {
            "id": 105619,
            "type": "Feature",
            "geometry": {
                "type": "Point",
                "coordinates": [
                    22.46595,
                    51.73331
                ]
            },
            "properties": {
                "isced:level": "3",
                "ref:rspo": 105619,
                "official_name": "Zaoczne Liceum Og\u00f3lnokszta\u0142c\u0105ce dla Doros\u0142ych w Woli Osowi\u0144skiej",
                "name": "Zaoczne Liceum Og\u00f3lnokszta\u0142c\u0105ce dla Doros\u0142ych w Woli Osowi\u0144skiej",
                "addr:country": "PL",
                "addr:postcode": "21-345",
                "addr:city": "Wola Osowi\u0144ska",
                "addr:street": "ul. Parkowa",
                "addr:housenumber": "7",
                "addr:teryt:simc": 15710,
                "addr:teryt:sym_ul": 379063,
                "contact:phone": "+48 818574189",
                "ref:regon": "060667157",
                "operator": "Powiat Radzy\u0144ski",
                "operator:type": "government",
                "amenity": "school",
                "note": "Parent RSPO: 16757"
            }
        },
        {
            "id": 115109,
            "type": "Feature",
            "geometry": {
                "type": "Point",
                "coordinates": [
                    22.46595,
                    51.73328
                ]
            },
            "properties": {
                "isced:level": "1;2",
                "ref:rspo": 115109,
                "official_name": "Szko\u0142a Podstawowa im. P\u0142k. Pil. Z. Krasnod\u0119bskiego w Woli Osowi\u0144skiej",
                "name": "Szko\u0142a Podstawowa",
                "addr:country": "PL",
                "addr:postcode": "21-345",
                "addr:city": "Wola Osowi\u0144ska",
                "addr:street": "ul. Parkowa",
                "addr:housenumber": "7",
                "addr:teryt:simc": 15710,
                "addr:teryt:sym_ul": 379063,
                "contact:phone": "+48 818574184",
                "contact:email": "zpo.wolaosowinska@gminaborki.pl",
                "ref:regon": "001177108",
                "operator": "Gmina Borki",
                "operator:type": "government",
                "amenity": "school",
                "note": "Parent RSPO: 114843"
            }
        },
        {
            "id": 115111,
            "type": "Feature",
            "geometry": {
                "type": "Point",
                "coordinates": [
                    22.46595,
                    51.73325
                ]
            },
            "properties": {
                "ref:rspo": 115111,
                "official_name": "Przedszkole w Woli Osowi\u0144skiej",
                "name": "Przedszkole w Woli Osowi\u0144skiej",
                "addr:country": "PL",
                "addr:postcode": "21-345",
                "addr:city": "Wola Osowi\u0144ska",
                "addr:street": "ul. Parkowa",
                "addr:housenumber": "7",
                "addr:teryt:simc": 15710,
                "addr:teryt:sym_ul": 379063,
                "contact:phone": "+48 818574184",
                "contact:email": "zpo.wolaosowinska@gminaborki.pl",
                "ref:regon": "030304515",
                "operator": "Gmina Borki",
                "operator:type": "government",
                "amenity": "kindergarten",
                "note": "Parent RSPO: 114843"
            }
        },
        {
            "id": 130219,
            "type": "Feature",
            "geometry": {
                "type": "Point",
                "coordinates": [
                    22.4625221,
                    51.7677623
                ]
            },
            "properties": {
                "ref:rspo": 130219,
                "official_name": "Punkt Przedszkolny Przy Szkole Podstawowej w Krasewie",
                "name": "Punkt Przedszkolny Przy Szkole Podstawowej w Krasewie",
                "addr:country": "PL",
                "addr:postcode": "21-345",
                "addr:place": "Krasew",
                "addr:housenumber": "84",
                "addr:teryt:sym_ul": 378900,
                "contact:email": "spkrasew@gminaborki.pl",
                "ref:regon": "363667190",
                "operator": "Gmina Borki",
                "operator:type": "government",
                "amenity": "kindergarten"
            }
        },
        {
            "id": 263248,
            "type": "Feature",
            "geometry": {
                "type": "Point",
                "coordinates": [
                    22.4625221,
                    51.7677323
                ]
            },
            "properties": {
                "isced:level": "1;2",
                "ref:rspo": 263248,
                "official_name": "Szko\u0142a Podstawowa w Krasewie im. \u017bo\u0142nierzy Wykl\u0119tych",
                "name": "Szko\u0142a Podstawowa w Krasewie",
                "addr:country": "PL",
                "addr:postcode": "21-345",
                "addr:place": "Krasew",
                "addr:housenumber": "84",
                "addr:teryt:sym_ul": 378900,
                "contact:phone": "+48 785111234",
                "contact:email": "spkrasew@gminaborki.pl",
                "contact:website": "http:\/\/spkrasew.pl",
                "ref:regon": "368175823",
                "operator": "Gmina Borki",
                "operator:type": "government",
                "amenity": "school"
            }
        },
        {
            "id": 263256,
            "type": "Feature",
            "geometry": {
                "type": "Point",
                "coordinates": [
                    22.44148,
                    51.7832
                ]
            },
            "properties": {
                "isced:level": "1;2",
                "ref:rspo": 263256,
                "official_name": "Szko\u0142a Podstawowa w Woli Chomejowej",
                "name": "Szko\u0142a Podstawowa w Woli Chomejowej",
                "addr:country": "PL",
                "addr:postcode": "21-345",
                "addr:place": "Wola Chomejowa",
                "addr:housenumber": "85",
                "addr:teryt:sym_ul": 379034,
                "contact:phone": "+48 818574272",
                "contact:email": "spwolachomejowa@gminaborki.pl",
                "ref:regon": "368176082",
                "operator": "Gmina Borki",
                "operator:type": "government",
                "amenity": "school"
            }
        },
        {
            "id": 263281,
            "type": "Feature",
            "geometry": {
                "type": "Point",
                "coordinates": [
                    22.44148,
                    51.78317
                ]
            },
            "properties": {
                "ref:rspo": 263281,
                "official_name": "Punkt Przedszkolny Przy Szkole Podstawowej w Woli Chomejowej",
                "name": "Punkt Przedszkolny Przy Szkole Podstawowej w Woli Chomejowej",
                "addr:country": "PL",
                "addr:postcode": "21-345",
                "addr:place": "Wola Chomejowa",
                "addr:housenumber": "85",
                "addr:teryt:sym_ul": 379034,
                "contact:phone": "+48 818574272",
                "contact:email": "spwolachomejowa@gminaborki.pl",
                "contact:website": "http:\/\/spwolachomejowa.pl\/",
                "ref:regon": "368178046",
                "operator": "Gmina Borki",
                "operator:type": "government",
                "amenity": "kindergarten"
            }
        }
    ]
}