{
    "type": "FeatureCollection",
    "features": [
        {
            "id": 72768,
            "type": "Feature",
            "geometry": {
                "type": "Point",
                "coordinates": [
                    22.415371,
                    51.8125949
                ]
            },
            "properties": {
                "isced:level": "1;2",
                "ref:rspo": 72768,
                "official_name": "Szko\u0142a Podstawowa w Sobolach",
                "name": "Szko\u0142a Podstawowa w Sobolach",
                "addr:postcode": "21-307",
                "addr:place": "Sobole",
                "addr:housenumber": "69C",
                "addr:city:simc": 21516,
                "phone": "+48 833518056",
                "email": "szkola_sobole@wp.pl",
                "ref:regon": "001123147",
                "ref:vatin": "PL5381677994",
                "operator": "Gmina Ulan-Majorat",
                "operator:type": "government",
                "amenity": "school"
            }
        },
        {
            "id": 74330,
            "type": "Feature",
            "geometry": {
                "type": "Point",
                "coordinates": [
                    22.415371,
                    51.8125649
                ]
            },
            "properties": {
                "ref:rspo": 74330,
                "official_name": "Punkt Przedszkolny w Sobolach",
                "name": "Punkt Przedszkolny w Sobolach",
                "addr:postcode": "21-307",
                "addr:place": "Sobole",
                "addr:housenumber": "69C",
                "addr:city:simc": 21516,
                "phone": "+48 833518056",
                "ref:regon": "061483130",
                "operator": "Gmina Ulan-Majorat",
                "operator:type": "government",
                "amenity": "kindergarten"
            }
        },
        {
            "id": 72948,
            "type": "Feature",
            "geometry": {
                "type": "Point",
                "coordinates": [
                    22.479975,
                    51.813071
                ]
            },
            "properties": {
                "ref:rspo": 72948,
                "official_name": "Zesp\u00f3\u0142 Szk\u00f3\u0142 im. Jana Paw\u0142a II w Ulanie-Majoracie",
                "name": "Zesp\u00f3\u0142 Szk\u00f3\u0142",
                "addr:postcode": "21-307",
                "addr:place": "Ulan-Majorat",
                "addr:housenumber": "53",
                "addr:city:simc": 21574,
                "phone": "+48 833518085",
                "email": "zs.ulan@ulanmajorat.pl",
                "website": "http:\/\/www.gimulan.zkwadrat.pl",
                "ref:regon": "060022710",
                "ref:vatin": "PL5381839014",
                "operator": "Gmina Ulan-Majorat",
                "operator:type": "government",
                "landuse": "education",
                "fixme": "amenity=school, amenity=college albo landuse=education w zale\u017cno\u015bci od tego, jakie plac\u00f3wki wchodz\u0105 w sk\u0142ad zespo\u0142u. Sprawd\u017a, kiedy stosowa\u0107 amenity=* a kiedy landuse=education.",
                "note": "Children RSPO: 104567;104568"
            }
        },
        {
            "id": 89120,
            "type": "Feature",
            "geometry": {
                "type": "Point",
                "coordinates": [
                    22.479975,
                    51.813041
                ]
            },
            "properties": {
                "isced:level": "3",
                "ref:rspo": 89120,
                "official_name": "Zaoczne Liceum Og\u00f3lnokszta\u0142c\u0105ce dla Doros\u0142ych w Ulanie-Majoracie",
                "name": "Zaoczne Liceum Og\u00f3lnokszta\u0142c\u0105ce dla Doros\u0142ych w Ulanie-Majoracie",
                "addr:postcode": "21-307",
                "addr:place": "Ulan-Majorat",
                "addr:housenumber": "53",
                "addr:city:simc": 21574,
                "phone": "+48 604410548",
                "email": "stowarzyszenieufis@gmail.com",
                "ref:regon": "061493825",
                "operator": "Ula\u0144skie Forum Inicjatyw Spo\u0142ecznych",
                "operator:type": "ngo",
                "amenity": "school"
            }
        },
        {
            "id": 104567,
            "type": "Feature",
            "geometry": {
                "type": "Point",
                "coordinates": [
                    22.479975,
                    51.813011
                ]
            },
            "properties": {
                "isced:level": "1;2",
                "ref:rspo": 104567,
                "official_name": "Zesp\u00f3\u0142 Szk\u00f3\u0142 im. Jana Paw\u0142a II Szko\u0142a Podstawowa w Ulanie-Majoracie",
                "name": "Zesp\u00f3\u0142 Szk\u00f3\u0142",
                "addr:postcode": "21-307",
                "addr:place": "Ulan-Majorat",
                "addr:housenumber": "53",
                "addr:city:simc": 21574,
                "phone": "+48 833518085",
                "email": "zs.ulan@ulanmajorat.pl",
                "website": "http:\/\/gimulan.zkwadrat.pl",
                "ref:regon": "000677263",
                "operator": "Gmina Ulan-Majorat",
                "operator:type": "government",
                "amenity": "school",
                "note": "Children RSPO: 106404;106623Parent RSPO: 72948"
            }
        },
        {
            "id": 104568,
            "type": "Feature",
            "geometry": {
                "type": "Point",
                "coordinates": [
                    22.479975,
                    51.812981
                ]
            },
            "properties": {
                "ref:rspo": 104568,
                "official_name": "Zesp\u00f3\u0142 Szk\u00f3\u0142 im. Jana Paw\u0142a II Przedszkole w Ulanie-Majoracie",
                "name": "Zesp\u00f3\u0142 Szk\u00f3\u0142",
                "addr:postcode": "21-307",
                "addr:place": "Ulan-Majorat",
                "addr:housenumber": "53",
                "addr:city:simc": 21574,
                "phone": "+48 833518085",
                "email": "zs.ulan@ulanmajorat.pl",
                "website": "http:\/\/gimulan.zkwadrat.pl",
                "ref:regon": "000967630",
                "operator": "Gmina Ulan-Majorat",
                "operator:type": "government",
                "amenity": "kindergarten",
                "note": "Parent RSPO: 72948"
            }
        },
        {
            "id": 106623,
            "type": "Feature",
            "geometry": {
                "type": "Point",
                "coordinates": [
                    22.42371,
                    51.834742
                ]
            },
            "properties": {
                "isced:level": "1;2",
                "ref:rspo": 106623,
                "official_name": "Zesp\u00f3\u0142 Szk\u00f3\u0142 im. Jana Paw\u0142a II Szko\u0142a Filialna w S\u0119tkach",
                "name": "Zesp\u00f3\u0142 Szk\u00f3\u0142",
                "addr:postcode": "21-307",
                "addr:place": "S\u0119tki",
                "addr:housenumber": "32",
                "addr:city:simc": 21491,
                "phone": "+48 833518090",
                "ref:regon": "677263000",
                "operator": "Gmina Ulan-Majorat",
                "operator:type": "government",
                "amenity": "school",
                "note": "Parent RSPO: 104567"
            }
        },
        {
            "id": 106404,
            "type": "Feature",
            "geometry": {
                "type": "Point",
                "coordinates": [
                    22.5460239,
                    51.837599
                ]
            },
            "properties": {
                "isced:level": "1;2",
                "ref:rspo": 106404,
                "official_name": "Zesp\u00f3\u0142 Szk\u00f3\u0142 im. Jana Paw\u0142a II - Szko\u0142a Filialna w Paskudach",
                "name": "Zesp\u00f3\u0142 Szk\u00f3\u0142",
                "addr:postcode": "21-307",
                "addr:place": "Paskudy",
                "addr:housenumber": "62",
                "addr:city:simc": 21479,
                "phone": "+48 833519004",
                "ref:regon": "677263000",
                "operator": "Gmina Ulan-Majorat",
                "operator:type": "government",
                "amenity": "school",
                "note": "Parent RSPO: 104567"
            }
        },
        {
            "id": 10771,
            "type": "Feature",
            "geometry": {
                "type": "Point",
                "coordinates": [
                    22.3839658,
                    51.8519
                ]
            },
            "properties": {
                "isced:level": "1;2",
                "ref:rspo": 10771,
                "official_name": "Szko\u0142a Podstawowa w Domaszewnicy",
                "name": "Szko\u0142a Podstawowa w Domaszewnicy",
                "addr:postcode": "21-307",
                "addr:place": "Kolonia Domaszewska",
                "addr:housenumber": "8",
                "addr:city:simc": 21456,
                "phone": "+48 833518001",
                "email": "spdomaszewnica@wp.pl",
                "ref:regon": "001123160",
                "ref:vatin": "PL5381678025",
                "operator": "Gmina Ulan-Majorat",
                "operator:type": "government",
                "amenity": "school"
            }
        },
        {
            "id": 72975,
            "type": "Feature",
            "geometry": {
                "type": "Point",
                "coordinates": [
                    22.3839658,
                    51.85187
                ]
            },
            "properties": {
                "ref:rspo": 72975,
                "official_name": "Punkt Przedszkolny w Domaszewnicy",
                "name": "Punkt Przedszkolny w Domaszewnicy",
                "addr:postcode": "21-307",
                "addr:place": "Kolonia Domaszewska",
                "addr:housenumber": "8",
                "addr:city:simc": 21456,
                "phone": "+48 833518001",
                "email": "spdomaszewnica@wp.pl",
                "ref:regon": "061482550",
                "operator": "Gmina Ulan-Majorat",
                "operator:type": "government",
                "amenity": "kindergarten"
            }
        },
        {
            "id": 72742,
            "type": "Feature",
            "geometry": {
                "type": "Point",
                "coordinates": [
                    22.4899971,
                    51.858534
                ]
            },
            "properties": {
                "isced:level": "1;2",
                "ref:rspo": 72742,
                "official_name": "Szko\u0142a Podstawowa Imienia B\u0142ogos\u0142awionego Ksi\u0119dza Jerzego Popie\u0142uszki w K\u0119pkach",
                "name": "Szko\u0142a Podstawowa Imienia B\u0142ogos\u0142awionego Ksi\u0119dza Jerzego Popie\u0142uszki w K\u0119pkach",
                "addr:postcode": "21-307",
                "addr:place": "K\u0119pki",
                "addr:housenumber": "26A",
                "addr:door": "-",
                "addr:city:simc": 21410,
                "phone": "+48 833519001",
                "email": "sp.kepki@ulanmajorat.pl",
                "website": "http:\/\/spkepki.pl",
                "ref:regon": "001123153",
                "ref:vatin": "PL5381678002",
                "operator": "Gmina Ulan-Majorat",
                "operator:type": "government",
                "amenity": "school"
            }
        },
        {
            "id": 74304,
            "type": "Feature",
            "geometry": {
                "type": "Point",
                "coordinates": [
                    22.4899971,
                    51.858503999999996
                ]
            },
            "properties": {
                "ref:rspo": 74304,
                "official_name": "Punkt Przedszkolny w K\u0119pkach",
                "name": "Punkt Przedszkolny w K\u0119pkach",
                "addr:postcode": "21-307",
                "addr:place": "K\u0119pki",
                "addr:housenumber": "26A",
                "addr:city:simc": 21410,
                "phone": "+48 833519001",
                "email": "sp.kepki@ulanmajorat.pl",
                "website": "http:\/\/spkepki.pl",
                "ref:regon": "061483123",
                "operator": "Gmina Ulan-Majorat",
                "operator:type": "government",
                "amenity": "kindergarten"
            }
        },
        {
            "id": 72880,
            "type": "Feature",
            "geometry": {
                "type": "Point",
                "coordinates": [
                    22.545676,
                    51.86116
                ]
            },
            "properties": {
                "isced:level": "1;2",
                "ref:rspo": 72880,
                "official_name": "Szko\u0142a Podstawowa w Zakrzewie",
                "name": "Szko\u0142a Podstawowa w Zakrzewie",
                "addr:postcode": "21-307",
                "addr:place": "Zakrzew",
                "addr:housenumber": "27",
                "addr:city:simc": 21611,
                "phone": "+48 833519003",
                "email": "spzakrzew@op.pl",
                "ref:regon": "001123130",
                "ref:vatin": "PL5381678019",
                "operator": "Gmina Ulan-Majorat",
                "operator:type": "government",
                "amenity": "school"
            }
        },
        {
            "id": 74352,
            "type": "Feature",
            "geometry": {
                "type": "Point",
                "coordinates": [
                    22.545676,
                    51.861129999999996
                ]
            },
            "properties": {
                "ref:rspo": 74352,
                "official_name": "Punkt Przedszkolny w Zakrzewie",
                "name": "Punkt Przedszkolny w Zakrzewie",
                "addr:postcode": "21-307",
                "addr:place": "Zakrzew",
                "addr:housenumber": "27",
                "addr:city:simc": 21611,
                "phone": "+48 833519003",
                "ref:regon": "061483146",
                "operator": "Gmina Ulan-Majorat",
                "operator:type": "government",
                "amenity": "kindergarten"
            }
        }
    ]
}