{
    "type": "FeatureCollection",
    "features": [
        {
            "id": 267973,
            "type": "Feature",
            "geometry": {
                "type": "Point",
                "coordinates": [
                    22.60497,
                    51.77596
                ]
            },
            "properties": {
                "ref:rspo": 267973,
                "official_name": "Przedszkole Miejskie nr 2",
                "name": "Przedszkole Miejskie nr 2",
                "addr:postcode": "21-300",
                "addr:city": "Radzy\u0144 Podlaski",
                "addr:street": "\u015awi\u0119tego Brata Alberta Chmielowskiego",
                "addr:housenumber": "8",
                "addr:city:simc": 922277,
                "addr:street:sym_ul": 30346,
                "phone": "+48 833520939",
                "email": "przedszkolenr2@onet.pl",
                "ref:regon": "380806792",
                "operator": "Miasto Radzy\u0144 Podlaski",
                "operator:type": "government",
                "amenity": "kindergarten"
            }
        },
        {
            "id": 16829,
            "type": "Feature",
            "geometry": {
                "type": "Point",
                "coordinates": [
                    22.6179,
                    51.77729
                ]
            },
            "properties": {
                "ref:rspo": 16829,
                "official_name": "Zesp\u00f3\u0142 Szk\u00f3\u0142 Ponadpodstawowych im. Jana Paw\u0142a II w Radzyniu Podlaskim",
                "name": "Zesp\u00f3\u0142 Szk\u00f3\u0142 Ponadpodstawowych",
                "addr:postcode": "21-300",
                "addr:city": "Radzy\u0144 Podlaski",
                "addr:street": "W\u0142adys\u0142awa Sikorskiego",
                "addr:housenumber": "15",
                "addr:city:simc": 922277,
                "addr:street:sym_ul": 19914,
                "phone": "+48 833527332",
                "email": "sekretariatzsp@gmail.com",
                "website": "http:\/\/www.zspradzyn.pl",
                "ref:regon": "000198261",
                "ref:vatin": "PL5381543756",
                "operator": "Powiat Radzy\u0144ski",
                "operator:type": "government",
                "landuse": "education",
                "fixme": "amenity=school, amenity=college albo landuse=education w zale\u017cno\u015bci od tego, jakie plac\u00f3wki wchodz\u0105 w sk\u0142ad zespo\u0142u. Sprawd\u017a, kiedy stosowa\u0107 amenity=* a kiedy landuse=education.",
                "note": "Children RSPO: 91319;107700;110481;119508;274901"
            }
        },
        {
            "id": 91319,
            "type": "Feature",
            "geometry": {
                "type": "Point",
                "coordinates": [
                    22.6179,
                    51.77726
                ]
            },
            "properties": {
                "isced:level": "3",
                "ref:rspo": 91319,
                "official_name": "Ii Liceum Og\u00f3lnokszta\u0142c\u0105ce w Zespole Szk\u00f3\u0142 Ponadpodstawowych im. Jana Paw\u0142a II w Radzyniu Podlaskim",
                "name": "Ii Liceum Og\u00f3lnokszta\u0142c\u0105ce w Zespole Szk\u00f3\u0142 Ponadpodstawowych",
                "addr:postcode": "21-300",
                "addr:city": "Radzy\u0144 Podlaski",
                "addr:street": "W\u0142adys\u0142awa Sikorskiego",
                "addr:housenumber": "15",
                "addr:city:simc": 922277,
                "addr:street:sym_ul": 19914,
                "phone": "+48 833527332",
                "email": "sekretariatzsp@gmail.com",
                "website": "http:\/\/zspradzyn.pl",
                "ref:regon": "030886428",
                "operator": "Powiat Radzy\u0144ski",
                "operator:type": "government",
                "amenity": "school",
                "note": "Parent RSPO: 16829"
            }
        },
        {
            "id": 107700,
            "type": "Feature",
            "geometry": {
                "type": "Point",
                "coordinates": [
                    22.6179,
                    51.77723
                ]
            },
            "properties": {
                "isced:level": "3",
                "ref:rspo": 107700,
                "official_name": "Bran\u017cowa Szko\u0142a I Stopnia w Zespole Szk\u00f3\u0142 Ponadpodstawowych im. Jana Paw\u0142a II w Radzyniu Podlaskim",
                "name": "Bran\u017cowa Szko\u0142a I Stopnia w Zespole Szk\u00f3\u0142 Ponadpodstawowych",
                "addr:postcode": "21-300",
                "addr:city": "Radzy\u0144 Podlaski",
                "addr:street": "W\u0142adys\u0142awa Sikorskiego",
                "addr:housenumber": "15",
                "addr:city:simc": 922277,
                "addr:street:sym_ul": 19914,
                "phone": "+48 833527332",
                "email": "sekretariat.szkola@gmail.com",
                "website": "http:\/\/zspradzyn.pl",
                "ref:regon": "030308795",
                "ref:vatin": "PL5381543756",
                "operator": "Powiat Radzy\u0144ski",
                "operator:type": "government",
                "amenity": "school",
                "note": "Parent RSPO: 16829"
            }
        },
        {
            "id": 110481,
            "type": "Feature",
            "geometry": {
                "type": "Point",
                "coordinates": [
                    22.6179,
                    51.7772
                ]
            },
            "properties": {
                "isced:level": "3",
                "ref:rspo": 110481,
                "official_name": "Technikum w Zespole Szk\u00f3\u0142 Ponadpostawowych im. Jana Paw\u0142a II w Radzyniu Podlaskim",
                "name": "Technikum w Zespole Szk\u00f3\u0142 Ponadpostawowych",
                "addr:postcode": "21-300",
                "addr:city": "Radzy\u0144 Podlaski",
                "addr:street": "W\u0142adys\u0142awa Sikorskiego",
                "addr:housenumber": "15",
                "addr:city:simc": 922277,
                "addr:street:sym_ul": 19914,
                "phone": "+48 833527332",
                "ref:regon": "030308720",
                "operator": "Powiat Radzy\u0144ski",
                "operator:type": "government",
                "amenity": "school",
                "note": "Parent RSPO: 16829"
            }
        },
        {
            "id": 119508,
            "type": "Feature",
            "geometry": {
                "type": "Point",
                "coordinates": [
                    22.6179,
                    51.77717
                ]
            },
            "properties": {
                "isced:level": "3",
                "ref:rspo": 119508,
                "official_name": "Liceum Og\u00f3lnokszta\u0142c\u0105ce dla Doros\u0142ych w Zespole Szk\u00f3\u0142 Ponadpodstawowych im. Jana Paw\u0142a II w Radzyniu Podlaskim",
                "name": "Liceum Og\u00f3lnokszta\u0142c\u0105ce dla Doros\u0142ych w Zespole Szk\u00f3\u0142 Ponadpodstawowych",
                "addr:postcode": "21-300",
                "addr:city": "Radzy\u0144 Podlaski",
                "addr:street": "W\u0142adys\u0142awa Sikorskiego",
                "addr:housenumber": "15",
                "addr:city:simc": 922277,
                "addr:street:sym_ul": 19914,
                "phone": "+48 833527332",
                "email": "sekretariatzsp@gmail.pl",
                "ref:regon": "061598180",
                "operator": "Powiat Radzy\u0144ski",
                "operator:type": "government",
                "amenity": "school",
                "note": "Parent RSPO: 16829"
            }
        },
        {
            "id": 274901,
            "type": "Feature",
            "geometry": {
                "type": "Point",
                "coordinates": [
                    22.6179,
                    51.77714
                ]
            },
            "properties": {
                "isced:level": "3",
                "ref:rspo": 274901,
                "official_name": "Bran\u017cowa Szko\u0142a II Stopnia w Radzyniu Podlaskim",
                "name": "Bran\u017cowa Szko\u0142a II Stopnia w Radzyniu Podlaskim",
                "addr:postcode": "21-300",
                "addr:city": "Radzy\u0144 Podlaski",
                "addr:street": "W\u0142adys\u0142awa Sikorskiego",
                "addr:housenumber": "15",
                "addr:city:simc": 922277,
                "addr:street:sym_ul": 19914,
                "phone": "+48 833527331",
                "email": "sekretariat.szkola@gmail.com",
                "website": "http:\/\/zspradzyn.pl",
                "ref:regon": "386373489",
                "operator": "Powiat Radzy\u0144ski",
                "operator:type": "government",
                "amenity": "school",
                "note": "Parent RSPO: 16829"
            }
        },
        {
            "id": 269245,
            "type": "Feature",
            "geometry": {
                "type": "Point",
                "coordinates": [
                    22.60619,
                    51.77731
                ]
            },
            "properties": {
                "ref:rspo": 269245,
                "official_name": "Prywatny Punkt Przedszkolny Pikabu",
                "name": "Prywatny Punkt Przedszkolny Pikabu",
                "addr:postcode": "21-300",
                "addr:city": "Radzy\u0144 Podlaski",
                "addr:street": "\u015awi\u0119tego Brata Alberta Chmielowskiego",
                "addr:housenumber": "4",
                "addr:city:simc": 922277,
                "addr:street:sym_ul": 30346,
                "email": "natalia.lipska@poczta.fm",
                "ref:regon": "381420681",
                "operator": "Natalia Lipska",
                "operator:type": "private",
                "amenity": "kindergarten"
            }
        },
        {
            "id": 40674,
            "type": "Feature",
            "geometry": {
                "type": "Point",
                "coordinates": [
                    22.62718,
                    51.77869
                ]
            },
            "properties": {
                "isced:level": "4",
                "ref:rspo": 40674,
                "official_name": "Szko\u0142a Policealna w Radzyniu Podlaskim Zdz w Lublinie",
                "name": "Szko\u0142a Policealna w Radzyniu Podlaskim Zdz w Lublinie",
                "addr:postcode": "21-300",
                "addr:city": "Radzy\u0144 Podlaski",
                "addr:street": "Sitkowskiego",
                "addr:housenumber": "2a",
                "addr:city:simc": 922277,
                "addr:street:sym_ul": 19939,
                "phone": "+48 833521960",
                "email": "g.pawlik@zdzbp.pl",
                "ref:regon": "061481348",
                "ref:vatin": "PL7120104912",
                "operator": "Zak\u0142ad Doskonalenia Zawodowego W Lublinie",
                "operator:type": "ngo",
                "amenity": "college"
            }
        },
        {
            "id": 89133,
            "type": "Feature",
            "geometry": {
                "type": "Point",
                "coordinates": [
                    22.62718,
                    51.778659999999995
                ]
            },
            "properties": {
                "isced:level": "3",
                "ref:rspo": 89133,
                "official_name": "Liceum Og\u00f3lnokszta\u0142c\u0105ce dla Doros\u0142ych Zdz w Radzyniu Podlaskim",
                "name": "Liceum Og\u00f3lnokszta\u0142c\u0105ce dla Doros\u0142ych Zdz w Radzyniu Podlaskim",
                "addr:postcode": "21-300",
                "addr:city": "Radzy\u0144 Podlaski",
                "addr:street": "Sitkowskiego",
                "addr:housenumber": "2a",
                "addr:city:simc": 922277,
                "addr:street:sym_ul": 19939,
                "phone": "+48 833521960",
                "email": "g.pawlik@zdzbp.pl",
                "ref:regon": "061494428",
                "operator": "Zak\u0142ad Doskonalenia Zawodowego W Lublinie",
                "operator:type": "ngo",
                "amenity": "school"
            }
        },
        {
            "id": 91323,
            "type": "Feature",
            "geometry": {
                "type": "Point",
                "coordinates": [
                    22.62718,
                    51.77863
                ]
            },
            "properties": {
                "ref:rspo": 91323,
                "official_name": "Zak\u0142ad Doskonalenia Zawodowego w Lublinie Oddzia\u0142 w Bia\u0142ej Podlaskiej O\u015brodek Kszta\u0142cenia Zawodowego w Radzyniu Podlaskim",
                "name": "Zak\u0142ad Doskonalenia Zawodowego w Lublinie Oddzia\u0142 w Bia\u0142ej Podlaskiej O\u015brodek Kszta\u0142cenia Zawodowego w Radzyniu Podlaskim",
                "addr:postcode": "21-300",
                "addr:city": "Radzy\u0144 Podlaski",
                "addr:street": "Sitkowskiego",
                "addr:housenumber": "2a",
                "addr:city:simc": 922277,
                "addr:street:sym_ul": 19939,
                "phone": "+48 833521960",
                "email": "g.pawlik@zdzbp.pl",
                "ref:regon": "061494440",
                "operator": "Zak\u0142ad Doskonalenia Zawodowego W Lublinie",
                "operator:type": "ngo",
                "fixme": "w zale\u017cno\u015bci od przedmiotu dzia\u0142alno\u015bci (np. amenity=training + training=*, amenity=dancing_school, amenity=language_school, amenity=music_school)"
            }
        },
        {
            "id": 81015,
            "type": "Feature",
            "geometry": {
                "type": "Point",
                "coordinates": [
                    22.62825,
                    51.77917
                ]
            },
            "properties": {
                "isced:level": "1;2",
                "ref:rspo": 81015,
                "official_name": "Szko\u0142a Podstawowa nr 2",
                "name": "Szko\u0142a Podstawowa nr 2",
                "addr:postcode": "21-300",
                "addr:city": "Radzy\u0144 Podlaski",
                "addr:street": "Sitkowskiego",
                "addr:housenumber": "3",
                "addr:city:simc": 922277,
                "addr:street:sym_ul": 19939,
                "phone": "+48 833527131",
                "email": "radzsp2@poczta.onet.pl",
                "website": "http:\/\/www.radzsp2.pl",
                "ref:regon": "000260066",
                "operator": "Miasto Radzy\u0144 Podlaski",
                "operator:type": "government",
                "amenity": "school"
            }
        },
        {
            "id": 17317,
            "type": "Feature",
            "geometry": {
                "type": "Point",
                "coordinates": [
                    22.62627,
                    51.77957
                ]
            },
            "properties": {
                "ref:rspo": 17317,
                "official_name": "Specjalny O\u015brodek Szkolno-Wychowawczy im. Zofii S\u0119kowskiej w Radzyniu Podlaskim",
                "name": "Specjalny O\u015brodek Szkolno-Wychowawczy",
                "addr:postcode": "21-300",
                "addr:city": "Radzy\u0144 Podlaski",
                "addr:street": "Sitkowskiego",
                "addr:housenumber": "1b",
                "addr:city:simc": 922277,
                "addr:street:sym_ul": 19939,
                "phone": "+48 833513009",
                "email": "sekretariat.sosw.radzyn@pra.pl",
                "website": "http:\/\/sosw.powiatradzynski.pl",
                "ref:regon": "000239758",
                "ref:vatin": "PL5381391200",
                "operator": "Powiat Radzy\u0144ski",
                "operator:type": "government",
                "amenity": "school",
                "note": "Children RSPO: 106730;107546;107548;107549"
            }
        },
        {
            "id": 106730,
            "type": "Feature",
            "geometry": {
                "type": "Point",
                "coordinates": [
                    22.62627,
                    51.77954
                ]
            },
            "properties": {
                "ref:rspo": 106730,
                "official_name": "Przedszkole Specjalne w Radzyniu Podlaskim",
                "name": "Przedszkole Specjalne w Radzyniu Podlaskim",
                "addr:postcode": "21-300",
                "addr:city": "Radzy\u0144 Podlaski",
                "addr:street": "Sitkowskiego",
                "addr:housenumber": "1b",
                "addr:city:simc": 922277,
                "addr:street:sym_ul": 19939,
                "phone": "+48 833513009",
                "website": "http:\/\/soswradzynpodlaski.republika.pl\/",
                "ref:regon": "061508573",
                "operator": "Powiat Radzy\u0144ski",
                "operator:type": "government",
                "amenity": "kindergarten",
                "note": "Parent RSPO: 17317"
            }
        },
        {
            "id": 107546,
            "type": "Feature",
            "geometry": {
                "type": "Point",
                "coordinates": [
                    22.62627,
                    51.77951
                ]
            },
            "properties": {
                "isced:level": "1;2",
                "ref:rspo": 107546,
                "official_name": "Szko\u0142a Podstawowa Specjalna",
                "name": "Szko\u0142a Podstawowa Specjalna",
                "addr:postcode": "21-300",
                "addr:city": "Radzy\u0144 Podlaski",
                "addr:street": "Sitkowskiego",
                "addr:housenumber": "1B",
                "addr:city:simc": 922277,
                "addr:street:sym_ul": 19939,
                "phone": "+48 833513009",
                "email": "sekretariat.sosw.radzyn@pra.pl",
                "website": "http:\/\/sosw.powiatradzynski.pl",
                "ref:regon": "030817663",
                "operator": "Powiat Radzy\u0144ski",
                "operator:type": "government",
                "amenity": "school",
                "note": "Parent RSPO: 17317"
            }
        },
        {
            "id": 107548,
            "type": "Feature",
            "geometry": {
                "type": "Point",
                "coordinates": [
                    22.62627,
                    51.77948
                ]
            },
            "properties": {
                "isced:level": "3",
                "ref:rspo": 107548,
                "official_name": "Bran\u017cowa Szko\u0142a Specjalna I Stopnia w Specjalnym O\u015brodku Szkolno-Wychowawaczym im. Zofii S\u0119kowskiej w Radzyniu Podlaskim",
                "name": "Bran\u017cowa Szko\u0142a Specjalna I Stopnia w Specjalnym O\u015brodku Szkolno-Wychowawaczym",
                "addr:postcode": "21-300",
                "addr:city": "Radzy\u0144 Podlaski",
                "addr:street": "Sitkowskiego",
                "addr:housenumber": "1B",
                "addr:city:simc": 922277,
                "addr:street:sym_ul": 19939,
                "phone": "+48 833513009",
                "email": "sekretariat.sosw.radzyn@pra.pl",
                "website": "http:\/\/sosw.powiatradzynski.pl",
                "ref:regon": "060046745",
                "ref:vatin": "PL5381391200",
                "operator": "Powiat Radzy\u0144ski",
                "operator:type": "government",
                "amenity": "school",
                "note": "Parent RSPO: 17317"
            }
        },
        {
            "id": 107549,
            "type": "Feature",
            "geometry": {
                "type": "Point",
                "coordinates": [
                    22.62627,
                    51.77945
                ]
            },
            "properties": {
                "ref:rspo": 107549,
                "official_name": "Szko\u0142a Specjalna Przysposabiaj\u0105ca do Pracy w Radzyniu Podlaskim",
                "name": "Szko\u0142a Specjalna Przysposabiaj\u0105ca do Pracy w Radzyniu Podlaskim",
                "addr:postcode": "21-300",
                "addr:city": "Radzy\u0144 Podlaski",
                "addr:street": "Sitkowskiego",
                "addr:housenumber": "1B",
                "addr:city:simc": 922277,
                "addr:street:sym_ul": 19939,
                "phone": "+48 833513009",
                "ref:regon": "060046774",
                "operator": "Powiat Radzy\u0144ski",
                "operator:type": "government",
                "amenity": "school",
                "note": "Parent RSPO: 17317"
            }
        },
        {
            "id": 75561,
            "type": "Feature",
            "geometry": {
                "type": "Point",
                "coordinates": [
                    22.62402,
                    51.78261
                ]
            },
            "properties": {
                "ref:rspo": 75561,
                "official_name": "Pa\u0144stwowa Szko\u0142a Muzyczna I St. im. Karola Lipi\u0144skiego w Radzyniu Podlaskim",
                "name": "Pa\u0144stwowa Szko\u0142a Muzyczna I St.",
                "addr:postcode": "21-300",
                "addr:city": "Radzy\u0144 Podlaski",
                "addr:street": "Jana Paw\u0142a II",
                "addr:housenumber": "2",
                "addr:city:simc": 922277,
                "addr:street:sym_ul": 7123,
                "phone": "+48 833529763",
                "email": "psmradzyn.sekretariat@psmrp.edu.pl",
                "website": "http:\/\/psmradzyn.edu.pl",
                "ref:regon": "000967446",
                "operator": "Ministerstwo Kultury I Dziedzictwa Narodowego",
                "operator:type": "public",
                "amenity": "music_school"
            }
        },
        {
            "id": 274106,
            "type": "Feature",
            "geometry": {
                "type": "Point",
                "coordinates": [
                    22.61332,
                    51.78282
                ]
            },
            "properties": {
                "ref:rspo": 274106,
                "official_name": "Niepubliczne Artystyczne Przedszkole Integracyjne \"Bajkowa Kraina\"",
                "name": "Niepubliczne Artystyczne Przedszkole Integracyjne \"Bajkowa Kraina\"",
                "addr:postcode": "21-300",
                "addr:city": "Radzy\u0144 Podlaski",
                "addr:street": "Warszawska",
                "addr:housenumber": "28",
                "addr:city:simc": 922277,
                "addr:street:sym_ul": 23682,
                "email": "elan2@onet.pl",
                "ref:regon": "385215311",
                "operator": "E&A Kreatywne Przedszkola  Sp\u00f3\u0142ka Z Ograniczon\u0105 Odpowiedzialno\u015bci\u0105",
                "operator:type": "private",
                "amenity": "kindergarten"
            }
        },
        {
            "id": 81016,
            "type": "Feature",
            "geometry": {
                "type": "Point",
                "coordinates": [
                    22.62136,
                    51.78461
                ]
            },
            "properties": {
                "isced:level": "1;2",
                "ref:rspo": 81016,
                "official_name": "Szko\u0142a Podstawowa nr 1 Im Bohater\u00f3w Powstania Styczniowego",
                "name": "Szko\u0142a Podstawowa nr 1 Im Bohater\u00f3w Powstania Styczniowego",
                "addr:postcode": "21-300",
                "addr:city": "Radzy\u0144 Podlaski",
                "addr:street": "Jana Paw\u0142a II",
                "addr:housenumber": "25",
                "addr:city:simc": 922277,
                "addr:street:sym_ul": 7123,
                "phone": "+48 833527141",
                "email": "sp1radz@poczta.fm",
                "website": "http:\/\/www.sp1radzyn.eu",
                "ref:regon": "000259809",
                "operator": "Miasto Radzy\u0144 Podlaski",
                "operator:type": "government",
                "amenity": "school"
            }
        },
        {
            "id": 81018,
            "type": "Feature",
            "geometry": {
                "type": "Point",
                "coordinates": [
                    22.61925,
                    51.78515
                ]
            },
            "properties": {
                "ref:rspo": 81018,
                "official_name": "Przedszkole Miejskie nr 1",
                "name": "Przedszkole Miejskie nr 1",
                "addr:postcode": "21-300",
                "addr:city": "Radzy\u0144 Podlaski",
                "addr:street": "Armii Krajowej",
                "addr:housenumber": "12",
                "addr:city:simc": 922277,
                "addr:street:sym_ul": 432,
                "phone": "+48 833522447",
                "email": "przedszkolenr1@vp.pl",
                "ref:regon": "060704378",
                "operator": "Miasto Radzy\u0144 Podlaski",
                "operator:type": "government",
                "amenity": "kindergarten"
            }
        },
        {
            "id": 17349,
            "type": "Feature",
            "geometry": {
                "type": "Point",
                "coordinates": [
                    22.62415,
                    51.78592
                ]
            },
            "properties": {
                "ref:rspo": 17349,
                "official_name": "Poradnia Psycholigiczno-Pedagogiczna w Radzyniu Podlaskim",
                "name": "Poradnia Psycholigiczno-Pedagogiczna w Radzyniu Podlaskim",
                "addr:postcode": "21-300",
                "addr:city": "Radzy\u0144 Podlaski",
                "addr:street": "Jana Paw\u0142a II",
                "addr:housenumber": "6",
                "addr:city:simc": 922277,
                "addr:street:sym_ul": 7123,
                "phone": "+48 833520309",
                "email": "sekretariat.ppp.radzyn@pra.pl",
                "ref:regon": "000713792",
                "ref:vatin": "PL5381611328",
                "operator": "Powiat Radzy\u0144ski",
                "operator:type": "government",
                "healthcare": "counselling",
                "counselling_type": "education",
                "fixme": "w zale\u017cno\u015bci od przedmiotu dzia\u0142alno\u015bci (np. healthcare=counselling + counselling_type=education albo healthcare=psychotherapist)"
            }
        },
        {
            "id": 16699,
            "type": "Feature",
            "geometry": {
                "type": "Point",
                "coordinates": [
                    22.62587,
                    51.78598
                ]
            },
            "properties": {
                "isced:level": "3",
                "ref:rspo": 16699,
                "official_name": "I Liceum Ogolnokszta\u0142c\u0105ce w Radzyniu Podlaskim",
                "name": "I Liceum Ogolnokszta\u0142c\u0105ce w Radzyniu Podlaskim",
                "addr:postcode": "21-300",
                "addr:city": "Radzy\u0144 Podlaski",
                "addr:street": "Partyzant\u00f3w",
                "addr:housenumber": "8",
                "addr:city:simc": 922277,
                "addr:street:sym_ul": 15733,
                "phone": "+48 833528028",
                "email": "loradzyn@loradzyn.pl",
                "website": "http:\/\/loradzyn.pl",
                "ref:regon": "000228795",
                "ref:vatin": "PL5381026653",
                "operator": "Powiat Radzy\u0144ski",
                "operator:type": "government",
                "amenity": "school"
            }
        },
        {
            "id": 128559,
            "type": "Feature",
            "geometry": {
                "type": "Point",
                "coordinates": [
                    22.62403,
                    51.79224
                ]
            },
            "properties": {
                "ref:rspo": 128559,
                "official_name": "Przedszkole Niepubliczne \"Uniwersytet Maluszka\" Anna \u017bochowska-\u015awi\u0107",
                "name": "Przedszkole Niepubliczne \"Uniwersytet Maluszka\" Anna \u017bochowska-\u015awi\u0107",
                "addr:postcode": "21-300",
                "addr:city": "Radzy\u0144 Podlaski",
                "addr:street": "P\u0142udzi\u0144ska",
                "addr:housenumber": "7",
                "addr:city:simc": 922277,
                "addr:street:sym_ul": 16534,
                "phone": "+48 500429121",
                "email": "uniwersytetmaluszka@gmail.com",
                "ref:regon": "362323323",
                "ref:vatin": "PL5381768834",
                "operator": "Ams Inwest Sp\u00f3\u0142ka Z Ograniczon\u0105 Odpowiedzialno\u015bci\u0105",
                "operator:type": "private",
                "amenity": "kindergarten"
            }
        },
        {
            "id": 114076,
            "type": "Feature",
            "geometry": {
                "type": "Point",
                "coordinates": [
                    22.62954,
                    51.79307
                ]
            },
            "properties": {
                "ref:rspo": 114076,
                "official_name": "Niepubliczne Przedszkole \"Kacperek\"",
                "name": "Niepubliczne Przedszkole \"Kacperek\"",
                "addr:postcode": "21-300",
                "addr:city": "Radzy\u0144 Podlaski",
                "addr:street": "Mi\u0119dzyrzecka",
                "addr:housenumber": "98",
                "addr:city:simc": 922277,
                "addr:street:sym_ul": 12860,
                "phone": "+48 797396566",
                "email": "kacperekradzyn2011@wp.pl",
                "ref:regon": "061547290",
                "ref:vatin": "PL7141268412",
                "operator": "Renata Skowron",
                "operator:type": "private",
                "amenity": "kindergarten"
            }
        },
        {
            "id": 267974,
            "type": "Feature",
            "geometry": {
                "type": "Point",
                "coordinates": [
                    22.6727,
                    51.82726
                ]
            },
            "properties": {
                "ref:rspo": 267974,
                "official_name": "Przedszkole Miejskie nr 3",
                "name": "Przedszkole Miejskie nr 3",
                "addr:postcode": "21-300",
                "addr:city": "Radzy\u0144 Podlaski",
                "addr:street": "Miko\u0142aja Reja",
                "addr:housenumber": "2",
                "addr:city:simc": 922277,
                "addr:street:sym_ul": 18565,
                "phone": "+48 833520264",
                "email": "przedszkolenr3@onet.eu",
                "ref:regon": "380806800",
                "operator": "Miasto Radzy\u0144 Podlaski",
                "operator:type": "government",
                "amenity": "kindergarten"
            }
        }
    ]
}