{
    "type": "FeatureCollection",
    "features": [
        {
            "id": 38937,
            "type": "Feature",
            "geometry": {
                "type": "Point",
                "coordinates": [
                    21.57848,
                    49.80477
                ]
            },
            "properties": {
                "ref:rspo": 38937,
                "official_name": "Zesp\u00f3\u0142 Szk\u00f3\u0142 w Lubli",
                "name": "Zesp\u00f3\u0142 Szk\u00f3\u0142 w Lubli",
                "addr:postcode": "38-130",
                "addr:place": "Lubla",
                "addr:housenumber": "328",
                "addr:city:simc": 649597,
                "phone": "+48 172778205",
                "email": "lublasz@wp.pl",
                "website": "https:\/\/lublaszk.edupage.org\/",
                "ref:regon": "690526041",
                "ref:vatin": "PL8191401428",
                "operator": "Gmina Frysztak",
                "operator:type": "government",
                "landuse": "education",
                "fixme": "amenity=school, amenity=college albo landuse=education w zale\u017cno\u015bci od tego, jakie plac\u00f3wki wchodz\u0105 w sk\u0142ad zespo\u0142u. Sprawd\u017a, kiedy stosowa\u0107 amenity=* a kiedy landuse=education.",
                "note": "Children RSPO: 70511;70513"
            }
        },
        {
            "id": 70511,
            "type": "Feature",
            "geometry": {
                "type": "Point",
                "coordinates": [
                    21.57848,
                    49.804739999999995
                ]
            },
            "properties": {
                "ref:rspo": 70511,
                "official_name": "Przedszkole Publiczne w Lubli",
                "name": "Przedszkole Publiczne w Lubli",
                "addr:postcode": "38-130",
                "addr:place": "Lubla",
                "addr:housenumber": "328",
                "addr:city:simc": 649597,
                "phone": "+48 172778205",
                "email": "lublaszk@wp.pl",
                "ref:regon": "371013601",
                "operator": "Gmina Frysztak",
                "operator:type": "government",
                "amenity": "kindergarten",
                "note": "Parent RSPO: 38937"
            }
        },
        {
            "id": 70513,
            "type": "Feature",
            "geometry": {
                "type": "Point",
                "coordinates": [
                    21.57848,
                    49.80471
                ]
            },
            "properties": {
                "isced:level": "1;2",
                "ref:rspo": 70513,
                "official_name": "Szko\u0142a Podstawowa im. \u015aw.jana Kantego w Lubli",
                "name": "Szko\u0142a Podstawowa",
                "addr:postcode": "38-130",
                "addr:place": "Lubla",
                "addr:housenumber": "328",
                "addr:city:simc": 649597,
                "phone": "+48 172778205",
                "email": "lublaszk@wp.pl",
                "website": "http:\/\/lublaszk.edupage.org",
                "ref:regon": "371013593",
                "operator": "Gmina Frysztak",
                "operator:type": "government",
                "amenity": "school",
                "note": "Parent RSPO: 38937"
            }
        },
        {
            "id": 27618,
            "type": "Feature",
            "geometry": {
                "type": "Point",
                "coordinates": [
                    21.6061799,
                    49.83464
                ]
            },
            "properties": {
                "ref:rspo": 27618,
                "official_name": "Specjalny O\u015brodek Szkolno - Wychowawczy we Frysztaku",
                "name": "Specjalny O\u015brodek Szkolno - Wychowawczy we Frysztaku",
                "addr:postcode": "38-130",
                "addr:city": "Frysztak",
                "addr:street": "J\u00f3zefa Wybickiego",
                "addr:housenumber": "25",
                "addr:city:simc": 649090,
                "addr:street:sym_ul": 24908,
                "phone": "+48 172777906",
                "email": "sosw.frysztak@gmail.com",
                "website": "http:\/\/www.sosw-frysztak.strzyzowski.pl",
                "ref:regon": "001058467",
                "ref:vatin": "PL8191412886",
                "operator": "Powiat Strzy\u017cowski",
                "operator:type": "government",
                "amenity": "school",
                "note": "Children RSPO: 50430;53281;58680;119409"
            }
        },
        {
            "id": 50430,
            "type": "Feature",
            "geometry": {
                "type": "Point",
                "coordinates": [
                    21.6061799,
                    49.83461
                ]
            },
            "properties": {
                "isced:level": "1;2",
                "ref:rspo": 50430,
                "official_name": "Szko\u0142a Podstawowa nr 2 Specjalna we Frysztaku w Specjalnym O\u015brodku Szkolno - Wychowawczym we Frysztaku",
                "name": "Szko\u0142a Podstawowa nr 2 Specjalna we Frysztaku w Specjalnym O\u015brodku Szkolno - Wychowawczym we Frysztaku",
                "addr:postcode": "38-130",
                "addr:city": "Frysztak",
                "addr:street": "J\u00f3zefa Wybickiego",
                "addr:housenumber": "25",
                "addr:city:simc": 649090,
                "addr:street:sym_ul": 24908,
                "phone": "+48 172777906",
                "email": "sosw.frysztak@gmail.com",
                "website": "http:\/\/www.sosw-frysztak.strzyzowski.pl",
                "ref:regon": "371012910",
                "operator": "Powiat Strzy\u017cowski",
                "operator:type": "government",
                "amenity": "school",
                "note": "Parent RSPO: 27618"
            }
        },
        {
            "id": 53281,
            "type": "Feature",
            "geometry": {
                "type": "Point",
                "coordinates": [
                    21.6061799,
                    49.83458
                ]
            },
            "properties": {
                "isced:level": "3",
                "ref:rspo": 53281,
                "official_name": "Bran\u017cowa Szko\u0142a I Stopnia Specjalna we Frysztaku w Specjalnym O\u015brodku Szkolno - Wychowawczym we Frysztaku",
                "name": "Bran\u017cowa Szko\u0142a I Stopnia Specjalna we Frysztaku w Specjalnym O\u015brodku Szkolno - Wychowawczym we Frysztaku",
                "addr:postcode": "38-130",
                "addr:city": "Frysztak",
                "addr:street": "J\u00f3zefa Wybickiego",
                "addr:housenumber": "25",
                "addr:city:simc": 649090,
                "addr:street:sym_ul": 24908,
                "phone": "+48 172777906",
                "email": "sosw.frysztak@gmail.com",
                "website": "http:\/\/www.sosw-frysztak.strzyzowski.pl",
                "ref:regon": "371035778",
                "operator": "Powiat Strzy\u017cowski",
                "operator:type": "government",
                "amenity": "school",
                "note": "Parent RSPO: 27618"
            }
        },
        {
            "id": 58680,
            "type": "Feature",
            "geometry": {
                "type": "Point",
                "coordinates": [
                    21.6061799,
                    49.83455
                ]
            },
            "properties": {
                "ref:rspo": 58680,
                "official_name": "Przedszkole nr 2 Specjalne we Frysztaku w Specjalnym O\u015brodku Szkolno - Wychowawczym we Frysztaku",
                "name": "Przedszkole nr 2 Specjalne we Frysztaku w Specjalnym O\u015brodku Szkolno - Wychowawczym we Frysztaku",
                "addr:postcode": "38-130",
                "addr:city": "Frysztak",
                "addr:street": "J\u00f3zefa Wybickiego",
                "addr:housenumber": "25",
                "addr:city:simc": 649090,
                "addr:street:sym_ul": 24908,
                "phone": "+48 172777906",
                "email": "sosw.frysztak@gmail.com",
                "website": "http:\/\/www.sosw-frysztak.strzyzowski.pl",
                "ref:regon": "180618358",
                "operator": "Powiat Strzy\u017cowski",
                "operator:type": "government",
                "amenity": "kindergarten",
                "note": "Parent RSPO: 27618"
            }
        },
        {
            "id": 119409,
            "type": "Feature",
            "geometry": {
                "type": "Point",
                "coordinates": [
                    21.6061799,
                    49.83452
                ]
            },
            "properties": {
                "ref:rspo": 119409,
                "official_name": "Szko\u0142a Specjalna Przysposabiaj\u0105ca do Pracy we Frysztaku w Specjalnym O\u015brodku Szkolno - Wychowawczym we Frysztaku",
                "name": "Szko\u0142a Specjalna Przysposabiaj\u0105ca do Pracy we Frysztaku w Specjalnym O\u015brodku Szkolno - Wychowawczym we Frysztaku",
                "addr:postcode": "38-130",
                "addr:city": "Frysztak",
                "addr:street": "J\u00f3zefa Wybickiego",
                "addr:housenumber": "25",
                "addr:city:simc": 649090,
                "addr:street:sym_ul": 24908,
                "phone": "+48 172777906",
                "email": "sosw.frysztak@gmail.com",
                "website": "http:\/\/www.sosw-frysztak.strzyzowski.pl",
                "ref:regon": "181016874",
                "operator": "Powiat Strzy\u017cowski",
                "operator:type": "government",
                "amenity": "school",
                "note": "Parent RSPO: 27618"
            }
        },
        {
            "id": 35240,
            "type": "Feature",
            "geometry": {
                "type": "Point",
                "coordinates": [
                    21.60642,
                    49.83505
                ]
            },
            "properties": {
                "isced:level": "1;2",
                "ref:rspo": 35240,
                "official_name": "Szko\u0142a Podstawowa nr 1 im. J\u00f3zefa Wybickiego we Frysztaku",
                "name": "Szko\u0142a Podstawowa nr 1",
                "addr:postcode": "38-130",
                "addr:city": "Frysztak",
                "addr:street": "J\u00f3zefa Pi\u0119tniewicza",
                "addr:housenumber": "7",
                "addr:city:simc": 649090,
                "addr:street:sym_ul": 33492,
                "phone": "+48 172760072",
                "email": "szkola@sp.frysztak.pl",
                "website": "http:\/\/sp.frysztak.pl\/",
                "ref:regon": "000654931",
                "ref:vatin": "PL8191667540",
                "operator": "Gmina Frysztak",
                "operator:type": "government",
                "amenity": "school"
            }
        },
        {
            "id": 38941,
            "type": "Feature",
            "geometry": {
                "type": "Point",
                "coordinates": [
                    21.60592,
                    49.8359
                ]
            },
            "properties": {
                "ref:rspo": 38941,
                "official_name": "Przedszkole Publiczne nr 1 we Frysztaku",
                "name": "Przedszkole Publiczne nr 1 we Frysztaku",
                "addr:postcode": "38-130",
                "addr:city": "Frysztak",
                "addr:street": "J\u00f3zefa Wybickiego",
                "addr:housenumber": "5",
                "addr:city:simc": 649090,
                "addr:street:sym_ul": 24908,
                "phone": "+48 172777032",
                "email": "przedszkole.frysztak@onet.eu",
                "website": "http:\/\/www.przedszkole.frysztak.pl",
                "ref:regon": "690007677",
                "ref:vatin": "PL8191402379",
                "operator": "Gmina Frysztak",
                "operator:type": "government",
                "amenity": "kindergarten"
            }
        },
        {
            "id": 275637,
            "type": "Feature",
            "geometry": {
                "type": "Point",
                "coordinates": [
                    21.58053,
                    49.84461
                ]
            },
            "properties": {
                "ref:rspo": 275637,
                "official_name": "Niepubliczne Przedszkole \"Za- Bawni\"",
                "name": "Niepubliczne Przedszkole \"Za- Bawni\"",
                "addr:postcode": "38-130",
                "addr:place": "Glinik \u015aredni",
                "addr:housenumber": "21A",
                "addr:city:simc": 649255,
                "phone": "+48 177157767",
                "email": "zabawni@zabawni.edu.pl",
                "website": "http:\/\/www.zabawni.edu.pl",
                "ref:regon": "386929900",
                "operator": "\"Za-Bawni\" Sp\u00f3\u0142ka Z Ograniczon\u0105 Odpowiedzialno\u015bci\u0105",
                "operator:type": "private",
                "amenity": "kindergarten"
            }
        },
        {
            "id": 38938,
            "type": "Feature",
            "geometry": {
                "type": "Point",
                "coordinates": [
                    21.50751,
                    49.8526
                ]
            },
            "properties": {
                "ref:rspo": 38938,
                "official_name": "Zesp\u00f3\u0142 Szk\u00f3\u0142 w Gogo\u0142owie",
                "name": "Zesp\u00f3\u0142 Szk\u00f3\u0142 w Gogo\u0142owie",
                "addr:postcode": "38-131",
                "addr:place": "Gogo\u0142\u00f3w",
                "addr:housenumber": "316",
                "addr:city:simc": 649344,
                "phone": "+48 172778301",
                "email": "zs.gogolow@interia.pl",
                "website": "https:\/\/spgogolow.edupage.org\/",
                "ref:regon": "690526064",
                "ref:vatin": "PL8191401434",
                "operator": "Gmina Frysztak",
                "operator:type": "government",
                "landuse": "education",
                "fixme": "amenity=school, amenity=college albo landuse=education w zale\u017cno\u015bci od tego, jakie plac\u00f3wki wchodz\u0105 w sk\u0142ad zespo\u0142u. Sprawd\u017a, kiedy stosowa\u0107 amenity=* a kiedy landuse=education.",
                "note": "Children RSPO: 70514;70516"
            }
        },
        {
            "id": 70514,
            "type": "Feature",
            "geometry": {
                "type": "Point",
                "coordinates": [
                    21.50751,
                    49.85257
                ]
            },
            "properties": {
                "ref:rspo": 70514,
                "official_name": "Przedszkole Publiczne w Gogo\u0142owie",
                "name": "Przedszkole Publiczne w Gogo\u0142owie",
                "addr:postcode": "38-131",
                "addr:place": "Gogo\u0142\u00f3w",
                "addr:housenumber": "316",
                "addr:city:simc": 649344,
                "phone": "+48 172778301",
                "email": "zs.gogolow@interia.pl",
                "ref:regon": "371014581",
                "operator": "Gmina Frysztak",
                "operator:type": "government",
                "amenity": "kindergarten",
                "note": "Parent RSPO: 38938"
            }
        },
        {
            "id": 70516,
            "type": "Feature",
            "geometry": {
                "type": "Point",
                "coordinates": [
                    21.50751,
                    49.852540000000005
                ]
            },
            "properties": {
                "isced:level": "1;2",
                "ref:rspo": 70516,
                "official_name": "Szko\u0142a Podstawowa im. Gen. Ignacego Kruszewskiego w Gogo\u0142owie",
                "name": "Szko\u0142a Podstawowa",
                "addr:postcode": "38-131",
                "addr:place": "Gogo\u0142\u00f3w",
                "addr:housenumber": "316",
                "addr:city:simc": 649344,
                "phone": "+48 172778301",
                "email": "zs.gogolow@interia.pl",
                "website": "https:\/\/spgogolow.edupage.org\/",
                "ref:regon": "371014569",
                "operator": "Gmina Frysztak",
                "operator:type": "government",
                "amenity": "school",
                "note": "Parent RSPO: 38938"
            }
        },
        {
            "id": 34773,
            "type": "Feature",
            "geometry": {
                "type": "Point",
                "coordinates": [
                    21.55328,
                    49.85524
                ]
            },
            "properties": {
                "isced:level": "1;2",
                "ref:rspo": 34773,
                "official_name": "Szko\u0142a Podstawowa w Gliniku G\u00f3rnym",
                "name": "Szko\u0142a Podstawowa w Gliniku G\u00f3rnym",
                "addr:postcode": "38-131",
                "addr:place": "Glinik G\u00f3rny",
                "addr:housenumber": "47",
                "addr:city:simc": 649150,
                "phone": "+48 172778306",
                "email": "spglinikgorny@onet.pl",
                "website": "http:\/\/www.spglinkgorny.szkolna.net",
                "ref:regon": "001131141",
                "ref:vatin": "PL8191401753",
                "operator": "Gmina Frysztak",
                "operator:type": "government",
                "amenity": "school"
            }
        },
        {
            "id": 34772,
            "type": "Feature",
            "geometry": {
                "type": "Point",
                "coordinates": [
                    21.61349,
                    49.86526
                ]
            },
            "properties": {
                "isced:level": "1;2",
                "ref:rspo": 34772,
                "official_name": "Szko\u0142a Podstawowa w Cieszynie",
                "name": "Szko\u0142a Podstawowa w Cieszynie",
                "addr:postcode": "38-125",
                "addr:place": "Cieszyna",
                "addr:housenumber": "76",
                "addr:city:simc": 649002,
                "phone": "+48 172775039",
                "email": "spciesz@wp.pl",
                "website": "http:\/\/cieszynaszk.edupage.org",
                "ref:regon": "001131030",
                "ref:vatin": "PL8191401888",
                "operator": "Gmina Frysztak",
                "operator:type": "government",
                "amenity": "school"
            }
        },
        {
            "id": 38939,
            "type": "Feature",
            "geometry": {
                "type": "Point",
                "coordinates": [
                    21.57306,
                    49.87305
                ]
            },
            "properties": {
                "ref:rspo": 38939,
                "official_name": "Zesp\u00f3\u0142 Szk\u00f3\u0142 w St\u0119pinie",
                "name": "Zesp\u00f3\u0142 Szk\u00f3\u0142 w St\u0119pinie",
                "addr:postcode": "38-125",
                "addr:place": "St\u0119pina",
                "addr:housenumber": "54",
                "addr:city:simc": 649752,
                "phone": "+48 172775805",
                "email": "sekretariatzsstepina@wp.pl",
                "website": "http:\/\/zsstepina.edupage.org",
                "ref:regon": "690526058",
                "ref:vatin": "PL8191401500",
                "operator": "Gmina Frysztak",
                "operator:type": "government",
                "landuse": "education",
                "fixme": "amenity=school, amenity=college albo landuse=education w zale\u017cno\u015bci od tego, jakie plac\u00f3wki wchodz\u0105 w sk\u0142ad zespo\u0142u. Sprawd\u017a, kiedy stosowa\u0107 amenity=* a kiedy landuse=education.",
                "note": "Children RSPO: 70517;70519"
            }
        },
        {
            "id": 70517,
            "type": "Feature",
            "geometry": {
                "type": "Point",
                "coordinates": [
                    21.57306,
                    49.87302
                ]
            },
            "properties": {
                "ref:rspo": 70517,
                "official_name": "Przedszkole Publiczne im. Jana Paw\u0142a II w St\u0119pinie",
                "name": "Przedszkole Publiczne",
                "addr:postcode": "38-125",
                "addr:place": "St\u0119pina",
                "addr:housenumber": "54",
                "addr:city:simc": 649752,
                "phone": "+48 172775805",
                "email": "sekretariatzsstepina@wp.pl",
                "ref:regon": "371013618",
                "operator": "Gmina Frysztak",
                "operator:type": "government",
                "amenity": "kindergarten",
                "note": "Parent RSPO: 38939"
            }
        },
        {
            "id": 70519,
            "type": "Feature",
            "geometry": {
                "type": "Point",
                "coordinates": [
                    21.57306,
                    49.87299
                ]
            },
            "properties": {
                "isced:level": "1;2",
                "ref:rspo": 70519,
                "official_name": "Szko\u0142a Podstawowa im. Jana Paw\u0142a II w St\u0119pinie",
                "name": "Szko\u0142a Podstawowa",
                "addr:postcode": "38-125",
                "addr:place": "St\u0119pina",
                "addr:housenumber": "54",
                "addr:city:simc": 649752,
                "phone": "+48 172775805",
                "email": "sekretariatzsstepina@wp.pl",
                "ref:regon": "371013624",
                "operator": "Gmina Frysztak",
                "operator:type": "government",
                "amenity": "school",
                "note": "Parent RSPO: 38939"
            }
        }
    ]
}