{
    "type": "FeatureCollection",
    "features": [
        {
            "id": 18958,
            "type": "Feature",
            "geometry": {
                "type": "Point",
                "coordinates": [
                    21.9368,
                    49.79921
                ]
            },
            "properties": {
                "isced:level": "1;2",
                "ref:rspo": 18958,
                "official_name": "Szko\u0142a Podstawowa Nr 2 im. B\u0142. Jerzego Popie\u0142uszki w Lutczy",
                "name": "Szko\u0142a Podstawowa Nr 2",
                "addr:country": "PL",
                "addr:postcode": "38-112",
                "addr:place": "Lutcza",
                "addr:housenumber": "907",
                "addr:teryt:simc": 656746,
                "contact:phone": "+48 177463477",
                "contact:email": "sp2lutcza@gmail.com",
                "contact:website": "http:\/\/sp2lutcza.gminaniebylec.pl",
                "ref:regon": "001136871",
                "ref:vatin": "PL8191419664",
                "operator": "Gmina Niebylec",
                "operator:type": "government",
                "amenity": "school"
            }
        },
        {
            "id": 19029,
            "type": "Feature",
            "geometry": {
                "type": "Point",
                "coordinates": [
                    21.8901,
                    49.80543
                ]
            },
            "properties": {
                "ref:rspo": 19029,
                "official_name": "Zesp\u00f3\u0142 Szk\u00f3\u0142 im.\u015bw.rodziny w Lutczy",
                "name": "Zesp\u00f3\u0142 Szk\u00f3\u0142 im.\u015bw.rodziny w Lutczy",
                "addr:country": "PL",
                "addr:postcode": "38-112",
                "addr:place": "Lutcza",
                "addr:housenumber": "629",
                "addr:teryt:simc": 656746,
                "contact:phone": "+48 172773604",
                "contact:email": "zslutcza1@interia.pl",
                "ref:regon": "180380218",
                "ref:vatin": "PL8191419693",
                "operator": "Gmina Niebylec",
                "operator:type": "government",
                "landuse": "education",
                "fixme": "amenity=school, amenity=college albo landuse=education w zale\u017cno\u015bci od tego, jakie plac\u00f3wki wchodz\u0105 w sk\u0142ad zespo\u0142u. Sprawd\u017a, kiedy stosowa\u0107 amenity=* a kiedy landuse=education.",
                "note": "Children RSPO: 21038;21039"
            }
        },
        {
            "id": 21038,
            "type": "Feature",
            "geometry": {
                "type": "Point",
                "coordinates": [
                    21.8901,
                    49.8054
                ]
            },
            "properties": {
                "isced:level": "1;2",
                "ref:rspo": 21038,
                "official_name": "Szko\u0142a Podstawowa im. \u015aw. Rodziny w Lutczy",
                "name": "Szko\u0142a Podstawowa",
                "addr:country": "PL",
                "addr:postcode": "38-112",
                "addr:place": "Lutcza",
                "addr:housenumber": "629",
                "addr:teryt:simc": 656746,
                "contact:phone": "+48 172773604",
                "contact:email": "zslutcza1@interia.pl",
                "ref:regon": "001136865",
                "ref:vatin": "PL8191419693",
                "operator": "Gmina Niebylec",
                "operator:type": "government",
                "amenity": "school",
                "note": "Parent RSPO: 19029"
            }
        },
        {
            "id": 21039,
            "type": "Feature",
            "geometry": {
                "type": "Point",
                "coordinates": [
                    21.8901,
                    49.80537
                ]
            },
            "properties": {
                "ref:rspo": 21039,
                "official_name": "Zesp\u00f3\u0142 Szk\u00f3\u0142 w Lutczy Przedszkole Samorz\u0105dowe im. \u015aw. Rodziny w Lutczy",
                "name": "Zesp\u00f3\u0142 Szk\u00f3\u0142 w Lutczy Przedszkole Samorz\u0105dowe",
                "addr:country": "PL",
                "addr:postcode": "38-112",
                "addr:place": "Lutcza",
                "addr:housenumber": "629",
                "addr:teryt:simc": 656746,
                "contact:phone": "+48 172771840",
                "contact:email": "marta.list@op.pl",
                "contact:website": "http:\/\/przedszkolelutcza.gminaniebylec.pl",
                "ref:regon": "180579411",
                "ref:vatin": "PL8191419693",
                "operator": "Gmina Niebylec",
                "operator:type": "government",
                "amenity": "kindergarten",
                "note": "Parent RSPO: 19029"
            }
        },
        {
            "id": 21082,
            "type": "Feature",
            "geometry": {
                "type": "Point",
                "coordinates": [
                    21.99705,
                    49.83086
                ]
            },
            "properties": {
                "isced:level": "1;2",
                "ref:rspo": 21082,
                "official_name": "Szko\u0142a Podstawowa im. Juliana Przybosia w Gwo\u017anicy G\u00f3rnej",
                "name": "Szko\u0142a Podstawowa",
                "addr:country": "PL",
                "addr:postcode": "38-116",
                "addr:place": "Gwo\u017anica G\u00f3rna",
                "addr:housenumber": "292",
                "addr:teryt:simc": 656462,
                "contact:phone": "+48 172773902",
                "contact:email": "gwozjul@poczta.fm",
                "ref:regon": "001136836",
                "ref:vatin": "PL8191419902",
                "operator": "Gmina Niebylec",
                "operator:type": "government",
                "amenity": "school"
            }
        },
        {
            "id": 21040,
            "type": "Feature",
            "geometry": {
                "type": "Point",
                "coordinates": [
                    21.921536,
                    49.8456621
                ]
            },
            "properties": {
                "isced:level": "1;2",
                "ref:rspo": 21040,
                "official_name": "Szko\u0142a Podstawowa im. Jana Paw\u0142a II w Konieczkowej",
                "name": "Szko\u0142a Podstawowa",
                "addr:country": "PL",
                "addr:postcode": "38-114",
                "addr:place": "Konieczkowa",
                "addr:housenumber": "58",
                "addr:teryt:simc": 656686,
                "contact:phone": "+48 177464000",
                "contact:email": "zskonieczkowa@gmail.com",
                "contact:website": "https:\/\/spkonieczkowa.gminaniebylec.pl\/",
                "ref:regon": "001136859",
                "ref:vatin": "PL8191419718",
                "operator": "Gmina Niebylec",
                "operator:type": "government",
                "amenity": "school"
            }
        },
        {
            "id": 18957,
            "type": "Feature",
            "geometry": {
                "type": "Point",
                "coordinates": [
                    21.8899,
                    49.84631
                ]
            },
            "properties": {
                "isced:level": "1;2",
                "ref:rspo": 18957,
                "official_name": "Szko\u0142a Podstawowa \u015aw. J\u00f3zefa Sebastiana Pelczara w Jaworniku",
                "name": "Szko\u0142a Podstawowa \u015aw. J\u00f3zefa Sebastiana Pelczara w Jaworniku",
                "addr:country": "PL",
                "addr:postcode": "38-114",
                "addr:place": "Jawornik",
                "addr:housenumber": "108",
                "addr:teryt:simc": 656605,
                "contact:phone": "+48 172773025",
                "contact:email": "spjawornik2@interia.pl",
                "contact:website": "https:\/\/spjawornik.gminaniebylec.pl\/",
                "ref:regon": "001136842",
                "ref:vatin": "PL8191419730",
                "operator": "Gmina Niebylec",
                "operator:type": "government",
                "amenity": "school"
            }
        },
        {
            "id": 18956,
            "type": "Feature",
            "geometry": {
                "type": "Point",
                "coordinates": [
                    21.96505,
                    49.84716
                ]
            },
            "properties": {
                "isced:level": "1;2",
                "ref:rspo": 18956,
                "official_name": "Szko\u0142a Podstawowa w Gwo\u017anicy Dolnej",
                "name": "Szko\u0142a Podstawowa w Gwo\u017anicy Dolnej",
                "addr:country": "PL",
                "addr:postcode": "38-116",
                "addr:place": "Gwo\u017anica Dolna",
                "addr:housenumber": "92",
                "addr:teryt:simc": 656350,
                "contact:phone": "+48 172773017",
                "contact:email": "szkolagwoznicadolna@gmail.com",
                "contact:website": "http:\/\/www.spgwoznicadolna.pl",
                "ref:regon": "001136820",
                "ref:vatin": "PL8191419776",
                "operator": "Gmina Niebylec",
                "operator:type": "government",
                "amenity": "school"
            }
        },
        {
            "id": 17703,
            "type": "Feature",
            "geometry": {
                "type": "Point",
                "coordinates": [
                    21.90411,
                    49.85755
                ]
            },
            "properties": {
                "ref:rspo": 17703,
                "official_name": "Przedszkole Samorz\u0105dowe w Niebylcu",
                "name": "Przedszkole Samorz\u0105dowe w Niebylcu",
                "addr:country": "PL",
                "addr:postcode": "38-114",
                "addr:place": "Niebylec",
                "addr:housenumber": "18",
                "addr:teryt:simc": 656947,
                "contact:phone": "+48 177462088",
                "contact:email": "przedszkoleniebylec@wp.pl",
                "ref:regon": "180257216",
                "ref:vatin": "PL8191613774",
                "operator": "Gmina Niebylec",
                "operator:type": "government",
                "amenity": "kindergarten"
            }
        },
        {
            "id": 21041,
            "type": "Feature",
            "geometry": {
                "type": "Point",
                "coordinates": [
                    21.90408,
                    49.85877
                ]
            },
            "properties": {
                "isced:level": "1;2",
                "ref:rspo": 21041,
                "official_name": "Szko\u0142a Podstawowa im. Ks. Jana Twardowskiego w Niebylcu",
                "name": "Szko\u0142a Podstawowa",
                "addr:country": "PL",
                "addr:postcode": "38-114",
                "addr:place": "Niebylec",
                "addr:housenumber": "11",
                "addr:teryt:simc": 656947,
                "contact:phone": "+48 177462155",
                "contact:email": "spniebylec@gmail.com",
                "ref:regon": "000676789",
                "ref:vatin": "PL8191419635",
                "operator": "Gmina Niebylec",
                "operator:type": "government",
                "amenity": "school"
            }
        },
        {
            "id": 18954,
            "type": "Feature",
            "geometry": {
                "type": "Point",
                "coordinates": [
                    21.93986,
                    49.8650499
                ]
            },
            "properties": {
                "isced:level": "1;2",
                "ref:rspo": 18954,
                "official_name": "Szko\u0142a Podstawowa im. K.k. Baczy\u0144skiego w Bliziance",
                "name": "Szko\u0142a Podstawowa",
                "addr:country": "PL",
                "addr:postcode": "38-114",
                "addr:place": "Blizianka",
                "addr:housenumber": "72",
                "addr:teryt:simc": 656261,
                "contact:phone": "+48 172773039",
                "contact:email": "spblizianka@poczta.fm",
                "contact:website": "http:\/\/spblizianka.gminaniebylec.pl",
                "ref:regon": "001136813",
                "ref:vatin": "PL8191419836",
                "operator": "Gmina Niebylec",
                "operator:type": "government",
                "amenity": "school"
            }
        },
        {
            "id": 19032,
            "type": "Feature",
            "geometry": {
                "type": "Point",
                "coordinates": [
                    21.90872,
                    49.8772
                ]
            },
            "properties": {
                "isced:level": "1;2",
                "ref:rspo": 19032,
                "official_name": "Szko\u0142a Podstawowa im. Ks. Bronis\u0142awa Markiewicza w Baryczce",
                "name": "Szko\u0142a Podstawowa",
                "addr:country": "PL",
                "addr:postcode": "38-115",
                "addr:place": "Baryczka",
                "addr:housenumber": "212",
                "addr:teryt:simc": 656150,
                "contact:phone": "+48 172773075",
                "contact:email": "szkola.baryczka@o2.pl",
                "ref:regon": "001136807",
                "ref:vatin": "PL8191419865",
                "operator": "Gmina Niebylec",
                "operator:type": "government",
                "amenity": "school"
            }
        },
        {
            "id": 21084,
            "type": "Feature",
            "geometry": {
                "type": "Point",
                "coordinates": [
                    21.87923,
                    49.89741
                ]
            },
            "properties": {
                "isced:level": "1;2",
                "ref:rspo": 21084,
                "official_name": "Szko\u0142a Podstawowa Im Ksi\u0119dza Kardyna\u0142a Stefana Wyszy\u0144skiego w Po\u0142omi",
                "name": "Szko\u0142a Podstawowa Im Ksi\u0119dza Kardyna\u0142a Stefana Wyszy\u0144skiego w Po\u0142omi",
                "addr:country": "PL",
                "addr:postcode": "38-115",
                "addr:place": "Po\u0142omia",
                "addr:housenumber": "125",
                "addr:teryt:simc": 656976,
                "contact:phone": "+48 172773707",
                "contact:email": "polomia@poczta.fm",
                "ref:regon": "180240285",
                "ref:vatin": "PL8191419598",
                "operator": "Gmina Niebylec",
                "operator:type": "government",
                "amenity": "school"
            }
        }
    ]
}