{
    "type": "FeatureCollection",
    "features": [
        {
            "id": 47632,
            "type": "Feature",
            "geometry": {
                "type": "Point",
                "coordinates": [
                    21.82573,
                    49.91752
                ]
            },
            "properties": {
                "isced:level": "1;2",
                "ref:rspo": 47632,
                "official_name": "Szko\u0142a Podstawowa w Zaborowie",
                "name": "Szko\u0142a Podstawowa w Zaborowie",
                "addr:country": "PL",
                "addr:postcode": "38-100",
                "addr:place": "Zabor\u00f3w",
                "addr:housenumber": "99",
                "addr:teryt:sym_ul": 648899,
                "contact:phone": "+48 172771348",
                "contact:email": "szkolazaborow@wp.pl",
                "contact:website": "http:\/\/www.spzaborow.edupage.org",
                "ref:regon": "001131023",
                "ref:vatin": "PL8191403634",
                "operator": "Gmina Czudec",
                "operator:type": "government",
                "amenity": "school"
            }
        },
        {
            "id": 47363,
            "type": "Feature",
            "geometry": {
                "type": "Point",
                "coordinates": [
                    21.87986,
                    49.92012
                ]
            },
            "properties": {
                "ref:rspo": 47363,
                "official_name": "Zesp\u00f3\u0142 Szk\u00f3\u0142 w Wy\u017cnem",
                "name": "Zesp\u00f3\u0142 Szk\u00f3\u0142 w Wy\u017cnem",
                "addr:country": "PL",
                "addr:postcode": "38-120",
                "addr:place": "Wy\u017cne",
                "addr:housenumber": "40",
                "addr:teryt:sym_ul": 648770,
                "contact:phone": "+48 172771033",
                "contact:email": "zswyzne@czudec.pl",
                "contact:website": "http:\/\/www.zswyzne.szkolnastrona.pl",
                "ref:regon": "371024674",
                "ref:vatin": "PL8191615253",
                "operator": "Gmina Czudec",
                "operator:type": "government",
                "landuse": "education",
                "fixme": "amenity=school, amenity=college albo landuse=education w zale\u017cno\u015bci od tego, jakie plac\u00f3wki wchodz\u0105 w sk\u0142ad zespo\u0142u. Sprawd\u017a, kiedy stosowa\u0107 amenity=* a kiedy landuse=education.",
                "note": "Children RSPO: 57258;57259"
            }
        },
        {
            "id": 57258,
            "type": "Feature",
            "geometry": {
                "type": "Point",
                "coordinates": [
                    21.87986,
                    49.920089999999995
                ]
            },
            "properties": {
                "isced:level": "1;2",
                "ref:rspo": 57258,
                "official_name": "Szko\u0142a Podstawowa w Zespole Szk\u00f3\u0142 w Wy\u017cnem",
                "name": "Szko\u0142a Podstawowa w Zespole Szk\u00f3\u0142 w Wy\u017cnem",
                "addr:country": "PL",
                "addr:postcode": "38-120",
                "addr:place": "Wy\u017cne",
                "addr:housenumber": "40",
                "addr:teryt:sym_ul": 648770,
                "contact:phone": "+48 172771033",
                "contact:email": "zswyzne@czudec.pl",
                "contact:website": "http:\/\/www.zswyzne.szkolnastrona.pl",
                "ref:regon": "001131017",
                "ref:vatin": "PL8191403539",
                "operator": "Gmina Czudec",
                "operator:type": "government",
                "amenity": "school",
                "note": "Parent RSPO: 47363"
            }
        },
        {
            "id": 57259,
            "type": "Feature",
            "geometry": {
                "type": "Point",
                "coordinates": [
                    21.87986,
                    49.92006
                ]
            },
            "properties": {
                "ref:rspo": 57259,
                "official_name": "Przedszkole Publiczne w Zespole Szk\u00f3\u0142 w Wy\u017cnem",
                "name": "Przedszkole Publiczne w Zespole Szk\u00f3\u0142 w Wy\u017cnem",
                "addr:country": "PL",
                "addr:postcode": "38-120",
                "addr:place": "Wy\u017cne",
                "addr:housenumber": "40",
                "addr:teryt:sym_ul": 648770,
                "contact:phone": "+48 172771033",
                "contact:email": "zswyzne@czudec.pl",
                "contact:website": "http:\/\/www.zswyzne.szkolnastrona.pl",
                "ref:regon": "370496945",
                "ref:vatin": "PL8191403686",
                "operator": "Gmina Czudec",
                "operator:type": "government",
                "amenity": "kindergarten",
                "note": "Parent RSPO: 47363"
            }
        },
        {
            "id": 47781,
            "type": "Feature",
            "geometry": {
                "type": "Point",
                "coordinates": [
                    21.80661,
                    49.92409
                ]
            },
            "properties": {
                "isced:level": "1;2",
                "ref:rspo": 47781,
                "official_name": "Szko\u0142a Podstawowa w Nowej Wsi",
                "name": "Szko\u0142a Podstawowa w Nowej Wsi",
                "addr:country": "PL",
                "addr:postcode": "38-120",
                "addr:place": "Nowa Wie\u015b",
                "addr:housenumber": "152",
                "addr:teryt:sym_ul": 648439,
                "contact:phone": "+48 172771032",
                "contact:email": "spnw@wp.pl",
                "contact:website": "http:\/\/sp-nowawies.edupage.org",
                "ref:regon": "001130986",
                "ref:vatin": "PL8191403597",
                "operator": "Gmina Czudec",
                "operator:type": "government",
                "amenity": "school"
            }
        },
        {
            "id": 47364,
            "type": "Feature",
            "geometry": {
                "type": "Point",
                "coordinates": [
                    21.89875,
                    49.93342
                ]
            },
            "properties": {
                "ref:rspo": 47364,
                "official_name": "Zesp\u00f3\u0142 Szk\u00f3\u0142 w Babicy",
                "name": "Zesp\u00f3\u0142 Szk\u00f3\u0142 w Babicy",
                "addr:country": "PL",
                "addr:postcode": "38-120",
                "addr:place": "Babica",
                "addr:housenumber": "102",
                "addr:teryt:sym_ul": 648310,
                "contact:phone": "+48 172772737",
                "contact:email": "zsbabica@czudec.pl",
                "ref:regon": "371024639",
                "ref:vatin": "PL8191615247",
                "operator": "Gmina Czudec",
                "operator:type": "government",
                "landuse": "education",
                "fixme": "amenity=school, amenity=college albo landuse=education w zale\u017cno\u015bci od tego, jakie plac\u00f3wki wchodz\u0105 w sk\u0142ad zespo\u0142u. Sprawd\u017a, kiedy stosowa\u0107 amenity=* a kiedy landuse=education.",
                "note": "Children RSPO: 59566;59691"
            }
        },
        {
            "id": 59566,
            "type": "Feature",
            "geometry": {
                "type": "Point",
                "coordinates": [
                    21.89875,
                    49.933389999999996
                ]
            },
            "properties": {
                "ref:rspo": 59566,
                "official_name": "Publiczne Przedszkole w Zespole Szk\u00f3\u0142 w Babicy",
                "name": "Publiczne Przedszkole w Zespole Szk\u00f3\u0142 w Babicy",
                "addr:country": "PL",
                "addr:postcode": "38-120",
                "addr:place": "Babica",
                "addr:housenumber": "102",
                "addr:teryt:sym_ul": 648310,
                "contact:phone": "+48 172772737",
                "contact:email": "zsbabica@czudec.pl",
                "ref:regon": "370496922",
                "ref:vatin": "PL8191403663",
                "operator": "Gmina Czudec",
                "operator:type": "government",
                "amenity": "kindergarten",
                "note": "Parent RSPO: 47364"
            }
        },
        {
            "id": 59691,
            "type": "Feature",
            "geometry": {
                "type": "Point",
                "coordinates": [
                    21.89875,
                    49.93336
                ]
            },
            "properties": {
                "isced:level": "1;2",
                "ref:rspo": 59691,
                "official_name": "Szko\u0142a Podstawowa w Zespole Szk\u00f3\u0142 w Babicy",
                "name": "Szko\u0142a Podstawowa w Zespole Szk\u00f3\u0142 w Babicy",
                "addr:country": "PL",
                "addr:postcode": "38-120",
                "addr:place": "Babica",
                "addr:housenumber": "102",
                "addr:teryt:sym_ul": 648310,
                "contact:phone": "+48 172772737",
                "contact:email": "zsbabica@czudec.pl",
                "ref:regon": "001130970",
                "ref:vatin": "PL8191403611",
                "operator": "Gmina Czudec",
                "operator:type": "government",
                "amenity": "school",
                "note": "Parent RSPO: 47364"
            }
        },
        {
            "id": 47291,
            "type": "Feature",
            "geometry": {
                "type": "Point",
                "coordinates": [
                    21.76303,
                    49.9349599
                ]
            },
            "properties": {
                "ref:rspo": 47291,
                "official_name": "Zesp\u00f3\u0142 Szk\u00f3\u0142 w Pstr\u0105gowej",
                "name": "Zesp\u00f3\u0142 Szk\u00f3\u0142 w Pstr\u0105gowej",
                "addr:country": "PL",
                "addr:postcode": "38-121",
                "addr:place": "Pstr\u0105gowa",
                "addr:housenumber": "105",
                "addr:teryt:sym_ul": 648646,
                "contact:phone": "+48 172779002",
                "contact:email": "zspstragowa@czudec.pl",
                "contact:website": "http:\/\/www.zs-pstragowa.pl",
                "ref:regon": "371024651",
                "ref:vatin": "PL8191615230",
                "operator": "Gmina Czudec",
                "operator:type": "government",
                "landuse": "education",
                "fixme": "amenity=school, amenity=college albo landuse=education w zale\u017cno\u015bci od tego, jakie plac\u00f3wki wchodz\u0105 w sk\u0142ad zespo\u0142u. Sprawd\u017a, kiedy stosowa\u0107 amenity=* a kiedy landuse=education.",
                "note": "Children RSPO: 57604;59553"
            }
        },
        {
            "id": 57604,
            "type": "Feature",
            "geometry": {
                "type": "Point",
                "coordinates": [
                    21.76303,
                    49.9349299
                ]
            },
            "properties": {
                "isced:level": "1;2",
                "ref:rspo": 57604,
                "official_name": "Szko\u0142a Podstawowa Nr 1 w Zespole Szk\u00f3\u0142 w Pstr\u0105gowej",
                "name": "Szko\u0142a Podstawowa Nr 1 w Zespole Szk\u00f3\u0142 w Pstr\u0105gowej",
                "addr:country": "PL",
                "addr:postcode": "38-121",
                "addr:place": "Pstr\u0105gowa",
                "addr:housenumber": "105",
                "addr:teryt:sym_ul": 648646,
                "contact:phone": "+48 172779002",
                "contact:email": "zspstragowa@czudec.pl",
                "contact:website": "http:\/\/www.zs-pstragowa.pl",
                "ref:regon": "001130992",
                "ref:vatin": "PL8191403545",
                "operator": "Gmina Czudec",
                "operator:type": "government",
                "amenity": "school",
                "note": "Parent RSPO: 47291"
            }
        },
        {
            "id": 59553,
            "type": "Feature",
            "geometry": {
                "type": "Point",
                "coordinates": [
                    21.76303,
                    49.934899900000005
                ]
            },
            "properties": {
                "ref:rspo": 59553,
                "official_name": "Publiczne Przedszkole w Zespole Szk\u00f3\u0142 w Pstr\u0105gowej",
                "name": "Publiczne Przedszkole w Zespole Szk\u00f3\u0142 w Pstr\u0105gowej",
                "addr:country": "PL",
                "addr:postcode": "38-121",
                "addr:place": "Pstr\u0105gowa",
                "addr:housenumber": "105",
                "addr:teryt:sym_ul": 648646,
                "contact:phone": "+48 172779002",
                "contact:email": "sp1pstragowa@op.pl",
                "ref:regon": "370496939",
                "ref:vatin": "PL8191403692",
                "operator": "Gmina Czudec",
                "operator:type": "government",
                "amenity": "kindergarten",
                "note": "Parent RSPO: 47291"
            }
        },
        {
            "id": 274364,
            "type": "Feature",
            "geometry": {
                "type": "Point",
                "coordinates": [
                    21.84652,
                    49.93973
                ]
            },
            "properties": {
                "ref:rspo": 274364,
                "official_name": "Szkolne Schronisko M\u0142odzie\u017cowe w Czudcu",
                "name": "Szkolne Schronisko M\u0142odzie\u017cowe w Czudcu",
                "addr:country": "PL",
                "addr:postcode": "38-120",
                "addr:city": "Czudec",
                "addr:street": "ul. Rzeszowska",
                "addr:housenumber": "82",
                "addr:teryt:simc": 19351,
                "addr:teryt:sym_ul": 648385,
                "contact:phone": "+48 172760672",
                "ref:regon": "385631630",
                "operator": "Wojew\u00f3dztwo Podkarpackie",
                "operator:type": "government",
                "tourism": "hostel",
                "note": "Parent RSPO: 274365"
            }
        },
        {
            "id": 44445,
            "type": "Feature",
            "geometry": {
                "type": "Point",
                "coordinates": [
                    21.84825,
                    49.94182
                ]
            },
            "properties": {
                "ref:rspo": 44445,
                "official_name": "Zesp\u00f3\u0142 Szk\u00f3\u0142 w Czudcu",
                "name": "Zesp\u00f3\u0142 Szk\u00f3\u0142 w Czudcu",
                "addr:country": "PL",
                "addr:postcode": "38-120",
                "addr:city": "Czudec",
                "addr:street": "ul. Parkowa",
                "addr:housenumber": "7",
                "addr:teryt:simc": 15710,
                "addr:teryt:sym_ul": 648385,
                "contact:phone": "+48 172771013",
                "contact:email": "zs_czudec@poczta.wp.pl",
                "contact:website": "http:\/\/www.zs-czudec.itl.pl",
                "ref:regon": "000567959",
                "ref:vatin": "PL8191259901",
                "operator": "Powiat Strzy\u017cowski",
                "operator:type": "government",
                "landuse": "education",
                "fixme": "amenity=school, amenity=college albo landuse=education w zale\u017cno\u015bci od tego, jakie plac\u00f3wki wchodz\u0105 w sk\u0142ad zespo\u0142u. Sprawd\u017a, kiedy stosowa\u0107 amenity=* a kiedy landuse=education.",
                "note": "Children RSPO: 56489;56662;56663;269318;269320;270350;275926"
            }
        },
        {
            "id": 56489,
            "type": "Feature",
            "geometry": {
                "type": "Point",
                "coordinates": [
                    21.84825,
                    49.94179
                ]
            },
            "properties": {
                "isced:level": "3",
                "ref:rspo": 56489,
                "official_name": "Liceum Og\u00f3lnokszta\u0142c\u0105ce w Czudcu w Zespole Szk\u00f3\u0142 w Czudcu",
                "name": "Liceum Og\u00f3lnokszta\u0142c\u0105ce w Czudcu w Zespole Szk\u00f3\u0142 w Czudcu",
                "addr:country": "PL",
                "addr:postcode": "38-120",
                "addr:city": "Czudec",
                "addr:street": "ul. Parkowa",
                "addr:housenumber": "7",
                "addr:teryt:simc": 15710,
                "addr:teryt:sym_ul": 648385,
                "contact:phone": "+48 172771013",
                "contact:email": "zs_czudec@poczta.wp.pl",
                "contact:website": "http:\/\/www.zs-czudec.itl.pl",
                "ref:regon": "371103936",
                "operator": "Powiat Strzy\u017cowski",
                "operator:type": "government",
                "amenity": "school",
                "note": "Parent RSPO: 44445"
            }
        },
        {
            "id": 56662,
            "type": "Feature",
            "geometry": {
                "type": "Point",
                "coordinates": [
                    21.84825,
                    49.94176
                ]
            },
            "properties": {
                "isced:level": "3",
                "ref:rspo": 56662,
                "official_name": "Technikum w Czudcu w Zespole Szk\u00f3\u0142 w Czudcu",
                "name": "Technikum w Czudcu w Zespole Szk\u00f3\u0142 w Czudcu",
                "addr:country": "PL",
                "addr:postcode": "38-120",
                "addr:city": "Czudec",
                "addr:street": "ul. Parkowa",
                "addr:housenumber": "7",
                "addr:teryt:simc": 15710,
                "addr:teryt:sym_ul": 648385,
                "contact:phone": "+48 172771013",
                "contact:email": "zs_czudec@poczta.wp.pl",
                "contact:website": "http:\/\/www.zs-czudec.itl.pl",
                "ref:regon": "371103971",
                "operator": "Powiat Strzy\u017cowski",
                "operator:type": "government",
                "amenity": "school",
                "note": "Parent RSPO: 44445"
            }
        },
        {
            "id": 56663,
            "type": "Feature",
            "geometry": {
                "type": "Point",
                "coordinates": [
                    21.84825,
                    49.94173
                ]
            },
            "properties": {
                "isced:level": "3",
                "ref:rspo": 56663,
                "official_name": "Bran\u017cowa Szko\u0142a I Stopnia w Czudcu w Zespole Szk\u00f3\u0142 w Czudcu",
                "name": "Bran\u017cowa Szko\u0142a I Stopnia w Czudcu w Zespole Szk\u00f3\u0142 w Czudcu",
                "addr:country": "PL",
                "addr:postcode": "38-120",
                "addr:city": "Czudec",
                "addr:street": "ul. Parkowa",
                "addr:housenumber": "7",
                "addr:teryt:simc": 15710,
                "addr:teryt:sym_ul": 648385,
                "contact:phone": "+48 172771013",
                "contact:email": "zs_czudec@poczta.wp.pl",
                "contact:website": "http:\/\/www.zs-czudec.itl.pl",
                "ref:regon": "371103988",
                "operator": "Powiat Strzy\u017cowski",
                "operator:type": "government",
                "amenity": "school",
                "note": "Parent RSPO: 44445"
            }
        },
        {
            "id": 269318,
            "type": "Feature",
            "geometry": {
                "type": "Point",
                "coordinates": [
                    21.84825,
                    49.9417
                ]
            },
            "properties": {
                "isced:level": "4",
                "ref:rspo": 269318,
                "official_name": "Szko\u0142a Policealna w Czudcu w Zespole Szk\u00f3\u0142 w Czudcu",
                "name": "Szko\u0142a Policealna w Czudcu w Zespole Szk\u00f3\u0142 w Czudcu",
                "addr:country": "PL",
                "addr:postcode": "38-120",
                "addr:city": "Czudec",
                "addr:street": "ul. Parkowa",
                "addr:housenumber": "7",
                "addr:teryt:simc": 15710,
                "addr:teryt:sym_ul": 648385,
                "contact:phone": "+48 172771013",
                "contact:email": "zs_czudec@wp.pl",
                "contact:website": "http:\/\/www.zs-czudec.itl.pl\/",
                "ref:regon": "381437397",
                "operator": "Powiat Strzy\u017cowski",
                "operator:type": "government",
                "amenity": "college",
                "note": "Parent RSPO: 44445"
            }
        },
        {
            "id": 269320,
            "type": "Feature",
            "geometry": {
                "type": "Point",
                "coordinates": [
                    21.84825,
                    49.94167
                ]
            },
            "properties": {
                "isced:level": "3",
                "ref:rspo": 269320,
                "official_name": "Liceum Og\u00f3lnokszta\u0142c\u0105ce dla Doros\u0142ych w Czudcu w Zespole Szk\u00f3\u0142 w Czudcu",
                "name": "Liceum Og\u00f3lnokszta\u0142c\u0105ce dla Doros\u0142ych w Czudcu w Zespole Szk\u00f3\u0142 w Czudcu",
                "addr:country": "PL",
                "addr:postcode": "38-120",
                "addr:city": "Czudec",
                "addr:street": "ul. Parkowa",
                "addr:housenumber": "7",
                "addr:teryt:simc": 15710,
                "addr:teryt:sym_ul": 648385,
                "contact:phone": "+48 172771013",
                "contact:email": "zs_czudec@wp.pl",
                "contact:website": "http:\/\/www.zs-czudec.itl.pl\/",
                "ref:regon": "381437434",
                "operator": "Powiat Strzy\u017cowski",
                "operator:type": "government",
                "amenity": "school",
                "note": "Parent RSPO: 44445"
            }
        },
        {
            "id": 275926,
            "type": "Feature",
            "geometry": {
                "type": "Point",
                "coordinates": [
                    21.84825,
                    49.94164
                ]
            },
            "properties": {
                "isced:level": "3",
                "ref:rspo": 275926,
                "official_name": "Bran\u017cowa Szko\u0142a II Stopnia w Czudcu w Zespole Szk\u00f3\u0142 w Czudcu",
                "name": "Bran\u017cowa Szko\u0142a II Stopnia w Czudcu w Zespole Szk\u00f3\u0142 w Czudcu",
                "addr:country": "PL",
                "addr:postcode": "38-120",
                "addr:city": "Czudec",
                "addr:street": "ul. Parkowa",
                "addr:housenumber": "7",
                "addr:teryt:simc": 15710,
                "addr:teryt:sym_ul": 648385,
                "contact:phone": "+48 172771013",
                "contact:email": "zs_czudec@wp.pl",
                "contact:website": "http:\/\/www.zs-czudec.itl.pl\/",
                "ref:regon": "386955620",
                "operator": "Powiat Strzy\u017cowski",
                "operator:type": "government",
                "amenity": "school",
                "note": "Parent RSPO: 44445"
            }
        },
        {
            "id": 49507,
            "type": "Feature",
            "geometry": {
                "type": "Point",
                "coordinates": [
                    21.83585,
                    49.94446
                ]
            },
            "properties": {
                "ref:rspo": 49507,
                "official_name": "Publiczne Przedszkole Czudec",
                "name": "Publiczne Przedszkole Czudec",
                "addr:country": "PL",
                "addr:postcode": "38-120",
                "addr:city": "Czudec",
                "addr:street": "ul. Starowiejska",
                "addr:housenumber": "8",
                "addr:teryt:simc": 20998,
                "addr:teryt:sym_ul": 648385,
                "contact:phone": "+48 172771046",
                "contact:email": "przedszkoleczudec@o2.pl",
                "contact:website": "http:\/\/www.przedszkoleczudec.pl",
                "ref:regon": "690008180",
                "ref:vatin": "PL8191403657",
                "operator": "Gmina Czudec",
                "operator:type": "government",
                "amenity": "kindergarten"
            }
        },
        {
            "id": 49686,
            "type": "Feature",
            "geometry": {
                "type": "Point",
                "coordinates": [
                    21.84396,
                    49.9447199
                ]
            },
            "properties": {
                "isced:level": "1;2",
                "ref:rspo": 49686,
                "official_name": "Szko\u0142a Podstawowa w Czudcu",
                "name": "Szko\u0142a Podstawowa w Czudcu",
                "addr:country": "PL",
                "addr:postcode": "38-120",
                "addr:city": "Czudec",
                "addr:street": "ul. Rzeszowska",
                "addr:housenumber": "33",
                "addr:teryt:simc": 19351,
                "addr:teryt:sym_ul": 648385,
                "contact:phone": "+48 172771041",
                "contact:email": "spczudec@czudec.pl",
                "contact:website": "http:\/\/spczudec.szkolna.net",
                "ref:regon": "000649930",
                "ref:vatin": "PL8191403640",
                "operator": "Gmina Czudec",
                "operator:type": "government",
                "amenity": "school"
            }
        },
        {
            "id": 270350,
            "type": "Feature",
            "geometry": {
                "type": "Point",
                "coordinates": [
                    21.83595,
                    49.94509
                ]
            },
            "properties": {
                "ref:rspo": 270350,
                "official_name": "Centrum Kszta\u0142cenia Zawodowego w Zespole Szk\u00f3\u0142 w Czudcu",
                "name": "Centrum Kszta\u0142cenia Zawodowego w Zespole Szk\u00f3\u0142 w Czudcu",
                "addr:country": "PL",
                "addr:postcode": "38-120",
                "addr:city": "Czudec",
                "addr:street": "ul. Starowiejska",
                "addr:housenumber": "2",
                "addr:teryt:simc": 20998,
                "addr:teryt:sym_ul": 648385,
                "contact:phone": "+48 172771013",
                "contact:email": "zs_czudec@poczta.wp.pl",
                "ref:regon": "382416701",
                "operator": "Powiat Strzy\u017cowski",
                "operator:type": "government",
                "fixme": "w zale\u017cno\u015bci od przedmiotu dzia\u0142alno\u015bci (np. amenity=training + training=*, amenity=dancing_school, amenity=language_school, amenity=music_school) albo amenity=school, amenity=college, albo landuse=education w zale\u017cno\u015bci od tego, jakie plac\u00f3wki wchodz\u0105 w sk\u0142ad zespo\u0142u. Sprawd\u017a, kiedy stosowa\u0107 amenity=* a kiedy landuse=education.",
                "note": "Parent RSPO: 44445"
            }
        },
        {
            "id": 49896,
            "type": "Feature",
            "geometry": {
                "type": "Point",
                "coordinates": [
                    21.72344,
                    49.95261
                ]
            },
            "properties": {
                "isced:level": "1;2",
                "ref:rspo": 49896,
                "official_name": "Szko\u0142a Podstawowa Nr 2 w Pstr\u0105gowej",
                "name": "Szko\u0142a Podstawowa Nr 2 w Pstr\u0105gowej",
                "addr:country": "PL",
                "addr:postcode": "38-121",
                "addr:place": "Pstr\u0105gowa",
                "addr:housenumber": "406",
                "addr:teryt:sym_ul": 648646,
                "contact:phone": "+48 172779108",
                "contact:email": "sp2pstragowa@czudec.pl",
                "contact:website": "http:\/\/sp2.pstragowa.pl",
                "ref:regon": "001131000",
                "ref:vatin": "PL8191403551",
                "operator": "Gmina Czudec",
                "operator:type": "government",
                "amenity": "school"
            }
        }
    ]
}