{
    "type": "FeatureCollection",
    "features": [
        {
            "id": 88762,
            "type": "Feature",
            "geometry": {
                "type": "Point",
                "coordinates": [
                    21.5694544,
                    49.6500408
                ]
            },
            "properties": {
                "isced:level": "1;2",
                "ref:rspo": 88762,
                "official_name": "Niepubliczna Szko\u0142a Podstawowa Z Oddzia\u0142em Przedszkolnym w \u0141ubienku",
                "name": "Niepubliczna Szko\u0142a Podstawowa Z Oddzia\u0142em Przedszkolnym w \u0141ubienku",
                "addr:country": "PL",
                "addr:postcode": "38-204",
                "addr:place": "\u0141ubienko",
                "addr:housenumber": "109",
                "addr:teryt:simc": 360945,
                "contact:phone": "+48 134423009",
                "contact:email": "splubienko8@wp.pl",
                "ref:regon": "180913608",
                "ref:vatin": "PL6852316151",
                "operator": "Stowarzyszenie \"Moja Szko\u0142a\"",
                "operator:type": "ngo",
                "amenity": "school"
            }
        },
        {
            "id": 133146,
            "type": "Feature",
            "geometry": {
                "type": "Point",
                "coordinates": [
                    21.5694544,
                    49.6500108
                ]
            },
            "properties": {
                "ref:rspo": 133146,
                "official_name": "Niepubliczne Przedszkole w \u0141ubienku",
                "name": "Niepubliczne Przedszkole w \u0141ubienku",
                "addr:country": "PL",
                "addr:postcode": "38-204",
                "addr:place": "\u0141ubienko",
                "addr:housenumber": "109",
                "addr:teryt:simc": 360945,
                "contact:phone": "+48 134423009",
                "contact:email": "splubienko8@wp.pl",
                "ref:regon": "366722907",
                "ref:vatin": "PL6852316151",
                "operator": "Stowarzyszenie \"Moja Szko\u0142a\"",
                "operator:type": "ngo",
                "amenity": "kindergarten"
            }
        },
        {
            "id": 92302,
            "type": "Feature",
            "geometry": {
                "type": "Point",
                "coordinates": [
                    21.5710614,
                    49.6670624
                ]
            },
            "properties": {
                "isced:level": "1;2",
                "ref:rspo": 92302,
                "official_name": "Szko\u0142a Podstawowa w \u0141ubnie Szlacheckim",
                "name": "Szko\u0142a Podstawowa w \u0141ubnie Szlacheckim",
                "addr:country": "PL",
                "addr:postcode": "38-204",
                "addr:place": "\u0141ubno Szlacheckie",
                "addr:housenumber": "109",
                "addr:teryt:simc": 361011,
                "contact:phone": "+48 134423001",
                "contact:email": "splubno@onet.pl",
                "contact:website": "http:\/\/www.splubno.pl",
                "ref:regon": "001213689",
                "ref:vatin": "PL6852005304",
                "operator": "Gmina Tarnowiec",
                "operator:type": "government",
                "amenity": "school"
            }
        },
        {
            "id": 128466,
            "type": "Feature",
            "geometry": {
                "type": "Point",
                "coordinates": [
                    21.5349233,
                    49.6711549
                ]
            },
            "properties": {
                "ref:rspo": 128466,
                "official_name": "Niepubliczny Zesp\u00f3\u0142 Szkolno-Przedszkolny w \u0141ajscach",
                "name": "Niepubliczny Zesp\u00f3\u0142 Szkolno-Przedszkolny w \u0141ajscach",
                "addr:country": "PL",
                "addr:postcode": "38-204",
                "addr:place": "\u0141ajsce",
                "addr:housenumber": "155",
                "addr:teryt:simc": 360916,
                "contact:phone": "+48 731388055",
                "contact:email": "zsnlajsce@wp.pl",
                "ref:regon": "362288800",
                "ref:vatin": "PL6852328266",
                "operator": "Stowarzyszenie O\u015bwiatowe \"Razem W Szkole\"",
                "operator:type": "ngo",
                "landuse": "education",
                "fixme": "amenity=school, amenity=college albo landuse=education w zale\u017cno\u015bci od tego, jakie plac\u00f3wki wchodz\u0105 w sk\u0142ad zespo\u0142u. Sprawd\u017a, kiedy stosowa\u0107 amenity=* a kiedy landuse=education.",
                "note": "Children RSPO: 128330;131046"
            }
        },
        {
            "id": 128330,
            "type": "Feature",
            "geometry": {
                "type": "Point",
                "coordinates": [
                    21.5349233,
                    49.671124899999995
                ]
            },
            "properties": {
                "isced:level": "1;2",
                "ref:rspo": 128330,
                "official_name": "Niepubliczna Szko\u0142a Podstawowa w \u0141ajscach",
                "name": "Niepubliczna Szko\u0142a Podstawowa w \u0141ajscach",
                "addr:country": "PL",
                "addr:postcode": "38-204",
                "addr:place": "\u0141ajsce",
                "addr:housenumber": "155",
                "addr:teryt:simc": 360916,
                "contact:phone": "+48 731388055",
                "contact:email": "zsnlajsce@wp.pl",
                "contact:website": "http:\/\/www.splajsce.eu",
                "ref:regon": "362233324",
                "ref:vatin": "PL6852328266",
                "operator": "Stowarzyszenie O\u015bwiatowe \"Razem W Szkole\"",
                "operator:type": "ngo",
                "amenity": "school",
                "note": "Parent RSPO: 128466"
            }
        },
        {
            "id": 131046,
            "type": "Feature",
            "geometry": {
                "type": "Point",
                "coordinates": [
                    21.5349233,
                    49.6710949
                ]
            },
            "properties": {
                "ref:rspo": 131046,
                "official_name": "Niepubliczne Przedszkole \"Razem w Przedszkolu\" w \u0141ajscach",
                "name": "Niepubliczne Przedszkole \"Razem w Przedszkolu\" w \u0141ajscach",
                "addr:country": "PL",
                "addr:postcode": "38-204",
                "addr:place": "\u0141ajsce",
                "addr:housenumber": "155",
                "addr:teryt:simc": 360916,
                "contact:phone": "+48 731388055",
                "contact:email": "zsnlajsce@wp.pl",
                "ref:regon": "364907123",
                "ref:vatin": "PL6852328266",
                "operator": "Stowarzyszenie O\u015bwiatowe \"Razem W Szkole\"",
                "operator:type": "ngo",
                "amenity": "kindergarten",
                "note": "Parent RSPO: 128466"
            }
        },
        {
            "id": 82645,
            "type": "Feature",
            "geometry": {
                "type": "Point",
                "coordinates": [
                    21.5216299,
                    49.68621
                ]
            },
            "properties": {
                "isced:level": "1;2",
                "ref:rspo": 82645,
                "official_name": "Niepubliczna Szko\u0142a Podstawowa w Nowym Gliniku",
                "name": "Niepubliczna Szko\u0142a Podstawowa w Nowym Gliniku",
                "addr:country": "PL",
                "addr:postcode": "38-204",
                "addr:place": "Nowy Glinik",
                "addr:housenumber": "88",
                "addr:teryt:simc": 361028,
                "contact:phone": "+48 134426873",
                "contact:email": "spnowyglinik2@wp.pl",
                "ref:regon": "180911414",
                "ref:vatin": "PL6852313827",
                "operator": "Stowarzyszenie Rozwoju Wsi Nowy Glinik",
                "operator:type": "ngo",
                "amenity": "school"
            }
        },
        {
            "id": 131923,
            "type": "Feature",
            "geometry": {
                "type": "Point",
                "coordinates": [
                    21.5216299,
                    49.68618
                ]
            },
            "properties": {
                "ref:rspo": 131923,
                "official_name": "Niepubliczne Przedszkole \"Motylki\" w Nowym Gliniku",
                "name": "Niepubliczne Przedszkole \"Motylki\" w Nowym Gliniku",
                "addr:country": "PL",
                "addr:postcode": "38-204",
                "addr:place": "Nowy Glinik",
                "addr:housenumber": "88",
                "addr:teryt:simc": 361028,
                "contact:phone": "+48 134426873",
                "contact:email": "spnowyglinik2@wp.pl",
                "ref:regon": "365379347",
                "ref:vatin": "PL6852313827",
                "operator": "Stowarzyszenie Rozwoju Wsi Nowy Glinik",
                "operator:type": "ngo",
                "amenity": "kindergarten"
            }
        },
        {
            "id": 272032,
            "type": "Feature",
            "geometry": {
                "type": "Point",
                "coordinates": [
                    21.5216299,
                    49.686150000000005
                ]
            },
            "properties": {
                "ref:rspo": 272032,
                "official_name": "Niepubliczny Zesp\u00f3\u0142 Szkolno-Przedszkolny w Nowym Gliniku",
                "name": "Niepubliczny Zesp\u00f3\u0142 Szkolno-Przedszkolny w Nowym Gliniku",
                "addr:country": "PL",
                "addr:postcode": "38-204",
                "addr:place": "Nowy Glinik",
                "addr:housenumber": "88",
                "addr:teryt:simc": 361028,
                "contact:phone": "+48 134426873",
                "contact:email": "spnowyglinik2@wp.pl",
                "ref:regon": "383881475",
                "operator": "Stowarzyszenie Rozwoju Wsi Nowy Glinik",
                "operator:type": "ngo",
                "landuse": "education",
                "fixme": "amenity=school, amenity=college albo landuse=education w zale\u017cno\u015bci od tego, jakie plac\u00f3wki wchodz\u0105 w sk\u0142ad zespo\u0142u. Sprawd\u017a, kiedy stosowa\u0107 amenity=* a kiedy landuse=education."
            }
        },
        {
            "id": 88915,
            "type": "Feature",
            "geometry": {
                "type": "Point",
                "coordinates": [
                    21.5539749,
                    49.6968265
                ]
            },
            "properties": {
                "isced:level": "1;2",
                "ref:rspo": 88915,
                "official_name": "Niepubliczna Szko\u0142a Podstawowa w Gliniku Polskim",
                "name": "Niepubliczna Szko\u0142a Podstawowa w Gliniku Polskim",
                "addr:country": "PL",
                "addr:postcode": "38-204",
                "addr:place": "Glinik Polski",
                "addr:housenumber": "83",
                "addr:teryt:simc": 360856,
                "contact:phone": "+48 134255567",
                "contact:email": "sp-glinikpolski@wp.pl",
                "contact:website": "http:\/\/www.uniaszkol-glinikpolski.pl",
                "ref:regon": "180913910",
                "ref:vatin": "PL6852313543",
                "operator": "Stowarzyszenie Unia Szk\u00f3\u0142",
                "operator:type": "ngo",
                "amenity": "school"
            }
        },
        {
            "id": 121443,
            "type": "Feature",
            "geometry": {
                "type": "Point",
                "coordinates": [
                    21.5539749,
                    49.6967965
                ]
            },
            "properties": {
                "ref:rspo": 121443,
                "official_name": "Niepubliczne Przedszkole \"Krasnoludki\" w Gliniku Polskim",
                "name": "Niepubliczne Przedszkole \"Krasnoludki\" w Gliniku Polskim",
                "addr:country": "PL",
                "addr:postcode": "38-204",
                "addr:place": "Glinik Polski",
                "addr:housenumber": "83",
                "addr:teryt:simc": 360856,
                "contact:phone": "+48 531873127",
                "contact:email": "sp-glinikpolski@wp.pl",
                "ref:regon": "181064488",
                "ref:vatin": "PL6852313543",
                "operator": "Stowarzyszenie Unia Szk\u00f3\u0142",
                "operator:type": "ngo",
                "amenity": "kindergarten"
            }
        },
        {
            "id": 128462,
            "type": "Feature",
            "geometry": {
                "type": "Point",
                "coordinates": [
                    21.55351,
                    49.70967
                ]
            },
            "properties": {
                "ref:rspo": 128462,
                "official_name": "Niepubliczny Zesp\u00f3\u0142 Szkolno-Przedszkolny w Umieszczu",
                "name": "Niepubliczny Zesp\u00f3\u0142 Szkolno-Przedszkolny w Umieszczu",
                "addr:country": "PL",
                "addr:postcode": "38-204",
                "addr:place": "Umieszcz",
                "addr:housenumber": "12",
                "addr:teryt:simc": 361229,
                "contact:phone": "+48 134424721",
                "contact:email": "umieszcz.nzs@onet.pl",
                "contact:website": "http:\/\/www.umieszcz.szkolnastrona.pl",
                "ref:regon": "362288667",
                "ref:vatin": "PL6852328289",
                "operator": "Stowarzyszenie O\u015bwiatowe \"Kraina Wiedzy\"",
                "operator:type": "ngo",
                "landuse": "education",
                "fixme": "amenity=school, amenity=college albo landuse=education w zale\u017cno\u015bci od tego, jakie plac\u00f3wki wchodz\u0105 w sk\u0142ad zespo\u0142u. Sprawd\u017a, kiedy stosowa\u0107 amenity=* a kiedy landuse=education.",
                "note": "Children RSPO: 128463;128550"
            }
        },
        {
            "id": 128463,
            "type": "Feature",
            "geometry": {
                "type": "Point",
                "coordinates": [
                    21.55351,
                    49.70964
                ]
            },
            "properties": {
                "isced:level": "1;2",
                "ref:rspo": 128463,
                "official_name": "Niepubliczna Szko\u0142a Podstawowa w Umieszczu",
                "name": "Niepubliczna Szko\u0142a Podstawowa w Umieszczu",
                "addr:country": "PL",
                "addr:postcode": "38-204",
                "addr:place": "Umieszcz",
                "addr:housenumber": "12",
                "addr:teryt:simc": 361229,
                "contact:phone": "+48 134424721",
                "contact:email": "umieszcz.nzs@onet.pl",
                "contact:website": "http:\/\/www.umieszcz.szkolnastrona.pl",
                "ref:regon": "362288704",
                "ref:vatin": "PL6852328289",
                "operator": "Stowarzyszenie O\u015bwiatowe \"Kraina Wiedzy\"",
                "operator:type": "ngo",
                "amenity": "school",
                "note": "Parent RSPO: 128462"
            }
        },
        {
            "id": 128550,
            "type": "Feature",
            "geometry": {
                "type": "Point",
                "coordinates": [
                    21.55351,
                    49.709610000000005
                ]
            },
            "properties": {
                "ref:rspo": 128550,
                "official_name": "Niepubliczne Przedszkole \"Akademia Malucha\" w Umieszczu",
                "name": "Niepubliczne Przedszkole \"Akademia Malucha\" w Umieszczu",
                "addr:country": "PL",
                "addr:postcode": "38-204",
                "addr:place": "Umieszcz",
                "addr:housenumber": "12",
                "addr:teryt:simc": 361229,
                "contact:phone": "+48 134424721",
                "contact:email": "umieszcz.nzs@onet.pl",
                "contact:website": "http:\/\/umieszcz.szkolnastrona.pl",
                "ref:regon": "362314933",
                "ref:vatin": "PL6852328289",
                "operator": "Stowarzyszenie O\u015bwiatowe \"Kraina Wiedzy\"",
                "operator:type": "ngo",
                "amenity": "kindergarten",
                "note": "Parent RSPO: 128462"
            }
        },
        {
            "id": 88941,
            "type": "Feature",
            "geometry": {
                "type": "Point",
                "coordinates": [
                    21.58007,
                    49.7115099
                ]
            },
            "properties": {
                "isced:level": "1;2",
                "ref:rspo": 88941,
                "official_name": "Niepubliczna Szko\u0142a Podstawowa we Wrocance",
                "name": "Niepubliczna Szko\u0142a Podstawowa we Wrocance",
                "addr:country": "PL",
                "addr:postcode": "38-204",
                "addr:place": "Wrocanka",
                "addr:housenumber": "30",
                "addr:teryt:simc": 361241,
                "contact:phone": "+48 134424020",
                "contact:email": "s.p.wrocanka@interia.pl",
                "contact:website": "http:\/\/www.uniaszkol.strefa.pl",
                "ref:regon": "180913933",
                "ref:vatin": "PL6852313543",
                "operator": "Stowarzyszenie Unia Szk\u00f3\u0142",
                "operator:type": "ngo",
                "amenity": "school"
            }
        },
        {
            "id": 130581,
            "type": "Feature",
            "geometry": {
                "type": "Point",
                "coordinates": [
                    21.58007,
                    49.7114799
                ]
            },
            "properties": {
                "ref:rspo": 130581,
                "official_name": "Niepubliczne Przedszkole \"Serduszko\" we Wrocance",
                "name": "Niepubliczne Przedszkole \"Serduszko\" we Wrocance",
                "addr:country": "PL",
                "addr:postcode": "38-204",
                "addr:place": "Wrocanka",
                "addr:housenumber": "30",
                "addr:teryt:simc": 361241,
                "contact:phone": "+48 134424020",
                "contact:email": "s.p.wrocanka@interia.pl",
                "ref:regon": "364205697",
                "ref:vatin": "PL6852313543",
                "operator": "Stowarzyszenie Unia Szk\u00f3\u0142",
                "operator:type": "ngo",
                "amenity": "kindergarten"
            }
        },
        {
            "id": 132508,
            "type": "Feature",
            "geometry": {
                "type": "Point",
                "coordinates": [
                    21.53529,
                    49.72815
                ]
            },
            "properties": {
                "ref:rspo": 132508,
                "official_name": "Niepubliczny Zesp\u00f3\u0142 Szkolno - Przedszkolny w Czelu\u015bnicy",
                "name": "Niepubliczny Zesp\u00f3\u0142 Szkolno - Przedszkolny w Czelu\u015bnicy",
                "addr:country": "PL",
                "addr:postcode": "38-204",
                "addr:place": "Czelu\u015bnica",
                "addr:housenumber": "77",
                "addr:teryt:simc": 360767,
                "contact:phone": "+48 134406136",
                "contact:email": "nspczelusnica@wp.pl",
                "ref:regon": "365695440",
                "ref:vatin": "PL6852328349",
                "operator": "Stowarzyszenie \"Razem Dla Naszej Szko\u0142y\"",
                "operator:type": "ngo",
                "landuse": "education",
                "fixme": "amenity=school, amenity=college albo landuse=education w zale\u017cno\u015bci od tego, jakie plac\u00f3wki wchodz\u0105 w sk\u0142ad zespo\u0142u. Sprawd\u017a, kiedy stosowa\u0107 amenity=* a kiedy landuse=education.",
                "note": "Children RSPO: 128332;131504"
            }
        },
        {
            "id": 128332,
            "type": "Feature",
            "geometry": {
                "type": "Point",
                "coordinates": [
                    21.53529,
                    49.72812
                ]
            },
            "properties": {
                "isced:level": "1;2",
                "ref:rspo": 128332,
                "official_name": "Niepubliczna Szko\u0142a Podstawowa w Czelu\u015bnicy",
                "name": "Niepubliczna Szko\u0142a Podstawowa w Czelu\u015bnicy",
                "addr:country": "PL",
                "addr:postcode": "38-204",
                "addr:place": "Czelu\u015bnica",
                "addr:housenumber": "77",
                "addr:teryt:simc": 360767,
                "contact:phone": "+48 134406136",
                "contact:email": "nspczelusnica@wp.pl",
                "ref:regon": "362233376",
                "ref:vatin": "PL6852328349",
                "operator": "Stowarzyszenie \"Razem Dla Naszej Szko\u0142y\"",
                "operator:type": "ngo",
                "amenity": "school",
                "note": "Parent RSPO: 132508"
            }
        },
        {
            "id": 131504,
            "type": "Feature",
            "geometry": {
                "type": "Point",
                "coordinates": [
                    21.53529,
                    49.72809
                ]
            },
            "properties": {
                "ref:rspo": 131504,
                "official_name": "Niepubliczne Przedszkole \"Calineczka\" w Czelu\u015bnicy",
                "name": "Niepubliczne Przedszkole \"Calineczka\" w Czelu\u015bnicy",
                "addr:country": "PL",
                "addr:postcode": "38-204",
                "addr:place": "Czelu\u015bnica",
                "addr:housenumber": "77",
                "addr:teryt:simc": 360767,
                "contact:phone": "+48 134406136",
                "contact:email": "nspczelusnica@wp.pl",
                "ref:regon": "365200495",
                "ref:vatin": "PL6852328349",
                "operator": "Stowarzyszenie \"Razem Dla Naszej Szko\u0142y\"",
                "operator:type": "ngo",
                "amenity": "kindergarten",
                "note": "Parent RSPO: 132508"
            }
        },
        {
            "id": 88769,
            "type": "Feature",
            "geometry": {
                "type": "Point",
                "coordinates": [
                    21.57823,
                    49.72962
                ]
            },
            "properties": {
                "ref:rspo": 88769,
                "official_name": "Gminne Przedszkole w Tarnowcu",
                "name": "Gminne Przedszkole w Tarnowcu",
                "addr:country": "PL",
                "addr:postcode": "38-204",
                "addr:place": "Tarnowiec",
                "addr:housenumber": "42",
                "addr:teryt:simc": 361181,
                "contact:phone": "+48 134255505",
                "contact:email": "przedszkole@tarnowiec.eu",
                "contact:website": "http:\/\/www.przedszkole.tarnowiec.eu",
                "ref:regon": "000902820",
                "ref:vatin": "PL6851983738",
                "operator": "Gmina Tarnowiec",
                "operator:type": "government",
                "amenity": "kindergarten"
            }
        },
        {
            "id": 92297,
            "type": "Feature",
            "geometry": {
                "type": "Point",
                "coordinates": [
                    21.57726,
                    49.73092
                ]
            },
            "properties": {
                "isced:level": "1;2",
                "ref:rspo": 92297,
                "official_name": "Szko\u0142a Podstawowa im. T. Ko\u015bciuszki w Tarnowcu",
                "name": "Szko\u0142a Podstawowa",
                "addr:country": "PL",
                "addr:postcode": "38-204",
                "addr:place": "Tarnowiec",
                "addr:housenumber": "230",
                "addr:teryt:simc": 361181,
                "contact:phone": "+48 134255563",
                "contact:email": "gimtarnowiec@poczta.onet.pl",
                "contact:website": "http:\/\/www.zstarnowiec.eu",
                "ref:regon": "000741334",
                "ref:vatin": "PL6852005385",
                "operator": "Gmina Tarnowiec",
                "operator:type": "government",
                "amenity": "school"
            }
        },
        {
            "id": 88944,
            "type": "Feature",
            "geometry": {
                "type": "Point",
                "coordinates": [
                    21.54491,
                    49.74407
                ]
            },
            "properties": {
                "isced:level": "1;2",
                "ref:rspo": 88944,
                "official_name": "Niepubliczna Szko\u0142a Podstawowa w Roztokach",
                "name": "Niepubliczna Szko\u0142a Podstawowa w Roztokach",
                "addr:country": "PL",
                "addr:postcode": "38-204",
                "addr:place": "Roztoki",
                "addr:housenumber": "80",
                "addr:teryt:simc": 361152,
                "contact:phone": "+48 134424021",
                "contact:email": "nsproztoki@interia.eu",
                "contact:website": "http:\/\/www.uniaszkol.strefa.pl",
                "ref:regon": "180913927",
                "ref:vatin": "PL6852313543",
                "operator": "Stowarzyszenie Unia Szk\u00f3\u0142",
                "operator:type": "ngo",
                "amenity": "school"
            }
        },
        {
            "id": 130158,
            "type": "Feature",
            "geometry": {
                "type": "Point",
                "coordinates": [
                    21.54491,
                    49.74404
                ]
            },
            "properties": {
                "ref:rspo": 130158,
                "official_name": "Niepubliczne Przedszkole \"Roga\u015b\" w Roztokach",
                "name": "Niepubliczne Przedszkole \"Roga\u015b\" w Roztokach",
                "addr:country": "PL",
                "addr:postcode": "38-204",
                "addr:place": "Roztoki",
                "addr:housenumber": "80",
                "addr:teryt:simc": 361152,
                "contact:phone": "+48 134424021",
                "contact:email": "nsproztoki@interia.eu",
                "ref:regon": "363545244",
                "ref:vatin": "PL6852313543",
                "operator": "Stowarzyszenie Unia Szk\u00f3\u0142",
                "operator:type": "ngo",
                "amenity": "kindergarten"
            }
        }
    ]
}