{
    "type": "FeatureCollection",
    "features": [
        {
            "id": 93142,
            "type": "Feature",
            "geometry": {
                "type": "Point",
                "coordinates": [
                    21.38755,
                    49.78387
                ]
            },
            "properties": {
                "ref:rspo": 93142,
                "official_name": "Zesp\u00f3\u0142 Szk\u00f3\u0142 Spo\u0142ecznych w Lipnicy Dolnej",
                "name": "Zesp\u00f3\u0142 Szk\u00f3\u0142 Spo\u0142ecznych w Lipnicy Dolnej",
                "addr:postcode": "38-200",
                "addr:place": "Lipnica Dolna",
                "addr:housenumber": "54",
                "addr:city:simc": 346483,
                "phone": "+48 134457003",
                "email": "gimlipnica@interia.pl",
                "website": "http:\/\/zsslipnicadolna.pl",
                "ref:regon": "180919410",
                "operator": "Stowarzyszenie \"Szko\u0142a Przysz\u0142o\u015bci\"",
                "operator:type": "ngo",
                "landuse": "education",
                "fixme": "amenity=school, amenity=college albo landuse=education w zale\u017cno\u015bci od tego, jakie plac\u00f3wki wchodz\u0105 w sk\u0142ad zespo\u0142u. Sprawd\u017a, kiedy stosowa\u0107 amenity=* a kiedy landuse=education.",
                "note": "Children RSPO: 3773;132327"
            }
        },
        {
            "id": 3773,
            "type": "Feature",
            "geometry": {
                "type": "Point",
                "coordinates": [
                    21.38755,
                    49.78384
                ]
            },
            "properties": {
                "isced:level": "1;2",
                "ref:rspo": 3773,
                "official_name": "Spo\u0142eczna Szko\u0142a Podstawowa im. Jana Paw\u0142a II w Lipnicy Dolnej",
                "name": "Spo\u0142eczna Szko\u0142a Podstawowa",
                "addr:postcode": "38-200",
                "addr:place": "Lipnica Dolna",
                "addr:housenumber": "54",
                "addr:city:simc": 346483,
                "phone": "+48 134457003",
                "email": "gimlipnica@interia.pl",
                "website": "http:\/\/zsslipnicadolna.pl",
                "ref:regon": "180877315",
                "operator": "Stowarzyszenie \"Szko\u0142a Przysz\u0142o\u015bci\"",
                "operator:type": "ngo",
                "amenity": "school",
                "note": "Parent RSPO: 93142"
            }
        },
        {
            "id": 132327,
            "type": "Feature",
            "geometry": {
                "type": "Point",
                "coordinates": [
                    21.38755,
                    49.78381
                ]
            },
            "properties": {
                "ref:rspo": 132327,
                "official_name": "Spo\u0142eczne Przedszkole w Lipnicy Dolnej",
                "name": "Spo\u0142eczne Przedszkole w Lipnicy Dolnej",
                "addr:postcode": "38-200",
                "addr:place": "Lipnica Dolna",
                "addr:housenumber": "54",
                "addr:city:simc": 346483,
                "phone": "+48 134457003",
                "email": "gimlipnica@interia.pl",
                "ref:regon": "365550597",
                "operator": "Stowarzyszenie \"Szko\u0142a Przysz\u0142o\u015bci\"",
                "operator:type": "ngo",
                "amenity": "kindergarten",
                "note": "Parent RSPO: 93142"
            }
        },
        {
            "id": 262801,
            "type": "Feature",
            "geometry": {
                "type": "Point",
                "coordinates": [
                    21.4028199,
                    49.79178
                ]
            },
            "properties": {
                "ref:rspo": 262801,
                "official_name": "Zesp\u00f3\u0142 Szkolno-Przedszkolny w Wr\u00f3blowej",
                "name": "Zesp\u00f3\u0142 Szkolno-Przedszkolny w Wr\u00f3blowej",
                "addr:postcode": "38-212",
                "addr:place": "Wr\u00f3blowa",
                "addr:housenumber": "36",
                "addr:city:simc": 346520,
                "phone": "+48 134457007",
                "email": "szkola_wroblowa@interia.pl",
                "ref:regon": "368060830",
                "operator": "Gmina Brzyska",
                "operator:type": "government",
                "landuse": "education",
                "fixme": "amenity=school, amenity=college albo landuse=education w zale\u017cno\u015bci od tego, jakie plac\u00f3wki wchodz\u0105 w sk\u0142ad zespo\u0142u. Sprawd\u017a, kiedy stosowa\u0107 amenity=* a kiedy landuse=education.",
                "note": "Children RSPO: 93096;196227"
            }
        },
        {
            "id": 93096,
            "type": "Feature",
            "geometry": {
                "type": "Point",
                "coordinates": [
                    21.4028199,
                    49.79175
                ]
            },
            "properties": {
                "isced:level": "1;2",
                "ref:rspo": 93096,
                "official_name": "Szko\u0142a Podstawowa im. \u015aw. Maksymiliana Kolbego w Wr\u00f3blowej",
                "name": "Szko\u0142a Podstawowa",
                "addr:postcode": "38-212",
                "addr:place": "Wr\u00f3blowa",
                "addr:housenumber": "36",
                "addr:city:simc": 346520,
                "phone": "+48 134457007",
                "email": "szkola_wroblowa@interia.pl",
                "ref:regon": "001197938",
                "ref:vatin": "PL6852033370",
                "operator": "Gmina Brzyska",
                "operator:type": "government",
                "amenity": "school",
                "note": "Parent RSPO: 262801"
            }
        },
        {
            "id": 196227,
            "type": "Feature",
            "geometry": {
                "type": "Point",
                "coordinates": [
                    21.4028199,
                    49.791720000000005
                ]
            },
            "properties": {
                "ref:rspo": 196227,
                "official_name": "Przedszkole w Wr\u00f3blowej",
                "name": "Przedszkole w Wr\u00f3blowej",
                "addr:postcode": "38-212",
                "addr:place": "Wr\u00f3blowa",
                "addr:housenumber": "36",
                "addr:city:simc": 346520,
                "phone": "+48 134457007",
                "email": "szkola_wroblowa@interia.pl",
                "ref:regon": "367988547",
                "operator": "Gmina Brzyska",
                "operator:type": "government",
                "amenity": "kindergarten",
                "note": "Parent RSPO: 262801"
            }
        },
        {
            "id": 262799,
            "type": "Feature",
            "geometry": {
                "type": "Point",
                "coordinates": [
                    21.3948049,
                    49.8155882
                ]
            },
            "properties": {
                "ref:rspo": 262799,
                "official_name": "Zesp\u00f3\u0142 Szkolno-Przedszkolny w Brzyskach",
                "name": "Zesp\u00f3\u0142 Szkolno-Przedszkolny w Brzyskach",
                "addr:postcode": "38-212",
                "addr:place": "Brzyska",
                "addr:housenumber": "348",
                "addr:city:simc": 346371,
                "phone": "+48 134460104",
                "email": "spbrzyska@interia.pl",
                "website": "http:\/\/www.zspbrzyska.szkolnastrona.pl",
                "ref:regon": "368059382",
                "operator": "Gmina Brzyska",
                "operator:type": "government",
                "landuse": "education",
                "fixme": "amenity=school, amenity=college albo landuse=education w zale\u017cno\u015bci od tego, jakie plac\u00f3wki wchodz\u0105 w sk\u0142ad zespo\u0142u. Sprawd\u017a, kiedy stosowa\u0107 amenity=* a kiedy landuse=education.",
                "note": "Children RSPO: 15097;196226"
            }
        },
        {
            "id": 15097,
            "type": "Feature",
            "geometry": {
                "type": "Point",
                "coordinates": [
                    21.3948049,
                    49.8155582
                ]
            },
            "properties": {
                "isced:level": "1;2",
                "ref:rspo": 15097,
                "official_name": "Szko\u0142a Podstawowa im. Henryka Sienkiewicza w Brzyskach",
                "name": "Szko\u0142a Podstawowa",
                "addr:postcode": "38-212",
                "addr:place": "Brzyska",
                "addr:housenumber": "348",
                "addr:city:simc": 346371,
                "phone": "+48 134460104",
                "email": "spbrzyska@interia.pl",
                "website": "http:\/\/www.spbrzyska.szkolnastrona.pl",
                "ref:regon": "001200899",
                "ref:vatin": "PL6851602707",
                "operator": "Gmina Brzyska",
                "operator:type": "government",
                "amenity": "school",
                "note": "Parent RSPO: 262799"
            }
        },
        {
            "id": 196226,
            "type": "Feature",
            "geometry": {
                "type": "Point",
                "coordinates": [
                    21.3948049,
                    49.8155282
                ]
            },
            "properties": {
                "ref:rspo": 196226,
                "official_name": "Przedszkole w Brzyskach",
                "name": "Przedszkole w Brzyskach",
                "addr:postcode": "38-212",
                "addr:place": "Brzyska",
                "addr:housenumber": "348",
                "addr:city:simc": 346371,
                "phone": "+48 134460104",
                "email": "spbrzyska@interia.pl",
                "website": "http:\/\/www.spbrzyska.szkolnastrona.pl",
                "ref:regon": "367988524",
                "operator": "Gmina Brzyska",
                "operator:type": "government",
                "amenity": "kindergarten",
                "note": "Parent RSPO: 262799"
            }
        },
        {
            "id": 262798,
            "type": "Feature",
            "geometry": {
                "type": "Point",
                "coordinates": [
                    21.36267,
                    49.86863
                ]
            },
            "properties": {
                "ref:rspo": 262798,
                "official_name": "Zesp\u00f3\u0142 Szkolno - Przedszkolny w B\u0142a\u017ckowej",
                "name": "Zesp\u00f3\u0142 Szkolno - Przedszkolny w B\u0142a\u017ckowej",
                "addr:postcode": "38-212",
                "addr:place": "B\u0142a\u017ckowa",
                "addr:housenumber": "125",
                "addr:city:simc": 346299,
                "phone": "+48 134460102",
                "email": "dyrpodb@onet.pl",
                "website": "http:\/\/spblazkowa.edupage.org",
                "ref:regon": "368059324",
                "operator": "Gmina Brzyska",
                "operator:type": "government",
                "landuse": "education",
                "fixme": "amenity=school, amenity=college albo landuse=education w zale\u017cno\u015bci od tego, jakie plac\u00f3wki wchodz\u0105 w sk\u0142ad zespo\u0142u. Sprawd\u017a, kiedy stosowa\u0107 amenity=* a kiedy landuse=education.",
                "note": "Children RSPO: 15068;196225"
            }
        },
        {
            "id": 15068,
            "type": "Feature",
            "geometry": {
                "type": "Point",
                "coordinates": [
                    21.36267,
                    49.8686
                ]
            },
            "properties": {
                "isced:level": "1;2",
                "ref:rspo": 15068,
                "official_name": "Szko\u0142a Podstawowa im. Ks. Kardyna\u0142a Stefana Wyszy\u0144skiego w B\u0142a\u017ckowej",
                "name": "Szko\u0142a Podstawowa",
                "addr:postcode": "38-212",
                "addr:place": "B\u0142a\u017ckowa",
                "addr:housenumber": "125",
                "addr:city:simc": 346299,
                "phone": "+48 134460102",
                "email": "dyrpodb@onet.pl",
                "website": "http:\/\/spblazkowa.edupage.org",
                "ref:regon": "001200907",
                "ref:vatin": "PL6852051528",
                "operator": "Gmina Brzyska",
                "operator:type": "government",
                "amenity": "school",
                "note": "Parent RSPO: 262798"
            }
        },
        {
            "id": 196225,
            "type": "Feature",
            "geometry": {
                "type": "Point",
                "coordinates": [
                    21.36267,
                    49.868570000000005
                ]
            },
            "properties": {
                "ref:rspo": 196225,
                "official_name": "Przedszkole w B\u0142a\u017ckowej",
                "name": "Przedszkole w B\u0142a\u017ckowej",
                "addr:postcode": "38-212",
                "addr:place": "B\u0142a\u017ckowa",
                "addr:housenumber": "125",
                "addr:city:simc": 346299,
                "phone": "+48 134460102",
                "email": "dyrpodb@onet.pl",
                "ref:regon": "367988470",
                "operator": "Gmina Brzyska",
                "operator:type": "government",
                "amenity": "kindergarten",
                "note": "Parent RSPO: 262798"
            }
        }
    ]
}