{
    "type": "FeatureCollection",
    "features": [
        {
            "id": 6659,
            "type": "Feature",
            "geometry": {
                "type": "Point",
                "coordinates": [
                    21.4609,
                    49.7147
                ]
            },
            "properties": {
                "ref:rspo": 6659,
                "official_name": "Zesp\u00f3\u0142 Szk\u00f3\u0142 Spo\u0142ecznych im. Adama Mickiewicza w Ja\u015ble",
                "name": "Zesp\u00f3\u0142 Szk\u00f3\u0142 Spo\u0142ecznych",
                "addr:postcode": "38-200",
                "addr:city": "Jas\u0142o",
                "addr:street": "Nieg\u0142owicka",
                "addr:housenumber": "174",
                "addr:city:simc": 953059,
                "addr:street:sym_ul": 14153,
                "phone": "+48 134459441",
                "email": "zssjaslo@interia.pl",
                "website": "http:\/\/www.zssjaslo.szkolnastrona.pl",
                "ref:regon": "180886550",
                "ref:vatin": "PL6852142490",
                "operator": "Stowarzyszenie Edukacyjno-Regionalne \"Nasza Szko\u0142a\"",
                "operator:type": "ngo",
                "landuse": "education",
                "fixme": "amenity=school, amenity=college albo landuse=education w zale\u017cno\u015bci od tego, jakie plac\u00f3wki wchodz\u0105 w sk\u0142ad zespo\u0142u. Sprawd\u017a, kiedy stosowa\u0107 amenity=* a kiedy landuse=education.",
                "note": "Children RSPO: 16947;76006"
            }
        },
        {
            "id": 16947,
            "type": "Feature",
            "geometry": {
                "type": "Point",
                "coordinates": [
                    21.4609,
                    49.71467
                ]
            },
            "properties": {
                "ref:rspo": 16947,
                "official_name": "Spo\u0142eczne Przedszkole",
                "name": "Spo\u0142eczne Przedszkole",
                "addr:postcode": "38-200",
                "addr:city": "Jas\u0142o",
                "addr:street": "Nieg\u0142owicka",
                "addr:housenumber": "174",
                "addr:city:simc": 953059,
                "addr:street:sym_ul": 14153,
                "phone": "+48 134459441",
                "email": "zssjaslo@interia.pl",
                "website": "http:\/\/www.zssjaslo.szkolnastrona.pl",
                "ref:regon": "180889962",
                "operator": "Stowarzyszenie Edukacyjno-Regionalne \"Nasza Szko\u0142a\"",
                "operator:type": "ngo",
                "amenity": "kindergarten",
                "note": "Parent RSPO: 6659"
            }
        },
        {
            "id": 76006,
            "type": "Feature",
            "geometry": {
                "type": "Point",
                "coordinates": [
                    21.4609,
                    49.71464
                ]
            },
            "properties": {
                "isced:level": "1;2",
                "ref:rspo": 76006,
                "official_name": "Spo\u0142eczna Szko\u0142a Podstawowa",
                "name": "Spo\u0142eczna Szko\u0142a Podstawowa",
                "addr:postcode": "38-200",
                "addr:city": "Jas\u0142o",
                "addr:street": "Nieg\u0142owicka",
                "addr:housenumber": "174",
                "addr:city:simc": 953059,
                "addr:street:sym_ul": 14153,
                "phone": "+48 134459441",
                "email": "zssjaslo@interia.pl",
                "website": "http:\/\/www.zssjaslo.szkolnastrona.pl",
                "ref:regon": "180908607",
                "operator": "Stowarzyszenie Edukacyjno-Regionalne \"Nasza Szko\u0142a\"",
                "operator:type": "ngo",
                "amenity": "school",
                "note": "Parent RSPO: 6659"
            }
        },
        {
            "id": 48427,
            "type": "Feature",
            "geometry": {
                "type": "Point",
                "coordinates": [
                    21.47421,
                    49.72619
                ]
            },
            "properties": {
                "isced:level": "1;2",
                "ref:rspo": 48427,
                "official_name": "Szko\u0142a Podstawowa nr 7 w Ja\u015ble",
                "name": "Szko\u0142a Podstawowa nr 7 w Ja\u015ble",
                "addr:postcode": "38-200",
                "addr:city": "Jas\u0142o",
                "addr:street": "\u015awi\u0119tego Jana z Dukli",
                "addr:housenumber": "94",
                "addr:city:simc": 953059,
                "addr:street:sym_ul": 29783,
                "phone": "+48 134464630",
                "email": "sp70@op.pl",
                "website": "http:\/\/www.sp7jaslo.edu.pl\/",
                "ref:regon": "001231693",
                "ref:vatin": "PL6851557786",
                "operator": "Miasto Jas\u0142o",
                "operator:type": "government",
                "amenity": "school"
            }
        },
        {
            "id": 15575,
            "type": "Feature",
            "geometry": {
                "type": "Point",
                "coordinates": [
                    21.4505,
                    49.7271
                ]
            },
            "properties": {
                "ref:rspo": 15575,
                "official_name": "Zesp\u00f3\u0142 Szk\u00f3\u0142 Miejskich nr 1 w Ja\u015ble",
                "name": "Zesp\u00f3\u0142 Szk\u00f3\u0142 Miejskich nr 1 w Ja\u015ble",
                "addr:postcode": "38-200",
                "addr:city": "Jas\u0142o",
                "addr:street": "Rafineryjna",
                "addr:housenumber": "3A",
                "addr:city:simc": 953059,
                "addr:street:sym_ul": 18384,
                "phone": "+48 134469712",
                "email": "zsm1@zsm1jaslo.pl",
                "website": "http:\/\/www.zsm1jaslo.edupage.org",
                "ref:regon": "180156550",
                "ref:vatin": "PL6852196787",
                "operator": "Miasto Jas\u0142o",
                "operator:type": "government",
                "landuse": "education",
                "fixme": "amenity=school, amenity=college albo landuse=education w zale\u017cno\u015bci od tego, jakie plac\u00f3wki wchodz\u0105 w sk\u0142ad zespo\u0142u. Sprawd\u017a, kiedy stosowa\u0107 amenity=* a kiedy landuse=education.",
                "note": "Children RSPO: 48674;48676"
            }
        },
        {
            "id": 48674,
            "type": "Feature",
            "geometry": {
                "type": "Point",
                "coordinates": [
                    21.4505,
                    49.72707
                ]
            },
            "properties": {
                "isced:level": "1;2",
                "ref:rspo": 48674,
                "official_name": "Szko\u0142a Podstawowa nr 6 w Ja\u015ble",
                "name": "Szko\u0142a Podstawowa nr 6 w Ja\u015ble",
                "addr:postcode": "38-200",
                "addr:city": "Jas\u0142o",
                "addr:street": "Rafineryjna",
                "addr:housenumber": "3a",
                "addr:city:simc": 953059,
                "addr:street:sym_ul": 18384,
                "phone": "+48 134469712",
                "email": "zsm1@zsm1jaslo.pl",
                "website": "http:\/\/www.zsm1jaslo.edupage.org",
                "ref:regon": "001231701",
                "operator": "Miasto Jas\u0142o",
                "operator:type": "government",
                "amenity": "school",
                "note": "Parent RSPO: 15575"
            }
        },
        {
            "id": 48676,
            "type": "Feature",
            "geometry": {
                "type": "Point",
                "coordinates": [
                    21.4505,
                    49.72704
                ]
            },
            "properties": {
                "ref:rspo": 48676,
                "official_name": "Przedszkole Miejskie nr 12 w Ja\u015ble",
                "name": "Przedszkole Miejskie nr 12 w Ja\u015ble",
                "addr:postcode": "38-200",
                "addr:city": "Jas\u0142o",
                "addr:street": "Rafineryjna",
                "addr:housenumber": "3A",
                "addr:city:simc": 953059,
                "addr:street:sym_ul": 18384,
                "phone": "+48 134469712",
                "email": "zsm1@zsm1jaslo.pl",
                "ref:regon": "001274834",
                "operator": "Miasto Jas\u0142o",
                "operator:type": "government",
                "amenity": "kindergarten",
                "note": "Parent RSPO: 15575"
            }
        },
        {
            "id": 15579,
            "type": "Feature",
            "geometry": {
                "type": "Point",
                "coordinates": [
                    21.49232,
                    49.72762
                ]
            },
            "properties": {
                "ref:rspo": 15579,
                "official_name": "Zesp\u00f3\u0142 Szk\u00f3\u0142 Miejskich nr 5 w Ja\u015ble",
                "name": "Zesp\u00f3\u0142 Szk\u00f3\u0142 Miejskich nr 5 w Ja\u015ble",
                "addr:postcode": "38-200",
                "addr:city": "Jas\u0142o",
                "addr:street": "Sobniowska",
                "addr:housenumber": "58",
                "addr:city:simc": 953059,
                "addr:street:sym_ul": 20444,
                "phone": "+48 134455010",
                "email": "zsm5jaslo@gmail.com",
                "website": "http:\/\/zsm5jaslo.szkolnastrona.pl",
                "ref:regon": "180355775",
                "ref:vatin": "PL6852256443",
                "operator": "Miasto Jas\u0142o",
                "operator:type": "government",
                "landuse": "education",
                "fixme": "amenity=school, amenity=college albo landuse=education w zale\u017cno\u015bci od tego, jakie plac\u00f3wki wchodz\u0105 w sk\u0142ad zespo\u0142u. Sprawd\u017a, kiedy stosowa\u0107 amenity=* a kiedy landuse=education.",
                "note": "Children RSPO: 49620;131218"
            }
        },
        {
            "id": 49620,
            "type": "Feature",
            "geometry": {
                "type": "Point",
                "coordinates": [
                    21.49232,
                    49.72759
                ]
            },
            "properties": {
                "isced:level": "1;2",
                "ref:rspo": 49620,
                "official_name": "Szko\u0142a Podstawowa nr 8 w Ja\u015ble",
                "name": "Szko\u0142a Podstawowa nr 8 w Ja\u015ble",
                "addr:postcode": "38-200",
                "addr:city": "Jas\u0142o",
                "addr:street": "Sobniowska",
                "addr:housenumber": "58",
                "addr:city:simc": 953059,
                "addr:street:sym_ul": 20444,
                "phone": "+48 134455010",
                "email": "zsm5jaslo@gmail.com",
                "website": "http:\/\/zsm5jaslo.szkolnastrona.pl\/",
                "ref:regon": "001231687",
                "operator": "Miasto Jas\u0142o",
                "operator:type": "government",
                "amenity": "school",
                "note": "Parent RSPO: 15579"
            }
        },
        {
            "id": 131218,
            "type": "Feature",
            "geometry": {
                "type": "Point",
                "coordinates": [
                    21.49232,
                    49.727560000000004
                ]
            },
            "properties": {
                "ref:rspo": 131218,
                "official_name": "Przedszkole Miejskie nr 15 w Ja\u015ble",
                "name": "Przedszkole Miejskie nr 15 w Ja\u015ble",
                "addr:postcode": "38-200",
                "addr:city": "Jas\u0142o",
                "addr:street": "Sobniowska",
                "addr:housenumber": "58",
                "addr:city:simc": 953059,
                "addr:street:sym_ul": 20444,
                "phone": "+48 134465885",
                "email": "zsm5jaslo@gmail.com",
                "website": "http:\/\/zsm5jaslo.szkolnastrona.pl\/",
                "ref:regon": "365034460",
                "operator": "Miasto Jas\u0142o",
                "operator:type": "government",
                "amenity": "kindergarten",
                "note": "Parent RSPO: 15579"
            }
        },
        {
            "id": 275120,
            "type": "Feature",
            "geometry": {
                "type": "Point",
                "coordinates": [
                    21.47151,
                    49.7293
                ]
            },
            "properties": {
                "ref:rspo": 275120,
                "official_name": "Niepubliczna Poradnia Psychologiczno-Pedagogiczna Ania w Ja\u015ble",
                "name": "Niepubliczna Poradnia Psychologiczno-Pedagogiczna Ania w Ja\u015ble",
                "addr:postcode": "38-200",
                "addr:city": "Jas\u0142o",
                "addr:street": "Grunwaldzka",
                "addr:housenumber": "74c",
                "addr:city:simc": 953059,
                "addr:street:sym_ul": 6260,
                "phone": "+48 798808177",
                "email": "pppania1@wp.pl",
                "ref:regon": "386590034",
                "ref:vatin": "PL6852287165",
                "operator": "Anna T\u0119cza",
                "operator:type": "private",
                "healthcare": "counselling",
                "counselling_type": "education",
                "fixme": "w zale\u017cno\u015bci od przedmiotu dzia\u0142alno\u015bci (np. healthcare=counselling + counselling_type=education albo healthcare=psychotherapist)"
            }
        },
        {
            "id": 275520,
            "type": "Feature",
            "geometry": {
                "type": "Point",
                "coordinates": [
                    21.47198,
                    49.72986
                ]
            },
            "properties": {
                "ref:rspo": 275520,
                "official_name": "Niepubliczny O\u015brodek Rewalidacyjno - Wychowawczy Bajkowa Kraina w Ja\u015ble",
                "name": "Niepubliczny O\u015brodek Rewalidacyjno - Wychowawczy Bajkowa Kraina w Ja\u015ble",
                "addr:postcode": "38-200",
                "addr:city": "Jas\u0142o",
                "addr:street": "Grunwaldzka",
                "addr:housenumber": "74",
                "addr:door": "c",
                "addr:city:simc": 953059,
                "addr:street:sym_ul": 6260,
                "phone": "+48 500089503",
                "email": "norwbajkowakraina@onet.pl",
                "ref:regon": "386924127",
                "operator": "Danuta Pociask",
                "operator:type": "private",
                "amenity": "school"
            }
        },
        {
            "id": 83599,
            "type": "Feature",
            "geometry": {
                "type": "Point",
                "coordinates": [
                    21.45939,
                    49.73173
                ]
            },
            "properties": {
                "isced:level": "1;2",
                "ref:rspo": 83599,
                "official_name": "Szko\u0142a Podstawowa nr 4 w Ja\u015ble",
                "name": "Szko\u0142a Podstawowa nr 4 w Ja\u015ble",
                "addr:postcode": "38-200",
                "addr:city": "Jas\u0142o",
                "addr:street": "Wincentego Pola",
                "addr:housenumber": "9",
                "addr:city:simc": 953059,
                "addr:street:sym_ul": 16961,
                "phone": "+48 134463568",
                "email": "czworkajaslo@wp.pl",
                "website": "http:\/\/www.sp4jaslo.edu.pl",
                "ref:regon": "001231718",
                "ref:vatin": "PL6851602587",
                "operator": "Miasto Jas\u0142o",
                "operator:type": "government",
                "amenity": "school"
            }
        },
        {
            "id": 30215,
            "type": "Feature",
            "geometry": {
                "type": "Point",
                "coordinates": [
                    21.46322,
                    49.7361099
                ]
            },
            "properties": {
                "ref:rspo": 30215,
                "official_name": "Przedszkole Miejskie nr 6 w Ja\u015ble \"Pluszowego Misia\"",
                "name": "Przedszkole Miejskie nr 6 w Ja\u015ble \"Pluszowego Misia\"",
                "addr:postcode": "38-200",
                "addr:city": "Jas\u0142o",
                "addr:street": "Miko\u0142aja Kopernika",
                "addr:housenumber": "8a",
                "addr:city:simc": 953059,
                "addr:street:sym_ul": 9282,
                "phone": "+48 134469322",
                "email": "p6jaslo2@poczta.onet.pl",
                "website": "http:\/\/przedszkole6jaslo.szkolnastrona.pl",
                "ref:regon": "370012462",
                "ref:vatin": "PL6851557332",
                "operator": "Miasto Jas\u0142o",
                "operator:type": "government",
                "amenity": "kindergarten"
            }
        },
        {
            "id": 263889,
            "type": "Feature",
            "geometry": {
                "type": "Point",
                "coordinates": [
                    21.46601,
                    49.73781
                ]
            },
            "properties": {
                "ref:rspo": 263889,
                "official_name": "Niepubliczne Przedszkole Mali Odkrywcy w Ja\u015ble",
                "name": "Niepubliczne Przedszkole Mali Odkrywcy w Ja\u015ble",
                "addr:postcode": "38-200",
                "addr:city": "Jas\u0142o",
                "addr:street": "Krzysztofa Kamila Baczy\u0144skiego",
                "addr:housenumber": "15",
                "addr:door": "28",
                "addr:city:simc": 953059,
                "addr:street:sym_ul": 569,
                "email": "maliodkrywcy1@onet.pl",
                "ref:regon": "368233532",
                "operator": "Barbara Czelu\u015bniak",
                "operator:type": "private",
                "amenity": "kindergarten"
            }
        },
        {
            "id": 273702,
            "type": "Feature",
            "geometry": {
                "type": "Point",
                "coordinates": [
                    21.46601,
                    49.73778
                ]
            },
            "properties": {
                "ref:rspo": 273702,
                "official_name": "Niepubliczne Przedszkole \"Kraina S\u0142odziak\u00f3w\" w Ja\u015ble",
                "name": "Niepubliczne Przedszkole \"Kraina S\u0142odziak\u00f3w\" w Ja\u015ble",
                "addr:postcode": "38-200",
                "addr:city": "Jas\u0142o",
                "addr:street": "Krzysztofa Kamila Baczy\u0144skiego",
                "addr:housenumber": "15",
                "addr:door": "13",
                "addr:city:simc": 953059,
                "addr:street:sym_ul": 569,
                "email": "anetalesniak6@gmail.com",
                "ref:regon": "384568579",
                "operator": "Aneta Le\u015bniak",
                "operator:type": "private",
                "amenity": "kindergarten"
            }
        },
        {
            "id": 26287,
            "type": "Feature",
            "geometry": {
                "type": "Point",
                "coordinates": [
                    21.47052,
                    49.73868
                ]
            },
            "properties": {
                "ref:rspo": 26287,
                "official_name": "Zesp\u00f3\u0142 Szk\u00f3\u0142 Us\u0142ugowych I Spo\u017cywczych w Ja\u015ble",
                "name": "Zesp\u00f3\u0142 Szk\u00f3\u0142 Us\u0142ugowych I Spo\u017cywczych w Ja\u015ble",
                "addr:postcode": "38-200",
                "addr:city": "Jas\u0142o",
                "addr:street": "Stanis\u0142awa Staszica",
                "addr:housenumber": "30B",
                "addr:city:simc": 953059,
                "addr:street:sym_ul": 21071,
                "phone": "+48 134463974",
                "email": "zsnr2jaslo@gmail.com",
                "website": "http:\/\/www.zsuisjaslo.pl",
                "ref:regon": "000986774",
                "ref:vatin": "PL6851598153",
                "operator": "Powiat Jasielski",
                "operator:type": "government",
                "landuse": "education",
                "fixme": "amenity=school, amenity=college albo landuse=education w zale\u017cno\u015bci od tego, jakie plac\u00f3wki wchodz\u0105 w sk\u0142ad zespo\u0142u. Sprawd\u017a, kiedy stosowa\u0107 amenity=* a kiedy landuse=education.",
                "note": "Children RSPO: 22487;66427;66697;71069;81617;119546;275098"
            }
        },
        {
            "id": 66427,
            "type": "Feature",
            "geometry": {
                "type": "Point",
                "coordinates": [
                    21.47052,
                    49.73865
                ]
            },
            "properties": {
                "isced:level": "3",
                "ref:rspo": 66427,
                "official_name": "Technikum nr 2 im. Genera\u0142a J\u00f3zefa Hallera w Ja\u015ble",
                "name": "Technikum nr 2",
                "addr:postcode": "38-200",
                "addr:city": "Jas\u0142o",
                "addr:street": "Stanis\u0142awa Staszica",
                "addr:housenumber": "30B",
                "addr:city:simc": 953059,
                "addr:street:sym_ul": 21071,
                "phone": "+48 134463974",
                "email": "zsnr2jaslo@gmail.com",
                "website": "http:\/\/www.zsuisjaslo.pl",
                "ref:regon": "371101860",
                "ref:vatin": "PL6851598153",
                "operator": "Powiat Jasielski",
                "operator:type": "government",
                "amenity": "school",
                "note": "Parent RSPO: 26287"
            }
        },
        {
            "id": 66697,
            "type": "Feature",
            "geometry": {
                "type": "Point",
                "coordinates": [
                    21.47052,
                    49.738620000000004
                ]
            },
            "properties": {
                "isced:level": "3",
                "ref:rspo": 66697,
                "official_name": "Bran\u017cowa Szko\u0142a I Stopnia nr 2 im. Genera\u0142a J\u00f3zefa Hallera w Ja\u015ble",
                "name": "Bran\u017cowa Szko\u0142a I Stopnia nr 2",
                "addr:postcode": "38-200",
                "addr:city": "Jas\u0142o",
                "addr:street": "Stanis\u0142awa Staszica",
                "addr:housenumber": "30B",
                "addr:city:simc": 953059,
                "addr:street:sym_ul": 21071,
                "phone": "+48 134463974",
                "email": "zsnr2jaslo@gmail.com",
                "website": "http:\/\/www.zsuisjaslo.pl",
                "ref:regon": "371026934",
                "ref:vatin": "PL6851598153",
                "operator": "Powiat Jasielski",
                "operator:type": "government",
                "amenity": "school",
                "note": "Parent RSPO: 26287"
            }
        },
        {
            "id": 71069,
            "type": "Feature",
            "geometry": {
                "type": "Point",
                "coordinates": [
                    21.47052,
                    49.73859
                ]
            },
            "properties": {
                "ref:rspo": 71069,
                "official_name": "Centrum Kszta\u0142cenia Zawodowego nr 2 w Ja\u015ble",
                "name": "Centrum Kszta\u0142cenia Zawodowego nr 2 w Ja\u015ble",
                "addr:postcode": "38-200",
                "addr:city": "Jas\u0142o",
                "addr:street": "Stanis\u0142awa Staszica",
                "addr:housenumber": "30B",
                "addr:city:simc": 953059,
                "addr:street:sym_ul": 21071,
                "phone": "+48 134463974",
                "email": "zsnr2jaslo@gmail.com",
                "website": "http:\/\/www.zsuisjaslo.nets.pl",
                "ref:regon": "180907660",
                "operator": "Powiat Jasielski",
                "operator:type": "government",
                "fixme": "w zale\u017cno\u015bci od przedmiotu dzia\u0142alno\u015bci (np. amenity=training + training=*, amenity=dancing_school, amenity=language_school, amenity=music_school) albo amenity=school, amenity=college, albo landuse=education w zale\u017cno\u015bci od tego, jakie plac\u00f3wki wchodz\u0105 w sk\u0142ad zespo\u0142u. Sprawd\u017a, kiedy stosowa\u0107 amenity=* a kiedy landuse=education.",
                "note": "Parent RSPO: 26287"
            }
        },
        {
            "id": 81617,
            "type": "Feature",
            "geometry": {
                "type": "Point",
                "coordinates": [
                    21.47052,
                    49.73856
                ]
            },
            "properties": {
                "isced:level": "3",
                "ref:rspo": 81617,
                "official_name": "Bran\u017cowa Szko\u0142a I Stopnia nr 6 Specjalna im. Genera\u0142a J\u00f3zefa Hallera w Ja\u015ble",
                "name": "Bran\u017cowa Szko\u0142a I Stopnia nr 6 Specjalna",
                "addr:postcode": "38-200",
                "addr:city": "Jas\u0142o",
                "addr:street": "Stanis\u0142awa Staszica",
                "addr:housenumber": "30B",
                "addr:city:simc": 953059,
                "addr:street:sym_ul": 21071,
                "phone": "+48 134463974",
                "email": "zsnr2jaslo@gmail.com",
                "website": "http:\/\/www.zsuisjaslo.pl",
                "ref:regon": "371027052",
                "ref:vatin": "PL6851598153",
                "operator": "Powiat Jasielski",
                "operator:type": "government",
                "amenity": "school",
                "note": "Parent RSPO: 26287"
            }
        },
        {
            "id": 22487,
            "type": "Feature",
            "geometry": {
                "type": "Point",
                "coordinates": [
                    21.46967,
                    49.7388
                ]
            },
            "properties": {
                "ref:rspo": 22487,
                "official_name": "Bursa Mi\u0119dzyszkolna w Zespole Szk\u00f3\u0142 Us\u0142ugowych I Spo\u017cywczych w Ja\u015ble",
                "name": "Bursa Mi\u0119dzyszkolna w Zespole Szk\u00f3\u0142 Us\u0142ugowych I Spo\u017cywczych w Ja\u015ble",
                "addr:postcode": "38-200",
                "addr:city": "Jas\u0142o",
                "addr:street": "Stanis\u0142awa Staszica",
                "addr:housenumber": "30A",
                "addr:city:simc": 953059,
                "addr:street:sym_ul": 21071,
                "phone": "+48 134462909",
                "email": "bursy@pronet.jaslo.pl",
                "website": "http:\/\/www.bursy.pronet.jaslo.pl",
                "ref:regon": "371158541",
                "ref:vatin": "PL6852112218",
                "operator": "Powiat Jasielski",
                "operator:type": "government",
                "building": "dormitory",
                "note": "Parent RSPO: 26287"
            }
        },
        {
            "id": 119546,
            "type": "Feature",
            "geometry": {
                "type": "Point",
                "coordinates": [
                    21.46967,
                    49.738769999999995
                ]
            },
            "properties": {
                "ref:rspo": 119546,
                "official_name": "Szkolne Schronisko M\u0142odzie\u017cowe w Ja\u015ble",
                "name": "Szkolne Schronisko M\u0142odzie\u017cowe w Ja\u015ble",
                "addr:postcode": "38-200",
                "addr:city": "Jas\u0142o",
                "addr:street": "Stanis\u0142awa Staszica",
                "addr:housenumber": "30A",
                "addr:city:simc": 953059,
                "addr:street:sym_ul": 21071,
                "phone": "+48 134462909",
                "email": "schronisko.jaslo@onet.pl",
                "ref:regon": "371164004",
                "operator": "Powiat Jasielski",
                "operator:type": "government",
                "tourism": "hostel",
                "note": "Parent RSPO: 26287"
            }
        },
        {
            "id": 275098,
            "type": "Feature",
            "geometry": {
                "type": "Point",
                "coordinates": [
                    21.47083,
                    49.73988
                ]
            },
            "properties": {
                "isced:level": "3",
                "ref:rspo": 275098,
                "official_name": "Bran\u017cowa Szko\u0142a II Stopnia nr 2 w Ja\u015ble",
                "name": "Bran\u017cowa Szko\u0142a II Stopnia nr 2 w Ja\u015ble",
                "addr:postcode": "38-200",
                "addr:city": "Jas\u0142o",
                "addr:street": "Stanis\u0142awa Staszica",
                "addr:housenumber": "30 B",
                "addr:city:simc": 953059,
                "addr:street:sym_ul": 21071,
                "phone": "+48 134463974",
                "email": "zsnr2jaslo@gmail.com",
                "website": "https:\/\/zsuisjaslo.pl\/",
                "ref:regon": "386569169",
                "ref:vatin": "PL6851598153",
                "operator": "Powiat Jasielski",
                "operator:type": "government",
                "amenity": "school",
                "note": "Parent RSPO: 26287"
            }
        },
        {
            "id": 25908,
            "type": "Feature",
            "geometry": {
                "type": "Point",
                "coordinates": [
                    21.47088,
                    49.73989
                ]
            },
            "properties": {
                "ref:rspo": 25908,
                "official_name": "Zesp\u00f3\u0142 Szk\u00f3\u0142 Technicznych im. Bohater\u00f3w Wrze\u015bnia w Ja\u015ble",
                "name": "Zesp\u00f3\u0142 Szk\u00f3\u0142 Technicznych",
                "addr:postcode": "38-200",
                "addr:city": "Jas\u0142o",
                "addr:street": "Stanis\u0142awa Staszica",
                "addr:housenumber": "30",
                "addr:city:simc": 953059,
                "addr:street:sym_ul": 21071,
                "phone": "+48 134463700",
                "email": "zst@zstjaslo.pl",
                "website": "http:\/\/www.zstjaslo.pl",
                "ref:regon": "000182260",
                "ref:vatin": "PL6851566549",
                "operator": "Powiat Jasielski",
                "operator:type": "government",
                "landuse": "education",
                "fixme": "amenity=school, amenity=college albo landuse=education w zale\u017cno\u015bci od tego, jakie plac\u00f3wki wchodz\u0105 w sk\u0142ad zespo\u0142u. Sprawd\u017a, kiedy stosowa\u0107 amenity=* a kiedy landuse=education.",
                "note": "Children RSPO: 64545;64588;275096"
            }
        },
        {
            "id": 64545,
            "type": "Feature",
            "geometry": {
                "type": "Point",
                "coordinates": [
                    21.47088,
                    49.73986
                ]
            },
            "properties": {
                "isced:level": "3",
                "ref:rspo": 64545,
                "official_name": "Technikum nr 1 w Ja\u015ble",
                "name": "Technikum nr 1 w Ja\u015ble",
                "addr:postcode": "38-200",
                "addr:city": "Jas\u0142o",
                "addr:street": "Stanis\u0142awa Staszica",
                "addr:housenumber": "30",
                "addr:city:simc": 953059,
                "addr:street:sym_ul": 21071,
                "phone": "+48 134463700",
                "email": "zst@zstjaslo.pl",
                "website": "http:\/\/www.zstjaslo.pl",
                "ref:regon": "371027158",
                "ref:vatin": "PL6851566549",
                "operator": "Powiat Jasielski",
                "operator:type": "government",
                "amenity": "school",
                "note": "Parent RSPO: 25908"
            }
        },
        {
            "id": 64588,
            "type": "Feature",
            "geometry": {
                "type": "Point",
                "coordinates": [
                    21.47088,
                    49.739830000000005
                ]
            },
            "properties": {
                "isced:level": "3",
                "ref:rspo": 64588,
                "official_name": "Bran\u017cowa Szko\u0142a I Stopnia nr 1 w Ja\u015ble",
                "name": "Bran\u017cowa Szko\u0142a I Stopnia nr 1 w Ja\u015ble",
                "addr:postcode": "38-200",
                "addr:city": "Jas\u0142o",
                "addr:street": "Stanis\u0142awa Staszica",
                "addr:housenumber": "30",
                "addr:city:simc": 953059,
                "addr:street:sym_ul": 21071,
                "phone": "+48 134463700",
                "email": "zst@zstjaslo.pl",
                "website": "http:\/\/www.zstjaslo.pl",
                "ref:regon": "371027112",
                "ref:vatin": "PL6851566549",
                "operator": "Powiat Jasielski",
                "operator:type": "government",
                "amenity": "school",
                "note": "Parent RSPO: 25908"
            }
        },
        {
            "id": 275096,
            "type": "Feature",
            "geometry": {
                "type": "Point",
                "coordinates": [
                    21.47088,
                    49.7398
                ]
            },
            "properties": {
                "isced:level": "3",
                "ref:rspo": 275096,
                "official_name": "Bran\u017cowa Szko\u0142a II Stopnia nr 1 w Ja\u015ble",
                "name": "Bran\u017cowa Szko\u0142a II Stopnia nr 1 w Ja\u015ble",
                "addr:postcode": "38-200",
                "addr:city": "Jas\u0142o",
                "addr:street": "Stanis\u0142awa Staszica",
                "addr:housenumber": "30",
                "addr:city:simc": 953059,
                "addr:street:sym_ul": 21071,
                "phone": "+48 134463700",
                "email": "zst@zstjaslo.pl",
                "website": "https:\/\/www.zstjaslo.pl\/",
                "ref:regon": "386568490",
                "ref:vatin": "PL6851566549",
                "operator": "Powiat Jasielski",
                "operator:type": "government",
                "amenity": "school",
                "note": "Parent RSPO: 25908"
            }
        },
        {
            "id": 22486,
            "type": "Feature",
            "geometry": {
                "type": "Point",
                "coordinates": [
                    21.46936,
                    49.73992
                ]
            },
            "properties": {
                "ref:rspo": 22486,
                "official_name": "Centrum Kszta\u0142cenia Zawodowego nr 1 w Ja\u015ble",
                "name": "Centrum Kszta\u0142cenia Zawodowego nr 1 w Ja\u015ble",
                "addr:postcode": "38-200",
                "addr:city": "Jas\u0142o",
                "addr:street": "Stanis\u0142awa Staszica",
                "addr:housenumber": "30D",
                "addr:city:simc": 953059,
                "addr:street:sym_ul": 21071,
                "phone": "+48 134462876",
                "email": "ckz@ckz1jaslo.pl",
                "website": "http:\/\/www.ckz1jaslo.pl",
                "ref:regon": "370512650",
                "ref:vatin": "PL6852338750",
                "operator": "Powiat Jasielski",
                "operator:type": "government",
                "fixme": "w zale\u017cno\u015bci od przedmiotu dzia\u0142alno\u015bci (np. amenity=training + training=*, amenity=dancing_school, amenity=language_school, amenity=music_school) albo amenity=school, amenity=college, albo landuse=education w zale\u017cno\u015bci od tego, jakie plac\u00f3wki wchodz\u0105 w sk\u0142ad zespo\u0142u. Sprawd\u017a, kiedy stosowa\u0107 amenity=* a kiedy landuse=education."
            }
        },
        {
            "id": 81518,
            "type": "Feature",
            "geometry": {
                "type": "Point",
                "coordinates": [
                    21.46829,
                    49.74053
                ]
            },
            "properties": {
                "ref:rspo": 81518,
                "official_name": "Niepubliczny O\u015brodek Edukacji w Ja\u015ble",
                "name": "Niepubliczny O\u015brodek Edukacji w Ja\u015ble",
                "addr:postcode": "38-200",
                "addr:city": "Jas\u0142o",
                "addr:street": "Dworcowa",
                "addr:housenumber": "12",
                "addr:city:simc": 953059,
                "addr:street:sym_ul": 4434,
                "phone": "+48 134405080",
                "email": "innovo@interia.pl",
                "website": "http:\/\/www.innovo.edu.pl\/",
                "ref:regon": "180909357",
                "ref:vatin": "PL6852276078",
                "operator": "\"Innovo\" Innowacje W Biznesie Sp\u00f3\u0142ka Z Ograniczon\u0105 Odpowiedzialno\u015bci\u0105",
                "operator:type": "private",
                "fixme": "w zale\u017cno\u015bci od przedmiotu dzia\u0142alno\u015bci (np. amenity=training + training=*, amenity=dancing_school, amenity=language_school, amenity=music_school)"
            }
        },
        {
            "id": 82775,
            "type": "Feature",
            "geometry": {
                "type": "Point",
                "coordinates": [
                    21.46892,
                    49.741
                ]
            },
            "properties": {
                "ref:rspo": 82775,
                "official_name": "O\u015brodek Szkolenia, Dokszta\u0142cania I Doskonalenia Zawodowego \"Madart\" w Ja\u015ble",
                "name": "O\u015brodek Szkolenia, Dokszta\u0142cania I Doskonalenia Zawodowego \"Madart\" w Ja\u015ble",
                "addr:postcode": "38-200",
                "addr:city": "Jas\u0142o",
                "addr:street": "Teofila Aleksandra Lenartowicza",
                "addr:housenumber": "9",
                "addr:door": "1",
                "addr:city:simc": 953059,
                "addr:street:sym_ul": 10813,
                "phone": "+48 134463591",
                "email": "biuro@madart.pl",
                "ref:regon": "180909890",
                "ref:vatin": "PL6852076362",
                "operator": "Madart Sp\u00f3\u0142ka Jawna W Likwidacji",
                "operator:type": "private",
                "fixme": "w zale\u017cno\u015bci od przedmiotu dzia\u0142alno\u015bci (np. amenity=training + training=*, amenity=dancing_school, amenity=language_school, amenity=music_school)"
            }
        },
        {
            "id": 74358,
            "type": "Feature",
            "geometry": {
                "type": "Point",
                "coordinates": [
                    21.47475,
                    49.74247
                ]
            },
            "properties": {
                "ref:rspo": 74358,
                "official_name": "Bajkowe Prywatne Przedszkole",
                "name": "Bajkowe Prywatne Przedszkole",
                "addr:postcode": "38-200",
                "addr:city": "Jas\u0142o",
                "addr:street": "Jana Kochanowskiego",
                "addr:housenumber": "6",
                "addr:city:simc": 953059,
                "addr:street:sym_ul": 8728,
                "phone": "+48 504174864",
                "email": "info@bajkoweprzedszkole.com",
                "ref:regon": "180908702",
                "operator": "Danuta Pociask",
                "operator:type": "private",
                "amenity": "kindergarten"
            }
        },
        {
            "id": 55771,
            "type": "Feature",
            "geometry": {
                "type": "Point",
                "coordinates": [
                    21.47506,
                    49.74272
                ]
            },
            "properties": {
                "ref:rspo": 55771,
                "official_name": "Stowarzyszenie Centrum Szkolenia Zawodowego w Gorlicach Przedstawicielstwo w Ja\u015ble",
                "name": "Stowarzyszenie Centrum Szkolenia Zawodowego w Gorlicach Przedstawicielstwo w Ja\u015ble",
                "addr:postcode": "38-200",
                "addr:city": "Jas\u0142o",
                "addr:street": "Stanis\u0142awa Wyspia\u0144skiego",
                "addr:housenumber": "8",
                "addr:city:simc": 953059,
                "addr:street:sym_ul": 25084,
                "phone": "+48 134464064",
                "email": "csz.jaslo@op.pl",
                "website": "http:\/\/www.jaslo.szkoleniazawodowe.com.pl",
                "ref:regon": "180901396",
                "ref:vatin": "PL7381000790",
                "operator": "Stowarzyszenie Centrum Szkolenia Zawodowego W Gorlicah",
                "operator:type": "ngo",
                "fixme": "w zale\u017cno\u015bci od przedmiotu dzia\u0142alno\u015bci (np. amenity=training + training=*, amenity=dancing_school, amenity=language_school, amenity=music_school)"
            }
        },
        {
            "id": 113582,
            "type": "Feature",
            "geometry": {
                "type": "Point",
                "coordinates": [
                    21.47506,
                    49.742689999999996
                ]
            },
            "properties": {
                "isced:level": "4",
                "ref:rspo": 113582,
                "official_name": "Niepubliczna Szko\u0142a Policealna w Ja\u015ble",
                "name": "Niepubliczna Szko\u0142a Policealna w Ja\u015ble",
                "addr:postcode": "38-200",
                "addr:city": "Jas\u0142o",
                "addr:street": "Stanis\u0142awa Wyspia\u0144skiego",
                "addr:housenumber": "8",
                "addr:city:simc": 953059,
                "addr:street:sym_ul": 25084,
                "phone": "+48 134485373",
                "email": "nspjaslo@op.pl",
                "website": "http:\/\/www.nspjaslo.pl",
                "ref:regon": "180962794",
                "ref:vatin": "PL7381276397",
                "operator": "Barbara Le\u015bkiewicz-Rzeszutek",
                "operator:type": "private",
                "amenity": "college"
            }
        },
        {
            "id": 30217,
            "type": "Feature",
            "geometry": {
                "type": "Point",
                "coordinates": [
                    21.47006,
                    49.74285
                ]
            },
            "properties": {
                "ref:rspo": 30217,
                "official_name": "Przedszkole Miejskie nr 10 w Ja\u015ble",
                "name": "Przedszkole Miejskie nr 10 w Ja\u015ble",
                "addr:postcode": "38-200",
                "addr:city": "Jas\u0142o",
                "addr:street": "J\u00f3zefa Ducala",
                "addr:housenumber": "3",
                "addr:city:simc": 953059,
                "addr:street:sym_ul": 48124,
                "phone": "+48 134463016",
                "email": "pm10@um.jaslo.pl",
                "website": "http:\/\/www.pm10jaslo.pl",
                "ref:regon": "370012500",
                "ref:vatin": "PL6851557303",
                "operator": "Miasto Jas\u0142o",
                "operator:type": "government",
                "amenity": "kindergarten"
            }
        },
        {
            "id": 267198,
            "type": "Feature",
            "geometry": {
                "type": "Point",
                "coordinates": [
                    21.4607,
                    49.74338
                ]
            },
            "properties": {
                "ref:rspo": 267198,
                "official_name": "Niepubliczne Przedszkole \"U Michalitek\"",
                "name": "Niepubliczne Przedszkole \"U Michalitek\"",
                "addr:postcode": "38-200",
                "addr:city": "Jas\u0142o",
                "addr:street": "Szkolna",
                "addr:housenumber": "9",
                "addr:city:simc": 953059,
                "addr:street:sym_ul": 21970,
                "phone": "+48 797907033",
                "email": "jasloprzedszkole@michalitki.pl",
                "website": "http:\/\/www.michalitki.pl",
                "ref:regon": "380003283",
                "operator": "Zgromadzenie Si\u00f3str \u015aw. Micha\u0142a Archanio\u0142a W Miejscu Piastowym",
                "operator:type": "religious",
                "amenity": "kindergarten"
            }
        },
        {
            "id": 30218,
            "type": "Feature",
            "geometry": {
                "type": "Point",
                "coordinates": [
                    21.45904,
                    49.74389
                ]
            },
            "properties": {
                "ref:rspo": 30218,
                "official_name": "Przedszkole Miejskie nr 11 w Ja\u015ble",
                "name": "Przedszkole Miejskie nr 11 w Ja\u015ble",
                "addr:postcode": "38-200",
                "addr:city": "Jas\u0142o",
                "addr:street": "W\u0142adys\u0142awa Sikorskiego",
                "addr:housenumber": "10",
                "addr:city:simc": 953059,
                "addr:street:sym_ul": 19914,
                "phone": "+48 134406140",
                "email": "przedszkole11_jaslo@op.pl",
                "website": "http:\/\/www.pm11jaslo.szkolnastrona.pl\/",
                "ref:regon": "370012516",
                "ref:vatin": "PL6851557295",
                "operator": "Miasto Jas\u0142o",
                "operator:type": "government",
                "amenity": "kindergarten"
            }
        },
        {
            "id": 22917,
            "type": "Feature",
            "geometry": {
                "type": "Point",
                "coordinates": [
                    21.47558,
                    49.74424
                ]
            },
            "properties": {
                "isced:level": "3",
                "ref:rspo": 22917,
                "official_name": "Ii Liceum Og\u00f3lnokszta\u0142c\u0105ce im. Pp\u0142k J\u00f3zefa Modrzejewskiego w Ja\u015ble",
                "name": "Ii Liceum Og\u00f3lnokszta\u0142c\u0105ce",
                "addr:postcode": "38-200",
                "addr:city": "Jas\u0142o",
                "addr:street": "Floria\u0144ska",
                "addr:housenumber": "24",
                "addr:city:simc": 953059,
                "addr:street:sym_ul": 5085,
                "phone": "+48 134463570",
                "email": "sekretariat@2lojaslo.pl",
                "website": "http:\/\/www.2lojaslo.pl",
                "ref:regon": "370007372",
                "ref:vatin": "PL6851598213",
                "operator": "Powiat Jasielski",
                "operator:type": "government",
                "amenity": "school"
            }
        },
        {
            "id": 30214,
            "type": "Feature",
            "geometry": {
                "type": "Point",
                "coordinates": [
                    21.47522,
                    49.74436
                ]
            },
            "properties": {
                "ref:rspo": 30214,
                "official_name": "Przedszkole Miejskie nr 3 w Ja\u015ble im. \u015aw Jana Paw\u0142a Ii",
                "name": "Przedszkole Miejskie nr 3 w Ja\u015ble",
                "addr:postcode": "38-200",
                "addr:city": "Jas\u0142o",
                "addr:street": "Floria\u0144ska",
                "addr:housenumber": "24A",
                "addr:city:simc": 953059,
                "addr:street:sym_ul": 5085,
                "phone": "+48 134463223",
                "email": "pm3jaslo@op.pl",
                "website": "http:\/\/przedszkole3jaslo.szkolnastrona.pl",
                "ref:regon": "370012433",
                "ref:vatin": "PL6851558633",
                "operator": "Miasto Jas\u0142o",
                "operator:type": "government",
                "amenity": "kindergarten"
            }
        },
        {
            "id": 30213,
            "type": "Feature",
            "geometry": {
                "type": "Point",
                "coordinates": [
                    21.46771,
                    49.74449
                ]
            },
            "properties": {
                "ref:rspo": 30213,
                "official_name": "Przedszkole Miejskie nr 2 w Ja\u015ble",
                "name": "Przedszkole Miejskie nr 2 w Ja\u015ble",
                "addr:postcode": "38-200",
                "addr:city": "Jas\u0142o",
                "addr:street": "Juliusza S\u0142owackiego",
                "addr:housenumber": "7",
                "addr:city:simc": 953059,
                "addr:street:sym_ul": 20291,
                "phone": "+48 134463433",
                "email": "przedszkole2@mojapoczta.net",
                "website": "http:\/\/przedszkole2jaslo.szkolnastrona.pl",
                "ref:regon": "370012410",
                "ref:vatin": "PL6851557349",
                "operator": "Miasto Jas\u0142o",
                "operator:type": "government",
                "amenity": "kindergarten"
            }
        },
        {
            "id": 61676,
            "type": "Feature",
            "geometry": {
                "type": "Point",
                "coordinates": [
                    21.47137,
                    49.74454
                ]
            },
            "properties": {
                "ref:rspo": 61676,
                "official_name": "Prywatna Szko\u0142a Muzyczna I St. w Ja\u015ble",
                "name": "Prywatna Szko\u0142a Muzyczna I St. w Ja\u015ble",
                "addr:postcode": "38-200",
                "addr:city": "Jas\u0142o",
                "addr:street": "Hugona Ko\u0142\u0142\u0105taja",
                "addr:housenumber": "12",
                "addr:city:simc": 953059,
                "addr:street:sym_ul": 9003,
                "email": "prsm@data.pl",
                "website": "http:\/\/www.prsm.edu.pl",
                "ref:regon": "180906620",
                "operator": "Leokadia Wr\u00f3bel",
                "operator:type": "private",
                "amenity": "music_school"
            }
        },
        {
            "id": 70500,
            "type": "Feature",
            "geometry": {
                "type": "Point",
                "coordinates": [
                    21.47137,
                    49.74451
                ]
            },
            "properties": {
                "ref:rspo": 70500,
                "official_name": "Pa\u0144stwowa Szko\u0142a Muzyczna I St. im. Witolda Lutos\u0142awskiego w Ja\u015ble",
                "name": "Pa\u0144stwowa Szko\u0142a Muzyczna I St.",
                "addr:postcode": "38-200",
                "addr:city": "Jas\u0142o",
                "addr:street": "Hugona Ko\u0142\u0142\u0105taja",
                "addr:housenumber": "12",
                "addr:city:simc": 953059,
                "addr:street:sym_ul": 9003,
                "phone": "+48 134464496",
                "email": "sekretariat@psmjaslo.pl",
                "website": "http:\/\/www.psmjaslo.pl",
                "ref:regon": "000282613",
                "operator": "Ministerstwo Kultury I Dziedzictwa Narodowego",
                "operator:type": "public",
                "amenity": "music_school"
            }
        },
        {
            "id": 84759,
            "type": "Feature",
            "geometry": {
                "type": "Point",
                "coordinates": [
                    21.47137,
                    49.74448
                ]
            },
            "properties": {
                "ref:rspo": 84759,
                "official_name": "Prywatna Szko\u0142a Muzyczna II St. w Ja\u015ble",
                "name": "Prywatna Szko\u0142a Muzyczna II St. w Ja\u015ble",
                "addr:postcode": "38-200",
                "addr:city": "Jas\u0142o",
                "addr:street": "Hugona Ko\u0142\u0142\u0105taja",
                "addr:housenumber": "12",
                "addr:city:simc": 953059,
                "addr:street:sym_ul": 9003,
                "email": "sekretariat@prsm.edu.pl",
                "website": "http:\/\/prsm.edu.pl",
                "ref:regon": "180910538",
                "operator": "Leokadia Wr\u00f3bel",
                "operator:type": "private",
                "amenity": "music_school"
            }
        },
        {
            "id": 82764,
            "type": "Feature",
            "geometry": {
                "type": "Point",
                "coordinates": [
                    21.47094,
                    49.7445499
                ]
            },
            "properties": {
                "ref:rspo": 82764,
                "official_name": "O\u015brodek Szkolenia Rzemios\u0142a Cechu Rzemios\u0142 R\u00f3\u017cnych w Ja\u015ble",
                "name": "O\u015brodek Szkolenia Rzemios\u0142a Cechu Rzemios\u0142 R\u00f3\u017cnych w Ja\u015ble",
                "addr:postcode": "38-200",
                "addr:city": "Jas\u0142o",
                "addr:street": "Tadeusza Czackiego",
                "addr:housenumber": "17",
                "addr:city:simc": 953059,
                "addr:street:sym_ul": 3221,
                "phone": "+48 134463259",
                "email": "cech@cechjaslo.pl",
                "website": "http:\/\/www.cechjaslo.pl",
                "ref:regon": "180910231",
                "ref:vatin": "PL6851747050",
                "operator": "Cech Rzemios\u0142 R\u00f3\u017cnych",
                "operator:type": "cooperative",
                "fixme": "w zale\u017cno\u015bci od przedmiotu dzia\u0142alno\u015bci (np. amenity=training + training=*, amenity=dancing_school, amenity=language_school, amenity=music_school)"
            }
        },
        {
            "id": 24620,
            "type": "Feature",
            "geometry": {
                "type": "Point",
                "coordinates": [
                    21.46955,
                    49.74469
                ]
            },
            "properties": {
                "ref:rspo": 24620,
                "official_name": "Poradnia Psychologiczno-Pedagogiczna w Ja\u015ble",
                "name": "Poradnia Psychologiczno-Pedagogiczna w Ja\u015ble",
                "addr:postcode": "38-200",
                "addr:city": "Jas\u0142o",
                "addr:street": "Juliusza S\u0142owackiego",
                "addr:housenumber": "6",
                "addr:city:simc": 953059,
                "addr:street:sym_ul": 20291,
                "phone": "+48 134464546",
                "email": "pppjaslo@wp.pl",
                "website": "http:\/\/www.pppjaslo.pl",
                "ref:regon": "371000797",
                "ref:vatin": "PL6851949948",
                "operator": "Powiat Jasielski",
                "operator:type": "government",
                "healthcare": "counselling",
                "counselling_type": "education",
                "fixme": "w zale\u017cno\u015bci od przedmiotu dzia\u0142alno\u015bci (np. healthcare=counselling + counselling_type=education albo healthcare=psychotherapist)"
            }
        },
        {
            "id": 39229,
            "type": "Feature",
            "geometry": {
                "type": "Point",
                "coordinates": [
                    21.47539,
                    49.74512
                ]
            },
            "properties": {
                "isced:level": "3",
                "ref:rspo": 39229,
                "official_name": "Liceum Og\u00f3lnokszta\u0142c\u0105ce dla Doros\u0142ych \"\u017bak\" w Ja\u015ble",
                "name": "Liceum Og\u00f3lnokszta\u0142c\u0105ce dla Doros\u0142ych \"\u017bak\" w Ja\u015ble",
                "addr:postcode": "38-200",
                "addr:city": "Jas\u0142o",
                "addr:street": "Floria\u0144ska",
                "addr:housenumber": "17\/14",
                "addr:city:simc": 953059,
                "addr:street:sym_ul": 5085,
                "phone": "+48 134462313",
                "email": "jaslo@zak.edu.pl",
                "website": "http:\/\/jaslo.zak.edu.pl",
                "ref:regon": "180901315",
                "ref:vatin": "PL7292597869",
                "operator": "Centrum Nauki I Biznesu \"\u017bak\" Sp\u00f3\u0142ka Z Ograniczon\u0105 Odpowiedzialno\u015bci\u0105",
                "operator:type": "private",
                "amenity": "school"
            }
        },
        {
            "id": 40142,
            "type": "Feature",
            "geometry": {
                "type": "Point",
                "coordinates": [
                    21.47539,
                    49.74509
                ]
            },
            "properties": {
                "isced:level": "4",
                "ref:rspo": 40142,
                "official_name": "Szko\u0142a Policealna Centrum Nauki I Biznesu \"\u017bak\" w Ja\u015ble",
                "name": "Szko\u0142a Policealna Centrum Nauki I Biznesu \"\u017bak\" w Ja\u015ble",
                "addr:postcode": "38-200",
                "addr:city": "Jas\u0142o",
                "addr:street": "Floria\u0144ska",
                "addr:housenumber": "17\/14",
                "addr:city:simc": 953059,
                "addr:street:sym_ul": 5085,
                "phone": "+48 134462313",
                "email": "jaslo@zak.edu.pl",
                "website": "http:\/\/jaslo.zak.edu.pl",
                "ref:regon": "180907418",
                "ref:vatin": "PL7292597869",
                "operator": "Centrum Nauki I Biznesu \"\u017bak\" Sp\u00f3\u0142ka Z Ograniczon\u0105 Odpowiedzialno\u015bci\u0105",
                "operator:type": "private",
                "amenity": "college"
            }
        },
        {
            "id": 40648,
            "type": "Feature",
            "geometry": {
                "type": "Point",
                "coordinates": [
                    21.47539,
                    49.74506
                ]
            },
            "properties": {
                "ref:rspo": 40648,
                "official_name": "O\u015brodek Szkoleniowy Centrum Nauki I Biznesu \"\u017bak\" w Ja\u015ble",
                "name": "O\u015brodek Szkoleniowy Centrum Nauki I Biznesu \"\u017bak\" w Ja\u015ble",
                "addr:postcode": "38-200",
                "addr:city": "Jas\u0142o",
                "addr:street": "Floria\u0144ska",
                "addr:housenumber": "17\/14",
                "addr:city:simc": 953059,
                "addr:street:sym_ul": 5085,
                "phone": "+48 134462313",
                "email": "jaslo@zak.edu.pl",
                "website": "http:\/\/jaslo.zak.edu.pl",
                "ref:regon": "180901321",
                "ref:vatin": "PL7292597869",
                "operator": "Centrum Nauki I Biznesu \"\u017bak\" Sp\u00f3\u0142ka Z Ograniczon\u0105 Odpowiedzialno\u015bci\u0105",
                "operator:type": "private",
                "fixme": "w zale\u017cno\u015bci od przedmiotu dzia\u0142alno\u015bci (np. amenity=training + training=*, amenity=dancing_school, amenity=language_school, amenity=music_school)"
            }
        },
        {
            "id": 122900,
            "type": "Feature",
            "geometry": {
                "type": "Point",
                "coordinates": [
                    21.47539,
                    49.74503
                ]
            },
            "properties": {
                "isced:level": "4",
                "ref:rspo": 122900,
                "official_name": "Szko\u0142a Policealna Opieki Medycznej \"\u017bak\" w Ja\u015ble",
                "name": "Szko\u0142a Policealna Opieki Medycznej \"\u017bak\" w Ja\u015ble",
                "addr:postcode": "38-200",
                "addr:city": "Jas\u0142o",
                "addr:street": "Floria\u0144ska",
                "addr:housenumber": "17\/14",
                "addr:city:simc": 953059,
                "addr:street:sym_ul": 5085,
                "phone": "+48 134462313",
                "email": "jaslo@zak.edu.pl",
                "website": "http:\/\/jaslo.zak.edu.pl",
                "ref:regon": "181100830",
                "ref:vatin": "PL7292597869",
                "operator": "Centrum Nauki I Biznesu \"\u017bak\" Sp\u00f3\u0142ka Z Ograniczon\u0105 Odpowiedzialno\u015bci\u0105",
                "operator:type": "private",
                "amenity": "college"
            }
        },
        {
            "id": 127228,
            "type": "Feature",
            "geometry": {
                "type": "Point",
                "coordinates": [
                    21.47539,
                    49.745
                ]
            },
            "properties": {
                "isced:level": "4",
                "ref:rspo": 127228,
                "official_name": "Szko\u0142a Policealna Medyczna \"\u017bak\" w Ja\u015ble",
                "name": "Szko\u0142a Policealna Medyczna \"\u017bak\" w Ja\u015ble",
                "addr:postcode": "38-200",
                "addr:city": "Jas\u0142o",
                "addr:street": "Floria\u0144ska",
                "addr:housenumber": "17\/14",
                "addr:city:simc": 953059,
                "addr:street:sym_ul": 5085,
                "phone": "+48 134462313",
                "email": "jaslo@zak.edu.pl",
                "website": "http:\/\/www.jaslo.zak.edu.pl",
                "ref:regon": "361232400",
                "ref:vatin": "PL7292597869",
                "operator": "Centrum Nauki I Biznesu \"\u017bak\" Sp\u00f3\u0142ka Z Ograniczon\u0105 Odpowiedzialno\u015bci\u0105",
                "operator:type": "private",
                "amenity": "college"
            }
        },
        {
            "id": 28625,
            "type": "Feature",
            "geometry": {
                "type": "Point",
                "coordinates": [
                    21.47036,
                    49.7455
                ]
            },
            "properties": {
                "isced:level": "3",
                "ref:rspo": 28625,
                "official_name": "I Liceum Og\u00f3lnokszta\u0142c\u0105ce im. Kr\u00f3la Stanis\u0142awa Leszczy\u0144skiego w Ja\u015ble",
                "name": "I Liceum Og\u00f3lnokszta\u0142c\u0105ce",
                "addr:postcode": "38-200",
                "addr:city": "Jas\u0142o",
                "addr:street": "Tadeusza Czackiego",
                "addr:housenumber": "4",
                "addr:city:simc": 953059,
                "addr:street:sym_ul": 3221,
                "phone": "+48 134463464",
                "email": "1lojaslo@interia.pl",
                "website": "http:\/\/www.1lojaslo.pl",
                "ref:regon": "000229257",
                "ref:vatin": "PL6851566609",
                "operator": "Powiat Jasielski",
                "operator:type": "government",
                "amenity": "school"
            }
        },
        {
            "id": 30212,
            "type": "Feature",
            "geometry": {
                "type": "Point",
                "coordinates": [
                    21.473510742188,
                    49.745548248291
                ]
            },
            "properties": {
                "ref:rspo": 30212,
                "official_name": "Przedszkole Miejskie nr 1 w Ja\u015ble",
                "name": "Przedszkole Miejskie nr 1 w Ja\u015ble",
                "addr:postcode": "38-200",
                "addr:city": "Jas\u0142o",
                "addr:street": "Nowa",
                "addr:housenumber": "14",
                "addr:city:simc": 953059,
                "addr:street:sym_ul": 14330,
                "phone": "+48 134463785",
                "email": "pm1jaslo@gmail.com",
                "website": "http:\/\/www.pm1jaslo.szkolnastrona.pl",
                "ref:regon": "370012404",
                "ref:vatin": "PL6851557355",
                "operator": "Miasto Jas\u0142o",
                "operator:type": "government",
                "amenity": "kindergarten"
            }
        },
        {
            "id": 275101,
            "type": "Feature",
            "geometry": {
                "type": "Point",
                "coordinates": [
                    21.4605,
                    49.7457
                ]
            },
            "properties": {
                "isced:level": "3",
                "ref:rspo": 275101,
                "official_name": "Bran\u017cowa Szko\u0142a II Stopnia nr 3 w Ja\u015ble",
                "name": "Bran\u017cowa Szko\u0142a II Stopnia nr 3 w Ja\u015ble",
                "addr:postcode": "38-200",
                "addr:city": "Jas\u0142o",
                "addr:street": "Szkolna",
                "addr:housenumber": "21 a",
                "addr:city:simc": 953059,
                "addr:street:sym_ul": 21970,
                "phone": "+48 134463349",
                "email": "sekretariat@zsb.jaslo.pl",
                "website": "http:\/\/zsb.jaslo.pl\/",
                "ref:regon": "386569927",
                "ref:vatin": "PL6851557390",
                "operator": "Powiat Jasielski",
                "operator:type": "government",
                "amenity": "school",
                "note": "Parent RSPO: 26346"
            }
        },
        {
            "id": 23768,
            "type": "Feature",
            "geometry": {
                "type": "Point",
                "coordinates": [
                    21.47254,
                    49.74591
                ]
            },
            "properties": {
                "ref:rspo": 23768,
                "official_name": "Powiatowy O\u015brodek Edukacji Nauczycieli w Ja\u015ble",
                "name": "Powiatowy O\u015brodek Edukacji Nauczycieli w Ja\u015ble",
                "addr:postcode": "38-200",
                "addr:city": "Jas\u0142o",
                "addr:street": "Soko\u0142a",
                "addr:housenumber": "6",
                "addr:city:simc": 953059,
                "addr:street:sym_ul": 20495,
                "phone": "+48 134462426",
                "email": "poen@poczta.onet.pl",
                "website": "http:\/\/www.poen.edu.pl",
                "ref:regon": "371164866",
                "ref:vatin": "PL6852127272",
                "operator": "Powiat Jasielski",
                "operator:type": "government",
                "amenity": "training"
            }
        },
        {
            "id": 26208,
            "type": "Feature",
            "geometry": {
                "type": "Point",
                "coordinates": [
                    21.47254,
                    49.74588
                ]
            },
            "properties": {
                "ref:rspo": 26208,
                "official_name": "Zesp\u00f3\u0142 Szk\u00f3\u0142 nr 4 w Ja\u015ble",
                "name": "Zesp\u00f3\u0142 Szk\u00f3\u0142 nr 4 w Ja\u015ble",
                "addr:postcode": "38-200",
                "addr:city": "Jas\u0142o",
                "addr:street": "Soko\u0142a",
                "addr:housenumber": "6",
                "addr:city:simc": 953059,
                "addr:street:sym_ul": 20495,
                "phone": "+48 134464403",
                "email": "sekretariat@ekonomik.org.pl",
                "website": "http:\/\/www.ekonomik.org.pl",
                "ref:regon": "000705628",
                "ref:vatin": "PL6851557527",
                "operator": "Powiat Jasielski",
                "operator:type": "government",
                "landuse": "education",
                "fixme": "amenity=school, amenity=college albo landuse=education w zale\u017cno\u015bci od tego, jakie plac\u00f3wki wchodz\u0105 w sk\u0142ad zespo\u0142u. Sprawd\u017a, kiedy stosowa\u0107 amenity=* a kiedy landuse=education.",
                "note": "Children RSPO: 64661;64868;72547"
            }
        },
        {
            "id": 64661,
            "type": "Feature",
            "geometry": {
                "type": "Point",
                "coordinates": [
                    21.47254,
                    49.745850000000004
                ]
            },
            "properties": {
                "isced:level": "3",
                "ref:rspo": 64661,
                "official_name": "Iv Liceum Og\u00f3lnokszta\u0142c\u0105ce z Oddzia\u0142ami Integracyjnymi im. Jana Paw\u0142a II w Ja\u015ble",
                "name": "Iv Liceum Og\u00f3lnokszta\u0142c\u0105ce z Oddzia\u0142ami Integracyjnymi",
                "addr:postcode": "38-200",
                "addr:city": "Jas\u0142o",
                "addr:street": "Soko\u0142a",
                "addr:housenumber": "6",
                "addr:city:simc": 953059,
                "addr:street:sym_ul": 20495,
                "phone": "+48 134464403",
                "email": "sekretariat@ekonomik.org.pl",
                "website": "http:\/\/www.ekonomik.org.pl",
                "ref:regon": "371018685",
                "ref:vatin": "PL6851557527",
                "operator": "Powiat Jasielski",
                "operator:type": "government",
                "amenity": "school",
                "note": "Parent RSPO: 26208"
            }
        },
        {
            "id": 64868,
            "type": "Feature",
            "geometry": {
                "type": "Point",
                "coordinates": [
                    21.47254,
                    49.74582
                ]
            },
            "properties": {
                "isced:level": "3",
                "ref:rspo": 64868,
                "official_name": "Technikum nr 4 z Oddzia\u0142ami Integracyjnymi im. Jana Paw\u0142a II w Ja\u015ble",
                "name": "Technikum nr 4 z Oddzia\u0142ami Integracyjnymi",
                "addr:postcode": "38-200",
                "addr:city": "Jas\u0142o",
                "addr:street": "Soko\u0142a",
                "addr:housenumber": "6",
                "addr:city:simc": 953059,
                "addr:street:sym_ul": 20495,
                "phone": "+48 134464403",
                "email": "sekretariat@ekonomik.org.pl",
                "website": "http:\/\/ekonomik.org.pl",
                "ref:regon": "371102173",
                "ref:vatin": "PL6851557527",
                "operator": "Powiat Jasielski",
                "operator:type": "government",
                "amenity": "school",
                "note": "Parent RSPO: 26208"
            }
        },
        {
            "id": 72547,
            "type": "Feature",
            "geometry": {
                "type": "Point",
                "coordinates": [
                    21.47254,
                    49.74579
                ]
            },
            "properties": {
                "isced:level": "3",
                "ref:rspo": 72547,
                "official_name": "Bran\u017cowa Szko\u0142a I Stopnia nr 4 im. Jana Paw\u0142a II w Ja\u015ble",
                "name": "Bran\u017cowa Szko\u0142a I Stopnia nr 4",
                "addr:postcode": "38-200",
                "addr:city": "Jas\u0142o",
                "addr:street": "Soko\u0142a",
                "addr:housenumber": "6",
                "addr:city:simc": 953059,
                "addr:street:sym_ul": 20495,
                "phone": "+48 134464403",
                "email": "sekretariat@ekonomik.org.pl",
                "website": "http:\/\/www.ekonomik.org.pl",
                "ref:regon": "371018679",
                "ref:vatin": "PL6851557527",
                "operator": "Powiat Jasielski",
                "operator:type": "government",
                "amenity": "school",
                "note": "Parent RSPO: 26208"
            }
        },
        {
            "id": 25363,
            "type": "Feature",
            "geometry": {
                "type": "Point",
                "coordinates": [
                    21.47787,
                    49.74604
                ]
            },
            "properties": {
                "ref:rspo": 25363,
                "official_name": "M\u0142odzie\u017cowy Dom Kultury w Ja\u015ble",
                "name": "M\u0142odzie\u017cowy Dom Kultury w Ja\u015ble",
                "addr:postcode": "38-200",
                "addr:city": "Jas\u0142o",
                "addr:street": "Jana Paw\u0142a II",
                "addr:housenumber": "8A",
                "addr:city:simc": 953059,
                "addr:street:sym_ul": 7123,
                "phone": "+48 134465925",
                "email": "mdkjaslo@o2.pl",
                "website": "http:\/\/www.mdkjaslo.pl",
                "ref:regon": "370014930",
                "ref:vatin": "PL6851533455",
                "operator": "Powiat Jasielski",
                "operator:type": "government",
                "amenity": "community_centre",
                "community_centre:for": "juvenile"
            }
        },
        {
            "id": 26346,
            "type": "Feature",
            "geometry": {
                "type": "Point",
                "coordinates": [
                    21.46073,
                    49.74612
                ]
            },
            "properties": {
                "ref:rspo": 26346,
                "official_name": "Zesp\u00f3\u0142 Szk\u00f3\u0142 Budowlanych im. Kr\u00f3la Kazimierza Wielkiego w Ja\u015ble",
                "name": "Zesp\u00f3\u0142 Szk\u00f3\u0142 Budowlanych",
                "addr:postcode": "38-200",
                "addr:city": "Jas\u0142o",
                "addr:street": "Szkolna",
                "addr:housenumber": "21A",
                "addr:city:simc": 953059,
                "addr:street:sym_ul": 21970,
                "phone": "+48 134463349",
                "email": "sekretariat@zsb.jaslo.pl",
                "website": "http:\/\/zsb.jaslo.pl",
                "ref:regon": "000183302",
                "ref:vatin": "PL6851557390",
                "operator": "Powiat Jasielski",
                "operator:type": "government",
                "landuse": "education",
                "fixme": "amenity=school, amenity=college albo landuse=education w zale\u017cno\u015bci od tego, jakie plac\u00f3wki wchodz\u0105 w sk\u0142ad zespo\u0142u. Sprawd\u017a, kiedy stosowa\u0107 amenity=* a kiedy landuse=education.",
                "note": "Children RSPO: 58524;58543;275101"
            }
        },
        {
            "id": 58524,
            "type": "Feature",
            "geometry": {
                "type": "Point",
                "coordinates": [
                    21.46073,
                    49.746089999999995
                ]
            },
            "properties": {
                "isced:level": "3",
                "ref:rspo": 58524,
                "official_name": "Technikum nr 5 w Ja\u015ble",
                "name": "Technikum nr 5 w Ja\u015ble",
                "addr:postcode": "38-200",
                "addr:city": "Jas\u0142o",
                "addr:street": "Szkolna",
                "addr:housenumber": "21A",
                "addr:city:simc": 953059,
                "addr:street:sym_ul": 21970,
                "phone": "+48 134463349",
                "email": "sekretariat@zsb.jaslo.pl",
                "website": "http:\/\/www.zsb.jaslo.pl",
                "ref:regon": "371013943",
                "ref:vatin": "PL6851557390",
                "operator": "Powiat Jasielski",
                "operator:type": "government",
                "amenity": "school",
                "note": "Parent RSPO: 26346"
            }
        },
        {
            "id": 58543,
            "type": "Feature",
            "geometry": {
                "type": "Point",
                "coordinates": [
                    21.46073,
                    49.74606
                ]
            },
            "properties": {
                "isced:level": "3",
                "ref:rspo": 58543,
                "official_name": "Bran\u017cowa Szko\u0142a I Stopnia nr 5 w Ja\u015ble",
                "name": "Bran\u017cowa Szko\u0142a I Stopnia nr 5 w Ja\u015ble",
                "addr:postcode": "38-200",
                "addr:city": "Jas\u0142o",
                "addr:street": "Szkolna",
                "addr:housenumber": "21A",
                "addr:city:simc": 953059,
                "addr:street:sym_ul": 21970,
                "phone": "+48 134463349",
                "email": "sekretariat@zsb.jaslo.pl",
                "website": "http:\/\/www.zsb.jaslo.pl",
                "ref:regon": "371013920",
                "ref:vatin": "PL6851557390",
                "operator": "Powiat Jasielski",
                "operator:type": "government",
                "amenity": "school",
                "note": "Parent RSPO: 26346"
            }
        },
        {
            "id": 83598,
            "type": "Feature",
            "geometry": {
                "type": "Point",
                "coordinates": [
                    21.47131,
                    49.74612
                ]
            },
            "properties": {
                "isced:level": "1;2",
                "ref:rspo": 83598,
                "official_name": "Szko\u0142a Podstawowa nr 2 z Oddzia\u0142ami Dwuj\u0119zycznymi w Ja\u015ble",
                "name": "Szko\u0142a Podstawowa nr 2 z Oddzia\u0142ami Dwuj\u0119zycznymi w Ja\u015ble",
                "addr:postcode": "38-200",
                "addr:city": "Jas\u0142o",
                "addr:street": "Tadeusza Czackiego",
                "addr:housenumber": "2",
                "addr:city:simc": 953059,
                "addr:street:sym_ul": 3221,
                "phone": "+48 134463674",
                "email": "sp2_jaslo@o2.pl",
                "website": "http:\/\/www.sp2jaslo.pl",
                "ref:regon": "001231664",
                "ref:vatin": "PL6851647420",
                "operator": "Miasto Jas\u0142o",
                "operator:type": "government",
                "amenity": "school"
            }
        },
        {
            "id": 82765,
            "type": "Feature",
            "geometry": {
                "type": "Point",
                "coordinates": [
                    21.47468,
                    49.74618
                ]
            },
            "properties": {
                "ref:rspo": 82765,
                "official_name": "O\u015brodek Szkoleniowy \"Edukator\" Sp\u00f3\u0142ka Zo.o. w Ja\u015ble",
                "name": "O\u015brodek Szkoleniowy \"Edukator\" Sp\u00f3\u0142ka Zo.o. w Ja\u015ble",
                "addr:postcode": "38-200",
                "addr:city": "Jas\u0142o",
                "addr:street": "Igielna",
                "addr:housenumber": "9",
                "addr:city:simc": 953059,
                "addr:street:sym_ul": 6856,
                "phone": "+48 134485789",
                "email": "edukator@edukator-jaslo.pl",
                "website": "http:\/\/www.edukator-jaslo.pl",
                "ref:regon": "180910248",
                "ref:vatin": "PL6851556321",
                "operator": "\"Edukator\" Sp\u00f3\u0142ka Z Ograniczon\u0105 Odpowiedzialno\u015bci\u0105",
                "operator:type": "private",
                "fixme": "w zale\u017cno\u015bci od przedmiotu dzia\u0142alno\u015bci (np. amenity=training + training=*, amenity=dancing_school, amenity=language_school, amenity=music_school)"
            }
        },
        {
            "id": 128399,
            "type": "Feature",
            "geometry": {
                "type": "Point",
                "coordinates": [
                    21.4723599,
                    49.74636
                ]
            },
            "properties": {
                "ref:rspo": 128399,
                "official_name": "Pedagogiczna Biblioteka Wojew\u00f3dzka w Kro\u015bnie Filia w Ja\u015ble",
                "name": "Pedagogiczna Biblioteka Wojew\u00f3dzka w Kro\u015bnie Filia w Ja\u015ble",
                "addr:postcode": "38-200",
                "addr:city": "Jas\u0142o",
                "addr:street": "Plac \u017bwirki i Wigury",
                "addr:housenumber": "9",
                "addr:city:simc": 953059,
                "addr:street:sym_ul": 26607,
                "phone": "+48 134463247",
                "email": "jaslo@pbw.org.pl",
                "ref:regon": "402045900",
                "operator": "Wojew\u00f3dztwo Podkarpackie",
                "operator:type": "government",
                "amenity": "library",
                "note": "Parent RSPO: 92374"
            }
        },
        {
            "id": 44495,
            "type": "Feature",
            "geometry": {
                "type": "Point",
                "coordinates": [
                    21.48302,
                    49.74694
                ]
            },
            "properties": {
                "ref:rspo": 44495,
                "official_name": "Specjalny O\u015bodek Szkolno-Wychowawczy w Ja\u015ble",
                "name": "Specjalny O\u015bodek Szkolno-Wychowawczy w Ja\u015ble",
                "addr:postcode": "38-200",
                "addr:city": "Jas\u0142o",
                "addr:street": "Ksi\u0119dza Piotra Skargi",
                "addr:housenumber": "47",
                "addr:city:simc": 953059,
                "addr:street:sym_ul": 20010,
                "phone": "+48 134463467",
                "email": "soswjaslo@interia.pl",
                "website": "http:\/\/www.soswjaslo.pl",
                "ref:regon": "000183093",
                "ref:vatin": "PL6851643333",
                "operator": "Powiat Jasielski",
                "operator:type": "government",
                "amenity": "school",
                "note": "Children RSPO: 82773;82774;131713"
            }
        },
        {
            "id": 82773,
            "type": "Feature",
            "geometry": {
                "type": "Point",
                "coordinates": [
                    21.48302,
                    49.74691
                ]
            },
            "properties": {
                "isced:level": "1;2",
                "ref:rspo": 82773,
                "official_name": "Szko\u0142a Podstawowa nr 5 w Ja\u015ble",
                "name": "Szko\u0142a Podstawowa nr 5 w Ja\u015ble",
                "addr:postcode": "38-200",
                "addr:city": "Jas\u0142o",
                "addr:street": "Ksi\u0119dza Piotra Skargi",
                "addr:housenumber": "47",
                "addr:city:simc": 953059,
                "addr:street:sym_ul": 20010,
                "phone": "+48 134463467",
                "email": "soswjaslo@interia.pl",
                "website": "http:\/\/www.soswjaslo.pl",
                "ref:regon": "000932235",
                "ref:vatin": "PL6851643327",
                "operator": "Powiat Jasielski",
                "operator:type": "government",
                "amenity": "school",
                "note": "Parent RSPO: 44495"
            }
        },
        {
            "id": 82774,
            "type": "Feature",
            "geometry": {
                "type": "Point",
                "coordinates": [
                    21.48302,
                    49.746880000000004
                ]
            },
            "properties": {
                "ref:rspo": 82774,
                "official_name": "Szko\u0142a Specjalna Przysposabiaj\u0105ca do Pracy w Ja\u015ble",
                "name": "Szko\u0142a Specjalna Przysposabiaj\u0105ca do Pracy w Ja\u015ble",
                "addr:postcode": "38-200",
                "addr:city": "Jas\u0142o",
                "addr:street": "Ksi\u0119dza Piotra Skargi",
                "addr:housenumber": "47",
                "addr:city:simc": 953059,
                "addr:street:sym_ul": 20010,
                "phone": "+48 134463467",
                "email": "soswjaslo@interia.pl",
                "website": "http:\/\/www.soswjaslo.pl",
                "ref:regon": "180361735",
                "ref:vatin": "PL6851643333",
                "operator": "Powiat Jasielski",
                "operator:type": "government",
                "amenity": "school",
                "note": "Parent RSPO: 44495"
            }
        },
        {
            "id": 131713,
            "type": "Feature",
            "geometry": {
                "type": "Point",
                "coordinates": [
                    21.48302,
                    49.74685
                ]
            },
            "properties": {
                "ref:rspo": 131713,
                "official_name": "Przedszkole Specjalne nr 16 w Ja\u015ble",
                "name": "Przedszkole Specjalne nr 16 w Ja\u015ble",
                "addr:postcode": "38-200",
                "addr:city": "Jas\u0142o",
                "addr:street": "Ksi\u0119dza Piotra Skargi",
                "addr:housenumber": "47",
                "addr:city:simc": 953059,
                "addr:street:sym_ul": 20010,
                "phone": "+48 134463467",
                "email": "soswjaslo@interia.pl",
                "website": "http:\/\/www.soswjaslo.pl",
                "ref:regon": "365332860",
                "operator": "Powiat Jasielski",
                "operator:type": "government",
                "amenity": "kindergarten",
                "note": "Parent RSPO: 44495"
            }
        },
        {
            "id": 15577,
            "type": "Feature",
            "geometry": {
                "type": "Point",
                "coordinates": [
                    21.4615915,
                    49.7470914
                ]
            },
            "properties": {
                "ref:rspo": 15577,
                "official_name": "Zesp\u00f3\u0142 Szk\u00f3\u0142 Miejskich nr 3 w Ja\u015ble",
                "name": "Zesp\u00f3\u0142 Szk\u00f3\u0142 Miejskich nr 3 w Ja\u015ble",
                "addr:postcode": "38-200",
                "addr:city": "Jas\u0142o",
                "addr:street": "Szkolna",
                "addr:housenumber": "38",
                "addr:city:simc": 953059,
                "addr:street:sym_ul": 21970,
                "phone": "+48 134465885",
                "email": "sp12@zsm3jaslo.pl",
                "website": "http:\/\/www.zsm3jaslo.pl",
                "ref:regon": "180255861",
                "ref:vatin": "PL6852227915",
                "operator": "Miasto Jas\u0142o",
                "operator:type": "government",
                "landuse": "education",
                "fixme": "amenity=school, amenity=college albo landuse=education w zale\u017cno\u015bci od tego, jakie plac\u00f3wki wchodz\u0105 w sk\u0142ad zespo\u0142u. Sprawd\u017a, kiedy stosowa\u0107 amenity=* a kiedy landuse=education.",
                "note": "Children RSPO: 30216;48955"
            }
        },
        {
            "id": 30216,
            "type": "Feature",
            "geometry": {
                "type": "Point",
                "coordinates": [
                    21.4615915,
                    49.7470614
                ]
            },
            "properties": {
                "ref:rspo": 30216,
                "official_name": "Przedszkole Miejskie nr 9 z Oddzia\u0142ami Specjalnymi I Oddzia\u0142ami Integracyjnymi w Ja\u015ble w Zespole Szk\u00f3\u0142 Miejskich nr 3 w Ja\u015ble",
                "name": "Przedszkole Miejskie nr 9 z Oddzia\u0142ami Specjalnymi I Oddzia\u0142ami Integracyjnymi w Ja\u015ble w Zespole Szk\u00f3\u0142 Miejskich nr 3 w Ja\u015ble",
                "addr:postcode": "38-200",
                "addr:city": "Jas\u0142o",
                "addr:street": "Szkolna",
                "addr:housenumber": "38",
                "addr:city:simc": 953059,
                "addr:street:sym_ul": 21970,
                "phone": "+48 134480563",
                "email": "sp12@zsm3jaslo.pl",
                "website": "http:\/\/zsm3jaslo.pl\/",
                "ref:regon": "370012491",
                "ref:vatin": "PL6851557326",
                "operator": "Miasto Jas\u0142o",
                "operator:type": "government",
                "amenity": "kindergarten",
                "note": "Parent RSPO: 15577"
            }
        },
        {
            "id": 48955,
            "type": "Feature",
            "geometry": {
                "type": "Point",
                "coordinates": [
                    21.4615915,
                    49.747031400000004
                ]
            },
            "properties": {
                "isced:level": "1;2",
                "ref:rspo": 48955,
                "official_name": "Szko\u0142a Podstawowa nr 12 z Oddzia\u0142ami Integracyjnymi im. Ignacego \u0141ukasiewicza w Ja\u015ble w Zespole Szk\u00f3\u0142 Miejskich nr 3 w Ja\u015ble",
                "name": "Szko\u0142a Podstawowa nr 12 z Oddzia\u0142ami Integracyjnymi",
                "addr:postcode": "38-200",
                "addr:city": "Jas\u0142o",
                "addr:street": "Szkolna",
                "addr:housenumber": "38",
                "addr:city:simc": 953059,
                "addr:street:sym_ul": 21970,
                "phone": "+48 134465885",
                "email": "sp12@zsm3jaslo.pl",
                "website": "http:\/\/zsm3jaslo.pl\/",
                "ref:regon": "180255878",
                "operator": "Miasto Jas\u0142o",
                "operator:type": "government",
                "amenity": "school",
                "note": "Parent RSPO: 15577"
            }
        },
        {
            "id": 49292,
            "type": "Feature",
            "geometry": {
                "type": "Point",
                "coordinates": [
                    21.47849,
                    49.74726
                ]
            },
            "properties": {
                "isced:level": "1;2",
                "ref:rspo": 49292,
                "official_name": "Szko\u0142a Podstawowa nr 1 w Ja\u015ble",
                "name": "Szko\u0142a Podstawowa nr 1 w Ja\u015ble",
                "addr:postcode": "38-200",
                "addr:city": "Jas\u0142o",
                "addr:street": "Ksi\u0119dza Piotra Skargi",
                "addr:housenumber": "10",
                "addr:city:simc": 953059,
                "addr:street:sym_ul": 20010,
                "phone": "+48 134463754",
                "email": "sekretariatzsm4@gmail.com",
                "website": "http:\/\/sp1-jaslo.edu.pl\/",
                "ref:regon": "001231658",
                "operator": "Miasto Jas\u0142o",
                "operator:type": "government",
                "amenity": "school"
            }
        },
        {
            "id": 81435,
            "type": "Feature",
            "geometry": {
                "type": "Point",
                "coordinates": [
                    21.46087,
                    49.74731
                ]
            },
            "properties": {
                "ref:rspo": 81435,
                "official_name": "Zesp\u00f3\u0142 Szk\u00f3\u0142 nr 3 im. Stanis\u0142awa Paw\u0142owskiego w Ja\u015ble",
                "name": "Zesp\u00f3\u0142 Szk\u00f3\u0142 nr 3",
                "addr:postcode": "38-200",
                "addr:city": "Jas\u0142o",
                "addr:street": "Szkolna",
                "addr:housenumber": "23",
                "addr:city:simc": 953059,
                "addr:street:sym_ul": 21970,
                "phone": "+48 134483542",
                "email": "sekretariat@zs3jaslo.pl",
                "website": "http:\/\/www.zs3jaslo.pl",
                "ref:regon": "000182515",
                "ref:vatin": "PL6851576140",
                "operator": "Powiat Jasielski",
                "operator:type": "government",
                "landuse": "education",
                "fixme": "amenity=school, amenity=college albo landuse=education w zale\u017cno\u015bci od tego, jakie plac\u00f3wki wchodz\u0105 w sk\u0142ad zespo\u0142u. Sprawd\u017a, kiedy stosowa\u0107 amenity=* a kiedy landuse=education.",
                "note": "Children RSPO: 87649;133001;266387"
            }
        },
        {
            "id": 87649,
            "type": "Feature",
            "geometry": {
                "type": "Point",
                "coordinates": [
                    21.46087,
                    49.747279999999996
                ]
            },
            "properties": {
                "isced:level": "3",
                "ref:rspo": 87649,
                "official_name": "Technikum nr 3 w Ja\u015ble",
                "name": "Technikum nr 3 w Ja\u015ble",
                "addr:postcode": "38-200",
                "addr:city": "Jas\u0142o",
                "addr:street": "Szkolna",
                "addr:housenumber": "23",
                "addr:city:simc": 953059,
                "addr:street:sym_ul": 21970,
                "phone": "+48 134483542",
                "email": "sekretariat@zs3jaslo.pl",
                "website": "http:\/\/www.zs3jaslo.pl",
                "ref:regon": "371101890",
                "ref:vatin": "PL6851576140",
                "operator": "Powiat Jasielski",
                "operator:type": "government",
                "amenity": "school",
                "note": "Parent RSPO: 81435"
            }
        },
        {
            "id": 133001,
            "type": "Feature",
            "geometry": {
                "type": "Point",
                "coordinates": [
                    21.46087,
                    49.74725
                ]
            },
            "properties": {
                "isced:level": "3",
                "ref:rspo": 133001,
                "official_name": "Bran\u017cowa Szko\u0142a I Stopnia nr 3 w Ja\u015ble",
                "name": "Bran\u017cowa Szko\u0142a I Stopnia nr 3 w Ja\u015ble",
                "addr:postcode": "38-200",
                "addr:city": "Jas\u0142o",
                "addr:street": "Szkolna",
                "addr:housenumber": "23",
                "addr:city:simc": 953059,
                "addr:street:sym_ul": 21970,
                "phone": "+48 134483542",
                "email": "sekretariat@zs3jaslo.pl",
                "website": "http:\/\/www.zs3jaslo.pl",
                "ref:regon": "371018024",
                "ref:vatin": "PL6851576140",
                "operator": "Powiat Jasielski",
                "operator:type": "government",
                "amenity": "school",
                "note": "Parent RSPO: 81435"
            }
        },
        {
            "id": 266387,
            "type": "Feature",
            "geometry": {
                "type": "Point",
                "coordinates": [
                    21.46087,
                    49.74722
                ]
            },
            "properties": {
                "isced:level": "3",
                "ref:rspo": 266387,
                "official_name": "Liceum Og\u00f3lnokszta\u0142c\u0105ce dla Doros\u0142ych w Ja\u015ble",
                "name": "Liceum Og\u00f3lnokszta\u0142c\u0105ce dla Doros\u0142ych w Ja\u015ble",
                "addr:postcode": "38-200",
                "addr:city": "Jas\u0142o",
                "addr:street": "Szkolna",
                "addr:housenumber": "23",
                "addr:city:simc": 953059,
                "addr:street:sym_ul": 21970,
                "phone": "+48 134483542",
                "email": "sekretariat@zs3jaslo.pl",
                "website": "http:\/\/www.zs3jaslo.pl",
                "ref:regon": "369465173",
                "operator": "Powiat Jasielski",
                "operator:type": "government",
                "amenity": "school",
                "note": "Parent RSPO: 81435"
            }
        },
        {
            "id": 274384,
            "type": "Feature",
            "geometry": {
                "type": "Point",
                "coordinates": [
                    21.4962,
                    49.74836
                ]
            },
            "properties": {
                "ref:rspo": 274384,
                "official_name": "Niepubliczne Przedszkole - Akademia Ma\u0142ego Geniusza",
                "name": "Niepubliczne Przedszkole - Akademia Ma\u0142ego Geniusza",
                "addr:postcode": "38-200",
                "addr:city": "Jas\u0142o",
                "addr:street": "Towarowa",
                "addr:housenumber": "29A",
                "addr:city:simc": 953059,
                "addr:street:sym_ul": 22907,
                "email": "jaslo.akademiageniusza@gmail.com",
                "ref:regon": "385666031",
                "operator": "Paula Ostrowska-Baran",
                "operator:type": "private",
                "amenity": "kindergarten"
            }
        },
        {
            "id": 43536,
            "type": "Feature",
            "geometry": {
                "type": "Point",
                "coordinates": [
                    21.47052,
                    49.74845
                ]
            },
            "properties": {
                "ref:rspo": 43536,
                "official_name": "Prywatne Kubusiowe Przedszkole",
                "name": "Prywatne Kubusiowe Przedszkole",
                "addr:postcode": "38-200",
                "addr:city": "Jas\u0142o",
                "addr:street": "W\u0142adys\u0142awa Jagie\u0142\u0142y",
                "addr:housenumber": "8",
                "addr:city:simc": 953059,
                "addr:street:sym_ul": 24494,
                "phone": "+48 134482692",
                "email": "kubusioweprzedszkole@hotmail.com",
                "ref:regon": "180899191",
                "operator": "Wincenty Ochwat",
                "operator:type": "private",
                "amenity": "kindergarten"
            }
        },
        {
            "id": 119871,
            "type": "Feature",
            "geometry": {
                "type": "Point",
                "coordinates": [
                    21.49555,
                    49.7491
                ]
            },
            "properties": {
                "ref:rspo": 119871,
                "official_name": "Niepubliczne Przedszkole J\u0119zykowo - Artystyczne \"Chatka Puchatka\"",
                "name": "Niepubliczne Przedszkole J\u0119zykowo - Artystyczne \"Chatka Puchatka\"",
                "addr:postcode": "38-200",
                "addr:city": "Jas\u0142o",
                "addr:street": "Towarowa",
                "addr:housenumber": "29",
                "addr:city:simc": 953059,
                "addr:street:sym_ul": 22907,
                "phone": "+48 728826080",
                "email": "chatkajaslo@gmail.com",
                "website": "http:\/\/www.chatka-puchatka.net",
                "ref:regon": "181020841",
                "operator": "Agnieszka Paczy\u0144ska",
                "operator:type": "private",
                "amenity": "kindergarten"
            }
        },
        {
            "id": 275114,
            "type": "Feature",
            "geometry": {
                "type": "Point",
                "coordinates": [
                    21.46838,
                    49.74961
                ]
            },
            "properties": {
                "ref:rspo": 275114,
                "official_name": "Niepubliczna Poradnia Psychologiczno-Pedagogiczna Zuzia w Ja\u015ble",
                "name": "Niepubliczna Poradnia Psychologiczno-Pedagogiczna Zuzia w Ja\u015ble",
                "addr:postcode": "38-200",
                "addr:city": "Jas\u0142o",
                "addr:street": "Karola Szajnochy",
                "addr:housenumber": "21",
                "addr:city:simc": 953059,
                "addr:street:sym_ul": 21728,
                "phone": "+48 881777165",
                "email": "jaslo@poradniazuzia.pl",
                "website": "http:\/\/www.poradniazuzia.pl",
                "ref:regon": "386587606",
                "ref:vatin": "PL8133676812",
                "operator": "Grupa Mpd Sp\u00f3\u0142ka Z Ograniczon\u0105 Odpowiedzialno\u015bci\u0105",
                "operator:type": "private",
                "healthcare": "counselling",
                "counselling_type": "education",
                "fixme": "w zale\u017cno\u015bci od przedmiotu dzia\u0142alno\u015bci (np. healthcare=counselling + counselling_type=education albo healthcare=psychotherapist)"
            }
        },
        {
            "id": 276026,
            "type": "Feature",
            "geometry": {
                "type": "Point",
                "coordinates": [
                    21.46838,
                    49.749579999999995
                ]
            },
            "properties": {
                "ref:rspo": 276026,
                "official_name": "Niepubliczny Terapeutyczny Punkt Przedszkolny Zuzia w Ja\u015ble",
                "name": "Niepubliczny Terapeutyczny Punkt Przedszkolny Zuzia w Ja\u015ble",
                "addr:postcode": "38-200",
                "addr:city": "Jas\u0142o",
                "addr:street": "Karola Szajnochy",
                "addr:housenumber": "21",
                "addr:city:simc": 953059,
                "addr:street:sym_ul": 21728,
                "phone": "+48 606943436",
                "email": "jaslo@przedszkolezuzia.pl",
                "ref:regon": "386969070",
                "operator": "Grupa Mpd Sp\u00f3\u0142ka Z Ograniczon\u0105 Odpowiedzialno\u015bci\u0105",
                "operator:type": "private",
                "amenity": "kindergarten"
            }
        },
        {
            "id": 123733,
            "type": "Feature",
            "geometry": {
                "type": "Point",
                "coordinates": [
                    21.48786,
                    49.75172
                ]
            },
            "properties": {
                "ref:rspo": 123733,
                "official_name": "Medyczno-Spo\u0142eczne Centrum Kszta\u0142cenia Zawodowego I Ustawicznego w Ja\u015ble",
                "name": "Medyczno-Spo\u0142eczne Centrum Kszta\u0142cenia Zawodowego I Ustawicznego w Ja\u015ble",
                "addr:postcode": "38-200",
                "addr:city": "Jas\u0142o",
                "addr:street": "Tadeusza Sroczy\u0144skiego",
                "addr:housenumber": "2",
                "addr:city:simc": 953059,
                "addr:street:sym_ul": 36030,
                "phone": "+48 134468571",
                "email": "zsmjaslo@post.pl",
                "website": "http:\/\/www.mspjaslo.pl",
                "ref:regon": "181135461",
                "operator": "Wojew\u00f3dztwo Podkarpackie",
                "operator:type": "government",
                "landuse": "education",
                "fixme": "amenity=school, amenity=college albo landuse=education w zale\u017cno\u015bci od tego, jakie plac\u00f3wki wchodz\u0105 w sk\u0142ad zespo\u0142u. Sprawd\u017a, kiedy stosowa\u0107 amenity=* a kiedy landuse=education.",
                "note": "Children RSPO: 91290;128377"
            }
        },
        {
            "id": 91290,
            "type": "Feature",
            "geometry": {
                "type": "Point",
                "coordinates": [
                    21.48786,
                    49.751689999999996
                ]
            },
            "properties": {
                "isced:level": "4",
                "ref:rspo": 91290,
                "official_name": "Medyczna Szko\u0142a Policealna im. Prof. Rudolfa Weigla w Ja\u015ble",
                "name": "Medyczna Szko\u0142a Policealna",
                "addr:postcode": "38-200",
                "addr:city": "Jas\u0142o",
                "addr:street": "Tadeusza Sroczy\u0144skiego",
                "addr:housenumber": "2",
                "addr:city:simc": 953059,
                "addr:street:sym_ul": 36030,
                "phone": "+48 134468249",
                "email": "zsmjaslo@post.pl",
                "website": "http:\/\/www.mspjaslo.pl",
                "ref:regon": "371154997",
                "ref:vatin": "PL6851602570",
                "operator": "Wojew\u00f3dztwo Podkarpackie",
                "operator:type": "government",
                "amenity": "college",
                "note": "Parent RSPO: 123733"
            }
        },
        {
            "id": 128377,
            "type": "Feature",
            "geometry": {
                "type": "Point",
                "coordinates": [
                    21.48786,
                    49.75166
                ]
            },
            "properties": {
                "ref:rspo": 128377,
                "official_name": "Podkarpackie Centrum Kszta\u0142cenia Ustawicznego w Ja\u015ble",
                "name": "Podkarpackie Centrum Kszta\u0142cenia Ustawicznego w Ja\u015ble",
                "addr:postcode": "38-200",
                "addr:city": "Jas\u0142o",
                "addr:street": "Tadeusza Sroczy\u0144skiego",
                "addr:housenumber": "2",
                "addr:city:simc": 953059,
                "addr:street:sym_ul": 36030,
                "phone": "+48 134468571",
                "email": "zsmjaslo@post.pl",
                "ref:regon": "362259520",
                "operator": "Wojew\u00f3dztwo Podkarpackie",
                "operator:type": "government",
                "fixme": "w zale\u017cno\u015bci od przedmiotu dzia\u0142alno\u015bci (np. amenity=training + training=*, amenity=dancing_school, amenity=language_school, amenity=music_school)",
                "note": "Parent RSPO: 123733"
            }
        },
        {
            "id": 119534,
            "type": "Feature",
            "geometry": {
                "type": "Point",
                "coordinates": [
                    21.48233,
                    49.75408
                ]
            },
            "properties": {
                "ref:rspo": 119534,
                "official_name": "Niepubliczne Przedszkole \"Smyk\" w Ja\u015ble",
                "name": "Niepubliczne Przedszkole \"Smyk\" w Ja\u015ble",
                "addr:postcode": "38-200",
                "addr:city": "Jas\u0142o",
                "addr:street": "Na Kotlin\u0119",
                "addr:housenumber": "3",
                "addr:city:simc": 953059,
                "addr:street:sym_ul": 13614,
                "phone": "+48 502452277",
                "email": "magdalena.barzyk@vp.pl",
                "ref:regon": "181017750",
                "ref:vatin": "PL6851754044",
                "operator": "Magdalena Barzyk",
                "operator:type": "private",
                "amenity": "kindergarten"
            }
        },
        {
            "id": 131197,
            "type": "Feature",
            "geometry": {
                "type": "Point",
                "coordinates": [
                    21.49249,
                    49.75546
                ]
            },
            "properties": {
                "ref:rspo": 131197,
                "official_name": "Zesp\u00f3\u0142 Szk\u00f3\u0142 Miejskich nr 6 w Ja\u015ble",
                "name": "Zesp\u00f3\u0142 Szk\u00f3\u0142 Miejskich nr 6 w Ja\u015ble",
                "addr:postcode": "38-200",
                "addr:city": "Jas\u0142o",
                "addr:street": "Lwowska",
                "addr:housenumber": "36",
                "addr:city:simc": 953059,
                "addr:street:sym_ul": 11467,
                "phone": "+48 134468357",
                "email": "sp10j@wp.pl",
                "website": "http:\/\/www.sp10jaslo.szkolnastrona.pl\/",
                "ref:regon": "365020600",
                "operator": "Miasto Jas\u0142o",
                "operator:type": "government",
                "landuse": "education",
                "fixme": "amenity=school, amenity=college albo landuse=education w zale\u017cno\u015bci od tego, jakie plac\u00f3wki wchodz\u0105 w sk\u0142ad zespo\u0142u. Sprawd\u017a, kiedy stosowa\u0107 amenity=* a kiedy landuse=education.",
                "note": "Children RSPO: 48519;131202"
            }
        },
        {
            "id": 48519,
            "type": "Feature",
            "geometry": {
                "type": "Point",
                "coordinates": [
                    21.49249,
                    49.75543
                ]
            },
            "properties": {
                "isced:level": "1;2",
                "ref:rspo": 48519,
                "official_name": "Szko\u0142a Podstawowa nr 10 w Ja\u015ble",
                "name": "Szko\u0142a Podstawowa nr 10 w Ja\u015ble",
                "addr:postcode": "38-200",
                "addr:city": "Jas\u0142o",
                "addr:street": "Lwowska",
                "addr:housenumber": "36",
                "addr:city:simc": 953059,
                "addr:street:sym_ul": 11467,
                "phone": "+48 134468357",
                "email": "sp10j@wp.pl",
                "website": "http:\/\/www.sp10jaslo.szkolnastrona.pl\/",
                "ref:regon": "001231670",
                "ref:vatin": "PL6851647414",
                "operator": "Miasto Jas\u0142o",
                "operator:type": "government",
                "amenity": "school",
                "note": "Parent RSPO: 131197"
            }
        },
        {
            "id": 131202,
            "type": "Feature",
            "geometry": {
                "type": "Point",
                "coordinates": [
                    21.49249,
                    49.7554
                ]
            },
            "properties": {
                "ref:rspo": 131202,
                "official_name": "Przedszkole Miejskie nr 14 w Ja\u015ble",
                "name": "Przedszkole Miejskie nr 14 w Ja\u015ble",
                "addr:postcode": "38-200",
                "addr:city": "Jas\u0142o",
                "addr:street": "Lwowska",
                "addr:housenumber": "36",
                "addr:city:simc": 953059,
                "addr:street:sym_ul": 11467,
                "phone": "+48 134468357",
                "email": "sp10j@wp.pl",
                "website": "http:\/\/www.sp10jaslo.szkolnastrona.pl",
                "ref:regon": "365024650",
                "operator": "Miasto Jas\u0142o",
                "operator:type": "government",
                "amenity": "kindergarten",
                "note": "Parent RSPO: 131197"
            }
        },
        {
            "id": 15576,
            "type": "Feature",
            "geometry": {
                "type": "Point",
                "coordinates": [
                    21.42203,
                    49.7663
                ]
            },
            "properties": {
                "ref:rspo": 15576,
                "official_name": "Zesp\u00f3\u0142 Szk\u00f3\u0142 Miejskich nr 2 w Ja\u015ble",
                "name": "Zesp\u00f3\u0142 Szk\u00f3\u0142 Miejskich nr 2 w Ja\u015ble",
                "addr:postcode": "38-200",
                "addr:city": "Jas\u0142o",
                "addr:street": "Adama Mickiewicza",
                "addr:housenumber": "108",
                "addr:city:simc": 953059,
                "addr:street:sym_ul": 12740,
                "phone": "+48 134914863",
                "email": "zsm2jaslo@onet.pl",
                "website": "http:\/\/www.sp11jaslo.szkolnastrona.pl",
                "ref:regon": "180156610",
                "ref:vatin": "PL6852196770",
                "operator": "Miasto Jas\u0142o",
                "operator:type": "government",
                "landuse": "education",
                "fixme": "amenity=school, amenity=college albo landuse=education w zale\u017cno\u015bci od tego, jakie plac\u00f3wki wchodz\u0105 w sk\u0142ad zespo\u0142u. Sprawd\u017a, kiedy stosowa\u0107 amenity=* a kiedy landuse=education.",
                "note": "Children RSPO: 48769;48770"
            }
        },
        {
            "id": 57264,
            "type": "Feature",
            "geometry": {
                "type": "Point",
                "coordinates": [
                    21.42203,
                    49.76627
                ]
            },
            "properties": {
                "ref:rspo": 57264,
                "official_name": "\"Solgam\" Sp\u00f3\u0142ka z O.o. w Ja\u015ble O\u015brodek Szkoleniowy",
                "name": "\"Solgam\" Sp\u00f3\u0142ka z O.o. w Ja\u015ble O\u015brodek Szkoleniowy",
                "addr:postcode": "38-200",
                "addr:city": "Jas\u0142o",
                "addr:street": "Adama Mickiewicza",
                "addr:housenumber": "108",
                "addr:city:simc": 953059,
                "addr:street:sym_ul": 12740,
                "phone": "+48 134914433",
                "email": "sekretariat@solgam.pl",
                "website": "http:\/\/www.solgam.pl",
                "ref:regon": "180904242",
                "ref:vatin": "PL6850000679",
                "operator": "Solgam Sp\u00f3\u0142ka Zo.o. W Ja\u015ble",
                "operator:type": "private",
                "fixme": "w zale\u017cno\u015bci od przedmiotu dzia\u0142alno\u015bci (np. amenity=training + training=*, amenity=dancing_school, amenity=language_school, amenity=music_school)"
            }
        },
        {
            "id": 48769,
            "type": "Feature",
            "geometry": {
                "type": "Point",
                "coordinates": [
                    21.42203,
                    49.76624
                ]
            },
            "properties": {
                "isced:level": "1;2",
                "ref:rspo": 48769,
                "official_name": "Szko\u0142a Podstawowa nr 11 w Ja\u015ble",
                "name": "Szko\u0142a Podstawowa nr 11 w Ja\u015ble",
                "addr:postcode": "38-200",
                "addr:city": "Jas\u0142o",
                "addr:street": "Adama Mickiewicza",
                "addr:housenumber": "108",
                "addr:city:simc": 953059,
                "addr:street:sym_ul": 12740,
                "phone": "+48 134914863",
                "email": "zsm2jaslo@onet.pl",
                "website": "http:\/\/www.sp11jaslo.szkolnastrona.pl\/",
                "ref:regon": "004020442",
                "operator": "Miasto Jas\u0142o",
                "operator:type": "government",
                "amenity": "school",
                "note": "Parent RSPO: 15576"
            }
        },
        {
            "id": 48770,
            "type": "Feature",
            "geometry": {
                "type": "Point",
                "coordinates": [
                    21.42203,
                    49.76621
                ]
            },
            "properties": {
                "ref:rspo": 48770,
                "official_name": "Przedszkole Miejskie nr 13 w Ja\u015ble",
                "name": "Przedszkole Miejskie nr 13 w Ja\u015ble",
                "addr:postcode": "38-200",
                "addr:city": "Jas\u0142o",
                "addr:street": "Adama Mickiewicza",
                "addr:housenumber": "108",
                "addr:city:simc": 953059,
                "addr:street:sym_ul": 12740,
                "phone": "+48 134914863",
                "email": "zsm2jaslo@onet.pl",
                "website": "http:\/\/pm13jaslo.szkolnastrona.pl",
                "ref:regon": "000240678",
                "operator": "Miasto Jas\u0142o",
                "operator:type": "government",
                "amenity": "kindergarten",
                "note": "Parent RSPO: 15576"
            }
        },
        {
            "id": 268395,
            "type": "Feature",
            "geometry": {
                "type": "Point",
                "coordinates": [
                    21.42406,
                    49.78185
                ]
            },
            "properties": {
                "ref:rspo": 268395,
                "official_name": "Podkarpacka Akademia Wina w Ja\u015ble",
                "name": "Podkarpacka Akademia Wina w Ja\u015ble",
                "addr:postcode": "38-200",
                "addr:city": "Jas\u0142o",
                "addr:street": "Krakowska",
                "addr:housenumber": "100a",
                "addr:city:simc": 953059,
                "addr:street:sym_ul": 9796,
                "phone": "+48 602375851",
                "email": "sekretariat@akademiawina.pl",
                "website": "http:\/\/www.akademiawina.org",
                "ref:regon": "381136187",
                "ref:vatin": "PL6852326988",
                "operator": "Fundacja Na Rzecz Rozwoju I Promocji Winiarstwa Galicja Vitis",
                "operator:type": "ngo",
                "fixme": "w zale\u017cno\u015bci od przedmiotu dzia\u0142alno\u015bci (np. amenity=training + training=*, amenity=dancing_school, amenity=language_school, amenity=music_school)"
            }
        }
    ]
}