{
    "type": "FeatureCollection",
    "features": [
        {
            "id": 20675,
            "type": "Feature",
            "geometry": {
                "type": "Point",
                "coordinates": [
                    21.3994,
                    49.69692
                ]
            },
            "properties": {
                "isced:level": "1;2",
                "ref:rspo": 20675,
                "official_name": "Szko\u0142a Podstawowa Nr 2 im. Wincentego Witosa w Osobnicy",
                "name": "Szko\u0142a Podstawowa Nr 2",
                "addr:country": "PL",
                "addr:postcode": "38-241",
                "addr:place": "Osobnica",
                "addr:housenumber": "389",
                "addr:teryt:sym_ul": 352992,
                "contact:phone": "+48 134427078",
                "contact:email": "sp2osobnica@interia.pl",
                "contact:website": "http:\/\/www.sp2osobnica.pl",
                "ref:regon": "001197170",
                "ref:vatin": "PL6851643304",
                "operator": "Gmina Jas\u0142o",
                "operator:type": "government",
                "amenity": "school"
            }
        },
        {
            "id": 21806,
            "type": "Feature",
            "geometry": {
                "type": "Point",
                "coordinates": [
                    21.40374,
                    49.6989
                ]
            },
            "properties": {
                "isced:level": "1;2",
                "ref:rspo": 21806,
                "official_name": "Szko\u0142a Podstawowa Nr 1 im. \u015aw. Jana Kantego w Osobnicy",
                "name": "Szko\u0142a Podstawowa Nr 1",
                "addr:country": "PL",
                "addr:postcode": "38-241",
                "addr:place": "Osobnica",
                "addr:housenumber": "99",
                "addr:teryt:sym_ul": 352992,
                "contact:phone": "+48 134427024",
                "contact:email": "sp1osobnica@interia.pl",
                "contact:website": "http:\/\/www.sp1osobnica.szkolnastrona.pl",
                "ref:regon": "001197163",
                "ref:vatin": "PL6852171735",
                "operator": "Gmina Jas\u0142o",
                "operator:type": "government",
                "amenity": "school"
            }
        },
        {
            "id": 263549,
            "type": "Feature",
            "geometry": {
                "type": "Point",
                "coordinates": [
                    21.40535,
                    49.69956
                ]
            },
            "properties": {
                "ref:rspo": 263549,
                "official_name": "Przedszkole Maluszkowo w Osobnicy",
                "name": "Przedszkole Maluszkowo w Osobnicy",
                "addr:country": "PL",
                "addr:postcode": "38-241",
                "addr:place": "Osobnica",
                "addr:housenumber": "1048",
                "addr:teryt:sym_ul": 352992,
                "contact:email": "biuro@maluszkowo.com.pl",
                "contact:website": "http:\/\/www.jaslo.maluszkowo.com.pl",
                "ref:regon": "368199150",
                "operator": "Anna Luba\u015b",
                "operator:type": "private",
                "amenity": "kindergarten"
            }
        },
        {
            "id": 21880,
            "type": "Feature",
            "geometry": {
                "type": "Point",
                "coordinates": [
                    21.40762,
                    49.73337
                ]
            },
            "properties": {
                "isced:level": "1;2",
                "ref:rspo": 21880,
                "official_name": "Szko\u0142a Podstawowa im. \u015aw. Jana Kantego w Trzcinicy",
                "name": "Szko\u0142a Podstawowa",
                "addr:country": "PL",
                "addr:postcode": "38-207",
                "addr:place": "Trzcinica",
                "addr:housenumber": "72",
                "addr:teryt:sym_ul": 353112,
                "contact:phone": "+48 134429479",
                "contact:email": "sptrzcin@wp.pl",
                "contact:website": "http:\/\/www.sptrzcinica.pl",
                "ref:regon": "001197157",
                "ref:vatin": "PL6852171741",
                "operator": "Gmina Jas\u0142o",
                "operator:type": "government",
                "amenity": "school"
            }
        },
        {
            "id": 53877,
            "type": "Feature",
            "geometry": {
                "type": "Point",
                "coordinates": [
                    21.39809,
                    49.73682
                ]
            },
            "properties": {
                "ref:rspo": 53877,
                "official_name": "Zesp\u00f3\u0142 Szk\u00f3\u0142 Stowarzyszenia Absolwent\u00f3w Szk\u00f3\u0142 Rolniczych im.prof. Dr Hab. Teodora Marchlewskiego w Trzcinicy",
                "name": "Zesp\u00f3\u0142 Szk\u00f3\u0142 Stowarzyszenia Absolwent\u00f3w Szk\u00f3\u0142 Rolniczych im.prof. Dr Hab. Teodora Marchlewskiego w Trzcinicy",
                "addr:country": "PL",
                "addr:postcode": "38-207",
                "addr:place": "Trzcinica",
                "addr:housenumber": "79",
                "addr:teryt:sym_ul": 353112,
                "contact:phone": "+48 134429028",
                "contact:email": "zs@zstrzcinica.pl",
                "contact:website": "http:\/\/www.zstrzcinica.pl",
                "ref:regon": "180901278",
                "ref:vatin": "PL6852032666",
                "operator": "Stowarzyszenie Absolwent\u00f3w Szk\u00f3\u0142 Rolniczych W Trzcinicy",
                "operator:type": "ngo",
                "landuse": "education",
                "fixme": "amenity=school, amenity=college albo landuse=education w zale\u017cno\u015bci od tego, jakie plac\u00f3wki wchodz\u0105 w sk\u0142ad zespo\u0142u. Sprawd\u017a, kiedy stosowa\u0107 amenity=* a kiedy landuse=education.",
                "note": "Children RSPO: 75387;75742;75758;133267;270693"
            }
        },
        {
            "id": 75387,
            "type": "Feature",
            "geometry": {
                "type": "Point",
                "coordinates": [
                    21.39809,
                    49.73679
                ]
            },
            "properties": {
                "isced:level": "3",
                "ref:rspo": 75387,
                "official_name": "Sportowe Liceum Og\u00f3lnokszta\u0142c\u0105ce w Trzcinicy",
                "name": "Sportowe Liceum Og\u00f3lnokszta\u0142c\u0105ce w Trzcinicy",
                "addr:country": "PL",
                "addr:postcode": "38-207",
                "addr:place": "Trzcinica",
                "addr:housenumber": "79",
                "addr:teryt:sym_ul": 353112,
                "contact:phone": "+48 134429028",
                "contact:email": "zs@zstrzcinica.pl",
                "contact:website": "http:\/\/www.zstrzcinica.pl",
                "ref:regon": "180908228",
                "operator": "Stowarzyszenie Absolwent\u00f3w Szk\u00f3\u0142 Rolniczych W Trzcinicy",
                "operator:type": "ngo",
                "amenity": "school",
                "note": "Parent RSPO: 53877"
            }
        },
        {
            "id": 75742,
            "type": "Feature",
            "geometry": {
                "type": "Point",
                "coordinates": [
                    21.39809,
                    49.736760000000004
                ]
            },
            "properties": {
                "isced:level": "3",
                "ref:rspo": 75742,
                "official_name": "Bran\u017cowa Szko\u0142a I Stopnia w Trzcinicy",
                "name": "Bran\u017cowa Szko\u0142a I Stopnia w Trzcinicy",
                "addr:country": "PL",
                "addr:postcode": "38-207",
                "addr:place": "Trzcinica",
                "addr:housenumber": "79",
                "addr:teryt:sym_ul": 353112,
                "contact:phone": "+48 134429028",
                "contact:email": "zs@zstrzcinica.pl",
                "contact:website": "http:\/\/www.zstrzcinica.pl",
                "ref:regon": "180908180",
                "operator": "Stowarzyszenie Absolwent\u00f3w Szk\u00f3\u0142 Rolniczych W Trzcinicy",
                "operator:type": "ngo",
                "amenity": "school",
                "note": "Parent RSPO: 53877"
            }
        },
        {
            "id": 75758,
            "type": "Feature",
            "geometry": {
                "type": "Point",
                "coordinates": [
                    21.39809,
                    49.73673
                ]
            },
            "properties": {
                "isced:level": "3",
                "ref:rspo": 75758,
                "official_name": "Technikum w Trzcinicy",
                "name": "Technikum w Trzcinicy",
                "addr:country": "PL",
                "addr:postcode": "38-207",
                "addr:place": "Trzcinica",
                "addr:housenumber": "79",
                "addr:teryt:sym_ul": 353112,
                "contact:phone": "+48 134429028",
                "contact:email": "zs@zstrzcinica.pl",
                "contact:website": "http:\/\/www.zstrzcinica.pl",
                "ref:regon": "180908174",
                "operator": "Stowarzyszenie Absolwent\u00f3w Szk\u00f3\u0142 Rolniczych W Trzcinicy",
                "operator:type": "ngo",
                "amenity": "school",
                "note": "Parent RSPO: 53877"
            }
        },
        {
            "id": 133267,
            "type": "Feature",
            "geometry": {
                "type": "Point",
                "coordinates": [
                    21.39809,
                    49.7367
                ]
            },
            "properties": {
                "isced:level": "3",
                "ref:rspo": 133267,
                "official_name": "Liceum Og\u00f3lnokszta\u0142c\u0105ce Mistrzostwa Sportowego w Trzcinicy",
                "name": "Liceum Og\u00f3lnokszta\u0142c\u0105ce Mistrzostwa Sportowego w Trzcinicy",
                "addr:country": "PL",
                "addr:postcode": "38-207",
                "addr:place": "Trzcinica",
                "addr:housenumber": "79",
                "addr:teryt:sym_ul": 353112,
                "contact:phone": "+48 134429028",
                "contact:email": "zs@zstrzcinica.pl",
                "contact:website": "http:\/\/www.zstrzcinica.pl",
                "ref:regon": "366903419",
                "operator": "Stowarzyszenie Absolwent\u00f3w Szk\u00f3\u0142 Rolniczych W Trzcinicy",
                "operator:type": "ngo",
                "amenity": "school",
                "note": "Parent RSPO: 53877"
            }
        },
        {
            "id": 270693,
            "type": "Feature",
            "geometry": {
                "type": "Point",
                "coordinates": [
                    21.39809,
                    49.736670000000004
                ]
            },
            "properties": {
                "isced:level": "3",
                "ref:rspo": 270693,
                "official_name": "Liceum Og\u00f3lnokszta\u0142c\u0105ce Z Oddzia\u0142ami Sportowymi w Trzcinicy",
                "name": "Liceum Og\u00f3lnokszta\u0142c\u0105ce Z Oddzia\u0142ami Sportowymi w Trzcinicy",
                "addr:country": "PL",
                "addr:postcode": "38-207",
                "addr:place": "Trzcinica",
                "addr:housenumber": "79",
                "addr:teryt:sym_ul": 353112,
                "contact:phone": "+48 134429028",
                "contact:email": "zs@zstrzcinica.pl",
                "contact:website": "http:\/\/www.zstrzcinica.pl\/",
                "ref:regon": "382859841",
                "operator": "Stowarzyszenie Absolwent\u00f3w Szk\u00f3\u0142 Rolniczych W Trzcinicy",
                "operator:type": "ngo",
                "amenity": "school",
                "note": "Parent RSPO: 53877"
            }
        },
        {
            "id": 5433,
            "type": "Feature",
            "geometry": {
                "type": "Point",
                "coordinates": [
                    21.471389770508,
                    49.747779846191
                ]
            },
            "properties": {
                "ref:rspo": 5433,
                "official_name": "Ochronka Zgromadzenia Si\u00f3str S\u0142u\u017cebniczek Bdnp - Przedszkole Niepubliczne",
                "name": "Ochronka Zgromadzenia Si\u00f3str S\u0142u\u017cebniczek Bdnp - Przedszkole Niepubliczne",
                "addr:country": "PL",
                "addr:postcode": "38-203",
                "addr:place": "Szebnie",
                "addr:housenumber": "38",
                "addr:teryt:sym_ul": 353075,
                "contact:phone": "+48 134428544",
                "contact:email": "ochronkaszebnie@wp.pl",
                "contact:website": "http:\/\/www.ochronkaszebnie.pl",
                "ref:regon": "180880240",
                "operator": "Zgromadzenie Si\u00f3str S\u0142u\u017cebniczek Bdnp, Prowincja Tarnowska",
                "operator:type": "religious",
                "amenity": "kindergarten"
            }
        },
        {
            "id": 20720,
            "type": "Feature",
            "geometry": {
                "type": "Point",
                "coordinates": [
                    21.4403381,
                    49.7512204
                ]
            },
            "properties": {
                "isced:level": "1;2",
                "ref:rspo": 20720,
                "official_name": "Szko\u0142a Podstawowa im. J\u00f3zefa Pi\u0142sudskiego w Jareni\u00f3wce",
                "name": "Szko\u0142a Podstawowa",
                "addr:country": "PL",
                "addr:postcode": "38-200",
                "addr:place": "Jareni\u00f3wka",
                "addr:housenumber": "60",
                "addr:teryt:sym_ul": 352845,
                "contact:phone": "+48 134464600",
                "contact:email": "spjareniowka@interia.pl",
                "contact:website": "http:\/\/spjareniowka.wixsite.com\/szkola",
                "ref:regon": "001197105",
                "ref:vatin": "PL6851984979",
                "operator": "Gmina Jas\u0142o",
                "operator:type": "government",
                "amenity": "school"
            }
        },
        {
            "id": 21070,
            "type": "Feature",
            "geometry": {
                "type": "Point",
                "coordinates": [
                    21.59513,
                    49.7580046
                ]
            },
            "properties": {
                "isced:level": "1;2",
                "ref:rspo": 21070,
                "official_name": "Szko\u0142a Podstawowa im. Stefanii Sempo\u0142owskiej w Szebniach",
                "name": "Szko\u0142a Podstawowa",
                "addr:country": "PL",
                "addr:postcode": "38-203",
                "addr:place": "Szebnie",
                "addr:housenumber": "222",
                "addr:teryt:sym_ul": 353075,
                "contact:phone": "+48 134428095",
                "contact:email": "spszebnie@interia.pl",
                "contact:website": "http:\/\/www.zsszebnie.szkolnastrona.pl",
                "ref:regon": "001197200",
                "ref:vatin": "PL6852171764",
                "operator": "Gmina Jas\u0142o",
                "operator:type": "government",
                "amenity": "school"
            }
        },
        {
            "id": 21138,
            "type": "Feature",
            "geometry": {
                "type": "Point",
                "coordinates": [
                    21.53934,
                    49.76733
                ]
            },
            "properties": {
                "isced:level": "1;2",
                "ref:rspo": 21138,
                "official_name": "Szko\u0142a Podstawowa im. Ks. Piotra Skargi w Warzycach",
                "name": "Szko\u0142a Podstawowa",
                "addr:country": "PL",
                "addr:postcode": "38-200",
                "addr:place": "Warzyce",
                "addr:housenumber": "205",
                "addr:teryt:sym_ul": 353170,
                "contact:phone": "+48 134468805",
                "contact:email": "gimwarzyce@interia.pl",
                "contact:website": "http:\/\/www.zswarzyce.szkolnastrona.pl",
                "ref:regon": "001197192",
                "ref:vatin": "PL6852180183",
                "operator": "Gmina Jas\u0142o",
                "operator:type": "government",
                "amenity": "school"
            }
        },
        {
            "id": 21992,
            "type": "Feature",
            "geometry": {
                "type": "Point",
                "coordinates": [
                    21.40108,
                    49.77072
                ]
            },
            "properties": {
                "isced:level": "1;2",
                "ref:rspo": 21992,
                "official_name": "Szko\u0142a Podstawowa im. Macieja Rataja w Opaciu",
                "name": "Szko\u0142a Podstawowa",
                "addr:country": "PL",
                "addr:postcode": "38-211",
                "addr:place": "Opacie",
                "addr:housenumber": "b\/n",
                "addr:teryt:sym_ul": 352986,
                "contact:phone": "+48 134467201",
                "contact:email": "opacie@interia.pl",
                "contact:website": "http:\/\/www.spopacie.szkolnastrona.pl",
                "ref:regon": "001197186",
                "ref:vatin": "PL6851580466",
                "operator": "Gmina Jas\u0142o",
                "operator:type": "government",
                "amenity": "school"
            }
        },
        {
            "id": 20651,
            "type": "Feature",
            "geometry": {
                "type": "Point",
                "coordinates": [
                    21.61005,
                    49.78328
                ]
            },
            "properties": {
                "isced:level": "1;2",
                "ref:rspo": 20651,
                "official_name": "Szko\u0142a Podstawowa Im Jana Paw\u0142a II w Niepli",
                "name": "Szko\u0142a Podstawowa Im Jana Paw\u0142a II w Niepli",
                "addr:country": "PL",
                "addr:postcode": "38-203",
                "addr:place": "Niepla",
                "addr:housenumber": "195",
                "addr:teryt:sym_ul": 352940,
                "contact:phone": "+48 134428545",
                "contact:email": "spniepla@interia.pl",
                "contact:website": "http:\/\/spniepla.yolasite.com",
                "ref:regon": "001252318",
                "ref:vatin": "PL6852031313",
                "operator": "Gmina Jas\u0142o",
                "operator:type": "government",
                "amenity": "school"
            }
        }
    ]
}