{
    "type": "FeatureCollection",
    "features": [
        {
            "id": 106372,
            "type": "Feature",
            "geometry": {
                "type": "Point",
                "coordinates": [
                    21.4780439,
                    49.5512007
                ]
            },
            "properties": {
                "isced:level": "1;2",
                "ref:rspo": 106372,
                "official_name": "Szko\u0142a Podstawowa im. Ks. Kardyna\u0142a Stefana Wyszy\u0144skiego w Desznicy",
                "name": "Szko\u0142a Podstawowa",
                "addr:postcode": "38-230",
                "addr:place": "Desznica",
                "addr:housenumber": "35",
                "addr:city:simc": 356955,
                "phone": "+48 134415151",
                "email": "sp_desznica@poczta.onet.pl",
                "ref:regon": "001252407",
                "ref:vatin": "PL6852008159",
                "operator": "Gmina Nowy \u017bmigr\u00f3d",
                "operator:type": "government",
                "amenity": "school"
            }
        },
        {
            "id": 106379,
            "type": "Feature",
            "geometry": {
                "type": "Point",
                "coordinates": [
                    21.4960999,
                    49.57487
                ]
            },
            "properties": {
                "isced:level": "1;2",
                "ref:rspo": 106379,
                "official_name": "Niepubliczna Szko\u0142a Podstawowa w Skalniku",
                "name": "Niepubliczna Szko\u0142a Podstawowa w Skalniku",
                "addr:postcode": "38-230",
                "addr:place": "Skalnik",
                "addr:housenumber": "15",
                "addr:city:simc": 357328,
                "phone": "+48 796075770",
                "email": "nspskalnik@wp.pl",
                "ref:regon": "180931931",
                "ref:vatin": "PL6852066317",
                "operator": "Stowarzyszenie Rozwoju Wsi Skalnik",
                "operator:type": "ngo",
                "amenity": "school"
            }
        },
        {
            "id": 106373,
            "type": "Feature",
            "geometry": {
                "type": "Point",
                "coordinates": [
                    21.5703198,
                    49.5756522
                ]
            },
            "properties": {
                "isced:level": "1;2",
                "ref:rspo": 106373,
                "official_name": "Szko\u0142a Podstawowa w \u0141ysej G\u00f3rze",
                "name": "Szko\u0142a Podstawowa w \u0141ysej G\u00f3rze",
                "addr:postcode": "38-230",
                "addr:place": "\u0141ysa G\u00f3ra",
                "addr:housenumber": "72",
                "addr:city:simc": 357133,
                "phone": "+48 134415660",
                "email": "splysagora2@poczta.onet.pl",
                "ref:regon": "001214571",
                "ref:vatin": "PL6852007042",
                "operator": "Gmina Nowy \u017bmigr\u00f3d",
                "operator:type": "government",
                "amenity": "school"
            }
        },
        {
            "id": 121802,
            "type": "Feature",
            "geometry": {
                "type": "Point",
                "coordinates": [
                    21.5040543,
                    49.588261
                ]
            },
            "properties": {
                "isced:level": "1;2",
                "ref:rspo": 121802,
                "official_name": "Szko\u0142a Podstawowa im. Adama Mickiewicza w K\u0105tach",
                "name": "Szko\u0142a Podstawowa",
                "addr:postcode": "38-230",
                "addr:place": "K\u0105ty",
                "addr:housenumber": "183",
                "addr:city:simc": 357015,
                "phone": "+48 134415156",
                "email": "spkaty@poczta.onet.pl",
                "ref:regon": "001214588",
                "ref:vatin": "PL6852006953",
                "operator": "Gmina Nowy \u017bmigr\u00f3d",
                "operator:type": "government",
                "amenity": "school"
            }
        },
        {
            "id": 127396,
            "type": "Feature",
            "geometry": {
                "type": "Point",
                "coordinates": [
                    21.5563144,
                    49.5929947
                ]
            },
            "properties": {
                "isced:level": "1;2",
                "ref:rspo": 127396,
                "official_name": "Filialna Szko\u0142a Podstawowa w Starym \u017bmigrodzie",
                "name": "Filialna Szko\u0142a Podstawowa w Starym \u017bmigrodzie",
                "addr:postcode": "38-230",
                "addr:place": "Stary \u017bmigr\u00f3d",
                "addr:housenumber": "72",
                "addr:city:simc": 357334,
                "phone": "+48 134415645",
                "email": "spfiliazmigrod72@interia.pl",
                "website": "http:\/\/spfilia-staryzmigrod.edu.pl",
                "ref:regon": "595594000",
                "ref:vatin": "PL6852256466",
                "operator": "Gmina Nowy \u017bmigr\u00f3d",
                "operator:type": "government",
                "amenity": "school",
                "note": "Parent RSPO: 109140"
            }
        },
        {
            "id": 106378,
            "type": "Feature",
            "geometry": {
                "type": "Point",
                "coordinates": [
                    21.52289,
                    49.60008
                ]
            },
            "properties": {
                "ref:rspo": 106378,
                "official_name": "Przedszkole Gminne w Nowym \u017bmigrodzie",
                "name": "Przedszkole Gminne w Nowym \u017bmigrodzie",
                "addr:postcode": "38-230",
                "addr:city": "Nowy \u017bmigr\u00f3d",
                "addr:street": "Adama Mickiewicza",
                "addr:housenumber": "6",
                "addr:city:simc": 357268,
                "addr:street:sym_ul": 12734,
                "phone": "+48 134415616",
                "email": "przedszkolenz@interia.pl",
                "ref:regon": "000902889",
                "ref:vatin": "PL6852008745",
                "operator": "Gmina Nowy \u017bmigr\u00f3d",
                "operator:type": "government",
                "amenity": "kindergarten"
            }
        },
        {
            "id": 131080,
            "type": "Feature",
            "geometry": {
                "type": "Point",
                "coordinates": [
                    21.5228421,
                    49.6009564
                ]
            },
            "properties": {
                "isced:level": "3",
                "ref:rspo": 131080,
                "official_name": "Liceum Og\u00f3lnokszta\u0142c\u0105ce im. Miko\u0142aja Kopernika w Nowym \u017bmigrodzie",
                "name": "Liceum Og\u00f3lnokszta\u0142c\u0105ce",
                "addr:postcode": "38-230",
                "addr:city": "Nowy \u017bmigr\u00f3d",
                "addr:street": "Adama Mickiewicza",
                "addr:housenumber": "18",
                "addr:city:simc": 357268,
                "addr:street:sym_ul": 12734,
                "phone": "+48 134415625",
                "email": "sekretariat@lonowyzmigrod.pl",
                "website": "http:\/\/www.lonowyzmigrod.pl",
                "ref:regon": "364931989",
                "operator": "Stowarzyszenie \"Kopernik\"",
                "operator:type": "ngo",
                "amenity": "school"
            }
        },
        {
            "id": 133270,
            "type": "Feature",
            "geometry": {
                "type": "Point",
                "coordinates": [
                    21.5228421,
                    49.6009264
                ]
            },
            "properties": {
                "isced:level": "3",
                "ref:rspo": 133270,
                "official_name": "Technikum w Nowym \u017bmigrodzie",
                "name": "Technikum w Nowym \u017bmigrodzie",
                "addr:postcode": "38-230",
                "addr:city": "Nowy \u017bmigr\u00f3d",
                "addr:street": "Adama Mickiewicza",
                "addr:housenumber": "18",
                "addr:city:simc": 357268,
                "addr:street:sym_ul": 12734,
                "phone": "+48 134415625",
                "email": "sekretariat@lonowyzmigrod.pl",
                "website": "http:\/\/www.lonowyzmigrod.pl",
                "ref:regon": "366903431",
                "operator": "Stowarzyszenie \"Kopernik\"",
                "operator:type": "ngo",
                "amenity": "school"
            }
        },
        {
            "id": 133271,
            "type": "Feature",
            "geometry": {
                "type": "Point",
                "coordinates": [
                    21.5228421,
                    49.6008964
                ]
            },
            "properties": {
                "isced:level": "3",
                "ref:rspo": 133271,
                "official_name": "Bran\u017cowa Szko\u0142a I Stopnia w Nowym \u017bmigrodzie",
                "name": "Bran\u017cowa Szko\u0142a I Stopnia w Nowym \u017bmigrodzie",
                "addr:postcode": "38-230",
                "addr:city": "Nowy \u017bmigr\u00f3d",
                "addr:street": "Adama Mickiewicza",
                "addr:housenumber": "18",
                "addr:city:simc": 357268,
                "addr:street:sym_ul": 12734,
                "phone": "+48 134415625",
                "email": "sekretariat@lonowyzmigrod.pl",
                "website": "http:\/\/www.lonowyzmigrod.pl",
                "ref:regon": "366904940",
                "operator": "Stowarzyszenie \"Kopernik\"",
                "operator:type": "ngo",
                "amenity": "school"
            }
        },
        {
            "id": 106376,
            "type": "Feature",
            "geometry": {
                "type": "Point",
                "coordinates": [
                    21.592121,
                    49.6022517
                ]
            },
            "properties": {
                "isced:level": "1;2",
                "ref:rspo": 106376,
                "official_name": "Szko\u0142a Podstawowa w Makowiskach",
                "name": "Szko\u0142a Podstawowa w Makowiskach",
                "addr:postcode": "38-230",
                "addr:place": "Makowiska",
                "addr:housenumber": "12",
                "addr:city:simc": 357179,
                "phone": "+48 134417013",
                "email": "spmakowiska@wp.pl",
                "ref:regon": "001214559",
                "ref:vatin": "PL6852001973",
                "operator": "Gmina Nowy \u017bmigr\u00f3d",
                "operator:type": "government",
                "amenity": "school"
            }
        },
        {
            "id": 109140,
            "type": "Feature",
            "geometry": {
                "type": "Point",
                "coordinates": [
                    21.52316,
                    49.60292
                ]
            },
            "properties": {
                "isced:level": "1;2",
                "ref:rspo": 109140,
                "official_name": "Szko\u0142a Podstawowa im. B\u0142. Ks. W\u0142adys\u0142awa Findysza - M\u0119czennika w Nowym \u017bmigrodzie",
                "name": "Szko\u0142a Podstawowa",
                "addr:postcode": "38-230",
                "addr:city": "Nowy \u017bmigr\u00f3d",
                "addr:street": "Adama Mickiewicza",
                "addr:housenumber": "4",
                "addr:city:simc": 357268,
                "addr:street:sym_ul": 12734,
                "phone": "+48 134415031",
                "email": "nzsp@poczta.onet.pl",
                "website": "http:\/\/www.nowyzmigrod.edu.pl",
                "ref:regon": "000595594",
                "ref:vatin": "PL6852256466",
                "operator": "Gmina Nowy \u017bmigr\u00f3d",
                "operator:type": "government",
                "amenity": "school",
                "note": "Children RSPO: 127396"
            }
        },
        {
            "id": 109416,
            "type": "Feature",
            "geometry": {
                "type": "Point",
                "coordinates": [
                    21.5852,
                    49.61929
                ]
            },
            "properties": {
                "isced:level": "1;2",
                "ref:rspo": 109416,
                "official_name": "Szko\u0142a Podstawowa Imienia \u015awietego Jana Paw\u0142a II w Nienaszowie",
                "name": "Szko\u0142a Podstawowa Imienia \u015awietego Jana Paw\u0142a II w Nienaszowie",
                "addr:postcode": "38-230",
                "addr:place": "Nienasz\u00f3w",
                "addr:housenumber": "309",
                "addr:city:simc": 357216,
                "phone": "+48 134417252",
                "email": "zsnienaszow@wp.pl",
                "ref:regon": "001214565",
                "ref:vatin": "PL6852282133",
                "operator": "Gmina Nowy \u017bmigr\u00f3d",
                "operator:type": "government",
                "amenity": "school"
            }
        },
        {
            "id": 109417,
            "type": "Feature",
            "geometry": {
                "type": "Point",
                "coordinates": [
                    21.5279104,
                    49.6519255
                ]
            },
            "properties": {
                "isced:level": "1;2",
                "ref:rspo": 109417,
                "official_name": "Szko\u0142a Podstawowa w \u0141\u0119\u017cynach",
                "name": "Szko\u0142a Podstawowa w \u0141\u0119\u017cynach",
                "addr:postcode": "38-230",
                "addr:place": "\u0141\u0119\u017cyny",
                "addr:housenumber": "144",
                "addr:city:simc": 357096,
                "phone": "+48 134415291",
                "email": "splezyny@poczta.onet.pl",
                "website": "http:\/\/www.splezyny.szkolna.net",
                "ref:regon": "001214594",
                "ref:vatin": "PL6852256147",
                "operator": "Gmina Nowy \u017bmigr\u00f3d",
                "operator:type": "government",
                "amenity": "school"
            }
        }
    ]
}