{
    "type": "FeatureCollection",
    "features": [
        {
            "id": 87193,
            "type": "Feature",
            "geometry": {
                "type": "Point",
                "coordinates": [
                    16.82951,
                    51.8154899
                ]
            },
            "properties": {
                "isced:level": "1;2",
                "ref:rspo": 87193,
                "official_name": "Publiczna Szko\u0142a Podstawowa Filialna w Opor\u00f3wku",
                "name": "Publiczna Szko\u0142a Podstawowa Filialna w Opor\u00f3wku",
                "addr:country": "PL",
                "addr:postcode": "64-120",
                "addr:place": "Opor\u00f3wko",
                "addr:housenumber": "7a",
                "addr:teryt:sym_ul": 372440,
                "contact:phone": "+48 655360058",
                "contact:email": "www.spoporowko@wp.pl",
                "contact:website": "http:\/\/szkolapawlowice.pl\/",
                "ref:regon": "111797400",
                "operator": "Gmina Krzemieniewo",
                "operator:type": "government",
                "amenity": "school",
                "note": "Parent RSPO: 83950"
            }
        },
        {
            "id": 3645,
            "type": "Feature",
            "geometry": {
                "type": "Point",
                "coordinates": [
                    16.75816,
                    51.81641
                ]
            },
            "properties": {
                "ref:rspo": 3645,
                "official_name": "Publiczne Przedszkole Nr 2 w Paw\u0142owicach",
                "name": "Publiczne Przedszkole Nr 2 w Paw\u0142owicach",
                "addr:country": "PL",
                "addr:postcode": "64-122",
                "addr:city": "Paw\u0142owice",
                "addr:street": "ul. Zielona",
                "addr:housenumber": "16",
                "addr:teryt:simc": 26081,
                "addr:teryt:sym_ul": 372463,
                "contact:phone": "+48 655367444",
                "contact:email": "irka333@wp.pl",
                "ref:regon": "411492769",
                "operator": "Gmina Krzemieniewo",
                "operator:type": "government",
                "amenity": "kindergarten"
            }
        },
        {
            "id": 83950,
            "type": "Feature",
            "geometry": {
                "type": "Point",
                "coordinates": [
                    16.744877,
                    51.8310751
                ]
            },
            "properties": {
                "isced:level": "1;2",
                "ref:rspo": 83950,
                "official_name": "Publiczna Szko\u0142a Podstawowa im. Powsta\u0144c\u00f3w Wielkopolskich w Paw\u0142owicach",
                "name": "Publiczna Szko\u0142a Podstawowa",
                "addr:country": "PL",
                "addr:postcode": "64-122",
                "addr:city": "Paw\u0142owice",
                "addr:street": "ul. Leszczy\u0144ska",
                "addr:housenumber": "6",
                "addr:teryt:simc": 10873,
                "addr:teryt:sym_ul": 372463,
                "contact:phone": "+48 655368217",
                "contact:email": "sppawlowice@krzemieniewo.pl",
                "contact:website": "http:\/\/szkolapawlowice.pl\/",
                "ref:regon": "001117974",
                "operator": "Gmina Krzemieniewo",
                "operator:type": "government",
                "amenity": "school",
                "note": "Children RSPO: 87193"
            }
        },
        {
            "id": 6227,
            "type": "Feature",
            "geometry": {
                "type": "Point",
                "coordinates": [
                    16.81256,
                    51.8584
                ]
            },
            "properties": {
                "isced:level": "1;2",
                "ref:rspo": 6227,
                "official_name": "Publiczna Szko\u0142a Podstawowa w Drobninie",
                "name": "Publiczna Szko\u0142a Podstawowa w Drobninie",
                "addr:country": "PL",
                "addr:postcode": "64-120",
                "addr:place": "Drobnin",
                "addr:housenumber": "25",
                "addr:teryt:sym_ul": 372279,
                "contact:phone": "+48 655360025",
                "contact:email": "spdrobnin@krzemieniewo.pl",
                "contact:website": "https:\/\/spdrobnin.pl",
                "ref:regon": "000564286",
                "operator": "Gmina Krzemieniewo",
                "operator:type": "government",
                "amenity": "school"
            }
        },
        {
            "id": 3644,
            "type": "Feature",
            "geometry": {
                "type": "Point",
                "coordinates": [
                    16.8351599,
                    51.85971
                ]
            },
            "properties": {
                "ref:rspo": 3644,
                "official_name": "Publiczne Przedszkole w Krzemieniewie",
                "name": "Publiczne Przedszkole w Krzemieniewie",
                "addr:country": "PL",
                "addr:postcode": "64-120",
                "addr:city": "Krzemieniewo",
                "addr:street": "ul. Sp\u00f3\u0142dzielcza",
                "addr:housenumber": "48",
                "addr:teryt:simc": 20696,
                "addr:teryt:sym_ul": 372345,
                "contact:phone": "+48 655360105",
                "contact:email": "przedszkole.krzemieniewo@vp.pl",
                "ref:regon": "411492775",
                "operator": "Gmina Krzemieniewo",
                "operator:type": "government",
                "amenity": "kindergarten"
            }
        },
        {
            "id": 3648,
            "type": "Feature",
            "geometry": {
                "type": "Point",
                "coordinates": [
                    16.7818,
                    51.86659
                ]
            },
            "properties": {
                "ref:rspo": 3648,
                "official_name": "Zespo\u0142 Szk\u00f3\u0142 Gminy Krzemieniewo Przedszkole Szko\u0142a Podstawowa w Garzynie",
                "name": "Zespo\u0142 Szk\u00f3\u0142 Gminy Krzemieniewo Przedszkole Szko\u0142a Podstawowa w Garzynie",
                "addr:country": "PL",
                "addr:postcode": "64-120",
                "addr:city": "Garzyn",
                "addr:street": "ul. Leszczy\u0144ska",
                "addr:housenumber": "50",
                "addr:teryt:simc": 10873,
                "addr:teryt:sym_ul": 372285,
                "contact:phone": "+48 655366920",
                "contact:email": "zsgarzyn@zsgarzyn.pl",
                "contact:website": "http:\/\/zsgarzyn.szkolnastrona.pl",
                "ref:regon": "001117997",
                "ref:vatin": "PL6961558835",
                "operator": "Gmina Krzemieniewo",
                "operator:type": "government",
                "landuse": "education",
                "fixme": "amenity=school, amenity=college albo landuse=education w zale\u017cno\u015bci od tego, jakie plac\u00f3wki wchodz\u0105 w sk\u0142ad zespo\u0142u. Sprawd\u017a, kiedy stosowa\u0107 amenity=* a kiedy landuse=education.",
                "note": "Children RSPO: 6233;6234"
            }
        },
        {
            "id": 6233,
            "type": "Feature",
            "geometry": {
                "type": "Point",
                "coordinates": [
                    16.7818,
                    51.86656
                ]
            },
            "properties": {
                "isced:level": "1;2",
                "ref:rspo": 6233,
                "official_name": "Szko\u0142a Podstawowa w Garzynie",
                "name": "Szko\u0142a Podstawowa w Garzynie",
                "addr:country": "PL",
                "addr:postcode": "64-120",
                "addr:city": "Garzyn",
                "addr:street": "ul. Leszczy\u0144ska",
                "addr:housenumber": "50",
                "addr:teryt:simc": 10873,
                "addr:teryt:sym_ul": 372285,
                "contact:phone": "+48 655366920",
                "contact:email": "zsgarzyn@zsgarzyn.pl",
                "contact:website": "http:\/\/zsgarzyn.szkolnastrona.pl",
                "ref:regon": "411529604",
                "operator": "Gmina Krzemieniewo",
                "operator:type": "government",
                "amenity": "school",
                "note": "Parent RSPO: 3648"
            }
        },
        {
            "id": 6234,
            "type": "Feature",
            "geometry": {
                "type": "Point",
                "coordinates": [
                    16.7818,
                    51.866530000000004
                ]
            },
            "properties": {
                "ref:rspo": 6234,
                "official_name": "Przedszkole w Garzynie",
                "name": "Przedszkole w Garzynie",
                "addr:country": "PL",
                "addr:postcode": "64-120",
                "addr:city": "Garzyn",
                "addr:street": "ul. Leszczy\u0144ska",
                "addr:housenumber": "50",
                "addr:teryt:simc": 10873,
                "addr:teryt:sym_ul": 372285,
                "contact:phone": "+48 655366920",
                "contact:email": "zsgarzyn@zsgarzyn.pl",
                "contact:website": "http:\/\/zsgarzyn.szkolnastrona.pl",
                "ref:regon": "411529610",
                "operator": "Gmina Krzemieniewo",
                "operator:type": "government",
                "amenity": "kindergarten",
                "note": "Parent RSPO: 3648"
            }
        },
        {
            "id": 26102,
            "type": "Feature",
            "geometry": {
                "type": "Point",
                "coordinates": [
                    16.79433,
                    51.88857
                ]
            },
            "properties": {
                "ref:rspo": 26102,
                "official_name": "Zesp\u00f3\u0142 Szk\u00f3\u0142 Specjalnych w G\u00f3rznie",
                "name": "Zesp\u00f3\u0142 Szk\u00f3\u0142 Specjalnych w G\u00f3rznie",
                "addr:country": "PL",
                "addr:postcode": "64-120",
                "addr:place": "G\u00f3rzno",
                "addr:housenumber": "63",
                "addr:teryt:sym_ul": 372291,
                "contact:phone": "+48 693458007",
                "contact:email": "zss.gorzno@wp.pl",
                "ref:regon": "411129164",
                "ref:vatin": "PL6972049617",
                "operator": "Powiat Leszczy\u0144ski",
                "operator:type": "government",
                "landuse": "education",
                "fixme": "amenity=school, amenity=college albo landuse=education w zale\u017cno\u015bci od tego, jakie plac\u00f3wki wchodz\u0105 w sk\u0142ad zespo\u0142u. Sprawd\u017a, kiedy stosowa\u0107 amenity=* a kiedy landuse=education.",
                "note": "Children RSPO: 30038;30041;30043;118659"
            }
        },
        {
            "id": 30038,
            "type": "Feature",
            "geometry": {
                "type": "Point",
                "coordinates": [
                    16.79433,
                    51.88854
                ]
            },
            "properties": {
                "isced:level": "1;2",
                "ref:rspo": 30038,
                "official_name": "Szko\u0142a Podstawowa Przy Sp Zoz Msw Centrum Rehabilitacji w G\u00f3rznie",
                "name": "Szko\u0142a Podstawowa Przy Sp Zoz Msw Centrum Rehabilitacji w G\u00f3rznie",
                "addr:country": "PL",
                "addr:postcode": "64-120",
                "addr:place": "G\u00f3rzno",
                "addr:housenumber": "63",
                "addr:teryt:sym_ul": 372291,
                "contact:phone": "+48 693458007",
                "contact:email": "zss.gorzno@wp.pl",
                "ref:regon": "001202579",
                "ref:vatin": "PL6972049617",
                "operator": "Powiat Leszczy\u0144ski",
                "operator:type": "government",
                "amenity": "school",
                "note": "Parent RSPO: 26102"
            }
        },
        {
            "id": 30041,
            "type": "Feature",
            "geometry": {
                "type": "Point",
                "coordinates": [
                    16.79433,
                    51.888510000000004
                ]
            },
            "properties": {
                "isced:level": "1;2",
                "ref:rspo": 30041,
                "official_name": "Szko\u0142a Podstawowa Specjalna w G\u00f3rznie",
                "name": "Szko\u0142a Podstawowa Specjalna w G\u00f3rznie",
                "addr:country": "PL",
                "addr:postcode": "64-120",
                "addr:place": "G\u00f3rzno",
                "addr:housenumber": "63",
                "addr:teryt:sym_ul": 372291,
                "contact:phone": "+48 693458007",
                "contact:email": "zss.gorzno@wp.pl",
                "ref:regon": "301512827",
                "ref:vatin": "PL6972049617",
                "operator": "Powiat Leszczy\u0144ski",
                "operator:type": "government",
                "amenity": "school",
                "note": "Parent RSPO: 26102"
            }
        },
        {
            "id": 30043,
            "type": "Feature",
            "geometry": {
                "type": "Point",
                "coordinates": [
                    16.79433,
                    51.88848
                ]
            },
            "properties": {
                "ref:rspo": 30043,
                "official_name": "Szko\u0142a Specjalna Przysposabiajaca Do Pracy w G\u00f3rznie",
                "name": "Szko\u0142a Specjalna Przysposabiajaca Do Pracy w G\u00f3rznie",
                "addr:country": "PL",
                "addr:postcode": "64-120",
                "addr:place": "G\u00f3rzno",
                "addr:housenumber": "63",
                "addr:teryt:sym_ul": 372291,
                "contact:phone": "+48 693458007",
                "contact:email": "zss.gorzno@wp.pl",
                "ref:regon": "301842967",
                "ref:vatin": "PL6972049617",
                "operator": "Powiat Leszczy\u0144ski",
                "operator:type": "government",
                "amenity": "school",
                "note": "Parent RSPO: 26102"
            }
        },
        {
            "id": 118659,
            "type": "Feature",
            "geometry": {
                "type": "Point",
                "coordinates": [
                    16.79433,
                    51.88845
                ]
            },
            "properties": {
                "isced:level": "3",
                "ref:rspo": 118659,
                "official_name": "Liceum Og\u00f3lnokszta\u0142c\u0105ce Specjalne Przy Sp Zoz Msw Centrum Rehabilitacji w G\u00f3rznie",
                "name": "Liceum Og\u00f3lnokszta\u0142c\u0105ce Specjalne Przy Sp Zoz Msw Centrum Rehabilitacji w G\u00f3rznie",
                "addr:country": "PL",
                "addr:postcode": "64-120",
                "addr:place": "G\u00f3rzno",
                "addr:housenumber": "63",
                "addr:teryt:sym_ul": 372291,
                "contact:phone": "+48 693458007",
                "contact:email": "zss.gorzno@wp.pl",
                "ref:regon": "302498087",
                "operator": "Powiat Leszczy\u0144ski",
                "operator:type": "government",
                "amenity": "school",
                "note": "Parent RSPO: 26102"
            }
        },
        {
            "id": 6231,
            "type": "Feature",
            "geometry": {
                "type": "Point",
                "coordinates": [
                    16.85742,
                    51.89302
                ]
            },
            "properties": {
                "isced:level": "1;2",
                "ref:rspo": 6231,
                "official_name": "Publiczna Szko\u0142a Podstawowa im. J\u00f3zefa Ponikiewskiego w Nowym Bel\u0119cinie",
                "name": "Publiczna Szko\u0142a Podstawowa",
                "addr:country": "PL",
                "addr:postcode": "64-120",
                "addr:place": "Nowy Bel\u0119cin",
                "addr:housenumber": "30",
                "addr:teryt:sym_ul": 372374,
                "contact:phone": "+48 655366161",
                "contact:email": "spbel_dyr@wp.pl",
                "contact:website": "http:\/\/spnowybelecin.edu.pl",
                "ref:regon": "001117980",
                "operator": "Gmina Krzemieniewo",
                "operator:type": "government",
                "amenity": "school"
            }
        }
    ]
}