{
    "type": "FeatureCollection",
    "features": [
        {
            "id": 28161,
            "type": "Feature",
            "geometry": {
                "type": "Point",
                "coordinates": [
                    16.69466,
                    51.73942
                ]
            },
            "properties": {
                "isced:level": "1;2",
                "ref:rspo": 28161,
                "official_name": "Szko\u0142a Podstawowa im. Armii Krajowej w Kaczkowie Z Siedzib\u0105 w Roj\u0119czynie",
                "name": "Szko\u0142a Podstawowa",
                "addr:country": "PL",
                "addr:postcode": "64-130",
                "addr:place": "Roj\u0119czyn",
                "addr:housenumber": "17",
                "addr:teryt:sym_ul": 376225,
                "contact:phone": "+48 655388164",
                "contact:email": "spkaczkowo@interia.pl",
                "contact:website": "http:\/\/spkaczkowo.superszkolna.pl",
                "ref:regon": "001118005",
                "ref:vatin": "PL6971019962",
                "operator": "Gmina Rydzyna",
                "operator:type": "government",
                "amenity": "school"
            }
        },
        {
            "id": 28164,
            "type": "Feature",
            "geometry": {
                "type": "Point",
                "coordinates": [
                    16.66963,
                    51.78684
                ]
            },
            "properties": {
                "isced:level": "1;2",
                "ref:rspo": 28164,
                "official_name": "Szko\u0142a Podstawowa im. 17 Pu\u0142ku U\u0142an\u00f3w Wielkopolskich w Rydzynie",
                "name": "Szko\u0142a Podstawowa",
                "addr:country": "PL",
                "addr:postcode": "64-130",
                "addr:city": "Rydzyna",
                "addr:street": "Zamkowa",
                "addr:housenumber": "3",
                "addr:teryt:simc": 25547,
                "addr:teryt:sym_ul": 954633,
                "contact:phone": "+48 655380022",
                "contact:email": "spwrydzynie@poczta.onet.pl",
                "contact:website": "http:\/\/www.spwrydzynie.ir-tel.pl",
                "ref:regon": "000240135",
                "ref:vatin": "PL6971019933",
                "operator": "Gmina Rydzyna",
                "operator:type": "government",
                "amenity": "school"
            }
        },
        {
            "id": 27213,
            "type": "Feature",
            "geometry": {
                "type": "Point",
                "coordinates": [
                    16.66927,
                    51.7883799
                ]
            },
            "properties": {
                "ref:rspo": 27213,
                "official_name": "Powiatowa Poradnia Psychologiczno-Pedagogiczna w Rydzynie",
                "name": "Powiatowa Poradnia Psychologiczno-Pedagogiczna w Rydzynie",
                "addr:country": "PL",
                "addr:postcode": "64-130",
                "addr:city": "Rydzyna",
                "addr:street": "Plac Zamkowy",
                "addr:housenumber": "2",
                "addr:teryt:simc": 38633,
                "addr:teryt:sym_ul": 954633,
                "contact:phone": "+48 655380055",
                "contact:email": "powiatowapppleszno@onet.pl",
                "contact:website": "http:\/\/www.powiatowapppleszno.pl",
                "ref:regon": "301491947",
                "ref:vatin": "PL6972283359",
                "operator": "Powiat Leszczy\u0144ski",
                "operator:type": "government",
                "healthcare": "counselling",
                "counselling_type": "education",
                "fixme": "w zale\u017cno\u015bci od przedmiotu dzia\u0142alno\u015bci (np. healthcare=counselling + counselling_type=education albo healthcare=psychotherapist)"
            }
        },
        {
            "id": 28566,
            "type": "Feature",
            "geometry": {
                "type": "Point",
                "coordinates": [
                    16.66927,
                    51.7883499
                ]
            },
            "properties": {
                "ref:rspo": 28566,
                "official_name": "Specjalny O\u015brodek Szkolno-Wychowawczy im.franciszka Ratajczaka w Rydzynie",
                "name": "Specjalny O\u015brodek Szkolno-Wychowawczy im.franciszka Ratajczaka w Rydzynie",
                "addr:country": "PL",
                "addr:postcode": "64-130",
                "addr:city": "Rydzyna",
                "addr:street": "Plac Zamkowy",
                "addr:housenumber": "2",
                "addr:teryt:simc": 38633,
                "addr:teryt:sym_ul": 954633,
                "contact:phone": "+48 655388592",
                "contact:email": "soswry@wp.pl",
                "contact:website": "http:\/\/www.soswrydzyna.com",
                "ref:regon": "000230214",
                "ref:vatin": "PL6971909986",
                "operator": "Powiat Leszczy\u0144ski",
                "operator:type": "government",
                "amenity": "school",
                "note": "Children RSPO: 110472;110480;111012;111016;111023;111062;268263"
            }
        },
        {
            "id": 111047,
            "type": "Feature",
            "geometry": {
                "type": "Point",
                "coordinates": [
                    16.66927,
                    51.788319900000005
                ]
            },
            "properties": {
                "ref:rspo": 111047,
                "official_name": "Sezonowe Szkolne - Schronisko M\u0142odzie\u017cowe",
                "name": "Sezonowe Szkolne - Schronisko M\u0142odzie\u017cowe",
                "addr:country": "PL",
                "addr:postcode": "64-130",
                "addr:city": "Rydzyna",
                "addr:street": "Plac Zamkowy",
                "addr:housenumber": "2",
                "addr:teryt:simc": 38633,
                "addr:teryt:sym_ul": 954633,
                "contact:phone": "+48 655388592",
                "contact:email": "soswry@wp.pl",
                "contact:website": "http:\/\/soswrydzyna.com",
                "ref:regon": "300373499",
                "ref:vatin": "PL6971909986",
                "operator": "Powiat Leszczy\u0144ski",
                "operator:type": "government",
                "tourism": "hostel"
            }
        },
        {
            "id": 110472,
            "type": "Feature",
            "geometry": {
                "type": "Point",
                "coordinates": [
                    16.66927,
                    51.7882899
                ]
            },
            "properties": {
                "isced:level": "1;2",
                "ref:rspo": 110472,
                "official_name": "Szko\u0142a Podstawowa Specjalna",
                "name": "Szko\u0142a Podstawowa Specjalna",
                "addr:country": "PL",
                "addr:postcode": "64-130",
                "addr:city": "Rydzyna",
                "addr:street": "Plac Zamkowy",
                "addr:housenumber": "2",
                "addr:teryt:simc": 38633,
                "addr:teryt:sym_ul": 954633,
                "contact:phone": "+48 655388592",
                "contact:email": "soswry@wp.pl",
                "contact:website": "http:\/\/www.soswrydzyna.com",
                "ref:regon": "001038230",
                "ref:vatin": "PL6971909986",
                "operator": "Powiat Leszczy\u0144ski",
                "operator:type": "government",
                "amenity": "school",
                "note": "Parent RSPO: 28566"
            }
        },
        {
            "id": 110480,
            "type": "Feature",
            "geometry": {
                "type": "Point",
                "coordinates": [
                    16.66927,
                    51.7882599
                ]
            },
            "properties": {
                "isced:level": "1;2",
                "ref:rspo": 110480,
                "official_name": "Szko\u0142a Podstawowa Specjalna dla Dzieci S\u0142abos\u0142ysz\u0105cych I Nies\u0142ysz\u0105cych",
                "name": "Szko\u0142a Podstawowa Specjalna dla Dzieci S\u0142abos\u0142ysz\u0105cych I Nies\u0142ysz\u0105cych",
                "addr:country": "PL",
                "addr:postcode": "64-130",
                "addr:city": "Rydzyna",
                "addr:street": "Plac Zamkowy",
                "addr:housenumber": "2",
                "addr:teryt:simc": 38633,
                "addr:teryt:sym_ul": 954633,
                "contact:phone": "+48 655388592",
                "contact:email": "soswry@wp.pl",
                "contact:website": "http:\/\/www.soswrydzyna.com",
                "ref:regon": "411493763",
                "ref:vatin": "PL6971909986",
                "operator": "Powiat Leszczy\u0144ski",
                "operator:type": "government",
                "amenity": "school",
                "note": "Parent RSPO: 28566"
            }
        },
        {
            "id": 111012,
            "type": "Feature",
            "geometry": {
                "type": "Point",
                "coordinates": [
                    16.66927,
                    51.788229900000005
                ]
            },
            "properties": {
                "isced:level": "3",
                "ref:rspo": 111012,
                "official_name": "Liceum Og\u00f3lnokszta\u0142c\u0105ce Specjalne dla M\u0142odzie\u017cy S\u0142abos\u0142ysz\u0105cej I Nies\u0142ysz\u0105cej",
                "name": "Liceum Og\u00f3lnokszta\u0142c\u0105ce Specjalne dla M\u0142odzie\u017cy S\u0142abos\u0142ysz\u0105cej I Nies\u0142ysz\u0105cej",
                "addr:country": "PL",
                "addr:postcode": "64-130",
                "addr:city": "Rydzyna",
                "addr:street": "Plac Zamkowy",
                "addr:housenumber": "2",
                "addr:teryt:simc": 38633,
                "addr:teryt:sym_ul": 954633,
                "contact:phone": "+48 655388592",
                "contact:email": "soswry@wp.pl",
                "contact:website": "http:\/\/www.soswrydzyna.com",
                "ref:regon": "411530932",
                "ref:vatin": "PL6971909986",
                "operator": "Powiat Leszczy\u0144ski",
                "operator:type": "government",
                "amenity": "school",
                "note": "Parent RSPO: 28566"
            }
        },
        {
            "id": 111016,
            "type": "Feature",
            "geometry": {
                "type": "Point",
                "coordinates": [
                    16.66927,
                    51.7881999
                ]
            },
            "properties": {
                "isced:level": "4",
                "ref:rspo": 111016,
                "official_name": "Szko\u0142a Policealna Specjalna dla S\u0142abos\u0142ysz\u0105cych I Nies\u0142ysz\u0105cych",
                "name": "Szko\u0142a Policealna Specjalna dla S\u0142abos\u0142ysz\u0105cych I Nies\u0142ysz\u0105cych",
                "addr:country": "PL",
                "addr:postcode": "64-130",
                "addr:city": "Rydzyna",
                "addr:street": "Plac Zamkowy",
                "addr:housenumber": "2",
                "addr:teryt:simc": 38633,
                "addr:teryt:sym_ul": 954633,
                "contact:phone": "+48 655388592",
                "contact:email": "soswry@wp.pl",
                "contact:website": "http:\/\/www.soswrydzyna.com",
                "ref:regon": "300346670",
                "ref:vatin": "PL6971909986",
                "operator": "Powiat Leszczy\u0144ski",
                "operator:type": "government",
                "amenity": "college",
                "note": "Parent RSPO: 28566"
            }
        },
        {
            "id": 111023,
            "type": "Feature",
            "geometry": {
                "type": "Point",
                "coordinates": [
                    16.66927,
                    51.7881699
                ]
            },
            "properties": {
                "ref:rspo": 111023,
                "official_name": "Szko\u0142a Specjalna Przysposabiaj\u0105ca Do Pracy",
                "name": "Szko\u0142a Specjalna Przysposabiaj\u0105ca Do Pracy",
                "addr:country": "PL",
                "addr:postcode": "64-130",
                "addr:city": "Rydzyna",
                "addr:street": "Plac Zamkowy",
                "addr:housenumber": "2",
                "addr:teryt:simc": 38633,
                "addr:teryt:sym_ul": 954633,
                "contact:phone": "+48 655388592",
                "contact:email": "soswry@wp.pl",
                "contact:website": "http:\/\/www.soswrydzyna.com",
                "ref:regon": "300641468",
                "ref:vatin": "PL6971909986",
                "operator": "Powiat Leszczy\u0144ski",
                "operator:type": "government",
                "amenity": "school",
                "note": "Parent RSPO: 28566"
            }
        },
        {
            "id": 111062,
            "type": "Feature",
            "geometry": {
                "type": "Point",
                "coordinates": [
                    16.66927,
                    51.788139900000004
                ]
            },
            "properties": {
                "isced:level": "3",
                "ref:rspo": 111062,
                "official_name": "Bran\u017cowa Szko\u0142a I Stopnia Specjalna",
                "name": "Bran\u017cowa Szko\u0142a I Stopnia Specjalna",
                "addr:country": "PL",
                "addr:postcode": "64-130",
                "addr:city": "Rydzyna",
                "addr:street": "Plac Zamkowy",
                "addr:housenumber": "2",
                "addr:teryt:simc": 38633,
                "addr:teryt:sym_ul": 954633,
                "contact:phone": "+48 655388592",
                "contact:email": "soswry@wp.pl",
                "contact:website": "http:\/\/www.soswrydzyna.com",
                "ref:regon": "001038223",
                "ref:vatin": "PL6971909986",
                "operator": "Powiat Leszczy\u0144ski",
                "operator:type": "government",
                "amenity": "school",
                "note": "Parent RSPO: 28566"
            }
        },
        {
            "id": 268263,
            "type": "Feature",
            "geometry": {
                "type": "Point",
                "coordinates": [
                    16.66927,
                    51.7881099
                ]
            },
            "properties": {
                "isced:level": "3",
                "ref:rspo": 268263,
                "official_name": "Bran\u017cowa Szko\u0142a I Stopnia dla M\u0142odzie\u017cy S\u0142abos\u0142ysz\u0105cej I Nies\u0142ysz\u0105cej",
                "name": "Bran\u017cowa Szko\u0142a I Stopnia dla M\u0142odzie\u017cy S\u0142abos\u0142ysz\u0105cej I Nies\u0142ysz\u0105cej",
                "addr:country": "PL",
                "addr:postcode": "64-130",
                "addr:city": "Rydzyna",
                "addr:street": "Plac Zamkowy",
                "addr:housenumber": "2",
                "addr:teryt:simc": 38633,
                "addr:teryt:sym_ul": 954633,
                "contact:phone": "+48 655388592",
                "contact:email": "soswry@wp.pl",
                "contact:website": "http:\/\/www.soswrydzyna.com",
                "ref:regon": "381049560",
                "ref:vatin": "PL6971909986",
                "operator": "Powiat Leszczy\u0144ski",
                "operator:type": "government",
                "amenity": "school",
                "note": "Parent RSPO: 28566"
            }
        },
        {
            "id": 28162,
            "type": "Feature",
            "geometry": {
                "type": "Point",
                "coordinates": [
                    16.6599499,
                    51.7967
                ]
            },
            "properties": {
                "ref:rspo": 28162,
                "official_name": "Przedszkole Kolorowy Wiatraczek w Rydzynie",
                "name": "Przedszkole Kolorowy Wiatraczek w Rydzynie",
                "addr:country": "PL",
                "addr:postcode": "64-130",
                "addr:city": "Rydzyna",
                "addr:street": "Stanis\u0142awa Wyspia\u0144skiego",
                "addr:housenumber": "6",
                "addr:teryt:simc": 25084,
                "addr:teryt:sym_ul": 954633,
                "contact:phone": "+48 655388446",
                "contact:email": "pprydzyna@interia.pl",
                "contact:website": "http:\/\/przedszkole.rydzyna.pl",
                "ref:regon": "410268410",
                "ref:vatin": "PL6971019867",
                "operator": "Gmina Rydzyna",
                "operator:type": "government",
                "amenity": "kindergarten"
            }
        },
        {
            "id": 28167,
            "type": "Feature",
            "geometry": {
                "type": "Point",
                "coordinates": [
                    16.64818,
                    51.8101399
                ]
            },
            "properties": {
                "isced:level": "1;2",
                "ref:rspo": 28167,
                "official_name": "Szko\u0142a Podstawowa im. Tadeusza \u0141opusza\u0144skiego w D\u0105bczu",
                "name": "Szko\u0142a Podstawowa",
                "addr:country": "PL",
                "addr:postcode": "64-130",
                "addr:place": "D\u0105bcze",
                "addr:housenumber": "82",
                "addr:teryt:sym_ul": 376053,
                "contact:phone": "+48 655380026",
                "contact:email": "sp.dabcze@ir-tel.pl",
                "contact:website": "http:\/\/spdabcze.ir-tel.pl",
                "ref:regon": "001118011",
                "ref:vatin": "PL6971019838",
                "operator": "Gmina Rydzyna",
                "operator:type": "government",
                "amenity": "school"
            }
        },
        {
            "id": 126193,
            "type": "Feature",
            "geometry": {
                "type": "Point",
                "coordinates": [
                    16.69274,
                    51.81776
                ]
            },
            "properties": {
                "ref:rspo": 126193,
                "official_name": "Przedszkole Eko-Brzd\u0105c",
                "name": "Przedszkole Eko-Brzd\u0105c",
                "addr:country": "PL",
                "addr:postcode": "64-130",
                "addr:place": "Maruszewo",
                "addr:housenumber": "9",
                "addr:teryt:sym_ul": 376260,
                "contact:phone": "+48 888110300",
                "contact:email": "ekobrzdac@wp.pl",
                "ref:regon": "360173782",
                "ref:vatin": "PL6971442838",
                "operator": "Maria K\u0119dziora",
                "operator:type": "private",
                "amenity": "kindergarten"
            }
        }
    ]
}