{
    "type": "FeatureCollection",
    "features": [
        {
            "id": 120177,
            "type": "Feature",
            "geometry": {
                "type": "Point",
                "coordinates": [
                    16.69607,
                    51.8618499
                ]
            },
            "properties": {
                "ref:rspo": 120177,
                "official_name": "Niepubliczne Szkolne Schronisko Mlodzie\u017cowe Waykiki w Osiecznej",
                "name": "Niepubliczne Szkolne Schronisko Mlodzie\u017cowe Waykiki w Osiecznej",
                "addr:country": "PL",
                "addr:postcode": "64-113",
                "addr:city": "Osieczna",
                "addr:street": "Gosty\u0144ska",
                "addr:housenumber": "Letnisko",
                "addr:teryt:simc": 954567,
                "addr:teryt:sym_ul": 5860,
                "contact:phone": "+48 655296243",
                "ref:regon": "302535428",
                "operator": "Waldemar Zawidzki",
                "operator:type": "private",
                "tourism": "hostel"
            }
        },
        {
            "id": 35341,
            "type": "Feature",
            "geometry": {
                "type": "Point",
                "coordinates": [
                    16.69426,
                    51.86628
                ]
            },
            "properties": {
                "ref:rspo": 35341,
                "official_name": "Zesp\u00f3\u0142 Szk\u00f3\u0142 w K\u0105kolewie",
                "name": "Zesp\u00f3\u0142 Szk\u00f3\u0142 w K\u0105kolewie",
                "addr:country": "PL",
                "addr:postcode": "64-113",
                "addr:city": "K\u0105kolewo",
                "addr:street": "Krzywi\u0144ska",
                "addr:housenumber": "14",
                "addr:teryt:simc": 373801,
                "addr:teryt:sym_ul": 10171,
                "contact:phone": "+48 655342123",
                "contact:email": "zskakolewo@wp.pl",
                "contact:website": "http:\/\/www.zskakolewo.pl",
                "ref:regon": "411128992",
                "ref:vatin": "PL6971987578",
                "operator": "Gmina Osieczna",
                "operator:type": "government",
                "landuse": "education",
                "fixme": "amenity=school, amenity=college albo landuse=education w zale\u017cno\u015bci od tego, jakie plac\u00f3wki wchodz\u0105 w sk\u0142ad zespo\u0142u. Sprawd\u017a, kiedy stosowa\u0107 amenity=* a kiedy landuse=education.",
                "note": "Children RSPO: 35346;74185"
            }
        },
        {
            "id": 35346,
            "type": "Feature",
            "geometry": {
                "type": "Point",
                "coordinates": [
                    16.69426,
                    51.86625
                ]
            },
            "properties": {
                "ref:rspo": 35346,
                "official_name": "Przedszkole Samorz\u0105dowe w K\u0105kolewie",
                "name": "Przedszkole Samorz\u0105dowe w K\u0105kolewie",
                "addr:country": "PL",
                "addr:postcode": "64-113",
                "addr:city": "K\u0105kolewo",
                "addr:street": "Krzywi\u0144ska",
                "addr:housenumber": "14",
                "addr:teryt:simc": 373801,
                "addr:teryt:sym_ul": 10171,
                "contact:phone": "+48 655342238",
                "contact:email": "zskakolewo@wp.pl",
                "ref:regon": "300535571",
                "ref:vatin": "PL6972203030",
                "operator": "Gmina Osieczna",
                "operator:type": "government",
                "amenity": "kindergarten",
                "note": "Parent RSPO: 35341"
            }
        },
        {
            "id": 74185,
            "type": "Feature",
            "geometry": {
                "type": "Point",
                "coordinates": [
                    16.69426,
                    51.866220000000006
                ]
            },
            "properties": {
                "isced:level": "1;2",
                "ref:rspo": 74185,
                "official_name": "Szko\u0142a Podstawowa im. Powsta\u0144c\u00f3w Wielkopolskich K\u0105kolewo",
                "name": "Szko\u0142a Podstawowa",
                "addr:country": "PL",
                "addr:postcode": "64-113",
                "addr:city": "K\u0105kolewo",
                "addr:street": "Krzywi\u0144ska",
                "addr:housenumber": "14",
                "addr:teryt:simc": 373801,
                "addr:teryt:sym_ul": 10171,
                "contact:phone": "+48 655342123",
                "contact:email": "zskakolewo@wp.pl",
                "contact:website": "http:\/\/www.zskakolewo.pl",
                "ref:regon": "001118399",
                "operator": "Gmina Osieczna",
                "operator:type": "government",
                "amenity": "school",
                "note": "Parent RSPO: 35341"
            }
        },
        {
            "id": 35344,
            "type": "Feature",
            "geometry": {
                "type": "Point",
                "coordinates": [
                    16.68203,
                    51.9045
                ]
            },
            "properties": {
                "ref:rspo": 35344,
                "official_name": "Przedszkole Samorz\u0105dowe w Osiecznej",
                "name": "Przedszkole Samorz\u0105dowe w Osiecznej",
                "addr:country": "PL",
                "addr:postcode": "64-113",
                "addr:city": "Osieczna",
                "addr:street": "Miko\u0142aja Kopernika",
                "addr:housenumber": "1",
                "addr:teryt:simc": 954567,
                "addr:teryt:sym_ul": 9276,
                "contact:phone": "+48 655350116",
                "contact:email": "akademia-pana-kleksa@wp.pl",
                "ref:regon": "300535594",
                "ref:vatin": "PL6972203024",
                "operator": "Gmina Osieczna",
                "operator:type": "government",
                "amenity": "kindergarten"
            }
        },
        {
            "id": 74181,
            "type": "Feature",
            "geometry": {
                "type": "Point",
                "coordinates": [
                    16.68203,
                    51.904469999999996
                ]
            },
            "properties": {
                "isced:level": "1;2",
                "ref:rspo": 74181,
                "official_name": "Szko\u0142a Podstawowa im. Powsta\u0144c\u00f3w Wielkopolskich w Osiecznej",
                "name": "Szko\u0142a Podstawowa",
                "addr:country": "PL",
                "addr:postcode": "64-113",
                "addr:city": "Osieczna",
                "addr:street": "Miko\u0142aja Kopernika",
                "addr:housenumber": "1",
                "addr:teryt:simc": 954567,
                "addr:teryt:sym_ul": 9276,
                "contact:phone": "+48 655350508",
                "contact:email": "sekretariat@sposieczna.pl",
                "contact:website": "http:\/\/sposieczna.pl",
                "ref:regon": "000261700",
                "operator": "Gmina Osieczna",
                "operator:type": "government",
                "amenity": "school"
            }
        },
        {
            "id": 35345,
            "type": "Feature",
            "geometry": {
                "type": "Point",
                "coordinates": [
                    16.68422,
                    51.90479
                ]
            },
            "properties": {
                "ref:rspo": 35345,
                "official_name": "Szkolne Schronisko M\u0142odzie\u017cowe Morena",
                "name": "Szkolne Schronisko M\u0142odzie\u017cowe Morena",
                "addr:country": "PL",
                "addr:postcode": "64-113",
                "addr:city": "Osieczna",
                "addr:street": "Miko\u0142aja Kopernika",
                "addr:housenumber": "4",
                "addr:teryt:simc": 954567,
                "addr:teryt:sym_ul": 9276,
                "contact:phone": "+48 655350134",
                "contact:email": "j.waldmajer@osieczna.pl",
                "contact:website": "http:\/\/www.schronisko.osieczna.pl",
                "ref:regon": "411102372",
                "ref:vatin": "PL6971943569",
                "operator": "Gmina Osieczna",
                "operator:type": "government",
                "tourism": "hostel"
            }
        },
        {
            "id": 35342,
            "type": "Feature",
            "geometry": {
                "type": "Point",
                "coordinates": [
                    16.76154,
                    51.92295
                ]
            },
            "properties": {
                "ref:rspo": 35342,
                "official_name": "Zesp\u00f3\u0142 Szk\u00f3\u0142 w \u015awierczynie",
                "name": "Zesp\u00f3\u0142 Szk\u00f3\u0142 w \u015awierczynie",
                "addr:country": "PL",
                "addr:postcode": "64-113",
                "addr:place": "\u015awierczyna",
                "addr:housenumber": "43A",
                "addr:teryt:simc": 373913,
                "contact:phone": "+48 655350118",
                "contact:email": "szkola@pspswierczyna.pl",
                "contact:website": "http:\/\/www.pspswierczyna.pl",
                "ref:regon": "301176358",
                "ref:vatin": "PL6972264072",
                "operator": "Gmina Osieczna",
                "operator:type": "government",
                "landuse": "education",
                "fixme": "amenity=school, amenity=college albo landuse=education w zale\u017cno\u015bci od tego, jakie plac\u00f3wki wchodz\u0105 w sk\u0142ad zespo\u0142u. Sprawd\u017a, kiedy stosowa\u0107 amenity=* a kiedy landuse=education.",
                "note": "Children RSPO: 74183;74184"
            }
        },
        {
            "id": 74183,
            "type": "Feature",
            "geometry": {
                "type": "Point",
                "coordinates": [
                    16.76154,
                    51.92292
                ]
            },
            "properties": {
                "isced:level": "1;2",
                "ref:rspo": 74183,
                "official_name": "Szko\u0142a Podstawowa w \u015awierczynie",
                "name": "Szko\u0142a Podstawowa w \u015awierczynie",
                "addr:country": "PL",
                "addr:postcode": "64-113",
                "addr:place": "\u015awierczyna",
                "addr:housenumber": "43A",
                "addr:teryt:simc": 373913,
                "contact:phone": "+48 655350118",
                "contact:email": "szkola@pspswierczyna.pl",
                "contact:website": "http:\/\/www.pspswierczyna.pl",
                "ref:regon": "001118382",
                "operator": "Gmina Osieczna",
                "operator:type": "government",
                "amenity": "school",
                "note": "Parent RSPO: 35342"
            }
        },
        {
            "id": 74184,
            "type": "Feature",
            "geometry": {
                "type": "Point",
                "coordinates": [
                    16.76154,
                    51.92289
                ]
            },
            "properties": {
                "ref:rspo": 74184,
                "official_name": "Przedszkole Samorz\u0105dowe w \u015awierczynie",
                "name": "Przedszkole Samorz\u0105dowe w \u015awierczynie",
                "addr:country": "PL",
                "addr:postcode": "64-113",
                "addr:place": "\u015awierczyna",
                "addr:housenumber": "43A",
                "addr:teryt:simc": 373913,
                "contact:phone": "+48 655350118",
                "contact:email": "szkola@pspswierczyna.pl",
                "ref:regon": "300535559",
                "ref:vatin": "PL6972203001",
                "operator": "Gmina Osieczna",
                "operator:type": "government",
                "amenity": "kindergarten",
                "note": "Parent RSPO: 35342"
            }
        },
        {
            "id": 35343,
            "type": "Feature",
            "geometry": {
                "type": "Point",
                "coordinates": [
                    16.66337,
                    51.93197
                ]
            },
            "properties": {
                "ref:rspo": 35343,
                "official_name": "Przedszkole Samorz\u0105dowe w Drzeczkowie",
                "name": "Przedszkole Samorz\u0105dowe w Drzeczkowie",
                "addr:country": "PL",
                "addr:postcode": "64-113",
                "addr:place": "Drzeczkowo",
                "addr:housenumber": "21A",
                "addr:teryt:simc": 373758,
                "contact:phone": "+48 655350979",
                "contact:email": "przedszkoledrzeczkowo@o2.pl",
                "ref:regon": "300535542",
                "ref:vatin": "PL6972203018",
                "operator": "Gmina Osieczna",
                "operator:type": "government",
                "amenity": "kindergarten"
            }
        }
    ]
}