{
    "type": "FeatureCollection",
    "features": [
        {
            "id": 110410,
            "type": "Feature",
            "geometry": {
                "type": "Point",
                "coordinates": [
                    16.4111,
                    51.88941
                ]
            },
            "properties": {
                "isced:level": "1;2",
                "ref:rspo": 110410,
                "official_name": "Szkola Podstawowa im. Tadeusza Ko\u015bciuszki w Jezierzycach Ko\u015bcielnych",
                "name": "Szkola Podstawowa",
                "addr:postcode": "64-117",
                "addr:city": "Jezierzyce Ko\u015bcielne",
                "addr:street": "Szkolna",
                "addr:housenumber": "25",
                "addr:city:simc": 377680,
                "addr:street:sym_ul": 21970,
                "phone": "+48 655331457",
                "email": "szkola.jezierzyce@wloszakowice.pl",
                "website": "http:\/\/www.zsjezierzyce.cba.pl\/",
                "ref:regon": "001202036",
                "operator": "Gmina W\u0142oszakowice",
                "operator:type": "government",
                "amenity": "school"
            }
        },
        {
            "id": 110400,
            "type": "Feature",
            "geometry": {
                "type": "Point",
                "coordinates": [
                    16.45226,
                    51.90857
                ]
            },
            "properties": {
                "isced:level": "1;2",
                "ref:rspo": 110400,
                "official_name": "Szko\u0142a Podstawowa im. Marii Konopnickiej w Krzycku Wielkim",
                "name": "Szko\u0142a Podstawowa",
                "addr:postcode": "64-117",
                "addr:city": "Krzycko Wielkie",
                "addr:street": "Szkolna",
                "addr:housenumber": "6",
                "addr:city:simc": 377704,
                "addr:street:sym_ul": 21970,
                "phone": "+48 655331516",
                "email": "szkola.krzycko@wloszakowice.pl",
                "website": "http:\/\/www.szkola-krzycko.pl",
                "ref:regon": "001202020",
                "operator": "Gmina W\u0142oszakowice",
                "operator:type": "government",
                "amenity": "school"
            }
        },
        {
            "id": 266029,
            "type": "Feature",
            "geometry": {
                "type": "Point",
                "coordinates": [
                    16.36262,
                    51.9265
                ]
            },
            "properties": {
                "ref:rspo": 266029,
                "official_name": "Niepubliczne Przedszkole \"S\u0142oneczko\"",
                "name": "Niepubliczne Przedszkole \"S\u0142oneczko\"",
                "addr:postcode": "64-140",
                "addr:city": "W\u0142oszakowice",
                "addr:street": "Kra\u0144cowa",
                "addr:housenumber": "5",
                "addr:city:simc": 377756,
                "addr:street:sym_ul": 9819,
                "email": "przedszkolesloneczko2@o2.pl",
                "ref:regon": "369172880",
                "ref:vatin": "PL6972072088",
                "operator": "Joanna Frankowska",
                "operator:type": "private",
                "amenity": "kindergarten"
            }
        },
        {
            "id": 83528,
            "type": "Feature",
            "geometry": {
                "type": "Point",
                "coordinates": [
                    16.36689,
                    51.93104
                ]
            },
            "properties": {
                "ref:rspo": 83528,
                "official_name": "Przedszkole nr 2 W\u0142oszakowice",
                "name": "Przedszkole nr 2 W\u0142oszakowice",
                "addr:postcode": "64-140",
                "addr:city": "W\u0142oszakowice",
                "addr:street": "Karola Kurpi\u0144skiego",
                "addr:housenumber": "27",
                "addr:city:simc": 377756,
                "addr:street:sym_ul": 10465,
                "phone": "+48 655252989",
                "email": "przedszkole@wloszakowice.pl",
                "ref:regon": "411450720",
                "ref:vatin": "PL6972079825",
                "operator": "Gmina W\u0142oszakowice",
                "operator:type": "government",
                "amenity": "kindergarten"
            }
        },
        {
            "id": 83272,
            "type": "Feature",
            "geometry": {
                "type": "Point",
                "coordinates": [
                    16.37118,
                    51.93192
                ]
            },
            "properties": {
                "ref:rspo": 83272,
                "official_name": "Zesp\u00f3\u0142 Szk\u00f3\u0142 Og\u00f3lnokszta\u0142c\u0105cych im. Karola Kurpi\u0144skiego we W\u0142oszakowicach",
                "name": "Zesp\u00f3\u0142 Szk\u00f3\u0142 Og\u00f3lnokszta\u0142c\u0105cych",
                "addr:postcode": "64-140",
                "addr:city": "W\u0142oszakowice",
                "addr:street": "Karola Kurpi\u0144skiego",
                "addr:housenumber": "30",
                "addr:city:simc": 377756,
                "addr:street:sym_ul": 10465,
                "phone": "+48 655370017",
                "email": "zso@wloszakowice.pl",
                "website": "http:\/\/www.zsowlosz.edu.pl",
                "ref:regon": "410010811",
                "ref:vatin": "PL6971105756",
                "operator": "Gmina W\u0142oszakowice",
                "operator:type": "government",
                "landuse": "education",
                "fixme": "amenity=school, amenity=college albo landuse=education w zale\u017cno\u015bci od tego, jakie plac\u00f3wki wchodz\u0105 w sk\u0142ad zespo\u0142u. Sprawd\u017a, kiedy stosowa\u0107 amenity=* a kiedy landuse=education.",
                "note": "Children RSPO: 110199;110200;110201"
            }
        },
        {
            "id": 110199,
            "type": "Feature",
            "geometry": {
                "type": "Point",
                "coordinates": [
                    16.37118,
                    51.931889999999996
                ]
            },
            "properties": {
                "isced:level": "1;2",
                "ref:rspo": 110199,
                "official_name": "Szko\u0142a Podstawowa im. Karola Kurpi\u0144skiego we W\u0142oszakowicach",
                "name": "Szko\u0142a Podstawowa",
                "addr:postcode": "64-140",
                "addr:city": "W\u0142oszakowice",
                "addr:street": "Karola Kurpi\u0144skiego",
                "addr:housenumber": "30",
                "addr:city:simc": 377756,
                "addr:street:sym_ul": 10465,
                "phone": "+48 655370017",
                "email": "zso@wloszakowice.pl",
                "website": "http:\/\/zsowlosz.edu.pl",
                "ref:regon": "411505064",
                "ref:vatin": "PL6971105756",
                "operator": "Gmina W\u0142oszakowice",
                "operator:type": "government",
                "amenity": "school",
                "note": "Parent RSPO: 83272"
            }
        },
        {
            "id": 110200,
            "type": "Feature",
            "geometry": {
                "type": "Point",
                "coordinates": [
                    16.37118,
                    51.93186
                ]
            },
            "properties": {
                "isced:level": "3",
                "ref:rspo": 110200,
                "official_name": "Bran\u017cowa Szko\u0142a I Stopnia im. Weteran\u00f3w Dzia\u0142a\u0144 Poza Granicami Pa\u0144stwa",
                "name": "Bran\u017cowa Szko\u0142a I Stopnia",
                "addr:postcode": "64-140",
                "addr:city": "W\u0142oszakowice",
                "addr:street": "Karola Kurpi\u0144skiego",
                "addr:housenumber": "30",
                "addr:city:simc": 377756,
                "addr:street:sym_ul": 10465,
                "phone": "+48 655370017",
                "email": "zso@wloszakowice.pl",
                "website": "http:\/\/zsowlosz.edu.pl",
                "ref:regon": "300636705",
                "ref:vatin": "PL6971105756",
                "operator": "Gmina W\u0142oszakowice",
                "operator:type": "government",
                "amenity": "school",
                "note": "Parent RSPO: 83272"
            }
        },
        {
            "id": 110201,
            "type": "Feature",
            "geometry": {
                "type": "Point",
                "coordinates": [
                    16.37118,
                    51.93183
                ]
            },
            "properties": {
                "isced:level": "3",
                "ref:rspo": 110201,
                "official_name": "Liceum Og\u00f3lnokszta\u0142c\u0105ce im. Karola Kurpi\u0144skiego we W\u0142oszakowicach",
                "name": "Liceum Og\u00f3lnokszta\u0142c\u0105ce",
                "addr:postcode": "64-140",
                "addr:city": "W\u0142oszakowice",
                "addr:street": "Karola Kurpi\u0144skiego",
                "addr:housenumber": "30",
                "addr:city:simc": 377756,
                "addr:street:sym_ul": 10465,
                "phone": "+48 655370017",
                "email": "zso@wloszakowice.pl",
                "website": "http:\/\/zsowlosz.edu.pl",
                "ref:regon": "411505041",
                "ref:vatin": "PL6971105756",
                "operator": "Gmina W\u0142oszakowice",
                "operator:type": "government",
                "amenity": "school",
                "note": "Parent RSPO: 83272"
            }
        },
        {
            "id": 266019,
            "type": "Feature",
            "geometry": {
                "type": "Point",
                "coordinates": [
                    16.37408,
                    51.93206
                ]
            },
            "properties": {
                "ref:rspo": 266019,
                "official_name": "Przedszkole Niepubliczne \"Kolorowe Kredki\"",
                "name": "Przedszkole Niepubliczne \"Kolorowe Kredki\"",
                "addr:postcode": "64-140",
                "addr:city": "W\u0142oszakowice",
                "addr:street": "Dworcowa",
                "addr:housenumber": "11",
                "addr:city:simc": 377756,
                "addr:street:sym_ul": 4434,
                "email": "rekrutacja.kolorowekredki@wp.pl",
                "website": "http:\/\/kolorowekredki-wl.pl\/",
                "ref:regon": "369172732",
                "ref:vatin": "PL9231576242",
                "operator": "Kinga \u0141o\u0142a",
                "operator:type": "private",
                "amenity": "kindergarten"
            }
        },
        {
            "id": 110408,
            "type": "Feature",
            "geometry": {
                "type": "Point",
                "coordinates": [
                    16.40278,
                    51.94718
                ]
            },
            "properties": {
                "isced:level": "1;2",
                "ref:rspo": 110408,
                "official_name": "Szko\u0142a Podstawowa im. Ks. Teodora Kurpisza w Buk\u00f3wcu G\u00f3rnym",
                "name": "Szko\u0142a Podstawowa",
                "addr:postcode": "64-140",
                "addr:city": "Buk\u00f3wiec G\u00f3rny",
                "addr:street": "Powsta\u0144c\u00f3w Wielkopolskich",
                "addr:housenumber": "114",
                "addr:city:simc": 377638,
                "addr:street:sym_ul": 17377,
                "phone": "+48 655372207",
                "email": "szkola.bukowiec@wloszakowice.pl",
                "website": "http:\/\/www.szkola.bukowiec-gorny.pl",
                "ref:regon": "001202059",
                "operator": "Gmina W\u0142oszakowice",
                "operator:type": "government",
                "amenity": "school"
            }
        },
        {
            "id": 273040,
            "type": "Feature",
            "geometry": {
                "type": "Point",
                "coordinates": [
                    16.32703,
                    51.94973
                ]
            },
            "properties": {
                "ref:rspo": 273040,
                "official_name": "Niepubliczne Szkolne Schronisko M\u0142odzie\u017cowe",
                "name": "Niepubliczne Szkolne Schronisko M\u0142odzie\u017cowe",
                "addr:postcode": "64-140",
                "addr:city": "Boszkowo-Letnisko",
                "addr:street": "Dominicka",
                "addr:housenumber": "42",
                "addr:city:simc": 377621,
                "addr:street:sym_ul": 4097,
                "phone": "+48 655371175",
                "ref:regon": "384358882",
                "operator": "Pawe\u0142 John",
                "operator:type": "private",
                "tourism": "hostel",
                "note": "Parent RSPO: 28565"
            }
        },
        {
            "id": 28565,
            "type": "Feature",
            "geometry": {
                "type": "Point",
                "coordinates": [
                    16.334999084473,
                    51.957778930664
                ]
            },
            "properties": {
                "ref:rspo": 28565,
                "official_name": "Zesp\u00f3\u0142 Niepublicznych Szkolnych Schronisk Mlodzie\u017cowych \"Sadyba\" w Boszkowie",
                "name": "Zesp\u00f3\u0142 Niepublicznych Szkolnych Schronisk Mlodzie\u017cowych \"Sadyba\" w Boszkowie",
                "addr:postcode": "64-140",
                "addr:city": "Boszkowo-Letnisko",
                "addr:street": "Starkowska",
                "addr:housenumber": "26",
                "addr:city:simc": 377621,
                "addr:street:sym_ul": 20912,
                "phone": "+48 655371175",
                "ref:regon": "302239256",
                "operator": "Pawe\u0142 John",
                "operator:type": "private",
                "landuse": "education",
                "fixme": "amenity=school, amenity=college albo landuse=education w zale\u017cno\u015bci od tego, jakie plac\u00f3wki wchodz\u0105 w sk\u0142ad zespo\u0142u. Sprawd\u017a, kiedy stosowa\u0107 amenity=* a kiedy landuse=education.",
                "note": "Children RSPO: 273032;273037;273040"
            }
        },
        {
            "id": 273032,
            "type": "Feature",
            "geometry": {
                "type": "Point",
                "coordinates": [
                    16.334999084473,
                    51.957748930663996
                ]
            },
            "properties": {
                "ref:rspo": 273032,
                "official_name": "Niepubliczne Szkolne Schronisko M\u0142odzie\u017cowe",
                "name": "Niepubliczne Szkolne Schronisko M\u0142odzie\u017cowe",
                "addr:postcode": "64-140",
                "addr:city": "Boszkowo-Letnisko",
                "addr:street": "Starkowska",
                "addr:housenumber": "26",
                "addr:city:simc": 377621,
                "addr:street:sym_ul": 20912,
                "phone": "+48 655371175",
                "ref:regon": "384357670",
                "operator": "Pawe\u0142 John",
                "operator:type": "private",
                "tourism": "hostel",
                "note": "Parent RSPO: 28565"
            }
        },
        {
            "id": 273037,
            "type": "Feature",
            "geometry": {
                "type": "Point",
                "coordinates": [
                    16.32245,
                    51.95828
                ]
            },
            "properties": {
                "ref:rspo": 273037,
                "official_name": "Niepubliczne Szkolne Schronisko M\u0142odzie\u017cowe",
                "name": "Niepubliczne Szkolne Schronisko M\u0142odzie\u017cowe",
                "addr:postcode": "64-140",
                "addr:city": "Boszkowo-Letnisko",
                "addr:street": "Turystyczna",
                "addr:housenumber": "7",
                "addr:city:simc": 377621,
                "addr:street:sym_ul": 23184,
                "phone": "+48 655371175",
                "ref:regon": "384358853",
                "operator": "Pawe\u0142 John",
                "operator:type": "private",
                "tourism": "hostel",
                "note": "Parent RSPO: 28565"
            }
        },
        {
            "id": 110535,
            "type": "Feature",
            "geometry": {
                "type": "Point",
                "coordinates": [
                    16.3775151,
                    51.9636252
                ]
            },
            "properties": {
                "isced:level": "1;2",
                "ref:rspo": 110535,
                "official_name": "Szko\u0142a Podstawowa w D\u0142u\u017cynie",
                "name": "Szko\u0142a Podstawowa w D\u0142u\u017cynie",
                "addr:postcode": "64-140",
                "addr:city": "D\u0142u\u017cyna",
                "addr:street": "Szkolna",
                "addr:housenumber": "1",
                "addr:city:simc": 377650,
                "addr:street:sym_ul": 21970,
                "phone": "+48 655370058",
                "email": "szkola.dluzyna@wloszakowice.pl",
                "website": "http:\/\/www.dluzyna.pl",
                "ref:regon": "410231535",
                "operator": "Gmina W\u0142oszakowice",
                "operator:type": "government",
                "amenity": "school"
            }
        }
    ]
}