{
    "type": "FeatureCollection",
    "features": [
        {
            "id": 107280,
            "type": "Feature",
            "geometry": {
                "type": "Point",
                "coordinates": [
                    15.33425,
                    51.59754
                ]
            },
            "properties": {
                "isced:level": "1;2",
                "ref:rspo": 107280,
                "official_name": "Publiczna Szko\u0142a Podstawowa Nr 3 im. Jana Paw\u0142a II w \u017baganiu",
                "name": "Publiczna Szko\u0142a Podstawowa Nr 3",
                "addr:postcode": "68-100",
                "addr:city": "\u017baga\u0144",
                "addr:street": "Szkolna",
                "addr:housenumber": "42",
                "addr:city:simc": 988661,
                "addr:street:sym_ul": 21970,
                "phone": "+48 684776777",
                "email": "szkola3@poczta.onet.pl",
                "website": "http:\/\/www.psp3.um.zagan.pl",
                "ref:regon": "970675741",
                "ref:vatin": "PL9241629951",
                "operator": "Gmina \u017baga\u0144 O Statusie Miejskim",
                "operator:type": "government",
                "amenity": "school"
            }
        },
        {
            "id": 107281,
            "type": "Feature",
            "geometry": {
                "type": "Point",
                "coordinates": [
                    15.2843,
                    51.6011499
                ]
            },
            "properties": {
                "isced:level": "1;2",
                "ref:rspo": 107281,
                "official_name": "Publiczna Szko\u0142a Podstawowa Nr 4 im. Ofiar Stalagu VIII C w \u017baganiu",
                "name": "Publiczna Szko\u0142a Podstawowa Nr 4",
                "addr:postcode": "68-100",
                "addr:city": "\u017baga\u0144",
                "addr:street": "Weso\u0142a",
                "addr:housenumber": "38",
                "addr:city:simc": 988661,
                "addr:street:sym_ul": 23884,
                "phone": "+48 684784885",
                "email": "psp4@um.zagan.pl",
                "website": "https:\/\/czworka-zagan.edupage.org",
                "ref:regon": "970675764",
                "ref:vatin": "PL9241629945",
                "operator": "Gmina \u017baga\u0144 O Statusie Miejskim",
                "operator:type": "government",
                "amenity": "school"
            }
        },
        {
            "id": 18811,
            "type": "Feature",
            "geometry": {
                "type": "Point",
                "coordinates": [
                    15.32948,
                    51.60514
                ]
            },
            "properties": {
                "ref:rspo": 18811,
                "official_name": "Pa\u0144stwowa Szko\u0142a Muzyczna I I II St. w \u017baganiu",
                "name": "Pa\u0144stwowa Szko\u0142a Muzyczna I I II St. w \u017baganiu",
                "addr:postcode": "68-100",
                "addr:city": "\u017baga\u0144",
                "addr:street": "\u017belazna",
                "addr:housenumber": "1",
                "addr:city:simc": 988661,
                "addr:street:sym_ul": 26433,
                "phone": "+48 683772785",
                "email": "psmuza@wp.pl",
                "website": "http:\/\/psmuza.zagan.pl",
                "ref:regon": "000282659",
                "operator": "Ministerstwo Kultury I Dziedzictwa Narodowego",
                "operator:type": "public",
                "landuse": "education",
                "fixme": "amenity=school, amenity=college albo landuse=education w zale\u017cno\u015bci od tego, jakie plac\u00f3wki wchodz\u0105 w sk\u0142ad zespo\u0142u. Sprawd\u017a, kiedy stosowa\u0107 amenity=* a kiedy landuse=education.",
                "note": "Children RSPO: 78078;78079"
            }
        },
        {
            "id": 78078,
            "type": "Feature",
            "geometry": {
                "type": "Point",
                "coordinates": [
                    15.32948,
                    51.605109999999996
                ]
            },
            "properties": {
                "ref:rspo": 78078,
                "official_name": "Pa\u0144stwowa Szko\u0142a Muzyczna II St. w \u017baganiu",
                "name": "Pa\u0144stwowa Szko\u0142a Muzyczna II St. w \u017baganiu",
                "addr:postcode": "68-100",
                "addr:city": "\u017baga\u0144",
                "addr:street": "\u017belazna",
                "addr:housenumber": "1",
                "addr:city:simc": 988661,
                "addr:street:sym_ul": 26433,
                "phone": "+48 683772785",
                "email": "psmuza@wp.pl",
                "website": "https:\/\/www.psmuza.zagan.pl\/",
                "ref:regon": "081087334",
                "operator": "Ministerstwo Kultury I Dziedzictwa Narodowego",
                "operator:type": "public",
                "amenity": "music_school",
                "note": "Parent RSPO: 18811"
            }
        },
        {
            "id": 78079,
            "type": "Feature",
            "geometry": {
                "type": "Point",
                "coordinates": [
                    15.32948,
                    51.60508
                ]
            },
            "properties": {
                "ref:rspo": 78079,
                "official_name": "Pa\u0144stwowa Szko\u0142a Muzyczna I St. im. Henryka Wieniawskiego w \u017baganiu",
                "name": "Pa\u0144stwowa Szko\u0142a Muzyczna I St.",
                "addr:postcode": "68-100",
                "addr:city": "\u017baga\u0144",
                "addr:street": "\u017belazna",
                "addr:housenumber": "1",
                "addr:city:simc": 988661,
                "addr:street:sym_ul": 26433,
                "phone": "+48 683772785",
                "email": "psmuza@wp.pl",
                "website": "https:\/\/www.psmuza.zagan.pl\/",
                "ref:regon": "081087340",
                "operator": "Ministerstwo Kultury I Dziedzictwa Narodowego",
                "operator:type": "public",
                "amenity": "music_school",
                "note": "Parent RSPO: 18811"
            }
        },
        {
            "id": 119454,
            "type": "Feature",
            "geometry": {
                "type": "Point",
                "coordinates": [
                    15.31347,
                    51.60884
                ]
            },
            "properties": {
                "isced:level": "3",
                "ref:rspo": 119454,
                "official_name": "Liceum Og\u00f3lnokszta\u0142c\u0105ce dla Doros\u0142ych",
                "name": "Liceum Og\u00f3lnokszta\u0142c\u0105ce dla Doros\u0142ych",
                "addr:postcode": "68-100",
                "addr:city": "\u017baga\u0144",
                "addr:street": "Dworcowa",
                "addr:housenumber": "49",
                "addr:city:simc": 988661,
                "addr:street:sym_ul": 4434,
                "phone": "+48 684777712",
                "email": "so.zagan@o2.pl",
                "website": "http:\/\/sozagan.pl",
                "ref:regon": "081159223",
                "ref:vatin": "PL9241902878",
                "operator": "Stowarzyszenie O\u015bwiatowe",
                "operator:type": "ngo",
                "amenity": "school"
            }
        },
        {
            "id": 270651,
            "type": "Feature",
            "geometry": {
                "type": "Point",
                "coordinates": [
                    15.31347,
                    51.60881
                ]
            },
            "properties": {
                "ref:rspo": 270651,
                "official_name": "Stacyjkowo Niepubliczne Przedszkole",
                "name": "Stacyjkowo Niepubliczne Przedszkole",
                "addr:postcode": "68-100",
                "addr:city": "\u017baga\u0144",
                "addr:street": "Dworcowa",
                "addr:housenumber": "49",
                "addr:city:simc": 988661,
                "addr:street:sym_ul": 4434,
                "phone": "+48 782433000",
                "email": "biuro@stacyjkowo-zagan.pl",
                "ref:regon": "382846784",
                "ref:vatin": "PL9241850325",
                "operator": "Remigiusz Ryglewicz",
                "operator:type": "private",
                "amenity": "kindergarten"
            }
        },
        {
            "id": 269822,
            "type": "Feature",
            "geometry": {
                "type": "Point",
                "coordinates": [
                    15.33193,
                    51.61196
                ]
            },
            "properties": {
                "ref:rspo": 269822,
                "official_name": "Niepubliczne Przedszkole Z Oddzia\u0142ami dla Dzieci Z Autyzmem \"Dalej Razem\" w \u017baganiu",
                "name": "Niepubliczne Przedszkole Z Oddzia\u0142ami dla Dzieci Z Autyzmem \"Dalej Razem\" w \u017baganiu",
                "addr:postcode": "68-100",
                "addr:city": "\u017baga\u0144",
                "addr:street": "Szprotawska",
                "addr:housenumber": "53",
                "addr:city:simc": 988661,
                "addr:street:sym_ul": 22076,
                "phone": "+48 606301185",
                "email": "draganczuk@poczta.onet.pl",
                "website": "http:\/\/www.fundacjasigma.pl",
                "ref:regon": "381779413",
                "operator": "Fundacja Pomocy Dzieciom \"Sigma\"",
                "operator:type": "ngo",
                "amenity": "kindergarten"
            }
        },
        {
            "id": 17310,
            "type": "Feature",
            "geometry": {
                "type": "Point",
                "coordinates": [
                    15.31127,
                    51.61224
                ]
            },
            "properties": {
                "ref:rspo": 17310,
                "official_name": "Zesp\u00f3\u0142 Szk\u00f3\u0142 Og\u00f3lnokszta\u0142c\u0105cych w \u017baganiu",
                "name": "Zesp\u00f3\u0142 Szk\u00f3\u0142 Og\u00f3lnokszta\u0142c\u0105cych w \u017baganiu",
                "addr:postcode": "68-100",
                "addr:city": "\u017baga\u0144",
                "addr:street": "Plac Orl\u0105t Lwowskich",
                "addr:housenumber": "4",
                "addr:city:simc": 988661,
                "addr:street:sym_ul": 15146,
                "phone": "+48 683772885",
                "email": "dyrektor@lozagan.pl",
                "website": "http:\/\/www.lozagan.pl",
                "ref:regon": "000776769",
                "ref:vatin": "PL9241428514",
                "operator": "Powiat \u017baga\u0144ski",
                "operator:type": "government",
                "landuse": "education",
                "fixme": "amenity=school, amenity=college albo landuse=education w zale\u017cno\u015bci od tego, jakie plac\u00f3wki wchodz\u0105 w sk\u0142ad zespo\u0142u. Sprawd\u017a, kiedy stosowa\u0107 amenity=* a kiedy landuse=education.",
                "note": "Children RSPO: 39160;39162"
            }
        },
        {
            "id": 39160,
            "type": "Feature",
            "geometry": {
                "type": "Point",
                "coordinates": [
                    15.31127,
                    51.61221
                ]
            },
            "properties": {
                "isced:level": "3",
                "ref:rspo": 39160,
                "official_name": "Liceum Og\u00f3lnokszta\u0142c\u0105ce im. Stefana Banacha w Zespole Szk\u00f3\u0142 Og\u00f3lnokszta\u0142c\u0105cych w \u017baganiu",
                "name": "Liceum Og\u00f3lnokszta\u0142c\u0105ce",
                "addr:postcode": "68-100",
                "addr:city": "\u017baga\u0144",
                "addr:street": "Plac Orl\u0105t Lwowskich",
                "addr:housenumber": "4",
                "addr:city:simc": 988661,
                "addr:street:sym_ul": 15146,
                "phone": "+48 683772885",
                "email": "dyrektor@lozagan.pl",
                "website": "http:\/\/www.lozagan.pl",
                "ref:regon": "978053619",
                "operator": "Powiat \u017baga\u0144ski",
                "operator:type": "government",
                "amenity": "school",
                "note": "Parent RSPO: 17310"
            }
        },
        {
            "id": 39162,
            "type": "Feature",
            "geometry": {
                "type": "Point",
                "coordinates": [
                    15.31127,
                    51.61218
                ]
            },
            "properties": {
                "isced:level": "3",
                "ref:rspo": 39162,
                "official_name": "Liceum Og\u00f3lnokszta\u0142c\u0105ce dla Doros\u0142ych w Zespole Szk\u00f3\u0142 Og\u00f3lnokszta\u0142c\u0105cych w \u017baganiu",
                "name": "Liceum Og\u00f3lnokszta\u0142c\u0105ce dla Doros\u0142ych w Zespole Szk\u00f3\u0142 Og\u00f3lnokszta\u0142c\u0105cych w \u017baganiu",
                "addr:postcode": "68-100",
                "addr:city": "\u017baga\u0144",
                "addr:street": "Plac Orl\u0105t Lwowskich",
                "addr:housenumber": "4",
                "addr:city:simc": 988661,
                "addr:street:sym_ul": 15146,
                "phone": "+48 683772885",
                "email": "dyrektor@lozagan.pl",
                "website": "http:\/\/www.lozagan.pl",
                "ref:regon": "080139603",
                "operator": "Powiat \u017baga\u0144ski",
                "operator:type": "government",
                "amenity": "school",
                "note": "Parent RSPO: 17310"
            }
        },
        {
            "id": 105968,
            "type": "Feature",
            "geometry": {
                "type": "Point",
                "coordinates": [
                    15.3262,
                    51.61399
                ]
            },
            "properties": {
                "ref:rspo": 105968,
                "official_name": "Miejskie Przedszkole Nr 5 im. Czes\u0142awa Janczarskiego w \u017baganiu",
                "name": "Miejskie Przedszkole Nr 5",
                "addr:postcode": "68-100",
                "addr:city": "\u017baga\u0144",
                "addr:street": "Wa\u0142owa",
                "addr:housenumber": "12",
                "addr:city:simc": 988661,
                "addr:street:sym_ul": 23586,
                "phone": "+48 684787752",
                "ref:regon": "080489711",
                "ref:vatin": "PL9241890773",
                "operator": "Gmina \u017baga\u0144 O Statusie Miejskim",
                "operator:type": "government",
                "amenity": "kindergarten",
                "note": "Parent RSPO: 278129"
            }
        },
        {
            "id": 124559,
            "type": "Feature",
            "geometry": {
                "type": "Point",
                "coordinates": [
                    15.3244,
                    51.6145
                ]
            },
            "properties": {
                "isced:level": "4",
                "ref:rspo": 124559,
                "official_name": "Szko\u0142a Policealna Centrum Nauki I Biznesu \"\u017bak\" w \u017baganiu",
                "name": "Szko\u0142a Policealna Centrum Nauki I Biznesu \"\u017bak\" w \u017baganiu",
                "addr:postcode": "68-100",
                "addr:city": "\u017baga\u0144",
                "addr:street": "Plac S\u0142owia\u0144ski",
                "addr:housenumber": "12",
                "addr:door": "-",
                "addr:city:simc": 988661,
                "addr:street:sym_ul": 20295,
                "phone": "+48 426770707",
                "email": "centrala@zak.edu.pl",
                "website": "http:\/\/www.zak.edu.pl",
                "ref:regon": "081234226",
                "operator": "Centrum Nauki I Biznesu \"\u017bak\" Sp\u00f3\u0142ka Z Ograniczon\u0105 Odpowiedzialno\u015bci\u0105",
                "operator:type": "private",
                "amenity": "college"
            }
        },
        {
            "id": 127049,
            "type": "Feature",
            "geometry": {
                "type": "Point",
                "coordinates": [
                    15.3244,
                    51.61447
                ]
            },
            "properties": {
                "ref:rspo": 127049,
                "official_name": "O\u015brodek Szkoleniowy Centrum Nauki I Biznesu \"\u017bak\" w \u017baganiu",
                "name": "O\u015brodek Szkoleniowy Centrum Nauki I Biznesu \"\u017bak\" w \u017baganiu",
                "addr:postcode": "68-100",
                "addr:city": "\u017baga\u0144",
                "addr:street": "Plac S\u0142owia\u0144ski",
                "addr:housenumber": "12",
                "addr:city:simc": 988661,
                "addr:street:sym_ul": 20295,
                "phone": "+48 426770707",
                "email": "centrala@zak.edu.pl",
                "website": "http:\/\/www.zak.edu.pl",
                "ref:regon": "361052856",
                "operator": "Centrum Nauki I Biznesu \"\u017bak\" Sp\u00f3\u0142ka Z Ograniczon\u0105 Odpowiedzialno\u015bci\u0105",
                "operator:type": "private",
                "fixme": "w zale\u017cno\u015bci od przedmiotu dzia\u0142alno\u015bci (np. amenity=training + training=*, amenity=dancing_school, amenity=language_school, amenity=music_school)"
            }
        },
        {
            "id": 127403,
            "type": "Feature",
            "geometry": {
                "type": "Point",
                "coordinates": [
                    15.3244,
                    51.61444
                ]
            },
            "properties": {
                "isced:level": "4",
                "ref:rspo": 127403,
                "official_name": "Szko\u0142a Policealna Opieki Medycznej \"\u017bak\" w \u017baganiu",
                "name": "Szko\u0142a Policealna Opieki Medycznej \"\u017bak\" w \u017baganiu",
                "addr:postcode": "68-100",
                "addr:city": "\u017baga\u0144",
                "addr:street": "Plac S\u0142owia\u0144ski",
                "addr:housenumber": "12",
                "addr:city:simc": 988661,
                "addr:street:sym_ul": 20295,
                "phone": "+48 426770707",
                "email": "centrala@zak.edu.pl",
                "website": "http:\/\/www.zak.edu.pl",
                "ref:regon": "361541319",
                "ref:vatin": "PL7292597869",
                "operator": "Centrum Nauki I Biznesu \"\u017bak\" Sp\u00f3\u0142ka Z Ograniczon\u0105 Odpowiedzialno\u015bci\u0105",
                "operator:type": "private",
                "amenity": "college"
            }
        },
        {
            "id": 127404,
            "type": "Feature",
            "geometry": {
                "type": "Point",
                "coordinates": [
                    15.3244,
                    51.61441
                ]
            },
            "properties": {
                "isced:level": "4",
                "ref:rspo": 127404,
                "official_name": "Szko\u0142a Policealna Medyczna \"\u017bak\" w \u017baganiu",
                "name": "Szko\u0142a Policealna Medyczna \"\u017bak\" w \u017baganiu",
                "addr:postcode": "68-100",
                "addr:city": "\u017baga\u0144",
                "addr:street": "Plac S\u0142owia\u0144ski",
                "addr:housenumber": "12",
                "addr:city:simc": 988661,
                "addr:street:sym_ul": 20295,
                "phone": "+48 426770707",
                "email": "centrala@zak.edu.pl",
                "website": "http:\/\/www.zak.edu.pl",
                "ref:regon": "361546185",
                "ref:vatin": "PL7292597869",
                "operator": "Centrum Nauki I Biznesu \"\u017bak\" Sp\u00f3\u0142ka Z Ograniczon\u0105 Odpowiedzialno\u015bci\u0105",
                "operator:type": "private",
                "amenity": "college"
            }
        },
        {
            "id": 274309,
            "type": "Feature",
            "geometry": {
                "type": "Point",
                "coordinates": [
                    15.3244,
                    51.61438
                ]
            },
            "properties": {
                "isced:level": "3",
                "ref:rspo": 274309,
                "official_name": "Liceum Og\u00f3lnokszta\u0142c\u0105ce dla Doros\u0142ych Cnib \"\u017bak\" w \u017baganiu",
                "name": "Liceum Og\u00f3lnokszta\u0142c\u0105ce dla Doros\u0142ych Cnib \"\u017bak\" w \u017baganiu",
                "addr:postcode": "68-100",
                "addr:city": "\u017baga\u0144",
                "addr:street": "Plac S\u0142owia\u0144ski",
                "addr:housenumber": "12",
                "addr:city:simc": 988661,
                "addr:street:sym_ul": 20295,
                "phone": "+48 426770707",
                "email": "centrala@zak.edu.pl",
                "website": "http:\/\/www.zak.edu.pl",
                "ref:regon": "385548260",
                "operator": "Centrum Nauki I Biznesu \"\u017bak\" Sp\u00f3\u0142ka Z Ograniczon\u0105 Odpowiedzialno\u015bci\u0105",
                "operator:type": "private",
                "amenity": "school"
            }
        },
        {
            "id": 122546,
            "type": "Feature",
            "geometry": {
                "type": "Point",
                "coordinates": [
                    15.3235,
                    51.61473
                ]
            },
            "properties": {
                "ref:rspo": 122546,
                "official_name": "Blue Sun Niepubliczne Centrum Kszta\u0142cenia Ustawicznego",
                "name": "Blue Sun Niepubliczne Centrum Kszta\u0142cenia Ustawicznego",
                "addr:postcode": "68-100",
                "addr:city": "\u017baga\u0144",
                "addr:street": "Plac S\u0142owia\u0144ski",
                "addr:housenumber": "1",
                "addr:door": "4",
                "addr:city:simc": 988661,
                "addr:street:sym_ul": 20295,
                "phone": "+48 790702105",
                "email": "biuro@bluesunconsulting.pl",
                "ref:regon": "022376900",
                "ref:vatin": "PL8971794337",
                "operator": "Blue Sun Consulting Sp\u00f3\u0142ka Z Ograniczon\u0105 Odpowiedzialno\u015bci\u0105",
                "operator:type": "private",
                "fixme": "w zale\u017cno\u015bci od przedmiotu dzia\u0142alno\u015bci (np. amenity=training + training=*, amenity=dancing_school, amenity=language_school, amenity=music_school)"
            }
        },
        {
            "id": 127092,
            "type": "Feature",
            "geometry": {
                "type": "Point",
                "coordinates": [
                    15.3235,
                    51.6147
                ]
            },
            "properties": {
                "ref:rspo": 127092,
                "official_name": "Blue Sun Niepubliczna Plac\u00f3wka O\u015bwiatowo - Wychowawcza",
                "name": "Blue Sun Niepubliczna Plac\u00f3wka O\u015bwiatowo - Wychowawcza",
                "addr:postcode": "68-100",
                "addr:city": "\u017baga\u0144",
                "addr:street": "Plac S\u0142owia\u0144ski",
                "addr:housenumber": "1",
                "addr:door": "4",
                "addr:city:simc": 988661,
                "addr:street:sym_ul": 20295,
                "phone": "+48 790702105",
                "email": "biuro@bluesunconsulting.pl",
                "ref:regon": "361110200",
                "operator": "Blue Sun Consulting Sp\u00f3\u0142ka Z Ograniczon\u0105 Odpowiedzialno\u015bci\u0105",
                "operator:type": "private",
                "fixme": "w zale\u017cno\u015bci od przedmiotu dzia\u0142alno\u015bci (np. amenity=training + training=*, amenity=dancing_school, amenity=language_school, amenity=music_school)"
            }
        },
        {
            "id": 106127,
            "type": "Feature",
            "geometry": {
                "type": "Point",
                "coordinates": [
                    15.32129,
                    51.61534
                ]
            },
            "properties": {
                "ref:rspo": 106127,
                "official_name": "O\u015brodek Kszta\u0142cenia Zawodowego Zdz w \u017baganiu",
                "name": "O\u015brodek Kszta\u0142cenia Zawodowego Zdz w \u017baganiu",
                "addr:postcode": "68-100",
                "addr:city": "\u017baga\u0144",
                "addr:street": "Keplera",
                "addr:housenumber": "3",
                "addr:city:simc": 988661,
                "addr:street:sym_ul": 8322,
                "phone": "+48 683773038",
                "email": "zdzzagan@op.pl",
                "website": "http:\/\/www.zdz.zary.pl",
                "ref:regon": "081103642",
                "operator": "Zak\u0142ad Doskonalenia Zawodowego W Zielonej G\u00f3rze",
                "operator:type": "ngo",
                "fixme": "w zale\u017cno\u015bci od przedmiotu dzia\u0142alno\u015bci (np. amenity=training + training=*, amenity=dancing_school, amenity=language_school, amenity=music_school)"
            }
        },
        {
            "id": 132640,
            "type": "Feature",
            "geometry": {
                "type": "Point",
                "coordinates": [
                    15.32129,
                    51.61531
                ]
            },
            "properties": {
                "isced:level": "4",
                "ref:rspo": 132640,
                "official_name": "Policealna Szko\u0142a Zawodowa w \u017baganiu",
                "name": "Policealna Szko\u0142a Zawodowa w \u017baganiu",
                "addr:postcode": "68-100",
                "addr:city": "\u017baga\u0144",
                "addr:street": "Keplera",
                "addr:housenumber": "3",
                "addr:city:simc": 988661,
                "addr:street:sym_ul": 8322,
                "phone": "+48 683295900",
                "email": "sekr@zdz.zgora.pl",
                "website": "http:\/\/www.zdz.zgora.pl",
                "ref:regon": "365969089",
                "operator": "Zak\u0142ad Doskonalenia Zawodowego W Zielonej G\u00f3rze",
                "operator:type": "ngo",
                "amenity": "college"
            }
        },
        {
            "id": 17302,
            "type": "Feature",
            "geometry": {
                "type": "Point",
                "coordinates": [
                    15.32447,
                    51.61615
                ]
            },
            "properties": {
                "ref:rspo": 17302,
                "official_name": "Zesp\u00f3\u0142 Szk\u00f3\u0142 Technicznych I Og\u00f3lnokszta\u0142c\u0105cych w \u017baganiu",
                "name": "Zesp\u00f3\u0142 Szk\u00f3\u0142 Technicznych I Og\u00f3lnokszta\u0142c\u0105cych w \u017baganiu",
                "addr:postcode": "68-100",
                "addr:city": "\u017baga\u0144",
                "addr:street": "Gimnazjalna",
                "addr:housenumber": "13",
                "addr:city:simc": 988661,
                "addr:street:sym_ul": 5527,
                "phone": "+48 683772887",
                "email": "sekretariat@zsto.59.zagan.pl",
                "website": "http:\/\/www.zsto.59.zagan.pl",
                "ref:regon": "000188363",
                "ref:vatin": "PL9241426225",
                "operator": "Powiat \u017baga\u0144ski",
                "operator:type": "government",
                "landuse": "education",
                "fixme": "amenity=school, amenity=college albo landuse=education w zale\u017cno\u015bci od tego, jakie plac\u00f3wki wchodz\u0105 w sk\u0142ad zespo\u0142u. Sprawd\u017a, kiedy stosowa\u0107 amenity=* a kiedy landuse=education.",
                "note": "Children RSPO: 39147;39149;39150;39153;39154;275857"
            }
        },
        {
            "id": 39147,
            "type": "Feature",
            "geometry": {
                "type": "Point",
                "coordinates": [
                    15.32447,
                    51.616119999999995
                ]
            },
            "properties": {
                "isced:level": "3",
                "ref:rspo": 39147,
                "official_name": "Bran\u017cowa Szko\u0142a I Stopnia",
                "name": "Bran\u017cowa Szko\u0142a I Stopnia",
                "addr:postcode": "68-100",
                "addr:city": "\u017baga\u0144",
                "addr:street": "Gimnazjalna",
                "addr:housenumber": "13",
                "addr:city:simc": 988661,
                "addr:street:sym_ul": 5527,
                "phone": "+48 683772887",
                "email": "sekretariat@zsto.59.zagan.pl",
                "website": "http:\/\/www.zsto.59.zagan.pl",
                "ref:regon": "978059295",
                "operator": "Powiat \u017baga\u0144ski",
                "operator:type": "government",
                "amenity": "school",
                "note": "Parent RSPO: 17302"
            }
        },
        {
            "id": 39149,
            "type": "Feature",
            "geometry": {
                "type": "Point",
                "coordinates": [
                    15.32447,
                    51.61609
                ]
            },
            "properties": {
                "isced:level": "3",
                "ref:rspo": 39149,
                "official_name": "Liceum Og\u00f3lnokszta\u0142c\u0105ce im. Gen. W\u0142adys\u0142awa Andersa",
                "name": "Liceum Og\u00f3lnokszta\u0142c\u0105ce",
                "addr:postcode": "68-100",
                "addr:city": "\u017baga\u0144",
                "addr:street": "Gimnazjalna",
                "addr:housenumber": "13",
                "addr:city:simc": 988661,
                "addr:street:sym_ul": 5527,
                "phone": "+48 683772887",
                "email": "sekretariat@zsto.59.zagan.pl",
                "website": "http:\/\/www.zsto.59.zagan.pl",
                "ref:regon": "978059214",
                "operator": "Powiat \u017baga\u0144ski",
                "operator:type": "government",
                "amenity": "school",
                "note": "Parent RSPO: 17302"
            }
        },
        {
            "id": 39150,
            "type": "Feature",
            "geometry": {
                "type": "Point",
                "coordinates": [
                    15.32447,
                    51.61606
                ]
            },
            "properties": {
                "isced:level": "3",
                "ref:rspo": 39150,
                "official_name": "Technikum im. Gen. W\u0142adys\u0142awa Andersa",
                "name": "Technikum",
                "addr:postcode": "68-100",
                "addr:city": "\u017baga\u0144",
                "addr:street": "Gimnazjalna",
                "addr:housenumber": "13",
                "addr:city:simc": 988661,
                "addr:street:sym_ul": 5527,
                "phone": "+48 683772887",
                "email": "sekretariat@zsto.59.zagan.pl",
                "website": "http:\/\/www.zsto.59.zagan.pl",
                "ref:regon": "978059208",
                "operator": "Powiat \u017baga\u0144ski",
                "operator:type": "government",
                "amenity": "school",
                "note": "Parent RSPO: 17302"
            }
        },
        {
            "id": 39153,
            "type": "Feature",
            "geometry": {
                "type": "Point",
                "coordinates": [
                    15.32447,
                    51.616029999999995
                ]
            },
            "properties": {
                "isced:level": "4",
                "ref:rspo": 39153,
                "official_name": "Szko\u0142a Policealna w Zespole Szk\u00f3\u0142 Ponadgimnazjalnych w \u017baganiu",
                "name": "Szko\u0142a Policealna w Zespole Szk\u00f3\u0142 Ponadgimnazjalnych w \u017baganiu",
                "addr:postcode": "68-100",
                "addr:city": "\u017baga\u0144",
                "addr:street": "Gimnazjalna",
                "addr:housenumber": "13",
                "addr:city:simc": 988661,
                "addr:street:sym_ul": 5527,
                "phone": "+48 683772456",
                "email": "sekretariat@zsto.59.zagan.pl",
                "website": "http:\/\/www.zsto.59.zagan.pl",
                "ref:regon": "978059266",
                "operator": "Powiat \u017baga\u0144ski",
                "operator:type": "government",
                "amenity": "college",
                "note": "Parent RSPO: 17302"
            }
        },
        {
            "id": 39154,
            "type": "Feature",
            "geometry": {
                "type": "Point",
                "coordinates": [
                    15.32447,
                    51.616
                ]
            },
            "properties": {
                "ref:rspo": 39154,
                "official_name": "Centrum Kszta\u0142cenia Zawodowego w Zespole Szk\u00f3\u0142 Ponadgimnazjalnych w \u017baganiu",
                "name": "Centrum Kszta\u0142cenia Zawodowego w Zespole Szk\u00f3\u0142 Ponadgimnazjalnych w \u017baganiu",
                "addr:postcode": "68-100",
                "addr:city": "\u017baga\u0144",
                "addr:street": "Gimnazjalna",
                "addr:housenumber": "13",
                "addr:city:simc": 988661,
                "addr:street:sym_ul": 5527,
                "phone": "+48 683772456",
                "email": "sekretariat@zsp59.zagan.pl",
                "website": "http:\/\/www.zsp59.zagan.pl",
                "ref:regon": "081082377",
                "operator": "Powiat \u017baga\u0144ski",
                "operator:type": "government",
                "fixme": "w zale\u017cno\u015bci od przedmiotu dzia\u0142alno\u015bci (np. amenity=training + training=*, amenity=dancing_school, amenity=language_school, amenity=music_school) albo amenity=school, amenity=college, albo landuse=education w zale\u017cno\u015bci od tego, jakie plac\u00f3wki wchodz\u0105 w sk\u0142ad zespo\u0142u. Sprawd\u017a, kiedy stosowa\u0107 amenity=* a kiedy landuse=education.",
                "note": "Parent RSPO: 17302"
            }
        },
        {
            "id": 275857,
            "type": "Feature",
            "geometry": {
                "type": "Point",
                "coordinates": [
                    15.32447,
                    51.61597
                ]
            },
            "properties": {
                "isced:level": "3",
                "ref:rspo": 275857,
                "official_name": "Bran\u017cowa Szko\u0142a II Stopnia w Zespole Szk\u00f3\u0142 Technicznych I Og\u00f3lnokszta\u0142c\u0105cych w \u017baganiu",
                "name": "Bran\u017cowa Szko\u0142a II Stopnia w Zespole Szk\u00f3\u0142 Technicznych I Og\u00f3lnokszta\u0142c\u0105cych w \u017baganiu",
                "addr:postcode": "68-100",
                "addr:city": "\u017baga\u0144",
                "addr:street": "Gimnazjalna",
                "addr:housenumber": "13",
                "addr:city:simc": 988661,
                "addr:street:sym_ul": 5527,
                "phone": "+48 683772887",
                "email": "sekretariat@zsto.59.zagan.pl",
                "website": "http:\/\/www.zsto.59.zagan.pl",
                "ref:regon": "386943627",
                "operator": "Powiat \u017baga\u0144ski",
                "operator:type": "government",
                "amenity": "school",
                "note": "Parent RSPO: 17302"
            }
        },
        {
            "id": 121362,
            "type": "Feature",
            "geometry": {
                "type": "Point",
                "coordinates": [
                    15.3235,
                    51.61624
                ]
            },
            "properties": {
                "ref:rspo": 121362,
                "official_name": "Niepubliczne Przedszkole \"Jacek I Agatka\"",
                "name": "Niepubliczne Przedszkole \"Jacek I Agatka\"",
                "addr:postcode": "68-100",
                "addr:city": "\u017baga\u0144",
                "addr:street": "Juliusza S\u0142owackiego",
                "addr:housenumber": "22",
                "addr:city:simc": 988661,
                "addr:street:sym_ul": 20286,
                "phone": "+48 660711314",
                "email": "anna.wojciechowska40@wp.pl",
                "ref:regon": "081183405",
                "operator": "Anna Wojciechowska",
                "operator:type": "private",
                "amenity": "kindergarten"
            }
        },
        {
            "id": 17311,
            "type": "Feature",
            "geometry": {
                "type": "Point",
                "coordinates": [
                    15.315170288086,
                    51.616649627685
                ]
            },
            "properties": {
                "ref:rspo": 17311,
                "official_name": "Specjalny O\u015brodek Szkolno Wychowawczy im. Janusza Korczaka w \u017baganiu",
                "name": "Specjalny O\u015brodek Szkolno Wychowawczy",
                "addr:postcode": "68-100",
                "addr:city": "\u017baga\u0144",
                "addr:street": "Skarbowa",
                "addr:housenumber": "19\/21",
                "addr:city:simc": 988661,
                "addr:street:sym_ul": 20003,
                "phone": "+48 684787777",
                "email": "sekretariat@sosw.zagan.pl",
                "website": "http:\/\/www.sosw.zagan.pl",
                "ref:regon": "000592963",
                "ref:vatin": "PL9241434992",
                "operator": "Powiat \u017baga\u0144ski",
                "operator:type": "government",
                "amenity": "school",
                "note": "Children RSPO: 39156;39158"
            }
        },
        {
            "id": 276065,
            "type": "Feature",
            "geometry": {
                "type": "Point",
                "coordinates": [
                    15.315170288086,
                    51.616619627685
                ]
            },
            "properties": {
                "ref:rspo": 276065,
                "official_name": "Zesp\u00f3\u0142 Przedszkolny Nr 2 I 3 w \u017baganiu",
                "name": "Zesp\u00f3\u0142 Przedszkolny Nr 2 I 3 w \u017baganiu",
                "addr:postcode": "68-100",
                "addr:city": "\u017baga\u0144",
                "addr:street": "Skarbowa",
                "addr:housenumber": "13",
                "addr:city:simc": 988661,
                "addr:street:sym_ul": 20003,
                "phone": "+48 684787699",
                "email": "zp23@um.zagan.pl",
                "ref:regon": "386977023",
                "operator": "Gmina \u017baga\u0144 O Statusie Miejskim",
                "operator:type": "government",
                "landuse": "education",
                "fixme": "amenity=school, amenity=college albo landuse=education w zale\u017cno\u015bci od tego, jakie plac\u00f3wki wchodz\u0105 w sk\u0142ad zespo\u0142u. Sprawd\u017a, kiedy stosowa\u0107 amenity=* a kiedy landuse=education.",
                "note": "Children RSPO: 105966;105970"
            }
        },
        {
            "id": 39156,
            "type": "Feature",
            "geometry": {
                "type": "Point",
                "coordinates": [
                    15.315170288086,
                    51.616589627685
                ]
            },
            "properties": {
                "isced:level": "1;2",
                "ref:rspo": 39156,
                "official_name": "Szko\u0142a Specjalna Podstawowa w Specjalnym O\u015brodku Szkolno Wychowawczym w \u017baganiu",
                "name": "Szko\u0142a Specjalna Podstawowa w Specjalnym O\u015brodku Szkolno Wychowawczym w \u017baganiu",
                "addr:postcode": "68-100",
                "addr:city": "\u017baga\u0144",
                "addr:street": "Skarbowa",
                "addr:housenumber": "19\/21",
                "addr:city:simc": 988661,
                "addr:street:sym_ul": 20003,
                "phone": "+48 684787777",
                "email": "soswzagan@wp.pl",
                "website": "http:\/\/www.sosw.zagan.pl",
                "ref:regon": "000699939",
                "operator": "Powiat \u017baga\u0144ski",
                "operator:type": "government",
                "amenity": "school",
                "note": "Parent RSPO: 17311"
            }
        },
        {
            "id": 39158,
            "type": "Feature",
            "geometry": {
                "type": "Point",
                "coordinates": [
                    15.315170288086,
                    51.616559627685
                ]
            },
            "properties": {
                "ref:rspo": 39158,
                "official_name": "Szko\u0142a Specjalna Przysposabiaj\u0105ca Do Pracy w Specjalnym O\u015brodku Szkolno Wychowawczym w \u017baganiu",
                "name": "Szko\u0142a Specjalna Przysposabiaj\u0105ca Do Pracy w Specjalnym O\u015brodku Szkolno Wychowawczym w \u017baganiu",
                "addr:postcode": "68-100",
                "addr:city": "\u017baga\u0144",
                "addr:street": "Skarbowa",
                "addr:housenumber": "19\/21",
                "addr:city:simc": 988661,
                "addr:street:sym_ul": 20003,
                "phone": "+48 684787777",
                "email": "soswzagan@wp.pl",
                "website": "http:\/\/www.sosw.zagan.pl",
                "ref:regon": "977927789",
                "operator": "Powiat \u017baga\u0144ski",
                "operator:type": "government",
                "amenity": "school",
                "note": "Parent RSPO: 17311"
            }
        },
        {
            "id": 105966,
            "type": "Feature",
            "geometry": {
                "type": "Point",
                "coordinates": [
                    15.315170288086,
                    51.616529627685
                ]
            },
            "properties": {
                "ref:rspo": 105966,
                "official_name": "Miejskie Przedszkole Nr 2 w \u017baganiu",
                "name": "Miejskie Przedszkole Nr 2 w \u017baganiu",
                "addr:postcode": "68-100",
                "addr:city": "\u017baga\u0144",
                "addr:street": "Skarbowa",
                "addr:housenumber": "13",
                "addr:city:simc": 988661,
                "addr:street:sym_ul": 20003,
                "phone": "+48 684787699",
                "email": "miejskieprzedszkolenr2@wp.pl",
                "ref:regon": "080489473",
                "ref:vatin": "PL9241890767",
                "operator": "Gmina \u017baga\u0144 O Statusie Miejskim",
                "operator:type": "government",
                "amenity": "kindergarten",
                "note": "Parent RSPO: 276065"
            }
        },
        {
            "id": 105970,
            "type": "Feature",
            "geometry": {
                "type": "Point",
                "coordinates": [
                    15.315170288086,
                    51.616499627685
                ]
            },
            "properties": {
                "ref:rspo": 105970,
                "official_name": "Miejskie Przedszkole Nr 3 im. Marii Kownackiej w \u017baganiu",
                "name": "Miejskie Przedszkole Nr 3",
                "addr:postcode": "68-100",
                "addr:city": "\u017baga\u0144",
                "addr:street": "Skarbowa",
                "addr:housenumber": "24",
                "addr:city:simc": 988661,
                "addr:street:sym_ul": 20003,
                "phone": "+48 684787534",
                "email": "mp3@um.zagan.pl",
                "website": "http:\/\/mp3.um.zagan.pl\/",
                "ref:regon": "080489421",
                "ref:vatin": "PL9241890750",
                "operator": "Gmina \u017baga\u0144 O Statusie Miejskim",
                "operator:type": "government",
                "amenity": "kindergarten",
                "note": "Parent RSPO: 276065"
            }
        },
        {
            "id": 268964,
            "type": "Feature",
            "geometry": {
                "type": "Point",
                "coordinates": [
                    15.31917,
                    51.6172899
                ]
            },
            "properties": {
                "ref:rspo": 268964,
                "official_name": "Niepubliczne Przedszkole \"Weso\u0142e Boberki\"",
                "name": "Niepubliczne Przedszkole \"Weso\u0142e Boberki\"",
                "addr:postcode": "68-100",
                "addr:city": "\u017baga\u0144",
                "addr:street": "Jana Paw\u0142a II",
                "addr:housenumber": "19",
                "addr:city:simc": 988661,
                "addr:street:sym_ul": 7123,
                "phone": "+48 684446829",
                "email": "wesoleboberki@gmail.com",
                "website": "http:\/\/www.wesoleboberki.pl",
                "ref:regon": "381315493",
                "operator": "Ewa Bielecka",
                "operator:type": "private",
                "amenity": "kindergarten"
            }
        },
        {
            "id": 17303,
            "type": "Feature",
            "geometry": {
                "type": "Point",
                "coordinates": [
                    15.32191,
                    51.61827
                ]
            },
            "properties": {
                "ref:rspo": 17303,
                "official_name": "Zesp\u00f3\u0142 Szk\u00f3\u0142 Technicznych I Licealnych w \u017baganiu",
                "name": "Zesp\u00f3\u0142 Szk\u00f3\u0142 Technicznych I Licealnych w \u017baganiu",
                "addr:postcode": "68-100",
                "addr:city": "\u017baga\u0144",
                "addr:street": "Pomorska",
                "addr:housenumber": "7",
                "addr:city:simc": 988661,
                "addr:street:sym_ul": 17088,
                "phone": "+48 684787680",
                "email": "z.stebelski@zstil.zagan.pl",
                "website": "http:\/\/www.zstil.zagan.pl",
                "ref:regon": "000183667",
                "ref:vatin": "PL9241589619",
                "operator": "Powiat \u017baga\u0144ski",
                "operator:type": "government",
                "landuse": "education",
                "fixme": "amenity=school, amenity=college albo landuse=education w zale\u017cno\u015bci od tego, jakie plac\u00f3wki wchodz\u0105 w sk\u0142ad zespo\u0142u. Sprawd\u017a, kiedy stosowa\u0107 amenity=* a kiedy landuse=education.",
                "note": "Children RSPO: 47201;47202;47203;49361;275860"
            }
        },
        {
            "id": 47202,
            "type": "Feature",
            "geometry": {
                "type": "Point",
                "coordinates": [
                    15.32191,
                    51.61824
                ]
            },
            "properties": {
                "isced:level": "3",
                "ref:rspo": 47202,
                "official_name": "Technikum",
                "name": "Technikum",
                "addr:postcode": "68-100",
                "addr:city": "\u017baga\u0144",
                "addr:street": "Pomorska",
                "addr:housenumber": "7",
                "addr:city:simc": 988661,
                "addr:street:sym_ul": 17088,
                "phone": "+48 684787680",
                "email": "sekretariat@zstil.zagan.pl",
                "website": "http:\/\/www.zstil.zagan.pl",
                "ref:regon": "977994277",
                "operator": "Powiat \u017baga\u0144ski",
                "operator:type": "government",
                "amenity": "school",
                "note": "Parent RSPO: 17303"
            }
        },
        {
            "id": 47203,
            "type": "Feature",
            "geometry": {
                "type": "Point",
                "coordinates": [
                    15.32191,
                    51.618210000000005
                ]
            },
            "properties": {
                "isced:level": "3",
                "ref:rspo": 47203,
                "official_name": "Liceum Og\u00f3lnokszta\u0142c\u0105ce",
                "name": "Liceum Og\u00f3lnokszta\u0142c\u0105ce",
                "addr:postcode": "68-100",
                "addr:city": "\u017baga\u0144",
                "addr:street": "Pomorska",
                "addr:housenumber": "7",
                "addr:city:simc": 988661,
                "addr:street:sym_ul": 17088,
                "phone": "+48 684787680",
                "email": "sekretariat@zstil.zagan.pl",
                "website": "http:\/\/www.zstil.zagan.pl",
                "ref:regon": "977994308",
                "operator": "Powiat \u017baga\u0144ski",
                "operator:type": "government",
                "amenity": "school",
                "note": "Parent RSPO: 17303"
            }
        },
        {
            "id": 49361,
            "type": "Feature",
            "geometry": {
                "type": "Point",
                "coordinates": [
                    15.32191,
                    51.61818
                ]
            },
            "properties": {
                "isced:level": "4",
                "ref:rspo": 49361,
                "official_name": "Szko\u0142a Policealna dla Doros\u0142ych",
                "name": "Szko\u0142a Policealna dla Doros\u0142ych",
                "addr:postcode": "68-100",
                "addr:city": "\u017baga\u0144",
                "addr:street": "Pomorska",
                "addr:housenumber": "7",
                "addr:city:simc": 988661,
                "addr:street:sym_ul": 17088,
                "phone": "+48 684787680",
                "email": "sekretariat@zstil.zagan.pl",
                "website": "http:\/\/www.zstil.zagan.pl",
                "ref:regon": "978058054",
                "operator": "Powiat \u017baga\u0144ski",
                "operator:type": "government",
                "amenity": "college",
                "note": "Parent RSPO: 17303"
            }
        },
        {
            "id": 275860,
            "type": "Feature",
            "geometry": {
                "type": "Point",
                "coordinates": [
                    15.32191,
                    51.61815
                ]
            },
            "properties": {
                "isced:level": "3",
                "ref:rspo": 275860,
                "official_name": "Bran\u017cowa Szko\u0142aii Stopnia w Zespole Szk\u00f3\u0142 Technicznych I Licealnych w \u017baganiu",
                "name": "Bran\u017cowa Szko\u0142aii Stopnia w Zespole Szk\u00f3\u0142 Technicznych I Licealnych w \u017baganiu",
                "addr:postcode": "68-100",
                "addr:city": "\u017baga\u0144",
                "addr:street": "Pomorska",
                "addr:housenumber": "7",
                "addr:city:simc": 988661,
                "addr:street:sym_ul": 17088,
                "phone": "+48 684787680",
                "email": "sekretariat@zstil.zagan.pl",
                "ref:regon": "386943722",
                "operator": "Powiat \u017baga\u0144ski",
                "operator:type": "government",
                "amenity": "school",
                "note": "Parent RSPO: 17303"
            }
        },
        {
            "id": 268298,
            "type": "Feature",
            "geometry": {
                "type": "Point",
                "coordinates": [
                    15.31785,
                    51.61847
                ]
            },
            "properties": {
                "ref:rspo": 268298,
                "official_name": "Przedszkole Niepubliczne Chatka Puchatka",
                "name": "Przedszkole Niepubliczne Chatka Puchatka",
                "addr:postcode": "68-100",
                "addr:city": "\u017baga\u0144",
                "addr:street": "Skarbowa",
                "addr:housenumber": "9",
                "addr:city:simc": 988661,
                "addr:street:sym_ul": 20003,
                "phone": "+48 536929551",
                "email": "condchatkapuchatkazagan@wp.pl",
                "ref:regon": "381069380",
                "operator": "Mariusz Dominiak",
                "operator:type": "private",
                "amenity": "kindergarten"
            }
        },
        {
            "id": 107262,
            "type": "Feature",
            "geometry": {
                "type": "Point",
                "coordinates": [
                    15.32362,
                    51.61867
                ]
            },
            "properties": {
                "isced:level": "1;2",
                "ref:rspo": 107262,
                "official_name": "Publiczna Szko\u0142a Podstawowa Nr 1 im. Jana Brzechwy w \u017baganiu",
                "name": "Publiczna Szko\u0142a Podstawowa Nr 1",
                "addr:postcode": "68-100",
                "addr:city": "\u017baga\u0144",
                "addr:street": "Wojska Polskiego",
                "addr:housenumber": "7",
                "addr:city:simc": 988661,
                "addr:street:sym_ul": 24628,
                "phone": "+48 684781677",
                "email": "sp-1-zagan@wp.pl",
                "website": "http:\/\/www.jedynka.zagan.pl",
                "ref:regon": "970675712",
                "ref:vatin": "PL9241629974",
                "operator": "Gmina \u017baga\u0144 O Statusie Miejskim",
                "operator:type": "government",
                "amenity": "school"
            }
        },
        {
            "id": 47201,
            "type": "Feature",
            "geometry": {
                "type": "Point",
                "coordinates": [
                    15.32562,
                    51.61892
                ]
            },
            "properties": {
                "isced:level": "3",
                "ref:rspo": 47201,
                "official_name": "Bran\u017cowa Szko\u0142a I Stopnia",
                "name": "Bran\u017cowa Szko\u0142a I Stopnia",
                "addr:postcode": "68-100",
                "addr:city": "\u017baga\u0144",
                "addr:street": "Armii Krajowej",
                "addr:housenumber": "11",
                "addr:city:simc": 988661,
                "addr:street:sym_ul": 432,
                "phone": "+48 684787680",
                "email": "sekretariat@zstil.zagan.pl",
                "website": "http:\/\/www.zstil.zagan.pl",
                "ref:regon": "977994260",
                "operator": "Powiat \u017baga\u0144ski",
                "operator:type": "government",
                "amenity": "school",
                "note": "Parent RSPO: 17303"
            }
        },
        {
            "id": 17306,
            "type": "Feature",
            "geometry": {
                "type": "Point",
                "coordinates": [
                    15.31267,
                    51.61938
                ]
            },
            "properties": {
                "ref:rspo": 17306,
                "official_name": "Poradnia Psychologiczno - Pedagogiczna w \u017baganiu",
                "name": "Poradnia Psychologiczno - Pedagogiczna w \u017baganiu",
                "addr:postcode": "68-100",
                "addr:city": "\u017baga\u0144",
                "addr:street": "\u015al\u0105ska",
                "addr:housenumber": "1",
                "addr:city:simc": 988661,
                "addr:street:sym_ul": 22308,
                "phone": "+48 684772900",
                "email": "pppzagan@wp.pl",
                "website": "http:\/\/www.poradnia.zagan.pl",
                "ref:regon": "970089782",
                "ref:vatin": "PL9241723710",
                "operator": "Powiat \u017baga\u0144ski",
                "operator:type": "government",
                "healthcare": "counselling",
                "counselling_type": "education",
                "fixme": "w zale\u017cno\u015bci od przedmiotu dzia\u0142alno\u015bci (np. healthcare=counselling + counselling_type=education albo healthcare=psychotherapist)"
            }
        },
        {
            "id": 125950,
            "type": "Feature",
            "geometry": {
                "type": "Point",
                "coordinates": [
                    15.31544,
                    51.62046
                ]
            },
            "properties": {
                "ref:rspo": 125950,
                "official_name": "Przedszkole Niepubliczne \"Zielony Zak\u0105tek\"",
                "name": "Przedszkole Niepubliczne \"Zielony Zak\u0105tek\"",
                "addr:postcode": "68-100",
                "addr:city": "\u017baga\u0144",
                "addr:street": "Fabryczna",
                "addr:housenumber": "2",
                "addr:city:simc": 988661,
                "addr:street:sym_ul": 4863,
                "phone": "+48 506746133",
                "email": "kontakt@przedszkole-zielony-zakatek.pl",
                "website": "http:\/\/przedszkole-zielony-zakatek.pl",
                "ref:regon": "360112361",
                "operator": "Krzysztof Zdanowicz Przedsi\u0119biorstwo Projektowo-Us\u0142ugowe",
                "operator:type": "consortium",
                "amenity": "kindergarten"
            }
        },
        {
            "id": 107263,
            "type": "Feature",
            "geometry": {
                "type": "Point",
                "coordinates": [
                    15.32058,
                    51.62063
                ]
            },
            "properties": {
                "isced:level": "1;2",
                "ref:rspo": 107263,
                "official_name": "Publiczna Szko\u0142a Podstawowa Nr 2 im. 11 Lubuskiej Dywizji Kawalerii Pancernej w \u017baganiu",
                "name": "Publiczna Szko\u0142a Podstawowa Nr 2",
                "addr:postcode": "68-100",
                "addr:city": "\u017baga\u0144",
                "addr:street": "Wojska Polskiego",
                "addr:housenumber": "1",
                "addr:city:simc": 988661,
                "addr:street:sym_ul": 24628,
                "phone": "+48 684781680",
                "email": "psp2.zagan@wp.pl",
                "website": "http:\/\/www.psp2.zagan.pl",
                "ref:regon": "970675698",
                "ref:vatin": "PL9241629968",
                "operator": "Gmina \u017baga\u0144 O Statusie Miejskim",
                "operator:type": "government",
                "amenity": "school"
            }
        },
        {
            "id": 105969,
            "type": "Feature",
            "geometry": {
                "type": "Point",
                "coordinates": [
                    15.30289,
                    51.62135
                ]
            },
            "properties": {
                "ref:rspo": 105969,
                "official_name": "Miejskie Przedszkole Nr 6 im. Bozeny Nemcowej w \u017baganiu",
                "name": "Miejskie Przedszkole Nr 6",
                "addr:postcode": "68-100",
                "addr:city": "\u017baga\u0144",
                "addr:street": "\u017barska",
                "addr:housenumber": "16",
                "addr:city:simc": 988661,
                "addr:street:sym_ul": 26409,
                "phone": "+48 684771730",
                "email": "mp6@um.zagan.pl",
                "ref:regon": "080489697",
                "ref:vatin": "PL9241890796",
                "operator": "Gmina \u017baga\u0144 O Statusie Miejskim",
                "operator:type": "government",
                "amenity": "kindergarten"
            }
        },
        {
            "id": 106915,
            "type": "Feature",
            "geometry": {
                "type": "Point",
                "coordinates": [
                    15.30527,
                    51.6214299
                ]
            },
            "properties": {
                "isced:level": "1;2",
                "ref:rspo": 106915,
                "official_name": "Publiczna Szko\u0142a Podstawowa Nr 7 im. Doroty Ksi\u0119\u017cnej \u017baga\u0144skiej w \u017baganiu",
                "name": "Publiczna Szko\u0142a Podstawowa Nr 7",
                "addr:postcode": "68-100",
                "addr:city": "\u017baga\u0144",
                "addr:street": "\u017barska",
                "addr:housenumber": "1",
                "addr:city:simc": 988661,
                "addr:street:sym_ul": 26409,
                "phone": "+48 684772702",
                "email": "sekretariat@psp7.zagan.pl",
                "website": "http:\/\/psp7.zagan.pl",
                "ref:regon": "970675735",
                "ref:vatin": "PL9241629922",
                "operator": "Gmina \u017baga\u0144 O Statusie Miejskim",
                "operator:type": "government",
                "amenity": "school"
            }
        },
        {
            "id": 278129,
            "type": "Feature",
            "geometry": {
                "type": "Point",
                "coordinates": [
                    15.33442,
                    51.62253
                ]
            },
            "properties": {
                "ref:rspo": 278129,
                "official_name": "Zesp\u00f3\u0142 Szkolno- Przedszkolny Nr 5 w \u017baganiu",
                "name": "Zesp\u00f3\u0142 Szkolno- Przedszkolny Nr 5 w \u017baganiu",
                "addr:postcode": "68-100",
                "addr:city": "\u017baga\u0144",
                "addr:street": "Nocznickiego",
                "addr:housenumber": "18",
                "addr:city:simc": 988661,
                "addr:street:sym_ul": 14294,
                "phone": "+48 683773375",
                "ref:regon": "389850850",
                "operator": "Gmina \u017baga\u0144 O Statusie Miejskim",
                "operator:type": "government",
                "landuse": "education",
                "fixme": "amenity=school, amenity=college albo landuse=education w zale\u017cno\u015bci od tego, jakie plac\u00f3wki wchodz\u0105 w sk\u0142ad zespo\u0142u. Sprawd\u017a, kiedy stosowa\u0107 amenity=* a kiedy landuse=education.",
                "note": "Children RSPO: 105968;107187"
            }
        },
        {
            "id": 107187,
            "type": "Feature",
            "geometry": {
                "type": "Point",
                "coordinates": [
                    15.33442,
                    51.622499999999995
                ]
            },
            "properties": {
                "isced:level": "1;2",
                "ref:rspo": 107187,
                "official_name": "Publiczna Szko\u0142a Podstawowa Nr 5 im. 1 Dywizji Pancernej Dowodzonej Przez Gen. Stanis\u0142awa Maczka w \u017baganiu",
                "name": "Publiczna Szko\u0142a Podstawowa Nr 5",
                "addr:postcode": "68-100",
                "addr:city": "\u017baga\u0144",
                "addr:street": "Nocznickiego",
                "addr:housenumber": "18",
                "addr:city:simc": 988661,
                "addr:street:sym_ul": 14294,
                "phone": "+48 683773375",
                "email": "psp5zagan@wp.pl",
                "website": "http:\/\/psp5zagan.pl",
                "ref:regon": "970675758",
                "ref:vatin": "PL9241860430",
                "operator": "Gmina \u017baga\u0144 O Statusie Miejskim",
                "operator:type": "government",
                "amenity": "school",
                "note": "Parent RSPO: 278129"
            }
        }
    ]
}