{
    "type": "FeatureCollection",
    "features": [
        {
            "id": 79851,
            "type": "Feature",
            "geometry": {
                "type": "Point",
                "coordinates": [
                    15.44135,
                    51.5546
                ]
            },
            "properties": {
                "isced:level": "1;2",
                "ref:rspo": 79851,
                "official_name": "Szko\u0142a Podstawowa im.adama Mickiewicza Ma\u0142omice",
                "name": "Szko\u0142a Podstawowa im.adama Mickiewicza Ma\u0142omice",
                "addr:postcode": "67-320",
                "addr:city": "Ma\u0142omice",
                "addr:street": "Plac Tysi\u0105clecia",
                "addr:housenumber": "3",
                "addr:city:simc": 988514,
                "addr:street:sym_ul": 16411,
                "phone": "+48 683769156",
                "email": "malomice@o2.pl",
                "website": "http:\/\/sp-malomice.edupage.org",
                "ref:regon": "971312070",
                "ref:vatin": "PL9241845465",
                "operator": "Gmina Ma\u0142omice",
                "operator:type": "government",
                "amenity": "school"
            }
        },
        {
            "id": 80264,
            "type": "Feature",
            "geometry": {
                "type": "Point",
                "coordinates": [
                    15.4542,
                    51.55815
                ]
            },
            "properties": {
                "ref:rspo": 80264,
                "official_name": "Przedszkole im. Jana Brzechwy w Ma\u0142omicach",
                "name": "Przedszkole",
                "addr:postcode": "67-320",
                "addr:city": "Ma\u0142omice",
                "addr:street": "Boles\u0142awa Chrobrego",
                "addr:housenumber": "8",
                "addr:city:simc": 988514,
                "addr:street:sym_ul": 1742,
                "phone": "+48 683769323",
                "email": "przedszkolemalomice8@wp.pl",
                "website": "http:\/\/www.ppmalomice.szkolnastrona.pl",
                "ref:regon": "971312087",
                "ref:vatin": "PL9241613789",
                "operator": "Gmina Ma\u0142omice",
                "operator:type": "government",
                "amenity": "kindergarten"
            }
        },
        {
            "id": 80271,
            "type": "Feature",
            "geometry": {
                "type": "Point",
                "coordinates": [
                    15.48006,
                    51.60318
                ]
            },
            "properties": {
                "isced:level": "1;2",
                "ref:rspo": 80271,
                "official_name": "Szko\u0142a Podstawowa im. Jana Paw\u0142a II w Chichach",
                "name": "Szko\u0142a Podstawowa",
                "addr:postcode": "67-320",
                "addr:place": "Chichy",
                "addr:housenumber": "52",
                "addr:city:simc": 911598,
                "phone": "+48 683769038",
                "email": "spwchichach@wp.pl",
                "ref:regon": "970551358",
                "ref:vatin": "PL9241613766",
                "operator": "Gmina Ma\u0142omice",
                "operator:type": "government",
                "amenity": "school"
            }
        }
    ]
}