{
    "type": "FeatureCollection",
    "features": [
        {
            "id": 124078,
            "type": "Feature",
            "geometry": {
                "type": "Point",
                "coordinates": [
                    15.38624,
                    51.5528199
                ]
            },
            "properties": {
                "isced:level": "1;2",
                "ref:rspo": 124078,
                "official_name": "Szko\u0142a Filialna w Trzebowie",
                "name": "Szko\u0142a Filialna w Trzebowie",
                "addr:postcode": "67-320",
                "addr:place": "Trzeb\u00f3w",
                "addr:housenumber": "28",
                "addr:teryt:simc": 917840,
                "email": "sekrtomaszowo@wp.pl",
                "ref:regon": "970661880",
                "operator": "Gmina \u017baga\u0144",
                "operator:type": "government",
                "amenity": "school",
                "note": "Parent RSPO: 74778"
            }
        },
        {
            "id": 22108,
            "type": "Feature",
            "geometry": {
                "type": "Point",
                "coordinates": [
                    15.42364,
                    51.59549
                ]
            },
            "properties": {
                "isced:level": "1;2",
                "ref:rspo": 22108,
                "official_name": "Niepubliczna Szko\u0142a Podstawowa Ma\u0142a Szko\u0142a w Bukowinie Bobrza\u0144skiej",
                "name": "Niepubliczna Szko\u0142a Podstawowa Ma\u0142a Szko\u0142a w Bukowinie Bobrza\u0144skiej",
                "addr:postcode": "68-100",
                "addr:place": "Bukowina Bobrza\u0144ska",
                "addr:housenumber": "45",
                "addr:teryt:simc": 917572,
                "phone": "+48 683606903",
                "email": "sekretariat@mala.szkola.pl",
                "website": "http:\/\/www.mala.szkola.pl",
                "ref:regon": "081076856",
                "operator": "Stowarzyszenie O\u015bwiatowe \"Ma\u0142a Szko\u0142a\" W Bukowinie Bobrza\u0144skiej",
                "operator:type": "ngo",
                "amenity": "school"
            }
        },
        {
            "id": 22106,
            "type": "Feature",
            "geometry": {
                "type": "Point",
                "coordinates": [
                    15.36173,
                    51.61255
                ]
            },
            "properties": {
                "ref:rspo": 22106,
                "official_name": "Zesp\u00f3\u0142 Szkolno - Przedszkolny w Bo\u017cnowie",
                "name": "Zesp\u00f3\u0142 Szkolno - Przedszkolny w Bo\u017cnowie",
                "addr:postcode": "68-100",
                "addr:place": "Bo\u017cn\u00f3w",
                "addr:housenumber": "69",
                "addr:teryt:simc": 917550,
                "phone": "+48 683772674",
                "email": "pspboznow@op.pl",
                "ref:regon": "080457852",
                "operator": "Gmina \u017baga\u0144",
                "operator:type": "government",
                "landuse": "education",
                "fixme": "amenity=school, amenity=college albo landuse=education w zale\u017cno\u015bci od tego, jakie plac\u00f3wki wchodz\u0105 w sk\u0142ad zespo\u0142u. Sprawd\u017a, kiedy stosowa\u0107 amenity=* a kiedy landuse=education.",
                "note": "Children RSPO: 74781;122226"
            }
        },
        {
            "id": 74781,
            "type": "Feature",
            "geometry": {
                "type": "Point",
                "coordinates": [
                    15.36173,
                    51.612519999999996
                ]
            },
            "properties": {
                "ref:rspo": 74781,
                "official_name": "Przedszkole w Bo\u017cnowie",
                "name": "Przedszkole w Bo\u017cnowie",
                "addr:postcode": "68-100",
                "addr:place": "Bo\u017cn\u00f3w",
                "addr:housenumber": "69",
                "addr:teryt:simc": 917550,
                "phone": "+48 683772674",
                "email": "pspboznow@op.pl",
                "ref:regon": "080457869",
                "operator": "Gmina \u017baga\u0144",
                "operator:type": "government",
                "amenity": "kindergarten",
                "note": "Parent RSPO: 22106"
            }
        },
        {
            "id": 122226,
            "type": "Feature",
            "geometry": {
                "type": "Point",
                "coordinates": [
                    15.36173,
                    51.61249
                ]
            },
            "properties": {
                "isced:level": "1;2",
                "ref:rspo": 122226,
                "official_name": "Publiczna Szko\u0142a Podstawowa w Bo\u017cnowie",
                "name": "Publiczna Szko\u0142a Podstawowa w Bo\u017cnowie",
                "addr:postcode": "68-100",
                "addr:place": "Bo\u017cn\u00f3w",
                "addr:housenumber": "69",
                "addr:teryt:simc": 917550,
                "phone": "+48 683772674",
                "email": "pspboznow@op.pl",
                "ref:regon": "001116294",
                "ref:vatin": "PL9241692004",
                "operator": "Gmina \u017baga\u0144",
                "operator:type": "government",
                "amenity": "school",
                "note": "Parent RSPO: 22106"
            }
        },
        {
            "id": 74778,
            "type": "Feature",
            "geometry": {
                "type": "Point",
                "coordinates": [
                    15.40416,
                    51.62258
                ]
            },
            "properties": {
                "isced:level": "1;2",
                "ref:rspo": 74778,
                "official_name": "Publiczna Szko\u0142a Podstawowa w Tomaszowie",
                "name": "Publiczna Szko\u0142a Podstawowa w Tomaszowie",
                "addr:postcode": "68-114",
                "addr:city": "Tomaszowo",
                "addr:street": "Le\u015bna",
                "addr:housenumber": "1",
                "addr:teryt:simc": 988721,
                "addr:teryt:sym_ul": 10898,
                "phone": "+48 505352477",
                "email": "sekrtomaszowo@wp.pl",
                "ref:regon": "970661880",
                "ref:vatin": "PL9241862498",
                "operator": "Gmina \u017baga\u0144",
                "operator:type": "government",
                "amenity": "school",
                "note": "Children RSPO: 92649;124078"
            }
        },
        {
            "id": 122934,
            "type": "Feature",
            "geometry": {
                "type": "Point",
                "coordinates": [
                    15.40383,
                    51.62295
                ]
            },
            "properties": {
                "ref:rspo": 122934,
                "official_name": "Niepubliczna Plac\u00f3wka Kszta\u0142cenia Ustawicznego Nr 2 Wojew\u00f3dzkiego O\u015brodka Ruchu Drogowego w Zielonej G\u00f3rze",
                "name": "Niepubliczna Plac\u00f3wka Kszta\u0142cenia Ustawicznego Nr 2 Wojew\u00f3dzkiego O\u015brodka Ruchu Drogowego w Zielonej G\u00f3rze",
                "addr:postcode": "68-114",
                "addr:city": "Tomaszowo",
                "addr:street": "Le\u015bna",
                "addr:housenumber": "20",
                "addr:teryt:simc": 988721,
                "addr:teryt:sym_ul": 10898,
                "phone": "+48 684765370",
                "email": "zgora@wordy.pl",
                "website": "http:\/\/www.zgora.wordy.pl",
                "ref:regon": "081206862",
                "operator": "Wojew\u00f3dzki O\u015brodek Ruchu Drogowego Zielonej G\u00f3rze",
                "operator:type": "government",
                "fixme": "w zale\u017cno\u015bci od przedmiotu dzia\u0142alno\u015bci (np. amenity=training + training=*, amenity=dancing_school, amenity=language_school, amenity=music_school)"
            }
        },
        {
            "id": 92649,
            "type": "Feature",
            "geometry": {
                "type": "Point",
                "coordinates": [
                    15.46278,
                    51.66558
                ]
            },
            "properties": {
                "isced:level": "1;2",
                "ref:rspo": 92649,
                "official_name": "Szko\u0142a Filialna w Jeleninie",
                "name": "Szko\u0142a Filialna w Jeleninie",
                "addr:postcode": "68-114",
                "addr:place": "Jelenin",
                "addr:housenumber": "69a",
                "addr:teryt:simc": 917709,
                "phone": "+48 683771306",
                "ref:regon": "970661880",
                "operator": "Gmina \u017baga\u0144",
                "operator:type": "government",
                "amenity": "school",
                "note": "Parent RSPO: 74778"
            }
        },
        {
            "id": 22107,
            "type": "Feature",
            "geometry": {
                "type": "Point",
                "coordinates": [
                    15.30217,
                    51.69452
                ]
            },
            "properties": {
                "isced:level": "1;2",
                "ref:rspo": 22107,
                "official_name": "Publiczna Szko\u0142a Podstawowa w Miodnicy",
                "name": "Publiczna Szko\u0142a Podstawowa w Miodnicy",
                "addr:postcode": "68-100",
                "addr:place": "Miodnica",
                "addr:housenumber": "54",
                "addr:teryt:simc": 917767,
                "phone": "+48 683771429",
                "email": "pspmiodnica@gmail.com",
                "website": "http:\/\/pspmiodnica.edu.pl",
                "ref:regon": "001116160",
                "operator": "Gmina \u017baga\u0144",
                "operator:type": "government",
                "amenity": "school"
            }
        }
    ]
}