{
    "type": "FeatureCollection",
    "features": [
        {
            "id": 123798,
            "type": "Feature",
            "geometry": {
                "type": "Point",
                "coordinates": [
                    15.78601,
                    51.60142
                ]
            },
            "properties": {
                "isced:level": "1;2",
                "ref:rspo": 123798,
                "official_name": "Szko\u0142a Podstawowa im. Jana Paw\u0142a II w Przec\u0142awiu",
                "name": "Szko\u0142a Podstawowa",
                "addr:postcode": "67-312",
                "addr:place": "Przec\u0142aw",
                "addr:housenumber": "83",
                "addr:teryt:simc": 912014,
                "phone": "+48 683781196",
                "email": "sp-przeclaw@wp.pl",
                "website": "http:\/\/sp-przeclaw.edupage.org",
                "ref:regon": "081226304",
                "ref:vatin": "PL9241903961",
                "operator": "Gmina Niegos\u0142awice",
                "operator:type": "government",
                "amenity": "school"
            }
        },
        {
            "id": 53790,
            "type": "Feature",
            "geometry": {
                "type": "Point",
                "coordinates": [
                    15.67507,
                    51.6113799
                ]
            },
            "properties": {
                "isced:level": "1;2",
                "ref:rspo": 53790,
                "official_name": "Szko\u0142a Podstawowa w Go\u015bcieszowicach",
                "name": "Szko\u0142a Podstawowa w Go\u015bcieszowicach",
                "addr:postcode": "67-312",
                "addr:place": "Go\u015bcieszowice",
                "addr:housenumber": "82",
                "addr:teryt:simc": 911925,
                "phone": "+48 683781652",
                "email": "sp-goscieszowice@wp.pl",
                "ref:regon": "970592179",
                "ref:vatin": "PL9241691594",
                "operator": "Gmina Niegos\u0142awice",
                "operator:type": "government",
                "amenity": "school"
            }
        }
    ]
}