{
    "type": "FeatureCollection",
    "features": [
        {
            "id": 267623,
            "type": "Feature",
            "geometry": {
                "type": "Point",
                "coordinates": [
                    15.61563,
                    51.47546
                ]
            },
            "properties": {
                "isced:level": "1;2",
                "ref:rspo": 267623,
                "official_name": "Szko\u0142a Podstawowa w Lesznie G\u00f3rnym im. Jana Brzechwy",
                "name": "Szko\u0142a Podstawowa w Lesznie G\u00f3rnym",
                "addr:postcode": "67-321",
                "addr:city": "Leszno G\u00f3rne",
                "addr:street": "Szkolna",
                "addr:housenumber": "2a",
                "addr:city:simc": 914674,
                "addr:street:sym_ul": 21970,
                "phone": "+48 683766507",
                "email": "splesznogorne@wp.pl",
                "website": "http:\/\/www.splesznogorne.cba.pl",
                "ref:regon": "380432943",
                "ref:vatin": "PL9241911110",
                "operator": "Gmina Szprotawa",
                "operator:type": "government",
                "amenity": "school"
            }
        },
        {
            "id": 55434,
            "type": "Feature",
            "geometry": {
                "type": "Point",
                "coordinates": [
                    15.57944,
                    51.55053
                ]
            },
            "properties": {
                "isced:level": "1;2",
                "ref:rspo": 55434,
                "official_name": "Szko\u0142a Podstawowa w Wiechlicach",
                "name": "Szko\u0142a Podstawowa w Wiechlicach",
                "addr:postcode": "67-300",
                "addr:city": "Wiechlice",
                "addr:street": "Brzozowa",
                "addr:housenumber": "17",
                "addr:city:simc": 914740,
                "addr:street:sym_ul": 2276,
                "phone": "+48 683767553",
                "email": "2szkolawiechlice@interia.pl",
                "website": "http:\/\/www.spwiechlice.pl",
                "ref:regon": "970599098",
                "ref:vatin": "PL9241905598",
                "operator": "Gmina Szprotawa",
                "operator:type": "government",
                "amenity": "school"
            }
        },
        {
            "id": 274861,
            "type": "Feature",
            "geometry": {
                "type": "Point",
                "coordinates": [
                    15.58242,
                    51.55345
                ]
            },
            "properties": {
                "isced:level": "1;2",
                "ref:rspo": 274861,
                "official_name": "Niepubliczna Szko\u0142a Podstawowa w Wiechlicach",
                "name": "Niepubliczna Szko\u0142a Podstawowa w Wiechlicach",
                "addr:postcode": "67-300",
                "addr:city": "Wiechlice",
                "addr:street": "Jesionowa",
                "addr:housenumber": "3",
                "addr:city:simc": 914740,
                "addr:street:sym_ul": 7506,
                "phone": "+48 683762255",
                "email": "szkola-wiechlice@wp.pl",
                "ref:regon": "386361434",
                "operator": "Stowarzyszenie O\u015bwiatowe \"Diapazon\" W Po\u017carowie",
                "operator:type": "ngo",
                "amenity": "school"
            }
        },
        {
            "id": 274942,
            "type": "Feature",
            "geometry": {
                "type": "Point",
                "coordinates": [
                    15.58242,
                    51.553419999999996
                ]
            },
            "properties": {
                "isced:level": "3",
                "ref:rspo": 274942,
                "official_name": "Niepubliczna Szko\u0142a Bran\u017cowa I Stopnia",
                "name": "Niepubliczna Szko\u0142a Bran\u017cowa I Stopnia",
                "addr:postcode": "67-300",
                "addr:city": "Wiechlice",
                "addr:street": "Jesionowa",
                "addr:housenumber": "3",
                "addr:city:simc": 914740,
                "addr:street:sym_ul": 7506,
                "phone": "+48 683762255",
                "email": "szkola-wiechlice@wp.pl",
                "ref:regon": "386421975",
                "operator": "Stowarzyszenie O\u015bwiatowe \"Diapazon\" W Po\u017carowie",
                "operator:type": "ngo",
                "amenity": "school"
            }
        },
        {
            "id": 127137,
            "type": "Feature",
            "geometry": {
                "type": "Point",
                "coordinates": [
                    15.52879,
                    51.55718
                ]
            },
            "properties": {
                "ref:rspo": 127137,
                "official_name": "Niepubliczne Przedszkole J\u0119zykowe Ma\u0142y Europejczyk",
                "name": "Niepubliczne Przedszkole J\u0119zykowe Ma\u0142y Europejczyk",
                "addr:postcode": "67-300",
                "addr:city": "Szprotawa",
                "addr:street": "Ciszowska",
                "addr:housenumber": "15",
                "addr:door": "A",
                "addr:city:simc": 988603,
                "addr:street:sym_ul": 3108,
                "phone": "+48 512113147",
                "ref:regon": "361138144",
                "operator": "Stanis\u0142aw Motyka",
                "operator:type": "private",
                "amenity": "kindergarten"
            }
        },
        {
            "id": 53703,
            "type": "Feature",
            "geometry": {
                "type": "Point",
                "coordinates": [
                    15.53126,
                    51.5608
                ]
            },
            "properties": {
                "ref:rspo": 53703,
                "official_name": "Przedszkole nr 2 w Szprotawie",
                "name": "Przedszkole nr 2 w Szprotawie",
                "addr:postcode": "67-300",
                "addr:city": "Szprotawa",
                "addr:street": "Parkowa",
                "addr:housenumber": "4",
                "addr:city:simc": 988603,
                "addr:street:sym_ul": 15710,
                "ref:regon": "978074952",
                "ref:vatin": "PL9241616925",
                "operator": "Gmina Szprotawa",
                "operator:type": "government",
                "amenity": "kindergarten",
                "note": "Parent RSPO: 267626"
            }
        },
        {
            "id": 109685,
            "type": "Feature",
            "geometry": {
                "type": "Point",
                "coordinates": [
                    15.50948,
                    51.5619
                ]
            },
            "properties": {
                "isced:level": "1;2",
                "ref:rspo": 109685,
                "official_name": "Szko\u0142a Podstawowa nr 2 w Szprotawie",
                "name": "Szko\u0142a Podstawowa nr 2 w Szprotawie",
                "addr:postcode": "67-300",
                "addr:city": "Szprotawa",
                "addr:street": "Sobieskiego",
                "addr:housenumber": "58",
                "addr:city:simc": 988603,
                "addr:street:sym_ul": 20421,
                "phone": "+48 683765907",
                "email": "gim2szprotawa@o2.pl",
                "website": "http:\/\/www.sp2szprotawa.pl",
                "ref:regon": "970599081",
                "ref:vatin": "PL9241841131",
                "operator": "Gmina Szprotawa",
                "operator:type": "government",
                "amenity": "school",
                "note": "Parent RSPO: 17309"
            }
        },
        {
            "id": 17304,
            "type": "Feature",
            "geometry": {
                "type": "Point",
                "coordinates": [
                    15.49721,
                    51.56276
                ]
            },
            "properties": {
                "ref:rspo": 17304,
                "official_name": "Poradnia Psychologiczno - Pedagogiczna",
                "name": "Poradnia Psychologiczno - Pedagogiczna",
                "addr:postcode": "67-300",
                "addr:city": "Szprotawa",
                "addr:street": "Sobieskiego",
                "addr:housenumber": "69",
                "addr:city:simc": 988603,
                "addr:street:sym_ul": 20421,
                "phone": "+48 683762249",
                "email": "poradpp@idsl.pl",
                "website": "http:\/\/www.pppszprotawa.szkolnastrona.pl",
                "ref:regon": "970254152",
                "ref:vatin": "PL9241718347",
                "operator": "Powiat \u017baga\u0144ski",
                "operator:type": "government",
                "healthcare": "counselling",
                "counselling_type": "education",
                "fixme": "w zale\u017cno\u015bci od przedmiotu dzia\u0142alno\u015bci (np. healthcare=counselling + counselling_type=education albo healthcare=psychotherapist)"
            }
        },
        {
            "id": 17307,
            "type": "Feature",
            "geometry": {
                "type": "Point",
                "coordinates": [
                    15.49721,
                    51.562729999999995
                ]
            },
            "properties": {
                "ref:rspo": 17307,
                "official_name": "Specjalny O\u015brodek Szkolno Wychowawczy im. Jana Brzechwy w Szprotawie",
                "name": "Specjalny O\u015brodek Szkolno Wychowawczy",
                "addr:postcode": "67-300",
                "addr:city": "Szprotawa",
                "addr:street": "Sobieskiego",
                "addr:housenumber": "69",
                "addr:city:simc": 988603,
                "addr:street:sym_ul": 20421,
                "phone": "+48 683765879",
                "email": "soswszprotawa@powiatzaganski.pl",
                "website": "http:\/\/www.soswszprotawa.powiatzaganski.pl",
                "ref:regon": "000592934",
                "ref:vatin": "PL9241627372",
                "operator": "Powiat \u017baga\u0144ski",
                "operator:type": "government",
                "amenity": "school",
                "note": "Children RSPO: 39200;39203"
            }
        },
        {
            "id": 39200,
            "type": "Feature",
            "geometry": {
                "type": "Point",
                "coordinates": [
                    15.49721,
                    51.5627
                ]
            },
            "properties": {
                "isced:level": "1;2",
                "ref:rspo": 39200,
                "official_name": "Szko\u0142a Podstawowa Specjalna",
                "name": "Szko\u0142a Podstawowa Specjalna",
                "addr:postcode": "67-300",
                "addr:city": "Szprotawa",
                "addr:street": "Sobieskiego",
                "addr:housenumber": "69",
                "addr:city:simc": 988603,
                "addr:street:sym_ul": 20421,
                "phone": "+48 683765879",
                "email": "soswszprotawa@powiatzaganski.pl",
                "website": "http:\/\/www.soswszprotawa.powiatzaganski.pl",
                "ref:regon": "000699974",
                "operator": "Powiat \u017baga\u0144ski",
                "operator:type": "government",
                "amenity": "school",
                "note": "Parent RSPO: 17307"
            }
        },
        {
            "id": 39203,
            "type": "Feature",
            "geometry": {
                "type": "Point",
                "coordinates": [
                    15.49721,
                    51.56267
                ]
            },
            "properties": {
                "ref:rspo": 39203,
                "official_name": "Szko\u0142a Specjalna Przysposabiaj\u0105ca do Pracy",
                "name": "Szko\u0142a Specjalna Przysposabiaj\u0105ca do Pracy",
                "addr:postcode": "67-300",
                "addr:city": "Szprotawa",
                "addr:street": "Sobieskiego",
                "addr:housenumber": "69",
                "addr:city:simc": 988603,
                "addr:street:sym_ul": 20421,
                "phone": "+48 683765879",
                "email": "soswszprotawa@powiatzaganski.pl",
                "website": "http:\/\/www.soswszprotawa.powiatzaganski.pl",
                "ref:regon": "978000014",
                "operator": "Powiat \u017baga\u0144ski",
                "operator:type": "government",
                "amenity": "school",
                "note": "Parent RSPO: 17307"
            }
        },
        {
            "id": 267626,
            "type": "Feature",
            "geometry": {
                "type": "Point",
                "coordinates": [
                    15.54372,
                    51.56302
                ]
            },
            "properties": {
                "ref:rspo": 267626,
                "official_name": "Zesp\u00f3\u0142 Przedszkolny w Szprotawie",
                "name": "Zesp\u00f3\u0142 Przedszkolny w Szprotawie",
                "addr:postcode": "67-300",
                "addr:city": "Szprotawa",
                "addr:street": "Waszyngtona",
                "addr:housenumber": "5",
                "addr:city:simc": 988603,
                "addr:street:sym_ul": 29503,
                "email": "zps@szprotawa.pl",
                "ref:regon": "380434050",
                "ref:vatin": "PL9241911104",
                "operator": "Gmina Szprotawa",
                "operator:type": "government",
                "landuse": "education",
                "fixme": "amenity=school, amenity=college albo landuse=education w zale\u017cno\u015bci od tego, jakie plac\u00f3wki wchodz\u0105 w sk\u0142ad zespo\u0142u. Sprawd\u017a, kiedy stosowa\u0107 amenity=* a kiedy landuse=education.",
                "note": "Children RSPO: 53703;53704;55854"
            }
        },
        {
            "id": 53704,
            "type": "Feature",
            "geometry": {
                "type": "Point",
                "coordinates": [
                    15.54372,
                    51.56299
                ]
            },
            "properties": {
                "ref:rspo": 53704,
                "official_name": "Przedszkole nr 3 im. \"Pod D\u0119bami\" w Szprotawie",
                "name": "Przedszkole nr 3",
                "addr:postcode": "67-300",
                "addr:city": "Szprotawa",
                "addr:street": "Waszyngtona",
                "addr:housenumber": "5",
                "addr:city:simc": 988603,
                "addr:street:sym_ul": 29503,
                "ref:regon": "978074969",
                "ref:vatin": "PL9241616931",
                "operator": "Gmina Szprotawa",
                "operator:type": "government",
                "amenity": "kindergarten",
                "note": "Parent RSPO: 267626"
            }
        },
        {
            "id": 28071,
            "type": "Feature",
            "geometry": {
                "type": "Point",
                "coordinates": [
                    15.53247,
                    51.5635199
                ]
            },
            "properties": {
                "ref:rspo": 28071,
                "official_name": "Pa\u0144stwowa Szko\u0142a Muzyczna I St. w Szprotawie",
                "name": "Pa\u0144stwowa Szko\u0142a Muzyczna I St. w Szprotawie",
                "addr:postcode": "67-300",
                "addr:city": "Szprotawa",
                "addr:street": "Marii Konopnickiej",
                "addr:housenumber": "4",
                "addr:city:simc": 988603,
                "addr:street:sym_ul": 9182,
                "phone": "+48 683762416",
                "email": "szmuza@o2.pl",
                "website": "http:\/\/psmszprotawa.pl",
                "ref:regon": "000284291",
                "operator": "Ministerstwo Kultury I Dziedzictwa Narodowego",
                "operator:type": "government",
                "amenity": "music_school"
            }
        },
        {
            "id": 17309,
            "type": "Feature",
            "geometry": {
                "type": "Point",
                "coordinates": [
                    15.52988,
                    51.56473
                ]
            },
            "properties": {
                "ref:rspo": 17309,
                "official_name": "Zesp\u00f3\u0142 Szk\u00f3\u0142 Og\u00f3lnokszta\u0142c\u0105cych im. Boles\u0142awa Chrobrego w Szprotawie",
                "name": "Zesp\u00f3\u0142 Szk\u00f3\u0142 Og\u00f3lnokszta\u0142c\u0105cych",
                "addr:postcode": "67-300",
                "addr:city": "Szprotawa",
                "addr:street": "Niepodleg\u0142o\u015bci",
                "addr:housenumber": "7",
                "addr:city:simc": 988603,
                "addr:street:sym_ul": 14203,
                "phone": "+48 683762566",
                "email": "sekretariat@loszprotawa.pl",
                "website": "http:\/\/loszprotawa.pl",
                "ref:regon": "978056701",
                "ref:vatin": "PL9241604804",
                "operator": "Gmina Szprotawa",
                "operator:type": "government",
                "landuse": "education",
                "fixme": "amenity=school, amenity=college albo landuse=education w zale\u017cno\u015bci od tego, jakie plac\u00f3wki wchodz\u0105 w sk\u0142ad zespo\u0142u. Sprawd\u017a, kiedy stosowa\u0107 amenity=* a kiedy landuse=education.",
                "note": "Children RSPO: 92805;109685"
            }
        },
        {
            "id": 263863,
            "type": "Feature",
            "geometry": {
                "type": "Point",
                "coordinates": [
                    15.52988,
                    51.564699999999995
                ]
            },
            "properties": {
                "isced:level": "1;2",
                "ref:rspo": 263863,
                "official_name": "Spo\u0142eczna Szko\u0142a Podstawowa Imienia Boles\u0142awa Chrobrego w Szprotawie",
                "name": "Spo\u0142eczna Szko\u0142a Podstawowa Imienia Boles\u0142awa Chrobrego w Szprotawie",
                "addr:postcode": "67-300",
                "addr:city": "Szprotawa",
                "addr:street": "Niepodleg\u0142o\u015bci",
                "addr:housenumber": "7",
                "addr:city:simc": 988603,
                "addr:street:sym_ul": 14203,
                "phone": "+48 683762566",
                "email": "sekretariat@ssps.edu.pl",
                "website": "http:\/\/sgd.edu.pl\/",
                "ref:regon": "368231148",
                "ref:vatin": "PL9241909426",
                "operator": "Stowarzyszenie Absolwent\u00f3w I Przyjaci\u00f3\u0142 Liceum Og\u00f3lnokszta\u0142c\u0105cego Im. Boles\u0142awa Chrobrego W Szprotawie",
                "operator:type": "ngo",
                "amenity": "school"
            }
        },
        {
            "id": 92805,
            "type": "Feature",
            "geometry": {
                "type": "Point",
                "coordinates": [
                    15.52988,
                    51.56467
                ]
            },
            "properties": {
                "isced:level": "3",
                "ref:rspo": 92805,
                "official_name": "Liceum Og\u00f3lnokszta\u0142c\u0105ce z Oddzia\u0142ami Dwuj\u0119zycznymi w Szprotawie",
                "name": "Liceum Og\u00f3lnokszta\u0142c\u0105ce z Oddzia\u0142ami Dwuj\u0119zycznymi w Szprotawie",
                "addr:postcode": "67-300",
                "addr:city": "Szprotawa",
                "addr:street": "Niepodleg\u0142o\u015bci",
                "addr:housenumber": "7",
                "addr:city:simc": 988603,
                "addr:street:sym_ul": 14203,
                "phone": "+48 683762566",
                "email": "sekretariat@loszprotawa.pl",
                "website": "http:\/\/www.loszprotawa.pl",
                "ref:regon": "080015150",
                "operator": "Gmina Szprotawa",
                "operator:type": "government",
                "amenity": "school",
                "note": "Parent RSPO: 17309"
            }
        },
        {
            "id": 17305,
            "type": "Feature",
            "geometry": {
                "type": "Point",
                "coordinates": [
                    15.52726,
                    51.5656
                ]
            },
            "properties": {
                "ref:rspo": 17305,
                "official_name": "Zesp\u00f3\u0142 Szk\u00f3\u0142 Technicznych I Bran\u017cowych im. Stanis\u0142awa Staszica w Szprotawie",
                "name": "Zesp\u00f3\u0142 Szk\u00f3\u0142 Technicznych I Bran\u017cowych",
                "addr:postcode": "67-300",
                "addr:city": "Szprotawa",
                "addr:street": "Koszarowa",
                "addr:housenumber": "10",
                "addr:city:simc": 988603,
                "addr:street:sym_ul": 9512,
                "phone": "+48 683762411",
                "email": "zszsz@wp.pl",
                "website": "http:\/\/www.zsz54.pl",
                "ref:regon": "000182544",
                "ref:vatin": "PL9241604796",
                "operator": "Powiat \u017baga\u0144ski",
                "operator:type": "government",
                "landuse": "education",
                "fixme": "amenity=school, amenity=college albo landuse=education w zale\u017cno\u015bci od tego, jakie plac\u00f3wki wchodz\u0105 w sk\u0142ad zespo\u0142u. Sprawd\u017a, kiedy stosowa\u0107 amenity=* a kiedy landuse=education.",
                "note": "Children RSPO: 39167;39169;39174;39186;275840"
            }
        },
        {
            "id": 39167,
            "type": "Feature",
            "geometry": {
                "type": "Point",
                "coordinates": [
                    15.52726,
                    51.56557
                ]
            },
            "properties": {
                "isced:level": "3",
                "ref:rspo": 39167,
                "official_name": "Bran\u017cowa Szko\u0142a I Stopnia",
                "name": "Bran\u017cowa Szko\u0142a I Stopnia",
                "addr:postcode": "67-300",
                "addr:city": "Szprotawa",
                "addr:street": "Koszarowa",
                "addr:housenumber": "10",
                "addr:city:simc": 988603,
                "addr:street:sym_ul": 9512,
                "phone": "+48 683762411",
                "email": "zszsekretariat@wp.pl",
                "website": "http:\/\/www.zsz54.pl",
                "ref:regon": "977996678",
                "operator": "Powiat \u017baga\u0144ski",
                "operator:type": "government",
                "amenity": "school",
                "note": "Parent RSPO: 17305"
            }
        },
        {
            "id": 39169,
            "type": "Feature",
            "geometry": {
                "type": "Point",
                "coordinates": [
                    15.52726,
                    51.565540000000006
                ]
            },
            "properties": {
                "isced:level": "3",
                "ref:rspo": 39169,
                "official_name": "Technikum",
                "name": "Technikum",
                "addr:postcode": "67-300",
                "addr:city": "Szprotawa",
                "addr:street": "Koszarowa",
                "addr:housenumber": "10",
                "addr:city:simc": 988603,
                "addr:street:sym_ul": 9512,
                "phone": "+48 683762411",
                "email": "zszsekretariat@wp.pl",
                "website": "http:\/\/www.zsz54.pl",
                "ref:regon": "977996655",
                "operator": "Powiat \u017baga\u0144ski",
                "operator:type": "government",
                "amenity": "school",
                "note": "Parent RSPO: 17305"
            }
        },
        {
            "id": 39174,
            "type": "Feature",
            "geometry": {
                "type": "Point",
                "coordinates": [
                    15.52726,
                    51.56551
                ]
            },
            "properties": {
                "isced:level": "4",
                "ref:rspo": 39174,
                "official_name": "Szko\u0142a Policealna dla Doros\u0142ych",
                "name": "Szko\u0142a Policealna dla Doros\u0142ych",
                "addr:postcode": "67-300",
                "addr:city": "Szprotawa",
                "addr:street": "Koszarowa",
                "addr:housenumber": "10",
                "addr:city:simc": 988603,
                "addr:street:sym_ul": 9512,
                "phone": "+48 683762411",
                "email": "zszsekretariat@wp.pl",
                "website": "http:\/\/www.zsz54.pl",
                "ref:regon": "080288674",
                "operator": "Powiat \u017baga\u0144ski",
                "operator:type": "government",
                "amenity": "college",
                "note": "Parent RSPO: 17305"
            }
        },
        {
            "id": 39186,
            "type": "Feature",
            "geometry": {
                "type": "Point",
                "coordinates": [
                    15.52726,
                    51.56548
                ]
            },
            "properties": {
                "isced:level": "4",
                "ref:rspo": 39186,
                "official_name": "Szko\u0142a Policealna",
                "name": "Szko\u0142a Policealna",
                "addr:postcode": "67-300",
                "addr:city": "Szprotawa",
                "addr:street": "Koszarowa",
                "addr:housenumber": "10",
                "addr:city:simc": 988603,
                "addr:street:sym_ul": 9512,
                "phone": "+48 683762411",
                "email": "zszsekretariat@wp.pl",
                "website": "http:\/\/www.zsz54.pl",
                "ref:regon": "978032089",
                "operator": "Powiat \u017baga\u0144ski",
                "operator:type": "government",
                "amenity": "college",
                "note": "Parent RSPO: 17305"
            }
        },
        {
            "id": 275840,
            "type": "Feature",
            "geometry": {
                "type": "Point",
                "coordinates": [
                    15.52726,
                    51.565450000000006
                ]
            },
            "properties": {
                "isced:level": "3",
                "ref:rspo": 275840,
                "official_name": "Bran\u017cowa Szko\u0142a II Stopnia w Zespole Szk\u00f3\u0142 Technicznych I Bran\u017cowych w Szprotawie",
                "name": "Bran\u017cowa Szko\u0142a II Stopnia w Zespole Szk\u00f3\u0142 Technicznych I Bran\u017cowych w Szprotawie",
                "addr:postcode": "67-300",
                "addr:city": "Szprotawa",
                "addr:street": "Koszarowa",
                "addr:housenumber": "10",
                "addr:city:simc": 988603,
                "addr:street:sym_ul": 9512,
                "phone": "+48 683762411",
                "email": "zszsekretariat@wp.pl",
                "website": "http:\/\/www.zsz54.pl",
                "ref:regon": "386942272",
                "operator": "Powiat \u017baga\u0144ski",
                "operator:type": "government",
                "amenity": "school",
                "note": "Parent RSPO: 17305"
            }
        },
        {
            "id": 109687,
            "type": "Feature",
            "geometry": {
                "type": "Point",
                "coordinates": [
                    15.532,
                    51.56713
                ]
            },
            "properties": {
                "isced:level": "1;2",
                "ref:rspo": 109687,
                "official_name": "Szko\u0142a Podstawowa nr 1 w Szprotawie",
                "name": "Szko\u0142a Podstawowa nr 1 w Szprotawie",
                "addr:postcode": "67-300",
                "addr:city": "Szprotawa",
                "addr:street": "Miko\u0142aja Kopernika",
                "addr:housenumber": "22",
                "addr:city:simc": 988603,
                "addr:street:sym_ul": 9276,
                "phone": "+48 683762402",
                "email": "szkola@sp1szprotawa.pl",
                "website": "http:\/\/www.sp1szprotawa.pl",
                "ref:regon": "970599069",
                "ref:vatin": "PL9241898705",
                "operator": "Gmina Szprotawa",
                "operator:type": "government",
                "amenity": "school"
            }
        },
        {
            "id": 29549,
            "type": "Feature",
            "geometry": {
                "type": "Point",
                "coordinates": [
                    15.55987,
                    51.56808
                ]
            },
            "properties": {
                "ref:rspo": 29549,
                "official_name": "Zesp\u00f3\u0142 Szk\u00f3\u0142 Centrum Kszta\u0142cenia Rolniczego im.komisji Edukacji Narodowej w Henrykowie",
                "name": "Zesp\u00f3\u0142 Szk\u00f3\u0142 Centrum Kszta\u0142cenia Rolniczego im.komisji Edukacji Narodowej w Henrykowie",
                "addr:postcode": "67-300",
                "addr:place": "Henryk\u00f3w",
                "addr:housenumber": "54",
                "addr:city:simc": 914622,
                "phone": "+48 683762517",
                "email": "zsrcku@vp.pl",
                "website": "http:\/\/www.rolniczak-henrykow.pl",
                "ref:regon": "000097399",
                "ref:vatin": "PL9241056395",
                "operator": "Ministerstwo Rolnictwa I Rozwoju Wsi",
                "operator:type": "government",
                "landuse": "education",
                "fixme": "amenity=school, amenity=college albo landuse=education w zale\u017cno\u015bci od tego, jakie plac\u00f3wki wchodz\u0105 w sk\u0142ad zespo\u0142u. Sprawd\u017a, kiedy stosowa\u0107 amenity=* a kiedy landuse=education.",
                "note": "Children RSPO: 80852;80853;80855"
            }
        },
        {
            "id": 80852,
            "type": "Feature",
            "geometry": {
                "type": "Point",
                "coordinates": [
                    15.55987,
                    51.56805
                ]
            },
            "properties": {
                "isced:level": "3",
                "ref:rspo": 80852,
                "official_name": "Technikum w Henrykowie",
                "name": "Technikum w Henrykowie",
                "addr:postcode": "67-300",
                "addr:place": "Henryk\u00f3w",
                "addr:housenumber": "54",
                "addr:city:simc": 914622,
                "phone": "+48 683762517",
                "email": "zsrcku@vp.pl",
                "website": "http:\/\/www.rolniczak-henrykow.pl",
                "ref:regon": "978059421",
                "operator": "Ministerstwo Rolnictwa I Rozwoju Wsi",
                "operator:type": "government",
                "amenity": "school",
                "note": "Parent RSPO: 29549"
            }
        },
        {
            "id": 80853,
            "type": "Feature",
            "geometry": {
                "type": "Point",
                "coordinates": [
                    15.55987,
                    51.568020000000004
                ]
            },
            "properties": {
                "isced:level": "3",
                "ref:rspo": 80853,
                "official_name": "Bran\u017cowa Szko\u0142a I Stopnia w Henrykowie",
                "name": "Bran\u017cowa Szko\u0142a I Stopnia w Henrykowie",
                "addr:postcode": "67-300",
                "addr:place": "Henryk\u00f3w",
                "addr:housenumber": "54",
                "addr:city:simc": 914622,
                "phone": "+48 683762517",
                "email": "zsrcku@vp.pl",
                "website": "http:\/\/www.rolniczak-henrykow.pl",
                "ref:regon": "978059450",
                "operator": "Ministerstwo Rolnictwa I Rozwoju Wsi",
                "operator:type": "government",
                "amenity": "school",
                "note": "Parent RSPO: 29549"
            }
        },
        {
            "id": 80855,
            "type": "Feature",
            "geometry": {
                "type": "Point",
                "coordinates": [
                    15.55987,
                    51.56799
                ]
            },
            "properties": {
                "ref:rspo": 80855,
                "official_name": "Rolnicze Centrum Kszta\u0142cenia Ustawicznego w Henrykowie",
                "name": "Rolnicze Centrum Kszta\u0142cenia Ustawicznego w Henrykowie",
                "addr:postcode": "67-300",
                "addr:place": "Henryk\u00f3w",
                "addr:housenumber": "54",
                "addr:city:simc": 914622,
                "phone": "+48 683762517",
                "email": "zsrcku@vp.pl",
                "website": "http:\/\/www.rolniczak-henrykow.pl",
                "ref:regon": "081087328",
                "operator": "Ministerstwo Rolnictwa I Rozwoju Wsi",
                "operator:type": "government",
                "fixme": "w zale\u017cno\u015bci od przedmiotu dzia\u0142alno\u015bci (np. amenity=training + training=*, amenity=dancing_school, amenity=language_school, amenity=music_school)",
                "note": "Parent RSPO: 29549"
            }
        },
        {
            "id": 55854,
            "type": "Feature",
            "geometry": {
                "type": "Point",
                "coordinates": [
                    15.53247,
                    51.56811
                ]
            },
            "properties": {
                "ref:rspo": 55854,
                "official_name": "Przedszkole nr 1 w Szprotawie",
                "name": "Przedszkole nr 1 w Szprotawie",
                "addr:postcode": "67-300",
                "addr:city": "Szprotawa",
                "addr:street": "Rolna",
                "addr:housenumber": "1",
                "addr:city:simc": 988603,
                "addr:street:sym_ul": 18819,
                "email": "pk1szprotawa@gmail.com",
                "ref:regon": "978074679",
                "ref:vatin": "PL9241616954",
                "operator": "Gmina Szprotawa",
                "operator:type": "government",
                "amenity": "kindergarten",
                "note": "Parent RSPO: 267626"
            }
        },
        {
            "id": 267617,
            "type": "Feature",
            "geometry": {
                "type": "Point",
                "coordinates": [
                    15.6799278,
                    51.6484469
                ]
            },
            "properties": {
                "isced:level": "1;2",
                "ref:rspo": 267617,
                "official_name": "Szko\u0142a Podstawowa w D\u0142ugiem",
                "name": "Szko\u0142a Podstawowa w D\u0142ugiem",
                "addr:postcode": "67-312",
                "addr:place": "D\u0142ugie",
                "addr:housenumber": "79",
                "addr:city:simc": 914585,
                "phone": "+48 683768015",
                "email": "spdlugie@op.pl",
                "website": "http:\/\/www.sudlugie.pl",
                "ref:regon": "380419658",
                "ref:vatin": "PL9241911127",
                "operator": "Gmina Szprotawa",
                "operator:type": "government",
                "amenity": "school"
            }
        },
        {
            "id": 267622,
            "type": "Feature",
            "geometry": {
                "type": "Point",
                "coordinates": [
                    15.53755,
                    51.66312
                ]
            },
            "properties": {
                "isced:level": "1;2",
                "ref:rspo": 267622,
                "official_name": "Szko\u0142a Podstawowa w Siecieborzycach",
                "name": "Szko\u0142a Podstawowa w Siecieborzycach",
                "addr:postcode": "67-320",
                "addr:place": "Siecieborzyce",
                "addr:housenumber": "49a",
                "addr:city:simc": 914711,
                "phone": "+48 683768891",
                "email": "spsiecieborzyce@o2.pl",
                "website": "http:\/\/www.siecieborzecesp.pl",
                "ref:regon": "380432699",
                "ref:vatin": "PL9241911133",
                "operator": "Gmina Szprotawa",
                "operator:type": "government",
                "amenity": "school"
            }
        }
    ]
}