{
    "type": "FeatureCollection",
    "features": [
        {
            "id": 69899,
            "type": "Feature",
            "geometry": {
                "type": "Point",
                "coordinates": [
                    19.00535,
                    49.70428
                ]
            },
            "properties": {
                "isced:level": "1;2",
                "ref:rspo": 69899,
                "official_name": "Szko\u0142a Podstawowa Nr 2 im. Kr\u00f3lowej Jadwigi w Szczyrku",
                "name": "Szko\u0142a Podstawowa Nr 2",
                "addr:postcode": "43-370",
                "addr:city": "Szczyrk",
                "addr:street": "My\u015bliwska",
                "addr:housenumber": "154",
                "addr:teryt:simc": 925850,
                "addr:teryt:sym_ul": 13563,
                "phone": "+48 338178674",
                "email": "sekretariat@szkola2.szczyrk.pl",
                "website": "http:\/\/sp2szczyrk.szkolnastrona.pl",
                "ref:regon": "072736908",
                "ref:vatin": "PL9372698119",
                "operator": "Gmina Szczyrk",
                "operator:type": "government",
                "amenity": "school"
            }
        },
        {
            "id": 50339,
            "type": "Feature",
            "geometry": {
                "type": "Point",
                "coordinates": [
                    19.02789,
                    49.71652
                ]
            },
            "properties": {
                "ref:rspo": 50339,
                "official_name": "Przedszkole Niepubliczne \"\u017byrafa\"",
                "name": "Przedszkole Niepubliczne \"\u017byrafa\"",
                "addr:postcode": "43-370",
                "addr:city": "Szczyrk",
                "addr:street": "Beskidzka",
                "addr:housenumber": "36A",
                "addr:teryt:simc": 925850,
                "addr:teryt:sym_ul": 1103,
                "phone": "+48 666853001",
                "email": "info@przedszkole-zyrafa.pl",
                "website": "http:\/\/www.przedszkole-zyrafa.pl",
                "ref:regon": "243079619",
                "ref:vatin": "PL9372115833",
                "operator": "Agnieszka Ry\u015b",
                "operator:type": "private",
                "amenity": "kindergarten"
            }
        },
        {
            "id": 18814,
            "type": "Feature",
            "geometry": {
                "type": "Point",
                "coordinates": [
                    19.03593,
                    49.71831
                ]
            },
            "properties": {
                "ref:rspo": 18814,
                "official_name": "Szkolne Schronisko M\u0142odzie\u017cowe \"Hondrasik\"",
                "name": "Szkolne Schronisko M\u0142odzie\u017cowe \"Hondrasik\"",
                "addr:postcode": "43-370",
                "addr:city": "Szczyrk",
                "addr:street": "Sportowa",
                "addr:housenumber": "2",
                "addr:teryt:simc": 925850,
                "addr:teryt:sym_ul": 20683,
                "phone": "+48 338178933",
                "email": "ssmhondrasik@wp.pl",
                "website": "http:\/\/www.hondrasik.za.pl",
                "ref:regon": "000891789",
                "operator": "Powiat Bielski",
                "operator:type": "government",
                "tourism": "hostel",
                "note": "Parent RSPO: 15557"
            }
        },
        {
            "id": 124294,
            "type": "Feature",
            "geometry": {
                "type": "Point",
                "coordinates": [
                    19.04018,
                    49.71853
                ]
            },
            "properties": {
                "isced:level": "3",
                "ref:rspo": 124294,
                "official_name": "Niepubliczne Liceum Og\u00f3lnokszta\u0142c\u0105ce Szko\u0142a Mistrzostwa Sportowego Polskiego Zwi\u0105zku Pi\u0142ki Siatkowej im. Agaty Mr\u00f3z-Olszewskiej",
                "name": "Niepubliczne Liceum Og\u00f3lnokszta\u0142c\u0105ce Szko\u0142a Mistrzostwa Sportowego Polskiego Zwi\u0105zku Pi\u0142ki Siatkowej",
                "addr:postcode": "43-370",
                "addr:city": "Szczyrk",
                "addr:street": "Pla\u017cowa",
                "addr:housenumber": "8",
                "addr:teryt:simc": 925850,
                "addr:teryt:sym_ul": 16457,
                "email": "sport@smspzps.pl",
                "website": "http:\/\/www.smspzps.pl",
                "ref:regon": "243650830",
                "operator": "Polski Zwi\u0105zek Pi\u0142ki Siatkowej",
                "operator:type": "ngo",
                "amenity": "school"
            }
        },
        {
            "id": 68677,
            "type": "Feature",
            "geometry": {
                "type": "Point",
                "coordinates": [
                    19.03771,
                    49.72102
                ]
            },
            "properties": {
                "isced:level": "1;2",
                "ref:rspo": 68677,
                "official_name": "Szko\u0142a Podstawowa Nr 1 im. Heleny Marusarz\u00f3wny w Szczyrku",
                "name": "Szko\u0142a Podstawowa Nr 1",
                "addr:postcode": "43-370",
                "addr:city": "Szczyrk",
                "addr:street": "Szkolna",
                "addr:housenumber": "9",
                "addr:teryt:simc": 925850,
                "addr:teryt:sym_ul": 21970,
                "phone": "+48 338178559",
                "email": "poczta@szkola1.szczyrk.pl",
                "website": "http:\/\/www.szkola1.szczyrk.pl",
                "ref:regon": "072736890",
                "ref:vatin": "PL9372698065",
                "operator": "Gmina Szczyrk",
                "operator:type": "government",
                "amenity": "school"
            }
        },
        {
            "id": 264305,
            "type": "Feature",
            "geometry": {
                "type": "Point",
                "coordinates": [
                    19.03771,
                    49.72099
                ]
            },
            "properties": {
                "isced:level": "3",
                "ref:rspo": 264305,
                "official_name": "Liceum Og\u00f3lnokszta\u0142c\u0105ce dla Doros\u0142ych Idea Plus",
                "name": "Liceum Og\u00f3lnokszta\u0142c\u0105ce dla Doros\u0142ych Idea Plus",
                "addr:postcode": "43-370",
                "addr:city": "Szczyrk",
                "addr:street": "Szkolna",
                "addr:housenumber": "9",
                "addr:teryt:simc": 925850,
                "addr:teryt:sym_ul": 21970,
                "phone": "+48 324414318",
                "email": "sekretariat@ideaszkola.edu.pl",
                "website": "http:\/\/www.ideaszkola.edu.pl",
                "ref:regon": "368306248",
                "operator": "Jk-Edu Sp\u00f3\u0142ka Z Ograniczon\u0105 Odpowiedzialno\u015bci\u0105",
                "operator:type": "private",
                "amenity": "school"
            }
        },
        {
            "id": 264309,
            "type": "Feature",
            "geometry": {
                "type": "Point",
                "coordinates": [
                    19.03771,
                    49.720960000000005
                ]
            },
            "properties": {
                "isced:level": "4",
                "ref:rspo": 264309,
                "official_name": "Policealna Szko\u0142a Idea Plus",
                "name": "Policealna Szko\u0142a Idea Plus",
                "addr:postcode": "43-370",
                "addr:city": "Szczyrk",
                "addr:street": "Szkolna",
                "addr:housenumber": "9",
                "addr:teryt:simc": 925850,
                "addr:teryt:sym_ul": 21970,
                "phone": "+48 324414318",
                "email": "sekretariat@ideaszkola.edu.pl",
                "website": "http:\/\/www.ideaszkola.edu.pl",
                "ref:regon": "368306656",
                "operator": "Jk-Edu Sp\u00f3\u0142ka Z Ograniczon\u0105 Odpowiedzialno\u015bci\u0105",
                "operator:type": "private",
                "amenity": "college"
            }
        },
        {
            "id": 41160,
            "type": "Feature",
            "geometry": {
                "type": "Point",
                "coordinates": [
                    19.01711,
                    49.72145
                ]
            },
            "properties": {
                "ref:rspo": 41160,
                "official_name": "O\u015brodek Kszta\u0142cenia Kursowego",
                "name": "O\u015brodek Kszta\u0142cenia Kursowego",
                "addr:postcode": "43-370",
                "addr:city": "Szczyrk",
                "addr:street": "Wrzosowa",
                "addr:housenumber": "21",
                "addr:door": "3",
                "addr:teryt:simc": 925850,
                "addr:teryt:sym_ul": 24870,
                "phone": "+48 338172825",
                "email": "okk@pro.onet.pl",
                "website": "http:\/\/www.okk.com.pl",
                "ref:regon": "243075314",
                "ref:vatin": "PL5470243004",
                "operator": "Anna Straub",
                "operator:type": "private",
                "fixme": "w zale\u017cno\u015bci od przedmiotu dzia\u0142alno\u015bci (np. amenity=training + training=*, amenity=dancing_school, amenity=language_school, amenity=music_school)"
            }
        },
        {
            "id": 6428,
            "type": "Feature",
            "geometry": {
                "type": "Point",
                "coordinates": [
                    19.0043,
                    49.72179
                ]
            },
            "properties": {
                "ref:rspo": 6428,
                "official_name": "Przedszkole Publiczne w Szczyrku",
                "name": "Przedszkole Publiczne w Szczyrku",
                "addr:postcode": "43-370",
                "addr:city": "Szczyrk",
                "addr:street": "G\u00f3rska",
                "addr:housenumber": "104",
                "addr:teryt:simc": 925850,
                "addr:teryt:sym_ul": 5989,
                "phone": "+48 338178675",
                "email": "zspszczyrk@gmail.com",
                "ref:regon": "070561020",
                "ref:vatin": "PL9372663635",
                "operator": "Gmina Szczyrk",
                "operator:type": "government",
                "amenity": "kindergarten"
            }
        },
        {
            "id": 17353,
            "type": "Feature",
            "geometry": {
                "type": "Point",
                "coordinates": [
                    19.04469,
                    49.72381
                ]
            },
            "properties": {
                "ref:rspo": 17353,
                "official_name": "\"Via Media\" Niepubliczna Plac\u00f3wka Doskonalenia Nauczycieli",
                "name": "\"Via Media\" Niepubliczna Plac\u00f3wka Doskonalenia Nauczycieli",
                "addr:postcode": "43-370",
                "addr:city": "Szczyrk",
                "addr:street": "Szczytowa",
                "addr:housenumber": "16",
                "addr:teryt:simc": 925850,
                "addr:teryt:sym_ul": 21887,
                "phone": "+48 609725414",
                "email": "via.media@op.pl",
                "website": "http:\/\/www.viamedia.com.pl",
                "ref:regon": "243050455",
                "ref:vatin": "PL6281945013",
                "operator": "Dane Do Uzupe\u0142nienia",
                "operator:type": "private",
                "amenity": "training"
            }
        }
    ]
}