{
    "type": "FeatureCollection",
    "features": [
        {
            "id": 41064,
            "type": "Feature",
            "geometry": {
                "type": "Point",
                "coordinates": [
                    18.866362,
                    49.800897
                ]
            },
            "properties": {
                "ref:rspo": 41064,
                "official_name": "Zesp\u00f3\u0142 Szkolno-Przedszkolny w Grod\u017acu",
                "name": "Zesp\u00f3\u0142 Szkolno-Przedszkolny w Grod\u017acu",
                "addr:postcode": "43-386",
                "addr:place": "Grodziec",
                "addr:housenumber": "9",
                "addr:city:simc": 54496,
                "phone": "+48 338154092",
                "email": "szkola_grodziec@poczta.onet.pl",
                "website": "http:\/\/www.zspgrodziec.edu.page.org",
                "ref:regon": "072913167",
                "ref:vatin": "PL9372429508",
                "operator": "Gmina Jasienica",
                "operator:type": "government",
                "landuse": "education",
                "fixme": "amenity=school, amenity=college albo landuse=education w zale\u017cno\u015bci od tego, jakie plac\u00f3wki wchodz\u0105 w sk\u0142ad zespo\u0142u. Sprawd\u017a, kiedy stosowa\u0107 amenity=* a kiedy landuse=education.",
                "note": "Children RSPO: 60755;60756"
            }
        },
        {
            "id": 60755,
            "type": "Feature",
            "geometry": {
                "type": "Point",
                "coordinates": [
                    18.866362,
                    49.800867
                ]
            },
            "properties": {
                "isced:level": "1;2",
                "ref:rspo": 60755,
                "official_name": "Szko\u0142a Podstawowa im. Wac\u0142awa Grodeckiego w Grod\u017acu",
                "name": "Szko\u0142a Podstawowa",
                "addr:postcode": "43-386",
                "addr:place": "Grodziec",
                "addr:housenumber": "9",
                "addr:city:simc": 54496,
                "phone": "+48 338154092",
                "email": "zspgrodziec@gzosip.jasienica.pl",
                "ref:regon": "070691521",
                "operator": "Gmina Jasienica",
                "operator:type": "government",
                "amenity": "school",
                "note": "Parent RSPO: 41064"
            }
        },
        {
            "id": 60756,
            "type": "Feature",
            "geometry": {
                "type": "Point",
                "coordinates": [
                    18.866362,
                    49.800837
                ]
            },
            "properties": {
                "ref:rspo": 60756,
                "official_name": "Przedszkole Publiczne w Grod\u017acu",
                "name": "Przedszkole Publiczne w Grod\u017acu",
                "addr:postcode": "43-386",
                "addr:place": "Grodziec",
                "addr:housenumber": "9",
                "addr:city:simc": 54496,
                "phone": "+48 338154092",
                "email": "szkola_grodziec@poczta.onet.pl",
                "ref:regon": "072726525",
                "operator": "Gmina Jasienica",
                "operator:type": "government",
                "amenity": "kindergarten",
                "note": "Parent RSPO: 41064"
            }
        },
        {
            "id": 89560,
            "type": "Feature",
            "geometry": {
                "type": "Point",
                "coordinates": [
                    18.892761,
                    49.8035609
                ]
            },
            "properties": {
                "isced:level": "1;2",
                "ref:rspo": 89560,
                "official_name": "Szko\u0142a Podstawowa im. Rudolfa Gila w \u015awi\u0119tosz\u00f3wce",
                "name": "Szko\u0142a Podstawowa",
                "addr:postcode": "43-386",
                "addr:place": "\u015awi\u0119tosz\u00f3wka",
                "addr:housenumber": "40",
                "addr:city:simc": 55248,
                "phone": "+48 338152925",
                "email": "spswietoszowka@gzosip.jasienica.pl",
                "website": "http:\/\/www.sp-swietoszowka.edupage.org",
                "ref:regon": "070691627",
                "ref:vatin": "PL9372235738",
                "operator": "Gmina Jasienica",
                "operator:type": "government",
                "amenity": "school"
            }
        },
        {
            "id": 82731,
            "type": "Feature",
            "geometry": {
                "type": "Point",
                "coordinates": [
                    18.8927379,
                    49.803979
                ]
            },
            "properties": {
                "ref:rspo": 82731,
                "official_name": "Przedszkole Publiczne w \u015awi\u0119tosz\u00f3wce",
                "name": "Przedszkole Publiczne w \u015awi\u0119tosz\u00f3wce",
                "addr:postcode": "43-386",
                "addr:place": "\u015awi\u0119tosz\u00f3wka",
                "addr:housenumber": "135",
                "addr:city:simc": 55248,
                "phone": "+48 338152913",
                "email": "sbi2@poczta.onet.pl",
                "ref:regon": "072726577",
                "ref:vatin": "PL9372235885",
                "operator": "Gmina Jasienica",
                "operator:type": "government",
                "amenity": "kindergarten"
            }
        },
        {
            "id": 82723,
            "type": "Feature",
            "geometry": {
                "type": "Point",
                "coordinates": [
                    18.944392,
                    49.8056071
                ]
            },
            "properties": {
                "ref:rspo": 82723,
                "official_name": "Zesp\u00f3\u0142 Szkolno-Przedszkolny im.jana Paw\u0142a II w Rudzicy",
                "name": "Zesp\u00f3\u0142 Szkolno-Przedszkolny im.jana Paw\u0142a II w Rudzicy",
                "addr:postcode": "43-394",
                "addr:place": "Rudzica",
                "addr:housenumber": "52",
                "addr:city:simc": 55142,
                "phone": "+48 338152718",
                "email": "zsprudzica@gzosip.jasienica.pl",
                "website": "http:\/\/www.zsprudzica.edu.pl",
                "ref:regon": "072913150",
                "ref:vatin": "PL9372429483",
                "operator": "Gmina Jasienica",
                "operator:type": "government",
                "landuse": "education",
                "fixme": "amenity=school, amenity=college albo landuse=education w zale\u017cno\u015bci od tego, jakie plac\u00f3wki wchodz\u0105 w sk\u0142ad zespo\u0142u. Sprawd\u017a, kiedy stosowa\u0107 amenity=* a kiedy landuse=education.",
                "note": "Children RSPO: 60760;60761"
            }
        },
        {
            "id": 60760,
            "type": "Feature",
            "geometry": {
                "type": "Point",
                "coordinates": [
                    18.944392,
                    49.8055771
                ]
            },
            "properties": {
                "isced:level": "1;2",
                "ref:rspo": 60760,
                "official_name": "Szko\u0142a Podstawowa w Rudzicy",
                "name": "Szko\u0142a Podstawowa w Rudzicy",
                "addr:postcode": "43-394",
                "addr:place": "Rudzica",
                "addr:housenumber": "52",
                "addr:city:simc": 55142,
                "phone": "+48 338152718",
                "email": "zsprudzica@gzosip.jasienica.pl",
                "ref:regon": "072327570",
                "operator": "Gmina Jasienica",
                "operator:type": "government",
                "amenity": "school",
                "note": "Parent RSPO: 82723"
            }
        },
        {
            "id": 60761,
            "type": "Feature",
            "geometry": {
                "type": "Point",
                "coordinates": [
                    18.944392,
                    49.805547100000005
                ]
            },
            "properties": {
                "ref:rspo": 60761,
                "official_name": "Przedszkole Publiczne w Rudzicy",
                "name": "Przedszkole Publiczne w Rudzicy",
                "addr:postcode": "43-394",
                "addr:place": "Rudzica",
                "addr:housenumber": "52",
                "addr:city:simc": 55142,
                "phone": "+48 338152718",
                "email": "zsprudzica@gzosip.jasienica.pl",
                "ref:regon": "072726554",
                "operator": "Gmina Jasienica",
                "operator:type": "government",
                "amenity": "kindergarten",
                "note": "Parent RSPO: 82723"
            }
        },
        {
            "id": 273552,
            "type": "Feature",
            "geometry": {
                "type": "Point",
                "coordinates": [
                    18.9220008,
                    49.8080439
                ]
            },
            "properties": {
                "ref:rspo": 273552,
                "official_name": "Niepubliczne Przedszkole B\u0105czek",
                "name": "Niepubliczne Przedszkole B\u0105czek",
                "addr:postcode": "43-385",
                "addr:place": "Jasienica",
                "addr:housenumber": "196",
                "addr:city:simc": 54674,
                "email": "biuro@baczek.edu.pl",
                "website": "http:\/\/www.baczek.edu.pl",
                "ref:regon": "384495290",
                "operator": "Barbara B\u0105k",
                "operator:type": "private",
                "amenity": "kindergarten"
            }
        },
        {
            "id": 82720,
            "type": "Feature",
            "geometry": {
                "type": "Point",
                "coordinates": [
                    18.917837,
                    49.815163
                ]
            },
            "properties": {
                "ref:rspo": 82720,
                "official_name": "Zesp\u00f3\u0142 Szkolno-Przedszkolny im.tadeusza Ko\u015bciuszki",
                "name": "Zesp\u00f3\u0142 Szkolno-Przedszkolny im.tadeusza Ko\u015bciuszki",
                "addr:postcode": "43-385",
                "addr:place": "Jasienica",
                "addr:housenumber": "271",
                "addr:city:simc": 54674,
                "phone": "+48 338152223",
                "email": "zspj@jasienica.pl",
                "website": "http:\/\/www.zspjasienica.szkolnastrona.pl",
                "ref:regon": "072868780",
                "ref:vatin": "PL9372395028",
                "operator": "Gmina Jasienica",
                "operator:type": "government",
                "landuse": "education",
                "fixme": "amenity=school, amenity=college albo landuse=education w zale\u017cno\u015bci od tego, jakie plac\u00f3wki wchodz\u0105 w sk\u0142ad zespo\u0142u. Sprawd\u017a, kiedy stosowa\u0107 amenity=* a kiedy landuse=education.",
                "note": "Children RSPO: 60757;60758"
            }
        },
        {
            "id": 60757,
            "type": "Feature",
            "geometry": {
                "type": "Point",
                "coordinates": [
                    18.917837,
                    49.815132999999996
                ]
            },
            "properties": {
                "isced:level": "1;2",
                "ref:rspo": 60757,
                "official_name": "Szko\u0142a Podstawowa im. Tadeusza Ko\u015bciuszki w Jasienicy",
                "name": "Szko\u0142a Podstawowa",
                "addr:postcode": "43-385",
                "addr:place": "Jasienica",
                "addr:housenumber": "271",
                "addr:city:simc": 54674,
                "phone": "+48 338152223",
                "email": "zspj@jasienica.pl",
                "ref:regon": "072329592",
                "operator": "Gmina Jasienica",
                "operator:type": "government",
                "amenity": "school",
                "note": "Parent RSPO: 82720"
            }
        },
        {
            "id": 60758,
            "type": "Feature",
            "geometry": {
                "type": "Point",
                "coordinates": [
                    18.917837,
                    49.815103
                ]
            },
            "properties": {
                "ref:rspo": 60758,
                "official_name": "Przedszkole Publiczne w Jasienicy",
                "name": "Przedszkole Publiczne w Jasienicy",
                "addr:postcode": "43-385",
                "addr:place": "Jasienica",
                "addr:housenumber": "271",
                "addr:city:simc": 54674,
                "phone": "+48 338152223",
                "email": "zspj@jasienica.pl",
                "ref:regon": "072726531",
                "operator": "Gmina Jasienica",
                "operator:type": "government",
                "amenity": "kindergarten",
                "note": "Parent RSPO: 82720"
            }
        },
        {
            "id": 82724,
            "type": "Feature",
            "geometry": {
                "type": "Point",
                "coordinates": [
                    18.85626,
                    49.828128
                ]
            },
            "properties": {
                "ref:rspo": 82724,
                "official_name": "Zesp\u00f3\u0142 Szkolno-Przedszkolny w Wieszcz\u0119tach",
                "name": "Zesp\u00f3\u0142 Szkolno-Przedszkolny w Wieszcz\u0119tach",
                "addr:postcode": "43-386",
                "addr:place": "Wieszcz\u0119ta",
                "addr:housenumber": "50",
                "addr:city:simc": 55260,
                "phone": "+48 338154090",
                "email": "zspwieszczeta@jasienica.pl",
                "website": "http:\/\/www.zspwieszczeta.szkolnastrona.pl",
                "ref:regon": "241980799",
                "ref:vatin": "PL9372652985",
                "operator": "Gmina Jasienica",
                "operator:type": "government",
                "landuse": "education",
                "fixme": "amenity=school, amenity=college albo landuse=education w zale\u017cno\u015bci od tego, jakie plac\u00f3wki wchodz\u0105 w sk\u0142ad zespo\u0142u. Sprawd\u017a, kiedy stosowa\u0107 amenity=* a kiedy landuse=education.",
                "note": "Children RSPO: 60762;104959"
            }
        },
        {
            "id": 60762,
            "type": "Feature",
            "geometry": {
                "type": "Point",
                "coordinates": [
                    18.85626,
                    49.828098
                ]
            },
            "properties": {
                "isced:level": "1;2",
                "ref:rspo": 60762,
                "official_name": "Szko\u0142a Podstawowa im. Hugona Ko\u0142\u0142\u0105taja w Wieszcz\u0119tach",
                "name": "Szko\u0142a Podstawowa",
                "addr:postcode": "43-386",
                "addr:place": "Wieszcz\u0119ta",
                "addr:housenumber": "50",
                "addr:city:simc": 55260,
                "phone": "+48 338154090",
                "email": "zspwieszczeta@jasienica.pl",
                "website": "http:\/\/www.zspwieszczeta.szkolnastrona.pl",
                "ref:regon": "070691640",
                "operator": "Gmina Jasienica",
                "operator:type": "government",
                "amenity": "school",
                "note": "Parent RSPO: 82724"
            }
        },
        {
            "id": 104959,
            "type": "Feature",
            "geometry": {
                "type": "Point",
                "coordinates": [
                    18.85626,
                    49.828068
                ]
            },
            "properties": {
                "ref:rspo": 104959,
                "official_name": "Przedszkole Publiczne w Wieszcz\u0119tach",
                "name": "Przedszkole Publiczne w Wieszcz\u0119tach",
                "addr:postcode": "43-386",
                "addr:place": "Wieszcz\u0119ta",
                "addr:housenumber": "50",
                "addr:city:simc": 55260,
                "phone": "+48 338154090",
                "email": "zspwieszczeta@jasienica.pl",
                "website": "http:\/\/www.zspwieszczeta.szkolnastrona.pl",
                "ref:regon": "072726519",
                "operator": "Gmina Jasienica",
                "operator:type": "government",
                "amenity": "kindergarten",
                "note": "Parent RSPO: 82724"
            }
        },
        {
            "id": 132370,
            "type": "Feature",
            "geometry": {
                "type": "Point",
                "coordinates": [
                    18.9534169,
                    49.8354654
                ]
            },
            "properties": {
                "ref:rspo": 132370,
                "official_name": "Niepubliczne Przedszkole Niebieski Balonik S.c. Paulina Golicz, Ma\u0142gorzata Krupi\u0144ska",
                "name": "Niepubliczne Przedszkole Niebieski Balonik S.c. Paulina Golicz, Ma\u0142gorzata Krupi\u0144ska",
                "addr:postcode": "43-391",
                "addr:place": "Maza\u0144cowice",
                "addr:housenumber": "934",
                "addr:city:simc": 54898,
                "phone": "+48 883111948",
                "email": "niebieski.balonik@o2.pl",
                "ref:regon": "365568605",
                "ref:vatin": "PL9372685192",
                "operator": "Paulina Golicz",
                "operator:type": "private",
                "amenity": "kindergarten"
            }
        },
        {
            "id": 132582,
            "type": "Feature",
            "geometry": {
                "type": "Point",
                "coordinates": [
                    18.941133,
                    49.835816
                ]
            },
            "properties": {
                "ref:rspo": 132582,
                "official_name": "Niepubliczne Przedszkole B\u0105czek",
                "name": "Niepubliczne Przedszkole B\u0105czek",
                "addr:postcode": "43-392",
                "addr:place": "Mi\u0119dzyrzecze Dolne",
                "addr:housenumber": "302",
                "addr:city:simc": 55018,
                "phone": "+48 517595826",
                "email": "biuro@baczek.edu.pl",
                "website": "http:\/\/www.baczek.edu.pl",
                "ref:regon": "365839323",
                "ref:vatin": "PL5471784908",
                "operator": "Barbara B\u0105k",
                "operator:type": "private",
                "amenity": "kindergarten"
            }
        },
        {
            "id": 82722,
            "type": "Feature",
            "geometry": {
                "type": "Point",
                "coordinates": [
                    18.9392288,
                    49.8453162
                ]
            },
            "properties": {
                "ref:rspo": 82722,
                "official_name": "Zesp\u00f3\u0142 Szkolno-Przedszkolny w Mi\u0119dzyrzeczu",
                "name": "Zesp\u00f3\u0142 Szkolno-Przedszkolny w Mi\u0119dzyrzeczu",
                "addr:postcode": "43-392",
                "addr:place": "Mi\u0119dzyrzecze G\u00f3rne",
                "addr:housenumber": "81",
                "addr:city:simc": 55030,
                "phone": "+48 338155529",
                "email": "sekretariat@szkola-miedzyrzecze.edu.pl",
                "website": "http:\/\/www.miedzyrzecze.org.pl",
                "ref:regon": "072718460",
                "ref:vatin": "PL9372340530",
                "operator": "Gmina Jasienica",
                "operator:type": "government",
                "landuse": "education",
                "fixme": "amenity=school, amenity=college albo landuse=education w zale\u017cno\u015bci od tego, jakie plac\u00f3wki wchodz\u0105 w sk\u0142ad zespo\u0142u. Sprawd\u017a, kiedy stosowa\u0107 amenity=* a kiedy landuse=education.",
                "note": "Children RSPO: 60770;60772"
            }
        },
        {
            "id": 60770,
            "type": "Feature",
            "geometry": {
                "type": "Point",
                "coordinates": [
                    18.9392288,
                    49.8452862
                ]
            },
            "properties": {
                "isced:level": "1;2",
                "ref:rspo": 60770,
                "official_name": "Szko\u0142a Podstawowa im. W\u0142adys\u0142awa Broniewskiego w Mi\u0119dzyrzeczu",
                "name": "Szko\u0142a Podstawowa",
                "addr:postcode": "43-392",
                "addr:place": "Mi\u0119dzyrzecze G\u00f3rne",
                "addr:housenumber": "81",
                "addr:city:simc": 55030,
                "phone": "+48 338155529",
                "email": "sekretariat@szkola-miedzyrzecze.edu.pl",
                "ref:regon": "072867906",
                "operator": "Gmina Jasienica",
                "operator:type": "government",
                "amenity": "school",
                "note": "Parent RSPO: 82722"
            }
        },
        {
            "id": 60772,
            "type": "Feature",
            "geometry": {
                "type": "Point",
                "coordinates": [
                    18.9392288,
                    49.8452562
                ]
            },
            "properties": {
                "ref:rspo": 60772,
                "official_name": "Przedszkole Publiczne w Mi\u0119dzyrzeczu",
                "name": "Przedszkole Publiczne w Mi\u0119dzyrzeczu",
                "addr:postcode": "43-392",
                "addr:place": "Mi\u0119dzyrzecze G\u00f3rne",
                "addr:housenumber": "81",
                "addr:city:simc": 55030,
                "phone": "+48 338155529",
                "email": "sekretariat@szkola-miedzyrzecze.edu.pl",
                "ref:regon": "072867912",
                "operator": "Gmina Jasienica",
                "operator:type": "government",
                "amenity": "kindergarten",
                "note": "Parent RSPO: 82722"
            }
        },
        {
            "id": 82721,
            "type": "Feature",
            "geometry": {
                "type": "Point",
                "coordinates": [
                    18.9882005,
                    49.858072
                ]
            },
            "properties": {
                "ref:rspo": 82721,
                "official_name": "Zesp\u00f3\u0142 Szkolno-Przedszkolny im.adama Mickiewicza",
                "name": "Zesp\u00f3\u0142 Szkolno-Przedszkolny im.adama Mickiewicza",
                "addr:postcode": "43-391",
                "addr:place": "Maza\u0144cowice",
                "addr:housenumber": "162",
                "addr:city:simc": 54898,
                "phone": "+48 338155424",
                "email": "zsp.mazancowice@op.pl",
                "website": "http:\/\/www.zspm.internetdsl.pl",
                "ref:regon": "072868797",
                "ref:vatin": "PL9372395034",
                "operator": "Gmina Jasienica",
                "operator:type": "government",
                "landuse": "education",
                "fixme": "amenity=school, amenity=college albo landuse=education w zale\u017cno\u015bci od tego, jakie plac\u00f3wki wchodz\u0105 w sk\u0142ad zespo\u0142u. Sprawd\u017a, kiedy stosowa\u0107 amenity=* a kiedy landuse=education.",
                "note": "Children RSPO: 60767;60769"
            }
        },
        {
            "id": 60767,
            "type": "Feature",
            "geometry": {
                "type": "Point",
                "coordinates": [
                    18.9882005,
                    49.858042
                ]
            },
            "properties": {
                "isced:level": "1;2",
                "ref:rspo": 60767,
                "official_name": "Szko\u0142a Podstawowa im. Adama Mickiewicza w Maza\u0144cowicach",
                "name": "Szko\u0142a Podstawowa",
                "addr:postcode": "43-391",
                "addr:place": "Maza\u0144cowice",
                "addr:housenumber": "162",
                "addr:city:simc": 54898,
                "phone": "+48 338155424",
                "email": "zsp.mazancowice@op.pl",
                "ref:regon": "072327162",
                "operator": "Gmina Jasienica",
                "operator:type": "government",
                "amenity": "school",
                "note": "Parent RSPO: 82721"
            }
        },
        {
            "id": 60769,
            "type": "Feature",
            "geometry": {
                "type": "Point",
                "coordinates": [
                    18.9882005,
                    49.858012
                ]
            },
            "properties": {
                "ref:rspo": 60769,
                "official_name": "Przedszkole Publiczne w Maza\u0144cowicach",
                "name": "Przedszkole Publiczne w Maza\u0144cowicach",
                "addr:postcode": "43-391",
                "addr:place": "Maza\u0144cowice",
                "addr:housenumber": "162",
                "addr:city:simc": 54898,
                "phone": "+48 338155424",
                "email": "zsp.mazancowice@op.pl",
                "ref:regon": "072726548",
                "operator": "Gmina Jasienica",
                "operator:type": "government",
                "amenity": "kindergarten",
                "note": "Parent RSPO: 82721"
            }
        },
        {
            "id": 41065,
            "type": "Feature",
            "geometry": {
                "type": "Point",
                "coordinates": [
                    18.8563349,
                    49.870148
                ]
            },
            "properties": {
                "ref:rspo": 41065,
                "official_name": "Zesp\u00f3\u0142 Szkolno-Przedszkolny w I\u0142ownicy",
                "name": "Zesp\u00f3\u0142 Szkolno-Przedszkolny w I\u0142ownicy",
                "addr:postcode": "43-394",
                "addr:place": "I\u0142ownica",
                "addr:housenumber": "127",
                "addr:city:simc": 54600,
                "phone": "+48 338152724",
                "email": "zspilownica@gmail.com",
                "website": "http:\/\/www.zspilownica.jasienica.pl",
                "ref:regon": "072718454",
                "ref:vatin": "PL9372340524",
                "operator": "Gmina Jasienica",
                "operator:type": "government",
                "landuse": "education",
                "fixme": "amenity=school, amenity=college albo landuse=education w zale\u017cno\u015bci od tego, jakie plac\u00f3wki wchodz\u0105 w sk\u0142ad zespo\u0142u. Sprawd\u017a, kiedy stosowa\u0107 amenity=* a kiedy landuse=education.",
                "note": "Children RSPO: 60764;60765"
            }
        },
        {
            "id": 60764,
            "type": "Feature",
            "geometry": {
                "type": "Point",
                "coordinates": [
                    18.8563349,
                    49.870118
                ]
            },
            "properties": {
                "isced:level": "1;2",
                "ref:rspo": 60764,
                "official_name": "Szko\u0142a Podstawowa w I\u0142ownicy",
                "name": "Szko\u0142a Podstawowa w I\u0142ownicy",
                "addr:postcode": "43-394",
                "addr:place": "I\u0142ownica",
                "addr:housenumber": "127",
                "addr:city:simc": 54600,
                "phone": "+48 338152724",
                "email": "zspilownica@gzosip.jasienica.pl",
                "website": "http:\/\/www.zspilownica.jasienica.pl",
                "ref:regon": "072867881",
                "operator": "Gmina Jasienica",
                "operator:type": "government",
                "amenity": "school",
                "note": "Parent RSPO: 41065"
            }
        },
        {
            "id": 60765,
            "type": "Feature",
            "geometry": {
                "type": "Point",
                "coordinates": [
                    18.8563349,
                    49.870088
                ]
            },
            "properties": {
                "ref:rspo": 60765,
                "official_name": "Przedszkole Publiczne w I\u0142ownicy",
                "name": "Przedszkole Publiczne w I\u0142ownicy",
                "addr:postcode": "43-394",
                "addr:place": "I\u0142ownica",
                "addr:housenumber": "127",
                "addr:city:simc": 54600,
                "phone": "+48 338152724",
                "email": "zspilownica@gmail.com",
                "ref:regon": "072867898",
                "operator": "Gmina Jasienica",
                "operator:type": "government",
                "amenity": "kindergarten",
                "note": "Parent RSPO: 41065"
            }
        }
    ]
}