{"type":"FeatureCollection","features":[{"id":276311,"type":"Feature","geometry":{"type":"Point","coordinates":[19.06819,49.88165]},"properties":{"ref:rspo":276311,"official_name":"Centrum Edukacyjne Dobedu","name":"Centrum Edukacyjne Dobedu","addr:country":"PL","addr:postcode":"43-512","addr:city":"Bestwina","addr:street":"ul. Podleska","addr:housenumber":"116","addr:teryt:simc":16797,"addr:teryt:sym_ul":212110,"contact:phone":"+48 881203113","contact:email":"kontakt@dobedu.eu","contact:website":"http:\/\/www.dobedu.pl","ref:regon":"387084474","operator":"Eliza Szeliga-Kraus","operator:type":"private","amenity":"training"}},{"id":49657,"type":"Feature","geometry":{"type":"Point","coordinates":[19.05462,49.88235]},"properties":{"ref:rspo":49657,"official_name":"Zak\u0142ad Szkoleniowo-Us\u0142ugowy Astra Sp. Z O.o.","name":"Zak\u0142ad Szkoleniowo-Us\u0142ugowy Astra Sp. Z O.o.","addr:country":"PL","addr:postcode":"43-512","addr:city":"Bestwina","addr:street":"ul. Bestwi\u0144ska","addr:housenumber":"17","addr:teryt:simc":1104,"addr:teryt:sym_ul":212110,"contact:phone":"+48 338172825","contact:email":"zsu.astra@op.pl","ref:regon":"243076271","ref:vatin":"PL9372166983","operator":"Monika Rzeszutko","operator:type":"private","fixme":"w zale\u017cno\u015bci od przedmiotu dzia\u0142alno\u015bci (np. amenity=training + training=*, amenity=dancing_school, amenity=language_school, amenity=music_school)"}},{"id":122289,"type":"Feature","geometry":{"type":"Point","coordinates":[19.09564,49.88401]},"properties":{"ref:rspo":122289,"official_name":"Zesp\u00f3\u0142 Szkolno Przedszkolny w Janowicach","name":"Zesp\u00f3\u0142 Szkolno Przedszkolny w Janowicach","addr:country":"PL","addr:postcode":"43-512","addr:city":"Janowice","addr:street":"ul. Janusza Korczaka","addr:housenumber":"2","addr:teryt:simc":9329,"addr:teryt:sym_ul":212274,"contact:phone":"+48 322157429","contact:email":"janowice.zsp@gmail.com","contact:website":"http:\/\/www.zspjanowice.bestwina.pl\/","ref:regon":"072882627","ref:vatin":"PL6521635879","operator":"Gmina Bestwina","operator:type":"government","landuse":"education","fixme":"amenity=school, amenity=college albo landuse=education w zale\u017cno\u015bci od tego, jakie plac\u00f3wki wchodz\u0105 w sk\u0142ad zespo\u0142u. Sprawd\u017a, kiedy stosowa\u0107 amenity=* a kiedy landuse=education.","note":"Children RSPO: 122307;122311"}},{"id":122307,"type":"Feature","geometry":{"type":"Point","coordinates":[19.09564,49.88398]},"properties":{"isced:level":"1;2","ref:rspo":122307,"official_name":"Szko\u0142a Podstawowa im. Marii Konopnickiej w Janowicach","name":"Szko\u0142a Podstawowa","addr:country":"PL","addr:postcode":"43-512","addr:city":"Janowice","addr:street":"ul. Janusza Korczaka","addr:housenumber":"2","addr:teryt:simc":9329,"addr:teryt:sym_ul":212274,"contact:phone":"+48 322157429","contact:email":"zspjanowice@bestwina.pl","contact:website":"http:\/\/www.zspjanowice.bestwina.pl","ref:regon":"001193277","ref:vatin":"PL6521587519","operator":"Gmina Bestwina","operator:type":"government","amenity":"school","note":"Parent RSPO: 122289"}},{"id":122311,"type":"Feature","geometry":{"type":"Point","coordinates":[19.09564,49.883950000000006]},"properties":{"ref:rspo":122311,"official_name":"Przedszkole Publiczne w Janowicach","name":"Przedszkole Publiczne w Janowicach","addr:country":"PL","addr:postcode":"43-512","addr:city":"Janowice","addr:street":"ul. Janusza Korczaka","addr:housenumber":"2","addr:teryt:simc":9329,"addr:teryt:sym_ul":212274,"contact:phone":"+48 322157429","contact:email":"zspjanowice@bestwina.pl","contact:website":"http:\/\/www.zspjanowice.bestwina.pl\/przedszkole.htm","ref:regon":"271077811","ref:vatin":"PL6521587548","operator":"Gmina Bestwina","operator:type":"government","amenity":"kindergarten","note":"Parent RSPO: 122289"}},{"id":18221,"type":"Feature","geometry":{"type":"Point","coordinates":[19.05121,49.8863399]},"properties":{"ref:rspo":18221,"official_name":"Info-Biznes Joanna Czernek-Jonkisz - Niepubliczna Plac\u00f3wka Kszta\u0142cenia Ustawicznego","name":"Info-Biznes Joanna Czernek-Jonkisz - Niepubliczna Plac\u00f3wka Kszta\u0142cenia Ustawicznego","addr:country":"PL","addr:postcode":"43-512","addr:city":"Bestwina","addr:street":"ul. Kwiatowa","addr:housenumber":"64","addr:teryt:simc":10562,"addr:teryt:sym_ul":212110,"contact:phone":"+48 600967398","contact:email":"biuro@infobiznes.bielsko.pl","contact:website":"http:\/\/www.infobiznes.bielsko.pl","ref:regon":"243053548","ref:vatin":"PL5532217205","operator":"Joanna Czernek-Jonkisz","operator:type":"private","fixme":"w zale\u017cno\u015bci od przedmiotu dzia\u0142alno\u015bci (np. amenity=training + training=*, amenity=dancing_school, amenity=language_school, amenity=music_school)"}},{"id":122287,"type":"Feature","geometry":{"type":"Point","coordinates":[19.06334,49.89542]},"properties":{"ref:rspo":122287,"official_name":"Zesp\u00f3\u0142 Szkolno Przedszkolny w Bestwinie","name":"Zesp\u00f3\u0142 Szkolno Przedszkolny w Bestwinie","addr:country":"PL","addr:postcode":"43-512","addr:city":"Bestwina","addr:street":"ul. Szkolna","addr:housenumber":"11","addr:teryt:simc":21970,"addr:teryt:sym_ul":212110,"contact:phone":"+48 322157121","contact:email":"zspbestwina@bestwina.pl","contact:website":"http:\/\/www.zspbestwina.edu.pl","ref:regon":"072882640","ref:vatin":"PL6521635856","operator":"Gmina Bestwina","operator:type":"government","landuse":"education","fixme":"amenity=school, amenity=college albo landuse=education w zale\u017cno\u015bci od tego, jakie plac\u00f3wki wchodz\u0105 w sk\u0142ad zespo\u0142u. Sprawd\u017a, kiedy stosowa\u0107 amenity=* a kiedy landuse=education.","note":"Children RSPO: 122305;122314"}},{"id":122305,"type":"Feature","geometry":{"type":"Point","coordinates":[19.06334,49.89539]},"properties":{"isced:level":"1;2","ref:rspo":122305,"official_name":"Szko\u0142a Podstawowa im. \u015aw. Jana Kantego w Bestwinie","name":"Szko\u0142a Podstawowa","addr:country":"PL","addr:postcode":"43-512","addr:city":"Bestwina","addr:street":"ul. Szkolna","addr:housenumber":"11","addr:teryt:simc":21970,"addr:teryt:sym_ul":212110,"contact:phone":"+48 322157121","contact:email":"zspbestwina@bestwina.pl","contact:website":"http:\/\/www.zspbestwina.inf.edu.pl","ref:regon":"000728960","ref:vatin":"PL6521588140","operator":"Gmina Bestwina","operator:type":"government","amenity":"school","note":"Parent RSPO: 122287"}},{"id":122314,"type":"Feature","geometry":{"type":"Point","coordinates":[19.0617639,49.8962078]},"properties":{"ref:rspo":122314,"official_name":"Przedszkole Publiczne w Bestwinie","name":"Przedszkole Publiczne w Bestwinie","addr:country":"PL","addr:postcode":"43-512","addr:city":"Bestwina","addr:street":"ul. Szkolna","addr:housenumber":"8","addr:teryt:simc":21970,"addr:teryt:sym_ul":212110,"contact:phone":"+48 322157548","contact:website":"http:\/\/www.zspbestwina.inf.edu.pl","ref:regon":"271503001","ref:vatin":"PL6521587525","operator":"Gmina Bestwina","operator:type":"government","amenity":"kindergarten","note":"Parent RSPO: 122287"}},{"id":122288,"type":"Feature","geometry":{"type":"Point","coordinates":[19.06071,49.91876]},"properties":{"ref:rspo":122288,"official_name":"Zesp\u00f3\u0142 Szkolno Przedszkolny w Bestwince","name":"Zesp\u00f3\u0142 Szkolno Przedszkolny w Bestwince","addr:country":"PL","addr:postcode":"43-512","addr:city":"Bestwinka","addr:street":"ul. Dworkowa","addr:housenumber":"3","addr:teryt:simc":4441,"addr:teryt:sym_ul":212268,"contact:phone":"+48 322149280","contact:email":"zspbestwinka@bestwina.pl","contact:website":"http:\/\/www.zspbestwinka.edupage.org","ref:regon":"072882604","ref:vatin":"PL6521635862","operator":"Gmina Bestwina","operator:type":"government","landuse":"education","fixme":"amenity=school, amenity=college albo landuse=education w zale\u017cno\u015bci od tego, jakie plac\u00f3wki wchodz\u0105 w sk\u0142ad zespo\u0142u. Sprawd\u017a, kiedy stosowa\u0107 amenity=* a kiedy landuse=education.","note":"Children RSPO: 122316;122317"}},{"id":122316,"type":"Feature","geometry":{"type":"Point","coordinates":[19.06071,49.91873]},"properties":{"isced:level":"1;2","ref:rspo":122316,"official_name":"Szko\u0142a Podstawowa w Bestwince","name":"Szko\u0142a Podstawowa w Bestwince","addr:country":"PL","addr:postcode":"43-512","addr:city":"Bestwinka","addr:street":"ul. Dworkowa","addr:housenumber":"3","addr:teryt:simc":4441,"addr:teryt:sym_ul":212268,"contact:phone":"+48 322157186","contact:email":"zspbestwinka@bestwina.pl","contact:website":"http:\/\/www.zspbestwinka.edupage.org","ref:regon":"001399955","ref:vatin":"PL6521588157","operator":"Gmina Bestwina","operator:type":"government","amenity":"school","note":"Parent RSPO: 122288"}},{"id":122317,"type":"Feature","geometry":{"type":"Point","coordinates":[19.06071,49.9187]},"properties":{"ref:rspo":122317,"official_name":"Przedszkole Publiczne w Bestwince","name":"Przedszkole Publiczne w Bestwince","addr:country":"PL","addr:postcode":"43-512","addr:city":"Bestwinka","addr:street":"ul. Dworkowa","addr:housenumber":"3","addr:teryt:simc":4441,"addr:teryt:sym_ul":212268,"contact:phone":"+48 322157186","contact:email":"zspbestwinka@bestwina.pl","contact:website":"http:\/\/www.zspbestwinka.edupage.org","ref:regon":"271503018","ref:vatin":"PL6521587554","operator":"Gmina Bestwina","operator:type":"government","amenity":"kindergarten","note":"Parent RSPO: 122288"}},{"id":46873,"type":"Feature","geometry":{"type":"Point","coordinates":[19.03792,49.93854]},"properties":{"ref:rspo":46873,"official_name":"Centrum Doradztwa I Szkole\u0144 Bhp \"Expert\"","name":"Centrum Doradztwa I Szkole\u0144 Bhp \"Expert\"","addr:country":"PL","addr:postcode":"43-512","addr:city":"Kani\u00f3w","addr:street":"ul. Stefana K\u00f3ski","addr:housenumber":"22","addr:teryt:simc":9770,"addr:teryt:sym_ul":212328,"contact:phone":"+48 604425705","contact:email":"bhpexpert@neostrada.pl","ref:regon":"243078324","ref:vatin":"PL6521506604","operator":"Przemys\u0142aw Drapiewski","operator:type":"private","fixme":"w zale\u017cno\u015bci od przedmiotu dzia\u0142alno\u015bci (np. amenity=training + training=*, amenity=dancing_school, amenity=language_school, amenity=music_school)"}},{"id":122290,"type":"Feature","geometry":{"type":"Point","coordinates":[19.04898,49.93917]},"properties":{"ref:rspo":122290,"official_name":"Zesp\u00f3\u0142 Szkolno Przedszkolny w Kaniowie","name":"Zesp\u00f3\u0142 Szkolno Przedszkolny w Kaniowie","addr:country":"PL","addr:postcode":"43-512","addr:city":"Kani\u00f3w","addr:street":"ul. Batalion\u00f3w Ch\u0142opskich","addr:housenumber":"15","addr:teryt:simc":868,"addr:teryt:sym_ul":212328,"contact:phone":"+48 322157323","contact:email":"zspkanio@bestwina.pl","contact:website":"http:\/\/kaniowzsp.edupage.org","ref:regon":"240420992","ref:vatin":"PL6521669281","operator":"Gmina Bestwina","operator:type":"government","landuse":"education","fixme":"amenity=school, amenity=college albo landuse=education w zale\u017cno\u015bci od tego, jakie plac\u00f3wki wchodz\u0105 w sk\u0142ad zespo\u0142u. Sprawd\u017a, kiedy stosowa\u0107 amenity=* a kiedy landuse=education.","note":"Children RSPO: 122328;122330"}},{"id":122328,"type":"Feature","geometry":{"type":"Point","coordinates":[19.04898,49.939139999999995]},"properties":{"isced:level":"1;2","ref:rspo":122328,"official_name":"Szko\u0142a Podstawowa im. Tadeusza Ko\u015bciuszki w Kaniowie","name":"Szko\u0142a Podstawowa","addr:country":"PL","addr:postcode":"43-512","addr:city":"Kani\u00f3w","addr:street":"ul. Batalion\u00f3w Ch\u0142opskich","addr:housenumber":"15","addr:teryt:simc":868,"addr:teryt:sym_ul":212328,"contact:phone":"+48 322157323","contact:email":"zspkaniow@bestwina.pl","contact:website":"http:\/\/kaniowzsp.edupage.org","ref:regon":"001193219","ref:vatin":"PL6521588080","operator":"Gmina Bestwina","operator:type":"government","amenity":"school","note":"Parent RSPO: 122290"}},{"id":122330,"type":"Feature","geometry":{"type":"Point","coordinates":[19.04838,49.94001]},"properties":{"ref:rspo":122330,"official_name":"Przedszkole Publiczne w Kaniowie","name":"Przedszkole Publiczne w Kaniowie","addr:country":"PL","addr:postcode":"43-512","addr:city":"Kani\u00f3w","addr:street":"ul. Batalion\u00f3w Ch\u0142opskich","addr:housenumber":"15A","addr:teryt:simc":868,"addr:teryt:sym_ul":212328,"contact:phone":"+48 322157381","contact:email":"kaniow.zsp@gmail.com","contact:website":"http:\/\/kaniowzsp.eu","ref:regon":"271503024","ref:vatin":"PL6521587531","operator":"Gmina Bestwina","operator:type":"government","amenity":"kindergarten","note":"Parent RSPO: 122290"}}]}