{
    "type": "FeatureCollection",
    "features": [
        {
            "id": 24573,
            "type": "Feature",
            "geometry": {
                "type": "Point",
                "coordinates": [
                    19.13748,
                    49.87717
                ]
            },
            "properties": {
                "isced:level": "1;2",
                "ref:rspo": 24573,
                "official_name": "Szko\u0142a Podstawowa im.jana Paw\u0142aii",
                "name": "Szko\u0142a Podstawowa im.jana Paw\u0142aii",
                "addr:postcode": "43-332",
                "addr:city": "Pisarzowice",
                "addr:street": "\u015awi\u0119tego Floriana",
                "addr:housenumber": "28",
                "addr:city:simc": 76279,
                "addr:street:sym_ul": 5083,
                "phone": "+48 338457256",
                "email": "sp@pisarzowice.pl",
                "ref:regon": "070676088",
                "ref:vatin": "PL9372238062",
                "operator": "Gmina Wilamowice",
                "operator:type": "government",
                "amenity": "school"
            }
        },
        {
            "id": 24576,
            "type": "Feature",
            "geometry": {
                "type": "Point",
                "coordinates": [
                    19.1391199,
                    49.8786
                ]
            },
            "properties": {
                "ref:rspo": 24576,
                "official_name": "Przedszkole Publiczne",
                "name": "Przedszkole Publiczne",
                "addr:postcode": "43-332",
                "addr:city": "Pisarzowice",
                "addr:street": "\u015awi\u0119tego Marcina",
                "addr:housenumber": "2",
                "addr:city:simc": 76279,
                "addr:street:sym_ul": 12284,
                "phone": "+48 338457463",
                "email": "przedszkole@pisarzowice.pl",
                "website": "http:\/\/www.szkolnastronaprzedszkolepisarzowice",
                "ref:regon": "072700030",
                "ref:vatin": "PL9372238122",
                "operator": "Gmina Wilamowice",
                "operator:type": "government",
                "amenity": "kindergarten"
            }
        },
        {
            "id": 24575,
            "type": "Feature",
            "geometry": {
                "type": "Point",
                "coordinates": [
                    19.16519,
                    49.90059
                ]
            },
            "properties": {
                "ref:rspo": 24575,
                "official_name": "Przedszkole Publiczne",
                "name": "Przedszkole Publiczne",
                "addr:postcode": "43-330",
                "addr:city": "Hecznarowice",
                "addr:street": "Stawowa",
                "addr:housenumber": "8",
                "addr:city:simc": 76240,
                "addr:street:sym_ul": 21101,
                "phone": "+48 338457211",
                "email": "zsp@hecznarowice.pl",
                "ref:regon": "072700023",
                "operator": "Gmina Wilamowice",
                "operator:type": "government",
                "amenity": "kindergarten",
                "note": "Parent RSPO: 4823"
            }
        },
        {
            "id": 4823,
            "type": "Feature",
            "geometry": {
                "type": "Point",
                "coordinates": [
                    19.1687,
                    49.901
                ]
            },
            "properties": {
                "ref:rspo": 4823,
                "official_name": "Zesp\u00f3\u0142 Szkolno-Przedszkolny w Hecznarowicach",
                "name": "Zesp\u00f3\u0142 Szkolno-Przedszkolny w Hecznarowicach",
                "addr:postcode": "43-330",
                "addr:city": "Hecznarowice",
                "addr:street": "Krakowska",
                "addr:housenumber": "110",
                "addr:city:simc": 76240,
                "addr:street:sym_ul": 9796,
                "phone": "+48 338457335",
                "email": "zsp@hecznarowice.pl",
                "ref:regon": "243016381",
                "ref:vatin": "PL9372663836",
                "operator": "Gmina Wilamowice",
                "operator:type": "government",
                "landuse": "education",
                "fixme": "amenity=school, amenity=college albo landuse=education w zale\u017cno\u015bci od tego, jakie plac\u00f3wki wchodz\u0105 w sk\u0142ad zespo\u0142u. Sprawd\u017a, kiedy stosowa\u0107 amenity=* a kiedy landuse=education.",
                "note": "Children RSPO: 24575;87003"
            }
        },
        {
            "id": 87003,
            "type": "Feature",
            "geometry": {
                "type": "Point",
                "coordinates": [
                    19.1687,
                    49.90097
                ]
            },
            "properties": {
                "isced:level": "1;2",
                "ref:rspo": 87003,
                "official_name": "Szko\u0142a Podstawowa im.henryka Sienkiewicza",
                "name": "Szko\u0142a Podstawowa im.henryka Sienkiewicza",
                "addr:postcode": "43-330",
                "addr:city": "Hecznarowice",
                "addr:street": "Krakowska",
                "addr:housenumber": "110",
                "addr:city:simc": 76240,
                "addr:street:sym_ul": 9796,
                "phone": "+48 338457335",
                "email": "zsp@hecznarowice.pl",
                "ref:regon": "070676125",
                "operator": "Gmina Wilamowice",
                "operator:type": "government",
                "amenity": "school",
                "note": "Parent RSPO: 4823"
            }
        },
        {
            "id": 120594,
            "type": "Feature",
            "geometry": {
                "type": "Point",
                "coordinates": [
                    19.16563,
                    49.90147
                ]
            },
            "properties": {
                "ref:rspo": 120594,
                "official_name": "Przedszkole Pod Skrzyd\u0142ami",
                "name": "Przedszkole Pod Skrzyd\u0142ami",
                "addr:postcode": "43-330",
                "addr:city": "Hecznarowice",
                "addr:street": "Krakowska",
                "addr:housenumber": "119",
                "addr:city:simc": 76240,
                "addr:street:sym_ul": 9796,
                "email": "kasiasiniecka@wp.pl",
                "ref:regon": "243395881",
                "operator": "Katarzyna Olchowik",
                "operator:type": "private",
                "amenity": "kindergarten"
            }
        },
        {
            "id": 3833,
            "type": "Feature",
            "geometry": {
                "type": "Point",
                "coordinates": [
                    19.11208,
                    49.91025
                ]
            },
            "properties": {
                "ref:rspo": 3833,
                "official_name": "Zesp\u00f3\u0142 Szkolno-Przedszkolny w Starej Wsi",
                "name": "Zesp\u00f3\u0142 Szkolno-Przedszkolny w Starej Wsi",
                "addr:postcode": "43-330",
                "addr:city": "Stara Wie\u015b",
                "addr:street": "Dolna",
                "addr:housenumber": "12",
                "addr:city:simc": 76351,
                "addr:street:sym_ul": 4034,
                "phone": "+48 338457402",
                "email": "zsp@stara-wies.pl",
                "ref:regon": "243012087",
                "ref:vatin": "PL9372663799",
                "operator": "Gmina Wilamowice",
                "operator:type": "government",
                "landuse": "education",
                "fixme": "amenity=school, amenity=college albo landuse=education w zale\u017cno\u015bci od tego, jakie plac\u00f3wki wchodz\u0105 w sk\u0142ad zespo\u0142u. Sprawd\u017a, kiedy stosowa\u0107 amenity=* a kiedy landuse=education.",
                "note": "Children RSPO: 24574;41909"
            }
        },
        {
            "id": 41909,
            "type": "Feature",
            "geometry": {
                "type": "Point",
                "coordinates": [
                    19.11208,
                    49.910219999999995
                ]
            },
            "properties": {
                "isced:level": "1;2",
                "ref:rspo": 41909,
                "official_name": "Szko\u0142a Podstawowa im. Kan.stefana Wojty\u0142ki",
                "name": "Szko\u0142a Podstawowa",
                "addr:postcode": "43-330",
                "addr:city": "Stara Wie\u015b",
                "addr:street": "Dolna",
                "addr:housenumber": "12",
                "addr:city:simc": 76351,
                "addr:street:sym_ul": 4034,
                "phone": "+48 338457402",
                "email": "zsp@stara-wies.pl",
                "ref:regon": "070676148",
                "operator": "Gmina Wilamowice",
                "operator:type": "government",
                "amenity": "school",
                "note": "Parent RSPO: 3833"
            }
        },
        {
            "id": 118676,
            "type": "Feature",
            "geometry": {
                "type": "Point",
                "coordinates": [
                    19.15304,
                    49.91686
                ]
            },
            "properties": {
                "ref:rspo": 118676,
                "official_name": "Zesp\u00f3\u0142 Szk\u00f3\u0142\nW Wilamowicach",
                "name": "Zesp\u00f3\u0142 Szk\u00f3\u0142\nW Wilamowicach",
                "addr:postcode": "43-330",
                "addr:city": "Wilamowice",
                "addr:street": "Rynek",
                "addr:housenumber": "14",
                "addr:city:simc": 926996,
                "addr:street:sym_ul": 19252,
                "phone": "+48 338457898",
                "email": "zs@wilamowice.pl",
                "ref:regon": "243336849",
                "ref:vatin": "PL9372667188",
                "operator": "Gmina Wilamowice",
                "operator:type": "government",
                "landuse": "education",
                "fixme": "amenity=school, amenity=college albo landuse=education w zale\u017cno\u015bci od tego, jakie plac\u00f3wki wchodz\u0105 w sk\u0142ad zespo\u0142u. Sprawd\u017a, kiedy stosowa\u0107 amenity=* a kiedy landuse=education.",
                "note": "Children RSPO: 92820;92821"
            }
        },
        {
            "id": 92820,
            "type": "Feature",
            "geometry": {
                "type": "Point",
                "coordinates": [
                    19.15304,
                    49.91683
                ]
            },
            "properties": {
                "isced:level": "1;2",
                "ref:rspo": 92820,
                "official_name": "Szko\u0142a Podstawowa im.abp.j\u00f3zefa Bilczewskiego",
                "name": "Szko\u0142a Podstawowa im.abp.j\u00f3zefa Bilczewskiego",
                "addr:postcode": "43-330",
                "addr:city": "Wilamowice",
                "addr:street": "Rynek",
                "addr:housenumber": "14",
                "addr:city:simc": 926996,
                "addr:street:sym_ul": 19252,
                "phone": "+48 338457898",
                "email": "zsp@wilamowice.pl",
                "ref:regon": "070676102",
                "operator": "Gmina Wilamowice",
                "operator:type": "government",
                "amenity": "school",
                "note": "Parent RSPO: 118676"
            }
        },
        {
            "id": 92821,
            "type": "Feature",
            "geometry": {
                "type": "Point",
                "coordinates": [
                    19.15304,
                    49.9168
                ]
            },
            "properties": {
                "ref:rspo": 92821,
                "official_name": "Przedszkole Publiczne w Wilamowicach",
                "name": "Przedszkole Publiczne w Wilamowicach",
                "addr:postcode": "43-330",
                "addr:city": "Wilamowice",
                "addr:street": "Rynek",
                "addr:housenumber": "14",
                "addr:city:simc": 926996,
                "addr:street:sym_ul": 19252,
                "phone": "+48 338457898",
                "email": "zs@wilamowice.pl",
                "ref:regon": "072869851",
                "operator": "Gmina Wilamowice",
                "operator:type": "government",
                "amenity": "kindergarten",
                "note": "Parent RSPO: 118676"
            }
        },
        {
            "id": 42251,
            "type": "Feature",
            "geometry": {
                "type": "Point",
                "coordinates": [
                    19.14095,
                    49.91821
                ]
            },
            "properties": {
                "ref:rspo": 42251,
                "official_name": "Przedszkole Niepubliczne-Ochronka im.\u015bw.j\u00f3zefa Bilczewskiego",
                "name": "Przedszkole Niepubliczne-Ochronka im.\u015bw.j\u00f3zefa Bilczewskiego",
                "addr:postcode": "43-330",
                "addr:city": "Wilamowice",
                "addr:street": "J\u00f3zefa Pi\u0142sudskiego",
                "addr:housenumber": "1",
                "addr:city:simc": 926996,
                "addr:street:sym_ul": 16264,
                "phone": "+48 338457344",
                "email": "ochronkawilamowice@wp.pl",
                "ref:regon": "243078382",
                "ref:vatin": "PL9372376232",
                "operator": "Zgromadzenie Si\u00f3str S\u0142u\u017cebniczek Nmp Np Dom Zakonny W Tarnowie",
                "operator:type": "religious",
                "amenity": "kindergarten"
            }
        },
        {
            "id": 274676,
            "type": "Feature",
            "geometry": {
                "type": "Point",
                "coordinates": [
                    19.157503128052,
                    49.919021606445
                ]
            },
            "properties": {
                "ref:rspo": 274676,
                "official_name": "Niepubliczne Przedszkole Mali Tropiciele Sp\u00f3\u0142ka Z Ograniczon\u0105 Odpowiedzialno\u015bci\u0105",
                "name": "Niepubliczne Przedszkole Mali Tropiciele Sp\u00f3\u0142ka Z Ograniczon\u0105 Odpowiedzialno\u015bci\u0105",
                "addr:postcode": "43-330",
                "addr:city": "Wilamowice",
                "addr:street": "Kalwaryjska",
                "addr:housenumber": "8",
                "addr:city:simc": 926996,
                "addr:street:sym_ul": 7842,
                "phone": "+48 660276423",
                "email": "przedszkole@malitropiciele.pl",
                "website": "http:\/\/www.malitropiciele.pl",
                "ref:regon": "386210209",
                "operator": "Niepubliczne Przedszkole Mali Tropiciele Sp\u00f3\u0142ka Z Ograniczon\u0105 Odpowiedzialno\u015bci\u0105",
                "operator:type": "private",
                "amenity": "kindergarten"
            }
        },
        {
            "id": 24574,
            "type": "Feature",
            "geometry": {
                "type": "Point",
                "coordinates": [
                    19.1100299,
                    49.92694
                ]
            },
            "properties": {
                "ref:rspo": 24574,
                "official_name": "Przedszkole Publiczne",
                "name": "Przedszkole Publiczne",
                "addr:postcode": "43-331",
                "addr:city": "Dankowice",
                "addr:street": "\u015awi\u0119tego Wojciecha",
                "addr:housenumber": "25",
                "addr:city:simc": 76144,
                "addr:street:sym_ul": 24581,
                "phone": "+48 338457453",
                "email": "przedszkole@dankowice.pl",
                "ref:regon": "072700017",
                "operator": "Gmina Wilamowice",
                "operator:type": "government",
                "amenity": "kindergarten",
                "note": "Parent RSPO: 3833"
            }
        },
        {
            "id": 24572,
            "type": "Feature",
            "geometry": {
                "type": "Point",
                "coordinates": [
                    19.10371,
                    49.933
                ]
            },
            "properties": {
                "isced:level": "1;2",
                "ref:rspo": 24572,
                "official_name": "Szko\u0142a Podstawowa im.stanis\u0142awa Staszica",
                "name": "Szko\u0142a Podstawowa im.stanis\u0142awa Staszica",
                "addr:postcode": "43-331",
                "addr:city": "Dankowice",
                "addr:street": "Szkolna",
                "addr:housenumber": "4",
                "addr:city:simc": 76144,
                "addr:street:sym_ul": 21970,
                "phone": "+48 338457474",
                "email": "sp@dankowice.pl",
                "ref:regon": "070676119",
                "operator": "Gmina Wilamowice",
                "operator:type": "government",
                "amenity": "school"
            }
        }
    ]
}