{
    "type": "FeatureCollection",
    "features": [
        {
            "id": 123643,
            "type": "Feature",
            "geometry": {
                "type": "Point",
                "coordinates": [
                    19.13704,
                    49.8447
                ]
            },
            "properties": {
                "isced:level": "1;2",
                "ref:rspo": 123643,
                "official_name": "Niepubliczna Szko\u0142a Podstawowa im. Kard. Karola Wojty\u0142y",
                "name": "Niepubliczna Szko\u0142a Podstawowa",
                "addr:postcode": "43-340",
                "addr:city": "Kozy",
                "addr:street": "Cmentarna",
                "addr:housenumber": "19",
                "addr:city:simc": 58028,
                "addr:street:sym_ul": 3114,
                "phone": "+48 334322793",
                "email": "biuro@kozyszkola.edu.pl",
                "website": "http:\/\/www.kozyszkola.edu.pl",
                "ref:regon": "243620763",
                "operator": "Virtus Sp\u00f3\u0142ka Z Ograniczon\u0105 Odpowiedzialno\u015bci\u0105",
                "operator:type": "private",
                "amenity": "school"
            }
        },
        {
            "id": 56980,
            "type": "Feature",
            "geometry": {
                "type": "Point",
                "coordinates": [
                    19.14414,
                    49.84569
                ]
            },
            "properties": {
                "ref:rspo": 56980,
                "official_name": "Niepubliczne Przedszkole Specjalne \"Terapeutico\"",
                "name": "Niepubliczne Przedszkole Specjalne \"Terapeutico\"",
                "addr:postcode": "43-340",
                "addr:city": "Kozy",
                "addr:street": "Krakowska",
                "addr:housenumber": "11",
                "addr:city:simc": 58028,
                "addr:street:sym_ul": 9796,
                "email": "przedszkole.terapeutico@gmail.com",
                "ref:regon": "243082805",
                "ref:vatin": "PL9372606117",
                "operator": "Izabella Ramenda",
                "operator:type": "private",
                "amenity": "kindergarten"
            }
        },
        {
            "id": 77908,
            "type": "Feature",
            "geometry": {
                "type": "Point",
                "coordinates": [
                    19.13968,
                    49.84686
                ]
            },
            "properties": {
                "isced:level": "1;2",
                "ref:rspo": 77908,
                "official_name": "Szko\u0142a Podstawowa Nr 1 Z Oddzia\u0142ami Integracyjnymi im. Jana III Sobieskiego w Kozach",
                "name": "Szko\u0142a Podstawowa Nr 1 Z Oddzia\u0142ami Integracyjnymi",
                "addr:postcode": "43-340",
                "addr:city": "Kozy",
                "addr:street": "Plac Ksi\u0119dza Karola Kochaja",
                "addr:housenumber": "1",
                "addr:city:simc": 58028,
                "addr:street:sym_ul": 47163,
                "phone": "+48 338174217",
                "email": "dyrektor@sp1.kozy.pl",
                "website": "http:\/\/www.sp1kozy.edupage.org",
                "ref:regon": "070444188",
                "ref:vatin": "PL9372236778",
                "operator": "Gmina Kozy",
                "operator:type": "government",
                "amenity": "school"
            }
        },
        {
            "id": 56981,
            "type": "Feature",
            "geometry": {
                "type": "Point",
                "coordinates": [
                    19.14091,
                    49.84707
                ]
            },
            "properties": {
                "ref:rspo": 56981,
                "official_name": "Niepubliczne Przedszkole Maja",
                "name": "Niepubliczne Przedszkole Maja",
                "addr:postcode": "43-340",
                "addr:city": "Kozy",
                "addr:street": "Parkowa",
                "addr:housenumber": "1",
                "addr:city:simc": 58028,
                "addr:street:sym_ul": 15710,
                "email": "przedszkole.maja@gmail.com",
                "website": "http:\/\/www.maja.edu.pl",
                "ref:regon": "243082840",
                "ref:vatin": "PL9371451960",
                "operator": "Ma\u0142gorzata Koco\u0142",
                "operator:type": "private",
                "amenity": "kindergarten"
            }
        },
        {
            "id": 123648,
            "type": "Feature",
            "geometry": {
                "type": "Point",
                "coordinates": [
                    19.1481,
                    49.84719
                ]
            },
            "properties": {
                "ref:rspo": 123648,
                "official_name": "Niepubliczne Przedszkole J\u0119zykowe \"Ma\u0142y Podr\u00f3\u017cnik\"",
                "name": "Niepubliczne Przedszkole J\u0119zykowe \"Ma\u0142y Podr\u00f3\u017cnik\"",
                "addr:postcode": "43-340",
                "addr:city": "Kozy",
                "addr:street": "Krakowska",
                "addr:housenumber": "59",
                "addr:city:simc": 58028,
                "addr:street:sym_ul": 9796,
                "phone": "+48 606705064",
                "email": "kontakt@maly-podroznik.com",
                "website": "http:\/\/www.maly-podroznik.com",
                "ref:regon": "243621001",
                "operator": "Joanna Pezda",
                "operator:type": "private",
                "amenity": "kindergarten"
            }
        },
        {
            "id": 56982,
            "type": "Feature",
            "geometry": {
                "type": "Point",
                "coordinates": [
                    19.14627,
                    49.84733
                ]
            },
            "properties": {
                "isced:level": "3",
                "ref:rspo": 56982,
                "official_name": "Liceum Og\u00f3lnokszta\u0142c\u0105ce im. K.k. Baczy\u0144skiego w Kozach",
                "name": "Liceum Og\u00f3lnokszta\u0142c\u0105ce",
                "addr:postcode": "43-340",
                "addr:city": "Kozy",
                "addr:street": "Szkolna",
                "addr:housenumber": "20",
                "addr:city:simc": 58028,
                "addr:street:sym_ul": 21970,
                "phone": "+48 338174382",
                "email": "lokozy@o2.pl",
                "website": "http:\/\/www.liceum.kozy.pl",
                "ref:regon": "070421276",
                "ref:vatin": "PL9372236732",
                "operator": "Gmina Kozy",
                "operator:type": "government",
                "amenity": "school"
            }
        },
        {
            "id": 77910,
            "type": "Feature",
            "geometry": {
                "type": "Point",
                "coordinates": [
                    19.14816,
                    49.85015
                ]
            },
            "properties": {
                "ref:rspo": 77910,
                "official_name": "Gminne Przedszkole Publiczne w Kozach",
                "name": "Gminne Przedszkole Publiczne w Kozach",
                "addr:postcode": "43-340",
                "addr:city": "Kozy",
                "addr:street": "Akacjowa",
                "addr:housenumber": "8",
                "addr:city:simc": 58028,
                "addr:street:sym_ul": 157,
                "phone": "+48 334322834",
                "email": "przedszkole@przedszkole.kozy.pl",
                "website": "http:\/\/www.przedszkole.kozy.pl",
                "ref:regon": "072329853",
                "ref:vatin": "PL9372236755",
                "operator": "Gmina Kozy",
                "operator:type": "government",
                "amenity": "kindergarten"
            }
        },
        {
            "id": 56983,
            "type": "Feature",
            "geometry": {
                "type": "Point",
                "coordinates": [
                    19.13348,
                    49.85967
                ]
            },
            "properties": {
                "isced:level": "1;2",
                "ref:rspo": 56983,
                "official_name": "Szko\u0142a Podstawowa Nr 2 im. Stanis\u0142awa Staszica w Kozach",
                "name": "Szko\u0142a Podstawowa Nr 2",
                "addr:postcode": "43-340",
                "addr:city": "Kozy",
                "addr:street": "Przecznia",
                "addr:housenumber": "1",
                "addr:city:simc": 58028,
                "addr:street:sym_ul": 17648,
                "phone": "+48 338174216",
                "email": "sp2-kozy@wp.pl",
                "website": "http:\/\/www.sp2kozy.edupage.org",
                "ref:regon": "070444171",
                "ref:vatin": "PL9372236761",
                "operator": "Gmina Kozy",
                "operator:type": "government",
                "amenity": "school"
            }
        },
        {
            "id": 127419,
            "type": "Feature",
            "geometry": {
                "type": "Point",
                "coordinates": [
                    19.1194099,
                    49.86408
                ]
            },
            "properties": {
                "ref:rspo": 127419,
                "official_name": "O\u015brodek Rehabilitacyjno-Edukacyjno-Wychowawczy w Kozach",
                "name": "O\u015brodek Rehabilitacyjno-Edukacyjno-Wychowawczy w Kozach",
                "addr:postcode": "43-340",
                "addr:city": "Kozy",
                "addr:street": "Nadbrze\u017cna",
                "addr:housenumber": "105",
                "addr:city:simc": 58028,
                "addr:street:sym_ul": 13861,
                "phone": "+48 338119104",
                "email": "orewkozy@o2.pl",
                "website": "http:\/\/www.orewkozy.pl",
                "ref:regon": "361558573",
                "operator": "Stowarzyszenie Promocji Zdrowia I Aktywno\u015bci \"Na Wira\u017cu\"",
                "operator:type": "ngo",
                "amenity": "school"
            }
        }
    ]
}