{
    "type": "FeatureCollection",
    "features": [
        {
            "id": 60203,
            "type": "Feature",
            "geometry": {
                "type": "Point",
                "coordinates": [
                    18.9191499,
                    49.87703
                ]
            },
            "properties": {
                "ref:rspo": 60203,
                "official_name": "Zesp\u00f3\u0142 Szkolno-Przedszkolny im. Jana Paw\u0142a II w Bronowie",
                "name": "Zesp\u00f3\u0142 Szkolno-Przedszkolny",
                "addr:postcode": "43-502",
                "addr:city": "Bron\u00f3w",
                "addr:street": "Kolorowa",
                "addr:housenumber": "2",
                "addr:teryt:simc": 213670,
                "addr:teryt:sym_ul": 8979,
                "phone": "+48 322157098",
                "email": "zsp.bronow@gmail.com",
                "website": "http:\/\/www.zspbronow.blogspot.com",
                "ref:regon": "072722065",
                "operator": "Gmina Czechowice-Dziedzice",
                "operator:type": "government",
                "landuse": "education",
                "fixme": "amenity=school, amenity=college albo landuse=education w zale\u017cno\u015bci od tego, jakie plac\u00f3wki wchodz\u0105 w sk\u0142ad zespo\u0142u. Sprawd\u017a, kiedy stosowa\u0107 amenity=* a kiedy landuse=education.",
                "note": "Children RSPO: 5719;104001"
            }
        },
        {
            "id": 5719,
            "type": "Feature",
            "geometry": {
                "type": "Point",
                "coordinates": [
                    18.9191499,
                    49.876999999999995
                ]
            },
            "properties": {
                "isced:level": "1;2",
                "ref:rspo": 5719,
                "official_name": "Szko\u0142a Podstawowa w Bronowie",
                "name": "Szko\u0142a Podstawowa w Bronowie",
                "addr:postcode": "43-502",
                "addr:city": "Bron\u00f3w",
                "addr:street": "Kolorowa",
                "addr:housenumber": "2",
                "addr:teryt:simc": 213670,
                "addr:teryt:sym_ul": 8979,
                "phone": "+48 661400854",
                "email": "zsp.bronow@gmail.com",
                "ref:regon": "000728948",
                "operator": "Gmina Czechowice-Dziedzice",
                "operator:type": "government",
                "amenity": "school",
                "note": "Parent RSPO: 60203"
            }
        },
        {
            "id": 104001,
            "type": "Feature",
            "geometry": {
                "type": "Point",
                "coordinates": [
                    18.9191499,
                    49.87697
                ]
            },
            "properties": {
                "ref:rspo": 104001,
                "official_name": "Przedszkole Publiczne w Bronowie",
                "name": "Przedszkole Publiczne w Bronowie",
                "addr:postcode": "43-502",
                "addr:city": "Bron\u00f3w",
                "addr:street": "Kolorowa",
                "addr:housenumber": "2",
                "addr:teryt:simc": 213670,
                "addr:teryt:sym_ul": 8979,
                "phone": "+48 322157098",
                "email": "zsp.bronow@gmail.com",
                "ref:regon": "271511762",
                "operator": "Gmina Czechowice-Dziedzice",
                "operator:type": "government",
                "amenity": "kindergarten",
                "note": "Parent RSPO: 60203"
            }
        },
        {
            "id": 104388,
            "type": "Feature",
            "geometry": {
                "type": "Point",
                "coordinates": [
                    18.95022,
                    49.87833
                ]
            },
            "properties": {
                "isced:level": "1;2",
                "ref:rspo": 104388,
                "official_name": "Szko\u0142a Podstawowa Nr 1 im.ks. J\u00f3zefa Tischnera w Ligocie",
                "name": "Szko\u0142a Podstawowa Nr 1 im.ks. J\u00f3zefa Tischnera w Ligocie",
                "addr:postcode": "43-518",
                "addr:city": "Ligota",
                "addr:street": "Bielska",
                "addr:housenumber": "17",
                "addr:teryt:simc": 213724,
                "addr:teryt:sym_ul": 1279,
                "phone": "+48 322143600",
                "email": "sekretariat@zspligota.pl",
                "website": "http:\/\/www.zsligota.czechowice.net.pl",
                "ref:regon": "000728919",
                "operator": "Gmina Czechowice-Dziedzice",
                "operator:type": "government",
                "amenity": "school"
            }
        },
        {
            "id": 5720,
            "type": "Feature",
            "geometry": {
                "type": "Point",
                "coordinates": [
                    19.02741,
                    49.87985
                ]
            },
            "properties": {
                "ref:rspo": 5720,
                "official_name": "Przedszkole Publiczne Nr 3 w Czechowicach-Dziedzicach",
                "name": "Przedszkole Publiczne Nr 3 w Czechowicach-Dziedzicach",
                "addr:postcode": "43-502",
                "addr:city": "Czechowice-Dziedzice",
                "addr:street": "Junacka",
                "addr:housenumber": "2",
                "addr:teryt:simc": 939094,
                "addr:teryt:sym_ul": 7660,
                "phone": "+48 322154421",
                "email": "pp3@czechowice.edu.pl",
                "ref:regon": "272000035",
                "operator": "Gmina Czechowice-Dziedzice",
                "operator:type": "government",
                "amenity": "kindergarten"
            }
        },
        {
            "id": 14489,
            "type": "Feature",
            "geometry": {
                "type": "Point",
                "coordinates": [
                    19.01857,
                    49.88075
                ]
            },
            "properties": {
                "isced:level": "1;2",
                "ref:rspo": 14489,
                "official_name": "Szko\u0142a Podstawowa Nr 3 Im J.s\u0142owackiego w Czechowicach-Dziedzicach",
                "name": "Szko\u0142a Podstawowa Nr 3 Im J.s\u0142owackiego w Czechowicach-Dziedzicach",
                "addr:postcode": "43-502",
                "addr:city": "Czechowice-Dziedzice",
                "addr:street": "Lipowska",
                "addr:housenumber": "26",
                "addr:teryt:simc": 939094,
                "addr:teryt:sym_ul": 11146,
                "phone": "+48 322153317",
                "email": "sp3lipowiec@poczta.onet.pl",
                "website": "http:\/\/sp3lipowiec.czechowice-dziedzice.pl",
                "ref:regon": "000728820",
                "operator": "Gmina Czechowice-Dziedzice",
                "operator:type": "government",
                "amenity": "school"
            }
        },
        {
            "id": 267769,
            "type": "Feature",
            "geometry": {
                "type": "Point",
                "coordinates": [
                    18.94725,
                    49.88111
                ]
            },
            "properties": {
                "ref:rspo": 267769,
                "official_name": "Przedszkole Katolickie im. \u015awi\u0119tych Dzieci Z Fatimy Sylwia Strz\u0105da\u0142a",
                "name": "Przedszkole Katolickie",
                "addr:postcode": "34-518",
                "addr:city": "Ligota",
                "addr:street": "Rolnik\u00f3w",
                "addr:housenumber": "4",
                "addr:teryt:simc": 213724,
                "addr:teryt:sym_ul": 18823,
                "email": "przedszkole@dziecizfatimy.pl",
                "website": "http:\/\/www.dziecizfatimy.pl",
                "ref:regon": "380621874",
                "operator": "Sylwia Strz\u0105da\u0142a",
                "operator:type": "private",
                "amenity": "kindergarten"
            }
        },
        {
            "id": 105093,
            "type": "Feature",
            "geometry": {
                "type": "Point",
                "coordinates": [
                    19.00045,
                    49.89327
                ]
            },
            "properties": {
                "ref:rspo": 105093,
                "official_name": "Zesp\u00f3\u0142 Szkolno-Przedszkolny Nr 1 im. Jana Brzechwy w Czechowicach-Dziedzicach",
                "name": "Zesp\u00f3\u0142 Szkolno-Przedszkolny Nr 1",
                "addr:postcode": "43-502",
                "addr:city": "Czechowice-Dziedzice",
                "addr:street": "Ch\u0142opska",
                "addr:housenumber": "70",
                "addr:teryt:simc": 939094,
                "addr:teryt:sym_ul": 2750,
                "phone": "+48 322153134",
                "email": "dyrektor.zsp1@czechowice.edu.pl",
                "ref:regon": "072721670",
                "operator": "Gmina Czechowice-Dziedzice",
                "operator:type": "government",
                "landuse": "education",
                "fixme": "amenity=school, amenity=college albo landuse=education w zale\u017cno\u015bci od tego, jakie plac\u00f3wki wchodz\u0105 w sk\u0142ad zespo\u0142u. Sprawd\u017a, kiedy stosowa\u0107 amenity=* a kiedy landuse=education.",
                "note": "Children RSPO: 6901;6902"
            }
        },
        {
            "id": 6901,
            "type": "Feature",
            "geometry": {
                "type": "Point",
                "coordinates": [
                    19.00045,
                    49.89324
                ]
            },
            "properties": {
                "isced:level": "1;2",
                "ref:rspo": 6901,
                "official_name": "Szko\u0142a Podstawowa Nr 1 im. J.brzechwy w Czechowicach-Dziedzicach",
                "name": "Szko\u0142a Podstawowa Nr 1",
                "addr:postcode": "43-502",
                "addr:city": "Czechowice-Dziedzice",
                "addr:street": "Ch\u0142opska",
                "addr:housenumber": "70",
                "addr:teryt:simc": 939094,
                "addr:teryt:sym_ul": 2750,
                "phone": "+48 661406012",
                "email": "dyrektor.zsp1@czechowice.edu.pl",
                "ref:regon": "000728807",
                "operator": "Gmina Czechowice-Dziedzice",
                "operator:type": "government",
                "amenity": "school",
                "note": "Parent RSPO: 105093"
            }
        },
        {
            "id": 6902,
            "type": "Feature",
            "geometry": {
                "type": "Point",
                "coordinates": [
                    19.00045,
                    49.89321
                ]
            },
            "properties": {
                "ref:rspo": 6902,
                "official_name": "Przedszkole Publiczne Nr 1 w Czechowicach-Dziedzicach",
                "name": "Przedszkole Publiczne Nr 1 w Czechowicach-Dziedzicach",
                "addr:postcode": "43-502",
                "addr:city": "Czechowice-Dziedzice",
                "addr:street": "Ch\u0142opska",
                "addr:housenumber": "70",
                "addr:teryt:simc": 939094,
                "addr:teryt:sym_ul": 2750,
                "phone": "+48 661406012",
                "email": "sekretariat@sp1.czechowice-dziedzice.pl",
                "ref:regon": "272000012",
                "operator": "Gmina Czechowice-Dziedzice",
                "operator:type": "government",
                "amenity": "kindergarten",
                "note": "Parent RSPO: 105093"
            }
        },
        {
            "id": 5709,
            "type": "Feature",
            "geometry": {
                "type": "Point",
                "coordinates": [
                    19.01749,
                    49.89783
                ]
            },
            "properties": {
                "ref:rspo": 5709,
                "official_name": "Przedszkole Publiczne Nr 6 w Czechowicach-Dziedzicach",
                "name": "Przedszkole Publiczne Nr 6 w Czechowicach-Dziedzicach",
                "addr:postcode": "43-502",
                "addr:city": "Czechowice-Dziedzice",
                "addr:street": "Szwajcarska Dolina",
                "addr:housenumber": "24",
                "addr:teryt:simc": 939094,
                "addr:teryt:sym_ul": 22170,
                "phone": "+48 601251921",
                "email": "pp6czdz@interia.pl",
                "website": "http:\/\/pp6cd.edupage.org",
                "ref:regon": "272000118",
                "operator": "Gmina Czechowice-Dziedzice",
                "operator:type": "government",
                "amenity": "kindergarten"
            }
        },
        {
            "id": 122652,
            "type": "Feature",
            "geometry": {
                "type": "Point",
                "coordinates": [
                    19.0090499,
                    49.8983599
                ]
            },
            "properties": {
                "ref:rspo": 122652,
                "official_name": "Prywatne Przedszkole II Domek",
                "name": "Prywatne Przedszkole II Domek",
                "addr:postcode": "43-502",
                "addr:city": "Czechowice-Dziedzice",
                "addr:street": "Legion\u00f3w",
                "addr:housenumber": "122",
                "addr:teryt:simc": 939094,
                "addr:teryt:sym_ul": 10769,
                "phone": "+48 322154213",
                "ref:regon": "243525496",
                "operator": "Maria Niedoba",
                "operator:type": "private",
                "amenity": "kindergarten"
            }
        },
        {
            "id": 7295,
            "type": "Feature",
            "geometry": {
                "type": "Point",
                "coordinates": [
                    18.93437,
                    49.89842
                ]
            },
            "properties": {
                "isced:level": "1;2",
                "ref:rspo": 7295,
                "official_name": "Szko\u0142a Podstawowa Nr 2 im. Powsta\u0144c\u00f3w \u015aL\u0105skich w Ligocie",
                "name": "Szko\u0142a Podstawowa Nr 2",
                "addr:postcode": "43-518",
                "addr:city": "Ligota",
                "addr:street": "Miliardowicka",
                "addr:housenumber": "46",
                "addr:teryt:simc": 213724,
                "addr:teryt:sym_ul": 12936,
                "phone": "+48 601441576",
                "email": "sekretariat.sp2ligota@czechowice.edu.pl",
                "ref:regon": "000728925",
                "operator": "Gmina Czechowice-Dziedzice",
                "operator:type": "government",
                "amenity": "school"
            }
        },
        {
            "id": 263348,
            "type": "Feature",
            "geometry": {
                "type": "Point",
                "coordinates": [
                    19.01643,
                    49.89937
                ]
            },
            "properties": {
                "isced:level": "1;2",
                "ref:rspo": 263348,
                "official_name": "Szko\u0142a Podstawowa Nr 6 im. Ignacego \u0141ukasiewicza",
                "name": "Szko\u0142a Podstawowa Nr 6",
                "addr:postcode": "43-502",
                "addr:city": "Czechowice-Dziedzice",
                "addr:street": "Ignacego \u0141ukasiewicza",
                "addr:housenumber": "37",
                "addr:teryt:simc": 939094,
                "addr:teryt:sym_ul": 11749,
                "phone": "+48 322153390",
                "email": "gp3@czechowice-dziedzice.pl",
                "ref:regon": "368181746",
                "operator": "Gmina Czechowice-Dziedzice",
                "operator:type": "government",
                "amenity": "school"
            }
        },
        {
            "id": 5718,
            "type": "Feature",
            "geometry": {
                "type": "Point",
                "coordinates": [
                    18.93279,
                    49.89946
                ]
            },
            "properties": {
                "ref:rspo": 5718,
                "official_name": "Przedszkole Publiczne w Ligocie",
                "name": "Przedszkole Publiczne w Ligocie",
                "addr:postcode": "43-518",
                "addr:city": "Ligota",
                "addr:street": "Przedszkolna",
                "addr:housenumber": "10",
                "addr:teryt:simc": 213724,
                "addr:teryt:sym_ul": 17683,
                "phone": "+48 601195148",
                "email": "ppligota@czechowice.edu.pl",
                "ref:regon": "271511779",
                "operator": "Gmina Czechowice-Dziedzice",
                "operator:type": "government",
                "amenity": "kindergarten"
            }
        },
        {
            "id": 105096,
            "type": "Feature",
            "geometry": {
                "type": "Point",
                "coordinates": [
                    18.97063,
                    49.90003
                ]
            },
            "properties": {
                "isced:level": "1;2",
                "ref:rspo": 105096,
                "official_name": "Szko\u0142a Podstawowa Nr 3 im. Zofii Kossak-Szczuckiej w Ligocie",
                "name": "Szko\u0142a Podstawowa Nr 3",
                "addr:postcode": "43-518",
                "addr:city": "Ligota",
                "addr:street": "Bory",
                "addr:housenumber": "2",
                "addr:teryt:simc": 213724,
                "addr:teryt:sym_ul": 1891,
                "phone": "+48 661400685",
                "email": "sekretariat.sp3ligota@czechowice.edu.pl",
                "ref:regon": "000728931",
                "operator": "Gmina Czechowice-Dziedzice",
                "operator:type": "government",
                "amenity": "school"
            }
        },
        {
            "id": 6707,
            "type": "Feature",
            "geometry": {
                "type": "Point",
                "coordinates": [
                    19.00313,
                    49.90792
                ]
            },
            "properties": {
                "isced:level": "1;2",
                "ref:rspo": 6707,
                "official_name": "Szko\u0142a Podstawowa Nr 5 im. M.kopernika w Czechowicach-Dziedzicach",
                "name": "Szko\u0142a Podstawowa Nr 5",
                "addr:postcode": "43-502",
                "addr:city": "Czechowice-Dziedzice",
                "addr:street": "Klasztorna",
                "addr:housenumber": "21",
                "addr:teryt:simc": 939094,
                "addr:teryt:sym_ul": 8485,
                "phone": "+48 601415668",
                "email": "sp5.czechowice@neostrada.pl",
                "ref:regon": "000728842",
                "operator": "Gmina Czechowice-Dziedzice",
                "operator:type": "government",
                "amenity": "school"
            }
        },
        {
            "id": 5715,
            "type": "Feature",
            "geometry": {
                "type": "Point",
                "coordinates": [
                    19.00934,
                    49.90937
                ]
            },
            "properties": {
                "ref:rspo": 5715,
                "official_name": "Przedszkole Publiczne Nr 2 w Czechowicach-Dziedzicach",
                "name": "Przedszkole Publiczne Nr 2 w Czechowicach-Dziedzicach",
                "addr:postcode": "43-502",
                "addr:city": "Czechowice-Dziedzice",
                "addr:street": "Ksi\u0119dza Piotra Skargi",
                "addr:housenumber": "4",
                "addr:teryt:simc": 939094,
                "addr:teryt:sym_ul": 20010,
                "phone": "+48 661022682",
                "email": "dyrekcja@pp2.cz-dz.pl",
                "ref:regon": "272000029",
                "operator": "Gmina Czechowice-Dziedzice",
                "operator:type": "government",
                "amenity": "kindergarten"
            }
        },
        {
            "id": 5707,
            "type": "Feature",
            "geometry": {
                "type": "Point",
                "coordinates": [
                    19.00273,
                    49.91182
                ]
            },
            "properties": {
                "ref:rspo": 5707,
                "official_name": "Przedszkole Publiczne Nr 8 w Czechowicach-Dziedzicach",
                "name": "Przedszkole Publiczne Nr 8 w Czechowicach-Dziedzicach",
                "addr:postcode": "43-502",
                "addr:city": "Czechowice-Dziedzice",
                "addr:street": "Marii Konopnickiej",
                "addr:housenumber": "14",
                "addr:teryt:simc": 939094,
                "addr:teryt:sym_ul": 9186,
                "phone": "+48 322153309",
                "email": "pp8@czechowice.edu.pl",
                "website": "http:\/\/www.pp8.pl",
                "ref:regon": "272000070",
                "operator": "Gmina Czechowice-Dziedzice",
                "operator:type": "government",
                "amenity": "kindergarten"
            }
        },
        {
            "id": 5721,
            "type": "Feature",
            "geometry": {
                "type": "Point",
                "coordinates": [
                    19.01293,
                    49.9119699
                ]
            },
            "properties": {
                "ref:rspo": 5721,
                "official_name": "Katolickie Przedszkole w Czechowicach-Dziedzicach",
                "name": "Katolickie Przedszkole w Czechowicach-Dziedzicach",
                "addr:postcode": "43-502",
                "addr:city": "Czechowice-Dziedzice",
                "addr:street": "\u017bwirki i Wigury",
                "addr:housenumber": "6",
                "addr:teryt:simc": 939094,
                "addr:teryt:sym_ul": 26608,
                "phone": "+48 322145324",
                "email": "katolickie.przedszkole@wp.pl",
                "ref:regon": "243028131",
                "operator": "Stowarzyszenie \"Dziedzictwo \u015aw. Jana Sarkandra\"",
                "operator:type": "ngo",
                "amenity": "kindergarten"
            }
        },
        {
            "id": 263509,
            "type": "Feature",
            "geometry": {
                "type": "Point",
                "coordinates": [
                    19.01293,
                    49.9119399
                ]
            },
            "properties": {
                "isced:level": "1;2",
                "ref:rspo": 263509,
                "official_name": "Katolicka Szko\u0142a Podstawowa im. \u015aw.brata Alberta w Czechowicach-Dziedzicach",
                "name": "Katolicka Szko\u0142a Podstawowa",
                "addr:postcode": "43-502",
                "addr:city": "Czechowice-Dziedzice",
                "addr:street": "\u017bwirki i Wigury",
                "addr:housenumber": "6",
                "addr:teryt:simc": 939094,
                "addr:teryt:sym_ul": 26608,
                "phone": "+48 322145323",
                "email": "sekretariat@kg.sarkander.pl",
                "website": "https:\/\/kg.sarkander.pl\/",
                "ref:regon": "368195493",
                "operator": "Stowarzyszenie \"Dziedzictwo \u015aw. Jana Sarkandra\"",
                "operator:type": "ngo",
                "amenity": "school"
            }
        },
        {
            "id": 13719,
            "type": "Feature",
            "geometry": {
                "type": "Point",
                "coordinates": [
                    19.003,
                    49.91245
                ]
            },
            "properties": {
                "isced:level": "3",
                "ref:rspo": 13719,
                "official_name": "Liceum Og\u00f3lnokszta\u0142c\u0105ce im. Marii Sk\u0142odowskiej-Curie",
                "name": "Liceum Og\u00f3lnokszta\u0142c\u0105ce",
                "addr:postcode": "43-502",
                "addr:city": "Czechowice-Dziedzice",
                "addr:street": "Marii Konopnickiej",
                "addr:housenumber": "9",
                "addr:teryt:simc": 939094,
                "addr:teryt:sym_ul": 9186,
                "phone": "+48 322153577",
                "email": "sekretariat@sklodowska.edu.pl",
                "website": "http:\/\/www.sklodowska.edu.pl",
                "ref:regon": "000728894",
                "ref:vatin": "PL6521703500",
                "operator": "Powiat Bielski",
                "operator:type": "government",
                "amenity": "school"
            }
        },
        {
            "id": 5710,
            "type": "Feature",
            "geometry": {
                "type": "Point",
                "coordinates": [
                    19.0090148,
                    49.9125427
                ]
            },
            "properties": {
                "ref:rspo": 5710,
                "official_name": "Przedszkole Publiczne Nr 5 w Czechowicach-Dziedzicach",
                "name": "Przedszkole Publiczne Nr 5 w Czechowicach-Dziedzicach",
                "addr:postcode": "43-502",
                "addr:city": "Czechowice-Dziedzice",
                "addr:street": "Boles\u0142awa Chrobrego",
                "addr:housenumber": "1",
                "addr:teryt:simc": 939094,
                "addr:teryt:sym_ul": 1742,
                "phone": "+48 661403190",
                "email": "pp5@czechowice.edu.pl",
                "ref:regon": "272000058",
                "operator": "Gmina Czechowice-Dziedzice",
                "operator:type": "government",
                "amenity": "kindergarten"
            }
        },
        {
            "id": 5708,
            "type": "Feature",
            "geometry": {
                "type": "Point",
                "coordinates": [
                    18.99387,
                    49.9126
                ]
            },
            "properties": {
                "ref:rspo": 5708,
                "official_name": "Przedszkole Publiczne Nr 11 w Czechowicach-Dziedzicach",
                "name": "Przedszkole Publiczne Nr 11 w Czechowicach-Dziedzicach",
                "addr:postcode": "43-502",
                "addr:city": "Czechowice-Dziedzice",
                "addr:street": "M\u0142y\u0144ska",
                "addr:housenumber": "6",
                "addr:teryt:simc": 939094,
                "addr:teryt:sym_ul": 13132,
                "phone": "+48 601256746",
                "email": "mariolapawelek@wp.pl",
                "ref:regon": "272000101",
                "operator": "Gmina Czechowice-Dziedzice",
                "operator:type": "government",
                "amenity": "kindergarten"
            }
        },
        {
            "id": 6532,
            "type": "Feature",
            "geometry": {
                "type": "Point",
                "coordinates": [
                    19.00919,
                    49.91302
                ]
            },
            "properties": {
                "isced:level": "1;2",
                "ref:rspo": 6532,
                "official_name": "Szko\u0142a Podstawowa Nr 4 im. Or\u0142a Bia\u0142ego w Czechowicach-Dziedzicach",
                "name": "Szko\u0142a Podstawowa Nr 4",
                "addr:postcode": "43-502",
                "addr:city": "Czechowice-Dziedzice",
                "addr:street": "Studencka",
                "addr:housenumber": "2",
                "addr:teryt:simc": 939094,
                "addr:teryt:sym_ul": 21410,
                "phone": "+48 322153103",
                "email": "sekretariat.sp4@czechowice.edu.pl",
                "ref:regon": "000728836",
                "operator": "Gmina Czechowice-Dziedzice",
                "operator:type": "government",
                "amenity": "school"
            }
        },
        {
            "id": 129683,
            "type": "Feature",
            "geometry": {
                "type": "Point",
                "coordinates": [
                    18.99203,
                    49.91336
                ]
            },
            "properties": {
                "ref:rspo": 129683,
                "official_name": "Niepubliczne Centrum Kszta\u0142cenia Praktycznego I Ustawicznego \"Akces Edukator\"",
                "name": "Niepubliczne Centrum Kszta\u0142cenia Praktycznego I Ustawicznego \"Akces Edukator\"",
                "addr:postcode": "43-502",
                "addr:city": "Czechowice-Dziedzice",
                "addr:street": "Zielona",
                "addr:housenumber": "11",
                "addr:teryt:simc": 939094,
                "addr:teryt:sym_ul": 26081,
                "phone": "+48 322158921",
                "ref:regon": "362761603",
                "operator": "Akces Bk Sp\u00f3\u0142ka Z Ograniczon\u0105 Odpowiedzialno\u015bci\u0105",
                "operator:type": "private",
                "fixme": "w zale\u017cno\u015bci od przedmiotu dzia\u0142alno\u015bci (np. amenity=training + training=*, amenity=dancing_school, amenity=language_school, amenity=music_school)"
            }
        },
        {
            "id": 263283,
            "type": "Feature",
            "geometry": {
                "type": "Point",
                "coordinates": [
                    19.0014499,
                    49.91371
                ]
            },
            "properties": {
                "isced:level": "1;2",
                "ref:rspo": 263283,
                "official_name": "Szko\u0142a Podstawowa Nr 8 im. Janusza Kusoci\u0144skiego",
                "name": "Szko\u0142a Podstawowa Nr 8",
                "addr:postcode": "43-502",
                "addr:city": "Czechowice-Dziedzice",
                "addr:street": "Targowa",
                "addr:housenumber": "6",
                "addr:teryt:simc": 939094,
                "addr:teryt:sym_ul": 22659,
                "phone": "+48 322153647",
                "email": "sp8czechowice_dziedzice@onet.pl",
                "website": "http:\/\/sp8.czechowice-dziedzice.pl",
                "ref:regon": "368179146",
                "operator": "Gmina Czechowice-Dziedzice",
                "operator:type": "government",
                "amenity": "school"
            }
        },
        {
            "id": 5717,
            "type": "Feature",
            "geometry": {
                "type": "Point",
                "coordinates": [
                    18.94087,
                    49.9145899
                ]
            },
            "properties": {
                "ref:rspo": 5717,
                "official_name": "Przedszkole Publiczne w Zabrzegu",
                "name": "Przedszkole Publiczne w Zabrzegu",
                "addr:postcode": "43-518",
                "addr:city": "Zabrzeg",
                "addr:street": "Tadeusza Gazdy",
                "addr:housenumber": "5",
                "addr:teryt:simc": 213859,
                "addr:teryt:sym_ul": 5401,
                "phone": "+48 601194520",
                "email": "ppzabrzeg@czechowice.edu.pl",
                "ref:regon": "271511785",
                "operator": "Gmina Czechowice-Dziedzice",
                "operator:type": "government",
                "amenity": "kindergarten"
            }
        },
        {
            "id": 269691,
            "type": "Feature",
            "geometry": {
                "type": "Point",
                "coordinates": [
                    18.99917,
                    49.9158
                ]
            },
            "properties": {
                "ref:rspo": 269691,
                "official_name": "Niepubliczne Przedszkole Szkarbek",
                "name": "Niepubliczne Przedszkole Szkarbek",
                "addr:postcode": "43-502",
                "addr:city": "Czechowice-Dziedzice",
                "addr:street": "Hutnicza",
                "addr:housenumber": "9",
                "addr:teryt:simc": 939094,
                "addr:teryt:sym_ul": 6825,
                "email": "szkarbek@gmail.com",
                "website": "http:\/\/szkarbek.com.pl",
                "ref:regon": "381675139",
                "operator": "Marzena Kami\u0144ska",
                "operator:type": "private",
                "amenity": "kindergarten"
            }
        },
        {
            "id": 29061,
            "type": "Feature",
            "geometry": {
                "type": "Point",
                "coordinates": [
                    18.93986,
                    49.9159099
                ]
            },
            "properties": {
                "isced:level": "1;2",
                "ref:rspo": 29061,
                "official_name": "Szko\u0142a Podstawowa im. Ks. J\u00f3zefa Londzina w Zabrzegu",
                "name": "Szko\u0142a Podstawowa",
                "addr:postcode": "43-516",
                "addr:city": "Zabrzeg",
                "addr:street": "Karola Pytla",
                "addr:housenumber": "1",
                "addr:teryt:simc": 213859,
                "addr:teryt:sym_ul": 18234,
                "phone": "+48 607806322",
                "email": "zszabrzeg@poczta.onet.pl",
                "website": "http:\/\/spzabrzeg.pl",
                "ref:regon": "000728954",
                "operator": "Gmina Czechowice-Dziedzice",
                "operator:type": "government",
                "amenity": "school"
            }
        },
        {
            "id": 14490,
            "type": "Feature",
            "geometry": {
                "type": "Point",
                "coordinates": [
                    18.99517,
                    49.91889
                ]
            },
            "properties": {
                "isced:level": "1;2",
                "ref:rspo": 14490,
                "official_name": "Szko\u0142a Podstawowa Nr 7 im. K.wielkiego w Czechowicach-Dziedzicach",
                "name": "Szko\u0142a Podstawowa Nr 7",
                "addr:postcode": "43-502",
                "addr:city": "Czechowice-Dziedzice",
                "addr:street": "Szkolna",
                "addr:housenumber": "6",
                "addr:teryt:simc": 939094,
                "addr:teryt:sym_ul": 21970,
                "phone": "+48 322153429",
                "email": "szkola@sp7czdz.pl",
                "ref:regon": "000728865",
                "operator": "Gmina Czechowice-Dziedzice",
                "operator:type": "government",
                "amenity": "school"
            }
        },
        {
            "id": 5712,
            "type": "Feature",
            "geometry": {
                "type": "Point",
                "coordinates": [
                    19.00803,
                    49.9200299
                ]
            },
            "properties": {
                "ref:rspo": 5712,
                "official_name": "Przedszkole Publiczne Nr 9 w Czechowicach-Dziedzicach",
                "name": "Przedszkole Publiczne Nr 9 w Czechowicach-Dziedzicach",
                "addr:postcode": "43-502",
                "addr:city": "Czechowice-Dziedzice",
                "addr:street": "Romualda Traugutta",
                "addr:housenumber": "20",
                "addr:teryt:simc": 939094,
                "addr:teryt:sym_ul": 22965,
                "phone": "+48 322152908",
                "email": "pp9@czechowice.edu.pl",
                "ref:regon": "272000087",
                "operator": "Gmina Czechowice-Dziedzice",
                "operator:type": "government",
                "amenity": "kindergarten"
            }
        },
        {
            "id": 15448,
            "type": "Feature",
            "geometry": {
                "type": "Point",
                "coordinates": [
                    19.00686,
                    49.92017
                ]
            },
            "properties": {
                "ref:rspo": 15448,
                "official_name": "Powiatowa Poradnia Psychologiczno-Pedagogiczna w Czechowicach-Dziedzicach",
                "name": "Powiatowa Poradnia Psychologiczno-Pedagogiczna w Czechowicach-Dziedzicach",
                "addr:postcode": "43-502",
                "addr:city": "Czechowice-Dziedzice",
                "addr:street": "Romualda Traugutta",
                "addr:housenumber": "11",
                "addr:teryt:simc": 939094,
                "addr:teryt:sym_ul": 22965,
                "phone": "+48 322152220",
                "email": "poradnia.pp@wp.pl",
                "ref:regon": "000817669",
                "ref:vatin": "PL6521136946",
                "operator": "Powiat Bielski",
                "operator:type": "government",
                "healthcare": "counselling",
                "counselling_type": "education",
                "fixme": "w zale\u017cno\u015bci od przedmiotu dzia\u0142alno\u015bci (np. healthcare=counselling + counselling_type=education albo healthcare=psychotherapist)",
                "note": "Children RSPO: 112021"
            }
        },
        {
            "id": 15526,
            "type": "Feature",
            "geometry": {
                "type": "Point",
                "coordinates": [
                    19.00686,
                    49.920139999999996
                ]
            },
            "properties": {
                "ref:rspo": 15526,
                "official_name": "Powiatowe Ognisko Pracy Pozaszkolnej \"Art.\"",
                "name": "Powiatowe Ognisko Pracy Pozaszkolnej \"Art.\"",
                "addr:postcode": "43-502",
                "addr:city": "Czechowice-Dziedzice",
                "addr:street": "Romualda Traugutta",
                "addr:housenumber": "11",
                "addr:teryt:simc": 939094,
                "addr:teryt:sym_ul": 22965,
                "phone": "+48 322153297",
                "email": "popp.art@interia.pl",
                "website": "http:\/\/www.popp-art.eu",
                "ref:regon": "072374339",
                "ref:vatin": "PL6521601018",
                "operator": "Powiat Bielski",
                "operator:type": "government",
                "amenity": "community_centre",
                "community_centre:for": "child;juvenile"
            }
        },
        {
            "id": 15621,
            "type": "Feature",
            "geometry": {
                "type": "Point",
                "coordinates": [
                    19.00686,
                    49.92011
                ]
            },
            "properties": {
                "ref:rspo": 15621,
                "official_name": "Zesp\u00f3\u0142 Szk\u00f3\u0142 Technicznych I Licealnych im. Stanis\u0142awa Staszica",
                "name": "Zesp\u00f3\u0142 Szk\u00f3\u0142 Technicznych I Licealnych",
                "addr:postcode": "43-502",
                "addr:city": "Czechowice-Dziedzice",
                "addr:street": "Romualda Traugutta",
                "addr:housenumber": "11",
                "addr:teryt:simc": 939094,
                "addr:teryt:sym_ul": 22965,
                "phone": "+48 322152927",
                "email": "zstil@zstil.eu",
                "website": "http:\/\/www.zstil.eu",
                "ref:regon": "000202063",
                "ref:vatin": "PL6521047800",
                "operator": "Powiat Bielski",
                "operator:type": "government",
                "landuse": "education",
                "fixme": "amenity=school, amenity=college albo landuse=education w zale\u017cno\u015bci od tego, jakie plac\u00f3wki wchodz\u0105 w sk\u0142ad zespo\u0142u. Sprawd\u017a, kiedy stosowa\u0107 amenity=* a kiedy landuse=education.",
                "note": "Children RSPO: 17666;17669;119437"
            }
        },
        {
            "id": 17666,
            "type": "Feature",
            "geometry": {
                "type": "Point",
                "coordinates": [
                    19.00686,
                    49.92008
                ]
            },
            "properties": {
                "isced:level": "3",
                "ref:rspo": 17666,
                "official_name": "Bran\u017cowa Szko\u0142a I Stopnia Nr 1",
                "name": "Bran\u017cowa Szko\u0142a I Stopnia Nr 1",
                "addr:postcode": "43-502",
                "addr:city": "Czechowice-Dziedzice",
                "addr:street": "Romualda Traugutta",
                "addr:housenumber": "11",
                "addr:teryt:simc": 939094,
                "addr:teryt:sym_ul": 22965,
                "phone": "+48 322152927",
                "email": "zstil@zstil.eu",
                "website": "http:\/\/www.zstil.eu",
                "ref:regon": "272082398",
                "operator": "Powiat Bielski",
                "operator:type": "government",
                "amenity": "school",
                "note": "Parent RSPO: 15621"
            }
        },
        {
            "id": 17669,
            "type": "Feature",
            "geometry": {
                "type": "Point",
                "coordinates": [
                    19.00686,
                    49.920049999999996
                ]
            },
            "properties": {
                "isced:level": "3",
                "ref:rspo": 17669,
                "official_name": "Technikum Nr 1",
                "name": "Technikum Nr 1",
                "addr:postcode": "43-502",
                "addr:city": "Czechowice-Dziedzice",
                "addr:street": "Romualda Traugutta",
                "addr:housenumber": "11",
                "addr:teryt:simc": 939094,
                "addr:teryt:sym_ul": 22965,
                "phone": "+48 322152927",
                "email": "zstil@zstil.eu",
                "website": "http:\/\/www.zstil.eu",
                "ref:regon": "272082352",
                "operator": "Powiat Bielski",
                "operator:type": "government",
                "amenity": "school",
                "note": "Parent RSPO: 15621"
            }
        },
        {
            "id": 119437,
            "type": "Feature",
            "geometry": {
                "type": "Point",
                "coordinates": [
                    19.00686,
                    49.92002
                ]
            },
            "properties": {
                "isced:level": "3",
                "ref:rspo": 119437,
                "official_name": "Liceum Og\u00f3lnokszta\u0142c\u0105ce dla Doros\u0142ych",
                "name": "Liceum Og\u00f3lnokszta\u0142c\u0105ce dla Doros\u0142ych",
                "addr:postcode": "43-502",
                "addr:city": "Czechowice-Dziedzice",
                "addr:street": "Romualda Traugutta",
                "addr:housenumber": "11",
                "addr:teryt:simc": 939094,
                "addr:teryt:sym_ul": 22965,
                "phone": "+48 322152927",
                "email": "zstil@zstil.eu",
                "website": "http:\/\/www.zstil.eu",
                "ref:regon": "243357082",
                "operator": "Powiat Bielski",
                "operator:type": "government",
                "amenity": "school",
                "note": "Parent RSPO: 15621"
            }
        },
        {
            "id": 278084,
            "type": "Feature",
            "geometry": {
                "type": "Point",
                "coordinates": [
                    19.00274,
                    49.92167
                ]
            },
            "properties": {
                "ref:rspo": 278084,
                "official_name": "Przedszkole Terapeutyczne \"S\u0142oneczna Kraina\"",
                "name": "Przedszkole Terapeutyczne \"S\u0142oneczna Kraina\"",
                "addr:postcode": "43-502",
                "addr:city": "Czechowice-Dziedzice",
                "addr:street": "Jana Kasprowicza",
                "addr:housenumber": "52",
                "addr:teryt:simc": 939094,
                "addr:teryt:sym_ul": 8153,
                "email": "czechowice@tppsk.pl",
                "ref:regon": "389768538",
                "operator": "S\u0142oneczna Kraina Bielsko-Bia\u0142a Sp\u00f3\u0142ka Z Ograniczon\u0105 Odpowiedzialno\u015bci\u0105",
                "operator:type": "private",
                "amenity": "kindergarten"
            }
        },
        {
            "id": 130183,
            "type": "Feature",
            "geometry": {
                "type": "Point",
                "coordinates": [
                    19.00191,
                    49.92168
                ]
            },
            "properties": {
                "ref:rspo": 130183,
                "official_name": "Niepubliczne Przedszkole \"Dzieci\u0119ce Warsztaty\"",
                "name": "Niepubliczne Przedszkole \"Dzieci\u0119ce Warsztaty\"",
                "addr:postcode": "43-502",
                "addr:city": "Czechowice-Dziedzice",
                "addr:street": "Jana Kasprowicza",
                "addr:housenumber": "48",
                "addr:teryt:simc": 939094,
                "addr:teryt:sym_ul": 8153,
                "phone": "+48 737359582",
                "email": "przedszkole@dzieciecewarsztaty.pl",
                "ref:regon": "363610510",
                "operator": "Jacek Sikora",
                "operator:type": "private",
                "amenity": "kindergarten"
            }
        },
        {
            "id": 263845,
            "type": "Feature",
            "geometry": {
                "type": "Point",
                "coordinates": [
                    19.00191,
                    49.92165
                ]
            },
            "properties": {
                "ref:rspo": 263845,
                "official_name": "Niepubliczne Przedszkole Jonatan",
                "name": "Niepubliczne Przedszkole Jonatan",
                "addr:postcode": "43-502",
                "addr:city": "Czechowice-Dziedzice",
                "addr:street": "Jana Kasprowicza",
                "addr:housenumber": "48",
                "addr:teryt:simc": 939094,
                "addr:teryt:sym_ul": 8153,
                "email": "k.sekta@jonatan.pl",
                "ref:regon": "368230887",
                "operator": "Agnieszka Michalak",
                "operator:type": "private",
                "amenity": "kindergarten"
            }
        },
        {
            "id": 264302,
            "type": "Feature",
            "geometry": {
                "type": "Point",
                "coordinates": [
                    19.00191,
                    49.921620000000004
                ]
            },
            "properties": {
                "ref:rspo": 264302,
                "official_name": "Centrum Terapeutyczne \"Bosko\" Niepubliczna Poradnia Psychologiczno-Pedagogiczna",
                "name": "Centrum Terapeutyczne \"Bosko\" Niepubliczna Poradnia Psychologiczno-Pedagogiczna",
                "addr:postcode": "43-502",
                "addr:city": "Czechowice-Dziedzice",
                "addr:street": "Jana Kasprowicza",
                "addr:housenumber": "48",
                "addr:teryt:simc": 939094,
                "addr:teryt:sym_ul": 8153,
                "email": "lucynahoma@gmail.com",
                "ref:regon": "368306308",
                "operator": "Lucyna Homa",
                "operator:type": "private",
                "healthcare": "counselling",
                "counselling_type": "education",
                "fixme": "w zale\u017cno\u015bci od przedmiotu dzia\u0142alno\u015bci (np. healthcare=counselling + counselling_type=education albo healthcare=psychotherapist)"
            }
        },
        {
            "id": 263514,
            "type": "Feature",
            "geometry": {
                "type": "Point",
                "coordinates": [
                    18.99677,
                    49.92515
                ]
            },
            "properties": {
                "ref:rspo": 263514,
                "official_name": "Zesp\u00f3\u0142 Szkolno-Przedszkolny Nr 2 w Czechowicach-Dziedzicach",
                "name": "Zesp\u00f3\u0142 Szkolno-Przedszkolny Nr 2 w Czechowicach-Dziedzicach",
                "addr:postcode": "43-502",
                "addr:city": "Czechowice-Dziedzice",
                "addr:street": "Polna",
                "addr:housenumber": "33",
                "addr:teryt:simc": 939094,
                "addr:teryt:sym_ul": 17011,
                "phone": "+48 322155509",
                "email": "sekretariat.zsp2@czechowice.edu.pl",
                "website": "http:\/\/www.zsp2czechowice.pl",
                "ref:regon": "368196080",
                "operator": "Gmina Czechowice-Dziedzice",
                "operator:type": "government",
                "landuse": "education",
                "fixme": "amenity=school, amenity=college albo landuse=education w zale\u017cno\u015bci od tego, jakie plac\u00f3wki wchodz\u0105 w sk\u0142ad zespo\u0142u. Sprawd\u017a, kiedy stosowa\u0107 amenity=* a kiedy landuse=education.",
                "note": "Children RSPO: 263468;263531"
            }
        },
        {
            "id": 272579,
            "type": "Feature",
            "geometry": {
                "type": "Point",
                "coordinates": [
                    18.99677,
                    49.92512
                ]
            },
            "properties": {
                "ref:rspo": 272579,
                "official_name": "Miejski O\u015brodek Gimnastyki Korekcyjnej w Czechowicach-Dziedzicach",
                "name": "Miejski O\u015brodek Gimnastyki Korekcyjnej w Czechowicach-Dziedzicach",
                "addr:postcode": "43-502",
                "addr:city": "Czechowice-Dziedzice",
                "addr:street": "Polna",
                "addr:housenumber": "33",
                "addr:teryt:simc": 939094,
                "addr:teryt:sym_ul": 17011,
                "email": "gkkczdz@gmail.com",
                "ref:regon": "384266737",
                "operator": "Gmina Czechowice-Dziedzice",
                "operator:type": "government",
                "fixme": "w zale\u017cno\u015bci od przedmiotu dzia\u0142alno\u015bci (np. amenity=training + training=*, amenity=dancing_school, amenity=language_school, amenity=music_school)"
            }
        },
        {
            "id": 263468,
            "type": "Feature",
            "geometry": {
                "type": "Point",
                "coordinates": [
                    18.99677,
                    49.925090000000004
                ]
            },
            "properties": {
                "isced:level": "1;2",
                "ref:rspo": 263468,
                "official_name": "Szko\u0142a Podstawowa Nr 10 im. Ks. J.twardowskiego w Czechowicach-Dziedzicach",
                "name": "Szko\u0142a Podstawowa Nr 10",
                "addr:postcode": "43-502",
                "addr:city": "Czechowice-Dziedzice",
                "addr:street": "Polna",
                "addr:housenumber": "33",
                "addr:teryt:simc": 939094,
                "addr:teryt:sym_ul": 17011,
                "phone": "+48 322155509",
                "email": "sekretariat.zsp2@czechowice.edu.pl",
                "website": "http:\/\/www.zsp2czechowice.pl",
                "ref:regon": "368192336",
                "operator": "Gmina Czechowice-Dziedzice",
                "operator:type": "government",
                "amenity": "school",
                "note": "Parent RSPO: 263514"
            }
        },
        {
            "id": 263531,
            "type": "Feature",
            "geometry": {
                "type": "Point",
                "coordinates": [
                    18.99677,
                    49.92506
                ]
            },
            "properties": {
                "ref:rspo": 263531,
                "official_name": "Przedszkole Publiczne Nr 4A w Czechowicach-Dziedzicach",
                "name": "Przedszkole Publiczne Nr 4A w Czechowicach-Dziedzicach",
                "addr:postcode": "43-502",
                "addr:city": "Czechowice-Dziedzice",
                "addr:street": "Polna",
                "addr:housenumber": "33",
                "addr:teryt:simc": 939094,
                "addr:teryt:sym_ul": 17011,
                "phone": "+48 322155509",
                "ref:regon": "368198592",
                "operator": "Gmina Czechowice-Dziedzice",
                "operator:type": "government",
                "amenity": "kindergarten",
                "note": "Parent RSPO: 263514"
            }
        },
        {
            "id": 19674,
            "type": "Feature",
            "geometry": {
                "type": "Point",
                "coordinates": [
                    18.9982,
                    49.92596
                ]
            },
            "properties": {
                "ref:rspo": 19674,
                "official_name": "Niepubliczna Plac\u00f3wka Doskonalenia Nauczycieli O\u015brodek Kszta\u0142cenia Talmed",
                "name": "Niepubliczna Plac\u00f3wka Doskonalenia Nauczycieli O\u015brodek Kszta\u0142cenia Talmed",
                "addr:postcode": "43-520",
                "addr:city": "Czechowice-Dziedzice",
                "addr:street": "Mieczys\u0142awa Micha\u0142owicza",
                "addr:housenumber": "15",
                "addr:door": "16",
                "addr:teryt:simc": 939094,
                "addr:teryt:sym_ul": 12706,
                "phone": "+48 334963866",
                "email": "kursy@talmed.eu",
                "website": "http:\/\/www.talmed.eu",
                "ref:regon": "243053034",
                "ref:vatin": "PL6521701820",
                "operator": "Dane Do Uzupe\u0142nienia",
                "operator:type": "private",
                "amenity": "training"
            }
        },
        {
            "id": 5706,
            "type": "Feature",
            "geometry": {
                "type": "Point",
                "coordinates": [
                    19.00706,
                    49.92832
                ]
            },
            "properties": {
                "isced:level": "1;2",
                "ref:rspo": 5706,
                "official_name": "Szko\u0142a Podstawowa Nr 2 im. Kr\u00f3lowej Jadwigi w Czechowicach-Dziedzicach",
                "name": "Szko\u0142a Podstawowa Nr 2",
                "addr:postcode": "43-502",
                "addr:city": "Czechowice-Dziedzice",
                "addr:street": "W\u0119glowa",
                "addr:housenumber": "54",
                "addr:teryt:simc": 939094,
                "addr:teryt:sym_ul": 23934,
                "phone": "+48 322152975",
                "email": "sekretariat.sp2@czechowice.edu.pl",
                "ref:regon": "000728813",
                "operator": "Gmina Czechowice-Dziedzice",
                "operator:type": "government",
                "amenity": "school"
            }
        },
        {
            "id": 5713,
            "type": "Feature",
            "geometry": {
                "type": "Point",
                "coordinates": [
                    19.01632,
                    49.93851
                ]
            },
            "properties": {
                "ref:rspo": 5713,
                "official_name": "Przedszkole Publiczne Nr 10 w Czechowicach-Dziedzicach",
                "name": "Przedszkole Publiczne Nr 10 w Czechowicach-Dziedzicach",
                "addr:postcode": "43-502",
                "addr:city": "Czechowice-Dziedzice",
                "addr:street": "Nad Bia\u0142k\u0105",
                "addr:housenumber": "1b",
                "addr:teryt:simc": 939094,
                "addr:teryt:sym_ul": 13735,
                "phone": "+48 661023885",
                "email": "pp10@czechowice.edu.pl",
                "ref:regon": "272000093",
                "operator": "Gmina Czechowice-Dziedzice",
                "operator:type": "government",
                "amenity": "kindergarten"
            }
        },
        {
            "id": 17065,
            "type": "Feature",
            "geometry": {
                "type": "Point",
                "coordinates": [
                    19.01632,
                    49.93848
                ]
            },
            "properties": {
                "ref:rspo": 17065,
                "official_name": "Zesp\u00f3\u0142 Szk\u00f3\u0142 Specjalnych Nr 4",
                "name": "Zesp\u00f3\u0142 Szk\u00f3\u0142 Specjalnych Nr 4",
                "addr:postcode": "43-502",
                "addr:city": "Czechowice-Dziedzice",
                "addr:street": "Nad Bia\u0142k\u0105",
                "addr:housenumber": "1e",
                "addr:teryt:simc": 939094,
                "addr:teryt:sym_ul": 13735,
                "phone": "+48 322153586",
                "email": "sekretariatzs4@wp.pl",
                "website": "http:\/\/zss4.pl",
                "ref:regon": "000835897",
                "ref:vatin": "PL6521039539",
                "operator": "Powiat Bielski",
                "operator:type": "government",
                "landuse": "education",
                "fixme": "amenity=school, amenity=college albo landuse=education w zale\u017cno\u015bci od tego, jakie plac\u00f3wki wchodz\u0105 w sk\u0142ad zespo\u0142u. Sprawd\u017a, kiedy stosowa\u0107 amenity=* a kiedy landuse=education.",
                "note": "Children RSPO: 44159;44162;44164"
            }
        },
        {
            "id": 44159,
            "type": "Feature",
            "geometry": {
                "type": "Point",
                "coordinates": [
                    19.01632,
                    49.93845
                ]
            },
            "properties": {
                "isced:level": "1;2",
                "ref:rspo": 44159,
                "official_name": "Szko\u0142a Podstawowa Specjalna Nr 9",
                "name": "Szko\u0142a Podstawowa Specjalna Nr 9",
                "addr:postcode": "43-502",
                "addr:city": "Czechowice-Dziedzice",
                "addr:street": "Nad Bia\u0142k\u0105",
                "addr:housenumber": "1e",
                "addr:teryt:simc": 939094,
                "addr:teryt:sym_ul": 13735,
                "phone": "+48 322153586",
                "ref:regon": "000728888",
                "operator": "Powiat Bielski",
                "operator:type": "government",
                "amenity": "school",
                "note": "Parent RSPO: 17065"
            }
        },
        {
            "id": 44162,
            "type": "Feature",
            "geometry": {
                "type": "Point",
                "coordinates": [
                    19.01632,
                    49.93842
                ]
            },
            "properties": {
                "isced:level": "3",
                "ref:rspo": 44162,
                "official_name": "Bran\u017cowa Szko\u0142a I Stopnia Specjalna Nr 2",
                "name": "Bran\u017cowa Szko\u0142a I Stopnia Specjalna Nr 2",
                "addr:postcode": "43-502",
                "addr:city": "Czechowice-Dziedzice",
                "addr:street": "Nad Bia\u0142k\u0105",
                "addr:housenumber": "1e",
                "addr:teryt:simc": 939094,
                "addr:teryt:sym_ul": 13735,
                "phone": "+48 322153586",
                "ref:regon": "000837270",
                "operator": "Powiat Bielski",
                "operator:type": "government",
                "amenity": "school",
                "note": "Parent RSPO: 17065"
            }
        },
        {
            "id": 44164,
            "type": "Feature",
            "geometry": {
                "type": "Point",
                "coordinates": [
                    19.01632,
                    49.93839
                ]
            },
            "properties": {
                "ref:rspo": 44164,
                "official_name": "Szko\u0142a Specjalna Przysposabiaj\u0105ca Do Pracy",
                "name": "Szko\u0142a Specjalna Przysposabiaj\u0105ca Do Pracy",
                "addr:postcode": "43-502",
                "addr:city": "Czechowice-Dziedzice",
                "addr:street": "Nad Bia\u0142k\u0105",
                "addr:housenumber": "1e",
                "addr:teryt:simc": 939094,
                "addr:teryt:sym_ul": 13735,
                "phone": "+48 322153586",
                "email": "sekretariatzs4@wp.pl",
                "ref:regon": "072920693",
                "operator": "Powiat Bielski",
                "operator:type": "government",
                "amenity": "school",
                "note": "Parent RSPO: 17065"
            }
        }
    ]
}