{
    "type": "FeatureCollection",
    "features": [
        {
            "id": 56519,
            "type": "Feature",
            "geometry": {
                "type": "Point",
                "coordinates": [
                    19.06233,
                    49.74629
                ]
            },
            "properties": {
                "ref:rspo": 56519,
                "official_name": "Zesp\u00f3\u0142 Szkolno - Przedszkolny w Mesznej",
                "name": "Zesp\u00f3\u0142 Szkolno - Przedszkolny w Mesznej",
                "addr:country": "PL",
                "addr:postcode": "43-360",
                "addr:city": "Meszna",
                "addr:street": "ul. Szkolna",
                "addr:housenumber": "1",
                "addr:teryt:simc": 21970,
                "addr:teryt:sym_ul": 76606,
                "contact:phone": "+48 338171213",
                "contact:email": "sekretariat@zspmeszna.pl",
                "contact:website": "http:\/\/www.zspmeszna.pl",
                "ref:regon": "240682953",
                "ref:vatin": "PL9372533602",
                "operator": "Gmina Wilkowice",
                "operator:type": "government",
                "landuse": "education",
                "fixme": "amenity=school, amenity=college albo landuse=education w zale\u017cno\u015bci od tego, jakie plac\u00f3wki wchodz\u0105 w sk\u0142ad zespo\u0142u. Sprawd\u017a, kiedy stosowa\u0107 amenity=* a kiedy landuse=education.",
                "note": "Children RSPO: 78996;78997"
            }
        },
        {
            "id": 78996,
            "type": "Feature",
            "geometry": {
                "type": "Point",
                "coordinates": [
                    19.06233,
                    49.74626
                ]
            },
            "properties": {
                "isced:level": "1;2",
                "ref:rspo": 78996,
                "official_name": "Szko\u0142a Podstawowa w Mesznej im. B\u0142. Jana Pawa\u0142a Ii",
                "name": "Szko\u0142a Podstawowa w Mesznej",
                "addr:country": "PL",
                "addr:postcode": "43-360",
                "addr:city": "Meszna",
                "addr:street": "ul. Szkolna",
                "addr:housenumber": "1",
                "addr:teryt:simc": 21970,
                "addr:teryt:sym_ul": 76606,
                "contact:phone": "+48 338171213",
                "contact:email": "sekretariat@zspmeszna.pl",
                "contact:website": "http:\/\/www.zspmeszna.pl",
                "ref:regon": "070688298",
                "operator": "Gmina Wilkowice",
                "operator:type": "government",
                "amenity": "school",
                "note": "Parent RSPO: 56519"
            }
        },
        {
            "id": 78997,
            "type": "Feature",
            "geometry": {
                "type": "Point",
                "coordinates": [
                    19.06233,
                    49.746230000000004
                ]
            },
            "properties": {
                "ref:rspo": 78997,
                "official_name": "Przedszkole Publiczne w Mesznej",
                "name": "Przedszkole Publiczne w Mesznej",
                "addr:country": "PL",
                "addr:postcode": "43-360",
                "addr:city": "Meszna",
                "addr:street": "ul. Szkolna",
                "addr:housenumber": "1",
                "addr:teryt:simc": 21970,
                "addr:teryt:sym_ul": 76606,
                "contact:phone": "+48 338171213",
                "contact:email": "sekretariat@zspmeszna.pl",
                "contact:website": "http:\/\/www.zspmeszna.pl",
                "ref:regon": "072346053",
                "operator": "Gmina Wilkowice",
                "operator:type": "government",
                "amenity": "kindergarten",
                "note": "Parent RSPO: 56519"
            }
        },
        {
            "id": 262687,
            "type": "Feature",
            "geometry": {
                "type": "Point",
                "coordinates": [
                    19.06055,
                    49.74653
                ]
            },
            "properties": {
                "isced:level": "1;2",
                "ref:rspo": 262687,
                "official_name": "Szko\u0142a Podstawowa Nr 2 im. Kr\u00f3lowej Jadwigi w Wilkowicach Z Oddzia\u0142ami Sportowymi",
                "name": "Szko\u0142a Podstawowa Nr 2",
                "addr:country": "PL",
                "addr:postcode": "43-365",
                "addr:city": "Wilkowice",
                "addr:street": "ul. Szkolna",
                "addr:housenumber": "8",
                "addr:teryt:simc": 21970,
                "addr:teryt:sym_ul": 76612,
                "contact:phone": "+48 338171379",
                "contact:email": "sekretariat@gimwilk.lap.pl",
                "contact:website": "http:\/\/www.sp2wilkowice.pl",
                "ref:regon": "368051274",
                "operator": "Gmina Wilkowice",
                "operator:type": "government",
                "amenity": "school"
            }
        },
        {
            "id": 126786,
            "type": "Feature",
            "geometry": {
                "type": "Point",
                "coordinates": [
                    19.06429,
                    49.74694
                ]
            },
            "properties": {
                "ref:rspo": 126786,
                "official_name": "Niepubliczne Przedszkole J\u0119zykowe \"Mali Odkrywcy\"",
                "name": "Niepubliczne Przedszkole J\u0119zykowe \"Mali Odkrywcy\"",
                "addr:country": "PL",
                "addr:postcode": "43-360",
                "addr:city": "Meszna",
                "addr:street": "ul. Handlowa",
                "addr:housenumber": "17",
                "addr:teryt:simc": 6507,
                "addr:teryt:sym_ul": 76606,
                "contact:phone": "+48 338231818",
                "contact:email": "sekretariat@przedszkolemeszna.pl",
                "contact:website": "http:\/\/przedszkolemeszna.pl",
                "ref:regon": "360729854",
                "operator": "Dorota Pielesz",
                "operator:type": "private",
                "amenity": "kindergarten"
            }
        },
        {
            "id": 56520,
            "type": "Feature",
            "geometry": {
                "type": "Point",
                "coordinates": [
                    19.0949,
                    49.75959
                ]
            },
            "properties": {
                "ref:rspo": 56520,
                "official_name": "Przedszkole Publiczne w Wilkowicach",
                "name": "Przedszkole Publiczne w Wilkowicach",
                "addr:country": "PL",
                "addr:postcode": "43-365",
                "addr:city": "Wilkowice",
                "addr:street": "ul. Stra\u017cacka",
                "addr:housenumber": "13",
                "addr:teryt:simc": 21271,
                "addr:teryt:sym_ul": 76612,
                "contact:phone": "+48 338171292",
                "contact:email": "ppwilkowice@poczta.fm",
                "contact:website": "http:\/\/www.przedszkole-wilkowice.pl",
                "ref:regon": "072346024",
                "ref:vatin": "PL9372112059",
                "operator": "Gmina Wilkowice",
                "operator:type": "government",
                "amenity": "kindergarten"
            }
        },
        {
            "id": 69929,
            "type": "Feature",
            "geometry": {
                "type": "Point",
                "coordinates": [
                    19.05721,
                    49.76064
                ]
            },
            "properties": {
                "ref:rspo": 69929,
                "official_name": "Przedszkole Domek Radosnych Biedronek",
                "name": "Przedszkole Domek Radosnych Biedronek",
                "addr:country": "PL",
                "addr:postcode": "43-360",
                "addr:city": "Bystra",
                "addr:street": "ul. Klimczoka",
                "addr:housenumber": "80",
                "addr:teryt:simc": 8543,
                "addr:teryt:sym_ul": 1000338,
                "contact:phone": "+48 518256288",
                "contact:email": "kasia22050@buziaczek.pl",
                "contact:website": "http:\/\/www.domekradosnychbiedronek.pl",
                "ref:regon": "243090696",
                "operator": "Katarzyna Guzik",
                "operator:type": "private",
                "amenity": "kindergarten"
            }
        },
        {
            "id": 56516,
            "type": "Feature",
            "geometry": {
                "type": "Point",
                "coordinates": [
                    19.05989,
                    49.76097
                ]
            },
            "properties": {
                "isced:level": "1;2",
                "ref:rspo": 56516,
                "official_name": "Szko\u0142a Podstawowa Nr 1 im.syn\u00f3w Pu\u0142ku w Bystrej",
                "name": "Szko\u0142a Podstawowa Nr 1 im.syn\u00f3w Pu\u0142ku w Bystrej",
                "addr:country": "PL",
                "addr:postcode": "43-360",
                "addr:city": "Bystra",
                "addr:street": "ul. Klimczoka",
                "addr:housenumber": "68",
                "addr:teryt:simc": 8543,
                "addr:teryt:sym_ul": 1000338,
                "contact:phone": "+48 338171222",
                "contact:email": "spbystra@gmail.com",
                "contact:website": "http:\/\/www.sp1bystra.pl",
                "ref:regon": "070688358",
                "ref:vatin": "PL9372112119",
                "operator": "Gmina Wilkowice",
                "operator:type": "government",
                "amenity": "school"
            }
        },
        {
            "id": 130767,
            "type": "Feature",
            "geometry": {
                "type": "Point",
                "coordinates": [
                    19.09152,
                    49.76114
                ]
            },
            "properties": {
                "ref:rspo": 130767,
                "official_name": "Niepubliczne Przedszkole M\u0105dra S\u00f3wka",
                "name": "Niepubliczne Przedszkole M\u0105dra S\u00f3wka",
                "addr:country": "PL",
                "addr:postcode": "43-365",
                "addr:city": "Wilkowice",
                "addr:street": "ul. \u017bywiecka",
                "addr:housenumber": "89",
                "addr:teryt:simc": 26640,
                "addr:teryt:sym_ul": 76612,
                "contact:phone": "+48 536494905",
                "contact:email": "biuro@madrasowka.edu.pl",
                "contact:website": "http:\/\/www.madrasowka.edu.pl",
                "ref:regon": "364493160",
                "operator": "Anna Rokowska",
                "operator:type": "private",
                "amenity": "kindergarten"
            }
        },
        {
            "id": 56518,
            "type": "Feature",
            "geometry": {
                "type": "Point",
                "coordinates": [
                    19.05688,
                    49.76141
                ]
            },
            "properties": {
                "ref:rspo": 56518,
                "official_name": "Przedszkole Publiczne w Bystrej",
                "name": "Przedszkole Publiczne w Bystrej",
                "addr:country": "PL",
                "addr:postcode": "43-360",
                "addr:city": "Bystra",
                "addr:street": "ul. Przedszkolna",
                "addr:housenumber": "3",
                "addr:teryt:simc": 17683,
                "addr:teryt:sym_ul": 1000338,
                "contact:phone": "+48 338171363",
                "contact:email": "ppbystra@op.pl",
                "contact:website": "http:\/\/www.przedszkole-bystra.pl",
                "ref:regon": "072345993",
                "ref:vatin": "PL9372112131",
                "operator": "Gmina Wilkowice",
                "operator:type": "government",
                "amenity": "kindergarten"
            }
        },
        {
            "id": 16037,
            "type": "Feature",
            "geometry": {
                "type": "Point",
                "coordinates": [
                    19.07029,
                    49.76262
                ]
            },
            "properties": {
                "ref:rspo": 16037,
                "official_name": "Biuro Organizacji Szkole\u0144 \"Ekspres\"",
                "name": "Biuro Organizacji Szkole\u0144 \"Ekspres\"",
                "addr:country": "PL",
                "addr:postcode": "43-360",
                "addr:city": "Bystra",
                "addr:street": "ul. Klimczoka",
                "addr:housenumber": "14",
                "addr:door": "14",
                "addr:teryt:simc": 8543,
                "addr:teryt:sym_ul": 1000338,
                "contact:phone": "+48 338170433",
                "contact:email": "szkolenia@ekspres.info",
                "contact:website": "http:\/\/www.ekspres.info",
                "ref:regon": "243043366",
                "ref:vatin": "PL9371600561",
                "operator": "Janina Kubica",
                "operator:type": "private",
                "fixme": "w zale\u017cno\u015bci od przedmiotu dzia\u0142alno\u015bci (np. amenity=training + training=*, amenity=dancing_school, amenity=language_school, amenity=music_school)"
            }
        },
        {
            "id": 56514,
            "type": "Feature",
            "geometry": {
                "type": "Point",
                "coordinates": [
                    19.0958599,
                    49.76277
                ]
            },
            "properties": {
                "isced:level": "1;2",
                "ref:rspo": 56514,
                "official_name": "Szko\u0142a Podstawowa Nr 1 im. W\u0142adys\u0142awa Jagie\u0142\u0142y",
                "name": "Szko\u0142a Podstawowa Nr 1",
                "addr:country": "PL",
                "addr:postcode": "43-365",
                "addr:city": "Wilkowice",
                "addr:street": "ul. Ko\u015bcielna",
                "addr:housenumber": "10",
                "addr:teryt:simc": 9546,
                "addr:teryt:sym_ul": 76612,
                "contact:phone": "+48 338271990",
                "contact:email": "sekretariat@spwj.edu.pl",
                "contact:website": "http:\/\/www.spwj.edu.pl",
                "ref:regon": "070688335",
                "ref:vatin": "PL9372111918",
                "operator": "Gmina Wilkowice",
                "operator:type": "government",
                "amenity": "school"
            }
        },
        {
            "id": 268597,
            "type": "Feature",
            "geometry": {
                "type": "Point",
                "coordinates": [
                    19.0956699,
                    49.76391
                ]
            },
            "properties": {
                "ref:rspo": 268597,
                "official_name": "Przedszkole Publiczne Zgromadzenia C\u00f3rek Bo\u017cej Mi\u0142o\u015bci im. Ludwiki Binder",
                "name": "Przedszkole Publiczne Zgromadzenia C\u00f3rek Bo\u017cej Mi\u0142o\u015bci",
                "addr:country": "PL",
                "addr:postcode": "43-365",
                "addr:city": "Wilkowice",
                "addr:street": "ul. Ko\u015bcielna",
                "addr:housenumber": "17",
                "addr:teryt:simc": 9546,
                "addr:teryt:sym_ul": 76612,
                "contact:phone": "+48 338103274",
                "contact:email": "przedszkolefcd@wp.pl",
                "contact:website": "http:\/\/www.przedszkolefcd.pl",
                "ref:regon": "381211411",
                "operator": "Zgromadzenie C\u00f3rek Bo\u017cej Mi\u0142o\u015bci-Dom Zakonny W Bielsku-Bia\u0142ej",
                "operator:type": "religious",
                "amenity": "kindergarten"
            }
        },
        {
            "id": 262682,
            "type": "Feature",
            "geometry": {
                "type": "Point",
                "coordinates": [
                    19.0725608,
                    49.7735
                ]
            },
            "properties": {
                "isced:level": "1;2",
                "ref:rspo": 262682,
                "official_name": "Szko\u0142a Podstawowa Nr 2 im. Juliana Fa\u0142ata w Bystrej Z Oddzia\u0142ami Sportowymi",
                "name": "Szko\u0142a Podstawowa Nr 2",
                "addr:country": "PL",
                "addr:postcode": "43-360",
                "addr:city": "Bystra",
                "addr:street": "ul. Szczyrkowska",
                "addr:housenumber": "2",
                "addr:teryt:simc": 21880,
                "addr:teryt:sym_ul": 1000338,
                "contact:phone": "+48 338171336",
                "contact:email": "sp2bystra@onet.pl",
                "contact:website": "http:\/\/www.sp2bystra.pl",
                "ref:regon": "368051200",
                "operator": "Gmina Wilkowice",
                "operator:type": "government",
                "amenity": "school"
            }
        }
    ]
}