{
    "type": "FeatureCollection",
    "features": [
        {
            "id": 272923,
            "type": "Feature",
            "geometry": {
                "type": "Point",
                "coordinates": [
                    19.22231,
                    49.80092
                ]
            },
            "properties": {
                "isced:level": "1;2",
                "ref:rspo": 272923,
                "official_name": "Szko\u0142a Podstawowa Nr 2 im. Jana Paw\u0142a II w Por\u0105bce",
                "name": "Szko\u0142a Podstawowa Nr 2",
                "addr:country": "PL",
                "addr:postcode": "43-353",
                "addr:city": "Por\u0105bka",
                "addr:street": "Kozubnicka",
                "addr:housenumber": "5",
                "addr:teryt:simc": 31433,
                "addr:teryt:sym_ul": 64773,
                "contact:phone": "+48 338106032",
                "contact:email": "sekretariat@porabka.spsk.pl",
                "contact:website": "http:\/\/www.porabka.spsk.pl",
                "ref:regon": "384320454",
                "operator": "Stowarzyszenie Przyjaci\u00f3\u0142 Szk\u00f3\u0142 Katolickich",
                "operator:type": "ngo",
                "amenity": "school"
            }
        },
        {
            "id": 15515,
            "type": "Feature",
            "geometry": {
                "type": "Point",
                "coordinates": [
                    19.23386,
                    49.81203
                ]
            },
            "properties": {
                "ref:rspo": 15515,
                "official_name": "Dom Wczas\u00f3w Dzieci\u0119cych w Por\u0105bce",
                "name": "Dom Wczas\u00f3w Dzieci\u0119cych w Por\u0105bce",
                "addr:country": "PL",
                "addr:postcode": "43-353",
                "addr:city": "Por\u0105bka",
                "addr:street": "Wielka Puszcza",
                "addr:housenumber": "91",
                "addr:teryt:simc": 31436,
                "addr:teryt:sym_ul": 64773,
                "contact:phone": "+48 338106004",
                "contact:email": "dwd.porabka@interia.pl",
                "contact:website": "http:\/\/dwdporabka.pl",
                "ref:regon": "000197600",
                "ref:vatin": "PL9371109693",
                "operator": "Powiat Bielski",
                "operator:type": "government",
                "leisure": "resort"
            }
        },
        {
            "id": 5862,
            "type": "Feature",
            "geometry": {
                "type": "Point",
                "coordinates": [
                    19.2197,
                    49.82041
                ]
            },
            "properties": {
                "isced:level": "1;2",
                "ref:rspo": 5862,
                "official_name": "Szko\u0142a Podstawowa Nr 1 im.m.kopernika w Por\u0105bce",
                "name": "Szko\u0142a Podstawowa Nr 1 im.m.kopernika w Por\u0105bce",
                "addr:country": "PL",
                "addr:postcode": "43-353",
                "addr:city": "Por\u0105bka",
                "addr:street": "Krakowska",
                "addr:housenumber": "4",
                "addr:teryt:simc": 9796,
                "addr:teryt:sym_ul": 64773,
                "contact:phone": "+48 338106010",
                "contact:email": "sekretariat@spporabka.pl",
                "contact:website": "http:\/\/www.spporabka.pl",
                "ref:regon": "070690272",
                "ref:vatin": "PL9371737231",
                "operator": "Gmina Por\u0105bka",
                "operator:type": "government",
                "amenity": "school"
            }
        },
        {
            "id": 5863,
            "type": "Feature",
            "geometry": {
                "type": "Point",
                "coordinates": [
                    19.21952,
                    49.82071
                ]
            },
            "properties": {
                "ref:rspo": 5863,
                "official_name": "Niepubliczne Przedszkole Nr 2 - Ewa Froszt\u0119ga-Walu\u015b",
                "name": "Niepubliczne Przedszkole Nr 2 - Ewa Froszt\u0119ga-Walu\u015b",
                "addr:country": "PL",
                "addr:postcode": "43-353",
                "addr:city": "Por\u0105bka",
                "addr:street": "Krakowska",
                "addr:housenumber": "8",
                "addr:teryt:simc": 9796,
                "addr:teryt:sym_ul": 64773,
                "contact:phone": "+48 338106335",
                "contact:email": "ewaprzedszkole2@o2.pl",
                "contact:website": "http:\/\/przedszkoleporabka.pl\/",
                "ref:regon": "243023990",
                "ref:vatin": "PL6811277922",
                "operator": "Ewa Froszt\u0119ga-Walu\u015b",
                "operator:type": "private",
                "amenity": "kindergarten"
            }
        },
        {
            "id": 270843,
            "type": "Feature",
            "geometry": {
                "type": "Point",
                "coordinates": [
                    19.23958,
                    49.83503
                ]
            },
            "properties": {
                "ref:rspo": 270843,
                "official_name": "Niepubliczne Przedszkole \"Jag\u00f3dka\" - Animaloterapia Paulina Podziewska",
                "name": "Niepubliczne Przedszkole \"Jag\u00f3dka\" - Animaloterapia Paulina Podziewska",
                "addr:country": "PL",
                "addr:postcode": "43-353",
                "addr:city": "Por\u0105bka",
                "addr:street": "Bukowska",
                "addr:housenumber": "139",
                "addr:teryt:simc": 2396,
                "addr:teryt:sym_ul": 64773,
                "contact:email": "przedszkolejagodka5@gmail.com",
                "ref:regon": "382955303",
                "operator": "Paulina Podziewska",
                "operator:type": "private",
                "amenity": "kindergarten"
            }
        },
        {
            "id": 123480,
            "type": "Feature",
            "geometry": {
                "type": "Point",
                "coordinates": [
                    19.21571,
                    49.84736
                ]
            },
            "properties": {
                "ref:rspo": 123480,
                "official_name": "Publiczne Przedszkole w Kobiernicach",
                "name": "Publiczne Przedszkole w Kobiernicach",
                "addr:country": "PL",
                "addr:postcode": "43-356",
                "addr:city": "Kobiernice",
                "addr:street": "\u017bywiecka",
                "addr:housenumber": "8a",
                "addr:teryt:simc": 26640,
                "addr:teryt:sym_ul": 64661,
                "contact:phone": "+48 338108698",
                "contact:email": "sekretariat@przedszkole-kobiernice.pl",
                "ref:regon": "243611439",
                "operator": "Gmina Por\u0105bka",
                "operator:type": "government",
                "amenity": "kindergarten"
            }
        },
        {
            "id": 262839,
            "type": "Feature",
            "geometry": {
                "type": "Point",
                "coordinates": [
                    19.26532,
                    49.8474
                ]
            },
            "properties": {
                "isced:level": "1;2",
                "ref:rspo": 262839,
                "official_name": "Szko\u0142a Podstawowa Nr 2 im. Kard. K. Wojty\u0142y w Cza\u0144cu",
                "name": "Szko\u0142a Podstawowa Nr 2",
                "addr:country": "PL",
                "addr:postcode": "43-354",
                "addr:city": "Czaniec",
                "addr:street": "Kardyna\u0142a Karola Wojty\u0142y",
                "addr:housenumber": "119",
                "addr:teryt:simc": 24648,
                "addr:teryt:sym_ul": 64431,
                "contact:phone": "+48 338109111",
                "contact:email": "sp2czaniec@gmail.com",
                "contact:website": "http:\/\/www.sp2czaniec.edu.pl",
                "ref:regon": "368063030",
                "operator": "Gmina Por\u0105bka",
                "operator:type": "government",
                "amenity": "school"
            }
        },
        {
            "id": 92865,
            "type": "Feature",
            "geometry": {
                "type": "Point",
                "coordinates": [
                    19.1936,
                    49.84975
                ]
            },
            "properties": {
                "isced:level": "1;2",
                "ref:rspo": 92865,
                "official_name": "Szko\u0142a Podstawowa Z Oddzia\u0142ami Przedszkolnymi w Bujakowie",
                "name": "Szko\u0142a Podstawowa Z Oddzia\u0142ami Przedszkolnymi w Bujakowie",
                "addr:country": "PL",
                "addr:postcode": "43-356",
                "addr:city": "Bujak\u00f3w",
                "addr:street": "Szkolna",
                "addr:housenumber": "13",
                "addr:teryt:simc": 21970,
                "addr:teryt:sym_ul": 64371,
                "contact:phone": "+48 338108000",
                "contact:email": "sekretariat@zsbujakow.pl",
                "contact:website": "http:\/\/zs.bujakow.pl",
                "ref:regon": "072901106",
                "ref:vatin": "PL9372571229",
                "operator": "Gmina Por\u0105bka",
                "operator:type": "government",
                "amenity": "school"
            }
        },
        {
            "id": 262713,
            "type": "Feature",
            "geometry": {
                "type": "Point",
                "coordinates": [
                    19.25518,
                    49.84988
                ]
            },
            "properties": {
                "ref:rspo": 262713,
                "official_name": "Publiczne Przedszkole Nr 2 w Cza\u0144cu",
                "name": "Publiczne Przedszkole Nr 2 w Cza\u0144cu",
                "addr:country": "PL",
                "addr:postcode": "43-354",
                "addr:city": "Czaniec",
                "addr:street": "Kardyna\u0142a Karola Wojty\u0142y",
                "addr:housenumber": "67",
                "addr:teryt:simc": 24648,
                "addr:teryt:sym_ul": 64431,
                "contact:phone": "+48 338109128",
                "contact:email": "przedszkole2czaniec@gmail.com",
                "contact:website": "http:\/\/przedszkole2czaniec.pl",
                "ref:regon": "368052285",
                "ref:vatin": "PL9372696882",
                "operator": "Gmina Por\u0105bka",
                "operator:type": "government",
                "amenity": "kindergarten"
            }
        },
        {
            "id": 5855,
            "type": "Feature",
            "geometry": {
                "type": "Point",
                "coordinates": [
                    19.24708,
                    49.85013
                ]
            },
            "properties": {
                "isced:level": "1;2",
                "ref:rspo": 5855,
                "official_name": "Szko\u0142a Podstawowa Nr 1 im.h.sienkiewicza w Cza\u0144cu",
                "name": "Szko\u0142a Podstawowa Nr 1 im.h.sienkiewicza w Cza\u0144cu",
                "addr:country": "PL",
                "addr:postcode": "43-354",
                "addr:city": "Czaniec",
                "addr:street": "Kardyna\u0142a Karola Wojty\u0142y",
                "addr:housenumber": "32",
                "addr:teryt:simc": 24648,
                "addr:teryt:sym_ul": 64431,
                "contact:phone": "+48 338109104",
                "contact:email": "spczaniec@poczta.onet.pl",
                "contact:website": "http:\/\/www.czaniec-szkola.pl",
                "ref:regon": "070690237",
                "ref:vatin": "PL9371737254",
                "operator": "Gmina Por\u0105bka",
                "operator:type": "government",
                "amenity": "school"
            }
        },
        {
            "id": 5860,
            "type": "Feature",
            "geometry": {
                "type": "Point",
                "coordinates": [
                    19.24057,
                    49.8514399
                ]
            },
            "properties": {
                "ref:rspo": 5860,
                "official_name": "Publiczne Przedszkole Nr 1 w Cza\u0144cu",
                "name": "Publiczne Przedszkole Nr 1 w Cza\u0144cu",
                "addr:country": "PL",
                "addr:postcode": "43-354",
                "addr:city": "Czaniec",
                "addr:street": "Kr\u00f3lewska",
                "addr:housenumber": "16",
                "addr:teryt:simc": 9987,
                "addr:teryt:sym_ul": 64431,
                "contact:phone": "+48 338109509",
                "contact:email": "kancelaria@czaniecprzedszkole1.eu",
                "contact:website": "http:\/\/www.czaniecprzedszkole1.eu",
                "ref:regon": "072338622",
                "ref:vatin": "PL9371804022",
                "operator": "Gmina Por\u0105bka",
                "operator:type": "government",
                "amenity": "kindergarten"
            }
        },
        {
            "id": 13395,
            "type": "Feature",
            "geometry": {
                "type": "Point",
                "coordinates": [
                    19.19352,
                    49.85205
                ]
            },
            "properties": {
                "ref:rspo": 13395,
                "official_name": "Niepubliczne Przedszkole \"Im. Kubusia Puchatka\" w Bujakowie",
                "name": "Niepubliczne Przedszkole \"Im. Kubusia Puchatka\" w Bujakowie",
                "addr:country": "PL",
                "addr:postcode": "43-356",
                "addr:city": "Bujak\u00f3w",
                "addr:street": "Bielska",
                "addr:housenumber": "22",
                "addr:teryt:simc": 1279,
                "addr:teryt:sym_ul": 64371,
                "contact:phone": "+48 338108157",
                "contact:email": "pkubuspuchatek@gmail.com",
                "ref:regon": "243037414",
                "ref:vatin": "PL5492183692",
                "operator": "Izabella Urba\u0144czyk-Wi\u0119cek",
                "operator:type": "private",
                "amenity": "kindergarten"
            }
        },
        {
            "id": 92868,
            "type": "Feature",
            "geometry": {
                "type": "Point",
                "coordinates": [
                    19.21574,
                    49.85337
                ]
            },
            "properties": {
                "isced:level": "1;2",
                "ref:rspo": 92868,
                "official_name": "Szko\u0142a Podstawowa im. Tadeusza Ko\u015bciuszki w Kobiernicach",
                "name": "Szko\u0142a Podstawowa",
                "addr:country": "PL",
                "addr:postcode": "43-356",
                "addr:city": "Kobiernice",
                "addr:street": "Szkolna",
                "addr:housenumber": "1",
                "addr:teryt:simc": 21970,
                "addr:teryt:sym_ul": 64661,
                "contact:phone": "+48 338108788",
                "contact:email": "sekretariat@spkobiernice.pl",
                "contact:website": "http:\/\/spkobiernice.pl",
                "ref:regon": "070690243",
                "ref:vatin": "PL9371737171",
                "operator": "Gmina Por\u0105bka",
                "operator:type": "government",
                "amenity": "school"
            }
        }
    ]
}