{
    "type": "FeatureCollection",
    "features": [
        {
            "id": 41982,
            "type": "Feature",
            "geometry": {
                "type": "Point",
                "coordinates": [
                    14.93575,
                    53.32749
                ]
            },
            "properties": {
                "isced:level": "1;2",
                "ref:rspo": 41982,
                "official_name": "Szko\u0142a Podstawowa w Kunowie im.jana Brzechwy",
                "name": "Szko\u0142a Podstawowa w Kunowie im.jana Brzechwy",
                "addr:postcode": "73-110",
                "addr:place": "Kunowo",
                "addr:housenumber": "45a",
                "addr:city:simc": 777591,
                "phone": "+48 915610016",
                "email": "sp@kunowo.edu.pl",
                "website": "http:\/\/www.kunowo.edu.pl",
                "ref:regon": "811043214",
                "ref:vatin": "PL8542040661",
                "operator": "Gmina Kobylanka",
                "operator:type": "government",
                "amenity": "school"
            }
        },
        {
            "id": 43393,
            "type": "Feature",
            "geometry": {
                "type": "Point",
                "coordinates": [
                    14.85943,
                    53.33674
                ]
            },
            "properties": {
                "ref:rspo": 43393,
                "official_name": "Przedszkole Niepubliczne Nutka",
                "name": "Przedszkole Niepubliczne Nutka",
                "addr:postcode": "73-108",
                "addr:city": "Kobylanka",
                "addr:street": "Osiedle Zalesie",
                "addr:housenumber": "96b",
                "addr:city:simc": 777585,
                "addr:street:sym_ul": 33781,
                "phone": "+48 505648473",
                "email": "maja@przedszkolenutka.eu",
                "website": "http:\/\/www.przedszkolenutka.eu",
                "ref:regon": "321287585",
                "ref:vatin": "PL9551426768",
                "operator": "Fundacja Harmonia",
                "operator:type": "ngo",
                "amenity": "kindergarten"
            }
        },
        {
            "id": 43382,
            "type": "Feature",
            "geometry": {
                "type": "Point",
                "coordinates": [
                    14.8679,
                    53.3430899
                ]
            },
            "properties": {
                "isced:level": "1;2",
                "ref:rspo": 43382,
                "official_name": "Szko\u0142a Podstawowa im.j\u00f3zefa Mozolewskiego w Kobylance",
                "name": "Szko\u0142a Podstawowa im.j\u00f3zefa Mozolewskiego w Kobylance",
                "addr:postcode": "73-108",
                "addr:city": "Kobylanka",
                "addr:street": "Szkolna",
                "addr:housenumber": "10",
                "addr:city:simc": 777585,
                "addr:street:sym_ul": 21970,
                "phone": "+48 915610427",
                "email": "sekretariat@kobylanka.edu.pl",
                "website": "http:\/\/www.kobylanka.edupage.org",
                "ref:regon": "000557524",
                "ref:vatin": "PL8542040678",
                "operator": "Gmina Kobylanka",
                "operator:type": "government",
                "amenity": "school"
            }
        },
        {
            "id": 273960,
            "type": "Feature",
            "geometry": {
                "type": "Point",
                "coordinates": [
                    14.90035,
                    53.35267
                ]
            },
            "properties": {
                "ref:rspo": 273960,
                "official_name": "Punkt Przedszkolny Weso\u0142y Domek",
                "name": "Punkt Przedszkolny Weso\u0142y Domek",
                "addr:postcode": "73-108",
                "addr:city": "Morzyczyn",
                "addr:street": "Szafirowa",
                "addr:housenumber": "20",
                "addr:city:simc": 777600,
                "addr:street:sym_ul": 21712,
                "email": "przedszkolewesolydomek@gmail.com",
                "website": "http:\/\/www.przedszkolewesolydomek.pl",
                "ref:regon": "384917420",
                "operator": "Monika Przyg\u00f3rzewska",
                "operator:type": "private",
                "amenity": "kindergarten"
            }
        },
        {
            "id": 122663,
            "type": "Feature",
            "geometry": {
                "type": "Point",
                "coordinates": [
                    14.93827,
                    53.35356
                ]
            },
            "properties": {
                "ref:rspo": 122663,
                "official_name": "Ma\u0142e Talenty Przedszkole Niepubliczne",
                "name": "Ma\u0142e Talenty Przedszkole Niepubliczne",
                "addr:postcode": "73-108",
                "addr:city": "Zieleniewo",
                "addr:street": "Boczna",
                "addr:housenumber": "2",
                "addr:city:simc": 777705,
                "addr:street:sym_ul": 1528,
                "phone": "+48 601167167",
                "email": "przedszkole@maletalenty.com",
                "ref:regon": "321500228",
                "ref:vatin": "PL8541894711",
                "operator": "Karina Sokoli\u0144ska",
                "operator:type": "private",
                "amenity": "kindergarten"
            }
        },
        {
            "id": 55148,
            "type": "Feature",
            "geometry": {
                "type": "Point",
                "coordinates": [
                    14.86171,
                    53.36712
                ]
            },
            "properties": {
                "isced:level": "1;2",
                "ref:rspo": 55148,
                "official_name": "Szko\u0142a Podstawowa w Reptowie",
                "name": "Szko\u0142a Podstawowa w Reptowie",
                "addr:postcode": "73-108",
                "addr:place": "Reptowo",
                "addr:housenumber": "96a",
                "addr:city:simc": 777680,
                "phone": "+48 915610916",
                "email": "reptowo@interia.pl",
                "website": "http:\/\/www.szkola.reptowo.pl",
                "ref:regon": "001223481",
                "operator": "Gmina Kobylanka",
                "operator:type": "government",
                "amenity": "school"
            }
        },
        {
            "id": 132098,
            "type": "Feature",
            "geometry": {
                "type": "Point",
                "coordinates": [
                    14.86171,
                    53.36709
                ]
            },
            "properties": {
                "ref:rspo": 132098,
                "official_name": "Przedszkole Publiczne Fundacji \"Szczeci\u0144ska\"",
                "name": "Przedszkole Publiczne Fundacji \"Szczeci\u0144ska\"",
                "addr:postcode": "73-108",
                "addr:place": "Reptowo",
                "addr:housenumber": "96a",
                "addr:city:simc": 777680,
                "phone": "+48 918851842",
                "email": "reptowo@szczecinska.eu",
                "ref:regon": "365458408",
                "ref:vatin": "PL8513012136",
                "operator": "Fundacja \"Szczeci\u0144ska\"",
                "operator:type": "ngo",
                "amenity": "kindergarten"
            }
        }
    ]
}