{
    "type": "FeatureCollection",
    "features": [
        {
            "id": 5480,
            "type": "Feature",
            "geometry": {
                "type": "Point",
                "coordinates": [
                    15.38642,
                    53.45814
                ]
            },
            "properties": {
                "isced:level": "3",
                "ref:rspo": 5480,
                "official_name": "Technikum Informatyczne w Kamiennym Mo\u015bcie",
                "name": "Technikum Informatyczne w Kamiennym Mo\u015bcie",
                "addr:country": "PL",
                "addr:postcode": "73-120",
                "addr:place": "Kamienny Most",
                "addr:housenumber": "17",
                "addr:teryt:sym_ul": 773386,
                "contact:phone": "+48 914222278",
                "contact:email": "sekretariat@irszczecin.pl",
                "ref:regon": "321265810",
                "operator": "Dane Do Uzupe\u0142nienia",
                "operator:type": "private",
                "amenity": "school"
            }
        },
        {
            "id": 5481,
            "type": "Feature",
            "geometry": {
                "type": "Point",
                "coordinates": [
                    15.38642,
                    53.45811
                ]
            },
            "properties": {
                "isced:level": "3",
                "ref:rspo": 5481,
                "official_name": "Bran\u017cowa Szko\u0142a I Stopnia w Kamiennym Mo\u015bcie",
                "name": "Bran\u017cowa Szko\u0142a I Stopnia w Kamiennym Mo\u015bcie",
                "addr:country": "PL",
                "addr:postcode": "73-120",
                "addr:place": "Kamienny Most",
                "addr:housenumber": "17",
                "addr:teryt:sym_ul": 773386,
                "contact:phone": "+48 914222278",
                "contact:email": "sekretariat@irszczecin.pl",
                "ref:regon": "321265827",
                "operator": "Izba Rzemie\u015blnicza Ma\u0142ej I \u015aredniej Przedsi\u0119biorczo\u015bci",
                "operator:type": "cooperative",
                "amenity": "school"
            }
        },
        {
            "id": 24290,
            "type": "Feature",
            "geometry": {
                "type": "Point",
                "coordinates": [
                    15.3335,
                    53.45963
                ]
            },
            "properties": {
                "ref:rspo": 24290,
                "official_name": "Zesp\u00f3\u0142 Plac\u00f3wek O\u015bwiatowych w Chociwlu",
                "name": "Zesp\u00f3\u0142 Plac\u00f3wek O\u015bwiatowych w Chociwlu",
                "addr:country": "PL",
                "addr:postcode": "73-120",
                "addr:city": "Chociwel",
                "addr:street": "ul. Henryka D\u0105browskiego",
                "addr:housenumber": "15",
                "addr:teryt:simc": 3678,
                "addr:teryt:sym_ul": 978757,
                "contact:phone": "+48 915622259",
                "contact:email": "sekretariat@zpochociwel.net",
                "ref:regon": "320322948",
                "ref:vatin": "PL8542308371",
                "operator": "Gmina Chociwel",
                "operator:type": "government",
                "landuse": "education",
                "fixme": "amenity=school, amenity=college albo landuse=education w zale\u017cno\u015bci od tego, jakie plac\u00f3wki wchodz\u0105 w sk\u0142ad zespo\u0142u. Sprawd\u017a, kiedy stosowa\u0107 amenity=* a kiedy landuse=education.",
                "note": "Children RSPO: 74766;74842"
            }
        },
        {
            "id": 74766,
            "type": "Feature",
            "geometry": {
                "type": "Point",
                "coordinates": [
                    15.3335,
                    53.459599999999995
                ]
            },
            "properties": {
                "ref:rspo": 74766,
                "official_name": "Przedszkole Miejskie w Chociwlu",
                "name": "Przedszkole Miejskie w Chociwlu",
                "addr:country": "PL",
                "addr:postcode": "73-120",
                "addr:city": "Chociwel",
                "addr:street": "ul. Henryka D\u0105browskiego",
                "addr:housenumber": "15",
                "addr:teryt:simc": 3678,
                "addr:teryt:sym_ul": 978757,
                "contact:phone": "+48 915622259",
                "contact:email": "sekretariat@zpochociwel.net",
                "ref:regon": "001003940",
                "operator": "Gmina Chociwel",
                "operator:type": "government",
                "amenity": "kindergarten",
                "note": "Parent RSPO: 24290"
            }
        },
        {
            "id": 74842,
            "type": "Feature",
            "geometry": {
                "type": "Point",
                "coordinates": [
                    15.3335,
                    53.45957
                ]
            },
            "properties": {
                "isced:level": "1;2",
                "ref:rspo": 74842,
                "official_name": "Szko\u0142a Podstawowa im.zdobywc\u00f3w Wa\u0142u Pomorskiego w Chociwlu",
                "name": "Szko\u0142a Podstawowa im.zdobywc\u00f3w Wa\u0142u Pomorskiego w Chociwlu",
                "addr:country": "PL",
                "addr:postcode": "73-120",
                "addr:city": "Chociwel",
                "addr:street": "ul. Henryka D\u0105browskiego",
                "addr:housenumber": "15",
                "addr:teryt:simc": 3678,
                "addr:teryt:sym_ul": 978757,
                "contact:phone": "+48 915622259",
                "contact:email": "sekretariat@zpochociwel.net",
                "ref:regon": "001210225",
                "operator": "Gmina Chociwel",
                "operator:type": "government",
                "amenity": "school",
                "note": "Parent RSPO: 24290"
            }
        }
    ]
}