{
    "type": "FeatureCollection",
    "features": [
        {
            "id": 87810,
            "type": "Feature",
            "geometry": {
                "type": "Point",
                "coordinates": [
                    15.23704,
                    53.1498
                ]
            },
            "properties": {
                "isced:level": "1;2",
                "ref:rspo": 87810,
                "official_name": "Szko\u0142a Podstawowa w Dobropolu",
                "name": "Szko\u0142a Podstawowa w Dobropolu",
                "addr:postcode": "73-115",
                "addr:place": "Dobropole Pyrzyckie",
                "addr:housenumber": "7",
                "addr:city:simc": 774517,
                "phone": "+48 915636723",
                "email": "sp.dobropole@op.pl",
                "website": "http:\/\/www.sp-dobropole.neostrada.pl",
                "ref:regon": "001223564",
                "operator": "Gmina Dolice",
                "operator:type": "government",
                "amenity": "school"
            }
        },
        {
            "id": 70546,
            "type": "Feature",
            "geometry": {
                "type": "Point",
                "coordinates": [
                    15.28257,
                    53.1593
                ]
            },
            "properties": {
                "isced:level": "1;2",
                "ref:rspo": 70546,
                "official_name": "Szko\u0142a Podstawowa w S\u0105dowie",
                "name": "Szko\u0142a Podstawowa w S\u0105dowie",
                "addr:postcode": "73-115",
                "addr:place": "S\u0105d\u00f3w",
                "addr:housenumber": "30",
                "addr:city:simc": 774641,
                "phone": "+48 915640038",
                "email": "spsadow@o2.pl",
                "ref:regon": "001248848",
                "operator": "Gmina Dolice",
                "operator:type": "government",
                "amenity": "school"
            }
        },
        {
            "id": 69826,
            "type": "Feature",
            "geometry": {
                "type": "Point",
                "coordinates": [
                    15.2028,
                    53.18855
                ]
            },
            "properties": {
                "isced:level": "1;2",
                "ref:rspo": 69826,
                "official_name": "Szko\u0142a Podstawowa w Dolicach",
                "name": "Szko\u0142a Podstawowa w Dolicach",
                "addr:postcode": "73-115",
                "addr:city": "Dolice",
                "addr:street": "Ogrodowa",
                "addr:housenumber": "46",
                "addr:city:simc": 774530,
                "addr:street:sym_ul": 14834,
                "phone": "+48 915640027",
                "email": "sekretariat@spdolice.dlaedu.pl",
                "website": "https:\/\/spdolice.edupage.org",
                "ref:regon": "810951553",
                "operator": "Gmina Dolice",
                "operator:type": "government",
                "amenity": "school"
            }
        },
        {
            "id": 121729,
            "type": "Feature",
            "geometry": {
                "type": "Point",
                "coordinates": [
                    15.20289,
                    53.19059
                ]
            },
            "properties": {
                "ref:rspo": 121729,
                "official_name": "Przedszkole Bajkowy \u015awiat",
                "name": "Przedszkole Bajkowy \u015awiat",
                "addr:postcode": "73-115",
                "addr:city": "Dolice",
                "addr:street": "Wiejska",
                "addr:housenumber": "1",
                "addr:city:simc": 774530,
                "addr:street:sym_ul": 24048,
                "phone": "+48 602374344",
                "email": "asiazawadzinska@o2.pl",
                "ref:regon": "321477989",
                "operator": "Dane Do Uzupe\u0142nienia",
                "operator:type": "private",
                "amenity": "kindergarten"
            }
        },
        {
            "id": 69877,
            "type": "Feature",
            "geometry": {
                "type": "Point",
                "coordinates": [
                    15.19043,
                    53.25663
                ]
            },
            "properties": {
                "isced:level": "1;2",
                "ref:rspo": 69877,
                "official_name": "Szko\u0142a Podstawowa im. Olimpijczyk\u00f3w Polskich w Rzeplinie",
                "name": "Szko\u0142a Podstawowa",
                "addr:postcode": "73-115",
                "addr:place": "Rzeplino",
                "addr:housenumber": "62",
                "addr:city:simc": 774635,
                "phone": "+48 915640030",
                "email": "sekretariat@sprzeplino.pl",
                "website": "http:\/\/sprzeplino.pl",
                "ref:regon": "001223541",
                "operator": "Gmina Dolice",
                "operator:type": "government",
                "amenity": "school"
            }
        }
    ]
}