{
    "type": "FeatureCollection",
    "features": [
        {
            "id": 15795,
            "type": "Feature",
            "geometry": {
                "type": "Point",
                "coordinates": [
                    15.02561,
                    53.29191
                ]
            },
            "properties": {
                "isced:level": "1;2",
                "ref:rspo": 15795,
                "official_name": "Szko\u0142a Podstawowa nr 8 im. Miko\u0142aja Kopernika",
                "name": "Szko\u0142a Podstawowa nr 8",
                "addr:postcode": "73-102",
                "addr:city": "Stargard",
                "addr:street": "Romualda Traugutta",
                "addr:housenumber": "16",
                "addr:city:simc": 979596,
                "addr:street:sym_ul": 22965,
                "phone": "+48 915760661",
                "email": "sekretariat@sp8.stargard.edu.pl",
                "website": "http:\/\/sp8.stargard.edupage.org",
                "ref:regon": "000561537",
                "ref:vatin": "PL8541013515",
                "operator": "Gmina-Miasto Stargard",
                "operator:type": "government",
                "amenity": "school"
            }
        },
        {
            "id": 127195,
            "type": "Feature",
            "geometry": {
                "type": "Point",
                "coordinates": [
                    15.02561,
                    53.29188
                ]
            },
            "properties": {
                "ref:rspo": 127195,
                "official_name": "Niepubliczne Przedszkole \"S\u0142oneczko\" Towarzystwa Przyjaci\u00f3\u0142 Dzieci w Stargardzie",
                "name": "Niepubliczne Przedszkole \"S\u0142oneczko\" Towarzystwa Przyjaci\u00f3\u0142 Dzieci w Stargardzie",
                "addr:postcode": "73-110",
                "addr:city": "Stargard",
                "addr:street": "Romualda Traugutta",
                "addr:housenumber": "16",
                "addr:door": "1",
                "addr:city:simc": 979596,
                "addr:street:sym_ul": 22965,
                "phone": "+48 914351128",
                "ref:regon": "361189064",
                "operator": "Towarzystwo Przyjaci\u00f3\u0142 Dzieci Zachodniopomorski Oddzia\u0142 Regionalny W Szczecinie",
                "operator:type": "ngo",
                "amenity": "kindergarten"
            }
        },
        {
            "id": 278928,
            "type": "Feature",
            "geometry": {
                "type": "Point",
                "coordinates": [
                    15.02609,
                    53.29329
                ]
            },
            "properties": {
                "ref:rspo": 278928,
                "official_name": "Integracyjny Punkt Przedszkolny \"Smerfu\u015b\" w Stargardzie",
                "name": "Integracyjny Punkt Przedszkolny \"Smerfu\u015b\" w Stargardzie",
                "addr:postcode": "73-110",
                "addr:city": "Stargard",
                "addr:street": "Juliana Ursyna Niemcewicza",
                "addr:housenumber": "7",
                "addr:city:simc": 979596,
                "addr:street:sym_ul": 14177,
                "phone": "+48 696086174",
                "ref:regon": "520220070",
                "operator": "Anna Kuzak",
                "operator:type": "private",
                "amenity": "kindergarten"
            }
        },
        {
            "id": 5495,
            "type": "Feature",
            "geometry": {
                "type": "Point",
                "coordinates": [
                    14.9913332,
                    53.293924
                ]
            },
            "properties": {
                "ref:rspo": 5495,
                "official_name": "Zesp\u00f3\u0142 Szk\u00f3\u0142 Nr5 im. Tadeusza Ta\u0144skiego",
                "name": "Zesp\u00f3\u0142 Szk\u00f3\u0142 Nr5",
                "addr:postcode": "73-110",
                "addr:city": "Stargard",
                "addr:street": "Jana \u015aniadeckiego",
                "addr:housenumber": "4-6",
                "addr:city:simc": 979596,
                "addr:street:sym_ul": 22386,
                "phone": "+48 915762807",
                "email": "sekretariat@zs5.stargard.pl",
                "website": "http:\/\/www.zs5.stargard.pl",
                "ref:regon": "000184425",
                "operator": "Powiat Stargardzki",
                "operator:type": "government",
                "landuse": "education",
                "fixme": "amenity=school, amenity=college albo landuse=education w zale\u017cno\u015bci od tego, jakie plac\u00f3wki wchodz\u0105 w sk\u0142ad zespo\u0142u. Sprawd\u017a, kiedy stosowa\u0107 amenity=* a kiedy landuse=education.",
                "note": "Children RSPO: 10106;10107;10109"
            }
        },
        {
            "id": 10106,
            "type": "Feature",
            "geometry": {
                "type": "Point",
                "coordinates": [
                    14.9913332,
                    53.293893999999995
                ]
            },
            "properties": {
                "isced:level": "3",
                "ref:rspo": 10106,
                "official_name": "Technikum Zawodowe nr 5",
                "name": "Technikum Zawodowe nr 5",
                "addr:postcode": "73-110",
                "addr:city": "Stargard",
                "addr:street": "Jana \u015aniadeckiego",
                "addr:housenumber": "4-6",
                "addr:city:simc": 979596,
                "addr:street:sym_ul": 22386,
                "phone": "+48 915762807",
                "email": "sekretariat@zs5.stargard.pl",
                "website": "http:\/\/www.zs5.stargard.pl",
                "ref:regon": "812079823",
                "operator": "Powiat Stargardzki",
                "operator:type": "government",
                "amenity": "school",
                "note": "Parent RSPO: 5495"
            }
        },
        {
            "id": 10107,
            "type": "Feature",
            "geometry": {
                "type": "Point",
                "coordinates": [
                    14.9913332,
                    53.293864
                ]
            },
            "properties": {
                "isced:level": "3",
                "ref:rspo": 10107,
                "official_name": "Bran\u017cowa Szko\u0142a I Stopnia nr 5",
                "name": "Bran\u017cowa Szko\u0142a I Stopnia nr 5",
                "addr:postcode": "73-110",
                "addr:city": "Stargard",
                "addr:street": "Jana \u015aniadeckiego",
                "addr:housenumber": "4-6",
                "addr:city:simc": 979596,
                "addr:street:sym_ul": 22386,
                "phone": "+48 915762807",
                "email": "sekretariat@zs5.stargard.pl",
                "website": "http:\/\/www.zs5.stargard.pl",
                "ref:regon": "812079846",
                "operator": "Powiat Stargardzki",
                "operator:type": "government",
                "amenity": "school",
                "note": "Parent RSPO: 5495"
            }
        },
        {
            "id": 10109,
            "type": "Feature",
            "geometry": {
                "type": "Point",
                "coordinates": [
                    14.9913332,
                    53.293834
                ]
            },
            "properties": {
                "ref:rspo": 10109,
                "official_name": "Szko\u0142a Specjalna Przysposabiaj\u0105ca do Pracy",
                "name": "Szko\u0142a Specjalna Przysposabiaj\u0105ca do Pracy",
                "addr:postcode": "73-110",
                "addr:city": "Stargard",
                "addr:street": "Jana \u015aniadeckiego",
                "addr:housenumber": "4-6",
                "addr:city:simc": 979596,
                "addr:street:sym_ul": 22386,
                "phone": "+48 915762807",
                "email": "sekretariat@zs5.stargard.pl",
                "website": "http:\/\/www.zs5.stargard.pl",
                "ref:regon": "320435836",
                "operator": "Powiat Stargardzki",
                "operator:type": "government",
                "amenity": "school",
                "note": "Parent RSPO: 5495"
            }
        },
        {
            "id": 268046,
            "type": "Feature",
            "geometry": {
                "type": "Point",
                "coordinates": [
                    15.03613,
                    53.31372
                ]
            },
            "properties": {
                "ref:rspo": 268046,
                "official_name": "Przedszkole Miejskie nr 7",
                "name": "Przedszkole Miejskie nr 7",
                "addr:postcode": "73-110",
                "addr:city": "Stargard",
                "addr:street": "Ksi\u0119dza Jana Twardowskiego",
                "addr:housenumber": "2",
                "addr:city:simc": 979596,
                "addr:street:sym_ul": 38773,
                "phone": "+48 915760768",
                "ref:regon": "380886489",
                "operator": "Gmina-Miasto Stargard",
                "operator:type": "government",
                "amenity": "kindergarten",
                "note": "Parent RSPO: 268044"
            }
        },
        {
            "id": 268044,
            "type": "Feature",
            "geometry": {
                "type": "Point",
                "coordinates": [
                    15.03289,
                    53.31617
                ]
            },
            "properties": {
                "ref:rspo": 268044,
                "official_name": "Zesp\u00f3\u0142 Szkolno - Przedszkolny nr 1 w Stargardzie",
                "name": "Zesp\u00f3\u0142 Szkolno - Przedszkolny nr 1 w Stargardzie",
                "addr:postcode": "73-110",
                "addr:city": "Stargard",
                "addr:street": "Armii Krajowej",
                "addr:housenumber": "1",
                "addr:city:simc": 979596,
                "addr:street:sym_ul": 432,
                "phone": "+48 915760768",
                "email": "poczta@sp6stargard.net",
                "ref:regon": "380885219",
                "operator": "Gmina-Miasto Stargard",
                "operator:type": "government",
                "landuse": "education",
                "fixme": "amenity=school, amenity=college albo landuse=education w zale\u017cno\u015bci od tego, jakie plac\u00f3wki wchodz\u0105 w sk\u0142ad zespo\u0142u. Sprawd\u017a, kiedy stosowa\u0107 amenity=* a kiedy landuse=education.",
                "note": "Children RSPO: 15697;268046"
            }
        },
        {
            "id": 15697,
            "type": "Feature",
            "geometry": {
                "type": "Point",
                "coordinates": [
                    15.03289,
                    53.31614
                ]
            },
            "properties": {
                "isced:level": "1;2",
                "ref:rspo": 15697,
                "official_name": "Szko\u0142a Podstawowa nr 6 im. Jana Brzechwy",
                "name": "Szko\u0142a Podstawowa nr 6",
                "addr:postcode": "73-110",
                "addr:city": "Stargard",
                "addr:street": "Armii Krajowej",
                "addr:housenumber": "1",
                "addr:city:simc": 979596,
                "addr:street:sym_ul": 432,
                "phone": "+48 915760768",
                "email": "poczta@sp6stargard.net",
                "website": "http:\/\/sp6stargard.net",
                "ref:regon": "812387855",
                "ref:vatin": "PL8542128290",
                "operator": "Gmina-Miasto Stargard",
                "operator:type": "government",
                "amenity": "school",
                "note": "Parent RSPO: 268044"
            }
        },
        {
            "id": 16878,
            "type": "Feature",
            "geometry": {
                "type": "Point",
                "coordinates": [
                    15.03829,
                    53.3220699
                ]
            },
            "properties": {
                "ref:rspo": 16878,
                "official_name": "Osrodek Szkolenia Gama",
                "name": "Osrodek Szkolenia Gama",
                "addr:postcode": "73-110",
                "addr:city": "Stargard",
                "addr:street": "Konstantego Ildefonsa Ga\u0142czy\u0144skiego",
                "addr:housenumber": "34",
                "addr:city:simc": 979596,
                "addr:street:sym_ul": 5300,
                "email": "biurogama@pro.onet.pl",
                "website": "http:\/\/bhp.stargard.pl",
                "ref:regon": "321277240",
                "operator": "Jan Jasi\u0144ski",
                "operator:type": "private",
                "fixme": "w zale\u017cno\u015bci od przedmiotu dzia\u0142alno\u015bci (np. amenity=training + training=*, amenity=dancing_school, amenity=language_school, amenity=music_school)"
            }
        },
        {
            "id": 132115,
            "type": "Feature",
            "geometry": {
                "type": "Point",
                "coordinates": [
                    15.03983,
                    53.32452
                ]
            },
            "properties": {
                "ref:rspo": 132115,
                "official_name": "Niepubliczne Integracyjne Przedszkole \"Niezapominajka\"",
                "name": "Niepubliczne Integracyjne Przedszkole \"Niezapominajka\"",
                "addr:postcode": "73-110",
                "addr:city": "Stargard",
                "addr:street": "Niepodleg\u0142o\u015bci",
                "addr:housenumber": "57",
                "addr:door": "1",
                "addr:city:simc": 979596,
                "addr:street:sym_ul": 14203,
                "phone": "+48 605521138",
                "email": "kontakt@niezapominajka-stargard.pl",
                "website": "http:\/\/niezapominajaka-stargard.pl",
                "ref:regon": "365468223",
                "operator": "Janina Majchrzak",
                "operator:type": "private",
                "amenity": "kindergarten"
            }
        },
        {
            "id": 21110,
            "type": "Feature",
            "geometry": {
                "type": "Point",
                "coordinates": [
                    15.03895,
                    53.33097
                ]
            },
            "properties": {
                "ref:rspo": 21110,
                "official_name": "Przedszkole Niepubliczne \"Smerfu\u015b\" z Oddzia\u0142ami Ntegracyjnymi",
                "name": "Przedszkole Niepubliczne \"Smerfu\u015b\" z Oddzia\u0142ami Ntegracyjnymi",
                "addr:postcode": "73-110",
                "addr:city": "Stargard",
                "addr:street": "Warszawska",
                "addr:housenumber": "11b",
                "addr:city:simc": 979596,
                "addr:street:sym_ul": 23682,
                "phone": "+48 915782676",
                "email": "anka33e@wp.pl",
                "ref:regon": "321280040",
                "ref:vatin": "PL8541040340",
                "operator": "Anna Kuzak",
                "operator:type": "private",
                "amenity": "kindergarten"
            }
        },
        {
            "id": 47539,
            "type": "Feature",
            "geometry": {
                "type": "Point",
                "coordinates": [
                    15.05493,
                    53.33292
                ]
            },
            "properties": {
                "ref:rspo": 47539,
                "official_name": "\"Impet\" Bezpiecze\u0144stwo Pracy Serwis Techniczny Szkolenia",
                "name": "\"Impet\" Bezpiecze\u0144stwo Pracy Serwis Techniczny Szkolenia",
                "addr:postcode": "73-110",
                "addr:city": "Stargard",
                "addr:street": "Juliana Tuwima",
                "addr:housenumber": "5",
                "addr:city:simc": 979596,
                "addr:street:sym_ul": 23196,
                "phone": "+48 915784035",
                "ref:regon": "321288538",
                "operator": "Jaros\u0142aw Bodera",
                "operator:type": "private",
                "fixme": "w zale\u017cno\u015bci od przedmiotu dzia\u0142alno\u015bci (np. amenity=training + training=*, amenity=dancing_school, amenity=language_school, amenity=music_school)"
            }
        },
        {
            "id": 16027,
            "type": "Feature",
            "geometry": {
                "type": "Point",
                "coordinates": [
                    15.0170195,
                    53.3330336
                ]
            },
            "properties": {
                "ref:rspo": 16027,
                "official_name": "Przedszkole Miejskie nr 5 z Oddzia\u0142ami Integracyjnymi \"Bajkowy Zakatek\"",
                "name": "Przedszkole Miejskie nr 5 z Oddzia\u0142ami Integracyjnymi \"Bajkowy Zakatek\"",
                "addr:postcode": "73-110",
                "addr:city": "Stargard",
                "addr:street": "Lechicka",
                "addr:housenumber": "11",
                "addr:city:simc": 979596,
                "addr:street:sym_ul": 10738,
                "phone": "+48 915732901",
                "email": "pm5@um.stargard.pl",
                "website": "http:\/\/przedszkole5.edupage.org",
                "ref:regon": "320928415",
                "ref:vatin": "PL8542386431",
                "operator": "Gmina-Miasto Stargard",
                "operator:type": "government",
                "amenity": "kindergarten"
            }
        },
        {
            "id": 14045,
            "type": "Feature",
            "geometry": {
                "type": "Point",
                "coordinates": [
                    15.04595,
                    53.3335099
                ]
            },
            "properties": {
                "ref:rspo": 14045,
                "official_name": "O\u015brodek Rehabilitacyjno-Edukacyjno-Wychowawczy dla Dzieci I M\u0142odzie\u017cy z Autyzmem I Innymi Sprz\u0119\u017ceniami",
                "name": "O\u015brodek Rehabilitacyjno-Edukacyjno-Wychowawczy dla Dzieci I M\u0142odzie\u017cy z Autyzmem I Innymi Sprz\u0119\u017ceniami",
                "addr:postcode": "73-110",
                "addr:city": "Stargard",
                "addr:street": "\u017beglarska",
                "addr:housenumber": "3",
                "addr:city:simc": 979596,
                "addr:street:sym_ul": 26420,
                "phone": "+48 915739415",
                "email": "milena.szczurko@wp.pl",
                "ref:regon": "321276529",
                "operator": "Oddzia\u0142 Krajowego Towarzystwa Autyzmu W Stargardzie Szczeci\u0144skim",
                "operator:type": "ngo",
                "amenity": "school"
            }
        },
        {
            "id": 5491,
            "type": "Feature",
            "geometry": {
                "type": "Point",
                "coordinates": [
                    15.04165,
                    53.33384
                ]
            },
            "properties": {
                "isced:level": "3",
                "ref:rspo": 5491,
                "official_name": "I Liceum Og\u00f3lnokszta\u0142c\u0105ce im. Adama Mickiewicza",
                "name": "I Liceum Og\u00f3lnokszta\u0142c\u0105ce",
                "addr:postcode": "73-110",
                "addr:city": "Stargard",
                "addr:street": "Stanis\u0142awa Staszica",
                "addr:housenumber": "2",
                "addr:city:simc": 979596,
                "addr:street:sym_ul": 21071,
                "phone": "+48 915784656",
                "email": "liceum_szkola@poczta.onet.pl",
                "ref:regon": "812532116",
                "operator": "Powiat Stargardzki",
                "operator:type": "government",
                "amenity": "school"
            }
        },
        {
            "id": 265888,
            "type": "Feature",
            "geometry": {
                "type": "Point",
                "coordinates": [
                    15.02393,
                    53.33431
                ]
            },
            "properties": {
                "ref:rspo": 265888,
                "official_name": "Niepubliczne Integracyjne Przedszkole Pasikonik",
                "name": "Niepubliczne Integracyjne Przedszkole Pasikonik",
                "addr:postcode": "73-110",
                "addr:city": "Stargard",
                "addr:street": "Rac\u0142awicka",
                "addr:housenumber": "29",
                "addr:city:simc": 979596,
                "addr:street:sym_ul": 18273,
                "email": "przedszkole.pasikonik@gmail.com",
                "ref:regon": "368983368",
                "operator": "Fundacja Pasikonik",
                "operator:type": "ngo",
                "amenity": "kindergarten"
            }
        },
        {
            "id": 272206,
            "type": "Feature",
            "geometry": {
                "type": "Point",
                "coordinates": [
                    15.04148,
                    53.33446
                ]
            },
            "properties": {
                "ref:rspo": 272206,
                "official_name": "Zesp\u00f3\u0142 Szk\u00f3\u0142",
                "name": "Zesp\u00f3\u0142 Szk\u00f3\u0142",
                "addr:postcode": "73-110",
                "addr:city": "Stargard",
                "addr:street": "Popiela",
                "addr:housenumber": "2",
                "addr:city:simc": 979596,
                "addr:street:sym_ul": 17134,
                "phone": "+48 915776765",
                "email": "sekretariat@zsstargard.pl",
                "ref:regon": "384026826",
                "operator": "Gmina-Miasto Stargard",
                "operator:type": "government",
                "landuse": "education",
                "fixme": "amenity=school, amenity=college albo landuse=education w zale\u017cno\u015bci od tego, jakie plac\u00f3wki wchodz\u0105 w sk\u0142ad zespo\u0142u. Sprawd\u017a, kiedy stosowa\u0107 amenity=* a kiedy landuse=education.",
                "note": "Children RSPO: 262392;268374"
            }
        },
        {
            "id": 262392,
            "type": "Feature",
            "geometry": {
                "type": "Point",
                "coordinates": [
                    15.04148,
                    53.33443
                ]
            },
            "properties": {
                "isced:level": "1;2",
                "ref:rspo": 262392,
                "official_name": "Szko\u0142a Podstawowa nr 9",
                "name": "Szko\u0142a Podstawowa nr 9",
                "addr:postcode": "73-110",
                "addr:city": "Stargard",
                "addr:street": "Popiela",
                "addr:housenumber": "2",
                "addr:city:simc": 979596,
                "addr:street:sym_ul": 17134,
                "phone": "+48 915776765",
                "email": "sekretariat@zsstargard.pl",
                "website": "http:\/\/www.zsstargard.pl",
                "ref:regon": "367995211",
                "operator": "Gmina-Miasto Stargard",
                "operator:type": "government",
                "amenity": "school",
                "note": "Parent RSPO: 272206"
            }
        },
        {
            "id": 268374,
            "type": "Feature",
            "geometry": {
                "type": "Point",
                "coordinates": [
                    15.04148,
                    53.3344
                ]
            },
            "properties": {
                "isced:level": "1;2",
                "ref:rspo": 268374,
                "official_name": "Og\u00f3lnokszta\u0142c\u0105ca Szko\u0142a Muzyczna I Stopnia",
                "name": "Og\u00f3lnokszta\u0142c\u0105ca Szko\u0142a Muzyczna I Stopnia",
                "addr:postcode": "73-110",
                "addr:city": "Stargard",
                "addr:street": "Popiela",
                "addr:housenumber": "2",
                "addr:city:simc": 979596,
                "addr:street:sym_ul": 17134,
                "phone": "+48 915776765",
                "email": "sekretariat@zsstargard.pl",
                "ref:regon": "381124089",
                "operator": "Gmina-Miasto Stargard",
                "operator:type": "government",
                "amenity": "school",
                "note": "Parent RSPO: 272206"
            }
        },
        {
            "id": 20481,
            "type": "Feature",
            "geometry": {
                "type": "Point",
                "coordinates": [
                    15.05159,
                    53.33455
                ]
            },
            "properties": {
                "ref:rspo": 20481,
                "official_name": "Niepubliczne Przedszkole U\u015bmiech",
                "name": "Niepubliczne Przedszkole U\u015bmiech",
                "addr:postcode": "73-110",
                "addr:city": "Stargard",
                "addr:street": "Piwna",
                "addr:housenumber": "2",
                "addr:city:simc": 979596,
                "addr:street:sym_ul": 16370,
                "phone": "+48 915771077",
                "email": "usmiech@przedszkole-stargard.pl",
                "website": "http:\/\/przedszkole-stargard.pl",
                "ref:regon": "321279090",
                "operator": "Aleksandra Gruszka",
                "operator:type": "private",
                "amenity": "kindergarten"
            }
        },
        {
            "id": 128167,
            "type": "Feature",
            "geometry": {
                "type": "Point",
                "coordinates": [
                    15.05159,
                    53.33452
                ]
            },
            "properties": {
                "isced:level": "1;2",
                "ref:rspo": 128167,
                "official_name": "Niepubliczna Szko\u0142a Podstawowa \"U\u015bmiech\"",
                "name": "Niepubliczna Szko\u0142a Podstawowa \"U\u015bmiech\"",
                "addr:postcode": "73-110",
                "addr:city": "Stargard",
                "addr:street": "Piwna",
                "addr:housenumber": "2",
                "addr:city:simc": 979596,
                "addr:street:sym_ul": 16370,
                "phone": "+48 915771077",
                "email": "usmiech@przedszkole-stargard.pl",
                "ref:regon": "362137566",
                "operator": "Aleksandra Gruszka",
                "operator:type": "private",
                "amenity": "school"
            }
        },
        {
            "id": 5498,
            "type": "Feature",
            "geometry": {
                "type": "Point",
                "coordinates": [
                    15.01847,
                    53.33486
                ]
            },
            "properties": {
                "ref:rspo": 5498,
                "official_name": "Bursa Szkolna",
                "name": "Bursa Szkolna",
                "addr:postcode": "73-110",
                "addr:city": "Stargard",
                "addr:street": "Plac Majdanek",
                "addr:housenumber": "7",
                "addr:city:simc": 979596,
                "addr:street:sym_ul": 42898,
                "phone": "+48 915732827",
                "email": "bs@bursaszkolna.pl",
                "website": "http:\/\/bursaszkolna.pl",
                "ref:regon": "812026985",
                "operator": "Powiat Stargardzki",
                "operator:type": "government",
                "building": "dormitory"
            }
        },
        {
            "id": 5499,
            "type": "Feature",
            "geometry": {
                "type": "Point",
                "coordinates": [
                    15.01847,
                    53.33483
                ]
            },
            "properties": {
                "ref:rspo": 5499,
                "official_name": "Powiatowy O\u015brodek Doskonanenia Nauczycieli",
                "name": "Powiatowy O\u015brodek Doskonanenia Nauczycieli",
                "addr:postcode": "73-110",
                "addr:city": "Stargard",
                "addr:street": "Plac Majdanek",
                "addr:housenumber": "7",
                "addr:city:simc": 979596,
                "addr:street:sym_ul": 42898,
                "phone": "+48 915786780",
                "email": "biuro@podn.stargard.pl",
                "website": "http:\/\/podn.stargard.pl",
                "ref:regon": "811879183",
                "operator": "Powiat Stargardzki",
                "operator:type": "government",
                "amenity": "training"
            }
        },
        {
            "id": 5501,
            "type": "Feature",
            "geometry": {
                "type": "Point",
                "coordinates": [
                    15.01847,
                    53.3348
                ]
            },
            "properties": {
                "ref:rspo": 5501,
                "official_name": "Poradnia Psychologiczno-Pedagogiczna",
                "name": "Poradnia Psychologiczno-Pedagogiczna",
                "addr:postcode": "73-110",
                "addr:city": "Stargard",
                "addr:street": "Plac Majdanek",
                "addr:housenumber": "7A",
                "addr:city:simc": 979596,
                "addr:street:sym_ul": 42898,
                "phone": "+48 915784693",
                "email": "sekretariat@poradnia.stargard.pl",
                "ref:regon": "000703204",
                "operator": "Powiat Stargardzki",
                "operator:type": "government",
                "healthcare": "counselling",
                "counselling_type": "education",
                "fixme": "w zale\u017cno\u015bci od przedmiotu dzia\u0142alno\u015bci (np. healthcare=counselling + counselling_type=education albo healthcare=psychotherapist)"
            }
        },
        {
            "id": 269241,
            "type": "Feature",
            "geometry": {
                "type": "Point",
                "coordinates": [
                    15.01758,
                    53.33525
                ]
            },
            "properties": {
                "ref:rspo": 269241,
                "official_name": "Niepubliczne Przedszkole Junior",
                "name": "Niepubliczne Przedszkole Junior",
                "addr:postcode": "73-110",
                "addr:city": "Stargard",
                "addr:street": "Pogodna",
                "addr:housenumber": "10-12",
                "addr:city:simc": 979596,
                "addr:street:sym_ul": 16900,
                "email": "a.kusiak@o2.pl",
                "ref:regon": "381409627",
                "operator": "Centrum Edukacyjno-Opieku\u0144cze Junior Anna Jakubowska",
                "operator:type": "consortium",
                "amenity": "kindergarten"
            }
        },
        {
            "id": 14560,
            "type": "Feature",
            "geometry": {
                "type": "Point",
                "coordinates": [
                    15.04275,
                    53.33551
                ]
            },
            "properties": {
                "ref:rspo": 14560,
                "official_name": "Przedszkole Miejskie nr 2",
                "name": "Przedszkole Miejskie nr 2",
                "addr:postcode": "73-110",
                "addr:city": "Stargard",
                "addr:street": "Mieszka I",
                "addr:housenumber": "2",
                "addr:city:simc": 979596,
                "addr:street:sym_ul": 12832,
                "phone": "+48 915770744",
                "email": "pm2@um.stargard.pl",
                "website": "http:\/\/www.pm2.stargard.pl",
                "ref:regon": "320929870",
                "ref:vatin": "PL8542386543",
                "operator": "Gmina-Miasto Stargard",
                "operator:type": "government",
                "amenity": "kindergarten"
            }
        },
        {
            "id": 15785,
            "type": "Feature",
            "geometry": {
                "type": "Point",
                "coordinates": [
                    15.02081,
                    53.33557
                ]
            },
            "properties": {
                "isced:level": "1;2",
                "ref:rspo": 15785,
                "official_name": "Szko\u0142a Podstawowa nr 7 Im Astrid Lindgren",
                "name": "Szko\u0142a Podstawowa nr 7 Im Astrid Lindgren",
                "addr:postcode": "73-110",
                "addr:city": "Stargard",
                "addr:street": "Plac Majdanek",
                "addr:housenumber": "13",
                "addr:city:simc": 979596,
                "addr:street:sym_ul": 42898,
                "phone": "+48 915731737",
                "email": "sp7@sp7.stargard.edu.pl",
                "website": "http:\/\/sp7.stargard.edu.pl",
                "ref:regon": "000891950",
                "ref:vatin": "PL8541013366",
                "operator": "Gmina-Miasto Stargard",
                "operator:type": "government",
                "amenity": "school"
            }
        },
        {
            "id": 130254,
            "type": "Feature",
            "geometry": {
                "type": "Point",
                "coordinates": [
                    15.03838,
                    53.33565
                ]
            },
            "properties": {
                "ref:rspo": 130254,
                "official_name": "Elemelek Przedszkole Niepubliczne",
                "name": "Elemelek Przedszkole Niepubliczne",
                "addr:postcode": "73-110",
                "addr:city": "Stargard",
                "addr:street": "Skarbowa",
                "addr:housenumber": "4a",
                "addr:door": "1a\/1d\/",
                "addr:city:simc": 979596,
                "addr:street:sym_ul": 20003,
                "phone": "+48 518391858",
                "email": "elemelek.stargard@gmail.com",
                "website": "http:\/\/www.elemelek.stargard.pl",
                "ref:regon": "363722114",
                "operator": "Karolina Gw\u00f3\u017ad\u017a",
                "operator:type": "private",
                "amenity": "kindergarten"
            }
        },
        {
            "id": 47468,
            "type": "Feature",
            "geometry": {
                "type": "Point",
                "coordinates": [
                    15.0459,
                    53.33574
                ]
            },
            "properties": {
                "ref:rspo": 47468,
                "official_name": "Plac\u00f3wka O\u015bwiatowo-Wychowawcza Dom Harcerza w Stargardzie Szczeci\u0144skim",
                "name": "Plac\u00f3wka O\u015bwiatowo-Wychowawcza Dom Harcerza w Stargardzie Szczeci\u0144skim",
                "addr:postcode": "73-110",
                "addr:city": "Stargard",
                "addr:street": "Boles\u0142awa Krzywoustego",
                "addr:housenumber": "8",
                "addr:city:simc": 979596,
                "addr:street:sym_ul": 1749,
                "phone": "+48 918347534",
                "ref:regon": "321288509",
                "operator": "Dane Do Uzupe\u0142nienia",
                "operator:type": "private"
            }
        },
        {
            "id": 5492,
            "type": "Feature",
            "geometry": {
                "type": "Point",
                "coordinates": [
                    15.04349,
                    53.3358
                ]
            },
            "properties": {
                "isced:level": "3",
                "ref:rspo": 5492,
                "official_name": "Ii Liceum Og\u00f3lnokszta\u0142c\u0105ce im. Cypriana Kamila Norwida",
                "name": "Ii Liceum Og\u00f3lnokszta\u0142c\u0105ce",
                "addr:postcode": "73-110",
                "addr:city": "Stargard",
                "addr:street": "Mieszka I",
                "addr:housenumber": "4",
                "addr:city:simc": 979596,
                "addr:street:sym_ul": 12832,
                "phone": "+48 915772535",
                "email": "sekretariat@2lo.stargard.pl",
                "ref:regon": "812588654",
                "operator": "Powiat Stargardzki",
                "operator:type": "government",
                "amenity": "school"
            }
        },
        {
            "id": 11361,
            "type": "Feature",
            "geometry": {
                "type": "Point",
                "coordinates": [
                    15.04349,
                    53.33577
                ]
            },
            "properties": {
                "isced:level": "4",
                "ref:rspo": 11361,
                "official_name": "Studium Medyczne Medica",
                "name": "Studium Medyczne Medica",
                "addr:postcode": "73-110",
                "addr:city": "Stargard",
                "addr:street": "Mieszka I",
                "addr:housenumber": "4",
                "addr:city:simc": 979596,
                "addr:street:sym_ul": 12832,
                "phone": "+48 915732122",
                "email": "info@medica.edu.pl",
                "ref:regon": "321285646",
                "operator": "Dane Do Uzupe\u0142nienia",
                "operator:type": "private",
                "amenity": "college"
            }
        },
        {
            "id": 14118,
            "type": "Feature",
            "geometry": {
                "type": "Point",
                "coordinates": [
                    15.04349,
                    53.33574
                ]
            },
            "properties": {
                "ref:rspo": 14118,
                "official_name": "Akademia Kszta\u0142cenia Kadr Medica",
                "name": "Akademia Kszta\u0142cenia Kadr Medica",
                "addr:postcode": "73-110",
                "addr:city": "Stargard",
                "addr:street": "Mieszka I",
                "addr:housenumber": "4",
                "addr:city:simc": 979596,
                "addr:street:sym_ul": 12832,
                "phone": "+48 915732122",
                "ref:regon": "321276498",
                "operator": "Dane Do Uzupe\u0142nienia",
                "operator:type": "private"
            }
        },
        {
            "id": 40757,
            "type": "Feature",
            "geometry": {
                "type": "Point",
                "coordinates": [
                    15.04349,
                    53.33571
                ]
            },
            "properties": {
                "isced:level": "3",
                "ref:rspo": 40757,
                "official_name": "Bran\u017cowa Szko\u0142a I Stopnia \"Medica\" w Stargardzie",
                "name": "Bran\u017cowa Szko\u0142a I Stopnia \"Medica\" w Stargardzie",
                "addr:postcode": "73-110",
                "addr:city": "Stargard",
                "addr:street": "Mieszka I",
                "addr:housenumber": "4",
                "addr:city:simc": 979596,
                "addr:street:sym_ul": 12832,
                "phone": "+48 915732122",
                "ref:regon": "321288834",
                "operator": "Grzegorz Wasi\u0142ek",
                "operator:type": "private",
                "amenity": "school"
            }
        },
        {
            "id": 40758,
            "type": "Feature",
            "geometry": {
                "type": "Point",
                "coordinates": [
                    15.04349,
                    53.335679999999996
                ]
            },
            "properties": {
                "isced:level": "4",
                "ref:rspo": 40758,
                "official_name": "Pierwsza Niepubliczna Szko\u0142a Policealna\"Collegium Medyczne Medica\" w Stargardzie",
                "name": "Pierwsza Niepubliczna Szko\u0142a Policealna\"Collegium Medyczne Medica\" w Stargardzie",
                "addr:postcode": "73-110",
                "addr:city": "Stargard",
                "addr:street": "Mieszka I",
                "addr:housenumber": "4",
                "addr:city:simc": 979596,
                "addr:street:sym_ul": 12832,
                "phone": "+48 915732122",
                "email": "sekretariat@medica.edu.pl",
                "website": "http:\/\/www.medica.edu.pl",
                "ref:regon": "321288828",
                "operator": "Grzegorz Wasi\u0142ek",
                "operator:type": "private",
                "amenity": "college"
            }
        },
        {
            "id": 40761,
            "type": "Feature",
            "geometry": {
                "type": "Point",
                "coordinates": [
                    15.04349,
                    53.33565
                ]
            },
            "properties": {
                "isced:level": "4",
                "ref:rspo": 40761,
                "official_name": "Niepubliczna Szko\u0142a Policealna \"Collegium Medyczne Medica\" w Stargardzie",
                "name": "Niepubliczna Szko\u0142a Policealna \"Collegium Medyczne Medica\" w Stargardzie",
                "addr:postcode": "73-110",
                "addr:city": "Stargard",
                "addr:street": "Mieszka I",
                "addr:housenumber": "4",
                "addr:city:simc": 979596,
                "addr:street:sym_ul": 12832,
                "phone": "+48 915732122",
                "email": "sekretariat@medica.edu.pl",
                "website": "http:\/\/www.medica.edu.pl",
                "ref:regon": "321288870",
                "operator": "Grzegorz Wasi\u0142ek",
                "operator:type": "private",
                "amenity": "college"
            }
        },
        {
            "id": 72683,
            "type": "Feature",
            "geometry": {
                "type": "Point",
                "coordinates": [
                    15.04349,
                    53.33562
                ]
            },
            "properties": {
                "isced:level": "3",
                "ref:rspo": 72683,
                "official_name": "Bran\u017cowa Szko\u0142a I Stopnia \"Medica\"",
                "name": "Bran\u017cowa Szko\u0142a I Stopnia \"Medica\"",
                "addr:postcode": "73-110",
                "addr:city": "Stargard",
                "addr:street": "Mieszka I",
                "addr:housenumber": "4",
                "addr:city:simc": 979596,
                "addr:street:sym_ul": 12832,
                "phone": "+48 915732122",
                "email": "sekretariat@medica.edu.pl",
                "website": "http:\/\/www.medica.edu.pl",
                "ref:regon": "321285652",
                "operator": "Grzegorz Wasi\u0142ek",
                "operator:type": "private",
                "amenity": "school"
            }
        },
        {
            "id": 129585,
            "type": "Feature",
            "geometry": {
                "type": "Point",
                "coordinates": [
                    15.04349,
                    53.335589999999996
                ]
            },
            "properties": {
                "isced:level": "3",
                "ref:rspo": 129585,
                "official_name": "Liceum Og\u00f3lnokszta\u0142c\u0105ce \"Medica\" w Stargardzie",
                "name": "Liceum Og\u00f3lnokszta\u0142c\u0105ce \"Medica\" w Stargardzie",
                "addr:postcode": "73-110",
                "addr:city": "Stargard",
                "addr:street": "Mieszka I",
                "addr:housenumber": "4",
                "addr:city:simc": 979596,
                "addr:street:sym_ul": 12832,
                "phone": "+48 915732122",
                "email": "info@medica.edu.pl",
                "website": "http:\/\/www.medica.edu.pl",
                "ref:regon": "362672590",
                "operator": "Grzegorz Wasi\u0142ek",
                "operator:type": "private",
                "amenity": "school"
            }
        },
        {
            "id": 129658,
            "type": "Feature",
            "geometry": {
                "type": "Point",
                "coordinates": [
                    15.04349,
                    53.33556
                ]
            },
            "properties": {
                "isced:level": "4",
                "ref:rspo": 129658,
                "official_name": "Szko\u0142a Policealna \"Collegium Medyczne Medica\" w Stargardzie",
                "name": "Szko\u0142a Policealna \"Collegium Medyczne Medica\" w Stargardzie",
                "addr:postcode": "73-110",
                "addr:city": "Stargard",
                "addr:street": "Mieszka I",
                "addr:housenumber": "4",
                "addr:city:simc": 979596,
                "addr:street:sym_ul": 12832,
                "phone": "+48 915732122",
                "email": "info@medica.edu.pl",
                "website": "http:\/\/www.medica.edu.pl",
                "ref:regon": "362723040",
                "operator": "Grzegorz Wasi\u0142ek",
                "operator:type": "private",
                "amenity": "college"
            }
        },
        {
            "id": 129663,
            "type": "Feature",
            "geometry": {
                "type": "Point",
                "coordinates": [
                    15.04349,
                    53.33553
                ]
            },
            "properties": {
                "isced:level": "4",
                "ref:rspo": 129663,
                "official_name": "Pierwsza Szko\u0142a Policealna \"Collegium Medyczne Medica\" w Stargardzie",
                "name": "Pierwsza Szko\u0142a Policealna \"Collegium Medyczne Medica\" w Stargardzie",
                "addr:postcode": "73-110",
                "addr:city": "Stargard",
                "addr:street": "Mieszka I",
                "addr:housenumber": "4",
                "addr:city:simc": 979596,
                "addr:street:sym_ul": 12832,
                "phone": "+48 915732122",
                "email": "info@medica.edu.pl",
                "website": "http:\/\/www.medica.edu.pl",
                "ref:regon": "362725234",
                "operator": "Grzegorz Wasi\u0142ek",
                "operator:type": "private",
                "amenity": "college"
            }
        },
        {
            "id": 263973,
            "type": "Feature",
            "geometry": {
                "type": "Point",
                "coordinates": [
                    15.04349,
                    53.335499999999996
                ]
            },
            "properties": {
                "isced:level": "1;2",
                "ref:rspo": 263973,
                "official_name": "Prywatna Szko\u0142a Podstawowa dla Doros\u0142ych Medica w Stargardzie",
                "name": "Prywatna Szko\u0142a Podstawowa dla Doros\u0142ych Medica w Stargardzie",
                "addr:postcode": "73-110",
                "addr:city": "Stargard",
                "addr:street": "Mieszka I",
                "addr:housenumber": "4",
                "addr:city:simc": 979596,
                "addr:street:sym_ul": 12832,
                "phone": "+48 915732122",
                "email": "sekretariat@medica.edu.pl",
                "website": "http:\/\/www.medica.edu.pl",
                "ref:regon": "368246300",
                "operator": "Anna Wasi\u0142ek",
                "operator:type": "private",
                "amenity": "school"
            }
        },
        {
            "id": 275389,
            "type": "Feature",
            "geometry": {
                "type": "Point",
                "coordinates": [
                    15.04349,
                    53.33547
                ]
            },
            "properties": {
                "isced:level": "3",
                "ref:rspo": 275389,
                "official_name": "Bran\u017cowa Szko\u0142a II Stopnia \"Medica\" w Stargardzie",
                "name": "Bran\u017cowa Szko\u0142a II Stopnia \"Medica\" w Stargardzie",
                "addr:postcode": "73-110",
                "addr:city": "Stargard",
                "addr:street": "Mieszka I",
                "addr:housenumber": "4",
                "addr:city:simc": 979596,
                "addr:street:sym_ul": 12832,
                "phone": "+48 915732122",
                "email": "sekretariat@medica.edu.pl",
                "ref:regon": "386832709",
                "operator": "Grzegorz Wasi\u0142ek",
                "operator:type": "private",
                "amenity": "school"
            }
        },
        {
            "id": 11614,
            "type": "Feature",
            "geometry": {
                "type": "Point",
                "coordinates": [
                    15.0398,
                    53.33649
                ]
            },
            "properties": {
                "isced:level": "4",
                "ref:rspo": 11614,
                "official_name": "Szko\u0142a Policealna Centrum Nauki I Biznesu \"\u017bak\" w Stargardzie",
                "name": "Szko\u0142a Policealna Centrum Nauki I Biznesu \"\u017bak\" w Stargardzie",
                "addr:postcode": "73-110",
                "addr:city": "Stargard",
                "addr:street": "Hetmana Stefana Czarnieckiego",
                "addr:housenumber": "30",
                "addr:door": "31",
                "addr:city:simc": 979596,
                "addr:street:sym_ul": 3281,
                "phone": "+48 913973713",
                "email": "stargard@zak.edu.pl",
                "ref:regon": "321275990",
                "operator": "Centrum Nauki I Biznesu \"\u017bak\" Sp\u00f3\u0142ka Z Ograniczon\u0105 Odpowiedzialno\u015bci\u0105",
                "operator:type": "private",
                "amenity": "college"
            }
        },
        {
            "id": 11617,
            "type": "Feature",
            "geometry": {
                "type": "Point",
                "coordinates": [
                    15.0398,
                    53.336459999999995
                ]
            },
            "properties": {
                "isced:level": "3",
                "ref:rspo": 11617,
                "official_name": "Liceum Og\u00f3lnokszta\u0142c\u0105ce dla Doros\u0142ych \"\u017bak\" w Stargardzie Szczeci\u0144skim",
                "name": "Liceum Og\u00f3lnokszta\u0142c\u0105ce dla Doros\u0142ych \"\u017bak\" w Stargardzie Szczeci\u0144skim",
                "addr:postcode": "73-110",
                "addr:city": "Stargard",
                "addr:street": "Hetmana Stefana Czarnieckiego",
                "addr:housenumber": "30",
                "addr:door": "31",
                "addr:city:simc": 979596,
                "addr:street:sym_ul": 3281,
                "phone": "+48 913973713",
                "email": "stargard@zak.edu.pl",
                "ref:regon": "321276038",
                "operator": "Centrum Nauki I Biznesu \"\u017bak\" Sp\u00f3\u0142ka Z Ograniczon\u0105 Odpowiedzialno\u015bci\u0105",
                "operator:type": "private",
                "amenity": "school"
            }
        },
        {
            "id": 123664,
            "type": "Feature",
            "geometry": {
                "type": "Point",
                "coordinates": [
                    15.0398,
                    53.33643
                ]
            },
            "properties": {
                "isced:level": "4",
                "ref:rspo": 123664,
                "official_name": "Publiczna Szko\u0142a Policealna Rachunkowo\u015bci \"\u017bak\" w Stargardzie",
                "name": "Publiczna Szko\u0142a Policealna Rachunkowo\u015bci \"\u017bak\" w Stargardzie",
                "addr:postcode": "73-110",
                "addr:city": "Stargard",
                "addr:street": "Hetmana Stefana Czarnieckiego",
                "addr:housenumber": "30",
                "addr:door": "31",
                "addr:city:simc": 979596,
                "addr:street:sym_ul": 3281,
                "phone": "+48 913973713",
                "email": "stargardszczecinski@zak.edu.pl",
                "ref:regon": "321550189",
                "operator": "Centrum Nauki I Biznesu \"\u017bak\" Sp\u00f3\u0142ka Z Ograniczon\u0105 Odpowiedzialno\u015bci\u0105",
                "operator:type": "private",
                "amenity": "college"
            }
        },
        {
            "id": 123669,
            "type": "Feature",
            "geometry": {
                "type": "Point",
                "coordinates": [
                    15.0398,
                    53.3364
                ]
            },
            "properties": {
                "isced:level": "4",
                "ref:rspo": 123669,
                "official_name": "Publiczna Szko\u0142a Policealna Eksploatacji Port\u00f3w I Terminali \"\u017bak\" w Stargardzie",
                "name": "Publiczna Szko\u0142a Policealna Eksploatacji Port\u00f3w I Terminali \"\u017bak\" w Stargardzie",
                "addr:postcode": "73-110",
                "addr:city": "Stargard",
                "addr:street": "Hetmana Stefana Czarnieckiego",
                "addr:housenumber": "30",
                "addr:door": "31",
                "addr:city:simc": 979596,
                "addr:street:sym_ul": 3281,
                "phone": "+48 913973713",
                "email": "stargardszczecinski@zak.edu.pl",
                "ref:regon": "321550516",
                "operator": "Centrum Nauki I Biznesu \"\u017bak\" Sp\u00f3\u0142ka Z Ograniczon\u0105 Odpowiedzialno\u015bci\u0105",
                "operator:type": "private",
                "amenity": "college"
            }
        },
        {
            "id": 123670,
            "type": "Feature",
            "geometry": {
                "type": "Point",
                "coordinates": [
                    15.0398,
                    53.336369999999995
                ]
            },
            "properties": {
                "isced:level": "4",
                "ref:rspo": 123670,
                "official_name": "Publiczna Szko\u0142a Policealna Opieki Spo\u0142ecznej \"\u017bak\" w Stargardzie Szczeci\u0144skim",
                "name": "Publiczna Szko\u0142a Policealna Opieki Spo\u0142ecznej \"\u017bak\" w Stargardzie Szczeci\u0144skim",
                "addr:postcode": "73-110",
                "addr:city": "Stargard",
                "addr:street": "Hetmana Stefana Czarnieckiego",
                "addr:housenumber": "30",
                "addr:door": "31",
                "addr:city:simc": 979596,
                "addr:street:sym_ul": 3281,
                "phone": "+48 913973713",
                "email": "stargardszczecinski@zak.edu.pl",
                "ref:regon": "321550522",
                "operator": "Centrum Nauki I Biznesu \"\u017bak\" Sp\u00f3\u0142ka Z Ograniczon\u0105 Odpowiedzialno\u015bci\u0105",
                "operator:type": "private",
                "amenity": "college"
            }
        },
        {
            "id": 130975,
            "type": "Feature",
            "geometry": {
                "type": "Point",
                "coordinates": [
                    15.0398,
                    53.33634
                ]
            },
            "properties": {
                "isced:level": "4",
                "ref:rspo": 130975,
                "official_name": "Szko\u0142a Policealna Opieki Medycznej \"\u017bak\" w Stargardzie",
                "name": "Szko\u0142a Policealna Opieki Medycznej \"\u017bak\" w Stargardzie",
                "addr:postcode": "73-110",
                "addr:city": "Stargard",
                "addr:street": "Hetmana Stefana Czarnieckiego",
                "addr:housenumber": "30",
                "addr:door": "31",
                "addr:city:simc": 979596,
                "addr:street:sym_ul": 3281,
                "phone": "+48 913973713",
                "email": "stargard@zak.edu.pl",
                "ref:regon": "364804044",
                "operator": "Centrum Nauki I Biznesu \"\u017bak\" Sp\u00f3\u0142ka Z Ograniczon\u0105 Odpowiedzialno\u015bci\u0105",
                "operator:type": "private",
                "amenity": "college"
            }
        },
        {
            "id": 130976,
            "type": "Feature",
            "geometry": {
                "type": "Point",
                "coordinates": [
                    15.0398,
                    53.33631
                ]
            },
            "properties": {
                "isced:level": "4",
                "ref:rspo": 130976,
                "official_name": "Szko\u0142a Policealna Medyczna \"\u017bak\" w Stargardzie",
                "name": "Szko\u0142a Policealna Medyczna \"\u017bak\" w Stargardzie",
                "addr:postcode": "73-110",
                "addr:city": "Stargard",
                "addr:street": "Hetmana Stefana Czarnieckiego",
                "addr:housenumber": "30",
                "addr:door": "31",
                "addr:city:simc": 979596,
                "addr:street:sym_ul": 3281,
                "phone": "+48 913973713",
                "ref:regon": "364804050",
                "operator": "Centrum Nauki I Biznesu \"\u017bak\" Sp\u00f3\u0142ka Z Ograniczon\u0105 Odpowiedzialno\u015bci\u0105",
                "operator:type": "private",
                "amenity": "college"
            }
        },
        {
            "id": 129652,
            "type": "Feature",
            "geometry": {
                "type": "Point",
                "coordinates": [
                    15.04844,
                    53.33676
                ]
            },
            "properties": {
                "isced:level": "3",
                "ref:rspo": 129652,
                "official_name": "Technikum Medyczne \"Medica\" w Stargardzie",
                "name": "Technikum Medyczne \"Medica\" w Stargardzie",
                "addr:postcode": "73-110",
                "addr:city": "Stargard",
                "addr:street": "Kazimierza Wielkiego",
                "addr:housenumber": "17",
                "addr:city:simc": 979596,
                "addr:street:sym_ul": 8265,
                "phone": "+48 915732122",
                "email": "info@medica.edu.pl",
                "website": "http:\/\/www.medica.edu.pl",
                "ref:regon": "362714667",
                "operator": "Grzegorz Wasi\u0142ek",
                "operator:type": "private",
                "amenity": "school"
            }
        },
        {
            "id": 129907,
            "type": "Feature",
            "geometry": {
                "type": "Point",
                "coordinates": [
                    15.04844,
                    53.336729999999996
                ]
            },
            "properties": {
                "isced:level": "3",
                "ref:rspo": 129907,
                "official_name": "Technikum Fryzjerskie \"Medica\" w Stargardzie",
                "name": "Technikum Fryzjerskie \"Medica\" w Stargardzie",
                "addr:postcode": "73-110",
                "addr:city": "Stargard",
                "addr:street": "Kazimierza Wielkiego",
                "addr:housenumber": "17",
                "addr:city:simc": 979596,
                "addr:street:sym_ul": 8265,
                "phone": "+48 915732122",
                "email": "info@medica.edu.pl",
                "website": "http:\/\/www.medica.edu.pl",
                "ref:regon": "363067299",
                "operator": "Grzegorz Wasi\u0142ek",
                "operator:type": "private",
                "amenity": "school"
            }
        },
        {
            "id": 16876,
            "type": "Feature",
            "geometry": {
                "type": "Point",
                "coordinates": [
                    15.04323,
                    53.33728
                ]
            },
            "properties": {
                "ref:rspo": 16876,
                "official_name": "O\u015brodek Szkolenia Wiedza",
                "name": "O\u015brodek Szkolenia Wiedza",
                "addr:postcode": "73-110",
                "addr:city": "Stargard",
                "addr:street": "P\u0142atnerzy",
                "addr:housenumber": "4b",
                "addr:door": "14",
                "addr:city:simc": 979596,
                "addr:street:sym_ul": 16494,
                "phone": "+48 517915218",
                "email": "hdor@yachtech.pl",
                "ref:regon": "321277138",
                "operator": "Henryk Dor",
                "operator:type": "private",
                "fixme": "w zale\u017cno\u015bci od przedmiotu dzia\u0142alno\u015bci (np. amenity=training + training=*, amenity=dancing_school, amenity=language_school, amenity=music_school)"
            }
        },
        {
            "id": 123098,
            "type": "Feature",
            "geometry": {
                "type": "Point",
                "coordinates": [
                    15.01463,
                    53.33737
                ]
            },
            "properties": {
                "ref:rspo": 123098,
                "official_name": "O\u015brodek Szkoleniowy Cirrus Bhp",
                "name": "O\u015brodek Szkoleniowy Cirrus Bhp",
                "addr:postcode": "73-110",
                "addr:city": "Stargard",
                "addr:street": "Aleja \u017bo\u0142nierza",
                "addr:housenumber": "30",
                "addr:door": "2",
                "addr:city:simc": 979596,
                "addr:street:sym_ul": 42912,
                "phone": "+48 691410899",
                "email": "biuro@cirrus-bhp.pl",
                "ref:regon": "321524111",
                "operator": "Krzysztof Adamczak",
                "operator:type": "private",
                "fixme": "w zale\u017cno\u015bci od przedmiotu dzia\u0142alno\u015bci (np. amenity=training + training=*, amenity=dancing_school, amenity=language_school, amenity=music_school) albo amenity=school, amenity=college, albo landuse=education w zale\u017cno\u015bci od tego, jakie plac\u00f3wki wchodz\u0105 w sk\u0142ad zespo\u0142u. Sprawd\u017a, kiedy stosowa\u0107 amenity=* a kiedy landuse=education."
            }
        },
        {
            "id": 15492,
            "type": "Feature",
            "geometry": {
                "type": "Point",
                "coordinates": [
                    15.04725,
                    53.33739
                ]
            },
            "properties": {
                "ref:rspo": 15492,
                "official_name": "Pa\u0144stwowa Szko\u0142a Muzyczna I I II St. im. Witolda Lutos\u0142awskiego w Stargardzie",
                "name": "Pa\u0144stwowa Szko\u0142a Muzyczna I I II St.",
                "addr:postcode": "73-110",
                "addr:city": "Stargard",
                "addr:street": "Kazimierza Wielkiego",
                "addr:housenumber": "13",
                "addr:city:simc": 979596,
                "addr:street:sym_ul": 8265,
                "phone": "+48 915772448",
                "email": "sekretariat@psm.stargard.pl",
                "website": "http:\/\/psm.stargard.pl",
                "ref:regon": "000286338",
                "operator": "Ministerstwo Kultury I Dziedzictwa Narodowego",
                "operator:type": "public",
                "landuse": "education",
                "fixme": "amenity=school, amenity=college albo landuse=education w zale\u017cno\u015bci od tego, jakie plac\u00f3wki wchodz\u0105 w sk\u0142ad zespo\u0142u. Sprawd\u017a, kiedy stosowa\u0107 amenity=* a kiedy landuse=education.",
                "note": "Children RSPO: 17568;17591"
            }
        },
        {
            "id": 17568,
            "type": "Feature",
            "geometry": {
                "type": "Point",
                "coordinates": [
                    15.04725,
                    53.33736
                ]
            },
            "properties": {
                "ref:rspo": 17568,
                "official_name": "Pa\u0144stwowa Szko\u0142a Muzyczna I St. im. Witolda Lutos\u0142awskiego w Stargardzie",
                "name": "Pa\u0144stwowa Szko\u0142a Muzyczna I St.",
                "addr:postcode": "73-110",
                "addr:city": "Stargard",
                "addr:street": "Kazimierza Wielkiego",
                "addr:housenumber": "13",
                "addr:city:simc": 979596,
                "addr:street:sym_ul": 8265,
                "phone": "+48 915772448",
                "email": "sekretariat@psm.stargard.pl",
                "website": "http:\/\/psm.stargard.pl",
                "ref:regon": "320088719",
                "operator": "Ministerstwo Kultury I Dziedzictwa Narodowego",
                "operator:type": "public",
                "amenity": "music_school",
                "note": "Parent RSPO: 15492"
            }
        },
        {
            "id": 17591,
            "type": "Feature",
            "geometry": {
                "type": "Point",
                "coordinates": [
                    15.04725,
                    53.33733
                ]
            },
            "properties": {
                "ref:rspo": 17591,
                "official_name": "Pa\u0144stwowa Szko\u0142a Muzyczna II St. im. Witolda Lutos\u0142awskiego w Stargardzie",
                "name": "Pa\u0144stwowa Szko\u0142a Muzyczna II St.",
                "addr:postcode": "73-110",
                "addr:city": "Stargard",
                "addr:street": "Kazimierza Wielkiego",
                "addr:housenumber": "13",
                "addr:city:simc": 979596,
                "addr:street:sym_ul": 8265,
                "phone": "+48 915772448",
                "email": "sekretariat@psm.stargard.pl",
                "website": "http:\/\/psm.stargard.pl",
                "ref:regon": "320088725",
                "operator": "Ministerstwo Kultury I Dziedzictwa Narodowego",
                "operator:type": "public",
                "amenity": "music_school",
                "note": "Parent RSPO: 15492"
            }
        },
        {
            "id": 15930,
            "type": "Feature",
            "geometry": {
                "type": "Point",
                "coordinates": [
                    15.01168,
                    53.33784
                ]
            },
            "properties": {
                "ref:rspo": 15930,
                "official_name": "Przedszkole Miejskie nr 4 im. Jana Brzechwy",
                "name": "Przedszkole Miejskie nr 4",
                "addr:postcode": "73-110",
                "addr:city": "Stargard",
                "addr:street": "Osiedle Osiedle Zach\u00f3d",
                "addr:housenumber": "B\/2",
                "addr:city:simc": 979596,
                "addr:street:sym_ul": 42910,
                "phone": "+48 915730935",
                "email": "pm4@um.stargard.pl",
                "ref:regon": "320933095",
                "ref:vatin": "PL8542386520",
                "operator": "Gmina-Miasto Stargard",
                "operator:type": "government",
                "amenity": "kindergarten"
            }
        },
        {
            "id": 17844,
            "type": "Feature",
            "geometry": {
                "type": "Point",
                "coordinates": [
                    15.01781,
                    53.3383899
                ]
            },
            "properties": {
                "isced:level": "1;2",
                "ref:rspo": 17844,
                "official_name": "Szko\u0142a Podstawowa nr 2 z Oddzia\u0142ami Integracyjnymi",
                "name": "Szko\u0142a Podstawowa nr 2 z Oddzia\u0142ami Integracyjnymi",
                "addr:postcode": "73-110",
                "addr:city": "Stargard",
                "addr:street": "Osiedle Osiedle Zach\u00f3d",
                "addr:housenumber": "A",
                "addr:door": "5",
                "addr:city:simc": 979596,
                "addr:street:sym_ul": 42910,
                "phone": "+48 915734145",
                "email": "sekretariat@zsostargard.pl",
                "website": "http:\/\/www.sp2stargard.pl",
                "ref:regon": "812078396",
                "operator": "Gmina-Miasto Stargard",
                "operator:type": "government",
                "amenity": "school"
            }
        },
        {
            "id": 15635,
            "type": "Feature",
            "geometry": {
                "type": "Point",
                "coordinates": [
                    15.04746,
                    53.339
                ]
            },
            "properties": {
                "isced:level": "1;2",
                "ref:rspo": 15635,
                "official_name": "Szko\u0142a Podstawowa nr 5 im. Jana Paw\u0142a Ii",
                "name": "Szko\u0142a Podstawowa nr 5",
                "addr:postcode": "73-110",
                "addr:city": "Stargard",
                "addr:street": "Ku\u015bnierzy",
                "addr:housenumber": "7",
                "addr:city:simc": 979596,
                "addr:street:sym_ul": 10501,
                "phone": "+48 915771301",
                "email": "sekretariat@sp5.stargard.edu.pl",
                "website": "http:\/\/sp5stargard.pl",
                "ref:regon": "000241235",
                "ref:vatin": "PL8541290261",
                "operator": "Gmina-Miasto Stargard",
                "operator:type": "government",
                "amenity": "school"
            }
        },
        {
            "id": 5930,
            "type": "Feature",
            "geometry": {
                "type": "Point",
                "coordinates": [
                    15.0294,
                    53.33901
                ]
            },
            "properties": {
                "isced:level": "3",
                "ref:rspo": 5930,
                "official_name": "Niepubliczne Liceum Og\u00f3lnokszta\u0142c\u0105ce",
                "name": "Niepubliczne Liceum Og\u00f3lnokszta\u0142c\u0105ce",
                "addr:postcode": "73-110",
                "addr:city": "Stargard",
                "addr:street": "Szczeci\u0144ska",
                "addr:housenumber": "6",
                "addr:city:simc": 979596,
                "addr:street:sym_ul": 21805,
                "phone": "+48 918341122",
                "email": "liceum.stargard@gmail.com",
                "website": "http:\/\/www.gsn.com.pl",
                "ref:regon": "321267631",
                "operator": "Ewa Kopczy\u0144ska",
                "operator:type": "private",
                "amenity": "school"
            }
        },
        {
            "id": 5932,
            "type": "Feature",
            "geometry": {
                "type": "Point",
                "coordinates": [
                    15.0294,
                    53.33898
                ]
            },
            "properties": {
                "isced:level": "3",
                "ref:rspo": 5932,
                "official_name": "Niepubliczne Liceum Og\u00f3lnokszta\u0142c\u0105ce dla Doros\u0142ychh",
                "name": "Niepubliczne Liceum Og\u00f3lnokszta\u0142c\u0105ce dla Doros\u0142ychh",
                "addr:postcode": "73-110",
                "addr:city": "Stargard",
                "addr:street": "Szczeci\u0144ska",
                "addr:housenumber": "6",
                "addr:city:simc": 979596,
                "addr:street:sym_ul": 21805,
                "phone": "+48 918341122",
                "email": "liceum.stargard@gmail.com",
                "website": "http:\/\/www.gsn.com.pl",
                "ref:regon": "321267743",
                "operator": "Ewa Kopczy\u0144ska",
                "operator:type": "private",
                "amenity": "school"
            }
        },
        {
            "id": 16879,
            "type": "Feature",
            "geometry": {
                "type": "Point",
                "coordinates": [
                    15.0294,
                    53.338950000000004
                ]
            },
            "properties": {
                "ref:rspo": 16879,
                "official_name": "Centrum Kszta\u0142cenia Zawodowego",
                "name": "Centrum Kszta\u0142cenia Zawodowego",
                "addr:postcode": "73-110",
                "addr:city": "Stargard",
                "addr:street": "Szczeci\u0144ska",
                "addr:housenumber": "6",
                "addr:city:simc": 979596,
                "addr:street:sym_ul": 21805,
                "phone": "+48 915772642",
                "email": "stargard@wzdz.pl",
                "website": "http:\/\/www.wzdz.pl",
                "ref:regon": "321283601",
                "operator": "Wojew\u00f3dzki Zak\u0142ad Doskonalenia Zawodowego W Szczecinie",
                "operator:type": "ngo",
                "fixme": "w zale\u017cno\u015bci od przedmiotu dzia\u0142alno\u015bci (np. amenity=training + training=*, amenity=dancing_school, amenity=language_school, amenity=music_school) albo amenity=school, amenity=college, albo landuse=education w zale\u017cno\u015bci od tego, jakie plac\u00f3wki wchodz\u0105 w sk\u0142ad zespo\u0142u. Sprawd\u017a, kiedy stosowa\u0107 amenity=* a kiedy landuse=education."
            }
        },
        {
            "id": 18562,
            "type": "Feature",
            "geometry": {
                "type": "Point",
                "coordinates": [
                    15.02282,
                    53.33919
                ]
            },
            "properties": {
                "ref:rspo": 18562,
                "official_name": "Niepubliczne Przedszkole Integracyjne \"Weso\u0142a Lokomotywa\"",
                "name": "Niepubliczne Przedszkole Integracyjne \"Weso\u0142a Lokomotywa\"",
                "addr:postcode": "73-110",
                "addr:city": "Stargard",
                "addr:street": "Szczeci\u0144ska",
                "addr:housenumber": "33",
                "addr:city:simc": 979596,
                "addr:street:sym_ul": 21805,
                "email": "m.cwiklinska@wesolalokomotywa.com.pl",
                "website": "http:\/\/www.wesolalokomotywa.com.pl",
                "ref:regon": "321278528",
                "operator": "Magdalena \u0106wikli\u0144ska",
                "operator:type": "private",
                "amenity": "kindergarten"
            }
        },
        {
            "id": 15914,
            "type": "Feature",
            "geometry": {
                "type": "Point",
                "coordinates": [
                    15.012445,
                    53.3393249
                ]
            },
            "properties": {
                "ref:rspo": 15914,
                "official_name": "Przedszkole Miejskie nr 3",
                "name": "Przedszkole Miejskie nr 3",
                "addr:postcode": "73-110",
                "addr:city": "Stargard",
                "addr:street": "Osiedle Osiedle Zach\u00f3d",
                "addr:housenumber": "A\/18",
                "addr:city:simc": 979596,
                "addr:street:sym_ul": 42910,
                "phone": "+48 915732102",
                "email": "pm3@um.stargard.pl",
                "ref:regon": "320928220",
                "ref:vatin": "PL8542386460",
                "operator": "Gmina-Miasto Stargard",
                "operator:type": "government",
                "amenity": "kindergarten"
            }
        },
        {
            "id": 262400,
            "type": "Feature",
            "geometry": {
                "type": "Point",
                "coordinates": [
                    15.008,
                    53.33943
                ]
            },
            "properties": {
                "isced:level": "1;2",
                "ref:rspo": 262400,
                "official_name": "Szko\u0142a Podstawowa nr 11 z Oddzia\u0142ami Mistrzostwa Sportowego",
                "name": "Szko\u0142a Podstawowa nr 11 z Oddzia\u0142ami Mistrzostwa Sportowego",
                "addr:postcode": "73-110",
                "addr:city": "Stargard",
                "addr:street": "Osiedle Osiedle Zach\u00f3d",
                "addr:housenumber": "B\/15",
                "addr:city:simc": 979596,
                "addr:street:sym_ul": 42910,
                "phone": "+48 915732002",
                "email": "sekretariat@sp11stargard.pl",
                "website": "http:\/\/www.sp11stargard.pl",
                "ref:regon": "367995234",
                "ref:vatin": "PL8542418533",
                "operator": "Gmina-Miasto Stargard",
                "operator:type": "government",
                "amenity": "school"
            }
        },
        {
            "id": 5493,
            "type": "Feature",
            "geometry": {
                "type": "Point",
                "coordinates": [
                    15.036959648132,
                    53.339511871338
                ]
            },
            "properties": {
                "ref:rspo": 5493,
                "official_name": "Zesp\u00f3\u0142 Szk\u00f3\u0142 Nr1 im. Mieszka I w Stargardzie Szczeci\u0144skim",
                "name": "Zesp\u00f3\u0142 Szk\u00f3\u0142 Nr1",
                "addr:postcode": "73-110",
                "addr:city": "Stargard",
                "addr:street": "Park 3 Maja",
                "addr:housenumber": "2",
                "addr:city:simc": 979596,
                "addr:street:sym_ul": 38297,
                "phone": "+48 915783777",
                "email": "sekretariat@zs1.stargard.pl",
                "website": "http:\/\/www.zs1.stargard.pl",
                "ref:regon": "000184655",
                "operator": "Powiat Stargardzki",
                "operator:type": "government",
                "landuse": "education",
                "fixme": "amenity=school, amenity=college albo landuse=education w zale\u017cno\u015bci od tego, jakie plac\u00f3wki wchodz\u0105 w sk\u0142ad zespo\u0142u. Sprawd\u017a, kiedy stosowa\u0107 amenity=* a kiedy landuse=education.",
                "note": "Children RSPO: 9303;9304;9308;9309"
            }
        },
        {
            "id": 12289,
            "type": "Feature",
            "geometry": {
                "type": "Point",
                "coordinates": [
                    15.036959648132,
                    53.339481871337995
                ]
            },
            "properties": {
                "isced:level": "4",
                "ref:rspo": 12289,
                "official_name": "Szko\u0142a Policealna Farmaceutyczna w Stargardzie",
                "name": "Szko\u0142a Policealna Farmaceutyczna w Stargardzie",
                "addr:postcode": "73-110",
                "addr:city": "Stargard",
                "addr:street": "Park 3 Maja",
                "addr:housenumber": "2",
                "addr:city:simc": 979596,
                "addr:street:sym_ul": 38297,
                "email": "jsuleja@op.pl",
                "ref:regon": "321276274",
                "operator": "Spo\u0142eczne Stowarzyszenie Prasoznawcze \"Stopka\" Im. Stanis\u0142awa Zag\u00f3rskiego W \u0141om\u017cy",
                "operator:type": "ngo",
                "amenity": "college"
            }
        },
        {
            "id": 278476,
            "type": "Feature",
            "geometry": {
                "type": "Point",
                "coordinates": [
                    15.036959648132,
                    53.339451871338
                ]
            },
            "properties": {
                "isced:level": "1;2",
                "ref:rspo": 278476,
                "official_name": "Integracyjna Szko\u0142a Podstawowa Kreatywni w Stargardzie",
                "name": "Integracyjna Szko\u0142a Podstawowa Kreatywni w Stargardzie",
                "addr:postcode": "73-110",
                "addr:city": "Stargard",
                "addr:street": "Genera\u0142a J\u00f3zefa Bema",
                "addr:housenumber": "6",
                "addr:city:simc": 979596,
                "addr:street:sym_ul": 37883,
                "email": "gschudzik@interia.pl",
                "website": "http:\/\/wwwkreatywnymaluch.stargard.pl",
                "ref:regon": "389917197",
                "operator": "Gra\u017cyna Chudzik",
                "operator:type": "private",
                "amenity": "school"
            }
        },
        {
            "id": 9303,
            "type": "Feature",
            "geometry": {
                "type": "Point",
                "coordinates": [
                    15.036959648132,
                    53.339421871338
                ]
            },
            "properties": {
                "isced:level": "3",
                "ref:rspo": 9303,
                "official_name": "Technikum Zawodowe nr 1",
                "name": "Technikum Zawodowe nr 1",
                "addr:postcode": "73-110",
                "addr:city": "Stargard",
                "addr:street": "Park 3 Maja",
                "addr:housenumber": "2",
                "addr:city:simc": 979596,
                "addr:street:sym_ul": 38297,
                "phone": "+48 915773777",
                "email": "poczta@zs1.stargard.pl",
                "ref:regon": "812078440",
                "operator": "Powiat Stargardzki",
                "operator:type": "government",
                "amenity": "school",
                "note": "Parent RSPO: 5493"
            }
        },
        {
            "id": 9304,
            "type": "Feature",
            "geometry": {
                "type": "Point",
                "coordinates": [
                    15.036959648132,
                    53.339391871337995
                ]
            },
            "properties": {
                "isced:level": "3",
                "ref:rspo": 9304,
                "official_name": "Bran\u017cowa Szko\u0142a I Stopnia nr 1 w Stargardzie",
                "name": "Bran\u017cowa Szko\u0142a I Stopnia nr 1 w Stargardzie",
                "addr:postcode": "73-110",
                "addr:city": "Stargard",
                "addr:street": "Park 3 Maja",
                "addr:housenumber": "2",
                "addr:city:simc": 979596,
                "addr:street:sym_ul": 38297,
                "phone": "+48 915772789",
                "email": "poczta@zs1.stargard.pl",
                "ref:regon": "812078433",
                "operator": "Powiat Stargardzki",
                "operator:type": "government",
                "amenity": "school",
                "note": "Parent RSPO: 5493"
            }
        },
        {
            "id": 9308,
            "type": "Feature",
            "geometry": {
                "type": "Point",
                "coordinates": [
                    15.036959648132,
                    53.339361871338
                ]
            },
            "properties": {
                "isced:level": "4",
                "ref:rspo": 9308,
                "official_name": "Powiatowe Centrum Kszta\u0142cenia Ustawicznego Szko\u0142a Policealna dla Doros\u0142ych nr 1",
                "name": "Powiatowe Centrum Kszta\u0142cenia Ustawicznego Szko\u0142a Policealna dla Doros\u0142ych nr 1",
                "addr:postcode": "73-110",
                "addr:city": "Stargard",
                "addr:street": "Park 3 Maja",
                "addr:housenumber": "2",
                "addr:city:simc": 979596,
                "addr:street:sym_ul": 38297,
                "phone": "+48 915772789",
                "email": "poczta@zs1.stargard.pl",
                "ref:regon": "320045957",
                "operator": "Powiat Stargardzki",
                "operator:type": "government",
                "amenity": "college",
                "note": "Parent RSPO: 5493"
            }
        },
        {
            "id": 9309,
            "type": "Feature",
            "geometry": {
                "type": "Point",
                "coordinates": [
                    15.036959648132,
                    53.339331871338
                ]
            },
            "properties": {
                "isced:level": "3",
                "ref:rspo": 9309,
                "official_name": "Powiatowe Centrum Kszta\u0142cenia Ustawicznego- Liceum Og\u00f3lnokszta\u0142c\u0105ce dla Doros\u0142ych",
                "name": "Powiatowe Centrum Kszta\u0142cenia Ustawicznego- Liceum Og\u00f3lnokszta\u0142c\u0105ce dla Doros\u0142ych",
                "addr:postcode": "73-110",
                "addr:city": "Stargard",
                "addr:street": "Park 3 Maja",
                "addr:housenumber": "2",
                "addr:city:simc": 979596,
                "addr:street:sym_ul": 38297,
                "phone": "+48 915772789",
                "email": "poczta@zs1.stargard.pl",
                "ref:regon": "812643034",
                "operator": "Powiat Stargardzki",
                "operator:type": "government",
                "amenity": "school",
                "note": "Parent RSPO: 5493"
            }
        },
        {
            "id": 47460,
            "type": "Feature",
            "geometry": {
                "type": "Point",
                "coordinates": [
                    15.02508,
                    53.33987
                ]
            },
            "properties": {
                "ref:rspo": 47460,
                "official_name": "Centrum Kszta\u0142cenia Ustawicznego I Praktycznego \"Cech\" w Stargardzie",
                "name": "Centrum Kszta\u0142cenia Ustawicznego I Praktycznego \"Cech\" w Stargardzie",
                "addr:postcode": "73-110",
                "addr:city": "Stargard",
                "addr:street": "Kaszubska",
                "addr:housenumber": "19",
                "addr:city:simc": 979596,
                "addr:street:sym_ul": 8183,
                "phone": "+48 915790440",
                "email": "cechstargard@pro.onet.pl",
                "website": "http:\/\/www.cech.stargard.pl",
                "ref:regon": "321288490",
                "operator": "Cech Rzemios\u0142 R\u00f3\u017cnych",
                "operator:type": "cooperative",
                "fixme": "w zale\u017cno\u015bci od przedmiotu dzia\u0142alno\u015bci (np. amenity=training + training=*, amenity=dancing_school, amenity=language_school, amenity=music_school)"
            }
        },
        {
            "id": 278019,
            "type": "Feature",
            "geometry": {
                "type": "Point",
                "coordinates": [
                    15.0438,
                    53.33997
                ]
            },
            "properties": {
                "ref:rspo": 278019,
                "official_name": "Zesp\u00f3\u0142 Szk\u00f3\u0142 Specjalnych w Stargardzie",
                "name": "Zesp\u00f3\u0142 Szk\u00f3\u0142 Specjalnych w Stargardzie",
                "addr:postcode": "73-110",
                "addr:city": "Stargard",
                "addr:street": "Wita Stwosza",
                "addr:housenumber": "1A\/1B",
                "addr:city:simc": 979596,
                "addr:street:sym_ul": 21435,
                "phone": "+48 915787346",
                "email": "sekretariat@zsspec.stargard.pl",
                "ref:regon": "389746011",
                "ref:vatin": "PL8542436092",
                "operator": "Powiat Stargardzki",
                "operator:type": "government",
                "landuse": "education",
                "fixme": "amenity=school, amenity=college albo landuse=education w zale\u017cno\u015bci od tego, jakie plac\u00f3wki wchodz\u0105 w sk\u0142ad zespo\u0142u. Sprawd\u017a, kiedy stosowa\u0107 amenity=* a kiedy landuse=education.",
                "note": "Children RSPO: 10742;278004"
            }
        },
        {
            "id": 278004,
            "type": "Feature",
            "geometry": {
                "type": "Point",
                "coordinates": [
                    15.0438,
                    53.33994
                ]
            },
            "properties": {
                "ref:rspo": 278004,
                "official_name": "Szko\u0142a Specjalna Przysposabiaj\u0105ca do Pracy nr 1 w Stargardzie",
                "name": "Szko\u0142a Specjalna Przysposabiaj\u0105ca do Pracy nr 1 w Stargardzie",
                "addr:postcode": "73-110",
                "addr:city": "Stargard",
                "addr:street": "Wita Stwosza",
                "addr:housenumber": "1A\/1B",
                "addr:city:simc": 979596,
                "addr:street:sym_ul": 21435,
                "phone": "+48 915787346",
                "ref:regon": "389738709",
                "operator": "Powiat Stargardzki",
                "operator:type": "government",
                "amenity": "school",
                "note": "Parent RSPO: 278019"
            }
        },
        {
            "id": 10742,
            "type": "Feature",
            "geometry": {
                "type": "Point",
                "coordinates": [
                    15.0437206,
                    53.3400397
                ]
            },
            "properties": {
                "isced:level": "1;2",
                "ref:rspo": 10742,
                "official_name": "Szko\u0142a Podstawowa Specjalna im. Juliana Tuwima w Stargardzie",
                "name": "Szko\u0142a Podstawowa Specjalna",
                "addr:postcode": "73-110",
                "addr:city": "Stargard",
                "addr:street": "Wita Stwosza",
                "addr:housenumber": "1a",
                "addr:door": "1b",
                "addr:city:simc": 979596,
                "addr:street:sym_ul": 21435,
                "phone": "+48 915787346",
                "email": "sekretariat@zsspec.stargard.pl",
                "website": "http:\/\/www.zsspec.stargard.pl",
                "ref:regon": "000244506",
                "operator": "Powiat Stargardzki",
                "operator:type": "government",
                "amenity": "school",
                "note": "Parent RSPO: 278019"
            }
        },
        {
            "id": 262714,
            "type": "Feature",
            "geometry": {
                "type": "Point",
                "coordinates": [
                    15.01329,
                    53.34014
                ]
            },
            "properties": {
                "ref:rspo": 262714,
                "official_name": "Niepubliczna Poradnia Psychologiczno-Pedagogiczna \"Pod Parasolem\"",
                "name": "Niepubliczna Poradnia Psychologiczno-Pedagogiczna \"Pod Parasolem\"",
                "addr:postcode": "73-110",
                "addr:city": "Stargard",
                "addr:street": "Szczeci\u0144ska",
                "addr:housenumber": "71",
                "addr:door": "122,124",
                "addr:city:simc": 979596,
                "addr:street:sym_ul": 21805,
                "phone": "+48 609290191",
                "ref:regon": "368054440",
                "operator": "Ma\u0142gorzata Sak\u00f3w",
                "operator:type": "private",
                "healthcare": "counselling",
                "counselling_type": "education",
                "fixme": "w zale\u017cno\u015bci od przedmiotu dzia\u0142alno\u015bci (np. healthcare=counselling + counselling_type=education albo healthcare=psychotherapist)"
            }
        },
        {
            "id": 5494,
            "type": "Feature",
            "geometry": {
                "type": "Point",
                "coordinates": [
                    15.01162,
                    53.34045
                ]
            },
            "properties": {
                "ref:rspo": 5494,
                "official_name": "Zesp\u00f3\u0142 Szk\u00f3\u0142 nr 2",
                "name": "Zesp\u00f3\u0142 Szk\u00f3\u0142 nr 2",
                "addr:postcode": "73-110",
                "addr:city": "Stargard",
                "addr:street": "Osiedle Osiedle Zach\u00f3d",
                "addr:housenumber": "B",
                "addr:door": "15a",
                "addr:city:simc": 979596,
                "addr:street:sym_ul": 42910,
                "phone": "+48 915734304",
                "email": "poczta@zs2-stargard.edu.pl",
                "website": "http:\/\/www.zs2-stargard.edu.pl",
                "ref:regon": "000184141",
                "operator": "Powiat Stargardzki",
                "operator:type": "government",
                "landuse": "education",
                "fixme": "amenity=school, amenity=college albo landuse=education w zale\u017cno\u015bci od tego, jakie plac\u00f3wki wchodz\u0105 w sk\u0142ad zespo\u0142u. Sprawd\u017a, kiedy stosowa\u0107 amenity=* a kiedy landuse=education.",
                "note": "Children RSPO: 9305;9306"
            }
        },
        {
            "id": 9305,
            "type": "Feature",
            "geometry": {
                "type": "Point",
                "coordinates": [
                    15.01162,
                    53.340419999999995
                ]
            },
            "properties": {
                "isced:level": "3",
                "ref:rspo": 9305,
                "official_name": "Technikum Zawodowe nr 2 im. Miko\u0142aja Kopernika",
                "name": "Technikum Zawodowe nr 2",
                "addr:postcode": "73-110",
                "addr:city": "Stargard",
                "addr:street": "Osiedle Osiedle Zach\u00f3d",
                "addr:housenumber": "B",
                "addr:door": "15a",
                "addr:city:simc": 979596,
                "addr:street:sym_ul": 42910,
                "phone": "+48 915734304",
                "email": "poczta@zs2-stargard.edu.pl",
                "ref:regon": "812079898",
                "operator": "Powiat Stargardzki",
                "operator:type": "government",
                "amenity": "school",
                "note": "Parent RSPO: 5494"
            }
        },
        {
            "id": 9306,
            "type": "Feature",
            "geometry": {
                "type": "Point",
                "coordinates": [
                    15.01162,
                    53.34039
                ]
            },
            "properties": {
                "isced:level": "3",
                "ref:rspo": 9306,
                "official_name": "Bran\u017cowa Szko\u0142a I Stopnia nr 2 im. Miko\u0142aja Kopernika w Stargardzie",
                "name": "Bran\u017cowa Szko\u0142a I Stopnia nr 2",
                "addr:postcode": "73-110",
                "addr:city": "Stargard",
                "addr:street": "Osiedle Osiedle Zach\u00f3d",
                "addr:housenumber": "B",
                "addr:door": "15a",
                "addr:city:simc": 979596,
                "addr:street:sym_ul": 42910,
                "phone": "+48 915734304",
                "email": "poczta@zs2-stargard.edu.pl",
                "ref:regon": "812079941",
                "operator": "Powiat Stargardzki",
                "operator:type": "government",
                "amenity": "school",
                "note": "Parent RSPO: 5494"
            }
        },
        {
            "id": 4025,
            "type": "Feature",
            "geometry": {
                "type": "Point",
                "coordinates": [
                    15.04677,
                    53.34131
                ]
            },
            "properties": {
                "ref:rspo": 4025,
                "official_name": "Przedszkole Miejskie nr 1 z Oddzia\u0142ami Integracyjnymi",
                "name": "Przedszkole Miejskie nr 1 z Oddzia\u0142ami Integracyjnymi",
                "addr:postcode": "73-110",
                "addr:city": "Stargard",
                "addr:street": "Spichrzowa",
                "addr:housenumber": "6",
                "addr:city:simc": 979596,
                "addr:street:sym_ul": 20661,
                "phone": "+48 915771087",
                "email": "pm1@um.stargard.pl",
                "ref:regon": "320932799",
                "ref:vatin": "PL8542386537",
                "operator": "Gmina-Miasto Stargard",
                "operator:type": "government",
                "amenity": "kindergarten"
            }
        },
        {
            "id": 18403,
            "type": "Feature",
            "geometry": {
                "type": "Point",
                "coordinates": [
                    15.0347,
                    53.34153
                ]
            },
            "properties": {
                "ref:rspo": 18403,
                "official_name": "Niepubliczne Przedszkole z Oddzia\u0142ami Integracyjnymi \"T\u0119czowa Przygoda\"",
                "name": "Niepubliczne Przedszkole z Oddzia\u0142ami Integracyjnymi \"T\u0119czowa Przygoda\"",
                "addr:postcode": "73-110",
                "addr:city": "Stargard",
                "addr:street": "Adama Mickiewicza",
                "addr:housenumber": "4a",
                "addr:door": "17",
                "addr:city:simc": 979596,
                "addr:street:sym_ul": 12740,
                "email": "msb@teczowaprzygoda.pl",
                "website": "http:\/\/teczowaprzygoda.pl",
                "ref:regon": "321278468",
                "operator": "Magdalena Sawicka-Bartosik",
                "operator:type": "private",
                "amenity": "kindergarten"
            }
        },
        {
            "id": 16112,
            "type": "Feature",
            "geometry": {
                "type": "Point",
                "coordinates": [
                    15.04375,
                    53.34192
                ]
            },
            "properties": {
                "ref:rspo": 16112,
                "official_name": "M\u0142odzie\u017cowy Dom Kultury",
                "name": "M\u0142odzie\u017cowy Dom Kultury",
                "addr:postcode": "73-110",
                "addr:city": "Stargard",
                "addr:street": "Portowa",
                "addr:housenumber": "3",
                "addr:city:simc": 979596,
                "addr:street:sym_ul": 17217,
                "phone": "+48 918344301",
                "email": "sekretariat@mdk.stargard.pl",
                "website": "http:\/\/mdk.stargard.pl",
                "ref:regon": "810685175",
                "ref:vatin": "PL8541031714",
                "operator": "Gmina-Miasto Stargard",
                "operator:type": "government",
                "amenity": "community_centre",
                "community_centre:for": "juvenile"
            }
        },
        {
            "id": 14322,
            "type": "Feature",
            "geometry": {
                "type": "Point",
                "coordinates": [
                    15.00981,
                    53.34217
                ]
            },
            "properties": {
                "isced:level": "1;2",
                "ref:rspo": 14322,
                "official_name": "Szko\u0142a Podstawowa nr 4",
                "name": "Szko\u0142a Podstawowa nr 4",
                "addr:postcode": "73-110",
                "addr:city": "Stargard",
                "addr:street": "Wielkopolska",
                "addr:housenumber": "30",
                "addr:city:simc": 979596,
                "addr:street:sym_ul": 24096,
                "phone": "+48 915733970",
                "email": "sp4stargard@wp.pl",
                "website": "http:\/\/sp4stargard.szkolnastrona.pl",
                "ref:regon": "000240201",
                "ref:vatin": "PL8541015460",
                "operator": "Gmina-Miasto Stargard",
                "operator:type": "government",
                "amenity": "school"
            }
        },
        {
            "id": 48627,
            "type": "Feature",
            "geometry": {
                "type": "Point",
                "coordinates": [
                    15.03552,
                    53.34219
                ]
            },
            "properties": {
                "isced:level": "3",
                "ref:rspo": 48627,
                "official_name": "Niepubliczne Liceum Og\u00f3lnokszta\u0142c\u0105ce w Stargardzie \"Nad In\u0105\"",
                "name": "Niepubliczne Liceum Og\u00f3lnokszta\u0142c\u0105ce w Stargardzie \"Nad In\u0105\"",
                "addr:postcode": "73-110",
                "addr:city": "Stargard",
                "addr:street": "Marsza\u0142ka J\u00f3zefa Pi\u0142sudskiego",
                "addr:housenumber": "99",
                "addr:door": "3",
                "addr:city:simc": 979596,
                "addr:street:sym_ul": 36029,
                "phone": "+48 915772307",
                "email": "nlostargard@op.pl",
                "ref:regon": "321289584",
                "operator": "Jerzy Panz",
                "operator:type": "private",
                "amenity": "school"
            }
        },
        {
            "id": 5500,
            "type": "Feature",
            "geometry": {
                "type": "Point",
                "coordinates": [
                    15.02469,
                    53.34227
                ]
            },
            "properties": {
                "ref:rspo": 5500,
                "official_name": "Centrum Kszta\u0142cenia Zawodowego",
                "name": "Centrum Kszta\u0142cenia Zawodowego",
                "addr:postcode": "73-110",
                "addr:city": "Stargard",
                "addr:street": "Pierwszej Brygady",
                "addr:housenumber": "35",
                "addr:city:simc": 979596,
                "addr:street:sym_ul": 16155,
                "phone": "+48 918345254",
                "email": "sekretariat@ckzstargard.pl",
                "website": "http:\/\/www.ckzstargard.pl",
                "ref:regon": "812620702",
                "operator": "Powiat Stargardzki",
                "operator:type": "government",
                "fixme": "w zale\u017cno\u015bci od przedmiotu dzia\u0142alno\u015bci (np. amenity=training + training=*, amenity=dancing_school, amenity=language_school, amenity=music_school) albo amenity=school, amenity=college, albo landuse=education w zale\u017cno\u015bci od tego, jakie plac\u00f3wki wchodz\u0105 w sk\u0142ad zespo\u0142u. Sprawd\u017a, kiedy stosowa\u0107 amenity=* a kiedy landuse=education."
            }
        },
        {
            "id": 21134,
            "type": "Feature",
            "geometry": {
                "type": "Point",
                "coordinates": [
                    15.05261,
                    53.3426199
                ]
            },
            "properties": {
                "ref:rspo": 21134,
                "official_name": "Domowe Przedszkole \"Kubusia Puchatka\"",
                "name": "Domowe Przedszkole \"Kubusia Puchatka\"",
                "addr:postcode": "73-110",
                "addr:city": "Stargard",
                "addr:street": "Grunwaldzka",
                "addr:housenumber": "1",
                "addr:city:simc": 979596,
                "addr:street:sym_ul": 6260,
                "phone": "+48 915772628",
                "email": "danuta.zieba@przedszkolekubusia.pl",
                "ref:regon": "321280070",
                "ref:vatin": "PL8541491232",
                "operator": "Danuta Zi\u0119ba",
                "operator:type": "private",
                "amenity": "kindergarten"
            }
        },
        {
            "id": 11355,
            "type": "Feature",
            "geometry": {
                "type": "Point",
                "coordinates": [
                    15.0260435,
                    53.3426677
                ]
            },
            "properties": {
                "isced:level": "3",
                "ref:rspo": 11355,
                "official_name": "Liceum Og\u00f3lnokszta\u0142c\u0105ce dla Doros\u0142ych w Stargardzie Szceci\u0144skim",
                "name": "Liceum Og\u00f3lnokszta\u0142c\u0105ce dla Doros\u0142ych w Stargardzie Szceci\u0144skim",
                "addr:postcode": "73-110",
                "addr:city": "Stargard",
                "addr:street": "Pierwszej Brygady",
                "addr:housenumber": "15",
                "addr:door": "a",
                "addr:city:simc": 979596,
                "addr:street:sym_ul": 16155,
                "phone": "+48 601779106",
                "email": "olam@dks.stargard.pl",
                "ref:regon": "321272951",
                "operator": "Stanis\u0142aw Wyszy\u0144ski",
                "operator:type": "private",
                "amenity": "school"
            }
        },
        {
            "id": 125675,
            "type": "Feature",
            "geometry": {
                "type": "Point",
                "coordinates": [
                    15.0260435,
                    53.3426377
                ]
            },
            "properties": {
                "isced:level": "1;2",
                "ref:rspo": 125675,
                "official_name": "Polsko-Angielska Szko\u0142a Podstawowa T\u0119czowe Abecad\u0142o",
                "name": "Polsko-Angielska Szko\u0142a Podstawowa T\u0119czowe Abecad\u0142o",
                "addr:postcode": "73-110",
                "addr:city": "Stargard",
                "addr:street": "Pierwszej Brygady",
                "addr:housenumber": "15",
                "addr:door": "B",
                "addr:city:simc": 979596,
                "addr:street:sym_ul": 16155,
                "email": "msawicka24@wp.pl",
                "website": "http:\/\/teczoweabecadlo.pl",
                "ref:regon": "321583898",
                "operator": "Magdalena Sawicka-Bartosik",
                "operator:type": "private",
                "amenity": "school"
            }
        },
        {
            "id": 11351,
            "type": "Feature",
            "geometry": {
                "type": "Point",
                "coordinates": [
                    15.0259,
                    53.34274
                ]
            },
            "properties": {
                "isced:level": "3",
                "ref:rspo": 11351,
                "official_name": "Technikum Hotelarskie w Stargardzie",
                "name": "Technikum Hotelarskie w Stargardzie",
                "addr:postcode": "73-110",
                "addr:city": "Stargard",
                "addr:street": "Pierwszej Brygady",
                "addr:housenumber": "15A",
                "addr:city:simc": 979596,
                "addr:street:sym_ul": 16155,
                "phone": "+48 915787888",
                "email": "szkola@zsp1.stargard.pl",
                "website": "http:\/\/www.zsp1.stargard.pl",
                "ref:regon": "321272885",
                "operator": "Zesp\u00f3\u0142 Szk\u00f3\u0142 Prywatnych Nr 1 Sp\u00f3\u0142ka Z Ograniczon\u0105 Odpowiedzialno\u015bci\u0105",
                "operator:type": "private",
                "amenity": "school"
            }
        },
        {
            "id": 11353,
            "type": "Feature",
            "geometry": {
                "type": "Point",
                "coordinates": [
                    15.0259,
                    53.34271
                ]
            },
            "properties": {
                "isced:level": "3",
                "ref:rspo": 11353,
                "official_name": "Technikum Informatyczne w Stargardzie",
                "name": "Technikum Informatyczne w Stargardzie",
                "addr:postcode": "73-110",
                "addr:city": "Stargard",
                "addr:street": "Pierwszej Brygady",
                "addr:housenumber": "15A",
                "addr:city:simc": 979596,
                "addr:street:sym_ul": 16155,
                "phone": "+48 915787888",
                "email": "szkola@zsp1.stargard.pl",
                "website": "http:\/\/www.zsp1.stargard.pl",
                "ref:regon": "321272939",
                "operator": "Zesp\u00f3\u0142 Szk\u00f3\u0142 Prywatnych Nr 1 Sp\u00f3\u0142ka Z Ograniczon\u0105 Odpowiedzialno\u015bci\u0105",
                "operator:type": "private",
                "amenity": "school"
            }
        },
        {
            "id": 11357,
            "type": "Feature",
            "geometry": {
                "type": "Point",
                "coordinates": [
                    15.0259,
                    53.34268
                ]
            },
            "properties": {
                "isced:level": "3",
                "ref:rspo": 11357,
                "official_name": "Liceum Og\u00f3lnokszta\u0142c\u0105ce dla M\u0142odzie\u017cy w Stargardzie",
                "name": "Liceum Og\u00f3lnokszta\u0142c\u0105ce dla M\u0142odzie\u017cy w Stargardzie",
                "addr:postcode": "73-110",
                "addr:city": "Stargard",
                "addr:street": "Pierwszej Brygady",
                "addr:housenumber": "15A",
                "addr:city:simc": 979596,
                "addr:street:sym_ul": 16155,
                "phone": "+48 915787888",
                "email": "szkola@zsp1.stargard.pl",
                "website": "http:\/\/www.zsp1.stargard.pl",
                "ref:regon": "321272974",
                "operator": "Zesp\u00f3\u0142 Szk\u00f3\u0142 Prywatnych Nr 1 Sp\u00f3\u0142ka Z Ograniczon\u0105 Odpowiedzialno\u015bci\u0105",
                "operator:type": "private",
                "amenity": "school"
            }
        },
        {
            "id": 16189,
            "type": "Feature",
            "geometry": {
                "type": "Point",
                "coordinates": [
                    15.05582,
                    53.34288
                ]
            },
            "properties": {
                "ref:rspo": 16189,
                "official_name": "Przedszkole Niepubliczne \"Calineczka\"",
                "name": "Przedszkole Niepubliczne \"Calineczka\"",
                "addr:postcode": "73-110",
                "addr:city": "Stargard",
                "addr:street": "Jana Kili\u0144skiego",
                "addr:housenumber": "14",
                "addr:city:simc": 979596,
                "addr:street:sym_ul": 8435,
                "phone": "+48 915776778",
                "email": "stargard.calineczka@wp.pl",
                "website": "http:\/\/przedszkolecalineczka.com.pl",
                "ref:regon": "321275560",
                "ref:vatin": "PL8541264275",
                "operator": "Krzysztofa W\u0105sowska",
                "operator:type": "private",
                "amenity": "kindergarten"
            }
        },
        {
            "id": 47543,
            "type": "Feature",
            "geometry": {
                "type": "Point",
                "coordinates": [
                    14.99916,
                    53.34388
                ]
            },
            "properties": {
                "ref:rspo": 47543,
                "official_name": "Osrodek Kszta\u0142cenia Kursowego Renoma Piotr Jezierski",
                "name": "Osrodek Kszta\u0142cenia Kursowego Renoma Piotr Jezierski",
                "addr:postcode": "73-110",
                "addr:city": "Stargard",
                "addr:street": "Bornholmska",
                "addr:housenumber": "92",
                "addr:city:simc": 979596,
                "addr:street:sym_ul": 39791,
                "phone": "+48 693915600",
                "ref:regon": "321288544",
                "operator": "Piotr Jezierski",
                "operator:type": "private",
                "fixme": "w zale\u017cno\u015bci od przedmiotu dzia\u0142alno\u015bci (np. amenity=training + training=*, amenity=dancing_school, amenity=language_school, amenity=music_school)"
            }
        },
        {
            "id": 18929,
            "type": "Feature",
            "geometry": {
                "type": "Point",
                "coordinates": [
                    15.01744,
                    53.34449
                ]
            },
            "properties": {
                "ref:rspo": 18929,
                "official_name": "Niepubliczne Przedszkole\"Chatka Ma\u0142olatka\"",
                "name": "Niepubliczne Przedszkole\"Chatka Ma\u0142olatka\"",
                "addr:postcode": "73-110",
                "addr:city": "Stargard",
                "addr:street": "Ceglana",
                "addr:housenumber": "14",
                "addr:city:simc": 979596,
                "addr:street:sym_ul": 2587,
                "phone": "+48 509291806",
                "email": "info@chatka-malolatka.com.pl",
                "ref:regon": "321278480",
                "operator": "Ma\u0142gorzata Ku\u015bmirek",
                "operator:type": "private",
                "amenity": "kindergarten"
            }
        },
        {
            "id": 16045,
            "type": "Feature",
            "geometry": {
                "type": "Point",
                "coordinates": [
                    15.00384,
                    53.34484
                ]
            },
            "properties": {
                "ref:rspo": 16045,
                "official_name": "Przedszkole Miejskie nr 6 Promyczek",
                "name": "Przedszkole Miejskie nr 6 Promyczek",
                "addr:postcode": "73-110",
                "addr:city": "Stargard",
                "addr:street": "Stanis\u0142awa Niewiadomskiego",
                "addr:housenumber": "14",
                "addr:city:simc": 979596,
                "addr:street:sym_ul": 14237,
                "phone": "+48 915731771",
                "email": "pm6@um.stargard.pl",
                "website": "http:\/\/pm6promyczekstargard.pl",
                "ref:regon": "320928444",
                "ref:vatin": "PL8542386477",
                "operator": "Gmina-Miasto Stargard",
                "operator:type": "government",
                "amenity": "kindergarten"
            }
        },
        {
            "id": 3993,
            "type": "Feature",
            "geometry": {
                "type": "Point",
                "coordinates": [
                    15.03666,
                    53.34485
                ]
            },
            "properties": {
                "isced:level": "1;2",
                "ref:rspo": 3993,
                "official_name": "Szko\u0142a Podstawowa nr 3 im.kornela Makuszy\u0144skiego z Oddzia\u0142ami Mistrzostwa Sportowego",
                "name": "Szko\u0142a Podstawowa nr 3 im.kornela Makuszy\u0144skiego z Oddzia\u0142ami Mistrzostwa Sportowego",
                "addr:postcode": "73-110",
                "addr:city": "Stargard",
                "addr:street": "Boles\u0142awa Limanowskiego",
                "addr:housenumber": "7, 9",
                "addr:city:simc": 979596,
                "addr:street:sym_ul": 11074,
                "phone": "+48 915783602",
                "email": "sp3stargard@wp.pl",
                "website": "http:\/\/www.sp3.stargard.pl",
                "ref:regon": "000238983",
                "operator": "Gmina-Miasto Stargard",
                "operator:type": "government",
                "amenity": "school"
            }
        },
        {
            "id": 5496,
            "type": "Feature",
            "geometry": {
                "type": "Point",
                "coordinates": [
                    15.01517,
                    53.34528
                ]
            },
            "properties": {
                "ref:rspo": 5496,
                "official_name": "Zesp\u00f3L Szk\u00f3\u0142 Budowlano-Technicznych",
                "name": "Zesp\u00f3L Szk\u00f3\u0142 Budowlano-Technicznych",
                "addr:postcode": "73-110",
                "addr:city": "Stargard",
                "addr:street": "Ceglana",
                "addr:housenumber": "11",
                "addr:city:simc": 979596,
                "addr:street:sym_ul": 2587,
                "phone": "+48 915733071",
                "email": "sekretariat@zsbt.pl",
                "ref:regon": "812620599",
                "operator": "Powiat Stargardzki",
                "operator:type": "government",
                "landuse": "education",
                "fixme": "amenity=school, amenity=college albo landuse=education w zale\u017cno\u015bci od tego, jakie plac\u00f3wki wchodz\u0105 w sk\u0142ad zespo\u0142u. Sprawd\u017a, kiedy stosowa\u0107 amenity=* a kiedy landuse=education.",
                "note": "Children RSPO: 10100;10101"
            }
        },
        {
            "id": 10100,
            "type": "Feature",
            "geometry": {
                "type": "Point",
                "coordinates": [
                    15.01517,
                    53.34525
                ]
            },
            "properties": {
                "isced:level": "3",
                "ref:rspo": 10100,
                "official_name": "Technikum Zawodowe nr 3",
                "name": "Technikum Zawodowe nr 3",
                "addr:postcode": "73-110",
                "addr:city": "Stargard",
                "addr:street": "Ceglana",
                "addr:housenumber": "11",
                "addr:city:simc": 979596,
                "addr:street:sym_ul": 2587,
                "phone": "+48 915733071",
                "email": "sekretariat@zsbt.pl",
                "ref:regon": "812621558",
                "operator": "Powiat Stargardzki",
                "operator:type": "government",
                "amenity": "school",
                "note": "Parent RSPO: 5496"
            }
        },
        {
            "id": 10101,
            "type": "Feature",
            "geometry": {
                "type": "Point",
                "coordinates": [
                    15.01517,
                    53.345220000000005
                ]
            },
            "properties": {
                "isced:level": "3",
                "ref:rspo": 10101,
                "official_name": "Bran\u017cowa Szko\u0142a I Stopnia nr 3",
                "name": "Bran\u017cowa Szko\u0142a I Stopnia nr 3",
                "addr:postcode": "73-110",
                "addr:city": "Stargard",
                "addr:street": "Ceglana",
                "addr:housenumber": "11",
                "addr:city:simc": 979596,
                "addr:street:sym_ul": 2587,
                "phone": "+48 915733071",
                "email": "sekretariat@zsbt.pl",
                "ref:regon": "812078479",
                "operator": "Powiat Stargardzki",
                "operator:type": "government",
                "amenity": "school",
                "note": "Parent RSPO: 5496"
            }
        },
        {
            "id": 123660,
            "type": "Feature",
            "geometry": {
                "type": "Point",
                "coordinates": [
                    15.04045,
                    53.34554
                ]
            },
            "properties": {
                "ref:rspo": 123660,
                "official_name": "Centrum Wspomagania Rozwoju Dziecka I Doros\u0142ych Specjalistyczna Niepubliczna Poradnia Psychologiczno-Pedagogiczna, Poradnia Logopedyczna",
                "name": "Centrum Wspomagania Rozwoju Dziecka I Doros\u0142ych Specjalistyczna Niepubliczna Poradnia Psychologiczno-Pedagogiczna, Poradnia Logopedyczna",
                "addr:postcode": "73-110",
                "addr:city": "Stargard",
                "addr:street": "Boles\u0142awa Limanowskiego",
                "addr:housenumber": "32",
                "addr:city:simc": 979596,
                "addr:street:sym_ul": 11074,
                "phone": "+48 693939744",
                "ref:regon": "321550114",
                "ref:vatin": "PL8541124551",
                "operator": "Gra\u017cyna Chudzik",
                "operator:type": "private",
                "healthcare": "counselling",
                "counselling_type": "education",
                "fixme": "w zale\u017cno\u015bci od przedmiotu dzia\u0142alno\u015bci (np. healthcare=counselling + counselling_type=education albo healthcare=psychotherapist)"
            }
        },
        {
            "id": 269281,
            "type": "Feature",
            "geometry": {
                "type": "Point",
                "coordinates": [
                    15.04045,
                    53.34551
                ]
            },
            "properties": {
                "ref:rspo": 269281,
                "official_name": "Integracyjny Punkt Przedszkolny Kreatywny Maluch",
                "name": "Integracyjny Punkt Przedszkolny Kreatywny Maluch",
                "addr:postcode": "73-110",
                "addr:city": "Stargard",
                "addr:street": "Boles\u0142awa Limanowskiego",
                "addr:housenumber": "32",
                "addr:city:simc": 979596,
                "addr:street:sym_ul": 11074,
                "email": "gschudzik@interia.pl",
                "ref:regon": "381422384",
                "operator": "Gra\u017cyna Chudzik",
                "operator:type": "private",
                "amenity": "kindergarten"
            }
        },
        {
            "id": 262705,
            "type": "Feature",
            "geometry": {
                "type": "Point",
                "coordinates": [
                    15.06291,
                    53.34565
                ]
            },
            "properties": {
                "ref:rspo": 262705,
                "official_name": "M\u0142odzie\u017cowy O\u015brodek Socjoterapii z Funkcjonuj\u0105c\u0105 Specjaln\u0105 Szko\u0142\u0105 Podstawow\u0105 w Stargardzie",
                "name": "M\u0142odzie\u017cowy O\u015brodek Socjoterapii z Funkcjonuj\u0105c\u0105 Specjaln\u0105 Szko\u0142\u0105 Podstawow\u0105 w Stargardzie",
                "addr:postcode": "73-110",
                "addr:city": "Stargard",
                "addr:street": "Gdy\u0144ska",
                "addr:housenumber": "8",
                "addr:city:simc": 979596,
                "addr:street:sym_ul": 5441,
                "phone": "+48 915065120",
                "email": "sekretariat@mos-stargard.edu.pl",
                "website": "http:\/\/www.mos-stargard.edu.pl",
                "ref:regon": "368054249",
                "operator": "Stargardzkie Stowarzyszenie Jednak Mo\u017cna",
                "operator:type": "ngo",
                "fixme": "amenity=social_facility + social_facility=group_home + social_facility:for=juvenile",
                "note": "Children RSPO: 262702"
            }
        },
        {
            "id": 262702,
            "type": "Feature",
            "geometry": {
                "type": "Point",
                "coordinates": [
                    15.06291,
                    53.34562
                ]
            },
            "properties": {
                "isced:level": "1;2",
                "ref:rspo": 262702,
                "official_name": "Specjalna Szko\u0142a Podstawowa w M\u0142odzie\u017cowym O\u015brodku Socjoterapii w Stargardzie",
                "name": "Specjalna Szko\u0142a Podstawowa w M\u0142odzie\u017cowym O\u015brodku Socjoterapii w Stargardzie",
                "addr:postcode": "73-110",
                "addr:city": "Stargard",
                "addr:street": "Gdy\u0144ska",
                "addr:housenumber": "8",
                "addr:city:simc": 979596,
                "addr:street:sym_ul": 5441,
                "phone": "+48 915065196",
                "email": "sekretariat@mos-stargard.edu.pl",
                "website": "http:\/\/www.mos-stargard.edu.pl",
                "ref:regon": "368052670",
                "operator": "Stargardzkie Stowarzyszenie Jednak Mo\u017cna",
                "operator:type": "ngo",
                "amenity": "school",
                "note": "Parent RSPO: 262705"
            }
        },
        {
            "id": 119001,
            "type": "Feature",
            "geometry": {
                "type": "Point",
                "coordinates": [
                    15.0619,
                    53.3461
                ]
            },
            "properties": {
                "ref:rspo": 119001,
                "official_name": "Niepubliczne Przedszkole \"Na Zielonym Wzg\u00f3rzu\" z Oddzia\u0142ami Integracyjnymi",
                "name": "Niepubliczne Przedszkole \"Na Zielonym Wzg\u00f3rzu\" z Oddzia\u0142ami Integracyjnymi",
                "addr:postcode": "73-110",
                "addr:city": "Stargard",
                "addr:street": "Gdy\u0144ska",
                "addr:housenumber": "2",
                "addr:city:simc": 979596,
                "addr:street:sym_ul": 5441,
                "phone": "+48 502488149",
                "email": "biuro@montessori-stargard.pl",
                "ref:regon": "321417705",
                "operator": "Ma\u0142gorzata Michaliszyn",
                "operator:type": "private",
                "amenity": "kindergarten"
            }
        },
        {
            "id": 40764,
            "type": "Feature",
            "geometry": {
                "type": "Point",
                "coordinates": [
                    15.00089,
                    53.3464
                ]
            },
            "properties": {
                "ref:rspo": 40764,
                "official_name": "Centrum Partner",
                "name": "Centrum Partner",
                "addr:postcode": "73-110",
                "addr:city": "Stargard",
                "addr:street": "Nasienna",
                "addr:housenumber": "11",
                "addr:door": "a",
                "addr:city:simc": 979596,
                "addr:street:sym_ul": 14028,
                "email": "biuro@centrumpartner",
                "ref:regon": "321287250",
                "operator": "Anna Maliszewska-Smoter",
                "operator:type": "private",
                "fixme": "w zale\u017cno\u015bci od przedmiotu dzia\u0142alno\u015bci (np. amenity=training + training=*, amenity=dancing_school, amenity=language_school, amenity=music_school)"
            }
        },
        {
            "id": 15521,
            "type": "Feature",
            "geometry": {
                "type": "Point",
                "coordinates": [
                    15.0309,
                    53.34641
                ]
            },
            "properties": {
                "isced:level": "1;2",
                "ref:rspo": 15521,
                "official_name": "Szko\u0142a Podstawowa nr 1 im. Juliusza S\u0142owackiego",
                "name": "Szko\u0142a Podstawowa nr 1",
                "addr:postcode": "73-110",
                "addr:city": "Stargard",
                "addr:street": "Henryka Sienkiewicza",
                "addr:housenumber": "8",
                "addr:city:simc": 979596,
                "addr:street:sym_ul": 19834,
                "phone": "+48 915770242",
                "email": "sekretariat@sp1.stargard.pl",
                "website": "http:\/\/sp1stargard.edupage.org",
                "ref:regon": "000243441",
                "ref:vatin": "PL8541222549",
                "operator": "Gmina-Miasto Stargard",
                "operator:type": "government",
                "amenity": "school"
            }
        },
        {
            "id": 269249,
            "type": "Feature",
            "geometry": {
                "type": "Point",
                "coordinates": [
                    15.0322067,
                    53.3469534
                ]
            },
            "properties": {
                "ref:rspo": 269249,
                "official_name": "Specjalistyczna Niepubliczna Poradnia Psychologiczno-Pedagogiczna \"Ask\"",
                "name": "Specjalistyczna Niepubliczna Poradnia Psychologiczno-Pedagogiczna \"Ask\"",
                "addr:postcode": "73-110",
                "addr:city": "Stargard",
                "addr:street": "Majora Henryka Sucharskiego",
                "addr:housenumber": "1",
                "addr:city:simc": 979596,
                "addr:street:sym_ul": 38383,
                "email": "brdkozlowski@gmail.com",
                "ref:regon": "381411305",
                "operator": "Anna Smolira-Koz\u0142owska",
                "operator:type": "private",
                "healthcare": "counselling",
                "counselling_type": "education",
                "fixme": "w zale\u017cno\u015bci od przedmiotu dzia\u0142alno\u015bci (np. healthcare=counselling + counselling_type=education albo healthcare=psychotherapist)"
            }
        },
        {
            "id": 59571,
            "type": "Feature",
            "geometry": {
                "type": "Point",
                "coordinates": [
                    15.01431,
                    53.34748
                ]
            },
            "properties": {
                "ref:rspo": 59571,
                "official_name": "Centrum Edukacyjne Omnibus Ma\u0142gorzaty Starzy\u0144skiej",
                "name": "Centrum Edukacyjne Omnibus Ma\u0142gorzaty Starzy\u0144skiej",
                "addr:postcode": "73-110",
                "addr:city": "Stargard",
                "addr:street": "Sk\u0142adowa",
                "addr:housenumber": "1",
                "addr:door": "1",
                "addr:city:simc": 979596,
                "addr:street:sym_ul": 20060,
                "phone": "+48 915782203",
                "email": "biuro@omnibus.stargard.com.pl",
                "ref:regon": "321290475",
                "operator": "Ma\u0142gorzata Starzy\u0144ska",
                "operator:type": "private",
                "fixme": "w zale\u017cno\u015bci od przedmiotu dzia\u0142alno\u015bci (np. amenity=training + training=*, amenity=dancing_school, amenity=language_school, amenity=music_school)"
            }
        },
        {
            "id": 262399,
            "type": "Feature",
            "geometry": {
                "type": "Point",
                "coordinates": [
                    14.90646,
                    53.4185299
                ]
            },
            "properties": {
                "isced:level": "1;2",
                "ref:rspo": 262399,
                "official_name": "Szko\u0142a Podstawowa nr 10",
                "name": "Szko\u0142a Podstawowa nr 10",
                "addr:postcode": "73-110",
                "addr:city": "Stargard",
                "addr:street": "Szkolna",
                "addr:housenumber": "2",
                "addr:city:simc": 979596,
                "addr:street:sym_ul": 21970,
                "phone": "+48 915731549",
                "email": "sekretariat.sp10.stargard@wp.pl",
                "website": "http:\/\/www.sp10stargard.edupage.org",
                "ref:regon": "367995228",
                "operator": "Gmina-Miasto Stargard",
                "operator:type": "government",
                "amenity": "school"
            }
        }
    ]
}