{
    "type": "FeatureCollection",
    "features": [
        {
            "id": 69226,
            "type": "Feature",
            "geometry": {
                "type": "Point",
                "coordinates": [
                    22.866466,
                    52.661722
                ]
            },
            "properties": {
                "ref:rspo": 69226,
                "official_name": "O\u015brodek Wychowania Przedszkolnego w Holonkach Z Siedzib\u0105 w Szkole Podstawowej im. Jana Paw\u0142a II w Holonkach, Holonki 67, 17-120 Bra\u0144sk",
                "name": "O\u015brodek Wychowania Przedszkolnego w Holonkach Z Siedzib\u0105 w Szkole Podstawowej",
                "addr:country": "PL",
                "addr:postcode": "17-120",
                "addr:place": "Holonki",
                "addr:housenumber": "67",
                "addr:teryt:sym_ul": 24590,
                "contact:phone": "+48 857373523",
                "contact:email": "spholonki@bransk.pl",
                "ref:regon": "200739118",
                "operator": "Gmina Bra\u0144sk",
                "operator:type": "government",
                "amenity": "kindergarten"
            }
        },
        {
            "id": 69767,
            "type": "Feature",
            "geometry": {
                "type": "Point",
                "coordinates": [
                    22.866466,
                    52.661691999999995
                ]
            },
            "properties": {
                "isced:level": "1;2",
                "ref:rspo": 69767,
                "official_name": "Szko\u0142a Podstawowa im. Jana Paw\u0142a II w Holonkach",
                "name": "Szko\u0142a Podstawowa",
                "addr:country": "PL",
                "addr:postcode": "17-120",
                "addr:place": "Holonki",
                "addr:housenumber": "67",
                "addr:teryt:sym_ul": 24590,
                "contact:phone": "+48 857373523",
                "contact:email": "spholonki@bransk.pl",
                "contact:website": "http:\/\/spholonki.ucoz.pl",
                "ref:regon": "001164130",
                "ref:vatin": "PL5432070441",
                "operator": "Gmina Bra\u0144sk",
                "operator:type": "government",
                "amenity": "school"
            }
        },
        {
            "id": 69228,
            "type": "Feature",
            "geometry": {
                "type": "Point",
                "coordinates": [
                    22.9526271,
                    52.7068545
                ]
            },
            "properties": {
                "ref:rspo": 69228,
                "official_name": "O\u015brodek Wychowania Przedszkolnego w Chojewie Z Siedzib\u0105 w Szkole Podstawowej im. Ks. Stefana Kardyna\u0142a Wyszy\u0144skiego w Chojewie",
                "name": "O\u015brodek Wychowania Przedszkolnego w Chojewie Z Siedzib\u0105 w Szkole Podstawowej",
                "addr:country": "PL",
                "addr:postcode": "17-120",
                "addr:place": "Chojewo",
                "addr:housenumber": "109",
                "addr:teryt:sym_ul": 24510,
                "contact:phone": "+48 857377692",
                "contact:email": "spchojewo@bransk.pl",
                "ref:regon": "200739124",
                "operator": "Gmina Bra\u0144sk",
                "operator:type": "government",
                "amenity": "kindergarten"
            }
        },
        {
            "id": 268294,
            "type": "Feature",
            "geometry": {
                "type": "Point",
                "coordinates": [
                    22.9526271,
                    52.706824499999996
                ]
            },
            "properties": {
                "isced:level": "1;2",
                "ref:rspo": 268294,
                "official_name": "Szko\u0142a Podstawowa im. Ks. Stefana Kardyna\u0142a Wyszy\u0144skiego w Chojewie",
                "name": "Szko\u0142a Podstawowa",
                "addr:country": "PL",
                "addr:postcode": "17-120",
                "addr:place": "Chojewo",
                "addr:housenumber": "109",
                "addr:teryt:sym_ul": 24510,
                "contact:phone": "+48 857377692",
                "contact:email": "spchojewo@bransk.pl",
                "ref:regon": "381075534",
                "ref:vatin": "PL5432186333",
                "operator": "Gmina Bra\u0144sk",
                "operator:type": "government",
                "amenity": "school"
            }
        },
        {
            "id": 69766,
            "type": "Feature",
            "geometry": {
                "type": "Point",
                "coordinates": [
                    22.755149,
                    52.772785
                ]
            },
            "properties": {
                "isced:level": "1;2",
                "ref:rspo": 69766,
                "official_name": "Szko\u0142a Podstawowa im.por.izydora Ko\u0142akowskiego w Domanowie",
                "name": "Szko\u0142a Podstawowa im.por.izydora Ko\u0142akowskiego w Domanowie",
                "addr:country": "PL",
                "addr:postcode": "17-120",
                "addr:place": "Domanowo",
                "addr:housenumber": "19a",
                "addr:teryt:sym_ul": 24549,
                "contact:phone": "+48 857377001",
                "contact:email": "spdomanowo@bransk.pl",
                "contact:website": "http:\/\/spdomanowo.freehost.pl",
                "ref:regon": "001164146",
                "ref:vatin": "PL5432070412",
                "operator": "Gmina Bra\u0144sk",
                "operator:type": "government",
                "amenity": "school",
                "note": "Children RSPO: 83303"
            }
        },
        {
            "id": 83295,
            "type": "Feature",
            "geometry": {
                "type": "Point",
                "coordinates": [
                    22.755149,
                    52.772755
                ]
            },
            "properties": {
                "ref:rspo": 83295,
                "official_name": "O\u015brodek Wychowania Przedszkolnego w Domanowie Z Siedzib\u0105 w Szkole Podstawowej im. Por. Izydora Ko\u0142akowskiego w Domanowie",
                "name": "O\u015brodek Wychowania Przedszkolnego w Domanowie Z Siedzib\u0105 w Szkole Podstawowej",
                "addr:country": "PL",
                "addr:postcode": "17-120",
                "addr:place": "Domanowo",
                "addr:housenumber": "19A",
                "addr:teryt:sym_ul": 24549,
                "contact:phone": "+48 857377001",
                "contact:email": "spdomanowo@bransk.pl",
                "ref:regon": "200741948",
                "operator": "Gmina Bra\u0144sk",
                "operator:type": "government",
                "amenity": "kindergarten"
            }
        },
        {
            "id": 278326,
            "type": "Feature",
            "geometry": {
                "type": "Point",
                "coordinates": [
                    22.870805,
                    52.787669
                ]
            },
            "properties": {
                "ref:rspo": 278326,
                "official_name": "O\u015brodek Wychowania Przedszkolego Z Siedzib\u0105 w Szkole Podstawowej im. Por. Izydora Ko\u0142akowskiego w Domanowie, Szkole Filialnej w \u015awirydach",
                "name": "O\u015brodek Wychowania Przedszkolego Z Siedzib\u0105 w Szkole Podstawowej",
                "addr:country": "PL",
                "addr:postcode": "17-120",
                "addr:place": "\u015awirydy",
                "addr:housenumber": "2",
                "addr:teryt:sym_ul": 24986,
                "contact:phone": "+48 857377001",
                "ref:regon": "389872307",
                "operator": "Gmina Bra\u0144sk",
                "operator:type": "government",
                "amenity": "kindergarten"
            }
        },
        {
            "id": 83303,
            "type": "Feature",
            "geometry": {
                "type": "Point",
                "coordinates": [
                    22.870805,
                    52.787639
                ]
            },
            "properties": {
                "isced:level": "1;2",
                "ref:rspo": 83303,
                "official_name": "Szko\u0142a Podstawowa im.por. Izydora Ko\u0142akowskiegow Domanowie, Szko\u0142a Filialna w Swirydach",
                "name": "Szko\u0142a Podstawowa im.por. Izydora Ko\u0142akowskiegow Domanowie, Szko\u0142a Filialna w Swirydach",
                "addr:country": "PL",
                "addr:postcode": "17-120",
                "addr:place": "\u015awirydy",
                "addr:housenumber": "2",
                "addr:teryt:sym_ul": 24986,
                "contact:phone": "+48 857375032",
                "contact:email": "spdomanowo@bransk.pl",
                "ref:regon": "116414600",
                "operator": "Gmina Bra\u0144sk",
                "operator:type": "government",
                "amenity": "school",
                "note": "Parent RSPO: 69766"
            }
        }
    ]
}