{
    "type": "FeatureCollection",
    "features": [
        {
            "id": 40800,
            "type": "Feature",
            "geometry": {
                "type": "Point",
                "coordinates": [
                    23.1884,
                    52.75461
                ]
            },
            "properties": {
                "ref:rspo": 40800,
                "official_name": "Studio Ta\u0144ca Revolt w Bielsku Podlaskim",
                "name": "Studio Ta\u0144ca Revolt w Bielsku Podlaskim",
                "addr:country": "PL",
                "addr:postcode": "17-100",
                "addr:city": "Bielsk Podlaski",
                "addr:street": "Studziwodzka",
                "addr:housenumber": "35A",
                "addr:teryt:simc": 922685,
                "addr:teryt:sym_ul": 21431,
                "contact:phone": "+48 506623225",
                "contact:email": "admin@abcfitness.eu",
                "ref:regon": "200735480",
                "operator": "Maria \u017bukowska",
                "operator:type": "private",
                "fixme": "w zale\u017cno\u015bci od przedmiotu dzia\u0142alno\u015bci (np. amenity=training + training=*, amenity=dancing_school, amenity=language_school, amenity=music_school)"
            }
        },
        {
            "id": 7328,
            "type": "Feature",
            "geometry": {
                "type": "Point",
                "coordinates": [
                    23.19695,
                    52.76
                ]
            },
            "properties": {
                "ref:rspo": 7328,
                "official_name": "Zesp\u00f3\u0142 Szk\u00f3\u0142 Nr 4 im. Ziemi Podlaskiej w Bielsku Podlaskim",
                "name": "Zesp\u00f3\u0142 Szk\u00f3\u0142 Nr 4",
                "addr:country": "PL",
                "addr:postcode": "17-100",
                "addr:city": "Bielsk Podlaski",
                "addr:street": "Ho\u0142owieska",
                "addr:housenumber": "18",
                "addr:teryt:simc": 922685,
                "addr:teryt:sym_ul": 6710,
                "contact:phone": "+48 858332737",
                "contact:email": "zsznr4bp@op.pl",
                "contact:website": "http:\/\/www.zsznr4.pl",
                "ref:regon": "000095532",
                "ref:vatin": "PL5431453944",
                "operator": "Powiat Bielski",
                "operator:type": "government",
                "landuse": "education",
                "fixme": "amenity=school, amenity=college albo landuse=education w zale\u017cno\u015bci od tego, jakie plac\u00f3wki wchodz\u0105 w sk\u0142ad zespo\u0142u. Sprawd\u017a, kiedy stosowa\u0107 amenity=* a kiedy landuse=education.",
                "note": "Children RSPO: 30676;30924"
            }
        },
        {
            "id": 30676,
            "type": "Feature",
            "geometry": {
                "type": "Point",
                "coordinates": [
                    23.19695,
                    52.759969999999996
                ]
            },
            "properties": {
                "isced:level": "3",
                "ref:rspo": 30676,
                "official_name": "Technikum Nr 4 w Bielsku Podlaskim",
                "name": "Technikum Nr 4 w Bielsku Podlaskim",
                "addr:country": "PL",
                "addr:postcode": "17-100",
                "addr:city": "Bielsk Podlaski",
                "addr:street": "Ho\u0142owieska",
                "addr:housenumber": "18",
                "addr:teryt:simc": 922685,
                "addr:teryt:sym_ul": 6710,
                "contact:phone": "+48 858332737",
                "contact:email": "zsznr4bp@op.pl",
                "contact:website": "http:\/\/www.zsznr4.pl",
                "ref:regon": "052131322",
                "operator": "Powiat Bielski",
                "operator:type": "government",
                "amenity": "school",
                "note": "Parent RSPO: 7328"
            }
        },
        {
            "id": 30924,
            "type": "Feature",
            "geometry": {
                "type": "Point",
                "coordinates": [
                    23.19695,
                    52.75994
                ]
            },
            "properties": {
                "isced:level": "4",
                "ref:rspo": 30924,
                "official_name": "Szko\u0142a Policealna Nr 1 w Bielsku Podlaskim",
                "name": "Szko\u0142a Policealna Nr 1 w Bielsku Podlaskim",
                "addr:country": "PL",
                "addr:postcode": "17-100",
                "addr:city": "Bielsk Podlaski",
                "addr:street": "Ho\u0142owieska",
                "addr:housenumber": "18",
                "addr:teryt:simc": 922685,
                "addr:teryt:sym_ul": 6710,
                "contact:phone": "+48 858332737",
                "contact:email": "zsznr4bp@op.pl",
                "contact:website": "http:\/\/www.zsnr4.ovh.org",
                "ref:regon": "200106235",
                "operator": "Powiat Bielski",
                "operator:type": "government",
                "amenity": "college",
                "note": "Parent RSPO: 7328"
            }
        },
        {
            "id": 80949,
            "type": "Feature",
            "geometry": {
                "type": "Point",
                "coordinates": [
                    23.18403,
                    52.7601
                ]
            },
            "properties": {
                "isced:level": "1;2",
                "ref:rspo": 80949,
                "official_name": "Szko\u0142a Podstawowa Nr 2 im. Kpt. W. Wysockiego w Bielsku Podlaskim",
                "name": "Szko\u0142a Podstawowa Nr 2",
                "addr:country": "PL",
                "addr:postcode": "17-100",
                "addr:city": "Bielsk Podlaski",
                "addr:street": "W\u0142adys\u0142awa Wysockiego",
                "addr:housenumber": "6",
                "addr:teryt:simc": 922685,
                "addr:teryt:sym_ul": 25062,
                "contact:phone": "+48 857302408",
                "contact:email": "sekretariat@sp2bielskpodlaski.szkolnastrona.pl",
                "contact:website": "http:\/\/www.sp2bielskpodlaski.szkolnastrona.pl",
                "ref:regon": "000735032",
                "ref:vatin": "PL5431022606",
                "operator": "Miasto Bielsk Podlaski",
                "operator:type": "government",
                "amenity": "school"
            }
        },
        {
            "id": 7415,
            "type": "Feature",
            "geometry": {
                "type": "Point",
                "coordinates": [
                    23.18026,
                    52.76019
                ]
            },
            "properties": {
                "ref:rspo": 7415,
                "official_name": "Zesp\u00f3\u0142 Szk\u00f3\u0142 Specjalnych im. Jana Paw\u0142a II w Bielsku Podlaskim",
                "name": "Zesp\u00f3\u0142 Szk\u00f3\u0142 Specjalnych",
                "addr:country": "PL",
                "addr:postcode": "17-100",
                "addr:city": "Bielsk Podlaski",
                "addr:street": "Wojska Polskiego",
                "addr:housenumber": "17",
                "addr:teryt:simc": 922685,
                "addr:teryt:sym_ul": 24628,
                "contact:phone": "+48 858332680",
                "contact:email": "zss@powiatbielski.pl",
                "contact:website": "http:\/\/www.zssbielskpodl1.edu.page.org",
                "ref:regon": "050038400",
                "ref:vatin": "PL5431862306",
                "operator": "Powiat Bielski",
                "operator:type": "government",
                "landuse": "education",
                "fixme": "amenity=school, amenity=college albo landuse=education w zale\u017cno\u015bci od tego, jakie plac\u00f3wki wchodz\u0105 w sk\u0142ad zespo\u0142u. Sprawd\u017a, kiedy stosowa\u0107 amenity=* a kiedy landuse=education.",
                "note": "Children RSPO: 31197;31369"
            }
        },
        {
            "id": 31197,
            "type": "Feature",
            "geometry": {
                "type": "Point",
                "coordinates": [
                    23.18026,
                    52.76016
                ]
            },
            "properties": {
                "isced:level": "1;2",
                "ref:rspo": 31197,
                "official_name": "Szko\u0142a Podstawowa Specjalna w Bielsku Podlaskim",
                "name": "Szko\u0142a Podstawowa Specjalna w Bielsku Podlaskim",
                "addr:country": "PL",
                "addr:postcode": "17-100",
                "addr:city": "Bielsk Podlaski",
                "addr:street": "Wojska Polskiego",
                "addr:housenumber": "17",
                "addr:teryt:simc": 922685,
                "addr:teryt:sym_ul": 24628,
                "contact:phone": "+48 858332680",
                "contact:email": "zss@powiatbielski.pl",
                "contact:website": "http:\/\/www.zssbielskpodl1.edupage.org",
                "ref:regon": "052141875",
                "operator": "Powiat Bielski",
                "operator:type": "government",
                "amenity": "school",
                "note": "Parent RSPO: 7415"
            }
        },
        {
            "id": 31369,
            "type": "Feature",
            "geometry": {
                "type": "Point",
                "coordinates": [
                    23.18026,
                    52.760130000000004
                ]
            },
            "properties": {
                "ref:rspo": 31369,
                "official_name": "Szko\u0142a Specjalna Przysposabiaj\u0105ca Do Pracy w Bielsku Podlaskim",
                "name": "Szko\u0142a Specjalna Przysposabiaj\u0105ca Do Pracy w Bielsku Podlaskim",
                "addr:country": "PL",
                "addr:postcode": "17-100",
                "addr:city": "Bielsk Podlaski",
                "addr:street": "Wojska Polskiego",
                "addr:housenumber": "17",
                "addr:teryt:simc": 922685,
                "addr:teryt:sym_ul": 24628,
                "contact:phone": "+48 858332680",
                "contact:email": "zss@powiatbielski.pl",
                "contact:website": "http:\/\/www.zssbielskpodl1.edupagr.org",
                "ref:regon": "200033602",
                "operator": "Powiat Bielski",
                "operator:type": "government",
                "amenity": "school",
                "note": "Parent RSPO: 7415"
            }
        },
        {
            "id": 273036,
            "type": "Feature",
            "geometry": {
                "type": "Point",
                "coordinates": [
                    23.18621,
                    52.76058
                ]
            },
            "properties": {
                "ref:rspo": 273036,
                "official_name": "Punkt Przedszkolny \"K\u0105cik Malucha\"",
                "name": "Punkt Przedszkolny \"K\u0105cik Malucha\"",
                "addr:country": "PL",
                "addr:postcode": "17-100",
                "addr:city": "Bielsk Podlaski",
                "addr:street": "W\u0142adys\u0142awa Wysockiego",
                "addr:housenumber": "41\/U1",
                "addr:teryt:simc": 922685,
                "addr:teryt:sym_ul": 25062,
                "contact:phone": "+48 505282645",
                "contact:email": "s.integracja@gmail.com",
                "ref:regon": "384368455",
                "ref:vatin": "PL5432170148",
                "operator": "Sp\u00f3\u0142dzielnia Socjalna \"Integracja\" W Bielsku Podlaskim",
                "operator:type": "cooperative",
                "amenity": "kindergarten"
            }
        },
        {
            "id": 196218,
            "type": "Feature",
            "geometry": {
                "type": "Point",
                "coordinates": [
                    23.1997,
                    52.76111
                ]
            },
            "properties": {
                "ref:rspo": 196218,
                "official_name": "Przedszkole Na Ho\u0142owiesku",
                "name": "Przedszkole Na Ho\u0142owiesku",
                "addr:country": "PL",
                "addr:postcode": "17-100",
                "addr:city": "Bielsk Podlaski",
                "addr:street": "Wrzosowa",
                "addr:housenumber": "16",
                "addr:teryt:simc": 922685,
                "addr:teryt:sym_ul": 24870,
                "contact:phone": "+48 790266260",
                "contact:email": "zibikar@poczta.onet.pl",
                "contact:website": "http:\/\/opatrznoscboza.pl",
                "ref:regon": "367989021",
                "operator": "Parafia P.w.\"Naj\u015bwi\u0119tszej Opatrzno\u015bci Bo\u017cej\" W Bielsku Podlaskim",
                "operator:type": "religious",
                "amenity": "kindergarten"
            }
        },
        {
            "id": 31034,
            "type": "Feature",
            "geometry": {
                "type": "Point",
                "coordinates": [
                    23.186330795288,
                    52.764591217041
                ]
            },
            "properties": {
                "ref:rspo": 31034,
                "official_name": "Katolickie Przedszkole Niepubliczne \"Karmelki\" w Bielsku Podlaskim",
                "name": "Katolickie Przedszkole Niepubliczne \"Karmelki\" w Bielsku Podlaskim",
                "addr:country": "PL",
                "addr:postcode": "17-100",
                "addr:city": "Bielsk Podlaski",
                "addr:street": "Franciszka \u017bwirki i Stanis\u0142awa Wigury",
                "addr:housenumber": "4",
                "addr:teryt:simc": 922685,
                "addr:teryt:sym_ul": 26605,
                "contact:phone": "+48 882715279",
                "contact:email": "przedszkolekarmelki.bielskpodlaski@wp.pl",
                "contact:website": "http:\/\/www.przedszkolekarmelki.pl",
                "ref:regon": "200735592",
                "ref:vatin": "PL5432180773",
                "operator": "Parafia Rzymskokatolicka Pw. Matki Bo\u017cej Z G\u00f3ry Karmel",
                "operator:type": "cooperative",
                "amenity": "kindergarten"
            }
        },
        {
            "id": 114160,
            "type": "Feature",
            "geometry": {
                "type": "Point",
                "coordinates": [
                    23.186330795288,
                    52.764561217041
                ]
            },
            "properties": {
                "isced:level": "4",
                "ref:rspo": 114160,
                "official_name": "Policealne Studium Ikonograficzne w Bielsku Podlaskim",
                "name": "Policealne Studium Ikonograficzne w Bielsku Podlaskim",
                "addr:country": "PL",
                "addr:postcode": "17-100",
                "addr:city": "Bielsk Podlaski",
                "addr:street": "Franciszka \u017bwirki i Stanis\u0142awa Wigury",
                "addr:housenumber": "26",
                "addr:teryt:simc": 922685,
                "addr:teryt:sym_ul": 26605,
                "contact:phone": "+48 857308282",
                "ref:regon": "200778584",
                "operator": "Parafia Prawos\u0142awna \u015aw.micha\u0142a",
                "operator:type": "religious",
                "amenity": "college"
            }
        },
        {
            "id": 79300,
            "type": "Feature",
            "geometry": {
                "type": "Point",
                "coordinates": [
                    23.1927999,
                    52.76683
                ]
            },
            "properties": {
                "isced:level": "1;2",
                "ref:rspo": 79300,
                "official_name": "Szko\u0142a Podstawowa Nr 3 Z Dodatkow\u0105 Nauk\u0105 J\u0119zyka Bia\u0142oruskiego im. Jaros\u0142awa Kostycewicza w Bielsku Podlaskim",
                "name": "Szko\u0142a Podstawowa Nr 3 Z Dodatkow\u0105 Nauk\u0105 J\u0119zyka Bia\u0142oruskiego",
                "addr:country": "PL",
                "addr:postcode": "17-100",
                "addr:city": "Bielsk Podlaski",
                "addr:street": "J\u00f3zefa Poniatowskiego",
                "addr:housenumber": "9",
                "addr:teryt:simc": 922685,
                "addr:teryt:sym_ul": 17107,
                "contact:phone": "+48 857302508",
                "contact:email": "bielsktrojka@poczta.onet.pl",
                "contact:website": "http:\/\/www.bielsktrojka.cba.pl",
                "ref:regon": "000735049",
                "ref:vatin": "PL5431962315",
                "operator": "Miasto Bielsk Podlaski",
                "operator:type": "government",
                "amenity": "school"
            }
        },
        {
            "id": 13653,
            "type": "Feature",
            "geometry": {
                "type": "Point",
                "coordinates": [
                    23.19358,
                    52.76732
                ]
            },
            "properties": {
                "isced:level": "3",
                "ref:rspo": 13653,
                "official_name": "Ii Liceum Og\u00f3lnokszta\u0142c\u0105ce Z Bia\u0142oruskim J\u0119zykiem Nauczania Im Bronis\u0142awa Taraszkiewicza w Bielsku Podlaskim",
                "name": "Ii Liceum Og\u00f3lnokszta\u0142c\u0105ce Z Bia\u0142oruskim J\u0119zykiem Nauczania Im Bronis\u0142awa Taraszkiewicza w Bielsku Podlaskim",
                "addr:country": "PL",
                "addr:postcode": "17-100",
                "addr:city": "Bielsk Podlaski",
                "addr:street": "Miko\u0142aja Kopernika",
                "addr:housenumber": "4",
                "addr:teryt:simc": 922685,
                "addr:teryt:sym_ul": 9282,
                "contact:phone": "+48 858332142",
                "contact:email": "lozbjn@gmail.com",
                "contact:website": "http:\/\/www.lozbjn.edu.pl",
                "ref:regon": "000735061",
                "ref:vatin": "PL5431634284",
                "operator": "Powiat Bielski",
                "operator:type": "government",
                "amenity": "school"
            }
        },
        {
            "id": 2938,
            "type": "Feature",
            "geometry": {
                "type": "Point",
                "coordinates": [
                    23.188,
                    52.76755
                ]
            },
            "properties": {
                "isced:level": "3",
                "ref:rspo": 2938,
                "official_name": "I Liceum Og\u00f3lnokszta\u0142c\u0105ce im. Tadeusza Ko\u015bciuszki w Bielsku Podlaskim",
                "name": "I Liceum Og\u00f3lnokszta\u0142c\u0105ce",
                "addr:country": "PL",
                "addr:postcode": "17-100",
                "addr:city": "Bielsk Podlaski",
                "addr:street": "11 Listopada",
                "addr:housenumber": "6",
                "addr:teryt:simc": 922685,
                "addr:teryt:sym_ul": 11205,
                "contact:phone": "+48 858332673",
                "contact:email": "1lo_bielsk_podlaski@wp.pl",
                "contact:website": "http:\/\/www.1lobielskpodlaski.edupage.org",
                "ref:regon": "000735055",
                "ref:vatin": "PL5431021630",
                "operator": "Powiat Bielski",
                "operator:type": "government",
                "amenity": "school"
            }
        },
        {
            "id": 80950,
            "type": "Feature",
            "geometry": {
                "type": "Point",
                "coordinates": [
                    23.18694,
                    52.76805
                ]
            },
            "properties": {
                "isced:level": "1;2",
                "ref:rspo": 80950,
                "official_name": "Szko\u0142a Podstawowa Nr 5 im. Szarych Szereg\u00f3w",
                "name": "Szko\u0142a Podstawowa Nr 5",
                "addr:country": "PL",
                "addr:postcode": "17-100",
                "addr:city": "Bielsk Podlaski",
                "addr:street": "Tadeusza Ko\u015bciuszki",
                "addr:housenumber": "21",
                "addr:teryt:simc": 922685,
                "addr:teryt:sym_ul": 9582,
                "contact:phone": "+48 857307576",
                "contact:email": "sp5bielskp@wp.pl",
                "contact:website": "http:\/\/www.sp5bielskp.republika.pl",
                "ref:regon": "050040762",
                "ref:vatin": "PL5431820012",
                "operator": "Miasto Bielsk Podlaski",
                "operator:type": "government",
                "amenity": "school"
            }
        },
        {
            "id": 278804,
            "type": "Feature",
            "geometry": {
                "type": "Point",
                "coordinates": [
                    23.1929,
                    52.76836
                ]
            },
            "properties": {
                "ref:rspo": 278804,
                "official_name": "Niepubliczny Punkt Przedszkolny \u015aw. M\u0142odzie\u0144ca Gabriela w Bielsku Podlaskim",
                "name": "Niepubliczny Punkt Przedszkolny \u015aw. M\u0142odzie\u0144ca Gabriela w Bielsku Podlaskim",
                "addr:country": "PL",
                "addr:postcode": "17-100",
                "addr:city": "Bielsk Podlaski",
                "addr:street": "Miko\u0142aja Kopernika",
                "addr:housenumber": "3",
                "addr:teryt:simc": 922685,
                "addr:teryt:sym_ul": 9282,
                "contact:phone": "+48 698985777",
                "contact:email": "bractwocim@cerkiew.pl",
                "contact:website": "http:\/\/www.bractwocim.pl",
                "ref:regon": "520095328",
                "operator": "Stowarzyszenie Bractwo Prawos\u0142awne \u015aw. \u015aw. Cyryla I Metodego",
                "operator:type": "ngo",
                "amenity": "kindergarten"
            }
        },
        {
            "id": 24438,
            "type": "Feature",
            "geometry": {
                "type": "Point",
                "coordinates": [
                    23.18706,
                    52.76949
                ]
            },
            "properties": {
                "ref:rspo": 24438,
                "official_name": "Przedszkole Nr 5 Krasnala Ha\u0142aba\u0142y w Bielsku Podlaskim",
                "name": "Przedszkole Nr 5 Krasnala Ha\u0142aba\u0142y w Bielsku Podlaskim",
                "addr:country": "PL",
                "addr:postcode": "17-100",
                "addr:city": "Bielsk Podlaski",
                "addr:street": "Tadeusza Ko\u015bciuszki",
                "addr:housenumber": "16",
                "addr:teryt:simc": 922685,
                "addr:teryt:sym_ul": 9582,
                "contact:phone": "+48 857303013",
                "contact:email": "przedszkole5bielsk@outlook.com",
                "contact:website": "http:\/\/p5krasnalhalabala.eprzedszkola.pl",
                "ref:regon": "200408930",
                "ref:vatin": "PL5432176694",
                "operator": "Miasto Bielsk Podlaski",
                "operator:type": "government",
                "amenity": "kindergarten"
            }
        },
        {
            "id": 24498,
            "type": "Feature",
            "geometry": {
                "type": "Point",
                "coordinates": [
                    23.19572,
                    52.77214
                ]
            },
            "properties": {
                "ref:rspo": 24498,
                "official_name": "Przedszkole Nr 7 Kubusia Puchatka w Bielsku Podlaskim",
                "name": "Przedszkole Nr 7 Kubusia Puchatka w Bielsku Podlaskim",
                "addr:country": "PL",
                "addr:postcode": "17-100",
                "addr:city": "Bielsk Podlaski",
                "addr:street": "Adama Kazanowskiego",
                "addr:housenumber": "2",
                "addr:teryt:simc": 922685,
                "addr:teryt:sym_ul": 8242,
                "contact:phone": "+48 857303677",
                "contact:email": "gosiak1967@o2.pl",
                "contact:website": "http:\/\/www.puchatek7bielsk.edupage.org",
                "ref:regon": "200408901",
                "ref:vatin": "PL5432176719",
                "operator": "Miasto Bielsk Podlaski",
                "operator:type": "government",
                "amenity": "kindergarten"
            }
        },
        {
            "id": 24832,
            "type": "Feature",
            "geometry": {
                "type": "Point",
                "coordinates": [
                    23.18759,
                    52.77216
                ]
            },
            "properties": {
                "ref:rspo": 24832,
                "official_name": "Przedszkole Nr 3 Z Oddzia\u0142ami Integracyjnymi w Bielsku Podlaskim",
                "name": "Przedszkole Nr 3 Z Oddzia\u0142ami Integracyjnymi w Bielsku Podlaskim",
                "addr:country": "PL",
                "addr:postcode": "17-100",
                "addr:city": "Bielsk Podlaski",
                "addr:street": "Stefana \u017beromskiego",
                "addr:housenumber": "4",
                "addr:teryt:simc": 922685,
                "addr:teryt:sym_ul": 26469,
                "contact:phone": "+48 857302621",
                "contact:email": "przedszkole3bielskpodl@gmail.com",
                "contact:website": "http:\/\/wwww.przedszkole-3.pl",
                "ref:regon": "200408893",
                "ref:vatin": "PL5432176702",
                "operator": "Miasto Bielsk Podlaski",
                "operator:type": "government",
                "amenity": "kindergarten"
            }
        },
        {
            "id": 24499,
            "type": "Feature",
            "geometry": {
                "type": "Point",
                "coordinates": [
                    23.19629,
                    52.77272
                ]
            },
            "properties": {
                "ref:rspo": 24499,
                "official_name": "Przedszkole Nr 9 Le\u015bna Polana w Bielsku Podlaskim",
                "name": "Przedszkole Nr 9 Le\u015bna Polana w Bielsku Podlaskim",
                "addr:country": "PL",
                "addr:postcode": "17-100",
                "addr:city": "Bielsk Podlaski",
                "addr:street": "Adama Kazanowskiego",
                "addr:housenumber": "2a",
                "addr:teryt:simc": 922685,
                "addr:teryt:sym_ul": 8242,
                "contact:phone": "+48 857302066",
                "contact:email": "lesna-polana9@o2.pl",
                "contact:website": "http:\/\/www.lesnapolana.edupage.org",
                "ref:regon": "200408924",
                "ref:vatin": "PL5432176688",
                "operator": "Miasto Bielsk Podlaski",
                "operator:type": "government",
                "amenity": "kindergarten"
            }
        },
        {
            "id": 38744,
            "type": "Feature",
            "geometry": {
                "type": "Point",
                "coordinates": [
                    23.19094,
                    52.77299
                ]
            },
            "properties": {
                "ref:rspo": 38744,
                "official_name": "Zak\u0142ad Doskonalenia Zawodowego w Bia\u0142ymstoku O\u015brodek Kszta\u0142cenia Zawodowego w Bielsku Podlaskim",
                "name": "Zak\u0142ad Doskonalenia Zawodowego w Bia\u0142ymstoku O\u015brodek Kszta\u0142cenia Zawodowego w Bielsku Podlaskim",
                "addr:country": "PL",
                "addr:postcode": "17-100",
                "addr:city": "Bielsk Podlaski",
                "addr:street": "Kryniczna",
                "addr:housenumber": "22",
                "addr:teryt:simc": 922685,
                "addr:teryt:sym_ul": 10066,
                "contact:phone": "+48 857302449",
                "contact:email": "bielsk@zdz.bialystok.pl",
                "contact:website": "http:\/\/www.zdz.bialystok.pl",
                "ref:regon": "200735439",
                "ref:vatin": "PL5420000305",
                "operator": "Zak\u0142ad Doskonalenia Zawodowego",
                "operator:type": "ngo",
                "fixme": "w zale\u017cno\u015bci od przedmiotu dzia\u0142alno\u015bci (np. amenity=training + training=*, amenity=dancing_school, amenity=language_school, amenity=music_school)"
            }
        },
        {
            "id": 123026,
            "type": "Feature",
            "geometry": {
                "type": "Point",
                "coordinates": [
                    23.19094,
                    52.77296
                ]
            },
            "properties": {
                "isced:level": "4",
                "ref:rspo": 123026,
                "official_name": "Szko\u0142a Policealna w Bielsku Podlaskim Zak\u0142adu Doskonalenia Zawodowego w Bia\u0142ymstoku",
                "name": "Szko\u0142a Policealna w Bielsku Podlaskim Zak\u0142adu Doskonalenia Zawodowego w Bia\u0142ymstoku",
                "addr:country": "PL",
                "addr:postcode": "17-100",
                "addr:city": "Bielsk Podlaski",
                "addr:street": "Kryniczna",
                "addr:housenumber": "22",
                "addr:teryt:simc": 922685,
                "addr:teryt:sym_ul": 10066,
                "contact:phone": "+48 857302449",
                "contact:email": "bielsk@zdz.bialystok.pl",
                "ref:regon": "200854747",
                "operator": "Zak\u0142ad Doskonalenia Zawodowego",
                "operator:type": "ngo",
                "amenity": "college"
            }
        },
        {
            "id": 39741,
            "type": "Feature",
            "geometry": {
                "type": "Point",
                "coordinates": [
                    23.1945,
                    52.7732699
                ]
            },
            "properties": {
                "ref:rspo": 39741,
                "official_name": "Red Bus w Bielsku Podlaskim",
                "name": "Red Bus w Bielsku Podlaskim",
                "addr:country": "PL",
                "addr:postcode": "17-100",
                "addr:city": "Bielsk Podlaski",
                "addr:street": "Adama Mickiewicza",
                "addr:housenumber": "108B",
                "addr:teryt:simc": 922685,
                "addr:teryt:sym_ul": 12740,
                "contact:phone": "+48 857301390",
                "contact:email": "bielsk-podlaski@redbus.com.pl",
                "contact:website": "http:\/\/www.redbus.com.pl",
                "ref:regon": "200735422",
                "operator": "El\u017cbieta Moroz",
                "operator:type": "private",
                "fixme": "w zale\u017cno\u015bci od przedmiotu dzia\u0142alno\u015bci (np. amenity=training + training=*, amenity=dancing_school, amenity=language_school, amenity=music_school)"
            }
        },
        {
            "id": 130320,
            "type": "Feature",
            "geometry": {
                "type": "Point",
                "coordinates": [
                    23.19401,
                    52.7737
                ]
            },
            "properties": {
                "ref:rspo": 130320,
                "official_name": "Niepubliczna Poradnia Psychologiczno - Pedagogiczna \"Agrafka\" w Bielsku Podlaskim",
                "name": "Niepubliczna Poradnia Psychologiczno - Pedagogiczna \"Agrafka\" w Bielsku Podlaskim",
                "addr:country": "PL",
                "addr:postcode": "17-100",
                "addr:city": "Bielsk Podlaski",
                "addr:street": "Adama Mickiewicza",
                "addr:housenumber": "110",
                "addr:teryt:simc": 922685,
                "addr:teryt:sym_ul": 12740,
                "contact:phone": "+48 790310177",
                "contact:email": "fundacja_pe@wp.pl",
                "ref:regon": "363841617",
                "operator": "Fundacja Polska Edukacja Im. Komisji Edukacji Narodowej",
                "operator:type": "ngo",
                "healthcare": "counselling",
                "counselling_type": "education",
                "fixme": "w zale\u017cno\u015bci od przedmiotu dzia\u0142alno\u015bci (np. healthcare=counselling + counselling_type=education albo healthcare=psychotherapist)"
            }
        },
        {
            "id": 131584,
            "type": "Feature",
            "geometry": {
                "type": "Point",
                "coordinates": [
                    23.19757,
                    52.77378
                ]
            },
            "properties": {
                "ref:rspo": 131584,
                "official_name": "Niepubliczne Przedszkole Specjalne \"Promis\" w Bielsku Podlaskim",
                "name": "Niepubliczne Przedszkole Specjalne \"Promis\" w Bielsku Podlaskim",
                "addr:country": "PL",
                "addr:postcode": "17-100",
                "addr:city": "Bielsk Podlaski",
                "addr:street": "Adama Kazanowskiego",
                "addr:housenumber": "24",
                "addr:teryt:simc": 922685,
                "addr:teryt:sym_ul": 8242,
                "contact:phone": "+48 531930130",
                "contact:email": "promis@interia.com",
                "ref:regon": "365238173",
                "operator": "Katarzyna Androsiuk",
                "operator:type": "private",
                "amenity": "kindergarten"
            }
        },
        {
            "id": 75622,
            "type": "Feature",
            "geometry": {
                "type": "Point",
                "coordinates": [
                    23.19765,
                    52.77457
                ]
            },
            "properties": {
                "ref:rspo": 75622,
                "official_name": "Pa\u0144stwowa Szko\u0142a Muzyczna I St. w Bielsku Podlaskim",
                "name": "Pa\u0144stwowa Szko\u0142a Muzyczna I St. w Bielsku Podlaskim",
                "addr:country": "PL",
                "addr:postcode": "17-100",
                "addr:city": "Bielsk Podlaski",
                "addr:street": "Widowska",
                "addr:housenumber": "4a",
                "addr:teryt:simc": 922685,
                "addr:teryt:sym_ul": 24013,
                "contact:phone": "+48 858767135",
                "contact:email": "sm_bp@wp.pl",
                "contact:website": "http:\/\/psm-bielsk-podlaski.edu.pl",
                "ref:regon": "000285681",
                "operator": "Ministerstwo Kultury I Dziedzictwa Narodowego",
                "operator:type": "public",
                "amenity": "music_school"
            }
        },
        {
            "id": 7530,
            "type": "Feature",
            "geometry": {
                "type": "Point",
                "coordinates": [
                    23.19772,
                    52.77508
                ]
            },
            "properties": {
                "ref:rspo": 7530,
                "official_name": "Poradnia Psychologiczno -Pedagogiczna w Bielsku Podlaskim",
                "name": "Poradnia Psychologiczno -Pedagogiczna w Bielsku Podlaskim",
                "addr:country": "PL",
                "addr:postcode": "17-100",
                "addr:city": "Bielsk Podlaski",
                "addr:street": "Widowska",
                "addr:housenumber": "1",
                "addr:teryt:simc": 922685,
                "addr:teryt:sym_ul": 24013,
                "contact:phone": "+48 858332674",
                "contact:email": "poradnia@powiatbielski.pl",
                "ref:regon": "000735084",
                "ref:vatin": "PL5431871676",
                "operator": "Powiat Bielski",
                "operator:type": "government",
                "healthcare": "counselling",
                "counselling_type": "education",
                "fixme": "w zale\u017cno\u015bci od przedmiotu dzia\u0142alno\u015bci (np. healthcare=counselling + counselling_type=education albo healthcare=psychotherapist)"
            }
        },
        {
            "id": 75043,
            "type": "Feature",
            "geometry": {
                "type": "Point",
                "coordinates": [
                    23.1953,
                    52.77543
                ]
            },
            "properties": {
                "isced:level": "1;2",
                "ref:rspo": 75043,
                "official_name": "Szko\u0142a Podstawowa Nr 4 im. Adama Mickiewicza w Bielsku Podlaskim",
                "name": "Szko\u0142a Podstawowa Nr 4",
                "addr:country": "PL",
                "addr:postcode": "17-100",
                "addr:city": "Bielsk Podlaski",
                "addr:street": "Adama Mickiewicza",
                "addr:housenumber": "126",
                "addr:teryt:simc": 922685,
                "addr:teryt:sym_ul": 12740,
                "contact:phone": "+48 857306772",
                "contact:email": "sekret-zs-am@o2.pl",
                "contact:website": "http:\/\/www.zs-mickiewicz.szkolnastrona.pl",
                "ref:regon": "000585532",
                "ref:vatin": "PL5432012283",
                "operator": "Miasto Bielsk Podlaski",
                "operator:type": "government",
                "amenity": "school"
            }
        },
        {
            "id": 3842,
            "type": "Feature",
            "geometry": {
                "type": "Point",
                "coordinates": [
                    23.19396,
                    52.77753
                ]
            },
            "properties": {
                "ref:rspo": 3842,
                "official_name": "Zesp\u00f3\u0142 Szk\u00f3\u0142 Nr 1 Im Marsza\u0142ka J\u00f3zefa Klemensa Pi\u0142sudskiego w Bielsku Podlaskim",
                "name": "Zesp\u00f3\u0142 Szk\u00f3\u0142 Nr 1 Im Marsza\u0142ka J\u00f3zefa Klemensa Pi\u0142sudskiego w Bielsku Podlaskim",
                "addr:country": "PL",
                "addr:postcode": "17-100",
                "addr:city": "Bielsk Podlaski",
                "addr:street": "Szkolna",
                "addr:housenumber": "12",
                "addr:teryt:simc": 922685,
                "addr:teryt:sym_ul": 21970,
                "contact:phone": "+48 858332698",
                "contact:email": "zsbielsk@webmedia.com.pl",
                "contact:website": "http:\/\/www.zs1bielsk.ehost.pl",
                "ref:regon": "000180746",
                "ref:vatin": "PL5431021251",
                "operator": "Powiat Bielski",
                "operator:type": "government",
                "landuse": "education",
                "fixme": "amenity=school, amenity=college albo landuse=education w zale\u017cno\u015bci od tego, jakie plac\u00f3wki wchodz\u0105 w sk\u0142ad zespo\u0142u. Sprawd\u017a, kiedy stosowa\u0107 amenity=* a kiedy landuse=education.",
                "note": "Children RSPO: 7414;14086;14412;15885;29347"
            }
        },
        {
            "id": 7414,
            "type": "Feature",
            "geometry": {
                "type": "Point",
                "coordinates": [
                    23.19396,
                    52.777499999999996
                ]
            },
            "properties": {
                "ref:rspo": 7414,
                "official_name": "Publiczne Centrum Kszta\u0142cenia Zawodowego w Bielsku Podlaskim",
                "name": "Publiczne Centrum Kszta\u0142cenia Zawodowego w Bielsku Podlaskim",
                "addr:country": "PL",
                "addr:postcode": "17-100",
                "addr:city": "Bielsk Podlaski",
                "addr:street": "Szkolna",
                "addr:housenumber": "12",
                "addr:teryt:simc": 922685,
                "addr:teryt:sym_ul": 21970,
                "contact:phone": "+48 858332730",
                "contact:email": "zsbielsk@webmedia.com.pl",
                "contact:website": "http:\/\/ckpbielsk.republika.pl",
                "ref:regon": "050694529",
                "ref:vatin": "PL5431922959",
                "operator": "Powiat Bielski",
                "operator:type": "government",
                "fixme": "w zale\u017cno\u015bci od przedmiotu dzia\u0142alno\u015bci (np. amenity=training + training=*, amenity=dancing_school, amenity=language_school, amenity=music_school) albo amenity=school, amenity=college, albo landuse=education w zale\u017cno\u015bci od tego, jakie plac\u00f3wki wchodz\u0105 w sk\u0142ad zespo\u0142u. Sprawd\u017a, kiedy stosowa\u0107 amenity=* a kiedy landuse=education.",
                "note": "Parent RSPO: 3842"
            }
        },
        {
            "id": 14086,
            "type": "Feature",
            "geometry": {
                "type": "Point",
                "coordinates": [
                    23.19396,
                    52.77747
                ]
            },
            "properties": {
                "isced:level": "3",
                "ref:rspo": 14086,
                "official_name": "Technikum Nr 1 w Bielsku Podlaskim",
                "name": "Technikum Nr 1 w Bielsku Podlaskim",
                "addr:country": "PL",
                "addr:postcode": "17-100",
                "addr:city": "Bielsk Podlaski",
                "addr:street": "Szkolna",
                "addr:housenumber": "12",
                "addr:teryt:simc": 922685,
                "addr:teryt:sym_ul": 21970,
                "contact:phone": "+48 858332698",
                "contact:email": "zsbielsk@webmedia.com.pl",
                "contact:website": "http:\/\/www.zs1bielsk.ehost.pl",
                "ref:regon": "052007585",
                "operator": "Powiat Bielski",
                "operator:type": "government",
                "amenity": "school",
                "note": "Parent RSPO: 3842"
            }
        },
        {
            "id": 14412,
            "type": "Feature",
            "geometry": {
                "type": "Point",
                "coordinates": [
                    23.19396,
                    52.77744
                ]
            },
            "properties": {
                "isced:level": "3",
                "ref:rspo": 14412,
                "official_name": "I Liceum Og\u00f3lnokszta\u0142c\u0105ce dla Doros\u0142ych Zaoczne w Bielsku Podlaskim",
                "name": "I Liceum Og\u00f3lnokszta\u0142c\u0105ce dla Doros\u0142ych Zaoczne w Bielsku Podlaskim",
                "addr:country": "PL",
                "addr:postcode": "17-100",
                "addr:city": "Bielsk Podlaski",
                "addr:street": "Szkolna",
                "addr:housenumber": "12",
                "addr:teryt:simc": 922685,
                "addr:teryt:sym_ul": 21970,
                "contact:phone": "+48 858332698",
                "contact:email": "zsbielsk@webmedia.com.pl",
                "contact:website": "http:\/\/www.zs1bielsk.ehost.pl",
                "ref:regon": "052247473",
                "operator": "Powiat Bielski",
                "operator:type": "government",
                "amenity": "school",
                "note": "Parent RSPO: 3842"
            }
        },
        {
            "id": 15885,
            "type": "Feature",
            "geometry": {
                "type": "Point",
                "coordinates": [
                    23.19396,
                    52.777409999999996
                ]
            },
            "properties": {
                "isced:level": "4",
                "ref:rspo": 15885,
                "official_name": "Szko\u0142a Policealna Nr 2 w Bielsku Podlaskim",
                "name": "Szko\u0142a Policealna Nr 2 w Bielsku Podlaskim",
                "addr:country": "PL",
                "addr:postcode": "17-100",
                "addr:city": "Bielsk Podlaski",
                "addr:street": "Szkolna",
                "addr:housenumber": "12",
                "addr:teryt:simc": 922685,
                "addr:teryt:sym_ul": 21970,
                "contact:phone": "+48 858332698",
                "contact:email": "zsbielsk@webmedia.com.pl",
                "contact:website": "http:\/\/www.zs.1bielsk.ehost.pl",
                "ref:regon": "200033690",
                "operator": "Powiat Bielski",
                "operator:type": "government",
                "amenity": "college",
                "note": "Parent RSPO: 3842"
            }
        },
        {
            "id": 29347,
            "type": "Feature",
            "geometry": {
                "type": "Point",
                "coordinates": [
                    23.19396,
                    52.77738
                ]
            },
            "properties": {
                "isced:level": "3",
                "ref:rspo": 29347,
                "official_name": "Bran\u017cowa Szko\u0142a I Stopnia w Bielsku Podlaskim",
                "name": "Bran\u017cowa Szko\u0142a I Stopnia w Bielsku Podlaskim",
                "addr:country": "PL",
                "addr:postcode": "17-100",
                "addr:city": "Bielsk Podlaski",
                "addr:street": "Szkolna",
                "addr:housenumber": "12",
                "addr:teryt:simc": 922685,
                "addr:teryt:sym_ul": 21970,
                "contact:phone": "+48 858332698",
                "contact:email": "zsbielsk@webmedia.com.pl",
                "contact:website": "http:\/\/www.zs1bielsk.ehost.pl",
                "ref:regon": "052007616",
                "operator": "Powiat Bielski",
                "operator:type": "government",
                "amenity": "school",
                "note": "Parent RSPO: 3842"
            }
        },
        {
            "id": 80960,
            "type": "Feature",
            "geometry": {
                "type": "Point",
                "coordinates": [
                    23.18902,
                    52.78084
                ]
            },
            "properties": {
                "ref:rspo": 80960,
                "official_name": "Przedszkole Niepubliczne Nr 1 im. \u015aw. M\u0142odzie\u0144ca Gabriela w Bielsku Podlaskim",
                "name": "Przedszkole Niepubliczne Nr 1",
                "addr:country": "PL",
                "addr:postcode": "17-100",
                "addr:city": "Bielsk Podlaski",
                "addr:street": "Tadeusza Rejtana",
                "addr:housenumber": "24",
                "addr:teryt:simc": 922685,
                "addr:teryt:sym_ul": 18575,
                "contact:phone": "+48 856812046",
                "contact:website": "http:\/\/www.bielsk-hodigitria.pl\/przedszkole.aspx",
                "ref:regon": "200742327",
                "ref:vatin": "PL9660787821",
                "operator": "Stowarzyszenie Bractwo Prawos\u0142awne \u015aw. \u015aw. Cyryla I Metodego",
                "operator:type": "ngo",
                "amenity": "kindergarten"
            }
        },
        {
            "id": 125245,
            "type": "Feature",
            "geometry": {
                "type": "Point",
                "coordinates": [
                    23.18902,
                    52.780809999999995
                ]
            },
            "properties": {
                "isced:level": "1;2",
                "ref:rspo": 125245,
                "official_name": "Niepubliczna Szko\u0142a Podstawowa Nr 1 \u015aw. Abp. \u0141ukasza Wojno - Jasienieckiego w Bielsku Podlaskim",
                "name": "Niepubliczna Szko\u0142a Podstawowa Nr 1 \u015aw. Abp. \u0141ukasza Wojno - Jasienieckiego w Bielsku Podlaskim",
                "addr:country": "PL",
                "addr:postcode": "17-100",
                "addr:city": "Bielsk Podlaski",
                "addr:street": "Tadeusza Rejtana",
                "addr:housenumber": "24",
                "addr:teryt:simc": 922685,
                "addr:teryt:sym_ul": 18575,
                "contact:phone": "+48 856554627",
                "contact:email": "niepubliczna.sp1@op.pl",
                "contact:website": "http:\/\/www.prawoslawnasp1.edupage.org",
                "ref:regon": "200885883",
                "operator": "Fundacja Dom\u00f3w Kultury Prawos\u0142awnej Diecezji Warszwsko - Bielskiej",
                "operator:type": "ngo",
                "amenity": "school"
            }
        }
    ]
}