{"type":"FeatureCollection","features":[{"id":9934,"type":"Feature","geometry":{"type":"Point","coordinates":[16.2673,51.50593]},"properties":{"ref:rspo":9934,"official_name":"Zesp\u00f3\u0142 Szk\u00f3\u0142 Centrum Kszta\u0142cenia Rolniczego w Rudnej","name":"Zesp\u00f3\u0142 Szk\u00f3\u0142 Centrum Kszta\u0142cenia Rolniczego w Rudnej","addr:country":"PL","addr:postcode":"59-305","addr:city":"Rudna","addr:street":"ul. Kolejowa","addr:housenumber":"5","addr:teryt:simc":8828,"addr:teryt:sym_ul":367373,"contact:phone":"+48 768497310","contact:email":"zszrudna@wp.pl","contact:website":"http:\/\/www.zsckr-rudna.pl","ref:regon":"391066993","operator":"Ministerstwo Rolnictwa I Rozwoju Wsi","operator:type":"public","landuse":"education","fixme":"amenity=school, amenity=college albo landuse=education w zale\u017cno\u015bci od tego, jakie plac\u00f3wki wchodz\u0105 w sk\u0142ad zespo\u0142u. Sprawd\u017a, kiedy stosowa\u0107 amenity=* a kiedy landuse=education.","note":"Children RSPO: 10888;10889"}},{"id":10888,"type":"Feature","geometry":{"type":"Point","coordinates":[16.2673,51.5059]},"properties":{"isced:level":"3","ref:rspo":10888,"official_name":"Bran\u017cowa Szko\u0142a I Stopnia w Rudnej","name":"Bran\u017cowa Szko\u0142a I Stopnia w Rudnej","addr:country":"PL","addr:postcode":"59-300","addr:city":"Rudna","addr:street":"ul. Kolejowa","addr:housenumber":"5","addr:teryt:simc":8828,"addr:teryt:sym_ul":367373,"contact:phone":"+48 768497310","contact:email":"zszrudna@wp.pl","contact:website":"http:\/\/www.zsckr-rudna.pl","ref:regon":"000743570","operator":"Ministerstwo Rolnictwa I Rozwoju Wsi","operator:type":"public","amenity":"school","note":"Parent RSPO: 9934"}},{"id":10889,"type":"Feature","geometry":{"type":"Point","coordinates":[16.2673,51.50587]},"properties":{"isced:level":"3","ref:rspo":10889,"official_name":"Technikum im. W\u0142adys\u0142awa Szafera w Rudnej","name":"Technikum","addr:country":"PL","addr:postcode":"59-305","addr:city":"Rudna","addr:street":"ul. Kolejowa","addr:housenumber":"5","addr:teryt:simc":8828,"addr:teryt:sym_ul":367373,"contact:phone":"+48 768497310","contact:email":"zszrudna@wp.pl","contact:website":"http:\/\/www.zsckr-rudna.pl","ref:regon":"020568972","operator":"Ministerstwo Rolnictwa I Rozwoju Wsi","operator:type":"public","amenity":"school","note":"Parent RSPO: 9934"}},{"id":91192,"type":"Feature","geometry":{"type":"Point","coordinates":[16.26095,51.51109]},"properties":{"isced:level":"1;2","ref:rspo":91192,"official_name":"Szko\u0142a Podstawowa im. Jana Paw\u0142a II w Rudnej","name":"Szko\u0142a Podstawowa","addr:country":"PL","addr:postcode":"59-305","addr:city":"Rudna","addr:street":"ul. Piaskowa","addr:housenumber":"3, 3a, 3b","addr:teryt:simc":16033,"addr:teryt:sym_ul":367373,"contact:phone":"+48 768464747","contact:email":"sekretariat@sprudna.pl","contact:website":"http:\/\/www.sprudna.pl","ref:regon":"000580859","ref:vatin":"PL6922515017","operator":"Gmina Rudna","operator:type":"government","amenity":"school"}},{"id":86591,"type":"Feature","geometry":{"type":"Point","coordinates":[16.25927,51.5112]},"properties":{"ref:rspo":86591,"official_name":"Przedszkole Gminne w Rudnej","name":"Przedszkole Gminne w Rudnej","addr:country":"PL","addr:postcode":"59-305","addr:city":"Rudna","addr:street":"ul. Polna","addr:housenumber":"3d","addr:teryt:simc":17011,"addr:teryt:sym_ul":367373,"contact:phone":"+48 768464052","contact:email":"sekretariat@przedszkolerudna.pl","contact:website":"http:\/\/www.przedszkolerudna.pl","ref:regon":"390243513","ref:vatin":"PL6922509494","operator":"Gmina Rudna","operator:type":"government","amenity":"kindergarten"}},{"id":90278,"type":"Feature","geometry":{"type":"Point","coordinates":[16.44553,51.5413]},"properties":{"isced:level":"1;2","ref:rspo":90278,"official_name":"Szko\u0142a Podstawowa im. Bohater\u00f3w Westerplatte w Chobieni","name":"Szko\u0142a Podstawowa","addr:country":"PL","addr:postcode":"59-305","addr:city":"Chobienia","addr:street":"ul. Szkolna","addr:housenumber":"2","addr:teryt:simc":21970,"addr:teryt:sym_ul":367166,"contact:phone":"+48 768439523","contact:email":"zs.chobienia@interia.pl","contact:website":"http:\/\/spchobienia.pl","ref:regon":"001239967","ref:vatin":"PL6922515112","operator":"Gmina Rudna","operator:type":"government","amenity":"school"}},{"id":277165,"type":"Feature","geometry":{"type":"Point","coordinates":[16.44553,51.54127]},"properties":{"ref:rspo":277165,"official_name":"Saola Sdwu","name":"Saola Sdwu","addr:country":"PL","addr:postcode":"59-305","addr:city":"Chobienia","addr:street":"ul. Szkolna","addr:housenumber":"2","addr:teryt:simc":21970,"addr:teryt:sym_ul":367166,"contact:phone":"+48 600419113","contact:email":"saola.sdwu@gmail.com","contact:website":"http:\/\/www.saola-sdwu.pl","ref:regon":"388236710","operator":"Saola Sp\u00f3\u0142ka Z Ograniczon\u0105 Odpowiedzialno\u015bci\u0105","operator:type":"private","fixme":"w zale\u017cno\u015bci od przedmiotu dzia\u0142alno\u015bci (np. amenity=training + training=*, amenity=dancing_school, amenity=language_school, amenity=music_school)"}},{"id":91076,"type":"Feature","geometry":{"type":"Point","coordinates":[16.44726,51.54211]},"properties":{"ref:rspo":91076,"official_name":"Przedszkole Gminne w Chobieni","name":"Przedszkole Gminne w Chobieni","addr:country":"PL","addr:postcode":"59-305","addr:city":"Chobienia","addr:street":"ul. Nadrzeczna","addr:housenumber":"11A","addr:teryt:simc":13902,"addr:teryt:sym_ul":367166,"contact:phone":"+48 768449836","contact:email":"sekretariat@przedszkole-chobienia.pl","contact:website":"http:\/\/przedszkole-chobienia.pl","ref:regon":"390243520","ref:vatin":"PL6922509502","operator":"Gmina Rudna","operator:type":"government","amenity":"kindergarten"}}]}