{
    "type": "FeatureCollection",
    "features": [
        {
            "id": 111861,
            "type": "Feature",
            "geometry": {
                "type": "Point",
                "coordinates": [
                    16.11174,
                    51.29999
                ]
            },
            "properties": {
                "ref:rspo": 111861,
                "official_name": "Punkt Przedszkolny w Wiercieniu Nr 37",
                "name": "Punkt Przedszkolny w Wiercieniu Nr 37",
                "addr:country": "PL",
                "addr:postcode": "59-307",
                "addr:place": "Wiercie\u0144",
                "addr:housenumber": "37",
                "addr:teryt:sym_ul": 365552,
                "contact:phone": "+48 768448122",
                "ref:regon": "022098789",
                "operator": "Gmina Lubin",
                "operator:type": "government",
                "amenity": "kindergarten"
            }
        },
        {
            "id": 89642,
            "type": "Feature",
            "geometry": {
                "type": "Point",
                "coordinates": [
                    16.18059,
                    51.3036699
                ]
            },
            "properties": {
                "ref:rspo": 89642,
                "official_name": "Przedszkole im. Jana Paw\u0142a II w Rasz\u00f3wce",
                "name": "Przedszkole",
                "addr:country": "PL",
                "addr:postcode": "59-307",
                "addr:city": "Rasz\u00f3wka",
                "addr:street": "Kolejowa",
                "addr:housenumber": "2",
                "addr:teryt:simc": 8828,
                "addr:teryt:sym_ul": 365351,
                "contact:phone": "+48 768448192",
                "contact:email": "p.raszowka@ug.lubin.pl",
                "contact:website": "http:\/\/przedszkoleraszowka.pl",
                "ref:regon": "390243387",
                "ref:vatin": "PL6922367605",
                "operator": "Gmina Lubin",
                "operator:type": "government",
                "amenity": "kindergarten"
            }
        },
        {
            "id": 89640,
            "type": "Feature",
            "geometry": {
                "type": "Point",
                "coordinates": [
                    16.1835604,
                    51.3049591
                ]
            },
            "properties": {
                "isced:level": "1;2",
                "ref:rspo": 89640,
                "official_name": "Szko\u0142a Podstawowa im. Or\u0142a Bia\u0142ego w Rasz\u00f3wce",
                "name": "Szko\u0142a Podstawowa",
                "addr:country": "PL",
                "addr:postcode": "59-307",
                "addr:city": "Rasz\u00f3wka",
                "addr:street": "1 Maja",
                "addr:housenumber": "10",
                "addr:teryt:simc": 11926,
                "addr:teryt:sym_ul": 365351,
                "contact:phone": "+48 768448122",
                "contact:email": "sprasz@op.pl",
                "contact:website": "http:\/\/www.spraszowka.edu.pl",
                "ref:regon": "001239476",
                "ref:vatin": "PL6922367611",
                "operator": "Gmina Lubin",
                "operator:type": "government",
                "amenity": "school"
            }
        },
        {
            "id": 111859,
            "type": "Feature",
            "geometry": {
                "type": "Point",
                "coordinates": [
                    16.26867,
                    51.3229
                ]
            },
            "properties": {
                "ref:rspo": 111859,
                "official_name": "Punkt Przedszkolny w Mi\u0142oradzicach Nr 46",
                "name": "Punkt Przedszkolny w Mi\u0142oradzicach Nr 46",
                "addr:country": "PL",
                "addr:postcode": "59-323",
                "addr:place": "Mi\u0142oradzice",
                "addr:housenumber": "46",
                "addr:teryt:sym_ul": 365374,
                "contact:phone": "+48 768418894",
                "contact:email": "spn68@op.pl",
                "contact:website": "http:\/\/www.spniemstow.pl",
                "ref:regon": "022098619",
                "operator": "Gmina Lubin",
                "operator:type": "government",
                "amenity": "kindergarten"
            }
        },
        {
            "id": 270144,
            "type": "Feature",
            "geometry": {
                "type": "Point",
                "coordinates": [
                    16.21666,
                    51.34104
                ]
            },
            "properties": {
                "ref:rspo": 270144,
                "official_name": "Niepubliczna Plac\u00f3wka Kszta\u0142cenia Ustawicznego Velset",
                "name": "Niepubliczna Plac\u00f3wka Kszta\u0142cenia Ustawicznego Velset",
                "addr:country": "PL",
                "addr:postcode": "59-300",
                "addr:place": "Pieszk\u00f3w",
                "addr:housenumber": "46",
                "addr:teryt:sym_ul": 365457,
                "contact:email": "betibeti85@wp.pl",
                "ref:regon": "382090091",
                "operator": "Beata Surmacz",
                "operator:type": "private",
                "fixme": "w zale\u017cno\u015bci od przedmiotu dzia\u0142alno\u015bci (np. amenity=training + training=*, amenity=dancing_school, amenity=language_school, amenity=music_school)"
            }
        },
        {
            "id": 89643,
            "type": "Feature",
            "geometry": {
                "type": "Point",
                "coordinates": [
                    16.3000599,
                    51.35376
                ]
            },
            "properties": {
                "isced:level": "1;2",
                "ref:rspo": 89643,
                "official_name": "Szko\u0142a Podstawowa im. Janusza Korczaka w Niemstowie",
                "name": "Szko\u0142a Podstawowa",
                "addr:country": "PL",
                "addr:postcode": "59-323",
                "addr:place": "Niemst\u00f3w",
                "addr:housenumber": "68",
                "addr:teryt:sym_ul": 365405,
                "contact:phone": "+48 768418894",
                "contact:email": "spn68@op.pl",
                "contact:website": "http:\/\/www.spniemstow.pl",
                "ref:regon": "001239312",
                "ref:vatin": "PL6922367634",
                "operator": "Gmina Lubin",
                "operator:type": "government",
                "amenity": "school",
                "note": "Children RSPO: 91431"
            }
        },
        {
            "id": 111994,
            "type": "Feature",
            "geometry": {
                "type": "Point",
                "coordinates": [
                    16.3000599,
                    51.35373
                ]
            },
            "properties": {
                "ref:rspo": 111994,
                "official_name": "Punkt Przedszkolny w Niemstowie Nr 68",
                "name": "Punkt Przedszkolny w Niemstowie Nr 68",
                "addr:country": "PL",
                "addr:postcode": "59-323",
                "addr:place": "Niemst\u00f3w",
                "addr:housenumber": "68",
                "addr:teryt:sym_ul": 365405,
                "contact:phone": "+48 768418894",
                "contact:email": "spn68@op.pl",
                "contact:website": "http:\/\/www.spniemstow.pl",
                "ref:regon": "022100121",
                "operator": "Gmina Lubin",
                "operator:type": "government",
                "amenity": "kindergarten"
            }
        },
        {
            "id": 111860,
            "type": "Feature",
            "geometry": {
                "type": "Point",
                "coordinates": [
                    16.22746,
                    51.36574
                ]
            },
            "properties": {
                "ref:rspo": 111860,
                "official_name": "Punkt Przedszkolny w Osieku Ul. \u015aw. Katarzyny 75A",
                "name": "Punkt Przedszkolny w Osieku Ul. \u015aw. Katarzyny 75A",
                "addr:country": "PL",
                "addr:postcode": "59-300",
                "addr:city": "Osiek",
                "addr:street": "\u015awi\u0119tej Katarzyny",
                "addr:housenumber": "75a",
                "addr:teryt:simc": 8199,
                "addr:teryt:sym_ul": 365440,
                "contact:phone": "+48 768418894",
                "contact:email": "spn68@op.pl",
                "contact:website": "http:\/\/www.spniemstow.pl",
                "ref:regon": "022098594",
                "operator": "Gmina Lubin",
                "operator:type": "government",
                "amenity": "kindergarten"
            }
        },
        {
            "id": 91431,
            "type": "Feature",
            "geometry": {
                "type": "Point",
                "coordinates": [
                    16.22746,
                    51.36571
                ]
            },
            "properties": {
                "isced:level": "1;2",
                "ref:rspo": 91431,
                "official_name": "Szko\u0142a Podstawowa im. Janusza Korczaka w Niemstowie Szko\u0142a Filialna w Osieku",
                "name": "Szko\u0142a Podstawowa",
                "addr:country": "PL",
                "addr:postcode": "59-300",
                "addr:city": "Osiek",
                "addr:street": "\u015awi\u0119tej Katarzyny",
                "addr:housenumber": "75A",
                "addr:teryt:simc": 8199,
                "addr:teryt:sym_ul": 365440,
                "contact:phone": "+48 768418894",
                "contact:email": "spn68@op.pl",
                "contact:website": "http:\/\/www.spniemstow.pl",
                "ref:regon": "123931200",
                "operator": "Gmina Lubin",
                "operator:type": "government",
                "amenity": "school",
                "note": "Parent RSPO: 89643"
            }
        },
        {
            "id": 270135,
            "type": "Feature",
            "geometry": {
                "type": "Point",
                "coordinates": [
                    16.23102,
                    51.36692
                ]
            },
            "properties": {
                "ref:rspo": 270135,
                "official_name": "Przedszkole Niepubliczne Bia\u0142a \u017byrafa w Osieku",
                "name": "Przedszkole Niepubliczne Bia\u0142a \u017byrafa w Osieku",
                "addr:country": "PL",
                "addr:postcode": "59-300",
                "addr:city": "Osiek",
                "addr:street": "\u015awi\u0119tej Katarzyny",
                "addr:housenumber": "30A",
                "addr:teryt:simc": 8199,
                "addr:teryt:sym_ul": 365440,
                "contact:phone": "+48 768449847",
                "contact:email": "przedszkole@bialazyrafa.com.pl",
                "contact:website": "http:\/\/www.bialazyrafa.com.pl",
                "ref:regon": "382073900",
                "operator": "Civis Europae",
                "operator:type": "ngo",
                "amenity": "kindergarten"
            }
        },
        {
            "id": 89639,
            "type": "Feature",
            "geometry": {
                "type": "Point",
                "coordinates": [
                    16.13395,
                    51.37252
                ]
            },
            "properties": {
                "isced:level": "1;2",
                "ref:rspo": 89639,
                "official_name": "Szko\u0142a Podstawowa im. Marii Konopnickiej w Krzeczynie Wielkim",
                "name": "Szko\u0142a Podstawowa",
                "addr:country": "PL",
                "addr:postcode": "59-311",
                "addr:place": "Krzeczyn Wielki",
                "addr:housenumber": "9",
                "addr:teryt:sym_ul": 365322,
                "contact:phone": "+48 768408704",
                "contact:email": "sekretariat@spkrzeczyn.pl",
                "contact:website": "http:\/\/www.spkrzeczynwielki.pl",
                "ref:regon": "001239298",
                "ref:vatin": "PL6922367640",
                "operator": "Gmina Lubin",
                "operator:type": "government",
                "amenity": "school"
            }
        },
        {
            "id": 111993,
            "type": "Feature",
            "geometry": {
                "type": "Point",
                "coordinates": [
                    16.13395,
                    51.37249
                ]
            },
            "properties": {
                "ref:rspo": 111993,
                "official_name": "Punkt Przedszkolny Nr 2 w Krzeczynie Wielkim Nr 9",
                "name": "Punkt Przedszkolny Nr 2 w Krzeczynie Wielkim Nr 9",
                "addr:country": "PL",
                "addr:postcode": "59-311",
                "addr:place": "Krzeczyn Wielki",
                "addr:housenumber": "9",
                "addr:teryt:sym_ul": 365322,
                "contact:email": "sekretariat@spkrzeczyn.pl",
                "contact:website": "http:\/\/www.spkrzeczynwielki.pl",
                "ref:regon": "022100109",
                "operator": "Gmina Lubin",
                "operator:type": "government",
                "amenity": "kindergarten"
            }
        },
        {
            "id": 59749,
            "type": "Feature",
            "geometry": {
                "type": "Point",
                "coordinates": [
                    16.30429,
                    51.39913
                ]
            },
            "properties": {
                "isced:level": "1;2",
                "ref:rspo": 59749,
                "official_name": "Szko\u0142a Podstawowa im. Henryka Sienkiewicza w Siedlcach",
                "name": "Szko\u0142a Podstawowa",
                "addr:country": "PL",
                "addr:postcode": "59-300",
                "addr:place": "Siedlce",
                "addr:housenumber": "29",
                "addr:teryt:sym_ul": 365486,
                "contact:phone": "+48 768449301",
                "contact:email": "sekretariat@spsiedlce.pl",
                "contact:website": "http:\/\/www.spsiedlce.pl",
                "ref:regon": "004052732",
                "ref:vatin": "PL6922367657",
                "operator": "Gmina Lubin",
                "operator:type": "government",
                "amenity": "school"
            }
        },
        {
            "id": 111857,
            "type": "Feature",
            "geometry": {
                "type": "Point",
                "coordinates": [
                    16.26993,
                    51.41004
                ]
            },
            "properties": {
                "ref:rspo": 111857,
                "official_name": "Punkt Przedszkolny w Ksi\u0119ginicach Nr 31",
                "name": "Punkt Przedszkolny w Ksi\u0119ginicach Nr 31",
                "addr:country": "PL",
                "addr:postcode": "59-300",
                "addr:place": "Ksi\u0119ginice",
                "addr:housenumber": "31",
                "addr:teryt:sym_ul": 365345,
                "contact:phone": "+48 768449301",
                "contact:email": "sekretariat@spsiedlce.pl",
                "ref:regon": "022098654",
                "operator": "Gmina Lubin",
                "operator:type": "government",
                "amenity": "kindergarten"
            }
        },
        {
            "id": 111858,
            "type": "Feature",
            "geometry": {
                "type": "Point",
                "coordinates": [
                    16.26083,
                    51.42852
                ]
            },
            "properties": {
                "ref:rspo": 111858,
                "official_name": "Punkt Przedszkolny w Sk\u0142adowicach Nr 5A",
                "name": "Punkt Przedszkolny w Sk\u0142adowicach Nr 5A",
                "addr:country": "PL",
                "addr:postcode": "59-300",
                "addr:place": "Sk\u0142adowice",
                "addr:housenumber": "5a",
                "addr:teryt:sym_ul": 365492,
                "contact:phone": "+48 768449301",
                "contact:email": "sekretariat@spsiedlce.pl",
                "contact:website": "http:\/\/www.spsielce.pl",
                "ref:regon": "022098683",
                "operator": "Gmina Lubin",
                "operator:type": "government",
                "amenity": "kindergarten"
            }
        },
        {
            "id": 111862,
            "type": "Feature",
            "geometry": {
                "type": "Point",
                "coordinates": [
                    16.088018,
                    51.4404051
                ]
            },
            "properties": {
                "ref:rspo": 111862,
                "official_name": "Punkt Przedszkolny w Szklarach G\u00f3rnych Nr 25",
                "name": "Punkt Przedszkolny w Szklarach G\u00f3rnych Nr 25",
                "addr:country": "PL",
                "addr:postcode": "59-335",
                "addr:place": "Szklary G\u00f3rne",
                "addr:housenumber": "25",
                "addr:teryt:sym_ul": 365517,
                "contact:phone": "+48 768448486",
                "contact:email": "sekretariat@spszklarygorne.pl",
                "contact:website": "http:\/\/spszklarygorne.pl",
                "ref:regon": "022098708",
                "operator": "Gmina Lubin",
                "operator:type": "government",
                "amenity": "kindergarten"
            }
        },
        {
            "id": 10022,
            "type": "Feature",
            "geometry": {
                "type": "Point",
                "coordinates": [
                    16.09234,
                    51.44086
                ]
            },
            "properties": {
                "ref:rspo": 10022,
                "official_name": "Specjalny O\u015brodek Szkolno-Wychowawczy im. Przyjaci\u00f3\u0142 Dzieci w Szklarach G\u00f3rnych",
                "name": "Specjalny O\u015brodek Szkolno-Wychowawczy",
                "addr:country": "PL",
                "addr:postcode": "59-300",
                "addr:place": "Szklary G\u00f3rne",
                "addr:housenumber": "51c",
                "addr:teryt:sym_ul": 365517,
                "contact:phone": "+48 768497300",
                "contact:email": "sosszklary@o2.pl",
                "contact:website": "http:\/\/www.sosw-szklarygorne.com",
                "ref:regon": "001098478",
                "operator": "Powiat Lubi\u0144ski",
                "operator:type": "government",
                "amenity": "school",
                "note": "Children RSPO: 10927;10928;10930"
            }
        },
        {
            "id": 10927,
            "type": "Feature",
            "geometry": {
                "type": "Point",
                "coordinates": [
                    16.09234,
                    51.44083
                ]
            },
            "properties": {
                "isced:level": "3",
                "ref:rspo": 10927,
                "official_name": "Bran\u017cowa Szko\u0142a I Stopnia Specjalna w Szklarach G\u00f3rnych",
                "name": "Bran\u017cowa Szko\u0142a I Stopnia Specjalna w Szklarach G\u00f3rnych",
                "addr:country": "PL",
                "addr:postcode": "59-300",
                "addr:place": "Szklary G\u00f3rne",
                "addr:housenumber": "51c",
                "addr:teryt:sym_ul": 365517,
                "contact:phone": "+48 768497300",
                "contact:email": "soszklary@o2.pl",
                "ref:regon": "391001025",
                "operator": "Powiat Lubi\u0144ski",
                "operator:type": "government",
                "amenity": "school",
                "note": "Parent RSPO: 10022"
            }
        },
        {
            "id": 10928,
            "type": "Feature",
            "geometry": {
                "type": "Point",
                "coordinates": [
                    16.09234,
                    51.4408
                ]
            },
            "properties": {
                "ref:rspo": 10928,
                "official_name": "Szko\u0142a Specjalna Przysposabiaj\u0105ca Do Pracy w Szklarach G\u00f3rnych",
                "name": "Szko\u0142a Specjalna Przysposabiaj\u0105ca Do Pracy w Szklarach G\u00f3rnych",
                "addr:country": "PL",
                "addr:postcode": "59-300",
                "addr:place": "Szklary G\u00f3rne",
                "addr:housenumber": "51c",
                "addr:teryt:sym_ul": 365517,
                "contact:phone": "+48 768497300",
                "contact:email": "soszklary@o2.pl",
                "ref:regon": "391068012",
                "operator": "Powiat Lubi\u0144ski",
                "operator:type": "government",
                "amenity": "school",
                "note": "Parent RSPO: 10022"
            }
        },
        {
            "id": 10930,
            "type": "Feature",
            "geometry": {
                "type": "Point",
                "coordinates": [
                    16.09234,
                    51.44077
                ]
            },
            "properties": {
                "isced:level": "1;2",
                "ref:rspo": 10930,
                "official_name": "Szko\u0142a Podstawowa Specjalna w Szklarach G\u00f3rnych",
                "name": "Szko\u0142a Podstawowa Specjalna w Szklarach G\u00f3rnych",
                "addr:country": "PL",
                "addr:postcode": "59-300",
                "addr:place": "Szklary G\u00f3rne",
                "addr:housenumber": "51c",
                "addr:teryt:sym_ul": 365517,
                "contact:phone": "+48 768497300",
                "contact:email": "soszklary@o2.pl",
                "ref:regon": "391000994",
                "operator": "Powiat Lubi\u0144ski",
                "operator:type": "government",
                "amenity": "school",
                "note": "Parent RSPO: 10022"
            }
        },
        {
            "id": 89641,
            "type": "Feature",
            "geometry": {
                "type": "Point",
                "coordinates": [
                    16.08954,
                    51.44215
                ]
            },
            "properties": {
                "isced:level": "1;2",
                "ref:rspo": 89641,
                "official_name": "Szko\u0142a Podstawowa im. Jana Brzechwy w Szklarach G\u00f3rnych",
                "name": "Szko\u0142a Podstawowa",
                "addr:country": "PL",
                "addr:postcode": "59-335",
                "addr:place": "Szklary G\u00f3rne",
                "addr:housenumber": "48",
                "addr:teryt:sym_ul": 365517,
                "contact:phone": "+48 768448486",
                "contact:email": "sekretariat@spszklarygorne.pl",
                "contact:website": "http:\/\/spszklarygorne.pl",
                "ref:regon": "001239306",
                "ref:vatin": "PL6922367628",
                "operator": "Gmina Lubin",
                "operator:type": "government",
                "amenity": "school"
            }
        }
    ]
}