{
    "type": "FeatureCollection",
    "features": [
        {
            "id": 13951,
            "type": "Feature",
            "geometry": {
                "type": "Point",
                "coordinates": [
                    16.136329650879,
                    51.37425994873
                ]
            },
            "properties": {
                "ref:rspo": 13951,
                "official_name": "Przedszkole Nr 10 Z Oddzia\u0142ami Integracyjnymi w Lubinie",
                "name": "Przedszkole Nr 10 Z Oddzia\u0142ami Integracyjnymi w Lubinie",
                "addr:country": "PL",
                "addr:postcode": "59-300",
                "addr:city": "Lubin",
                "addr:street": "II Brygady Legion\u00f3w",
                "addr:housenumber": "21",
                "addr:teryt:simc": 954142,
                "addr:teryt:sym_ul": 53523,
                "contact:phone": "+48 768444712",
                "contact:email": "pm10@ok.um.lubin.pl",
                "ref:regon": "390038428",
                "ref:vatin": "PL6921020029",
                "operator": "Gmina Miejska Lubin",
                "operator:type": "government",
                "amenity": "kindergarten"
            }
        },
        {
            "id": 270078,
            "type": "Feature",
            "geometry": {
                "type": "Point",
                "coordinates": [
                    16.21229,
                    51.38056
                ]
            },
            "properties": {
                "isced:level": "1;2",
                "ref:rspo": 270078,
                "official_name": "Niepubliczna Szko\u0142a Podstawowa \"Dar Losu\"",
                "name": "Niepubliczna Szko\u0142a Podstawowa \"Dar Losu\"",
                "addr:country": "PL",
                "addr:postcode": "59-300",
                "addr:city": "Lubin",
                "addr:street": "Sowia",
                "addr:housenumber": "7",
                "addr:teryt:simc": 954142,
                "addr:teryt:sym_ul": 20615,
                "contact:phone": "+48 601694676",
                "contact:email": "darlosu.lubin@gmail.com",
                "ref:regon": "382006593",
                "operator": "Fundacja Przyjaci\u00f3\u0142 Dzieci Z Autyzmem \"Dar Losu\"",
                "operator:type": "ngo",
                "amenity": "school"
            }
        },
        {
            "id": 278798,
            "type": "Feature",
            "geometry": {
                "type": "Point",
                "coordinates": [
                    16.21229,
                    51.38053
                ]
            },
            "properties": {
                "isced:level": "3",
                "ref:rspo": 278798,
                "official_name": "Niepubliczne Liceum Og\u00f3lnokszta\u0142c\u0105ce \"Dar Losu\" w Lubinie",
                "name": "Niepubliczne Liceum Og\u00f3lnokszta\u0142c\u0105ce \"Dar Losu\" w Lubinie",
                "addr:country": "PL",
                "addr:postcode": "59-300",
                "addr:city": "Lubin",
                "addr:street": "Sowia",
                "addr:housenumber": "7",
                "addr:teryt:simc": 954142,
                "addr:teryt:sym_ul": 20615,
                "contact:phone": "+48 601694676",
                "contact:email": "darlosu.lubin@gmail.com",
                "ref:regon": "520076271",
                "operator": "Fundacja Przyjaci\u00f3\u0142 Dzieci Z Autyzmem \"Dar Losu\"",
                "operator:type": "ngo",
                "amenity": "school"
            }
        },
        {
            "id": 15855,
            "type": "Feature",
            "geometry": {
                "type": "Point",
                "coordinates": [
                    16.21507,
                    51.38078
                ]
            },
            "properties": {
                "ref:rspo": 15855,
                "official_name": "Przedszkole Niepubliczne Planeta Zdrowia",
                "name": "Przedszkole Niepubliczne Planeta Zdrowia",
                "addr:country": "PL",
                "addr:postcode": "59-300",
                "addr:city": "Lubin",
                "addr:street": "Krucza",
                "addr:housenumber": "43A",
                "addr:teryt:simc": 954142,
                "addr:teryt:sym_ul": 10013,
                "contact:phone": "+48 604605243",
                "contact:email": "lubin@planetazdrowia.eu",
                "contact:website": "http:\/\/www.planetazdrowia.eu",
                "ref:regon": "021965617",
                "ref:vatin": "PL6922465012",
                "operator": "Akademia Przedszkolaka Paluch, Wiernik-Gizicka Sp\u00f3\u0142ka Jawna",
                "operator:type": "private",
                "amenity": "kindergarten"
            }
        },
        {
            "id": 4082,
            "type": "Feature",
            "geometry": {
                "type": "Point",
                "coordinates": [
                    16.21273,
                    51.3823099
                ]
            },
            "properties": {
                "isced:level": "4",
                "ref:rspo": 4082,
                "official_name": "Policealna Szko\u0142a w Lubinie",
                "name": "Policealna Szko\u0142a w Lubinie",
                "addr:country": "PL",
                "addr:postcode": "59-300",
                "addr:city": "Lubin",
                "addr:street": "Szpakowa",
                "addr:housenumber": "1",
                "addr:teryt:simc": 954142,
                "addr:teryt:sym_ul": 22060,
                "contact:phone": "+48 509944972",
                "contact:email": "rolbud@mojaszkola.com.pl",
                "contact:website": "http:\/\/www.mojaszkola.com.pl",
                "ref:regon": "021950751",
                "operator": "Przedsi\u0119biorstwo \"Rolbud\" Sp\u00f3\u0142ka Z Ograniczon\u0105 Odpowiedzialno\u015bci\u0105",
                "operator:type": "private",
                "amenity": "college"
            }
        },
        {
            "id": 11716,
            "type": "Feature",
            "geometry": {
                "type": "Point",
                "coordinates": [
                    16.21273,
                    51.3822799
                ]
            },
            "properties": {
                "ref:rspo": 11716,
                "official_name": "Zesp\u00f3\u0142 Szk\u00f3\u0142 Nr 2 im. Jana Wy\u017cykowskiego w Lubinie",
                "name": "Zesp\u00f3\u0142 Szk\u00f3\u0142 Nr 2",
                "addr:country": "PL",
                "addr:postcode": "59-300",
                "addr:city": "Lubin",
                "addr:street": "Szpakowa",
                "addr:housenumber": "1",
                "addr:teryt:simc": 954142,
                "addr:teryt:sym_ul": 22060,
                "contact:phone": "+48 722200513",
                "contact:email": "sekretariat@zs2lubin.pl",
                "contact:website": "http:\/\/www.zs2lubin.pl",
                "ref:regon": "000188110",
                "ref:vatin": "PL6921019977",
                "operator": "Powiat Lubi\u0144ski",
                "operator:type": "government",
                "landuse": "education",
                "fixme": "amenity=school, amenity=college albo landuse=education w zale\u017cno\u015bci od tego, jakie plac\u00f3wki wchodz\u0105 w sk\u0142ad zespo\u0142u. Sprawd\u017a, kiedy stosowa\u0107 amenity=* a kiedy landuse=education.",
                "note": "Children RSPO: 107330;113851;133516"
            }
        },
        {
            "id": 107330,
            "type": "Feature",
            "geometry": {
                "type": "Point",
                "coordinates": [
                    16.21273,
                    51.382249900000005
                ]
            },
            "properties": {
                "isced:level": "3",
                "ref:rspo": 107330,
                "official_name": "Technikum Nr 2 w Lubinie",
                "name": "Technikum Nr 2 w Lubinie",
                "addr:country": "PL",
                "addr:postcode": "59-300",
                "addr:city": "Lubin",
                "addr:street": "Szpakowa",
                "addr:housenumber": "1",
                "addr:teryt:simc": 954142,
                "addr:teryt:sym_ul": 22060,
                "contact:phone": "+48 722200513",
                "contact:email": "sekretariat@zs2lubin.pl",
                "contact:website": "http:\/\/www.zs2lubin.pl",
                "ref:regon": "020134280",
                "ref:vatin": "PL6921019977",
                "operator": "Powiat Lubi\u0144ski",
                "operator:type": "government",
                "amenity": "school",
                "note": "Parent RSPO: 11716"
            }
        },
        {
            "id": 113851,
            "type": "Feature",
            "geometry": {
                "type": "Point",
                "coordinates": [
                    16.21273,
                    51.3822199
                ]
            },
            "properties": {
                "isced:level": "3",
                "ref:rspo": 113851,
                "official_name": "Bran\u017cowa Szko\u0142a I Stopnia Nr 2",
                "name": "Bran\u017cowa Szko\u0142a I Stopnia Nr 2",
                "addr:country": "PL",
                "addr:postcode": "59-300",
                "addr:city": "Lubin",
                "addr:street": "Szpakowa",
                "addr:housenumber": "1",
                "addr:teryt:simc": 954142,
                "addr:teryt:sym_ul": 22060,
                "contact:phone": "+48 722200513",
                "contact:email": "sekretariat@zs2lubin.pl",
                "contact:website": "http:\/\/www.zs2lubin.pl",
                "ref:regon": "021853730",
                "ref:vatin": "PL6921019977",
                "operator": "Powiat Lubi\u0144ski",
                "operator:type": "government",
                "amenity": "school",
                "note": "Parent RSPO: 11716"
            }
        },
        {
            "id": 133516,
            "type": "Feature",
            "geometry": {
                "type": "Point",
                "coordinates": [
                    16.21273,
                    51.3821899
                ]
            },
            "properties": {
                "isced:level": "3",
                "ref:rspo": 133516,
                "official_name": "Iii Liceum Og\u00f3lnokszta\u0142c\u0105ce w Lubinie",
                "name": "Iii Liceum Og\u00f3lnokszta\u0142c\u0105ce w Lubinie",
                "addr:country": "PL",
                "addr:postcode": "59-300",
                "addr:city": "Lubin",
                "addr:street": "Szpakowa",
                "addr:housenumber": "1",
                "addr:teryt:simc": 954142,
                "addr:teryt:sym_ul": 22060,
                "contact:phone": "+48 722200513",
                "contact:email": "sekretariat@zs2lubin.pl",
                "contact:website": "http:\/\/www.zs2lubin.pl",
                "ref:regon": "367365705",
                "operator": "Powiat Lubi\u0144ski",
                "operator:type": "government",
                "amenity": "school",
                "note": "Parent RSPO: 11716"
            }
        },
        {
            "id": 10079,
            "type": "Feature",
            "geometry": {
                "type": "Point",
                "coordinates": [
                    16.2103499,
                    51.38378
                ]
            },
            "properties": {
                "isced:level": "1;2",
                "ref:rspo": 10079,
                "official_name": "Szko\u0142a Podstawowa Nr 12 im. Czes\u0142awa Niemena",
                "name": "Szko\u0142a Podstawowa Nr 12",
                "addr:country": "PL",
                "addr:postcode": "59-300",
                "addr:city": "Lubin",
                "addr:street": "Szpakowa",
                "addr:housenumber": "2",
                "addr:teryt:simc": 954142,
                "addr:teryt:sym_ul": 22060,
                "contact:phone": "+48 767249570",
                "contact:email": "sp12@ok.um.lubin.pl",
                "contact:website": "http:\/\/sp12lubin.edu.pl",
                "ref:regon": "001097622",
                "ref:vatin": "PL6921058109",
                "operator": "Gmina Miejska Lubin",
                "operator:type": "government",
                "amenity": "school"
            }
        },
        {
            "id": 14397,
            "type": "Feature",
            "geometry": {
                "type": "Point",
                "coordinates": [
                    16.20574,
                    51.38411
                ]
            },
            "properties": {
                "ref:rspo": 14397,
                "official_name": "Przedszkole Miejskie Nr 14",
                "name": "Przedszkole Miejskie Nr 14",
                "addr:country": "PL",
                "addr:postcode": "59-300",
                "addr:city": "Lubin",
                "addr:street": "Sokola",
                "addr:housenumber": "44",
                "addr:teryt:simc": 954142,
                "addr:teryt:sym_ul": 20478,
                "contact:phone": "+48 767468366",
                "contact:email": "pm14@ok.um.lubin.pl",
                "ref:regon": "004059160",
                "ref:vatin": "PL6921640766",
                "operator": "Gmina Miejska Lubin",
                "operator:type": "government",
                "amenity": "kindergarten"
            }
        },
        {
            "id": 13954,
            "type": "Feature",
            "geometry": {
                "type": "Point",
                "coordinates": [
                    16.21294,
                    51.38537
                ]
            },
            "properties": {
                "ref:rspo": 13954,
                "official_name": "Przedszkole Miejskie Nr 15",
                "name": "Przedszkole Miejskie Nr 15",
                "addr:country": "PL",
                "addr:postcode": "59-300",
                "addr:city": "Lubin",
                "addr:street": "Orla",
                "addr:housenumber": "75",
                "addr:teryt:simc": 954142,
                "addr:teryt:sym_ul": 15141,
                "contact:phone": "+48 767249456",
                "contact:email": "pm15@ok.um.lubin.pl",
                "contact:website": "http:\/\/pm15lubin.szkolnastrona.pl",
                "ref:regon": "004059177",
                "ref:vatin": "PL6921058032",
                "operator": "Gmina Miejska Lubin",
                "operator:type": "government",
                "amenity": "kindergarten"
            }
        },
        {
            "id": 122724,
            "type": "Feature",
            "geometry": {
                "type": "Point",
                "coordinates": [
                    16.2142,
                    51.38585
                ]
            },
            "properties": {
                "ref:rspo": 122724,
                "official_name": "Poradnia Psychologiczno-Pedagogiczna Wiosna w Lubinie",
                "name": "Poradnia Psychologiczno-Pedagogiczna Wiosna w Lubinie",
                "addr:country": "PL",
                "addr:postcode": "59-300",
                "addr:city": "Lubin",
                "addr:street": "Sportowa",
                "addr:housenumber": "35",
                "addr:teryt:simc": 954142,
                "addr:teryt:sym_ul": 20683,
                "contact:phone": "+48 768456594",
                "ref:regon": "022387080",
                "ref:vatin": "PL6921204769",
                "operator": "Ma\u0142gorzata Radko",
                "operator:type": "private",
                "healthcare": "counselling",
                "counselling_type": "education",
                "fixme": "w zale\u017cno\u015bci od przedmiotu dzia\u0142alno\u015bci (np. healthcare=counselling + counselling_type=education albo healthcare=psychotherapist)"
            }
        },
        {
            "id": 274174,
            "type": "Feature",
            "geometry": {
                "type": "Point",
                "coordinates": [
                    16.2142,
                    51.385819999999995
                ]
            },
            "properties": {
                "ref:rspo": 274174,
                "official_name": "Przedszkole Zielone w Lubinie",
                "name": "Przedszkole Zielone w Lubinie",
                "addr:country": "PL",
                "addr:postcode": "59-300",
                "addr:city": "Lubin",
                "addr:street": "Sportowa",
                "addr:housenumber": "35",
                "addr:teryt:simc": 954142,
                "addr:teryt:sym_ul": 20683,
                "contact:phone": "+48 768456594",
                "contact:email": "biuro@zielonaedukacja.com",
                "contact:website": "http:\/\/www.zielonaedukacja.com",
                "ref:regon": "385372766",
                "operator": "Jaros\u0142aw Radko",
                "operator:type": "private",
                "amenity": "kindergarten"
            }
        },
        {
            "id": 279147,
            "type": "Feature",
            "geometry": {
                "type": "Point",
                "coordinates": [
                    16.2142,
                    51.38579
                ]
            },
            "properties": {
                "ref:rspo": 279147,
                "official_name": "Poradnia Psychologiczno-Pedagogiczna Przyl\u0105dek Nadziei",
                "name": "Poradnia Psychologiczno-Pedagogiczna Przyl\u0105dek Nadziei",
                "addr:country": "PL",
                "addr:postcode": "59-300",
                "addr:city": "Lubin",
                "addr:street": "Sportowa",
                "addr:housenumber": "35",
                "addr:teryt:simc": 954142,
                "addr:teryt:sym_ul": 20683,
                "contact:phone": "+48 502397548",
                "ref:regon": "520757781",
                "operator": "Jaros\u0142aw Radko",
                "operator:type": "private",
                "healthcare": "counselling",
                "counselling_type": "education",
                "fixme": "w zale\u017cno\u015bci od przedmiotu dzia\u0142alno\u015bci (np. healthcare=counselling + counselling_type=education albo healthcare=psychotherapist)"
            }
        },
        {
            "id": 10078,
            "type": "Feature",
            "geometry": {
                "type": "Point",
                "coordinates": [
                    16.20696,
                    51.38665
                ]
            },
            "properties": {
                "isced:level": "1;2",
                "ref:rspo": 10078,
                "official_name": "Szko\u0142a Podstawowa Nr 10 im. Gen. W\u0142adys\u0142awa Sikorskiego",
                "name": "Szko\u0142a Podstawowa Nr 10",
                "addr:country": "PL",
                "addr:postcode": "59-300",
                "addr:city": "Lubin",
                "addr:street": "Prymasa Polski Stefana Wyszy\u0144skiego",
                "addr:housenumber": "3",
                "addr:teryt:simc": 954142,
                "addr:teryt:sym_ul": 34234,
                "contact:phone": "+48 767468336",
                "contact:email": "szkola@sp10.lubin.pl",
                "ref:regon": "000841290",
                "ref:vatin": "PL6921028982",
                "operator": "Gmina Miejska Lubin",
                "operator:type": "government",
                "amenity": "school"
            }
        },
        {
            "id": 92211,
            "type": "Feature",
            "geometry": {
                "type": "Point",
                "coordinates": [
                    16.20223,
                    51.38767
                ]
            },
            "properties": {
                "ref:rspo": 92211,
                "official_name": "O\u015brodek Szkoleniowy \"Tora\" w Lubinie",
                "name": "O\u015brodek Szkoleniowy \"Tora\" w Lubinie",
                "addr:country": "PL",
                "addr:postcode": "59-300",
                "addr:city": "Lubin",
                "addr:street": "Jastrz\u0119bia",
                "addr:housenumber": "7",
                "addr:door": "37",
                "addr:teryt:simc": 954142,
                "addr:teryt:sym_ul": 7354,
                "contact:email": "tora.lubin@op.pl",
                "ref:regon": "022022600",
                "operator": "Barbara Radziej",
                "operator:type": "private",
                "fixme": "w zale\u017cno\u015bci od przedmiotu dzia\u0142alno\u015bci (np. amenity=training + training=*, amenity=dancing_school, amenity=language_school, amenity=music_school)"
            }
        },
        {
            "id": 130555,
            "type": "Feature",
            "geometry": {
                "type": "Point",
                "coordinates": [
                    16.2115,
                    51.38797
                ]
            },
            "properties": {
                "ref:rspo": 130555,
                "official_name": "Recentia - Centrum Szkoleniowe w Lubinie",
                "name": "Recentia - Centrum Szkoleniowe w Lubinie",
                "addr:country": "PL",
                "addr:postcode": "59-300",
                "addr:city": "Lubin",
                "addr:street": "J\u00f3zefa Pi\u0142sudskiego",
                "addr:housenumber": "10",
                "addr:door": "1",
                "addr:teryt:simc": 954142,
                "addr:teryt:sym_ul": 16264,
                "contact:phone": "+48 767286427",
                "contact:email": "szkolenia@recentia.pl",
                "ref:regon": "364180508",
                "operator": "Marta Dajewska",
                "operator:type": "private",
                "fixme": "w zale\u017cno\u015bci od przedmiotu dzia\u0142alno\u015bci (np. amenity=training + training=*, amenity=dancing_school, amenity=language_school, amenity=music_school)"
            }
        },
        {
            "id": 13952,
            "type": "Feature",
            "geometry": {
                "type": "Point",
                "coordinates": [
                    16.20067,
                    51.38831
                ]
            },
            "properties": {
                "ref:rspo": 13952,
                "official_name": "Przedszkole Miejskie Nr 12",
                "name": "Przedszkole Miejskie Nr 12",
                "addr:country": "PL",
                "addr:postcode": "59-300",
                "addr:city": "Lubin",
                "addr:street": "Jastrz\u0119bia",
                "addr:housenumber": "2",
                "addr:teryt:simc": 954142,
                "addr:teryt:sym_ul": 7354,
                "contact:phone": "+48 767246018",
                "contact:email": "pm12@ok.um.lubin.pl",
                "ref:regon": "004059148",
                "ref:vatin": "PL6921640772",
                "operator": "Gmina Miejska Lubin",
                "operator:type": "government",
                "amenity": "kindergarten"
            }
        },
        {
            "id": 89692,
            "type": "Feature",
            "geometry": {
                "type": "Point",
                "coordinates": [
                    16.20629,
                    51.38918
                ]
            },
            "properties": {
                "ref:rspo": 89692,
                "official_name": "Spo\u0142eczne Przedszkole Montessori Spo\u0142ecznego Towarzystwa O\u015bwiatowego",
                "name": "Spo\u0142eczne Przedszkole Montessori Spo\u0142ecznego Towarzystwa O\u015bwiatowego",
                "addr:country": "PL",
                "addr:postcode": "59-300",
                "addr:city": "Lubin",
                "addr:street": "Pawia",
                "addr:housenumber": "41",
                "addr:teryt:simc": 954142,
                "addr:teryt:sym_ul": 15832,
                "contact:phone": "+48 767240997",
                "contact:email": "montessori.lubin@wp.pl",
                "ref:regon": "022016136",
                "ref:vatin": "PL6922470697",
                "operator": "Samodzielne Ko\u0142o Terenowe Spo\u0142ecznego Towarzystwa O\u015bwiatowego Nr 59 W Lubinie",
                "operator:type": "ngo",
                "amenity": "kindergarten"
            }
        },
        {
            "id": 107394,
            "type": "Feature",
            "geometry": {
                "type": "Point",
                "coordinates": [
                    16.20629,
                    51.38915
                ]
            },
            "properties": {
                "isced:level": "1;2",
                "ref:rspo": 107394,
                "official_name": "Spo\u0142eczna Szko\u0142a Podstawowa im. Rady Europy",
                "name": "Spo\u0142eczna Szko\u0142a Podstawowa",
                "addr:country": "PL",
                "addr:postcode": "59-300",
                "addr:city": "Lubin",
                "addr:street": "Pawia",
                "addr:housenumber": "41",
                "addr:teryt:simc": 954142,
                "addr:teryt:sym_ul": 15832,
                "contact:phone": "+48 768463771",
                "contact:email": "stolubin@interia.pl",
                "ref:regon": "022060261",
                "ref:vatin": "PL6922515603",
                "operator": "Samodzielne Ko\u0142o Terenowe Spo\u0142ecznego Towarzystwa O\u015bwiatowego Nr 59 W Lubinie",
                "operator:type": "ngo",
                "amenity": "school"
            }
        },
        {
            "id": 10077,
            "type": "Feature",
            "geometry": {
                "type": "Point",
                "coordinates": [
                    16.20287,
                    51.3892499
                ]
            },
            "properties": {
                "isced:level": "1;2",
                "ref:rspo": 10077,
                "official_name": "Szko\u0142a Podstawowa Nr 9 im. Stefanii Sempo\u0142owskiej w Lubinie",
                "name": "Szko\u0142a Podstawowa Nr 9",
                "addr:country": "PL",
                "addr:postcode": "59-300",
                "addr:city": "Lubin",
                "addr:street": "Legnicka",
                "addr:housenumber": "1",
                "addr:teryt:simc": 954142,
                "addr:teryt:sym_ul": 10780,
                "contact:phone": "+48 767462120",
                "contact:email": "sp9@ok.um.lubin.pl",
                "contact:website": "http:\/\/www.sp9lubin.pl",
                "ref:regon": "000712692",
                "ref:vatin": "PL6921028835",
                "operator": "Gmina Miejska Lubin",
                "operator:type": "government",
                "amenity": "school"
            }
        },
        {
            "id": 12788,
            "type": "Feature",
            "geometry": {
                "type": "Point",
                "coordinates": [
                    16.19789,
                    51.39017
                ]
            },
            "properties": {
                "ref:rspo": 12788,
                "official_name": "Poradnia Psychologiczno-Pedagogiczna w Lubinie",
                "name": "Poradnia Psychologiczno-Pedagogiczna w Lubinie",
                "addr:country": "PL",
                "addr:postcode": "59-300",
                "addr:city": "Lubin",
                "addr:street": "Aleja Komisji Edukacji Narodowej",
                "addr:housenumber": "6a",
                "addr:teryt:simc": 954142,
                "addr:teryt:sym_ul": 9065,
                "contact:phone": "+48 781700190",
                "contact:email": "poradnia@ppplubin.pl",
                "contact:website": "http:\/\/www.ppplubin.pl",
                "ref:regon": "020124790",
                "ref:vatin": "PL6922398563",
                "operator": "Powiat Lubi\u0144ski",
                "operator:type": "government",
                "healthcare": "counselling",
                "counselling_type": "education",
                "fixme": "w zale\u017cno\u015bci od przedmiotu dzia\u0142alno\u015bci (np. healthcare=counselling + counselling_type=education albo healthcare=psychotherapist)"
            }
        },
        {
            "id": 273412,
            "type": "Feature",
            "geometry": {
                "type": "Point",
                "coordinates": [
                    16.19789,
                    51.390139999999995
                ]
            },
            "properties": {
                "ref:rspo": 273412,
                "official_name": "Bursa Niepublicznego Liceum Og\u00f3lnokszta\u0142c\u0105cego Szko\u0142y Mistrzostwa Sportowego w Pi\u0142ce R\u0119cznej Mks Zag\u0142\u0119bie Lubin",
                "name": "Bursa Niepublicznego Liceum Og\u00f3lnokszta\u0142c\u0105cego Szko\u0142y Mistrzostwa Sportowego w Pi\u0142ce R\u0119cznej Mks Zag\u0142\u0119bie Lubin",
                "addr:country": "PL",
                "addr:postcode": "59-300",
                "addr:city": "Lubin",
                "addr:street": "al. Aleja Komisji Edukacji Narodowej",
                "addr:housenumber": "6a",
                "addr:teryt:simc": 954142,
                "addr:teryt:sym_ul": 45561,
                "contact:phone": "+48 607695938",
                "contact:email": "bursa@zaglebie.lubin.pl",
                "contact:website": "http:\/\/bursa.zaglebie.lubin.pl",
                "ref:regon": "384464408",
                "operator": "Miejski Klub Sportowy \"Zag\u0142\u0119bie\" Lubin",
                "operator:type": "ngo",
                "building": "dormitory"
            }
        },
        {
            "id": 13949,
            "type": "Feature",
            "geometry": {
                "type": "Point",
                "coordinates": [
                    16.20723,
                    51.39137
                ]
            },
            "properties": {
                "ref:rspo": 13949,
                "official_name": "Przedszkole Miejskie Nr 6",
                "name": "Przedszkole Miejskie Nr 6",
                "addr:country": "PL",
                "addr:postcode": "59-300",
                "addr:city": "Lubin",
                "addr:street": "\u0141u\u017cycka",
                "addr:housenumber": "6",
                "addr:teryt:simc": 954142,
                "addr:teryt:sym_ul": 11793,
                "contact:phone": "+48 767497030",
                "contact:email": "pm6@ok.um.lubin.pl",
                "ref:regon": "004059094",
                "ref:vatin": "PL6921057914",
                "operator": "Gmina Miejska Lubin",
                "operator:type": "government",
                "amenity": "kindergarten"
            }
        },
        {
            "id": 107054,
            "type": "Feature",
            "geometry": {
                "type": "Point",
                "coordinates": [
                    16.20533,
                    51.39153
                ]
            },
            "properties": {
                "isced:level": "1;2",
                "ref:rspo": 107054,
                "official_name": "Szko\u0142a Podstawowa Nr 7- Szko\u0142a Sportowa w Lubinie",
                "name": "Szko\u0142a Podstawowa Nr 7- Szko\u0142a Sportowa w Lubinie",
                "addr:country": "PL",
                "addr:postcode": "59-300",
                "addr:city": "Lubin",
                "addr:street": "Sybirak\u00f3w",
                "addr:housenumber": "11",
                "addr:teryt:simc": 954142,
                "addr:teryt:sym_ul": 21641,
                "contact:phone": "+48 767247300",
                "contact:email": "sp7@ok.um.lubin.pl",
                "contact:website": "http:\/\/www.sp7lubin.pl",
                "ref:regon": "391024167",
                "ref:vatin": "PL6922521845",
                "operator": "Gmina Miejska Lubin",
                "operator:type": "government",
                "amenity": "school"
            }
        },
        {
            "id": 133560,
            "type": "Feature",
            "geometry": {
                "type": "Point",
                "coordinates": [
                    16.20533,
                    51.3915
                ]
            },
            "properties": {
                "isced:level": "3",
                "ref:rspo": 133560,
                "official_name": "Niepubliczne Liceum Og\u00f3lnokszta\u0142c\u0105ce Szko\u0142a Mistrzostwa Sportowego w Pi\u0142ce R\u0119cznej Mks \"Zag\u0142\u0119bie\" Lubin",
                "name": "Niepubliczne Liceum Og\u00f3lnokszta\u0142c\u0105ce Szko\u0142a Mistrzostwa Sportowego w Pi\u0142ce R\u0119cznej Mks \"Zag\u0142\u0119bie\" Lubin",
                "addr:country": "PL",
                "addr:postcode": "59-300",
                "addr:city": "Lubin",
                "addr:street": "Sybirak\u00f3w",
                "addr:housenumber": "11",
                "addr:teryt:simc": 954142,
                "addr:teryt:sym_ul": 21641,
                "contact:phone": "+48 512215682",
                "contact:email": "sms@zaglebie.lubin.pl",
                "contact:website": "http:\/\/www.sms.zaglebie.lubin.pl",
                "ref:regon": "367411799",
                "operator": "Miejski Klub Sportowy \"Zag\u0142\u0119bie\" Lubin",
                "operator:type": "ngo",
                "amenity": "school"
            }
        },
        {
            "id": 277490,
            "type": "Feature",
            "geometry": {
                "type": "Point",
                "coordinates": [
                    16.20533,
                    51.391470000000005
                ]
            },
            "properties": {
                "isced:level": "1;2",
                "ref:rspo": 277490,
                "official_name": "Niepubliczna Szko\u0142a Podstawowa Szko\u0142a Mistrzostwa Sportowego w Pi\u0142ce R\u0119cznej Mks Zag\u0142\u0119bie Lubin",
                "name": "Niepubliczna Szko\u0142a Podstawowa Szko\u0142a Mistrzostwa Sportowego w Pi\u0142ce R\u0119cznej Mks Zag\u0142\u0119bie Lubin",
                "addr:country": "PL",
                "addr:postcode": "59-300",
                "addr:city": "Lubin",
                "addr:street": "Sybirak\u00f3w",
                "addr:housenumber": "11",
                "addr:teryt:simc": 954142,
                "addr:teryt:sym_ul": 21641,
                "contact:email": "nsp@zaglebie.lubin.pl",
                "contact:website": "http:\/\/www.sms.zaglebie.lubin.pl",
                "ref:regon": "389009784",
                "operator": "Miejski Klub Sportowy \"Zag\u0142\u0119bie\" Lubin",
                "operator:type": "ngo",
                "amenity": "school"
            }
        },
        {
            "id": 15854,
            "type": "Feature",
            "geometry": {
                "type": "Point",
                "coordinates": [
                    16.20089,
                    51.39176
                ]
            },
            "properties": {
                "ref:rspo": 15854,
                "official_name": "Przeszkole Prywatne \"Radosny Maluszek\"",
                "name": "Przeszkole Prywatne \"Radosny Maluszek\"",
                "addr:country": "PL",
                "addr:postcode": "59-300",
                "addr:city": "Lubin",
                "addr:street": "Budziszy\u0144ska",
                "addr:housenumber": "8",
                "addr:teryt:simc": 954142,
                "addr:teryt:sym_ul": 2353,
                "contact:phone": "+48 768456606",
                "contact:email": "przedszkole@radosnymaluszek.pl",
                "ref:regon": "021965570",
                "ref:vatin": "PL6920004525",
                "operator": "Marta Kowalczyk",
                "operator:type": "private",
                "amenity": "kindergarten"
            }
        },
        {
            "id": 265091,
            "type": "Feature",
            "geometry": {
                "type": "Point",
                "coordinates": [
                    16.20031,
                    51.39568
                ]
            },
            "properties": {
                "ref:rspo": 265091,
                "official_name": "Przedszkole Niepubliczne Krecik Dorota Sta\u0144czyk",
                "name": "Przedszkole Niepubliczne Krecik Dorota Sta\u0144czyk",
                "addr:country": "PL",
                "addr:postcode": "59-300",
                "addr:city": "Lubin",
                "addr:street": "Odrodzenia",
                "addr:housenumber": "11b",
                "addr:teryt:simc": 954142,
                "addr:teryt:sym_ul": 14755,
                "contact:email": "dorota.stanczyk@op.pl",
                "ref:regon": "368593590",
                "operator": "Dorota Sta\u0144czyk",
                "operator:type": "private",
                "amenity": "kindergarten"
            }
        },
        {
            "id": 271647,
            "type": "Feature",
            "geometry": {
                "type": "Point",
                "coordinates": [
                    16.19995,
                    51.39572
                ]
            },
            "properties": {
                "isced:level": "1;2",
                "ref:rspo": 271647,
                "official_name": "Szko\u0142a Podstawowa Zielona Szko\u0142a",
                "name": "Szko\u0142a Podstawowa Zielona Szko\u0142a",
                "addr:country": "PL",
                "addr:postcode": "59-300",
                "addr:city": "Lubin",
                "addr:street": "Odrodzenia",
                "addr:housenumber": "15",
                "addr:teryt:simc": 954142,
                "addr:teryt:sym_ul": 14755,
                "contact:phone": "+48 797406451",
                "contact:email": "szkola@zielonaedukacja.com",
                "contact:website": "http:\/\/zielonaedukacja.com",
                "ref:regon": "383495855",
                "operator": "Jaros\u0142aw Radko",
                "operator:type": "private",
                "amenity": "school"
            }
        },
        {
            "id": 3807,
            "type": "Feature",
            "geometry": {
                "type": "Point",
                "coordinates": [
                    16.20606,
                    51.39575
                ]
            },
            "properties": {
                "isced:level": "3",
                "ref:rspo": 3807,
                "official_name": "Salezja\u0144skie Liceum Og\u00f3lnokszta\u0142c\u0105ce im. \u015aw. Jana Bosko w Lubinie",
                "name": "Salezja\u0144skie Liceum Og\u00f3lnokszta\u0142c\u0105ce",
                "addr:country": "PL",
                "addr:postcode": "59-300",
                "addr:city": "Lubin",
                "addr:street": "Boles\u0142awa Prusa",
                "addr:housenumber": "4",
                "addr:teryt:simc": 954142,
                "addr:teryt:sym_ul": 17577,
                "contact:email": "poczta@salezjan.lubin.pl",
                "contact:website": "http:\/\/www.salezjan.lubin.pl",
                "ref:regon": "021949720",
                "ref:vatin": "PL6921571249",
                "operator": "Inspektoria Towarzystwa Salezja\u0144skiego \u015aw.jana Bosko",
                "operator:type": "religious",
                "amenity": "school"
            }
        },
        {
            "id": 3991,
            "type": "Feature",
            "geometry": {
                "type": "Point",
                "coordinates": [
                    16.19574,
                    51.3959
                ]
            },
            "properties": {
                "ref:rspo": 3991,
                "official_name": "Royal College",
                "name": "Royal College",
                "addr:country": "PL",
                "addr:postcode": "59-300",
                "addr:city": "Lubin",
                "addr:street": "Odrodzenia",
                "addr:housenumber": "34",
                "addr:teryt:simc": 954142,
                "addr:teryt:sym_ul": 14755,
                "contact:phone": "+48 768443030",
                "contact:email": "biuro@royal.edu.pl",
                "contact:website": "http:\/\/www.royal.edu.pl",
                "ref:regon": "021950610",
                "operator": "Mariusz Tomaszewski",
                "operator:type": "private",
                "fixme": "w zale\u017cno\u015bci od przedmiotu dzia\u0142alno\u015bci (np. amenity=training + training=*, amenity=dancing_school, amenity=language_school, amenity=music_school)"
            }
        },
        {
            "id": 4089,
            "type": "Feature",
            "geometry": {
                "type": "Point",
                "coordinates": [
                    16.19574,
                    51.395869999999995
                ]
            },
            "properties": {
                "isced:level": "4",
                "ref:rspo": 4089,
                "official_name": "Policealna Szko\u0142a Royal College w Lubinie",
                "name": "Policealna Szko\u0142a Royal College w Lubinie",
                "addr:country": "PL",
                "addr:postcode": "59-300",
                "addr:city": "Lubin",
                "addr:street": "Odrodzenia",
                "addr:housenumber": "34",
                "addr:teryt:simc": 954142,
                "addr:teryt:sym_ul": 14755,
                "contact:phone": "+48 768443030",
                "contact:email": "biuro@royal.edu.pl",
                "contact:website": "http:\/\/www.royal.edu.pl",
                "ref:regon": "021950768",
                "operator": "Mariusz Tomaszewski",
                "operator:type": "private",
                "amenity": "college"
            }
        },
        {
            "id": 91236,
            "type": "Feature",
            "geometry": {
                "type": "Point",
                "coordinates": [
                    16.19574,
                    51.39584
                ]
            },
            "properties": {
                "isced:level": "3",
                "ref:rspo": 91236,
                "official_name": "Ii Liceum Og\u00f3lnokszta\u0142c\u0105ce dla Doros\u0142ych w Lubinie",
                "name": "Ii Liceum Og\u00f3lnokszta\u0142c\u0105ce dla Doros\u0142ych w Lubinie",
                "addr:country": "PL",
                "addr:postcode": "59-300",
                "addr:city": "Lubin",
                "addr:street": "Odrodzenia",
                "addr:housenumber": "34",
                "addr:teryt:simc": 954142,
                "addr:teryt:sym_ul": 14755,
                "contact:phone": "+48 768443030",
                "contact:email": "biuro@royal.edu.pl",
                "ref:regon": "022020557",
                "operator": "Mariusz Tomaszewski",
                "operator:type": "private",
                "amenity": "school"
            }
        },
        {
            "id": 121325,
            "type": "Feature",
            "geometry": {
                "type": "Point",
                "coordinates": [
                    16.20183,
                    51.39598
                ]
            },
            "properties": {
                "ref:rspo": 121325,
                "official_name": "Przedszkole Niepubliczne Bia\u0142a \u017byrafa",
                "name": "Przedszkole Niepubliczne Bia\u0142a \u017byrafa",
                "addr:country": "PL",
                "addr:postcode": "59-300",
                "addr:city": "Lubin",
                "addr:street": "Henryka Sienkiewicza",
                "addr:housenumber": "5",
                "addr:teryt:simc": 954142,
                "addr:teryt:sym_ul": 19834,
                "contact:phone": "+48 768449847",
                "contact:email": "bialazyrafa@wp.pl",
                "ref:regon": "022320822",
                "operator": "Civis Europae",
                "operator:type": "ngo",
                "amenity": "kindergarten"
            }
        },
        {
            "id": 11713,
            "type": "Feature",
            "geometry": {
                "type": "Point",
                "coordinates": [
                    16.20261,
                    51.39652
                ]
            },
            "properties": {
                "isced:level": "3",
                "ref:rspo": 11713,
                "official_name": "I Liceum Og\u00f3lnokszta\u0142c\u0105ce Im Miko\u0142aja Kopernika w Lubinie",
                "name": "I Liceum Og\u00f3lnokszta\u0142c\u0105ce Im Miko\u0142aja Kopernika w Lubinie",
                "addr:country": "PL",
                "addr:postcode": "59-300",
                "addr:city": "Lubin",
                "addr:street": "Miko\u0142aja Kopernika",
                "addr:housenumber": "7",
                "addr:teryt:simc": 954142,
                "addr:teryt:sym_ul": 9282,
                "contact:phone": "+48 767460670",
                "contact:email": "1lo@1lo.lubin.pl",
                "ref:regon": "000714053",
                "ref:vatin": "PL6921126905",
                "operator": "Powiat Lubi\u0144ski",
                "operator:type": "government",
                "amenity": "school"
            }
        },
        {
            "id": 131241,
            "type": "Feature",
            "geometry": {
                "type": "Point",
                "coordinates": [
                    16.2135114,
                    51.3973528
                ]
            },
            "properties": {
                "ref:rspo": 131241,
                "official_name": "Centrum Wspomagania Rozwoju - Niepubliczna Poradnia Psychologiczno-Pedagogiczna w Lubinie",
                "name": "Centrum Wspomagania Rozwoju - Niepubliczna Poradnia Psychologiczno-Pedagogiczna w Lubinie",
                "addr:country": "PL",
                "addr:postcode": "59-300",
                "addr:city": "Lubin",
                "addr:street": "\u015acinawska",
                "addr:housenumber": "9",
                "addr:teryt:simc": 954142,
                "addr:teryt:sym_ul": 22302,
                "contact:phone": "+48 691737710",
                "ref:regon": "365082630",
                "operator": "Ewa Urban",
                "operator:type": "private",
                "healthcare": "counselling",
                "counselling_type": "education",
                "fixme": "w zale\u017cno\u015bci od przedmiotu dzia\u0142alno\u015bci (np. healthcare=counselling + counselling_type=education albo healthcare=psychotherapist)"
            }
        },
        {
            "id": 4070,
            "type": "Feature",
            "geometry": {
                "type": "Point",
                "coordinates": [
                    16.20292,
                    51.3977
                ]
            },
            "properties": {
                "isced:level": "4",
                "ref:rspo": 4070,
                "official_name": "Niepubliczna Szko\u0142a Policealna Teb Edukacja w Lubinie",
                "name": "Niepubliczna Szko\u0142a Policealna Teb Edukacja w Lubinie",
                "addr:country": "PL",
                "addr:postcode": "59-300",
                "addr:city": "Lubin",
                "addr:street": "Miko\u0142aja Kopernika",
                "addr:housenumber": "16",
                "addr:teryt:simc": 954142,
                "addr:teryt:sym_ul": 9282,
                "contact:phone": "+48 768415060",
                "contact:email": "lubin@teb-edukacja.pl",
                "ref:regon": "021950722",
                "operator": "Teb Edukacja Sp\u00f3\u0142ka Z Ograniczon\u0105 Odpowiedzialno\u015bci\u0105",
                "operator:type": "private",
                "amenity": "college"
            }
        },
        {
            "id": 91231,
            "type": "Feature",
            "geometry": {
                "type": "Point",
                "coordinates": [
                    16.20292,
                    51.39767
                ]
            },
            "properties": {
                "isced:level": "3",
                "ref:rspo": 91231,
                "official_name": "Liceum Og\u00f3lnokszta\u0142c\u0105ce Teb Edukacja dla Doros\u0142ych w Lubinie",
                "name": "Liceum Og\u00f3lnokszta\u0142c\u0105ce Teb Edukacja dla Doros\u0142ych w Lubinie",
                "addr:country": "PL",
                "addr:postcode": "59-300",
                "addr:city": "Lubin",
                "addr:street": "Miko\u0142aja Kopernika",
                "addr:housenumber": "16",
                "addr:teryt:simc": 954142,
                "addr:teryt:sym_ul": 9282,
                "contact:phone": "+48 768415060",
                "contact:email": "lubin@teb.pl",
                "ref:regon": "022020630",
                "operator": "Teb Edukacja Sp\u00f3\u0142ka Z Ograniczon\u0105 Odpowiedzialno\u015bci\u0105",
                "operator:type": "private",
                "amenity": "school"
            }
        },
        {
            "id": 91232,
            "type": "Feature",
            "geometry": {
                "type": "Point",
                "coordinates": [
                    16.20292,
                    51.39764
                ]
            },
            "properties": {
                "ref:rspo": 91232,
                "official_name": "Teb Edukacja Studium Kszta\u0142cenia Praktycznego",
                "name": "Teb Edukacja Studium Kszta\u0142cenia Praktycznego",
                "addr:country": "PL",
                "addr:postcode": "59-300",
                "addr:city": "Lubin",
                "addr:street": "Miko\u0142aja Kopernika",
                "addr:housenumber": "16",
                "addr:teryt:simc": 954142,
                "addr:teryt:sym_ul": 9282,
                "contact:phone": "+48 768415060",
                "contact:email": "lubin@teb.pl",
                "ref:regon": "022020675",
                "operator": "Teb Edukacja Sp\u00f3\u0142ka Z Ograniczon\u0105 Odpowiedzialno\u015bci\u0105",
                "operator:type": "private",
                "fixme": "w zale\u017cno\u015bci od przedmiotu dzia\u0142alno\u015bci (np. amenity=training + training=*, amenity=dancing_school, amenity=language_school, amenity=music_school)"
            }
        },
        {
            "id": 119997,
            "type": "Feature",
            "geometry": {
                "type": "Point",
                "coordinates": [
                    16.20292,
                    51.39761
                ]
            },
            "properties": {
                "isced:level": "3",
                "ref:rspo": 119997,
                "official_name": "Technikum Teb Edukacja w Lubinie",
                "name": "Technikum Teb Edukacja w Lubinie",
                "addr:country": "PL",
                "addr:postcode": "59-300",
                "addr:city": "Lubin",
                "addr:street": "Miko\u0142aja Kopernika",
                "addr:housenumber": "16",
                "addr:teryt:simc": 954142,
                "addr:teryt:sym_ul": 9282,
                "contact:phone": "+48 768415060",
                "contact:email": "lubin@teb.pl",
                "contact:website": "http:\/\/www.teb.pl",
                "ref:regon": "022252049",
                "operator": "Teb Edukacja Sp\u00f3\u0142ka Z Ograniczon\u0105 Odpowiedzialno\u015bci\u0105",
                "operator:type": "private",
                "amenity": "school"
            }
        },
        {
            "id": 11714,
            "type": "Feature",
            "geometry": {
                "type": "Point",
                "coordinates": [
                    16.20787,
                    51.3985
                ]
            },
            "properties": {
                "isced:level": "3",
                "ref:rspo": 11714,
                "official_name": "Ii Liceum Og\u00f3lnokszta\u0142c\u0105ce w Lubinie",
                "name": "Ii Liceum Og\u00f3lnokszta\u0142c\u0105ce w Lubinie",
                "addr:country": "PL",
                "addr:postcode": "59-300",
                "addr:city": "Lubin",
                "addr:street": "Aleja Niepodleg\u0142o\u015bci",
                "addr:housenumber": "31",
                "addr:teryt:simc": 954142,
                "addr:teryt:sym_ul": 14199,
                "contact:phone": "+48 768497265",
                "contact:email": "2.liceum.lubin@wp.pl",
                "contact:website": "http:\/\/www.2liceum.eu",
                "ref:regon": "001272440",
                "ref:vatin": "PL6921029013",
                "operator": "Powiat Lubi\u0144ski",
                "operator:type": "government",
                "amenity": "school"
            }
        },
        {
            "id": 13953,
            "type": "Feature",
            "geometry": {
                "type": "Point",
                "coordinates": [
                    16.20007,
                    51.39873
                ]
            },
            "properties": {
                "ref:rspo": 13953,
                "official_name": "Przedszkole Miejskie Nr 13",
                "name": "Przedszkole Miejskie Nr 13",
                "addr:country": "PL",
                "addr:postcode": "59-300",
                "addr:city": "Lubin",
                "addr:street": "1 Maja",
                "addr:housenumber": "16B",
                "addr:teryt:simc": 954142,
                "addr:teryt:sym_ul": 11926,
                "contact:phone": "+48 767490180",
                "contact:email": "pm13@ok.um.lubin.pl",
                "ref:regon": "004059154",
                "ref:vatin": "PL6921020118",
                "operator": "Gmina Miejska Lubin",
                "operator:type": "government",
                "amenity": "kindergarten"
            }
        },
        {
            "id": 35045,
            "type": "Feature",
            "geometry": {
                "type": "Point",
                "coordinates": [
                    16.20939,
                    51.39915
                ]
            },
            "properties": {
                "ref:rspo": 35045,
                "official_name": "Pa\u0144stwowa Szko\u0142a Muzyczna I St. w Lubinie",
                "name": "Pa\u0144stwowa Szko\u0142a Muzyczna I St. w Lubinie",
                "addr:country": "PL",
                "addr:postcode": "59-300",
                "addr:city": "Lubin",
                "addr:street": "Jana Kili\u0144skiego",
                "addr:housenumber": "8",
                "addr:teryt:simc": 954142,
                "addr:teryt:sym_ul": 8435,
                "contact:phone": "+48 768421459",
                "contact:email": "szkola@psm.lubin.pl",
                "contact:website": "http:\/\/psm.lubin.pl",
                "ref:regon": "000581617",
                "operator": "Ministerstwo Kultury I Dziedzictwa Narodowego",
                "operator:type": "public",
                "amenity": "music_school"
            }
        },
        {
            "id": 13947,
            "type": "Feature",
            "geometry": {
                "type": "Point",
                "coordinates": [
                    16.2113799,
                    51.39974
                ]
            },
            "properties": {
                "ref:rspo": 13947,
                "official_name": "Przedszkole Miejskie Nr 4",
                "name": "Przedszkole Miejskie Nr 4",
                "addr:country": "PL",
                "addr:postcode": "59-300",
                "addr:city": "Lubin",
                "addr:street": "Tadeusza Ko\u015bciuszki",
                "addr:housenumber": "10",
                "addr:teryt:simc": 954142,
                "addr:teryt:sym_ul": 9582,
                "contact:phone": "+48 767468383",
                "contact:email": "pm4@ok.um.lubin.pl",
                "ref:regon": "004059071",
                "ref:vatin": "PL6921064481",
                "operator": "Gmina Miejska Lubin",
                "operator:type": "government",
                "amenity": "kindergarten"
            }
        },
        {
            "id": 13948,
            "type": "Feature",
            "geometry": {
                "type": "Point",
                "coordinates": [
                    16.16959,
                    51.4
                ]
            },
            "properties": {
                "ref:rspo": 13948,
                "official_name": "Przedszkole Miejskie Nr 5",
                "name": "Przedszkole Miejskie Nr 5",
                "addr:country": "PL",
                "addr:postcode": "59-300",
                "addr:city": "Lubin",
                "addr:street": "Elizy Orzeszkowej",
                "addr:housenumber": "11",
                "addr:teryt:simc": 954142,
                "addr:teryt:sym_ul": 15211,
                "contact:phone": "+48 767464603",
                "contact:email": "pm5@ok.um.lubin.pl",
                "contact:website": "http:\/\/www.pm5lubin.szolnastrona.pl",
                "ref:regon": "004059088",
                "ref:vatin": "PL6921020236",
                "operator": "Gmina Miejska Lubin",
                "operator:type": "government",
                "amenity": "kindergarten"
            }
        },
        {
            "id": 107091,
            "type": "Feature",
            "geometry": {
                "type": "Point",
                "coordinates": [
                    16.20095,
                    51.40009
                ]
            },
            "properties": {
                "isced:level": "1;2",
                "ref:rspo": 107091,
                "official_name": "Szko\u0142a Podstawowa Nr 1 Z Oddzia\u0142ami Integracyjnymi im. Marii Sk\u0142odowskiej-Curie w Lubinie",
                "name": "Szko\u0142a Podstawowa Nr 1 Z Oddzia\u0142ami Integracyjnymi",
                "addr:country": "PL",
                "addr:postcode": "59-300",
                "addr:city": "Lubin",
                "addr:street": "Marii Sk\u0142odowskiej-Curie",
                "addr:housenumber": "4",
                "addr:teryt:simc": 954142,
                "addr:teryt:sym_ul": 20068,
                "contact:phone": "+48 768442111",
                "contact:email": "sp1@ok.um.lubin.pl",
                "ref:regon": "000712634",
                "ref:vatin": "PL6922515075",
                "operator": "Gmina Miejska Lubin",
                "operator:type": "government",
                "amenity": "school"
            }
        },
        {
            "id": 269316,
            "type": "Feature",
            "geometry": {
                "type": "Point",
                "coordinates": [
                    16.20537,
                    51.40017
                ]
            },
            "properties": {
                "isced:level": "3",
                "ref:rspo": 269316,
                "official_name": "Liceum Og\u00f3lnokszta\u0142c\u0105ce dla Doros\u0142ych \"\u017bak\" w Lubinie",
                "name": "Liceum Og\u00f3lnokszta\u0142c\u0105ce dla Doros\u0142ych \"\u017bak\" w Lubinie",
                "addr:country": "PL",
                "addr:postcode": "59-300",
                "addr:city": "Lubin",
                "addr:street": "Armii Krajowej",
                "addr:housenumber": "9",
                "addr:teryt:simc": 954142,
                "addr:teryt:sym_ul": 432,
                "contact:phone": "+48 768415127",
                "contact:email": "lubin@zak.edu.pl",
                "contact:website": "http:\/\/www.zak.edu.pl",
                "ref:regon": "381441329",
                "operator": "Centrum Nauki I Biznesu \"\u017bak\" Sp\u00f3\u0142ka Z Ograniczon\u0105 Odpowiedzialno\u015bci\u0105",
                "operator:type": "private",
                "amenity": "school"
            }
        },
        {
            "id": 269326,
            "type": "Feature",
            "geometry": {
                "type": "Point",
                "coordinates": [
                    16.20537,
                    51.40014
                ]
            },
            "properties": {
                "isced:level": "4",
                "ref:rspo": 269326,
                "official_name": "Szko\u0142a Policealna Centrum Nauki I Biznesu \"\u017bak\" w Lubinie",
                "name": "Szko\u0142a Policealna Centrum Nauki I Biznesu \"\u017bak\" w Lubinie",
                "addr:country": "PL",
                "addr:postcode": "59-300",
                "addr:city": "Lubin",
                "addr:street": "Armii Krajowej",
                "addr:housenumber": "9",
                "addr:teryt:simc": 954142,
                "addr:teryt:sym_ul": 432,
                "contact:phone": "+48 768415127",
                "contact:email": "lubin@zak.edu.pl",
                "contact:website": "http:\/\/www.zak.edu.pl",
                "ref:regon": "381444405",
                "operator": "Centrum Nauki I Biznesu \"\u017bak\" Sp\u00f3\u0142ka Z Ograniczon\u0105 Odpowiedzialno\u015bci\u0105",
                "operator:type": "private",
                "amenity": "college"
            }
        },
        {
            "id": 274691,
            "type": "Feature",
            "geometry": {
                "type": "Point",
                "coordinates": [
                    16.20537,
                    51.400110000000005
                ]
            },
            "properties": {
                "isced:level": "4",
                "ref:rspo": 274691,
                "official_name": "Publiczna Szko\u0142a Policealna Cnib \"\u017bak\" w Lubinie",
                "name": "Publiczna Szko\u0142a Policealna Cnib \"\u017bak\" w Lubinie",
                "addr:country": "PL",
                "addr:postcode": "59-300",
                "addr:city": "Lubin",
                "addr:street": "Armii Krajowej",
                "addr:housenumber": "9",
                "addr:teryt:simc": 954142,
                "addr:teryt:sym_ul": 432,
                "contact:phone": "+48 768415127",
                "contact:email": "lubin@zak.edu.pl",
                "ref:regon": "386244214",
                "operator": "Centrum Nauki I Biznesu \"\u017bak\" Sp\u00f3\u0142ka Z Ograniczon\u0105 Odpowiedzialno\u015bci\u0105",
                "operator:type": "private",
                "amenity": "college"
            }
        },
        {
            "id": 8366,
            "type": "Feature",
            "geometry": {
                "type": "Point",
                "coordinates": [
                    16.17155,
                    51.4007099
                ]
            },
            "properties": {
                "ref:rspo": 8366,
                "official_name": "Biblioteka Pedagogiczna w Lubinie",
                "name": "Biblioteka Pedagogiczna w Lubinie",
                "addr:country": "PL",
                "addr:postcode": "59-300",
                "addr:city": "Lubin",
                "addr:street": "Marii Konopnickiej",
                "addr:housenumber": "5",
                "addr:teryt:simc": 954142,
                "addr:teryt:sym_ul": 9186,
                "contact:phone": "+48 767246001",
                "contact:email": "lubin@lubin.dbp.wroc.pl",
                "contact:website": "http:\/\/www.zsipo.lubin.pl",
                "ref:regon": "021963535",
                "operator": "Powiat Lubi\u0144ski",
                "operator:type": "government",
                "amenity": "library",
                "note": "Parent RSPO: 3459"
            }
        },
        {
            "id": 267992,
            "type": "Feature",
            "geometry": {
                "type": "Point",
                "coordinates": [
                    16.16678,
                    51.40103
                ]
            },
            "properties": {
                "ref:rspo": 267992,
                "official_name": "Partnerstwo I Rozw\u00f3j Wikaz - Centrum Szkoleniowe w Lubinie",
                "name": "Partnerstwo I Rozw\u00f3j Wikaz - Centrum Szkoleniowe w Lubinie",
                "addr:country": "PL",
                "addr:postcode": "59-300",
                "addr:city": "Lubin",
                "addr:street": "Aleksandra Fredry",
                "addr:housenumber": "38B",
                "addr:teryt:simc": 954142,
                "addr:teryt:sym_ul": 5172,
                "contact:email": "kontakt.wikaz@gmail.com",
                "ref:regon": "380825571",
                "operator": "Janina Witkowska",
                "operator:type": "private",
                "fixme": "w zale\u017cno\u015bci od przedmiotu dzia\u0142alno\u015bci (np. amenity=training + training=*, amenity=dancing_school, amenity=language_school, amenity=music_school)"
            }
        },
        {
            "id": 4413,
            "type": "Feature",
            "geometry": {
                "type": "Point",
                "coordinates": [
                    16.20809,
                    51.40135
                ]
            },
            "properties": {
                "ref:rspo": 4413,
                "official_name": "Przedsi\u0119biorstwo Kszta\u0142cenia I Us\u0142ug Exwur Sp. Z O.o. w Lubinie",
                "name": "Przedsi\u0119biorstwo Kszta\u0142cenia I Us\u0142ug Exwur Sp. Z O.o. w Lubinie",
                "addr:country": "PL",
                "addr:postcode": "59-300",
                "addr:city": "Lubin",
                "addr:street": "Tadeusza Ko\u015bciuszki",
                "addr:housenumber": "9",
                "addr:teryt:simc": 954142,
                "addr:teryt:sym_ul": 9582,
                "contact:phone": "+48 767464460",
                "contact:email": "exwur@vp.pl",
                "contact:website": "http:\/\/exwur.eu",
                "ref:regon": "021944650",
                "operator": "Przedsi\u0119biorstwo Kszta\u0142cenia I Us\u0142ug \"Exwur\" Sp\u00f3\u0142ka Z Ograniczon\u0105 Odpowiedzialno\u015bci\u0105",
                "operator:type": "private",
                "fixme": "w zale\u017cno\u015bci od przedmiotu dzia\u0142alno\u015bci (np. amenity=training + training=*, amenity=dancing_school, amenity=language_school, amenity=music_school)"
            }
        },
        {
            "id": 11715,
            "type": "Feature",
            "geometry": {
                "type": "Point",
                "coordinates": [
                    16.20809,
                    51.40132
                ]
            },
            "properties": {
                "ref:rspo": 11715,
                "official_name": "Zesp\u00f3\u0142 Szk\u00f3\u0142 Nr 1 im. Prof. Boles\u0142awa Krupi\u0144skiego w Lubinie",
                "name": "Zesp\u00f3\u0142 Szk\u00f3\u0142 Nr 1",
                "addr:country": "PL",
                "addr:postcode": "59-300",
                "addr:city": "Lubin",
                "addr:street": "Tadeusza Ko\u015bciuszki",
                "addr:housenumber": "9",
                "addr:teryt:simc": 954142,
                "addr:teryt:sym_ul": 9582,
                "contact:phone": "+48 767463050",
                "contact:email": "poczta@zs1.lubin.pl",
                "contact:website": "http:\/\/www.zs1.lubin.pl",
                "ref:regon": "000027306",
                "ref:vatin": "PL6921028723",
                "operator": "Powiat Lubi\u0144ski",
                "operator:type": "government",
                "landuse": "education",
                "fixme": "amenity=school, amenity=college albo landuse=education w zale\u017cno\u015bci od tego, jakie plac\u00f3wki wchodz\u0105 w sk\u0142ad zespo\u0142u. Sprawd\u017a, kiedy stosowa\u0107 amenity=* a kiedy landuse=education.",
                "note": "Children RSPO: 107344;107346"
            }
        },
        {
            "id": 92376,
            "type": "Feature",
            "geometry": {
                "type": "Point",
                "coordinates": [
                    16.20809,
                    51.40129
                ]
            },
            "properties": {
                "isced:level": "3",
                "ref:rspo": 92376,
                "official_name": "Prywatne Liceum Og\u00f3lnokszta\u0142c\u0105ce dla Doros\u0142ych w Lubinie",
                "name": "Prywatne Liceum Og\u00f3lnokszta\u0142c\u0105ce dla Doros\u0142ych w Lubinie",
                "addr:country": "PL",
                "addr:postcode": "59-300",
                "addr:city": "Lubin",
                "addr:street": "Tadeusza Ko\u015bciuszki",
                "addr:housenumber": "9",
                "addr:teryt:simc": 954142,
                "addr:teryt:sym_ul": 9582,
                "contact:phone": "+48 767463066",
                "contact:email": "prywatnelo@op.pl",
                "ref:regon": "022024839",
                "operator": "Janusz Augustynowicz",
                "operator:type": "private",
                "amenity": "school"
            }
        },
        {
            "id": 273055,
            "type": "Feature",
            "geometry": {
                "type": "Point",
                "coordinates": [
                    16.20809,
                    51.40126
                ]
            },
            "properties": {
                "ref:rspo": 273055,
                "official_name": "Zesp\u00f3\u0142 Szk\u00f3\u0142 \"Pascal\" w Lubinie",
                "name": "Zesp\u00f3\u0142 Szk\u00f3\u0142 \"Pascal\" w Lubinie",
                "addr:country": "PL",
                "addr:postcode": "59-300",
                "addr:city": "Lubin",
                "addr:street": "Tadeusza Ko\u015bciuszki",
                "addr:housenumber": "9",
                "addr:teryt:simc": 954142,
                "addr:teryt:sym_ul": 9582,
                "contact:phone": "+48 763000284",
                "contact:email": "lubin@pascal.edu.pl",
                "ref:regon": "384362990",
                "operator": "Educa Sp\u00f3\u0142ka Z Ograniczon\u0105 Odpowiedzialno\u015bci\u0105",
                "operator:type": "private",
                "landuse": "education",
                "fixme": "amenity=school, amenity=college albo landuse=education w zale\u017cno\u015bci od tego, jakie plac\u00f3wki wchodz\u0105 w sk\u0142ad zespo\u0142u. Sprawd\u017a, kiedy stosowa\u0107 amenity=* a kiedy landuse=education.",
                "note": "Children RSPO: 269333;269334;269337;269338"
            }
        },
        {
            "id": 107344,
            "type": "Feature",
            "geometry": {
                "type": "Point",
                "coordinates": [
                    16.20809,
                    51.40123
                ]
            },
            "properties": {
                "isced:level": "3",
                "ref:rspo": 107344,
                "official_name": "Bran\u017cowa Szko\u0142a I Stopnia Nr 1 w Lubinie",
                "name": "Bran\u017cowa Szko\u0142a I Stopnia Nr 1 w Lubinie",
                "addr:country": "PL",
                "addr:postcode": "59-300",
                "addr:city": "Lubin",
                "addr:street": "Tadeusza Ko\u015bciuszki",
                "addr:housenumber": "9",
                "addr:teryt:simc": 954142,
                "addr:teryt:sym_ul": 9582,
                "contact:phone": "+48 767463050",
                "contact:email": "poczta@zs1.lubin.pl",
                "contact:website": "http:\/\/www.zs1.lubin.pl",
                "ref:regon": "391021364",
                "ref:vatin": "PL6921028723",
                "operator": "Powiat Lubi\u0144ski",
                "operator:type": "government",
                "amenity": "school",
                "note": "Parent RSPO: 11715"
            }
        },
        {
            "id": 107346,
            "type": "Feature",
            "geometry": {
                "type": "Point",
                "coordinates": [
                    16.20809,
                    51.4012
                ]
            },
            "properties": {
                "isced:level": "3",
                "ref:rspo": 107346,
                "official_name": "Technikum Nr 1 im. Prof. Boles\u0142awa Krupi\u0144skiego w Lubinie",
                "name": "Technikum Nr 1",
                "addr:country": "PL",
                "addr:postcode": "59-300",
                "addr:city": "Lubin",
                "addr:street": "Tadeusza Ko\u015bciuszki",
                "addr:housenumber": "9",
                "addr:teryt:simc": 954142,
                "addr:teryt:sym_ul": 9582,
                "contact:phone": "+48 767463050",
                "contact:email": "poczta@zs1.lubin.pl",
                "contact:website": "http:\/\/www.zs1.lubin.pl",
                "ref:regon": "391021370",
                "ref:vatin": "PL6921028723",
                "operator": "Powiat Lubi\u0144ski",
                "operator:type": "government",
                "amenity": "school",
                "note": "Parent RSPO: 11715"
            }
        },
        {
            "id": 269333,
            "type": "Feature",
            "geometry": {
                "type": "Point",
                "coordinates": [
                    16.20809,
                    51.40117
                ]
            },
            "properties": {
                "isced:level": "3",
                "ref:rspo": 269333,
                "official_name": "Liceum Og\u00f3lnokszta\u0142c\u0105ce dla Doros\u0142ych \"Pascal\" w Lubinie",
                "name": "Liceum Og\u00f3lnokszta\u0142c\u0105ce dla Doros\u0142ych \"Pascal\" w Lubinie",
                "addr:country": "PL",
                "addr:postcode": "59-300",
                "addr:city": "Lubin",
                "addr:street": "Tadeusza Ko\u015bciuszki",
                "addr:housenumber": "9",
                "addr:teryt:simc": 954142,
                "addr:teryt:sym_ul": 9582,
                "contact:phone": "+48 763000284",
                "contact:email": "lubin@pascal.edu.pl",
                "ref:regon": "381444428",
                "operator": "Educa Sp\u00f3\u0142ka Z Ograniczon\u0105 Odpowiedzialno\u015bci\u0105",
                "operator:type": "private",
                "amenity": "school",
                "note": "Parent RSPO: 273055"
            }
        },
        {
            "id": 269334,
            "type": "Feature",
            "geometry": {
                "type": "Point",
                "coordinates": [
                    16.20809,
                    51.40114
                ]
            },
            "properties": {
                "isced:level": "4",
                "ref:rspo": 269334,
                "official_name": "Policealna Szko\u0142a Medyczna \"Pascal\" w Lubinie",
                "name": "Policealna Szko\u0142a Medyczna \"Pascal\" w Lubinie",
                "addr:country": "PL",
                "addr:postcode": "59-300",
                "addr:city": "Lubin",
                "addr:street": "Tadeusza Ko\u015bciuszki",
                "addr:housenumber": "9",
                "addr:teryt:simc": 954142,
                "addr:teryt:sym_ul": 9582,
                "contact:phone": "+48 763000284",
                "contact:email": "lubin@pascal.edu.pl",
                "ref:regon": "381444440",
                "operator": "Educa Sp\u00f3\u0142ka Z Ograniczon\u0105 Odpowiedzialno\u015bci\u0105",
                "operator:type": "private",
                "amenity": "college",
                "note": "Parent RSPO: 273055"
            }
        },
        {
            "id": 269337,
            "type": "Feature",
            "geometry": {
                "type": "Point",
                "coordinates": [
                    16.20809,
                    51.40111
                ]
            },
            "properties": {
                "isced:level": "4",
                "ref:rspo": 269337,
                "official_name": "Zaoczna Policealna Szko\u0142a Zawodowa \"Pascal\" w Lubinie",
                "name": "Zaoczna Policealna Szko\u0142a Zawodowa \"Pascal\" w Lubinie",
                "addr:country": "PL",
                "addr:postcode": "59-300",
                "addr:city": "Lubin",
                "addr:street": "Tadeusza Ko\u015bciuszki",
                "addr:housenumber": "9",
                "addr:teryt:simc": 954142,
                "addr:teryt:sym_ul": 9582,
                "contact:phone": "+48 763000284",
                "contact:email": "lubin@pascal.edu.pl",
                "ref:regon": "381444457",
                "operator": "Educa Sp\u00f3\u0142ka Z Ograniczon\u0105 Odpowiedzialno\u015bci\u0105",
                "operator:type": "private",
                "amenity": "college",
                "note": "Parent RSPO: 273055"
            }
        },
        {
            "id": 269338,
            "type": "Feature",
            "geometry": {
                "type": "Point",
                "coordinates": [
                    16.20809,
                    51.40108
                ]
            },
            "properties": {
                "isced:level": "4",
                "ref:rspo": 269338,
                "official_name": "Stacjonarna Policealna Szko\u0142a Medyczna \"Pascal\" w Lubinie",
                "name": "Stacjonarna Policealna Szko\u0142a Medyczna \"Pascal\" w Lubinie",
                "addr:country": "PL",
                "addr:postcode": "59-300",
                "addr:city": "Lubin",
                "addr:street": "Tadeusza Ko\u015bciuszki",
                "addr:housenumber": "9",
                "addr:teryt:simc": 954142,
                "addr:teryt:sym_ul": 9582,
                "contact:phone": "+48 763000284",
                "contact:email": "lubin@pascal.edu.pl",
                "ref:regon": "381444500",
                "operator": "Educa Sp\u00f3\u0142ka Z Ograniczon\u0105 Odpowiedzialno\u015bci\u0105",
                "operator:type": "private",
                "amenity": "college",
                "note": "Parent RSPO: 273055"
            }
        },
        {
            "id": 13946,
            "type": "Feature",
            "geometry": {
                "type": "Point",
                "coordinates": [
                    16.2144,
                    51.40208
                ]
            },
            "properties": {
                "ref:rspo": 13946,
                "official_name": "Przedszkole Miejskie Nr 3",
                "name": "Przedszkole Miejskie Nr 3",
                "addr:country": "PL",
                "addr:postcode": "59-300",
                "addr:city": "Lubin",
                "addr:street": "Jana Kili\u0144skiego",
                "addr:housenumber": "35",
                "addr:teryt:simc": 954142,
                "addr:teryt:sym_ul": 8435,
                "contact:phone": "+48 768470020",
                "contact:email": "przedszkole3l@tlen.pl",
                "contact:website": "http:\/\/www.pm3lubin.szkolnastrona.pl",
                "ref:regon": "004059059",
                "ref:vatin": "PL6921020489",
                "operator": "Gmina Miejska Lubin",
                "operator:type": "government",
                "amenity": "kindergarten"
            }
        },
        {
            "id": 3975,
            "type": "Feature",
            "geometry": {
                "type": "Point",
                "coordinates": [
                    16.20108,
                    51.40272
                ]
            },
            "properties": {
                "ref:rspo": 3975,
                "official_name": "Dolno\u015bL\u0105ski Zak\u0142ad Doskonalenia Zawodowego Oddzia\u0142 I we Wroc\u0142awiu O\u015brodek Kszta\u0142cenia Zawodowego w L",
                "name": "Dolno\u015bL\u0105ski Zak\u0142ad Doskonalenia Zawodowego Oddzia\u0142 I we Wroc\u0142awiu O\u015brodek Kszta\u0142cenia Zawodowego w L",
                "addr:country": "PL",
                "addr:postcode": "59-300",
                "addr:city": "Lubin",
                "addr:street": "Marii Sk\u0142odowskiej-Curie",
                "addr:housenumber": "14c",
                "addr:teryt:simc": 954142,
                "addr:teryt:sym_ul": 20068,
                "contact:phone": "+48 768443940",
                "contact:email": "okz.lubin@dzdz.edu.pl",
                "ref:regon": "021950596",
                "operator": "Dolno\u015bl\u0105ski Zak\u0142ad Doskonalenia Zawodowego Oddzia\u0142 I We Wroc\u0142awiu",
                "operator:type": "ngo",
                "fixme": "w zale\u017cno\u015bci od przedmiotu dzia\u0142alno\u015bci (np. amenity=training + training=*, amenity=dancing_school, amenity=language_school, amenity=music_school)"
            }
        },
        {
            "id": 10075,
            "type": "Feature",
            "geometry": {
                "type": "Point",
                "coordinates": [
                    16.21399,
                    51.4027699
                ]
            },
            "properties": {
                "isced:level": "1;2",
                "ref:rspo": 10075,
                "official_name": "Szko\u0142a Podstawowa Nr 5",
                "name": "Szko\u0142a Podstawowa Nr 5",
                "addr:country": "PL",
                "addr:postcode": "59-300",
                "addr:city": "Lubin",
                "addr:street": "Jana Kili\u0144skiego",
                "addr:housenumber": "12",
                "addr:teryt:simc": 954142,
                "addr:teryt:sym_ul": 8435,
                "contact:phone": "+48 767462241",
                "contact:email": "sp5@ok.um.lubin.pl",
                "ref:regon": "000712670",
                "ref:vatin": "PL6921028841",
                "operator": "Gmina Miejska Lubin",
                "operator:type": "government",
                "amenity": "school"
            }
        },
        {
            "id": 88406,
            "type": "Feature",
            "geometry": {
                "type": "Point",
                "coordinates": [
                    16.18708,
                    51.40327
                ]
            },
            "properties": {
                "isced:level": "1;2",
                "ref:rspo": 88406,
                "official_name": "Szko\u0142a Podstawowa Nr 8 im. Jana Wy\u017cykowskiego",
                "name": "Szko\u0142a Podstawowa Nr 8",
                "addr:country": "PL",
                "addr:postcode": "59-300",
                "addr:city": "Lubin",
                "addr:street": "Parkowa",
                "addr:housenumber": "2",
                "addr:teryt:simc": 954142,
                "addr:teryt:sym_ul": 15710,
                "contact:phone": "+48 767468346",
                "contact:email": "sekretariat@sp8lubin.eu",
                "contact:website": "https:\/\/sp8lubin.eu\/",
                "ref:regon": "000712686",
                "ref:vatin": "PL6921029042",
                "operator": "Gmina Miejska Lubin",
                "operator:type": "government",
                "amenity": "school"
            }
        },
        {
            "id": 13950,
            "type": "Feature",
            "geometry": {
                "type": "Point",
                "coordinates": [
                    16.18365,
                    51.40408
                ]
            },
            "properties": {
                "ref:rspo": 13950,
                "official_name": "Przedszkole Miejskie Nr 7",
                "name": "Przedszkole Miejskie Nr 7",
                "addr:country": "PL",
                "addr:postcode": "59-300",
                "addr:city": "Lubin",
                "addr:street": "Osiedlowa",
                "addr:housenumber": "7A",
                "addr:teryt:simc": 954142,
                "addr:teryt:sym_ul": 15300,
                "contact:phone": "+48 767468380",
                "contact:email": "pm7@ok.um.lubin.pl",
                "ref:regon": "004059102",
                "ref:vatin": "PL6921020064",
                "operator": "Gmina Miejska Lubin",
                "operator:type": "government",
                "amenity": "kindergarten"
            }
        },
        {
            "id": 132078,
            "type": "Feature",
            "geometry": {
                "type": "Point",
                "coordinates": [
                    16.18731,
                    51.4041799
                ]
            },
            "properties": {
                "ref:rspo": 132078,
                "official_name": "Akademia Fryzjerstwa Kreatywnego Katarzyna Dziechciarek",
                "name": "Akademia Fryzjerstwa Kreatywnego Katarzyna Dziechciarek",
                "addr:country": "PL",
                "addr:postcode": "59-300",
                "addr:city": "Lubin",
                "addr:street": "Grabowa",
                "addr:housenumber": "55a",
                "addr:teryt:simc": 954142,
                "addr:teryt:sym_ul": 6029,
                "ref:regon": "365448746",
                "operator": "Katarzyna Dziechciarek",
                "operator:type": "private",
                "fixme": "w zale\u017cno\u015bci od przedmiotu dzia\u0142alno\u015bci (np. amenity=training + training=*, amenity=dancing_school, amenity=language_school, amenity=music_school)"
            }
        },
        {
            "id": 3459,
            "type": "Feature",
            "geometry": {
                "type": "Point",
                "coordinates": [
                    16.20907,
                    51.40425
                ]
            },
            "properties": {
                "ref:rspo": 3459,
                "official_name": "Zesp\u00f3\u0142 Szk\u00f3\u0142 I Plac\u00f3wek O\u015bwiatowych w Lubinie",
                "name": "Zesp\u00f3\u0142 Szk\u00f3\u0142 I Plac\u00f3wek O\u015bwiatowych w Lubinie",
                "addr:country": "PL",
                "addr:postcode": "59-300",
                "addr:city": "Lubin",
                "addr:street": "Sk\u0142adowa",
                "addr:housenumber": "3",
                "addr:teryt:simc": 954142,
                "addr:teryt:sym_ul": 20060,
                "contact:phone": "+48 767497271",
                "contact:email": "sekretariat@zsipo.lubin.pl",
                "contact:website": "http:\/\/www.zsipo.lubin.pl",
                "ref:regon": "000708940",
                "ref:vatin": "PL6921751715",
                "operator": "Powiat Lubi\u0144ski",
                "operator:type": "government",
                "landuse": "education",
                "fixme": "amenity=school, amenity=college albo landuse=education w zale\u017cno\u015bci od tego, jakie plac\u00f3wki wchodz\u0105 w sk\u0142ad zespo\u0142u. Sprawd\u017a, kiedy stosowa\u0107 amenity=* a kiedy landuse=education.",
                "note": "Children RSPO: 8360;8364;8365;8366"
            }
        },
        {
            "id": 8360,
            "type": "Feature",
            "geometry": {
                "type": "Point",
                "coordinates": [
                    16.20907,
                    51.404219999999995
                ]
            },
            "properties": {
                "isced:level": "1;2",
                "ref:rspo": 8360,
                "official_name": "Szko\u0142a Podstawowa Specjalna Nr 6 im. Marii Konopnickiej dla Dzieci Niepe\u0142nosprawnych Intelektualnie w Stopniu Lekkim, Umiarkowanym I Znacznym",
                "name": "Szko\u0142a Podstawowa Specjalna Nr 6",
                "addr:country": "PL",
                "addr:postcode": "59-300",
                "addr:city": "Lubin",
                "addr:street": "Sk\u0142adowa",
                "addr:housenumber": "3",
                "addr:teryt:simc": 954142,
                "addr:teryt:sym_ul": 20060,
                "contact:phone": "+48 767497271",
                "contact:email": "sekreatriat@zsipo.lubin.pl",
                "contact:website": "http:\/\/www.zsipo.lubin.pl",
                "ref:regon": "390950736",
                "operator": "Powiat Lubi\u0144ski",
                "operator:type": "government",
                "amenity": "school",
                "note": "Parent RSPO: 3459"
            }
        },
        {
            "id": 8364,
            "type": "Feature",
            "geometry": {
                "type": "Point",
                "coordinates": [
                    16.20907,
                    51.40419
                ]
            },
            "properties": {
                "isced:level": "3",
                "ref:rspo": 8364,
                "official_name": "Bran\u017cowa Szko\u0142a I Stopnia Specjalna w Lubinie",
                "name": "Bran\u017cowa Szko\u0142a I Stopnia Specjalna w Lubinie",
                "addr:country": "PL",
                "addr:postcode": "59-300",
                "addr:city": "Lubin",
                "addr:street": "Sk\u0142adowa",
                "addr:housenumber": "3",
                "addr:teryt:simc": 954142,
                "addr:teryt:sym_ul": 20060,
                "contact:phone": "+48 767497271",
                "contact:email": "sekretariat@zsipo.lubin.pl",
                "contact:website": "http:\/\/www.zsipo.lubin.pl",
                "ref:regon": "390950819",
                "operator": "Powiat Lubi\u0144ski",
                "operator:type": "government",
                "amenity": "school",
                "note": "Parent RSPO: 3459"
            }
        },
        {
            "id": 8365,
            "type": "Feature",
            "geometry": {
                "type": "Point",
                "coordinates": [
                    16.20907,
                    51.40416
                ]
            },
            "properties": {
                "ref:rspo": 8365,
                "official_name": "Szko\u0142a Specjalna Przysposabiaj\u0105ca Do Pracy w Lubinie",
                "name": "Szko\u0142a Specjalna Przysposabiaj\u0105ca Do Pracy w Lubinie",
                "addr:country": "PL",
                "addr:postcode": "59-300",
                "addr:city": "Lubin",
                "addr:street": "Sk\u0142adowa",
                "addr:housenumber": "3",
                "addr:teryt:simc": 954142,
                "addr:teryt:sym_ul": 20060,
                "contact:phone": "+48 767497271",
                "contact:email": "sekretariat@zsipo.lubin.pl",
                "contact:website": "http:\/\/www.zsipo.lubin.pl",
                "ref:regon": "020117347",
                "operator": "Powiat Lubi\u0144ski",
                "operator:type": "government",
                "amenity": "school",
                "note": "Parent RSPO: 3459"
            }
        },
        {
            "id": 13956,
            "type": "Feature",
            "geometry": {
                "type": "Point",
                "coordinates": [
                    16.20393,
                    51.40449
                ]
            },
            "properties": {
                "ref:rspo": 13956,
                "official_name": "Przedszkole Miejskie Nr 9 Z Oddzia\u0142ami Integracyjnymi w Lubinie",
                "name": "Przedszkole Miejskie Nr 9 Z Oddzia\u0142ami Integracyjnymi w Lubinie",
                "addr:country": "PL",
                "addr:postcode": "59-300",
                "addr:city": "Lubin",
                "addr:street": "Szkolna",
                "addr:housenumber": "23",
                "addr:teryt:simc": 954142,
                "addr:teryt:sym_ul": 21970,
                "contact:phone": "+48 767468386",
                "contact:email": "pm9@ok.um.lubin.pl",
                "ref:regon": "004059125",
                "ref:vatin": "PL6921020147",
                "operator": "Gmina Miejska Lubin",
                "operator:type": "government",
                "amenity": "kindergarten"
            }
        },
        {
            "id": 129573,
            "type": "Feature",
            "geometry": {
                "type": "Point",
                "coordinates": [
                    16.19388,
                    51.40453
                ]
            },
            "properties": {
                "ref:rspo": 129573,
                "official_name": "Przedszkole Niepubliczne \"S\u0142oneczko\"",
                "name": "Przedszkole Niepubliczne \"S\u0142oneczko\"",
                "addr:country": "PL",
                "addr:postcode": "59-300",
                "addr:city": "Lubin",
                "addr:street": "G\u00f3rnicza",
                "addr:housenumber": "2a",
                "addr:door": "1",
                "addr:teryt:simc": 954142,
                "addr:teryt:sym_ul": 5962,
                "contact:phone": "+48 695874063",
                "contact:email": "profiteam@interia.pl",
                "ref:regon": "362674057",
                "operator": "\u0141ukasz Narbut",
                "operator:type": "private",
                "amenity": "kindergarten"
            }
        },
        {
            "id": 262504,
            "type": "Feature",
            "geometry": {
                "type": "Point",
                "coordinates": [
                    16.2043399,
                    51.40499
                ]
            },
            "properties": {
                "isced:level": "1;2",
                "ref:rspo": 262504,
                "official_name": "Salezja\u0144ska Szko\u0142a Podstawowa im. \u015aw. Dominika Savio",
                "name": "Salezja\u0144ska Szko\u0142a Podstawowa",
                "addr:country": "PL",
                "addr:postcode": "59-300",
                "addr:city": "Lubin",
                "addr:street": "Szkolna",
                "addr:housenumber": "25",
                "addr:teryt:simc": 954142,
                "addr:teryt:sym_ul": 21970,
                "contact:phone": "+48 767210460",
                "contact:email": "sekretariat@salsp.pl",
                "contact:website": "http:\/\/www.salsp.pl",
                "ref:regon": "368022841",
                "operator": "Inspektoria Towarzystwa Salezja\u0144skiego \u015aw.jana Bosko",
                "operator:type": "religious",
                "amenity": "school"
            }
        },
        {
            "id": 13955,
            "type": "Feature",
            "geometry": {
                "type": "Point",
                "coordinates": [
                    16.20872,
                    51.40524
                ]
            },
            "properties": {
                "ref:rspo": 13955,
                "official_name": "Przedszkole Miejskie Nr 2",
                "name": "Przedszkole Miejskie Nr 2",
                "addr:country": "PL",
                "addr:postcode": "59-300",
                "addr:city": "Lubin",
                "addr:street": "Stanis\u0142awa Staszica",
                "addr:housenumber": "2",
                "addr:teryt:simc": 954142,
                "addr:teryt:sym_ul": 21071,
                "contact:phone": "+48 767468370",
                "contact:email": "pm2@ok.um.lubin.pl",
                "ref:regon": "004059042",
                "ref:vatin": "PL6921020182",
                "operator": "Gmina Miejska Lubin",
                "operator:type": "government",
                "amenity": "kindergarten"
            }
        },
        {
            "id": 107150,
            "type": "Feature",
            "geometry": {
                "type": "Point",
                "coordinates": [
                    16.17344,
                    51.40837
                ]
            },
            "properties": {
                "isced:level": "1;2",
                "ref:rspo": 107150,
                "official_name": "Szko\u0142a Podstawowa Nr 3 Z Oddzia\u0142ami Integracyjnymi w Lubinie",
                "name": "Szko\u0142a Podstawowa Nr 3 Z Oddzia\u0142ami Integracyjnymi w Lubinie",
                "addr:country": "PL",
                "addr:postcode": "59-300",
                "addr:city": "Lubin",
                "addr:street": "Gwark\u00f3w",
                "addr:housenumber": "93",
                "addr:teryt:simc": 954142,
                "addr:teryt:sym_ul": 6412,
                "contact:phone": "+48 767468325",
                "contact:email": "sp3@ok.um.lubin.pl",
                "ref:regon": "000712657",
                "ref:vatin": "PL6922514762",
                "operator": "Gmina Miejska Lubin",
                "operator:type": "government",
                "amenity": "school"
            }
        },
        {
            "id": 13945,
            "type": "Feature",
            "geometry": {
                "type": "Point",
                "coordinates": [
                    16.1765122,
                    51.4086058
                ]
            },
            "properties": {
                "ref:rspo": 13945,
                "official_name": "Przedszkole Miejskie Nr 1",
                "name": "Przedszkole Miejskie Nr 1",
                "addr:country": "PL",
                "addr:postcode": "59-300",
                "addr:city": "Lubin",
                "addr:street": "Boles\u0142awa Krupi\u0144skiego",
                "addr:housenumber": "17",
                "addr:teryt:simc": 954142,
                "addr:teryt:sym_ul": 10029,
                "contact:phone": "+48 768479693",
                "contact:email": "pm1@ok.um.lubin.pl",
                "contact:website": "http:\/\/www.pm1lubin.szkolnastrona.pl",
                "ref:regon": "004059020",
                "ref:vatin": "PL6921023660",
                "operator": "Gmina Miejska Lubin",
                "operator:type": "government",
                "amenity": "kindergarten"
            }
        },
        {
            "id": 57090,
            "type": "Feature",
            "geometry": {
                "type": "Point",
                "coordinates": [
                    16.19493,
                    51.41014
                ]
            },
            "properties": {
                "ref:rspo": 57090,
                "official_name": "Dolno\u015bL\u0105ski Zesp\u00f3\u0142 Szk\u00f3\u0142 w Lubinie",
                "name": "Dolno\u015bL\u0105ski Zesp\u00f3\u0142 Szk\u00f3\u0142 w Lubinie",
                "addr:country": "PL",
                "addr:postcode": "59-300",
                "addr:city": "Lubin",
                "addr:street": "Marii Sk\u0142odowskiej-Curie",
                "addr:housenumber": "72",
                "addr:teryt:simc": 954142,
                "addr:teryt:sym_ul": 20068,
                "contact:phone": "+48 768478737",
                "contact:email": "sekretariat@dzs.lubin.pl",
                "contact:website": "http:\/\/www.dzs.lubin.pl",
                "ref:regon": "390936630",
                "operator": "Wojew\u00f3dztwo Dolno\u015bl\u0105skie",
                "operator:type": "government",
                "landuse": "education",
                "fixme": "amenity=school, amenity=college albo landuse=education w zale\u017cno\u015bci od tego, jakie plac\u00f3wki wchodz\u0105 w sk\u0142ad zespo\u0142u. Sprawd\u017a, kiedy stosowa\u0107 amenity=* a kiedy landuse=education.",
                "note": "Children RSPO: 72538;72539"
            }
        },
        {
            "id": 72538,
            "type": "Feature",
            "geometry": {
                "type": "Point",
                "coordinates": [
                    16.19493,
                    51.410109999999996
                ]
            },
            "properties": {
                "isced:level": "4",
                "ref:rspo": 72538,
                "official_name": "Szko\u0142a Policealna S\u0142u\u017cb Spo\u0142ecznych I Medycznych w Lubinie",
                "name": "Szko\u0142a Policealna S\u0142u\u017cb Spo\u0142ecznych I Medycznych w Lubinie",
                "addr:country": "PL",
                "addr:postcode": "59-300",
                "addr:city": "Lubin",
                "addr:street": "Marii Sk\u0142odowskiej-Curie",
                "addr:housenumber": "72",
                "addr:teryt:simc": 954142,
                "addr:teryt:sym_ul": 20068,
                "contact:phone": "+48 768478737",
                "ref:regon": "021291372",
                "operator": "Wojew\u00f3dztwo Dolno\u015bl\u0105skie",
                "operator:type": "government",
                "amenity": "college",
                "note": "Parent RSPO: 57090"
            }
        },
        {
            "id": 72539,
            "type": "Feature",
            "geometry": {
                "type": "Point",
                "coordinates": [
                    16.19493,
                    51.41008
                ]
            },
            "properties": {
                "isced:level": "3",
                "ref:rspo": 72539,
                "official_name": "Technikum w Lubinie",
                "name": "Technikum w Lubinie",
                "addr:country": "PL",
                "addr:postcode": "59-300",
                "addr:city": "Lubin",
                "addr:street": "Marii Sk\u0142odowskiej-Curie",
                "addr:housenumber": "72",
                "addr:teryt:simc": 954142,
                "addr:teryt:sym_ul": 20068,
                "contact:phone": "+48 768478737",
                "contact:email": "sekretariat@dzs.lubin.pl",
                "contact:website": "http:\/\/www.dzs.lubin.pl",
                "ref:regon": "022002223",
                "operator": "Wojew\u00f3dztwo Dolno\u015bl\u0105skie",
                "operator:type": "government",
                "amenity": "school",
                "note": "Parent RSPO: 57090"
            }
        },
        {
            "id": 44128,
            "type": "Feature",
            "geometry": {
                "type": "Point",
                "coordinates": [
                    16.19382,
                    51.41082
                ]
            },
            "properties": {
                "ref:rspo": 44128,
                "official_name": "Miedziowe Centrum Kszta\u0142cenia Kadr w Lubinie",
                "name": "Miedziowe Centrum Kszta\u0142cenia Kadr w Lubinie",
                "addr:country": "PL",
                "addr:postcode": "59-301",
                "addr:city": "Lubin",
                "addr:street": "Marii Sk\u0142odowskiej-Curie",
                "addr:housenumber": "84",
                "addr:teryt:simc": 954142,
                "addr:teryt:sym_ul": 20068,
                "contact:phone": "+48 768461800",
                "contact:email": "info@mckk.com.pl",
                "ref:regon": "021994174",
                "operator": "\"Miedziowe Centrum Kszta\u0142cenia Kadr Sp\u00f3\u0142ka Z Ograniczon\u0105 Odpowiedzialno\u015bci\u0105\"",
                "operator:type": "private",
                "fixme": "w zale\u017cno\u015bci od przedmiotu dzia\u0142alno\u015bci (np. amenity=training + training=*, amenity=dancing_school, amenity=language_school, amenity=music_school)"
            }
        },
        {
            "id": 118753,
            "type": "Feature",
            "geometry": {
                "type": "Point",
                "coordinates": [
                    16.19382,
                    51.41079
                ]
            },
            "properties": {
                "ref:rspo": 118753,
                "official_name": "Zesp\u00f3\u0142 Szk\u00f3\u0142 Miedziowego Centrum Kszta\u0142cenia Kadr w Lubinie",
                "name": "Zesp\u00f3\u0142 Szk\u00f3\u0142 Miedziowego Centrum Kszta\u0142cenia Kadr w Lubinie",
                "addr:country": "PL",
                "addr:postcode": "59-301",
                "addr:city": "Lubin",
                "addr:street": "Marii Sk\u0142odowskiej-Curie",
                "addr:housenumber": "84",
                "addr:teryt:simc": 954142,
                "addr:teryt:sym_ul": 20068,
                "contact:phone": "+48 768461800",
                "contact:email": "szkoly@mckk.com.pl",
                "contact:website": "http:\/\/www.mckk.com.pl",
                "ref:regon": "022207340",
                "operator": "\"Miedziowe Centrum Kszta\u0142cenia Kadr Sp\u00f3\u0142ka Z Ograniczon\u0105 Odpowiedzialno\u015bci\u0105\"",
                "operator:type": "private",
                "landuse": "education",
                "fixme": "amenity=school, amenity=college albo landuse=education w zale\u017cno\u015bci od tego, jakie plac\u00f3wki wchodz\u0105 w sk\u0142ad zespo\u0142u. Sprawd\u017a, kiedy stosowa\u0107 amenity=* a kiedy landuse=education.",
                "note": "Children RSPO: 111877;111878"
            }
        },
        {
            "id": 111877,
            "type": "Feature",
            "geometry": {
                "type": "Point",
                "coordinates": [
                    16.19382,
                    51.41076
                ]
            },
            "properties": {
                "isced:level": "3",
                "ref:rspo": 111877,
                "official_name": "Technikum Mckk w Lubinie",
                "name": "Technikum Mckk w Lubinie",
                "addr:country": "PL",
                "addr:postcode": "59-301",
                "addr:city": "Lubin",
                "addr:street": "Marii Sk\u0142odowskiej-Curie",
                "addr:housenumber": "84",
                "addr:teryt:simc": 954142,
                "addr:teryt:sym_ul": 20068,
                "contact:phone": "+48 768461800",
                "contact:email": "szkoly@mckk.com.pl",
                "contact:website": "http:\/\/www.mckk.com.pl",
                "ref:regon": "022099866",
                "operator": "\"Miedziowe Centrum Kszta\u0142cenia Kadr Sp\u00f3\u0142ka Z Ograniczon\u0105 Odpowiedzialno\u015bci\u0105\"",
                "operator:type": "private",
                "amenity": "school",
                "note": "Parent RSPO: 118753"
            }
        },
        {
            "id": 111878,
            "type": "Feature",
            "geometry": {
                "type": "Point",
                "coordinates": [
                    16.19382,
                    51.41073
                ]
            },
            "properties": {
                "isced:level": "3",
                "ref:rspo": 111878,
                "official_name": "Bran\u017cowa Szko\u0142a I Stopnia Mckk w Lubinie",
                "name": "Bran\u017cowa Szko\u0142a I Stopnia Mckk w Lubinie",
                "addr:country": "PL",
                "addr:postcode": "59-301",
                "addr:city": "Lubin",
                "addr:street": "Marii Sk\u0142odowskiej-Curie",
                "addr:housenumber": "84",
                "addr:teryt:simc": 954142,
                "addr:teryt:sym_ul": 20068,
                "contact:phone": "+48 768461800",
                "contact:email": "szkoly@mckk.com.pl",
                "contact:website": "http:\/\/www.mckk.com.pl",
                "ref:regon": "022099895",
                "operator": "\"Miedziowe Centrum Kszta\u0142cenia Kadr Sp\u00f3\u0142ka Z Ograniczon\u0105 Odpowiedzialno\u015bci\u0105\"",
                "operator:type": "private",
                "amenity": "school",
                "note": "Parent RSPO: 118753"
            }
        },
        {
            "id": 10080,
            "type": "Feature",
            "geometry": {
                "type": "Point",
                "coordinates": [
                    16.14492,
                    51.41503
                ]
            },
            "properties": {
                "isced:level": "1;2",
                "ref:rspo": 10080,
                "official_name": "Szko\u0142a Podstawowa Nr 14 im. Gen. Broni Stanis\u0142awa Maczka",
                "name": "Szko\u0142a Podstawowa Nr 14",
                "addr:country": "PL",
                "addr:postcode": "59-300",
                "addr:city": "Lubin",
                "addr:street": "Cypriana Kamila Norwida",
                "addr:housenumber": "10",
                "addr:teryt:simc": 954142,
                "addr:teryt:sym_ul": 14319,
                "contact:phone": "+48 767468330",
                "contact:email": "sp14@ok.um.lubin.pl",
                "ref:regon": "001321723",
                "ref:vatin": "PL6921028798",
                "operator": "Gmina Miejska Lubin",
                "operator:type": "government",
                "amenity": "school"
            }
        },
        {
            "id": 4095,
            "type": "Feature",
            "geometry": {
                "type": "Point",
                "coordinates": [
                    16.19438,
                    51.41624
                ]
            },
            "properties": {
                "ref:rspo": 4095,
                "official_name": "Niepubliczna Bursa Szkolna Przy Zag\u0142\u0119bie Lubin Sp\u00f3\u0142ka Akcyjna",
                "name": "Niepubliczna Bursa Szkolna Przy Zag\u0142\u0119bie Lubin Sp\u00f3\u0142ka Akcyjna",
                "addr:country": "PL",
                "addr:postcode": "59-301",
                "addr:city": "Lubin",
                "addr:street": "Marii Sk\u0142odowskiej-Curie",
                "addr:housenumber": "176",
                "addr:teryt:simc": 954142,
                "addr:teryt:sym_ul": 20068,
                "contact:phone": "+48 487469680",
                "contact:email": "bursa@zaglebie.com",
                "contact:website": "https:\/\/www.akademiakghm.com\/",
                "ref:regon": "021950780",
                "operator": "Zag\u0142\u0119bie Lubin Sp\u00f3\u0142ka Akcyjna",
                "operator:type": "private",
                "building": "dormitory"
            }
        }
    ]
}