{"type":"FeatureCollection","features":[{"id":80133,"type":"Feature","geometry":{"type":"Point","coordinates":[22.56117,49.86345]},"properties":{"isced:level":"1;2","ref:rspo":80133,"official_name":"Szko\u0142a Podstawowa w Woli W\u0119gierskiej","name":"Szko\u0142a Podstawowa w Woli W\u0119gierskiej","addr:country":"PL","addr:postcode":"37-560","addr:place":"Wola W\u0119gierska","addr:housenumber":"21","addr:teryt:sym_ul":610840,"contact:phone":"+48 166288771","contact:email":"spwwegierska@onet.pl","ref:regon":"180602995","ref:vatin":"PL7922265868","operator":"Gmina Ro\u017awienica","operator:type":"government","amenity":"school"}},{"id":87522,"type":"Feature","geometry":{"type":"Point","coordinates":[22.56117,49.86342]},"properties":{"ref:rspo":87522,"official_name":"Publiczne Przedszkole w Ro\u017awienicy Filia w Woli W\u0119gierskiej","name":"Publiczne Przedszkole w Ro\u017awienicy Filia w Woli W\u0119gierskiej","addr:country":"PL","addr:postcode":"37-560","addr:place":"Wola W\u0119gierska","addr:housenumber":"21","addr:teryt:sym_ul":610840,"contact:phone":"+48 166225370","contact:email":"biuro@stowarzyszenie-rozwienica.pl","ref:regon":"180912320","operator":"Gmina Ro\u017awienica","operator:type":"government","amenity":"kindergarten"}},{"id":80131,"type":"Feature","geometry":{"type":"Point","coordinates":[22.55939,49.8862]},"properties":{"isced:level":"1;2","ref:rspo":80131,"official_name":"Szko\u0142a Podstawowa Im . Marii Curie-Sk\u0142odowskiej w W\u0119gierce","name":"Szko\u0142a Podstawowa Im . Marii Curie-Sk\u0142odowskiej w W\u0119gierce","addr:country":"PL","addr:postcode":"37-560","addr:place":"W\u0119gierka","addr:housenumber":"220","addr:teryt:sym_ul":610678,"contact:phone":"+48 166288134","contact:email":"zswegierka@onet.pl","contact:website":"http:\/\/zswegierka.szkolnastrona.pl","ref:regon":"651421654","operator":"Gmina Ro\u017awienica","operator:type":"government","amenity":"school"}},{"id":87521,"type":"Feature","geometry":{"type":"Point","coordinates":[22.55939,49.88617]},"properties":{"ref:rspo":87521,"official_name":"Publiczne Przedszkole w Ro\u017awienicy Filia w W\u0119gierce","name":"Publiczne Przedszkole w Ro\u017awienicy Filia w W\u0119gierce","addr:country":"PL","addr:postcode":"37-560","addr:place":"W\u0119gierka","addr:housenumber":"220","addr:teryt:sym_ul":610678,"contact:phone":"+48 166225370","contact:email":"biuro@stowarzyszenie-rozwienica.pl","ref:regon":"180912307","operator":"Gmina Ro\u017awienica","operator:type":"government","amenity":"kindergarten"}},{"id":80137,"type":"Feature","geometry":{"type":"Point","coordinates":[22.56834,49.92051]},"properties":{"isced:level":"1;2","ref:rspo":80137,"official_name":"Szko\u0142a Podstawowa w Tyniowicach","name":"Szko\u0142a Podstawowa w Tyniowicach","addr:country":"PL","addr:postcode":"37-565","addr:place":"Tyniowice","addr:housenumber":"1","addr:teryt:sym_ul":610649,"contact:phone":"+48 166288004","contact:email":"sptyniowice@onet.pl","ref:regon":"651421980","ref:vatin":"PL7922057986","operator":"Gmina Ro\u017awienica","operator:type":"government","amenity":"school"}},{"id":87518,"type":"Feature","geometry":{"type":"Point","coordinates":[22.56834,49.92048]},"properties":{"ref:rspo":87518,"official_name":"Publiczne Przedszkole w Ro\u017awienicy Filia w Tyniowicach","name":"Publiczne Przedszkole w Ro\u017awienicy Filia w Tyniowicach","addr:country":"PL","addr:postcode":"37-565","addr:place":"Tyniowice","addr:housenumber":"1","addr:teryt:sym_ul":610649,"contact:phone":"+48 166225370","contact:email":"biuro@stowarzyszenie-rozwienica.pl","ref:regon":"180912276","operator":"Gmina Ro\u017awienica","operator:type":"government","amenity":"kindergarten"}},{"id":87519,"type":"Feature","geometry":{"type":"Point","coordinates":[22.57326,49.9302599]},"properties":{"ref:rspo":87519,"official_name":"Publiczne Przedszkole w Ro\u017awienicy Filia w Bystrowicach","name":"Publiczne Przedszkole w Ro\u017awienicy Filia w Bystrowicach","addr:country":"PL","addr:postcode":"37-565","addr:place":"Bystrowice","addr:housenumber":"78","addr:teryt:sym_ul":610388,"contact:phone":"+48 166225370","contact:email":"biuro@stowarzyszenie-rozwienica.pl","ref:regon":"180912282","operator":"Gmina Ro\u017awienica","operator:type":"government","amenity":"kindergarten"}},{"id":80130,"type":"Feature","geometry":{"type":"Point","coordinates":[22.6179,49.94089]},"properties":{"isced:level":"1;2","ref:rspo":80130,"official_name":"Szko\u0142a Podstawowa w Rudo\u0142owicach","name":"Szko\u0142a Podstawowa w Rudo\u0142owicach","addr:country":"PL","addr:postcode":"37-565","addr:place":"Rudo\u0142owice","addr:housenumber":"279","addr:teryt:sym_ul":610572,"contact:phone":"+48 166225867","contact:email":"sprudolowice@poczta.onet.pl","contact:website":"http:\/\/sprudolowice.szkolnastrona.pl","ref:regon":"651422004","ref:vatin":"PL7922058000","operator":"Gmina Ro\u017awienica","operator:type":"government","amenity":"school"}},{"id":87520,"type":"Feature","geometry":{"type":"Point","coordinates":[22.61113,49.9456]},"properties":{"ref:rspo":87520,"official_name":"Publiczne Przedszkole w Ro\u017awienicy Filia w Rudo\u0142owicach","name":"Publiczne Przedszkole w Ro\u017awienicy Filia w Rudo\u0142owicach","addr:country":"PL","addr:postcode":"37-565","addr:place":"Rudo\u0142owice","addr:housenumber":"196a","addr:teryt:sym_ul":610572,"contact:phone":"+48 166225370","contact:email":"biuro@stowarzyszenie-rozwienica.pl","ref:regon":"180912299","operator":"Gmina Ro\u017awienica","operator:type":"government","amenity":"kindergarten"}},{"id":80135,"type":"Feature","geometry":{"type":"Point","coordinates":[22.59848,49.9525]},"properties":{"isced:level":"1;2","ref:rspo":80135,"official_name":"Szko\u0142a Podstawowa im. Orl\u0105t Lwowskich w Ro\u017awienicy","name":"Szko\u0142a Podstawowa","addr:country":"PL","addr:postcode":"37-565","addr:place":"Ro\u017awienica","addr:housenumber":"200","addr:teryt:sym_ul":610520,"contact:phone":"+48 166225370","contact:email":"sekretariat@sprozwienica.pl","contact:website":"http:\/\/sprozwienica.pl","ref:regon":"651422027","ref:vatin":"PL7922216901","operator":"Gmina Ro\u017awienica","operator:type":"government","amenity":"school"}},{"id":87515,"type":"Feature","geometry":{"type":"Point","coordinates":[22.59848,49.95247]},"properties":{"ref:rspo":87515,"official_name":"Publiczne Przedszkole w Ro\u017awienicy","name":"Publiczne Przedszkole w Ro\u017awienicy","addr:country":"PL","addr:postcode":"37-565","addr:place":"Ro\u017awienica","addr:housenumber":"200","addr:teryt:sym_ul":610520,"contact:phone":"+48 166225370","contact:email":"biuro@stowarzyszenie-rozwienica.pl","ref:regon":"180912230","operator":"Gmina Ro\u017awienica","operator:type":"government","amenity":"kindergarten"}},{"id":87517,"type":"Feature","geometry":{"type":"Point","coordinates":[22.5568,49.9551299]},"properties":{"ref:rspo":87517,"official_name":"Publiczne Przedszkole w Ro\u017awienicy Filia w Cz\u0105stkowicach","name":"Publiczne Przedszkole w Ro\u017awienicy Filia w Cz\u0105stkowicach","addr:country":"PL","addr:postcode":"37-565","addr:place":"Cz\u0105stkowice","addr:housenumber":"41","addr:teryt:sym_ul":610508,"contact:phone":"+48 166225370","contact:email":"biuro@stowarzyszenie-rozwienica.pl","ref:regon":"180912260","operator":"Gmina Ro\u017awienica","operator:type":"government","amenity":"kindergarten"}},{"id":127621,"type":"Feature","geometry":{"type":"Point","coordinates":[22.5568,49.9550999]},"properties":{"isced:level":"1;2","ref:rspo":127621,"official_name":"Spo\u0142eczna Szko\u0142a Podstawowa w Cz\u0105stkowicach","name":"Spo\u0142eczna Szko\u0142a Podstawowa w Cz\u0105stkowicach","addr:country":"PL","addr:postcode":"37-565","addr:place":"Cz\u0105stkowice","addr:housenumber":"41","addr:teryt:sym_ul":610508,"contact:phone":"+48 166225370","contact:email":"biuro@stowarzyszenie-rozwienica.pl","ref:regon":"361769070","operator":"Stowarzyszenie Na Rzecz Edukacji I Kultury Gminy Ro\u017awienica","operator:type":"ngo","amenity":"school"}},{"id":87516,"type":"Feature","geometry":{"type":"Point","coordinates":[22.56722,49.961]},"properties":{"ref:rspo":87516,"official_name":"Publiczne Przedszkole w Ro\u017awienicy Filia w Woli Ro\u017awienickiej","name":"Publiczne Przedszkole w Ro\u017awienicy Filia w Woli Ro\u017awienickiej","addr:country":"PL","addr:postcode":"37-565","addr:place":"Wola Ro\u017awienicka","addr:housenumber":"57","addr:teryt:sym_ul":610804,"contact:phone":"+48 166225370","contact:email":"biuro@stowarzyszenie-rozwienica.pl","ref:regon":"180912247","operator":"Gmina Ro\u017awienica","operator:type":"government","amenity":"kindergarten"}},{"id":128261,"type":"Feature","geometry":{"type":"Point","coordinates":[22.56722,49.960969999999996]},"properties":{"isced:level":"1;2","ref:rspo":128261,"official_name":"Spo\u0142eczna Szko\u0142a Podstawowa w Woli Ro\u017awienickiej","name":"Spo\u0142eczna Szko\u0142a Podstawowa w Woli Ro\u017awienickiej","addr:country":"PL","addr:postcode":"37-565","addr:place":"Wola Ro\u017awienicka","addr:housenumber":"57","addr:teryt:sym_ul":610804,"contact:phone":"+48 166225370","contact:email":"biuro@stowarzyszenie-rozwienica.pl","ref:regon":"362205530","operator":"Stowarzyszenie Na Rzecz Edukacji I Kultury Gminy Ro\u017awienica","operator:type":"ngo","amenity":"school"}}]}