{
    "type": "FeatureCollection",
    "features": [
        {
            "id": 48434,
            "type": "Feature",
            "geometry": {
                "type": "Point",
                "coordinates": [
                    22.85497,
                    49.90078
                ]
            },
            "properties": {
                "isced:level": "1;2",
                "ref:rspo": 48434,
                "official_name": "Szko\u0142a Podstawowa w So\u015bnicy im. Kpt. W\u0142adys\u0142awa Wa\u017cnego",
                "name": "Szko\u0142a Podstawowa w So\u015bnicy",
                "addr:country": "PL",
                "addr:postcode": "37-555",
                "addr:city": "So\u015bnica",
                "addr:street": "Kolejowa",
                "addr:housenumber": "1",
                "addr:teryt:simc": 609907,
                "addr:teryt:sym_ul": 8828,
                "contact:phone": "+48 166283006",
                "contact:email": "zswsosnicy@wp.pl",
                "contact:website": "http:\/\/www.zssosnica.edupage.org",
                "ref:regon": "001207157",
                "ref:vatin": "PL7921991058",
                "operator": "Gmina Radymno",
                "operator:type": "government",
                "amenity": "school"
            }
        },
        {
            "id": 104546,
            "type": "Feature",
            "geometry": {
                "type": "Point",
                "coordinates": [
                    22.876159667969,
                    49.900970458984
                ]
            },
            "properties": {
                "ref:rspo": 104546,
                "official_name": "Ochronka \u015awi\u0119tego Maksymiliana Prowadzona Przez Zgromadzenie Si\u00f3str S\u0142u\u017cebniczek Nmp Np",
                "name": "Ochronka \u015awi\u0119tego Maksymiliana Prowadzona Przez Zgromadzenie Si\u00f3str S\u0142u\u017cebniczek Nmp Np",
                "addr:country": "PL",
                "addr:postcode": "37-555",
                "addr:city": "So\u015bnica",
                "addr:street": "\u015awi\u0119tego Antoniego",
                "addr:housenumber": "3",
                "addr:teryt:simc": 609907,
                "addr:teryt:sym_ul": 351,
                "contact:phone": "+48 166283066",
                "contact:email": "siostrysosnica@interia.pl",
                "ref:regon": "180923475",
                "ref:vatin": "PL7921972977",
                "operator": "Zg. Ss. S\u0142u\u017cebniczek Nmp Niepokalanie Pocz\u0119tej, Prowincja Przemyska",
                "operator:type": "religious",
                "amenity": "kindergarten"
            }
        },
        {
            "id": 58509,
            "type": "Feature",
            "geometry": {
                "type": "Point",
                "coordinates": [
                    22.8558706,
                    49.9238383
                ]
            },
            "properties": {
                "isced:level": "1;2",
                "ref:rspo": 58509,
                "official_name": "Szko\u0142a Podstawowa w \u015awi\u0119tem im. Ojca Wenantego Katarzy\u0144ca",
                "name": "Szko\u0142a Podstawowa w \u015awi\u0119tem",
                "addr:country": "PL",
                "addr:postcode": "37-555",
                "addr:place": "\u015awi\u0119te",
                "addr:housenumber": "30",
                "addr:teryt:simc": 609988,
                "contact:phone": "+48 166281047",
                "contact:email": "zsswiete@tlen.pl",
                "contact:website": "http:\/\/zsswiete.eduage.org",
                "ref:regon": "001207163",
                "ref:vatin": "PL7921991041",
                "operator": "Gmina Radymno",
                "operator:type": "government",
                "amenity": "school"
            }
        },
        {
            "id": 53080,
            "type": "Feature",
            "geometry": {
                "type": "Point",
                "coordinates": [
                    22.8049,
                    49.92734
                ]
            },
            "properties": {
                "isced:level": "1;2",
                "ref:rspo": 53080,
                "official_name": "Szko\u0142a Podstawowa w Sko\u0142oszowie",
                "name": "Szko\u0142a Podstawowa w Sko\u0142oszowie",
                "addr:country": "PL",
                "addr:postcode": "37-550",
                "addr:city": "Sko\u0142osz\u00f3w",
                "addr:street": "Franciszka\u0144ska",
                "addr:housenumber": "53",
                "addr:teryt:simc": 609847,
                "addr:teryt:sym_ul": 5151,
                "contact:phone": "+48 166281078",
                "contact:email": "skoloszow1@wp.pl",
                "contact:website": "https:\/\/zsskoloszow.edupage.org",
                "ref:regon": "001207140",
                "ref:vatin": "PL7921991064",
                "operator": "Gmina Radymno",
                "operator:type": "government",
                "amenity": "school"
            }
        },
        {
            "id": 51812,
            "type": "Feature",
            "geometry": {
                "type": "Point",
                "coordinates": [
                    22.92755,
                    49.94156
                ]
            },
            "properties": {
                "isced:level": "1;2",
                "ref:rspo": 51812,
                "official_name": "Szko\u0142a Podstawowa w Nienowicach im. Hr. Aleksandra Fredry",
                "name": "Szko\u0142a Podstawowa w Nienowicach",
                "addr:country": "PL",
                "addr:postcode": "37-550",
                "addr:place": "Nienowice",
                "addr:housenumber": "122",
                "addr:teryt:simc": 609764,
                "contact:phone": "+48 166283328",
                "contact:email": "zswnienowicach@poczta.onet.pl",
                "ref:regon": "001265835",
                "ref:vatin": "PL7921991087",
                "operator": "Gmina Radymno",
                "operator:type": "government",
                "amenity": "school"
            }
        },
        {
            "id": 48619,
            "type": "Feature",
            "geometry": {
                "type": "Point",
                "coordinates": [
                    22.99086,
                    49.9526899
                ]
            },
            "properties": {
                "isced:level": "1;2",
                "ref:rspo": 48619,
                "official_name": "Szko\u0142a Podstawowa w Choty\u0144cu",
                "name": "Szko\u0142a Podstawowa w Choty\u0144cu",
                "addr:country": "PL",
                "addr:postcode": "37-552",
                "addr:place": "Chotyniec",
                "addr:housenumber": "114",
                "addr:teryt:simc": 609379,
                "contact:phone": "+48 166283666",
                "contact:email": "zs_chotyniec@op.pl",
                "ref:regon": "001207170",
                "ref:vatin": "PL7921991182",
                "operator": "Gmina Radymno",
                "operator:type": "government",
                "amenity": "school"
            }
        },
        {
            "id": 50292,
            "type": "Feature",
            "geometry": {
                "type": "Point",
                "coordinates": [
                    23.0797199,
                    49.95727
                ]
            },
            "properties": {
                "isced:level": "1;2",
                "ref:rspo": 50292,
                "official_name": "Szko\u0142a Podstawowa w Korczowej",
                "name": "Szko\u0142a Podstawowa w Korczowej",
                "addr:country": "PL",
                "addr:postcode": "37-552",
                "addr:place": "Korczowa",
                "addr:housenumber": "54",
                "addr:teryt:simc": 609497,
                "contact:phone": "+48 166283158",
                "contact:email": "spkorczowa1@o2.pl",
                "ref:regon": "001207111",
                "ref:vatin": "PL7921991124",
                "operator": "Gmina Radymno",
                "operator:type": "government",
                "amenity": "school"
            }
        },
        {
            "id": 53084,
            "type": "Feature",
            "geometry": {
                "type": "Point",
                "coordinates": [
                    22.7826194,
                    49.9595656
                ]
            },
            "properties": {
                "isced:level": "1;2",
                "ref:rspo": 53084,
                "official_name": "Szko\u0142a Podstawowa w Ostrowie",
                "name": "Szko\u0142a Podstawowa w Ostrowie",
                "addr:country": "PL",
                "addr:postcode": "37-550",
                "addr:place": "Ostr\u00f3w",
                "addr:housenumber": "139",
                "addr:teryt:simc": 609801,
                "contact:phone": "+48 166281295",
                "contact:email": "zespolszkolwostrowie@wp.pl",
                "contact:website": "https:\/\/sp-ostrow.edupage.org\/",
                "ref:regon": "001207128",
                "ref:vatin": "PL7921991070",
                "operator": "Gmina Radymno",
                "operator:type": "government",
                "amenity": "school"
            }
        },
        {
            "id": 53082,
            "type": "Feature",
            "geometry": {
                "type": "Point",
                "coordinates": [
                    22.89182,
                    49.9635
                ]
            },
            "properties": {
                "isced:level": "1;2",
                "ref:rspo": 53082,
                "official_name": "Szko\u0142a Podstawowa w Du\u0144kowicach im. Wojsk Ochrony Pogranicza",
                "name": "Szko\u0142a Podstawowa w Du\u0144kowicach",
                "addr:country": "PL",
                "addr:postcode": "37-550",
                "addr:place": "Du\u0144kowice",
                "addr:housenumber": "20",
                "addr:teryt:simc": 609400,
                "contact:phone": "+48 166283534",
                "contact:email": "spdunkowice@poczta.onet.pl",
                "ref:regon": "001207105",
                "ref:vatin": "PL7921991176",
                "operator": "Gmina Radymno",
                "operator:type": "government",
                "amenity": "school"
            }
        },
        {
            "id": 49204,
            "type": "Feature",
            "geometry": {
                "type": "Point",
                "coordinates": [
                    22.87282,
                    49.9898
                ]
            },
            "properties": {
                "isced:level": "1;2",
                "ref:rspo": 49204,
                "official_name": "Szko\u0142a Podstawowa w \u0141azach im.stra\u017cy Granicznej",
                "name": "Szko\u0142a Podstawowa w \u0141azach im.stra\u017cy Granicznej",
                "addr:country": "PL",
                "addr:postcode": "37-550",
                "addr:place": "\u0141azy",
                "addr:housenumber": "53",
                "addr:teryt:simc": 609600,
                "contact:phone": "+48 166283374",
                "contact:email": "splazy@poczta.onet.pl",
                "ref:regon": "001207134",
                "ref:vatin": "PL7921991093",
                "operator": "Gmina Radymno",
                "operator:type": "government",
                "amenity": "school"
            }
        }
    ]
}