{
    "type": "FeatureCollection",
    "features": [
        {
            "id": 133470,
            "type": "Feature",
            "geometry": {
                "type": "Point",
                "coordinates": [
                    22.72148,
                    50.00092
                ]
            },
            "properties": {
                "ref:rspo": 133470,
                "official_name": "Zesp\u00f3\u0142 Pa\u0144stwowych Szk\u00f3\u0142 Muzycznych w Jaros\u0142awiu",
                "name": "Zesp\u00f3\u0142 Pa\u0144stwowych Szk\u00f3\u0142 Muzycznych w Jaros\u0142awiu",
                "addr:postcode": "37-500",
                "addr:city": "Jaros\u0142aw",
                "addr:street": "Czes\u0142awy Puzon ps. Ba\u015bka",
                "addr:housenumber": "3",
                "addr:teryt:simc": 972192,
                "addr:teryt:sym_ul": 40305,
                "phone": "+48 166216369",
                "email": "referent@zpsm.jaroslaw.pl",
                "website": "http:\/\/www.zpsm.jaroslaw.pl",
                "ref:regon": "367341834",
                "operator": "Ministerstwo Kultury I Dziedzictwa Narodowego",
                "operator:type": "public",
                "landuse": "education",
                "fixme": "amenity=school, amenity=college albo landuse=education w zale\u017cno\u015bci od tego, jakie plac\u00f3wki wchodz\u0105 w sk\u0142ad zespo\u0142u. Sprawd\u017a, kiedy stosowa\u0107 amenity=* a kiedy landuse=education.",
                "note": "Children RSPO: 72143;133469"
            }
        },
        {
            "id": 72143,
            "type": "Feature",
            "geometry": {
                "type": "Point",
                "coordinates": [
                    22.72148,
                    50.00089
                ]
            },
            "properties": {
                "ref:rspo": 72143,
                "official_name": "Pa\u0144stwowa Szko\u0142a Muzyczna I St. im. Fryderyka Chopina w Jaros\u0142awiu",
                "name": "Pa\u0144stwowa Szko\u0142a Muzyczna I St.",
                "addr:postcode": "37-500",
                "addr:city": "Jaros\u0142aw",
                "addr:street": "Czes\u0142awy Puzon ps. Ba\u015bka",
                "addr:housenumber": "3",
                "addr:teryt:simc": 972192,
                "addr:teryt:sym_ul": 40305,
                "phone": "+48 166216369",
                "email": "referent@zpsm.jaroslaw.pl",
                "website": "http:\/\/www.zpsm.jaroslaw.pl",
                "ref:regon": "000283067",
                "operator": "Ministerstwo Kultury I Dziedzictwa Narodowego",
                "operator:type": "public",
                "amenity": "music_school",
                "note": "Parent RSPO: 133470"
            }
        },
        {
            "id": 133469,
            "type": "Feature",
            "geometry": {
                "type": "Point",
                "coordinates": [
                    22.72148,
                    50.00086
                ]
            },
            "properties": {
                "ref:rspo": 133469,
                "official_name": "Pa\u0144stwowa Szko\u0142a Muzyczna II St. w Jaros\u0142awiu",
                "name": "Pa\u0144stwowa Szko\u0142a Muzyczna II St. w Jaros\u0142awiu",
                "addr:postcode": "37-500",
                "addr:city": "Jaros\u0142aw",
                "addr:street": "Czes\u0142awy Puzon ps. Ba\u015bka",
                "addr:housenumber": "3",
                "addr:teryt:simc": 972192,
                "addr:teryt:sym_ul": 40305,
                "phone": "+48 166216369",
                "email": "referent@zpsm.jaroslaw.pl",
                "website": "http:\/\/www.zpsm.jaroslaw.pl",
                "ref:regon": "367341828",
                "operator": "Ministerstwo Kultury I Dziedzictwa Narodowego",
                "operator:type": "public",
                "amenity": "music_school",
                "note": "Parent RSPO: 133470"
            }
        },
        {
            "id": 125282,
            "type": "Feature",
            "geometry": {
                "type": "Point",
                "coordinates": [
                    22.67579,
                    50.00677
                ]
            },
            "properties": {
                "isced:level": "1;2",
                "ref:rspo": 125282,
                "official_name": "Szko\u0142a Podstawowa Mistrzostwa Sportowego w Jaros\u0142awiu",
                "name": "Szko\u0142a Podstawowa Mistrzostwa Sportowego w Jaros\u0142awiu",
                "addr:postcode": "37-500",
                "addr:city": "Jaros\u0142aw",
                "addr:street": "Pruchnicka",
                "addr:housenumber": "2",
                "addr:teryt:simc": 972192,
                "addr:teryt:sym_ul": 17569,
                "phone": "+48 163000333",
                "email": "smsjaroslaw@gmail.com",
                "website": "http:\/\/www.smsjaroslaw.pl",
                "ref:regon": "181156138",
                "operator": "Klub Sportowy \" \u0141aczy Nas Sport\"",
                "operator:type": "ngo",
                "amenity": "school"
            }
        },
        {
            "id": 132925,
            "type": "Feature",
            "geometry": {
                "type": "Point",
                "coordinates": [
                    22.67579,
                    50.00674
                ]
            },
            "properties": {
                "ref:rspo": 132925,
                "official_name": "Niepubliczne Przedszkole Integracyjne \"Wyspa Skarb\u00f3w\"",
                "name": "Niepubliczne Przedszkole Integracyjne \"Wyspa Skarb\u00f3w\"",
                "addr:postcode": "37-500",
                "addr:city": "Jaros\u0142aw",
                "addr:street": "Pruchnicka",
                "addr:housenumber": "2D",
                "addr:teryt:simc": 972192,
                "addr:teryt:sym_ul": 17569,
                "phone": "+48 608686682",
                "email": "wyspa.skarbow@poczta.onet.pl",
                "ref:regon": "366343759",
                "operator": "Przedszkole Integracyjne I \u017b\u0142obek \"Wyspa Skarb\u00f3w\" Sp\u00f3\u0142ka Z Ograniczon\u0105 Odpowiedzialno\u015bci\u0105",
                "operator:type": "private",
                "amenity": "kindergarten"
            }
        },
        {
            "id": 264190,
            "type": "Feature",
            "geometry": {
                "type": "Point",
                "coordinates": [
                    22.67579,
                    50.006710000000005
                ]
            },
            "properties": {
                "isced:level": "3",
                "ref:rspo": 264190,
                "official_name": "Liceum Og\u00f3lnokszta\u0142c\u0105ce Mistrzostwa Sportowego w Jaros\u0142awiu",
                "name": "Liceum Og\u00f3lnokszta\u0142c\u0105ce Mistrzostwa Sportowego w Jaros\u0142awiu",
                "addr:postcode": "37-500",
                "addr:city": "Jaros\u0142aw",
                "addr:street": "Pruchnicka",
                "addr:housenumber": "2",
                "addr:door": "budynek B",
                "addr:teryt:simc": 972192,
                "addr:teryt:sym_ul": 17569,
                "phone": "+48 163000333",
                "email": "smsjaroslaw@gmail.com",
                "website": "http:\/\/www.smsjaroslaw.pl",
                "ref:regon": "368282329",
                "operator": "Klub Sportowy \" \u0141aczy Nas Sport\"",
                "operator:type": "ngo",
                "amenity": "school"
            }
        },
        {
            "id": 278775,
            "type": "Feature",
            "geometry": {
                "type": "Point",
                "coordinates": [
                    22.67579,
                    50.00668
                ]
            },
            "properties": {
                "isced:level": "4",
                "ref:rspo": 278775,
                "official_name": "Niepubliczna Szko\u0142a Policealna Progres w Jaros\u0142awiu",
                "name": "Niepubliczna Szko\u0142a Policealna Progres w Jaros\u0142awiu",
                "addr:postcode": "37-500",
                "addr:city": "Jaros\u0142aw",
                "addr:street": "Pruchnicka",
                "addr:housenumber": "2",
                "addr:teryt:simc": 972192,
                "addr:teryt:sym_ul": 17569,
                "phone": "+48 163000333",
                "email": "smsjaroslaw@gmail.com",
                "ref:regon": "520064285",
                "operator": "Klub Sportowy \" \u0141aczy Nas Sport\"",
                "operator:type": "ngo",
                "amenity": "college"
            }
        },
        {
            "id": 77553,
            "type": "Feature",
            "geometry": {
                "type": "Point",
                "coordinates": [
                    22.67374,
                    50.00746
                ]
            },
            "properties": {
                "isced:level": "1;2",
                "ref:rspo": 77553,
                "official_name": "Szko\u0142a Podstawowa Nr 5 im. Ba\u015bki Puzon",
                "name": "Szko\u0142a Podstawowa Nr 5",
                "addr:postcode": "37-500",
                "addr:city": "Jaros\u0142aw",
                "addr:street": "Romualda Traugutta",
                "addr:housenumber": "15",
                "addr:teryt:simc": 972192,
                "addr:teryt:sym_ul": 22965,
                "phone": "+48 166214910",
                "email": "sekretariat@zsj.jaroslaw.pl",
                "website": "http:\/\/zsj.jaroslaw.pl",
                "ref:regon": "650172232",
                "ref:vatin": "PL7922057414",
                "operator": "Gmina Miejska Jaros\u0142aw",
                "operator:type": "government",
                "amenity": "school"
            }
        },
        {
            "id": 277424,
            "type": "Feature",
            "geometry": {
                "type": "Point",
                "coordinates": [
                    22.67374,
                    50.00743
                ]
            },
            "properties": {
                "isced:level": "3",
                "ref:rspo": 277424,
                "official_name": "Niepubliczne Liceum Og\u00f3lnokszta\u0142c\u0105ce dla Doros\u0142ych w Jaros\u0142awiu",
                "name": "Niepubliczne Liceum Og\u00f3lnokszta\u0142c\u0105ce dla Doros\u0142ych w Jaros\u0142awiu",
                "addr:postcode": "37-500",
                "addr:city": "Jaros\u0142aw",
                "addr:street": "Romualda Traugutta",
                "addr:housenumber": "15",
                "addr:teryt:simc": 972192,
                "addr:teryt:sym_ul": 22965,
                "phone": "+48 166211535",
                "email": "lodladoroslych@wp.pl",
                "website": "http:\/\/www.liceum-zaoczne.pl",
                "ref:regon": "388821868",
                "operator": "Halina Sokolik-Nieradka",
                "operator:type": "private",
                "amenity": "school"
            }
        },
        {
            "id": 20335,
            "type": "Feature",
            "geometry": {
                "type": "Point",
                "coordinates": [
                    22.6692,
                    50.00772
                ]
            },
            "properties": {
                "ref:rspo": 20335,
                "official_name": "Miejskie Przedszkole Nr 4",
                "name": "Miejskie Przedszkole Nr 4",
                "addr:postcode": "37-500",
                "addr:city": "Jaros\u0142aw",
                "addr:street": "Artura Grottgera",
                "addr:housenumber": "32",
                "addr:teryt:simc": 972192,
                "addr:teryt:sym_ul": 6206,
                "phone": "+48 166216213",
                "email": "mp4jaroslaw@wp.pl",
                "ref:regon": "650017767",
                "ref:vatin": "PL7922061568",
                "operator": "Gmina Miejska Jaros\u0142aw",
                "operator:type": "government",
                "amenity": "kindergarten"
            }
        },
        {
            "id": 20340,
            "type": "Feature",
            "geometry": {
                "type": "Point",
                "coordinates": [
                    22.69687,
                    50.00975
                ]
            },
            "properties": {
                "ref:rspo": 20340,
                "official_name": "Miejskie Przedszkole Nr 10",
                "name": "Miejskie Przedszkole Nr 10",
                "addr:postcode": "37-500",
                "addr:city": "Jaros\u0142aw",
                "addr:street": "Osiedle Osiedle Kombatant\u00f3w",
                "addr:housenumber": "22",
                "addr:teryt:simc": 972192,
                "addr:teryt:sym_ul": 45845,
                "phone": "+48 166216624",
                "email": "sekretariat@mp10.jaroslaw.pl",
                "ref:regon": "650017796",
                "ref:vatin": "PL7922295823",
                "operator": "Gmina Miejska Jaros\u0142aw",
                "operator:type": "government",
                "amenity": "kindergarten"
            }
        },
        {
            "id": 6932,
            "type": "Feature",
            "geometry": {
                "type": "Point",
                "coordinates": [
                    22.6794699,
                    50.01111
                ]
            },
            "properties": {
                "ref:rspo": 6932,
                "official_name": "Centrum Kszta\u0142cenia Zawodowego I Ustawicznego w Jaros\u0142awiu",
                "name": "Centrum Kszta\u0142cenia Zawodowego I Ustawicznego w Jaros\u0142awiu",
                "addr:postcode": "37-500",
                "addr:city": "Jaros\u0142aw",
                "addr:street": "J\u00f3zefa Poniatowskiego",
                "addr:housenumber": "63A",
                "addr:teryt:simc": 972192,
                "addr:teryt:sym_ul": 17107,
                "phone": "+48 166241540",
                "email": "ckziujaroslaw@wp.pl",
                "website": "http:\/\/www.ckziujaroslaw.pl",
                "ref:regon": "650974836",
                "ref:vatin": "PL7921925937",
                "operator": "Powiat Jaros\u0142awski",
                "operator:type": "government",
                "landuse": "education",
                "fixme": "amenity=school, amenity=college albo landuse=education w zale\u017cno\u015bci od tego, jakie plac\u00f3wki wchodz\u0105 w sk\u0142ad zespo\u0142u. Sprawd\u017a, kiedy stosowa\u0107 amenity=* a kiedy landuse=education.",
                "note": "Children RSPO: 15840;25613;25614;266116;275624"
            }
        },
        {
            "id": 25613,
            "type": "Feature",
            "geometry": {
                "type": "Point",
                "coordinates": [
                    22.6794699,
                    50.01108
                ]
            },
            "properties": {
                "isced:level": "3",
                "ref:rspo": 25613,
                "official_name": "Liceum Og\u00f3lnokszta\u0142c\u0105ce dla Doros\u0142ych w Jaros\u0142awiu",
                "name": "Liceum Og\u00f3lnokszta\u0142c\u0105ce dla Doros\u0142ych w Jaros\u0142awiu",
                "addr:postcode": "37-500",
                "addr:city": "Jaros\u0142aw",
                "addr:street": "J\u00f3zefa Poniatowskiego",
                "addr:housenumber": "63A",
                "addr:teryt:simc": 972192,
                "addr:teryt:sym_ul": 17107,
                "phone": "+48 166241540",
                "email": "ckziujaroslaw@wp.pl",
                "website": "http:\/\/www.ckujaroslaw.home.pl",
                "ref:regon": "180060130",
                "ref:vatin": "PL7921925937",
                "operator": "Powiat Jaros\u0142awski",
                "operator:type": "government",
                "amenity": "school",
                "note": "Parent RSPO: 6932"
            }
        },
        {
            "id": 25614,
            "type": "Feature",
            "geometry": {
                "type": "Point",
                "coordinates": [
                    22.6794699,
                    50.011050000000004
                ]
            },
            "properties": {
                "isced:level": "4",
                "ref:rspo": 25614,
                "official_name": "Szko\u0142a Policealna w Jaros\u0142awiu",
                "name": "Szko\u0142a Policealna w Jaros\u0142awiu",
                "addr:postcode": "37-500",
                "addr:city": "Jaros\u0142aw",
                "addr:street": "J\u00f3zefa Poniatowskiego",
                "addr:housenumber": "63A",
                "addr:teryt:simc": 972192,
                "addr:teryt:sym_ul": 17107,
                "phone": "+48 166241540",
                "email": "ckziujaroslaw@wp.pl",
                "website": "http:\/\/www.ckujaroslaw.home.pl",
                "ref:regon": "180362769",
                "ref:vatin": "PL7921925937",
                "operator": "Powiat Jaros\u0142awski",
                "operator:type": "government",
                "amenity": "college",
                "note": "Parent RSPO: 6932"
            }
        },
        {
            "id": 20357,
            "type": "Feature",
            "geometry": {
                "type": "Point",
                "coordinates": [
                    22.70261,
                    50.01136
                ]
            },
            "properties": {
                "isced:level": "1;2",
                "ref:rspo": 20357,
                "official_name": "Szko\u0142a Podstawowa Si\u00f3str Niepokalanek im. B\u0142. M. Marceliny Darowskiej",
                "name": "Szko\u0142a Podstawowa Si\u00f3str Niepokalanek",
                "addr:postcode": "37-500",
                "addr:city": "Jaros\u0142aw",
                "addr:street": "G\u0142\u0119boka",
                "addr:housenumber": "1",
                "addr:teryt:simc": 972192,
                "addr:teryt:sym_ul": 5606,
                "phone": "+48 166217457",
                "email": "sp.niepokalanki@gmail.com",
                "website": "http:\/\/sp.niepokalanki.edu.pl",
                "ref:regon": "180893314",
                "ref:vatin": "PL7921068893",
                "operator": "Zgromadzenie Si\u00f3str Niepokalanego Pocz\u0119cia Nmp Dom Generalny",
                "operator:type": "religious",
                "amenity": "school"
            }
        },
        {
            "id": 15837,
            "type": "Feature",
            "geometry": {
                "type": "Point",
                "coordinates": [
                    22.67928,
                    50.01156
                ]
            },
            "properties": {
                "ref:rspo": 15837,
                "official_name": "Poradnia Psychologiczno - Pedagogiczna w Jaros\u0142awiu",
                "name": "Poradnia Psychologiczno - Pedagogiczna w Jaros\u0142awiu",
                "addr:postcode": "37-500",
                "addr:city": "Jaros\u0142aw",
                "addr:street": "J\u00f3zefa Poniatowskiego",
                "addr:housenumber": "63",
                "addr:teryt:simc": 972192,
                "addr:teryt:sym_ul": 17107,
                "phone": "+48 166214178",
                "email": "poradniappjaroslaw@interia.pl",
                "website": "http:\/\/www.poradniapp.org.pl",
                "ref:regon": "650957944",
                "ref:vatin": "PL7921881996",
                "operator": "Powiat Jaros\u0142awski",
                "operator:type": "government",
                "healthcare": "counselling",
                "counselling_type": "education",
                "fixme": "w zale\u017cno\u015bci od przedmiotu dzia\u0142alno\u015bci (np. healthcare=counselling + counselling_type=education albo healthcare=psychotherapist)"
            }
        },
        {
            "id": 266116,
            "type": "Feature",
            "geometry": {
                "type": "Point",
                "coordinates": [
                    22.67928,
                    50.01153
                ]
            },
            "properties": {
                "isced:level": "3",
                "ref:rspo": 266116,
                "official_name": "Bran\u017cowa Szko\u0142a I Stopnia Nr 6 w Jaros\u0142awiu",
                "name": "Bran\u017cowa Szko\u0142a I Stopnia Nr 6 w Jaros\u0142awiu",
                "addr:postcode": "37-500",
                "addr:city": "Jaros\u0142aw",
                "addr:street": "J\u00f3zefa Poniatowskiego",
                "addr:housenumber": "63",
                "addr:teryt:simc": 972192,
                "addr:teryt:sym_ul": 17107,
                "phone": "+48 166241540",
                "email": "ckziujaroslaw@wp.pl",
                "website": "http:\/\/www.ckziujaroslaw.pl",
                "ref:regon": "369275886",
                "operator": "Powiat Jaros\u0142awski",
                "operator:type": "government",
                "amenity": "school",
                "note": "Parent RSPO: 6932"
            }
        },
        {
            "id": 275624,
            "type": "Feature",
            "geometry": {
                "type": "Point",
                "coordinates": [
                    22.67928,
                    50.011500000000005
                ]
            },
            "properties": {
                "isced:level": "3",
                "ref:rspo": 275624,
                "official_name": "Bran\u017cowa Szko\u0142a II Stopnia w Jaros\u0142awiu",
                "name": "Bran\u017cowa Szko\u0142a II Stopnia w Jaros\u0142awiu",
                "addr:postcode": "37-500",
                "addr:city": "Jaros\u0142aw",
                "addr:street": "J\u00f3zefa Poniatowskiego",
                "addr:housenumber": "63",
                "addr:door": "A",
                "addr:teryt:simc": 972192,
                "addr:teryt:sym_ul": 17107,
                "phone": "+48 166241540",
                "email": "ckziujaroslaw@wp.pl",
                "website": "http:\/\/www.ckziujaroslaw.pl",
                "ref:regon": "386928473",
                "operator": "Powiat Jaros\u0142awski",
                "operator:type": "government",
                "amenity": "school",
                "note": "Parent RSPO: 6932"
            }
        },
        {
            "id": 20334,
            "type": "Feature",
            "geometry": {
                "type": "Point",
                "coordinates": [
                    22.68808,
                    50.01196
                ]
            },
            "properties": {
                "ref:rspo": 20334,
                "official_name": "Miejskie Przedszkole Nr 3 im. Marii Kownackiej",
                "name": "Miejskie Przedszkole Nr 3",
                "addr:postcode": "37-500",
                "addr:city": "Jaros\u0142aw",
                "addr:street": "Legion\u00f3w",
                "addr:housenumber": "11",
                "addr:teryt:simc": 972192,
                "addr:teryt:sym_ul": 10769,
                "phone": "+48 166213394",
                "email": "przedszkolenr3jaroslaw@wp.pl",
                "ref:regon": "650017750",
                "ref:vatin": "PL7922061568",
                "operator": "Gmina Miejska Jaros\u0142aw",
                "operator:type": "government",
                "amenity": "kindergarten"
            }
        },
        {
            "id": 15849,
            "type": "Feature",
            "geometry": {
                "type": "Point",
                "coordinates": [
                    22.68536,
                    50.01228
                ]
            },
            "properties": {
                "ref:rspo": 15849,
                "official_name": "Zesp\u00f3\u0142 Plac\u00f3wek O\u015bwiatowo - Wychowawczych w Jaros\u0142awiu",
                "name": "Zesp\u00f3\u0142 Plac\u00f3wek O\u015bwiatowo - Wychowawczych w Jaros\u0142awiu",
                "addr:postcode": "37-500",
                "addr:city": "Jaros\u0142aw",
                "addr:street": "W\u0142adys\u0142awa Reymonta",
                "addr:housenumber": "1",
                "addr:teryt:simc": 972192,
                "addr:teryt:sym_ul": 18648,
                "phone": "+48 166212563",
                "email": "kontakt@zpowjaroslaw.pl",
                "website": "http:\/\/www.zpowjaroslaw.pl",
                "ref:regon": "180590766",
                "ref:vatin": "PL7922262396",
                "operator": "Powiat Jaros\u0142awski",
                "operator:type": "government",
                "landuse": "education",
                "fixme": "amenity=school, amenity=college albo landuse=education w zale\u017cno\u015bci od tego, jakie plac\u00f3wki wchodz\u0105 w sk\u0142ad zespo\u0142u. Sprawd\u017a, kiedy stosowa\u0107 amenity=* a kiedy landuse=education.",
                "note": "Children RSPO: 18726;18727"
            }
        },
        {
            "id": 18726,
            "type": "Feature",
            "geometry": {
                "type": "Point",
                "coordinates": [
                    22.68536,
                    50.012249999999995
                ]
            },
            "properties": {
                "ref:rspo": 18726,
                "official_name": "Bursa Mi\u0119dzyszkolna w Jaros\u0142awiu",
                "name": "Bursa Mi\u0119dzyszkolna w Jaros\u0142awiu",
                "addr:postcode": "37-500",
                "addr:city": "Jaros\u0142aw",
                "addr:street": "W\u0142adys\u0142awa Reymonta",
                "addr:housenumber": "1",
                "addr:teryt:simc": 972192,
                "addr:teryt:sym_ul": 18648,
                "phone": "+48 166212563",
                "email": "kontakt@zpowjaroslaw.pl",
                "website": "http:\/\/www.zpowjaroslaw.pl",
                "ref:regon": "650956152",
                "ref:vatin": "PL7921881973",
                "operator": "Powiat Jaros\u0142awski",
                "operator:type": "government",
                "building": "dormitory",
                "note": "Parent RSPO: 15849"
            }
        },
        {
            "id": 18727,
            "type": "Feature",
            "geometry": {
                "type": "Point",
                "coordinates": [
                    22.68536,
                    50.01222
                ]
            },
            "properties": {
                "ref:rspo": 18727,
                "official_name": "Szkolne Schronisko M\u0142odzie\u017cowe w Jaros\u0142awiu",
                "name": "Szkolne Schronisko M\u0142odzie\u017cowe w Jaros\u0142awiu",
                "addr:postcode": "37-500",
                "addr:city": "Jaros\u0142aw",
                "addr:street": "W\u0142adys\u0142awa Reymonta",
                "addr:housenumber": "1",
                "addr:teryt:simc": 972192,
                "addr:teryt:sym_ul": 18648,
                "phone": "+48 166212563",
                "email": "kontakt@zpowjaroslaw.pl",
                "website": "http:\/\/www.zpowjaroslaw.pl",
                "ref:regon": "180526768",
                "ref:vatin": "PL7922254474",
                "operator": "Powiat Jaros\u0142awski",
                "operator:type": "government",
                "tourism": "hostel",
                "note": "Parent RSPO: 15849"
            }
        },
        {
            "id": 15840,
            "type": "Feature",
            "geometry": {
                "type": "Point",
                "coordinates": [
                    22.68921,
                    50.01316
                ]
            },
            "properties": {
                "ref:rspo": 15840,
                "official_name": "Centrum Kszta\u0142cenia Zawodowego w Jaros\u0142awiu",
                "name": "Centrum Kszta\u0142cenia Zawodowego w Jaros\u0142awiu",
                "addr:postcode": "37-500",
                "addr:city": "Jaros\u0142aw",
                "addr:street": "Ignacego Jana Paderewskiego",
                "addr:housenumber": "11A",
                "addr:teryt:simc": 972192,
                "addr:teryt:sym_ul": 15532,
                "phone": "+48 166241950",
                "email": "ckpjaroslaw@poczta.onet.pl",
                "website": "http:\/\/www.ckpjaroslaw.edu.pl",
                "ref:regon": "650958760",
                "ref:vatin": "PL7921881105",
                "operator": "Powiat Jaros\u0142awski",
                "operator:type": "government",
                "fixme": "w zale\u017cno\u015bci od przedmiotu dzia\u0142alno\u015bci (np. amenity=training + training=*, amenity=dancing_school, amenity=language_school, amenity=music_school) albo amenity=school, amenity=college, albo landuse=education w zale\u017cno\u015bci od tego, jakie plac\u00f3wki wchodz\u0105 w sk\u0142ad zespo\u0142u. Sprawd\u017a, kiedy stosowa\u0107 amenity=* a kiedy landuse=education.",
                "note": "Parent RSPO: 6932"
            }
        },
        {
            "id": 20337,
            "type": "Feature",
            "geometry": {
                "type": "Point",
                "coordinates": [
                    22.67576,
                    50.01325
                ]
            },
            "properties": {
                "ref:rspo": 20337,
                "official_name": "Miejskie Przedszkole Nr 9 im. Jana Brzechwy",
                "name": "Miejskie Przedszkole Nr 9",
                "addr:postcode": "37-500",
                "addr:city": "Jaros\u0142aw",
                "addr:street": "Stanis\u0142awa Wyspia\u0144skiego",
                "addr:housenumber": "3",
                "addr:teryt:simc": 972192,
                "addr:teryt:sym_ul": 25084,
                "phone": "+48 166212026",
                "email": "dyrektor@mp9.jaroslaw.pl",
                "ref:regon": "650017780",
                "ref:vatin": "PL7922061568",
                "operator": "Gmina Miejska Jaros\u0142aw",
                "operator:type": "government",
                "amenity": "kindergarten"
            }
        },
        {
            "id": 20336,
            "type": "Feature",
            "geometry": {
                "type": "Point",
                "coordinates": [
                    22.6965499,
                    50.01347
                ]
            },
            "properties": {
                "ref:rspo": 20336,
                "official_name": "Miejskie Przedszkole Nr 8 Montessori",
                "name": "Miejskie Przedszkole Nr 8 Montessori",
                "addr:postcode": "37-500",
                "addr:city": "Jaros\u0142aw",
                "addr:street": "Osiedle S\u0142oneczne",
                "addr:housenumber": "6",
                "addr:teryt:simc": 972192,
                "addr:teryt:sym_ul": 20256,
                "phone": "+48 166215389",
                "email": "sekretariat@mp8.jaroslaw.pl",
                "website": "http:\/\/montessori.jaroslaw.pl",
                "ref:regon": "650017773",
                "ref:vatin": "PL7922061568",
                "operator": "Gmina Miejska Jaros\u0142aw",
                "operator:type": "government",
                "amenity": "kindergarten"
            }
        },
        {
            "id": 15843,
            "type": "Feature",
            "geometry": {
                "type": "Point",
                "coordinates": [
                    22.68762,
                    50.01396
                ]
            },
            "properties": {
                "ref:rspo": 15843,
                "official_name": "Zesp\u00f3\u0142 Szk\u00f3\u0142 Budowlanych I Og\u00f3lnokszta\u0142c\u0105cych im. Kr\u00f3la Kazimierza Wielkiego w Jaros\u0142awiu",
                "name": "Zesp\u00f3\u0142 Szk\u00f3\u0142 Budowlanych I Og\u00f3lnokszta\u0142c\u0105cych",
                "addr:postcode": "37-500",
                "addr:city": "Jaros\u0142aw",
                "addr:street": "J\u00f3zefa Poniatowskiego",
                "addr:housenumber": "23",
                "addr:teryt:simc": 972192,
                "addr:teryt:sym_ul": 17107,
                "phone": "+48 166216271",
                "email": "budowlanka@poczta.wp.pl",
                "website": "http:\/\/zsbiojaroslaw.edu.pl",
                "ref:regon": "650958754",
                "ref:vatin": "PL7921881097",
                "operator": "Powiat Jaros\u0142awski",
                "operator:type": "government",
                "landuse": "education",
                "fixme": "amenity=school, amenity=college albo landuse=education w zale\u017cno\u015bci od tego, jakie plac\u00f3wki wchodz\u0105 w sk\u0142ad zespo\u0142u. Sprawd\u017a, kiedy stosowa\u0107 amenity=* a kiedy landuse=education.",
                "note": "Children RSPO: 18070;18071;18072"
            }
        },
        {
            "id": 18070,
            "type": "Feature",
            "geometry": {
                "type": "Point",
                "coordinates": [
                    22.68762,
                    50.013929999999995
                ]
            },
            "properties": {
                "isced:level": "3",
                "ref:rspo": 18070,
                "official_name": "Iv Liceum Og\u00f3lnokszta\u0142c\u0105ce w Jaros\u0142awiu",
                "name": "Iv Liceum Og\u00f3lnokszta\u0142c\u0105ce w Jaros\u0142awiu",
                "addr:postcode": "37-500",
                "addr:city": "Jaros\u0142aw",
                "addr:street": "J\u00f3zefa Poniatowskiego",
                "addr:housenumber": "23",
                "addr:teryt:simc": 972192,
                "addr:teryt:sym_ul": 17107,
                "phone": "+48 166216271",
                "email": "budowlanka@poczta.wp.pl",
                "website": "http:\/\/zsbiojaroslaw.edu.pl",
                "ref:regon": "651535895",
                "operator": "Powiat Jaros\u0142awski",
                "operator:type": "government",
                "amenity": "school",
                "note": "Parent RSPO: 15843"
            }
        },
        {
            "id": 18071,
            "type": "Feature",
            "geometry": {
                "type": "Point",
                "coordinates": [
                    22.68762,
                    50.0139
                ]
            },
            "properties": {
                "isced:level": "3",
                "ref:rspo": 18071,
                "official_name": "Bran\u017cowa Szko\u0142a I Stopnia Nr 1 w Jaros\u0142awiu",
                "name": "Bran\u017cowa Szko\u0142a I Stopnia Nr 1 w Jaros\u0142awiu",
                "addr:postcode": "37-500",
                "addr:city": "Jaros\u0142aw",
                "addr:street": "J\u00f3zefa Poniatowskiego",
                "addr:housenumber": "23",
                "addr:teryt:simc": 972192,
                "addr:teryt:sym_ul": 17107,
                "phone": "+48 166216271",
                "email": "budowlanka@poczta.wp.pl",
                "website": "http:\/\/zsbiojaroslaw.edu.pl",
                "ref:regon": "651535903",
                "operator": "Powiat Jaros\u0142awski",
                "operator:type": "government",
                "amenity": "school",
                "note": "Parent RSPO: 15843"
            }
        },
        {
            "id": 18072,
            "type": "Feature",
            "geometry": {
                "type": "Point",
                "coordinates": [
                    22.68762,
                    50.01387
                ]
            },
            "properties": {
                "isced:level": "3",
                "ref:rspo": 18072,
                "official_name": "Technikum Nr 4 w Jaros\u0142awiu",
                "name": "Technikum Nr 4 w Jaros\u0142awiu",
                "addr:postcode": "37-500",
                "addr:city": "Jaros\u0142aw",
                "addr:street": "J\u00f3zefa Poniatowskiego",
                "addr:housenumber": "23",
                "addr:teryt:simc": 972192,
                "addr:teryt:sym_ul": 17107,
                "phone": "+48 166216271",
                "email": "budowlanka@poczta.wp.pl",
                "website": "http:\/\/zsbiojaroslaw.edu.pl",
                "ref:regon": "651535889",
                "operator": "Powiat Jaros\u0142awski",
                "operator:type": "government",
                "amenity": "school",
                "note": "Parent RSPO: 15843"
            }
        },
        {
            "id": 125474,
            "type": "Feature",
            "geometry": {
                "type": "Point",
                "coordinates": [
                    22.6687,
                    50.01408
                ]
            },
            "properties": {
                "ref:rspo": 125474,
                "official_name": "Niepubliczne Przedszkole \"Smyk\"",
                "name": "Niepubliczne Przedszkole \"Smyk\"",
                "addr:postcode": "37-500",
                "addr:city": "Jaros\u0142aw",
                "addr:street": "Brzostk\u00f3w",
                "addr:housenumber": "9",
                "addr:door": "11",
                "addr:teryt:simc": 972192,
                "addr:teryt:sym_ul": 2265,
                "phone": "+48 660567043",
                "email": "martamac1@interia.pl",
                "ref:regon": "181159177",
                "operator": "Marta Mac",
                "operator:type": "private",
                "amenity": "kindergarten"
            }
        },
        {
            "id": 20346,
            "type": "Feature",
            "geometry": {
                "type": "Point",
                "coordinates": [
                    22.69684,
                    50.0147
                ]
            },
            "properties": {
                "isced:level": "1;2",
                "ref:rspo": 20346,
                "official_name": "Szko\u0142a Podstawowa Nr 10 im. Wojska Polskiego",
                "name": "Szko\u0142a Podstawowa Nr 10",
                "addr:postcode": "37-500",
                "addr:city": "Jaros\u0142aw",
                "addr:street": "Osiedle S\u0142oneczne",
                "addr:housenumber": "7",
                "addr:teryt:simc": 972192,
                "addr:teryt:sym_ul": 20256,
                "phone": "+48 166216225",
                "email": "sekretariat@sp10.jaroslaw.pl",
                "website": "http:\/\/sp10jaroslaw.superszkolna.pl\/",
                "ref:regon": "650165640",
                "ref:vatin": "PL7921018085",
                "operator": "Gmina Miejska Jaros\u0142aw",
                "operator:type": "government",
                "amenity": "school"
            }
        },
        {
            "id": 133982,
            "type": "Feature",
            "geometry": {
                "type": "Point",
                "coordinates": [
                    22.67151,
                    50.01527
                ]
            },
            "properties": {
                "isced:level": "1;2",
                "ref:rspo": 133982,
                "official_name": "Szko\u0142a Podstawowa Nr 2 im. Ks. Stanis\u0142awa Konarskiego",
                "name": "Szko\u0142a Podstawowa Nr 2",
                "addr:postcode": "37-500",
                "addr:city": "Jaros\u0142aw",
                "addr:street": "Jana Paw\u0142a II",
                "addr:housenumber": "26",
                "addr:teryt:simc": 972192,
                "addr:teryt:sym_ul": 7123,
                "phone": "+48 166242090",
                "email": "dwojka@sp2.jaroslaw.pl",
                "website": "http:\/\/www.sp2.jaroslaw.pl",
                "ref:regon": "367761051",
                "ref:vatin": "PL7922300197",
                "operator": "Gmina Miejska Jaros\u0142aw",
                "operator:type": "government",
                "amenity": "school"
            }
        },
        {
            "id": 15848,
            "type": "Feature",
            "geometry": {
                "type": "Point",
                "coordinates": [
                    22.67007,
                    50.01532
                ]
            },
            "properties": {
                "ref:rspo": 15848,
                "official_name": "Specjalny O\u015brodek Szkolno-Wychowawczy im. Jana Paw\u0142a II w Jaros\u0142awiu",
                "name": "Specjalny O\u015brodek Szkolno-Wychowawczy",
                "addr:postcode": "37-500",
                "addr:city": "Jaros\u0142aw",
                "addr:street": "Jana Paw\u0142a II",
                "addr:housenumber": "30",
                "addr:teryt:simc": 972192,
                "addr:teryt:sym_ul": 7123,
                "phone": "+48 166212431",
                "email": "soswjaroslaw@gmail.com",
                "website": "http:\/\/www.sosw.jaroslaw.pl",
                "ref:regon": "000238552",
                "ref:vatin": "PL7921882582",
                "operator": "Powiat Jaros\u0142awski",
                "operator:type": "government",
                "amenity": "school",
                "note": "Children RSPO: 18724;18806;26089;131415"
            }
        },
        {
            "id": 18724,
            "type": "Feature",
            "geometry": {
                "type": "Point",
                "coordinates": [
                    22.67007,
                    50.01529
                ]
            },
            "properties": {
                "isced:level": "3",
                "ref:rspo": 18724,
                "official_name": "Bran\u017cowa Szko\u0142a I Stopnia Specjalna w Jaros\u0142awiu",
                "name": "Bran\u017cowa Szko\u0142a I Stopnia Specjalna w Jaros\u0142awiu",
                "addr:postcode": "37-500",
                "addr:city": "Jaros\u0142aw",
                "addr:street": "Jana Paw\u0142a II",
                "addr:housenumber": "30",
                "addr:teryt:simc": 972192,
                "addr:teryt:sym_ul": 7123,
                "phone": "+48 166212431",
                "email": "soswjaroslaw@gmail.com",
                "website": "http:\/\/www.sosw.jaroslaw.pl",
                "ref:regon": "651498510",
                "ref:vatin": "PL7921882582",
                "operator": "Powiat Jaros\u0142awski",
                "operator:type": "government",
                "amenity": "school",
                "note": "Parent RSPO: 15848"
            }
        },
        {
            "id": 18806,
            "type": "Feature",
            "geometry": {
                "type": "Point",
                "coordinates": [
                    22.67007,
                    50.015260000000005
                ]
            },
            "properties": {
                "ref:rspo": 18806,
                "official_name": "Szko\u0142a Specjalna Przysposabiaj\u0105ca Do Pracy w Jaros\u0142awiu",
                "name": "Szko\u0142a Specjalna Przysposabiaj\u0105ca Do Pracy w Jaros\u0142awiu",
                "addr:postcode": "37-500",
                "addr:city": "Jaros\u0142aw",
                "addr:street": "Jana Paw\u0142a II",
                "addr:housenumber": "30",
                "addr:teryt:simc": 972192,
                "addr:teryt:sym_ul": 7123,
                "phone": "+48 166212431",
                "email": "soswjaroslaw@gmail.com",
                "website": "http:\/\/www.sosw.jaroslaw.pl",
                "ref:regon": "651554881",
                "ref:vatin": "PL7921882582",
                "operator": "Powiat Jaros\u0142awski",
                "operator:type": "government",
                "amenity": "school",
                "note": "Parent RSPO: 15848"
            }
        },
        {
            "id": 26089,
            "type": "Feature",
            "geometry": {
                "type": "Point",
                "coordinates": [
                    22.67007,
                    50.01523
                ]
            },
            "properties": {
                "isced:level": "1;2",
                "ref:rspo": 26089,
                "official_name": "Szko\u0142a Podstawowa Specjalna Nr 8 w Jaros\u0142awiu",
                "name": "Szko\u0142a Podstawowa Specjalna Nr 8 w Jaros\u0142awiu",
                "addr:postcode": "37-500",
                "addr:city": "Jaros\u0142aw",
                "addr:street": "Jana Paw\u0142a II",
                "addr:housenumber": "30",
                "addr:teryt:simc": 972192,
                "addr:teryt:sym_ul": 7123,
                "phone": "+48 166212431",
                "email": "soswjaroslaw@gmail.com",
                "website": "http:\/\/www.sosw.jaroslaw.pl",
                "ref:regon": "651498556",
                "ref:vatin": "PL7921882582",
                "operator": "Powiat Jaros\u0142awski",
                "operator:type": "government",
                "amenity": "school",
                "note": "Parent RSPO: 15848"
            }
        },
        {
            "id": 131415,
            "type": "Feature",
            "geometry": {
                "type": "Point",
                "coordinates": [
                    22.67007,
                    50.0152
                ]
            },
            "properties": {
                "ref:rspo": 131415,
                "official_name": "Przedszkole Nr 14 Specjalne Jaros\u0142awiu",
                "name": "Przedszkole Nr 14 Specjalne Jaros\u0142awiu",
                "addr:postcode": "37-500",
                "addr:city": "Jaros\u0142aw",
                "addr:street": "Jana Paw\u0142a II",
                "addr:housenumber": "30",
                "addr:teryt:simc": 972192,
                "addr:teryt:sym_ul": 7123,
                "phone": "+48 166212431",
                "email": "soswjaroslaw@gmail.com",
                "website": "http:\/\/www.sosw.jaroslaw.pl",
                "ref:regon": "365168811",
                "operator": "Powiat Jaros\u0142awski",
                "operator:type": "government",
                "amenity": "kindergarten",
                "note": "Parent RSPO: 15848"
            }
        },
        {
            "id": 133969,
            "type": "Feature",
            "geometry": {
                "type": "Point",
                "coordinates": [
                    22.68943,
                    50.01534
                ]
            },
            "properties": {
                "isced:level": "1;2",
                "ref:rspo": 133969,
                "official_name": "Szko\u0142a Podstawowa Nr 1 im. \u015aw. Kr\u00f3lowej Jadwigi",
                "name": "Szko\u0142a Podstawowa Nr 1",
                "addr:postcode": "37-500",
                "addr:city": "Jaros\u0142aw",
                "addr:street": "3 Maja",
                "addr:housenumber": "30",
                "addr:teryt:simc": 972192,
                "addr:teryt:sym_ul": 11937,
                "phone": "+48 166213476",
                "email": "sekretariat@sp1.jaroslaw.pl",
                "website": "http:\/\/www.jedynka-jaroslaw.pl",
                "ref:regon": "367753956",
                "ref:vatin": "PL7922300151",
                "operator": "Gmina Miejska Jaros\u0142aw",
                "operator:type": "government",
                "amenity": "school"
            }
        },
        {
            "id": 15864,
            "type": "Feature",
            "geometry": {
                "type": "Point",
                "coordinates": [
                    22.69194,
                    50.0156599
                ]
            },
            "properties": {
                "ref:rspo": 15864,
                "official_name": "Niepubliczna Specjalistyczna Poradnia Wczesnego Wspomagania Rozwoju Dziecka w Jaros\u0142awiu",
                "name": "Niepubliczna Specjalistyczna Poradnia Wczesnego Wspomagania Rozwoju Dziecka w Jaros\u0142awiu",
                "addr:postcode": "37-500",
                "addr:city": "Jaros\u0142aw",
                "addr:street": "3 Maja",
                "addr:housenumber": "39a",
                "addr:teryt:simc": 972192,
                "addr:teryt:sym_ul": 11937,
                "phone": "+48 166210397",
                "email": "nspwwrd@psoni-jaroslaw.org.pl",
                "ref:regon": "180888968",
                "ref:vatin": "PL7921019877",
                "operator": "Polskie Stowarzyszenie Na Rzecz Os\u00f3b Z Niepe\u0142nosprawno\u015bci\u0105 Intelektualn\u0105 Ko\u0142o W Jaros\u0142awiu",
                "operator:type": "ngo",
                "fixme": "w zale\u017cno\u015bci od przedmiotu dzia\u0142alno\u015bci (np. healthcare=counselling + counselling_type=education albo healthcare=psychotherapist)"
            }
        },
        {
            "id": 20359,
            "type": "Feature",
            "geometry": {
                "type": "Point",
                "coordinates": [
                    22.6866,
                    50.01574
                ]
            },
            "properties": {
                "ref:rspo": 20359,
                "official_name": "Przedszkole Niepubliczne im. Edmunda Bojanowskiego",
                "name": "Przedszkole Niepubliczne",
                "addr:postcode": "37-500",
                "addr:city": "Jaros\u0142aw",
                "addr:street": "3 Maja",
                "addr:housenumber": "12",
                "addr:teryt:simc": 972192,
                "addr:teryt:sym_ul": 11937,
                "phone": "+48 166216135",
                "email": "s_jar@interia.pl",
                "ref:regon": "180892800",
                "ref:vatin": "PL7921900452",
                "operator": "Zg. Ss. S\u0142u\u017cebniczek Nmp Niepokalanie Pocz\u0119tej, Prowincja Przemyska",
                "operator:type": "religious",
                "amenity": "kindergarten"
            }
        },
        {
            "id": 15846,
            "type": "Feature",
            "geometry": {
                "type": "Point",
                "coordinates": [
                    22.68592,
                    50.0159499
                ]
            },
            "properties": {
                "ref:rspo": 15846,
                "official_name": "Zesp\u00f3\u0142 Szk\u00f3\u0142 Innowacyjnych w Jaros\u0142awiu",
                "name": "Zesp\u00f3\u0142 Szk\u00f3\u0142 Innowacyjnych w Jaros\u0142awiu",
                "addr:postcode": "37-500",
                "addr:city": "Jaros\u0142aw",
                "addr:street": "3 Maja",
                "addr:housenumber": "10",
                "addr:teryt:simc": 972192,
                "addr:teryt:sym_ul": 11937,
                "phone": "+48 166216339",
                "email": "sekretariat@zsiedu.pl",
                "website": "http:\/\/www.zsiedu.pl",
                "ref:regon": "650956005",
                "ref:vatin": "PL7921889035",
                "operator": "Powiat Jaros\u0142awski",
                "operator:type": "government",
                "landuse": "education",
                "fixme": "amenity=school, amenity=college albo landuse=education w zale\u017cno\u015bci od tego, jakie plac\u00f3wki wchodz\u0105 w sk\u0142ad zespo\u0142u. Sprawd\u017a, kiedy stosowa\u0107 amenity=* a kiedy landuse=education.",
                "note": "Children RSPO: 18233;18235;18236"
            }
        },
        {
            "id": 18233,
            "type": "Feature",
            "geometry": {
                "type": "Point",
                "coordinates": [
                    22.68592,
                    50.0159199
                ]
            },
            "properties": {
                "isced:level": "3",
                "ref:rspo": 18233,
                "official_name": "Vi Liceum Og\u00f3lnokszta\u0142c\u0105ce w Jaros\u0142awiu",
                "name": "Vi Liceum Og\u00f3lnokszta\u0142c\u0105ce w Jaros\u0142awiu",
                "addr:postcode": "37-500",
                "addr:city": "Jaros\u0142aw",
                "addr:street": "3 Maja",
                "addr:housenumber": "10",
                "addr:teryt:simc": 972192,
                "addr:teryt:sym_ul": 11937,
                "phone": "+48 166216339",
                "email": "sekretariat@zsiedu.pl",
                "website": "http:\/\/www.zsiedu.pl",
                "ref:regon": "651499580",
                "operator": "Powiat Jaros\u0142awski",
                "operator:type": "government",
                "amenity": "school",
                "note": "Parent RSPO: 15846"
            }
        },
        {
            "id": 18235,
            "type": "Feature",
            "geometry": {
                "type": "Point",
                "coordinates": [
                    22.68592,
                    50.015889900000005
                ]
            },
            "properties": {
                "isced:level": "3",
                "ref:rspo": 18235,
                "official_name": "Technikum Nr 5 w Jaros\u0142awiu",
                "name": "Technikum Nr 5 w Jaros\u0142awiu",
                "addr:postcode": "37-500",
                "addr:city": "Jaros\u0142aw",
                "addr:street": "3 Maja",
                "addr:housenumber": "10",
                "addr:teryt:simc": 972192,
                "addr:teryt:sym_ul": 11937,
                "phone": "+48 166216339",
                "email": "sekretariat@zsiedu.pl",
                "website": "http:\/\/www.zsiedu.pl",
                "ref:regon": "651499567",
                "operator": "Powiat Jaros\u0142awski",
                "operator:type": "government",
                "amenity": "school",
                "note": "Parent RSPO: 15846"
            }
        },
        {
            "id": 18236,
            "type": "Feature",
            "geometry": {
                "type": "Point",
                "coordinates": [
                    22.68592,
                    50.0158599
                ]
            },
            "properties": {
                "isced:level": "3",
                "ref:rspo": 18236,
                "official_name": "Bran\u017cowa Szko\u0142a I Stopnia Nr 5 w Jaros\u0142awiu",
                "name": "Bran\u017cowa Szko\u0142a I Stopnia Nr 5 w Jaros\u0142awiu",
                "addr:postcode": "37-500",
                "addr:city": "Jaros\u0142aw",
                "addr:street": "3 Maja",
                "addr:housenumber": "10",
                "addr:teryt:simc": 972192,
                "addr:teryt:sym_ul": 11937,
                "phone": "+48 166216339",
                "email": "sekretariat@zsiedu.pl",
                "website": "http:\/\/www.zsiedu.pl",
                "ref:regon": "651428656",
                "operator": "Powiat Jaros\u0142awski",
                "operator:type": "government",
                "amenity": "school",
                "note": "Parent RSPO: 15846"
            }
        },
        {
            "id": 15838,
            "type": "Feature",
            "geometry": {
                "type": "Point",
                "coordinates": [
                    22.68562,
                    50.0164199
                ]
            },
            "properties": {
                "isced:level": "3",
                "ref:rspo": 15838,
                "official_name": "I Liceum Og\u00f3lnokszta\u0142c\u0105ce im. Miko\u0142aja Kopernika w Jaros\u0142awiu",
                "name": "I Liceum Og\u00f3lnokszta\u0142c\u0105ce",
                "addr:postcode": "37-500",
                "addr:city": "Jaros\u0142aw",
                "addr:street": "3 Maja",
                "addr:housenumber": "4",
                "addr:teryt:simc": 972192,
                "addr:teryt:sym_ul": 11937,
                "phone": "+48 166212231",
                "email": "sekretariat@lo.kopernik.jaroslaw.pl",
                "website": "http:\/\/www.lo.kopernik.jaroslaw.pl",
                "ref:regon": "651499751",
                "ref:vatin": "PL7921881938",
                "operator": "Powiat Jaros\u0142awski",
                "operator:type": "government",
                "amenity": "school"
            }
        },
        {
            "id": 15857,
            "type": "Feature",
            "geometry": {
                "type": "Point",
                "coordinates": [
                    22.67878,
                    50.01648
                ]
            },
            "properties": {
                "ref:rspo": 15857,
                "official_name": "Specjalny O\u015brodek Wychowawczy Nr 1 Zgromadzenia Si\u00f3str S\u0142u\u017cebniczek Nmp Np.",
                "name": "Specjalny O\u015brodek Wychowawczy Nr 1 Zgromadzenia Si\u00f3str S\u0142u\u017cebniczek Nmp Np.",
                "addr:postcode": "37-500",
                "addr:city": "Jaros\u0142aw",
                "addr:street": "Grunwaldzka",
                "addr:housenumber": "20",
                "addr:teryt:simc": 972192,
                "addr:teryt:sym_ul": 6260,
                "phone": "+48 166212307",
                "email": "sow@sow1.pl",
                "website": "http:\/\/sow1jaroslaw.pl",
                "ref:regon": "180890155",
                "ref:vatin": "PL7921194089",
                "operator": "Zg. Ss. S\u0142u\u017cebniczek Nmp Niepokalanie Pocz\u0119tej, Prowincja Przemyska",
                "operator:type": "religious",
                "amenity": "social_facility",
                "social_facility": "group_home",
                "social_facility:for": "child;juvenile"
            }
        },
        {
            "id": 269673,
            "type": "Feature",
            "geometry": {
                "type": "Point",
                "coordinates": [
                    22.67745,
                    50.0165999
                ]
            },
            "properties": {
                "ref:rspo": 269673,
                "official_name": "Miejskie Przedszkole Nr 11W Jaros\u0142awiu",
                "name": "Miejskie Przedszkole Nr 11W Jaros\u0142awiu",
                "addr:postcode": "37-500",
                "addr:city": "Jaros\u0142aw",
                "addr:street": "Ignacego Kraszewskiego",
                "addr:housenumber": "1",
                "addr:teryt:simc": 972192,
                "addr:teryt:sym_ul": 9870,
                "phone": "+48 166248987",
                "email": "sekretariat@mp11.jaroslaw.pl",
                "ref:regon": "381660570",
                "operator": "Gmina Miejska Jaros\u0142aw",
                "operator:type": "government",
                "amenity": "kindergarten"
            }
        },
        {
            "id": 15867,
            "type": "Feature",
            "geometry": {
                "type": "Point",
                "coordinates": [
                    22.682300567627,
                    50.016609191895
                ]
            },
            "properties": {
                "ref:rspo": 15867,
                "official_name": "Niepubliczna Szko\u0142a Przysposabiajaca Do Pracy w Jaros\u0142awiu",
                "name": "Niepubliczna Szko\u0142a Przysposabiajaca Do Pracy w Jaros\u0142awiu",
                "addr:postcode": "37-500",
                "addr:city": "Jaros\u0142aw",
                "addr:street": "Wilsona",
                "addr:housenumber": "6c",
                "addr:teryt:simc": 972192,
                "addr:teryt:sym_ul": 24320,
                "phone": "+48 166230285",
                "email": "nspp@psoni-jaroslaw.org.pl",
                "website": "http:\/\/www.psoni-jaroslaw.org.pl",
                "ref:regon": "180889028",
                "ref:vatin": "PL7921019877",
                "operator": "Polskie Stowarzyszenie Na Rzecz Os\u00f3b Z Niepe\u0142nosprawno\u015bci\u0105 Intelektualn\u0105 Ko\u0142o W Jaros\u0142awiu",
                "operator:type": "ngo",
                "amenity": "school"
            }
        },
        {
            "id": 15842,
            "type": "Feature",
            "geometry": {
                "type": "Point",
                "coordinates": [
                    22.683,
                    50.01686
                ]
            },
            "properties": {
                "ref:rspo": 15842,
                "official_name": "Zesp\u00f3\u0142 Szk\u00f3\u0142 Ekonomicznych I Og\u00f3lnokszta\u0142c\u0105cych im. Marii D\u0105browskiej w Jaros\u0142awiu",
                "name": "Zesp\u00f3\u0142 Szk\u00f3\u0142 Ekonomicznych I Og\u00f3lnokszta\u0142c\u0105cych",
                "addr:postcode": "37-500",
                "addr:city": "Jaros\u0142aw",
                "addr:street": "Plac Mickiewicza",
                "addr:housenumber": "13",
                "addr:teryt:simc": 972192,
                "addr:teryt:sym_ul": 41182,
                "phone": "+48 166212311",
                "email": "zsejar@zsejar.internetdsl.pl",
                "website": "http:\/\/www.ekonomikjaroslaw.pl",
                "ref:regon": "650956169",
                "ref:vatin": "PL7921881967",
                "operator": "Powiat Jaros\u0142awski",
                "operator:type": "government",
                "landuse": "education",
                "fixme": "amenity=school, amenity=college albo landuse=education w zale\u017cno\u015bci od tego, jakie plac\u00f3wki wchodz\u0105 w sk\u0142ad zespo\u0142u. Sprawd\u017a, kiedy stosowa\u0107 amenity=* a kiedy landuse=education.",
                "note": "Children RSPO: 18066;18067;18069"
            }
        },
        {
            "id": 18066,
            "type": "Feature",
            "geometry": {
                "type": "Point",
                "coordinates": [
                    22.683,
                    50.01683
                ]
            },
            "properties": {
                "isced:level": "3",
                "ref:rspo": 18066,
                "official_name": "Technikum Nr 3 w Jaros\u0142awiu",
                "name": "Technikum Nr 3 w Jaros\u0142awiu",
                "addr:postcode": "37-500",
                "addr:city": "Jaros\u0142aw",
                "addr:street": "Plac Mickiewicza",
                "addr:housenumber": "13",
                "addr:teryt:simc": 972192,
                "addr:teryt:sym_ul": 41182,
                "phone": "+48 166212311",
                "email": "zsejar@zsejar.internetdsl.pl",
                "website": "http:\/\/www.ekonomikjaroslaw.pl",
                "ref:regon": "651499610",
                "operator": "Powiat Jaros\u0142awski",
                "operator:type": "government",
                "amenity": "school",
                "note": "Parent RSPO: 15842"
            }
        },
        {
            "id": 18067,
            "type": "Feature",
            "geometry": {
                "type": "Point",
                "coordinates": [
                    22.683,
                    50.0168
                ]
            },
            "properties": {
                "isced:level": "3",
                "ref:rspo": 18067,
                "official_name": "Bran\u017cowa Szko\u0142a I Stopnia Nr 3 w Jaros\u0142awiu",
                "name": "Bran\u017cowa Szko\u0142a I Stopnia Nr 3 w Jaros\u0142awiu",
                "addr:postcode": "37-500",
                "addr:city": "Jaros\u0142aw",
                "addr:street": "Plac Mickiewicza",
                "addr:housenumber": "13",
                "addr:teryt:simc": 972192,
                "addr:teryt:sym_ul": 41182,
                "phone": "+48 166212311",
                "email": "zsejar@zesjar.internetdsl.pl",
                "website": "http:\/\/www.ekonomikjaroslaw.pl",
                "ref:regon": "651499596",
                "operator": "Powiat Jaros\u0142awski",
                "operator:type": "government",
                "amenity": "school",
                "note": "Parent RSPO: 15842"
            }
        },
        {
            "id": 18069,
            "type": "Feature",
            "geometry": {
                "type": "Point",
                "coordinates": [
                    22.683,
                    50.01677
                ]
            },
            "properties": {
                "isced:level": "3",
                "ref:rspo": 18069,
                "official_name": "Viii Liceum Og\u00f3lnokszta\u0142c\u0105ce w Jaros\u0142awiu",
                "name": "Viii Liceum Og\u00f3lnokszta\u0142c\u0105ce w Jaros\u0142awiu",
                "addr:postcode": "37-500",
                "addr:city": "Jaros\u0142aw",
                "addr:street": "Plac Mickiewicza",
                "addr:housenumber": "13",
                "addr:teryt:simc": 972192,
                "addr:teryt:sym_ul": 41182,
                "phone": "+48 166212311",
                "email": "zsejar@zsejar.internetdsl.pl",
                "website": "http:\/\/www.ekonomikjaroslaw.pl",
                "ref:regon": "180467907",
                "operator": "Powiat Jaros\u0142awski",
                "operator:type": "government",
                "amenity": "school",
                "note": "Parent RSPO: 15842"
            }
        },
        {
            "id": 15841,
            "type": "Feature",
            "geometry": {
                "type": "Point",
                "coordinates": [
                    22.67903,
                    50.0168899
                ]
            },
            "properties": {
                "ref:rspo": 15841,
                "official_name": "Zesp\u00f3\u0142 Szk\u00f3\u0142 Drogowo-Geodezyjnych I Licealnych im. Augusta Witkowskiego w Jaros\u0142awiu",
                "name": "Zesp\u00f3\u0142 Szk\u00f3\u0142 Drogowo-Geodezyjnych I Licealnych",
                "addr:postcode": "37-500",
                "addr:city": "Jaros\u0142aw",
                "addr:street": "\u015awi\u0119tego Ducha",
                "addr:housenumber": "1",
                "addr:teryt:simc": 972192,
                "addr:teryt:sym_ul": 31191,
                "phone": "+48 166213282",
                "email": "sekretariat@tdgjar.edu.pl",
                "website": "http:\/\/www.tdgjar.edu.pl",
                "ref:regon": "650960627",
                "ref:vatin": "PL7921882553",
                "operator": "Powiat Jaros\u0142awski",
                "operator:type": "government",
                "landuse": "education",
                "fixme": "amenity=school, amenity=college albo landuse=education w zale\u017cno\u015bci od tego, jakie plac\u00f3wki wchodz\u0105 w sk\u0142ad zespo\u0142u. Sprawd\u017a, kiedy stosowa\u0107 amenity=* a kiedy landuse=education.",
                "note": "Children RSPO: 18064;18065"
            }
        },
        {
            "id": 18064,
            "type": "Feature",
            "geometry": {
                "type": "Point",
                "coordinates": [
                    22.67903,
                    50.0168599
                ]
            },
            "properties": {
                "isced:level": "3",
                "ref:rspo": 18064,
                "official_name": "Technikum Nr 6 w Jaros\u0142awiu",
                "name": "Technikum Nr 6 w Jaros\u0142awiu",
                "addr:postcode": "37-500",
                "addr:city": "Jaros\u0142aw",
                "addr:street": "\u015awi\u0119tego Ducha",
                "addr:housenumber": "1",
                "addr:teryt:simc": 972192,
                "addr:teryt:sym_ul": 31191,
                "phone": "+48 166213282",
                "email": "sekretariat@tdgjar.edu.pl",
                "website": "http:\/\/www.tdgjar.edu.pl",
                "ref:regon": "651502708",
                "operator": "Powiat Jaros\u0142awski",
                "operator:type": "government",
                "amenity": "school",
                "note": "Parent RSPO: 15841"
            }
        },
        {
            "id": 18065,
            "type": "Feature",
            "geometry": {
                "type": "Point",
                "coordinates": [
                    22.67903,
                    50.016829900000005
                ]
            },
            "properties": {
                "isced:level": "3",
                "ref:rspo": 18065,
                "official_name": "Ii Liceum Og\u00f3lnokszta\u0142c\u0105ce w Jaros\u0142awiu",
                "name": "Ii Liceum Og\u00f3lnokszta\u0142c\u0105ce w Jaros\u0142awiu",
                "addr:postcode": "37-500",
                "addr:city": "Jaros\u0142aw",
                "addr:street": "\u015awi\u0119tego Ducha",
                "addr:housenumber": "1",
                "addr:teryt:simc": 972192,
                "addr:teryt:sym_ul": 31191,
                "phone": "+48 166213282",
                "email": "sekretariat@tdgjar.edu.pl",
                "website": "http:\/\/www.tdgjar.edu.pl",
                "ref:regon": "651502690",
                "operator": "Powiat Jaros\u0142awski",
                "operator:type": "government",
                "amenity": "school",
                "note": "Parent RSPO: 15841"
            }
        },
        {
            "id": 15845,
            "type": "Feature",
            "geometry": {
                "type": "Point",
                "coordinates": [
                    22.67903,
                    50.01689
                ]
            },
            "properties": {
                "ref:rspo": 15845,
                "official_name": "Zesp\u00f3\u0142 Szk\u00f3\u0142 Technicznych I Og\u00f3lnokszta\u0142c\u0105cych w Jaros\u0142awiu",
                "name": "Zesp\u00f3\u0142 Szk\u00f3\u0142 Technicznych I Og\u00f3lnokszta\u0142c\u0105cych w Jaros\u0142awiu",
                "addr:postcode": "37-500",
                "addr:city": "Jaros\u0142aw",
                "addr:street": "\u015awi\u0119tego Ducha",
                "addr:housenumber": "1A",
                "addr:teryt:simc": 972192,
                "addr:teryt:sym_ul": 31191,
                "phone": "+48 166216524",
                "email": "szkola@zstiojar.edu.pl",
                "website": "http:\/\/www.zstiojar.edu.pl",
                "ref:regon": "000180835",
                "ref:vatin": "PL7921881950",
                "operator": "Powiat Jaros\u0142awski",
                "operator:type": "government",
                "landuse": "education",
                "fixme": "amenity=school, amenity=college albo landuse=education w zale\u017cno\u015bci od tego, jakie plac\u00f3wki wchodz\u0105 w sk\u0142ad zespo\u0142u. Sprawd\u017a, kiedy stosowa\u0107 amenity=* a kiedy landuse=education.",
                "note": "Children RSPO: 18143;18144"
            }
        },
        {
            "id": 18143,
            "type": "Feature",
            "geometry": {
                "type": "Point",
                "coordinates": [
                    22.67903,
                    50.016859999999994
                ]
            },
            "properties": {
                "isced:level": "3",
                "ref:rspo": 18143,
                "official_name": "Technikum Nr 2 im. Stefana Banacha w Jaros\u0142awiu",
                "name": "Technikum Nr 2",
                "addr:postcode": "37-500",
                "addr:city": "Jaros\u0142aw",
                "addr:street": "\u015awi\u0119tego Ducha",
                "addr:housenumber": "1A",
                "addr:teryt:simc": 972192,
                "addr:teryt:sym_ul": 31191,
                "phone": "+48 166216524",
                "email": "szkola@zstiojar.edu.pl",
                "website": "http:\/\/www.zstiojar.edu.pl",
                "ref:regon": "651499544",
                "ref:vatin": "PL7921881950",
                "operator": "Powiat Jaros\u0142awski",
                "operator:type": "government",
                "amenity": "school",
                "note": "Parent RSPO: 15845"
            }
        },
        {
            "id": 18144,
            "type": "Feature",
            "geometry": {
                "type": "Point",
                "coordinates": [
                    22.67903,
                    50.01683
                ]
            },
            "properties": {
                "isced:level": "3",
                "ref:rspo": 18144,
                "official_name": "Bran\u017cowa Szko\u0142a I Stopnia Nr 4 im. Stefana Banacha w Jaros\u0142awiu",
                "name": "Bran\u017cowa Szko\u0142a I Stopnia Nr 4",
                "addr:postcode": "37-500",
                "addr:city": "Jaros\u0142aw",
                "addr:street": "\u015awi\u0119tego Ducha",
                "addr:housenumber": "1A",
                "addr:teryt:simc": 972192,
                "addr:teryt:sym_ul": 31191,
                "phone": "+48 166216524",
                "email": "szkola@zstiojar.edu.pl",
                "website": "http:\/\/www.zstiojar.edu.pl",
                "ref:regon": "651499538",
                "ref:vatin": "PL7921881950",
                "operator": "Powiat Jaros\u0142awski",
                "operator:type": "government",
                "amenity": "school",
                "note": "Parent RSPO: 15845"
            }
        },
        {
            "id": 15844,
            "type": "Feature",
            "geometry": {
                "type": "Point",
                "coordinates": [
                    22.67735,
                    50.01703
                ]
            },
            "properties": {
                "ref:rspo": 15844,
                "official_name": "Zesp\u00f3\u0142 Szk\u00f3\u0142 Spo\u017cywczych, Chemicznych I Og\u00f3lnokszta\u0142c\u0105cych im. Marii-Curie Sk\u0142odowskiej w Jaros\u0142awiu",
                "name": "Zesp\u00f3\u0142 Szk\u00f3\u0142 Spo\u017cywczych, Chemicznych I Og\u00f3lnokszta\u0142c\u0105cych",
                "addr:postcode": "37-500",
                "addr:city": "Jaros\u0142aw",
                "addr:street": "Ignacego Kraszewskiego",
                "addr:housenumber": "3",
                "addr:teryt:simc": 972192,
                "addr:teryt:sym_ul": 9870,
                "phone": "+48 166216414",
                "email": "zsschiosekretariat@interia.eu",
                "website": "http:\/\/www.zsschiojaroslaw.edu.pl",
                "ref:regon": "650956175",
                "ref:vatin": "PL7921878899",
                "operator": "Powiat Jaros\u0142awski",
                "operator:type": "government",
                "landuse": "education",
                "fixme": "amenity=school, amenity=college albo landuse=education w zale\u017cno\u015bci od tego, jakie plac\u00f3wki wchodz\u0105 w sk\u0142ad zespo\u0142u. Sprawd\u017a, kiedy stosowa\u0107 amenity=* a kiedy landuse=education.",
                "note": "Children RSPO: 18073;18074;18075"
            }
        },
        {
            "id": 18073,
            "type": "Feature",
            "geometry": {
                "type": "Point",
                "coordinates": [
                    22.67735,
                    50.016999999999996
                ]
            },
            "properties": {
                "isced:level": "3",
                "ref:rspo": 18073,
                "official_name": "Bran\u017cowa Szko\u0142a I Stopnia Nr 2 w Jaros\u0142awiu",
                "name": "Bran\u017cowa Szko\u0142a I Stopnia Nr 2 w Jaros\u0142awiu",
                "addr:postcode": "37-500",
                "addr:city": "Jaros\u0142aw",
                "addr:street": "Ignacego Kraszewskiego",
                "addr:housenumber": "3",
                "addr:teryt:simc": 972192,
                "addr:teryt:sym_ul": 9870,
                "phone": "+48 166216414",
                "email": "zsschiosekretariat@interia.eu",
                "website": "http:\/\/zsschiojaroslaw.edu.pl",
                "ref:regon": "651499834",
                "ref:vatin": "PL7921878899",
                "operator": "Powiat Jaros\u0142awski",
                "operator:type": "government",
                "amenity": "school",
                "note": "Parent RSPO: 15844"
            }
        },
        {
            "id": 18074,
            "type": "Feature",
            "geometry": {
                "type": "Point",
                "coordinates": [
                    22.67735,
                    50.01697
                ]
            },
            "properties": {
                "isced:level": "3",
                "ref:rspo": 18074,
                "official_name": "Vii Liceum Og\u00f3lnokszta\u0142c\u0105ce w Jaros\u0142awiu",
                "name": "Vii Liceum Og\u00f3lnokszta\u0142c\u0105ce w Jaros\u0142awiu",
                "addr:postcode": "37-500",
                "addr:city": "Jaros\u0142aw",
                "addr:street": "Ignacego Kraszewskiego",
                "addr:housenumber": "3",
                "addr:teryt:simc": 972192,
                "addr:teryt:sym_ul": 9870,
                "phone": "+48 166216414",
                "email": "zsschiosekretariat@interia.eu",
                "website": "http:\/\/www.zsschiojaroslaw.edu.pl",
                "ref:regon": "651499840",
                "ref:vatin": "PL7921878899",
                "operator": "Powiat Jaros\u0142awski",
                "operator:type": "government",
                "amenity": "school",
                "note": "Parent RSPO: 15844"
            }
        },
        {
            "id": 18075,
            "type": "Feature",
            "geometry": {
                "type": "Point",
                "coordinates": [
                    22.67735,
                    50.01694
                ]
            },
            "properties": {
                "isced:level": "3",
                "ref:rspo": 18075,
                "official_name": "Technikum Nr 1 w Jaros\u0142awiu",
                "name": "Technikum Nr 1 w Jaros\u0142awiu",
                "addr:postcode": "37-500",
                "addr:city": "Jaros\u0142aw",
                "addr:street": "Ignacego Kraszewskiego",
                "addr:housenumber": "3",
                "addr:teryt:simc": 972192,
                "addr:teryt:sym_ul": 9870,
                "phone": "+48 166216414",
                "email": "zsschiosekretariat@interia.eu",
                "website": "http:\/\/www.zsschiojaroslaw.edu.pl",
                "ref:regon": "651499857",
                "ref:vatin": "PL7921878899",
                "operator": "Powiat Jaros\u0142awski",
                "operator:type": "government",
                "amenity": "school",
                "note": "Parent RSPO: 15844"
            }
        },
        {
            "id": 18728,
            "type": "Feature",
            "geometry": {
                "type": "Point",
                "coordinates": [
                    22.68071,
                    50.01739
                ]
            },
            "properties": {
                "ref:rspo": 18728,
                "official_name": "Zak\u0142ad Doskonalenia Zawodowego w Rzeszowie O\u015brodek Kszta\u0142cenia Zawodowego w Jaros\u0142awiu",
                "name": "Zak\u0142ad Doskonalenia Zawodowego w Rzeszowie O\u015brodek Kszta\u0142cenia Zawodowego w Jaros\u0142awiu",
                "addr:postcode": "37-500",
                "addr:city": "Jaros\u0142aw",
                "addr:street": "\u015awi\u0119tego Ducha",
                "addr:housenumber": "8",
                "addr:teryt:simc": 972192,
                "addr:teryt:sym_ul": 31191,
                "phone": "+48 692445014",
                "email": "jaroslaw@zdz.rzeszow.pl",
                "website": "http:\/\/www.zdz.rzeszow.pl",
                "ref:regon": "180891580",
                "ref:vatin": "PL8130268194",
                "operator": "Zak\u0142ad Doskonalenia Zawodowego W Rzeszowie",
                "operator:type": "ngo",
                "fixme": "w zale\u017cno\u015bci od przedmiotu dzia\u0142alno\u015bci (np. amenity=training + training=*, amenity=dancing_school, amenity=language_school, amenity=music_school)"
            }
        },
        {
            "id": 15862,
            "type": "Feature",
            "geometry": {
                "type": "Point",
                "coordinates": [
                    22.68258,
                    50.0175
                ]
            },
            "properties": {
                "isced:level": "4",
                "ref:rspo": 15862,
                "official_name": "Policealna Szko\u0142a w Jaros\u0142awiu",
                "name": "Policealna Szko\u0142a w Jaros\u0142awiu",
                "addr:postcode": "37-500",
                "addr:city": "Jaros\u0142aw",
                "addr:street": "Grodzka",
                "addr:housenumber": "7",
                "addr:teryt:simc": 972192,
                "addr:teryt:sym_ul": 6163,
                "phone": "+48 166234986",
                "email": "jaroslaw@medyk.net.pl",
                "website": "http:\/\/www.medyk.net.pl",
                "ref:regon": "180888891",
                "operator": "Medyk Szko\u0142a Sp\u00f3\u0142ka Z Ograniczon\u0105 Odpowiedzialno\u015bci\u0105",
                "operator:type": "private",
                "amenity": "college"
            }
        },
        {
            "id": 15872,
            "type": "Feature",
            "geometry": {
                "type": "Point",
                "coordinates": [
                    22.68258,
                    50.017469999999996
                ]
            },
            "properties": {
                "isced:level": "3",
                "ref:rspo": 15872,
                "official_name": "Liceum Og\u00f3lnokszta\u0142c\u0105ce dla Doros\u0142ych w Jaros\u0142awiu",
                "name": "Liceum Og\u00f3lnokszta\u0142c\u0105ce dla Doros\u0142ych w Jaros\u0142awiu",
                "addr:postcode": "37-500",
                "addr:city": "Jaros\u0142aw",
                "addr:street": "Grodzka",
                "addr:housenumber": "7",
                "addr:teryt:simc": 972192,
                "addr:teryt:sym_ul": 6163,
                "phone": "+48 166234986",
                "email": "jaroslaw@medyk.net.pl",
                "website": "http:\/\/www.medyk.net.pl",
                "ref:regon": "180889063",
                "operator": "Medyk Szko\u0142a Sp\u00f3\u0142ka Z Ograniczon\u0105 Odpowiedzialno\u015bci\u0105",
                "operator:type": "private",
                "amenity": "school"
            }
        },
        {
            "id": 20038,
            "type": "Feature",
            "geometry": {
                "type": "Point",
                "coordinates": [
                    22.68258,
                    50.01744
                ]
            },
            "properties": {
                "ref:rspo": 20038,
                "official_name": "Akademia ,,Torus\" w Jaros\u0142awiu",
                "name": "Akademia ,,Torus\" w Jaros\u0142awiu",
                "addr:postcode": "37-500",
                "addr:city": "Jaros\u0142aw",
                "addr:street": "Grodzka",
                "addr:housenumber": "7",
                "addr:door": "3",
                "addr:teryt:simc": 972192,
                "addr:teryt:sym_ul": 6163,
                "phone": "+48 166234986",
                "email": "jaroslaw@szkola-torus.pl",
                "website": "http:\/\/www.szkola-torus.pl",
                "ref:regon": "180892214",
                "operator": "Ewa Piechowska",
                "operator:type": "private",
                "fixme": "w zale\u017cno\u015bci od przedmiotu dzia\u0142alno\u015bci (np. amenity=training + training=*, amenity=dancing_school, amenity=language_school, amenity=music_school) albo amenity=school, amenity=college, albo landuse=education w zale\u017cno\u015bci od tego, jakie plac\u00f3wki wchodz\u0105 w sk\u0142ad zespo\u0142u. Sprawd\u017a, kiedy stosowa\u0107 amenity=* a kiedy landuse=education."
            }
        },
        {
            "id": 104217,
            "type": "Feature",
            "geometry": {
                "type": "Point",
                "coordinates": [
                    22.68258,
                    50.01741
                ]
            },
            "properties": {
                "ref:rspo": 104217,
                "official_name": "O\u015brodek Doskonalenia Nauczycieli \"Torus\"",
                "name": "O\u015brodek Doskonalenia Nauczycieli \"Torus\"",
                "addr:postcode": "37-500",
                "addr:city": "Jaros\u0142aw",
                "addr:street": "Grodzka",
                "addr:housenumber": "7",
                "addr:door": "3",
                "addr:teryt:simc": 972192,
                "addr:teryt:sym_ul": 6163,
                "phone": "+48 166234986",
                "ref:regon": "180921714",
                "ref:vatin": "PL8652248687",
                "operator": "Dane Do Uzupe\u0142nienia",
                "operator:type": "private",
                "amenity": "training"
            }
        },
        {
            "id": 128794,
            "type": "Feature",
            "geometry": {
                "type": "Point",
                "coordinates": [
                    22.68258,
                    50.017379999999996
                ]
            },
            "properties": {
                "isced:level": "4",
                "ref:rspo": 128794,
                "official_name": "Medyczna Szko\u0142a Policealna w Jaros\u0142awiu",
                "name": "Medyczna Szko\u0142a Policealna w Jaros\u0142awiu",
                "addr:postcode": "37-500",
                "addr:city": "Jaros\u0142aw",
                "addr:street": "Grodzka",
                "addr:housenumber": "7",
                "addr:teryt:simc": 972192,
                "addr:teryt:sym_ul": 6163,
                "phone": "+48 166234986",
                "email": "jaroslaw@medyk.net.pl",
                "website": "http:\/\/www.medyk.net.pl",
                "ref:regon": "362390839",
                "operator": "Medyk Szko\u0142a Sp\u00f3\u0142ka Z Ograniczon\u0105 Odpowiedzialno\u015bci\u0105",
                "operator:type": "private",
                "amenity": "college"
            }
        },
        {
            "id": 15839,
            "type": "Feature",
            "geometry": {
                "type": "Point",
                "coordinates": [
                    22.68461,
                    50.01762
                ]
            },
            "properties": {
                "ref:rspo": 15839,
                "official_name": "Powiatowe Ognisko Baletowe im. Lidii Nartowskiej w Jaros\u0142awiu",
                "name": "Powiatowe Ognisko Baletowe",
                "addr:postcode": "37-500",
                "addr:city": "Jaros\u0142aw",
                "addr:street": "Franciszka\u0144ska",
                "addr:housenumber": "2",
                "addr:teryt:simc": 972192,
                "addr:teryt:sym_ul": 5151,
                "phone": "+48 166214419",
                "email": "ogniskobaletowe@op.pl",
                "ref:regon": "650960656",
                "ref:vatin": "PL7921882010",
                "operator": "Powiat Jaros\u0142awski",
                "operator:type": "government",
                "fixme": "w zale\u017cno\u015bci od przedmiotu dzia\u0142alno\u015bci (np. amenity=community_centre + community_centre:for=child;juvenile, amenity=training + training=*, amenity=dancing_school, amenity=music_school),"
            }
        },
        {
            "id": 132205,
            "type": "Feature",
            "geometry": {
                "type": "Point",
                "coordinates": [
                    22.68137,
                    50.01791
                ]
            },
            "properties": {
                "ref:rspo": 132205,
                "official_name": "Niepubliczne Profilowane Przedszkole dla Dzieci Z Autyzmem Dobry Pocz\u0105tek",
                "name": "Niepubliczne Profilowane Przedszkole dla Dzieci Z Autyzmem Dobry Pocz\u0105tek",
                "addr:postcode": "37-500",
                "addr:city": "Jaros\u0142aw",
                "addr:street": "W\u0119gierska",
                "addr:housenumber": "4",
                "addr:teryt:simc": 972192,
                "addr:teryt:sym_ul": 23923,
                "phone": "+48 793715112",
                "email": "profilowaneprzedszkole@wp.pl",
                "ref:regon": "365501096",
                "operator": "Anna Kie\u0142bicka-Cierpisz",
                "operator:type": "private",
                "amenity": "kindergarten"
            }
        },
        {
            "id": 15860,
            "type": "Feature",
            "geometry": {
                "type": "Point",
                "coordinates": [
                    22.6653081,
                    50.019508
                ]
            },
            "properties": {
                "ref:rspo": 15860,
                "official_name": "O\u015brodek Rehabilitacyjno-Edukacyjno-Wychowawczy im. Krystyny Rajtar w Jaros\u0142awiu",
                "name": "O\u015brodek Rehabilitacyjno-Edukacyjno-Wychowawczy",
                "addr:postcode": "37-500",
                "addr:city": "Jaros\u0142aw",
                "addr:street": "Osiedle Wincentego Witosa",
                "addr:housenumber": "18",
                "addr:teryt:simc": 972192,
                "addr:teryt:sym_ul": 45848,
                "phone": "+48 166271487",
                "email": "orew.witosa@psoni-jaroslaw.org.pl",
                "website": "http:\/\/www.psoni-jaroslaw.org.pl",
                "ref:regon": "180890103",
                "ref:vatin": "PL7921019877",
                "operator": "Polskie Stowarzyszenie Na Rzecz Os\u00f3b Z Niepe\u0142nosprawno\u015bci\u0105 Intelektualn\u0105 Ko\u0142o W Jaros\u0142awiu",
                "operator:type": "ngo",
                "amenity": "school"
            }
        },
        {
            "id": 20343,
            "type": "Feature",
            "geometry": {
                "type": "Point",
                "coordinates": [
                    22.68199,
                    50.0195099
                ]
            },
            "properties": {
                "isced:level": "1;2",
                "ref:rspo": 20343,
                "official_name": "Szko\u0142a Podstawowa Nr 6 im. Ks. Piotra Skargi",
                "name": "Szko\u0142a Podstawowa Nr 6",
                "addr:postcode": "37-500",
                "addr:city": "Jaros\u0142aw",
                "addr:street": "Spytka z Jaros\u0142awia",
                "addr:housenumber": "2",
                "addr:teryt:simc": 972192,
                "addr:teryt:sym_ul": 20727,
                "phone": "+48 166213494",
                "email": "sekretariat@sp6.jaroslaw.pl",
                "website": "http:\/\/www.sp6.jaroslaw.pl",
                "ref:regon": "001056787",
                "ref:vatin": "PL7921045018",
                "operator": "Gmina Miejska Jaros\u0142aw",
                "operator:type": "government",
                "amenity": "school"
            }
        },
        {
            "id": 20710,
            "type": "Feature",
            "geometry": {
                "type": "Point",
                "coordinates": [
                    22.6832299,
                    50.02012
                ]
            },
            "properties": {
                "ref:rspo": 20710,
                "official_name": "Zesp\u00f3\u0142 Szk\u00f3\u0142 Plastycznych im. Stanis\u0142awa Wyspia\u0144skiego w Jaros\u0142awiu",
                "name": "Zesp\u00f3\u0142 Szk\u00f3\u0142 Plastycznych",
                "addr:postcode": "37-500",
                "addr:city": "Jaros\u0142aw",
                "addr:street": "Jezuicka",
                "addr:housenumber": "1",
                "addr:teryt:simc": 972192,
                "addr:teryt:sym_ul": 7542,
                "phone": "+48 166212418",
                "email": "zsp@plastykjaroslaw.pl",
                "website": "http:\/\/plastykjaroslaw.pl",
                "ref:regon": "651498540",
                "operator": "Ministerstwo Kultury I Dziedzictwa Narodowego",
                "operator:type": "public",
                "landuse": "education",
                "fixme": "amenity=school, amenity=college albo landuse=education w zale\u017cno\u015bci od tego, jakie plac\u00f3wki wchodz\u0105 w sk\u0142ad zespo\u0142u. Sprawd\u017a, kiedy stosowa\u0107 amenity=* a kiedy landuse=education.",
                "note": "Children RSPO: 103598;103770"
            }
        },
        {
            "id": 103598,
            "type": "Feature",
            "geometry": {
                "type": "Point",
                "coordinates": [
                    22.6832299,
                    50.020089999999996
                ]
            },
            "properties": {
                "isced:level": "3",
                "ref:rspo": 103598,
                "official_name": "Pa\u0144stwowe Liceum Sztuk Plastycznych im. Stanis\u0142awa Wyspia\u0144skiego w Jaros\u0142awiu",
                "name": "Pa\u0144stwowe Liceum Sztuk Plastycznych",
                "addr:postcode": "37-500",
                "addr:city": "Jaros\u0142aw",
                "addr:street": "Jezuicka",
                "addr:housenumber": "1",
                "addr:teryt:simc": 972192,
                "addr:teryt:sym_ul": 7542,
                "phone": "+48 166212418",
                "email": "zsp@plastykjaroslaw.pl",
                "website": "http:\/\/plastykjaroslaw.pl",
                "ref:regon": "651498562",
                "operator": "Ministerstwo Kultury I Dziedzictwa Narodowego",
                "operator:type": "public",
                "amenity": "school",
                "note": "Parent RSPO: 20710"
            }
        },
        {
            "id": 103770,
            "type": "Feature",
            "geometry": {
                "type": "Point",
                "coordinates": [
                    22.6832299,
                    50.02006
                ]
            },
            "properties": {
                "ref:rspo": 103770,
                "official_name": "Og\u00f3lnokszta\u0142c\u0105ca Szko\u0142a Sztuk Pi\u0119knych im. Stanis\u0142awa Wyspia\u0144skiego w Jaros\u0142awiu",
                "name": "Og\u00f3lnokszta\u0142c\u0105ca Szko\u0142a Sztuk Pi\u0119knych",
                "addr:postcode": "37-500",
                "addr:city": "Jaros\u0142aw",
                "addr:street": "Jezuicka",
                "addr:housenumber": "1",
                "addr:teryt:simc": 972192,
                "addr:teryt:sym_ul": 7542,
                "phone": "+48 166212418",
                "email": "zsp@plastykjaroslaw.pl",
                "website": "http:\/\/plastykjaroslaw.pl",
                "ref:regon": "000277440",
                "operator": "Ministerstwo Kultury I Dziedzictwa Narodowego",
                "operator:type": "public",
                "amenity": "school",
                "note": "Parent RSPO: 20710"
            }
        },
        {
            "id": 128407,
            "type": "Feature",
            "geometry": {
                "type": "Point",
                "coordinates": [
                    22.66735,
                    50.02023
                ]
            },
            "properties": {
                "ref:rspo": 128407,
                "official_name": "Pedagogiczna Biblioteka Wojew\u00f3dzka im.j.g.pawlikowskiego w Przemy\u015blu Filia w Jaros\u0142awiu",
                "name": "Pedagogiczna Biblioteka Wojew\u00f3dzka im.j.g.pawlikowskiego w Przemy\u015blu Filia w Jaros\u0142awiu",
                "addr:postcode": "37-500",
                "addr:city": "Jaros\u0142aw",
                "addr:street": "Osiedle Armii Krajowej",
                "addr:housenumber": "21",
                "addr:teryt:simc": 972192,
                "addr:teryt:sym_ul": 45852,
                "phone": "+48 166271260",
                "email": "jaroslaw@pbw.org.pl",
                "ref:regon": "105730900",
                "operator": "Wojew\u00f3dztwo Podkarpackie",
                "operator:type": "government",
                "amenity": "library",
                "note": "Parent RSPO: 92386"
            }
        },
        {
            "id": 20344,
            "type": "Feature",
            "geometry": {
                "type": "Point",
                "coordinates": [
                    22.67321,
                    50.0204499
                ]
            },
            "properties": {
                "isced:level": "1;2",
                "ref:rspo": 20344,
                "official_name": "Szko\u0142a Podstawowa Nr 4 im. Stefana \u017beromskiego",
                "name": "Szko\u0142a Podstawowa Nr 4",
                "addr:postcode": "37-500",
                "addr:city": "Jaros\u0142aw",
                "addr:street": "Stefana \u017beromskiego",
                "addr:housenumber": "4",
                "addr:teryt:simc": 972192,
                "addr:teryt:sym_ul": 26464,
                "phone": "+48 166211248",
                "email": "sekretariat@sp4.jaroslaw.pl",
                "website": "http:\/\/www.sp4.jaroslaw.pl",
                "ref:regon": "650166214",
                "ref:vatin": "PL7921019216",
                "operator": "Gmina Miejska Jaros\u0142aw",
                "operator:type": "government",
                "amenity": "school"
            }
        },
        {
            "id": 20333,
            "type": "Feature",
            "geometry": {
                "type": "Point",
                "coordinates": [
                    22.67223,
                    50.02083
                ]
            },
            "properties": {
                "ref:rspo": 20333,
                "official_name": "Miejskie Przedszkole Nr 1",
                "name": "Miejskie Przedszkole Nr 1",
                "addr:postcode": "37-500",
                "addr:city": "Jaros\u0142aw",
                "addr:street": "Osiedle Armii Krajowej",
                "addr:housenumber": "9",
                "addr:teryt:simc": 972192,
                "addr:teryt:sym_ul": 45852,
                "phone": "+48 166271366",
                "email": "sekretariat@mp1.jaroslaw.pl",
                "ref:regon": "650155392",
                "ref:vatin": "PL7922061568",
                "operator": "Gmina Miejska Jaros\u0142aw",
                "operator:type": "government",
                "amenity": "kindergarten"
            }
        },
        {
            "id": 265145,
            "type": "Feature",
            "geometry": {
                "type": "Point",
                "coordinates": [
                    22.6813499,
                    50.02117
                ]
            },
            "properties": {
                "isced:level": "3",
                "ref:rspo": 265145,
                "official_name": "Publiczne Katolickie Liceum Og\u00f3lnokszta\u0142c\u0105ce im. Anny Jenke w Jaros\u0142awiu",
                "name": "Publiczne Katolickie Liceum Og\u00f3lnokszta\u0142c\u0105ce",
                "addr:postcode": "37-500",
                "addr:city": "Jaros\u0142aw",
                "addr:street": "Plac Skargi",
                "addr:housenumber": "1",
                "addr:teryt:simc": 972192,
                "addr:teryt:sym_ul": 45849,
                "phone": "+48 733233133",
                "email": "szkola@katolik-jaroslaw.pl",
                "website": "http:\/\/www.katolik-jaroslaw.pl",
                "ref:regon": "368637933",
                "ref:vatin": "PL7922302291",
                "operator": "Parafia Rzym.-Kat. Pw. Bo\u017cego Cia\u0142a",
                "operator:type": "religious",
                "amenity": "school"
            }
        },
        {
            "id": 20348,
            "type": "Feature",
            "geometry": {
                "type": "Point",
                "coordinates": [
                    22.67515,
                    50.02122
                ]
            },
            "properties": {
                "isced:level": "1;2",
                "ref:rspo": 20348,
                "official_name": "Szko\u0142a Podstawowa Nr 11 Z Oddzia\u0142ami Integracyjnymi im. Adama Mickiewicza",
                "name": "Szko\u0142a Podstawowa Nr 11 Z Oddzia\u0142ami Integracyjnymi",
                "addr:postcode": "37-500",
                "addr:city": "Jaros\u0142aw",
                "addr:street": "Ignacego Kraszewskiego",
                "addr:housenumber": "39",
                "addr:teryt:simc": 972192,
                "addr:teryt:sym_ul": 9870,
                "phone": "+48 166212443",
                "email": "sekretariat@sp11.jaroslaw.pl",
                "website": "http:\/\/www.sp11jaroslaw.pl",
                "ref:regon": "001056824",
                "ref:vatin": "PL7921034569",
                "operator": "Gmina Miejska Jaros\u0142aw",
                "operator:type": "government",
                "amenity": "school"
            }
        },
        {
            "id": 21717,
            "type": "Feature",
            "geometry": {
                "type": "Point",
                "coordinates": [
                    22.67515,
                    50.02119
                ]
            },
            "properties": {
                "isced:level": "4",
                "ref:rspo": 21717,
                "official_name": "Policealna Szko\u0142a Edukacji Innowacyjnej w Jaros\u0142awiu",
                "name": "Policealna Szko\u0142a Edukacji Innowacyjnej w Jaros\u0142awiu",
                "addr:postcode": "37-500",
                "addr:city": "Jaros\u0142aw",
                "addr:street": "Ignacego Kraszewskiego",
                "addr:housenumber": "39",
                "addr:teryt:simc": 972192,
                "addr:teryt:sym_ul": 9870,
                "phone": "+48 501322989",
                "email": "jaroslaw@sei.ipt.pl",
                "website": "http:\/\/www.sei.edu.pl\/miasta\/jaroslaw",
                "ref:regon": "180893366",
                "ref:vatin": "PL7290109624",
                "operator": "Instytut Post\u0119powania Tw\u00f3rczego Sp\u00f3\u0142ka Z Ograniczon\u0105 Odpowiedzialno\u015bci\u0105",
                "operator:type": "private",
                "amenity": "college"
            }
        },
        {
            "id": 119902,
            "type": "Feature",
            "geometry": {
                "type": "Point",
                "coordinates": [
                    22.67515,
                    50.02116
                ]
            },
            "properties": {
                "isced:level": "4",
                "ref:rspo": 119902,
                "official_name": "Policealna Szko\u0142a Medyczna Edukacji Innowacyjnej w Jaros\u0142awiu",
                "name": "Policealna Szko\u0142a Medyczna Edukacji Innowacyjnej w Jaros\u0142awiu",
                "addr:postcode": "37-500",
                "addr:city": "Jaros\u0142aw",
                "addr:street": "Ignacego Kraszewskiego",
                "addr:housenumber": "39",
                "addr:teryt:simc": 972192,
                "addr:teryt:sym_ul": 9870,
                "phone": "+48 501322989",
                "email": "jaroslaw@sei.ipt.pl",
                "website": "http:\/\/www.sei.edu.pl",
                "ref:regon": "181022165",
                "operator": "Instytut Post\u0119powania Tw\u00f3rczego Sp\u00f3\u0142ka Z Ograniczon\u0105 Odpowiedzialno\u015bci\u0105",
                "operator:type": "private",
                "amenity": "college"
            }
        },
        {
            "id": 120715,
            "type": "Feature",
            "geometry": {
                "type": "Point",
                "coordinates": [
                    22.67515,
                    50.02113
                ]
            },
            "properties": {
                "isced:level": "4",
                "ref:rspo": 120715,
                "official_name": "Policealna Szko\u0142a Masa\u017cu Edukacji Innowacyjnej w Jaros\u0142awiu",
                "name": "Policealna Szko\u0142a Masa\u017cu Edukacji Innowacyjnej w Jaros\u0142awiu",
                "addr:postcode": "37-500",
                "addr:city": "Jaros\u0142aw",
                "addr:street": "Ignacego Kraszewskiego",
                "addr:housenumber": "39",
                "addr:teryt:simc": 972192,
                "addr:teryt:sym_ul": 9870,
                "phone": "+48 501322989",
                "email": "jaroslaw@sei.ipt.pl",
                "website": "http:\/\/www.sei.edu.pl",
                "ref:regon": "181036782",
                "operator": "Instytut Post\u0119powania Tw\u00f3rczego Sp\u00f3\u0142ka Z Ograniczon\u0105 Odpowiedzialno\u015bci\u0105",
                "operator:type": "private",
                "amenity": "college"
            }
        },
        {
            "id": 276261,
            "type": "Feature",
            "geometry": {
                "type": "Point",
                "coordinates": [
                    22.67942,
                    50.02202
                ]
            },
            "properties": {
                "ref:rspo": 276261,
                "official_name": "Katolickie Niepubliczne Miko\u0142ajkowe Przedszkole im. \u015aw. Jana Paw\u0142a II w Jaros\u0142awiu",
                "name": "Katolickie Niepubliczne Miko\u0142ajkowe Przedszkole",
                "addr:postcode": "37-500",
                "addr:city": "Jaros\u0142aw",
                "addr:street": "Benedykty\u0144ska",
                "addr:housenumber": "5",
                "addr:teryt:simc": 972192,
                "addr:teryt:sym_ul": 1023,
                "phone": "+48 515068130",
                "email": "sekretariat@mikolajkoweprzedszkole.pl",
                "ref:regon": "387060500",
                "ref:vatin": "PL7922310511",
                "operator": "Klasztor Si\u00f3str Benedyktynek",
                "operator:type": "religious",
                "amenity": "kindergarten"
            }
        },
        {
            "id": 20342,
            "type": "Feature",
            "geometry": {
                "type": "Point",
                "coordinates": [
                    22.67266,
                    50.02303
                ]
            },
            "properties": {
                "ref:rspo": 20342,
                "official_name": "Miejskie Przedszkole Nr 12",
                "name": "Miejskie Przedszkole Nr 12",
                "addr:postcode": "37-500",
                "addr:city": "Jaros\u0142aw",
                "addr:street": "Aleja Pu\u0142kownika Wojciecha Szczepa\u0144skiego",
                "addr:housenumber": "2",
                "addr:teryt:simc": 972192,
                "addr:teryt:sym_ul": 45847,
                "phone": "+48 166211173",
                "email": "przedszkole.12@vp.pl",
                "ref:regon": "650017810",
                "ref:vatin": "PL7922061568",
                "operator": "Gmina Miejska Jaros\u0142aw",
                "operator:type": "government",
                "amenity": "kindergarten"
            }
        },
        {
            "id": 279310,
            "type": "Feature",
            "geometry": {
                "type": "Point",
                "coordinates": [
                    22.66693,
                    50.02429
                ]
            },
            "properties": {
                "ref:rspo": 279310,
                "official_name": "Prywatne Bajkowe Przedszkole",
                "name": "Prywatne Bajkowe Przedszkole",
                "addr:postcode": "37-500",
                "addr:city": "Jaros\u0142aw",
                "addr:street": "Osiedle Osiedle Imienia Marsza\u0142ka J\u00f3zefa Pi\u0142sudskiego",
                "addr:housenumber": "23",
                "addr:door": "60",
                "addr:teryt:simc": 972192,
                "addr:teryt:sym_ul": 45860,
                "email": "bajkowe.przedszkole@onet.pl",
                "ref:regon": "521194989",
                "operator": "Bogumi\u0142a Staniszewska",
                "operator:type": "private",
                "amenity": "kindergarten"
            }
        },
        {
            "id": 44559,
            "type": "Feature",
            "geometry": {
                "type": "Point",
                "coordinates": [
                    22.66906,
                    50.0253299
                ]
            },
            "properties": {
                "ref:rspo": 44559,
                "official_name": "Przedszkole Niepubliczne \"Akademia U\u015bmiechu\"",
                "name": "Przedszkole Niepubliczne \"Akademia U\u015bmiechu\"",
                "addr:postcode": "37-500",
                "addr:city": "Jaros\u0142aw",
                "addr:street": "Kazimierza Skarbowskiego",
                "addr:housenumber": "14",
                "addr:door": "U1",
                "addr:teryt:simc": 972192,
                "addr:teryt:sym_ul": 26829,
                "phone": "+48 694356621",
                "email": "au.jaroslaw@poczta.fm",
                "ref:regon": "180899297",
                "ref:vatin": "PL7941359381",
                "operator": "El\u017cbieta Gawe\u0142",
                "operator:type": "private",
                "amenity": "kindergarten"
            }
        },
        {
            "id": 20345,
            "type": "Feature",
            "geometry": {
                "type": "Point",
                "coordinates": [
                    22.6805,
                    50.04429
                ]
            },
            "properties": {
                "isced:level": "1;2",
                "ref:rspo": 20345,
                "official_name": "Szko\u0142a Podstawowa Nr 7 im. Ks. Stanis\u0142awa Staszica",
                "name": "Szko\u0142a Podstawowa Nr 7",
                "addr:postcode": "37-500",
                "addr:city": "Jaros\u0142aw",
                "addr:street": "Dolnole\u017cajska",
                "addr:housenumber": "110",
                "addr:teryt:simc": 972192,
                "addr:teryt:sym_ul": 4050,
                "phone": "+48 166216077",
                "email": "sekretariat@sp7.jaroslaw.pl",
                "ref:regon": "001056793",
                "ref:vatin": "PL7921020082",
                "operator": "Gmina Miejska Jaros\u0142aw",
                "operator:type": "government",
                "amenity": "school"
            }
        },
        {
            "id": 20332,
            "type": "Feature",
            "geometry": {
                "type": "Point",
                "coordinates": [
                    22.6555399,
                    50.07182
                ]
            },
            "properties": {
                "isced:level": "1;2",
                "ref:rspo": 20332,
                "official_name": "Szko\u0142a Podstawowa Nr 9 im. Tadeusza Ko\u015bciuszki",
                "name": "Szko\u0142a Podstawowa Nr 9",
                "addr:postcode": "37-500",
                "addr:city": "Jaros\u0142aw",
                "addr:street": "\u0141azy Kostkowskie",
                "addr:housenumber": "14",
                "addr:teryt:simc": 972192,
                "addr:teryt:sym_ul": 11570,
                "phone": "+48 166212393",
                "email": "sekretariat@sp9.jaroslaw.pl",
                "ref:regon": "001056801",
                "ref:vatin": "PL7921963375",
                "operator": "Gmina Miejska Jaros\u0142aw",
                "operator:type": "government",
                "amenity": "school"
            }
        }
    ]
}