{
    "type": "FeatureCollection",
    "features": [
        {
            "id": 27522,
            "type": "Feature",
            "geometry": {
                "type": "Point",
                "coordinates": [
                    22.70134,
                    49.96917
                ]
            },
            "properties": {
                "isced:level": "1;2",
                "ref:rspo": 27522,
                "official_name": "Zesp\u00f3\u0142 Szkolno-Przedszkolny im.b\u0142.ks.jana Balickiego w Morawsku",
                "name": "Zesp\u00f3\u0142 Szkolno-Przedszkolny im.b\u0142.ks.jana Balickiego w Morawsku",
                "addr:postcode": "37-514",
                "addr:place": "Morawsko",
                "addr:housenumber": "203b",
                "addr:teryt:simc": 603170,
                "phone": "+48 166212752",
                "email": "sp.morawsko@interia.pl",
                "website": "http:\/\/spmorawsko.edupage.org",
                "ref:regon": "650171238",
                "ref:vatin": "PL7921958032",
                "operator": "Gmina Jaros\u0142aw",
                "operator:type": "government",
                "amenity": "school"
            }
        },
        {
            "id": 27526,
            "type": "Feature",
            "geometry": {
                "type": "Point",
                "coordinates": [
                    22.74449,
                    49.97725
                ]
            },
            "properties": {
                "isced:level": "1;2",
                "ref:rspo": 27526,
                "official_name": "Zesp\u00f3\u0142 Szkolno-Przedszkolny w Tuczempach",
                "name": "Zesp\u00f3\u0142 Szkolno-Przedszkolny w Tuczempach",
                "addr:postcode": "37-514",
                "addr:city": "Tuczempy",
                "addr:street": "Jana Paw\u0142a II",
                "addr:housenumber": "11",
                "addr:teryt:simc": 603483,
                "addr:teryt:sym_ul": 7123,
                "phone": "+48 166231279",
                "email": "sp.tuczempy@interia.pl",
                "website": "http:\/\/sp-tuczempy.edupage.org",
                "ref:regon": "650171215",
                "ref:vatin": "PL7921958055",
                "operator": "Gmina Jaros\u0142aw",
                "operator:type": "government",
                "amenity": "school"
            }
        },
        {
            "id": 27529,
            "type": "Feature",
            "geometry": {
                "type": "Point",
                "coordinates": [
                    22.74449,
                    49.977219999999996
                ]
            },
            "properties": {
                "ref:rspo": 27529,
                "official_name": "Niepubliczne Przedszkole \"Puchatek\"",
                "name": "Niepubliczne Przedszkole \"Puchatek\"",
                "addr:postcode": "37-514",
                "addr:city": "Tuczempy",
                "addr:street": "Jana Paw\u0142a II",
                "addr:housenumber": "11",
                "addr:teryt:simc": 603483,
                "addr:teryt:sym_ul": 7123,
                "phone": "+48 600354400",
                "email": "jaica@wp.pl",
                "ref:regon": "180896614",
                "operator": "Dane Do Uzupe\u0142nienia",
                "operator:type": "private",
                "amenity": "kindergarten"
            }
        },
        {
            "id": 27528,
            "type": "Feature",
            "geometry": {
                "type": "Point",
                "coordinates": [
                    22.73139,
                    49.99385
                ]
            },
            "properties": {
                "ref:rspo": 27528,
                "official_name": "Niepubliczne Przedszkole Zgromadzenia S.s\u0142u\u017cebniczek Nmp Np im. \u015aw. J\u00f3zefa",
                "name": "Niepubliczne Przedszkole Zgromadzenia S.s\u0142u\u017cebniczek Nmp Np",
                "addr:postcode": "37-514",
                "addr:city": "Munina",
                "addr:street": "3 Maja",
                "addr:housenumber": "96",
                "addr:teryt:simc": 603224,
                "addr:teryt:sym_ul": 29830,
                "phone": "+48 166217040",
                "email": "smunina@onet.eu",
                "ref:regon": "180899073",
                "ref:vatin": "PL7921938584",
                "operator": "Dane Do Uzupe\u0142nienia",
                "operator:type": "private",
                "amenity": "kindergarten"
            }
        },
        {
            "id": 27523,
            "type": "Feature",
            "geometry": {
                "type": "Point",
                "coordinates": [
                    22.72603,
                    49.99778
                ]
            },
            "properties": {
                "isced:level": "1;2",
                "ref:rspo": 27523,
                "official_name": "Zesp\u00f3\u0142 Szkolno-Przedszkolny im.tadeusza Ko\u015bciuszki w Muninie",
                "name": "Zesp\u00f3\u0142 Szkolno-Przedszkolny im.tadeusza Ko\u015bciuszki w Muninie",
                "addr:postcode": "37-514",
                "addr:city": "Munina",
                "addr:street": "3 Maja",
                "addr:housenumber": "93",
                "addr:teryt:simc": 603224,
                "addr:teryt:sym_ul": 29830,
                "phone": "+48 166231295",
                "email": "munina237@wp.pl",
                "ref:regon": "650171280",
                "ref:vatin": "PL7921958049",
                "operator": "Gmina Jaros\u0142aw",
                "operator:type": "government",
                "amenity": "school"
            }
        },
        {
            "id": 27525,
            "type": "Feature",
            "geometry": {
                "type": "Point",
                "coordinates": [
                    22.76338,
                    50.02386
                ]
            },
            "properties": {
                "isced:level": "1;2",
                "ref:rspo": 27525,
                "official_name": "Zesp\u00f3\u0142 Szkolno-Przedszkolny im. Aleksandra Fredry w Surochowie",
                "name": "Zesp\u00f3\u0142 Szkolno-Przedszkolny",
                "addr:postcode": "37-500",
                "addr:place": "Suroch\u00f3w",
                "addr:housenumber": "67a",
                "addr:teryt:simc": 603394,
                "phone": "+48 166224791",
                "email": "spsuro@op.pl",
                "ref:regon": "650171250",
                "ref:vatin": "PL7921958061",
                "operator": "Gmina Jaros\u0142aw",
                "operator:type": "government",
                "amenity": "school"
            }
        },
        {
            "id": 27521,
            "type": "Feature",
            "geometry": {
                "type": "Point",
                "coordinates": [
                    22.81482,
                    50.04624
                ]
            },
            "properties": {
                "isced:level": "1;2",
                "ref:rspo": 27521,
                "official_name": "Zesp\u00f3\u0142 Szkolno-Przedszkolny w Makowisku",
                "name": "Zesp\u00f3\u0142 Szkolno-Przedszkolny w Makowisku",
                "addr:postcode": "37-500",
                "addr:place": "Makowisko",
                "addr:housenumber": "17",
                "addr:teryt:simc": 603112,
                "phone": "+48 166224987",
                "email": "spmak1@op.pl",
                "website": "https:\/\/spmakowisko.edupage.org",
                "ref:regon": "650171244",
                "ref:vatin": "PL7921958026",
                "operator": "Gmina Jaros\u0142aw",
                "operator:type": "government",
                "amenity": "school"
            }
        },
        {
            "id": 27524,
            "type": "Feature",
            "geometry": {
                "type": "Point",
                "coordinates": [
                    22.6246,
                    50.0629
                ]
            },
            "properties": {
                "isced:level": "1;2",
                "ref:rspo": 27524,
                "official_name": "Zesp\u00f3\u0142 Szkolno-Przedszkolny im. B\u0142. O.micha\u0142a Czartoryskiego w Pe\u0142kiniach",
                "name": "Zesp\u00f3\u0142 Szkolno-Przedszkolny",
                "addr:postcode": "37-511",
                "addr:place": "Pe\u0142kinie",
                "addr:housenumber": "198",
                "addr:teryt:simc": 603260,
                "phone": "+48 166212608",
                "email": "sppel@jaroslaw.itl.pl",
                "website": "https:\/\/sppelkinie.edupage.org\/",
                "ref:regon": "650171273",
                "ref:vatin": "PL7921958078",
                "operator": "Gmina Jaros\u0142aw",
                "operator:type": "government",
                "amenity": "school"
            }
        },
        {
            "id": 27520,
            "type": "Feature",
            "geometry": {
                "type": "Point",
                "coordinates": [
                    22.60842,
                    50.09283
                ]
            },
            "properties": {
                "ref:rspo": 27520,
                "official_name": "Punkt Przedszkolny w W\u00f3lce Pe\u0142ki\u0144skiej",
                "name": "Punkt Przedszkolny w W\u00f3lce Pe\u0142ki\u0144skiej",
                "addr:postcode": "37-511",
                "addr:place": "W\u00f3lka Pe\u0142ki\u0144ska",
                "addr:housenumber": "137b",
                "addr:teryt:simc": 603632,
                "email": "zspwp@op.pl",
                "ref:regon": "180623916",
                "ref:vatin": "PL7922271515",
                "operator": "Gmina Jaros\u0142aw",
                "operator:type": "government",
                "amenity": "kindergarten"
            }
        },
        {
            "id": 27527,
            "type": "Feature",
            "geometry": {
                "type": "Point",
                "coordinates": [
                    22.60842,
                    50.0928
                ]
            },
            "properties": {
                "isced:level": "1;2",
                "ref:rspo": 27527,
                "official_name": "Zesp\u00f3\u0142 Szkolno- Przedszkolny im. Kardyna\u0142a Stefana Wyszy\u0144skiego w W\u00f3lce Pe\u0142ki\u0144skiej",
                "name": "Zesp\u00f3\u0142 Szkolno- Przedszkolny",
                "addr:postcode": "37-511",
                "addr:place": "W\u00f3lka Pe\u0142ki\u0144ska",
                "addr:housenumber": "137b",
                "addr:teryt:simc": 603632,
                "email": "zspwp@op.pl",
                "ref:regon": "650171209",
                "ref:vatin": "PL7921958003",
                "operator": "Gmina Jaros\u0142aw",
                "operator:type": "government",
                "amenity": "school"
            }
        }
    ]
}