{
    "type": "FeatureCollection",
    "features": [
        {
            "id": 92552,
            "type": "Feature",
            "geometry": {
                "type": "Point",
                "coordinates": [
                    22.68132,
                    49.9884
                ]
            },
            "properties": {
                "isced:level": "1;2",
                "ref:rspo": 92552,
                "official_name": "Zesp\u00f3\u0142 Szk\u00f3\u0142 w Paw\u0142osiowie Filialna Szko\u0142a Podstawowa Z Oddzia\u0142em Przedszkolnym w Kida\u0142owicach",
                "name": "Zesp\u00f3\u0142 Szk\u00f3\u0142 w Paw\u0142osiowie Filialna Szko\u0142a Podstawowa Z Oddzia\u0142em Przedszkolnym w Kida\u0142owicach",
                "addr:country": "PL",
                "addr:postcode": "37-500",
                "addr:place": "Kida\u0142owice",
                "addr:housenumber": "72",
                "addr:teryt:sym_ul": 607802,
                "contact:phone": "+48 166216838",
                "contact:email": "sfkidalowice@wp.pl",
                "ref:regon": "651419864",
                "operator": "Gmina Paw\u0142osi\u00f3w",
                "operator:type": "government",
                "amenity": "school",
                "note": "Parent RSPO: 13095"
            }
        },
        {
            "id": 13593,
            "type": "Feature",
            "geometry": {
                "type": "Point",
                "coordinates": [
                    22.59234,
                    49.9906099
                ]
            },
            "properties": {
                "isced:level": "1;2",
                "ref:rspo": 13593,
                "official_name": "Szko\u0142a Podstawowa im. I. \u0141ukasiewicza Z Oddzia\u0142em Przedszkolnym w Cieszacinie Wielkim",
                "name": "Szko\u0142a Podstawowa",
                "addr:country": "PL",
                "addr:postcode": "37-500",
                "addr:place": "Cieszacin Wielki",
                "addr:housenumber": "201",
                "addr:teryt:sym_ul": 607765,
                "contact:phone": "+48 166219093",
                "contact:email": "zscieszacin@interia.pl",
                "contact:website": "http:\/\/spcieszacin.pl",
                "ref:regon": "651420264",
                "operator": "Gmina Paw\u0142osi\u00f3w",
                "operator:type": "government",
                "amenity": "school"
            }
        },
        {
            "id": 14216,
            "type": "Feature",
            "geometry": {
                "type": "Point",
                "coordinates": [
                    22.59234,
                    49.9905799
                ]
            },
            "properties": {
                "ref:rspo": 14216,
                "official_name": "Punkt Przedszkolny",
                "name": "Punkt Przedszkolny",
                "addr:country": "PL",
                "addr:postcode": "37-500",
                "addr:place": "Cieszacin Wielki",
                "addr:housenumber": "201",
                "addr:teryt:sym_ul": 607765,
                "contact:phone": "+48 166219093",
                "contact:email": "zscieszacin@interia.pl",
                "contact:website": "http:\/\/spcieszacin.pl",
                "ref:regon": "180887294",
                "operator": "Gmina Paw\u0142osi\u00f3w",
                "operator:type": "government",
                "amenity": "kindergarten"
            }
        },
        {
            "id": 7817,
            "type": "Feature",
            "geometry": {
                "type": "Point",
                "coordinates": [
                    22.64697,
                    49.99563
                ]
            },
            "properties": {
                "ref:rspo": 7817,
                "official_name": "Zesp\u00f3\u0142 Szk\u00f3\u0142 w Paw\u0142osiowie",
                "name": "Zesp\u00f3\u0142 Szk\u00f3\u0142 w Paw\u0142osiowie",
                "addr:country": "PL",
                "addr:postcode": "37-500",
                "addr:place": "Paw\u0142osi\u00f3w",
                "addr:housenumber": "87",
                "addr:teryt:sym_ul": 607890,
                "contact:phone": "+48 166219026",
                "contact:email": "pawlosiowszkola@wp.pl",
                "ref:regon": "650954029",
                "ref:vatin": "PL7921861255",
                "operator": "Gmina Paw\u0142osi\u00f3w",
                "operator:type": "government",
                "landuse": "education",
                "fixme": "amenity=school, amenity=college albo landuse=education w zale\u017cno\u015bci od tego, jakie plac\u00f3wki wchodz\u0105 w sk\u0142ad zespo\u0142u. Sprawd\u017a, kiedy stosowa\u0107 amenity=* a kiedy landuse=education.",
                "note": "Children RSPO: 13095;14212;92656"
            }
        },
        {
            "id": 13095,
            "type": "Feature",
            "geometry": {
                "type": "Point",
                "coordinates": [
                    22.64697,
                    49.995599999999996
                ]
            },
            "properties": {
                "isced:level": "1;2",
                "ref:rspo": 13095,
                "official_name": "Zesp\u00f3\u0142 Szk\u00f3\u0142 w Paw\u0142osiowie Szko\u0142a Podstawowa im. A. Mickiewicza Z Oddzia\u0142em Przedszkolnym w Paw\u0142osiowie",
                "name": "Zesp\u00f3\u0142 Szk\u00f3\u0142 w Paw\u0142osiowie Szko\u0142a Podstawowa",
                "addr:country": "PL",
                "addr:postcode": "37-500",
                "addr:place": "Paw\u0142osi\u00f3w",
                "addr:housenumber": "87",
                "addr:teryt:sym_ul": 607890,
                "contact:phone": "+48 166219026",
                "contact:email": "pawlosiowszkola@wp.pl",
                "ref:regon": "651419864",
                "operator": "Gmina Paw\u0142osi\u00f3w",
                "operator:type": "government",
                "amenity": "school",
                "note": "Children RSPO: 92552Parent RSPO: 7817"
            }
        },
        {
            "id": 14212,
            "type": "Feature",
            "geometry": {
                "type": "Point",
                "coordinates": [
                    22.64697,
                    49.99557
                ]
            },
            "properties": {
                "ref:rspo": 14212,
                "official_name": "Punkt Przedszkolny w Zespole Szk\u00f3\u0142 w Paw\u0142osiowie",
                "name": "Punkt Przedszkolny w Zespole Szk\u00f3\u0142 w Paw\u0142osiowie",
                "addr:country": "PL",
                "addr:postcode": "37-500",
                "addr:place": "Paw\u0142osi\u00f3w",
                "addr:housenumber": "87",
                "addr:teryt:sym_ul": 607890,
                "contact:phone": "+48 166219026",
                "contact:email": "pawlosiowszkola@wp.pl",
                "ref:regon": "180887259",
                "operator": "Gmina Paw\u0142osi\u00f3w",
                "operator:type": "government",
                "amenity": "kindergarten",
                "note": "Parent RSPO: 7817"
            }
        },
        {
            "id": 92656,
            "type": "Feature",
            "geometry": {
                "type": "Point",
                "coordinates": [
                    22.64697,
                    49.99554
                ]
            },
            "properties": {
                "ref:rspo": 92656,
                "official_name": "Publiczne Przedszkole w Zespole Szk\u00f3\u0142 w Paw\u0142osiowie",
                "name": "Publiczne Przedszkole w Zespole Szk\u00f3\u0142 w Paw\u0142osiowie",
                "addr:country": "PL",
                "addr:postcode": "37-500",
                "addr:place": "Paw\u0142osi\u00f3w",
                "addr:housenumber": "87",
                "addr:teryt:sym_ul": 607890,
                "contact:phone": "+48 166219026",
                "contact:email": "pawlosiowszkola@wp.pl",
                "ref:regon": "180632016",
                "operator": "Gmina Paw\u0142osi\u00f3w",
                "operator:type": "government",
                "amenity": "kindergarten",
                "note": "Parent RSPO: 7817"
            }
        },
        {
            "id": 106097,
            "type": "Feature",
            "geometry": {
                "type": "Point",
                "coordinates": [
                    22.6255,
                    50.01583
                ]
            },
            "properties": {
                "isced:level": "1;2",
                "ref:rspo": 106097,
                "official_name": "Szko\u0142a Podstawowa im. Ks. J. Radocho\u0144skiego Z Oddzia\u0142em Przedszkolnym w Wierzbnej Filialna Szko\u0142a Podstawowa Z Oddzia\u0142em Przedszkolnym w Tywoni",
                "name": "Szko\u0142a Podstawowa",
                "addr:country": "PL",
                "addr:postcode": "37-500",
                "addr:place": "Tywonia",
                "addr:housenumber": "30",
                "addr:teryt:sym_ul": 607972,
                "contact:phone": "+48 166219021",
                "contact:email": "szkola_tywonia@interia.pl",
                "contact:website": "http:\/\/spwierzbna.pl",
                "ref:regon": "651419924",
                "operator": "Gmina Paw\u0142osi\u00f3w",
                "operator:type": "government",
                "amenity": "school",
                "note": "Parent RSPO: 17710"
            }
        },
        {
            "id": 106096,
            "type": "Feature",
            "geometry": {
                "type": "Point",
                "coordinates": [
                    22.57302,
                    50.02113
                ]
            },
            "properties": {
                "isced:level": "1;2",
                "ref:rspo": 106096,
                "official_name": "Szko\u0142a Podstawowa im. Ks. J. Radocho\u0144skiego Z Oddzia\u0142em Przedszkolnym w Wierzbnej Filialna Szko\u0142a Podstawowa Z Oddzia\u0142em Przedszkolnym w O\u017ca\u0144sku",
                "name": "Szko\u0142a Podstawowa",
                "addr:country": "PL",
                "addr:postcode": "37-500",
                "addr:place": "O\u017ca\u0144sk",
                "addr:housenumber": "34",
                "addr:teryt:sym_ul": 607854,
                "contact:phone": "+48 166219655",
                "contact:email": "sfozansk@wp.pl",
                "contact:website": "http:\/\/spwierzbna.pl",
                "ref:regon": "651419924",
                "operator": "Gmina Paw\u0142osi\u00f3w",
                "operator:type": "government",
                "amenity": "school",
                "note": "Parent RSPO: 17710"
            }
        },
        {
            "id": 17710,
            "type": "Feature",
            "geometry": {
                "type": "Point",
                "coordinates": [
                    22.60051,
                    50.03391
                ]
            },
            "properties": {
                "isced:level": "1;2",
                "ref:rspo": 17710,
                "official_name": "Szko\u0142a Podstawowa Im Ks. J. Radocho\u0144skiego Z Oddzia\u0142em Przedszkolnym w Wierzbnej",
                "name": "Szko\u0142a Podstawowa Im Ks. J. Radocho\u0144skiego Z Oddzia\u0142em Przedszkolnym w Wierzbnej",
                "addr:country": "PL",
                "addr:postcode": "37-500",
                "addr:place": "Wierzbna",
                "addr:housenumber": "2",
                "addr:teryt:sym_ul": 608003,
                "contact:phone": "+48 166212632",
                "contact:email": "sekretariat@spwierzbna.pl",
                "contact:website": "http:\/\/www.spwierzbna@wp.pl",
                "ref:regon": "651419924",
                "operator": "Gmina Paw\u0142osi\u00f3w",
                "operator:type": "government",
                "amenity": "school",
                "note": "Children RSPO: 106096;106097"
            }
        },
        {
            "id": 17748,
            "type": "Feature",
            "geometry": {
                "type": "Point",
                "coordinates": [
                    22.60051,
                    50.033879999999996
                ]
            },
            "properties": {
                "ref:rspo": 17748,
                "official_name": "Punkt Przedszkolny w Wierzbnej",
                "name": "Punkt Przedszkolny w Wierzbnej",
                "addr:country": "PL",
                "addr:postcode": "37-500",
                "addr:place": "Wierzbna",
                "addr:housenumber": "2",
                "addr:teryt:sym_ul": 608003,
                "contact:phone": "+48 166212632",
                "contact:email": "spwierzbna@wp.pl",
                "contact:website": "http:\/\/spwierzbna.pl",
                "ref:regon": "180890362",
                "operator": "Gmina Paw\u0142osi\u00f3w",
                "operator:type": "government",
                "amenity": "kindergarten"
            }
        }
    ]
}