{"type":"FeatureCollection","features":[{"id":273092,"type":"Feature","geometry":{"type":"Point","coordinates":[22.7133874,50.0386055]},"properties":{"ref:rspo":273092,"official_name":"Niepubliczne Przedszkole ,,S\u0142oneczny Raj\"","name":"Niepubliczne Przedszkole ,,S\u0142oneczny Raj\"","addr:country":"PL","addr:postcode":"37-522","addr:city":"Sz\u00f3wsko","addr:street":"ul. Lubelska","addr:housenumber":"53","addr:teryt:simc":11307,"addr:teryt:sym_ul":612795,"contact:email":"slonecznyraj@onet.pl","ref:regon":"384375107","operator":"Agnieszka Wojtowicz","operator:type":"private","amenity":"kindergarten"}},{"id":73801,"type":"Feature","geometry":{"type":"Point","coordinates":[22.71022,50.04742]},"properties":{"isced:level":"1;2","ref:rspo":73801,"official_name":"Szko\u0142a Podstawowa im.jana Kochanowskiego w Sz\u00f3wsku","name":"Szko\u0142a Podstawowa im.jana Kochanowskiego w Sz\u00f3wsku","addr:country":"PL","addr:postcode":"37-522","addr:city":"Sz\u00f3wsko","addr:street":"ul. Lubelska","addr:housenumber":"115","addr:teryt:simc":11307,"addr:teryt:sym_ul":612795,"contact:phone":"+48 166233704","contact:email":"spszowsko@wp.pl","contact:website":"http:\/\/spszowsko.pl","ref:regon":"001208270","ref:vatin":"PL7922221552","operator":"Gmina Wi\u0105zownica","operator:type":"government","amenity":"school"}},{"id":90468,"type":"Feature","geometry":{"type":"Point","coordinates":[22.71022,50.04739]},"properties":{"ref:rspo":90468,"official_name":"Kompetentne Przedszkolaki - Sz\u00f3wsko","name":"Kompetentne Przedszkolaki - Sz\u00f3wsko","addr:country":"PL","addr:postcode":"37-522","addr:city":"Sz\u00f3wsko","addr:street":"ul. Lubelska","addr:housenumber":"115","addr:teryt:simc":11307,"addr:teryt:sym_ul":612795,"contact:phone":"+48 166233704","contact:email":"biuro@osrodkiprzedszkolne.pl","ref:regon":"180915100","operator":"Instytut Kome\u0144skiego Sp\u00f3\u0142ka Z Ograniczon\u0105 Odpowiedzialno\u015bci\u0105 Sp\u00f3\u0142ka Komandytowa","operator:type":"private","amenity":"kindergarten"}},{"id":90452,"type":"Feature","geometry":{"type":"Point","coordinates":[22.70945,50.04827]},"properties":{"ref:rspo":90452,"official_name":"Przedszkole Pod Wez. \u015aw. J\u00f3zefa w Sz\u00f3wsku","name":"Przedszkole Pod Wez. \u015aw. J\u00f3zefa w Sz\u00f3wsku","addr:country":"PL","addr:postcode":"37-522","addr:city":"Sz\u00f3wsko","addr:street":"ul. Ko\u015bcielna","addr:housenumber":"12","addr:teryt:simc":9546,"addr:teryt:sym_ul":612795,"contact:phone":"+48 166233701","contact:email":"s.szowsko@onet.eu","ref:regon":"180917486","ref:vatin":"PL7921064257","operator":"Zg. Ss. S\u0142u\u017cebniczek Nmp Niepokalanie Pocz\u0119tej, Prowincja Przemyska","operator:type":"religious","amenity":"kindergarten"}},{"id":70339,"type":"Feature","geometry":{"type":"Point","coordinates":[22.715511,50.0665092]},"properties":{"isced:level":"1;2","ref:rspo":70339,"official_name":"Szko\u0142a Podstawowa im. Ksi\u0119dza Stanis\u0142awa Sudo\u0142a w Wi\u0105zownicy","name":"Szko\u0142a Podstawowa","addr:country":"PL","addr:postcode":"37-522","addr:city":"Wi\u0105zownica","addr:street":"ul. Szkolna","addr:housenumber":"14","addr:teryt:simc":21970,"addr:teryt:sym_ul":612909,"contact:phone":"+48 166223695","contact:email":"gimwia@poczta.onet.pl","contact:website":"http:\/\/spwiazownica.pl","ref:regon":"000663195","ref:vatin":"PL7922221569","operator":"Gmina Wi\u0105zownica","operator:type":"government","amenity":"school"}},{"id":90469,"type":"Feature","geometry":{"type":"Point","coordinates":[22.715511,50.066479199999996]},"properties":{"ref:rspo":90469,"official_name":"Kompetentne Przedszkolaki - Wi\u0105zownica Nr 1","name":"Kompetentne Przedszkolaki - Wi\u0105zownica Nr 1","addr:country":"PL","addr:postcode":"37-522","addr:city":"Wi\u0105zownica","addr:street":"ul. Szkolna","addr:housenumber":"14","addr:teryt:simc":21970,"addr:teryt:sym_ul":612909,"contact:phone":"+48 166223695","contact:email":"biuro@osrodkiprzedszkolne.pl","ref:regon":"180915116","operator":"Instytut Kome\u0144skiego Sp\u00f3\u0142ka Z Ograniczon\u0105 Odpowiedzialno\u015bci\u0105 Sp\u00f3\u0142ka Komandytowa","operator:type":"private","amenity":"kindergarten"}},{"id":90470,"type":"Feature","geometry":{"type":"Point","coordinates":[22.715511,50.0664492]},"properties":{"ref:rspo":90470,"official_name":"Kompetentne Przedszkolaki - Wi\u0105zownica Nr 2","name":"Kompetentne Przedszkolaki - Wi\u0105zownica Nr 2","addr:country":"PL","addr:postcode":"37-522","addr:city":"Wi\u0105zownica","addr:street":"ul. Szkolna","addr:housenumber":"14","addr:teryt:simc":21970,"addr:teryt:sym_ul":612909,"contact:phone":"+48 166223695","contact:email":"biuro@osrodkiprzedszkolne.pl","ref:regon":"180916908","operator":"Instytut Kome\u0144skiego Sp\u00f3\u0142ka Z Ograniczon\u0105 Odpowiedzialno\u015bci\u0105 Sp\u00f3\u0142ka Komandytowa","operator:type":"private","amenity":"kindergarten"}},{"id":90467,"type":"Feature","geometry":{"type":"Point","coordinates":[22.88312,50.06845]},"properties":{"ref:rspo":90467,"official_name":"Kompetentne Przedszkolaki - Ryszkowa Wola","name":"Kompetentne Przedszkolaki - Ryszkowa Wola","addr:country":"PL","addr:postcode":"37-544","addr:place":"Ryszkowa Wola","addr:housenumber":"153A","addr:teryt:sym_ul":612714,"contact:phone":"+48 166286406","contact:email":"biuro@osrodkiprzedszkolne.pl","ref:regon":"180915091","operator":"Instytut Kome\u0144skiego Sp\u00f3\u0142ka Z Ograniczon\u0105 Odpowiedzialno\u015bci\u0105 Sp\u00f3\u0142ka Komandytowa","operator:type":"private","amenity":"kindergarten"}},{"id":73799,"type":"Feature","geometry":{"type":"Point","coordinates":[22.75429,50.07258]},"properties":{"isced:level":"1;2","ref:rspo":73799,"official_name":"Szko\u0142a Podstawowa Im Jana Paw\u0142a II w Piwodzie","name":"Szko\u0142a Podstawowa Im Jana Paw\u0142a II w Piwodzie","addr:country":"PL","addr:postcode":"37-522","addr:place":"Piwoda","addr:housenumber":"83","addr:teryt:sym_ul":612559,"contact:phone":"+48 166223904","contact:email":"zs_piwoda@wp.pl","contact:website":"http:\/\/zspiwoda.superszkolna.pl","ref:regon":"001208292","ref:vatin":"PL7922292693","operator":"Gmina Wi\u0105zownica","operator:type":"government","amenity":"school","note":"Children RSPO: 104803"}},{"id":90463,"type":"Feature","geometry":{"type":"Point","coordinates":[22.75429,50.07255]},"properties":{"ref:rspo":90463,"official_name":"Kompetentne Przedszkolaki - Piwoda Nr 2","name":"Kompetentne Przedszkolaki - Piwoda Nr 2","addr:country":"PL","addr:postcode":"37-522","addr:place":"Piwoda","addr:housenumber":"83","addr:teryt:sym_ul":612559,"contact:phone":"+48 166401373","contact:email":"biuro@osrodkiprzedszkolne.pl","ref:regon":"180915056","ref:vatin":"PL7010307057","operator":"Instytut Kome\u0144skiego Sp\u00f3\u0142ka Z Ograniczon\u0105 Odpowiedzialno\u015bci\u0105 Sp\u00f3\u0142ka Komandytowa","operator:type":"private","amenity":"kindergarten"}},{"id":90465,"type":"Feature","geometry":{"type":"Point","coordinates":[22.75429,50.072520000000004]},"properties":{"ref:rspo":90465,"official_name":"Kompetentne Przedszkolaki- Piwoda Nr 1","name":"Kompetentne Przedszkolaki- Piwoda Nr 1","addr:country":"PL","addr:postcode":"37-522","addr:place":"Piwoda","addr:housenumber":"83","addr:teryt:sym_ul":612559,"contact:phone":"+48 166223904","contact:email":"biuro@osrodkiprzedszkolne.pl","ref:regon":"180915079","operator":"Instytut Kome\u0144skiego Sp\u00f3\u0142ka Z Ograniczon\u0105 Odpowiedzialno\u015bci\u0105 Sp\u00f3\u0142ka Komandytowa","operator:type":"private","amenity":"kindergarten"}},{"id":70335,"type":"Feature","geometry":{"type":"Point","coordinates":[22.86295,50.07535]},"properties":{"isced:level":"1;2","ref:rspo":70335,"official_name":"Szko\u0142a Podstawowa w Ryszkowej Woli","name":"Szko\u0142a Podstawowa w Ryszkowej Woli","addr:country":"PL","addr:postcode":"37-544","addr:place":"Ryszkowa Wola","addr:housenumber":"53A","addr:teryt:sym_ul":612714,"contact:phone":"+48 166286406","contact:email":"rwola@o2.pl","contact:website":"http:\/\/spryszkowawola.szkolna.net","ref:regon":"001266088","ref:vatin":"PL7921853149","operator":"Gmina Wi\u0105zownica","operator:type":"government","amenity":"school"}},{"id":70338,"type":"Feature","geometry":{"type":"Point","coordinates":[22.8871538,50.0867768]},"properties":{"isced:level":"1;2","ref:rspo":70338,"official_name":"Szko\u0142a Podstawowa im. Jana Paw\u0142a II w Zapa\u0142owie","name":"Szko\u0142a Podstawowa","addr:country":"PL","addr:postcode":"37-544","addr:place":"Zapa\u0142\u00f3w","addr:housenumber":"159","addr:teryt:sym_ul":612980,"contact:phone":"+48 166286159","contact:email":"szpzapalow@go2.pl","contact:website":"http:\/\/zszapalow.szkolna.net","ref:regon":"001208286","ref:vatin":"PL7922221523","operator":"Gmina Wi\u0105zownica","operator:type":"government","amenity":"school"}},{"id":90471,"type":"Feature","geometry":{"type":"Point","coordinates":[22.8871538,50.0867468]},"properties":{"ref:rspo":90471,"official_name":"Kompetentne Przedszkolaki - Zapa\u0142\u00f3w Nr 1","name":"Kompetentne Przedszkolaki - Zapa\u0142\u00f3w Nr 1","addr:country":"PL","addr:postcode":"37-544","addr:place":"Zapa\u0142\u00f3w","addr:housenumber":"159","addr:teryt:sym_ul":612980,"contact:phone":"+48 166286159","contact:email":"biuro@osrodkiprzedszkolne.pl","ref:regon":"180916937","operator":"Instytut Kome\u0144skiego Sp\u00f3\u0142ka Z Ograniczon\u0105 Odpowiedzialno\u015bci\u0105 Sp\u00f3\u0142ka Komandytowa","operator:type":"private","amenity":"kindergarten"}},{"id":132019,"type":"Feature","geometry":{"type":"Point","coordinates":[22.8881799,50.08691]},"properties":{"ref:rspo":132019,"official_name":"Kompetentne Przedszkolaki - Zapa\u0142\u00f3w Nr 2","name":"Kompetentne Przedszkolaki - Zapa\u0142\u00f3w Nr 2","addr:country":"PL","addr:postcode":"37-544","addr:place":"Zapa\u0142\u00f3w","addr:housenumber":"158","addr:teryt:sym_ul":612980,"contact:phone":"+48 166286159","contact:email":"biuro@osrodkiprzedszkolne.pl","ref:regon":"365418828","operator":"Instytut Kome\u0144skiego Sp\u00f3\u0142ka Z Ograniczon\u0105 Odpowiedzialno\u015bci\u0105 Sp\u00f3\u0142ka Komandytowa","operator:type":"private","amenity":"kindergarten"}},{"id":90464,"type":"Feature","geometry":{"type":"Point","coordinates":[22.79938,50.10352]},"properties":{"ref:rspo":90464,"official_name":"Kompetentne Przedszkolaki- Cetula","name":"Kompetentne Przedszkolaki- Cetula","addr:country":"PL","addr:postcode":"37-523","addr:place":"Cetula","addr:housenumber":"63","addr:teryt:sym_ul":612306,"contact:phone":"+48 166223008","contact:email":"biuro@osrodkiprzedszkolne.pl","ref:regon":"180915062","operator":"Instytut Kome\u0144skiego Sp\u00f3\u0142ka Z Ograniczon\u0105 Odpowiedzialno\u015bci\u0105 Sp\u00f3\u0142ka Komandytowa","operator:type":"private","amenity":"kindergarten"}},{"id":104803,"type":"Feature","geometry":{"type":"Point","coordinates":[22.79938,50.10349]},"properties":{"isced:level":"1;2","ref:rspo":104803,"official_name":"Szko\u0142a Filialna w Cetuli","name":"Szko\u0142a Filialna w Cetuli","addr:country":"PL","addr:postcode":"37-523","addr:place":"Cetula","addr:housenumber":"63","addr:teryt:sym_ul":612306,"contact:phone":"+48 166223008","contact:email":"zs_piwoda@wp.pl","contact:website":"http:\/\/zspiwoda.superszkolna.pl","ref:regon":"120829200","ref:vatin":"PL7922292693","operator":"Gmina Wi\u0105zownica","operator:type":"government","amenity":"school","note":"Parent RSPO: 73799"}},{"id":70334,"type":"Feature","geometry":{"type":"Point","coordinates":[22.66682,50.11791]},"properties":{"isced:level":"1;2","ref:rspo":70334,"official_name":"Szko\u0142a Podstawowa im.kardyna\u0142a Stefana Wyszy\u0144skiego w Manasterzu","name":"Szko\u0142a Podstawowa im.kardyna\u0142a Stefana Wyszy\u0144skiego w Manasterzu","addr:country":"PL","addr:postcode":"37-522","addr:place":"Manasterz","addr:housenumber":"57","addr:teryt:sym_ul":612364,"contact:phone":"+48 166223626","contact:email":"kontakt@spmanasterz.edu.pl","contact:website":"http:\/\/www.spmanasterz.superszkolna.pl","ref:regon":"001266071","ref:vatin":"PL7921853184","operator":"Gmina Wi\u0105zownica","operator:type":"government","amenity":"school"}},{"id":90454,"type":"Feature","geometry":{"type":"Point","coordinates":[22.66627,50.11885]},"properties":{"ref:rspo":90454,"official_name":"Kompetentne Przedszkolaki -Manasterz","name":"Kompetentne Przedszkolaki -Manasterz","addr:country":"PL","addr:postcode":"37-522","addr:place":"Manasterz","addr:housenumber":"59","addr:teryt:sym_ul":612364,"contact:phone":"+48 166223626","contact:email":"biuro@osrodkiprzedszkolne.pl","ref:regon":"180915040","ref:vatin":"PL7010307057","operator":"Instytut Kome\u0144skiego Sp\u00f3\u0142ka Z Ograniczon\u0105 Odpowiedzialno\u015bci\u0105 Sp\u00f3\u0142ka Komandytowa","operator:type":"private","amenity":"kindergarten"}},{"id":70336,"type":"Feature","geometry":{"type":"Point","coordinates":[22.8346056,50.1611426]},"properties":{"isced:level":"1;2","ref:rspo":70336,"official_name":"Szko\u0142a Podstawowa w Mo\u0142odyczu","name":"Szko\u0142a Podstawowa w Mo\u0142odyczu","addr:country":"PL","addr:postcode":"37-523","addr:place":"Mo\u0142odycz","addr:housenumber":"84","addr:teryt:sym_ul":612424,"contact:phone":"+48 166223003","contact:email":"szkola_molodycz@o2.pl","contact:website":"http:\/\/spmolodycz.edupage.org","ref:regon":"001208300","ref:vatin":"PL7921853209","operator":"Gmina Wi\u0105zownica","operator:type":"government","amenity":"school"}},{"id":90466,"type":"Feature","geometry":{"type":"Point","coordinates":[22.8346056,50.161112599999996]},"properties":{"ref:rspo":90466,"official_name":"Kompetentne Przedszkolaki - Mo\u0142odycz","name":"Kompetentne Przedszkolaki - Mo\u0142odycz","addr:country":"PL","addr:postcode":"37-523","addr:place":"Mo\u0142odycz","addr:housenumber":"84","addr:teryt:sym_ul":612424,"contact:phone":"+48 166223003","contact:email":"biuro@osrodkiprzedszkolne.pl","ref:regon":"180915085","operator":"Instytut Kome\u0144skiego Sp\u00f3\u0142ka Z Ograniczon\u0105 Odpowiedzialno\u015bci\u0105 Sp\u00f3\u0142ka Komandytowa","operator:type":"private","amenity":"kindergarten"}}]}