{"type":"FeatureCollection","features":[{"id":24526,"type":"Feature","geometry":{"type":"Point","coordinates":[22.63974,49.87553]},"properties":{"isced:level":"1;2","ref:rspo":24526,"official_name":"Szko\u0142a Podstawowa im. Henryka Sienkiewicza w Rokietnicy Woli","name":"Szko\u0142a Podstawowa","addr:country":"PL","addr:postcode":"37-562","addr:place":"Rokietnica","addr:housenumber":"525","addr:teryt:sym_ul":610106,"contact:phone":"+48 166221940","contact:email":"sp.rokietnicawola@wp.pl","contact:website":"http:\/\/www.spwolarokietnicka.cba.pl","ref:regon":"001208122","ref:vatin":"PL7921856969","operator":"Gmina Rokietnica","operator:type":"government","amenity":"school"}},{"id":34235,"type":"Feature","geometry":{"type":"Point","coordinates":[22.63974,49.875499999999995]},"properties":{"ref:rspo":34235,"official_name":"Kompetentne Przedszkolaki","name":"Kompetentne Przedszkolaki","addr:country":"PL","addr:postcode":"37-562","addr:place":"Rokietnica","addr:housenumber":"525","addr:teryt:sym_ul":610106,"contact:phone":"+48 166401373","contact:email":"biuro@osrodkiprzedszkolne.pl","ref:regon":"180898033","operator":"Dane Do Uzupe\u0142nienia","operator:type":"private","amenity":"kindergarten"}},{"id":24567,"type":"Feature","geometry":{"type":"Point","coordinates":[22.60039,49.89166]},"properties":{"isced:level":"1;2","ref:rspo":24567,"official_name":"Szko\u0142a Podstawowa im. Ks. Bronis\u0142awa Markiewicza w Tulig\u0142owach","name":"Szko\u0142a Podstawowa","addr:country":"PL","addr:postcode":"37-562","addr:place":"Tulig\u0142owy","addr:housenumber":"19A","addr:teryt:sym_ul":610320,"contact:phone":"+48 166221360","contact:email":"szkolatuliglowy@wp.pl","contact:website":"http:\/\/www.sptuliglowy.idl.pl","ref:regon":"001208139","ref:vatin":"PL7921857029","operator":"Gmina Rokietnica","operator:type":"government","amenity":"school"}},{"id":34234,"type":"Feature","geometry":{"type":"Point","coordinates":[22.60039,49.89163]},"properties":{"ref:rspo":34234,"official_name":"Kompetentne Przedszkolaki","name":"Kompetentne Przedszkolaki","addr:country":"PL","addr:postcode":"37-562","addr:place":"Tulig\u0142owy","addr:housenumber":"19a","addr:teryt:sym_ul":610320,"contact:phone":"+48 166401373","contact:email":"biuro@osrodkiprzedszkolne.pl","ref:regon":"180898027","operator":"Dane Do Uzupe\u0142nienia","operator:type":"private","amenity":"kindergarten"}},{"id":34232,"type":"Feature","geometry":{"type":"Point","coordinates":[22.6435299,49.89875]},"properties":{"ref:rspo":34232,"official_name":"Kompetentne Przedszkolaki","name":"Kompetentne Przedszkolaki","addr:country":"PL","addr:postcode":"37-562","addr:place":"Rokietnica","addr:housenumber":"108","addr:teryt:sym_ul":610106,"contact:phone":"+48 166401373","contact:email":"biuro@osrodkiprzedszkolne.pl","ref:regon":"180898004","operator":"Dane Do Uzupe\u0142nienia","operator:type":"private","amenity":"kindergarten"}},{"id":48567,"type":"Feature","geometry":{"type":"Point","coordinates":[22.6435299,49.89872]},"properties":{"isced:level":"1;2","ref:rspo":48567,"official_name":"Szko\u0142a Podstawowa im. Jana Paw\u0142a II w Rokietnicy","name":"Szko\u0142a Podstawowa","addr:country":"PL","addr:postcode":"37-562","addr:place":"Rokietnica","addr:housenumber":"108","addr:teryt:sym_ul":610106,"contact:phone":"+48 166221376","contact:email":"gimrokietnica1@poczta.onet.pl","contact:website":"http:\/\/www.zs-rokietnica.cba.pl","ref:regon":"000655824","ref:vatin":"PL7922000259","operator":"Gmina Rokietnica","operator:type":"government","amenity":"school"}},{"id":264496,"type":"Feature","geometry":{"type":"Point","coordinates":[22.6435299,49.89869]},"properties":{"ref:rspo":264496,"official_name":"Kompetentne Przedszkolaki","name":"Kompetentne Przedszkolaki","addr:country":"PL","addr:postcode":"37-562","addr:place":"Rokietnica","addr:housenumber":"108","addr:door":"2","addr:teryt:sym_ul":610106,"contact:phone":"+48 666401373","contact:email":"biuro@osrodkiprzedszkolne.pl","ref:regon":"368367570","operator":"Instytut Kome\u0144skiego Sp\u00f3\u0142ka Z Ograniczon\u0105 Odpowiedzialno\u015bci\u0105 Sp\u00f3\u0142ka Komandytowa","operator:type":"private","amenity":"kindergarten"}},{"id":80728,"type":"Feature","geometry":{"type":"Point","coordinates":[22.6822,49.90416]},"properties":{"ref:rspo":80728,"official_name":"Przedszkole Niepubliczne Zgromadzenia Ss. S\u0142u\u017cebniczek Pod Wezwaniem \u015aw. J\u00f3zefa","name":"Przedszkole Niepubliczne Zgromadzenia Ss. S\u0142u\u017cebniczek Pod Wezwaniem \u015aw. J\u00f3zefa","addr:country":"PL","addr:postcode":"37-562","addr:place":"Tapin","addr:housenumber":"10","addr:teryt:sym_ul":610282,"contact:phone":"+48 166222407","contact:email":"siostrytapin@op.pl","ref:regon":"180910515","ref:vatin":"PL7922059063","operator":"Zg. Ss. S\u0142u\u017cebniczek Nmp Niepokalanie Pocz\u0119tej, Prowincja Przemyska","operator:type":"religious","amenity":"kindergarten"}},{"id":21318,"type":"Feature","geometry":{"type":"Point","coordinates":[22.6823799,49.90732]},"properties":{"isced:level":"1;2","ref:rspo":21318,"official_name":"Szko\u0142a Podstawowa im. Kr\u00f3lowej Jadwigi w Tapinie","name":"Szko\u0142a Podstawowa","addr:country":"PL","addr:postcode":"37-562","addr:place":"Tapin","addr:housenumber":"134","addr:teryt:sym_ul":610282,"contact:phone":"+48 166222729","contact:email":"tapinsp@op.pl","contact:website":"http:\/\/www.tapinsp.cba.pl","ref:regon":"001208151","ref:vatin":"PL7921857035","operator":"Gmina Rokietnica","operator:type":"government","amenity":"school"}},{"id":31778,"type":"Feature","geometry":{"type":"Point","coordinates":[22.61361,49.91526]},"properties":{"isced:level":"1;2","ref:rspo":31778,"official_name":"Szko\u0142a Podstawowa w Czelatycach","name":"Szko\u0142a Podstawowa w Czelatycach","addr:country":"PL","addr:postcode":"37-562","addr:place":"Czelatyce","addr:housenumber":"2","addr:teryt:sym_ul":610069,"contact:phone":"+48 166221393","contact:email":"szkolaczelatyce@interia.pl","ref:regon":"001208145","ref:vatin":"PL7921857041","operator":"Gmina Rokietnica","operator:type":"government","amenity":"school"}},{"id":34233,"type":"Feature","geometry":{"type":"Point","coordinates":[22.61361,49.91523]},"properties":{"ref:rspo":34233,"official_name":"Kompetentne Przedszkolaki","name":"Kompetentne Przedszkolaki","addr:country":"PL","addr:postcode":"37-562","addr:place":"Czelatyce","addr:housenumber":"2","addr:teryt:sym_ul":610069,"contact:phone":"+48 166401373","contact:email":"biuro@osrodkiprzedszkolne.pl","ref:regon":"180898010","operator":"Dane Do Uzupe\u0142nienia","operator:type":"private","amenity":"kindergarten"}}]}