{"type":"FeatureCollection","features":[{"id":58506,"type":"Feature","geometry":{"type":"Point","coordinates":[22.45967,50.7329099]},"properties":{"isced:level":"1;2","ref:rspo":58506,"official_name":"Publiczna Szko\u0142a Podstawowa Im Jana Paw\u0142a II w W\u00f3lce Ratajskiej","name":"Publiczna Szko\u0142a Podstawowa Im Jana Paw\u0142a II w W\u00f3lce Ratajskiej","addr:country":"PL","addr:postcode":"23-302","addr:place":"W\u00f3lka Ratajska","addr:housenumber":"146","addr:teryt:sym_ul":791355,"contact:phone":"+48 158711156","contact:email":"wolrat2@poczta.onet.pl","ref:regon":"001187644","ref:vatin":"PL8621522638","operator":"Gmina Godzisz\u00f3w","operator:type":"government","amenity":"school"}},{"id":32108,"type":"Feature","geometry":{"type":"Point","coordinates":[22.51041,50.73925]},"properties":{"isced:level":"1;2","ref:rspo":32108,"official_name":"Publiczna Szko\u0142a Podstawowa\nW Godziszowie Drugim","name":"Publiczna Szko\u0142a Podstawowa\nW Godziszowie Drugim","addr:country":"PL","addr:postcode":"23-302","addr:place":"Godzisz\u00f3w Trzeci","addr:housenumber":"14","addr:teryt:sym_ul":791208,"contact:phone":"+48 158711107","contact:email":"pspg2@op.pl","ref:regon":"001187638","ref:vatin":"PL8621521679","operator":"Gmina Godzisz\u00f3w","operator:type":"government","amenity":"school","note":"Parent RSPO: 272705"}},{"id":272705,"type":"Feature","geometry":{"type":"Point","coordinates":[22.509174132055,50.741503274579]},"properties":{"ref:rspo":272705,"official_name":"Zesp\u00f3\u0142 Szkolno-Przedszkolny w Godziszowie Drugim","name":"Zesp\u00f3\u0142 Szkolno-Przedszkolny w Godziszowie Drugim","addr:country":"PL","addr:postcode":"23-302","addr:place":"Godzisz\u00f3w","addr:housenumber":"14","addr:teryt:sym_ul":791160,"contact:phone":"+48 158711107","contact:email":"pspg2@op.pl","ref:regon":"384279770","operator":"Gmina Godzisz\u00f3w","operator:type":"government","landuse":"education","fixme":"amenity=school, amenity=college albo landuse=education w zale\u017cno\u015bci od tego, jakie plac\u00f3wki wchodz\u0105 w sk\u0142ad zespo\u0142u. Sprawd\u017a, kiedy stosowa\u0107 amenity=* a kiedy landuse=education.","note":"Children RSPO: 32108;272899"}},{"id":272899,"type":"Feature","geometry":{"type":"Point","coordinates":[22.49261,50.75248]},"properties":{"ref:rspo":272899,"official_name":"Gminne Przedszkole w Godziszowie Drugim","name":"Gminne Przedszkole w Godziszowie Drugim","addr:country":"PL","addr:postcode":"23-302","addr:place":"Godzisz\u00f3w Drugi","addr:housenumber":"14","addr:teryt:sym_ul":791183,"contact:phone":"+48 158711107","contact:email":"pspg2@op.pl","ref:regon":"384314465","operator":"Gmina Godzisz\u00f3w","operator:type":"government","amenity":"kindergarten","note":"Parent RSPO: 272705"}},{"id":57674,"type":"Feature","geometry":{"type":"Point","coordinates":[22.48539,50.75614]},"properties":{"isced:level":"1;2","ref:rspo":57674,"official_name":"Publiczna Szko\u0142a Podstawowa im. Ks. Prymasa Stefana Kardyna\u0142a Wyszy\u0144skiego w Godziszowie Pierwszym","name":"Publiczna Szko\u0142a Podstawowa","addr:country":"PL","addr:postcode":"23-302","addr:place":"Godzisz\u00f3w Pierwszy","addr:housenumber":"103","addr:teryt:sym_ul":791190,"contact:phone":"+48 158711109","contact:email":"zsgodzisz@wp.pl","ref:regon":"000587614","ref:vatin":"PL8621520102","operator":"Gmina Godzisz\u00f3w","operator:type":"government","amenity":"school"}},{"id":32106,"type":"Feature","geometry":{"type":"Point","coordinates":[22.44314,50.76823]},"properties":{"isced:level":"1;2","ref:rspo":32106,"official_name":"Publiczna Szko\u0142a Podstawowa w Andrzejowie","name":"Publiczna Szko\u0142a Podstawowa w Andrzejowie","addr:country":"PL","addr:postcode":"23-302","addr:place":"Andrzej\u00f3w","addr:housenumber":"163","addr:teryt:sym_ul":791148,"contact:phone":"+48 158711170","contact:email":"bkolasa@wp.pl","ref:regon":"001187621","ref:vatin":"PL8621520094","operator":"Gmina Godzisz\u00f3w","operator:type":"government","amenity":"school"}},{"id":57245,"type":"Feature","geometry":{"type":"Point","coordinates":[22.50724,50.82505]},"properties":{"isced:level":"1;2","ref:rspo":57245,"official_name":"Publiczna Szko\u0142a Podstawowa im. Ofiar Pacyfikacji w Dniu 22 Lipca w Zdzi\u0142owicach","name":"Publiczna Szko\u0142a Podstawowa","addr:country":"PL","addr:postcode":"23-302","addr:place":"Zdzi\u0142owice","addr:housenumber":"96","addr:teryt:sym_ul":791361,"contact:phone":"+48 158712107","contact:email":"szkolazdzilowice@poczta.onet.pl","ref:regon":"001187650","ref:vatin":"PL8621521685","operator":"Gmina Godzisz\u00f3w","operator:type":"government","amenity":"school"}}]}