{
    "type": "FeatureCollection",
    "features": [
        {
            "id": 21863,
            "type": "Feature",
            "geometry": {
                "type": "Point",
                "coordinates": [
                    18.6231699,
                    50.99872
                ]
            },
            "properties": {
                "isced:level": "1;2",
                "ref:rspo": 21863,
                "official_name": "Publiczna Szko\u0142a Podstawowa im. Tadeusza Ko\u015bciuszki w Cieciu\u0142owie",
                "name": "Publiczna Szko\u0142a Podstawowa",
                "addr:country": "PL",
                "addr:postcode": "46-325",
                "addr:place": "Cieciu\u0142\u00f3w",
                "addr:housenumber": "19",
                "addr:teryt:sym_ul": 998694,
                "contact:phone": "+48 343593620",
                "contact:email": "spcieciulow@gmail.com",
                "contact:website": "http:\/\/www.spcieciulow.rudniki.pl",
                "ref:regon": "001198040",
                "ref:vatin": "PL5761429707",
                "operator": "Gmina Rudniki",
                "operator:type": "government",
                "amenity": "school"
            }
        },
        {
            "id": 21808,
            "type": "Feature",
            "geometry": {
                "type": "Point",
                "coordinates": [
                    18.57179,
                    51.0141799
                ]
            },
            "properties": {
                "isced:level": "1;2",
                "ref:rspo": 21808,
                "official_name": "Publiczna Szko\u0142a Podstawowa im. Marsza\u0142ka J\u00f3zefa Pi\u0142sudskiego w \u017bytniowie",
                "name": "Publiczna Szko\u0142a Podstawowa",
                "addr:country": "PL",
                "addr:postcode": "46-325",
                "addr:place": "\u017bytni\u00f3w",
                "addr:housenumber": "29",
                "addr:teryt:sym_ul": 145187,
                "contact:phone": "+48 343593624",
                "contact:email": "pspzytniow@gazeta.pl",
                "contact:website": "http:\/\/www.pspzytniow.szkolnastrona.pl",
                "ref:regon": "001198033",
                "ref:vatin": "PL5761433726",
                "operator": "Gmina Rudniki",
                "operator:type": "government",
                "amenity": "school"
            }
        },
        {
            "id": 44211,
            "type": "Feature",
            "geometry": {
                "type": "Point",
                "coordinates": [
                    18.6621193,
                    51.0186577
                ]
            },
            "properties": {
                "ref:rspo": 44211,
                "official_name": "M\u0142odzie\u017cowy O\u015brodek Wychowawczy w Julianpolu",
                "name": "M\u0142odzie\u017cowy O\u015brodek Wychowawczy w Julianpolu",
                "addr:country": "PL",
                "addr:postcode": "46-325",
                "addr:place": "Julianpol",
                "addr:housenumber": "155",
                "addr:teryt:sym_ul": 144928,
                "contact:phone": "+48 343506336",
                "contact:email": "edu_res-julianpol@o2.pl",
                "contact:website": "http:\/\/www.edu-res.pl",
                "ref:regon": "161490048",
                "operator": "Henryk Wrzesie\u0144",
                "operator:type": "private",
                "fixme": "amenity=social_facility + social_facility=group_home + social_facility:for=juvenile",
                "note": "Children RSPO: 263734"
            }
        },
        {
            "id": 263734,
            "type": "Feature",
            "geometry": {
                "type": "Point",
                "coordinates": [
                    18.6621193,
                    51.018627699999996
                ]
            },
            "properties": {
                "isced:level": "1;2",
                "ref:rspo": 263734,
                "official_name": "Szko\u0142a Podstawowa Specjalna Przy M\u0142odzie\u017cowym O\u015brodku Wychowawczym w Julianpolu",
                "name": "Szko\u0142a Podstawowa Specjalna Przy M\u0142odzie\u017cowym O\u015brodku Wychowawczym w Julianpolu",
                "addr:country": "PL",
                "addr:postcode": "46-325",
                "addr:place": "Julianpol",
                "addr:housenumber": "155",
                "addr:teryt:sym_ul": 144928,
                "contact:phone": "+48 343506336",
                "contact:email": "edu_res-julianpol@go2.pl",
                "contact:website": "http:\/\/www.edu-res.pl",
                "ref:regon": "368218018",
                "operator": "Henryk Wrzesie\u0144",
                "operator:type": "private",
                "amenity": "school",
                "note": "Parent RSPO: 44211"
            }
        },
        {
            "id": 21883,
            "type": "Feature",
            "geometry": {
                "type": "Point",
                "coordinates": [
                    18.643582,
                    51.0301119
                ]
            },
            "properties": {
                "isced:level": "1;2",
                "ref:rspo": 21883,
                "official_name": "Publiczna Szko\u0142a Podstawowa im. Miko\u0142aja Kopernika w Jaworznie",
                "name": "Publiczna Szko\u0142a Podstawowa",
                "addr:country": "PL",
                "addr:postcode": "46-325",
                "addr:place": "Mirowszczyzna",
                "addr:housenumber": "43",
                "addr:teryt:sym_ul": 145017,
                "contact:phone": "+48 343595039",
                "contact:email": "pspjaworzno@rudniki.pl",
                "contact:website": "http:\/\/www.pspjaworzno.szkolnastrona.pl",
                "ref:regon": "001198027",
                "ref:vatin": "PL5761433703",
                "operator": "Gmina Rudniki",
                "operator:type": "government",
                "amenity": "school"
            }
        },
        {
            "id": 21716,
            "type": "Feature",
            "geometry": {
                "type": "Point",
                "coordinates": [
                    18.59864,
                    51.04026
                ]
            },
            "properties": {
                "ref:rspo": 21716,
                "official_name": "Publiczne Przedszkole w Rudnikach",
                "name": "Publiczne Przedszkole w Rudnikach",
                "addr:country": "PL",
                "addr:postcode": "46-325",
                "addr:city": "Rudniki",
                "addr:street": "Wielu\u0144ska",
                "addr:housenumber": "4",
                "addr:teryt:simc": 24117,
                "addr:teryt:sym_ul": 145129,
                "contact:phone": "+48 343595036",
                "contact:email": "pprudniki@rudniki.pl",
                "contact:website": "http:\/\/www.pprudniki.szkolnastrona.pl\/",
                "ref:regon": "531642173",
                "ref:vatin": "PL5761433732",
                "operator": "Gmina Rudniki",
                "operator:type": "government",
                "amenity": "kindergarten"
            }
        },
        {
            "id": 262680,
            "type": "Feature",
            "geometry": {
                "type": "Point",
                "coordinates": [
                    18.59702,
                    51.04234
                ]
            },
            "properties": {
                "isced:level": "1;2",
                "ref:rspo": 262680,
                "official_name": "Publiczna Szko\u0142a Podstawowa im. Andrzeja Wajdy w Rudnikach",
                "name": "Publiczna Szko\u0142a Podstawowa",
                "addr:country": "PL",
                "addr:postcode": "46-325",
                "addr:city": "Rudniki",
                "addr:street": "Wielu\u0144ska",
                "addr:housenumber": "6",
                "addr:teryt:simc": 24117,
                "addr:teryt:sym_ul": 145129,
                "contact:phone": "+48 343595032",
                "contact:email": "psprudniki@rudniki.pl",
                "contact:website": "http:\/\/www.psprudniki.pl",
                "ref:regon": "368050837",
                "operator": "Gmina Rudniki",
                "operator:type": "government",
                "amenity": "school"
            }
        },
        {
            "id": 22055,
            "type": "Feature",
            "geometry": {
                "type": "Point",
                "coordinates": [
                    18.5890875,
                    51.0770708
                ]
            },
            "properties": {
                "isced:level": "1;2",
                "ref:rspo": 22055,
                "official_name": "Publiczna Szko\u0142a Podstawowa im. Jana Paw\u0142a II w Dalachowie",
                "name": "Publiczna Szko\u0142a Podstawowa",
                "addr:country": "PL",
                "addr:postcode": "46-325",
                "addr:place": "Dalach\u00f3w",
                "addr:housenumber": "217",
                "addr:teryt:sym_ul": 144779,
                "contact:phone": "+48 343593874",
                "contact:email": "spdalachow@poczta.onet.pl",
                "contact:website": "http:\/\/www.spdalachow.szkolnastrona.pl",
                "ref:regon": "001198010",
                "ref:vatin": "PL5761433755",
                "operator": "Gmina Rudniki",
                "operator:type": "government",
                "amenity": "school"
            }
        }
    ]
}