{
    "type": "FeatureCollection",
    "features": [
        {
            "id": 196269,
            "type": "Feature",
            "geometry": {
                "type": "Point",
                "coordinates": [
                    18.53477,
                    50.93276
                ]
            },
            "properties": {
                "isced:level": "1;2",
                "ref:rspo": 196269,
                "official_name": "Publiczna Szko\u0142a Podstawowa w Rad\u0142owie",
                "name": "Publiczna Szko\u0142a Podstawowa w Rad\u0142owie",
                "addr:postcode": "46-331",
                "addr:city": "Rad\u0142\u00f3w",
                "addr:street": "Oleska",
                "addr:housenumber": "1",
                "addr:teryt:simc": 144383,
                "addr:teryt:sym_ul": 14973,
                "phone": "+48 343599024",
                "email": "lebar@interia.pl",
                "website": "http:\/\/www.spradlow.edupage.org",
                "ref:regon": "367988777",
                "ref:vatin": "PL5761582679",
                "operator": "Gmina Rad\u0142\u00f3w",
                "operator:type": "government",
                "amenity": "school"
            }
        },
        {
            "id": 21331,
            "type": "Feature",
            "geometry": {
                "type": "Point",
                "coordinates": [
                    18.5610904,
                    50.9702828
                ]
            },
            "properties": {
                "ref:rspo": 21331,
                "official_name": "Publiczne Przedszkole w Sternalicach",
                "name": "Publiczne Przedszkole w Sternalicach",
                "addr:postcode": "46-333",
                "addr:place": "Sternalice",
                "addr:housenumber": "81",
                "addr:teryt:simc": 144443,
                "phone": "+48 343599388",
                "email": "ppsternalice@radlow.pl",
                "ref:regon": "531651551",
                "ref:vatin": "PL5761533623",
                "operator": "Gmina Rad\u0142\u00f3w",
                "operator:type": "government",
                "amenity": "kindergarten"
            }
        },
        {
            "id": 21348,
            "type": "Feature",
            "geometry": {
                "type": "Point",
                "coordinates": [
                    18.5624429,
                    50.970653
                ]
            },
            "properties": {
                "isced:level": "1;2",
                "ref:rspo": 21348,
                "official_name": "Publiczna Szko\u0142a Podstawowa w Sternalicach",
                "name": "Publiczna Szko\u0142a Podstawowa w Sternalicach",
                "addr:postcode": "46-333",
                "addr:place": "Sternalice",
                "addr:housenumber": "8",
                "addr:teryt:simc": 144443,
                "phone": "+48 343599262",
                "email": "pspsternalice8@o2.pl",
                "website": "http:\/\/www.sps.radlow.pl",
                "ref:regon": "000715615",
                "ref:vatin": "PL5761450044",
                "operator": "Gmina Rad\u0142\u00f3w",
                "operator:type": "government",
                "amenity": "school"
            }
        },
        {
            "id": 21368,
            "type": "Feature",
            "geometry": {
                "type": "Point",
                "coordinates": [
                    18.505402,
                    50.973954
                ]
            },
            "properties": {
                "isced:level": "1;2",
                "ref:rspo": 21368,
                "official_name": "Publiczna Szko\u0142a Podstawowa Pomnik 1000 Lecia w Ko\u015bcieliskach",
                "name": "Publiczna Szko\u0142a Podstawowa Pomnik 1000 Lecia w Ko\u015bcieliskach",
                "addr:postcode": "46-324",
                "addr:place": "Ko\u015bcieliska",
                "addr:housenumber": "28",
                "addr:teryt:simc": 144294,
                "phone": "+48 343599902",
                "email": "pspkoscieliska@poczta.fm",
                "ref:regon": "000715609",
                "ref:vatin": "PL5761450038",
                "operator": "Gmina Rad\u0142\u00f3w",
                "operator:type": "government",
                "amenity": "school"
            }
        },
        {
            "id": 21332,
            "type": "Feature",
            "geometry": {
                "type": "Point",
                "coordinates": [
                    18.50461,
                    50.974446
                ]
            },
            "properties": {
                "ref:rspo": 21332,
                "official_name": "Publiczne Przedszkole w Ko\u015bcieliskach",
                "name": "Publiczne Przedszkole w Ko\u015bcieliskach",
                "addr:postcode": "46-324",
                "addr:place": "Ko\u015bcieliska",
                "addr:housenumber": "30",
                "addr:teryt:simc": 144294,
                "phone": "+48 343599526",
                "email": "ppkoscieliska@radlow.pl",
                "ref:regon": "531651539",
                "ref:vatin": "PL5761533646",
                "operator": "Gmina Rad\u0142\u00f3w",
                "operator:type": "government",
                "amenity": "kindergarten"
            }
        }
    ]
}