{"type":"FeatureCollection","features":[{"id":81382,"type":"Feature","geometry":{"type":"Point","coordinates":[18.47302,50.66564]},"properties":{"ref:rspo":81382,"official_name":"Zesp\u00f3\u0142 Szkolno-Przedszkolny im.marii Konopnickiej Przedszkole Samorz\u0105dowe w Pludrach","name":"Zesp\u00f3\u0142 Szkolno-Przedszkolny im.marii Konopnickiej Przedszkole Samorz\u0105dowe w Pludrach","addr:country":"PL","addr:postcode":"46-375","addr:city":"Pludry","addr:street":"ul. Szkolna","addr:housenumber":"2","addr:teryt:simc":21970,"addr:teryt:sym_ul":131280,"contact:phone":"+48 343537530","ref:regon":"531622087","ref:vatin":"PL5751436723","operator":"Gmina Dobrodzie\u0144","operator:type":"government","amenity":"kindergarten","note":"Parent RSPO: 67852"}},{"id":67852,"type":"Feature","geometry":{"type":"Point","coordinates":[18.4736,50.67023]},"properties":{"ref:rspo":67852,"official_name":"Zesp\u00f3\u0142 Szkolno-Przedszkolny im.marii Konopnickiej w Pludrach","name":"Zesp\u00f3\u0142 Szkolno-Przedszkolny im.marii Konopnickiej w Pludrach","addr:country":"PL","addr:postcode":"46-375","addr:city":"Pludry","addr:street":"ul. Aleja Wyzwolenia","addr:housenumber":"4B","addr:teryt:simc":35290,"addr:teryt:sym_ul":131280,"contact:phone":"+48 343537511","contact:email":"zsp.pludry@superszkolna.pl","ref:regon":"532461752","operator":"Gmina Dobrodzie\u0144","operator:type":"government","landuse":"education","fixme":"amenity=school, amenity=college albo landuse=education w zale\u017cno\u015bci od tego, jakie plac\u00f3wki wchodz\u0105 w sk\u0142ad zespo\u0142u. Sprawd\u017a, kiedy stosowa\u0107 amenity=* a kiedy landuse=education.","note":"Children RSPO: 81381;81382"}},{"id":81381,"type":"Feature","geometry":{"type":"Point","coordinates":[18.4736,50.670199999999994]},"properties":{"isced:level":"1;2","ref:rspo":81381,"official_name":"Zesp\u00f3\u0142 Szkolno-Przedszkolny im.marii Konopnickiej Publiczna Szko\u0142a Podstawowa w Pludrach","name":"Zesp\u00f3\u0142 Szkolno-Przedszkolny im.marii Konopnickiej Publiczna Szko\u0142a Podstawowa w Pludrach","addr:country":"PL","addr:postcode":"46-375","addr:city":"Pludry","addr:street":"ul. Aleja Wyzwolenia","addr:housenumber":"4B","addr:teryt:simc":35290,"addr:teryt:sym_ul":131280,"contact:phone":"+48 343537511","contact:email":"zsp.pludry@superszkolna.pl","ref:regon":"001155153","ref:vatin":"PL5751436812","operator":"Gmina Dobrodzie\u0144","operator:type":"government","amenity":"school","note":"Parent RSPO: 67852"}},{"id":67854,"type":"Feature","geometry":{"type":"Point","coordinates":[18.46128,50.68918]},"properties":{"isced:level":"1;2","ref:rspo":67854,"official_name":"Niepubliczna Szko\u0142a Podstawowa w Bzinicy Starej","name":"Niepubliczna Szko\u0142a Podstawowa w Bzinicy Starej","addr:country":"PL","addr:postcode":"46-380","addr:city":"Bzinica Stara","addr:street":"ul. Karola Miarki","addr:housenumber":"2","addr:teryt:simc":12674,"addr:teryt:sym_ul":131340,"contact:phone":"+48 343537535","contact:email":"nsp.bzinica@poczta.onet.pl","contact:website":"http:\/\/nspbzinica.wodip.opole.pl","ref:regon":"161490806","ref:vatin":"PL5761498424","operator":"Stowarzyszenie Rozwoju Wsi Bzinica Stara Bzinica Nowa, B\u0105ki, Kolejka","operator:type":"ngo","amenity":"school"}},{"id":67856,"type":"Feature","geometry":{"type":"Point","coordinates":[18.36593,50.71978]},"properties":{"isced:level":"1;2","ref:rspo":67856,"official_name":"Publiczna Szko\u0142a Podstawowa w Turzy","name":"Publiczna Szko\u0142a Podstawowa w Turzy","addr:country":"PL","addr:postcode":"46-380","addr:city":"Turza","addr:street":"ul. Kolejowa","addr:housenumber":"27","addr:teryt:simc":8828,"addr:teryt:sym_ul":131386,"contact:phone":"+48 343537207","contact:email":"sekretariat@pspturza.pl","contact:website":"http:\/\/pspturza.pl\/","ref:regon":"001155176","ref:vatin":"PL5751436775","operator":"Gmina Dobrodzie\u0144","operator:type":"government","amenity":"school"}},{"id":67859,"type":"Feature","geometry":{"type":"Point","coordinates":[18.44644,50.71984]},"properties":{"isced:level":"1;2","ref:rspo":67859,"official_name":"Publiczna Szko\u0142a Podstawowa im.powsta\u0144c\u00f3w \u015aL\u0105skich w Dobrodzieniu","name":"Publiczna Szko\u0142a Podstawowa im.powsta\u0144c\u00f3w \u015aL\u0105skich w Dobrodzieniu","addr:country":"PL","addr:postcode":"46-380","addr:city":"Dobrodzie\u0144","addr:street":"ul. Piastowska","addr:housenumber":"49","addr:teryt:simc":16046,"addr:teryt:sym_ul":931454,"contact:phone":"+48 343575207","contact:email":"sekretariat@psp.dobrodzien.pl","ref:regon":"000261485","ref:vatin":"PL5751436769","operator":"Gmina Dobrodzie\u0144","operator:type":"government","amenity":"school"}},{"id":67862,"type":"Feature","geometry":{"type":"Point","coordinates":[18.44575,50.72025]},"properties":{"ref:rspo":67862,"official_name":"Przedszkole Z Oddzia\u0142ami Integracyjnymi","name":"Przedszkole Z Oddzia\u0142ami Integracyjnymi","addr:country":"PL","addr:postcode":"46-380","addr:city":"Dobrodzie\u0144","addr:street":"ul. Piastowska","addr:housenumber":"64","addr:teryt:simc":16046,"addr:teryt:sym_ul":931454,"contact:phone":"+48 343575320","contact:email":"ewamacha63@o2.pl","ref:regon":"531622064","ref:vatin":"PL5751436746","operator":"Gmina Dobrodzie\u0144","operator:type":"government","amenity":"kindergarten"}},{"id":67863,"type":"Feature","geometry":{"type":"Point","coordinates":[18.40607,50.72072]},"properties":{"ref:rspo":67863,"official_name":"Przedszkole Niepubliczne Integracyjne \"Promyk\"","name":"Przedszkole Niepubliczne Integracyjne \"Promyk\"","addr:country":"PL","addr:postcode":"46-380","addr:city":"B\u0142ach\u00f3w","addr:street":"ul. Szkolna","addr:housenumber":"2","addr:teryt:simc":21970,"addr:teryt:sym_ul":131080,"contact:phone":"+48 343506475","contact:email":"ablachecka@op.pl","ref:regon":"161490769","ref:vatin":"PL5761509429","operator":"Agata Blachecka","operator:type":"private","amenity":"kindergarten"}},{"id":10814,"type":"Feature","geometry":{"type":"Point","coordinates":[18.44678,50.72199]},"properties":{"ref:rspo":10814,"official_name":"Zesp\u00f3\u0142 Plac\u00f3wek Edukacyjnych w Dobrodzieniu","name":"Zesp\u00f3\u0142 Plac\u00f3wek Edukacyjnych w Dobrodzieniu","addr:country":"PL","addr:postcode":"46-380","addr:city":"Dobrodzie\u0144","addr:street":"ul. Piastowska","addr:housenumber":"35","addr:teryt:simc":16046,"addr:teryt:sym_ul":931454,"contact:phone":"+48 343575248","contact:email":"soswdo@wp.pl","contact:website":"http:\/\/mos.dobrodzien.pl","ref:regon":"160269650","ref:vatin":"PL5761553011","operator":"Powiat Oleski","operator:type":"government","landuse":"education","fixme":"amenity=school, amenity=college albo landuse=education w zale\u017cno\u015bci od tego, jakie plac\u00f3wki wchodz\u0105 w sk\u0142ad zespo\u0142u. Sprawd\u017a, kiedy stosowa\u0107 amenity=* a kiedy landuse=education.","note":"Children RSPO: 12460;13073"}},{"id":12460,"type":"Feature","geometry":{"type":"Point","coordinates":[18.44678,50.721959999999996]},"properties":{"ref:rspo":12460,"official_name":"Specjalny O\u015brodek Szkolno-Wychowawczy w Dobrodzieniu","name":"Specjalny O\u015brodek Szkolno-Wychowawczy w Dobrodzieniu","addr:country":"PL","addr:postcode":"46-380","addr:city":"Dobrodzie\u0144","addr:street":"ul. Piastowska","addr:housenumber":"35","addr:teryt:simc":16046,"addr:teryt:sym_ul":931454,"contact:phone":"+48 343575248","contact:email":"soswdo@wp.pl","contact:website":"http:\/\/mos.dobrodzien.pl","ref:regon":"000207238","ref:vatin":"PL5751039778","operator":"Powiat Oleski","operator:type":"government","amenity":"school","note":"Children RSPO: 16997;17015Parent RSPO: 10814"}},{"id":13073,"type":"Feature","geometry":{"type":"Point","coordinates":[18.44678,50.72193]},"properties":{"ref:rspo":13073,"official_name":"M\u0142odziezowy O\u015brodek Socjoterapii w Dobrodzieniu","name":"M\u0142odziezowy O\u015brodek Socjoterapii w Dobrodzieniu","addr:country":"PL","addr:postcode":"46-380","addr:city":"Dobrodzie\u0144","addr:street":"ul. Piastowska","addr:housenumber":"35","addr:teryt:simc":16046,"addr:teryt:sym_ul":931454,"contact:phone":"+48 343575248","contact:email":"soswdo@wp.pl","ref:regon":"160278270","operator":"Powiat Oleski","operator:type":"government","fixme":"amenity=social facility + social_facility=group_home + social_facility:for=juvenile","note":"Children RSPO: 131781Parent RSPO: 10814"}},{"id":16997,"type":"Feature","geometry":{"type":"Point","coordinates":[18.44678,50.7219]},"properties":{"isced:level":"1;2","ref:rspo":16997,"official_name":"Szko\u0142a Podstawowa Specjalna Przy Specjalnym O\u015brodku Szkolno-Wychowawczym w Dobrodzieniu","name":"Szko\u0142a Podstawowa Specjalna Przy Specjalnym O\u015brodku Szkolno-Wychowawczym w Dobrodzieniu","addr:country":"PL","addr:postcode":"46-380","addr:city":"Dobrodzie\u0144","addr:street":"ul. Piastowska","addr:housenumber":"35","addr:teryt:simc":16046,"addr:teryt:sym_ul":931454,"contact:phone":"+48 343575248","contact:email":"soswdo@wp.pl","contact:website":"http:\/\/soswd.republika.pl","ref:regon":"532212300","operator":"Powiat Oleski","operator:type":"government","amenity":"school","note":"Parent RSPO: 12460"}},{"id":17015,"type":"Feature","geometry":{"type":"Point","coordinates":[18.44678,50.721869999999996]},"properties":{"ref:rspo":17015,"official_name":"Szko\u0142a Specjalna Przysposabiaj\u0105ca Do Pracy Przy Specjalnym O\u015brodku Szkolno-Wychowawczym w Dobrodzieniu","name":"Szko\u0142a Specjalna Przysposabiaj\u0105ca Do Pracy Przy Specjalnym O\u015brodku Szkolno-Wychowawczym w Dobrodzieniu","addr:country":"PL","addr:postcode":"46-380","addr:city":"Dobrodzie\u0144","addr:street":"ul. Piastowska","addr:housenumber":"35","addr:teryt:simc":16046,"addr:teryt:sym_ul":931454,"contact:phone":"+48 343575248","contact:email":"soswdo@wp.pl","contact:website":"http:\/\/mos.dobrodzien.pl","ref:regon":"161482155","operator":"Powiat Oleski","operator:type":"government","amenity":"school","note":"Parent RSPO: 12460"}},{"id":131781,"type":"Feature","geometry":{"type":"Point","coordinates":[18.44678,50.72184]},"properties":{"isced:level":"1;2","ref:rspo":131781,"official_name":"Szko\u0142a Podstawowa Specjalna","name":"Szko\u0142a Podstawowa Specjalna","addr:country":"PL","addr:postcode":"46-380","addr:city":"Dobrodzie\u0144","addr:street":"ul. Piastowska","addr:housenumber":"35","addr:teryt:simc":16046,"addr:teryt:sym_ul":931454,"contact:phone":"+48 343575248","contact:email":"soswdo@wp.pl","contact:website":"http:\/\/mos.dobrodzien.pl","ref:regon":"365348252","operator":"Powiat Oleski","operator:type":"government","amenity":"school","note":"Parent RSPO: 13073"}},{"id":25785,"type":"Feature","geometry":{"type":"Point","coordinates":[18.44389,50.73196]},"properties":{"ref:rspo":25785,"official_name":"Zesp\u00f3\u0142 Szk\u00f3\u0142 w Dobrodzieniu","name":"Zesp\u00f3\u0142 Szk\u00f3\u0142 w Dobrodzieniu","addr:country":"PL","addr:postcode":"46-380","addr:city":"Dobrodzie\u0144","addr:street":"ul. Oleska","addr:housenumber":"7","addr:teryt:simc":14973,"addr:teryt:sym_ul":931454,"contact:phone":"+48 343575245","contact:email":"zsdobrodzien@poczta.onet.pl","contact:website":"http:\/\/www.zspdobrodzien.pl","ref:regon":"000198456","ref:vatin":"PL5751025291","operator":"Powiat Oleski","operator:type":"government","landuse":"education","fixme":"amenity=school, amenity=college albo landuse=education w zale\u017cno\u015bci od tego, jakie plac\u00f3wki wchodz\u0105 w sk\u0142ad zespo\u0142u. Sprawd\u017a, kiedy stosowa\u0107 amenity=* a kiedy landuse=education.","note":"Children RSPO: 34396;34398;34399;104957;273313;275883"}},{"id":34396,"type":"Feature","geometry":{"type":"Point","coordinates":[18.44389,50.73193]},"properties":{"isced:level":"3","ref:rspo":34396,"official_name":"Liceum Og\u00f3lnokszta\u0142c\u0105ce im. Adama Mickiewicza w Dobrodzieniu","name":"Liceum Og\u00f3lnokszta\u0142c\u0105ce","addr:country":"PL","addr:postcode":"46-380","addr:city":"Dobrodzie\u0144","addr:street":"ul. Oleska","addr:housenumber":"7","addr:teryt:simc":14973,"addr:teryt:sym_ul":931454,"contact:phone":"+48 343575246","contact:email":"zsdobrodzien@poczta.onet.pl","contact:website":"http:\/\/www.zspdobrodzien.pl","ref:regon":"532334410","operator":"Powiat Oleski","operator:type":"government","amenity":"school","note":"Parent RSPO: 25785"}},{"id":34398,"type":"Feature","geometry":{"type":"Point","coordinates":[18.44389,50.7319]},"properties":{"isced:level":"3","ref:rspo":34398,"official_name":"Technikum w Dobrodzieniu","name":"Technikum w Dobrodzieniu","addr:country":"PL","addr:postcode":"46-380","addr:city":"Dobrodzie\u0144","addr:street":"ul. Oleska","addr:housenumber":"7","addr:teryt:simc":14973,"addr:teryt:sym_ul":931454,"contact:phone":"+48 343575246","contact:email":"zsdobrodzien@poczta.onet.pl","contact:website":"http:\/\/www.zspdobrodzien.pl","ref:regon":"532382277","operator":"Powiat Oleski","operator:type":"government","amenity":"school","note":"Parent RSPO: 25785"}},{"id":34399,"type":"Feature","geometry":{"type":"Point","coordinates":[18.44389,50.73187]},"properties":{"isced:level":"3","ref:rspo":34399,"official_name":"Bran\u017cowa Szko\u0142a I Stopnia im. Wojska Polskiego w Dobrodzieniu","name":"Bran\u017cowa Szko\u0142a I Stopnia","addr:country":"PL","addr:postcode":"46-380","addr:city":"Dobrodzie\u0144","addr:street":"ul. Oleska","addr:housenumber":"7","addr:teryt:simc":14973,"addr:teryt:sym_ul":931454,"contact:phone":"+48 343575246","contact:email":"zsdobrodzien@poczta.onet.pl","contact:website":"http:\/\/www.zspdobrodzien.pl","ref:regon":"532334427","operator":"Powiat Oleski","operator:type":"government","amenity":"school","note":"Parent RSPO: 25785"}},{"id":104957,"type":"Feature","geometry":{"type":"Point","coordinates":[18.44389,50.73184]},"properties":{"isced:level":"3","ref:rspo":104957,"official_name":"Liceum Og\u00f3lnokszta\u0142c\u0105ce dla Doros\u0142ych w Dobrodzieniu","name":"Liceum Og\u00f3lnokszta\u0142c\u0105ce dla Doros\u0142ych w Dobrodzieniu","addr:country":"PL","addr:postcode":"46-380","addr:city":"Dobrodzie\u0144","addr:street":"ul. Oleska","addr:housenumber":"7","addr:teryt:simc":14973,"addr:teryt:sym_ul":931454,"contact:phone":"+48 343575246","contact:email":"zsdobrodzien@poczta.onet.pl","contact:website":"http:\/\/www.zspdobrodzien.pl","ref:regon":"161501094","operator":"Powiat Oleski","operator:type":"government","amenity":"school","note":"Parent RSPO: 25785"}},{"id":273313,"type":"Feature","geometry":{"type":"Point","coordinates":[18.44389,50.73181]},"properties":{"ref:rspo":273313,"official_name":"Centrum Kszta\u0142cenia Zawodowego w Zespole Szk\u00f3\u0142 w Dobrodzieniu","name":"Centrum Kszta\u0142cenia Zawodowego w Zespole Szk\u00f3\u0142 w Dobrodzieniu","addr:country":"PL","addr:postcode":"46-380","addr:city":"Dobrodzie\u0144","addr:street":"ul. Oleska","addr:housenumber":"7","addr:teryt:simc":14973,"addr:teryt:sym_ul":931454,"contact:phone":"+48 343575246","contact:email":"zsdobrodzien@poczta.onet.pl","contact:website":"http:\/\/zspdobrodzen.pl","ref:regon":"384440431","operator":"Powiat Oleski","operator:type":"government","fixme":"w zale\u017cno\u015bci od przedmiotu dzia\u0142alno\u015bci (np. amenity=training + training=*, amenity=dancing_school, amenity=language_school, amenity=music_school) albo amenity=school, amenity=college, albo landuse=education w zale\u017cno\u015bci od tego, jakie plac\u00f3wki wchodz\u0105 w sk\u0142ad zespo\u0142u. Sprawd\u017a, kiedy stosowa\u0107 amenity=* a kiedy landuse=education.","note":"Parent RSPO: 25785"}},{"id":275883,"type":"Feature","geometry":{"type":"Point","coordinates":[18.44389,50.73178]},"properties":{"isced:level":"3","ref:rspo":275883,"official_name":"Bran\u017cowa Szko\u0142a II Stopnia w Dobrodzieniu","name":"Bran\u017cowa Szko\u0142a II Stopnia w Dobrodzieniu","addr:country":"PL","addr:postcode":"46-380","addr:city":"Dobrodzie\u0144","addr:street":"ul. Oleska","addr:housenumber":"7","addr:teryt:simc":14973,"addr:teryt:sym_ul":931454,"contact:phone":"+48 343575245","contact:email":"zsdobrodzien@poczta.onet.pl","contact:website":"http:\/\/www.zspdobrodzien.pl","ref:regon":"386947298","operator":"Powiat Oleski","operator:type":"government","amenity":"school","note":"Parent RSPO: 25785"}},{"id":120626,"type":"Feature","geometry":{"type":"Point","coordinates":[18.48282,50.73559]},"properties":{"ref:rspo":120626,"official_name":"Zesp\u00f3\u0142 Szkolno-Przedszkolny w Gos\u0142awicach","name":"Zesp\u00f3\u0142 Szkolno-Przedszkolny w Gos\u0142awicach","addr:country":"PL","addr:postcode":"46-380","addr:city":"Gos\u0142awice","addr:street":"ul. Sierakowska","addr:housenumber":"1","addr:teryt:simc":19847,"addr:teryt:sym_ul":131127,"contact:phone":"+48 343506132","contact:email":"zsp.goslawice@onet.eu","ref:regon":"161556876","ref:vatin":"PL5761577193","operator":"Stowarzyszenie Kreatywnej Edukacji","operator:type":"ngo","landuse":"education","fixme":"amenity=school, amenity=college albo landuse=education w zale\u017cno\u015bci od tego, jakie plac\u00f3wki wchodz\u0105 w sk\u0142ad zespo\u0142u. Sprawd\u017a, kiedy stosowa\u0107 amenity=* a kiedy landuse=education.","note":"Children RSPO: 119774;119775"}},{"id":119774,"type":"Feature","geometry":{"type":"Point","coordinates":[18.48282,50.73556]},"properties":{"isced:level":"1;2","ref:rspo":119774,"official_name":"Zesp\u00f3\u0142 Szkolno-Przedszkolny Szko\u0142a Podstawowa w Gos\u0142awicach","name":"Zesp\u00f3\u0142 Szkolno-Przedszkolny Szko\u0142a Podstawowa w Gos\u0142awicach","addr:country":"PL","addr:postcode":"46-380","addr:city":"Gos\u0142awice","addr:street":"ul. Sierakowska","addr:housenumber":"1","addr:teryt:simc":19847,"addr:teryt:sym_ul":131127,"contact:phone":"+48 343506132","contact:email":"zsp.goslawice@onet.eu","ref:regon":"161550721","operator":"Stowarzyszenie Kreatywnej Edukacji","operator:type":"ngo","amenity":"school","note":"Parent RSPO: 120626"}},{"id":119775,"type":"Feature","geometry":{"type":"Point","coordinates":[18.48282,50.735530000000004]},"properties":{"ref:rspo":119775,"official_name":"Zesp\u00f3\u0142 Szkolno-Przedszkolny Przedszkole w Gos\u0142awicach","name":"Zesp\u00f3\u0142 Szkolno-Przedszkolny Przedszkole w Gos\u0142awicach","addr:country":"PL","addr:postcode":"46-380","addr:city":"Gos\u0142awice","addr:street":"ul. Sierakowska","addr:housenumber":"1","addr:teryt:simc":19847,"addr:teryt:sym_ul":131127,"contact:phone":"+48 343506132","contact:email":"zsp.goslawice@onet.eu","ref:regon":"161550744","operator":"Stowarzyszenie Kreatywnej Edukacji","operator:type":"ngo","amenity":"kindergarten","note":"Parent RSPO: 120626"}},{"id":67857,"type":"Feature","geometry":{"type":"Point","coordinates":[18.3983199,50.75027]},"properties":{"isced:level":"1;2","ref:rspo":67857,"official_name":"Publiczna Szko\u0142a Podstawowa w Szemrowicach","name":"Publiczna Szko\u0142a Podstawowa w Szemrowicach","addr:country":"PL","addr:postcode":"46-380","addr:city":"Szemrowice","addr:street":"ul. Wiejska","addr:housenumber":"2","addr:teryt:simc":24048,"addr:teryt:sym_ul":131363,"contact:phone":"+48 343575355","contact:email":"sekretariat@psp-szemrowice.pl","contact:website":"http:\/\/www.pspszemrowice.pl","ref:regon":"001155160","ref:vatin":"PL5751436692","operator":"Gmina Dobrodzie\u0144","operator:type":"government","amenity":"school"}}]}