{
    "type": "FeatureCollection",
    "features": [
        {
            "id": 26565,
            "type": "Feature",
            "geometry": {
                "type": "Point",
                "coordinates": [
                    21.49555,
                    51.32504
                ]
            },
            "properties": {
                "isced:level": "1;2",
                "ref:rspo": 26565,
                "official_name": "Publiczna Szko\u0142a Podstawowa w Brzezinkach Starych",
                "name": "Publiczna Szko\u0142a Podstawowa w Brzezinkach Starych",
                "addr:country": "PL",
                "addr:postcode": "26-706",
                "addr:place": "Brzezinki Stare",
                "addr:housenumber": "BN",
                "addr:teryt:sym_ul": 639914,
                "contact:phone": "+48 486768001",
                "contact:email": "pspbrzezinki@o2.pl",
                "ref:regon": "001188922",
                "ref:vatin": "PL8111691804",
                "operator": "Gmina Tcz\u00f3w",
                "operator:type": "government",
                "amenity": "school"
            }
        },
        {
            "id": 39113,
            "type": "Feature",
            "geometry": {
                "type": "Point",
                "coordinates": [
                    21.44581,
                    51.32611
                ]
            },
            "properties": {
                "isced:level": "1;2",
                "ref:rspo": 39113,
                "official_name": "Szko\u0142a Podstawowa im. Jana Paw\u0142a II w Tczowie",
                "name": "Szko\u0142a Podstawowa",
                "addr:country": "PL",
                "addr:postcode": "26-706",
                "addr:place": "Tcz\u00f3w",
                "addr:housenumber": "113",
                "addr:teryt:sym_ul": 639943,
                "contact:phone": "+48 486768009",
                "contact:email": "psptczow@tczow.pl",
                "ref:regon": "000558570",
                "ref:vatin": "PL8111691750",
                "operator": "Gmina Tcz\u00f3w",
                "operator:type": "government",
                "amenity": "school"
            }
        },
        {
            "id": 119077,
            "type": "Feature",
            "geometry": {
                "type": "Point",
                "coordinates": [
                    21.44653,
                    51.3278899
                ]
            },
            "properties": {
                "ref:rspo": 119077,
                "official_name": "Przedszkole Gminne w Tczowie",
                "name": "Przedszkole Gminne w Tczowie",
                "addr:country": "PL",
                "addr:postcode": "26-706",
                "addr:place": "Tcz\u00f3w",
                "addr:housenumber": "117B",
                "addr:teryt:sym_ul": 639943,
                "contact:phone": "+48 483703834",
                "contact:email": "przedszkole.tczow@gmail.com",
                "ref:regon": "146834172",
                "operator": "Gmina Tcz\u00f3w",
                "operator:type": "government",
                "amenity": "kindergarten"
            }
        },
        {
            "id": 26717,
            "type": "Feature",
            "geometry": {
                "type": "Point",
                "coordinates": [
                    21.39107,
                    51.33371
                ]
            },
            "properties": {
                "isced:level": "1;2",
                "ref:rspo": 26717,
                "official_name": "Publiczna Szko\u0142a Podstawowa im. Kr\u00f3lowej \u015aw. Jadwigi w Rawicy",
                "name": "Publiczna Szko\u0142a Podstawowa",
                "addr:country": "PL",
                "addr:postcode": "26-706",
                "addr:place": "Rawica-Kolonia",
                "addr:housenumber": "BN",
                "addr:teryt:sym_ul": 995595,
                "contact:phone": "+48 486769828",
                "contact:email": "psprawica@tczow.pl",
                "contact:website": "http:\/\/psprawica.szkolnastrona.pl",
                "ref:regon": "001188945",
                "ref:vatin": "PL8111691773",
                "operator": "Gmina Tcz\u00f3w",
                "operator:type": "government",
                "amenity": "school"
            }
        },
        {
            "id": 26614,
            "type": "Feature",
            "geometry": {
                "type": "Point",
                "coordinates": [
                    21.49174,
                    51.3594099
                ]
            },
            "properties": {
                "isced:level": "1;2",
                "ref:rspo": 26614,
                "official_name": "Publiczna Szko\u0142a Podstawowa im. Stefana \u017beromskiego w Janowie",
                "name": "Publiczna Szko\u0142a Podstawowa",
                "addr:country": "PL",
                "addr:postcode": "26-706",
                "addr:place": "Jan\u00f3w",
                "addr:housenumber": "28A",
                "addr:teryt:sym_ul": 639759,
                "contact:phone": "+48 486768094",
                "contact:email": "pspjanow@tczow.pl",
                "contact:website": "http:\/\/www.pspjanow.szkolnastrona.pl",
                "ref:regon": "001188916",
                "ref:vatin": "PL8111691767",
                "operator": "Gmina Tcz\u00f3w",
                "operator:type": "government",
                "amenity": "school"
            }
        }
    ]
}