{
    "type": "FeatureCollection",
    "features": [
        {
            "id": 43517,
            "type": "Feature",
            "geometry": {
                "type": "Point",
                "coordinates": [
                    21.3787,
                    51.23361
                ]
            },
            "properties": {
                "isced:level": "1;2",
                "ref:rspo": 43517,
                "official_name": "Publiczna Szko\u0142a Podstawowa w Kowalkowie",
                "name": "Publiczna Szko\u0142a Podstawowa w Kowalkowie",
                "addr:postcode": "26-713",
                "addr:place": "Kowalk\u00f3w-Kolonia",
                "addr:housenumber": "17",
                "addr:city:simc": 625881,
                "phone": "+48 486767854",
                "email": "pspkowalkow@o2.pl",
                "ref:regon": "001194650",
                "ref:vatin": "PL8111765477",
                "operator": "Gmina Kazan\u00f3w",
                "operator:type": "government",
                "amenity": "school"
            }
        },
        {
            "id": 34210,
            "type": "Feature",
            "geometry": {
                "type": "Point",
                "coordinates": [
                    21.46245,
                    51.27423
                ]
            },
            "properties": {
                "isced:level": "1;2",
                "ref:rspo": 34210,
                "official_name": "Zesp\u00f3\u0142 Plac\u00f3wek O\u015bwiatowych w Kazanowie Publiczna Szko\u0142a Podstawowa w Kazanowie",
                "name": "Zesp\u00f3\u0142 Plac\u00f3wek O\u015bwiatowych w Kazanowie Publiczna Szko\u0142a Podstawowa w Kazanowie",
                "addr:postcode": "26-713",
                "addr:city": "Kazan\u00f3w",
                "addr:street": "Ko\u015bcielna",
                "addr:housenumber": "52",
                "addr:city:simc": 625728,
                "addr:street:sym_ul": 9546,
                "phone": "+48 486766016",
                "email": "psp@kazanow.pl",
                "website": "http:\/\/www.kazanow.schoolpage.pl",
                "ref:regon": "000265388",
                "ref:vatin": "PL8111765454",
                "operator": "Gmina Kazan\u00f3w",
                "operator:type": "government",
                "amenity": "school"
            }
        },
        {
            "id": 43519,
            "type": "Feature",
            "geometry": {
                "type": "Point",
                "coordinates": [
                    21.46778,
                    51.27975
                ]
            },
            "properties": {
                "ref:rspo": 43519,
                "official_name": "Zesp\u00f3\u0142 Plac\u00f3wek O\u015bwiatowych w Kazanowie Publiczne Przedszkole w Kazanowie",
                "name": "Zesp\u00f3\u0142 Plac\u00f3wek O\u015bwiatowych w Kazanowie Publiczne Przedszkole w Kazanowie",
                "addr:postcode": "26-713",
                "addr:city": "Kazan\u00f3w",
                "addr:street": "Zwole\u0144ska",
                "addr:housenumber": "36",
                "addr:city:simc": 625728,
                "addr:street:sym_ul": 26313,
                "phone": "+48 486766063",
                "email": "pp@kazanow.pl",
                "ref:regon": "670922373",
                "operator": "Gmina Kazan\u00f3w",
                "operator:type": "government",
                "amenity": "kindergarten"
            }
        },
        {
            "id": 34227,
            "type": "Feature",
            "geometry": {
                "type": "Point",
                "coordinates": [
                    21.38162,
                    51.29165
                ]
            },
            "properties": {
                "isced:level": "1;2",
                "ref:rspo": 34227,
                "official_name": "Publiczna Szko\u0142a Podstawowa w Zakrz\u00f3wku",
                "name": "Publiczna Szko\u0142a Podstawowa w Zakrz\u00f3wku",
                "addr:postcode": "26-713",
                "addr:place": "Zakrz\u00f3wek-Wie\u015b",
                "addr:housenumber": "7",
                "addr:city:simc": 626478,
                "phone": "+48 486766047",
                "email": "pspzakrzowek@interia.pl",
                "ref:regon": "001194667",
                "ref:vatin": "PL8111765460",
                "operator": "Gmina Kazan\u00f3w",
                "operator:type": "government",
                "amenity": "school"
            }
        }
    ]
}