{
    "type": "FeatureCollection",
    "features": [
        {
            "id": 272296,
            "type": "Feature",
            "geometry": {
                "type": "Point",
                "coordinates": [
                    21.73543,
                    51.3222499
                ]
            },
            "properties": {
                "isced:level": "1;2",
                "ref:rspo": 272296,
                "official_name": "Publiczna Szko\u0142a Podstawowa w Przy\u0142\u0119ku",
                "name": "Publiczna Szko\u0142a Podstawowa w Przy\u0142\u0119ku",
                "addr:postcode": "26-704",
                "addr:place": "Przy\u0142\u0119k",
                "addr:housenumber": "142",
                "addr:teryt:simc": 633478,
                "phone": "+48 486773024",
                "email": "pspprzylek@interia.pl",
                "website": "http:\/\/pspprzylek.pl",
                "ref:regon": "384093136",
                "ref:vatin": "PL8111772649",
                "operator": "Gmina Przy\u0142\u0119k",
                "operator:type": "government",
                "amenity": "school"
            }
        },
        {
            "id": 24477,
            "type": "Feature",
            "geometry": {
                "type": "Point",
                "coordinates": [
                    21.69766,
                    51.32598
                ]
            },
            "properties": {
                "isced:level": "1;2",
                "ref:rspo": 24477,
                "official_name": "Publiczna Szko\u0142a Podstawowa im. Heleny D\u0142ugoszewskiej w Babinie",
                "name": "Publiczna Szko\u0142a Podstawowa",
                "addr:postcode": "26-704",
                "addr:place": "Babin",
                "addr:housenumber": "38",
                "addr:teryt:simc": 633260,
                "phone": "+48 486773072",
                "email": "pspbabin@op.pl",
                "website": "http:\/\/www.pspbabin.webd.pl",
                "ref:regon": "001146355",
                "ref:vatin": "PL8111694300",
                "operator": "Gmina Przy\u0142\u0119k",
                "operator:type": "government",
                "amenity": "school"
            }
        },
        {
            "id": 24667,
            "type": "Feature",
            "geometry": {
                "type": "Point",
                "coordinates": [
                    21.67539,
                    51.35506
                ]
            },
            "properties": {
                "isced:level": "1;2",
                "ref:rspo": 24667,
                "official_name": "Publiczna Szko\u0142a Podstawowa im. Haliny Miros\u0142awskiej w Grabowie Nad Wis\u0142\u0105",
                "name": "Publiczna Szko\u0142a Podstawowa",
                "addr:postcode": "26-704",
                "addr:place": "Grab\u00f3w nad Wis\u0142\u0105",
                "addr:housenumber": "57",
                "addr:teryt:simc": 633283,
                "phone": "+48 486775862",
                "email": "pspgrabow@op.pl",
                "website": "http:\/\/www.pspgrabow.szkolnastrona.pl",
                "ref:regon": "001146970",
                "ref:vatin": "PL8111696517",
                "operator": "Gmina Przy\u0142\u0119k",
                "operator:type": "government",
                "amenity": "school"
            }
        },
        {
            "id": 24632,
            "type": "Feature",
            "geometry": {
                "type": "Point",
                "coordinates": [
                    21.79395,
                    51.36943
                ]
            },
            "properties": {
                "isced:level": "1;2",
                "ref:rspo": 24632,
                "official_name": "Publiczna Szko\u0142a Podstawowa im. Pp\u0142k. Ak J\u00f3zefa Pawlaka \"Brzozy\" w \u0141aguszowie",
                "name": "Publiczna Szko\u0142a Podstawowa",
                "addr:postcode": "26-704",
                "addr:place": "\u0141agusz\u00f3w",
                "addr:housenumber": "29",
                "addr:teryt:simc": 633389,
                "phone": "+48 486775001",
                "email": "psplag@vp.pl",
                "website": "https:\/\/splaguszow.edupage.org",
                "ref:regon": "670919879",
                "ref:vatin": "PL8111696523",
                "operator": "Gmina Przy\u0142\u0119k",
                "operator:type": "government",
                "amenity": "school"
            }
        }
    ]
}