{
    "type": "FeatureCollection",
    "features": [
        {
            "id": 132109,
            "type": "Feature",
            "geometry": {
                "type": "Point",
                "coordinates": [
                    22.88504,
                    54.04607
                ]
            },
            "properties": {
                "isced:level": "1;2",
                "ref:rspo": 132109,
                "official_name": "Szko\u0142a Podstawowa w Poddub\u00f3wku",
                "name": "Szko\u0142a Podstawowa w Poddub\u00f3wku",
                "addr:postcode": "16-402",
                "addr:place": "Poddub\u00f3wek",
                "addr:housenumber": "17",
                "addr:teryt:simc": 769114,
                "phone": "+48 875654165",
                "email": "a.e.walenda@wp.pl",
                "website": "http:\/\/poddubowek.edupage.org",
                "ref:regon": "365467703",
                "ref:vatin": "PL8441836105",
                "operator": "Fundacja Wsparcia I Rozwoju Ma\u0142ych Szk\u00f3\u0142 'Edukacja Razem'",
                "operator:type": "ngo",
                "amenity": "school"
            }
        },
        {
            "id": 264441,
            "type": "Feature",
            "geometry": {
                "type": "Point",
                "coordinates": [
                    23.07531,
                    54.07784
                ]
            },
            "properties": {
                "ref:rspo": 264441,
                "official_name": "Punkt Przedszkolny w Starym Folwarku",
                "name": "Punkt Przedszkolny w Starym Folwarku",
                "addr:postcode": "16-402",
                "addr:place": "Stary Folwark",
                "addr:housenumber": "42",
                "addr:teryt:simc": 768913,
                "phone": "+48 875630089",
                "email": "szkola@staryfolwark.edu.pl",
                "website": "http:\/\/www.staryfolwark.edu.pl",
                "ref:regon": "368345188",
                "operator": "Gmina Suwa\u0142ki",
                "operator:type": "government",
                "amenity": "kindergarten"
            }
        },
        {
            "id": 91529,
            "type": "Feature",
            "geometry": {
                "type": "Point",
                "coordinates": [
                    23.07624,
                    54.07901
                ]
            },
            "properties": {
                "isced:level": "1;2",
                "ref:rspo": 91529,
                "official_name": "Szko\u0142a Podstawowa im. Marii Konopnickiej w Starym Folwarku",
                "name": "Szko\u0142a Podstawowa",
                "addr:postcode": "16-402",
                "addr:place": "Stary Folwark",
                "addr:housenumber": "49",
                "addr:teryt:simc": 768913,
                "phone": "+48 875637761",
                "email": "szkola@staryfolwark.edu.pl",
                "website": "http:\/\/www.staryfolwark.edu.pl",
                "ref:regon": "001145137",
                "ref:vatin": "PL8442291547",
                "operator": "Gmina Suwa\u0142ki",
                "operator:type": "government",
                "amenity": "school"
            }
        },
        {
            "id": 91531,
            "type": "Feature",
            "geometry": {
                "type": "Point",
                "coordinates": [
                    22.81193,
                    54.08225
                ]
            },
            "properties": {
                "isced:level": "1;2",
                "ref:rspo": 91531,
                "official_name": "Szko\u0142a Podstawowa im. 2 Pu\u0142ku U\u0142an\u00f3w Grochowskich w Przebrodzie",
                "name": "Szko\u0142a Podstawowa",
                "addr:postcode": "16-402",
                "addr:place": "Przebr\u00f3d",
                "addr:housenumber": "15",
                "addr:teryt:simc": 769137,
                "phone": "+48 875638084",
                "email": "szkola@przebrod.pl",
                "website": "http:\/\/www.zsprzebrod.pl",
                "ref:regon": "001145143",
                "ref:vatin": "PL8442132292",
                "operator": "Gmina Suwa\u0142ki",
                "operator:type": "government",
                "amenity": "school"
            }
        },
        {
            "id": 264440,
            "type": "Feature",
            "geometry": {
                "type": "Point",
                "coordinates": [
                    22.81193,
                    54.08222
                ]
            },
            "properties": {
                "ref:rspo": 264440,
                "official_name": "Punkt Przedszkolny w Przebrodzie",
                "name": "Punkt Przedszkolny w Przebrodzie",
                "addr:postcode": "16-402",
                "addr:place": "Przebr\u00f3d",
                "addr:housenumber": "15",
                "addr:teryt:simc": 769137,
                "phone": "+48 875638084",
                "email": "szkola@przebrod.pl",
                "website": "http:\/\/www.zsprzebrod.pl\/",
                "ref:regon": "368345165",
                "operator": "Gmina Suwa\u0142ki",
                "operator:type": "government",
                "amenity": "kindergarten"
            }
        },
        {
            "id": 91068,
            "type": "Feature",
            "geometry": {
                "type": "Point",
                "coordinates": [
                    23.02851,
                    54.12401
                ]
            },
            "properties": {
                "isced:level": "1;2",
                "ref:rspo": 91068,
                "official_name": "Szko\u0142a Podstawowa im. Papie\u017ca Jana Paw\u0142a II w Nowej Wsi",
                "name": "Szko\u0142a Podstawowa",
                "addr:postcode": "16-402",
                "addr:place": "Nowa Wie\u015b",
                "addr:housenumber": "40A",
                "addr:teryt:simc": 769002,
                "phone": "+48 875675344",
                "email": "szkolajp2@onet.eu",
                "website": "http:\/\/www.spjp2.eu",
                "ref:regon": "001145172",
                "ref:vatin": "PL8441836134",
                "operator": "Gmina Suwa\u0142ki",
                "operator:type": "government",
                "amenity": "school"
            }
        },
        {
            "id": 271982,
            "type": "Feature",
            "geometry": {
                "type": "Point",
                "coordinates": [
                    22.8051,
                    54.1281
                ]
            },
            "properties": {
                "ref:rspo": 271982,
                "official_name": "Punkt Przedszkolny w Tur\u00f3wce Nowej",
                "name": "Punkt Przedszkolny w Tur\u00f3wce Nowej",
                "addr:postcode": "16-402",
                "addr:place": "Tur\u00f3wka Nowa",
                "addr:housenumber": "1B",
                "addr:teryt:simc": 768994,
                "phone": "+48 875638084",
                "email": "szkola@przebrod.pl",
                "website": "http:\/\/www.zsprzebrod.pl",
                "ref:regon": "383864057",
                "operator": "Gmina Suwa\u0142ki",
                "operator:type": "government",
                "amenity": "kindergarten"
            }
        },
        {
            "id": 15601,
            "type": "Feature",
            "geometry": {
                "type": "Point",
                "coordinates": [
                    22.8783,
                    54.13284
                ]
            },
            "properties": {
                "ref:rspo": 15601,
                "official_name": "O\u015brodek Rehabilitacyjno-Edukacyjno- Wychowawczy w Brodzie Nowym",
                "name": "O\u015brodek Rehabilitacyjno-Edukacyjno- Wychowawczy w Brodzie Nowym",
                "addr:postcode": "16-402",
                "addr:place": "Br\u00f3d Nowy",
                "addr:housenumber": "15",
                "addr:teryt:simc": 769025,
                "phone": "+48 875627074",
                "email": "zk.suwalki@psoni.org.pl",
                "website": "http:\/\/www.psoni.suwalki.pl",
                "ref:regon": "200727871",
                "ref:vatin": "PL8442147342",
                "operator": "Polskie Stowarzyszenie Na Rzecz Os\u00f3b Z Niepe\u0142nosprawno\u015bci\u0105 Intelektualn\u0105 Ko\u0142o W Suwa\u0142kach",
                "operator:type": "ngo",
                "amenity": "school"
            }
        },
        {
            "id": 86892,
            "type": "Feature",
            "geometry": {
                "type": "Point",
                "coordinates": [
                    22.851675033569,
                    54.173374176025
                ]
            },
            "properties": {
                "ref:rspo": 86892,
                "official_name": "Pozaszkolna Plac\u00f3wka Specjalistyczna - M\u0142odzie\u017cowy O\u015brodek Edukacyjno - Wypoczynkowy \u201eZatoka Uklei\u201d w Gawrych Rudzie",
                "name": "Pozaszkolna Plac\u00f3wka Specjalistyczna - M\u0142odzie\u017cowy O\u015brodek Edukacyjno - Wypoczynkowy \u201eZatoka Uklei\u201d w Gawrych Rudzie",
                "addr:postcode": "16-402",
                "addr:place": "Gawrych Ruda",
                "addr:housenumber": "1",
                "addr:teryt:simc": 768847,
                "phone": "+48 875639470",
                "email": "biuro@gawrychruda.pl",
                "website": "http:\/\/gawrychruda.pl",
                "ref:regon": "200401046",
                "ref:vatin": "PL8441285131",
                "operator": "Miasto Sto\u0142eczne Warszawa",
                "operator:type": "government",
                "fixme": "w zale\u017cno\u015bci od przedmiotu dzia\u0142alno\u015bci (np. amenity=training + training=*, amenity=dancing_school, amenity=language_school, amenity=music_school)"
            }
        },
        {
            "id": 91527,
            "type": "Feature",
            "geometry": {
                "type": "Point",
                "coordinates": [
                    22.851675033569,
                    54.173344176025
                ]
            },
            "properties": {
                "isced:level": "1;2",
                "ref:rspo": 91527,
                "official_name": "Szko\u0142a Podstawowa im. Lotnik\u00f3w Polskich w P\u0142ocicznie-Tartak",
                "name": "Szko\u0142a Podstawowa",
                "addr:postcode": "16-402",
                "addr:place": "P\u0142ociczno-Tartak",
                "addr:housenumber": "16",
                "addr:teryt:simc": 769090,
                "phone": "+48 875639027",
                "email": "sekretariat@szkola-plociczno.pl",
                "website": "http:\/\/www.plociczno.pl",
                "ref:regon": "001145166",
                "ref:vatin": "PL8442094700",
                "operator": "Gmina Suwa\u0142ki",
                "operator:type": "government",
                "amenity": "school"
            }
        },
        {
            "id": 264438,
            "type": "Feature",
            "geometry": {
                "type": "Point",
                "coordinates": [
                    22.851675033569,
                    54.173314176025
                ]
            },
            "properties": {
                "ref:rspo": 264438,
                "official_name": "Punkt Przedszkolny w P\u0142ocicznie-Tartak",
                "name": "Punkt Przedszkolny w P\u0142ocicznie-Tartak",
                "addr:postcode": "16-402",
                "addr:place": "P\u0142ociczno-Tartak",
                "addr:housenumber": "16",
                "addr:teryt:simc": 769090,
                "phone": "+48 875639027",
                "email": "sekretariat@szkola-plociczno.pl",
                "website": "http:\/\/www.plociczno.pl\/",
                "ref:regon": "368345107",
                "operator": "Gmina Suwa\u0142ki",
                "operator:type": "government",
                "amenity": "kindergarten"
            }
        },
        {
            "id": 276785,
            "type": "Feature",
            "geometry": {
                "type": "Point",
                "coordinates": [
                    22.851675033569,
                    54.173284176025
                ]
            },
            "properties": {
                "ref:rspo": 276785,
                "official_name": "Jk Skill Centre",
                "name": "Jk Skill Centre",
                "addr:postcode": "16-402",
                "addr:place": "P\u0142ociczno-Tartak",
                "addr:housenumber": "16",
                "addr:teryt:simc": 769090,
                "ref:regon": "387577604",
                "operator": "Jk Skill Centre Sp\u00f3\u0142ka Z Ograniczon\u0105 Odpowiedzialno\u015bci\u0105",
                "operator:type": "private",
                "fixme": "w zale\u017cno\u015bci od przedmiotu dzia\u0142alno\u015bci (np. amenity=training + training=*, amenity=dancing_school, amenity=language_school, amenity=music_school)"
            }
        }
    ]
}