{
    "type": "FeatureCollection",
    "features": [
        {
            "id": 69080,
            "type": "Feature",
            "geometry": {
                "type": "Point",
                "coordinates": [
                    22.78425,
                    54.19192
                ]
            },
            "properties": {
                "isced:level": "1;2",
                "ref:rspo": 69080,
                "official_name": "Szko\u0142a Podstawowa w Paw\u0142\u00f3wce",
                "name": "Szko\u0142a Podstawowa w Paw\u0142\u00f3wce",
                "addr:postcode": "16-427",
                "addr:place": "Nowa Paw\u0142\u00f3wka",
                "addr:housenumber": "1",
                "addr:teryt:simc": 765903,
                "phone": "+48 875691776",
                "email": "sppawlowka@o2.pl",
                "ref:regon": "001144988",
                "ref:vatin": "PL8441826791",
                "operator": "Gmina Przero\u015bl",
                "operator:type": "government",
                "amenity": "school"
            }
        },
        {
            "id": 73496,
            "type": "Feature",
            "geometry": {
                "type": "Point",
                "coordinates": [
                    22.65589,
                    54.24969
                ]
            },
            "properties": {
                "isced:level": "1;2",
                "ref:rspo": 73496,
                "official_name": "Szko\u0142a Podstawowa w Przero\u015bli",
                "name": "Szko\u0142a Podstawowa w Przero\u015bli",
                "addr:postcode": "16-427",
                "addr:city": "Przero\u015bl",
                "addr:street": "Dworna",
                "addr:housenumber": "5",
                "addr:teryt:simc": 765961,
                "addr:teryt:sym_ul": 4442,
                "phone": "+48 875691009",
                "email": "sekretariat@spprzerosl.pl",
                "website": "http:\/\/spprzerosl.superszkolna.pl\/",
                "ref:regon": "000268866",
                "ref:vatin": "PL8441110532",
                "operator": "Gmina Przero\u015bl",
                "operator:type": "government",
                "amenity": "school"
            }
        }
    ]
}