{
    "type": "FeatureCollection",
    "features": [
        {
            "id": 27969,
            "type": "Feature",
            "geometry": {
                "type": "Point",
                "coordinates": [
                    22.98915,
                    54.17087
                ]
            },
            "properties": {
                "isced:level": "1;2",
                "ref:rspo": 27969,
                "official_name": "Publiczna Szko\u0142a Podstawowa w Jasionowie",
                "name": "Publiczna Szko\u0142a Podstawowa w Jasionowie",
                "addr:postcode": "16-411",
                "addr:place": "\u017bubryn",
                "addr:housenumber": "17",
                "addr:teryt:simc": 770554,
                "phone": "+48 875675192",
                "email": "sp.jasionowo@op.pl",
                "ref:regon": "200734173",
                "operator": "Fundacja Wsparcia I Rozwoju Ma\u0142ych Szk\u00f3\u0142 'Edukacja Razem'",
                "operator:type": "ngo",
                "amenity": "school"
            }
        },
        {
            "id": 29782,
            "type": "Feature",
            "geometry": {
                "type": "Point",
                "coordinates": [
                    22.98915,
                    54.17084
                ]
            },
            "properties": {
                "ref:rspo": 29782,
                "official_name": "Punkt Przedszkolny w Jasionowie",
                "name": "Punkt Przedszkolny w Jasionowie",
                "addr:postcode": "16-411",
                "addr:place": "\u017bubryn",
                "addr:housenumber": "17",
                "addr:teryt:simc": 770554,
                "phone": "+48 875675192",
                "email": "sp.jasionowo@op.pl",
                "ref:regon": "200734121",
                "operator": "Fundacja Wsparcia I Rozwoju Ma\u0142ych Szk\u00f3\u0142 'Edukacja Razem'",
                "operator:type": "ngo",
                "amenity": "kindergarten"
            }
        },
        {
            "id": 27968,
            "type": "Feature",
            "geometry": {
                "type": "Point",
                "coordinates": [
                    23.08266,
                    54.1754
                ]
            },
            "properties": {
                "ref:rspo": 27968,
                "official_name": "Zesp\u00f3\u0142 Szk\u00f3\u0142 w Kaletniku",
                "name": "Zesp\u00f3\u0142 Szk\u00f3\u0142 w Kaletniku",
                "addr:postcode": "16-411",
                "addr:place": "Kaletnik",
                "addr:housenumber": "46",
                "addr:teryt:simc": 770206,
                "phone": "+48 875647041",
                "ref:regon": "791057450",
                "ref:vatin": "PL8442097236",
                "operator": "Gmina Szypliszki",
                "operator:type": "government",
                "landuse": "education",
                "fixme": "amenity=school, amenity=college albo landuse=education w zale\u017cno\u015bci od tego, jakie plac\u00f3wki wchodz\u0105 w sk\u0142ad zespo\u0142u. Sprawd\u017a, kiedy stosowa\u0107 amenity=* a kiedy landuse=education."
            }
        },
        {
            "id": 30899,
            "type": "Feature",
            "geometry": {
                "type": "Point",
                "coordinates": [
                    23.08266,
                    54.17537
                ]
            },
            "properties": {
                "isced:level": "1;2",
                "ref:rspo": 30899,
                "official_name": "Szko\u0142a Podstawowa w Kaletniku",
                "name": "Szko\u0142a Podstawowa w Kaletniku",
                "addr:postcode": "16-411",
                "addr:place": "Kaletnik",
                "addr:housenumber": "46",
                "addr:teryt:simc": 770206,
                "phone": "+48 875647041",
                "email": "spkaletnik@szypliszki.pl",
                "website": "http:\/\/www.sp-kaletnik.pl",
                "ref:regon": "001145410",
                "operator": "Gmina Szypliszki",
                "operator:type": "government",
                "amenity": "school"
            }
        },
        {
            "id": 66109,
            "type": "Feature",
            "geometry": {
                "type": "Point",
                "coordinates": [
                    23.08266,
                    54.175340000000006
                ]
            },
            "properties": {
                "ref:rspo": 66109,
                "official_name": "Zesp\u00f3\u0142 Wychowania Przedszkolnego w Kaletniku",
                "name": "Zesp\u00f3\u0142 Wychowania Przedszkolnego w Kaletniku",
                "addr:postcode": "16-411",
                "addr:place": "Kaletnik",
                "addr:housenumber": "46",
                "addr:teryt:simc": 770206,
                "phone": "+48 875647041",
                "email": "spkaletnik@szypliszki.pl",
                "website": "http:\/\/www.sp-kaletnik.pl",
                "ref:regon": "200738580",
                "operator": "Gmina Szypliszki",
                "operator:type": "government",
                "amenity": "kindergarten"
            }
        },
        {
            "id": 24226,
            "type": "Feature",
            "geometry": {
                "type": "Point",
                "coordinates": [
                    23.08621,
                    54.25168
                ]
            },
            "properties": {
                "ref:rspo": 24226,
                "official_name": "Zesp\u00f3\u0142 Szk\u00f3\u0142 w S\u0142ob\u00f3dce",
                "name": "Zesp\u00f3\u0142 Szk\u00f3\u0142 w S\u0142ob\u00f3dce",
                "addr:postcode": "16-411",
                "addr:place": "S\u0142ob\u00f3dka",
                "addr:housenumber": "9",
                "addr:teryt:simc": 770465,
                "phone": "+48 875681077",
                "email": "zs.slob@interia.pl",
                "ref:regon": "791057958",
                "ref:vatin": "PL8442097242",
                "operator": "Gmina Szypliszki",
                "operator:type": "government",
                "landuse": "education",
                "fixme": "amenity=school, amenity=college albo landuse=education w zale\u017cno\u015bci od tego, jakie plac\u00f3wki wchodz\u0105 w sk\u0142ad zespo\u0142u. Sprawd\u017a, kiedy stosowa\u0107 amenity=* a kiedy landuse=education."
            }
        },
        {
            "id": 28017,
            "type": "Feature",
            "geometry": {
                "type": "Point",
                "coordinates": [
                    23.08621,
                    54.25165
                ]
            },
            "properties": {
                "isced:level": "1;2",
                "ref:rspo": 28017,
                "official_name": "Szko\u0142a Podstawowa w S\u0142ob\u00f3dce",
                "name": "Szko\u0142a Podstawowa w S\u0142ob\u00f3dce",
                "addr:postcode": "16-411",
                "addr:place": "S\u0142ob\u00f3dka",
                "addr:housenumber": "9",
                "addr:teryt:simc": 770465,
                "phone": "+48 875681077",
                "email": "sekretariat.slobodka@szypliszki.pl",
                "website": "http:\/\/zs-slobodka.c0.pl\/",
                "ref:regon": "000674247",
                "operator": "Gmina Szypliszki",
                "operator:type": "government",
                "amenity": "school"
            }
        },
        {
            "id": 71256,
            "type": "Feature",
            "geometry": {
                "type": "Point",
                "coordinates": [
                    23.08621,
                    54.25162
                ]
            },
            "properties": {
                "ref:rspo": 71256,
                "official_name": "Zesp\u00f3\u0142 Wychowania Przedszkolnego w S\u0142ob\u00f3dce",
                "name": "Zesp\u00f3\u0142 Wychowania Przedszkolnego w S\u0142ob\u00f3dce",
                "addr:postcode": "16-411",
                "addr:place": "S\u0142ob\u00f3dka",
                "addr:housenumber": "9",
                "addr:teryt:simc": 770465,
                "phone": "+48 875681077",
                "email": "sekretariat.slobodka@szypliszki.pl",
                "ref:regon": "200739437",
                "operator": "Gmina Szypliszki",
                "operator:type": "government",
                "amenity": "kindergarten"
            }
        }
    ]
}