{
    "type": "FeatureCollection",
    "features": [
        {
            "id": 7021,
            "type": "Feature",
            "geometry": {
                "type": "Point",
                "coordinates": [
                    22.78425,
                    53.94275
                ]
            },
            "properties": {
                "isced:level": "1;2",
                "ref:rspo": 7021,
                "official_name": "Szko\u0142a Podstawowa we Wronowie",
                "name": "Szko\u0142a Podstawowa we Wronowie",
                "addr:postcode": "16-420",
                "addr:place": "Zi\u00f3\u0142kowo",
                "addr:housenumber": "20",
                "addr:teryt:simc": 766788,
                "phone": "+48 875685048",
                "email": "sp.wronowo@edukator.lomza.pl",
                "ref:regon": "200720870",
                "operator": "Spo\u0142eczno - O\u015bwiatowe Stowarzyszenie Pomocy Pokrzywdzonym I Niepe\u0142nosprawnym \"Edukator\"",
                "operator:type": "ngo",
                "amenity": "school"
            }
        },
        {
            "id": 15600,
            "type": "Feature",
            "geometry": {
                "type": "Point",
                "coordinates": [
                    22.80219,
                    53.97815
                ]
            },
            "properties": {
                "ref:rspo": 15600,
                "official_name": "Zesp\u00f3\u0142 Szk\u00f3\u0142 im. Gen. Ludwika Micha\u0142a Paca w Dowspudzie",
                "name": "Zesp\u00f3\u0142 Szk\u00f3\u0142",
                "addr:postcode": "16-420",
                "addr:place": "Dowspuda",
                "addr:housenumber": "10",
                "addr:teryt:simc": 766713,
                "phone": "+48 875685103",
                "email": "zs.dowspuda@onet.pl",
                "website": "http:\/\/www.zsdowspuda.pl",
                "ref:regon": "000097502",
                "ref:vatin": "PL8441066618",
                "operator": "Powiat Suwalski",
                "operator:type": "government",
                "landuse": "education",
                "fixme": "amenity=school, amenity=college albo landuse=education w zale\u017cno\u015bci od tego, jakie plac\u00f3wki wchodz\u0105 w sk\u0142ad zespo\u0142u. Sprawd\u017a, kiedy stosowa\u0107 amenity=* a kiedy landuse=education.",
                "note": "Children RSPO: 64984;64985;64987;64989"
            }
        },
        {
            "id": 64984,
            "type": "Feature",
            "geometry": {
                "type": "Point",
                "coordinates": [
                    22.80219,
                    53.97812
                ]
            },
            "properties": {
                "isced:level": "3",
                "ref:rspo": 64984,
                "official_name": "Liceum Og\u00f3lnokszta\u0142c\u0105ce w Zespole Szk\u00f3\u0142 w Dowspudzie",
                "name": "Liceum Og\u00f3lnokszta\u0142c\u0105ce w Zespole Szk\u00f3\u0142 w Dowspudzie",
                "addr:postcode": "16-420",
                "addr:place": "Dowspuda",
                "addr:housenumber": "10",
                "addr:teryt:simc": 766713,
                "phone": "+48 875685103",
                "email": "zs.dowspuda@onet.pl",
                "website": "http:\/\/www.zs.dowspuda.pl",
                "ref:regon": "791039185",
                "operator": "Powiat Suwalski",
                "operator:type": "government",
                "amenity": "school",
                "note": "Parent RSPO: 15600"
            }
        },
        {
            "id": 64985,
            "type": "Feature",
            "geometry": {
                "type": "Point",
                "coordinates": [
                    22.80219,
                    53.97809
                ]
            },
            "properties": {
                "isced:level": "4",
                "ref:rspo": 64985,
                "official_name": "Szko\u0142a Policealna w Zespole Szk\u00f3\u0142 w Dowspudzie",
                "name": "Szko\u0142a Policealna w Zespole Szk\u00f3\u0142 w Dowspudzie",
                "addr:postcode": "16-420",
                "addr:place": "Dowspuda",
                "addr:housenumber": "10",
                "addr:teryt:simc": 766713,
                "phone": "+48 875685103",
                "email": "zs.dowspuda@onet.pl",
                "website": "http:\/\/www.dowspuda.pl",
                "ref:regon": "200030874",
                "operator": "Powiat Suwalski",
                "operator:type": "government",
                "amenity": "college",
                "note": "Parent RSPO: 15600"
            }
        },
        {
            "id": 64987,
            "type": "Feature",
            "geometry": {
                "type": "Point",
                "coordinates": [
                    22.80219,
                    53.97806
                ]
            },
            "properties": {
                "isced:level": "3",
                "ref:rspo": 64987,
                "official_name": "Bran\u017cowa Szko\u0142a I Stopnia w Zespole Szk\u00f3\u0142 w Dowspudzie",
                "name": "Bran\u017cowa Szko\u0142a I Stopnia w Zespole Szk\u00f3\u0142 w Dowspudzie",
                "addr:postcode": "16-420",
                "addr:place": "Dowspuda",
                "addr:housenumber": "10",
                "addr:teryt:simc": 766713,
                "phone": "+48 875685103",
                "email": "zs.dowspuda@onet.pl",
                "website": "http:\/\/www.zsdowspuda.pl",
                "ref:regon": "791039200",
                "operator": "Powiat Suwalski",
                "operator:type": "government",
                "amenity": "school",
                "note": "Parent RSPO: 15600"
            }
        },
        {
            "id": 64989,
            "type": "Feature",
            "geometry": {
                "type": "Point",
                "coordinates": [
                    22.80219,
                    53.97803
                ]
            },
            "properties": {
                "isced:level": "3",
                "ref:rspo": 64989,
                "official_name": "Technikum w Zespole Szk\u00f3\u0142 w Dowspudzie",
                "name": "Technikum w Zespole Szk\u00f3\u0142 w Dowspudzie",
                "addr:postcode": "16-420",
                "addr:place": "Dowspuda",
                "addr:housenumber": "10",
                "addr:teryt:simc": 766713,
                "phone": "+48 875685103",
                "email": "zs.dowspuda@onet.pl",
                "website": "http:\/\/www.zsdowspuda.pl",
                "ref:regon": "791039162",
                "operator": "Powiat Suwalski",
                "operator:type": "government",
                "amenity": "school",
                "note": "Parent RSPO: 15600"
            }
        },
        {
            "id": 7004,
            "type": "Feature",
            "geometry": {
                "type": "Point",
                "coordinates": [
                    22.78663,
                    53.98323
                ]
            },
            "properties": {
                "isced:level": "1;2",
                "ref:rspo": 7004,
                "official_name": "Szko\u0142a Podstawowa im. \u015aw. Jana Paw\u0142a II w Raczkach",
                "name": "Szko\u0142a Podstawowa",
                "addr:postcode": "16-420",
                "addr:city": "Raczki",
                "addr:street": "Sportowa",
                "addr:housenumber": "1",
                "addr:teryt:simc": 766624,
                "addr:teryt:sym_ul": 20683,
                "phone": "+48 875685121",
                "email": "sp.raczki@wp.pl",
                "website": "http:\/\/spraczki.pl",
                "ref:regon": "000778060",
                "ref:vatin": "PL8441109500",
                "operator": "Gmina Raczki",
                "operator:type": "government",
                "amenity": "school"
            }
        },
        {
            "id": 91636,
            "type": "Feature",
            "geometry": {
                "type": "Point",
                "coordinates": [
                    22.78663,
                    53.9832
                ]
            },
            "properties": {
                "ref:rspo": 91636,
                "official_name": "Punkt Przedszkolny Nr 1 Z Siedzib\u0105 w Raczkach, Ul. Sportowa 1, 16-420 Raczki",
                "name": "Punkt Przedszkolny Nr 1 Z Siedzib\u0105 w Raczkach, Ul. Sportowa 1, 16-420 Raczki",
                "addr:postcode": "16-420",
                "addr:city": "Raczki",
                "addr:street": "Sportowa",
                "addr:housenumber": "1",
                "addr:teryt:simc": 766624,
                "addr:teryt:sym_ul": 20683,
                "phone": "+48 875685121",
                "email": "sp.raczki@wp.pl",
                "ref:regon": "200746124",
                "operator": "Gmina Raczki",
                "operator:type": "government",
                "amenity": "kindergarten"
            }
        },
        {
            "id": 276616,
            "type": "Feature",
            "geometry": {
                "type": "Point",
                "coordinates": [
                    22.78663,
                    53.98317
                ]
            },
            "properties": {
                "ref:rspo": 276616,
                "official_name": "Punkt Przedszkolny Nr 2 Z Siedzib\u0105 w Raczkach,Ul. Sportowa 1, 16-420 Raczki",
                "name": "Punkt Przedszkolny Nr 2 Z Siedzib\u0105 w Raczkach,Ul. Sportowa 1, 16-420 Raczki",
                "addr:postcode": "16-420",
                "addr:city": "Raczki",
                "addr:street": "Sportowa",
                "addr:housenumber": "1",
                "addr:teryt:simc": 766624,
                "addr:teryt:sym_ul": 20683,
                "phone": "+48 875685121",
                "email": "sp.raczki@wp.pl",
                "website": "http:\/\/www.spraczki.pl",
                "ref:regon": "387294421",
                "operator": "Gmina Raczki",
                "operator:type": "government",
                "amenity": "kindergarten"
            }
        },
        {
            "id": 276618,
            "type": "Feature",
            "geometry": {
                "type": "Point",
                "coordinates": [
                    22.78663,
                    53.98314
                ]
            },
            "properties": {
                "ref:rspo": 276618,
                "official_name": "Punkt Przedszkolny Nr 3 Z Siedzib\u0105 w Raczkach, Ul. Sportowa 1,16-420 Raczki",
                "name": "Punkt Przedszkolny Nr 3 Z Siedzib\u0105 w Raczkach, Ul. Sportowa 1,16-420 Raczki",
                "addr:postcode": "16-420",
                "addr:city": "Raczki",
                "addr:street": "Sportowa",
                "addr:housenumber": "1",
                "addr:teryt:simc": 766624,
                "addr:teryt:sym_ul": 20683,
                "phone": "+48 875685121",
                "email": "sp.raczki@wp.pl",
                "website": "http:\/\/www.spraczki.pl",
                "ref:regon": "387294444",
                "operator": "Gmina Raczki",
                "operator:type": "government",
                "amenity": "kindergarten"
            }
        },
        {
            "id": 276619,
            "type": "Feature",
            "geometry": {
                "type": "Point",
                "coordinates": [
                    22.78663,
                    53.983109999999996
                ]
            },
            "properties": {
                "ref:rspo": 276619,
                "official_name": "Punkt Przedszkolny Nr 4 Z Siedzib\u0105 w Raczkach, Ul. Sportowa 1,16-420 Raczki",
                "name": "Punkt Przedszkolny Nr 4 Z Siedzib\u0105 w Raczkach, Ul. Sportowa 1,16-420 Raczki",
                "addr:postcode": "16-420",
                "addr:city": "Raczki",
                "addr:street": "Sportowa",
                "addr:housenumber": "1",
                "addr:teryt:simc": 766624,
                "addr:teryt:sym_ul": 20683,
                "phone": "+48 875685121",
                "email": "sp.raczki@wp.pl",
                "website": "http:\/\/www.spraczki.pl",
                "ref:regon": "387294450",
                "operator": "Gmina Raczki",
                "operator:type": "government",
                "amenity": "kindergarten"
            }
        },
        {
            "id": 276620,
            "type": "Feature",
            "geometry": {
                "type": "Point",
                "coordinates": [
                    22.78663,
                    53.98308
                ]
            },
            "properties": {
                "ref:rspo": 276620,
                "official_name": "Punkt Przedszkolny Nr 5 Z Siedzib\u0105 w Raczkach, Ul. Sportowa 1, 16-420 Raczki",
                "name": "Punkt Przedszkolny Nr 5 Z Siedzib\u0105 w Raczkach, Ul. Sportowa 1, 16-420 Raczki",
                "addr:postcode": "16-420",
                "addr:city": "Raczki",
                "addr:street": "Sportowa",
                "addr:housenumber": "1",
                "addr:teryt:simc": 766624,
                "addr:teryt:sym_ul": 20683,
                "phone": "+48 875685121",
                "email": "sp.raczki@wp.pl",
                "website": "http:\/\/www.spraczki.pl",
                "ref:regon": "387294467",
                "operator": "Gmina Raczki",
                "operator:type": "government",
                "amenity": "kindergarten"
            }
        }
    ]
}