{"type":"FeatureCollection","features":[{"id":127354,"type":"Feature","geometry":{"type":"Point","coordinates":[18.41528,50.05721]},"properties":{"ref:rspo":127354,"official_name":"O\u015brodek Szkoleniowy Csu \"Majki\"","name":"O\u015brodek Szkoleniowy Csu \"Majki\"","addr:country":"PL","addr:postcode":"44-280","addr:city":"Rydu\u0142towy","addr:street":"ul. Romualda Traugutta","addr:housenumber":"277A","addr:door":"1","addr:teryt:simc":22965,"addr:teryt:sym_ul":943121,"contact:phone":"+48 502420737","contact:email":"biuro@csumajk.pl","ref:regon":"361407578","ref:vatin":"PL6471789208","operator":"Marek Bugla","operator:type":"private","fixme":"w zale\u017cno\u015bci od przedmiotu dzia\u0142alno\u015bci (np. amenity=training + training=*, amenity=dancing_school, amenity=language_school, amenity=music_school)"}},{"id":115433,"type":"Feature","geometry":{"type":"Point","coordinates":[18.41999,50.0580799]},"properties":{"ref:rspo":115433,"official_name":"Katolickie Przedszkole Niepubliczne Zgromadzenia Si\u00f3str S\u0142u\u017cebniczek Nmp im.b\u0142.e.bojanowskiego w Rydu\u0142towach","name":"Katolickie Przedszkole Niepubliczne Zgromadzenia Si\u00f3str S\u0142u\u017cebniczek Nmp im.b\u0142.e.bojanowskiego w Rydu\u0142towach","addr:country":"PL","addr:postcode":"44-283","addr:city":"Rydu\u0142towy","addr:street":"ul. Plebiscytowa","addr:housenumber":"2","addr:teryt:simc":16466,"addr:teryt:sym_ul":943121,"contact:phone":"+48 324578428","contact:email":"ochronka.rydultowy@gmail.com","ref:regon":"243361936","ref:vatin":"PL6472291717","operator":"Zgromadzenie Si\u00f3str S\u0142u\u017cebniczek Nmp Np  Prowincja Katowicka","operator:type":"religious","amenity":"kindergarten"}},{"id":109644,"type":"Feature","geometry":{"type":"Point","coordinates":[18.4115,50.06013]},"properties":{"ref:rspo":109644,"official_name":"Publiczne Przedszkole Nr 1 im. Marii Kownackiej w Rydu\u0142towach","name":"Publiczne Przedszkole Nr 1","addr:country":"PL","addr:postcode":"44-280","addr:city":"Rydu\u0142towy","addr:street":"ul. Jana Kochanowskiego","addr:housenumber":"25","addr:teryt:simc":8728,"addr:teryt:sym_ul":943121,"contact:phone":"+48 324550309","contact:email":"pp1.rydultowy@wp.pl","ref:regon":"271510656","ref:vatin":"PL6472155598","operator":"Miasto Rydu\u0142towy","operator:type":"government","amenity":"kindergarten"}},{"id":43471,"type":"Feature","geometry":{"type":"Point","coordinates":[18.42322,50.06283]},"properties":{"isced:level":"3","ref:rspo":43471,"official_name":"Liceum Og\u00f3lnokszta\u0142c\u0105ce im. Noblist\u00f3w Polskich w Rydu\u0142towach","name":"Liceum Og\u00f3lnokszta\u0142c\u0105ce","addr:country":"PL","addr:postcode":"44-280","addr:city":"Rydu\u0142towy","addr:street":"ul. Skalna","addr:housenumber":"1","addr:teryt:simc":19969,"addr:teryt:sym_ul":943121,"contact:phone":"+48 324578360","contact:email":"lo1rydultowy@poczta.onet.pl","contact:website":"http:\/\/skalna1.edu.pl","ref:regon":"000205179","ref:vatin":"PL6472569377","operator":"Powiat Wodzis\u0142awski","operator:type":"government","amenity":"school"}},{"id":133938,"type":"Feature","geometry":{"type":"Point","coordinates":[18.41777,50.06603]},"properties":{"isced:level":"1;2","ref:rspo":133938,"official_name":"Szko\u0142a Podstawowa Nr 4 w Rydu\u0142towach","name":"Szko\u0142a Podstawowa Nr 4 w Rydu\u0142towach","addr:country":"PL","addr:postcode":"44-280","addr:city":"Rydu\u0142towy","addr:street":"ul. Strzelc\u00f3w Bytomskich","addr:housenumber":"13","addr:teryt:simc":21365,"addr:teryt:sym_ul":943121,"contact:phone":"+48 324578115","contact:email":"sp4rydultowy@onet.pl","contact:website":"http:\/\/sp4.rydultowy.pl","ref:regon":"367740126","ref:vatin":"PL6472579559","operator":"Miasto Rydu\u0142towy","operator:type":"government","amenity":"school"}},{"id":109267,"type":"Feature","geometry":{"type":"Point","coordinates":[18.41391,50.06611]},"properties":{"ref:rspo":109267,"official_name":"Szko\u0142a Muzyczna I St. im. Paw\u0142a \u015awi\u0119tego w Rydu\u0142towach","name":"Szko\u0142a Muzyczna I St.","addr:country":"PL","addr:postcode":"44-280","addr:city":"Rydu\u0142towy","addr:street":"ul. Osiedle Karola","addr:housenumber":"22","addr:teryt:simc":43913,"addr:teryt:sym_ul":943121,"contact:phone":"+48 324578530","ref:regon":"243177552","operator":"Anna Urba\u0144czyk","operator:type":"private","amenity":"music_school"}},{"id":115444,"type":"Feature","geometry":{"type":"Point","coordinates":[18.41391,50.06608]},"properties":{"ref:rspo":115444,"official_name":"Prywatne Przedszkole \"Pod Nutk\u0105\"","name":"Prywatne Przedszkole \"Pod Nutk\u0105\"","addr:country":"PL","addr:postcode":"44-280","addr:city":"Rydu\u0142towy","addr:street":"ul. Osiedle Karola","addr:housenumber":"22","addr:teryt:simc":43913,"addr:teryt:sym_ul":943121,"contact:phone":"+48 324578530","contact:email":"cko.sekretariat@gmail.com","ref:regon":"243314121","ref:vatin":"PL6471671300","operator":"Anna Urba\u0144czyk","operator:type":"private","amenity":"kindergarten"}},{"id":4532,"type":"Feature","geometry":{"type":"Point","coordinates":[18.4258,50.07198]},"properties":{"ref:rspo":4532,"official_name":"Zesp\u00f3\u0142 Szk\u00f3\u0142 Ponadpodstawowych w Rydu\u0142towach","name":"Zesp\u00f3\u0142 Szk\u00f3\u0142 Ponadpodstawowych w Rydu\u0142towach","addr:country":"PL","addr:postcode":"44-280","addr:city":"Rydu\u0142towy","addr:street":"ul. Obywatelska","addr:housenumber":"30","addr:teryt:simc":14686,"addr:teryt:sym_ul":943121,"contact:phone":"+48 324579090","contact:email":"sekretariat@zsprydultowy.pl","contact:website":"http:\/\/zsprydultowy.pl","ref:regon":"276128335","ref:vatin":"PL6471839024","operator":"Powiat Wodzis\u0142awski","operator:type":"government","landuse":"education","fixme":"amenity=school, amenity=college albo landuse=education w zale\u017cno\u015bci od tego, jakie plac\u00f3wki wchodz\u0105 w sk\u0142ad zespo\u0142u. Sprawd\u017a, kiedy stosowa\u0107 amenity=* a kiedy landuse=education.","note":"Children RSPO: 43445;43450"}},{"id":43445,"type":"Feature","geometry":{"type":"Point","coordinates":[18.4258,50.07195]},"properties":{"isced:level":"3","ref:rspo":43445,"official_name":"Technikum w Rydu\u0142towach","name":"Technikum w Rydu\u0142towach","addr:country":"PL","addr:postcode":"44-280","addr:city":"Rydu\u0142towy","addr:street":"ul. Obywatelska","addr:housenumber":"30","addr:teryt:simc":14686,"addr:teryt:sym_ul":943121,"contact:phone":"+48 324579090","contact:email":"sekretariat@zsprydultowy.pl","contact:website":"http:\/\/zsprydultowy.pl","ref:regon":"278106154","ref:vatin":"PL6471839024","operator":"Powiat Wodzis\u0142awski","operator:type":"government","amenity":"school","note":"Parent RSPO: 4532"}},{"id":43450,"type":"Feature","geometry":{"type":"Point","coordinates":[18.4258,50.071920000000006]},"properties":{"isced:level":"3","ref:rspo":43450,"official_name":"Bran\u017cowa Szko\u0142a I Stopnia w Rydu\u0142towach","name":"Bran\u017cowa Szko\u0142a I Stopnia w Rydu\u0142towach","addr:country":"PL","addr:postcode":"44-280","addr:city":"Rydu\u0142towy","addr:street":"ul. Obywatelska","addr:housenumber":"30","addr:teryt:simc":14686,"addr:teryt:sym_ul":943121,"contact:phone":"+48 324579090","contact:email":"sekretariat@zsprydultowy.pl","contact:website":"http:\/\/zsprydultowy.pl","ref:regon":"272153885","ref:vatin":"PL6471839024","operator":"Powiat Wodzis\u0142awski","operator:type":"government","amenity":"school","note":"Parent RSPO: 4532"}},{"id":109641,"type":"Feature","geometry":{"type":"Point","coordinates":[18.406539916992,50.072509765625]},"properties":{"isced:level":"1;2","ref:rspo":109641,"official_name":"Szko\u0142a Podstawowa Nr 1 im.karola Miarki","name":"Szko\u0142a Podstawowa Nr 1 im.karola Miarki","addr:country":"PL","addr:postcode":"44-280","addr:city":"Rydu\u0142towy","addr:street":"ul. \u015bw. Maksymiliana Kolbe","addr:housenumber":"5","addr:teryt:simc":12021,"addr:teryt:sym_ul":943121,"contact:phone":"+48 324578452","contact:email":"sekretariat@sp1rydultowy.pl","ref:regon":"000729793","ref:vatin":"PL6472155546","operator":"Miasto Rydu\u0142towy","operator:type":"government","amenity":"school"}},{"id":109648,"type":"Feature","geometry":{"type":"Point","coordinates":[18.41797,50.07392]},"properties":{"ref:rspo":109648,"official_name":"Pa\u0144stwowe Ognisko Plastyczne im.ludwika Konarzewskiego Seniora w Rydu\u0142towach","name":"Pa\u0144stwowe Ognisko Plastyczne im.ludwika Konarzewskiego Seniora w Rydu\u0142towach","addr:country":"PL","addr:postcode":"44-280","addr:city":"Rydu\u0142towy","addr:street":"ul. Adama Mickiewicza","addr:housenumber":"33","addr:teryt:simc":12740,"addr:teryt:sym_ul":943121,"contact:phone":"+48 324577401","contact:email":"pop.rydultowy@interia.pl","ref:regon":"003553099","ref:vatin":"PL6472106789","operator":"Miasto Rydu\u0142towy","operator:type":"government","fixme":"w zale\u017cno\u015bci od przedmiotu dzia\u0142alno\u015bci (np. amenity=community_centre + community_centre:for=child;juvenile, amenity=training + training=*, amenity=dancing_school, amenity=music_school),"}},{"id":109649,"type":"Feature","geometry":{"type":"Point","coordinates":[18.41797,50.07389]},"properties":{"ref:rspo":109649,"official_name":"Ognisko Pracy Pozaszkolnej w Rydu\u0142towach","name":"Ognisko Pracy Pozaszkolnej w Rydu\u0142towach","addr:country":"PL","addr:postcode":"44-280","addr:city":"Rydu\u0142towy","addr:street":"ul. Adama Mickiewicza","addr:housenumber":"33","addr:teryt:simc":12740,"addr:teryt:sym_ul":943121,"contact:phone":"+48 324576892","contact:email":"opprydultowy@interia.pl","ref:regon":"272272176","ref:vatin":"PL6471899345","operator":"Miasto Rydu\u0142towy","operator:type":"government","amenity":"community_centre","community_centre:for":"child;juvenile"}},{"id":109647,"type":"Feature","geometry":{"type":"Point","coordinates":[18.42406,50.07396]},"properties":{"ref:rspo":109647,"official_name":"Publiczne Przedszkole Nr 4 im. J. Brzechwy w Rydu\u0142towach","name":"Publiczne Przedszkole Nr 4","addr:country":"PL","addr:postcode":"44-280","addr:city":"Rydu\u0142towy","addr:street":"ul. Osiedle Or\u0142owiec","addr:housenumber":"37","addr:teryt:simc":43925,"addr:teryt:sym_ul":943121,"contact:phone":"+48 324577207","contact:email":"przedszkolebrzechwa7@poczta.fm","ref:regon":"271510797","ref:vatin":"PL6472155658","operator":"Miasto Rydu\u0142towy","operator:type":"government","amenity":"kindergarten"}},{"id":109646,"type":"Feature","geometry":{"type":"Point","coordinates":[18.42382,50.07397]},"properties":{"ref:rspo":109646,"official_name":"Publiczne Przedszkole Nr 3 w Rydu\u0142towach","name":"Publiczne Przedszkole Nr 3 w Rydu\u0142towach","addr:country":"PL","addr:postcode":"44-280","addr:city":"Rydu\u0142towy","addr:street":"ul. Osiedle Or\u0142owiec","addr:housenumber":"39","addr:teryt:simc":43925,"addr:teryt:sym_ul":943121,"contact:phone":"+48 324577505","contact:email":"przedszkole3.rydultowy@gmail.com","contact:website":"http:\/\/pp3.rydultowy.pl","ref:regon":"271510739","ref:vatin":"PL6472155641","operator":"Miasto Rydu\u0142towy","operator:type":"government","amenity":"kindergarten"}},{"id":109645,"type":"Feature","geometry":{"type":"Point","coordinates":[18.42039,50.07468]},"properties":{"ref:rspo":109645,"official_name":"Publiczne Przedszkole Nr 2 im. Czes\u0142awa Janczarskiego w Rydu\u0142towach","name":"Publiczne Przedszkole Nr 2","addr:country":"PL","addr:postcode":"44-280","addr:city":"Rydu\u0142towy","addr:street":"ul. Raciborska","addr:housenumber":"216","addr:teryt:simc":18263,"addr:teryt:sym_ul":943121,"contact:phone":"+48 324578379","contact:email":"pp2.rydultowy@gmail.com","ref:regon":"271510691","ref:vatin":"PL6472155635","operator":"Miasto Rydu\u0142towy","operator:type":"government","amenity":"kindergarten"}},{"id":108807,"type":"Feature","geometry":{"type":"Point","coordinates":[18.42946,50.07574]},"properties":{"isced:level":"1;2","ref:rspo":108807,"official_name":"Szko\u0142a Podstawowa Nr 2","name":"Szko\u0142a Podstawowa Nr 2","addr:country":"PL","addr:postcode":"44-280","addr:city":"Rydu\u0142towy","addr:street":"ul. Raciborska","addr:housenumber":"270","addr:teryt:simc":18263,"addr:teryt:sym_ul":943121,"contact:phone":"+48 324577035","contact:email":"g2_rydultowy@pro.onet.pl","contact:website":"http:\/\/sp2.zsrydultowy.pl\/","ref:regon":"001311831","ref:vatin":"PL6472480111","operator":"Miasto Rydu\u0142towy","operator:type":"government","amenity":"school"}},{"id":109642,"type":"Feature","geometry":{"type":"Point","coordinates":[18.43844,50.07587]},"properties":{"isced:level":"1;2","ref:rspo":109642,"official_name":"Szko\u0142a Podstawowa Nr 3 im.arki Bo\u017cka","name":"Szko\u0142a Podstawowa Nr 3 im.arki Bo\u017cka","addr:country":"PL","addr:postcode":"44-280","addr:city":"Rydu\u0142towy","addr:street":"ul. Radoszowska","addr:housenumber":"3","addr:teryt:simc":18327,"addr:teryt:sym_ul":943121,"contact:phone":"+48 324577322","contact:email":"spnr3rydultowy@wp.pl","ref:regon":"000729801","ref:vatin":"PL6472155569","operator":"Miasto Rydu\u0142towy","operator:type":"government","amenity":"school"}}]}