{
    "type": "FeatureCollection",
    "features": [
        {
            "id": 6726,
            "type": "Feature",
            "geometry": {
                "type": "Point",
                "coordinates": [
                    18.50017,
                    49.97728
                ]
            },
            "properties": {
                "isced:level": "4",
                "ref:rspo": 6726,
                "official_name": "Szko\u0142a Policealna Edukacji Innowacyjnej w Wodzis\u0142awiu \u015aL\u0105skim",
                "name": "Szko\u0142a Policealna Edukacji Innowacyjnej w Wodzis\u0142awiu \u015aL\u0105skim",
                "addr:postcode": "44-304",
                "addr:city": "Wodzis\u0142aw \u015al\u0105ski",
                "addr:street": "Osiedle Osiedle 1 Maja",
                "addr:housenumber": "23b",
                "addr:city:simc": 944853,
                "addr:street:sym_ul": 48010,
                "phone": "+48 326611149",
                "email": "wodzislaw@sei.edu.pl",
                "website": "http:\/\/sei.edu.pl",
                "ref:regon": "243024133",
                "operator": "Instytut Post\u0119powania Tw\u00f3rczego Sp\u00f3\u0142ka Z Ograniczon\u0105 Odpowiedzialno\u015bci\u0105",
                "operator:type": "private",
                "amenity": "college"
            }
        },
        {
            "id": 130711,
            "type": "Feature",
            "geometry": {
                "type": "Point",
                "coordinates": [
                    18.50017,
                    49.97725
                ]
            },
            "properties": {
                "ref:rspo": 130711,
                "official_name": "Niepubliczny O\u015brodek Rewalidacyjno-Wychowawczy dla Dzieci I M\u0142odzie\u017cy Z Autyzmem w Wodzis\u0142awiu \u015aL\u0105skim",
                "name": "Niepubliczny O\u015brodek Rewalidacyjno-Wychowawczy dla Dzieci I M\u0142odzie\u017cy Z Autyzmem w Wodzis\u0142awiu \u015aL\u0105skim",
                "addr:postcode": "44-304",
                "addr:city": "Wodzis\u0142aw \u015al\u0105ski",
                "addr:street": "Osiedle Osiedle 1 Maja",
                "addr:housenumber": "23b",
                "addr:city:simc": 944853,
                "addr:street:sym_ul": 48010,
                "phone": "+48 577531307",
                "email": "sekretariat@rafa.edu.pl",
                "website": "http:\/\/rafa.edu.pl",
                "ref:regon": "364395433",
                "ref:vatin": "PL6472576029",
                "operator": "J\u00f3zef R\u0105czka",
                "operator:type": "private",
                "amenity": "school"
            }
        },
        {
            "id": 133261,
            "type": "Feature",
            "geometry": {
                "type": "Point",
                "coordinates": [
                    18.50017,
                    49.97722
                ]
            },
            "properties": {
                "ref:rspo": 133261,
                "official_name": "Niepubliczna Poradnia Psychologiczno-Pedagogiczna w Wodzis\u0142awiu \u015aL\u0105skim",
                "name": "Niepubliczna Poradnia Psychologiczno-Pedagogiczna w Wodzis\u0142awiu \u015aL\u0105skim",
                "addr:postcode": "44-304",
                "addr:city": "Wodzis\u0142aw \u015al\u0105ski",
                "addr:street": "Osiedle Osiedle 1 Maja",
                "addr:housenumber": "23b",
                "addr:city:simc": 944853,
                "addr:street:sym_ul": 48010,
                "phone": "+48 327339830",
                "email": "etrojniar@ipt.pl",
                "website": "https:\/\/poradnia-wodzislaw.pl\/",
                "ref:regon": "366890757",
                "ref:vatin": "PL7290109624",
                "operator": "Instytut Post\u0119powania Tw\u00f3rczego Sp\u00f3\u0142ka Z Ograniczon\u0105 Odpowiedzialno\u015bci\u0105",
                "operator:type": "private",
                "healthcare": "counselling",
                "counselling_type": "education",
                "fixme": "w zale\u017cno\u015bci od przedmiotu dzia\u0142alno\u015bci (np. healthcare=counselling + counselling_type=education albo healthcare=psychotherapist)"
            }
        },
        {
            "id": 263470,
            "type": "Feature",
            "geometry": {
                "type": "Point",
                "coordinates": [
                    18.50017,
                    49.97719
                ]
            },
            "properties": {
                "isced:level": "4",
                "ref:rspo": 263470,
                "official_name": "Szko\u0142a Policealna Masa\u017cu Edukacji Innowacyjnej w Wodzis\u0142awiu \u015aL\u0105skim",
                "name": "Szko\u0142a Policealna Masa\u017cu Edukacji Innowacyjnej w Wodzis\u0142awiu \u015aL\u0105skim",
                "addr:postcode": "44-304",
                "addr:city": "Wodzis\u0142aw \u015al\u0105ski",
                "addr:street": "Osiedle Osiedle 1 Maja",
                "addr:housenumber": "23b",
                "addr:city:simc": 944853,
                "addr:street:sym_ul": 48010,
                "phone": "+48 326611149",
                "email": "wodzislaw@sei.edu.pl",
                "website": "http:\/\/sei.edu.pl",
                "ref:regon": "368192537",
                "ref:vatin": "PL7290109624",
                "operator": "Instytut Post\u0119powania Tw\u00f3rczego Sp\u00f3\u0142ka Z Ograniczon\u0105 Odpowiedzialno\u015bci\u0105",
                "operator:type": "private",
                "amenity": "college"
            }
        },
        {
            "id": 275578,
            "type": "Feature",
            "geometry": {
                "type": "Point",
                "coordinates": [
                    18.50017,
                    49.97716
                ]
            },
            "properties": {
                "isced:level": "4",
                "ref:rspo": 275578,
                "official_name": "Szko\u0142a Policealna Medyczna Edukacji Innowacyjnej w Wodzis\u0142awiu \u015aL\u0105skim",
                "name": "Szko\u0142a Policealna Medyczna Edukacji Innowacyjnej w Wodzis\u0142awiu \u015aL\u0105skim",
                "addr:postcode": "44-304",
                "addr:city": "Wodzis\u0142aw \u015al\u0105ski",
                "addr:street": "Osiedle Osiedle 1 Maja",
                "addr:housenumber": "23b",
                "addr:city:simc": 944853,
                "addr:street:sym_ul": 48010,
                "phone": "+48 326611149",
                "email": "wodzislaw@sei.edu.pl",
                "ref:regon": "386925664",
                "operator": "Instytut Post\u0119powania Tw\u00f3rczego Sp\u00f3\u0142ka Z Ograniczon\u0105 Odpowiedzialno\u015bci\u0105",
                "operator:type": "private",
                "amenity": "college"
            }
        },
        {
            "id": 70341,
            "type": "Feature",
            "geometry": {
                "type": "Point",
                "coordinates": [
                    18.49806,
                    49.97744
                ]
            },
            "properties": {
                "ref:rspo": 70341,
                "official_name": "Powiatowy O\u015brodek Doskonalenia Nauczycieli w Wodzis\u0142awiu \u015aL\u0105skim",
                "name": "Powiatowy O\u015brodek Doskonalenia Nauczycieli w Wodzis\u0142awiu \u015aL\u0105skim",
                "addr:postcode": "44-304",
                "addr:city": "Wodzis\u0142aw \u015al\u0105ski",
                "addr:street": "Osiedle Osiedle 1 Maja",
                "addr:housenumber": "16a",
                "addr:city:simc": 944853,
                "addr:street:sym_ul": 48010,
                "phone": "+48 327293242",
                "email": "sekretariat@podn.wodzislaw.pl",
                "website": "http:\/\/podn.pl",
                "ref:regon": "277610726",
                "ref:vatin": "PL6472341846",
                "operator": "Powiat Wodzis\u0142awski",
                "operator:type": "government",
                "amenity": "training"
            }
        },
        {
            "id": 64799,
            "type": "Feature",
            "geometry": {
                "type": "Point",
                "coordinates": [
                    18.5033,
                    49.97763
                ]
            },
            "properties": {
                "ref:rspo": 64799,
                "official_name": "Prywatny O\u015brodek Kursowo - Szkoleniowy \"Nowex\" w Wodzis\u0142awiu \u015aL\u0105skim",
                "name": "Prywatny O\u015brodek Kursowo - Szkoleniowy \"Nowex\" w Wodzis\u0142awiu \u015aL\u0105skim",
                "addr:postcode": "44-304",
                "addr:city": "Wodzis\u0142aw \u015al\u0105ski",
                "addr:street": "Osiedle Osiedle 1 Maja",
                "addr:housenumber": "29\/I\/9",
                "addr:city:simc": 944853,
                "addr:street:sym_ul": 48010,
                "phone": "+48 324531696",
                "email": "nowexbhp@op.pl",
                "website": "http:\/\/nowex.eu",
                "ref:regon": "243085790",
                "ref:vatin": "PL6471355355",
                "operator": "Adam Nowosielski",
                "operator:type": "private",
                "fixme": "w zale\u017cno\u015bci od przedmiotu dzia\u0142alno\u015bci (np. amenity=training + training=*, amenity=dancing_school, amenity=language_school, amenity=music_school)"
            }
        },
        {
            "id": 41139,
            "type": "Feature",
            "geometry": {
                "type": "Point",
                "coordinates": [
                    18.49361,
                    49.99039
                ]
            },
            "properties": {
                "ref:rspo": 41139,
                "official_name": "Zesp\u00f3\u0142 Szkolno-Przedszkolny Nr 2",
                "name": "Zesp\u00f3\u0142 Szkolno-Przedszkolny Nr 2",
                "addr:postcode": "44-304",
                "addr:city": "Wodzis\u0142aw \u015al\u0105ski",
                "addr:street": "Jastrz\u0119bska",
                "addr:housenumber": "136",
                "addr:city:simc": 944853,
                "addr:street:sym_ul": 7357,
                "phone": "+48 324554763",
                "email": "zsp2@wodzislaw-slaski.pl",
                "website": "http:\/\/zsp2.wodzislaw-slaski.pl",
                "ref:regon": "240119844",
                "ref:vatin": "PL6472488578",
                "operator": "Miasto Wodzis\u0142aw \u015al\u0105ski",
                "operator:type": "government",
                "landuse": "education",
                "fixme": "amenity=school, amenity=college albo landuse=education w zale\u017cno\u015bci od tego, jakie plac\u00f3wki wchodz\u0105 w sk\u0142ad zespo\u0142u. Sprawd\u017a, kiedy stosowa\u0107 amenity=* a kiedy landuse=education.",
                "note": "Children RSPO: 57685;72805"
            }
        },
        {
            "id": 57685,
            "type": "Feature",
            "geometry": {
                "type": "Point",
                "coordinates": [
                    18.49361,
                    49.990359999999995
                ]
            },
            "properties": {
                "isced:level": "1;2",
                "ref:rspo": 57685,
                "official_name": "Szko\u0142a Podstawowa Nr 8 im. Tadeusza Ko\u015bciuszki",
                "name": "Szko\u0142a Podstawowa Nr 8",
                "addr:postcode": "44-304",
                "addr:city": "Wodzis\u0142aw \u015al\u0105ski",
                "addr:street": "Jastrz\u0119bska",
                "addr:housenumber": "136",
                "addr:city:simc": 944853,
                "addr:street:sym_ul": 7357,
                "phone": "+48 324554763",
                "email": "zsp2@wodzislaw-slaski.pl",
                "website": "http:\/\/zsp2.wodzislaw-slaski.pl",
                "ref:regon": "000729439",
                "ref:vatin": "PL6472133295",
                "operator": "Miasto Wodzis\u0142aw \u015al\u0105ski",
                "operator:type": "government",
                "amenity": "school",
                "note": "Parent RSPO: 41139"
            }
        },
        {
            "id": 72805,
            "type": "Feature",
            "geometry": {
                "type": "Point",
                "coordinates": [
                    18.49361,
                    49.99033
                ]
            },
            "properties": {
                "ref:rspo": 72805,
                "official_name": "Publiczne Przedszkole Nr 8",
                "name": "Publiczne Przedszkole Nr 8",
                "addr:postcode": "44-304",
                "addr:city": "Wodzis\u0142aw \u015al\u0105ski",
                "addr:street": "Jastrz\u0119bska",
                "addr:housenumber": "136",
                "addr:city:simc": 944853,
                "addr:street:sym_ul": 7357,
                "phone": "+48 324554763",
                "email": "zsp2@wodzislaw-slaski.pl",
                "website": "http:\/\/zsp2.wodzislaw-slaski.pl",
                "ref:regon": "271510515",
                "ref:vatin": "PL6472208952",
                "operator": "Miasto Wodzis\u0142aw \u015al\u0105ski",
                "operator:type": "government",
                "amenity": "kindergarten",
                "note": "Parent RSPO: 41139"
            }
        },
        {
            "id": 128029,
            "type": "Feature",
            "geometry": {
                "type": "Point",
                "coordinates": [
                    18.43977,
                    49.99281
                ]
            },
            "properties": {
                "ref:rspo": 128029,
                "official_name": "Centrum Szkole\u0144 \"Mg-Edu\"",
                "name": "Centrum Szkole\u0144 \"Mg-Edu\"",
                "addr:postcode": "44-300",
                "addr:city": "Wodzis\u0142aw \u015al\u0105ski",
                "addr:street": "Czy\u017cowicka",
                "addr:housenumber": "73",
                "addr:city:simc": 944853,
                "addr:street:sym_ul": 3531,
                "phone": "+48 663904349",
                "email": "biuro@mg-edu.pl",
                "website": "http:\/\/mg-edu.pl",
                "ref:regon": "362027659",
                "operator": "Ma\u0142gorzata Gajda",
                "operator:type": "private",
                "fixme": "w zale\u017cno\u015bci od przedmiotu dzia\u0142alno\u015bci (np. amenity=training + training=*, amenity=dancing_school, amenity=language_school, amenity=music_school)"
            }
        },
        {
            "id": 35266,
            "type": "Feature",
            "geometry": {
                "type": "Point",
                "coordinates": [
                    18.50651,
                    49.99316
                ]
            },
            "properties": {
                "ref:rspo": 35266,
                "official_name": "\"P.z.partner\" Pa\u0142amarz Sp.j.",
                "name": "\"P.z.partner\" Pa\u0142amarz Sp.j.",
                "addr:postcode": "44-304",
                "addr:city": "Wodzis\u0142aw \u015al\u0105ski",
                "addr:street": "Po\u0142omska",
                "addr:housenumber": "26",
                "addr:city:simc": 944853,
                "addr:street:sym_ul": 17063,
                "phone": "+48 324560240",
                "email": "biuro@bhpfirma.pl",
                "website": "http:\/\/bhpfirma.pl",
                "ref:regon": "243069609",
                "ref:vatin": "PL6471003739",
                "operator": "\"P.z. Partner\" - Pa\u0142amarz Sp\u00f3\u0142ka Jawna",
                "operator:type": "private",
                "fixme": "w zale\u017cno\u015bci od przedmiotu dzia\u0142alno\u015bci (np. amenity=training + training=*, amenity=dancing_school, amenity=language_school, amenity=music_school)"
            }
        },
        {
            "id": 43485,
            "type": "Feature",
            "geometry": {
                "type": "Point",
                "coordinates": [
                    18.476,
                    49.99563
                ]
            },
            "properties": {
                "ref:rspo": 43485,
                "official_name": "Zesp\u00f3\u0142 Plac\u00f3wek Szkolno - Wychowawczo - Rewalidacyjnych w Wodzis\u0142awiu \u015aL\u0105skim",
                "name": "Zesp\u00f3\u0142 Plac\u00f3wek Szkolno - Wychowawczo - Rewalidacyjnych w Wodzis\u0142awiu \u015aL\u0105skim",
                "addr:postcode": "44-300",
                "addr:city": "Wodzis\u0142aw \u015al\u0105ski",
                "addr:street": "Miko\u0142aja Kopernika",
                "addr:housenumber": "71",
                "addr:city:simc": 944853,
                "addr:street:sym_ul": 9282,
                "phone": "+48 324552300",
                "email": "szkola@zpswr.wodzislaw.pl",
                "website": "http:\/\/zpswr.wodzislaw.pl",
                "ref:regon": "241651080",
                "ref:vatin": "PL6472534901",
                "operator": "Powiat Wodzis\u0142awski",
                "operator:type": "government",
                "landuse": "education",
                "fixme": "amenity=school, amenity=college albo landuse=education w zale\u017cno\u015bci od tego, jakie plac\u00f3wki wchodz\u0105 w sk\u0142ad zespo\u0142u. Sprawd\u017a, kiedy stosowa\u0107 amenity=* a kiedy landuse=education.",
                "note": "Children RSPO: 59172;115068"
            }
        },
        {
            "id": 59172,
            "type": "Feature",
            "geometry": {
                "type": "Point",
                "coordinates": [
                    18.476,
                    49.995599999999996
                ]
            },
            "properties": {
                "ref:rspo": 59172,
                "official_name": "O\u015brodek Rewalidacyjno-Wychowawczy w Wodzis\u0142awiu \u015aL\u0105skim",
                "name": "O\u015brodek Rewalidacyjno-Wychowawczy w Wodzis\u0142awiu \u015aL\u0105skim",
                "addr:postcode": "44-300",
                "addr:city": "Wodzis\u0142aw \u015al\u0105ski",
                "addr:street": "Miko\u0142aja Kopernika",
                "addr:housenumber": "71",
                "addr:city:simc": 944853,
                "addr:street:sym_ul": 9282,
                "phone": "+48 324552300",
                "email": "szkola@zpswr.wodzislaw.pl",
                "website": "http:\/\/zpswr.wodzislaw.pl",
                "ref:regon": "241651104",
                "ref:vatin": "PL6472534901",
                "operator": "Powiat Wodzis\u0142awski",
                "operator:type": "government",
                "amenity": "school",
                "note": "Parent RSPO: 43485"
            }
        },
        {
            "id": 115068,
            "type": "Feature",
            "geometry": {
                "type": "Point",
                "coordinates": [
                    18.476,
                    49.99557
                ]
            },
            "properties": {
                "ref:rspo": 115068,
                "official_name": "Specjalny O\u015brodek Szkolno-Wychowawczy im. Dr Med. Alojzego Pawelca w Wodzis\u0142awiu \u015aL\u0105skim",
                "name": "Specjalny O\u015brodek Szkolno-Wychowawczy",
                "addr:postcode": "44-300",
                "addr:city": "Wodzis\u0142aw \u015al\u0105ski",
                "addr:street": "Miko\u0142aja Kopernika",
                "addr:housenumber": "71",
                "addr:city:simc": 944853,
                "addr:street:sym_ul": 9282,
                "phone": "+48 324552300",
                "email": "szkola@zpswr.wodzislaw.pl",
                "website": "http:\/\/zpswr.wodzislaw.pl",
                "ref:regon": "001015720",
                "ref:vatin": "PL6472534901",
                "operator": "Powiat Wodzis\u0142awski",
                "operator:type": "government",
                "amenity": "school",
                "note": "Children RSPO: 59164;59168;70397Parent RSPO: 43485"
            }
        },
        {
            "id": 59164,
            "type": "Feature",
            "geometry": {
                "type": "Point",
                "coordinates": [
                    18.476,
                    49.99554
                ]
            },
            "properties": {
                "isced:level": "3",
                "ref:rspo": 59164,
                "official_name": "Bran\u017cowa Szko\u0142a I Stopnia Specjalna w Wodzis\u0142awiu \u015aL\u0105skim",
                "name": "Bran\u017cowa Szko\u0142a I Stopnia Specjalna w Wodzis\u0142awiu \u015aL\u0105skim",
                "addr:postcode": "44-300",
                "addr:city": "Wodzis\u0142aw \u015al\u0105ski",
                "addr:street": "Miko\u0142aja Kopernika",
                "addr:housenumber": "71",
                "addr:city:simc": 944853,
                "addr:street:sym_ul": 9282,
                "phone": "+48 324552300",
                "email": "szkola@zpswr.wodzislaw.pl",
                "website": "http:\/\/zpswr.wodzislaw.pl",
                "ref:regon": "277852180",
                "ref:vatin": "PL6472534901",
                "operator": "Powiat Wodzis\u0142awski",
                "operator:type": "government",
                "amenity": "school",
                "note": "Parent RSPO: 115068"
            }
        },
        {
            "id": 59168,
            "type": "Feature",
            "geometry": {
                "type": "Point",
                "coordinates": [
                    18.476,
                    49.995509999999996
                ]
            },
            "properties": {
                "ref:rspo": 59168,
                "official_name": "Szko\u0142a Specjalna Przysposabiaj\u0105ca Do Pracy w Wodzis\u0142awiu \u015aL\u0105skim",
                "name": "Szko\u0142a Specjalna Przysposabiaj\u0105ca Do Pracy w Wodzis\u0142awiu \u015aL\u0105skim",
                "addr:postcode": "44-300",
                "addr:city": "Wodzis\u0142aw \u015al\u0105ski",
                "addr:street": "Miko\u0142aja Kopernika",
                "addr:housenumber": "71",
                "addr:city:simc": 944853,
                "addr:street:sym_ul": 9282,
                "phone": "+48 324552300",
                "email": "szkola@zpswr.wodzislaw.pl",
                "website": "http:\/\/zpswr.wodzislaw.pl",
                "ref:regon": "278298774",
                "ref:vatin": "PL6472534901",
                "operator": "Powiat Wodzis\u0142awski",
                "operator:type": "government",
                "amenity": "school",
                "note": "Parent RSPO: 115068"
            }
        },
        {
            "id": 70397,
            "type": "Feature",
            "geometry": {
                "type": "Point",
                "coordinates": [
                    18.476,
                    49.99548
                ]
            },
            "properties": {
                "isced:level": "1;2",
                "ref:rspo": 70397,
                "official_name": "Szko\u0142a Podstawowa Specjalna w Wodzis\u0142awiu \u015aL\u0105skim",
                "name": "Szko\u0142a Podstawowa Specjalna w Wodzis\u0142awiu \u015aL\u0105skim",
                "addr:postcode": "44-300",
                "addr:city": "Wodzis\u0142aw \u015al\u0105ski",
                "addr:street": "Miko\u0142aja Kopernika",
                "addr:housenumber": "71",
                "addr:city:simc": 944853,
                "addr:street:sym_ul": 9282,
                "phone": "+48 324552300",
                "email": "szkola@zpswr.wodzislaw.pl",
                "website": "http:\/\/zpswr.wodzislaw.pl",
                "ref:regon": "000729468",
                "ref:vatin": "PL6472534901",
                "operator": "Powiat Wodzis\u0142awski",
                "operator:type": "government",
                "amenity": "school",
                "note": "Parent RSPO: 115068"
            }
        },
        {
            "id": 35308,
            "type": "Feature",
            "geometry": {
                "type": "Point",
                "coordinates": [
                    18.47857,
                    49.99622
                ]
            },
            "properties": {
                "ref:rspo": 35308,
                "official_name": "Niepubliczna Plac\u00f3wka Kszta\u0142cenia Ustawicznego O\u015brodek Szkolenia Zawodowego \"Wawex II\"",
                "name": "Niepubliczna Plac\u00f3wka Kszta\u0142cenia Ustawicznego O\u015brodek Szkolenia Zawodowego \"Wawex II\"",
                "addr:postcode": "44-300",
                "addr:city": "Wodzis\u0142aw \u015al\u0105ski",
                "addr:street": "Gaw\u0119dy",
                "addr:housenumber": "24",
                "addr:city:simc": 944853,
                "addr:street:sym_ul": 5369,
                "phone": "+48 324556288",
                "email": "biuro@wawexbhp.pl",
                "website": "http:\/\/wawexbhp.pl",
                "ref:regon": "243070742",
                "ref:vatin": "PL6471343464",
                "operator": "Eleonora Wawer",
                "operator:type": "private",
                "fixme": "w zale\u017cno\u015bci od przedmiotu dzia\u0142alno\u015bci (np. amenity=training + training=*, amenity=dancing_school, amenity=language_school, amenity=music_school)"
            }
        },
        {
            "id": 56642,
            "type": "Feature",
            "geometry": {
                "type": "Point",
                "coordinates": [
                    18.44664,
                    49.99789
                ]
            },
            "properties": {
                "ref:rspo": 56642,
                "official_name": "Publiczne Przedszkole Nr 2",
                "name": "Publiczne Przedszkole Nr 2",
                "addr:postcode": "44-300",
                "addr:city": "Wodzis\u0142aw \u015al\u0105ski",
                "addr:street": "Fryderyka Chopina",
                "addr:housenumber": "13",
                "addr:city:simc": 944853,
                "addr:street:sym_ul": 2849,
                "phone": "+48 324551425",
                "email": "pp2@wodzislaw-slaski.pl",
                "website": "http:\/\/pp2.wodzislaw-slaski.pl",
                "ref:regon": "271510455",
                "ref:vatin": "PL6472133384",
                "operator": "Miasto Wodzis\u0142aw \u015al\u0105ski",
                "operator:type": "government",
                "amenity": "kindergarten"
            }
        },
        {
            "id": 57126,
            "type": "Feature",
            "geometry": {
                "type": "Point",
                "coordinates": [
                    18.46163,
                    49.9994
                ]
            },
            "properties": {
                "ref:rspo": 57126,
                "official_name": "Poradnia Psychologiczno-Pedagogiczna w Wodzis\u0142awiu \u015aL\u0105skim",
                "name": "Poradnia Psychologiczno-Pedagogiczna w Wodzis\u0142awiu \u015aL\u0105skim",
                "addr:postcode": "44-300",
                "addr:city": "Wodzis\u0142aw \u015al\u0105ski",
                "addr:street": "Doktora Lucjana Mendego",
                "addr:housenumber": "3",
                "addr:city:simc": 944853,
                "addr:street:sym_ul": 12603,
                "phone": "+48 324561993",
                "email": "ppp-wodzislaw@wp.pl",
                "website": "http:\/\/poradnia.wodzislaw.pl",
                "ref:regon": "000729712",
                "ref:vatin": "PL6472070324",
                "operator": "Powiat Wodzis\u0142awski",
                "operator:type": "government",
                "healthcare": "counselling",
                "counselling_type": "education",
                "fixme": "w zale\u017cno\u015bci od przedmiotu dzia\u0142alno\u015bci (np. healthcare=counselling + counselling_type=education albo healthcare=psychotherapist)"
            }
        },
        {
            "id": 35313,
            "type": "Feature",
            "geometry": {
                "type": "Point",
                "coordinates": [
                    18.465669631958,
                    50.000129699707
                ]
            },
            "properties": {
                "ref:rspo": 35313,
                "official_name": "Edukacja Pozaszkolna Anderski",
                "name": "Edukacja Pozaszkolna Anderski",
                "addr:postcode": "44-300",
                "addr:city": "Wodzis\u0142aw \u015al\u0105ski",
                "addr:street": "Ksi\u0119dza Pu\u0142kownika Wilhelma Kubsza",
                "addr:housenumber": "28a",
                "addr:city:simc": 944853,
                "addr:street:sym_ul": 10314,
                "phone": "+48 324555515",
                "email": "ewelina@anderski.pl",
                "website": "http:\/\/yamaha.wodzislaw.pl",
                "ref:regon": "243070541",
                "ref:vatin": "PL6470521308",
                "operator": "Roman Anderski",
                "operator:type": "private",
                "fixme": "w zale\u017cno\u015bci od przedmiotu dzia\u0142alno\u015bci (np. amenity=training + training=*, amenity=dancing_school, amenity=language_school, amenity=music_school)"
            }
        },
        {
            "id": 48150,
            "type": "Feature",
            "geometry": {
                "type": "Point",
                "coordinates": [
                    18.465669631958,
                    50.000099699707
                ]
            },
            "properties": {
                "ref:rspo": 48150,
                "official_name": "Publiczne Przedszkole Nr 5",
                "name": "Publiczne Przedszkole Nr 5",
                "addr:postcode": "44-300",
                "addr:city": "Wodzis\u0142aw \u015al\u0105ski",
                "addr:street": "PCK",
                "addr:housenumber": "1",
                "addr:city:simc": 944853,
                "addr:street:sym_ul": 15905,
                "phone": "+48 324551115",
                "email": "zsp7@wodzislaw-slaski.pl",
                "website": "http:\/\/zsp7.wodzislaw-slaski.pl",
                "ref:regon": "271510484",
                "ref:vatin": "PL6472129336",
                "operator": "Miasto Wodzis\u0142aw \u015al\u0105ski",
                "operator:type": "government",
                "amenity": "kindergarten",
                "note": "Parent RSPO: 3312"
            }
        },
        {
            "id": 43424,
            "type": "Feature",
            "geometry": {
                "type": "Point",
                "coordinates": [
                    18.465719223023,
                    50.000141143799
                ]
            },
            "properties": {
                "ref:rspo": 43424,
                "official_name": "Teb Edukacja Studium Kszta\u0142cenia Praktycznego",
                "name": "Teb Edukacja Studium Kszta\u0142cenia Praktycznego",
                "addr:postcode": "44-300",
                "addr:city": "Wodzis\u0142aw \u015al\u0105ski",
                "addr:street": "Ksi\u0119dza Pu\u0142kownika Wilhelma Kubsza",
                "addr:housenumber": "6",
                "addr:city:simc": 944853,
                "addr:street:sym_ul": 10314,
                "phone": "+48 324561843",
                "email": "wodzislaw@teb.pl",
                "website": "http:\/\/teb.pl",
                "ref:regon": "243088127",
                "ref:vatin": "PL7781456499",
                "operator": "Teb Edukacja Sp\u00f3\u0142ka Z Ograniczon\u0105 Odpowiedzialno\u015bci\u0105",
                "operator:type": "private",
                "fixme": "w zale\u017cno\u015bci od przedmiotu dzia\u0142alno\u015bci (np. amenity=training + training=*, amenity=dancing_school, amenity=language_school, amenity=music_school)"
            }
        },
        {
            "id": 43425,
            "type": "Feature",
            "geometry": {
                "type": "Point",
                "coordinates": [
                    18.465719223023,
                    50.000111143798996
                ]
            },
            "properties": {
                "isced:level": "4",
                "ref:rspo": 43425,
                "official_name": "Policealna Szko\u0142a Medyczna Teb Edukacja w Wodzis\u0142awiu \u015aL\u0105skim",
                "name": "Policealna Szko\u0142a Medyczna Teb Edukacja w Wodzis\u0142awiu \u015aL\u0105skim",
                "addr:postcode": "44-300",
                "addr:city": "Wodzis\u0142aw \u015al\u0105ski",
                "addr:street": "Ksi\u0119dza Pu\u0142kownika Wilhelma Kubsza",
                "addr:housenumber": "6",
                "addr:city:simc": 944853,
                "addr:street:sym_ul": 10314,
                "phone": "+48 324561843",
                "email": "wodzislaw@teb.pl",
                "website": "http:\/\/teb.pl",
                "ref:regon": "243088096",
                "ref:vatin": "PL7781456499",
                "operator": "Teb Edukacja Sp\u00f3\u0142ka Z Ograniczon\u0105 Odpowiedzialno\u015bci\u0105",
                "operator:type": "private",
                "amenity": "college"
            }
        },
        {
            "id": 43428,
            "type": "Feature",
            "geometry": {
                "type": "Point",
                "coordinates": [
                    18.465719223023,
                    50.000081143799
                ]
            },
            "properties": {
                "isced:level": "4",
                "ref:rspo": 43428,
                "official_name": "Niepubliczna Szko\u0142a Policealna Teb Edukacja w Wodzis\u0142awiu \u015aL\u0105skim",
                "name": "Niepubliczna Szko\u0142a Policealna Teb Edukacja w Wodzis\u0142awiu \u015aL\u0105skim",
                "addr:postcode": "44-300",
                "addr:city": "Wodzis\u0142aw \u015al\u0105ski",
                "addr:street": "Ksi\u0119dza Pu\u0142kownika Wilhelma Kubsza",
                "addr:housenumber": "6",
                "addr:city:simc": 944853,
                "addr:street:sym_ul": 10314,
                "phone": "+48 324561843",
                "email": "wodzislaw@teb.pl",
                "website": "http:\/\/teb.pl",
                "ref:regon": "243090584",
                "ref:vatin": "PL7781456499",
                "operator": "Teb Edukacja Sp\u00f3\u0142ka Z Ograniczon\u0105 Odpowiedzialno\u015bci\u0105",
                "operator:type": "private",
                "amenity": "college"
            }
        },
        {
            "id": 123756,
            "type": "Feature",
            "geometry": {
                "type": "Point",
                "coordinates": [
                    18.465719223023,
                    50.000051143799
                ]
            },
            "properties": {
                "isced:level": "3",
                "ref:rspo": 123756,
                "official_name": "Liceum Og\u00f3lnokszta\u0142c\u0105ce Teb Edukacja dla Doros\u0142ych w Wodzis\u0142awiu \u015aL\u0105skim",
                "name": "Liceum Og\u00f3lnokszta\u0142c\u0105ce Teb Edukacja dla Doros\u0142ych w Wodzis\u0142awiu \u015aL\u0105skim",
                "addr:postcode": "44-300",
                "addr:city": "Wodzis\u0142aw \u015al\u0105ski",
                "addr:street": "Ksi\u0119dza Pu\u0142kownika Wilhelma Kubsza",
                "addr:housenumber": "6",
                "addr:city:simc": 944853,
                "addr:street:sym_ul": 10314,
                "phone": "+48 324561843",
                "email": "wodzislaw@teb.pl",
                "website": "http:\/\/teb.pl",
                "ref:regon": "243630081",
                "operator": "Teb Edukacja Sp\u00f3\u0142ka Z Ograniczon\u0105 Odpowiedzialno\u015bci\u0105",
                "operator:type": "private",
                "amenity": "school"
            }
        },
        {
            "id": 266369,
            "type": "Feature",
            "geometry": {
                "type": "Point",
                "coordinates": [
                    18.465719223023,
                    50.000021143798996
                ]
            },
            "properties": {
                "isced:level": "3",
                "ref:rspo": 266369,
                "official_name": "Technikum Teb Edukacja w Wodzis\u0142awiu \u015aL\u0105skim",
                "name": "Technikum Teb Edukacja w Wodzis\u0142awiu \u015aL\u0105skim",
                "addr:postcode": "44-300",
                "addr:city": "Wodzis\u0142aw \u015al\u0105ski",
                "addr:street": "Ksi\u0119dza Pu\u0142kownika Wilhelma Kubsza",
                "addr:housenumber": "6",
                "addr:city:simc": 944853,
                "addr:street:sym_ul": 10314,
                "phone": "+48 324561843",
                "email": "wodzislaw@teb.pl",
                "website": "http:\/\/www.teb.pl",
                "ref:regon": "369448200",
                "operator": "Teb Edukacja Sp\u00f3\u0142ka Z Ograniczon\u0105 Odpowiedzialno\u015bci\u0105",
                "operator:type": "private",
                "amenity": "school"
            }
        },
        {
            "id": 48144,
            "type": "Feature",
            "geometry": {
                "type": "Point",
                "coordinates": [
                    18.43815,
                    50.0009299
                ]
            },
            "properties": {
                "isced:level": "1;2",
                "ref:rspo": 48144,
                "official_name": "Szko\u0142a Podstawowa Nr 2 im. Juliana Tuwima",
                "name": "Szko\u0142a Podstawowa Nr 2",
                "addr:postcode": "44-300",
                "addr:city": "Wodzis\u0142aw \u015al\u0105ski",
                "addr:street": "Ksi\u0119dza Antoniego Roboty",
                "addr:housenumber": "7",
                "addr:city:simc": 944853,
                "addr:street:sym_ul": 39293,
                "phone": "+48 324563127",
                "email": "sp2@wodzislaw-slaski.pl",
                "website": "http:\/\/sp2.wodzislaw-slaski.pl",
                "ref:regon": "000729379",
                "ref:vatin": "PL6472127188",
                "operator": "Miasto Wodzis\u0142aw \u015al\u0105ski",
                "operator:type": "government",
                "amenity": "school"
            }
        },
        {
            "id": 53392,
            "type": "Feature",
            "geometry": {
                "type": "Point",
                "coordinates": [
                    18.46383,
                    50.00165
                ]
            },
            "properties": {
                "ref:rspo": 53392,
                "official_name": "Niepubliczna Plac\u00f3wka O\u015bwiatowo-Wychowawcza \"Promyk\" w Wodzis\u0142awiu \u015aL\u0105skim",
                "name": "Niepubliczna Plac\u00f3wka O\u015bwiatowo-Wychowawcza \"Promyk\" w Wodzis\u0142awiu \u015aL\u0105skim",
                "addr:postcode": "44-300",
                "addr:city": "Wodzis\u0142aw \u015al\u0105ski",
                "addr:street": "Zamkowa",
                "addr:housenumber": "5",
                "addr:city:simc": 944853,
                "addr:street:sym_ul": 25547,
                "phone": "+48 324554985",
                "email": "biuro@cech.wodzislaw.pl",
                "website": "http:\/\/cech.wodzislaw.pl",
                "ref:regon": "243078880",
                "ref:vatin": "PL6471704376",
                "operator": "Cech Rzemie\u015blnik\u00f3w I Innych Przedsi\u0119biorc\u00f3w W Wodzis\u0142awiu \u015al\u0105skim",
                "operator:type": "ngo",
                "fixme": "w zale\u017cno\u015bci od przedmiotu dzia\u0142alno\u015bci (np. amenity=training + training=*, amenity=dancing_school, amenity=language_school, amenity=music_school)"
            }
        },
        {
            "id": 112195,
            "type": "Feature",
            "geometry": {
                "type": "Point",
                "coordinates": [
                    18.46383,
                    50.001619999999996
                ]
            },
            "properties": {
                "ref:rspo": 112195,
                "official_name": "Cech Rzemie\u015blnik\u00f3w I Innych Przedsi\u0119biorc\u00f3w w Wodzis\u0142awiu \u015aL\u0105skim",
                "name": "Cech Rzemie\u015blnik\u00f3w I Innych Przedsi\u0119biorc\u00f3w w Wodzis\u0142awiu \u015aL\u0105skim",
                "addr:postcode": "44-300",
                "addr:city": "Wodzis\u0142aw \u015al\u0105ski",
                "addr:street": "Zamkowa",
                "addr:housenumber": "5",
                "addr:city:simc": 944853,
                "addr:street:sym_ul": 25547,
                "phone": "+48 324554985",
                "email": "biuro@cech.wodzislaw.pl",
                "website": "http:\/\/cech.wodzislaw.pl",
                "ref:regon": "243218771",
                "ref:vatin": "PL6471704376",
                "operator": "Cech Rzemie\u015blnik\u00f3w I Innych Przedsi\u0119biorc\u00f3w W Wodzis\u0142awiu \u015al\u0105skim",
                "operator:type": "ngo",
                "fixme": "w zale\u017cno\u015bci od przedmiotu dzia\u0142alno\u015bci (np. amenity=training + training=*, amenity=dancing_school, amenity=language_school, amenity=music_school) albo amenity=school, amenity=college, albo landuse=education w zale\u017cno\u015bci od tego, jakie plac\u00f3wki wchodz\u0105 w sk\u0142ad zespo\u0142u. Sprawd\u017a, kiedy stosowa\u0107 amenity=* a kiedy landuse=education."
            }
        },
        {
            "id": 44365,
            "type": "Feature",
            "geometry": {
                "type": "Point",
                "coordinates": [
                    18.4578,
                    50.00174
                ]
            },
            "properties": {
                "ref:rspo": 44365,
                "official_name": "Przedszkole Publiczne Nr 1",
                "name": "Przedszkole Publiczne Nr 1",
                "addr:postcode": "44-300",
                "addr:city": "Wodzis\u0142aw \u015al\u0105ski",
                "addr:street": "Paw\u0142a Po\u015bpiecha",
                "addr:housenumber": "7",
                "addr:city:simc": 944853,
                "addr:street:sym_ul": 17255,
                "phone": "+48 324551620",
                "email": "pp1@wodzislaw-slaski.pl",
                "website": "http:\/\/pp1.wodzislaw-slaski.pl",
                "ref:regon": "271510449",
                "ref:vatin": "PL6472127283",
                "operator": "Miasto Wodzis\u0142aw \u015al\u0105ski",
                "operator:type": "government",
                "amenity": "kindergarten"
            }
        },
        {
            "id": 72808,
            "type": "Feature",
            "geometry": {
                "type": "Point",
                "coordinates": [
                    18.45972,
                    50.00191
                ]
            },
            "properties": {
                "isced:level": "1;2",
                "ref:rspo": 72808,
                "official_name": "Szko\u0142a Podstawowa Nr 1 im. Marii Sk\u0142odowskiej-Curie",
                "name": "Szko\u0142a Podstawowa Nr 1",
                "addr:postcode": "44-300",
                "addr:city": "Wodzis\u0142aw \u015al\u0105ski",
                "addr:street": "Wa\u0142owa",
                "addr:housenumber": "5",
                "addr:city:simc": 944853,
                "addr:street:sym_ul": 23586,
                "phone": "+48 324530144",
                "email": "sp1@wodzislaw-slaski.pl",
                "website": "http:\/\/sp1wodzislawslaski.pl\/",
                "ref:regon": "000729362",
                "ref:vatin": "PL6472488590",
                "operator": "Miasto Wodzis\u0142aw \u015al\u0105ski",
                "operator:type": "government",
                "amenity": "school"
            }
        },
        {
            "id": 131747,
            "type": "Feature",
            "geometry": {
                "type": "Point",
                "coordinates": [
                    18.46386,
                    50.00238
                ]
            },
            "properties": {
                "ref:rspo": 131747,
                "official_name": "Niepubliczna Specjalistyczna Poradnia Psychologiczno-Pedagogiczna \"Bursztynek\"",
                "name": "Niepubliczna Specjalistyczna Poradnia Psychologiczno-Pedagogiczna \"Bursztynek\"",
                "addr:postcode": "44-300",
                "addr:city": "Wodzis\u0142aw \u015al\u0105ski",
                "addr:street": "Rynek",
                "addr:housenumber": "1",
                "addr:city:simc": 944853,
                "addr:street:sym_ul": 19253,
                "phone": "+48 693561683",
                "email": "dorota.placzek@wp.pl",
                "ref:regon": "365339276",
                "ref:vatin": "PL8411629063",
                "operator": "Dorota P\u0142aczek",
                "operator:type": "private",
                "healthcare": "counselling",
                "counselling_type": "education",
                "fixme": "w zale\u017cno\u015bci od przedmiotu dzia\u0142alno\u015bci (np. healthcare=counselling + counselling_type=education albo healthcare=psychotherapist)"
            }
        },
        {
            "id": 273459,
            "type": "Feature",
            "geometry": {
                "type": "Point",
                "coordinates": [
                    18.46449,
                    50.00328
                ]
            },
            "properties": {
                "ref:rspo": 273459,
                "official_name": "Niepubliczny Terapeutyczny Punkt Przedszkolny \"Bursztynek\"",
                "name": "Niepubliczny Terapeutyczny Punkt Przedszkolny \"Bursztynek\"",
                "addr:postcode": "44-300",
                "addr:city": "Wodzis\u0142aw \u015al\u0105ski",
                "addr:street": "Marsza\u0142ka J\u00f3zefa Pi\u0142sudskiego",
                "addr:housenumber": "3",
                "addr:city:simc": 944853,
                "addr:street:sym_ul": 36029,
                "ref:regon": "384479404",
                "operator": "Dorota P\u0142aczek",
                "operator:type": "private",
                "amenity": "kindergarten"
            }
        },
        {
            "id": 72810,
            "type": "Feature",
            "geometry": {
                "type": "Point",
                "coordinates": [
                    18.46839,
                    50.00429
                ]
            },
            "properties": {
                "isced:level": "1;2",
                "ref:rspo": 72810,
                "official_name": "Szko\u0142a Podstawowa Nr 3 im. Jana Paw\u0142a Ii",
                "name": "Szko\u0142a Podstawowa Nr 3",
                "addr:postcode": "44-300",
                "addr:city": "Wodzis\u0142aw \u015al\u0105ski",
                "addr:street": "26 Marca",
                "addr:housenumber": "9",
                "addr:city:simc": 944853,
                "addr:street:sym_ul": 12261,
                "phone": "+48 324552358",
                "email": "sp3@wodzislaw-slaski.pl",
                "website": "http:\/\/sp3.wodzislaw-slaski.pl",
                "ref:regon": "000729385",
                "ref:vatin": "PL6472129253",
                "operator": "Miasto Wodzis\u0142aw \u015al\u0105ski",
                "operator:type": "government",
                "amenity": "school"
            }
        },
        {
            "id": 4477,
            "type": "Feature",
            "geometry": {
                "type": "Point",
                "coordinates": [
                    18.46,
                    50.0046899
                ]
            },
            "properties": {
                "ref:rspo": 4477,
                "official_name": "Zesp\u00f3\u0142 Szk\u00f3\u0142 Ekonomicznych w Wodzis\u0142awiu \u015aL\u0105skim",
                "name": "Zesp\u00f3\u0142 Szk\u00f3\u0142 Ekonomicznych w Wodzis\u0142awiu \u015aL\u0105skim",
                "addr:postcode": "44-300",
                "addr:city": "Wodzis\u0142aw \u015al\u0105ski",
                "addr:street": "Szkolna",
                "addr:housenumber": "1",
                "addr:city:simc": 944853,
                "addr:street:sym_ul": 21970,
                "phone": "+48 324554056",
                "email": "szkola@ekonomik.wodzislaw.pl",
                "website": "http:\/\/ekonomik.wodzislaw.pl",
                "ref:regon": "276671387",
                "ref:vatin": "PL6471772082",
                "operator": "Powiat Wodzis\u0142awski",
                "operator:type": "government",
                "landuse": "education",
                "fixme": "amenity=school, amenity=college albo landuse=education w zale\u017cno\u015bci od tego, jakie plac\u00f3wki wchodz\u0105 w sk\u0142ad zespo\u0142u. Sprawd\u017a, kiedy stosowa\u0107 amenity=* a kiedy landuse=education.",
                "note": "Children RSPO: 43456;43459"
            }
        },
        {
            "id": 70272,
            "type": "Feature",
            "geometry": {
                "type": "Point",
                "coordinates": [
                    18.46,
                    50.0046599
                ]
            },
            "properties": {
                "isced:level": "3",
                "ref:rspo": 70272,
                "official_name": "I Liceum Og\u00f3lnokszta\u0142c\u0105ce im. 14 Pu\u0142ku Powsta\u0144c\u00f3w \u015aL\u0105skich w Wodzis\u0142awiu \u015aL\u0105skim",
                "name": "I Liceum Og\u00f3lnokszta\u0142c\u0105ce",
                "addr:postcode": "44-300",
                "addr:city": "Wodzis\u0142aw \u015al\u0105ski",
                "addr:street": "Szkolna",
                "addr:housenumber": "1",
                "addr:city:simc": 944853,
                "addr:street:sym_ul": 21970,
                "phone": "+48 324553164",
                "email": "s@lo1-wodzislaw.pl",
                "website": "http:\/\/lo1-wodzislaw.pl",
                "ref:regon": "000204381",
                "ref:vatin": "PL6472569414",
                "operator": "Powiat Wodzis\u0142awski",
                "operator:type": "government",
                "amenity": "school"
            }
        },
        {
            "id": 43456,
            "type": "Feature",
            "geometry": {
                "type": "Point",
                "coordinates": [
                    18.46,
                    50.004629900000005
                ]
            },
            "properties": {
                "isced:level": "3",
                "ref:rspo": 43456,
                "official_name": "Bran\u017cowa Szko\u0142a I Stopnia Nr 1 im. Komisji Edukacji Narodowej w Wodzis\u0142awiu \u015aL\u0105skim",
                "name": "Bran\u017cowa Szko\u0142a I Stopnia Nr 1",
                "addr:postcode": "44-300",
                "addr:city": "Wodzis\u0142aw \u015al\u0105ski",
                "addr:street": "Szkolna",
                "addr:housenumber": "1",
                "addr:city:simc": 944853,
                "addr:street:sym_ul": 21970,
                "phone": "+48 324554056",
                "email": "szkola@ekonomik.wodzislaw.pl",
                "website": "http:\/\/ekonomik.wodzislaw.pl",
                "ref:regon": "276672151",
                "ref:vatin": "PL6471772082",
                "operator": "Powiat Wodzis\u0142awski",
                "operator:type": "government",
                "amenity": "school",
                "note": "Parent RSPO: 4477"
            }
        },
        {
            "id": 43459,
            "type": "Feature",
            "geometry": {
                "type": "Point",
                "coordinates": [
                    18.46,
                    50.0045999
                ]
            },
            "properties": {
                "isced:level": "3",
                "ref:rspo": 43459,
                "official_name": "Technikum Nr 2 im. Komisji Edukacji Narodowej w Wodzis\u0142awiu \u015aL\u0105skim",
                "name": "Technikum Nr 2",
                "addr:postcode": "44-300",
                "addr:city": "Wodzis\u0142aw \u015al\u0105ski",
                "addr:street": "Szkolna",
                "addr:housenumber": "1",
                "addr:city:simc": 944853,
                "addr:street:sym_ul": 21970,
                "phone": "+48 324554056",
                "email": "szkola@ekonomik.wodzislaw.pl",
                "website": "http:\/\/ekonomik.wodzislaw.pl",
                "ref:regon": "276672033",
                "ref:vatin": "PL6471772082",
                "operator": "Powiat Wodzis\u0142awski",
                "operator:type": "government",
                "amenity": "school",
                "note": "Parent RSPO: 4477"
            }
        },
        {
            "id": 75581,
            "type": "Feature",
            "geometry": {
                "type": "Point",
                "coordinates": [
                    18.46753,
                    50.00588
                ]
            },
            "properties": {
                "ref:rspo": 75581,
                "official_name": "Pa\u0144stwowa Szko\u0142a Muzyczna I St. im. Wojciecha Kilara w Wodzis\u0142awiu \u015aL\u0105skim",
                "name": "Pa\u0144stwowa Szko\u0142a Muzyczna I St.",
                "addr:postcode": "44-300",
                "addr:city": "Wodzis\u0142aw \u015al\u0105ski",
                "addr:street": "Wojska Polskiego",
                "addr:housenumber": "16",
                "addr:city:simc": 944853,
                "addr:street:sym_ul": 24628,
                "phone": "+48 324552216",
                "email": "sekretariat@psm.wodzislaw.pl",
                "website": "http:\/\/psm.wodzislaw.pl",
                "ref:regon": "000777941",
                "ref:vatin": "PL6471773213",
                "operator": "Ministerstwo Kultury I Dziedzictwa Narodowego",
                "operator:type": "public",
                "amenity": "music_school"
            }
        },
        {
            "id": 35301,
            "type": "Feature",
            "geometry": {
                "type": "Point",
                "coordinates": [
                    18.44751,
                    50.00683
                ]
            },
            "properties": {
                "ref:rspo": 35301,
                "official_name": "Niepubliczna Plac\u00f3wka Kszta\u0142cenia Ustawicznego \"Jaguar\"",
                "name": "Niepubliczna Plac\u00f3wka Kszta\u0142cenia Ustawicznego \"Jaguar\"",
                "addr:postcode": "44-300",
                "addr:city": "Wodzis\u0142aw \u015al\u0105ski",
                "addr:street": "Osiedle Osiedle D\u0105br\u00f3wki",
                "addr:housenumber": "1b",
                "addr:city:simc": 944853,
                "addr:street:sym_ul": 48008,
                "phone": "+48 511644545",
                "email": "ochronajaguar@vp.pl",
                "website": "http:\/\/ochrona-jaguar.pl",
                "ref:regon": "243070200",
                "ref:vatin": "PL6472282144",
                "operator": "Roksana Pietras",
                "operator:type": "private",
                "fixme": "w zale\u017cno\u015bci od przedmiotu dzia\u0142alno\u015bci (np. amenity=training + training=*, amenity=dancing_school, amenity=language_school, amenity=music_school)"
            }
        },
        {
            "id": 48149,
            "type": "Feature",
            "geometry": {
                "type": "Point",
                "coordinates": [
                    18.47239,
                    50.00687
                ]
            },
            "properties": {
                "ref:rspo": 48149,
                "official_name": "Publiczne Przedszkole Nr 3",
                "name": "Publiczne Przedszkole Nr 3",
                "addr:postcode": "44-300",
                "addr:city": "Wodzis\u0142aw \u015al\u0105ski",
                "addr:street": "Boles\u0142awa Prusa",
                "addr:housenumber": "11",
                "addr:city:simc": 944853,
                "addr:street:sym_ul": 17577,
                "phone": "+48 324554858",
                "email": "pp3@wodzislaw-slaski.pl",
                "website": "http:\/\/pp3.wodzislaw-slaski.pl",
                "ref:regon": "271510461",
                "ref:vatin": "PL6472127076",
                "operator": "Miasto Wodzis\u0142aw \u015al\u0105ski",
                "operator:type": "government",
                "amenity": "kindergarten"
            }
        },
        {
            "id": 131329,
            "type": "Feature",
            "geometry": {
                "type": "Point",
                "coordinates": [
                    18.45649,
                    50.00749
                ]
            },
            "properties": {
                "ref:rspo": 131329,
                "official_name": "Powiatowe Centrum Kszta\u0142cenia Zawodowego I Ustawicznego w Wodzis\u0142awiu \u015aL\u0105skim",
                "name": "Powiatowe Centrum Kszta\u0142cenia Zawodowego I Ustawicznego w Wodzis\u0142awiu \u015aL\u0105skim",
                "addr:postcode": "44-300",
                "addr:city": "Wodzis\u0142aw \u015al\u0105ski",
                "addr:street": "Konstantego Ildefonsa Ga\u0142czy\u0144skiego",
                "addr:housenumber": "1",
                "addr:city:simc": 944853,
                "addr:street:sym_ul": 5300,
                "phone": "+48 324553593",
                "email": "szkola@pckziu.wodzislaw.pl",
                "website": "http:\/\/pckziu.wodzislaw.pl\/",
                "ref:regon": "365117593",
                "ref:vatin": "PL6472574935",
                "operator": "Powiat Wodzis\u0142awski",
                "operator:type": "government",
                "landuse": "education",
                "fixme": "amenity=school, amenity=college albo landuse=education w zale\u017cno\u015bci od tego, jakie plac\u00f3wki wchodz\u0105 w sk\u0142ad zespo\u0142u. Sprawd\u017a, kiedy stosowa\u0107 amenity=* a kiedy landuse=education.",
                "note": "Children RSPO: 43440;43452;43463;121350;275230"
            }
        },
        {
            "id": 43434,
            "type": "Feature",
            "geometry": {
                "type": "Point",
                "coordinates": [
                    18.45649,
                    50.007459999999995
                ]
            },
            "properties": {
                "isced:level": "3",
                "ref:rspo": 43434,
                "official_name": "Liceum Og\u00f3lnokszta\u0142c\u0105ce dla Doros\u0142ych w Wodzis\u0142awiu \u015aL\u0105skim",
                "name": "Liceum Og\u00f3lnokszta\u0142c\u0105ce dla Doros\u0142ych w Wodzis\u0142awiu \u015aL\u0105skim",
                "addr:postcode": "44-300",
                "addr:city": "Wodzis\u0142aw \u015al\u0105ski",
                "addr:street": "Konstantego Ildefonsa Ga\u0142czy\u0144skiego",
                "addr:housenumber": "1",
                "addr:city:simc": 944853,
                "addr:street:sym_ul": 5300,
                "phone": "+48 324553593",
                "email": "szkola@pckziu.wodzislaw.pl",
                "website": "http:\/\/pckziu.wodzislaw.pl",
                "ref:regon": "243073640",
                "ref:vatin": "PL6472200689",
                "operator": "Powiat Wodzis\u0142awski",
                "operator:type": "government",
                "amenity": "school",
                "note": "Parent RSPO: 121350"
            }
        },
        {
            "id": 43438,
            "type": "Feature",
            "geometry": {
                "type": "Point",
                "coordinates": [
                    18.45649,
                    50.00743
                ]
            },
            "properties": {
                "isced:level": "4",
                "ref:rspo": 43438,
                "official_name": "Szko\u0142a Policealna w Wodzis\u0142awiu \u015aL\u0105skim",
                "name": "Szko\u0142a Policealna w Wodzis\u0142awiu \u015aL\u0105skim",
                "addr:postcode": "44-300",
                "addr:city": "Wodzis\u0142aw \u015al\u0105ski",
                "addr:street": "Konstantego Ildefonsa Ga\u0142czy\u0144skiego",
                "addr:housenumber": "1",
                "addr:city:simc": 944853,
                "addr:street:sym_ul": 5300,
                "phone": "+48 324553593",
                "email": "szkola@pckziu.wodzislaw.pl",
                "website": "http:\/\/pckziu.wodzislaw.pl",
                "ref:regon": "272130559",
                "ref:vatin": "PL6472200689",
                "operator": "Powiat Wodzis\u0142awski",
                "operator:type": "government",
                "amenity": "college",
                "note": "Parent RSPO: 121350"
            }
        },
        {
            "id": 43440,
            "type": "Feature",
            "geometry": {
                "type": "Point",
                "coordinates": [
                    18.45649,
                    50.0074
                ]
            },
            "properties": {
                "ref:rspo": 43440,
                "official_name": "Centrum Kszta\u0142cenia Zawodowego w Wodzis\u0142awiu \u015aL\u0105skim",
                "name": "Centrum Kszta\u0142cenia Zawodowego w Wodzis\u0142awiu \u015aL\u0105skim",
                "addr:postcode": "44-300",
                "addr:city": "Wodzis\u0142aw \u015al\u0105ski",
                "addr:street": "Konstantego Ildefonsa Ga\u0142czy\u0144skiego",
                "addr:housenumber": "1",
                "addr:city:simc": 944853,
                "addr:street:sym_ul": 5300,
                "phone": "+48 324553593",
                "email": "szkola@pckziu.wodzislaw.pl",
                "website": "http:\/\/pckziu.wodzislaw.pl",
                "ref:regon": "277540569",
                "ref:vatin": "PL6472200689",
                "operator": "Powiat Wodzis\u0142awski",
                "operator:type": "government",
                "fixme": "w zale\u017cno\u015bci od przedmiotu dzia\u0142alno\u015bci (np. amenity=training + training=*, amenity=dancing_school, amenity=language_school, amenity=music_school) albo amenity=school, amenity=college, albo landuse=education w zale\u017cno\u015bci od tego, jakie plac\u00f3wki wchodz\u0105 w sk\u0142ad zespo\u0142u. Sprawd\u017a, kiedy stosowa\u0107 amenity=* a kiedy landuse=education.",
                "note": "Parent RSPO: 131329"
            }
        },
        {
            "id": 43452,
            "type": "Feature",
            "geometry": {
                "type": "Point",
                "coordinates": [
                    18.45649,
                    50.007369999999995
                ]
            },
            "properties": {
                "isced:level": "3",
                "ref:rspo": 43452,
                "official_name": "Technikum Nr 1 im. Piast\u00f3w \u015aL\u0105skich w Wodzis\u0142awiu \u015aL\u0105skim",
                "name": "Technikum Nr 1",
                "addr:postcode": "44-300",
                "addr:city": "Wodzis\u0142aw \u015al\u0105ski",
                "addr:street": "Konstantego Ildefonsa Ga\u0142czy\u0144skiego",
                "addr:housenumber": "1",
                "addr:city:simc": 944853,
                "addr:street:sym_ul": 5300,
                "phone": "+48 324553593",
                "email": "szkola@pckziu.wodzislaw.pl",
                "website": "http:\/\/pckziu.wodzislaw.pl",
                "ref:regon": "273675321",
                "ref:vatin": "PL6472341823",
                "operator": "Powiat Wodzis\u0142awski",
                "operator:type": "government",
                "amenity": "school",
                "note": "Parent RSPO: 131329"
            }
        },
        {
            "id": 43463,
            "type": "Feature",
            "geometry": {
                "type": "Point",
                "coordinates": [
                    18.45649,
                    50.00734
                ]
            },
            "properties": {
                "isced:level": "3",
                "ref:rspo": 43463,
                "official_name": "Bran\u017cowa Szko\u0142a I Stopnia Nr 3 im. Piast\u00f3w \u015aL\u0105skich w Wodzis\u0142awiu \u015aL\u0105skim",
                "name": "Bran\u017cowa Szko\u0142a I Stopnia Nr 3",
                "addr:postcode": "44-300",
                "addr:city": "Wodzis\u0142aw \u015al\u0105ski",
                "addr:street": "Konstantego Ildefonsa Ga\u0142czy\u0144skiego",
                "addr:housenumber": "1",
                "addr:city:simc": 944853,
                "addr:street:sym_ul": 5300,
                "phone": "+48 324553593",
                "email": "szkola@pckziu.wodzislaw.pl",
                "website": "http:\/\/pckziu.wodzislaw.pl",
                "ref:regon": "272161940",
                "ref:vatin": "PL6472341823",
                "operator": "Powiat Wodzis\u0142awski",
                "operator:type": "government",
                "amenity": "school",
                "note": "Parent RSPO: 131329"
            }
        },
        {
            "id": 121350,
            "type": "Feature",
            "geometry": {
                "type": "Point",
                "coordinates": [
                    18.45649,
                    50.00731
                ]
            },
            "properties": {
                "ref:rspo": 121350,
                "official_name": "Centrum Kszta\u0142cenia Ustawicznego w Wodzis\u0142awiu \u015aL\u0105skim",
                "name": "Centrum Kszta\u0142cenia Ustawicznego w Wodzis\u0142awiu \u015aL\u0105skim",
                "addr:postcode": "44-300",
                "addr:city": "Wodzis\u0142aw \u015al\u0105ski",
                "addr:street": "Konstantego Ildefonsa Ga\u0142czy\u0144skiego",
                "addr:housenumber": "1",
                "addr:city:simc": 944853,
                "addr:street:sym_ul": 5300,
                "phone": "+48 324553593",
                "email": "szkola@pckziu.wodzislaw.pl",
                "website": "http:\/\/pckziu.wodzislaw.pl",
                "ref:regon": "276291911",
                "ref:vatin": "PL6472200689",
                "operator": "Powiat Wodzis\u0142awski",
                "operator:type": "government",
                "amenity": "school",
                "fixme": "amenity=school lub amenity=college",
                "note": "Children RSPO: 43434;43438Parent RSPO: 131329"
            }
        },
        {
            "id": 275230,
            "type": "Feature",
            "geometry": {
                "type": "Point",
                "coordinates": [
                    18.45649,
                    50.007279999999994
                ]
            },
            "properties": {
                "isced:level": "3",
                "ref:rspo": 275230,
                "official_name": "Bran\u017cowa Szko\u0142a II Stopnia w Wodzis\u0142awiu \u015aL\u0105skim",
                "name": "Bran\u017cowa Szko\u0142a II Stopnia w Wodzis\u0142awiu \u015aL\u0105skim",
                "addr:postcode": "44-300",
                "addr:city": "Wodzis\u0142aw \u015al\u0105ski",
                "addr:street": "Konstantego Ildefonsa Ga\u0142czy\u0144skiego",
                "addr:housenumber": "1",
                "addr:city:simc": 944853,
                "addr:street:sym_ul": 5300,
                "phone": "+48 324553593",
                "email": "szkola@pckziu.wodzislaw.pl",
                "website": "http:\/\/pckziu.wodzislaw.pl",
                "ref:regon": "386719189",
                "operator": "Powiat Wodzis\u0142awski",
                "operator:type": "government",
                "amenity": "school",
                "note": "Parent RSPO: 131329"
            }
        },
        {
            "id": 4506,
            "type": "Feature",
            "geometry": {
                "type": "Point",
                "coordinates": [
                    18.44565,
                    50.00782
                ]
            },
            "properties": {
                "ref:rspo": 4506,
                "official_name": "Zesp\u00f3\u0142 Szk\u00f3\u0142 Technicznych w Wodzis\u0142awiu \u015aL\u0105skim",
                "name": "Zesp\u00f3\u0142 Szk\u00f3\u0142 Technicznych w Wodzis\u0142awiu \u015aL\u0105skim",
                "addr:postcode": "44-300",
                "addr:city": "Wodzis\u0142aw \u015al\u0105ski",
                "addr:street": "Pszowska",
                "addr:housenumber": "92",
                "addr:city:simc": 944853,
                "addr:street:sym_ul": 18051,
                "phone": "+48 324562720",
                "email": "zst@zstwodzislaw.net",
                "website": "http:\/\/zstwodzislaw.net",
                "ref:regon": "271504963",
                "ref:vatin": "PL6472108096",
                "operator": "Powiat Wodzis\u0142awski",
                "operator:type": "government",
                "landuse": "education",
                "fixme": "amenity=school, amenity=college albo landuse=education w zale\u017cno\u015bci od tego, jakie plac\u00f3wki wchodz\u0105 w sk\u0142ad zespo\u0142u. Sprawd\u017a, kiedy stosowa\u0107 amenity=* a kiedy landuse=education.",
                "note": "Children RSPO: 65144;69452;70066"
            }
        },
        {
            "id": 65144,
            "type": "Feature",
            "geometry": {
                "type": "Point",
                "coordinates": [
                    18.44565,
                    50.00779
                ]
            },
            "properties": {
                "isced:level": "3",
                "ref:rspo": 65144,
                "official_name": "Technikum Nr 3 im. Rtm.witolda Pileckiego w Wodzis\u0142awiu \u015aL\u0105skim",
                "name": "Technikum Nr 3",
                "addr:postcode": "44-300",
                "addr:city": "Wodzis\u0142aw \u015al\u0105ski",
                "addr:street": "Pszowska",
                "addr:housenumber": "92",
                "addr:city:simc": 944853,
                "addr:street:sym_ul": 18051,
                "phone": "+48 324562720",
                "email": "zst@zstwodzislaw.net",
                "website": "http:\/\/zstwodzislaw.net",
                "ref:regon": "272130648",
                "ref:vatin": "PL6472108096",
                "operator": "Powiat Wodzis\u0142awski",
                "operator:type": "government",
                "amenity": "school",
                "note": "Parent RSPO: 4506"
            }
        },
        {
            "id": 69452,
            "type": "Feature",
            "geometry": {
                "type": "Point",
                "coordinates": [
                    18.44565,
                    50.007760000000005
                ]
            },
            "properties": {
                "isced:level": "3",
                "ref:rspo": 69452,
                "official_name": "Iii Liceum Og\u00f3lnokszta\u0142c\u0105ce Z Oddzia\u0142ami Sportowymi im.rtm. Witolda Pileckiego w Wodzis\u0142awiu \u015aL\u0105skim",
                "name": "Iii Liceum Og\u00f3lnokszta\u0142c\u0105ce Z Oddzia\u0142ami Sportowymi im.rtm. Witolda Pileckiego w Wodzis\u0142awiu \u015aL\u0105skim",
                "addr:postcode": "44-300",
                "addr:city": "Wodzis\u0142aw \u015al\u0105ski",
                "addr:street": "Pszowska",
                "addr:housenumber": "92",
                "addr:city:simc": 944853,
                "addr:street:sym_ul": 18051,
                "phone": "+48 324562720",
                "email": "zst@zstwodzislaw.net",
                "website": "http:\/\/zstwodzislaw.net",
                "ref:regon": "272218053",
                "ref:vatin": "PL6472108096",
                "operator": "Powiat Wodzis\u0142awski",
                "operator:type": "government",
                "amenity": "school",
                "note": "Parent RSPO: 4506"
            }
        },
        {
            "id": 70066,
            "type": "Feature",
            "geometry": {
                "type": "Point",
                "coordinates": [
                    18.44565,
                    50.00773
                ]
            },
            "properties": {
                "isced:level": "3",
                "ref:rspo": 70066,
                "official_name": "Bran\u017cowa Szko\u0142a I Stopnia Nr 2 im. Rtm. Witolda Pileckiego w Wodzis\u0142awiu \u015aL\u0105skim",
                "name": "Bran\u017cowa Szko\u0142a I Stopnia Nr 2",
                "addr:postcode": "44-300",
                "addr:city": "Wodzis\u0142aw \u015al\u0105ski",
                "addr:street": "Pszowska",
                "addr:housenumber": "92",
                "addr:city:simc": 944853,
                "addr:street:sym_ul": 18051,
                "phone": "+48 324562720",
                "email": "zst@zstwodzislaw.net",
                "website": "http:\/\/zstwodzislaw.net",
                "ref:regon": "272130594",
                "ref:vatin": "PL6472108096",
                "operator": "Powiat Wodzis\u0142awski",
                "operator:type": "government",
                "amenity": "school",
                "note": "Parent RSPO: 4506"
            }
        },
        {
            "id": 41148,
            "type": "Feature",
            "geometry": {
                "type": "Point",
                "coordinates": [
                    18.47038,
                    50.0079
                ]
            },
            "properties": {
                "ref:rspo": 41148,
                "official_name": "Zesp\u00f3\u0142 Szk\u00f3\u0142 Nr 1",
                "name": "Zesp\u00f3\u0142 Szk\u00f3\u0142 Nr 1",
                "addr:postcode": "44-304",
                "addr:city": "Wodzis\u0142aw \u015al\u0105ski",
                "addr:street": "\u015bwi\u0119tego Wawrzy\u0144ca",
                "addr:housenumber": "11",
                "addr:city:simc": 944853,
                "addr:street:sym_ul": 52220,
                "phone": "+48 324569562",
                "email": "zs1@wodzislaw-slaski.pl",
                "website": "http:\/\/zs1.wodzislaw-slaski.pl",
                "ref:regon": "277895700",
                "ref:vatin": "PL6472483210",
                "operator": "Miasto Wodzis\u0142aw \u015al\u0105ski",
                "operator:type": "government",
                "landuse": "education",
                "fixme": "amenity=school, amenity=college albo landuse=education w zale\u017cno\u015bci od tego, jakie plac\u00f3wki wchodz\u0105 w sk\u0142ad zespo\u0142u. Sprawd\u017a, kiedy stosowa\u0107 amenity=* a kiedy landuse=education.",
                "note": "Children RSPO: 48151;56651"
            }
        },
        {
            "id": 48151,
            "type": "Feature",
            "geometry": {
                "type": "Point",
                "coordinates": [
                    18.47038,
                    50.00787
                ]
            },
            "properties": {
                "ref:rspo": 48151,
                "official_name": "Publiczne Przedszkole Nr 9",
                "name": "Publiczne Przedszkole Nr 9",
                "addr:postcode": "44-304",
                "addr:city": "Wodzis\u0142aw \u015al\u0105ski",
                "addr:street": "\u015bwi\u0119tego Wawrzy\u0144ca",
                "addr:housenumber": "33",
                "addr:city:simc": 944853,
                "addr:street:sym_ul": 52220,
                "phone": "+48 327298604",
                "email": "zs1@wodzislaw-slaski.pl",
                "website": "http:\/\/zs1.wodzislaw-slaski.pl",
                "ref:regon": "271510521",
                "ref:vatin": "PL6472136974",
                "operator": "Miasto Wodzis\u0142aw \u015al\u0105ski",
                "operator:type": "government",
                "amenity": "kindergarten",
                "note": "Parent RSPO: 41148"
            }
        },
        {
            "id": 56651,
            "type": "Feature",
            "geometry": {
                "type": "Point",
                "coordinates": [
                    18.47038,
                    50.00784
                ]
            },
            "properties": {
                "isced:level": "1;2",
                "ref:rspo": 56651,
                "official_name": "Szko\u0142a Podstawowa Nr 9 im. Henryka Sienkiewicza",
                "name": "Szko\u0142a Podstawowa Nr 9",
                "addr:postcode": "44-304",
                "addr:city": "Wodzis\u0142aw \u015al\u0105ski",
                "addr:street": "\u015bwi\u0119tego Wawrzy\u0144ca",
                "addr:housenumber": "11",
                "addr:city:simc": 944853,
                "addr:street:sym_ul": 52220,
                "phone": "+48 324569562",
                "email": "zs1@wodzislaw-slaski.pl",
                "website": "http:\/\/zs1.wodzislaw-slaski.pl",
                "ref:regon": "000729445",
                "ref:vatin": "PL6472126987",
                "operator": "Miasto Wodzis\u0142aw \u015al\u0105ski",
                "operator:type": "government",
                "amenity": "school",
                "note": "Parent RSPO: 41148"
            }
        },
        {
            "id": 48143,
            "type": "Feature",
            "geometry": {
                "type": "Point",
                "coordinates": [
                    18.46763,
                    50.00943
                ]
            },
            "properties": {
                "isced:level": "1;2",
                "ref:rspo": 48143,
                "official_name": "Szko\u0142a Podstawowa Nr 5 Z Oddzia\u0142ami Integracyjnymi im. W. Broniewskiego",
                "name": "Szko\u0142a Podstawowa Nr 5 Z Oddzia\u0142ami Integracyjnymi",
                "addr:postcode": "44-300",
                "addr:city": "Wodzis\u0142aw \u015al\u0105ski",
                "addr:street": "Tysi\u0105clecia",
                "addr:housenumber": "25",
                "addr:city:simc": 944853,
                "addr:street:sym_ul": 23270,
                "phone": "+48 324553736",
                "email": "zsp7@wodzislaw-slaski.pl",
                "website": "http:\/\/zsp7.wodzislaw-slaski.pl",
                "ref:regon": "000729400",
                "ref:vatin": "PL6472127277",
                "operator": "Miasto Wodzis\u0142aw \u015al\u0105ski",
                "operator:type": "government",
                "amenity": "school",
                "note": "Parent RSPO: 3312"
            }
        },
        {
            "id": 42827,
            "type": "Feature",
            "geometry": {
                "type": "Point",
                "coordinates": [
                    18.45696,
                    50.00985
                ]
            },
            "properties": {
                "ref:rspo": 42827,
                "official_name": "Ognisko Pracy Pozaszkolnej Nr 1",
                "name": "Ognisko Pracy Pozaszkolnej Nr 1",
                "addr:postcode": "44-286",
                "addr:city": "Wodzis\u0142aw \u015al\u0105ski",
                "addr:street": "Osiedle Osiedle XXX Lecia",
                "addr:housenumber": "41",
                "addr:city:simc": 944853,
                "addr:street:sym_ul": 52201,
                "phone": "+48 324562936",
                "email": "opp1@wodzislaw-slaski.pl",
                "website": "http:\/\/opp1.wodzislaw-slaski.pl",
                "ref:regon": "272272199",
                "ref:vatin": "PL6472120861",
                "operator": "Miasto Wodzis\u0142aw \u015al\u0105ski",
                "operator:type": "government",
                "amenity": "community_centre",
                "community_centre:for": "child;juvenile"
            }
        },
        {
            "id": 3312,
            "type": "Feature",
            "geometry": {
                "type": "Point",
                "coordinates": [
                    18.47026,
                    50.00995
                ]
            },
            "properties": {
                "ref:rspo": 3312,
                "official_name": "Zesp\u00f3\u0142 Szkolno-Przedszkolny Nr 7",
                "name": "Zesp\u00f3\u0142 Szkolno-Przedszkolny Nr 7",
                "addr:postcode": "44-300",
                "addr:city": "Wodzis\u0142aw \u015al\u0105ski",
                "addr:street": "26 Marca",
                "addr:housenumber": "66",
                "addr:city:simc": 944853,
                "addr:street:sym_ul": 12261,
                "phone": "+48 324553736",
                "email": "zsp7@wodzislaw-slaski.pl",
                "website": "http:\/\/zsp7.wodzislaw-slaski.pl",
                "ref:regon": "243009027",
                "ref:vatin": "PL6472565959",
                "operator": "Miasto Wodzis\u0142aw \u015al\u0105ski",
                "operator:type": "government",
                "landuse": "education",
                "fixme": "amenity=school, amenity=college albo landuse=education w zale\u017cno\u015bci od tego, jakie plac\u00f3wki wchodz\u0105 w sk\u0142ad zespo\u0142u. Sprawd\u017a, kiedy stosowa\u0107 amenity=* a kiedy landuse=education.",
                "note": "Children RSPO: 48143;48150"
            }
        },
        {
            "id": 66118,
            "type": "Feature",
            "geometry": {
                "type": "Point",
                "coordinates": [
                    18.47026,
                    50.00992
                ]
            },
            "properties": {
                "isced:level": "3",
                "ref:rspo": 66118,
                "official_name": "Prywatne Liceum Og\u00f3lnokszta\u0142c\u0105ce dla Doros\u0142ych \"Twoja Szko\u0142a\" w Wodzis\u0142awiu \u015aL\u0105skim",
                "name": "Prywatne Liceum Og\u00f3lnokszta\u0142c\u0105ce dla Doros\u0142ych \"Twoja Szko\u0142a\" w Wodzis\u0142awiu \u015aL\u0105skim",
                "addr:postcode": "44-300",
                "addr:city": "Wodzis\u0142aw \u015al\u0105ski",
                "addr:street": "26 Marca",
                "addr:housenumber": "66",
                "addr:city:simc": 944853,
                "addr:street:sym_ul": 12261,
                "phone": "+48 324555863",
                "email": "wodzislawslaski@twoja-szkola.pl",
                "website": "http:\/\/twoja-szkola.pl",
                "ref:regon": "243094257",
                "ref:vatin": "PL8762050934",
                "operator": "Twoja Szko\u0142a Sp\u00f3\u0142ka Z Ograniczon\u0105 Odpowiedzialno\u015bci\u0105",
                "operator:type": "private",
                "amenity": "school"
            }
        },
        {
            "id": 125297,
            "type": "Feature",
            "geometry": {
                "type": "Point",
                "coordinates": [
                    18.47026,
                    50.009890000000006
                ]
            },
            "properties": {
                "isced:level": "4",
                "ref:rspo": 125297,
                "official_name": "Prywatna Szko\u0142a Policealna \"Twoja - Szko\u0142a\" w Wodzis\u0142awiu \u015aL\u0105skim",
                "name": "Prywatna Szko\u0142a Policealna \"Twoja - Szko\u0142a\" w Wodzis\u0142awiu \u015aL\u0105skim",
                "addr:postcode": "44-300",
                "addr:city": "Wodzis\u0142aw \u015al\u0105ski",
                "addr:street": "26 Marca",
                "addr:housenumber": "66",
                "addr:city:simc": 944853,
                "addr:street:sym_ul": 12261,
                "phone": "+48 324555863",
                "email": "wodzislawslaski@twoja-szkola.pl",
                "website": "http:\/\/twoja-szkola.pl",
                "ref:regon": "243678159",
                "operator": "Twoja Szko\u0142a Sp\u00f3\u0142ka Z Ograniczon\u0105 Odpowiedzialno\u015bci\u0105",
                "operator:type": "private",
                "amenity": "college"
            }
        },
        {
            "id": 41145,
            "type": "Feature",
            "geometry": {
                "type": "Point",
                "coordinates": [
                    18.40979,
                    50.01064
                ]
            },
            "properties": {
                "ref:rspo": 41145,
                "official_name": "Zesp\u00f3\u0142 Szkolno-Przedszkolny Nr 6",
                "name": "Zesp\u00f3\u0142 Szkolno-Przedszkolny Nr 6",
                "addr:postcode": "44-373",
                "addr:city": "Wodzis\u0142aw \u015al\u0105ski",
                "addr:street": "M\u0142odzie\u017cowa",
                "addr:housenumber": "47",
                "addr:city:simc": 944853,
                "addr:street:sym_ul": 13096,
                "phone": "+48 324561517",
                "email": "zsp6@wodzislaw-slaski.pl",
                "website": "http:\/\/zsp6.wodzislaw-slaski.pl",
                "ref:regon": "241226520",
                "ref:vatin": "PL6472506023",
                "operator": "Miasto Wodzis\u0142aw \u015al\u0105ski",
                "operator:type": "government",
                "landuse": "education",
                "fixme": "amenity=school, amenity=college albo landuse=education w zale\u017cno\u015bci od tego, jakie plac\u00f3wki wchodz\u0105 w sk\u0142ad zespo\u0142u. Sprawd\u017a, kiedy stosowa\u0107 amenity=* a kiedy landuse=education.",
                "note": "Children RSPO: 56640;56641"
            }
        },
        {
            "id": 56640,
            "type": "Feature",
            "geometry": {
                "type": "Point",
                "coordinates": [
                    18.40979,
                    50.01061
                ]
            },
            "properties": {
                "isced:level": "1;2",
                "ref:rspo": 56640,
                "official_name": "Szko\u0142a Podstawowa Nr 15",
                "name": "Szko\u0142a Podstawowa Nr 15",
                "addr:postcode": "44-373",
                "addr:city": "Wodzis\u0142aw \u015al\u0105ski",
                "addr:street": "M\u0142odzie\u017cowa",
                "addr:housenumber": "47",
                "addr:city:simc": 944853,
                "addr:street:sym_ul": 13096,
                "phone": "+48 324561517",
                "email": "zsp6@wodzislaw-slaski.pl",
                "website": "http:\/\/zsp6.wodzislaw-slaski.pl",
                "ref:regon": "000729304",
                "ref:vatin": "PL6472129187",
                "operator": "Miasto Wodzis\u0142aw \u015al\u0105ski",
                "operator:type": "government",
                "amenity": "school",
                "note": "Parent RSPO: 41145"
            }
        },
        {
            "id": 56641,
            "type": "Feature",
            "geometry": {
                "type": "Point",
                "coordinates": [
                    18.40979,
                    50.010580000000004
                ]
            },
            "properties": {
                "ref:rspo": 56641,
                "official_name": "Publiczne Przedszkole Nr 13",
                "name": "Publiczne Przedszkole Nr 13",
                "addr:postcode": "44-373",
                "addr:city": "Wodzis\u0142aw \u015al\u0105ski",
                "addr:street": "M\u0142odzie\u017cowa",
                "addr:housenumber": "47",
                "addr:city:simc": 944853,
                "addr:street:sym_ul": 13096,
                "phone": "+48 324561517",
                "email": "zsp6@wodzislaw-slaski.pl",
                "website": "http:\/\/zsp6.wodzislaw-slaski.pl",
                "ref:regon": "271510567",
                "ref:vatin": "PL6472142408",
                "operator": "Miasto Wodzis\u0142aw \u015al\u0105ski",
                "operator:type": "government",
                "amenity": "kindergarten",
                "note": "Parent RSPO: 41145"
            }
        },
        {
            "id": 48148,
            "type": "Feature",
            "geometry": {
                "type": "Point",
                "coordinates": [
                    18.45111,
                    50.01083
                ]
            },
            "properties": {
                "ref:rspo": 48148,
                "official_name": "Publiczne Przedszkole Nr 15",
                "name": "Publiczne Przedszkole Nr 15",
                "addr:postcode": "44-286",
                "addr:city": "Wodzis\u0142aw \u015al\u0105ski",
                "addr:street": "Przemys\u0142awa",
                "addr:housenumber": "20",
                "addr:city:simc": 944853,
                "addr:street:sym_ul": 17738,
                "phone": "+48 324564421",
                "email": "pp15@wodzislaw-slaski.pl",
                "website": "http:\/\/pp15.wodzislaw-slaski.pl",
                "ref:regon": "271510774",
                "ref:vatin": "PL6472127225",
                "operator": "Miasto Wodzis\u0142aw \u015al\u0105ski",
                "operator:type": "government",
                "amenity": "kindergarten"
            }
        },
        {
            "id": 44115,
            "type": "Feature",
            "geometry": {
                "type": "Point",
                "coordinates": [
                    18.45546,
                    50.01083
                ]
            },
            "properties": {
                "ref:rspo": 44115,
                "official_name": "Publiczne Przedszkole Nr 19 Z Oddzia\u0142ami Integracyjnymi",
                "name": "Publiczne Przedszkole Nr 19 Z Oddzia\u0142ami Integracyjnymi",
                "addr:postcode": "44-286",
                "addr:city": "Wodzis\u0142aw \u015al\u0105ski",
                "addr:street": "Osiedle Osiedle XXX Lecia",
                "addr:housenumber": "30",
                "addr:city:simc": 944853,
                "addr:street:sym_ul": 52201,
                "phone": "+48 324563015",
                "email": "pp19@wodzislaw-slaski.pl",
                "website": "http:\/\/pp19.wodzislaw-slaski.pl",
                "ref:regon": "271510768",
                "ref:vatin": "PL6472127219",
                "operator": "Miasto Wodzis\u0142aw \u015al\u0105ski",
                "operator:type": "government",
                "amenity": "kindergarten"
            }
        },
        {
            "id": 48152,
            "type": "Feature",
            "geometry": {
                "type": "Point",
                "coordinates": [
                    18.45803,
                    50.01086
                ]
            },
            "properties": {
                "ref:rspo": 48152,
                "official_name": "Publiczne Przedszkole Nr 18",
                "name": "Publiczne Przedszkole Nr 18",
                "addr:postcode": "44-286",
                "addr:city": "Wodzis\u0142aw \u015al\u0105ski",
                "addr:street": "Osiedle Osiedle XXX Lecia",
                "addr:housenumber": "61",
                "addr:city:simc": 944853,
                "addr:street:sym_ul": 52201,
                "phone": "+48 324561501",
                "email": "pp18@wodzislaw-slaski.pl",
                "website": "http:\/\/pp18.wodzislaw-slaski.pl",
                "ref:regon": "271510745",
                "ref:vatin": "PL6472127024",
                "operator": "Miasto Wodzis\u0142aw \u015al\u0105ski",
                "operator:type": "government",
                "amenity": "kindergarten"
            }
        },
        {
            "id": 4504,
            "type": "Feature",
            "geometry": {
                "type": "Point",
                "coordinates": [
                    18.4728453,
                    50.0109521
                ]
            },
            "properties": {
                "ref:rspo": 4504,
                "official_name": "Zesp\u00f3\u0142 Szk\u00f3\u0142 Ponadpodstawowych w Wodzis\u0142awiu \u015aL\u0105skim",
                "name": "Zesp\u00f3\u0142 Szk\u00f3\u0142 Ponadpodstawowych w Wodzis\u0142awiu \u015aL\u0105skim",
                "addr:postcode": "44-300",
                "addr:city": "Wodzis\u0142aw \u015al\u0105ski",
                "addr:street": "Kardyna\u0142a Stefana Wyszy\u0144skiego",
                "addr:housenumber": "39",
                "addr:city:simc": 944853,
                "addr:street:sym_ul": 35421,
                "phone": "+48 324552228",
                "email": "sekretariat@tischner-wodzislaw.pl",
                "website": "http:\/\/tischner-wodzislaw.pl",
                "ref:regon": "000729422",
                "ref:vatin": "PL6472287006",
                "operator": "Powiat Wodzis\u0142awski",
                "operator:type": "government",
                "landuse": "education",
                "fixme": "amenity=school, amenity=college albo landuse=education w zale\u017cno\u015bci od tego, jakie plac\u00f3wki wchodz\u0105 w sk\u0142ad zespo\u0142u. Sprawd\u017a, kiedy stosowa\u0107 amenity=* a kiedy landuse=education.",
                "note": "Children RSPO: 43473;43482;128030"
            }
        },
        {
            "id": 43473,
            "type": "Feature",
            "geometry": {
                "type": "Point",
                "coordinates": [
                    18.4728453,
                    50.010922099999995
                ]
            },
            "properties": {
                "isced:level": "3",
                "ref:rspo": 43473,
                "official_name": "Liceum Sztuk Plastycznych w Wodzis\u0142awiu \u015aL\u0105skim",
                "name": "Liceum Sztuk Plastycznych w Wodzis\u0142awiu \u015aL\u0105skim",
                "addr:postcode": "44-300",
                "addr:city": "Wodzis\u0142aw \u015al\u0105ski",
                "addr:street": "Kardyna\u0142a Stefana Wyszy\u0144skiego",
                "addr:housenumber": "39",
                "addr:city:simc": 944853,
                "addr:street:sym_ul": 35421,
                "phone": "+48 324552228",
                "email": "sekretariat@tischner-wodzislaw.pl",
                "website": "http:\/\/tischner-wodzislaw.pl",
                "ref:regon": "242609630",
                "ref:vatin": "PL6472104193",
                "operator": "Powiat Wodzis\u0142awski",
                "operator:type": "government",
                "amenity": "school",
                "note": "Parent RSPO: 4504"
            }
        },
        {
            "id": 43482,
            "type": "Feature",
            "geometry": {
                "type": "Point",
                "coordinates": [
                    18.4728453,
                    50.0108921
                ]
            },
            "properties": {
                "isced:level": "3",
                "ref:rspo": 43482,
                "official_name": "Ii Liceum Og\u00f3lnokszta\u0142c\u0105ce Z Oddzia\u0142ami Dwuj\u0119zycznymi I Integracyjnymi im. Ks. Prof. J\u00f3zefa Tischnera w Wodzis\u0142awiu \u015aL\u0105skim",
                "name": "Ii Liceum Og\u00f3lnokszta\u0142c\u0105ce Z Oddzia\u0142ami Dwuj\u0119zycznymi I Integracyjnymi",
                "addr:postcode": "44-300",
                "addr:city": "Wodzis\u0142aw \u015al\u0105ski",
                "addr:street": "Kardyna\u0142a Stefana Wyszy\u0144skiego",
                "addr:housenumber": "39",
                "addr:city:simc": 944853,
                "addr:street:sym_ul": 35421,
                "phone": "+48 324552228",
                "email": "sekretariat@tischner-wodzislaw.pl",
                "website": "http:\/\/tischner-wodzislaw.pl",
                "ref:regon": "272130430",
                "ref:vatin": "PL6472104193",
                "operator": "Powiat Wodzis\u0142awski",
                "operator:type": "government",
                "amenity": "school",
                "note": "Parent RSPO: 4504"
            }
        },
        {
            "id": 128030,
            "type": "Feature",
            "geometry": {
                "type": "Point",
                "coordinates": [
                    18.4728453,
                    50.0108621
                ]
            },
            "properties": {
                "ref:rspo": 128030,
                "official_name": "Og\u00f3lnokszta\u0142c\u0105ca Szko\u0142a Sztuk Pi\u0119knych w Wodzis\u0142awiu \u015aL\u0105skim",
                "name": "Og\u00f3lnokszta\u0142c\u0105ca Szko\u0142a Sztuk Pi\u0119knych w Wodzis\u0142awiu \u015aL\u0105skim",
                "addr:postcode": "44-300",
                "addr:city": "Wodzis\u0142aw \u015al\u0105ski",
                "addr:street": "Kardyna\u0142a Stefana Wyszy\u0144skiego",
                "addr:housenumber": "39",
                "addr:city:simc": 944853,
                "addr:street:sym_ul": 35421,
                "phone": "+48 324552228",
                "email": "sekretariat@tischner-wodzislaw.pl",
                "website": "http:\/\/plastyk-wodzislaw.pl",
                "ref:regon": "362027642",
                "operator": "Powiat Wodzis\u0142awski",
                "operator:type": "government",
                "amenity": "school",
                "note": "Parent RSPO: 4504"
            }
        },
        {
            "id": 132018,
            "type": "Feature",
            "geometry": {
                "type": "Point",
                "coordinates": [
                    18.4518999,
                    50.01111
                ]
            },
            "properties": {
                "ref:rspo": 132018,
                "official_name": "Niepubliczna Poradnia Psychologiczno-Pedagogiczna \"Okno Na \u015awiat\"",
                "name": "Niepubliczna Poradnia Psychologiczno-Pedagogiczna \"Okno Na \u015awiat\"",
                "addr:postcode": "44-307",
                "addr:city": "Wodzis\u0142aw \u015al\u0105ski",
                "addr:street": "Przemys\u0142awa",
                "addr:housenumber": "13",
                "addr:city:simc": 944853,
                "addr:street:sym_ul": 17738,
                "phone": "+48 792814723",
                "email": "aleksandra.staniek@onet.pl",
                "website": "http:\/\/poradnia-oknonaswiat.pl",
                "ref:regon": "365421291",
                "operator": "Aleksandra Staniek",
                "operator:type": "private",
                "healthcare": "counselling",
                "counselling_type": "education",
                "fixme": "w zale\u017cno\u015bci od przedmiotu dzia\u0142alno\u015bci (np. healthcare=counselling + counselling_type=education albo healthcare=psychotherapist)"
            }
        },
        {
            "id": 273823,
            "type": "Feature",
            "geometry": {
                "type": "Point",
                "coordinates": [
                    18.4518999,
                    50.01108
                ]
            },
            "properties": {
                "ref:rspo": 273823,
                "official_name": "Punkt Przedszkolny Z Oddzia\u0142ami Integracyjnymi \"Okno Na \u015awiat\"",
                "name": "Punkt Przedszkolny Z Oddzia\u0142ami Integracyjnymi \"Okno Na \u015awiat\"",
                "addr:postcode": "44-307",
                "addr:city": "Wodzis\u0142aw \u015al\u0105ski",
                "addr:street": "Przemys\u0142awa",
                "addr:housenumber": "13",
                "addr:city:simc": 944853,
                "addr:street:sym_ul": 17738,
                "email": "stanio7@onet.eu",
                "ref:regon": "384686451",
                "operator": "\u0141ukasz Staniek",
                "operator:type": "private",
                "amenity": "kindergarten"
            }
        },
        {
            "id": 43350,
            "type": "Feature",
            "geometry": {
                "type": "Point",
                "coordinates": [
                    18.47077,
                    50.0113
                ]
            },
            "properties": {
                "ref:rspo": 43350,
                "official_name": "O\u015brodek Rewalidacyjno - Wychowawczy w Wodzis\u0142awiu \u015aL\u0105skim",
                "name": "O\u015brodek Rewalidacyjno - Wychowawczy w Wodzis\u0142awiu \u015aL\u0105skim",
                "addr:postcode": "44-300",
                "addr:city": "Wodzis\u0142aw \u015al\u0105ski",
                "addr:street": "Kardyna\u0142a Stefana Wyszy\u0144skiego",
                "addr:housenumber": "20",
                "addr:city:simc": 944853,
                "addr:street:sym_ul": 35421,
                "phone": "+48 324552671",
                "email": "worit@wp.pl",
                "website": "http:\/\/worit.pl",
                "ref:regon": "243083957",
                "ref:vatin": "PL6472201720",
                "operator": "Wodzis\u0142awski O\u015brodek Rehabilitacji I Terapii Dzieci I M\u0142odzie\u017cy",
                "operator:type": "cooperative",
                "amenity": "school"
            }
        },
        {
            "id": 56648,
            "type": "Feature",
            "geometry": {
                "type": "Point",
                "coordinates": [
                    18.47139,
                    50.01144
                ]
            },
            "properties": {
                "ref:rspo": 56648,
                "official_name": "Publiczne Przedszkole Nr 6",
                "name": "Publiczne Przedszkole Nr 6",
                "addr:postcode": "44-300",
                "addr:city": "Wodzis\u0142aw \u015al\u0105ski",
                "addr:street": "Kardyna\u0142a Stefana Wyszy\u0144skiego",
                "addr:housenumber": "30",
                "addr:city:simc": 944853,
                "addr:street:sym_ul": 35421,
                "phone": "+48 324552577",
                "email": "pp6@wodzislaw-slaski.pl",
                "website": "http:\/\/pp6.wodzislaw-slaski.pl",
                "ref:regon": "271510490",
                "ref:vatin": "PL6472127001",
                "operator": "Miasto Wodzis\u0142aw \u015al\u0105ski",
                "operator:type": "government",
                "amenity": "kindergarten"
            }
        },
        {
            "id": 48153,
            "type": "Feature",
            "geometry": {
                "type": "Point",
                "coordinates": [
                    18.45839,
                    50.01208
                ]
            },
            "properties": {
                "isced:level": "1;2",
                "ref:rspo": 48153,
                "official_name": "Szko\u0142a Podstawowa Nr 10 im. Janusza Korczaka",
                "name": "Szko\u0142a Podstawowa Nr 10",
                "addr:postcode": "44-286",
                "addr:city": "Wodzis\u0142aw \u015al\u0105ski",
                "addr:street": "Osiedle Osiedle XXX Lecia",
                "addr:housenumber": "63",
                "addr:city:simc": 944853,
                "addr:street:sym_ul": 52201,
                "phone": "+48 324565450",
                "email": "sp10@wodzislaw-slaski.pl",
                "website": "http:\/\/sp10wodzislaw.pl",
                "ref:regon": "000729451",
                "ref:vatin": "PL6472129170",
                "operator": "Miasto Wodzis\u0142aw \u015al\u0105ski",
                "operator:type": "government",
                "amenity": "school"
            }
        },
        {
            "id": 39643,
            "type": "Feature",
            "geometry": {
                "type": "Point",
                "coordinates": [
                    18.37527,
                    50.01277
                ]
            },
            "properties": {
                "ref:rspo": 39643,
                "official_name": "Zesp\u00f3\u0142 Szkolno-Przedszkolny Nr 1",
                "name": "Zesp\u00f3\u0142 Szkolno-Przedszkolny Nr 1",
                "addr:postcode": "44-373",
                "addr:city": "Wodzis\u0142aw \u015al\u0105ski",
                "addr:street": "Konwaliowa",
                "addr:housenumber": "4",
                "addr:city:simc": 944853,
                "addr:street:sym_ul": 9223,
                "phone": "+48 324562737",
                "email": "zsp1@wodzislaw-slaski.pl",
                "website": "http:\/\/zsp1.wodzislaw-slaski.pl",
                "ref:regon": "240133258",
                "ref:vatin": "PL6472488555",
                "operator": "Miasto Wodzis\u0142aw \u015al\u0105ski",
                "operator:type": "government",
                "landuse": "education",
                "fixme": "amenity=school, amenity=college albo landuse=education w zale\u017cno\u015bci od tego, jakie plac\u00f3wki wchodz\u0105 w sk\u0142ad zespo\u0142u. Sprawd\u017a, kiedy stosowa\u0107 amenity=* a kiedy landuse=education.",
                "note": "Children RSPO: 56643;56644"
            }
        },
        {
            "id": 56643,
            "type": "Feature",
            "geometry": {
                "type": "Point",
                "coordinates": [
                    18.37527,
                    50.01274
                ]
            },
            "properties": {
                "isced:level": "1;2",
                "ref:rspo": 56643,
                "official_name": "Szko\u0142a Podstawowa Nr 16 im. Adama Dzika",
                "name": "Szko\u0142a Podstawowa Nr 16",
                "addr:postcode": "44-373",
                "addr:city": "Wodzis\u0142aw \u015al\u0105ski",
                "addr:street": "Konwaliowa",
                "addr:housenumber": "4",
                "addr:city:simc": 944853,
                "addr:street:sym_ul": 9223,
                "phone": "+48 324562737",
                "email": "zsp1@wodzislaw-slaski.pl",
                "website": "http:\/\/zsp1.wodzislaw-slaski.pl",
                "ref:regon": "000729310",
                "ref:vatin": "PL6472488555",
                "operator": "Miasto Wodzis\u0142aw \u015al\u0105ski",
                "operator:type": "government",
                "amenity": "school",
                "note": "Parent RSPO: 39643"
            }
        },
        {
            "id": 56644,
            "type": "Feature",
            "geometry": {
                "type": "Point",
                "coordinates": [
                    18.37527,
                    50.012710000000006
                ]
            },
            "properties": {
                "ref:rspo": 56644,
                "official_name": "Publiczne Przedszkole Nr 14 im. Kubusia Puchatka",
                "name": "Publiczne Przedszkole Nr 14",
                "addr:postcode": "44-373",
                "addr:city": "Wodzis\u0142aw \u015al\u0105ski",
                "addr:street": "Konwaliowa",
                "addr:housenumber": "4",
                "addr:city:simc": 944853,
                "addr:street:sym_ul": 9223,
                "phone": "+48 324562737",
                "email": "zsp1@wodzislaw-slaski.pl",
                "website": "http:\/\/zsp1.wodzislaw-slaski.pl",
                "ref:regon": "271510573",
                "ref:vatin": "PL6472488555",
                "operator": "Miasto Wodzis\u0142aw \u015al\u0105ski",
                "operator:type": "government",
                "amenity": "kindergarten",
                "note": "Parent RSPO: 39643"
            }
        },
        {
            "id": 41142,
            "type": "Feature",
            "geometry": {
                "type": "Point",
                "coordinates": [
                    18.43637,
                    50.01334
                ]
            },
            "properties": {
                "ref:rspo": 41142,
                "official_name": "Zesp\u00f3\u0142 Szkolno-Przedszkolny Nr 4",
                "name": "Zesp\u00f3\u0142 Szkolno-Przedszkolny Nr 4",
                "addr:postcode": "44-300",
                "addr:city": "Wodzis\u0142aw \u015al\u0105ski",
                "addr:street": "G\u00f3rnicza",
                "addr:housenumber": "7",
                "addr:city:simc": 944853,
                "addr:street:sym_ul": 5962,
                "phone": "+48 324561363",
                "email": "zsp4@wodzislaw-slaski.pl",
                "website": "http:\/\/zsp4.wodzislaw-slaski.pl",
                "ref:regon": "240121491",
                "ref:vatin": "PL6472488561",
                "operator": "Miasto Wodzis\u0142aw \u015al\u0105ski",
                "operator:type": "government",
                "landuse": "education",
                "fixme": "amenity=school, amenity=college albo landuse=education w zale\u017cno\u015bci od tego, jakie plac\u00f3wki wchodz\u0105 w sk\u0142ad zespo\u0142u. Sprawd\u017a, kiedy stosowa\u0107 amenity=* a kiedy landuse=education.",
                "note": "Children RSPO: 72806;72807"
            }
        },
        {
            "id": 72806,
            "type": "Feature",
            "geometry": {
                "type": "Point",
                "coordinates": [
                    18.43637,
                    50.01331
                ]
            },
            "properties": {
                "ref:rspo": 72806,
                "official_name": "Publiczne Przedszole Nr 4",
                "name": "Publiczne Przedszole Nr 4",
                "addr:postcode": "44-307",
                "addr:city": "Wodzis\u0142aw \u015al\u0105ski",
                "addr:street": "G\u00f3rnicza",
                "addr:housenumber": "7",
                "addr:city:simc": 944853,
                "addr:street:sym_ul": 5962,
                "phone": "+48 324561363",
                "email": "zsp4@wodzislaw-slaski.pl",
                "website": "http:\/\/zsp4.wodzislaw-slaski.pl",
                "ref:regon": "271510478",
                "ref:vatin": "PL6472133361",
                "operator": "Miasto Wodzis\u0142aw \u015al\u0105ski",
                "operator:type": "government",
                "amenity": "kindergarten",
                "note": "Parent RSPO: 41142"
            }
        },
        {
            "id": 72807,
            "type": "Feature",
            "geometry": {
                "type": "Point",
                "coordinates": [
                    18.43637,
                    50.01328
                ]
            },
            "properties": {
                "isced:level": "1;2",
                "ref:rspo": 72807,
                "official_name": "Szko\u0142a Podstawowa Nr 4",
                "name": "Szko\u0142a Podstawowa Nr 4",
                "addr:postcode": "44-307",
                "addr:city": "Wodzis\u0142aw \u015al\u0105ski",
                "addr:street": "G\u00f3rnicza",
                "addr:housenumber": "7",
                "addr:city:simc": 944853,
                "addr:street:sym_ul": 5962,
                "phone": "+48 324561363",
                "email": "zsp4@wodzislaw-slaski.pl",
                "website": "http:\/\/zsp4.wodzislaw-slaski.pl",
                "ref:regon": "000729391",
                "ref:vatin": "PL6472133349",
                "operator": "Miasto Wodzis\u0142aw \u015al\u0105ski",
                "operator:type": "government",
                "amenity": "school",
                "note": "Parent RSPO: 41142"
            }
        },
        {
            "id": 72811,
            "type": "Feature",
            "geometry": {
                "type": "Point",
                "coordinates": [
                    18.44716,
                    50.01355
                ]
            },
            "properties": {
                "isced:level": "1;2",
                "ref:rspo": 72811,
                "official_name": "Szko\u0142a Podstawowa Nr 28",
                "name": "Szko\u0142a Podstawowa Nr 28",
                "addr:postcode": "44-300",
                "addr:city": "Wodzis\u0142aw \u015al\u0105ski",
                "addr:street": "Mieszka",
                "addr:housenumber": "10",
                "addr:city:simc": 944853,
                "addr:street:sym_ul": 12827,
                "phone": "+48 324564916",
                "email": "sp28@wodzislaw-slaski.pl",
                "website": "http:\/\/sp28-wodzislaw.pl",
                "ref:regon": "001310530",
                "ref:vatin": "PL6472488992",
                "operator": "Miasto Wodzis\u0142aw \u015al\u0105ski",
                "operator:type": "government",
                "amenity": "school"
            }
        },
        {
            "id": 43423,
            "type": "Feature",
            "geometry": {
                "type": "Point",
                "coordinates": [
                    18.46041,
                    50.01408
                ]
            },
            "properties": {
                "isced:level": "3",
                "ref:rspo": 43423,
                "official_name": "Katolickie Liceum Og\u00f3lnokszta\u0142c\u0105ce Stowarzyszenia Rodzin Katolickich",
                "name": "Katolickie Liceum Og\u00f3lnokszta\u0142c\u0105ce Stowarzyszenia Rodzin Katolickich",
                "addr:postcode": "44-286",
                "addr:city": "Wodzis\u0142aw \u015al\u0105ski",
                "addr:street": "Radli\u0144ska",
                "addr:housenumber": "52",
                "addr:city:simc": 944853,
                "addr:street:sym_ul": 18300,
                "phone": "+48 324564212",
                "email": "katolik.wodzislaw@interia.eu",
                "website": "http:\/\/katolik.wodzislaw.webd.pl",
                "ref:regon": "243078940",
                "ref:vatin": "PL6472263997",
                "operator": "Stowarzyszenie Rodzin Katolickich Archidiecezji Katowickiej",
                "operator:type": "ngo",
                "amenity": "school"
            }
        },
        {
            "id": 263497,
            "type": "Feature",
            "geometry": {
                "type": "Point",
                "coordinates": [
                    18.46041,
                    50.01405
                ]
            },
            "properties": {
                "isced:level": "1;2",
                "ref:rspo": 263497,
                "official_name": "Publiczna Szko\u0142a Podstawowa Stowarzyszenia Rodzin Katolickich Archidiecezji Katowickiej",
                "name": "Publiczna Szko\u0142a Podstawowa Stowarzyszenia Rodzin Katolickich Archidiecezji Katowickiej",
                "addr:postcode": "44-300",
                "addr:city": "Wodzis\u0142aw \u015al\u0105ski",
                "addr:street": "Radli\u0144ska",
                "addr:housenumber": "52",
                "addr:city:simc": 944853,
                "addr:street:sym_ul": 18300,
                "phone": "+48 324564212",
                "email": "katolik.wodzislaw@interia.eu",
                "website": "http:\/\/katolik.wodzislaw.webd.pl",
                "ref:regon": "368195085",
                "operator": "Stowarzyszenie Rodzin Katolickich Archidiecezji Katowickiej",
                "operator:type": "ngo",
                "amenity": "school"
            }
        },
        {
            "id": 48147,
            "type": "Feature",
            "geometry": {
                "type": "Point",
                "coordinates": [
                    18.45045,
                    50.01434
                ]
            },
            "properties": {
                "ref:rspo": 48147,
                "official_name": "Publiczne Przedszkole Nr 16",
                "name": "Publiczne Przedszkole Nr 16",
                "addr:postcode": "44-307",
                "addr:city": "Wodzis\u0142aw \u015al\u0105ski",
                "addr:street": "Przemys\u0142awa",
                "addr:housenumber": "10",
                "addr:city:simc": 944853,
                "addr:street:sym_ul": 17738,
                "phone": "+48 324565440",
                "email": "pp16@wodzislaw-slaski.pl",
                "website": "http:\/\/pp16.wodzislaw-slaski.pl",
                "ref:regon": "271510780",
                "ref:vatin": "PL6472127136",
                "operator": "Miasto Wodzis\u0142aw \u015al\u0105ski",
                "operator:type": "government",
                "amenity": "kindergarten"
            }
        },
        {
            "id": 130456,
            "type": "Feature",
            "geometry": {
                "type": "Point",
                "coordinates": [
                    18.4119,
                    50.01576
                ]
            },
            "properties": {
                "ref:rspo": 130456,
                "official_name": "Niepubliczna Plac\u00f3wka Kszta\u0142cenia Ustawicznego Tygrys-Silesia",
                "name": "Niepubliczna Plac\u00f3wka Kszta\u0142cenia Ustawicznego Tygrys-Silesia",
                "addr:postcode": "44-373",
                "addr:city": "Wodzis\u0142aw \u015al\u0105ski",
                "addr:street": "Pszowska",
                "addr:housenumber": "301A",
                "addr:city:simc": 944853,
                "addr:street:sym_ul": 18051,
                "phone": "+48 324561141",
                "email": "biuro@tygrysochrona.pl",
                "ref:regon": "364031435",
                "operator": "Centrum Ochrony Tygrys - Silesia Sp\u00f3\u0142ka Z Ograniczon\u0105 Odpowiedzialno\u015bci\u0105",
                "operator:type": "private",
                "fixme": "w zale\u017cno\u015bci od przedmiotu dzia\u0142alno\u015bci (np. amenity=training + training=*, amenity=dancing_school, amenity=language_school, amenity=music_school)"
            }
        },
        {
            "id": 44364,
            "type": "Feature",
            "geometry": {
                "type": "Point",
                "coordinates": [
                    18.4665399,
                    50.02316
                ]
            },
            "properties": {
                "ref:rspo": 44364,
                "official_name": "Zesp\u00f3\u0142 Szkolno-Przedszkolny Nr 3",
                "name": "Zesp\u00f3\u0142 Szkolno-Przedszkolny Nr 3",
                "addr:postcode": "44-313",
                "addr:city": "Wodzis\u0142aw \u015al\u0105ski",
                "addr:street": "Marii Sk\u0142odowskiej-Curie",
                "addr:housenumber": "3",
                "addr:city:simc": 944853,
                "addr:street:sym_ul": 20068,
                "phone": "+48 509953487",
                "email": "zsp3@wodzislaw-slaski.pl",
                "website": "http:\/\/zsp3.wodzislaw-slaski.pl",
                "ref:regon": "240114410",
                "ref:vatin": "PL6472488584",
                "operator": "Miasto Wodzis\u0142aw \u015al\u0105ski",
                "operator:type": "government",
                "landuse": "education",
                "fixme": "amenity=school, amenity=college albo landuse=education w zale\u017cno\u015bci od tego, jakie plac\u00f3wki wchodz\u0105 w sk\u0142ad zespo\u0142u. Sprawd\u017a, kiedy stosowa\u0107 amenity=* a kiedy landuse=education.",
                "note": "Children RSPO: 72814;72817"
            }
        },
        {
            "id": 72814,
            "type": "Feature",
            "geometry": {
                "type": "Point",
                "coordinates": [
                    18.4665399,
                    50.023129999999995
                ]
            },
            "properties": {
                "isced:level": "1;2",
                "ref:rspo": 72814,
                "official_name": "Szko\u0142a Podstawowa Nr 17 im. Ks. Kard. Boles\u0142awa Kominka",
                "name": "Szko\u0142a Podstawowa Nr 17",
                "addr:postcode": "44-313",
                "addr:city": "Wodzis\u0142aw \u015al\u0105ski",
                "addr:street": "Marii Sk\u0142odowskiej-Curie",
                "addr:housenumber": "3",
                "addr:city:simc": 944853,
                "addr:street:sym_ul": 20068,
                "phone": "+48 509953487",
                "email": "zsp3@wodzislaw-slaski.pl",
                "website": "http:\/\/zsp3.wodzislaw-slaski.pl",
                "ref:regon": "000729327",
                "ref:vatin": "PL6472488584",
                "operator": "Miasto Wodzis\u0142aw \u015al\u0105ski",
                "operator:type": "government",
                "amenity": "school",
                "note": "Parent RSPO: 44364"
            }
        },
        {
            "id": 72817,
            "type": "Feature",
            "geometry": {
                "type": "Point",
                "coordinates": [
                    18.4665399,
                    50.0231
                ]
            },
            "properties": {
                "ref:rspo": 72817,
                "official_name": "Publiczne Przedszkole Nr 12",
                "name": "Publiczne Przedszkole Nr 12",
                "addr:postcode": "44-313",
                "addr:city": "Wodzis\u0142aw \u015al\u0105ski",
                "addr:street": "Marii Sk\u0142odowskiej-Curie",
                "addr:housenumber": "3",
                "addr:city:simc": 944853,
                "addr:street:sym_ul": 20068,
                "phone": "+48 327501254",
                "email": "zsp3@wodzislaw-slaski.pl",
                "website": "http:\/\/zsp3.wodzislaw-slaski.pl",
                "ref:regon": "271510596",
                "ref:vatin": "PL6472127030",
                "operator": "Miasto Wodzis\u0142aw \u015al\u0105ski",
                "operator:type": "government",
                "amenity": "kindergarten",
                "note": "Parent RSPO: 44364"
            }
        },
        {
            "id": 41144,
            "type": "Feature",
            "geometry": {
                "type": "Point",
                "coordinates": [
                    18.43681,
                    50.02903
                ]
            },
            "properties": {
                "ref:rspo": 41144,
                "official_name": "Zesp\u00f3\u0142 Szkolno-Przedszkolny Nr 5",
                "name": "Zesp\u00f3\u0142 Szkolno-Przedszkolny Nr 5",
                "addr:postcode": "44-313",
                "addr:city": "Wodzis\u0142aw \u015al\u0105ski",
                "addr:street": "Boles\u0142awa Chrobrego",
                "addr:housenumber": "308",
                "addr:city:simc": 944853,
                "addr:street:sym_ul": 1742,
                "phone": "+48 324564912",
                "email": "zsp5@wodzislaw-slaski.pl",
                "website": "http:\/\/www.zsp5wodzislawslaski.szkolnastrona.pl",
                "ref:regon": "240713406",
                "ref:vatin": "PL6472445304",
                "operator": "Miasto Wodzis\u0142aw \u015al\u0105ski",
                "operator:type": "government",
                "landuse": "education",
                "fixme": "amenity=school, amenity=college albo landuse=education w zale\u017cno\u015bci od tego, jakie plac\u00f3wki wchodz\u0105 w sk\u0142ad zespo\u0142u. Sprawd\u017a, kiedy stosowa\u0107 amenity=* a kiedy landuse=education.",
                "note": "Children RSPO: 56646;56647"
            }
        },
        {
            "id": 56646,
            "type": "Feature",
            "geometry": {
                "type": "Point",
                "coordinates": [
                    18.43681,
                    50.028999999999996
                ]
            },
            "properties": {
                "isced:level": "1;2",
                "ref:rspo": 56646,
                "official_name": "Szko\u0142a Podstawowa Nr 21 im. Juliusza S\u0142owackiego",
                "name": "Szko\u0142a Podstawowa Nr 21",
                "addr:postcode": "44-313",
                "addr:city": "Wodzis\u0142aw \u015al\u0105ski",
                "addr:street": "Boles\u0142awa Chrobrego",
                "addr:housenumber": "308",
                "addr:city:simc": 944853,
                "addr:street:sym_ul": 1742,
                "phone": "+48 324564912",
                "email": "zsp5@wodzislaw-slaski.pl",
                "website": "http:\/\/zsp5wodzislawslaski.szkolnastrona.pl\/",
                "ref:regon": "000729770",
                "ref:vatin": "PL6472127082",
                "operator": "Miasto Wodzis\u0142aw \u015al\u0105ski",
                "operator:type": "government",
                "amenity": "school",
                "note": "Parent RSPO: 41144"
            }
        },
        {
            "id": 56647,
            "type": "Feature",
            "geometry": {
                "type": "Point",
                "coordinates": [
                    18.43681,
                    50.02897
                ]
            },
            "properties": {
                "ref:rspo": 56647,
                "official_name": "Publiczne Przedszkole Nr 11",
                "name": "Publiczne Przedszkole Nr 11",
                "addr:postcode": "44-313",
                "addr:city": "Wodzis\u0142aw \u015al\u0105ski",
                "addr:street": "Boles\u0142awa Chrobrego",
                "addr:housenumber": "308",
                "addr:city:simc": 944853,
                "addr:street:sym_ul": 1742,
                "phone": "+48 324564912",
                "email": "zsp5@wodzislaw-slaski.pl",
                "website": "http:\/\/zsp5.wodzislaw-slaski.pl",
                "ref:regon": "271510633",
                "ref:vatin": "PL6472127194",
                "operator": "Miasto Wodzis\u0142aw \u015al\u0105ski",
                "operator:type": "government",
                "amenity": "kindergarten",
                "note": "Parent RSPO: 41144"
            }
        }
    ]
}