{
    "type": "FeatureCollection",
    "features": [
        {
            "id": 38950,
            "type": "Feature",
            "geometry": {
                "type": "Point",
                "coordinates": [
                    18.4025374,
                    50.0391226
                ]
            },
            "properties": {
                "ref:rspo": 38950,
                "official_name": "Przedszkole Nr 1 im. Misia Uszatka w Pszowie",
                "name": "Przedszkole Nr 1",
                "addr:country": "PL",
                "addr:postcode": "44-370",
                "addr:city": "Psz\u00f3w",
                "addr:street": "Juranda",
                "addr:housenumber": "1",
                "addr:teryt:simc": 945083,
                "addr:teryt:sym_ul": 7669,
                "contact:phone": "+48 324557966",
                "contact:email": "ppnr1pszow@wp.pl",
                "ref:regon": "271510538",
                "ref:vatin": "PL6472174383",
                "operator": "Miasto Psz\u00f3w",
                "operator:type": "government",
                "amenity": "kindergarten"
            }
        },
        {
            "id": 133704,
            "type": "Feature",
            "geometry": {
                "type": "Point",
                "coordinates": [
                    18.39005,
                    50.03971
                ]
            },
            "properties": {
                "isced:level": "1;2",
                "ref:rspo": 133704,
                "official_name": "Szko\u0142a Podstawowa Nr 4 w Pszowie",
                "name": "Szko\u0142a Podstawowa Nr 4 w Pszowie",
                "addr:country": "PL",
                "addr:postcode": "44-370",
                "addr:city": "Psz\u00f3w",
                "addr:street": "Niepodleg\u0142o\u015bci",
                "addr:housenumber": "99",
                "addr:teryt:simc": 945083,
                "addr:teryt:sym_ul": 14203,
                "contact:phone": "+48 324557822",
                "contact:email": "sp4@pszow.pl",
                "contact:website": "http:\/\/sp4.pszow.pl",
                "ref:regon": "367553387",
                "ref:vatin": "PL6472579513",
                "operator": "Miasto Psz\u00f3w",
                "operator:type": "government",
                "amenity": "school"
            }
        },
        {
            "id": 38946,
            "type": "Feature",
            "geometry": {
                "type": "Point",
                "coordinates": [
                    18.39868,
                    50.0406
                ]
            },
            "properties": {
                "isced:level": "1;2",
                "ref:rspo": 38946,
                "official_name": "Szko\u0142a Podstawowa Nr 1 w Pszowie",
                "name": "Szko\u0142a Podstawowa Nr 1 w Pszowie",
                "addr:country": "PL",
                "addr:postcode": "44-370",
                "addr:city": "Psz\u00f3w",
                "addr:street": "Romualda Traugutta",
                "addr:housenumber": "12",
                "addr:teryt:simc": 945083,
                "addr:teryt:sym_ul": 22965,
                "contact:phone": "+48 324558602",
                "contact:email": "sp1@pszow.pl",
                "contact:website": "http:\/\/www.sp1.pszow.pl",
                "ref:regon": "000729267",
                "ref:vatin": "PL6472185441",
                "operator": "Miasto Psz\u00f3w",
                "operator:type": "government",
                "amenity": "school"
            }
        },
        {
            "id": 4606,
            "type": "Feature",
            "geometry": {
                "type": "Point",
                "coordinates": [
                    18.40303,
                    50.04145
                ]
            },
            "properties": {
                "ref:rspo": 4606,
                "official_name": "Zesp\u00f3\u0142 Szk\u00f3\u0142 Ponadpodstawowych w Pszowie",
                "name": "Zesp\u00f3\u0142 Szk\u00f3\u0142 Ponadpodstawowych w Pszowie",
                "addr:country": "PL",
                "addr:postcode": "44-370",
                "addr:city": "Psz\u00f3w",
                "addr:street": "Romualda Traugutta",
                "addr:housenumber": "32",
                "addr:teryt:simc": 945083,
                "addr:teryt:sym_ul": 22965,
                "contact:phone": "+48 324557165",
                "contact:email": "poczta@zspszow.slask.pl",
                "contact:website": "http:\/\/zspszow.slask.pl",
                "ref:regon": "272217964",
                "ref:vatin": "PL6471813266",
                "operator": "Powiat Wodzis\u0142awski",
                "operator:type": "government",
                "landuse": "education",
                "fixme": "amenity=school, amenity=college albo landuse=education w zale\u017cno\u015bci od tego, jakie plac\u00f3wki wchodz\u0105 w sk\u0142ad zespo\u0142u. Sprawd\u017a, kiedy stosowa\u0107 amenity=* a kiedy landuse=education.",
                "note": "Children RSPO: 43446;43451"
            }
        },
        {
            "id": 43446,
            "type": "Feature",
            "geometry": {
                "type": "Point",
                "coordinates": [
                    18.40303,
                    50.041419999999995
                ]
            },
            "properties": {
                "isced:level": "3",
                "ref:rspo": 43446,
                "official_name": "Technikum w Pszowie",
                "name": "Technikum w Pszowie",
                "addr:country": "PL",
                "addr:postcode": "44-370",
                "addr:city": "Psz\u00f3w",
                "addr:street": "Romualda Traugutta",
                "addr:housenumber": "32",
                "addr:teryt:simc": 945083,
                "addr:teryt:sym_ul": 22965,
                "contact:phone": "+48 324557165",
                "contact:email": "poczta@zspszow.slask.pl",
                "contact:website": "http:\/\/zspszow.slask.pl",
                "ref:regon": "272217993",
                "ref:vatin": "PL6471813266",
                "operator": "Powiat Wodzis\u0142awski",
                "operator:type": "government",
                "amenity": "school",
                "note": "Parent RSPO: 4606"
            }
        },
        {
            "id": 43451,
            "type": "Feature",
            "geometry": {
                "type": "Point",
                "coordinates": [
                    18.40303,
                    50.04139
                ]
            },
            "properties": {
                "isced:level": "3",
                "ref:rspo": 43451,
                "official_name": "Bran\u017cowa Szko\u0142a I Stopnia w Pszowie",
                "name": "Bran\u017cowa Szko\u0142a I Stopnia w Pszowie",
                "addr:country": "PL",
                "addr:postcode": "44-370",
                "addr:city": "Psz\u00f3w",
                "addr:street": "Romualda Traugutta",
                "addr:housenumber": "32",
                "addr:teryt:simc": 945083,
                "addr:teryt:sym_ul": 22965,
                "contact:phone": "+48 324557165",
                "contact:email": "poczta@zspszow.slask.pl",
                "contact:website": "http:\/\/zspszow.slask.pl",
                "ref:regon": "000201460",
                "ref:vatin": "PL6471813266",
                "operator": "Powiat Wodzis\u0142awski",
                "operator:type": "government",
                "amenity": "school",
                "note": "Parent RSPO: 4606"
            }
        },
        {
            "id": 38943,
            "type": "Feature",
            "geometry": {
                "type": "Point",
                "coordinates": [
                    18.40752,
                    50.04184
                ]
            },
            "properties": {
                "ref:rspo": 38943,
                "official_name": "Przedszkole Nr 2 Imienia Pszowskich Krasnali w Pszowie",
                "name": "Przedszkole Nr 2 Imienia Pszowskich Krasnali w Pszowie",
                "addr:country": "PL",
                "addr:postcode": "44-370",
                "addr:city": "Psz\u00f3w",
                "addr:street": "Osiedle Osiedle J\u00f3zefa Tytki",
                "addr:housenumber": "8",
                "addr:teryt:simc": 945083,
                "addr:teryt:sym_ul": 52180,
                "contact:phone": "+48 324557930",
                "contact:email": "przedszkolenr2pszow@wp.pl",
                "ref:regon": "271510580",
                "ref:vatin": "PL6472208283",
                "operator": "Miasto Psz\u00f3w",
                "operator:type": "government",
                "amenity": "kindergarten"
            }
        },
        {
            "id": 38948,
            "type": "Feature",
            "geometry": {
                "type": "Point",
                "coordinates": [
                    18.38658,
                    50.04667
                ]
            },
            "properties": {
                "isced:level": "1;2",
                "ref:rspo": 38948,
                "official_name": "Szko\u0142a Podstawowa Nr 2 w Pszowie",
                "name": "Szko\u0142a Podstawowa Nr 2 w Pszowie",
                "addr:country": "PL",
                "addr:postcode": "44-370",
                "addr:city": "Psz\u00f3w",
                "addr:street": "Karola Miarki",
                "addr:housenumber": "16 A",
                "addr:teryt:simc": 945083,
                "addr:teryt:sym_ul": 12674,
                "contact:phone": "+48 324540717",
                "contact:email": "sp2@pszow.pl",
                "contact:website": "http:\/\/www.sp2.pszow.pl",
                "ref:regon": "000729273",
                "ref:vatin": "PL6472174012",
                "operator": "Miasto Psz\u00f3w",
                "operator:type": "government",
                "amenity": "school"
            }
        },
        {
            "id": 38944,
            "type": "Feature",
            "geometry": {
                "type": "Point",
                "coordinates": [
                    18.38655,
                    50.04829
                ]
            },
            "properties": {
                "ref:rspo": 38944,
                "official_name": "Przedszkole Nr 3 w Pszowie",
                "name": "Przedszkole Nr 3 w Pszowie",
                "addr:country": "PL",
                "addr:postcode": "44-370",
                "addr:city": "Psz\u00f3w",
                "addr:street": "W\u0142adys\u0142awa Andersa",
                "addr:housenumber": "16",
                "addr:teryt:simc": 945083,
                "addr:teryt:sym_ul": 286,
                "contact:phone": "+48 324540840",
                "contact:email": "pp3pszowslaskie@o2.pl",
                "ref:regon": "271510544",
                "ref:vatin": "PL6472201654",
                "operator": "Miasto Psz\u00f3w",
                "operator:type": "government",
                "amenity": "kindergarten"
            }
        },
        {
            "id": 274665,
            "type": "Feature",
            "geometry": {
                "type": "Point",
                "coordinates": [
                    18.3746,
                    50.05403
                ]
            },
            "properties": {
                "ref:rspo": 274665,
                "official_name": "Przedszkole Nr 4 w Pszowie",
                "name": "Przedszkole Nr 4 w Pszowie",
                "addr:country": "PL",
                "addr:postcode": "44-370",
                "addr:city": "Psz\u00f3w",
                "addr:street": "Oskara Kolberga",
                "addr:housenumber": "27",
                "addr:teryt:simc": 945083,
                "addr:teryt:sym_ul": 8812,
                "contact:phone": "+48 324540538",
                "contact:email": "pp4pszow@op.pl",
                "ref:regon": "386197874",
                "operator": "Miasto Psz\u00f3w",
                "operator:type": "government",
                "amenity": "kindergarten"
            }
        },
        {
            "id": 38947,
            "type": "Feature",
            "geometry": {
                "type": "Point",
                "coordinates": [
                    18.38684,
                    50.05485
                ]
            },
            "properties": {
                "isced:level": "1;2",
                "ref:rspo": 38947,
                "official_name": "Szko\u0142a Podstawowa Nr 3 w Pszowie",
                "name": "Szko\u0142a Podstawowa Nr 3 w Pszowie",
                "addr:country": "PL",
                "addr:postcode": "44-370",
                "addr:city": "Psz\u00f3w",
                "addr:street": "Armii Krajowej",
                "addr:housenumber": "54",
                "addr:teryt:simc": 945083,
                "addr:teryt:sym_ul": 432,
                "contact:phone": "+48 324540612",
                "contact:email": "sp3@pszow.pl",
                "contact:website": "http:\/\/www.sp3.webd.pl",
                "ref:regon": "000729280",
                "ref:vatin": "PL6472173171",
                "operator": "Miasto Psz\u00f3w",
                "operator:type": "government",
                "amenity": "school"
            }
        }
    ]
}