{
    "type": "FeatureCollection",
    "features": [
        {
            "id": 22727,
            "type": "Feature",
            "geometry": {
                "type": "Point",
                "coordinates": [
                    18.50224,
                    50.03952
                ]
            },
            "properties": {
                "isced:level": "1;2",
                "ref:rspo": 22727,
                "official_name": "Szko\u0142a Podstawowa Nr 4 im. Gustawa Morcinka w Radlinie",
                "name": "Szko\u0142a Podstawowa Nr 4",
                "addr:postcode": "44-310",
                "addr:city": "Radlin",
                "addr:street": "Wiosny Lud\u00f3w",
                "addr:housenumber": "287",
                "addr:city:simc": 945108,
                "addr:street:sym_ul": 24369,
                "phone": "+48 324558417",
                "email": "sp4@radlin.pl",
                "website": "http:\/\/radlin.online\/sp4\/",
                "ref:regon": "000729356",
                "ref:vatin": "PL6472153369",
                "operator": "Miasto Radlin",
                "operator:type": "government",
                "amenity": "school"
            }
        },
        {
            "id": 24323,
            "type": "Feature",
            "geometry": {
                "type": "Point",
                "coordinates": [
                    18.48919,
                    50.04412
                ]
            },
            "properties": {
                "ref:rspo": 24323,
                "official_name": "Przedszkole Publiczne Nr 2 im. Jasia I Ma\u0142gosi w Radlinie",
                "name": "Przedszkole Publiczne Nr 2",
                "addr:postcode": "44-310",
                "addr:city": "Radlin",
                "addr:street": "Andrzeja Miel\u0119ckiego",
                "addr:housenumber": "13",
                "addr:city:simc": 945108,
                "addr:street:sym_ul": 12792,
                "phone": "+48 327292748",
                "email": "pp2@radlin.pl",
                "website": "http:\/\/radlin.online\/pp2",
                "ref:regon": "271510627",
                "ref:vatin": "PL6472154073",
                "operator": "Miasto Radlin",
                "operator:type": "government",
                "amenity": "kindergarten"
            }
        },
        {
            "id": 196275,
            "type": "Feature",
            "geometry": {
                "type": "Point",
                "coordinates": [
                    18.48006,
                    50.04652
                ]
            },
            "properties": {
                "isced:level": "1;2",
                "ref:rspo": 196275,
                "official_name": "Szko\u0142a Podstawowa Nr 1 im. Adama Mickiewicza w Radlinie",
                "name": "Szko\u0142a Podstawowa Nr 1",
                "addr:postcode": "44-310",
                "addr:city": "Radlin",
                "addr:street": "Kornela Makuszy\u0144skiego",
                "addr:housenumber": "17",
                "addr:city:simc": 945108,
                "addr:street:sym_ul": 12024,
                "phone": "+48 324558443",
                "email": "sekretariat@sp1radlin.pl",
                "website": "http:\/\/radlin.online\/sp1\/",
                "ref:regon": "367994080",
                "ref:vatin": "PL6472579565",
                "operator": "Miasto Radlin",
                "operator:type": "government",
                "amenity": "school"
            }
        },
        {
            "id": 128528,
            "type": "Feature",
            "geometry": {
                "type": "Point",
                "coordinates": [
                    18.44934,
                    50.04656
                ]
            },
            "properties": {
                "ref:rspo": 128528,
                "official_name": "Terapeutyczny Punkt Przedszkolny \"S\u0142oneczna Kraina\"",
                "name": "Terapeutyczny Punkt Przedszkolny \"S\u0142oneczna Kraina\"",
                "addr:postcode": "44-310",
                "addr:city": "Radlin",
                "addr:street": "J\u00f3zefa Rymera",
                "addr:housenumber": "169",
                "addr:city:simc": 945108,
                "addr:street:sym_ul": 19244,
                "phone": "+48 519365121",
                "email": "radlin@tppsk.pl",
                "website": "http:\/\/www.tppsk.pl\/przedszkole-radlin",
                "ref:regon": "362305495",
                "operator": "Ksk Edukacja Sp\u00f3\u0142ka Z Ograniczon\u0105 Odpowiedzialno\u015bci\u0105",
                "operator:type": "private",
                "amenity": "kindergarten"
            }
        },
        {
            "id": 43443,
            "type": "Feature",
            "geometry": {
                "type": "Point",
                "coordinates": [
                    18.4847499,
                    50.04695
                ]
            },
            "properties": {
                "isced:level": "3",
                "ref:rspo": 43443,
                "official_name": "Bran\u017cowa Szko\u0142a I Stopnia w Radlinie",
                "name": "Bran\u017cowa Szko\u0142a I Stopnia w Radlinie",
                "addr:postcode": "44-310",
                "addr:city": "Radlin",
                "addr:street": "W\u0142adys\u0142awa Orkana",
                "addr:housenumber": "23",
                "addr:city:simc": 945108,
                "addr:street:sym_ul": 15140,
                "phone": "+48 324558304",
                "email": "radlin.zsp@gmail.com",
                "website": "http:\/\/zspradlin.pl",
                "ref:regon": "240371325",
                "ref:vatin": "PL6472574987",
                "operator": "Powiat Wodzis\u0142awski",
                "operator:type": "government",
                "amenity": "school"
            }
        },
        {
            "id": 23280,
            "type": "Feature",
            "geometry": {
                "type": "Point",
                "coordinates": [
                    18.44953,
                    50.04697
                ]
            },
            "properties": {
                "isced:level": "1;2",
                "ref:rspo": 23280,
                "official_name": "Szko\u0142a Podstawowa Nr 3 im. Ziemi Radli\u0144skiej w Radlinie",
                "name": "Szko\u0142a Podstawowa Nr 3",
                "addr:postcode": "44-310",
                "addr:city": "Radlin",
                "addr:street": "J\u00f3zefa Rymera",
                "addr:housenumber": "170",
                "addr:city:simc": 945108,
                "addr:street:sym_ul": 19244,
                "phone": "+48 324558294",
                "email": "sp3@radlin.pl",
                "website": "http:\/\/sp3radlin.pl",
                "ref:regon": "000729340",
                "ref:vatin": "PL6472154110",
                "operator": "Miasto Radlin",
                "operator:type": "government",
                "amenity": "school"
            }
        },
        {
            "id": 24322,
            "type": "Feature",
            "geometry": {
                "type": "Point",
                "coordinates": [
                    18.44973,
                    50.048
                ]
            },
            "properties": {
                "ref:rspo": 24322,
                "official_name": "Przedszkole Publiczne Nr 1 im. Gromadki Misia Uszatka w Radlinie",
                "name": "Przedszkole Publiczne Nr 1",
                "addr:postcode": "44-310",
                "addr:city": "Radlin",
                "addr:street": "J\u00f3zefa Rymera",
                "addr:housenumber": "170a",
                "addr:city:simc": 945108,
                "addr:street:sym_ul": 19244,
                "phone": "+48 324567266",
                "email": "pp1@radlin.pl",
                "website": "https:\/\/pp1.radlin.pl\/",
                "ref:regon": "271510610",
                "ref:vatin": "PL6472153837",
                "operator": "Miasto Radlin",
                "operator:type": "government",
                "amenity": "kindergarten"
            }
        },
        {
            "id": 278702,
            "type": "Feature",
            "geometry": {
                "type": "Point",
                "coordinates": [
                    18.47947,
                    50.0491
                ]
            },
            "properties": {
                "ref:rspo": 278702,
                "official_name": "Pingu Dwuj\u0119zyczne Przedszkole Sportowe",
                "name": "Pingu Dwuj\u0119zyczne Przedszkole Sportowe",
                "addr:postcode": "44-310",
                "addr:city": "Radlin",
                "addr:street": "Mariacka",
                "addr:housenumber": "8",
                "addr:city:simc": 945108,
                "addr:street:sym_ul": 12327,
                "email": "sekretariat@pingu-edu.pl",
                "website": "http:\/\/www.pingu-edu.pl\/przedszkole",
                "ref:regon": "520046146",
                "operator": "Olga Konarzewska",
                "operator:type": "private",
                "amenity": "kindergarten"
            }
        },
        {
            "id": 24324,
            "type": "Feature",
            "geometry": {
                "type": "Point",
                "coordinates": [
                    18.47633,
                    50.04963
                ]
            },
            "properties": {
                "ref:rspo": 24324,
                "official_name": "Przedszkole Publiczne Nr 3 im. Akademii Weso\u0142ych Bajtli w Radlinie",
                "name": "Przedszkole Publiczne Nr 3",
                "addr:postcode": "44-310",
                "addr:city": "Radlin",
                "addr:street": "Mariacka",
                "addr:housenumber": "1",
                "addr:city:simc": 945108,
                "addr:street:sym_ul": 12327,
                "phone": "+48 327292317",
                "email": "pp3@radlin.pl",
                "website": "https:\/\/pp3.radlin.pl\/",
                "ref:regon": "271510604",
                "ref:vatin": "PL6472154127",
                "operator": "Miasto Radlin",
                "operator:type": "government",
                "amenity": "kindergarten"
            }
        },
        {
            "id": 276954,
            "type": "Feature",
            "geometry": {
                "type": "Point",
                "coordinates": [
                    18.47947,
                    50.0502899
                ]
            },
            "properties": {
                "ref:rspo": 276954,
                "official_name": "O\u015brodek Szkolenia Zawodowego Przy Zak\u0142adzie Us\u0142ug Bhp I P-Po\u017c. M.m.tkocz S.c.",
                "name": "O\u015brodek Szkolenia Zawodowego Przy Zak\u0142adzie Us\u0142ug Bhp I P-Po\u017c. M.m.tkocz S.c.",
                "addr:postcode": "44-310",
                "addr:city": "Radlin",
                "addr:street": "Kwiatowa",
                "addr:housenumber": "31",
                "addr:city:simc": 945108,
                "addr:street:sym_ul": 10562,
                "phone": "+48 324549154",
                "email": "biuro@bhptkocz.pl",
                "website": "http:\/\/bhptkocz.pl",
                "ref:regon": "387898679",
                "operator": "Marta Tkocz",
                "operator:type": "private",
                "fixme": "w zale\u017cno\u015bci od przedmiotu dzia\u0142alno\u015bci (np. amenity=training + training=*, amenity=dancing_school, amenity=language_school, amenity=music_school)"
            }
        },
        {
            "id": 22725,
            "type": "Feature",
            "geometry": {
                "type": "Point",
                "coordinates": [
                    18.47494,
                    50.05137
                ]
            },
            "properties": {
                "ref:rspo": 22725,
                "official_name": "Ognisko Pracy Pozaszkolnej w Radlinie",
                "name": "Ognisko Pracy Pozaszkolnej w Radlinie",
                "addr:postcode": "44-310",
                "addr:city": "Radlin",
                "addr:street": "Majora Piotra Iwanowicza Rogozina",
                "addr:housenumber": "55",
                "addr:city:simc": 945108,
                "addr:street:sym_ul": 18775,
                "phone": "+48 324570048",
                "email": "oppradlin@op.pl",
                "website": "http:\/\/www.opp.radlin.pl",
                "ref:regon": "272563407",
                "ref:vatin": "PL6472218330",
                "operator": "Miasto Radlin",
                "operator:type": "government",
                "amenity": "community_centre",
                "community_centre:for": "child;juvenile"
            }
        },
        {
            "id": 23399,
            "type": "Feature",
            "geometry": {
                "type": "Point",
                "coordinates": [
                    18.47494,
                    50.051339999999996
                ]
            },
            "properties": {
                "isced:level": "1;2",
                "ref:rspo": 23399,
                "official_name": "Sportowa Szko\u0142a Podstawowa Nr 2 im. Komisji Edukacji Narodowej w Radlinie",
                "name": "Sportowa Szko\u0142a Podstawowa Nr 2",
                "addr:postcode": "44-310",
                "addr:city": "Radlin",
                "addr:street": "Majora Piotra Iwanowicza Rogozina",
                "addr:housenumber": "55",
                "addr:city:simc": 945108,
                "addr:street:sym_ul": 18775,
                "phone": "+48 324558330",
                "email": "ssp2@radlin.pl",
                "website": "https:\/\/ssp2.radlin.pl\/",
                "ref:regon": "000729333",
                "ref:vatin": "PL6472237698",
                "operator": "Miasto Radlin",
                "operator:type": "government",
                "amenity": "school"
            }
        }
    ]
}