{
    "type": "FeatureCollection",
    "features": [
        {
            "id": 275566,
            "type": "Feature",
            "geometry": {
                "type": "Point",
                "coordinates": [
                    22.92232,
                    54.07166
                ]
            },
            "properties": {
                "ref:rspo": 275566,
                "official_name": "Przedszkole Z Litewskim J\u0119zykiem Nauczania w Suwa\u0142kach",
                "name": "Przedszkole Z Litewskim J\u0119zykiem Nauczania w Suwa\u0142kach",
                "addr:country": "PL",
                "addr:postcode": "16-400",
                "addr:city": "Suwa\u0142ki",
                "addr:street": "B\u0142ogos\u0142awionej Siostry Kanizji Mackiewicz",
                "addr:housenumber": "2",
                "addr:teryt:simc": 977456,
                "addr:teryt:sym_ul": 42287,
                "contact:email": "darzelis.suvalkai@gmail.com",
                "ref:regon": "386929662",
                "operator": "Fundacja Im. Bpa Antanasa Baranauskasa \"Dom Litewski\" W Sejnach",
                "operator:type": "ngo",
                "amenity": "kindergarten"
            }
        },
        {
            "id": 3998,
            "type": "Feature",
            "geometry": {
                "type": "Point",
                "coordinates": [
                    22.93939,
                    54.08359
                ]
            },
            "properties": {
                "ref:rspo": 3998,
                "official_name": "Suwalski O\u015brodek Doskonalenia Nauczycieli w Suwa\u0142kach",
                "name": "Suwalski O\u015brodek Doskonalenia Nauczycieli w Suwa\u0142kach",
                "addr:country": "PL",
                "addr:postcode": "16-400",
                "addr:city": "Suwa\u0142ki",
                "addr:street": "Innowacyjna",
                "addr:housenumber": "1",
                "addr:teryt:simc": 977456,
                "addr:teryt:sym_ul": 39161,
                "contact:phone": "+48 875642228",
                "contact:email": "sodn@sodn.suwalki.pl",
                "contact:website": "http:\/\/www.sodn.suwalki.pl",
                "ref:regon": "200022024",
                "operator": "Suwa\u0142ki - Miasto Na Prawach Powiatu",
                "operator:type": "government",
                "amenity": "training"
            }
        },
        {
            "id": 269677,
            "type": "Feature",
            "geometry": {
                "type": "Point",
                "coordinates": [
                    22.92631,
                    54.08404
                ]
            },
            "properties": {
                "ref:rspo": 269677,
                "official_name": "Wioska Olimpijska Nad Czarn\u0105 Ha\u0144cz\u0105",
                "name": "Wioska Olimpijska Nad Czarn\u0105 Ha\u0144cz\u0105",
                "addr:country": "PL",
                "addr:postcode": "16-400",
                "addr:city": "Suwa\u0142ki",
                "addr:street": "Elbl\u0105ska",
                "addr:housenumber": "16",
                "addr:door": "1",
                "addr:teryt:simc": 977456,
                "addr:teryt:sym_ul": 4758,
                "contact:phone": "+48 877353999",
                "contact:email": "iwona.ruszewska@socatots.pl",
                "ref:regon": "381742580",
                "ref:vatin": "PL8441855597",
                "operator": "Iwona Ruszewska",
                "operator:type": "private",
                "fixme": "w zale\u017cno\u015bci od przedmiotu dzia\u0142alno\u015bci (np. amenity=training + training=*, amenity=dancing_school, amenity=language_school, amenity=music_school)"
            }
        },
        {
            "id": 133989,
            "type": "Feature",
            "geometry": {
                "type": "Point",
                "coordinates": [
                    22.92684,
                    54.08477
                ]
            },
            "properties": {
                "ref:rspo": 133989,
                "official_name": "Niepubliczne Przedszkole \"Akademia Ma\u0142ych Geniuszy\" w Suwa\u0142kach",
                "name": "Niepubliczne Przedszkole \"Akademia Ma\u0142ych Geniuszy\" w Suwa\u0142kach",
                "addr:country": "PL",
                "addr:postcode": "16-400",
                "addr:city": "Suwa\u0142ki",
                "addr:street": "Olszty\u0144ska",
                "addr:housenumber": "58",
                "addr:teryt:simc": 977456,
                "addr:teryt:sym_ul": 15016,
                "contact:phone": "+48 661254846",
                "contact:email": "agnieszka0803@vp.pl",
                "ref:regon": "367769928",
                "operator": "Agnieszka Wysocka",
                "operator:type": "private",
                "amenity": "kindergarten"
            }
        },
        {
            "id": 82768,
            "type": "Feature",
            "geometry": {
                "type": "Point",
                "coordinates": [
                    22.9338799,
                    54.08821
                ]
            },
            "properties": {
                "ref:rspo": 82768,
                "official_name": "Przedszkole Niepubilczne Nr 1 ,,Zielony Zak\u0105tek,, w Suwa\u0142kach",
                "name": "Przedszkole Niepubilczne Nr 1 ,,Zielony Zak\u0105tek,, w Suwa\u0142kach",
                "addr:country": "PL",
                "addr:postcode": "16-400",
                "addr:city": "Suwa\u0142ki",
                "addr:street": "Sportowa",
                "addr:housenumber": "10",
                "addr:teryt:simc": 977456,
                "addr:teryt:sym_ul": 20683,
                "contact:phone": "+48 508203555",
                "contact:email": "sekretariat.zielony-zakatek@wp.pl",
                "ref:regon": "200741902",
                "ref:vatin": "PL8441936077",
                "operator": "Aneta Winnik",
                "operator:type": "private",
                "amenity": "kindergarten"
            }
        },
        {
            "id": 267274,
            "type": "Feature",
            "geometry": {
                "type": "Point",
                "coordinates": [
                    22.93252,
                    54.0887
                ]
            },
            "properties": {
                "ref:rspo": 267274,
                "official_name": "Przedszkole Niepubliczne Little Star",
                "name": "Przedszkole Niepubliczne Little Star",
                "addr:country": "PL",
                "addr:postcode": "16-400",
                "addr:city": "Suwa\u0142ki",
                "addr:street": "Sportowa",
                "addr:housenumber": "8",
                "addr:teryt:simc": 977456,
                "addr:teryt:sym_ul": 20683,
                "contact:email": "przedszkolelittlestar@wp.pl",
                "ref:regon": "380062073",
                "operator": "Ma\u0142a Gwiazda",
                "operator:type": "ngo",
                "amenity": "kindergarten"
            }
        },
        {
            "id": 27749,
            "type": "Feature",
            "geometry": {
                "type": "Point",
                "coordinates": [
                    22.92968,
                    54.09008
                ]
            },
            "properties": {
                "isced:level": "1;2",
                "ref:rspo": 27749,
                "official_name": "Szko\u0142a Podstawowa Nr 4 im. Ks. Kazimierza Aleksandra Hamerszmita w Suwa\u0142kach",
                "name": "Szko\u0142a Podstawowa Nr 4",
                "addr:country": "PL",
                "addr:postcode": "16-400",
                "addr:city": "Suwa\u0142ki",
                "addr:street": "Wojska Polskiego",
                "addr:housenumber": "13",
                "addr:teryt:simc": 977456,
                "addr:teryt:sym_ul": 24628,
                "contact:phone": "+48 875662101",
                "contact:email": "sekretariat@sp4.suwalki.eu",
                "contact:website": "http:\/\/www.sp4-suwalki.pl",
                "ref:regon": "000720208",
                "ref:vatin": "PL8441222001",
                "operator": "Suwa\u0142ki - Miasto Na Prawach Powiatu",
                "operator:type": "government",
                "amenity": "school"
            }
        },
        {
            "id": 82749,
            "type": "Feature",
            "geometry": {
                "type": "Point",
                "coordinates": [
                    22.92949,
                    54.09128
                ]
            },
            "properties": {
                "isced:level": "3",
                "ref:rspo": 82749,
                "official_name": "Bran\u017cowa Szko\u0142a I Stopnia Specjalna Nr 1 w Suwa\u0142kach",
                "name": "Bran\u017cowa Szko\u0142a I Stopnia Specjalna Nr 1 w Suwa\u0142kach",
                "addr:country": "PL",
                "addr:postcode": "16-400",
                "addr:city": "Suwa\u0142ki",
                "addr:street": "Wojska Polskiego",
                "addr:housenumber": "9",
                "addr:teryt:simc": 977456,
                "addr:teryt:sym_ul": 24628,
                "contact:phone": "+48 875665878",
                "contact:email": "sekretariat@sosw1.suwalki.eu",
                "ref:regon": "000193022",
                "ref:vatin": "PL8441934397",
                "operator": "Suwa\u0142ki - Miasto Na Prawach Powiatu",
                "operator:type": "government",
                "amenity": "school",
                "note": "Parent RSPO: 27054"
            }
        },
        {
            "id": 278918,
            "type": "Feature",
            "geometry": {
                "type": "Point",
                "coordinates": [
                    22.9311,
                    54.09572
                ]
            },
            "properties": {
                "ref:rspo": 278918,
                "official_name": "Przedszkole Niepubliczne \"Jedyneczka\" w Suwa\u0142kach",
                "name": "Przedszkole Niepubliczne \"Jedyneczka\" w Suwa\u0142kach",
                "addr:country": "PL",
                "addr:postcode": "16-400",
                "addr:city": "Suwa\u0142ki",
                "addr:street": "Weso\u0142a",
                "addr:housenumber": "2",
                "addr:teryt:simc": 977456,
                "addr:teryt:sym_ul": 23884,
                "contact:email": "jedyneczka.suwalki@wp.pl",
                "ref:regon": "520192675",
                "operator": "Sp\u00f3\u0142dzielnia Socjalna Jedyneczka",
                "operator:type": "cooperative",
                "amenity": "kindergarten"
            }
        },
        {
            "id": 38850,
            "type": "Feature",
            "geometry": {
                "type": "Point",
                "coordinates": [
                    22.92849,
                    54.09579
                ]
            },
            "properties": {
                "isced:level": "3",
                "ref:rspo": 38850,
                "official_name": "Liceum Og\u00f3lnokszta\u0142c\u0105ce Zak\u0142adu Doskonalenia Zawodowego w Bia\u0142ymstoku Z Siedzib\u0105 w Suwa\u0142kach",
                "name": "Liceum Og\u00f3lnokszta\u0142c\u0105ce Zak\u0142adu Doskonalenia Zawodowego w Bia\u0142ymstoku Z Siedzib\u0105 w Suwa\u0142kach",
                "addr:country": "PL",
                "addr:postcode": "16-400",
                "addr:city": "Suwa\u0142ki",
                "addr:street": "Tadeusza Ko\u015bciuszki",
                "addr:housenumber": "23",
                "addr:teryt:simc": 977456,
                "addr:teryt:sym_ul": 9582,
                "contact:phone": "+48 875664964",
                "contact:email": "suwalki@zdz.bialystok.pl",
                "ref:regon": "200735698",
                "ref:vatin": "PL5420000305",
                "operator": "Zak\u0142ad Doskonalenia Zawodowego",
                "operator:type": "ngo",
                "amenity": "school"
            }
        },
        {
            "id": 38910,
            "type": "Feature",
            "geometry": {
                "type": "Point",
                "coordinates": [
                    22.92849,
                    54.09576
                ]
            },
            "properties": {
                "isced:level": "3",
                "ref:rspo": 38910,
                "official_name": "Technikum Zak\u0142adu Doskonalenia Zawodowego w Bia\u0142ymstoku Z Siedzib\u0105 w Suwa\u0142kach",
                "name": "Technikum Zak\u0142adu Doskonalenia Zawodowego w Bia\u0142ymstoku Z Siedzib\u0105 w Suwa\u0142kach",
                "addr:country": "PL",
                "addr:postcode": "16-400",
                "addr:city": "Suwa\u0142ki",
                "addr:street": "Tadeusza Ko\u015bciuszki",
                "addr:housenumber": "23",
                "addr:teryt:simc": 977456,
                "addr:teryt:sym_ul": 9582,
                "contact:phone": "+48 875664964",
                "contact:email": "suwalki@zdz.bialystok.pl",
                "ref:regon": "200736500",
                "ref:vatin": "PL5420000305",
                "operator": "Zak\u0142ad Doskonalenia Zawodowego",
                "operator:type": "ngo",
                "amenity": "school"
            }
        },
        {
            "id": 60565,
            "type": "Feature",
            "geometry": {
                "type": "Point",
                "coordinates": [
                    22.92849,
                    54.09573
                ]
            },
            "properties": {
                "ref:rspo": 60565,
                "official_name": "O\u015brodek Kszta\u0142cenia Zawodowego w Suwa\u0142kach",
                "name": "O\u015brodek Kszta\u0142cenia Zawodowego w Suwa\u0142kach",
                "addr:country": "PL",
                "addr:postcode": "16-400",
                "addr:city": "Suwa\u0142ki",
                "addr:street": "Tadeusza Ko\u015bciuszki",
                "addr:housenumber": "23",
                "addr:teryt:simc": 977456,
                "addr:teryt:sym_ul": 9582,
                "contact:phone": "+48 875628227",
                "contact:email": "suwalki@zdz.bialystok.pl",
                "ref:regon": "200737065",
                "operator": "Zak\u0142ad Doskonalenia Zawodowego",
                "operator:type": "ngo",
                "fixme": "w zale\u017cno\u015bci od przedmiotu dzia\u0142alno\u015bci (np. amenity=training + training=*, amenity=dancing_school, amenity=language_school, amenity=music_school)"
            }
        },
        {
            "id": 27027,
            "type": "Feature",
            "geometry": {
                "type": "Point",
                "coordinates": [
                    22.92896,
                    54.09737
                ]
            },
            "properties": {
                "ref:rspo": 27027,
                "official_name": "Zesp\u00f3\u0142 Szk\u00f3\u0142 Nr 2 w Suwa\u0142kach",
                "name": "Zesp\u00f3\u0142 Szk\u00f3\u0142 Nr 2 w Suwa\u0142kach",
                "addr:country": "PL",
                "addr:postcode": "16-400",
                "addr:city": "Suwa\u0142ki",
                "addr:street": "Tadeusza Ko\u015bciuszki",
                "addr:housenumber": "36\/38",
                "addr:teryt:simc": 977456,
                "addr:teryt:sym_ul": 9582,
                "contact:phone": "+48 875662723",
                "contact:email": "sekretariat@zs2.suwalki.eu",
                "contact:website": "http:\/\/www.zs2.suwalki.pl",
                "ref:regon": "000206813",
                "ref:vatin": "PL8441310515",
                "operator": "Suwa\u0142ki - Miasto Na Prawach Powiatu",
                "operator:type": "government",
                "landuse": "education",
                "fixme": "amenity=school, amenity=college albo landuse=education w zale\u017cno\u015bci od tego, jakie plac\u00f3wki wchodz\u0105 w sk\u0142ad zespo\u0142u. Sprawd\u017a, kiedy stosowa\u0107 amenity=* a kiedy landuse=education.",
                "note": "Children RSPO: 27004;29272"
            }
        },
        {
            "id": 27004,
            "type": "Feature",
            "geometry": {
                "type": "Point",
                "coordinates": [
                    22.92896,
                    54.097339999999996
                ]
            },
            "properties": {
                "isced:level": "1;2",
                "ref:rspo": 27004,
                "official_name": "Szko\u0142a Podstawowa Nr 9 im. W\u0142odzimierza Puchalskiego w Suwa\u0142kach",
                "name": "Szko\u0142a Podstawowa Nr 9",
                "addr:country": "PL",
                "addr:postcode": "16-400",
                "addr:city": "Suwa\u0142ki",
                "addr:street": "Tadeusza Ko\u015bciuszki",
                "addr:housenumber": "36\/38",
                "addr:teryt:simc": 977456,
                "addr:teryt:sym_ul": 9582,
                "contact:phone": "+48 875632630",
                "contact:email": "sekretariat@zs2.suwalki.eu",
                "contact:website": "http:\/\/www.zs2.suwalki.pl",
                "ref:regon": "000257532",
                "ref:vatin": "PL8441146599",
                "operator": "Suwa\u0142ki - Miasto Na Prawach Powiatu",
                "operator:type": "government",
                "amenity": "school",
                "note": "Parent RSPO: 27027"
            }
        },
        {
            "id": 29272,
            "type": "Feature",
            "geometry": {
                "type": "Point",
                "coordinates": [
                    22.92896,
                    54.09731
                ]
            },
            "properties": {
                "isced:level": "3",
                "ref:rspo": 29272,
                "official_name": "Ii Liceum Og\u00f3lnokszta\u0142c\u0105ce im. Gen. Zygmunta Podhorskiego w Suwa\u0142kach",
                "name": "Ii Liceum Og\u00f3lnokszta\u0142c\u0105ce",
                "addr:country": "PL",
                "addr:postcode": "16-400",
                "addr:city": "Suwa\u0142ki",
                "addr:street": "Tadeusza Ko\u015bciuszki",
                "addr:housenumber": "36",
                "addr:door": "38",
                "addr:teryt:simc": 977456,
                "addr:teryt:sym_ul": 9582,
                "contact:phone": "+48 875632630",
                "contact:email": "sekretariat@zs2.suwalki.eu",
                "contact:website": "http:\/\/www.zs2.suwalki.pl",
                "ref:regon": "791042945",
                "ref:vatin": "PL8441310515",
                "operator": "Suwa\u0142ki - Miasto Na Prawach Powiatu",
                "operator:type": "government",
                "amenity": "school",
                "note": "Parent RSPO: 27027"
            }
        },
        {
            "id": 59100,
            "type": "Feature",
            "geometry": {
                "type": "Point",
                "coordinates": [
                    22.93401,
                    54.09748
                ]
            },
            "properties": {
                "ref:rspo": 59100,
                "official_name": "Centrum Edukacyjno - Szkoleniowe Agencja Rozwoju Regionalnego Ares S.a. w Suwa\u0142kach",
                "name": "Centrum Edukacyjno - Szkoleniowe Agencja Rozwoju Regionalnego Ares S.a. w Suwa\u0142kach",
                "addr:country": "PL",
                "addr:postcode": "16-400",
                "addr:city": "Suwa\u0142ki",
                "addr:street": "Osiedle Osiedle II",
                "addr:housenumber": "6A",
                "addr:teryt:simc": 977456,
                "addr:teryt:sym_ul": 15256,
                "contact:phone": "+48 875662055",
                "contact:email": "ces@ares.suwalki.pl",
                "ref:regon": "200738981",
                "operator": "Agencja Rozwoju Regionalnego \"Ares\" Sp\u00f3\u0142ka Akcyjna W Suwa\u0142kach",
                "operator:type": "private",
                "fixme": "w zale\u017cno\u015bci od przedmiotu dzia\u0142alno\u015bci (np. amenity=training + training=*, amenity=dancing_school, amenity=language_school, amenity=music_school)"
            }
        },
        {
            "id": 57669,
            "type": "Feature",
            "geometry": {
                "type": "Point",
                "coordinates": [
                    22.92831,
                    54.09798
                ]
            },
            "properties": {
                "ref:rspo": 57669,
                "official_name": "Suwalska Szko\u0142a Biznesu w Suwa\u0142kach",
                "name": "Suwalska Szko\u0142a Biznesu w Suwa\u0142kach",
                "addr:country": "PL",
                "addr:postcode": "16-400",
                "addr:city": "Suwa\u0142ki",
                "addr:street": "Tadeusza Ko\u015bciuszki",
                "addr:housenumber": "47B",
                "addr:teryt:simc": 977456,
                "addr:teryt:sym_ul": 9582,
                "contact:phone": "+48 875650938",
                "contact:email": "dyrektorgmk@autograf.pl",
                "ref:regon": "200736717",
                "ref:vatin": "PL8441049146",
                "operator": "Jadwiga Or\u0142owska",
                "operator:type": "private",
                "landuse": "education",
                "fixme": "amenity=school, amenity=college albo landuse=education w zale\u017cno\u015bci od tego, jakie plac\u00f3wki wchodz\u0105 w sk\u0142ad zespo\u0142u. Sprawd\u017a, kiedy stosowa\u0107 amenity=* a kiedy landuse=education.",
                "note": "Children RSPO: 66230;82769;82770;133682"
            }
        },
        {
            "id": 66230,
            "type": "Feature",
            "geometry": {
                "type": "Point",
                "coordinates": [
                    22.92831,
                    54.09795
                ]
            },
            "properties": {
                "isced:level": "4",
                "ref:rspo": 66230,
                "official_name": "Suwalska Szko\u0142a Biznesu w Suwa\u0142kach Szko\u0142a Policealna",
                "name": "Suwalska Szko\u0142a Biznesu w Suwa\u0142kach Szko\u0142a Policealna",
                "addr:country": "PL",
                "addr:postcode": "16-400",
                "addr:city": "Suwa\u0142ki",
                "addr:street": "Tadeusza Ko\u015bciuszki",
                "addr:housenumber": "47B",
                "addr:teryt:simc": 977456,
                "addr:teryt:sym_ul": 9582,
                "contact:phone": "+48 875650938",
                "contact:email": "gmk5@op.pl",
                "ref:regon": "200739791",
                "operator": "Jadwiga Or\u0142owska",
                "operator:type": "private",
                "amenity": "college",
                "note": "Parent RSPO: 57669"
            }
        },
        {
            "id": 82769,
            "type": "Feature",
            "geometry": {
                "type": "Point",
                "coordinates": [
                    22.92831,
                    54.09792
                ]
            },
            "properties": {
                "ref:rspo": 82769,
                "official_name": "Suwalska Szko\u0142a Biznesu w Suwa\u0142kach",
                "name": "Suwalska Szko\u0142a Biznesu w Suwa\u0142kach",
                "addr:country": "PL",
                "addr:postcode": "16-400",
                "addr:city": "Suwa\u0142ki",
                "addr:street": "Tadeusza Ko\u015bciuszki",
                "addr:housenumber": "47B",
                "addr:teryt:simc": 977456,
                "addr:teryt:sym_ul": 9582,
                "contact:phone": "+48 875650938",
                "contact:email": "gmk5@op.pl",
                "ref:regon": "200742451",
                "operator": "Jadwiga Or\u0142owska",
                "operator:type": "private",
                "fixme": "w zale\u017cno\u015bci od przedmiotu dzia\u0142alno\u015bci (np. amenity=training + training=*, amenity=dancing_school, amenity=language_school, amenity=music_school)",
                "note": "Parent RSPO: 57669"
            }
        },
        {
            "id": 82770,
            "type": "Feature",
            "geometry": {
                "type": "Point",
                "coordinates": [
                    22.92831,
                    54.09789
                ]
            },
            "properties": {
                "isced:level": "3",
                "ref:rspo": 82770,
                "official_name": "Suwalska Szko\u0142a Biznesu w Suwa\u0142kach Liceum Og\u00f3lnokszta\u0142c\u0105ce dla Doros\u0142ych",
                "name": "Suwalska Szko\u0142a Biznesu w Suwa\u0142kach Liceum Og\u00f3lnokszta\u0142c\u0105ce dla Doros\u0142ych",
                "addr:country": "PL",
                "addr:postcode": "16-400",
                "addr:city": "Suwa\u0142ki",
                "addr:street": "Tadeusza Ko\u015bciuszki",
                "addr:housenumber": "47B",
                "addr:teryt:simc": 977456,
                "addr:teryt:sym_ul": 9582,
                "contact:phone": "+48 875650938",
                "contact:email": "gmk5@op.pl",
                "ref:regon": "200742439",
                "operator": "Jadwiga Or\u0142owska",
                "operator:type": "private",
                "amenity": "school",
                "note": "Parent RSPO: 57669"
            }
        },
        {
            "id": 133682,
            "type": "Feature",
            "geometry": {
                "type": "Point",
                "coordinates": [
                    22.92831,
                    54.09786
                ]
            },
            "properties": {
                "isced:level": "1;2",
                "ref:rspo": 133682,
                "official_name": "Szko\u0142a Podstawowa im. Marii Konopnickiej w Suwa\u0142kach",
                "name": "Szko\u0142a Podstawowa",
                "addr:country": "PL",
                "addr:postcode": "16-400",
                "addr:city": "Suwa\u0142ki",
                "addr:street": "Tadeusza Ko\u015bciuszki",
                "addr:housenumber": "47B",
                "addr:teryt:simc": 977456,
                "addr:teryt:sym_ul": 9582,
                "contact:phone": "+48 875650938",
                "contact:email": "gmk5@op.pl",
                "ref:regon": "367540396",
                "operator": "Jadwiga Or\u0142owska",
                "operator:type": "private",
                "amenity": "school",
                "note": "Parent RSPO: 57669"
            }
        },
        {
            "id": 12364,
            "type": "Feature",
            "geometry": {
                "type": "Point",
                "coordinates": [
                    22.92711,
                    54.09876
                ]
            },
            "properties": {
                "isced:level": "3",
                "ref:rspo": 12364,
                "official_name": "I Liceum Og\u00f3lnokszta\u0142c\u0105ce Z Oddzia\u0142ami Dwuj\u0119zycznymi im. Marii Konopnickiej w Suwa\u0142kach",
                "name": "I Liceum Og\u00f3lnokszta\u0142c\u0105ce Z Oddzia\u0142ami Dwuj\u0119zycznymi",
                "addr:country": "PL",
                "addr:postcode": "16-400",
                "addr:city": "Suwa\u0142ki",
                "addr:street": "Adama Mickiewicza",
                "addr:housenumber": "3",
                "addr:teryt:simc": 977456,
                "addr:teryt:sym_ul": 12740,
                "contact:phone": "+48 875665626",
                "contact:email": "sekretariat@1lo.suwalki.eu",
                "contact:website": "http:\/\/www.1lo.suwalki.pl",
                "ref:regon": "000204211",
                "ref:vatin": "PL8441235860",
                "operator": "Suwa\u0142ki - Miasto Na Prawach Powiatu",
                "operator:type": "government",
                "amenity": "school"
            }
        },
        {
            "id": 276329,
            "type": "Feature",
            "geometry": {
                "type": "Point",
                "coordinates": [
                    22.92476,
                    54.09919
                ]
            },
            "properties": {
                "ref:rspo": 276329,
                "official_name": "Przedszkole Niepubliczne Biedroneczka",
                "name": "Przedszkole Niepubliczne Biedroneczka",
                "addr:country": "PL",
                "addr:postcode": "16-400",
                "addr:city": "Suwa\u0142ki",
                "addr:street": "Wawrzy\u0144ca Ga\u0142aja",
                "addr:housenumber": "3",
                "addr:teryt:simc": 977456,
                "addr:teryt:sym_ul": 5295,
                "contact:email": "paulina.chalecka@tlen.pl",
                "ref:regon": "387096922",
                "operator": "Paulina Chalecka",
                "operator:type": "private",
                "amenity": "kindergarten"
            }
        },
        {
            "id": 41223,
            "type": "Feature",
            "geometry": {
                "type": "Point",
                "coordinates": [
                    22.9288,
                    54.09929
                ]
            },
            "properties": {
                "isced:level": "1;2",
                "ref:rspo": 41223,
                "official_name": "Parafialna Podstawowa Szko\u0142a Polsko - Romska Z Oddzia\u0142ami Integracyjnymi w Suwa\u0142kach",
                "name": "Parafialna Podstawowa Szko\u0142a Polsko - Romska Z Oddzia\u0142ami Integracyjnymi w Suwa\u0142kach",
                "addr:country": "PL",
                "addr:postcode": "16-400",
                "addr:city": "Suwa\u0142ki",
                "addr:street": "Tadeusza Ko\u015bciuszki",
                "addr:housenumber": "58",
                "addr:teryt:simc": 977456,
                "addr:teryt:sym_ul": 9582,
                "contact:phone": "+48 875663937",
                "contact:email": "parafia-nspj@o2.pl",
                "contact:website": "http:\/\/www.szkola.nspj.suwalki.pl",
                "ref:regon": "200736670",
                "ref:vatin": "PL8441285208",
                "operator": "Parafia Rzym.-Kat. Pw. Naj\u015bwi\u0119tszego Serca Pana Jezusa",
                "operator:type": "religious",
                "amenity": "school"
            }
        },
        {
            "id": 262642,
            "type": "Feature",
            "geometry": {
                "type": "Point",
                "coordinates": [
                    22.9288,
                    54.09926
                ]
            },
            "properties": {
                "isced:level": "3",
                "ref:rspo": 262642,
                "official_name": "Wielozawodowa Szko\u0142a Bran\u017cowa I Stopnia w Suwa\u0142kach",
                "name": "Wielozawodowa Szko\u0142a Bran\u017cowa I Stopnia w Suwa\u0142kach",
                "addr:country": "PL",
                "addr:postcode": "16-400",
                "addr:city": "Suwa\u0142ki",
                "addr:street": "Tadeusza Ko\u015bciuszki",
                "addr:housenumber": "58",
                "addr:teryt:simc": 977456,
                "addr:teryt:sym_ul": 9582,
                "contact:phone": "+48 875663937",
                "contact:email": "parafia-nspj@o2.pl",
                "contact:website": "http:\/\/www.szkola.nspj.suwalki.pl",
                "ref:regon": "368053669",
                "operator": "Parafia Rzym.-Kat. Pw. Naj\u015bwi\u0119tszego Serca Pana Jezusa",
                "operator:type": "religious",
                "amenity": "school"
            }
        },
        {
            "id": 31339,
            "type": "Feature",
            "geometry": {
                "type": "Point",
                "coordinates": [
                    22.94585,
                    54.09929
                ]
            },
            "properties": {
                "isced:level": "4",
                "ref:rspo": 31339,
                "official_name": "Policealna Szko\u0142a Zawodowa w Suwa\u0142kach \"Uniwersus\" Sp. Z O.o.",
                "name": "Policealna Szko\u0142a Zawodowa w Suwa\u0142kach \"Uniwersus\" Sp. Z O.o.",
                "addr:country": "PL",
                "addr:postcode": "16-400",
                "addr:city": "Suwa\u0142ki",
                "addr:street": "Ludwika Wary\u0144skiego",
                "addr:housenumber": "41A",
                "addr:teryt:simc": 977456,
                "addr:teryt:sym_ul": 23707,
                "contact:phone": "+48 875651100",
                "contact:email": "office@uniwersus.com",
                "ref:regon": "200735586",
                "ref:vatin": "PL8440000534",
                "operator": "\"Uniwersus\" Sp\u00f3\u0142ka Z Ograniczon\u0105 Odpowiedzialno\u015bci\u0105",
                "operator:type": "private",
                "amenity": "college"
            }
        },
        {
            "id": 73202,
            "type": "Feature",
            "geometry": {
                "type": "Point",
                "coordinates": [
                    22.94585,
                    54.09926
                ]
            },
            "properties": {
                "ref:rspo": 73202,
                "official_name": "Plac\u00f3wka Kszta\u0142cenia Zawodowego w Suwa\u0142kach \"Uniwersus\" Sp. Z O.o.",
                "name": "Plac\u00f3wka Kszta\u0142cenia Zawodowego w Suwa\u0142kach \"Uniwersus\" Sp. Z O.o.",
                "addr:country": "PL",
                "addr:postcode": "16-400",
                "addr:city": "Suwa\u0142ki",
                "addr:street": "Ludwika Wary\u0144skiego",
                "addr:housenumber": "41A",
                "addr:teryt:simc": 977456,
                "addr:teryt:sym_ul": 23707,
                "contact:phone": "+48 875651100",
                "contact:email": "office@uniwersus.com",
                "ref:regon": "200740067",
                "operator": "\"Uniwersus\" Sp\u00f3\u0142ka Z Ograniczon\u0105 Odpowiedzialno\u015bci\u0105",
                "operator:type": "private",
                "fixme": "w zale\u017cno\u015bci od przedmiotu dzia\u0142alno\u015bci (np. amenity=training + training=*, amenity=dancing_school, amenity=language_school, amenity=music_school)"
            }
        },
        {
            "id": 27923,
            "type": "Feature",
            "geometry": {
                "type": "Point",
                "coordinates": [
                    22.93888,
                    54.09942
                ]
            },
            "properties": {
                "ref:rspo": 27923,
                "official_name": "Przedszkole Nr 2 w Suwa\u0142kach",
                "name": "Przedszkole Nr 2 w Suwa\u0142kach",
                "addr:country": "PL",
                "addr:postcode": "16-400",
                "addr:city": "Suwa\u0142ki",
                "addr:street": "Ludwika Wary\u0144skiego",
                "addr:housenumber": "29",
                "addr:teryt:simc": 977456,
                "addr:teryt:sym_ul": 23707,
                "contact:phone": "+48 875663890",
                "contact:email": "sekretariat@p2.suwalki.eu",
                "contact:website": "https:\/\/przedszkole2suwalki.edupage.org\/",
                "ref:regon": "200403625",
                "ref:vatin": "PL8442338303",
                "operator": "Suwa\u0142ki - Miasto Na Prawach Powiatu",
                "operator:type": "government",
                "amenity": "kindergarten"
            }
        },
        {
            "id": 13296,
            "type": "Feature",
            "geometry": {
                "type": "Point",
                "coordinates": [
                    22.94262,
                    54.10045
                ]
            },
            "properties": {
                "isced:level": "1;2",
                "ref:rspo": 13296,
                "official_name": "Szko\u0142a Podstawowa Nr 6 im. Aleksandry Kuja\u0142owicz w Suwa\u0142kach",
                "name": "Szko\u0142a Podstawowa Nr 6",
                "addr:country": "PL",
                "addr:postcode": "16-400",
                "addr:city": "Suwa\u0142ki",
                "addr:street": "Sejne\u0144ska",
                "addr:housenumber": "12",
                "addr:teryt:simc": 977456,
                "addr:teryt:sym_ul": 19648,
                "contact:phone": "+48 875650205",
                "contact:email": "sekretariat@sp6.suwalki.eu",
                "contact:website": "http:\/\/www.sp6.pl",
                "ref:regon": "000720214",
                "ref:vatin": "PL8441151809",
                "operator": "Suwa\u0142ki - Miasto Na Prawach Powiatu",
                "operator:type": "government",
                "amenity": "school"
            }
        },
        {
            "id": 270643,
            "type": "Feature",
            "geometry": {
                "type": "Point",
                "coordinates": [
                    22.90643,
                    54.10047
                ]
            },
            "properties": {
                "ref:rspo": 270643,
                "official_name": "Niepubliczne Przedszkole \"Skrzacik\"",
                "name": "Niepubliczne Przedszkole \"Skrzacik\"",
                "addr:country": "PL",
                "addr:postcode": "16-400",
                "addr:city": "Suwa\u0142ki",
                "addr:street": "Grunwaldzka",
                "addr:housenumber": "19",
                "addr:teryt:simc": 977456,
                "addr:teryt:sym_ul": 6260,
                "contact:phone": "+48 533911022",
                "contact:email": "przedszkole-skrzacik@wp.pl",
                "ref:regon": "382846590",
                "operator": "Aneta S\u0142owikowska",
                "operator:type": "private",
                "amenity": "kindergarten"
            }
        },
        {
            "id": 22666,
            "type": "Feature",
            "geometry": {
                "type": "Point",
                "coordinates": [
                    22.94421,
                    54.1006
                ]
            },
            "properties": {
                "ref:rspo": 22666,
                "official_name": "Zesp\u00f3\u0142 Szk\u00f3\u0142 Nr 4 w Suwa\u0142kach",
                "name": "Zesp\u00f3\u0142 Szk\u00f3\u0142 Nr 4 w Suwa\u0142kach",
                "addr:country": "PL",
                "addr:postcode": "16-400",
                "addr:city": "Suwa\u0142ki",
                "addr:street": "Sejne\u0144ska",
                "addr:housenumber": "14",
                "addr:teryt:simc": 977456,
                "addr:teryt:sym_ul": 19648,
                "contact:phone": "+48 875664239",
                "contact:email": "sekretariat@zs4.suwalki.eu",
                "contact:website": "http:\/\/www.zs4.suwalki.pl",
                "ref:regon": "000333322",
                "ref:vatin": "PL8441252775",
                "operator": "Suwa\u0142ki - Miasto Na Prawach Powiatu",
                "operator:type": "government",
                "landuse": "education",
                "fixme": "amenity=school, amenity=college albo landuse=education w zale\u017cno\u015bci od tego, jakie plac\u00f3wki wchodz\u0105 w sk\u0142ad zespo\u0142u. Sprawd\u017a, kiedy stosowa\u0107 amenity=* a kiedy landuse=education.",
                "note": "Children RSPO: 49312;271711;278495"
            }
        },
        {
            "id": 49312,
            "type": "Feature",
            "geometry": {
                "type": "Point",
                "coordinates": [
                    22.94421,
                    54.10057
                ]
            },
            "properties": {
                "isced:level": "3",
                "ref:rspo": 49312,
                "official_name": "Technikum Nr 4 w Suwa\u0142kach",
                "name": "Technikum Nr 4 w Suwa\u0142kach",
                "addr:country": "PL",
                "addr:postcode": "16-400",
                "addr:city": "Suwa\u0142ki",
                "addr:street": "Sejne\u0144ska",
                "addr:housenumber": "14",
                "addr:teryt:simc": 977456,
                "addr:teryt:sym_ul": 19648,
                "contact:phone": "+48 875664239",
                "contact:email": "sekretariat@zs4.suwalki.eu",
                "contact:website": "http:\/\/www.zs4.suwalki.pl",
                "ref:regon": "791057160",
                "ref:vatin": "PL8441252775",
                "operator": "Suwa\u0142ki - Miasto Na Prawach Powiatu",
                "operator:type": "government",
                "amenity": "school",
                "note": "Parent RSPO: 22666"
            }
        },
        {
            "id": 271711,
            "type": "Feature",
            "geometry": {
                "type": "Point",
                "coordinates": [
                    22.94421,
                    54.10054
                ]
            },
            "properties": {
                "isced:level": "3",
                "ref:rspo": 271711,
                "official_name": "Bran\u017cowa Szko\u0142a I Stopnia Nr 5 w Suwa\u0142kach",
                "name": "Bran\u017cowa Szko\u0142a I Stopnia Nr 5 w Suwa\u0142kach",
                "addr:country": "PL",
                "addr:postcode": "16-400",
                "addr:city": "Suwa\u0142ki",
                "addr:street": "Sejne\u0144ska",
                "addr:housenumber": "14",
                "addr:teryt:simc": 977456,
                "addr:teryt:sym_ul": 19648,
                "contact:phone": "+48 875664239",
                "contact:email": "sekretariat@zs4.suwalki.eu",
                "ref:regon": "383575063",
                "operator": "Suwa\u0142ki - Miasto Na Prawach Powiatu",
                "operator:type": "government",
                "amenity": "school",
                "note": "Parent RSPO: 22666"
            }
        },
        {
            "id": 56111,
            "type": "Feature",
            "geometry": {
                "type": "Point",
                "coordinates": [
                    22.94124,
                    54.10091
                ]
            },
            "properties": {
                "ref:rspo": 56111,
                "official_name": "Zesp\u00f3\u0142 Szk\u00f3\u0142 Si\u00f3str Salezjanek im. Jana Paw\u0142a II w Suwa\u0142kach",
                "name": "Zesp\u00f3\u0142 Szk\u00f3\u0142 Si\u00f3str Salezjanek",
                "addr:country": "PL",
                "addr:postcode": "16-400",
                "addr:city": "Suwa\u0142ki",
                "addr:street": "Sejne\u0144ska",
                "addr:housenumber": "10",
                "addr:teryt:simc": 977456,
                "addr:teryt:sym_ul": 19648,
                "contact:phone": "+48 875663865",
                "contact:email": "zsss.suwalki@cmw.waw.pl",
                "contact:website": "http:\/\/www.zssal.suwalki.pl",
                "ref:regon": "200742706",
                "ref:vatin": "PL8441310604",
                "operator": "Zgromadzenie C\u00f3rek Maryi Wspomo\u017cycielki (Siostry Salezjanki) Inspektoria Warszawska",
                "operator:type": "religious",
                "landuse": "education",
                "fixme": "amenity=school, amenity=college albo landuse=education w zale\u017cno\u015bci od tego, jakie plac\u00f3wki wchodz\u0105 w sk\u0142ad zespo\u0142u. Sprawd\u017a, kiedy stosowa\u0107 amenity=* a kiedy landuse=education.",
                "note": "Children RSPO: 87124;87161;87197"
            }
        },
        {
            "id": 87124,
            "type": "Feature",
            "geometry": {
                "type": "Point",
                "coordinates": [
                    22.94124,
                    54.10088
                ]
            },
            "properties": {
                "isced:level": "3",
                "ref:rspo": 87124,
                "official_name": "Technikum Nr 5 w Suwa\u0142kach",
                "name": "Technikum Nr 5 w Suwa\u0142kach",
                "addr:country": "PL",
                "addr:postcode": "16-400",
                "addr:city": "Suwa\u0142ki",
                "addr:street": "Sejne\u0144ska",
                "addr:housenumber": "10",
                "addr:teryt:simc": 977456,
                "addr:teryt:sym_ul": 19648,
                "contact:phone": "+48 875663865",
                "contact:email": "zsss.suwalki@cmw.waw.pl",
                "contact:website": "http:\/\/www.zssal.suwalki.pl",
                "ref:regon": "200745538",
                "operator": "Zgromadzenie C\u00f3rek Maryi Wspomo\u017cycielki (Siostry Salezjanki) Inspektoria Warszawska",
                "operator:type": "religious",
                "amenity": "school",
                "note": "Parent RSPO: 56111"
            }
        },
        {
            "id": 87161,
            "type": "Feature",
            "geometry": {
                "type": "Point",
                "coordinates": [
                    22.94124,
                    54.10085
                ]
            },
            "properties": {
                "isced:level": "3",
                "ref:rspo": 87161,
                "official_name": "Vi Liceum Og\u00f3lnokszta\u0142c\u0105ce w Suwa\u0142kach",
                "name": "Vi Liceum Og\u00f3lnokszta\u0142c\u0105ce w Suwa\u0142kach",
                "addr:country": "PL",
                "addr:postcode": "16-400",
                "addr:city": "Suwa\u0142ki",
                "addr:street": "Sejne\u0144ska",
                "addr:housenumber": "10",
                "addr:teryt:simc": 977456,
                "addr:teryt:sym_ul": 19648,
                "contact:phone": "+48 875663865",
                "contact:email": "zsss.suwalki@cmw.waw.pl",
                "contact:website": "http:\/\/www.zssal.suwalki.pl",
                "ref:regon": "200744148",
                "operator": "Zgromadzenie C\u00f3rek Maryi Wspomo\u017cycielki (Siostry Salezjanki) Inspektoria Warszawska",
                "operator:type": "religious",
                "amenity": "school",
                "note": "Parent RSPO: 56111"
            }
        },
        {
            "id": 87197,
            "type": "Feature",
            "geometry": {
                "type": "Point",
                "coordinates": [
                    22.94124,
                    54.10082
                ]
            },
            "properties": {
                "isced:level": "3",
                "ref:rspo": 87197,
                "official_name": "Bran\u017cowa Szko\u0142a I Stopnia Nr 4 w Suwa\u0142kach",
                "name": "Bran\u017cowa Szko\u0142a I Stopnia Nr 4 w Suwa\u0142kach",
                "addr:country": "PL",
                "addr:postcode": "16-400",
                "addr:city": "Suwa\u0142ki",
                "addr:street": "Sejne\u0144ska",
                "addr:housenumber": "10",
                "addr:teryt:simc": 977456,
                "addr:teryt:sym_ul": 19648,
                "contact:phone": "+48 875663865",
                "contact:email": "zsss.suwalki@cmw.waw.pl",
                "contact:website": "http:\/\/www.zssal.suwalki.pl",
                "ref:regon": "200744310",
                "operator": "Zgromadzenie C\u00f3rek Maryi Wspomo\u017cycielki (Siostry Salezjanki) Inspektoria Warszawska",
                "operator:type": "religious",
                "amenity": "school",
                "note": "Parent RSPO: 56111"
            }
        },
        {
            "id": 48644,
            "type": "Feature",
            "geometry": {
                "type": "Point",
                "coordinates": [
                    22.9449,
                    54.10121
                ]
            },
            "properties": {
                "ref:rspo": 48644,
                "official_name": "Zesp\u00f3\u0142 Szk\u00f3\u0142 Technicznych w Suwa\u0142kach",
                "name": "Zesp\u00f3\u0142 Szk\u00f3\u0142 Technicznych w Suwa\u0142kach",
                "addr:country": "PL",
                "addr:postcode": "16-400",
                "addr:city": "Suwa\u0142ki",
                "addr:street": "Sejne\u0144ska",
                "addr:housenumber": "33",
                "addr:teryt:simc": 977456,
                "addr:teryt:sym_ul": 19648,
                "contact:phone": "+48 875653630",
                "contact:email": "sekretariat@zst.suwalki.eu",
                "contact:website": "http:\/\/www.zst.suwalki.pl",
                "ref:regon": "000184052",
                "ref:vatin": "PL8441065808",
                "operator": "Suwa\u0142ki - Miasto Na Prawach Powiatu",
                "operator:type": "government",
                "landuse": "education",
                "fixme": "amenity=school, amenity=college albo landuse=education w zale\u017cno\u015bci od tego, jakie plac\u00f3wki wchodz\u0105 w sk\u0142ad zespo\u0142u. Sprawd\u017a, kiedy stosowa\u0107 amenity=* a kiedy landuse=education.",
                "note": "Children RSPO: 48113;48172;62591;64767;73210;75010"
            }
        },
        {
            "id": 48113,
            "type": "Feature",
            "geometry": {
                "type": "Point",
                "coordinates": [
                    22.9449,
                    54.10118
                ]
            },
            "properties": {
                "isced:level": "3",
                "ref:rspo": 48113,
                "official_name": "Liceum Og\u00f3lnokszta\u0142c\u0105ce dla Doros\u0142ych w Suwa\u0142kach",
                "name": "Liceum Og\u00f3lnokszta\u0142c\u0105ce dla Doros\u0142ych w Suwa\u0142kach",
                "addr:country": "PL",
                "addr:postcode": "16-400",
                "addr:city": "Suwa\u0142ki",
                "addr:street": "Sejne\u0144ska",
                "addr:housenumber": "33",
                "addr:teryt:simc": 977456,
                "addr:teryt:sym_ul": 19648,
                "contact:phone": "+48 875653630",
                "contact:email": "sekretariat@zst.suwalki.eu",
                "ref:regon": "200021970",
                "operator": "Suwa\u0142ki - Miasto Na Prawach Powiatu",
                "operator:type": "government",
                "amenity": "school",
                "note": "Parent RSPO: 48644"
            }
        },
        {
            "id": 48172,
            "type": "Feature",
            "geometry": {
                "type": "Point",
                "coordinates": [
                    22.9449,
                    54.101150000000004
                ]
            },
            "properties": {
                "isced:level": "4",
                "ref:rspo": 48172,
                "official_name": "Szko\u0142a Policealna Nr 2 w Suwa\u0142kach",
                "name": "Szko\u0142a Policealna Nr 2 w Suwa\u0142kach",
                "addr:country": "PL",
                "addr:postcode": "16-400",
                "addr:city": "Suwa\u0142ki",
                "addr:street": "Sejne\u0144ska",
                "addr:housenumber": "33",
                "addr:teryt:simc": 977456,
                "addr:teryt:sym_ul": 19648,
                "contact:phone": "+48 875653630",
                "contact:email": "sekretariat@zst.suwalki.eu",
                "ref:regon": "200022001",
                "operator": "Suwa\u0142ki - Miasto Na Prawach Powiatu",
                "operator:type": "government",
                "amenity": "college",
                "note": "Parent RSPO: 48644"
            }
        },
        {
            "id": 62591,
            "type": "Feature",
            "geometry": {
                "type": "Point",
                "coordinates": [
                    22.9449,
                    54.10112
                ]
            },
            "properties": {
                "ref:rspo": 62591,
                "official_name": "Centrum Kszta\u0142cenia Ustawicznego w Suwa\u0142kach",
                "name": "Centrum Kszta\u0142cenia Ustawicznego w Suwa\u0142kach",
                "addr:country": "PL",
                "addr:postcode": "16-400",
                "addr:city": "Suwa\u0142ki",
                "addr:street": "Sejne\u0144ska",
                "addr:housenumber": "33",
                "addr:teryt:simc": 977456,
                "addr:teryt:sym_ul": 19648,
                "contact:phone": "+48 875653630",
                "contact:email": "sekretariat@zst.suwalki.eu",
                "ref:regon": "200022018",
                "operator": "Suwa\u0142ki - Miasto Na Prawach Powiatu",
                "operator:type": "government",
                "fixme": "w zale\u017cno\u015bci od przedmiotu dzia\u0142alno\u015bci (np. amenity=training + training=*, amenity=dancing_school, amenity=language_school, amenity=music_school)",
                "note": "Parent RSPO: 48644"
            }
        },
        {
            "id": 64767,
            "type": "Feature",
            "geometry": {
                "type": "Point",
                "coordinates": [
                    22.9449,
                    54.10109
                ]
            },
            "properties": {
                "isced:level": "3",
                "ref:rspo": 64767,
                "official_name": "Bran\u017cowa Szko\u0142a I Stopnia Nr 3 w Suwa\u0142kach",
                "name": "Bran\u017cowa Szko\u0142a I Stopnia Nr 3 w Suwa\u0142kach",
                "addr:country": "PL",
                "addr:postcode": "16-400",
                "addr:city": "Suwa\u0142ki",
                "addr:street": "Sejne\u0144ska",
                "addr:housenumber": "33",
                "addr:teryt:simc": 977456,
                "addr:teryt:sym_ul": 19648,
                "contact:phone": "+48 875653630",
                "contact:email": "sekretariat@zst.suwalki.eu",
                "contact:website": "http:\/\/www.zst.suwalki.pl",
                "ref:regon": "791038429",
                "operator": "Suwa\u0142ki - Miasto Na Prawach Powiatu",
                "operator:type": "government",
                "amenity": "school",
                "note": "Parent RSPO: 48644"
            }
        },
        {
            "id": 73210,
            "type": "Feature",
            "geometry": {
                "type": "Point",
                "coordinates": [
                    22.9449,
                    54.101060000000004
                ]
            },
            "properties": {
                "isced:level": "3",
                "ref:rspo": 73210,
                "official_name": "Technikum Nr 3 w Suwa\u0142kach",
                "name": "Technikum Nr 3 w Suwa\u0142kach",
                "addr:country": "PL",
                "addr:postcode": "16-400",
                "addr:city": "Suwa\u0142ki",
                "addr:street": "Sejne\u0144ska",
                "addr:housenumber": "33",
                "addr:teryt:simc": 977456,
                "addr:teryt:sym_ul": 19648,
                "contact:phone": "+48 875653630",
                "contact:email": "sekretariat@zst.suwalki.eu",
                "contact:website": "http:\/\/www.zst.suwalki.pl",
                "ref:regon": "791038369",
                "operator": "Suwa\u0142ki - Miasto Na Prawach Powiatu",
                "operator:type": "government",
                "amenity": "school",
                "note": "Parent RSPO: 48644"
            }
        },
        {
            "id": 75010,
            "type": "Feature",
            "geometry": {
                "type": "Point",
                "coordinates": [
                    22.9449,
                    54.10103
                ]
            },
            "properties": {
                "ref:rspo": 75010,
                "official_name": "Centrum Kszta\u0142cenia Zawodowego Nr 1 w Suwa\u0142kach",
                "name": "Centrum Kszta\u0142cenia Zawodowego Nr 1 w Suwa\u0142kach",
                "addr:country": "PL",
                "addr:postcode": "16-400",
                "addr:city": "Suwa\u0142ki",
                "addr:street": "Sejne\u0144ska",
                "addr:housenumber": "33",
                "addr:teryt:simc": 977456,
                "addr:teryt:sym_ul": 19648,
                "contact:phone": "+48 875653630",
                "contact:email": "zst@zst.suwalki.pl",
                "contact:website": "http:\/\/www.zst.suwalki.pl",
                "ref:regon": "200740529",
                "operator": "Suwa\u0142ki - Miasto Na Prawach Powiatu",
                "operator:type": "government",
                "fixme": "w zale\u017cno\u015bci od przedmiotu dzia\u0142alno\u015bci (np. amenity=training + training=*, amenity=dancing_school, amenity=language_school, amenity=music_school) albo amenity=school, amenity=college, albo landuse=education w zale\u017cno\u015bci od tego, jakie plac\u00f3wki wchodz\u0105 w sk\u0142ad zespo\u0142u. Sprawd\u017a, kiedy stosowa\u0107 amenity=* a kiedy landuse=education.",
                "note": "Parent RSPO: 48644"
            }
        },
        {
            "id": 27054,
            "type": "Feature",
            "geometry": {
                "type": "Point",
                "coordinates": [
                    22.951,
                    54.10131
                ]
            },
            "properties": {
                "ref:rspo": 27054,
                "official_name": "Specjalny O\u015brodek Szkolno - Wychowawczy Nr 1 w Suwa\u0142kach",
                "name": "Specjalny O\u015brodek Szkolno - Wychowawczy Nr 1 w Suwa\u0142kach",
                "addr:country": "PL",
                "addr:postcode": "16-400",
                "addr:city": "Suwa\u0142ki",
                "addr:street": "Przytorowa",
                "addr:housenumber": "8",
                "addr:teryt:simc": 977456,
                "addr:teryt:sym_ul": 18006,
                "contact:phone": "+48 875662953",
                "contact:email": "sekretariat@sosw1.suwalki.eu",
                "contact:website": "http:\/\/www.esoswnr1.suwalki.internetdsl.pl",
                "ref:regon": "791034450",
                "ref:vatin": "PL8441934397",
                "operator": "Suwa\u0142ki - Miasto Na Prawach Powiatu",
                "operator:type": "government",
                "amenity": "school",
                "note": "Children RSPO: 82749;113781;121290;124455"
            }
        },
        {
            "id": 113781,
            "type": "Feature",
            "geometry": {
                "type": "Point",
                "coordinates": [
                    22.951,
                    54.101279999999996
                ]
            },
            "properties": {
                "isced:level": "1;2",
                "ref:rspo": 113781,
                "official_name": "Szko\u0142a Podstawowa Specjalna Nr 1 w Suwa\u0142kach",
                "name": "Szko\u0142a Podstawowa Specjalna Nr 1 w Suwa\u0142kach",
                "addr:country": "PL",
                "addr:postcode": "16-400",
                "addr:city": "Suwa\u0142ki",
                "addr:street": "Przytorowa",
                "addr:housenumber": "8",
                "addr:teryt:simc": 977456,
                "addr:teryt:sym_ul": 18006,
                "contact:phone": "+48 875662953",
                "contact:email": "sekretariat@sosw1.suwalki.eu",
                "ref:regon": "791034443",
                "operator": "Suwa\u0142ki - Miasto Na Prawach Powiatu",
                "operator:type": "government",
                "amenity": "school",
                "note": "Parent RSPO: 27054"
            }
        },
        {
            "id": 121290,
            "type": "Feature",
            "geometry": {
                "type": "Point",
                "coordinates": [
                    22.951,
                    54.10125
                ]
            },
            "properties": {
                "ref:rspo": 121290,
                "official_name": "Szko\u0142a Specjalna Przysposabiaj\u0105ca Do Pracy w Suwa\u0142kach",
                "name": "Szko\u0142a Specjalna Przysposabiaj\u0105ca Do Pracy w Suwa\u0142kach",
                "addr:country": "PL",
                "addr:postcode": "16-400",
                "addr:city": "Suwa\u0142ki",
                "addr:street": "Przytorowa",
                "addr:housenumber": "8",
                "addr:teryt:simc": 977456,
                "addr:teryt:sym_ul": 18006,
                "contact:phone": "+48 875662953",
                "contact:email": "sekretariat@sosw1.suwalki.eu",
                "ref:regon": "791034466",
                "operator": "Suwa\u0142ki - Miasto Na Prawach Powiatu",
                "operator:type": "government",
                "amenity": "school",
                "note": "Parent RSPO: 27054"
            }
        },
        {
            "id": 124455,
            "type": "Feature",
            "geometry": {
                "type": "Point",
                "coordinates": [
                    22.951,
                    54.10122
                ]
            },
            "properties": {
                "ref:rspo": 124455,
                "official_name": "Przedszkole Specjalne Nr 9 w Suwa\u0142kach",
                "name": "Przedszkole Specjalne Nr 9 w Suwa\u0142kach",
                "addr:country": "PL",
                "addr:postcode": "16-400",
                "addr:city": "Suwa\u0142ki",
                "addr:street": "Przytorowa",
                "addr:housenumber": "8",
                "addr:teryt:simc": 977456,
                "addr:teryt:sym_ul": 18006,
                "contact:phone": "+48 875662953",
                "contact:email": "sekretariat@sosw1.suwalki.eu",
                "ref:regon": "200879434",
                "operator": "Suwa\u0142ki - Miasto Na Prawach Powiatu",
                "operator:type": "government",
                "amenity": "kindergarten",
                "note": "Parent RSPO: 27054"
            }
        },
        {
            "id": 73200,
            "type": "Feature",
            "geometry": {
                "type": "Point",
                "coordinates": [
                    22.92862,
                    54.10147
                ]
            },
            "properties": {
                "ref:rspo": 73200,
                "official_name": "Regionalny O\u015brodek Doskonalenia Kadr Suwalskiej Rady Fsnt Not Z Siedzib\u0105 w Suwa\u0142kach",
                "name": "Regionalny O\u015brodek Doskonalenia Kadr Suwalskiej Rady Fsnt Not Z Siedzib\u0105 w Suwa\u0142kach",
                "addr:country": "PL",
                "addr:postcode": "16-400",
                "addr:city": "Suwa\u0142ki",
                "addr:street": "Tadeusza Ko\u015bciuszki",
                "addr:housenumber": "76",
                "addr:teryt:simc": 977456,
                "addr:teryt:sym_ul": 9582,
                "contact:phone": "+48 875665421",
                "contact:email": "notsuwalki@poczta.onet.pl",
                "ref:regon": "200740021",
                "operator": "Suwalska Rada Federacji Stowarzysze\u0144 Naukowo - Technicznych Naczelnej Organizacji Technicznej",
                "operator:type": "ngo",
                "fixme": "w zale\u017cno\u015bci od przedmiotu dzia\u0142alno\u015bci (np. amenity=training + training=*, amenity=dancing_school, amenity=language_school, amenity=music_school)"
            }
        },
        {
            "id": 47522,
            "type": "Feature",
            "geometry": {
                "type": "Point",
                "coordinates": [
                    22.93243,
                    54.10147
                ]
            },
            "properties": {
                "isced:level": "3",
                "ref:rspo": 47522,
                "official_name": "Liceum Og\u00f3lnokszta\u0142c\u0105ce dla Doros\u0142ych \"Akademia Sukcesu\" w Suwa\u0142kach",
                "name": "Liceum Og\u00f3lnokszta\u0142c\u0105ce dla Doros\u0142ych \"Akademia Sukcesu\" w Suwa\u0142kach",
                "addr:country": "PL",
                "addr:postcode": "16-400",
                "addr:city": "Suwa\u0142ki",
                "addr:street": "Sejne\u0144ska",
                "addr:housenumber": "1",
                "addr:teryt:simc": 977456,
                "addr:teryt:sym_ul": 19648,
                "contact:phone": "+48 662232335",
                "contact:email": "suwalki@as.edu.pl",
                "ref:regon": "200736723",
                "ref:vatin": "PL5423201180",
                "operator": "Fundacja Inicjatywa Na Rzecz Edukacji",
                "operator:type": "ngo",
                "amenity": "school"
            }
        },
        {
            "id": 82751,
            "type": "Feature",
            "geometry": {
                "type": "Point",
                "coordinates": [
                    22.93243,
                    54.10144
                ]
            },
            "properties": {
                "isced:level": "4",
                "ref:rspo": 82751,
                "official_name": "Policealna Szko\u0142a \"Akademia Sukcesu\" w Suwa\u0142kach",
                "name": "Policealna Szko\u0142a \"Akademia Sukcesu\" w Suwa\u0142kach",
                "addr:country": "PL",
                "addr:postcode": "16-400",
                "addr:city": "Suwa\u0142ki",
                "addr:street": "Sejne\u0144ska",
                "addr:housenumber": "1",
                "addr:teryt:simc": 977456,
                "addr:teryt:sym_ul": 19648,
                "contact:phone": "+48 662232335",
                "contact:email": "suwalki.sekretariat@as.edu.pl",
                "ref:regon": "200741871",
                "ref:vatin": "PL5423201180",
                "operator": "Fundacja Inicjatywa Na Rzecz Edukacji",
                "operator:type": "ngo",
                "amenity": "college"
            }
        },
        {
            "id": 69963,
            "type": "Feature",
            "geometry": {
                "type": "Point",
                "coordinates": [
                    22.943,
                    54.10157
                ]
            },
            "properties": {
                "ref:rspo": 69963,
                "official_name": "Niepubliczne Przedszkole ''Happy Kids' Club'' w Suwa\u0142kach",
                "name": "Niepubliczne Przedszkole ''Happy Kids' Club'' w Suwa\u0142kach",
                "addr:country": "PL",
                "addr:postcode": "16-400",
                "addr:city": "Suwa\u0142ki",
                "addr:street": "Szkolna",
                "addr:housenumber": "2",
                "addr:teryt:simc": 977456,
                "addr:teryt:sym_ul": 21970,
                "contact:phone": "+48 693943555",
                "contact:email": "karol.kowalewski@outlook.com",
                "ref:regon": "200739319",
                "operator": "Magdalena Kowalewska",
                "operator:type": "private",
                "amenity": "kindergarten"
            }
        },
        {
            "id": 278495,
            "type": "Feature",
            "geometry": {
                "type": "Point",
                "coordinates": [
                    22.943,
                    54.10154
                ]
            },
            "properties": {
                "ref:rspo": 278495,
                "official_name": "Bursa Szkolna w Suwa\u0142kach",
                "name": "Bursa Szkolna w Suwa\u0142kach",
                "addr:country": "PL",
                "addr:postcode": "16-400",
                "addr:city": "Suwa\u0142ki",
                "addr:street": "Szkolna",
                "addr:housenumber": "2",
                "addr:teryt:simc": 977456,
                "addr:teryt:sym_ul": 21970,
                "contact:phone": "+48 875663129",
                "contact:email": "sekretariat@zs4.suwalki.eu",
                "contact:website": "http:\/\/www.zs4.suwalki.pl",
                "ref:regon": "389932682",
                "operator": "Suwa\u0142ki - Miasto Na Prawach Powiatu",
                "operator:type": "government",
                "building": "dormitory",
                "note": "Parent RSPO: 22666"
            }
        },
        {
            "id": 269155,
            "type": "Feature",
            "geometry": {
                "type": "Point",
                "coordinates": [
                    22.93437,
                    54.10165
                ]
            },
            "properties": {
                "ref:rspo": 269155,
                "official_name": "Niepubliczne Przedszkole \"Maja\" w Suwa\u0142kach",
                "name": "Niepubliczne Przedszkole \"Maja\" w Suwa\u0142kach",
                "addr:country": "PL",
                "addr:postcode": "16-400",
                "addr:city": "Suwa\u0142ki",
                "addr:street": "Sejne\u0144ska",
                "addr:housenumber": "11",
                "addr:teryt:simc": 977456,
                "addr:teryt:sym_ul": 19648,
                "contact:email": "przystanek.malucha@gmail.com",
                "contact:website": "http:\/\/przystanekmalucha.pl\/przedszkole\/",
                "ref:regon": "381390810",
                "operator": "Maja Gali\u0144ska",
                "operator:type": "private",
                "amenity": "kindergarten"
            }
        },
        {
            "id": 122626,
            "type": "Feature",
            "geometry": {
                "type": "Point",
                "coordinates": [
                    22.9356699,
                    54.10268
                ]
            },
            "properties": {
                "ref:rspo": 122626,
                "official_name": "Tanmuz Bogus\u0142aw Szlaszy\u0144ski",
                "name": "Tanmuz Bogus\u0142aw Szlaszy\u0144ski",
                "addr:country": "PL",
                "addr:postcode": "16-400",
                "addr:city": "Suwa\u0142ki",
                "addr:street": "1 Maja",
                "addr:housenumber": "4",
                "addr:door": "9",
                "addr:teryt:simc": 977456,
                "addr:teryt:sym_ul": 11926,
                "contact:phone": "+48 609600316",
                "contact:email": "tanmuz@tanmuz.pl",
                "ref:regon": "200845286",
                "operator": "Bogus\u0142aw Szlaszy\u0144ski",
                "operator:type": "private",
                "fixme": "w zale\u017cno\u015bci od przedmiotu dzia\u0142alno\u015bci (np. amenity=training + training=*, amenity=dancing_school, amenity=language_school, amenity=music_school)"
            }
        },
        {
            "id": 27020,
            "type": "Feature",
            "geometry": {
                "type": "Point",
                "coordinates": [
                    22.93094,
                    54.10298
                ]
            },
            "properties": {
                "ref:rspo": 27020,
                "official_name": "Zesp\u00f3\u0142 Szk\u00f3\u0142 Nr 1 w Suwa\u0142kach",
                "name": "Zesp\u00f3\u0142 Szk\u00f3\u0142 Nr 1 w Suwa\u0142kach",
                "addr:country": "PL",
                "addr:postcode": "16-400",
                "addr:city": "Suwa\u0142ki",
                "addr:street": "Teofila Noniewicza",
                "addr:housenumber": "83",
                "addr:teryt:simc": 977456,
                "addr:teryt:sym_ul": 14307,
                "contact:phone": "+48 875663498",
                "contact:email": "sekretariat@zs1.suwalki.eu",
                "contact:website": "http:\/\/www.zs1.suwalki.edu.pl",
                "ref:regon": "790004285",
                "ref:vatin": "PL8441093779",
                "operator": "Suwa\u0142ki - Miasto Na Prawach Powiatu",
                "operator:type": "government",
                "landuse": "education",
                "fixme": "amenity=school, amenity=college albo landuse=education w zale\u017cno\u015bci od tego, jakie plac\u00f3wki wchodz\u0105 w sk\u0142ad zespo\u0142u. Sprawd\u017a, kiedy stosowa\u0107 amenity=* a kiedy landuse=education.",
                "note": "Children RSPO: 69961;73155"
            }
        },
        {
            "id": 69961,
            "type": "Feature",
            "geometry": {
                "type": "Point",
                "coordinates": [
                    22.93094,
                    54.10295
                ]
            },
            "properties": {
                "isced:level": "3",
                "ref:rspo": 69961,
                "official_name": "Iii Liceum Og\u00f3lnokszta\u0142c\u0105ce Z Oddzia\u0142ami Dwuj\u0119zycznymi im. Alfreda Lity\u0144skiego w Suwa\u0142kach",
                "name": "Iii Liceum Og\u00f3lnokszta\u0142c\u0105ce Z Oddzia\u0142ami Dwuj\u0119zycznymi",
                "addr:country": "PL",
                "addr:postcode": "16-400",
                "addr:city": "Suwa\u0142ki",
                "addr:street": "Teofila Noniewicza",
                "addr:housenumber": "83",
                "addr:teryt:simc": 977456,
                "addr:teryt:sym_ul": 14307,
                "contact:phone": "+48 875663498",
                "contact:email": "sekretariat@zs1.suwalki.eu",
                "contact:website": "http:\/\/www.zs1.suwalki.edu.pl",
                "ref:regon": "791055942",
                "ref:vatin": "PL8441093779",
                "operator": "Suwa\u0142ki - Miasto Na Prawach Powiatu",
                "operator:type": "government",
                "amenity": "school",
                "note": "Parent RSPO: 27020"
            }
        },
        {
            "id": 73155,
            "type": "Feature",
            "geometry": {
                "type": "Point",
                "coordinates": [
                    22.93094,
                    54.102920000000005
                ]
            },
            "properties": {
                "isced:level": "4",
                "ref:rspo": 73155,
                "official_name": "Szko\u0142a Policealna Nr 1 w Suwa\u0142kach",
                "name": "Szko\u0142a Policealna Nr 1 w Suwa\u0142kach",
                "addr:country": "PL",
                "addr:postcode": "16-400",
                "addr:city": "Suwa\u0142ki",
                "addr:street": "Teofila Noniewicza",
                "addr:housenumber": "83",
                "addr:teryt:simc": 977456,
                "addr:teryt:sym_ul": 14307,
                "contact:phone": "+48 875663498",
                "contact:email": "sekretariat@zs1.suwalki.eu",
                "ref:regon": "791055959",
                "ref:vatin": "PL8441093779",
                "operator": "Suwa\u0142ki - Miasto Na Prawach Powiatu",
                "operator:type": "government",
                "amenity": "college",
                "note": "Parent RSPO: 27020"
            }
        },
        {
            "id": 120908,
            "type": "Feature",
            "geometry": {
                "type": "Point",
                "coordinates": [
                    22.92543,
                    54.10363
                ]
            },
            "properties": {
                "ref:rspo": 120908,
                "official_name": "Akademia Rozwoju \"Progres\" w Suwa\u0142kach",
                "name": "Akademia Rozwoju \"Progres\" w Suwa\u0142kach",
                "addr:country": "PL",
                "addr:postcode": "16-400",
                "addr:city": "Suwa\u0142ki",
                "addr:street": "Emilii Plater",
                "addr:housenumber": "18A",
                "addr:teryt:simc": 977456,
                "addr:teryt:sym_ul": 16451,
                "contact:phone": "+48 796161303",
                "contact:email": "biuro@forma.edu.pl",
                "ref:regon": "200820180",
                "operator": "Szymon Mironowicz",
                "operator:type": "private",
                "fixme": "w zale\u017cno\u015bci od przedmiotu dzia\u0142alno\u015bci (np. amenity=training + training=*, amenity=dancing_school, amenity=language_school, amenity=music_school)"
            }
        },
        {
            "id": 121251,
            "type": "Feature",
            "geometry": {
                "type": "Point",
                "coordinates": [
                    22.92543,
                    54.1036
                ]
            },
            "properties": {
                "ref:rspo": 121251,
                "official_name": "Instytut Kszta\u0142cenia \"Forma\" w Suwa\u0142kach",
                "name": "Instytut Kszta\u0142cenia \"Forma\" w Suwa\u0142kach",
                "addr:country": "PL",
                "addr:postcode": "16-400",
                "addr:city": "Suwa\u0142ki",
                "addr:street": "Emilii Plater",
                "addr:housenumber": "18A",
                "addr:teryt:simc": 977456,
                "addr:teryt:sym_ul": 16451,
                "contact:phone": "+48 796161303",
                "contact:email": "biuro@forma.edu.pl",
                "ref:regon": "200825272",
                "operator": "Mir Consulting Sp\u00f3\u0142ka Z Ograniczon\u0105 Odpowiedzialno\u015bci\u0105 Sp\u00f3\u0142ka Komandytowa",
                "operator:type": "private",
                "fixme": "w zale\u017cno\u015bci od przedmiotu dzia\u0142alno\u015bci (np. amenity=training + training=*, amenity=dancing_school, amenity=language_school, amenity=music_school)"
            }
        },
        {
            "id": 27988,
            "type": "Feature",
            "geometry": {
                "type": "Point",
                "coordinates": [
                    22.9223399,
                    54.10383
                ]
            },
            "properties": {
                "ref:rspo": 27988,
                "official_name": "Przedszkole Nr 4 Z Oddzia\u0142em Integracyjnym w Suwa\u0142kach",
                "name": "Przedszkole Nr 4 Z Oddzia\u0142em Integracyjnym w Suwa\u0142kach",
                "addr:country": "PL",
                "addr:postcode": "16-400",
                "addr:city": "Suwa\u0142ki",
                "addr:street": "Marii Sk\u0142odowskiej-Curie",
                "addr:housenumber": "7",
                "addr:teryt:simc": 977456,
                "addr:teryt:sym_ul": 20068,
                "contact:phone": "+48 875679084",
                "contact:email": "sekretariat@p4.suwalki.eu",
                "contact:website": "http:\/\/www.przedszkole4.suwalki.pl",
                "ref:regon": "200404470",
                "ref:vatin": "PL8442338562",
                "operator": "Suwa\u0142ki - Miasto Na Prawach Powiatu",
                "operator:type": "government",
                "amenity": "kindergarten"
            }
        },
        {
            "id": 49699,
            "type": "Feature",
            "geometry": {
                "type": "Point",
                "coordinates": [
                    22.92323,
                    54.10392
                ]
            },
            "properties": {
                "isced:level": "1;2",
                "ref:rspo": 49699,
                "official_name": "Niepubliczna Terapeutyczna Szko\u0142a Podstawowa \"Bajka\" w Suwa\u0142kach",
                "name": "Niepubliczna Terapeutyczna Szko\u0142a Podstawowa \"Bajka\" w Suwa\u0142kach",
                "addr:country": "PL",
                "addr:postcode": "16-400",
                "addr:city": "Suwa\u0142ki",
                "addr:street": "Marii Sk\u0142odowskiej-Curie",
                "addr:housenumber": "5",
                "addr:teryt:simc": 977456,
                "addr:teryt:sym_ul": 20068,
                "contact:phone": "+48 514233065",
                "contact:email": "bajka@bajkasuwalki.pl",
                "contact:website": "http:\/\/www.bajkasuwalki.com",
                "ref:regon": "200737088",
                "ref:vatin": "PL8442313450",
                "operator": "Podlaskie Stowarzyszenie Terapeut\u00f3w",
                "operator:type": "ngo",
                "amenity": "school"
            }
        },
        {
            "id": 275492,
            "type": "Feature",
            "geometry": {
                "type": "Point",
                "coordinates": [
                    22.92508,
                    54.10404
                ]
            },
            "properties": {
                "ref:rspo": 275492,
                "official_name": "Niepubliczne Przedszkole \"Emelek\"",
                "name": "Niepubliczne Przedszkole \"Emelek\"",
                "addr:country": "PL",
                "addr:postcode": "16-400",
                "addr:city": "Suwa\u0142ki",
                "addr:street": "Emilii Plater",
                "addr:housenumber": "22",
                "addr:teryt:simc": 977456,
                "addr:teryt:sym_ul": 16451,
                "contact:email": "ml.suwalki@wp.pl",
                "ref:regon": "386923777",
                "operator": "Marzena Wolska",
                "operator:type": "private",
                "amenity": "kindergarten"
            }
        },
        {
            "id": 60310,
            "type": "Feature",
            "geometry": {
                "type": "Point",
                "coordinates": [
                    22.93659,
                    54.10424
                ]
            },
            "properties": {
                "ref:rspo": 60310,
                "official_name": "O\u015brodek Szkoleniowy w Suwa\u0142kach Stowarzyszenia Ksi\u0119gowych w Polsce",
                "name": "O\u015brodek Szkoleniowy w Suwa\u0142kach Stowarzyszenia Ksi\u0119gowych w Polsce",
                "addr:country": "PL",
                "addr:postcode": "16-400",
                "addr:city": "Suwa\u0142ki",
                "addr:street": "Utrata",
                "addr:housenumber": "2B",
                "addr:teryt:simc": 977456,
                "addr:teryt:sym_ul": 23452,
                "contact:phone": "+48 875662471",
                "contact:email": "biuro@suwalki.skwp.pl",
                "contact:website": "http:\/\/www.suwalki.skwp.pl",
                "ref:regon": "200737042",
                "operator": "Stowarzyszenie Ksi\u0119gowych W Polsce",
                "operator:type": "ngo",
                "fixme": "w zale\u017cno\u015bci od przedmiotu dzia\u0142alno\u015bci (np. amenity=training + training=*, amenity=dancing_school, amenity=language_school, amenity=music_school)"
            }
        },
        {
            "id": 30857,
            "type": "Feature",
            "geometry": {
                "type": "Point",
                "coordinates": [
                    22.91062,
                    54.10434
                ]
            },
            "properties": {
                "ref:rspo": 30857,
                "official_name": "Zesp\u00f3\u0142 Szk\u00f3\u0142 Nr 6 im. Karola Brzostowskiego w Suwa\u0142kach",
                "name": "Zesp\u00f3\u0142 Szk\u00f3\u0142 Nr 6",
                "addr:country": "PL",
                "addr:postcode": "16-400",
                "addr:city": "Suwa\u0142ki",
                "addr:street": "Genera\u0142a W\u0142adys\u0142awa Sikorskiego",
                "addr:housenumber": "21",
                "addr:teryt:simc": 977456,
                "addr:teryt:sym_ul": 38378,
                "contact:phone": "+48 875658570",
                "contact:email": "sekretariat@zs6.suwalki.eu",
                "contact:website": "http:\/\/www.zs6.pl",
                "ref:regon": "000405056",
                "ref:vatin": "PL8441284255",
                "operator": "Suwa\u0142ki - Miasto Na Prawach Powiatu",
                "operator:type": "government",
                "landuse": "education",
                "fixme": "amenity=school, amenity=college albo landuse=education w zale\u017cno\u015bci od tego, jakie plac\u00f3wki wchodz\u0105 w sk\u0142ad zespo\u0142u. Sprawd\u017a, kiedy stosowa\u0107 amenity=* a kiedy landuse=education.",
                "note": "Children RSPO: 49387;73150;130865"
            }
        },
        {
            "id": 49387,
            "type": "Feature",
            "geometry": {
                "type": "Point",
                "coordinates": [
                    22.91062,
                    54.10431
                ]
            },
            "properties": {
                "isced:level": "3",
                "ref:rspo": 49387,
                "official_name": "Bran\u017cowa Szko\u0142a I Stopnia Nr 2 w Suwa\u0142kach",
                "name": "Bran\u017cowa Szko\u0142a I Stopnia Nr 2 w Suwa\u0142kach",
                "addr:country": "PL",
                "addr:postcode": "16-400",
                "addr:city": "Suwa\u0142ki",
                "addr:street": "Genera\u0142a W\u0142adys\u0142awa Sikorskiego",
                "addr:housenumber": "21",
                "addr:teryt:simc": 977456,
                "addr:teryt:sym_ul": 38378,
                "contact:phone": "+48 875658570",
                "contact:email": "sekretariat@zs6.suwalki.eu",
                "contact:website": "http:\/\/www.zs6.pl",
                "ref:regon": "791037810",
                "ref:vatin": "PL8441284255",
                "operator": "Suwa\u0142ki - Miasto Na Prawach Powiatu",
                "operator:type": "government",
                "amenity": "school",
                "note": "Parent RSPO: 30857"
            }
        },
        {
            "id": 73150,
            "type": "Feature",
            "geometry": {
                "type": "Point",
                "coordinates": [
                    22.91062,
                    54.10428
                ]
            },
            "properties": {
                "isced:level": "3",
                "ref:rspo": 73150,
                "official_name": "Technikum Nr 2 w Suwa\u0142kach",
                "name": "Technikum Nr 2 w Suwa\u0142kach",
                "addr:country": "PL",
                "addr:postcode": "16-400",
                "addr:city": "Suwa\u0142ki",
                "addr:street": "Genera\u0142a W\u0142adys\u0142awa Sikorskiego",
                "addr:housenumber": "21",
                "addr:teryt:simc": 977456,
                "addr:teryt:sym_ul": 38378,
                "contact:phone": "+48 875658570",
                "contact:email": "sekretariat@zs6.suwalki.eu",
                "contact:website": "http:\/\/www.zs6.pl",
                "ref:regon": "791037795",
                "ref:vatin": "PL8441284255",
                "operator": "Suwa\u0142ki - Miasto Na Prawach Powiatu",
                "operator:type": "government",
                "amenity": "school",
                "note": "Parent RSPO: 30857"
            }
        },
        {
            "id": 130865,
            "type": "Feature",
            "geometry": {
                "type": "Point",
                "coordinates": [
                    22.91062,
                    54.10425
                ]
            },
            "properties": {
                "ref:rspo": 130865,
                "official_name": "Centrum Kszta\u0142cenia Zawodowego Nr 2 w Suwa\u0142kach",
                "name": "Centrum Kszta\u0142cenia Zawodowego Nr 2 w Suwa\u0142kach",
                "addr:country": "PL",
                "addr:postcode": "16-400",
                "addr:city": "Suwa\u0142ki",
                "addr:street": "Genera\u0142a W\u0142adys\u0142awa Sikorskiego",
                "addr:housenumber": "21",
                "addr:teryt:simc": 977456,
                "addr:teryt:sym_ul": 38378,
                "contact:phone": "+48 875658570",
                "contact:email": "sekretariat@zs6.suwalki.eu",
                "contact:website": "http:\/\/www.e.zs6.pl",
                "ref:regon": "364647716",
                "operator": "Suwa\u0142ki - Miasto Na Prawach Powiatu",
                "operator:type": "government",
                "fixme": "w zale\u017cno\u015bci od przedmiotu dzia\u0142alno\u015bci (np. amenity=training + training=*, amenity=dancing_school, amenity=language_school, amenity=music_school) albo amenity=school, amenity=college, albo landuse=education w zale\u017cno\u015bci od tego, jakie plac\u00f3wki wchodz\u0105 w sk\u0142ad zespo\u0142u. Sprawd\u017a, kiedy stosowa\u0107 amenity=* a kiedy landuse=education.",
                "note": "Parent RSPO: 30857"
            }
        },
        {
            "id": 12112,
            "type": "Feature",
            "geometry": {
                "type": "Point",
                "coordinates": [
                    22.9359,
                    54.1048
                ]
            },
            "properties": {
                "ref:rspo": 12112,
                "official_name": "Przedszkole Nr 3 im. Ojca \u015awi\u0119tego Jana Paw\u0142a II w Suwa\u0142kach",
                "name": "Przedszkole Nr 3",
                "addr:country": "PL",
                "addr:postcode": "16-400",
                "addr:city": "Suwa\u0142ki",
                "addr:street": "Janusza Korczaka",
                "addr:housenumber": "4A",
                "addr:teryt:simc": 977456,
                "addr:teryt:sym_ul": 9329,
                "contact:phone": "+48 875662157",
                "contact:email": "sekretariat@p3.suwalki.eu",
                "contact:website": "http:\/\/www.przedszkole3suwalki.info.pl",
                "ref:regon": "200407132",
                "ref:vatin": "PL8442338579",
                "operator": "Suwa\u0142ki - Miasto Na Prawach Powiatu",
                "operator:type": "government",
                "amenity": "kindergarten"
            }
        },
        {
            "id": 79056,
            "type": "Feature",
            "geometry": {
                "type": "Point",
                "coordinates": [
                    22.93065,
                    54.10504
                ]
            },
            "properties": {
                "ref:rspo": 79056,
                "official_name": "Prywatna Szko\u0142a Kierowc\u00f3w \"Jan Wasilewski\" w Suwa\u0142kach",
                "name": "Prywatna Szko\u0142a Kierowc\u00f3w \"Jan Wasilewski\" w Suwa\u0142kach",
                "addr:country": "PL",
                "addr:postcode": "16-400",
                "addr:city": "Suwa\u0142ki",
                "addr:street": "Teofila Noniewicza",
                "addr:housenumber": "93B",
                "addr:teryt:simc": 977456,
                "addr:teryt:sym_ul": 14307,
                "contact:phone": "+48 875663813",
                "contact:email": "janwasilewski@interia.pl",
                "ref:regon": "200741240",
                "ref:vatin": "PL8440003538",
                "operator": "Jan Wasilewski",
                "operator:type": "private",
                "fixme": "w zale\u017cno\u015bci od przedmiotu dzia\u0142alno\u015bci (np. amenity=training + training=*, amenity=dancing_school, amenity=language_school, amenity=music_school)"
            }
        },
        {
            "id": 263383,
            "type": "Feature",
            "geometry": {
                "type": "Point",
                "coordinates": [
                    22.91693,
                    54.10576
                ]
            },
            "properties": {
                "ref:rspo": 263383,
                "official_name": "Przedszkole Niepubliczne \"Chatka Nied\u017awiadka\" w Suwa\u0142kach",
                "name": "Przedszkole Niepubliczne \"Chatka Nied\u017awiadka\" w Suwa\u0142kach",
                "addr:country": "PL",
                "addr:postcode": "16-400",
                "addr:city": "Suwa\u0142ki",
                "addr:street": "Genera\u0142a W\u0142adys\u0142awa Sikorskiego",
                "addr:housenumber": "18",
                "addr:teryt:simc": 977456,
                "addr:teryt:sym_ul": 38378,
                "contact:phone": "+48 518747224",
                "contact:email": "ewaszalanda@gmail.com",
                "ref:regon": "368185715",
                "operator": "Ewa Sza\u0142anda",
                "operator:type": "private",
                "amenity": "kindergarten"
            }
        },
        {
            "id": 6396,
            "type": "Feature",
            "geometry": {
                "type": "Point",
                "coordinates": [
                    22.92762,
                    54.10608
                ]
            },
            "properties": {
                "ref:rspo": 6396,
                "official_name": "Przedszkole Niepubliczne \"Kosza\u0142kowo\" w Suwa\u0142kach",
                "name": "Przedszkole Niepubliczne \"Kosza\u0142kowo\" w Suwa\u0142kach",
                "addr:country": "PL",
                "addr:postcode": "16-400",
                "addr:city": "Suwa\u0142ki",
                "addr:street": "Tadeusza Ko\u015bciuszki",
                "addr:housenumber": "95",
                "addr:door": "1-2",
                "addr:teryt:simc": 977456,
                "addr:teryt:sym_ul": 9582,
                "contact:phone": "+48 605402969",
                "contact:email": "koszalkowo.suwalki@gmail.com",
                "contact:website": "http:\/\/www.koszalkowo.suwalki.pl",
                "ref:regon": "200720449",
                "operator": "Katarzyna Liszewska",
                "operator:type": "private",
                "amenity": "kindergarten"
            }
        },
        {
            "id": 12630,
            "type": "Feature",
            "geometry": {
                "type": "Point",
                "coordinates": [
                    22.945459365845,
                    54.106140136719
                ]
            },
            "properties": {
                "ref:rspo": 12630,
                "official_name": "Przedszkole Nr 1 w Suwa\u0142kach",
                "name": "Przedszkole Nr 1 w Suwa\u0142kach",
                "addr:country": "PL",
                "addr:postcode": "16-400",
                "addr:city": "Suwa\u0142ki",
                "addr:street": "Raczkowska",
                "addr:housenumber": "41",
                "addr:teryt:simc": 977456,
                "addr:teryt:sym_ul": 18280,
                "contact:phone": "+48 875664702",
                "contact:email": "sekretariat@p1.suwalki.eu",
                "contact:website": "http:\/\/www.przedszkole1suwalki.edupage.org",
                "ref:regon": "200402838",
                "ref:vatin": "PL8442338585",
                "operator": "Suwa\u0142ki - Miasto Na Prawach Powiatu",
                "operator:type": "government",
                "amenity": "kindergarten"
            }
        },
        {
            "id": 14253,
            "type": "Feature",
            "geometry": {
                "type": "Point",
                "coordinates": [
                    22.945459365845,
                    54.106110136718996
                ]
            },
            "properties": {
                "ref:rspo": 14253,
                "official_name": "Centrum Edukacji Nauczycieli w Suwa\u0142kach",
                "name": "Centrum Edukacji Nauczycieli w Suwa\u0142kach",
                "addr:country": "PL",
                "addr:postcode": "16-400",
                "addr:city": "Suwa\u0142ki",
                "addr:street": "Miko\u0142aja Reja",
                "addr:housenumber": "67B",
                "addr:teryt:simc": 977456,
                "addr:teryt:sym_ul": 18565,
                "contact:phone": "+48 875670328",
                "contact:email": "cen@cen.suwalki.pl",
                "contact:website": "http:\/\/cen.suwalki.pl",
                "ref:regon": "791015173",
                "ref:vatin": "PL8442046316",
                "operator": "Wojew\u00f3dztwo Podlaskie",
                "operator:type": "government",
                "landuse": "education",
                "fixme": "amenity=school, amenity=college albo landuse=education w zale\u017cno\u015bci od tego, jakie plac\u00f3wki wchodz\u0105 w sk\u0142ad zespo\u0142u. Sprawd\u017a, kiedy stosowa\u0107 amenity=* a kiedy landuse=education.",
                "note": "Children RSPO: 17115;17116"
            }
        },
        {
            "id": 14732,
            "type": "Feature",
            "geometry": {
                "type": "Point",
                "coordinates": [
                    22.945459365845,
                    54.106080136719
                ]
            },
            "properties": {
                "ref:rspo": 14732,
                "official_name": "Pa\u0144stwowa Szko\u0142a Muzyczna I I II St. w Suwa\u0142kach",
                "name": "Pa\u0144stwowa Szko\u0142a Muzyczna I I II St. w Suwa\u0142kach",
                "addr:country": "PL",
                "addr:postcode": "16-400",
                "addr:city": "Suwa\u0142ki",
                "addr:street": "Muzyczna",
                "addr:housenumber": "1",
                "addr:teryt:simc": 977456,
                "addr:teryt:sym_ul": 13521,
                "contact:phone": "+48 875664735",
                "contact:email": "sekretariat@psmsuwalki.pl",
                "contact:website": "http:\/\/psmsuwalki.pl",
                "ref:regon": "000280525",
                "ref:vatin": "PL8441089364",
                "operator": "Ministerstwo Kultury I Dziedzictwa Narodowego",
                "operator:type": "public",
                "landuse": "education",
                "fixme": "amenity=school, amenity=college albo landuse=education w zale\u017cno\u015bci od tego, jakie plac\u00f3wki wchodz\u0105 w sk\u0142ad zespo\u0142u. Sprawd\u017a, kiedy stosowa\u0107 amenity=* a kiedy landuse=education.",
                "note": "Children RSPO: 91993;91994"
            }
        },
        {
            "id": 269271,
            "type": "Feature",
            "geometry": {
                "type": "Point",
                "coordinates": [
                    22.945459365845,
                    54.106050136719
                ]
            },
            "properties": {
                "ref:rspo": 269271,
                "official_name": "Niepubliczna Terapeutyczna Szko\u0142a Przysposabiaj\u0105ca Do Pracy \"Prolog\"",
                "name": "Niepubliczna Terapeutyczna Szko\u0142a Przysposabiaj\u0105ca Do Pracy \"Prolog\"",
                "addr:country": "PL",
                "addr:postcode": "16-400",
                "addr:city": "Suwa\u0142ki",
                "addr:street": "Ludwika Micha\u0142a Paca",
                "addr:housenumber": "4",
                "addr:teryt:simc": 977456,
                "addr:teryt:sym_ul": 15501,
                "contact:email": "bajka@bajkasuwalki.pl",
                "ref:regon": "381443200",
                "operator": "Podlaskie Stowarzyszenie Terapeut\u00f3w",
                "operator:type": "ngo",
                "amenity": "school"
            }
        },
        {
            "id": 273363,
            "type": "Feature",
            "geometry": {
                "type": "Point",
                "coordinates": [
                    22.945459365845,
                    54.106020136718996
                ]
            },
            "properties": {
                "ref:rspo": 273363,
                "official_name": "Niepubliczne Przedszkole \"Kropka\"",
                "name": "Niepubliczne Przedszkole \"Kropka\"",
                "addr:country": "PL",
                "addr:postcode": "16-400",
                "addr:city": "Suwa\u0142ki",
                "addr:street": "Muzyczna",
                "addr:housenumber": "14",
                "addr:teryt:simc": 977456,
                "addr:teryt:sym_ul": 13521,
                "contact:email": "przedszkolekropka@wp.pl",
                "contact:website": "https:\/\/przedszkolekropka.suwalki.pl\/",
                "ref:regon": "384469676",
                "operator": "Fundacja \"U\u015bmiech Dziecka\"",
                "operator:type": "ngo",
                "amenity": "kindergarten"
            }
        },
        {
            "id": 17115,
            "type": "Feature",
            "geometry": {
                "type": "Point",
                "coordinates": [
                    22.945459365845,
                    54.105990136719
                ]
            },
            "properties": {
                "ref:rspo": 17115,
                "official_name": "O\u015brodek Doskonalenia Nauczycieli \nW Suwa\u0142kach",
                "name": "O\u015brodek Doskonalenia Nauczycieli \nW Suwa\u0142kach",
                "addr:country": "PL",
                "addr:postcode": "16-400",
                "addr:city": "Suwa\u0142ki",
                "addr:street": "Miko\u0142aja Reja",
                "addr:housenumber": "67B",
                "addr:teryt:simc": 977456,
                "addr:teryt:sym_ul": 18565,
                "contact:phone": "+48 875670328",
                "contact:email": "cen@cen.suwalki.pl",
                "contact:website": "http:\/\/cen.suwalki.pl",
                "ref:regon": "200729404",
                "operator": "Wojew\u00f3dztwo Podlaskie",
                "operator:type": "government",
                "amenity": "training",
                "note": "Parent RSPO: 14253"
            }
        },
        {
            "id": 17116,
            "type": "Feature",
            "geometry": {
                "type": "Point",
                "coordinates": [
                    22.945459365845,
                    54.105960136719
                ]
            },
            "properties": {
                "ref:rspo": 17116,
                "official_name": "Biblioteka Pedagogiczna w Suwa\u0142kach",
                "name": "Biblioteka Pedagogiczna w Suwa\u0142kach",
                "addr:country": "PL",
                "addr:postcode": "16-400",
                "addr:city": "Suwa\u0142ki",
                "addr:street": "Miko\u0142aja Reja",
                "addr:housenumber": "67A",
                "addr:teryt:simc": 977456,
                "addr:teryt:sym_ul": 18565,
                "contact:phone": "+48 875670328",
                "contact:email": "cen@cen.suwalki.pl",
                "contact:website": "http:\/\/cen.suwalki.pl",
                "ref:regon": "200729284",
                "operator": "Wojew\u00f3dztwo Podlaskie",
                "operator:type": "government",
                "amenity": "library",
                "note": "Parent RSPO: 14253"
            }
        },
        {
            "id": 91993,
            "type": "Feature",
            "geometry": {
                "type": "Point",
                "coordinates": [
                    22.945459365845,
                    54.105930136718996
                ]
            },
            "properties": {
                "ref:rspo": 91993,
                "official_name": "Pa\u0144stwowa Szko\u0142a Muzyczna I St. w Suwa\u0142kach",
                "name": "Pa\u0144stwowa Szko\u0142a Muzyczna I St. w Suwa\u0142kach",
                "addr:country": "PL",
                "addr:postcode": "16-400",
                "addr:city": "Suwa\u0142ki",
                "addr:street": "Muzyczna",
                "addr:housenumber": "1",
                "addr:teryt:simc": 977456,
                "addr:teryt:sym_ul": 13521,
                "contact:phone": "+48 875664735",
                "ref:regon": "200008857",
                "operator": "Ministerstwo Kultury I Dziedzictwa Narodowego",
                "operator:type": "public",
                "amenity": "music_school",
                "note": "Parent RSPO: 14732"
            }
        },
        {
            "id": 91994,
            "type": "Feature",
            "geometry": {
                "type": "Point",
                "coordinates": [
                    22.945459365845,
                    54.105900136719
                ]
            },
            "properties": {
                "ref:rspo": 91994,
                "official_name": "Pa\u0144stwowa Szko\u0142a Muzyczna II St. w Suwa\u0142kach",
                "name": "Pa\u0144stwowa Szko\u0142a Muzyczna II St. w Suwa\u0142kach",
                "addr:country": "PL",
                "addr:postcode": "16-400",
                "addr:city": "Suwa\u0142ki",
                "addr:street": "Muzyczna",
                "addr:housenumber": "1",
                "addr:teryt:simc": 977456,
                "addr:teryt:sym_ul": 13521,
                "contact:phone": "+48 875664735",
                "ref:regon": "200008840",
                "operator": "Ministerstwo Kultury I Dziedzictwa Narodowego",
                "operator:type": "public",
                "amenity": "music_school",
                "note": "Parent RSPO: 14732"
            }
        },
        {
            "id": 53287,
            "type": "Feature",
            "geometry": {
                "type": "Point",
                "coordinates": [
                    22.92822,
                    54.10619
                ]
            },
            "properties": {
                "isced:level": "1;2",
                "ref:rspo": 53287,
                "official_name": "Szko\u0142a Podstawowa Nr 2 Z Oddzia\u0142ami Dwuj\u0119zycznymi im. Aleksandry Pi\u0142sudskiej w Suwa\u0142kach",
                "name": "Szko\u0142a Podstawowa Nr 2 Z Oddzia\u0142ami Dwuj\u0119zycznymi",
                "addr:country": "PL",
                "addr:postcode": "16-400",
                "addr:city": "Suwa\u0142ki",
                "addr:street": "Tadeusza Ko\u015bciuszki",
                "addr:housenumber": "126",
                "addr:teryt:simc": 977456,
                "addr:teryt:sym_ul": 9582,
                "contact:phone": "+48 875662040",
                "contact:email": "sekretariat@sp2.suwalki.eu",
                "contact:website": "http:\/\/www.sp2.suwalki.pl",
                "ref:regon": "000891298",
                "ref:vatin": "PL8442175479",
                "operator": "Suwa\u0142ki - Miasto Na Prawach Powiatu",
                "operator:type": "government",
                "amenity": "school"
            }
        },
        {
            "id": 52683,
            "type": "Feature",
            "geometry": {
                "type": "Point",
                "coordinates": [
                    22.92759,
                    54.10667
                ]
            },
            "properties": {
                "ref:rspo": 52683,
                "official_name": "Centrum Szkolenia Zawodowego \"Uniwers\" w Suwa\u0142kach",
                "name": "Centrum Szkolenia Zawodowego \"Uniwers\" w Suwa\u0142kach",
                "addr:country": "PL",
                "addr:postcode": "16-400",
                "addr:city": "Suwa\u0142ki",
                "addr:street": "Tadeusza Ko\u015bciuszki",
                "addr:housenumber": "99",
                "addr:teryt:simc": 977456,
                "addr:teryt:sym_ul": 9582,
                "contact:phone": "+48 875664805",
                "contact:email": "cszuniwers@interia.pl",
                "ref:regon": "200741180",
                "ref:vatin": "PL8451063337",
                "operator": "Agnieszka Stankiewicz",
                "operator:type": "private",
                "fixme": "w zale\u017cno\u015bci od przedmiotu dzia\u0142alno\u015bci (np. amenity=training + training=*, amenity=dancing_school, amenity=language_school, amenity=music_school)"
            }
        },
        {
            "id": 11981,
            "type": "Feature",
            "geometry": {
                "type": "Point",
                "coordinates": [
                    22.9537,
                    54.10883
                ]
            },
            "properties": {
                "ref:rspo": 11981,
                "official_name": "Przedszkole Niepubliczne \"Omnibusek\" w Suwa\u0142kach",
                "name": "Przedszkole Niepubliczne \"Omnibusek\" w Suwa\u0142kach",
                "addr:country": "PL",
                "addr:postcode": "16-400",
                "addr:city": "Suwa\u0142ki",
                "addr:street": "P\u00f3\u0142nocna",
                "addr:housenumber": "26",
                "addr:teryt:simc": 977456,
                "addr:teryt:sym_ul": 17421,
                "contact:phone": "+48 509611464",
                "contact:email": "omnibusek.suwalki@wp.pl",
                "ref:regon": "200726096",
                "operator": "Hanna \u017bebrowska",
                "operator:type": "private",
                "amenity": "kindergarten"
            }
        },
        {
            "id": 49663,
            "type": "Feature",
            "geometry": {
                "type": "Point",
                "coordinates": [
                    22.925828933716,
                    54.109580993652
                ]
            },
            "properties": {
                "ref:rspo": 49663,
                "official_name": "O\u015brodek Szkoleniowy Centrum Nauki I Biznesu \"\u017bak\" w Suwa\u0142kach",
                "name": "O\u015brodek Szkoleniowy Centrum Nauki I Biznesu \"\u017bak\" w Suwa\u0142kach",
                "addr:country": "PL",
                "addr:postcode": "16-400",
                "addr:city": "Suwa\u0142ki",
                "addr:street": "Muzyczna",
                "addr:housenumber": "10",
                "addr:teryt:simc": 977456,
                "addr:teryt:sym_ul": 13521,
                "contact:phone": "+48 875663420",
                "contact:email": "suwalki@zak.edu.pl",
                "ref:regon": "200737444",
                "ref:vatin": "PL7292597869",
                "operator": "Centrum Nauki I Biznesu \"\u017bak\" Sp\u00f3\u0142ka Z Ograniczon\u0105 Odpowiedzialno\u015bci\u0105",
                "operator:type": "private",
                "fixme": "w zale\u017cno\u015bci od przedmiotu dzia\u0142alno\u015bci (np. amenity=training + training=*, amenity=dancing_school, amenity=language_school, amenity=music_school)"
            }
        },
        {
            "id": 53345,
            "type": "Feature",
            "geometry": {
                "type": "Point",
                "coordinates": [
                    22.925828933716,
                    54.109550993652
                ]
            },
            "properties": {
                "isced:level": "4",
                "ref:rspo": 53345,
                "official_name": "Szko\u0142a Policealna Centrum Nauki I Biznesu \"\u017bak\" w Suwa\u0142kach",
                "name": "Szko\u0142a Policealna Centrum Nauki I Biznesu \"\u017bak\" w Suwa\u0142kach",
                "addr:country": "PL",
                "addr:postcode": "16-400",
                "addr:city": "Suwa\u0142ki",
                "addr:street": "Muzyczna",
                "addr:housenumber": "10",
                "addr:teryt:simc": 977456,
                "addr:teryt:sym_ul": 13521,
                "contact:phone": "+48 875663420",
                "contact:email": "suwalki@zak.edu.pl",
                "contact:website": "http:\/\/suwalki.zak.edu.pl",
                "ref:regon": "200737467",
                "ref:vatin": "PL7292597869",
                "operator": "Centrum Nauki I Biznesu \"\u017bak\" Sp\u00f3\u0142ka Z Ograniczon\u0105 Odpowiedzialno\u015bci\u0105",
                "operator:type": "private",
                "amenity": "college"
            }
        },
        {
            "id": 56636,
            "type": "Feature",
            "geometry": {
                "type": "Point",
                "coordinates": [
                    22.925828933716,
                    54.109520993652005
                ]
            },
            "properties": {
                "isced:level": "3",
                "ref:rspo": 56636,
                "official_name": "Liceum Og\u00f3lnokszta\u0142c\u0105ce dla Doros\u0142ych \"\u017bak\" w Suwa\u0142kach",
                "name": "Liceum Og\u00f3lnokszta\u0142c\u0105ce dla Doros\u0142ych \"\u017bak\" w Suwa\u0142kach",
                "addr:country": "PL",
                "addr:postcode": "16-400",
                "addr:city": "Suwa\u0142ki",
                "addr:street": "Muzyczna",
                "addr:housenumber": "10",
                "addr:teryt:simc": 977456,
                "addr:teryt:sym_ul": 13521,
                "contact:phone": "+48 875663420",
                "contact:email": "suwalki@zak.edu.pl",
                "ref:regon": "200738930",
                "ref:vatin": "PL7292597869",
                "operator": "Centrum Nauki I Biznesu \"\u017bak\" Sp\u00f3\u0142ka Z Ograniczon\u0105 Odpowiedzialno\u015bci\u0105",
                "operator:type": "private",
                "amenity": "school"
            }
        },
        {
            "id": 73177,
            "type": "Feature",
            "geometry": {
                "type": "Point",
                "coordinates": [
                    22.925828933716,
                    54.109490993652
                ]
            },
            "properties": {
                "isced:level": "4",
                "ref:rspo": 73177,
                "official_name": "Szko\u0142a Policealna Kosmetyki \"\u017bak\" w Suwa\u0142kach",
                "name": "Szko\u0142a Policealna Kosmetyki \"\u017bak\" w Suwa\u0142kach",
                "addr:country": "PL",
                "addr:postcode": "16-400",
                "addr:city": "Suwa\u0142ki",
                "addr:street": "Muzyczna",
                "addr:housenumber": "10",
                "addr:teryt:simc": 977456,
                "addr:teryt:sym_ul": 13521,
                "contact:phone": "+48 875663420",
                "contact:email": "suwalki@zak.edu.pl",
                "contact:website": "https:\/\/zak.edu.pl\/",
                "ref:regon": "200739673",
                "ref:vatin": "PL7292597869",
                "operator": "Centrum Nauki I Biznesu \"\u017bak\" Sp\u00f3\u0142ka Z Ograniczon\u0105 Odpowiedzialno\u015bci\u0105",
                "operator:type": "private",
                "amenity": "college"
            }
        },
        {
            "id": 279005,
            "type": "Feature",
            "geometry": {
                "type": "Point",
                "coordinates": [
                    22.925828933716,
                    54.109460993652
                ]
            },
            "properties": {
                "isced:level": "4",
                "ref:rspo": 279005,
                "official_name": "Szko\u0142a Policealna Opieki Medycznej \"\u017bak\" w Suwa\u0142kach",
                "name": "Szko\u0142a Policealna Opieki Medycznej \"\u017bak\" w Suwa\u0142kach",
                "addr:country": "PL",
                "addr:postcode": "16-400",
                "addr:city": "Suwa\u0142ki",
                "addr:street": "Muzyczna",
                "addr:housenumber": "10",
                "addr:teryt:simc": 977456,
                "addr:teryt:sym_ul": 13521,
                "contact:phone": "+48 875663420",
                "contact:email": "suwalki@zak.edu.pl",
                "ref:regon": "520397638",
                "operator": "Centrum Nauki I Biznesu \"\u017bak\" Sp\u00f3\u0142ka Z Ograniczon\u0105 Odpowiedzialno\u015bci\u0105",
                "operator:type": "private",
                "amenity": "college"
            }
        },
        {
            "id": 130750,
            "type": "Feature",
            "geometry": {
                "type": "Point",
                "coordinates": [
                    22.93891,
                    54.11039
                ]
            },
            "properties": {
                "ref:rspo": 130750,
                "official_name": "Niepubliczne Przedszkole \"Mali Odkrywcy\" w Suwa\u0142kach",
                "name": "Niepubliczne Przedszkole \"Mali Odkrywcy\" w Suwa\u0142kach",
                "addr:country": "PL",
                "addr:postcode": "16-400",
                "addr:city": "Suwa\u0142ki",
                "addr:street": "Modrzewiowa",
                "addr:housenumber": "23",
                "addr:teryt:simc": 977456,
                "addr:teryt:sym_ul": 13184,
                "contact:phone": "+48 515581754",
                "contact:email": "biuro.maliodkrywcy@onet.pl",
                "ref:regon": "364467960",
                "ref:vatin": "PL8441893959",
                "operator": "Brygida Brzozowska",
                "operator:type": "private",
                "amenity": "kindergarten"
            }
        },
        {
            "id": 119405,
            "type": "Feature",
            "geometry": {
                "type": "Point",
                "coordinates": [
                    22.93808,
                    54.11058
                ]
            },
            "properties": {
                "ref:rspo": 119405,
                "official_name": "Centrum Terapii \"Jeste\u015bmy Razem\" Niepubliczna Poradnia Psychologiczno - Pedagogiczna w Suwa\u0142kach",
                "name": "Centrum Terapii \"Jeste\u015bmy Razem\" Niepubliczna Poradnia Psychologiczno - Pedagogiczna w Suwa\u0142kach",
                "addr:country": "PL",
                "addr:postcode": "16-400",
                "addr:city": "Suwa\u0142ki",
                "addr:street": "Karola Brzostowskiego",
                "addr:housenumber": "4",
                "addr:teryt:simc": 977456,
                "addr:teryt:sym_ul": 2271,
                "contact:phone": "+48 512484856",
                "contact:email": "stowarzyszenie-jestesmyrazem@wp.pl",
                "contact:website": "http:\/\/www.jestesmy-razem.pl",
                "ref:regon": "200805170",
                "operator": "Stowarzyszenie Przyjaci\u00f3\u0142 Dzieci \"Jeste\u015bmy Razem\"",
                "operator:type": "ngo",
                "healthcare": "counselling",
                "counselling_type": "education",
                "fixme": "w zale\u017cno\u015bci od przedmiotu dzia\u0142alno\u015bci (np. healthcare=counselling + counselling_type=education albo healthcare=psychotherapist)"
            }
        },
        {
            "id": 263247,
            "type": "Feature",
            "geometry": {
                "type": "Point",
                "coordinates": [
                    22.93808,
                    54.110549999999996
                ]
            },
            "properties": {
                "ref:rspo": 263247,
                "official_name": "Niepubliczne Przedszkole Terapeutyczne \"Koniczynka\" w Suwa\u0142kach",
                "name": "Niepubliczne Przedszkole Terapeutyczne \"Koniczynka\" w Suwa\u0142kach",
                "addr:country": "PL",
                "addr:postcode": "16-400",
                "addr:city": "Suwa\u0142ki",
                "addr:street": "Karola Brzostowskiego",
                "addr:housenumber": "4",
                "addr:teryt:simc": 977456,
                "addr:teryt:sym_ul": 2271,
                "contact:phone": "+48 512484856",
                "contact:email": "stowarzyszenie-jestesmyrazem@wp.pl",
                "ref:regon": "368178939",
                "operator": "Stowarzyszenie Przyjaci\u00f3\u0142 Dzieci \"Jeste\u015bmy Razem\"",
                "operator:type": "ngo",
                "amenity": "kindergarten"
            }
        },
        {
            "id": 34348,
            "type": "Feature",
            "geometry": {
                "type": "Point",
                "coordinates": [
                    22.9206,
                    54.1132
                ]
            },
            "properties": {
                "ref:rspo": 34348,
                "official_name": "Zesp\u00f3\u0142 Szk\u00f3\u0142 Centrum Kszta\u0142cenia Rolniczego im. Wincentego Witosa w Suwa\u0142kach",
                "name": "Zesp\u00f3\u0142 Szk\u00f3\u0142 Centrum Kszta\u0142cenia Rolniczego",
                "addr:country": "PL",
                "addr:postcode": "16-400",
                "addr:city": "Suwa\u0142ki",
                "addr:street": "Ogrodowa",
                "addr:housenumber": "49",
                "addr:teryt:simc": 977456,
                "addr:teryt:sym_ul": 14834,
                "contact:phone": "+48 875679081",
                "contact:email": "zsckrsuw@suwalki.eta.pl",
                "contact:website": "http:\/\/www.zs7.edu.pl",
                "ref:regon": "000098772",
                "ref:vatin": "PL8441043741",
                "operator": "Ministerstwo Rolnictwa I Rozwoju Wsi",
                "operator:type": "public",
                "landuse": "education",
                "fixme": "amenity=school, amenity=college albo landuse=education w zale\u017cno\u015bci od tego, jakie plac\u00f3wki wchodz\u0105 w sk\u0142ad zespo\u0142u. Sprawd\u017a, kiedy stosowa\u0107 amenity=* a kiedy landuse=education.",
                "note": "Children RSPO: 85057;85058;119900"
            }
        },
        {
            "id": 85057,
            "type": "Feature",
            "geometry": {
                "type": "Point",
                "coordinates": [
                    22.9206,
                    54.11317
                ]
            },
            "properties": {
                "isced:level": "3",
                "ref:rspo": 85057,
                "official_name": "Technikum w Suwa\u0142kach",
                "name": "Technikum w Suwa\u0142kach",
                "addr:country": "PL",
                "addr:postcode": "16-400",
                "addr:city": "Suwa\u0142ki",
                "addr:street": "Ogrodowa",
                "addr:housenumber": "49",
                "addr:teryt:simc": 977456,
                "addr:teryt:sym_ul": 14834,
                "contact:phone": "+48 875679081",
                "contact:email": "sekretariat@zs7.edu.pl",
                "contact:website": "http:\/\/www.zs7.edu.pl",
                "ref:regon": "791039558",
                "operator": "Ministerstwo Rolnictwa I Rozwoju Wsi",
                "operator:type": "public",
                "amenity": "school",
                "note": "Parent RSPO: 34348"
            }
        },
        {
            "id": 85058,
            "type": "Feature",
            "geometry": {
                "type": "Point",
                "coordinates": [
                    22.9206,
                    54.11314
                ]
            },
            "properties": {
                "isced:level": "3",
                "ref:rspo": 85058,
                "official_name": "Bran\u017cowa Szko\u0142a I Stopnia w Suwa\u0142kach",
                "name": "Bran\u017cowa Szko\u0142a I Stopnia w Suwa\u0142kach",
                "addr:country": "PL",
                "addr:postcode": "16-400",
                "addr:city": "Suwa\u0142ki",
                "addr:street": "Ogrodowa",
                "addr:housenumber": "49",
                "addr:teryt:simc": 977456,
                "addr:teryt:sym_ul": 14834,
                "contact:phone": "+48 875679081",
                "contact:email": "sekretariat@zs7.edu.pl",
                "contact:website": "http:\/\/www.zs7.edu.pl",
                "ref:regon": "791039535",
                "operator": "Ministerstwo Rolnictwa I Rozwoju Wsi",
                "operator:type": "public",
                "amenity": "school",
                "note": "Parent RSPO: 34348"
            }
        },
        {
            "id": 119900,
            "type": "Feature",
            "geometry": {
                "type": "Point",
                "coordinates": [
                    22.9206,
                    54.11311
                ]
            },
            "properties": {
                "ref:rspo": 119900,
                "official_name": "Centrum Kszta\u0142cenia Ustawicznego w Suwa\u0142kach",
                "name": "Centrum Kszta\u0142cenia Ustawicznego w Suwa\u0142kach",
                "addr:country": "PL",
                "addr:postcode": "16-400",
                "addr:city": "Suwa\u0142ki",
                "addr:street": "Ogrodowa",
                "addr:housenumber": "49",
                "addr:teryt:simc": 977456,
                "addr:teryt:sym_ul": 14834,
                "contact:phone": "+48 875679081",
                "contact:email": "zsckrsuw@suwalki.eta.pl",
                "contact:website": "http:\/\/www.zs7.edu.pl",
                "ref:regon": "200807222",
                "operator": "Ministerstwo Rolnictwa I Rozwoju Wsi",
                "operator:type": "public",
                "fixme": "w zale\u017cno\u015bci od przedmiotu dzia\u0142alno\u015bci (np. amenity=training + training=*, amenity=dancing_school, amenity=language_school, amenity=music_school)",
                "note": "Parent RSPO: 34348"
            }
        },
        {
            "id": 268776,
            "type": "Feature",
            "geometry": {
                "type": "Point",
                "coordinates": [
                    22.96605,
                    54.11418
                ]
            },
            "properties": {
                "ref:rspo": 268776,
                "official_name": "Niepubliczne Dwuj\u0119zyczne Przedszkole Kids&Co. w Suwa\u0142kach",
                "name": "Niepubliczne Dwuj\u0119zyczne Przedszkole Kids&Co. w Suwa\u0142kach",
                "addr:country": "PL",
                "addr:postcode": "16-400",
                "addr:city": "Suwa\u0142ki",
                "addr:street": "P\u00f3\u0142nocna",
                "addr:housenumber": "34a",
                "addr:teryt:simc": 977456,
                "addr:teryt:sym_ul": 17421,
                "contact:email": "monika.ciak@kids-co.pl",
                "ref:regon": "381266398",
                "operator": "Centrum Rozwoju Dziecka Sp\u00f3\u0142ka Z Ograniczon\u0105 Odpowiedzialno\u015bci\u0105",
                "operator:type": "private",
                "amenity": "kindergarten"
            }
        },
        {
            "id": 130733,
            "type": "Feature",
            "geometry": {
                "type": "Point",
                "coordinates": [
                    22.94711,
                    54.11494
                ]
            },
            "properties": {
                "ref:rspo": 130733,
                "official_name": "Niepubliczna Poradnia Psychologiczno - Pedagogiczna Edusa w Suwa\u0142kach",
                "name": "Niepubliczna Poradnia Psychologiczno - Pedagogiczna Edusa w Suwa\u0142kach",
                "addr:country": "PL",
                "addr:postcode": "16-400",
                "addr:city": "Suwa\u0142ki",
                "addr:street": "Klonowa",
                "addr:housenumber": "40",
                "addr:door": "U5",
                "addr:teryt:simc": 977456,
                "addr:teryt:sym_ul": 8574,
                "contact:phone": "+48 606788252",
                "contact:email": "nppp.edusa@onet.pl",
                "ref:regon": "364444485",
                "operator": "Agnieszka Miller",
                "operator:type": "private",
                "healthcare": "counselling",
                "counselling_type": "education",
                "fixme": "w zale\u017cno\u015bci od przedmiotu dzia\u0142alno\u015bci (np. healthcare=counselling + counselling_type=education albo healthcare=psychotherapist)"
            }
        },
        {
            "id": 26832,
            "type": "Feature",
            "geometry": {
                "type": "Point",
                "coordinates": [
                    22.94341,
                    54.11641
                ]
            },
            "properties": {
                "ref:rspo": 26832,
                "official_name": "Poradnia Psychologiczno - Pedagogiczna w Suwa\u0142kach",
                "name": "Poradnia Psychologiczno - Pedagogiczna w Suwa\u0142kach",
                "addr:country": "PL",
                "addr:postcode": "16-400",
                "addr:city": "Suwa\u0142ki",
                "addr:street": "Nowomiejska",
                "addr:housenumber": "10",
                "addr:teryt:simc": 977456,
                "addr:teryt:sym_ul": 14444,
                "contact:phone": "+48 875664149",
                "contact:email": "sekretariat@ppp.suwalki.eu",
                "contact:website": "http:\/\/www.poradnia-suwalki.pl",
                "ref:regon": "000892719",
                "ref:vatin": "PL8441816232",
                "operator": "Suwa\u0142ki - Miasto Na Prawach Powiatu",
                "operator:type": "government",
                "healthcare": "counselling",
                "counselling_type": "education",
                "fixme": "w zale\u017cno\u015bci od przedmiotu dzia\u0142alno\u015bci (np. healthcare=counselling + counselling_type=education albo healthcare=psychotherapist)"
            }
        },
        {
            "id": 49362,
            "type": "Feature",
            "geometry": {
                "type": "Point",
                "coordinates": [
                    22.9479599,
                    54.11728
                ]
            },
            "properties": {
                "isced:level": "1;2",
                "ref:rspo": 49362,
                "official_name": "Szko\u0142a Podstawowa Nr 5 im. Alfreda Wierusz-Kowalskiego w Suwa\u0142kach",
                "name": "Szko\u0142a Podstawowa Nr 5",
                "addr:country": "PL",
                "addr:postcode": "16-400",
                "addr:city": "Suwa\u0142ki",
                "addr:street": "Klonowa",
                "addr:housenumber": "51",
                "addr:teryt:simc": 977456,
                "addr:teryt:sym_ul": 8574,
                "contact:phone": "+48 875675140",
                "contact:email": "sekretariat@sp5.suwalki.eu",
                "contact:website": "http:\/\/www.sp5.suwalki.pl",
                "ref:regon": "000891275",
                "ref:vatin": "PL8442176289",
                "operator": "Suwa\u0142ki - Miasto Na Prawach Powiatu",
                "operator:type": "government",
                "amenity": "school"
            }
        },
        {
            "id": 268769,
            "type": "Feature",
            "geometry": {
                "type": "Point",
                "coordinates": [
                    22.94332,
                    54.11785
                ]
            },
            "properties": {
                "ref:rspo": 268769,
                "official_name": "Niepubliczny Punkt Przedszkolny \"Ogr\u00f3deczek\"",
                "name": "Niepubliczny Punkt Przedszkolny \"Ogr\u00f3deczek\"",
                "addr:country": "PL",
                "addr:postcode": "16-400",
                "addr:city": "Suwa\u0142ki",
                "addr:street": "Nowomiejska",
                "addr:housenumber": "3A",
                "addr:door": "lok. II",
                "addr:teryt:simc": 977456,
                "addr:teryt:sym_ul": 14444,
                "contact:email": "ogrodeczek.suwalki@gmail.com",
                "ref:regon": "381266346",
                "operator": "Ma\u0142gorzata Rusinek",
                "operator:type": "private",
                "amenity": "kindergarten"
            }
        },
        {
            "id": 29044,
            "type": "Feature",
            "geometry": {
                "type": "Point",
                "coordinates": [
                    22.9319,
                    54.1183
                ]
            },
            "properties": {
                "ref:rspo": 29044,
                "official_name": "Przedszkole Nr 5 Z Oddzia\u0142em Integracyjnym w Suwa\u0142kach",
                "name": "Przedszkole Nr 5 Z Oddzia\u0142em Integracyjnym w Suwa\u0142kach",
                "addr:country": "PL",
                "addr:postcode": "16-400",
                "addr:city": "Suwa\u0142ki",
                "addr:street": "Wincentego Witosa",
                "addr:housenumber": "4",
                "addr:teryt:simc": 977456,
                "addr:teryt:sym_ul": 24459,
                "contact:phone": "+48 875677629",
                "contact:email": "sekretariat@p5.suwalki.eu",
                "contact:website": "http:\/\/przedszkole5.suwalki.pl\/",
                "ref:regon": "200403281",
                "ref:vatin": "PL8442338326",
                "operator": "Suwa\u0142ki - Miasto Na Prawach Powiatu",
                "operator:type": "government",
                "amenity": "kindergarten"
            }
        },
        {
            "id": 12145,
            "type": "Feature",
            "geometry": {
                "type": "Point",
                "coordinates": [
                    22.9445799,
                    54.11851
                ]
            },
            "properties": {
                "ref:rspo": 12145,
                "official_name": "Przedszkole Nr 10 im. Marii Konopnickiej w Suwa\u0142kach",
                "name": "Przedszkole Nr 10",
                "addr:country": "PL",
                "addr:postcode": "16-400",
                "addr:city": "Suwa\u0142ki",
                "addr:street": "Nowomiejska",
                "addr:housenumber": "18",
                "addr:teryt:simc": 977456,
                "addr:teryt:sym_ul": 14444,
                "contact:phone": "+48 875673026",
                "contact:email": "sekretariat@p10.suwalki.eu",
                "contact:website": "http:\/\/www.przedszkole10suwalki.edupage.org",
                "ref:regon": "200396405",
                "ref:vatin": "PL8442337976",
                "operator": "Suwa\u0142ki - Miasto Na Prawach Powiatu",
                "operator:type": "government",
                "amenity": "kindergarten"
            }
        },
        {
            "id": 8186,
            "type": "Feature",
            "geometry": {
                "type": "Point",
                "coordinates": [
                    22.94634,
                    54.11935
                ]
            },
            "properties": {
                "ref:rspo": 8186,
                "official_name": "Akademia Dzieci Ciekawych \u015awiata Niepubliczne Przedszkole w Suwa\u0142kach",
                "name": "Akademia Dzieci Ciekawych \u015awiata Niepubliczne Przedszkole w Suwa\u0142kach",
                "addr:country": "PL",
                "addr:postcode": "16-400",
                "addr:city": "Suwa\u0142ki",
                "addr:street": "Emila M\u0142ynarskiego",
                "addr:housenumber": "2",
                "addr:teryt:simc": 977456,
                "addr:teryt:sym_ul": 13115,
                "contact:phone": "+48 502383841",
                "contact:email": "sekretariat@akademiadcs.edu.pl",
                "contact:website": "http:\/\/www.akademiadcs.pl",
                "ref:regon": "200724134",
                "operator": "Krystyna Ryszkiewicz",
                "operator:type": "private",
                "amenity": "kindergarten"
            }
        },
        {
            "id": 8248,
            "type": "Feature",
            "geometry": {
                "type": "Point",
                "coordinates": [
                    22.94634,
                    54.119319999999995
                ]
            },
            "properties": {
                "isced:level": "1;2",
                "ref:rspo": 8248,
                "official_name": "Niepubliczna Szko\u0142a Podstawowa w Suwa\u0142kach",
                "name": "Niepubliczna Szko\u0142a Podstawowa w Suwa\u0142kach",
                "addr:country": "PL",
                "addr:postcode": "16-400",
                "addr:city": "Suwa\u0142ki",
                "addr:street": "Emila M\u0142ynarskiego",
                "addr:housenumber": "2",
                "addr:teryt:simc": 977456,
                "addr:teryt:sym_ul": 13115,
                "contact:phone": "+48 502383841",
                "contact:email": "sekretariat@akademiadcs.edu.pl",
                "contact:website": "http:\/\/www.akademiadcs.pl",
                "ref:regon": "200724192",
                "operator": "Krystyna Ryszkiewicz",
                "operator:type": "private",
                "amenity": "school"
            }
        },
        {
            "id": 126654,
            "type": "Feature",
            "geometry": {
                "type": "Point",
                "coordinates": [
                    22.94634,
                    54.11929
                ]
            },
            "properties": {
                "isced:level": "3",
                "ref:rspo": 126654,
                "official_name": "Prywatne Liceum Og\u00f3lnokszta\u0142c\u0105ce w Suwa\u0142kach",
                "name": "Prywatne Liceum Og\u00f3lnokszta\u0142c\u0105ce w Suwa\u0142kach",
                "addr:country": "PL",
                "addr:postcode": "16-400",
                "addr:city": "Suwa\u0142ki",
                "addr:street": "Emila M\u0142ynarskiego",
                "addr:housenumber": "2",
                "addr:teryt:simc": 977456,
                "addr:teryt:sym_ul": 13115,
                "contact:phone": "+48 502383841",
                "contact:email": "sekretariat@akademiadcs.edu.pl",
                "ref:regon": "360590534",
                "operator": "Krystyna Ryszkiewicz",
                "operator:type": "private",
                "amenity": "school"
            }
        },
        {
            "id": 73153,
            "type": "Feature",
            "geometry": {
                "type": "Point",
                "coordinates": [
                    22.93194,
                    54.11996
                ]
            },
            "properties": {
                "isced:level": "1;2",
                "ref:rspo": 73153,
                "official_name": "Szko\u0142a Podstawowa Nr 10 Z Oddzia\u0142ami Integracyjnymi im. Olimpijczyk\u00f3w Polskich w Suwa\u0142kach",
                "name": "Szko\u0142a Podstawowa Nr 10 Z Oddzia\u0142ami Integracyjnymi",
                "addr:country": "PL",
                "addr:postcode": "16-400",
                "addr:city": "Suwa\u0142ki",
                "addr:street": "Jerzego Antoniewicza",
                "addr:housenumber": "5",
                "addr:teryt:simc": 977456,
                "addr:teryt:sym_ul": 354,
                "contact:phone": "+48 875677405",
                "contact:email": "sekretariat@sp10.suwalki.eu",
                "contact:website": "http:\/\/www.zs10suwalki.pl",
                "ref:regon": "001415217",
                "ref:vatin": "PL8442288901",
                "operator": "Suwa\u0142ki - Miasto Na Prawach Powiatu",
                "operator:type": "government",
                "amenity": "school"
            }
        },
        {
            "id": 278406,
            "type": "Feature",
            "geometry": {
                "type": "Point",
                "coordinates": [
                    22.94439,
                    54.12076
                ]
            },
            "properties": {
                "ref:rspo": 278406,
                "official_name": "Przedszkole Niepubliczne \"Mali Bohaterowie\" w Suwa\u0142kach",
                "name": "Przedszkole Niepubliczne \"Mali Bohaterowie\" w Suwa\u0142kach",
                "addr:country": "PL",
                "addr:postcode": "16-400",
                "addr:city": "Suwa\u0142ki",
                "addr:street": "Micha\u0142a Kleofasa Ogi\u0144skiego",
                "addr:housenumber": "4",
                "addr:door": "135",
                "addr:teryt:simc": 977456,
                "addr:teryt:sym_ul": 14812,
                "contact:email": "fundacjadiarice@gmail.com",
                "ref:regon": "389881074",
                "operator": "Fundacja \"Diarice\"",
                "operator:type": "ngo",
                "amenity": "kindergarten"
            }
        },
        {
            "id": 278749,
            "type": "Feature",
            "geometry": {
                "type": "Point",
                "coordinates": [
                    22.92318,
                    54.12218
                ]
            },
            "properties": {
                "ref:rspo": 278749,
                "official_name": "Niepubliczne Przedszkole \"U Kubusia Puchatka\" w Suwa\u0142kach",
                "name": "Niepubliczne Przedszkole \"U Kubusia Puchatka\" w Suwa\u0142kach",
                "addr:country": "PL",
                "addr:postcode": "16-400",
                "addr:city": "Suwa\u0142ki",
                "addr:street": "Ignacego Daszy\u0144skiego",
                "addr:housenumber": "27B",
                "addr:teryt:simc": 977456,
                "addr:teryt:sym_ul": 3639,
                "contact:email": "e.kudosz@o2.pl",
                "ref:regon": "520067220",
                "operator": "El\u017cbieta Baranowska",
                "operator:type": "private",
                "amenity": "kindergarten"
            }
        },
        {
            "id": 114830,
            "type": "Feature",
            "geometry": {
                "type": "Point",
                "coordinates": [
                    22.9348,
                    54.12221
                ]
            },
            "properties": {
                "ref:rspo": 114830,
                "official_name": "Przedszkole Niepubliczne \"Chatka Puchatka\" w Suwa\u0142kach",
                "name": "Przedszkole Niepubliczne \"Chatka Puchatka\" w Suwa\u0142kach",
                "addr:country": "PL",
                "addr:postcode": "16-400",
                "addr:city": "Suwa\u0142ki",
                "addr:street": "Romualda Minkiewicza",
                "addr:housenumber": "2",
                "addr:teryt:simc": 977456,
                "addr:teryt:sym_ul": 12980,
                "contact:phone": "+48 518747224",
                "contact:email": "ewaszalanda@gmail.com",
                "ref:regon": "200787229",
                "ref:vatin": "PL8441913366",
                "operator": "Ewa Sza\u0142anda",
                "operator:type": "private",
                "amenity": "kindergarten"
            }
        },
        {
            "id": 122839,
            "type": "Feature",
            "geometry": {
                "type": "Point",
                "coordinates": [
                    22.9247799,
                    54.12234
                ]
            },
            "properties": {
                "ref:rspo": 122839,
                "official_name": "Przedszkole Niepubliczne Z Oddzia\u0142ami Integracyjnymi \"S\u0142oneczko\" w Suwa\u0142kach",
                "name": "Przedszkole Niepubliczne Z Oddzia\u0142ami Integracyjnymi \"S\u0142oneczko\" w Suwa\u0142kach",
                "addr:country": "PL",
                "addr:postcode": "16-400",
                "addr:city": "Suwa\u0142ki",
                "addr:street": "Ignacego Daszy\u0144skiego",
                "addr:housenumber": "25C",
                "addr:door": "lok. 1",
                "addr:teryt:simc": 977456,
                "addr:teryt:sym_ul": 3639,
                "contact:phone": "+48 516783319",
                "contact:email": "sloneczko.suwalki@onet.pl",
                "contact:website": "http:\/\/www.przedszkolesuwalki.pl",
                "ref:regon": "200849462",
                "operator": "Luiza Kundzicz",
                "operator:type": "private",
                "amenity": "kindergarten"
            }
        },
        {
            "id": 26765,
            "type": "Feature",
            "geometry": {
                "type": "Point",
                "coordinates": [
                    22.93758,
                    54.12242
                ]
            },
            "properties": {
                "ref:rspo": 26765,
                "official_name": "Przedszkole Nr 8 Z Oddzia\u0142ami Integracyjnymi w Suwa\u0142kach",
                "name": "Przedszkole Nr 8 Z Oddzia\u0142ami Integracyjnymi w Suwa\u0142kach",
                "addr:country": "PL",
                "addr:postcode": "16-400",
                "addr:city": "Suwa\u0142ki",
                "addr:street": "Aleksandra Putry",
                "addr:housenumber": "4B",
                "addr:teryt:simc": 977456,
                "addr:teryt:sym_ul": 18214,
                "contact:phone": "+48 875671554",
                "contact:email": "sekretariat@p8.suwalki.eu",
                "contact:website": "http:\/\/www.przeds8.webd.pl",
                "ref:regon": "200403105",
                "ref:vatin": "PL8442338817",
                "operator": "Suwa\u0142ki - Miasto Na Prawach Powiatu",
                "operator:type": "government",
                "amenity": "kindergarten"
            }
        },
        {
            "id": 30121,
            "type": "Feature",
            "geometry": {
                "type": "Point",
                "coordinates": [
                    22.92233,
                    54.12343
                ]
            },
            "properties": {
                "isced:level": "1;2",
                "ref:rspo": 30121,
                "official_name": "Szko\u0142a Podstawowa Nr 11 Z Oddzia\u0142ami Integracyjnymi w Suwa\u0142kach",
                "name": "Szko\u0142a Podstawowa Nr 11 Z Oddzia\u0142ami Integracyjnymi w Suwa\u0142kach",
                "addr:country": "PL",
                "addr:postcode": "16-400",
                "addr:city": "Suwa\u0142ki",
                "addr:street": "Szpitalna",
                "addr:housenumber": "66",
                "addr:teryt:simc": 977456,
                "addr:teryt:sym_ul": 22073,
                "contact:phone": "+48 875678063",
                "contact:email": "sekretariat@sp11.suwalki.eu",
                "contact:website": "http:\/\/www.sp11suwalki.pl",
                "ref:regon": "790367310",
                "ref:vatin": "PL8441844151",
                "operator": "Suwa\u0142ki - Miasto Na Prawach Powiatu",
                "operator:type": "government",
                "amenity": "school"
            }
        },
        {
            "id": 12246,
            "type": "Feature",
            "geometry": {
                "type": "Point",
                "coordinates": [
                    22.9399,
                    54.12432
                ]
            },
            "properties": {
                "ref:rspo": 12246,
                "official_name": "Przedszkole Nr 7 w Suwa\u0142kach",
                "name": "Przedszkole Nr 7 w Suwa\u0142kach",
                "addr:country": "PL",
                "addr:postcode": "16-400",
                "addr:city": "Suwa\u0142ki",
                "addr:street": "Genera\u0142a W\u0142adys\u0142awa Andersa",
                "addr:housenumber": "10",
                "addr:teryt:simc": 977456,
                "addr:teryt:sym_ul": 39357,
                "contact:phone": "+48 875672589",
                "contact:email": "sekretariat@p7.suwalki.eu",
                "contact:website": "http:\/\/www.przedszkole7.suwalki.pl",
                "ref:regon": "200403097",
                "ref:vatin": "PL8442338800",
                "operator": "Suwa\u0142ki - Miasto Na Prawach Powiatu",
                "operator:type": "government",
                "amenity": "kindergarten"
            }
        },
        {
            "id": 68453,
            "type": "Feature",
            "geometry": {
                "type": "Point",
                "coordinates": [
                    22.93547,
                    54.12437
                ]
            },
            "properties": {
                "isced:level": "1;2",
                "ref:rspo": 68453,
                "official_name": "Szko\u0142a Podstawowa Nr 7 im. \u015aw. Jana Paw\u0142a II w Suwa\u0142kach",
                "name": "Szko\u0142a Podstawowa Nr 7",
                "addr:country": "PL",
                "addr:postcode": "16-400",
                "addr:city": "Suwa\u0142ki",
                "addr:street": "Romualda Minkiewicza",
                "addr:housenumber": "50",
                "addr:teryt:simc": 977456,
                "addr:teryt:sym_ul": 12980,
                "contact:phone": "+48 875671075",
                "contact:email": "sekretariat.sp7@zs7.suwalki.eu",
                "contact:website": "https:\/\/sp7suwalki.edupage.org",
                "ref:regon": "001110179",
                "ref:vatin": "PL8442350764",
                "operator": "Suwa\u0142ki - Miasto Na Prawach Powiatu",
                "operator:type": "government",
                "amenity": "school"
            }
        },
        {
            "id": 60103,
            "type": "Feature",
            "geometry": {
                "type": "Point",
                "coordinates": [
                    22.9259999,
                    54.12475
                ]
            },
            "properties": {
                "ref:rspo": 60103,
                "official_name": "O\u015brodek Kszta\u0142cenia Zawodowego Top 2001 w Suwa\u0142kach",
                "name": "O\u015brodek Kszta\u0142cenia Zawodowego Top 2001 w Suwa\u0142kach",
                "addr:country": "PL",
                "addr:postcode": "16-400",
                "addr:city": "Suwa\u0142ki",
                "addr:street": "Ignacego Daszy\u0144skiego",
                "addr:housenumber": "5",
                "addr:teryt:simc": 977456,
                "addr:teryt:sym_ul": 3639,
                "contact:phone": "+48 875658043",
                "contact:email": "biuro@top2001.org.pl",
                "ref:regon": "200737020",
                "operator": "\"Top 2001\" Sp\u00f3\u0142ka Z Ograniczon\u0105 Odpowiedzialno\u015bci\u0105",
                "operator:type": "private",
                "fixme": "w zale\u017cno\u015bci od przedmiotu dzia\u0142alno\u015bci (np. amenity=training + training=*, amenity=dancing_school, amenity=language_school, amenity=music_school)"
            }
        },
        {
            "id": 12441,
            "type": "Feature",
            "geometry": {
                "type": "Point",
                "coordinates": [
                    22.9339,
                    54.12539
                ]
            },
            "properties": {
                "ref:rspo": 12441,
                "official_name": "Przedszkole Nr 6 w Suwa\u0142kach",
                "name": "Przedszkole Nr 6 w Suwa\u0142kach",
                "addr:country": "PL",
                "addr:postcode": "16-400",
                "addr:city": "Suwa\u0142ki",
                "addr:street": "Alfreda Wierusza-Kowalskiego",
                "addr:housenumber": "19",
                "addr:teryt:simc": 977456,
                "addr:teryt:sym_ul": 24150,
                "contact:phone": "+48 875674294",
                "contact:email": "sekretariat@p6.suwalki.eu",
                "contact:website": "http:\/\/www.przedszkole_nr_6republika.pl",
                "ref:regon": "200403950",
                "ref:vatin": "PL8442338556",
                "operator": "Suwa\u0142ki - Miasto Na Prawach Powiatu",
                "operator:type": "government",
                "amenity": "kindergarten"
            }
        }
    ]
}