{
    "type": "FeatureCollection",
    "features": [
        {
            "id": 66152,
            "type": "Feature",
            "geometry": {
                "type": "Point",
                "coordinates": [
                    16.95393,
                    51.65227
                ]
            },
            "properties": {
                "ref:rspo": 66152,
                "official_name": "Przedszkole w Miejskiej G\u00f3rce",
                "name": "Przedszkole w Miejskiej G\u00f3rce",
                "addr:country": "PL",
                "addr:postcode": "63-910",
                "addr:city": "Miejska G\u00f3rka",
                "addr:street": "Ignacego Paderewskiego",
                "addr:housenumber": "26",
                "addr:teryt:simc": 15529,
                "addr:teryt:sym_ul": 954550,
                "contact:phone": "+48 655474453",
                "contact:email": "przedszkole@miejskagorka.eu",
                "ref:regon": "410271380",
                "ref:vatin": "PL6991808030",
                "operator": "Gmina Miejska G\u00f3rka",
                "operator:type": "government",
                "amenity": "kindergarten"
            }
        },
        {
            "id": 66151,
            "type": "Feature",
            "geometry": {
                "type": "Point",
                "coordinates": [
                    16.9587499,
                    51.653
                ]
            },
            "properties": {
                "isced:level": "1;2",
                "ref:rspo": 66151,
                "official_name": "Szko\u0142a Podstawowa im. Marii Konopnickiej w Miejskiej G\u00f3rce",
                "name": "Szko\u0142a Podstawowa",
                "addr:country": "PL",
                "addr:postcode": "63-910",
                "addr:city": "Miejska G\u00f3rka",
                "addr:street": "Marii Konopnickiej",
                "addr:housenumber": "14",
                "addr:teryt:simc": 9186,
                "addr:teryt:sym_ul": 954550,
                "contact:phone": "+48 655474125",
                "contact:email": "sekretariat@zsmg.info",
                "contact:website": "http:\/\/www.zsmg.info",
                "ref:regon": "411129313",
                "ref:vatin": "PL6991772332",
                "operator": "Gmina Miejska G\u00f3rka",
                "operator:type": "government",
                "amenity": "school",
                "note": "Parent RSPO: 40060"
            }
        },
        {
            "id": 40060,
            "type": "Feature",
            "geometry": {
                "type": "Point",
                "coordinates": [
                    16.96075,
                    51.65391
                ]
            },
            "properties": {
                "ref:rspo": 40060,
                "official_name": "Zesp\u00f3\u0142 Szk\u00f3\u0142 im. Stanis\u0142awa Miko\u0142ajczyka w Miejskiej G\u00f3rce",
                "name": "Zesp\u00f3\u0142 Szk\u00f3\u0142",
                "addr:country": "PL",
                "addr:postcode": "63-910",
                "addr:city": "Miejska G\u00f3rka",
                "addr:street": "Marii Konopnickiej",
                "addr:housenumber": "3",
                "addr:teryt:simc": 9186,
                "addr:teryt:sym_ul": 954550,
                "contact:phone": "+48 655474125",
                "contact:email": "sekretariat@zsmg.info",
                "contact:website": "http:\/\/www.zsmg.info",
                "ref:regon": "411129299",
                "ref:vatin": "PL6991772326",
                "operator": "Gmina Miejska G\u00f3rka",
                "operator:type": "government",
                "landuse": "education",
                "fixme": "amenity=school, amenity=college albo landuse=education w zale\u017cno\u015bci od tego, jakie plac\u00f3wki wchodz\u0105 w sk\u0142ad zespo\u0142u. Sprawd\u017a, kiedy stosowa\u0107 amenity=* a kiedy landuse=education.",
                "note": "Children RSPO: 66151;69252;69805;70365"
            }
        },
        {
            "id": 69252,
            "type": "Feature",
            "geometry": {
                "type": "Point",
                "coordinates": [
                    16.96075,
                    51.65388
                ]
            },
            "properties": {
                "isced:level": "3",
                "ref:rspo": 69252,
                "official_name": "Bran\u017cowa Szko\u0142a I Stopnia w Miejskiej G\u00f3rce",
                "name": "Bran\u017cowa Szko\u0142a I Stopnia w Miejskiej G\u00f3rce",
                "addr:country": "PL",
                "addr:postcode": "63-910",
                "addr:city": "Miejska G\u00f3rka",
                "addr:street": "Marii Konopnickiej",
                "addr:housenumber": "3",
                "addr:teryt:simc": 9186,
                "addr:teryt:sym_ul": 954550,
                "contact:phone": "+48 655474125",
                "contact:email": "sekretariat@zsmg.info",
                "contact:website": "http:\/\/www.zsmg.info",
                "ref:regon": "411493757",
                "operator": "Gmina Miejska G\u00f3rka",
                "operator:type": "government",
                "amenity": "school",
                "note": "Parent RSPO: 40060"
            }
        },
        {
            "id": 69805,
            "type": "Feature",
            "geometry": {
                "type": "Point",
                "coordinates": [
                    16.96075,
                    51.653850000000006
                ]
            },
            "properties": {
                "isced:level": "3",
                "ref:rspo": 69805,
                "official_name": "Liceum Og\u00f3lnokszta\u0142c\u0105ce w Miejskiej G\u00f3rce",
                "name": "Liceum Og\u00f3lnokszta\u0142c\u0105ce w Miejskiej G\u00f3rce",
                "addr:country": "PL",
                "addr:postcode": "63-910",
                "addr:city": "Miejska G\u00f3rka",
                "addr:street": "Marii Konopnickiej",
                "addr:housenumber": "3",
                "addr:teryt:simc": 9186,
                "addr:teryt:sym_ul": 954550,
                "contact:phone": "+48 655474125",
                "contact:email": "sekretariat@zsmg.info",
                "contact:website": "http:\/\/www.zsmg.info",
                "ref:regon": "411493711",
                "operator": "Gmina Miejska G\u00f3rka",
                "operator:type": "government",
                "amenity": "school",
                "note": "Parent RSPO: 40060"
            }
        },
        {
            "id": 70365,
            "type": "Feature",
            "geometry": {
                "type": "Point",
                "coordinates": [
                    16.96075,
                    51.65382
                ]
            },
            "properties": {
                "isced:level": "3",
                "ref:rspo": 70365,
                "official_name": "Liceum Og\u00f3lnokszta\u0142c\u0105ce dla Doros\u0142ych w Miejskiej G\u00f3rce",
                "name": "Liceum Og\u00f3lnokszta\u0142c\u0105ce dla Doros\u0142ych w Miejskiej G\u00f3rce",
                "addr:country": "PL",
                "addr:postcode": "63-910",
                "addr:city": "Miejska G\u00f3rka",
                "addr:street": "Marii Konopnickiej",
                "addr:housenumber": "3",
                "addr:teryt:simc": 9186,
                "addr:teryt:sym_ul": 954550,
                "contact:phone": "+48 655474125",
                "contact:email": "sekretariat@zsmg.info",
                "contact:website": "http:\/\/www.zsmg.info",
                "ref:regon": "302260150",
                "operator": "Gmina Miejska G\u00f3rka",
                "operator:type": "government",
                "amenity": "school",
                "note": "Parent RSPO: 40060"
            }
        },
        {
            "id": 13346,
            "type": "Feature",
            "geometry": {
                "type": "Point",
                "coordinates": [
                    16.95903968811,
                    51.655258178711
                ]
            },
            "properties": {
                "ref:rspo": 13346,
                "official_name": "Niepubliczne Przedszkole \"Tuptup\"",
                "name": "Niepubliczne Przedszkole \"Tuptup\"",
                "addr:country": "PL",
                "addr:postcode": "63-910",
                "addr:city": "Miejska G\u00f3rka",
                "addr:street": "Niepodleg\u0142o\u015bci",
                "addr:housenumber": "21a",
                "addr:teryt:simc": 14203,
                "addr:teryt:sym_ul": 954550,
                "contact:phone": "+48 605287684",
                "contact:email": "przedszkole@tuptup.info",
                "ref:regon": "302211602",
                "operator": "Marzena Nawrocka",
                "operator:type": "private",
                "amenity": "kindergarten"
            }
        },
        {
            "id": 66153,
            "type": "Feature",
            "geometry": {
                "type": "Point",
                "coordinates": [
                    17.03581,
                    51.65598
                ]
            },
            "properties": {
                "ref:rspo": 66153,
                "official_name": "Przedszkole w Konarach",
                "name": "Przedszkole w Konarach",
                "addr:country": "PL",
                "addr:postcode": "63-910",
                "addr:place": "Konary",
                "addr:housenumber": "48",
                "addr:teryt:sym_ul": 373267,
                "contact:phone": "+48 655477723",
                "contact:email": "przedszkolekonary@o2.pl",
                "ref:regon": "410271397",
                "ref:vatin": "PL6991725545",
                "operator": "Gmina Miejska G\u00f3rka",
                "operator:type": "government",
                "amenity": "kindergarten",
                "note": "Parent RSPO: 272364"
            }
        },
        {
            "id": 272364,
            "type": "Feature",
            "geometry": {
                "type": "Point",
                "coordinates": [
                    17.03803,
                    51.65743
                ]
            },
            "properties": {
                "ref:rspo": 272364,
                "official_name": "Zesp\u00f3\u0142 Szkolno-Przedszkolny w Konarach",
                "name": "Zesp\u00f3\u0142 Szkolno-Przedszkolny w Konarach",
                "addr:country": "PL",
                "addr:postcode": "63-910",
                "addr:place": "Konary",
                "addr:housenumber": "56",
                "addr:teryt:sym_ul": 373267,
                "contact:phone": "+48 655477795",
                "contact:email": "zskonary@wp.pl",
                "ref:regon": "384152063",
                "operator": "Gmina Miejska G\u00f3rka",
                "operator:type": "government",
                "landuse": "education",
                "fixme": "amenity=school, amenity=college albo landuse=education w zale\u017cno\u015bci od tego, jakie plac\u00f3wki wchodz\u0105 w sk\u0142ad zespo\u0142u. Sprawd\u017a, kiedy stosowa\u0107 amenity=* a kiedy landuse=education.",
                "note": "Children RSPO: 66153;81585"
            }
        },
        {
            "id": 81585,
            "type": "Feature",
            "geometry": {
                "type": "Point",
                "coordinates": [
                    17.03803,
                    51.657399999999996
                ]
            },
            "properties": {
                "isced:level": "1;2",
                "ref:rspo": 81585,
                "official_name": "Szko\u0142a Podstawowa w Konarach",
                "name": "Szko\u0142a Podstawowa w Konarach",
                "addr:country": "PL",
                "addr:postcode": "63-910",
                "addr:place": "Konary",
                "addr:housenumber": "56",
                "addr:teryt:sym_ul": 373267,
                "contact:phone": "+48 655477795",
                "contact:email": "zskonary@wp.pl",
                "ref:regon": "001118488",
                "ref:vatin": "PL6991909558",
                "operator": "Gmina Miejska G\u00f3rka",
                "operator:type": "government",
                "amenity": "school",
                "note": "Parent RSPO: 272364"
            }
        },
        {
            "id": 66150,
            "type": "Feature",
            "geometry": {
                "type": "Point",
                "coordinates": [
                    16.99284,
                    51.66781
                ]
            },
            "properties": {
                "isced:level": "1;2",
                "ref:rspo": 66150,
                "official_name": "Szko\u0142a Podstawowa w Sobia\u0142kowie",
                "name": "Szko\u0142a Podstawowa w Sobia\u0142kowie",
                "addr:country": "PL",
                "addr:postcode": "63-910",
                "addr:place": "Sobia\u0142kowo",
                "addr:housenumber": "95",
                "addr:teryt:sym_ul": 373416,
                "contact:phone": "+48 655474124",
                "contact:email": "spsob@op.pl",
                "ref:regon": "001118471",
                "ref:vatin": "PL6991725522",
                "operator": "Gmina Miejska G\u00f3rka",
                "operator:type": "government",
                "amenity": "school"
            }
        },
        {
            "id": 40612,
            "type": "Feature",
            "geometry": {
                "type": "Point",
                "coordinates": [
                    17.07471,
                    51.6884299
                ]
            },
            "properties": {
                "ref:rspo": 40612,
                "official_name": "Zesp\u00f3\u0142 Szk\u00f3\u0142 w D\u0142oni",
                "name": "Zesp\u00f3\u0142 Szk\u00f3\u0142 w D\u0142oni",
                "addr:country": "PL",
                "addr:postcode": "63-910",
                "addr:place": "D\u0142o\u0144",
                "addr:housenumber": "53",
                "addr:teryt:sym_ul": 373132,
                "contact:phone": "+48 655477869",
                "contact:email": "spdlon@wp.pl",
                "contact:website": "http:\/\/www.zsdlon.szkolnastrona.pl",
                "ref:regon": "411530808",
                "ref:vatin": "PL6991923802",
                "operator": "Gmina Miejska G\u00f3rka",
                "operator:type": "government",
                "landuse": "education",
                "fixme": "amenity=school, amenity=college albo landuse=education w zale\u017cno\u015bci od tego, jakie plac\u00f3wki wchodz\u0105 w sk\u0142ad zespo\u0142u. Sprawd\u017a, kiedy stosowa\u0107 amenity=* a kiedy landuse=education.",
                "note": "Children RSPO: 68135;81618"
            }
        },
        {
            "id": 68135,
            "type": "Feature",
            "geometry": {
                "type": "Point",
                "coordinates": [
                    17.07471,
                    51.6883999
                ]
            },
            "properties": {
                "isced:level": "1;2",
                "ref:rspo": 68135,
                "official_name": "Szko\u0142a Podstawowa w D\u0142oni",
                "name": "Szko\u0142a Podstawowa w D\u0142oni",
                "addr:country": "PL",
                "addr:postcode": "63-910",
                "addr:place": "D\u0142o\u0144",
                "addr:housenumber": "53",
                "addr:teryt:sym_ul": 373132,
                "contact:phone": "+48 655477869",
                "contact:email": "spdlon@wp.pl",
                "contact:website": "http:\/\/www.zsdlon.szkolnastrona.pl",
                "ref:regon": "001118494",
                "ref:vatin": "PL6991725775",
                "operator": "Gmina Miejska G\u00f3rka",
                "operator:type": "government",
                "amenity": "school",
                "note": "Parent RSPO: 40612"
            }
        },
        {
            "id": 81618,
            "type": "Feature",
            "geometry": {
                "type": "Point",
                "coordinates": [
                    17.07299,
                    51.68888
                ]
            },
            "properties": {
                "ref:rspo": 81618,
                "official_name": "Przedszkole w D\u0142oni",
                "name": "Przedszkole w D\u0142oni",
                "addr:country": "PL",
                "addr:postcode": "63-910",
                "addr:place": "D\u0142o\u0144",
                "addr:housenumber": "56",
                "addr:teryt:sym_ul": 373132,
                "contact:phone": "+48 655477813",
                "contact:email": "spdlon@wp.pl",
                "ref:regon": "410271411",
                "ref:vatin": "PL6991725539",
                "operator": "Gmina Miejska G\u00f3rka",
                "operator:type": "government",
                "amenity": "kindergarten",
                "note": "Parent RSPO: 40612"
            }
        }
    ]
}