{
    "type": "FeatureCollection",
    "features": [
        {
            "id": 273064,
            "type": "Feature",
            "geometry": {
                "type": "Point",
                "coordinates": [
                    17.04944,
                    51.58464
                ]
            },
            "properties": {
                "isced:level": "1;2",
                "ref:rspo": 273064,
                "official_name": "Filia Szko\u0142y Podstawowej w Pakos\u0142awiu",
                "name": "Filia Szko\u0142y Podstawowej w Pakos\u0142awiu",
                "addr:postcode": "63-920",
                "addr:city": "Sowy",
                "addr:street": "Letniskowa",
                "addr:housenumber": "75",
                "addr:city:simc": 374166,
                "addr:street:sym_ul": 10972,
                "phone": "+48 655478502",
                "email": "szkola@sppakoslaw.pl",
                "ref:regon": "107185800",
                "operator": "Gmina Pakos\u0142aw",
                "operator:type": "government",
                "amenity": "school",
                "note": "Parent RSPO: 71860"
            }
        },
        {
            "id": 71864,
            "type": "Feature",
            "geometry": {
                "type": "Point",
                "coordinates": [
                    17.05658,
                    51.61815
                ]
            },
            "properties": {
                "ref:rspo": 71864,
                "official_name": "Przedszkole w Pakos\u0142awiu",
                "name": "Przedszkole w Pakos\u0142awiu",
                "addr:postcode": "63-920",
                "addr:city": "Pakos\u0142aw",
                "addr:street": "Parkowa",
                "addr:housenumber": "2",
                "addr:city:simc": 374137,
                "addr:street:sym_ul": 15710,
                "phone": "+48 655478722",
                "email": "przedszkole.pakoslaw@wp.pl",
                "website": "http:\/\/www.przedszkole.pakoslaw.pl",
                "ref:regon": "410280309",
                "ref:vatin": "PL6991563574",
                "operator": "Gmina Pakos\u0142aw",
                "operator:type": "government",
                "amenity": "kindergarten"
            }
        },
        {
            "id": 71860,
            "type": "Feature",
            "geometry": {
                "type": "Point",
                "coordinates": [
                    17.061,
                    51.61838
                ]
            },
            "properties": {
                "isced:level": "1;2",
                "ref:rspo": 71860,
                "official_name": "Szko\u0142a Podstawowa im. Marii Sk\u0142odowskiej-Curie w Pakos\u0142awiu",
                "name": "Szko\u0142a Podstawowa",
                "addr:postcode": "63-920",
                "addr:city": "Pakos\u0142aw",
                "addr:street": "Parkowa",
                "addr:housenumber": "15",
                "addr:city:simc": 374137,
                "addr:street:sym_ul": 15710,
                "phone": "+48 655478502",
                "email": "szkola@sppakoslaw.pl",
                "ref:regon": "001071858",
                "ref:vatin": "PL6991561813",
                "operator": "Gmina Pakos\u0142aw",
                "operator:type": "government",
                "amenity": "school",
                "note": "Children RSPO: 273064"
            }
        },
        {
            "id": 71861,
            "type": "Feature",
            "geometry": {
                "type": "Point",
                "coordinates": [
                    17.01971,
                    51.62412
                ]
            },
            "properties": {
                "isced:level": "1;2",
                "ref:rspo": 71861,
                "official_name": "Szko\u0142a Podstawowa w Chojnie",
                "name": "Szko\u0142a Podstawowa w Chojnie",
                "addr:postcode": "63-921",
                "addr:place": "Chojno",
                "addr:housenumber": "6a",
                "addr:city:simc": 374048,
                "phone": "+48 655478716",
                "email": "spchojno@wp.pl",
                "website": "http:\/\/www.spchojno.pl",
                "ref:regon": "001202310",
                "ref:vatin": "PL6991687804",
                "operator": "Gmina Pakos\u0142aw",
                "operator:type": "government",
                "amenity": "school"
            }
        },
        {
            "id": 71865,
            "type": "Feature",
            "geometry": {
                "type": "Point",
                "coordinates": [
                    17.01971,
                    51.624089999999995
                ]
            },
            "properties": {
                "ref:rspo": 71865,
                "official_name": "Przedszkole w Chojnie",
                "name": "Przedszkole w Chojnie",
                "addr:postcode": "63-921",
                "addr:place": "Chojno",
                "addr:housenumber": "6a",
                "addr:city:simc": 374048,
                "phone": "+48 655478488",
                "email": "chojno.przedszkole@gmail.com",
                "website": "http:\/\/www.przedszkolewchojnie.republika.pl",
                "ref:regon": "410280315",
                "ref:vatin": "PL6991687827",
                "operator": "Gmina Pakos\u0142aw",
                "operator:type": "government",
                "amenity": "kindergarten"
            }
        }
    ]
}