{
    "type": "FeatureCollection",
    "features": [
        {
            "id": 132712,
            "type": "Feature",
            "geometry": {
                "type": "Point",
                "coordinates": [
                    16.94723,
                    51.5722
                ]
            },
            "properties": {
                "ref:rspo": 132712,
                "official_name": "Zesp\u00f3\u0142 Szkolno-Przedszkolny w Zielonej Wsi",
                "name": "Zesp\u00f3\u0142 Szkolno-Przedszkolny w Zielonej Wsi",
                "addr:postcode": "63-900",
                "addr:place": "Zielona Wie\u015b",
                "addr:housenumber": "72",
                "addr:city:simc": 376001,
                "phone": "+48 655451226",
                "email": "spzielonawies@rawicz.eu",
                "website": "http:\/\/www.spzielonawies.edupage.org",
                "ref:regon": "366092151",
                "operator": "Gmina Rawicz",
                "operator:type": "government",
                "landuse": "education",
                "fixme": "amenity=school, amenity=college albo landuse=education w zale\u017cno\u015bci od tego, jakie plac\u00f3wki wchodz\u0105 w sk\u0142ad zespo\u0142u. Sprawd\u017a, kiedy stosowa\u0107 amenity=* a kiedy landuse=education.",
                "note": "Children RSPO: 30634;131282"
            }
        },
        {
            "id": 30634,
            "type": "Feature",
            "geometry": {
                "type": "Point",
                "coordinates": [
                    16.94723,
                    51.57217
                ]
            },
            "properties": {
                "isced:level": "1;2",
                "ref:rspo": 30634,
                "official_name": "Szko\u0142a Podstawowa im. Powsta\u0144c\u00f3w Wielkopolskich w Zielonej Wsi",
                "name": "Szko\u0142a Podstawowa",
                "addr:postcode": "63-900",
                "addr:place": "Zielona Wie\u015b",
                "addr:housenumber": "72",
                "addr:city:simc": 376001,
                "phone": "+48 655451226",
                "email": "spzielonawies@rawicz.eu",
                "ref:regon": "000739780",
                "ref:vatin": "PL6991028941",
                "operator": "Gmina Rawicz",
                "operator:type": "government",
                "amenity": "school",
                "note": "Parent RSPO: 132712"
            }
        },
        {
            "id": 131282,
            "type": "Feature",
            "geometry": {
                "type": "Point",
                "coordinates": [
                    16.97381,
                    51.58465
                ]
            },
            "properties": {
                "ref:rspo": 131282,
                "official_name": "Przedszkole w Ugodzie",
                "name": "Przedszkole w Ugodzie",
                "addr:postcode": "63-900",
                "addr:place": "Ugoda",
                "addr:housenumber": "40",
                "addr:city:simc": 375958,
                "phone": "+48 655451226",
                "ref:regon": "365084439",
                "operator": "Gmina Rawicz",
                "operator:type": "government",
                "amenity": "kindergarten",
                "note": "Parent RSPO: 132712"
            }
        },
        {
            "id": 267854,
            "type": "Feature",
            "geometry": {
                "type": "Point",
                "coordinates": [
                    16.8776,
                    51.58662
                ]
            },
            "properties": {
                "ref:rspo": 267854,
                "official_name": "Przedszkole w D\u0119bnie Polskim",
                "name": "Przedszkole w D\u0119bnie Polskim",
                "addr:postcode": "63-900",
                "addr:city": "D\u0119bno Polskie",
                "addr:street": "Rawicka",
                "addr:housenumber": "27",
                "addr:city:simc": 375705,
                "addr:street:sym_ul": 18495,
                "phone": "+48 655451615",
                "email": "zpszymanowie@rawicz.eu",
                "ref:regon": "380708842",
                "operator": "Gmina Rawicz",
                "operator:type": "government",
                "amenity": "kindergarten",
                "note": "Parent RSPO: 269983"
            }
        },
        {
            "id": 44546,
            "type": "Feature",
            "geometry": {
                "type": "Point",
                "coordinates": [
                    16.85709,
                    51.60046
                ]
            },
            "properties": {
                "ref:rspo": 44546,
                "official_name": "Niepubliczne Przedszkole Ma\u0142ych Odkrywc\u00f3w",
                "name": "Niepubliczne Przedszkole Ma\u0142ych Odkrywc\u00f3w",
                "addr:postcode": "93-900",
                "addr:city": "Rawicz",
                "addr:street": "D\u0142uga",
                "addr:housenumber": "29",
                "addr:city:simc": 954604,
                "addr:street:sym_ul": 3839,
                "phone": "+48 656141685",
                "email": "przedszkolerawicz@wp.pl",
                "website": "http:\/\/www.przedszkole.grt.pl\/",
                "ref:regon": "302260240",
                "ref:vatin": "PL9291367944",
                "operator": "Ma\u0142gorzata Nowak",
                "operator:type": "private",
                "amenity": "kindergarten"
            }
        },
        {
            "id": 132710,
            "type": "Feature",
            "geometry": {
                "type": "Point",
                "coordinates": [
                    16.82903,
                    51.60338
                ]
            },
            "properties": {
                "ref:rspo": 132710,
                "official_name": "Zesp\u00f3\u0142 Szkolno-Przedszkolny w Mas\u0142owie",
                "name": "Zesp\u00f3\u0142 Szkolno-Przedszkolny w Mas\u0142owie",
                "addr:postcode": "63-900",
                "addr:city": "Mas\u0142owo",
                "addr:street": "\u015al\u0105ska",
                "addr:housenumber": "58",
                "addr:city:simc": 375792,
                "addr:street:sym_ul": 22308,
                "phone": "+48 655461560",
                "email": "spmaslowo@rawicz.eu",
                "website": "http:\/\/www.spmaslowo.rawicz.pl",
                "ref:regon": "366092079",
                "operator": "Gmina Rawicz",
                "operator:type": "government",
                "landuse": "education",
                "fixme": "amenity=school, amenity=college albo landuse=education w zale\u017cno\u015bci od tego, jakie plac\u00f3wki wchodz\u0105 w sk\u0142ad zespo\u0142u. Sprawd\u017a, kiedy stosowa\u0107 amenity=* a kiedy landuse=education.",
                "note": "Children RSPO: 30620;131279"
            }
        },
        {
            "id": 30620,
            "type": "Feature",
            "geometry": {
                "type": "Point",
                "coordinates": [
                    16.82903,
                    51.60335
                ]
            },
            "properties": {
                "isced:level": "1;2",
                "ref:rspo": 30620,
                "official_name": "Szko\u0142a Podstawowa w Mas\u0142owie",
                "name": "Szko\u0142a Podstawowa w Mas\u0142owie",
                "addr:postcode": "63-900",
                "addr:city": "Mas\u0142owo",
                "addr:street": "\u015al\u0105ska",
                "addr:housenumber": "58",
                "addr:city:simc": 375792,
                "addr:street:sym_ul": 22308,
                "phone": "+48 655461560",
                "email": "spmaslowo@rawicz.eu",
                "website": "http:\/\/www.spmaslowo.rawicz.pl",
                "ref:regon": "411430550",
                "ref:vatin": "PL6991828558",
                "operator": "Gmina Rawicz",
                "operator:type": "government",
                "amenity": "school",
                "note": "Parent RSPO: 132710"
            }
        },
        {
            "id": 131279,
            "type": "Feature",
            "geometry": {
                "type": "Point",
                "coordinates": [
                    16.82903,
                    51.603320000000004
                ]
            },
            "properties": {
                "ref:rspo": 131279,
                "official_name": "Przedszkole w Mas\u0142owie",
                "name": "Przedszkole w Mas\u0142owie",
                "addr:postcode": "63-900",
                "addr:city": "Mas\u0142owo",
                "addr:street": "\u015al\u0105ska",
                "addr:housenumber": "58",
                "addr:city:simc": 375792,
                "addr:street:sym_ul": 22308,
                "phone": "+48 655461560",
                "email": "spmaslowo@rawicz.eu",
                "ref:regon": "365084280",
                "operator": "Gmina Rawicz",
                "operator:type": "government",
                "amenity": "kindergarten",
                "note": "Parent RSPO: 132710"
            }
        },
        {
            "id": 21459,
            "type": "Feature",
            "geometry": {
                "type": "Point",
                "coordinates": [
                    16.85359,
                    51.604
                ]
            },
            "properties": {
                "ref:rspo": 21459,
                "official_name": "Niepubliczna Szko\u0142a Muzyczna I St. w Rawiczu",
                "name": "Niepubliczna Szko\u0142a Muzyczna I St. w Rawiczu",
                "addr:postcode": "63-900",
                "addr:city": "Rawicz",
                "addr:street": "W\u0142adys\u0142awa Broniewskiego",
                "addr:housenumber": "5",
                "addr:city:simc": 954604,
                "addr:street:sym_ul": 2125,
                "phone": "+48 510051152",
                "email": "jdudek@zsiporawicz.net",
                "ref:regon": "302228695",
                "operator": "Jerzy Dudek",
                "operator:type": "private",
                "amenity": "music_school"
            }
        },
        {
            "id": 31884,
            "type": "Feature",
            "geometry": {
                "type": "Point",
                "coordinates": [
                    16.85359,
                    51.60397
                ]
            },
            "properties": {
                "isced:level": "1;2",
                "ref:rspo": 31884,
                "official_name": "Szko\u0142a Podstawowa nr 4 im. W\u0142adys\u0142awa Broniewskiego w Rawiczu",
                "name": "Szko\u0142a Podstawowa nr 4",
                "addr:postcode": "63-900",
                "addr:city": "Rawicz",
                "addr:street": "W\u0142adys\u0142awa Broniewskiego",
                "addr:housenumber": "5",
                "addr:city:simc": 954604,
                "addr:street:sym_ul": 2125,
                "phone": "+48 655452014",
                "email": "sp4@rawicz.eu",
                "website": "http:\/\/www.sp4.rawicz.pl",
                "ref:regon": "000260830",
                "ref:vatin": "PL6991028390",
                "operator": "Gmina Rawicz",
                "operator:type": "government",
                "amenity": "school"
            }
        },
        {
            "id": 122228,
            "type": "Feature",
            "geometry": {
                "type": "Point",
                "coordinates": [
                    16.83639,
                    51.60465
                ]
            },
            "properties": {
                "ref:rspo": 122228,
                "official_name": "Przedszkole Niepubliczne \"S\u0142oneczny Poranek\"",
                "name": "Przedszkole Niepubliczne \"S\u0142oneczny Poranek\"",
                "addr:postcode": "63-900",
                "addr:city": "Mas\u0142owo",
                "addr:street": "Jana Matejki",
                "addr:housenumber": "26",
                "addr:city:simc": 375792,
                "addr:street:sym_ul": 12489,
                "phone": "+48 663970667",
                "email": "sloneczny_poranek@o2.pl",
                "ref:regon": "302664350",
                "ref:vatin": "PL6991955280",
                "operator": "Agata Pruchnik",
                "operator:type": "private",
                "amenity": "kindergarten"
            }
        },
        {
            "id": 269983,
            "type": "Feature",
            "geometry": {
                "type": "Point",
                "coordinates": [
                    16.89516,
                    51.60495
                ]
            },
            "properties": {
                "ref:rspo": 269983,
                "official_name": "Zesp\u00f3\u0142 Przedszkolny w Szymanowie",
                "name": "Zesp\u00f3\u0142 Przedszkolny w Szymanowie",
                "addr:postcode": "63-900",
                "addr:place": "Szymanowo",
                "addr:housenumber": "5",
                "addr:city:simc": 375935,
                "phone": "+48 655453415",
                "email": "zpszymanowie@rawicz.eu",
                "ref:regon": "381940430",
                "operator": "Gmina Rawicz",
                "operator:type": "government",
                "landuse": "education",
                "fixme": "amenity=school, amenity=college albo landuse=education w zale\u017cno\u015bci od tego, jakie plac\u00f3wki wchodz\u0105 w sk\u0142ad zespo\u0142u. Sprawd\u017a, kiedy stosowa\u0107 amenity=* a kiedy landuse=education.",
                "note": "Children RSPO: 267854;267855"
            }
        },
        {
            "id": 267855,
            "type": "Feature",
            "geometry": {
                "type": "Point",
                "coordinates": [
                    16.89516,
                    51.60492
                ]
            },
            "properties": {
                "ref:rspo": 267855,
                "official_name": "Przedszkole w Szymanowie",
                "name": "Przedszkole w Szymanowie",
                "addr:postcode": "63-900",
                "addr:place": "Szymanowo",
                "addr:housenumber": "5",
                "addr:city:simc": 375935,
                "phone": "+48 655453415",
                "email": "zpszymanowie@rawicz.eu",
                "ref:regon": "380708990",
                "operator": "Gmina Rawicz",
                "operator:type": "government",
                "amenity": "kindergarten",
                "note": "Parent RSPO: 269983"
            }
        },
        {
            "id": 44720,
            "type": "Feature",
            "geometry": {
                "type": "Point",
                "coordinates": [
                    16.84899,
                    51.60554
                ]
            },
            "properties": {
                "ref:rspo": 44720,
                "official_name": "Przedszkole nr 13 Niepubliczne",
                "name": "Przedszkole nr 13 Niepubliczne",
                "addr:postcode": "63-900",
                "addr:city": "Rawicz",
                "addr:street": "\u017bwirowa",
                "addr:housenumber": "11",
                "addr:city:simc": 954604,
                "addr:street:sym_ul": 26611,
                "phone": "+48 656141339",
                "email": "biuro@przedszkole13rawicz.pl",
                "website": "http:\/\/www.przedszkole13rawicz.pl",
                "ref:regon": "302247296",
                "ref:vatin": "PL6991039815",
                "operator": "Krystyna Bidowaniec",
                "operator:type": "private",
                "amenity": "kindergarten"
            }
        },
        {
            "id": 132711,
            "type": "Feature",
            "geometry": {
                "type": "Point",
                "coordinates": [
                    16.966736,
                    51.6062305
                ]
            },
            "properties": {
                "ref:rspo": 132711,
                "official_name": "Zesp\u00f3\u0142 Szkolno-Przedszkolny w S\u0142upi Kapitulnej",
                "name": "Zesp\u00f3\u0142 Szkolno-Przedszkolny w S\u0142upi Kapitulnej",
                "addr:postcode": "63-900",
                "addr:place": "S\u0142upia Kapitulna",
                "addr:housenumber": "117",
                "addr:city:simc": 375898,
                "phone": "+48 655451424",
                "email": "spslupiakapitulna@rawicz.eu",
                "website": "http:\/\/www.spslupiakapitulna.rawicz.pl",
                "ref:regon": "366092091",
                "operator": "Gmina Rawicz",
                "operator:type": "government",
                "landuse": "education",
                "fixme": "amenity=school, amenity=college albo landuse=education w zale\u017cno\u015bci od tego, jakie plac\u00f3wki wchodz\u0105 w sk\u0142ad zespo\u0142u. Sprawd\u017a, kiedy stosowa\u0107 amenity=* a kiedy landuse=education.",
                "note": "Children RSPO: 30439;131281"
            }
        },
        {
            "id": 30439,
            "type": "Feature",
            "geometry": {
                "type": "Point",
                "coordinates": [
                    16.966736,
                    51.6062005
                ]
            },
            "properties": {
                "isced:level": "1;2",
                "ref:rspo": 30439,
                "official_name": "Szko\u0142a Podstawowa w S\u0142upi Kapitulnej",
                "name": "Szko\u0142a Podstawowa w S\u0142upi Kapitulnej",
                "addr:postcode": "63-900",
                "addr:place": "S\u0142upia Kapitulna",
                "addr:housenumber": "117",
                "addr:city:simc": 375898,
                "phone": "+48 655451424",
                "email": "spslupiakapitulna@rawicz.eu",
                "website": "http:\/\/www.slupiakapitulna.rawicz.pl",
                "ref:regon": "001118710",
                "ref:vatin": "PL6991500071",
                "operator": "Gmina Rawicz",
                "operator:type": "government",
                "amenity": "school",
                "note": "Parent RSPO: 132711"
            }
        },
        {
            "id": 131281,
            "type": "Feature",
            "geometry": {
                "type": "Point",
                "coordinates": [
                    16.966736,
                    51.606170500000005
                ]
            },
            "properties": {
                "ref:rspo": 131281,
                "official_name": "Przedszkole w S\u0142upi Kapitulnej",
                "name": "Przedszkole w S\u0142upi Kapitulnej",
                "addr:postcode": "63-900",
                "addr:place": "S\u0142upia Kapitulna",
                "addr:housenumber": "117",
                "addr:city:simc": 375898,
                "phone": "+48 655451424",
                "email": "splupiakapitulna@rawicz.eu",
                "ref:regon": "365084362",
                "operator": "Gmina Rawicz",
                "operator:type": "government",
                "amenity": "kindergarten",
                "note": "Parent RSPO: 132711"
            }
        },
        {
            "id": 132708,
            "type": "Feature",
            "geometry": {
                "type": "Point",
                "coordinates": [
                    16.85585,
                    51.60723
                ]
            },
            "properties": {
                "ref:rspo": 132708,
                "official_name": "Zesp\u00f3\u0142 Szkolno- Przedszkolny nr 1 w Rawiczu",
                "name": "Zesp\u00f3\u0142 Szkolno- Przedszkolny nr 1 w Rawiczu",
                "addr:postcode": "63-900",
                "addr:city": "Rawicz",
                "addr:street": "Adama Mickiewicza",
                "addr:housenumber": "16",
                "addr:city:simc": 954604,
                "addr:street:sym_ul": 12740,
                "phone": "+48 655452741",
                "email": "sp1@rawicz.eu",
                "website": "http:\/\/www.sp1.rawicz.pl",
                "ref:regon": "366091996",
                "operator": "Gmina Rawicz",
                "operator:type": "government",
                "landuse": "education",
                "fixme": "amenity=school, amenity=college albo landuse=education w zale\u017cno\u015bci od tego, jakie plac\u00f3wki wchodz\u0105 w sk\u0142ad zespo\u0142u. Sprawd\u017a, kiedy stosowa\u0107 amenity=* a kiedy landuse=education.",
                "note": "Children RSPO: 30095;131276"
            }
        },
        {
            "id": 30095,
            "type": "Feature",
            "geometry": {
                "type": "Point",
                "coordinates": [
                    16.85585,
                    51.6072
                ]
            },
            "properties": {
                "isced:level": "1;2",
                "ref:rspo": 30095,
                "official_name": "Szko\u0142a Podstawowa nr 1 im. Adama Mickiewicza w Rawiczu",
                "name": "Szko\u0142a Podstawowa nr 1",
                "addr:postcode": "63-900",
                "addr:city": "Rawicz",
                "addr:street": "Adama Mickiewicza",
                "addr:housenumber": "16",
                "addr:city:simc": 954604,
                "addr:street:sym_ul": 12740,
                "phone": "+48 655452741",
                "email": "sp1@rawicz.eu",
                "website": "http:\/\/sp1.rawicz.pl",
                "ref:regon": "000260592",
                "ref:vatin": "PL6991200386",
                "operator": "Gmina Rawicz",
                "operator:type": "government",
                "amenity": "school",
                "note": "Parent RSPO: 132708"
            }
        },
        {
            "id": 131276,
            "type": "Feature",
            "geometry": {
                "type": "Point",
                "coordinates": [
                    16.85585,
                    51.60717
                ]
            },
            "properties": {
                "ref:rspo": 131276,
                "official_name": "Przedszkole nr 2",
                "name": "Przedszkole nr 2",
                "addr:postcode": "63-900",
                "addr:city": "Rawicz",
                "addr:street": "Adama Mickiewicza",
                "addr:housenumber": "16",
                "addr:city:simc": 954604,
                "addr:street:sym_ul": 12740,
                "phone": "+48 655452741",
                "email": "przedszkole2@rawicz.pl",
                "ref:regon": "365084037",
                "operator": "Gmina Rawicz",
                "operator:type": "government",
                "amenity": "kindergarten",
                "note": "Parent RSPO: 132708"
            }
        },
        {
            "id": 39130,
            "type": "Feature",
            "geometry": {
                "type": "Point",
                "coordinates": [
                    16.84938,
                    51.60771
                ]
            },
            "properties": {
                "ref:rspo": 39130,
                "official_name": "Przedszkole nr 6 im. Przyjaci\u00f3\u0142 Kubusia Puchatka w Rawiczu",
                "name": "Przedszkole nr 6",
                "addr:postcode": "63-900",
                "addr:city": "Rawicz",
                "addr:street": "Stanis\u0142awa Miko\u0142ajewicza",
                "addr:housenumber": "23",
                "addr:city:simc": 954604,
                "addr:street:sym_ul": 12895,
                "phone": "+48 655453968",
                "email": "przedszkole6@rawicz.eu",
                "website": "http:\/\/www.przedszkole6.rawicz.pl\/przedszkole6\/",
                "ref:regon": "411421835",
                "ref:vatin": "PL6991825873",
                "operator": "Gmina Rawicz",
                "operator:type": "government",
                "amenity": "kindergarten"
            }
        },
        {
            "id": 4444,
            "type": "Feature",
            "geometry": {
                "type": "Point",
                "coordinates": [
                    16.86359,
                    51.60866
                ]
            },
            "properties": {
                "ref:rspo": 4444,
                "official_name": "Centrum Kszta\u0142cenia Ustawicznego",
                "name": "Centrum Kszta\u0142cenia Ustawicznego",
                "addr:postcode": "63-900",
                "addr:city": "Rawicz",
                "addr:street": "17 Stycznia",
                "addr:housenumber": "28",
                "addr:city:simc": 954604,
                "addr:street:sym_ul": 21445,
                "email": "zk_rawicz@sw.gov.pl",
                "ref:regon": "302190047",
                "operator": "Ministerstwo Sprawiedliwo\u015bci",
                "operator:type": "government",
                "amenity": "school",
                "fixme": "amenity=school lub amenity=college",
                "note": "Children RSPO: 11569;20166"
            }
        },
        {
            "id": 11569,
            "type": "Feature",
            "geometry": {
                "type": "Point",
                "coordinates": [
                    16.86359,
                    51.60863
                ]
            },
            "properties": {
                "isced:level": "3",
                "ref:rspo": 11569,
                "official_name": "Liceum Og\u00f3lnokszta\u0142c\u0105ce dla Doros\u0142ych",
                "name": "Liceum Og\u00f3lnokszta\u0142c\u0105ce dla Doros\u0142ych",
                "addr:postcode": "63-900",
                "addr:city": "Rawicz",
                "addr:street": "17 Stycznia",
                "addr:housenumber": "28",
                "addr:city:simc": 954604,
                "addr:street:sym_ul": 21445,
                "email": "zk_rawicz@sw.gov.pl",
                "ref:regon": "302207434",
                "operator": "Ministerstwo Sprawiedliwo\u015bci",
                "operator:type": "government",
                "amenity": "school",
                "note": "Parent RSPO: 4444"
            }
        },
        {
            "id": 20166,
            "type": "Feature",
            "geometry": {
                "type": "Point",
                "coordinates": [
                    16.86359,
                    51.6086
                ]
            },
            "properties": {
                "isced:level": "1;2",
                "ref:rspo": 20166,
                "official_name": "Szko\u0142a Podstawowa dla Doros\u0142ych",
                "name": "Szko\u0142a Podstawowa dla Doros\u0142ych",
                "addr:postcode": "63-900",
                "addr:city": "Rawicz",
                "addr:street": "17 Stycznia",
                "addr:housenumber": "28",
                "addr:city:simc": 954604,
                "addr:street:sym_ul": 21445,
                "email": "zk_rawicz@sw.gov.pl",
                "ref:regon": "302226302",
                "operator": "Ministerstwo Sprawiedliwo\u015bci",
                "operator:type": "government",
                "amenity": "school",
                "note": "Parent RSPO: 4444"
            }
        },
        {
            "id": 131539,
            "type": "Feature",
            "geometry": {
                "type": "Point",
                "coordinates": [
                    16.85995,
                    51.60948
                ]
            },
            "properties": {
                "ref:rspo": 131539,
                "official_name": "Akademia J\u0119zyk\u00f3w Obcych \"Eurokontakt\" Ma\u0142gorzata Sierakowska",
                "name": "Akademia J\u0119zyk\u00f3w Obcych \"Eurokontakt\" Ma\u0142gorzata Sierakowska",
                "addr:postcode": "63-900",
                "addr:city": "Rawicz",
                "addr:street": "17 Stycznia",
                "addr:housenumber": "9",
                "addr:door": "11",
                "addr:city:simc": 954604,
                "addr:street:sym_ul": 21445,
                "phone": "+48 603247710",
                "email": "gestor@interia.pl",
                "website": "http:\/\/www.eurokontakt.edu.pl",
                "ref:regon": "365217981",
                "ref:vatin": "PL6991068573",
                "operator": "Ma\u0142gorzata Sierakowska",
                "operator:type": "private",
                "fixme": "w zale\u017cno\u015bci od przedmiotu dzia\u0142alno\u015bci (np. amenity=training + training=*, amenity=dancing_school, amenity=language_school, amenity=music_school)"
            }
        },
        {
            "id": 128846,
            "type": "Feature",
            "geometry": {
                "type": "Point",
                "coordinates": [
                    16.85972,
                    51.6099
                ]
            },
            "properties": {
                "ref:rspo": 128846,
                "official_name": "Centrum Doskonalenia Nauczycieli Publiczna Biblioteka Pedagogiczn w Lesznie Filia w Rawiczu",
                "name": "Centrum Doskonalenia Nauczycieli Publiczna Biblioteka Pedagogiczn w Lesznie Filia w Rawiczu",
                "addr:postcode": "63-900",
                "addr:city": "Rawicz",
                "addr:street": "Kardyna\u0142a Stefana Wyszy\u0144skiego",
                "addr:housenumber": "2",
                "addr:city:simc": 954604,
                "addr:street:sym_ul": 35421,
                "phone": "+48 655452269",
                "email": "pbprawicz@cdn.leszno.pl",
                "ref:regon": "300906464",
                "operator": "Wojew\u00f3dztwo Wielkopolskie",
                "operator:type": "government",
                "amenity": "library",
                "note": "Parent RSPO: 115168"
            }
        },
        {
            "id": 39695,
            "type": "Feature",
            "geometry": {
                "type": "Point",
                "coordinates": [
                    16.865570068359,
                    51.610069274902
                ]
            },
            "properties": {
                "ref:rspo": 39695,
                "official_name": "Niepubliczne Przedszkole \"Sarenka\"",
                "name": "Niepubliczne Przedszkole \"Sarenka\"",
                "addr:postcode": "63-900",
                "addr:city": "Rawicz",
                "addr:street": "Ksi\u0119dza Edwarda Spychalskiego",
                "addr:housenumber": "10",
                "addr:city:simc": 954604,
                "addr:street:sym_ul": 49119,
                "phone": "+48 609283467",
                "email": "sarnowskie-przedszkole@wp.pl",
                "website": "http:\/\/www.przedszkolesarenka.pl",
                "ref:regon": "302244659",
                "ref:vatin": "PL6991818956",
                "operator": "Anna Andrzejewska",
                "operator:type": "private",
                "amenity": "kindergarten"
            }
        },
        {
            "id": 7821,
            "type": "Feature",
            "geometry": {
                "type": "Point",
                "coordinates": [
                    16.8446399,
                    51.61014
                ]
            },
            "properties": {
                "ref:rspo": 7821,
                "official_name": "Zesp\u00f3\u0142 Szk\u00f3\u0142 Zawodowych im. Stefana Bobrowskiego w Rawiczu",
                "name": "Zesp\u00f3\u0142 Szk\u00f3\u0142 Zawodowych",
                "addr:postcode": "63-900",
                "addr:city": "Rawicz",
                "addr:street": "Genera\u0142a J\u00f3zefa Hallera",
                "addr:housenumber": "12",
                "addr:city:simc": 954604,
                "addr:street:sym_ul": 6485,
                "phone": "+48 655453072",
                "email": "zsz@powiatrawicki.pl",
                "website": "http:\/\/www.zszrawicz.pl",
                "ref:regon": "000653140",
                "ref:vatin": "PL6991444800",
                "operator": "Powiat Rawicki",
                "operator:type": "government",
                "landuse": "education",
                "fixme": "amenity=school, amenity=college albo landuse=education w zale\u017cno\u015bci od tego, jakie plac\u00f3wki wchodz\u0105 w sk\u0142ad zespo\u0142u. Sprawd\u017a, kiedy stosowa\u0107 amenity=* a kiedy landuse=education.",
                "note": "Children RSPO: 16124;16125;16127;106778;115079;275048"
            }
        },
        {
            "id": 16124,
            "type": "Feature",
            "geometry": {
                "type": "Point",
                "coordinates": [
                    16.8446399,
                    51.61011
                ]
            },
            "properties": {
                "isced:level": "3",
                "ref:rspo": 16124,
                "official_name": "Bran\u017cowa Szko\u0142a I Stopnia w Rawiczu",
                "name": "Bran\u017cowa Szko\u0142a I Stopnia w Rawiczu",
                "addr:postcode": "63-900",
                "addr:city": "Rawicz",
                "addr:street": "Genera\u0142a J\u00f3zefa Hallera",
                "addr:housenumber": "12",
                "addr:city:simc": 954604,
                "addr:street:sym_ul": 6485,
                "phone": "+48 655453072",
                "email": "zsz@powiatrawicki.pl",
                "website": "http:\/\/www.zszrawicz.pl",
                "ref:regon": "411526630",
                "operator": "Powiat Rawicki",
                "operator:type": "government",
                "amenity": "school",
                "note": "Parent RSPO: 7821"
            }
        },
        {
            "id": 16125,
            "type": "Feature",
            "geometry": {
                "type": "Point",
                "coordinates": [
                    16.8446399,
                    51.61008
                ]
            },
            "properties": {
                "ref:rspo": 16125,
                "official_name": "Centrum Kszta\u0142cenia Zawodowego w Rawiczu",
                "name": "Centrum Kszta\u0142cenia Zawodowego w Rawiczu",
                "addr:postcode": "63-900",
                "addr:city": "Rawicz",
                "addr:street": "Genera\u0142a J\u00f3zefa Hallera",
                "addr:housenumber": "12",
                "addr:city:simc": 954604,
                "addr:street:sym_ul": 6485,
                "phone": "+48 655453072",
                "email": "zsz@powiatrawicki.pl",
                "website": "http:\/\/www.zszrawicz.pl",
                "ref:regon": "300025730",
                "operator": "Powiat Rawicki",
                "operator:type": "government",
                "fixme": "w zale\u017cno\u015bci od przedmiotu dzia\u0142alno\u015bci (np. amenity=training + training=*, amenity=dancing_school, amenity=language_school, amenity=music_school) albo amenity=school, amenity=college, albo landuse=education w zale\u017cno\u015bci od tego, jakie plac\u00f3wki wchodz\u0105 w sk\u0142ad zespo\u0142u. Sprawd\u017a, kiedy stosowa\u0107 amenity=* a kiedy landuse=education.",
                "note": "Parent RSPO: 7821"
            }
        },
        {
            "id": 16127,
            "type": "Feature",
            "geometry": {
                "type": "Point",
                "coordinates": [
                    16.8446399,
                    51.61005
                ]
            },
            "properties": {
                "isced:level": "3",
                "ref:rspo": 16127,
                "official_name": "Technikum w Rawiczu",
                "name": "Technikum w Rawiczu",
                "addr:postcode": "63-900",
                "addr:city": "Rawicz",
                "addr:street": "Genera\u0142a J\u00f3zefa Hallera",
                "addr:housenumber": "12",
                "addr:city:simc": 954604,
                "addr:street:sym_ul": 6485,
                "phone": "+48 655453072",
                "email": "zsz@powiatrawicki.pl",
                "website": "http:\/\/www.zszrawicz.pl",
                "ref:regon": "300608152",
                "operator": "Powiat Rawicki",
                "operator:type": "government",
                "amenity": "school",
                "note": "Parent RSPO: 7821"
            }
        },
        {
            "id": 106778,
            "type": "Feature",
            "geometry": {
                "type": "Point",
                "coordinates": [
                    16.8446399,
                    51.61002
                ]
            },
            "properties": {
                "isced:level": "3",
                "ref:rspo": 106778,
                "official_name": "Liceum Og\u00f3lnokszta\u0142c\u0105ce dla Doros\u0142ych w Rawiczu",
                "name": "Liceum Og\u00f3lnokszta\u0142c\u0105ce dla Doros\u0142ych w Rawiczu",
                "addr:postcode": "63-900",
                "addr:city": "Rawicz",
                "addr:street": "Genera\u0142a J\u00f3zefa Hallera",
                "addr:housenumber": "12",
                "addr:city:simc": 954604,
                "addr:street:sym_ul": 6485,
                "phone": "+48 655452235",
                "email": "zsz@powiatrawicki.home.pl",
                "website": "http:\/\/www.zszrawicz.pl",
                "ref:regon": "302323070",
                "operator": "Powiat Rawicki",
                "operator:type": "government",
                "amenity": "school",
                "note": "Parent RSPO: 7821"
            }
        },
        {
            "id": 115079,
            "type": "Feature",
            "geometry": {
                "type": "Point",
                "coordinates": [
                    16.8446399,
                    51.60999
                ]
            },
            "properties": {
                "isced:level": "4",
                "ref:rspo": 115079,
                "official_name": "Szko\u0142a Policealna w Rawiczu",
                "name": "Szko\u0142a Policealna w Rawiczu",
                "addr:postcode": "63-900",
                "addr:city": "Rawicz",
                "addr:street": "Genera\u0142a J\u00f3zefa Hallera",
                "addr:housenumber": "12",
                "addr:city:simc": 954604,
                "addr:street:sym_ul": 6485,
                "phone": "+48 655453072",
                "email": "zsz@powiatrawicki.pl",
                "website": "http:\/\/www.zszrawicz.pl",
                "ref:regon": "302455050",
                "operator": "Powiat Rawicki",
                "operator:type": "government",
                "amenity": "college",
                "note": "Parent RSPO: 7821"
            }
        },
        {
            "id": 275048,
            "type": "Feature",
            "geometry": {
                "type": "Point",
                "coordinates": [
                    16.8446399,
                    51.60996
                ]
            },
            "properties": {
                "isced:level": "3",
                "ref:rspo": 275048,
                "official_name": "Bran\u017cowa Szko\u0142a II Stopnia w Rawiczu",
                "name": "Bran\u017cowa Szko\u0142a II Stopnia w Rawiczu",
                "addr:postcode": "63-900",
                "addr:city": "Rawicz",
                "addr:street": "Genera\u0142a J\u00f3zefa Hallera",
                "addr:housenumber": "12",
                "addr:city:simc": 954604,
                "addr:street:sym_ul": 6485,
                "phone": "+48 655453072",
                "email": "zsz@powiatrawicki.pl",
                "website": "http:\/\/zszrawicz.pl",
                "ref:regon": "386521292",
                "operator": "Powiat Rawicki",
                "operator:type": "government",
                "amenity": "school",
                "note": "Parent RSPO: 7821"
            }
        },
        {
            "id": 38600,
            "type": "Feature",
            "geometry": {
                "type": "Point",
                "coordinates": [
                    16.86582,
                    51.61042
                ]
            },
            "properties": {
                "ref:rspo": 38600,
                "official_name": "Przedszkole nr 1 im. Akademia Kr\u00f3la Stasia",
                "name": "Przedszkole nr 1",
                "addr:postcode": "63-900",
                "addr:city": "Rawicz",
                "addr:street": "Wa\u0142y Powsta\u0144c\u00f3w Wielkopolskich",
                "addr:housenumber": "2",
                "addr:city:simc": 954604,
                "addr:street:sym_ul": 32570,
                "phone": "+48 655452332",
                "email": "przedszkole1@rawicz.eu",
                "ref:regon": "411421798",
                "ref:vatin": "PL6991825850",
                "operator": "Gmina Rawicz",
                "operator:type": "government",
                "amenity": "kindergarten"
            }
        },
        {
            "id": 9612,
            "type": "Feature",
            "geometry": {
                "type": "Point",
                "coordinates": [
                    16.86466,
                    51.61162
                ]
            },
            "properties": {
                "ref:rspo": 9612,
                "official_name": "Zesp\u00f3\u0142 Szk\u00f3\u0142 I Plac\u00f3wek O\u015bwiatowych w Rawiczu",
                "name": "Zesp\u00f3\u0142 Szk\u00f3\u0142 I Plac\u00f3wek O\u015bwiatowych w Rawiczu",
                "addr:postcode": "63-900",
                "addr:city": "Rawicz",
                "addr:street": "Wa\u0142y Jaros\u0142awa D\u0105browskiego",
                "addr:housenumber": "33",
                "addr:city:simc": 954604,
                "addr:street:sym_ul": 33709,
                "phone": "+48 510051152",
                "email": "j.dudek@zsiporawicz.pl",
                "website": "http:\/\/www.zsiporawicz.net",
                "ref:regon": "302203672",
                "ref:vatin": "PL6991890014",
                "operator": "Jerzy Dudek",
                "operator:type": "private",
                "landuse": "education",
                "fixme": "amenity=school, amenity=college albo landuse=education w zale\u017cno\u015bci od tego, jakie plac\u00f3wki wchodz\u0105 w sk\u0142ad zespo\u0142u. Sprawd\u017a, kiedy stosowa\u0107 amenity=* a kiedy landuse=education.",
                "note": "Children RSPO: 72788;73576;81415"
            }
        },
        {
            "id": 72788,
            "type": "Feature",
            "geometry": {
                "type": "Point",
                "coordinates": [
                    16.86466,
                    51.61159
                ]
            },
            "properties": {
                "isced:level": "4",
                "ref:rspo": 72788,
                "official_name": "Policealne Studium Administracji w Rawiczu",
                "name": "Policealne Studium Administracji w Rawiczu",
                "addr:postcode": "63-900",
                "addr:city": "Rawicz",
                "addr:street": "Wa\u0142y Jaros\u0142awa D\u0105browskiego",
                "addr:housenumber": "33",
                "addr:city:simc": 954604,
                "addr:street:sym_ul": 33709,
                "phone": "+48 510051152",
                "email": "j.dudek@zsiporawicz.pl",
                "website": "http:\/\/www.zsiporawicz.net",
                "ref:regon": "302261669",
                "operator": "Jerzy Dudek",
                "operator:type": "private",
                "amenity": "college",
                "note": "Parent RSPO: 9612"
            }
        },
        {
            "id": 73576,
            "type": "Feature",
            "geometry": {
                "type": "Point",
                "coordinates": [
                    16.86466,
                    51.611560000000004
                ]
            },
            "properties": {
                "isced:level": "3",
                "ref:rspo": 73576,
                "official_name": "Liceum Og\u00f3lnokszta\u0142c\u0105ce dla Doros\u0142ych w Rawiczu",
                "name": "Liceum Og\u00f3lnokszta\u0142c\u0105ce dla Doros\u0142ych w Rawiczu",
                "addr:postcode": "63-900",
                "addr:city": "Rawicz",
                "addr:street": "Wa\u0142y Jaros\u0142awa D\u0105browskiego",
                "addr:housenumber": "33",
                "addr:city:simc": 954604,
                "addr:street:sym_ul": 33709,
                "phone": "+48 510051152",
                "email": "j.dudek@zsiporawicz.pl",
                "website": "http:\/\/www.zsiporawicz.net",
                "ref:regon": "302261913",
                "operator": "Jerzy Dudek",
                "operator:type": "private",
                "amenity": "school",
                "note": "Parent RSPO: 9612"
            }
        },
        {
            "id": 81415,
            "type": "Feature",
            "geometry": {
                "type": "Point",
                "coordinates": [
                    16.86466,
                    51.61153
                ]
            },
            "properties": {
                "isced:level": "4",
                "ref:rspo": 81415,
                "official_name": "Policealne Studium Bezpiecze\u0144stwa I Higieny Pracy w Rawiczu",
                "name": "Policealne Studium Bezpiecze\u0144stwa I Higieny Pracy w Rawiczu",
                "addr:postcode": "63-900",
                "addr:city": "Rawicz",
                "addr:street": "Wa\u0142y Jaros\u0142awa D\u0105browskiego",
                "addr:housenumber": "33",
                "addr:city:simc": 954604,
                "addr:street:sym_ul": 33709,
                "phone": "+48 510051152",
                "email": "j.dudek@zsiporawicz.pl",
                "website": "http:\/\/www.zsiporawicz.net",
                "ref:regon": "302265058",
                "operator": "Jerzy Dudek",
                "operator:type": "private",
                "amenity": "college",
                "note": "Parent RSPO: 9612"
            }
        },
        {
            "id": 30374,
            "type": "Feature",
            "geometry": {
                "type": "Point",
                "coordinates": [
                    16.85389,
                    51.61207
                ]
            },
            "properties": {
                "isced:level": "1;2",
                "ref:rspo": 30374,
                "official_name": "Szko\u0142a Podstawowa nr 3 Im Kornela Makuszy\u0144skiego w Rawiczu",
                "name": "Szko\u0142a Podstawowa nr 3 Im Kornela Makuszy\u0144skiego w Rawiczu",
                "addr:postcode": "63-900",
                "addr:city": "Rawicz",
                "addr:street": "Wa\u0142y Jaros\u0142awa D\u0105browskiego",
                "addr:housenumber": "1",
                "addr:city:simc": 954604,
                "addr:street:sym_ul": 33709,
                "phone": "+48 655453553",
                "email": "sp3@rawicz.eu",
                "website": "http:\/\/www.sp3.rawicz.pl",
                "ref:regon": "000260793",
                "ref:vatin": "PL6991028208",
                "operator": "Gmina Rawicz",
                "operator:type": "government",
                "amenity": "school"
            }
        },
        {
            "id": 4439,
            "type": "Feature",
            "geometry": {
                "type": "Point",
                "coordinates": [
                    16.86204,
                    51.61236
                ]
            },
            "properties": {
                "isced:level": "3",
                "ref:rspo": 4439,
                "official_name": "I Liceum Og\u00f3lnokszta\u0142c\u0105ce im. Jaros\u0142awa D\u0105browskiego w Rawiczu",
                "name": "I Liceum Og\u00f3lnokszta\u0142c\u0105ce",
                "addr:postcode": "63-900",
                "addr:city": "Rawicz",
                "addr:street": "Wa\u0142y Jaros\u0142awa D\u0105browskiego",
                "addr:housenumber": "29",
                "addr:city:simc": 954604,
                "addr:street:sym_ul": 33709,
                "phone": "+48 655464482",
                "email": "lo1@powiatrawicki.pl",
                "website": "http:\/\/www.1lorawicz.pl",
                "ref:regon": "410297617",
                "ref:vatin": "PL6991465707",
                "operator": "Powiat Rawicki",
                "operator:type": "government",
                "amenity": "school"
            }
        },
        {
            "id": 39129,
            "type": "Feature",
            "geometry": {
                "type": "Point",
                "coordinates": [
                    16.86623,
                    51.61375
                ]
            },
            "properties": {
                "ref:rspo": 39129,
                "official_name": "Przedszkole nr 5 \" Pod Grzybkiem\" w Rawiczu",
                "name": "Przedszkole nr 5 \" Pod Grzybkiem\" w Rawiczu",
                "addr:postcode": "63-900",
                "addr:city": "Rawicz",
                "addr:street": "Sarnowska",
                "addr:housenumber": "9a",
                "addr:city:simc": 954604,
                "addr:street:sym_ul": 19539,
                "phone": "+48 655465323",
                "email": "przedszkole5@rawicz.eu",
                "website": "http:\/\/www.przedszkole5rawicz.stronyzklasa.pl",
                "ref:regon": "411421829",
                "ref:vatin": "PL6991825910",
                "operator": "Gmina Rawicz",
                "operator:type": "government",
                "amenity": "kindergarten"
            }
        },
        {
            "id": 39128,
            "type": "Feature",
            "geometry": {
                "type": "Point",
                "coordinates": [
                    16.8698,
                    51.61527
                ]
            },
            "properties": {
                "ref:rspo": 39128,
                "official_name": "Przedszkole nr 3 im. Krasnala Ha\u0142aba\u0142y w Rawiczu",
                "name": "Przedszkole nr 3",
                "addr:postcode": "63-900",
                "addr:city": "Rawicz",
                "addr:street": "Armii Krajowej",
                "addr:housenumber": "7",
                "addr:city:simc": 954604,
                "addr:street:sym_ul": 432,
                "phone": "+48 655462033",
                "email": "przedszkole3@rawicz.eu",
                "website": "http:\/\/www.przedszkole3rawicz.dlaprzedszkoli.eu",
                "ref:regon": "411421806",
                "ref:vatin": "PL6991825896",
                "operator": "Gmina Rawicz",
                "operator:type": "government",
                "amenity": "kindergarten"
            }
        },
        {
            "id": 31957,
            "type": "Feature",
            "geometry": {
                "type": "Point",
                "coordinates": [
                    16.85878,
                    51.61566
                ]
            },
            "properties": {
                "isced:level": "1;2",
                "ref:rspo": 31957,
                "official_name": "Szko\u0142a Podstawowa im. Janusza Korczaka w Sierakowie",
                "name": "Szko\u0142a Podstawowa",
                "addr:postcode": "63-900",
                "addr:city": "Sierakowo",
                "addr:street": "Przyjmy Przyjemskiego",
                "addr:housenumber": "35",
                "addr:city:simc": 375852,
                "addr:street:sym_ul": 17935,
                "phone": "+48 655465480",
                "email": "spsierakowo@rawicz.eu",
                "website": "http:\/\/www.sp6.rawicz.pl",
                "ref:regon": "410199910",
                "ref:vatin": "PL6991028763",
                "operator": "Gmina Rawicz",
                "operator:type": "government",
                "amenity": "school"
            }
        },
        {
            "id": 130309,
            "type": "Feature",
            "geometry": {
                "type": "Point",
                "coordinates": [
                    16.84968,
                    51.61685
                ]
            },
            "properties": {
                "ref:rspo": 130309,
                "official_name": "Niepubliczne Przedszkole Eureka z Oddzia\u0142ami Integracyjnymi",
                "name": "Niepubliczne Przedszkole Eureka z Oddzia\u0142ami Integracyjnymi",
                "addr:postcode": "63-900",
                "addr:city": "Sierakowo",
                "addr:street": "Podg\u00f3rna",
                "addr:housenumber": "5",
                "addr:city:simc": 375852,
                "addr:street:sym_ul": 16742,
                "phone": "+48 501501347",
                "email": "eureka@eurekaprzedszkole.pl",
                "website": "http:\/\/www.eurekaprzedszkole.pl",
                "ref:regon": "363817122",
                "operator": "Enjoy P.m. Sp\u00f3\u0142ka Z Ograniczon\u0105 Odpowiedzialno\u015bci\u0105",
                "operator:type": "private",
                "amenity": "kindergarten"
            }
        },
        {
            "id": 41138,
            "type": "Feature",
            "geometry": {
                "type": "Point",
                "coordinates": [
                    16.8690399,
                    51.61733
                ]
            },
            "properties": {
                "ref:rspo": 41138,
                "official_name": "Niepubliczne Przedszkole \"Chatka Weso\u0142ego Skrzatka\"",
                "name": "Niepubliczne Przedszkole \"Chatka Weso\u0142ego Skrzatka\"",
                "addr:postcode": "63-900",
                "addr:city": "Rawicz",
                "addr:street": "R\u00f3\u017cana",
                "addr:housenumber": "11",
                "addr:city:simc": 954604,
                "addr:street:sym_ul": 19000,
                "phone": "+48 697658094",
                "email": "chatkawesolegoskrzatka@qmail.com",
                "ref:regon": "302244889",
                "ref:vatin": "PL6991877551",
                "operator": "Hanna Pijaczy\u0144ska",
                "operator:type": "private",
                "amenity": "kindergarten"
            }
        },
        {
            "id": 123647,
            "type": "Feature",
            "geometry": {
                "type": "Point",
                "coordinates": [
                    16.84981,
                    51.623
                ]
            },
            "properties": {
                "ref:rspo": 123647,
                "official_name": "Niepubliczne Przedszkole \"Kraina Rado\u015bci\"",
                "name": "Niepubliczne Przedszkole \"Kraina Rado\u015bci\"",
                "addr:postcode": "63-900",
                "addr:city": "Sierakowo",
                "addr:street": "Cechowa",
                "addr:housenumber": "12",
                "addr:city:simc": 375852,
                "addr:street:sym_ul": 2559,
                "phone": "+48 693964459",
                "email": "przedszkole_krainaradosci@wp.pl",
                "ref:regon": "302778912",
                "ref:vatin": "PL6991955653",
                "operator": "Paulina Bartkowiak",
                "operator:type": "private",
                "amenity": "kindergarten"
            }
        },
        {
            "id": 132709,
            "type": "Feature",
            "geometry": {
                "type": "Point",
                "coordinates": [
                    16.9059,
                    51.63169
                ]
            },
            "properties": {
                "ref:rspo": 132709,
                "official_name": "Zesp\u00f3\u0142 Szkolno-Przedszkolny nr 2 w Rawiczu",
                "name": "Zesp\u00f3\u0142 Szkolno-Przedszkolny nr 2 w Rawiczu",
                "addr:postcode": "63-900",
                "addr:city": "Rawicz",
                "addr:street": "Szkolna",
                "addr:housenumber": "3",
                "addr:city:simc": 954604,
                "addr:street:sym_ul": 21970,
                "phone": "+48 655453772",
                "email": "sp5@rawicz.eu",
                "website": "http:\/\/www.sp5.rawicz.pl",
                "ref:regon": "366092056",
                "operator": "Gmina Rawicz",
                "operator:type": "government",
                "landuse": "education",
                "fixme": "amenity=school, amenity=college albo landuse=education w zale\u017cno\u015bci od tego, jakie plac\u00f3wki wchodz\u0105 w sk\u0142ad zespo\u0142u. Sprawd\u017a, kiedy stosowa\u0107 amenity=* a kiedy landuse=education.",
                "note": "Children RSPO: 32025;131278;267863"
            }
        },
        {
            "id": 32025,
            "type": "Feature",
            "geometry": {
                "type": "Point",
                "coordinates": [
                    16.9059,
                    51.63166
                ]
            },
            "properties": {
                "isced:level": "1;2",
                "ref:rspo": 32025,
                "official_name": "Szko\u0142a Podstawowa nr 5 im. Karola Kurpi\u0144skiego",
                "name": "Szko\u0142a Podstawowa nr 5",
                "addr:postcode": "63-900",
                "addr:city": "Rawicz",
                "addr:street": "Szkolna",
                "addr:housenumber": "3",
                "addr:city:simc": 954604,
                "addr:street:sym_ul": 21970,
                "phone": "+48 655453772",
                "email": "sp5@rawicz.eu",
                "website": "http:\/\/www.sp5.rawicz.pl",
                "ref:regon": "000739774",
                "ref:vatin": "PL6991028792",
                "operator": "Gmina Rawicz",
                "operator:type": "government",
                "amenity": "school",
                "note": "Parent RSPO: 132709"
            }
        },
        {
            "id": 131278,
            "type": "Feature",
            "geometry": {
                "type": "Point",
                "coordinates": [
                    16.9059,
                    51.63163
                ]
            },
            "properties": {
                "ref:rspo": 131278,
                "official_name": "Przedszkole nr 4",
                "name": "Przedszkole nr 4",
                "addr:postcode": "63-900",
                "addr:city": "Rawicz",
                "addr:street": "Szkolna",
                "addr:housenumber": "3",
                "addr:city:simc": 954604,
                "addr:street:sym_ul": 21970,
                "phone": "+48 655453772",
                "email": "sp5@rawicz.eu",
                "ref:regon": "365084184",
                "operator": "Gmina Rawicz",
                "operator:type": "government",
                "amenity": "kindergarten",
                "note": "Parent RSPO: 132709"
            }
        },
        {
            "id": 267863,
            "type": "Feature",
            "geometry": {
                "type": "Point",
                "coordinates": [
                    16.89302,
                    51.65634
                ]
            },
            "properties": {
                "ref:rspo": 267863,
                "official_name": "Przedszkole w \u017bo\u0142\u0119dnicy",
                "name": "Przedszkole w \u017bo\u0142\u0119dnicy",
                "addr:postcode": "63-900",
                "addr:place": "\u017bo\u0142\u0119dnica",
                "addr:housenumber": "29\/2",
                "addr:city:simc": 376018,
                "phone": "+48 655460836",
                "email": "sp5@rawicz.eu",
                "ref:regon": "380709132",
                "operator": "Gmina Rawicz",
                "operator:type": "government",
                "amenity": "kindergarten",
                "note": "Parent RSPO: 132709"
            }
        },
        {
            "id": 90520,
            "type": "Feature",
            "geometry": {
                "type": "Point",
                "coordinates": [
                    16.95702,
                    52.43948
                ]
            },
            "properties": {
                "ref:rspo": 90520,
                "official_name": "Wielkopolskie Samorz\u0105dowe Centrum Kszta\u0142cenia Zawodowego I Ustawicznego w Rawiczu",
                "name": "Wielkopolskie Samorz\u0105dowe Centrum Kszta\u0142cenia Zawodowego I Ustawicznego w Rawiczu",
                "addr:postcode": "63-900",
                "addr:city": "Rawicz",
                "addr:street": "Gerera\u0142a Stefana Grota Roweckiego",
                "addr:housenumber": "6",
                "addr:city:simc": 954604,
                "addr:street:sym_ul": 27399,
                "phone": "+48 655452120",
                "email": "sekretariat@medyk-rawicz.com.pl",
                "website": "http:\/\/www.medyk-rawicz.com.pl",
                "ref:regon": "302279385",
                "ref:vatin": "PL6991954346",
                "operator": "Wojew\u00f3dztwo Wielkopolskie",
                "operator:type": "government",
                "landuse": "education",
                "fixme": "amenity=school, amenity=college albo landuse=education w zale\u017cno\u015bci od tego, jakie plac\u00f3wki wchodz\u0105 w sk\u0142ad zespo\u0142u. Sprawd\u017a, kiedy stosowa\u0107 amenity=* a kiedy landuse=education.",
                "note": "Children RSPO: 69812;264048"
            }
        },
        {
            "id": 69812,
            "type": "Feature",
            "geometry": {
                "type": "Point",
                "coordinates": [
                    16.95702,
                    52.43945
                ]
            },
            "properties": {
                "isced:level": "4",
                "ref:rspo": 69812,
                "official_name": "Medyczne Studium Zawodowe w Rawiczu",
                "name": "Medyczne Studium Zawodowe w Rawiczu",
                "addr:postcode": "63-900",
                "addr:city": "Rawicz",
                "addr:street": "Gerera\u0142a Stefana Grota Roweckiego",
                "addr:housenumber": "6",
                "addr:city:simc": 954604,
                "addr:street:sym_ul": 27399,
                "phone": "+48 655452120",
                "ref:regon": "410317685",
                "ref:vatin": "PL6991696387",
                "operator": "Wojew\u00f3dztwo Wielkopolskie",
                "operator:type": "government",
                "amenity": "college",
                "note": "Parent RSPO: 90520"
            }
        },
        {
            "id": 264048,
            "type": "Feature",
            "geometry": {
                "type": "Point",
                "coordinates": [
                    16.95702,
                    52.439420000000005
                ]
            },
            "properties": {
                "ref:rspo": 264048,
                "official_name": "Centrum Kszta\u0142cenia Ustawicznego w Rawiczu",
                "name": "Centrum Kszta\u0142cenia Ustawicznego w Rawiczu",
                "addr:postcode": "63-900",
                "addr:city": "Rawicz",
                "addr:street": "Gerera\u0142a Stefana Grota Roweckiego",
                "addr:housenumber": "6",
                "addr:city:simc": 954604,
                "addr:street:sym_ul": 27399,
                "phone": "+48 655452120",
                "ref:regon": "368255189",
                "operator": "Wojew\u00f3dztwo Wielkopolskie",
                "operator:type": "government",
                "fixme": "w zale\u017cno\u015bci od przedmiotu dzia\u0142alno\u015bci (np. amenity=training + training=*, amenity=dancing_school, amenity=language_school, amenity=music_school)",
                "note": "Parent RSPO: 90520"
            }
        },
        {
            "id": 8443,
            "type": "Feature",
            "geometry": {
                "type": "Point",
                "coordinates": [
                    16.95644,
                    52.4397499
                ]
            },
            "properties": {
                "ref:rspo": 8443,
                "official_name": "Zesp\u00f3\u0142 Szk\u00f3\u0142 Specjalnych im. Jana Paw\u0142a II w Rawiczu",
                "name": "Zesp\u00f3\u0142 Szk\u00f3\u0142 Specjalnych",
                "addr:postcode": "63-900",
                "addr:city": "Rawicz",
                "addr:street": "Gerera\u0142a Stefana Grota Roweckiego",
                "addr:housenumber": "9F",
                "addr:city:simc": 954604,
                "addr:street:sym_ul": 27399,
                "phone": "+48 655461507",
                "email": "zss@powiatrawicki.home.pl",
                "website": "http:\/\/www.zss-rawicz.pl",
                "ref:regon": "001246950",
                "ref:vatin": "PL6991028384",
                "operator": "Powiat Rawicki",
                "operator:type": "government",
                "landuse": "education",
                "fixme": "amenity=school, amenity=college albo landuse=education w zale\u017cno\u015bci od tego, jakie plac\u00f3wki wchodz\u0105 w sk\u0142ad zespo\u0142u. Sprawd\u017a, kiedy stosowa\u0107 amenity=* a kiedy landuse=education.",
                "note": "Children RSPO: 12254;12256;12257"
            }
        },
        {
            "id": 10570,
            "type": "Feature",
            "geometry": {
                "type": "Point",
                "coordinates": [
                    16.95644,
                    52.4397199
                ]
            },
            "properties": {
                "ref:rspo": 10570,
                "official_name": "Poradnia Psychologiczno-Pedagogiczna w Rawiczu",
                "name": "Poradnia Psychologiczno-Pedagogiczna w Rawiczu",
                "addr:postcode": "63-900",
                "addr:city": "Rawicz",
                "addr:street": "Gerera\u0142a Stefana Grota Roweckiego",
                "addr:housenumber": "9e",
                "addr:city:simc": 954604,
                "addr:street:sym_ul": 27399,
                "phone": "+48 656141854",
                "email": "ppp@powiatrawicki.pl",
                "website": "http:\/\/www.poradniarawicz.pl",
                "ref:regon": "410194596",
                "ref:vatin": "PL6991862673",
                "operator": "Powiat Rawicki",
                "operator:type": "government",
                "healthcare": "counselling",
                "counselling_type": "education",
                "fixme": "w zale\u017cno\u015bci od przedmiotu dzia\u0142alno\u015bci (np. healthcare=counselling + counselling_type=education albo healthcare=psychotherapist)"
            }
        },
        {
            "id": 12254,
            "type": "Feature",
            "geometry": {
                "type": "Point",
                "coordinates": [
                    16.95644,
                    52.439689900000005
                ]
            },
            "properties": {
                "isced:level": "1;2",
                "ref:rspo": 12254,
                "official_name": "Szko\u0142a Podstawowa Specjalna nr 7 w Rawiczu",
                "name": "Szko\u0142a Podstawowa Specjalna nr 7 w Rawiczu",
                "addr:postcode": "63-900",
                "addr:city": "Rawicz",
                "addr:street": "Gerera\u0142a Stefana Grota Roweckiego",
                "addr:housenumber": "9F",
                "addr:city:simc": 954604,
                "addr:street:sym_ul": 27399,
                "phone": "+48 655461507",
                "email": "zss@powiatrawicki.home.pl",
                "website": "http:\/\/www.zss-rawicz.pl",
                "ref:regon": "411179357",
                "operator": "Powiat Rawicki",
                "operator:type": "government",
                "amenity": "school",
                "note": "Parent RSPO: 8443"
            }
        },
        {
            "id": 12256,
            "type": "Feature",
            "geometry": {
                "type": "Point",
                "coordinates": [
                    16.95644,
                    52.4396599
                ]
            },
            "properties": {
                "isced:level": "3",
                "ref:rspo": 12256,
                "official_name": "Bran\u017cowa Szko\u0142a Specjalna I Stopnia w Rawiczu",
                "name": "Bran\u017cowa Szko\u0142a Specjalna I Stopnia w Rawiczu",
                "addr:postcode": "63-900",
                "addr:city": "Rawicz",
                "addr:street": "Gerera\u0142a Stefana Grota Roweckiego",
                "addr:housenumber": "9F",
                "addr:city:simc": 954604,
                "addr:street:sym_ul": 27399,
                "phone": "+48 655461507",
                "email": "zss@powiatrawicki.home.pl",
                "website": "http:\/\/www.zss-rawicz.pl",
                "ref:regon": "411179370",
                "operator": "Powiat Rawicki",
                "operator:type": "government",
                "amenity": "school",
                "note": "Parent RSPO: 8443"
            }
        },
        {
            "id": 12257,
            "type": "Feature",
            "geometry": {
                "type": "Point",
                "coordinates": [
                    16.95644,
                    52.4396299
                ]
            },
            "properties": {
                "ref:rspo": 12257,
                "official_name": "Szko\u0142a Specjalna Przysposabiaj\u0105ca do Pracy w Rawiczu",
                "name": "Szko\u0142a Specjalna Przysposabiaj\u0105ca do Pracy w Rawiczu",
                "addr:postcode": "63-900",
                "addr:city": "Rawicz",
                "addr:street": "Gerera\u0142a Stefana Grota Roweckiego",
                "addr:housenumber": "9F",
                "addr:city:simc": 954604,
                "addr:street:sym_ul": 27399,
                "phone": "+48 655461507",
                "email": "zss@powiatrawicki.home.pl",
                "website": "http:\/\/www.zss-rawicz.pl",
                "ref:regon": "411558741",
                "operator": "Powiat Rawicki",
                "operator:type": "government",
                "amenity": "school",
                "note": "Parent RSPO: 8443"
            }
        }
    ]
}