{
    "type": "FeatureCollection",
    "features": [
        {
            "id": 56352,
            "type": "Feature",
            "geometry": {
                "type": "Point",
                "coordinates": [
                    16.73105,
                    51.67873
                ]
            },
            "properties": {
                "ref:rspo": 56352,
                "official_name": "Przedszkole w Trzeboszu",
                "name": "Przedszkole w Trzeboszu",
                "addr:country": "PL",
                "addr:postcode": "63-940",
                "addr:place": "Trzebosz",
                "addr:housenumber": "12",
                "addr:teryt:sym_ul": 369188,
                "contact:phone": "+48 655456697",
                "contact:email": "dyrektor@przedszkoletrzebosz.pl",
                "contact:website": "http:\/\/www.przedszkoletrzebosz.pl",
                "ref:regon": "411566812",
                "ref:vatin": "PL6991871962",
                "operator": "Gmina Bojanowo",
                "operator:type": "government",
                "amenity": "kindergarten"
            }
        },
        {
            "id": 70292,
            "type": "Feature",
            "geometry": {
                "type": "Point",
                "coordinates": [
                    16.79072,
                    51.69787
                ]
            },
            "properties": {
                "isced:level": "1;2",
                "ref:rspo": 70292,
                "official_name": "Szko\u0142a Podstawowa im.arkadego Fiedlera w Golinie Wielkiej",
                "name": "Szko\u0142a Podstawowa im.arkadego Fiedlera w Golinie Wielkiej",
                "addr:country": "PL",
                "addr:postcode": "63-940",
                "addr:place": "Golina Wielka",
                "addr:housenumber": "65a",
                "addr:teryt:sym_ul": 369001,
                "contact:phone": "+48 655456824",
                "contact:email": "spgolina@wp.pl",
                "contact:website": "http:\/\/spgolina.pl",
                "ref:regon": "410228823",
                "ref:vatin": "PL6991290320",
                "operator": "Gmina Bojanowo",
                "operator:type": "government",
                "amenity": "school"
            }
        },
        {
            "id": 114078,
            "type": "Feature",
            "geometry": {
                "type": "Point",
                "coordinates": [
                    16.7512077,
                    51.7018657
                ]
            },
            "properties": {
                "ref:rspo": 114078,
                "official_name": "Przedszkole Niepubliczne \"Chatka Puchatka\" And\u017celika Rajkowska Ul.powsta\u0144c\u00f3w Wielkopolskich 1663-940 Bojanowo",
                "name": "Przedszkole Niepubliczne \"Chatka Puchatka\" And\u017celika Rajkowska Ul.powsta\u0144c\u00f3w Wielkopolskich 1663-940 Bojanowo",
                "addr:country": "PL",
                "addr:postcode": "63-940",
                "addr:city": "Bojanowo",
                "addr:street": "Powsta\u0144c\u00f3w Wielkopolskich",
                "addr:housenumber": "16",
                "addr:teryt:simc": 17377,
                "addr:teryt:sym_ul": 954308,
                "contact:phone": "+48 505254093",
                "contact:email": "przedszkolebojanowo@wp.pl",
                "ref:regon": "302407127",
                "ref:vatin": "PL6991207827",
                "operator": "And\u017celika Rajkowska",
                "operator:type": "private",
                "amenity": "kindergarten"
            }
        },
        {
            "id": 268628,
            "type": "Feature",
            "geometry": {
                "type": "Point",
                "coordinates": [
                    16.74955,
                    51.70263
                ]
            },
            "properties": {
                "ref:rspo": 268628,
                "official_name": "Niepubliczne Przedszkole \"Ma\u0142ych Odkrywc\u00f3w II\"",
                "name": "Niepubliczne Przedszkole \"Ma\u0142ych Odkrywc\u00f3w II\"",
                "addr:country": "PL",
                "addr:postcode": "63-940",
                "addr:city": "Bojanowo",
                "addr:street": "Sikorskiego",
                "addr:housenumber": "2",
                "addr:teryt:simc": 19900,
                "addr:teryt:sym_ul": 954308,
                "contact:email": "maliodkrywcybojanowo@wp.pl",
                "contact:website": "http:\/\/www.remediumcenter.pl",
                "ref:regon": "381218198",
                "ref:vatin": "PL6991956256",
                "operator": "Remedium Center Nowak Sp\u00f3\u0142ka Jawna",
                "operator:type": "private",
                "amenity": "kindergarten"
            }
        },
        {
            "id": 6862,
            "type": "Feature",
            "geometry": {
                "type": "Point",
                "coordinates": [
                    16.74701,
                    51.7028899
                ]
            },
            "properties": {
                "ref:rspo": 6862,
                "official_name": "Zesp\u00f3\u0142 Szk\u00f3\u0142 Przyrodniczo - Technicznych Centrum Kszta\u0142cenia Ustawicznego w Bojanowie",
                "name": "Zesp\u00f3\u0142 Szk\u00f3\u0142 Przyrodniczo - Technicznych Centrum Kszta\u0142cenia Ustawicznego w Bojanowie",
                "addr:country": "PL",
                "addr:postcode": "63-940",
                "addr:city": "Bojanowo",
                "addr:street": "Dworcowa",
                "addr:housenumber": "29",
                "addr:teryt:simc": 4434,
                "addr:teryt:sym_ul": 954308,
                "contact:phone": "+48 655456231",
                "contact:email": "zspt@powiatrawicki.pl",
                "contact:website": "http:\/\/www.zspt@powiatrawicki.pl",
                "ref:regon": "000099866",
                "ref:vatin": "PL6991028131",
                "operator": "Powiat Rawicki",
                "operator:type": "government",
                "landuse": "education",
                "fixme": "amenity=school, amenity=college albo landuse=education w zale\u017cno\u015bci od tego, jakie plac\u00f3wki wchodz\u0105 w sk\u0142ad zespo\u0142u. Sprawd\u017a, kiedy stosowa\u0107 amenity=* a kiedy landuse=education.",
                "note": "Children RSPO: 16116;16117;16118;16121;119280;126815;275043"
            }
        },
        {
            "id": 16116,
            "type": "Feature",
            "geometry": {
                "type": "Point",
                "coordinates": [
                    16.74701,
                    51.7028599
                ]
            },
            "properties": {
                "isced:level": "3",
                "ref:rspo": 16116,
                "official_name": "Technikum im. Powsta\u0144c\u00f3w Wielkopolskich w Bojanowie",
                "name": "Technikum",
                "addr:country": "PL",
                "addr:postcode": "63-940",
                "addr:city": "Bojanowo",
                "addr:street": "Dworcowa",
                "addr:housenumber": "29",
                "addr:teryt:simc": 4434,
                "addr:teryt:sym_ul": 954308,
                "contact:phone": "+48 655456231",
                "contact:email": "zspt@powiatrawicki.pl",
                "contact:website": "http:\/\/www.zsptbojanowo.pl",
                "ref:regon": "300608146",
                "operator": "Powiat Rawicki",
                "operator:type": "government",
                "amenity": "school",
                "note": "Parent RSPO: 6862"
            }
        },
        {
            "id": 16117,
            "type": "Feature",
            "geometry": {
                "type": "Point",
                "coordinates": [
                    16.74701,
                    51.702829900000005
                ]
            },
            "properties": {
                "isced:level": "3",
                "ref:rspo": 16117,
                "official_name": "Liceum Og\u00f3lnokszta\u0142c\u0105ce w Bojanowie",
                "name": "Liceum Og\u00f3lnokszta\u0142c\u0105ce w Bojanowie",
                "addr:country": "PL",
                "addr:postcode": "63-940",
                "addr:city": "Bojanowo",
                "addr:street": "Dworcowa",
                "addr:housenumber": "29",
                "addr:teryt:simc": 4434,
                "addr:teryt:sym_ul": 954308,
                "contact:phone": "+48 655456231",
                "contact:email": "zspt@powiatrawicki.pl",
                "contact:website": "http:\/\/www.zsptbojanowo.pl",
                "ref:regon": "411532397",
                "operator": "Powiat Rawicki",
                "operator:type": "government",
                "amenity": "school",
                "note": "Parent RSPO: 6862"
            }
        },
        {
            "id": 16118,
            "type": "Feature",
            "geometry": {
                "type": "Point",
                "coordinates": [
                    16.74701,
                    51.7027999
                ]
            },
            "properties": {
                "isced:level": "3",
                "ref:rspo": 16118,
                "official_name": "Bran\u017cowa Szko\u0142a I Stopnia w Bojanowie",
                "name": "Bran\u017cowa Szko\u0142a I Stopnia w Bojanowie",
                "addr:country": "PL",
                "addr:postcode": "63-940",
                "addr:city": "Bojanowo",
                "addr:street": "Dworcowa",
                "addr:housenumber": "29",
                "addr:teryt:simc": 4434,
                "addr:teryt:sym_ul": 954308,
                "contact:phone": "+48 655456231",
                "contact:email": "zspt@powiatrawicki.pl",
                "contact:website": "http:\/\/www.zsptbojanowo.pl",
                "ref:regon": "411532457",
                "operator": "Powiat Rawicki",
                "operator:type": "government",
                "amenity": "school",
                "note": "Parent RSPO: 6862"
            }
        },
        {
            "id": 16121,
            "type": "Feature",
            "geometry": {
                "type": "Point",
                "coordinates": [
                    16.74701,
                    51.7027699
                ]
            },
            "properties": {
                "isced:level": "4",
                "ref:rspo": 16121,
                "official_name": "Szko\u0142a Policealna dla Doros\u0142ych w Bojanowie",
                "name": "Szko\u0142a Policealna dla Doros\u0142ych w Bojanowie",
                "addr:country": "PL",
                "addr:postcode": "63-940",
                "addr:city": "Bojanowo",
                "addr:street": "Dworcowa",
                "addr:housenumber": "29",
                "addr:teryt:simc": 4434,
                "addr:teryt:sym_ul": 954308,
                "contact:phone": "+48 655456231",
                "contact:email": "zspt@powiatrawicki.pl",
                "contact:website": "http:\/\/www.zsptbojanowo.pl",
                "ref:regon": "300022713",
                "operator": "Powiat Rawicki",
                "operator:type": "government",
                "amenity": "college",
                "note": "Parent RSPO: 6862"
            }
        },
        {
            "id": 119280,
            "type": "Feature",
            "geometry": {
                "type": "Point",
                "coordinates": [
                    16.74701,
                    51.702739900000005
                ]
            },
            "properties": {
                "ref:rspo": 119280,
                "official_name": "Centrum Kszta\u0142cenia Ustawicznego w Bojanowie",
                "name": "Centrum Kszta\u0142cenia Ustawicznego w Bojanowie",
                "addr:country": "PL",
                "addr:postcode": "63-940",
                "addr:city": "Bojanowo",
                "addr:street": "Dworcowa",
                "addr:housenumber": "29",
                "addr:teryt:simc": 4434,
                "addr:teryt:sym_ul": 954308,
                "contact:phone": "+48 655456231",
                "contact:email": "zspt@powiatrawicki.pl",
                "contact:website": "http:\/\/www.zsptbojanowo.pl",
                "ref:regon": "302515236",
                "operator": "Powiat Rawicki",
                "operator:type": "government",
                "fixme": "w zale\u017cno\u015bci od przedmiotu dzia\u0142alno\u015bci (np. amenity=training + training=*, amenity=dancing_school, amenity=language_school, amenity=music_school)",
                "note": "Parent RSPO: 6862"
            }
        },
        {
            "id": 126815,
            "type": "Feature",
            "geometry": {
                "type": "Point",
                "coordinates": [
                    16.74701,
                    51.7027099
                ]
            },
            "properties": {
                "isced:level": "3",
                "ref:rspo": 126815,
                "official_name": "Liceum Og\u00f3lnokszta\u0142c\u0105ce dla Doros\u0142ych w Bojanowie",
                "name": "Liceum Og\u00f3lnokszta\u0142c\u0105ce dla Doros\u0142ych w Bojanowie",
                "addr:country": "PL",
                "addr:postcode": "63-940",
                "addr:city": "Bojanowo",
                "addr:street": "Dworcowa",
                "addr:housenumber": "29",
                "addr:teryt:simc": 4434,
                "addr:teryt:sym_ul": 954308,
                "contact:phone": "+48 655456231",
                "contact:email": "zspt@powiatrawicki.pl",
                "contact:website": "http:\/\/www.zsptbojanowo.pl",
                "ref:regon": "360768966",
                "operator": "Powiat Rawicki",
                "operator:type": "government",
                "amenity": "school",
                "note": "Parent RSPO: 6862"
            }
        },
        {
            "id": 275043,
            "type": "Feature",
            "geometry": {
                "type": "Point",
                "coordinates": [
                    16.74701,
                    51.7026799
                ]
            },
            "properties": {
                "isced:level": "3",
                "ref:rspo": 275043,
                "official_name": "Bran\u017cowa Szko\u0142a II Stopnia w Bojanowie",
                "name": "Bran\u017cowa Szko\u0142a II Stopnia w Bojanowie",
                "addr:country": "PL",
                "addr:postcode": "63-940",
                "addr:city": "Bojanowo",
                "addr:street": "Dworcowa",
                "addr:housenumber": "29",
                "addr:teryt:simc": 4434,
                "addr:teryt:sym_ul": 954308,
                "contact:phone": "+48 655456231",
                "contact:email": "zspt@powiatrawicki.pl",
                "contact:website": "http:\/\/www.zsptbojanowo.pl",
                "ref:regon": "386519390",
                "operator": "Powiat Rawicki",
                "operator:type": "government",
                "amenity": "school",
                "note": "Parent RSPO: 6862"
            }
        },
        {
            "id": 56305,
            "type": "Feature",
            "geometry": {
                "type": "Point",
                "coordinates": [
                    16.7462756,
                    51.7043557
                ]
            },
            "properties": {
                "ref:rspo": 56305,
                "official_name": "Przedszkole w Bojanowie im. Misia Uszatka",
                "name": "Przedszkole w Bojanowie",
                "addr:country": "PL",
                "addr:postcode": "63-940",
                "addr:city": "Bojanowo",
                "addr:street": "D\u0105browskiego",
                "addr:housenumber": "10",
                "addr:teryt:simc": 3667,
                "addr:teryt:sym_ul": 954308,
                "contact:phone": "+48 655456368",
                "contact:email": "biuro@przedszkolewbojanowie.pl",
                "contact:website": "http:\/\/www.przedszkolewbojanowie.pl",
                "ref:regon": "411566829",
                "ref:vatin": "PL6991871956",
                "operator": "Gmina Bojanowo",
                "operator:type": "government",
                "amenity": "kindergarten"
            }
        },
        {
            "id": 70287,
            "type": "Feature",
            "geometry": {
                "type": "Point",
                "coordinates": [
                    16.74896,
                    51.70915
                ]
            },
            "properties": {
                "isced:level": "1;2",
                "ref:rspo": 70287,
                "official_name": "Szko\u0142a Podstawowa im. B\u0142. Edmunda Bojanowskiego w Bojanowie",
                "name": "Szko\u0142a Podstawowa",
                "addr:country": "PL",
                "addr:postcode": "63-940",
                "addr:city": "Bojanowo",
                "addr:street": "Lipowa",
                "addr:housenumber": "2",
                "addr:teryt:simc": 11139,
                "addr:teryt:sym_ul": 954308,
                "contact:phone": "+48 655456420",
                "contact:email": "sekretariat@spbojanowo.pl",
                "contact:website": "http:\/\/www.spbojanowo.pl",
                "ref:regon": "410506127",
                "ref:vatin": "PL6991289943",
                "operator": "Gmina Bojanowo",
                "operator:type": "government",
                "amenity": "school"
            }
        },
        {
            "id": 70295,
            "type": "Feature",
            "geometry": {
                "type": "Point",
                "coordinates": [
                    16.79747,
                    51.72751
                ]
            },
            "properties": {
                "isced:level": "1;2",
                "ref:rspo": 70295,
                "official_name": "Szko\u0142a Podstawowa im.jana Brzechwy w Go\u015bciejewicach",
                "name": "Szko\u0142a Podstawowa im.jana Brzechwy w Go\u015bciejewicach",
                "addr:country": "PL",
                "addr:postcode": "63-940",
                "addr:place": "Go\u015bciejewice",
                "addr:housenumber": "31",
                "addr:teryt:sym_ul": 369060,
                "contact:phone": "+48 655456276",
                "contact:email": "sekretariat@spgosciejewice.pl",
                "contact:website": "http:\/\/www.sp-gosciejewice.pl\/",
                "ref:regon": "001118442",
                "ref:vatin": "PL6991290219",
                "operator": "Gmina Bojanowo",
                "operator:type": "government",
                "amenity": "school"
            }
        }
    ]
}