{
    "type": "FeatureCollection",
    "features": [
        {
            "id": 114204,
            "type": "Feature",
            "geometry": {
                "type": "Point",
                "coordinates": [
                    16.11041,
                    51.63943
                ]
            },
            "properties": {
                "ref:rspo": 114204,
                "official_name": "Edukacja Zawodowa Elfaz Wr\u00f3blewski I Wsp\u00f3lnicy Sp\u00f3\u0142ka Jawna w G\u0142ogowie",
                "name": "Edukacja Zawodowa Elfaz Wr\u00f3blewski I Wsp\u00f3lnicy Sp\u00f3\u0142ka Jawna w G\u0142ogowie",
                "addr:postcode": "67-200",
                "addr:city": "G\u0142og\u00f3w",
                "addr:street": "Zielona",
                "addr:housenumber": "2",
                "addr:city:simc": 954082,
                "addr:street:sym_ul": 26081,
                "phone": "+48 768534047",
                "email": "edu.zaw.elfaz@wp.pl",
                "ref:regon": "022124334",
                "ref:vatin": "PL6932162365",
                "operator": "Elfaz Wr\u00f3blewski I Wsp\u00f3lnicy Sp\u00f3\u0142ka Jawna",
                "operator:type": "private",
                "fixme": "w zale\u017cno\u015bci od przedmiotu dzia\u0142alno\u015bci (np. amenity=training + training=*, amenity=dancing_school, amenity=language_school, amenity=music_school)"
            }
        },
        {
            "id": 44540,
            "type": "Feature",
            "geometry": {
                "type": "Point",
                "coordinates": [
                    16.11064,
                    51.64306
                ]
            },
            "properties": {
                "ref:rspo": 44540,
                "official_name": "Przedszkole Publiczne nr 21 w G\u0142ogowie",
                "name": "Przedszkole Publiczne nr 21 w G\u0142ogowie",
                "addr:postcode": "67-200",
                "addr:city": "G\u0142og\u00f3w",
                "addr:street": "Ziemowita",
                "addr:housenumber": "2",
                "addr:city:simc": 954082,
                "addr:street:sym_ul": 26129,
                "phone": "+48 768358084",
                "email": "pp21@www.glogow.pl",
                "website": "http:\/\/www.pp21.szkolnastrona.pl",
                "ref:regon": "390243720",
                "ref:vatin": "PL6931910693",
                "operator": "Gmina Miejska G\u0142og\u00f3w",
                "operator:type": "government",
                "amenity": "kindergarten"
            }
        },
        {
            "id": 22349,
            "type": "Feature",
            "geometry": {
                "type": "Point",
                "coordinates": [
                    16.11286,
                    51.64338
                ]
            },
            "properties": {
                "isced:level": "1;2",
                "ref:rspo": 22349,
                "official_name": "Szko\u0142a Podstawowa nr 3 im. Noblist\u00f3w Polskich w G\u0142ogowie",
                "name": "Szko\u0142a Podstawowa nr 3",
                "addr:postcode": "67-200",
                "addr:city": "G\u0142og\u00f3w",
                "addr:street": "Plac Mieszka I",
                "addr:housenumber": "22",
                "addr:city:simc": 954082,
                "addr:street:sym_ul": 39512,
                "phone": "+48 768347163",
                "email": "sp3@www.glogow.pl",
                "website": "http:\/\/www.sp3glogow.pl",
                "ref:regon": "390932365",
                "ref:vatin": "PL6931963643",
                "operator": "Gmina Miejska G\u0142og\u00f3w",
                "operator:type": "government",
                "amenity": "school"
            }
        },
        {
            "id": 267616,
            "type": "Feature",
            "geometry": {
                "type": "Point",
                "coordinates": [
                    16.11481,
                    51.64372
                ]
            },
            "properties": {
                "ref:rspo": 267616,
                "official_name": "Przedszkole Publiczne nr 15 w G\u0142ogowie",
                "name": "Przedszkole Publiczne nr 15 w G\u0142ogowie",
                "addr:postcode": "67-200",
                "addr:city": "G\u0142og\u00f3w",
                "addr:street": "Plac Mieszka I",
                "addr:housenumber": "11",
                "addr:city:simc": 954082,
                "addr:street:sym_ul": 39512,
                "phone": "+48 767451103",
                "email": "dyrektor@pp15.glogow.pl",
                "website": "http:\/\/www.pp15.glogow.pl",
                "ref:regon": "380418765",
                "ref:vatin": "PL6932183462",
                "operator": "Gmina Miejska G\u0142og\u00f3w",
                "operator:type": "government",
                "amenity": "kindergarten"
            }
        },
        {
            "id": 49131,
            "type": "Feature",
            "geometry": {
                "type": "Point",
                "coordinates": [
                    16.10973,
                    51.64378
                ]
            },
            "properties": {
                "ref:rspo": 49131,
                "official_name": "Przedszkole Niepubliczne Kubu\u015b Puchatek",
                "name": "Przedszkole Niepubliczne Kubu\u015b Puchatek",
                "addr:postcode": "67-200",
                "addr:city": "G\u0142og\u00f3w",
                "addr:street": "Dobrawy",
                "addr:housenumber": "5a",
                "addr:city:simc": 954082,
                "addr:street:sym_ul": 3935,
                "phone": "+48 884364344",
                "email": "pnkubuspuchatek@interia.pl",
                "ref:regon": "021994560",
                "ref:vatin": "PL6932045292",
                "operator": "Grzegorz Sza\u0142agan",
                "operator:type": "private",
                "amenity": "kindergarten"
            }
        },
        {
            "id": 278634,
            "type": "Feature",
            "geometry": {
                "type": "Point",
                "coordinates": [
                    16.11173,
                    51.64535
                ]
            },
            "properties": {
                "ref:rspo": 278634,
                "official_name": "Przedszkole Niepubliczne Ma\u0142ych Piast\u00f3w",
                "name": "Przedszkole Niepubliczne Ma\u0142ych Piast\u00f3w",
                "addr:postcode": "67-200",
                "addr:city": "G\u0142og\u00f3w",
                "addr:street": "Budziszy\u0144ska",
                "addr:housenumber": "1a",
                "addr:city:simc": 954082,
                "addr:street:sym_ul": 2353,
                "phone": "+48 730730970",
                "email": "biuro.malychpiastow@wp.pl",
                "ref:regon": "520012756",
                "operator": "Zbigniew Lemiesz",
                "operator:type": "private",
                "amenity": "kindergarten"
            }
        },
        {
            "id": 51256,
            "type": "Feature",
            "geometry": {
                "type": "Point",
                "coordinates": [
                    16.07337,
                    51.64649
                ]
            },
            "properties": {
                "ref:rspo": 51256,
                "official_name": "Przedszkole Niepubliczne Poziomka",
                "name": "Przedszkole Niepubliczne Poziomka",
                "addr:postcode": "67-200",
                "addr:city": "G\u0142og\u00f3w",
                "addr:street": "Wile\u0144ska",
                "addr:housenumber": "28",
                "addr:city:simc": 954082,
                "addr:street:sym_ul": 24289,
                "phone": "+48 609508305",
                "email": "ewaczainska@go2.pl",
                "website": "http:\/\/www.przedszkole-poziomka.pl",
                "ref:regon": "021994642",
                "ref:vatin": "PL6931353933",
                "operator": "Ewa Czai\u0144ska",
                "operator:type": "private",
                "amenity": "kindergarten"
            }
        },
        {
            "id": 22355,
            "type": "Feature",
            "geometry": {
                "type": "Point",
                "coordinates": [
                    16.10082,
                    51.64748
                ]
            },
            "properties": {
                "isced:level": "1;2",
                "ref:rspo": 22355,
                "official_name": "Szko\u0142a Podstawowa nr 14 im. Henryka III G\u0142ogowskiego w G\u0142ogowie",
                "name": "Szko\u0142a Podstawowa nr 14",
                "addr:postcode": "67-200",
                "addr:city": "G\u0142og\u00f3w",
                "addr:street": "Kr\u00f3lewska",
                "addr:housenumber": "12",
                "addr:city:simc": 954082,
                "addr:street:sym_ul": 9987,
                "phone": "+48 768347295",
                "email": "sp14_2@demetria.glogow.um.gov.pl",
                "website": "http:\/\/www.sp14.glogow.pl\/",
                "ref:regon": "001272150",
                "ref:vatin": "PL6931013887",
                "operator": "Gmina Miejska G\u0142og\u00f3w",
                "operator:type": "government",
                "amenity": "school"
            }
        },
        {
            "id": 8947,
            "type": "Feature",
            "geometry": {
                "type": "Point",
                "coordinates": [
                    16.10885,
                    51.64958
                ]
            },
            "properties": {
                "ref:rspo": 8947,
                "official_name": "Powiatowe Centrum Poradnictwa Psychologiczno-Pedagogicznego I Doskonalenia Nauczycieli w G\u0142ogowie",
                "name": "Powiatowe Centrum Poradnictwa Psychologiczno-Pedagogicznego I Doskonalenia Nauczycieli w G\u0142ogowie",
                "addr:postcode": "67-200",
                "addr:city": "G\u0142og\u00f3w",
                "addr:street": "Folwarczna",
                "addr:housenumber": "52",
                "addr:city:simc": 954082,
                "addr:street:sym_ul": 5109,
                "phone": "+48 768333293",
                "email": "centrum@pcpppidn.eu",
                "website": "http:\/\/www.pcpppidn.eu",
                "ref:regon": "391066970",
                "ref:vatin": "PL6932049657",
                "operator": "Powiat G\u0142ogowski",
                "operator:type": "government",
                "landuse": "education",
                "fixme": "amenity=school, amenity=college albo landuse=education w zale\u017cno\u015bci od tego, jakie plac\u00f3wki wchodz\u0105 w sk\u0142ad zespo\u0142u. Sprawd\u017a, kiedy stosowa\u0107 amenity=* a kiedy landuse=education.",
                "note": "Children RSPO: 13616;13642;13649"
            }
        },
        {
            "id": 13616,
            "type": "Feature",
            "geometry": {
                "type": "Point",
                "coordinates": [
                    16.10885,
                    51.64955
                ]
            },
            "properties": {
                "ref:rspo": 13616,
                "official_name": "Poradnia Psychologiczno-Pedagogiczna w G\u0142ogowie",
                "name": "Poradnia Psychologiczno-Pedagogiczna w G\u0142ogowie",
                "addr:postcode": "67-200",
                "addr:city": "G\u0142og\u00f3w",
                "addr:street": "Folwarczna",
                "addr:housenumber": "52",
                "addr:city:simc": 954082,
                "addr:street:sym_ul": 5109,
                "phone": "+48 768357540",
                "email": "centrum@pcpppidn.eu",
                "website": "http:\/\/www.pcpppidn.eu",
                "ref:regon": "000708874",
                "operator": "Powiat G\u0142ogowski",
                "operator:type": "government",
                "healthcare": "counselling",
                "counselling_type": "education",
                "fixme": "w zale\u017cno\u015bci od przedmiotu dzia\u0142alno\u015bci (np. healthcare=counselling + counselling_type=education albo healthcare=psychotherapist)",
                "note": "Parent RSPO: 8947"
            }
        },
        {
            "id": 15698,
            "type": "Feature",
            "geometry": {
                "type": "Point",
                "coordinates": [
                    16.09386,
                    51.64975
                ]
            },
            "properties": {
                "ref:rspo": 15698,
                "official_name": "Centrum Kszta\u0142cenia Agat Waldemar A\u0142da\u015b",
                "name": "Centrum Kszta\u0142cenia Agat Waldemar A\u0142da\u015b",
                "addr:postcode": "67-200",
                "addr:city": "G\u0142og\u00f3w",
                "addr:street": "Wi\u015bniowa",
                "addr:housenumber": "26",
                "addr:city:simc": 954082,
                "addr:street:sym_ul": 24412,
                "phone": "+48 604447504",
                "email": "aldas@master.pl",
                "website": "http:\/\/www.oviver.com",
                "ref:regon": "021965416",
                "ref:vatin": "PL6931064152",
                "operator": "Waldemar A\u0142da\u015b",
                "operator:type": "private",
                "fixme": "w zale\u017cno\u015bci od przedmiotu dzia\u0142alno\u015bci (np. amenity=training + training=*, amenity=dancing_school, amenity=language_school, amenity=music_school)"
            }
        },
        {
            "id": 43921,
            "type": "Feature",
            "geometry": {
                "type": "Point",
                "coordinates": [
                    16.101,
                    51.6497699
                ]
            },
            "properties": {
                "ref:rspo": 43921,
                "official_name": "Przedszkole Publiczne nr 17 w G\u0142ogowie",
                "name": "Przedszkole Publiczne nr 17 w G\u0142ogowie",
                "addr:postcode": "67-200",
                "addr:city": "G\u0142og\u00f3w",
                "addr:street": "Kr\u00f3lewska",
                "addr:housenumber": "14",
                "addr:city:simc": 954082,
                "addr:street:sym_ul": 9987,
                "phone": "+48 768358245",
                "email": "pp17@www.glogow.pl",
                "website": "http:\/\/www.pp17glogow.blizej.info",
                "ref:regon": "390243750",
                "ref:vatin": "PL6931910664",
                "operator": "Gmina Miejska G\u0142og\u00f3w",
                "operator:type": "government",
                "amenity": "kindergarten"
            }
        },
        {
            "id": 267027,
            "type": "Feature",
            "geometry": {
                "type": "Point",
                "coordinates": [
                    16.10899,
                    51.64984
                ]
            },
            "properties": {
                "ref:rspo": 267027,
                "official_name": "Zesp\u00f3\u0142 Szk\u00f3\u0142 Przyrodniczych I Bran\u017cowych w G\u0142ogowie",
                "name": "Zesp\u00f3\u0142 Szk\u00f3\u0142 Przyrodniczych I Bran\u017cowych w G\u0142ogowie",
                "addr:postcode": "67-200",
                "addr:city": "G\u0142og\u00f3w",
                "addr:street": "Folwarczna",
                "addr:housenumber": "55",
                "addr:city:simc": 954082,
                "addr:street:sym_ul": 5109,
                "phone": "+48 768333857",
                "email": "rolglogow@poczta.onet.pl",
                "website": "http:\/\/www.przyrodniczaglogow.pl",
                "ref:regon": "369814308",
                "operator": "Powiat G\u0142ogowski",
                "operator:type": "government",
                "landuse": "education",
                "fixme": "amenity=school, amenity=college albo landuse=education w zale\u017cno\u015bci od tego, jakie plac\u00f3wki wchodz\u0105 w sk\u0142ad zespo\u0142u. Sprawd\u017a, kiedy stosowa\u0107 amenity=* a kiedy landuse=education.",
                "note": "Children RSPO: 6923;267036"
            }
        },
        {
            "id": 6923,
            "type": "Feature",
            "geometry": {
                "type": "Point",
                "coordinates": [
                    16.10899,
                    51.649809999999995
                ]
            },
            "properties": {
                "isced:level": "3",
                "ref:rspo": 6923,
                "official_name": "Technikum nr 6 w G\u0142ogowie",
                "name": "Technikum nr 6 w G\u0142ogowie",
                "addr:postcode": "67-200",
                "addr:city": "G\u0142og\u00f3w",
                "addr:street": "Folwarczna",
                "addr:housenumber": "55",
                "addr:city:simc": 954082,
                "addr:street:sym_ul": 5109,
                "phone": "+48 768333857",
                "email": "rolglogow@poczta.onet.pl",
                "website": "http:\/\/www.przyrodniczaglogow.pl",
                "ref:regon": "020102179",
                "operator": "Powiat G\u0142ogowski",
                "operator:type": "government",
                "amenity": "school",
                "note": "Parent RSPO: 267027"
            }
        },
        {
            "id": 267036,
            "type": "Feature",
            "geometry": {
                "type": "Point",
                "coordinates": [
                    16.10899,
                    51.64978
                ]
            },
            "properties": {
                "isced:level": "3",
                "ref:rspo": 267036,
                "official_name": "Bran\u017cowa Szko\u0142a I Stopnia nr 7 w G\u0142ogowie",
                "name": "Bran\u017cowa Szko\u0142a I Stopnia nr 7 w G\u0142ogowie",
                "addr:postcode": "67-200",
                "addr:city": "G\u0142og\u00f3w",
                "addr:street": "Folwarczna",
                "addr:housenumber": "55",
                "addr:city:simc": 954082,
                "addr:street:sym_ul": 5109,
                "phone": "+48 768333857",
                "email": "rolglogow@poczta.onet.pl",
                "website": "http:\/\/www.przyrodniczaglogow.pl",
                "ref:regon": "369819470",
                "operator": "Powiat G\u0142ogowski",
                "operator:type": "government",
                "amenity": "school",
                "note": "Parent RSPO: 267027"
            }
        },
        {
            "id": 44269,
            "type": "Feature",
            "geometry": {
                "type": "Point",
                "coordinates": [
                    16.07558,
                    51.65158
                ]
            },
            "properties": {
                "ref:rspo": 44269,
                "official_name": "Przedszkole Publiczne nr 20 z Oddzia\u0142ami Integracyjnymi w G\u0142ogowie",
                "name": "Przedszkole Publiczne nr 20 z Oddzia\u0142ami Integracyjnymi w G\u0142ogowie",
                "addr:postcode": "67-200",
                "addr:city": "G\u0142og\u00f3w",
                "addr:street": "Herkulesa",
                "addr:housenumber": "4",
                "addr:city:simc": 954082,
                "addr:street:sym_ul": 6623,
                "phone": "+48 767265609",
                "email": "pp20@www.glogow.pl",
                "website": "http:\/\/www.pp20.glogow.pl",
                "ref:regon": "390243772",
                "ref:vatin": "PL6931910658",
                "operator": "Gmina Miejska G\u0142og\u00f3w",
                "operator:type": "government",
                "amenity": "kindergarten"
            }
        },
        {
            "id": 126355,
            "type": "Feature",
            "geometry": {
                "type": "Point",
                "coordinates": [
                    16.06897,
                    51.65163
                ]
            },
            "properties": {
                "ref:rspo": 126355,
                "official_name": "Przedszkoe Niepubliczne \"Jarz\u0119binki\"",
                "name": "Przedszkoe Niepubliczne \"Jarz\u0119binki\"",
                "addr:postcode": "67-200",
                "addr:city": "G\u0142og\u00f3w",
                "addr:street": "Gwia\u017adzista",
                "addr:housenumber": "16",
                "addr:city:simc": 954082,
                "addr:street:sym_ul": 6422,
                "phone": "+48 692058467",
                "email": "przedszkole@przedszkolejarzebinki.pl",
                "website": "http:\/\/www.zieloneprzedszkola.eu",
                "ref:regon": "360252323",
                "ref:vatin": "PL6932177013",
                "operator": "Lucyna Ma\u015blanka",
                "operator:type": "private",
                "amenity": "kindergarten"
            }
        },
        {
            "id": 44020,
            "type": "Feature",
            "geometry": {
                "type": "Point",
                "coordinates": [
                    16.06509,
                    51.65208
                ]
            },
            "properties": {
                "ref:rspo": 44020,
                "official_name": "Przedszkole Publiczne nr 19 w G\u0142ogowie \"Bajka\"",
                "name": "Przedszkole Publiczne nr 19 w G\u0142ogowie \"Bajka\"",
                "addr:postcode": "67-200",
                "addr:city": "G\u0142og\u00f3w",
                "addr:street": "Plutona",
                "addr:housenumber": "3",
                "addr:city:simc": 954082,
                "addr:street:sym_ul": 16484,
                "phone": "+48 767265605",
                "email": "bajka@przedszkole19.glogow.pl",
                "website": "http:\/\/www.przedszkole19.glogow.pl",
                "ref:regon": "390243766",
                "ref:vatin": "PL6931910641",
                "operator": "Gmina Miejska G\u0142og\u00f3w",
                "operator:type": "government",
                "amenity": "kindergarten"
            }
        },
        {
            "id": 124982,
            "type": "Feature",
            "geometry": {
                "type": "Point",
                "coordinates": [
                    16.08289,
                    51.65232
                ]
            },
            "properties": {
                "isced:level": "1;2",
                "ref:rspo": 124982,
                "official_name": "Szko\u0142a Podstawowa nr 4 w Zak\u0142adzie Poprawczym I Schronisku dla Nieletnich w G\u0142ogowie",
                "name": "Szko\u0142a Podstawowa nr 4 w Zak\u0142adzie Poprawczym I Schronisku dla Nieletnich w G\u0142ogowie",
                "addr:postcode": "67-200",
                "addr:city": "G\u0142og\u00f3w",
                "addr:street": "Obro\u0144c\u00f3w Pokoju",
                "addr:housenumber": "19",
                "addr:city:simc": 954082,
                "addr:street:sym_ul": 14642,
                "phone": "+48 768358830",
                "email": "sekretariat@glogow.zpisdn.gov.pl",
                "website": "http:\/\/www.glogow.zpisdn.gov.pl",
                "ref:regon": "391022464",
                "operator": "Ministerstwo Sprawiedliwo\u015bci",
                "operator:type": "government",
                "amenity": "school",
                "note": "Parent RSPO: 105077"
            }
        },
        {
            "id": 266855,
            "type": "Feature",
            "geometry": {
                "type": "Point",
                "coordinates": [
                    16.08289,
                    51.65229
                ]
            },
            "properties": {
                "isced:level": "3",
                "ref:rspo": 266855,
                "official_name": "Bran\u017cowa Szko\u0142a I Stopnia nr 5 w Zak\u0142adzie Poprawczym I Schronisku dla Nieletnich w G\u0142ogowie",
                "name": "Bran\u017cowa Szko\u0142a I Stopnia nr 5 w Zak\u0142adzie Poprawczym I Schronisku dla Nieletnich w G\u0142ogowie",
                "addr:postcode": "67-200",
                "addr:city": "G\u0142og\u00f3w",
                "addr:street": "Obro\u0144c\u00f3w Pokoju",
                "addr:housenumber": "19",
                "addr:city:simc": 954082,
                "addr:street:sym_ul": 14642,
                "phone": "+48 768358830",
                "email": "sekretariat@zp.glogow.pl",
                "website": "http:\/\/www.glogow.zp.gov.pl",
                "ref:regon": "391022470",
                "ref:vatin": "PL6931127533",
                "operator": "Ministerstwo Sprawiedliwo\u015bci",
                "operator:type": "government",
                "amenity": "school",
                "note": "Parent RSPO: 105077"
            }
        },
        {
            "id": 196276,
            "type": "Feature",
            "geometry": {
                "type": "Point",
                "coordinates": [
                    16.06662,
                    51.65238
                ]
            },
            "properties": {
                "isced:level": "1;2",
                "ref:rspo": 196276,
                "official_name": "Szko\u0142a Podstawowa nr 11 im. Polskich Olimpijczyk\u00f3w w G\u0142ogowie",
                "name": "Szko\u0142a Podstawowa nr 11",
                "addr:postcode": "67-200",
                "addr:city": "G\u0142og\u00f3w",
                "addr:street": "Gwia\u017adzista",
                "addr:housenumber": "2",
                "addr:city:simc": 954082,
                "addr:street:sym_ul": 6422,
                "phone": "+48 767265625",
                "email": "sekretariat@sp11.glogow.pl",
                "website": "http:\/\/sp11.glogow.pl",
                "ref:regon": "367992655",
                "ref:vatin": "PL6932181351",
                "operator": "Gmina Miejska G\u0142og\u00f3w",
                "operator:type": "government",
                "amenity": "school"
            }
        },
        {
            "id": 54136,
            "type": "Feature",
            "geometry": {
                "type": "Point",
                "coordinates": [
                    16.07091,
                    51.65243
                ]
            },
            "properties": {
                "ref:rspo": 54136,
                "official_name": "Przedszkole Niepubliczne S\u0142oneczko",
                "name": "Przedszkole Niepubliczne S\u0142oneczko",
                "addr:postcode": "67-200",
                "addr:city": "G\u0142og\u00f3w",
                "addr:street": "Gwia\u017adzista",
                "addr:housenumber": "3a",
                "addr:city:simc": 954082,
                "addr:street:sym_ul": 6422,
                "phone": "+48 513010429",
                "email": "bajka.przedszkola@o2.pl",
                "website": "http:\/\/www.doprzedszkola.pl",
                "ref:regon": "021999266",
                "ref:vatin": "PL4970064793",
                "operator": "\"Bajka\" Alicja \u015aliwi\u0144ska, Danuta Krzy\u017canowska Sp\u00f3\u0142ka Jawna",
                "operator:type": "private",
                "amenity": "kindergarten"
            }
        },
        {
            "id": 13368,
            "type": "Feature",
            "geometry": {
                "type": "Point",
                "coordinates": [
                    16.0597,
                    51.65263
                ]
            },
            "properties": {
                "ref:rspo": 13368,
                "official_name": "O\u015brodek Rewalidacyjno-Wychowawczy w G\u0142ogowie",
                "name": "O\u015brodek Rewalidacyjno-Wychowawczy w G\u0142ogowie",
                "addr:postcode": "67-200",
                "addr:city": "G\u0142og\u00f3w",
                "addr:street": "Perseusza",
                "addr:housenumber": "7",
                "addr:city:simc": 954082,
                "addr:street:sym_ul": 15956,
                "phone": "+48 768313990",
                "email": "zpsw.glogow@wp.pl",
                "website": "http:\/\/www.zpsw.glogow.org",
                "ref:regon": "020306002",
                "operator": "Powiat G\u0142ogowski",
                "operator:type": "government",
                "amenity": "school",
                "note": "Parent RSPO: 8683"
            }
        },
        {
            "id": 10427,
            "type": "Feature",
            "geometry": {
                "type": "Point",
                "coordinates": [
                    16.0597,
                    51.6526
                ]
            },
            "properties": {
                "ref:rspo": 10427,
                "official_name": "Przedszkole Specjalne w G\u0142ogowie",
                "name": "Przedszkole Specjalne w G\u0142ogowie",
                "addr:postcode": "67-200",
                "addr:city": "G\u0142og\u00f3w",
                "addr:street": "Perseusza",
                "addr:housenumber": "7",
                "addr:city:simc": 954082,
                "addr:street:sym_ul": 15956,
                "phone": "+48 768313990",
                "email": "zpsw.glogow@wp.pl",
                "website": "http:\/\/www.zpsw.glogow.org",
                "ref:regon": "021956481",
                "operator": "Powiat G\u0142ogowski",
                "operator:type": "government",
                "amenity": "kindergarten",
                "note": "Parent RSPO: 8863"
            }
        },
        {
            "id": 22353,
            "type": "Feature",
            "geometry": {
                "type": "Point",
                "coordinates": [
                    16.07426,
                    51.65267
                ]
            },
            "properties": {
                "isced:level": "1;2",
                "ref:rspo": 22353,
                "official_name": "Szko\u0142a Podstawowa nr 12 z Oddzia\u0142ami Integracyjnymi im. Kawaler\u00f3w Orderu U\u015bmiechu w G\u0142ogowie",
                "name": "Szko\u0142a Podstawowa nr 12 z Oddzia\u0142ami Integracyjnymi",
                "addr:postcode": "67-200",
                "addr:city": "G\u0142og\u00f3w",
                "addr:street": "Miko\u0142aja Gom\u00f3\u0142ki",
                "addr:housenumber": "43",
                "addr:city:simc": 954082,
                "addr:street:sym_ul": 5790,
                "phone": "+48 767265610",
                "email": "sp12@www.glogow.pl",
                "website": "http:\/\/www.sp12.master.pl",
                "ref:regon": "001239938",
                "ref:vatin": "PL6931930543",
                "operator": "Gmina Miejska G\u0142og\u00f3w",
                "operator:type": "government",
                "amenity": "school"
            }
        },
        {
            "id": 5553,
            "type": "Feature",
            "geometry": {
                "type": "Point",
                "coordinates": [
                    16.05937,
                    51.65307
                ]
            },
            "properties": {
                "ref:rspo": 5553,
                "official_name": "Zesp\u00f3\u0142 Szk\u00f3\u0142 Technicznych I Og\u00f3lnokszta\u0142c\u0105cych w G\u0142ogowie",
                "name": "Zesp\u00f3\u0142 Szk\u00f3\u0142 Technicznych I Og\u00f3lnokszta\u0142c\u0105cych w G\u0142ogowie",
                "addr:postcode": "67-200",
                "addr:city": "G\u0142og\u00f3w",
                "addr:street": "Perseusza",
                "addr:housenumber": "5",
                "addr:city:simc": 954082,
                "addr:street:sym_ul": 15956,
                "phone": "+48 768339634",
                "email": "zszoi.glogow@wp.pl",
                "website": "http:\/\/www.zszoi.nazwa.pl",
                "ref:regon": "390995532",
                "ref:vatin": "PL6931987632",
                "operator": "Powiat G\u0142ogowski",
                "operator:type": "government",
                "landuse": "education",
                "fixme": "amenity=school, amenity=college albo landuse=education w zale\u017cno\u015bci od tego, jakie plac\u00f3wki wchodz\u0105 w sk\u0142ad zespo\u0142u. Sprawd\u017a, kiedy stosowa\u0107 amenity=* a kiedy landuse=education.",
                "note": "Children RSPO: 6376;6426;6458;274738"
            }
        },
        {
            "id": 6376,
            "type": "Feature",
            "geometry": {
                "type": "Point",
                "coordinates": [
                    16.05937,
                    51.65304
                ]
            },
            "properties": {
                "isced:level": "3",
                "ref:rspo": 6376,
                "official_name": "Iv Liceum Og\u00f3lnokszta\u0142c\u0105ce im. Ks. Jana Twardowskiego w G\u0142ogowie",
                "name": "Iv Liceum Og\u00f3lnokszta\u0142c\u0105ce",
                "addr:postcode": "67-200",
                "addr:city": "G\u0142og\u00f3w",
                "addr:street": "Perseusza",
                "addr:housenumber": "5",
                "addr:city:simc": 954082,
                "addr:street:sym_ul": 15956,
                "phone": "+48 768339634",
                "email": "zszoi.glogow@wp.pl",
                "website": "http:\/\/www.zszoi.nazwa.pl",
                "ref:regon": "390313768",
                "operator": "Powiat G\u0142ogowski",
                "operator:type": "government",
                "amenity": "school",
                "note": "Parent RSPO: 5553"
            }
        },
        {
            "id": 6426,
            "type": "Feature",
            "geometry": {
                "type": "Point",
                "coordinates": [
                    16.05937,
                    51.65301
                ]
            },
            "properties": {
                "isced:level": "3",
                "ref:rspo": 6426,
                "official_name": "Bran\u017cowa Szko\u0142a I Stopnia nr 1 w G\u0142ogowie",
                "name": "Bran\u017cowa Szko\u0142a I Stopnia nr 1 w G\u0142ogowie",
                "addr:postcode": "67-200",
                "addr:city": "G\u0142og\u00f3w",
                "addr:street": "Perseusza",
                "addr:housenumber": "5",
                "addr:city:simc": 954082,
                "addr:street:sym_ul": 15956,
                "phone": "+48 768339634",
                "email": "zszoi.glogow@wp.pl",
                "website": "http:\/\/www.zszoi.nazwa.pl",
                "ref:regon": "020814595",
                "operator": "Powiat G\u0142ogowski",
                "operator:type": "government",
                "amenity": "school",
                "note": "Parent RSPO: 5553"
            }
        },
        {
            "id": 6458,
            "type": "Feature",
            "geometry": {
                "type": "Point",
                "coordinates": [
                    16.05937,
                    51.65298
                ]
            },
            "properties": {
                "isced:level": "3",
                "ref:rspo": 6458,
                "official_name": "Technikum nr 2 w G\u0142ogowie",
                "name": "Technikum nr 2 w G\u0142ogowie",
                "addr:postcode": "67-200",
                "addr:city": "G\u0142og\u00f3w",
                "addr:street": "Perseusza",
                "addr:housenumber": "5",
                "addr:city:simc": 954082,
                "addr:street:sym_ul": 15956,
                "phone": "+48 768339634",
                "email": "zszoi.glogow@wp.pl",
                "website": "http:\/\/www.zszoi.com.pl",
                "ref:regon": "390995503",
                "operator": "Powiat G\u0142ogowski",
                "operator:type": "government",
                "amenity": "school",
                "note": "Parent RSPO: 5553"
            }
        },
        {
            "id": 274738,
            "type": "Feature",
            "geometry": {
                "type": "Point",
                "coordinates": [
                    16.05937,
                    51.65295
                ]
            },
            "properties": {
                "isced:level": "3",
                "ref:rspo": 274738,
                "official_name": "Bran\u017cowa Szko\u0142a II Stopnia nr 1 w G\u0142ogowie",
                "name": "Bran\u017cowa Szko\u0142a II Stopnia nr 1 w G\u0142ogowie",
                "addr:postcode": "67-200",
                "addr:city": "G\u0142og\u00f3w",
                "addr:street": "Perseusza",
                "addr:housenumber": "5",
                "addr:city:simc": 954082,
                "addr:street:sym_ul": 15956,
                "phone": "+48 768339634",
                "email": "zszoi.glogow@wp.pl",
                "website": "http:\/\/zszoi.com.pl",
                "ref:regon": "386286626",
                "operator": "Powiat G\u0142ogowski",
                "operator:type": "government",
                "amenity": "school",
                "note": "Parent RSPO: 5553"
            }
        },
        {
            "id": 22354,
            "type": "Feature",
            "geometry": {
                "type": "Point",
                "coordinates": [
                    16.12663,
                    51.65309
                ]
            },
            "properties": {
                "isced:level": "1;2",
                "ref:rspo": 22354,
                "official_name": "Szko\u0142a Podstawowa nr 13 im. Orl\u0105t Lwowskich w G\u0142ogowie",
                "name": "Szko\u0142a Podstawowa nr 13",
                "addr:postcode": "67-200",
                "addr:city": "G\u0142og\u00f3w",
                "addr:street": "Akacjowa",
                "addr:housenumber": "10",
                "addr:city:simc": 954082,
                "addr:street:sym_ul": 157,
                "phone": "+48 768358235",
                "email": "sekretariat@sp13.glogow.pl",
                "website": "http:\/\/www.sp13glogow.edupage.org",
                "ref:regon": "001240568",
                "ref:vatin": "PL6931013752",
                "operator": "Gmina Miejska G\u0142og\u00f3w",
                "operator:type": "government",
                "amenity": "school"
            }
        },
        {
            "id": 43991,
            "type": "Feature",
            "geometry": {
                "type": "Point",
                "coordinates": [
                    16.0728,
                    51.65337
                ]
            },
            "properties": {
                "ref:rspo": 43991,
                "official_name": "Studium J\u0119zyk\u00f3w Obcych \"Mr Happy\" Jolanta Nawrocka",
                "name": "Studium J\u0119zyk\u00f3w Obcych \"Mr Happy\" Jolanta Nawrocka",
                "addr:postcode": "67-200",
                "addr:city": "G\u0142og\u00f3w",
                "addr:street": "Saturna",
                "addr:housenumber": "38a",
                "addr:city:simc": 954082,
                "addr:street:sym_ul": 19555,
                "phone": "+48 512220953",
                "email": "jolantanawrocka16@gmail.com",
                "website": "http:\/\/www.mrhappy.com.pl",
                "ref:regon": "021993996",
                "ref:vatin": "PL6931525831",
                "operator": "Jolanta Nawrocka",
                "operator:type": "private",
                "fixme": "w zale\u017cno\u015bci od przedmiotu dzia\u0142alno\u015bci (np. amenity=training + training=*, amenity=dancing_school, amenity=language_school, amenity=music_school)"
            }
        },
        {
            "id": 22352,
            "type": "Feature",
            "geometry": {
                "type": "Point",
                "coordinates": [
                    16.06268,
                    51.65358
                ]
            },
            "properties": {
                "isced:level": "1;2",
                "ref:rspo": 22352,
                "official_name": "Szko\u0142a Podstawowa nr 10 im. Miko\u0142aja Kopernika w G\u0142ogowie",
                "name": "Szko\u0142a Podstawowa nr 10",
                "addr:postcode": "67-200",
                "addr:city": "G\u0142og\u00f3w",
                "addr:street": "Andromedy",
                "addr:housenumber": "62",
                "addr:city:simc": 954082,
                "addr:street:sym_ul": 294,
                "phone": "+48 768338600",
                "email": "sp10@www.glogow.pl",
                "website": "http:\/\/www.sp10glogow.pl",
                "ref:regon": "390380641",
                "ref:vatin": "PL6931013829",
                "operator": "Gmina Miejska G\u0142og\u00f3w",
                "operator:type": "government",
                "amenity": "school"
            }
        },
        {
            "id": 42317,
            "type": "Feature",
            "geometry": {
                "type": "Point",
                "coordinates": [
                    16.0820599,
                    51.65378
                ]
            },
            "properties": {
                "ref:rspo": 42317,
                "official_name": "Plac\u00f3wka Szkoleniowa \"The Helping Hand\"",
                "name": "Plac\u00f3wka Szkoleniowa \"The Helping Hand\"",
                "addr:postcode": "67-200",
                "addr:city": "G\u0142og\u00f3w",
                "addr:street": "Obro\u0144c\u00f3w Pokoju",
                "addr:housenumber": "30b",
                "addr:door": "30",
                "addr:city:simc": 954082,
                "addr:street:sym_ul": 14642,
                "phone": "+48 502361982",
                "email": "4xhmirek@wp.pl",
                "ref:regon": "021993625",
                "ref:vatin": "PL6931060705",
                "operator": "Miros\u0142aw Kuta",
                "operator:type": "private",
                "fixme": "w zale\u017cno\u015bci od przedmiotu dzia\u0142alno\u015bci (np. amenity=training + training=*, amenity=dancing_school, amenity=language_school, amenity=music_school)"
            }
        },
        {
            "id": 8683,
            "type": "Feature",
            "geometry": {
                "type": "Point",
                "coordinates": [
                    16.10094,
                    51.65396
                ]
            },
            "properties": {
                "ref:rspo": 8683,
                "official_name": "Zesp\u00f3\u0142 Plac\u00f3wek Szkolno-Wychowawczych w G\u0142ogowie",
                "name": "Zesp\u00f3\u0142 Plac\u00f3wek Szkolno-Wychowawczych w G\u0142ogowie",
                "addr:postcode": "67-200",
                "addr:city": "G\u0142og\u00f3w",
                "addr:street": "Sportowa",
                "addr:housenumber": "1",
                "addr:city:simc": 954082,
                "addr:street:sym_ul": 20683,
                "phone": "+48 768313990",
                "email": "zpsw.glogow@wp.pl",
                "website": "http:\/\/www.zpsw.glogow.pl",
                "ref:regon": "020305971",
                "ref:vatin": "PL6932090281",
                "operator": "Powiat G\u0142ogowski",
                "operator:type": "government",
                "landuse": "education",
                "fixme": "amenity=school, amenity=college albo landuse=education w zale\u017cno\u015bci od tego, jakie plac\u00f3wki wchodz\u0105 w sk\u0142ad zespo\u0142u. Sprawd\u017a, kiedy stosowa\u0107 amenity=* a kiedy landuse=education.",
                "note": "Children RSPO: 8863;13368;13384"
            }
        },
        {
            "id": 8863,
            "type": "Feature",
            "geometry": {
                "type": "Point",
                "coordinates": [
                    16.10094,
                    51.653929999999995
                ]
            },
            "properties": {
                "ref:rspo": 8863,
                "official_name": "Specjalny O\u015brodek Szkolno-Wychowawczy im. Marii Konopnickiej w G\u0142ogowie",
                "name": "Specjalny O\u015brodek Szkolno-Wychowawczy",
                "addr:postcode": "67-200",
                "addr:city": "G\u0142og\u00f3w",
                "addr:street": "Sportowa",
                "addr:housenumber": "1",
                "addr:city:simc": 954082,
                "addr:street:sym_ul": 20683,
                "phone": "+48 768313990",
                "email": "zpsw.glogow@wp.pl",
                "website": "http:\/\/www.zpsw.glogow.org",
                "ref:regon": "000192442",
                "operator": "Powiat G\u0142ogowski",
                "operator:type": "government",
                "amenity": "school",
                "note": "Children RSPO: 10427;13724;14005;14581Parent RSPO: 8683"
            }
        },
        {
            "id": 13724,
            "type": "Feature",
            "geometry": {
                "type": "Point",
                "coordinates": [
                    16.10094,
                    51.6539
                ]
            },
            "properties": {
                "isced:level": "3",
                "ref:rspo": 13724,
                "official_name": "Specjalna Bran\u017cowa Szko\u0142a I Stopnia w G\u0142ogowie",
                "name": "Specjalna Bran\u017cowa Szko\u0142a I Stopnia w G\u0142ogowie",
                "addr:postcode": "67-200",
                "addr:city": "G\u0142og\u00f3w",
                "addr:street": "Sportowa",
                "addr:housenumber": "1",
                "addr:city:simc": 954082,
                "addr:street:sym_ul": 20683,
                "phone": "+48 468313990",
                "email": "zpsw.glogow@wp.pl",
                "website": "http:\/\/www.zpsw.glogow.org",
                "ref:regon": "391008990",
                "operator": "Powiat G\u0142ogowski",
                "operator:type": "government",
                "amenity": "school",
                "note": "Parent RSPO: 8863"
            }
        },
        {
            "id": 14005,
            "type": "Feature",
            "geometry": {
                "type": "Point",
                "coordinates": [
                    16.10094,
                    51.65387
                ]
            },
            "properties": {
                "ref:rspo": 14005,
                "official_name": "Szko\u0142a Specjalna Przysposabiaj\u0105ca do Pracy",
                "name": "Szko\u0142a Specjalna Przysposabiaj\u0105ca do Pracy",
                "addr:postcode": "67-200",
                "addr:city": "G\u0142og\u00f3w",
                "addr:street": "Sportowa",
                "addr:housenumber": "1",
                "addr:city:simc": 954082,
                "addr:street:sym_ul": 20683,
                "phone": "+48 768313990",
                "email": "zpsw.glogow@wp.pl",
                "website": "http:\/\/www.zpsw.glogow.org",
                "ref:regon": "020167569",
                "operator": "Powiat G\u0142ogowski",
                "operator:type": "government",
                "amenity": "school",
                "note": "Parent RSPO: 8863"
            }
        },
        {
            "id": 14581,
            "type": "Feature",
            "geometry": {
                "type": "Point",
                "coordinates": [
                    16.10094,
                    51.653839999999995
                ]
            },
            "properties": {
                "isced:level": "1;2",
                "ref:rspo": 14581,
                "official_name": "Specjalna Szko\u0142a Podstawowa w G\u0142ogowie",
                "name": "Specjalna Szko\u0142a Podstawowa w G\u0142ogowie",
                "addr:postcode": "67-200",
                "addr:city": "G\u0142og\u00f3w",
                "addr:street": "Sportowa",
                "addr:housenumber": "1",
                "addr:city:simc": 954082,
                "addr:street:sym_ul": 20683,
                "phone": "+48 768313990",
                "email": "zpsw.glogow@wp.pl",
                "website": "http:\/\/www.zpsw.glogow.org",
                "ref:regon": "391008978",
                "operator": "Powiat G\u0142ogowski",
                "operator:type": "government",
                "amenity": "school",
                "note": "Parent RSPO: 8863"
            }
        },
        {
            "id": 39082,
            "type": "Feature",
            "geometry": {
                "type": "Point",
                "coordinates": [
                    16.06435,
                    51.65406
                ]
            },
            "properties": {
                "ref:rspo": 39082,
                "official_name": "Przedszkole Publiczne nr 1 w G\u0142ogowie",
                "name": "Przedszkole Publiczne nr 1 w G\u0142ogowie",
                "addr:postcode": "67-200",
                "addr:city": "G\u0142og\u00f3w",
                "addr:street": "Andromedy",
                "addr:housenumber": "23",
                "addr:city:simc": 954082,
                "addr:street:sym_ul": 294,
                "phone": "+48 767272022",
                "email": "poczta@pp1.glogow.pl",
                "website": "http:\/\/www.pp1.glogow.pl",
                "ref:regon": "021014632",
                "ref:vatin": "PL6932147360",
                "operator": "Gmina Miejska G\u0142og\u00f3w",
                "operator:type": "government",
                "amenity": "kindergarten"
            }
        },
        {
            "id": 277401,
            "type": "Feature",
            "geometry": {
                "type": "Point",
                "coordinates": [
                    16.07056,
                    51.65408
                ]
            },
            "properties": {
                "ref:rspo": 277401,
                "official_name": "Consulting Center Edukacja",
                "name": "Consulting Center Edukacja",
                "addr:postcode": "67-200",
                "addr:city": "G\u0142og\u00f3w",
                "addr:street": "Saturna",
                "addr:housenumber": "5d",
                "addr:door": "17",
                "addr:city:simc": 954082,
                "addr:street:sym_ul": 19555,
                "email": "kontakt@c-center.edu.pl",
                "website": "http:\/\/c-center.edu.pl",
                "ref:regon": "388797839",
                "operator": "Consulting Center Sp\u00f3\u0142ka Z Ograniczon\u0105 Odpowiedzialno\u015bci\u0105",
                "operator:type": "private",
                "fixme": "w zale\u017cno\u015bci od przedmiotu dzia\u0142alno\u015bci (np. amenity=training + training=*, amenity=dancing_school, amenity=language_school, amenity=music_school)"
            }
        },
        {
            "id": 44484,
            "type": "Feature",
            "geometry": {
                "type": "Point",
                "coordinates": [
                    16.06133,
                    51.65412
                ]
            },
            "properties": {
                "ref:rspo": 44484,
                "official_name": "Przedszkole Publiczne nr 9 w G\u0142ogowie",
                "name": "Przedszkole Publiczne nr 9 w G\u0142ogowie",
                "addr:postcode": "67-200",
                "addr:city": "G\u0142og\u00f3w",
                "addr:street": "Perseusza",
                "addr:housenumber": "3",
                "addr:city:simc": 954082,
                "addr:street:sym_ul": 15956,
                "phone": "+48 767265630",
                "email": "pp9@www.glogow.pl",
                "website": "http:\/\/www.pp9.pl",
                "ref:regon": "390243708",
                "ref:vatin": "PL6931910612",
                "operator": "Gmina Miejska G\u0142og\u00f3w",
                "operator:type": "government",
                "amenity": "kindergarten"
            }
        },
        {
            "id": 8532,
            "type": "Feature",
            "geometry": {
                "type": "Point",
                "coordinates": [
                    16.09671,
                    51.65423
                ]
            },
            "properties": {
                "ref:rspo": 8532,
                "official_name": "Zesp\u00f3\u0142 Szk\u00f3\u0142 im. Jana Wy\u017cykowskiego w G\u0142ogowie",
                "name": "Zesp\u00f3\u0142 Szk\u00f3\u0142",
                "addr:postcode": "67-200",
                "addr:city": "G\u0142og\u00f3w",
                "addr:street": "Wita Stwosza",
                "addr:housenumber": "3a",
                "addr:city:simc": 954082,
                "addr:street:sym_ul": 21435,
                "phone": "+48 768332048",
                "email": "zswyzykowskiego@wp.pl",
                "website": "http:\/\/www.zsw.glogow.pl",
                "ref:regon": "000027335",
                "ref:vatin": "PL6931014125",
                "operator": "Powiat G\u0142ogowski",
                "operator:type": "government",
                "landuse": "education",
                "fixme": "amenity=school, amenity=college albo landuse=education w zale\u017cno\u015bci od tego, jakie plac\u00f3wki wchodz\u0105 w sk\u0142ad zespo\u0142u. Sprawd\u017a, kiedy stosowa\u0107 amenity=* a kiedy landuse=education.",
                "note": "Children RSPO: 9882;9912;267026"
            }
        },
        {
            "id": 9882,
            "type": "Feature",
            "geometry": {
                "type": "Point",
                "coordinates": [
                    16.09671,
                    51.654199999999996
                ]
            },
            "properties": {
                "isced:level": "3",
                "ref:rspo": 9882,
                "official_name": "Iii Liceum Og\u00f3lnokszta\u0142c\u0105ce im. Bohater\u00f3w Westerplatte w G\u0142ogowie",
                "name": "Iii Liceum Og\u00f3lnokszta\u0142c\u0105ce",
                "addr:postcode": "67-200",
                "addr:city": "G\u0142og\u00f3w",
                "addr:street": "Wita Stwosza",
                "addr:housenumber": "3a",
                "addr:city:simc": 954082,
                "addr:street:sym_ul": 21435,
                "phone": "+48 768332048",
                "email": "zswyzykowskiego@wp.pl",
                "website": "http:\/\/www.zsw.glogow.pl",
                "ref:regon": "004044023",
                "operator": "Powiat G\u0142ogowski",
                "operator:type": "government",
                "amenity": "school",
                "note": "Parent RSPO: 8532"
            }
        },
        {
            "id": 9912,
            "type": "Feature",
            "geometry": {
                "type": "Point",
                "coordinates": [
                    16.09671,
                    51.65417
                ]
            },
            "properties": {
                "isced:level": "3",
                "ref:rspo": 9912,
                "official_name": "Technikum nr 1",
                "name": "Technikum nr 1",
                "addr:postcode": "67-200",
                "addr:city": "G\u0142og\u00f3w",
                "addr:street": "Wita Stwosza",
                "addr:housenumber": "3a",
                "addr:city:simc": 954082,
                "addr:street:sym_ul": 21435,
                "phone": "+48 768332048",
                "email": "zswyzykowskiego@wp.pl",
                "website": "http:\/\/www.zsw.glogow.pl",
                "ref:regon": "391009541",
                "operator": "Powiat G\u0142ogowski",
                "operator:type": "government",
                "amenity": "school",
                "note": "Parent RSPO: 8532"
            }
        },
        {
            "id": 267026,
            "type": "Feature",
            "geometry": {
                "type": "Point",
                "coordinates": [
                    16.09671,
                    51.65414
                ]
            },
            "properties": {
                "isced:level": "3",
                "ref:rspo": 267026,
                "official_name": "Bran\u017cowa Szko\u0142a I Stopnia nr 6 w G\u0142ogowie",
                "name": "Bran\u017cowa Szko\u0142a I Stopnia nr 6 w G\u0142ogowie",
                "addr:postcode": "67-200",
                "addr:city": "G\u0142og\u00f3w",
                "addr:street": "Wita Stwosza",
                "addr:housenumber": "3a",
                "addr:city:simc": 954082,
                "addr:street:sym_ul": 21435,
                "phone": "+48 768332048",
                "email": "zswyzykowskiego@wp.pl",
                "website": "http:\/\/www.zsw.glogow.pl",
                "ref:regon": "369814099",
                "operator": "Powiat G\u0142ogowski",
                "operator:type": "government",
                "amenity": "school",
                "note": "Parent RSPO: 8532"
            }
        },
        {
            "id": 13384,
            "type": "Feature",
            "geometry": {
                "type": "Point",
                "coordinates": [
                    16.10024,
                    51.65425
                ]
            },
            "properties": {
                "ref:rspo": 13384,
                "official_name": "Bursa Mi\u0119dzyszkolna w G\u0142ogowie",
                "name": "Bursa Mi\u0119dzyszkolna w G\u0142ogowie",
                "addr:postcode": "67-200",
                "addr:city": "G\u0142og\u00f3w",
                "addr:street": "Sportowa",
                "addr:housenumber": "1a",
                "addr:city:simc": 954082,
                "addr:street:sym_ul": 20683,
                "phone": "+48 768313990",
                "email": "zpsw.glogow@wp.pl",
                "website": "http:\/\/www.zpsw.glogow.org",
                "ref:regon": "391067828",
                "operator": "Powiat G\u0142ogowski",
                "operator:type": "government",
                "building": "dormitory",
                "note": "Parent RSPO: 8683"
            }
        },
        {
            "id": 16100,
            "type": "Feature",
            "geometry": {
                "type": "Point",
                "coordinates": [
                    16.09104,
                    51.65478
                ]
            },
            "properties": {
                "isced:level": "3",
                "ref:rspo": 16100,
                "official_name": "Liceum Og\u00f3lnokszta\u0142c\u0105ce dla Doros\u0142ych Edukacja",
                "name": "Liceum Og\u00f3lnokszta\u0142c\u0105ce dla Doros\u0142ych Edukacja",
                "addr:postcode": "67-200",
                "addr:city": "G\u0142og\u00f3w",
                "addr:street": "Mieczys\u0142awa Niedzia\u0142kowskiego",
                "addr:housenumber": "10",
                "addr:city:simc": 954082,
                "addr:street:sym_ul": 14140,
                "phone": "+48 767521034",
                "email": "glogow@bezplatneszkoly.pl",
                "website": "http:\/\/www.bezplatneszkoly.pl",
                "ref:regon": "021968188",
                "ref:vatin": "PL6312109419",
                "operator": "Wojciech \u015anita",
                "operator:type": "private",
                "amenity": "school"
            }
        },
        {
            "id": 127376,
            "type": "Feature",
            "geometry": {
                "type": "Point",
                "coordinates": [
                    16.09104,
                    51.65475
                ]
            },
            "properties": {
                "isced:level": "4",
                "ref:rspo": 127376,
                "official_name": "Szko\u0142a Policealna Edukacja w G\u0142ogowie",
                "name": "Szko\u0142a Policealna Edukacja w G\u0142ogowie",
                "addr:postcode": "67-200",
                "addr:city": "G\u0142og\u00f3w",
                "addr:street": "Mieczys\u0142awa Niedzia\u0142kowskiego",
                "addr:housenumber": "10",
                "addr:city:simc": 954082,
                "addr:street:sym_ul": 14140,
                "phone": "+48 767521034",
                "email": "glogow@bezplatneszkoly.pl",
                "ref:regon": "361490616",
                "operator": "Wojciech \u015anita",
                "operator:type": "private",
                "amenity": "college"
            }
        },
        {
            "id": 196278,
            "type": "Feature",
            "geometry": {
                "type": "Point",
                "coordinates": [
                    16.09104,
                    51.654720000000005
                ]
            },
            "properties": {
                "isced:level": "1;2",
                "ref:rspo": 196278,
                "official_name": "Szko\u0142a Podstawowa nr 9 im. Polskich Odkrywc\u00f3w w G\u0142ogowie",
                "name": "Szko\u0142a Podstawowa nr 9",
                "addr:postcode": "67-200",
                "addr:city": "G\u0142og\u00f3w",
                "addr:street": "Mieczys\u0142awa Niedzia\u0142kowskiego",
                "addr:housenumber": "10",
                "addr:city:simc": 954082,
                "addr:street:sym_ul": 14140,
                "phone": "+48 768350454",
                "email": "sp9@www.glogow.pl",
                "website": "http:\/\/www.sp9.glogow.pl",
                "ref:regon": "367991880",
                "ref:vatin": "PL6932181339",
                "operator": "Gmina Miejska G\u0142og\u00f3w",
                "operator:type": "government",
                "amenity": "school"
            }
        },
        {
            "id": 120552,
            "type": "Feature",
            "geometry": {
                "type": "Point",
                "coordinates": [
                    16.05996,
                    51.65499
                ]
            },
            "properties": {
                "ref:rspo": 120552,
                "official_name": "Przedszkole Niepubliczne T\u0119czowe Nutki",
                "name": "Przedszkole Niepubliczne T\u0119czowe Nutki",
                "addr:postcode": "67-200",
                "addr:city": "G\u0142og\u00f3w",
                "addr:street": "Wojska Polskiego",
                "addr:housenumber": "14",
                "addr:city:simc": 954082,
                "addr:street:sym_ul": 24628,
                "phone": "+48 768320811",
                "email": "info@teczowenutki.pl",
                "website": "http:\/\/www.teczowenutki.pl",
                "ref:regon": "022270780",
                "ref:vatin": "PL6932174776",
                "operator": "T\u0119czowe Nutki Ewa Zieli\u0144ska,Kamila Zieli\u0144ska S.c.",
                "operator:type": "consortium",
                "amenity": "kindergarten"
            }
        },
        {
            "id": 59586,
            "type": "Feature",
            "geometry": {
                "type": "Point",
                "coordinates": [
                    16.07467,
                    51.65516
                ]
            },
            "properties": {
                "ref:rspo": 59586,
                "official_name": "Przedszkole Niepubliczne Akademia Pana Kleksa",
                "name": "Przedszkole Niepubliczne Akademia Pana Kleksa",
                "addr:postcode": "67-200",
                "addr:city": "G\u0142og\u00f3w",
                "addr:street": "Miko\u0142aja Gom\u00f3\u0142ki",
                "addr:housenumber": "32",
                "addr:city:simc": 954082,
                "addr:street:sym_ul": 5790,
                "phone": "+48 535353230",
                "email": "info@akademiapanakleksa.com.pl",
                "website": "http:\/\/www.akademiapanakleksa.com.pl",
                "ref:regon": "022000320",
                "ref:vatin": "PL6931963399",
                "operator": "Barbara Cimek",
                "operator:type": "private",
                "amenity": "kindergarten"
            }
        },
        {
            "id": 43782,
            "type": "Feature",
            "geometry": {
                "type": "Point",
                "coordinates": [
                    16.0844099,
                    51.6559
                ]
            },
            "properties": {
                "ref:rspo": 43782,
                "official_name": "Przedszkole Publiczne nr 7 w G\u0142ogowie",
                "name": "Przedszkole Publiczne nr 7 w G\u0142ogowie",
                "addr:postcode": "67-200",
                "addr:city": "G\u0142og\u00f3w",
                "addr:street": "Stanis\u0142awa Moniuszki",
                "addr:housenumber": "4a",
                "addr:city:simc": 954082,
                "addr:street:sym_ul": 13246,
                "phone": "+48 768341127",
                "email": "pp7@www.glogow.pl",
                "website": "http:\/\/www.przedszkole7.glogow.pl",
                "ref:regon": "390243631",
                "ref:vatin": "PL6931910606",
                "operator": "Gmina Miejska G\u0142og\u00f3w",
                "operator:type": "government",
                "amenity": "kindergarten"
            }
        },
        {
            "id": 22350,
            "type": "Feature",
            "geometry": {
                "type": "Point",
                "coordinates": [
                    16.07885,
                    51.65598
                ]
            },
            "properties": {
                "isced:level": "1;2",
                "ref:rspo": 22350,
                "official_name": "Szko\u0142a Podstawowa nr 6 im. Tadeusza Ko\u015bciuszki w G\u0142ogowie",
                "name": "Szko\u0142a Podstawowa nr 6",
                "addr:postcode": "67-200",
                "addr:city": "G\u0142og\u00f3w",
                "addr:street": "Tadeusza Ko\u015bciuszki",
                "addr:housenumber": "18",
                "addr:city:simc": 954082,
                "addr:street:sym_ul": 9582,
                "phone": "+48 768333037",
                "email": "sekretariat@sp6.glogow.pl",
                "website": "http:\/\/www.sp6.glogow.pl",
                "ref:regon": "000708704",
                "ref:vatin": "PL6931113198",
                "operator": "Gmina Miejska G\u0142og\u00f3w",
                "operator:type": "government",
                "amenity": "school"
            }
        },
        {
            "id": 42884,
            "type": "Feature",
            "geometry": {
                "type": "Point",
                "coordinates": [
                    16.09225,
                    51.65613
                ]
            },
            "properties": {
                "ref:rspo": 42884,
                "official_name": "Przedszkole Publiczne nr 5 w G\u0142ogowie",
                "name": "Przedszkole Publiczne nr 5 w G\u0142ogowie",
                "addr:postcode": "67-200",
                "addr:city": "G\u0142og\u00f3w",
                "addr:street": "Mieczys\u0142awa Niedzia\u0142kowskiego",
                "addr:housenumber": "7A",
                "addr:city:simc": 954082,
                "addr:street:sym_ul": 14140,
                "phone": "+48 768332377",
                "email": "pp5@glogow.um.gov.pl",
                "website": "http:\/\/www.pp5.eglogow.eu",
                "ref:regon": "390243690",
                "ref:vatin": "PL6931910598",
                "operator": "Gmina Miejska G\u0142og\u00f3w",
                "operator:type": "government",
                "amenity": "kindergarten"
            }
        },
        {
            "id": 73993,
            "type": "Feature",
            "geometry": {
                "type": "Point",
                "coordinates": [
                    16.10707,
                    51.65643
                ]
            },
            "properties": {
                "ref:rspo": 73993,
                "official_name": "J\u0119zykowy Plac Zabaw S. C.",
                "name": "J\u0119zykowy Plac Zabaw S. C.",
                "addr:postcode": "67-200",
                "addr:city": "G\u0142og\u00f3w",
                "addr:street": "Mechaniczna",
                "addr:housenumber": "5j",
                "addr:door": "19",
                "addr:city:simc": 954082,
                "addr:street:sym_ul": 12575,
                "phone": "+48 505802403",
                "email": "jezykowyplaczabaw@o2.pl",
                "website": "http:\/\/www.jezykowyplaczabaw.pl",
                "ref:regon": "022004883",
                "ref:vatin": "PL6932151551",
                "operator": "Weronika Og\u00f3rek-Paluszek",
                "operator:type": "private",
                "amenity": "kindergarten"
            }
        },
        {
            "id": 264123,
            "type": "Feature",
            "geometry": {
                "type": "Point",
                "coordinates": [
                    16.08956,
                    51.65749
                ]
            },
            "properties": {
                "isced:level": "3",
                "ref:rspo": 264123,
                "official_name": "Liceum Og\u00f3lnokszta\u0142c\u0105ce Aslan im. C.s. Lewisa w G\u0142ogowie",
                "name": "Liceum Og\u00f3lnokszta\u0142c\u0105ce Aslan",
                "addr:postcode": "67-200",
                "addr:city": "G\u0142og\u00f3w",
                "addr:street": "Budowlanych",
                "addr:housenumber": "6a",
                "addr:city:simc": 954082,
                "addr:street:sym_ul": 2337,
                "email": "aslan.sekretariat@gmail.com",
                "website": "http:\/\/aslan.edu.pl",
                "ref:regon": "368266135",
                "operator": "Edyta Wierzchowska",
                "operator:type": "private",
                "amenity": "school"
            }
        },
        {
            "id": 273369,
            "type": "Feature",
            "geometry": {
                "type": "Point",
                "coordinates": [
                    16.11208,
                    51.65809
                ]
            },
            "properties": {
                "ref:rspo": 273369,
                "official_name": "Przedszkole Niepubliczne Akademia Ma\u0142ych Pociech \"U Dula\"",
                "name": "Przedszkole Niepubliczne Akademia Ma\u0142ych Pociech \"U Dula\"",
                "addr:postcode": "67-200",
                "addr:city": "G\u0142og\u00f3w",
                "addr:street": "Rudnowska",
                "addr:housenumber": "32",
                "addr:city:simc": 954082,
                "addr:street:sym_ul": 19071,
                "phone": "+48 535357737",
                "email": "biuro@akademiaudula.pl",
                "ref:regon": "384459985",
                "operator": "Mateusz Dobrzy\u0144ski",
                "operator:type": "private",
                "amenity": "kindergarten"
            }
        },
        {
            "id": 49245,
            "type": "Feature",
            "geometry": {
                "type": "Point",
                "coordinates": [
                    16.09205,
                    51.65841
                ]
            },
            "properties": {
                "ref:rspo": 49245,
                "official_name": "Przedszkole Niepubliczne Promyk",
                "name": "Przedszkole Niepubliczne Promyk",
                "addr:postcode": "67-200",
                "addr:city": "G\u0142og\u00f3w",
                "addr:street": "Budowlanych",
                "addr:housenumber": "1",
                "addr:city:simc": 954082,
                "addr:street:sym_ul": 2337,
                "phone": "+48 768342117",
                "email": "promykglogow@onet.pl",
                "ref:regon": "021994576",
                "ref:vatin": "PL6931277847",
                "operator": "Ewa Drozd",
                "operator:type": "private",
                "amenity": "kindergarten"
            }
        },
        {
            "id": 5536,
            "type": "Feature",
            "geometry": {
                "type": "Point",
                "coordinates": [
                    16.0902,
                    51.65895
                ]
            },
            "properties": {
                "isced:level": "3",
                "ref:rspo": 5536,
                "official_name": "Ii Liceum Og\u00f3lnokszta\u0142c\u0105ce im. Miko\u0142aja Kopernika w G\u0142ogowie",
                "name": "Ii Liceum Og\u00f3lnokszta\u0142c\u0105ce",
                "addr:postcode": "67-200",
                "addr:city": "G\u0142og\u00f3w",
                "addr:street": "Ignacego Daszy\u0144skiego",
                "addr:housenumber": "15",
                "addr:city:simc": 954082,
                "addr:street:sym_ul": 3639,
                "phone": "+48 767286530",
                "email": "2loglo@wp.pl",
                "website": "http:\/\/www.lo2.pl",
                "ref:regon": "001310493",
                "ref:vatin": "PL6931014964",
                "operator": "Powiat G\u0142ogowski",
                "operator:type": "government",
                "amenity": "school"
            }
        },
        {
            "id": 196277,
            "type": "Feature",
            "geometry": {
                "type": "Point",
                "coordinates": [
                    16.08044,
                    51.65947
                ]
            },
            "properties": {
                "isced:level": "1;2",
                "ref:rspo": 196277,
                "official_name": "Szko\u0142a Podstawowa nr 8 z Oddzia\u0142ami Integracyjnymi im. Jana z G\u0142ogowa w G\u0142ogowie",
                "name": "Szko\u0142a Podstawowa nr 8 z Oddzia\u0142ami Integracyjnymi",
                "addr:postcode": "67-200",
                "addr:city": "G\u0142og\u00f3w",
                "addr:street": "Gustawa Morcinka",
                "addr:housenumber": "2",
                "addr:city:simc": 954082,
                "addr:street:sym_ul": 13279,
                "phone": "+48 767265616",
                "email": "sp8@www.glogow.pl",
                "website": "http:\/\/www.sp8glogow.pl",
                "ref:regon": "367993488",
                "ref:vatin": "PL6932181345",
                "operator": "Gmina Miejska G\u0142og\u00f3w",
                "operator:type": "government",
                "amenity": "school"
            }
        },
        {
            "id": 43830,
            "type": "Feature",
            "geometry": {
                "type": "Point",
                "coordinates": [
                    16.08327,
                    51.65952
                ]
            },
            "properties": {
                "ref:rspo": 43830,
                "official_name": "Przedszkole Publiczne nr 10 w G\u0142ogowie",
                "name": "Przedszkole Publiczne nr 10 w G\u0142ogowie",
                "addr:postcode": "67-200",
                "addr:city": "G\u0142og\u00f3w",
                "addr:street": "Obro\u0144c\u00f3w Pokoju",
                "addr:housenumber": "14",
                "addr:city:simc": 954082,
                "addr:street:sym_ul": 14642,
                "phone": "+48 767265608",
                "email": "pp10@www.glogow.pl",
                "website": "http:\/\/www.pp10.glogow.pl",
                "ref:regon": "390243683",
                "ref:vatin": "PL6931910629",
                "operator": "Gmina Miejska G\u0142og\u00f3w",
                "operator:type": "government",
                "amenity": "kindergarten"
            }
        },
        {
            "id": 22351,
            "type": "Feature",
            "geometry": {
                "type": "Point",
                "coordinates": [
                    16.08851,
                    51.6595299
                ]
            },
            "properties": {
                "isced:level": "1;2",
                "ref:rspo": 22351,
                "official_name": "Szko\u0142a Podstawowa nr 7 im. Stanis\u0142awa Staszica w G\u0142ogowie",
                "name": "Szko\u0142a Podstawowa nr 7",
                "addr:postcode": "67-200",
                "addr:city": "G\u0142og\u00f3w",
                "addr:street": "Ignacego Daszy\u0144skiego",
                "addr:housenumber": "11",
                "addr:city:simc": 954082,
                "addr:street:sym_ul": 3639,
                "phone": "+48 767265636",
                "email": "sp7sek@interia.pl",
                "website": "http:\/\/www.sp7.glogow.pl",
                "ref:regon": "000708710",
                "ref:vatin": "PL6931014148",
                "operator": "Gmina Miejska G\u0142og\u00f3w",
                "operator:type": "government",
                "amenity": "school"
            }
        },
        {
            "id": 43705,
            "type": "Feature",
            "geometry": {
                "type": "Point",
                "coordinates": [
                    16.07933,
                    51.65999
                ]
            },
            "properties": {
                "ref:rspo": 43705,
                "official_name": "Przedszkole Publiczne nr 6 w G\u0142ogowie",
                "name": "Przedszkole Publiczne nr 6 w G\u0142ogowie",
                "addr:postcode": "67-200",
                "addr:city": "G\u0142og\u00f3w",
                "addr:street": "Gustawa Morcinka",
                "addr:housenumber": "6",
                "addr:city:simc": 954082,
                "addr:street:sym_ul": 13279,
                "phone": "+48 767265614",
                "email": "pp6@www.glogow.pl",
                "website": "http:\/\/www.przedszkole6glogow.edupage.org",
                "ref:regon": "390243660",
                "ref:vatin": "PL6931910581",
                "operator": "Gmina Miejska G\u0142og\u00f3w",
                "operator:type": "government",
                "amenity": "kindergarten"
            }
        },
        {
            "id": 105077,
            "type": "Feature",
            "geometry": {
                "type": "Point",
                "coordinates": [
                    16.08448,
                    51.66039
                ]
            },
            "properties": {
                "ref:rspo": 105077,
                "official_name": "Zak\u0142ad Poprawczy I Schronisko dla Nieletnich w G\u0142ogowie",
                "name": "Zak\u0142ad Poprawczy I Schronisko dla Nieletnich w G\u0142ogowie",
                "addr:postcode": "67-200",
                "addr:city": "G\u0142og\u00f3w",
                "addr:street": "Obro\u0144c\u00f3w Pokoju",
                "addr:housenumber": "1-2",
                "addr:city:simc": 954082,
                "addr:street:sym_ul": 14642,
                "phone": "+48 768358851",
                "email": "sekretariat@glogow.zpisdn.gov.pl",
                "website": "http:\/\/zp.glogow.pl",
                "ref:regon": "000325593",
                "operator": "Ministerstwo Sprawiedliwo\u015bci",
                "operator:type": "government",
                "note": "Children RSPO: 124982;266855"
            }
        },
        {
            "id": 57733,
            "type": "Feature",
            "geometry": {
                "type": "Point",
                "coordinates": [
                    16.08386,
                    51.66087
                ]
            },
            "properties": {
                "ref:rspo": 57733,
                "official_name": "Centrum Edukacji I Doradztwa \"Mada\" w G\u0142ogowie",
                "name": "Centrum Edukacji I Doradztwa \"Mada\" w G\u0142ogowie",
                "addr:postcode": "67-200",
                "addr:city": "G\u0142og\u00f3w",
                "addr:street": "Obro\u0144c\u00f3w Pokoju",
                "addr:housenumber": "10",
                "addr:city:simc": 954082,
                "addr:street:sym_ul": 14642,
                "phone": "+48 768335366",
                "email": "ceidmada@onet.eu",
                "website": "http:\/\/www.mada.glogow.pl",
                "ref:regon": "022000141",
                "ref:vatin": "PL6930004107",
                "operator": "J\u00f3zef Muszy\u0144ski",
                "operator:type": "private",
                "fixme": "w zale\u017cno\u015bci od przedmiotu dzia\u0142alno\u015bci (np. amenity=training + training=*, amenity=dancing_school, amenity=language_school, amenity=music_school)"
            }
        },
        {
            "id": 49505,
            "type": "Feature",
            "geometry": {
                "type": "Point",
                "coordinates": [
                    16.0963299,
                    51.66132
                ]
            },
            "properties": {
                "isced:level": "1;2",
                "ref:rspo": 49505,
                "official_name": "Szko\u0142a Podstawowa Aslan im. C. S. Lewisa w G\u0142ogowie",
                "name": "Szko\u0142a Podstawowa Aslan",
                "addr:postcode": "67-200",
                "addr:city": "G\u0142og\u00f3w",
                "addr:street": "Piotra Skargi",
                "addr:housenumber": "5",
                "addr:city:simc": 954082,
                "addr:street:sym_ul": 20012,
                "phone": "+48 509058508",
                "email": "aslan.sekretariat@gmail.com",
                "website": "http:\/\/www.aslan.edu.pl",
                "ref:regon": "022001873",
                "ref:vatin": "PL5991967957",
                "operator": "Edyta Wierzchowska",
                "operator:type": "private",
                "amenity": "school"
            }
        },
        {
            "id": 8557,
            "type": "Feature",
            "geometry": {
                "type": "Point",
                "coordinates": [
                    16.09808,
                    51.66277
                ]
            },
            "properties": {
                "ref:rspo": 8557,
                "official_name": "Zesp\u00f3\u0142 Szk\u00f3\u0142 Ekonomicznych im. Jana Paw\u0142a II w G\u0142ogowie",
                "name": "Zesp\u00f3\u0142 Szk\u00f3\u0142 Ekonomicznych",
                "addr:postcode": "67-200",
                "addr:city": "G\u0142og\u00f3w",
                "addr:street": "Karola Miarki",
                "addr:housenumber": "1",
                "addr:city:simc": 954082,
                "addr:street:sym_ul": 12674,
                "phone": "+48 768332402",
                "email": "zseglogow@zse.glogow.pl",
                "website": "http:\/\/www.zse.glogow.pl",
                "ref:regon": "000179743",
                "ref:vatin": "PL6931019559",
                "operator": "Powiat G\u0142ogowski",
                "operator:type": "government",
                "landuse": "education",
                "fixme": "amenity=school, amenity=college albo landuse=education w zale\u017cno\u015bci od tego, jakie plac\u00f3wki wchodz\u0105 w sk\u0142ad zespo\u0142u. Sprawd\u017a, kiedy stosowa\u0107 amenity=* a kiedy landuse=education.",
                "note": "Children RSPO: 15090;15091;274736"
            }
        },
        {
            "id": 15090,
            "type": "Feature",
            "geometry": {
                "type": "Point",
                "coordinates": [
                    16.09808,
                    51.66274
                ]
            },
            "properties": {
                "isced:level": "3",
                "ref:rspo": 15090,
                "official_name": "Bran\u017cowa Szko\u0142a I Stopnia nr 3 w G\u0142ogowie",
                "name": "Bran\u017cowa Szko\u0142a I Stopnia nr 3 w G\u0142ogowie",
                "addr:postcode": "67-200",
                "addr:city": "G\u0142og\u00f3w",
                "addr:street": "Karola Miarki",
                "addr:housenumber": "1",
                "addr:city:simc": 954082,
                "addr:street:sym_ul": 12674,
                "phone": "+48 768332402",
                "email": "zseglogow@zse.glogow.pl",
                "website": "http:\/\/www.zse.glogow.pl",
                "ref:regon": "391008205",
                "operator": "Powiat G\u0142ogowski",
                "operator:type": "government",
                "amenity": "school",
                "note": "Parent RSPO: 8557"
            }
        },
        {
            "id": 15091,
            "type": "Feature",
            "geometry": {
                "type": "Point",
                "coordinates": [
                    16.09808,
                    51.662710000000004
                ]
            },
            "properties": {
                "isced:level": "3",
                "ref:rspo": 15091,
                "official_name": "Technikum nr 4",
                "name": "Technikum nr 4",
                "addr:postcode": "67-200",
                "addr:city": "G\u0142og\u00f3w",
                "addr:street": "Karola Miarki",
                "addr:housenumber": "1",
                "addr:city:simc": 954082,
                "addr:street:sym_ul": 12674,
                "phone": "+48 768332402",
                "email": "zseglogow@zse.glogow.pl",
                "website": "http:\/\/www.zse.glogow.pl",
                "ref:regon": "020124287",
                "operator": "Powiat G\u0142ogowski",
                "operator:type": "government",
                "amenity": "school",
                "note": "Parent RSPO: 8557"
            }
        },
        {
            "id": 274736,
            "type": "Feature",
            "geometry": {
                "type": "Point",
                "coordinates": [
                    16.09808,
                    51.66268
                ]
            },
            "properties": {
                "isced:level": "3",
                "ref:rspo": 274736,
                "official_name": "Bran\u017cowa Szko\u0142a II Stopnia nr 2 w G\u0142ogowie",
                "name": "Bran\u017cowa Szko\u0142a II Stopnia nr 2 w G\u0142ogowie",
                "addr:postcode": "67-200",
                "addr:city": "G\u0142og\u00f3w",
                "addr:street": "Karola Miarki",
                "addr:housenumber": "1",
                "addr:city:simc": 954082,
                "addr:street:sym_ul": 12674,
                "phone": "+48 768332402",
                "email": "zseglogow@zse.glogow.pl",
                "website": "http:\/\/zse.glogow.pl",
                "ref:regon": "386286537",
                "operator": "Powiat G\u0142ogowski",
                "operator:type": "government",
                "amenity": "school",
                "note": "Parent RSPO: 8557"
            }
        },
        {
            "id": 16283,
            "type": "Feature",
            "geometry": {
                "type": "Point",
                "coordinates": [
                    16.09393,
                    51.66295
                ]
            },
            "properties": {
                "ref:rspo": 16283,
                "official_name": "Tessa-Instytut Urody I Edukacji w G\u0142ogowie",
                "name": "Tessa-Instytut Urody I Edukacji w G\u0142ogowie",
                "addr:postcode": "67-200",
                "addr:city": "G\u0142og\u00f3w",
                "addr:street": "Smolna",
                "addr:housenumber": "19",
                "addr:city:simc": 954082,
                "addr:street:sym_ul": 20369,
                "phone": "+48 600279392",
                "email": "instytut.tessa@wp.pl",
                "ref:regon": "021966410",
                "operator": "Wioletta Zawadzka",
                "operator:type": "private",
                "fixme": "w zale\u017cno\u015bci od przedmiotu dzia\u0142alno\u015bci (np. amenity=training + training=*, amenity=dancing_school, amenity=language_school, amenity=music_school)"
            }
        },
        {
            "id": 5585,
            "type": "Feature",
            "geometry": {
                "type": "Point",
                "coordinates": [
                    16.1,
                    51.66306
                ]
            },
            "properties": {
                "ref:rspo": 5585,
                "official_name": "Zesp\u00f3\u0142 Szk\u00f3\u0142 Samochodowych I Budowlanych im. Leonarda Da Vinci w G\u0142ogowie",
                "name": "Zesp\u00f3\u0142 Szk\u00f3\u0142 Samochodowych I Budowlanych",
                "addr:postcode": "67-200",
                "addr:city": "G\u0142og\u00f3w",
                "addr:street": "Piastowska",
                "addr:housenumber": "2a",
                "addr:city:simc": 954082,
                "addr:street:sym_ul": 16046,
                "phone": "+48 767277121",
                "email": "zssib@zssglogow.hg.pl",
                "website": "http:\/\/www.zssglogow.hg.pl",
                "ref:regon": "000178991",
                "ref:vatin": "PL6931015739",
                "operator": "Powiat G\u0142ogowski",
                "operator:type": "government",
                "landuse": "education",
                "fixme": "amenity=school, amenity=college albo landuse=education w zale\u017cno\u015bci od tego, jakie plac\u00f3wki wchodz\u0105 w sk\u0142ad zespo\u0142u. Sprawd\u017a, kiedy stosowa\u0107 amenity=* a kiedy landuse=education.",
                "note": "Children RSPO: 6695;6727;6941;274735"
            }
        },
        {
            "id": 6695,
            "type": "Feature",
            "geometry": {
                "type": "Point",
                "coordinates": [
                    16.1,
                    51.66303
                ]
            },
            "properties": {
                "isced:level": "3",
                "ref:rspo": 6695,
                "official_name": "Liceum Og\u00f3lnokszta\u0142c\u0105ce dla Doros\u0142ych w G\u0142ogowie",
                "name": "Liceum Og\u00f3lnokszta\u0142c\u0105ce dla Doros\u0142ych w G\u0142ogowie",
                "addr:postcode": "67-200",
                "addr:city": "G\u0142og\u00f3w",
                "addr:street": "Piastowska",
                "addr:housenumber": "2a",
                "addr:city:simc": 954082,
                "addr:street:sym_ul": 16046,
                "phone": "+48 767277121",
                "email": "zssib@zssglogow.hg.pl",
                "website": "http:\/\/www.zssglogow.hg.pl",
                "ref:regon": "021928250",
                "operator": "Powiat G\u0142ogowski",
                "operator:type": "government",
                "amenity": "school",
                "note": "Parent RSPO: 5585"
            }
        },
        {
            "id": 6727,
            "type": "Feature",
            "geometry": {
                "type": "Point",
                "coordinates": [
                    16.1,
                    51.663000000000004
                ]
            },
            "properties": {
                "isced:level": "3",
                "ref:rspo": 6727,
                "official_name": "Bran\u017cowa Szko\u0142a I Stopnia nr 4 w G\u0142ogowie",
                "name": "Bran\u017cowa Szko\u0142a I Stopnia nr 4 w G\u0142ogowie",
                "addr:postcode": "67-200",
                "addr:city": "G\u0142og\u00f3w",
                "addr:street": "Piastowska",
                "addr:housenumber": "2a",
                "addr:city:simc": 954082,
                "addr:street:sym_ul": 16046,
                "phone": "+48 767277121",
                "email": "zssib@zssglogow.hg.pl",
                "website": "http:\/\/www.zssglogow.hg.pl",
                "ref:regon": "020115880",
                "operator": "Powiat G\u0142ogowski",
                "operator:type": "government",
                "amenity": "school",
                "note": "Parent RSPO: 5585"
            }
        },
        {
            "id": 6941,
            "type": "Feature",
            "geometry": {
                "type": "Point",
                "coordinates": [
                    16.1,
                    51.66297
                ]
            },
            "properties": {
                "isced:level": "3",
                "ref:rspo": 6941,
                "official_name": "Technikum nr 5",
                "name": "Technikum nr 5",
                "addr:postcode": "67-200",
                "addr:city": "G\u0142og\u00f3w",
                "addr:street": "Piastowska",
                "addr:housenumber": "2a",
                "addr:city:simc": 954082,
                "addr:street:sym_ul": 16046,
                "phone": "+48 767277121",
                "email": "zssib@zssglogow.hg.pl",
                "website": "http:\/\/www.zssglogow.hg.pl",
                "ref:regon": "020115934",
                "operator": "Powiat G\u0142ogowski",
                "operator:type": "government",
                "amenity": "school",
                "note": "Parent RSPO: 5585"
            }
        },
        {
            "id": 274735,
            "type": "Feature",
            "geometry": {
                "type": "Point",
                "coordinates": [
                    16.1,
                    51.66294
                ]
            },
            "properties": {
                "isced:level": "3",
                "ref:rspo": 274735,
                "official_name": "Bran\u017cowa Szko\u0142a II Stopnia nr 3 w G\u0142ogowie",
                "name": "Bran\u017cowa Szko\u0142a II Stopnia nr 3 w G\u0142ogowie",
                "addr:postcode": "67-200",
                "addr:city": "G\u0142og\u00f3w",
                "addr:street": "Piastowska",
                "addr:housenumber": "2a",
                "addr:city:simc": 954082,
                "addr:street:sym_ul": 16046,
                "phone": "+48 767277121",
                "email": "zssib@zssglogow.hg.pl",
                "website": "http:\/\/zssglogow.hg.pl",
                "ref:regon": "386286550",
                "operator": "Powiat G\u0142ogowski",
                "operator:type": "government",
                "amenity": "school",
                "note": "Parent RSPO: 5585"
            }
        },
        {
            "id": 13417,
            "type": "Feature",
            "geometry": {
                "type": "Point",
                "coordinates": [
                    16.09768,
                    51.66335
                ]
            },
            "properties": {
                "ref:rspo": 13417,
                "official_name": "G\u0142ogowskie Centrum Kszta\u0142cenia Zawodowego w G\u0142ogowie",
                "name": "G\u0142ogowskie Centrum Kszta\u0142cenia Zawodowego w G\u0142ogowie",
                "addr:postcode": "67-200",
                "addr:city": "G\u0142og\u00f3w",
                "addr:street": "Piotra Skargi",
                "addr:housenumber": "29",
                "addr:city:simc": 954082,
                "addr:street:sym_ul": 20012,
                "phone": "+48 768334018",
                "email": "centrum@ckz.glogow.pl",
                "website": "http:\/\/www.cez.glogow.pl",
                "ref:regon": "020576227",
                "ref:vatin": "PL6932115696",
                "operator": "Powiat G\u0142ogowski",
                "operator:type": "government",
                "fixme": "w zale\u017cno\u015bci od przedmiotu dzia\u0142alno\u015bci (np. amenity=training + training=*, amenity=dancing_school, amenity=language_school, amenity=music_school) albo amenity=school, amenity=college, albo landuse=education w zale\u017cno\u015bci od tego, jakie plac\u00f3wki wchodz\u0105 w sk\u0142ad zespo\u0142u. Sprawd\u017a, kiedy stosowa\u0107 amenity=* a kiedy landuse=education."
            }
        },
        {
            "id": 13642,
            "type": "Feature",
            "geometry": {
                "type": "Point",
                "coordinates": [
                    16.08066,
                    51.66351
                ]
            },
            "properties": {
                "ref:rspo": 13642,
                "official_name": "Powiatowy O\u015brodek Doradztwa Metodycznego w G\u0142ogowie",
                "name": "Powiatowy O\u015brodek Doradztwa Metodycznego w G\u0142ogowie",
                "addr:postcode": "67-200",
                "addr:city": "G\u0142og\u00f3w",
                "addr:street": "Jedno\u015bci Robotniczej",
                "addr:housenumber": "38",
                "addr:city:simc": 954082,
                "addr:street:sym_ul": 7442,
                "phone": "+48 768333211",
                "email": "centrum@pcpppidn.eu",
                "website": "http:\/\/www.pcpppidn.eu",
                "ref:regon": "020053446",
                "operator": "Powiat G\u0142ogowski",
                "operator:type": "government",
                "amenity": "training",
                "note": "Parent RSPO: 8947"
            }
        },
        {
            "id": 18853,
            "type": "Feature",
            "geometry": {
                "type": "Point",
                "coordinates": [
                    16.08001,
                    51.6637
                ]
            },
            "properties": {
                "ref:rspo": 18853,
                "official_name": "Pa\u0144stwowa Szko\u0142a Muzyczna I I II St. im. Franciszka Liszta w G\u0142ogowie",
                "name": "Pa\u0144stwowa Szko\u0142a Muzyczna I I II St.",
                "addr:postcode": "67-200",
                "addr:city": "G\u0142og\u00f3w",
                "addr:street": "Jedno\u015bci Robotniczej",
                "addr:housenumber": "14",
                "addr:city:simc": 954082,
                "addr:street:sym_ul": 7442,
                "phone": "+48 768332746",
                "email": "sekretariat@muzyczna.glogow.pl",
                "website": "http:\/\/muzyczna.glogow.pl",
                "ref:regon": "000743592",
                "operator": "Ministerstwo Kultury I Dziedzictwa Narodowego",
                "operator:type": "government",
                "landuse": "education",
                "fixme": "amenity=school, amenity=college albo landuse=education w zale\u017cno\u015bci od tego, jakie plac\u00f3wki wchodz\u0105 w sk\u0142ad zespo\u0142u. Sprawd\u017a, kiedy stosowa\u0107 amenity=* a kiedy landuse=education.",
                "note": "Children RSPO: 104205;104206"
            }
        },
        {
            "id": 104205,
            "type": "Feature",
            "geometry": {
                "type": "Point",
                "coordinates": [
                    16.08001,
                    51.663669999999996
                ]
            },
            "properties": {
                "ref:rspo": 104205,
                "official_name": "Szko\u0142a Muzyczna I St. w G\u0142ogowie",
                "name": "Szko\u0142a Muzyczna I St. w G\u0142ogowie",
                "addr:postcode": "67-200",
                "addr:city": "G\u0142og\u00f3w",
                "addr:street": "Jedno\u015bci Robotniczej",
                "addr:housenumber": "14",
                "addr:city:simc": 954082,
                "addr:street:sym_ul": 7442,
                "phone": "+48 768332746",
                "ref:regon": "022030768",
                "operator": "Ministerstwo Kultury I Dziedzictwa Narodowego",
                "operator:type": "government",
                "amenity": "music_school",
                "note": "Parent RSPO: 18853"
            }
        },
        {
            "id": 104206,
            "type": "Feature",
            "geometry": {
                "type": "Point",
                "coordinates": [
                    16.08001,
                    51.66364
                ]
            },
            "properties": {
                "ref:rspo": 104206,
                "official_name": "Szko\u0142a Muzyczna II St. w G\u0142ogowie",
                "name": "Szko\u0142a Muzyczna II St. w G\u0142ogowie",
                "addr:postcode": "67-200",
                "addr:city": "G\u0142og\u00f3w",
                "addr:street": "Jedno\u015bci Robotniczej",
                "addr:housenumber": "14",
                "addr:city:simc": 954082,
                "addr:street:sym_ul": 7442,
                "phone": "+48 768332746",
                "ref:regon": "022030780",
                "operator": "Ministerstwo Kultury I Dziedzictwa Narodowego",
                "operator:type": "government",
                "amenity": "music_school",
                "note": "Parent RSPO: 18853"
            }
        },
        {
            "id": 267343,
            "type": "Feature",
            "geometry": {
                "type": "Point",
                "coordinates": [
                    16.06841,
                    51.66399
                ]
            },
            "properties": {
                "ref:rspo": 267343,
                "official_name": "Przedszkole Niepubliczne Stokrotka",
                "name": "Przedszkole Niepubliczne Stokrotka",
                "addr:postcode": "67-200",
                "addr:city": "G\u0142og\u00f3w",
                "addr:street": "Dzia\u0142kowa",
                "addr:housenumber": "11",
                "addr:city:simc": 954082,
                "addr:street:sym_ul": 4572,
                "phone": "+48 606718179",
                "email": "ewa.osomanska@wp.pl",
                "ref:regon": "380197420",
                "ref:vatin": "PL6931353933",
                "operator": "Ewa Pawlak-Osoma\u0144ska",
                "operator:type": "private",
                "amenity": "kindergarten"
            }
        },
        {
            "id": 269719,
            "type": "Feature",
            "geometry": {
                "type": "Point",
                "coordinates": [
                    16.09307,
                    51.66414
                ]
            },
            "properties": {
                "ref:rspo": 269719,
                "official_name": "Przedszkole Niepubliczne Niezapominajka",
                "name": "Przedszkole Niepubliczne Niezapominajka",
                "addr:postcode": "67-200",
                "addr:city": "G\u0142og\u00f3w",
                "addr:street": "Rynek",
                "addr:housenumber": "59-61",
                "addr:city:simc": 954082,
                "addr:street:sym_ul": 19252,
                "phone": "+48 693498460",
                "email": "joannamalawska@wp.pl",
                "ref:regon": "381739678",
                "ref:vatin": "PL4970052152",
                "operator": "Joanna Ma\u0142yniak",
                "operator:type": "private",
                "amenity": "kindergarten"
            }
        },
        {
            "id": 132361,
            "type": "Feature",
            "geometry": {
                "type": "Point",
                "coordinates": [
                    16.09561,
                    51.66433
                ]
            },
            "properties": {
                "ref:rspo": 132361,
                "official_name": "Przedszkole Niepubliczne Dom Montessori",
                "name": "Przedszkole Niepubliczne Dom Montessori",
                "addr:postcode": "67-200",
                "addr:city": "G\u0142og\u00f3w",
                "addr:street": "D\u0142uga",
                "addr:housenumber": "80",
                "addr:city:simc": 954082,
                "addr:street:sym_ul": 3839,
                "phone": "+48 505484680",
                "email": "sekretariat.dommontessori@gmail.com",
                "website": "http:\/\/www.dom-montessori.pl",
                "ref:regon": "365573374",
                "ref:vatin": "PL6932133866",
                "operator": "Dorota Kami\u0144ska",
                "operator:type": "private",
                "amenity": "kindergarten"
            }
        },
        {
            "id": 15662,
            "type": "Feature",
            "geometry": {
                "type": "Point",
                "coordinates": [
                    16.08998,
                    51.66469
                ]
            },
            "properties": {
                "ref:rspo": 15662,
                "official_name": "Niepubliczna Poradnia Psychologiczno-Pedagogiczna",
                "name": "Niepubliczna Poradnia Psychologiczno-Pedagogiczna",
                "addr:postcode": "67-200",
                "addr:city": "G\u0142og\u00f3w",
                "addr:street": "S\u0142odowa",
                "addr:housenumber": "12",
                "addr:city:simc": 954082,
                "addr:street:sym_ul": 20225,
                "phone": "+48 603073319",
                "email": "poradnia@trzyrybki.pl",
                "website": "http:\/\/www.poradnia.trzyrybki.pl",
                "ref:regon": "021965445",
                "ref:vatin": "PL6931336604",
                "operator": "Oceanedukacjirybkavioletta Marcinkowska",
                "operator:type": "private",
                "healthcare": "counselling",
                "counselling_type": "education",
                "fixme": "w zale\u017cno\u015bci od przedmiotu dzia\u0142alno\u015bci (np. healthcare=counselling + counselling_type=education albo healthcare=psychotherapist)"
            }
        },
        {
            "id": 47470,
            "type": "Feature",
            "geometry": {
                "type": "Point",
                "coordinates": [
                    16.08998,
                    51.66466
                ]
            },
            "properties": {
                "ref:rspo": 47470,
                "official_name": "Przedszkole Niepubliczne Ocean Edukacji Rybka",
                "name": "Przedszkole Niepubliczne Ocean Edukacji Rybka",
                "addr:postcode": "67-200",
                "addr:city": "G\u0142og\u00f3w",
                "addr:street": "S\u0142odowa",
                "addr:housenumber": "12",
                "addr:city:simc": 954082,
                "addr:street:sym_ul": 20225,
                "phone": "+48 603073319",
                "email": "rybka@trzyrybki.pl",
                "website": "http:\/\/www.trzyrybki.pl",
                "ref:regon": "021994270",
                "ref:vatin": "PL6931336604",
                "operator": "Oceanedukacjirybkavioletta Marcinkowska",
                "operator:type": "private",
                "amenity": "kindergarten"
            }
        },
        {
            "id": 272948,
            "type": "Feature",
            "geometry": {
                "type": "Point",
                "coordinates": [
                    16.08783,
                    51.66472
                ]
            },
            "properties": {
                "ref:rspo": 272948,
                "official_name": "Zesp\u00f3\u0142 Szk\u00f3\u0142 \"Pascal\" w G\u0142ogowie",
                "name": "Zesp\u00f3\u0142 Szk\u00f3\u0142 \"Pascal\" w G\u0142ogowie",
                "addr:postcode": "67-200",
                "addr:city": "G\u0142og\u00f3w",
                "addr:street": "Aleja Wolno\u015bci",
                "addr:housenumber": "2",
                "addr:city:simc": 954082,
                "addr:street:sym_ul": 207,
                "phone": "+48 763000170",
                "email": "glogow@pascal.edu.pl",
                "ref:regon": "384333008",
                "operator": "Educa Sp\u00f3\u0142ka Z Ograniczon\u0105 Odpowiedzialno\u015bci\u0105",
                "operator:type": "private",
                "landuse": "education",
                "fixme": "amenity=school, amenity=college albo landuse=education w zale\u017cno\u015bci od tego, jakie plac\u00f3wki wchodz\u0105 w sk\u0142ad zespo\u0142u. Sprawd\u017a, kiedy stosowa\u0107 amenity=* a kiedy landuse=education.",
                "note": "Children RSPO: 268865;268872;268873;268875"
            }
        },
        {
            "id": 268865,
            "type": "Feature",
            "geometry": {
                "type": "Point",
                "coordinates": [
                    16.08783,
                    51.66469
                ]
            },
            "properties": {
                "isced:level": "4",
                "ref:rspo": 268865,
                "official_name": "Zaoczna Policealna Szko\u0142a Zawodowa \"Pascal\" w G\u0142ogowie",
                "name": "Zaoczna Policealna Szko\u0142a Zawodowa \"Pascal\" w G\u0142ogowie",
                "addr:postcode": "67-200",
                "addr:city": "G\u0142og\u00f3w",
                "addr:street": "Aleja Wolno\u015bci",
                "addr:housenumber": "2",
                "addr:city:simc": 954082,
                "addr:street:sym_ul": 207,
                "phone": "+48 763000170",
                "email": "glogow@pascal.edu.pl",
                "ref:regon": "381269675",
                "operator": "Educa Sp\u00f3\u0142ka Z Ograniczon\u0105 Odpowiedzialno\u015bci\u0105",
                "operator:type": "private",
                "amenity": "college",
                "note": "Parent RSPO: 272948"
            }
        },
        {
            "id": 268872,
            "type": "Feature",
            "geometry": {
                "type": "Point",
                "coordinates": [
                    16.08783,
                    51.664660000000005
                ]
            },
            "properties": {
                "isced:level": "4",
                "ref:rspo": 268872,
                "official_name": "Policealna Szko\u0142a Medyczna \"Pascal\" w G\u0142ogowie",
                "name": "Policealna Szko\u0142a Medyczna \"Pascal\" w G\u0142ogowie",
                "addr:postcode": "67-200",
                "addr:city": "G\u0142og\u00f3w",
                "addr:street": "Aleja Wolno\u015bci",
                "addr:housenumber": "2",
                "addr:city:simc": 954082,
                "addr:street:sym_ul": 207,
                "phone": "+48 763000170",
                "email": "glogow@pascal.edu.pl",
                "ref:regon": "381272507",
                "operator": "Educa Sp\u00f3\u0142ka Z Ograniczon\u0105 Odpowiedzialno\u015bci\u0105",
                "operator:type": "private",
                "amenity": "college",
                "note": "Parent RSPO: 272948"
            }
        },
        {
            "id": 268873,
            "type": "Feature",
            "geometry": {
                "type": "Point",
                "coordinates": [
                    16.08783,
                    51.66463
                ]
            },
            "properties": {
                "isced:level": "4",
                "ref:rspo": 268873,
                "official_name": "Stacjonarna Policealna Szko\u0142a Medyczna \"Pascal\" w G\u0142ogowie",
                "name": "Stacjonarna Policealna Szko\u0142a Medyczna \"Pascal\" w G\u0142ogowie",
                "addr:postcode": "67-200",
                "addr:city": "G\u0142og\u00f3w",
                "addr:street": "Aleja Wolno\u015bci",
                "addr:housenumber": "2",
                "addr:city:simc": 954082,
                "addr:street:sym_ul": 207,
                "phone": "+48 763000170",
                "email": "glogow@pascal.edu.pl",
                "ref:regon": "381272499",
                "operator": "Educa Sp\u00f3\u0142ka Z Ograniczon\u0105 Odpowiedzialno\u015bci\u0105",
                "operator:type": "private",
                "amenity": "college",
                "note": "Parent RSPO: 272948"
            }
        },
        {
            "id": 268875,
            "type": "Feature",
            "geometry": {
                "type": "Point",
                "coordinates": [
                    16.08783,
                    51.6646
                ]
            },
            "properties": {
                "isced:level": "3",
                "ref:rspo": 268875,
                "official_name": "Liceum Og\u00f3lnokszta\u0142c\u0105ce dla Doros\u0142ych \"Pascal\" w G\u0142ogowie",
                "name": "Liceum Og\u00f3lnokszta\u0142c\u0105ce dla Doros\u0142ych \"Pascal\" w G\u0142ogowie",
                "addr:postcode": "67-200",
                "addr:city": "G\u0142og\u00f3w",
                "addr:street": "Aleja Wolno\u015bci",
                "addr:housenumber": "2",
                "addr:city:simc": 954082,
                "addr:street:sym_ul": 207,
                "phone": "+48 763000170",
                "email": "glogow@pascal.edu.pl",
                "ref:regon": "381272460",
                "operator": "Educa Sp\u00f3\u0142ka Z Ograniczon\u0105 Odpowiedzialno\u015bci\u0105",
                "operator:type": "private",
                "amenity": "school",
                "note": "Parent RSPO: 272948"
            }
        },
        {
            "id": 18040,
            "type": "Feature",
            "geometry": {
                "type": "Point",
                "coordinates": [
                    16.085,
                    51.6651
                ]
            },
            "properties": {
                "isced:level": "4",
                "ref:rspo": 18040,
                "official_name": "Prywatna Policealna Szko\u0142a Awangarda w G\u0142ogowie",
                "name": "Prywatna Policealna Szko\u0142a Awangarda w G\u0142ogowie",
                "addr:postcode": "67-200",
                "addr:city": "G\u0142og\u00f3w",
                "addr:street": "Aleja Wolno\u015bci",
                "addr:housenumber": "11",
                "addr:city:simc": 954082,
                "addr:street:sym_ul": 207,
                "phone": "+48 767454002",
                "email": "glogow@awangarda.edu.pl",
                "ref:regon": "021970995",
                "ref:vatin": "PL9290005630",
                "operator": "Wioletta Nienartowicz",
                "operator:type": "private",
                "amenity": "college"
            }
        },
        {
            "id": 278097,
            "type": "Feature",
            "geometry": {
                "type": "Point",
                "coordinates": [
                    16.07089,
                    51.6652
                ]
            },
            "properties": {
                "ref:rspo": 278097,
                "official_name": "Niepublicznekatolickie Przedszkole \"Bo\u017cy Domek\" im. \u015aw.klemensa Hofbauera",
                "name": "Niepublicznekatolickie Przedszkole \"Bo\u017cy Domek\"",
                "addr:postcode": "67-200",
                "addr:city": "G\u0142og\u00f3w",
                "addr:street": "Genera\u0142a W\u0142adys\u0142awa Sikorskiego",
                "addr:housenumber": "23",
                "addr:city:simc": 954082,
                "addr:street:sym_ul": 38378,
                "phone": "+48 609672022",
                "email": "przedszkolebozydomek@gmail.com",
                "ref:regon": "389772050",
                "operator": "Fundacja Edukacja Z Warto\u015bciami Dolny \u015al\u0105sk",
                "operator:type": "ngo",
                "amenity": "kindergarten"
            }
        },
        {
            "id": 5156,
            "type": "Feature",
            "geometry": {
                "type": "Point",
                "coordinates": [
                    16.08087,
                    51.66572
                ]
            },
            "properties": {
                "isced:level": "3",
                "ref:rspo": 5156,
                "official_name": "I Liceum Og\u00f3lnokszta\u0142c\u0105ce im. Boles\u0142awa Krzywoustego w G\u0142ogowie",
                "name": "I Liceum Og\u00f3lnokszta\u0142c\u0105ce",
                "addr:postcode": "67-200",
                "addr:city": "G\u0142og\u00f3w",
                "addr:street": "Jedno\u015bci Robotniczej",
                "addr:housenumber": "10",
                "addr:city:simc": 954082,
                "addr:street:sym_ul": 7442,
                "phone": "+48 768342138",
                "email": "sekretariat@lo1glogow.pl",
                "website": "http:\/\/www.lo1glogow.com",
                "ref:regon": "391009618",
                "ref:vatin": "PL6932174919",
                "operator": "Powiat G\u0142ogowski",
                "operator:type": "government",
                "amenity": "school"
            }
        },
        {
            "id": 13649,
            "type": "Feature",
            "geometry": {
                "type": "Point",
                "coordinates": [
                    16.08087,
                    51.66569
                ]
            },
            "properties": {
                "ref:rspo": 13649,
                "official_name": "Filia Biblioteki Pedagogicznej w G\u0142ogowie",
                "name": "Filia Biblioteki Pedagogicznej w G\u0142ogowie",
                "addr:postcode": "67-200",
                "addr:city": "G\u0142og\u00f3w",
                "addr:street": "Jedno\u015bci Robotniczej",
                "addr:housenumber": "10",
                "addr:city:simc": 954082,
                "addr:street:sym_ul": 7442,
                "phone": "+48 767272598",
                "email": "centrum@pcpppidn.eu",
                "website": "http:\/\/www.pcpppidn.eu",
                "ref:regon": "020053423",
                "operator": "Powiat G\u0142ogowski",
                "operator:type": "government",
                "amenity": "library",
                "note": "Parent RSPO: 8947"
            }
        },
        {
            "id": 8565,
            "type": "Feature",
            "geometry": {
                "type": "Point",
                "coordinates": [
                    16.08568,
                    51.66641
                ]
            },
            "properties": {
                "ref:rspo": 8565,
                "official_name": "Zesp\u00f3\u0142 Szk\u00f3\u0142 Politechnicznych w G\u0142ogowie",
                "name": "Zesp\u00f3\u0142 Szk\u00f3\u0142 Politechnicznych w G\u0142ogowie",
                "addr:postcode": "67-200",
                "addr:city": "G\u0142og\u00f3w",
                "addr:street": "Plac Jana z G\u0142ogowa",
                "addr:housenumber": "7",
                "addr:city:simc": 954082,
                "addr:street:sym_ul": 39511,
                "phone": "+48 768341853",
                "email": "szkola@zszglogow.pl",
                "website": "http:\/\/www.zszglogow.pl",
                "ref:regon": "000179507",
                "ref:vatin": "PL6931015691",
                "operator": "Powiat G\u0142ogowski",
                "operator:type": "government",
                "landuse": "education",
                "fixme": "amenity=school, amenity=college albo landuse=education w zale\u017cno\u015bci od tego, jakie plac\u00f3wki wchodz\u0105 w sk\u0142ad zespo\u0142u. Sprawd\u017a, kiedy stosowa\u0107 amenity=* a kiedy landuse=education.",
                "note": "Children RSPO: 9827;9843"
            }
        },
        {
            "id": 55898,
            "type": "Feature",
            "geometry": {
                "type": "Point",
                "coordinates": [
                    16.08568,
                    51.66638
                ]
            },
            "properties": {
                "isced:level": "4",
                "ref:rspo": 55898,
                "official_name": "Szko\u0142a Policealna Biznesu w G\u0142ogowie",
                "name": "Szko\u0142a Policealna Biznesu w G\u0142ogowie",
                "addr:postcode": "67-200",
                "addr:city": "G\u0142og\u00f3w",
                "addr:street": "Plac Jana z G\u0142ogowa",
                "addr:housenumber": "7",
                "addr:city:simc": 954082,
                "addr:street:sym_ul": 39511,
                "phone": "+48 768341110",
                "email": "policealna@wp.pl",
                "website": "http:\/\/zaoczna.edu.pl",
                "ref:regon": "022000224",
                "ref:vatin": "PL6930010332",
                "operator": "Teresa Konarska",
                "operator:type": "private",
                "amenity": "college"
            }
        },
        {
            "id": 55900,
            "type": "Feature",
            "geometry": {
                "type": "Point",
                "coordinates": [
                    16.08568,
                    51.66635
                ]
            },
            "properties": {
                "ref:rspo": 55900,
                "official_name": "G\u0142ogowski O\u015brodek Naukowy w G\u0142ogowie",
                "name": "G\u0142ogowski O\u015brodek Naukowy w G\u0142ogowie",
                "addr:postcode": "67-200",
                "addr:city": "G\u0142og\u00f3w",
                "addr:street": "Plac Jana z G\u0142ogowa",
                "addr:housenumber": "7",
                "addr:city:simc": 954082,
                "addr:street:sym_ul": 39511,
                "phone": "+48 768341110",
                "email": "policealna@wp.pl",
                "ref:regon": "022000282",
                "ref:vatin": "PL6930010332",
                "operator": "Teresa Konarska",
                "operator:type": "private",
                "fixme": "w zale\u017cno\u015bci od przedmiotu dzia\u0142alno\u015bci (np. amenity=training + training=*, amenity=dancing_school, amenity=language_school, amenity=music_school)"
            }
        },
        {
            "id": 55904,
            "type": "Feature",
            "geometry": {
                "type": "Point",
                "coordinates": [
                    16.08568,
                    51.66632
                ]
            },
            "properties": {
                "isced:level": "3",
                "ref:rspo": 55904,
                "official_name": "Zaoczne Liceum Og\u00f3lnokszta\u0142c\u0105ce dla Doros\u0142ych w G\u0142ogowie",
                "name": "Zaoczne Liceum Og\u00f3lnokszta\u0142c\u0105ce dla Doros\u0142ych w G\u0142ogowie",
                "addr:postcode": "67-200",
                "addr:city": "G\u0142og\u00f3w",
                "addr:street": "Plac Jana z G\u0142ogowa",
                "addr:housenumber": "7",
                "addr:city:simc": 954082,
                "addr:street:sym_ul": 39511,
                "phone": "+48 768341110",
                "email": "policealna@wp.pl",
                "ref:regon": "022001956",
                "ref:vatin": "PL6930010332",
                "operator": "Teresa Konarska",
                "operator:type": "private",
                "amenity": "school"
            }
        },
        {
            "id": 9827,
            "type": "Feature",
            "geometry": {
                "type": "Point",
                "coordinates": [
                    16.08568,
                    51.66629
                ]
            },
            "properties": {
                "isced:level": "3",
                "ref:rspo": 9827,
                "official_name": "Bran\u017cowa Szko\u0142a I Stopnia nr 2 w G\u0142ogowie",
                "name": "Bran\u017cowa Szko\u0142a I Stopnia nr 2 w G\u0142ogowie",
                "addr:postcode": "67-200",
                "addr:city": "G\u0142og\u00f3w",
                "addr:street": "Plac Jana z G\u0142ogowa",
                "addr:housenumber": "7",
                "addr:city:simc": 954082,
                "addr:street:sym_ul": 39511,
                "phone": "+48 768341853",
                "email": "szkola@zszglogow.pl",
                "website": "http:\/\/www.zszglogow.pl",
                "ref:regon": "391009328",
                "operator": "Powiat G\u0142ogowski",
                "operator:type": "government",
                "amenity": "school",
                "note": "Parent RSPO: 8565"
            }
        },
        {
            "id": 9843,
            "type": "Feature",
            "geometry": {
                "type": "Point",
                "coordinates": [
                    16.08568,
                    51.66626
                ]
            },
            "properties": {
                "isced:level": "3",
                "ref:rspo": 9843,
                "official_name": "Technikum nr 3",
                "name": "Technikum nr 3",
                "addr:postcode": "67-200",
                "addr:city": "G\u0142og\u00f3w",
                "addr:street": "Plac Jana z G\u0142ogowa",
                "addr:housenumber": "7",
                "addr:city:simc": 954082,
                "addr:street:sym_ul": 39511,
                "phone": "+48 768341853",
                "email": "szkola@zszglogow.pl",
                "website": "http:\/\/www.zszglogow.pl",
                "ref:regon": "391009357",
                "operator": "Powiat G\u0142ogowski",
                "operator:type": "government",
                "amenity": "school",
                "note": "Parent RSPO: 8565"
            }
        },
        {
            "id": 41639,
            "type": "Feature",
            "geometry": {
                "type": "Point",
                "coordinates": [
                    16.07896,
                    51.66645
                ]
            },
            "properties": {
                "ref:rspo": 41639,
                "official_name": "Przedszkole Publiczne nr 2 w G\u0142ogowie",
                "name": "Przedszkole Publiczne nr 2 w G\u0142ogowie",
                "addr:postcode": "67-200",
                "addr:city": "G\u0142og\u00f3w",
                "addr:street": "Aleja Wolno\u015bci",
                "addr:housenumber": "17",
                "addr:city:simc": 954082,
                "addr:street:sym_ul": 207,
                "phone": "+48 767265619",
                "email": "pp2@www.glogow.pl",
                "website": "http:\/\/www.pp2.glogow.pl",
                "ref:regon": "390932419",
                "ref:vatin": "PL6931962508",
                "operator": "Gmina Miejska G\u0142og\u00f3w",
                "operator:type": "government",
                "amenity": "kindergarten"
            }
        },
        {
            "id": 51257,
            "type": "Feature",
            "geometry": {
                "type": "Point",
                "coordinates": [
                    16.08212,
                    51.66684
                ]
            },
            "properties": {
                "ref:rspo": 51257,
                "official_name": "Przedszkole Niepubliczne Bajkonet",
                "name": "Przedszkole Niepubliczne Bajkonet",
                "addr:postcode": "67-200",
                "addr:city": "G\u0142og\u00f3w",
                "addr:street": "Sp\u00f3\u0142dzielcza",
                "addr:housenumber": "17A",
                "addr:city:simc": 954082,
                "addr:street:sym_ul": 20696,
                "phone": "+48 508232609",
                "email": "barbara1025@wp.pl",
                "website": "http:\/\/www.przedszkolewsieci.jimdo.com",
                "ref:regon": "021994636",
                "ref:vatin": "PL6931339519",
                "operator": "Barbara Walczak",
                "operator:type": "private",
                "amenity": "kindergarten"
            }
        },
        {
            "id": 120968,
            "type": "Feature",
            "geometry": {
                "type": "Point",
                "coordinates": [
                    16.0833799,
                    51.66737
                ]
            },
            "properties": {
                "ref:rspo": 120968,
                "official_name": "\"Henc I Sp\u00f3\u0142ka\" Pawe\u0142 Henc",
                "name": "\"Henc I Sp\u00f3\u0142ka\" Pawe\u0142 Henc",
                "addr:postcode": "67-200",
                "addr:city": "G\u0142og\u00f3w",
                "addr:street": "Jedno\u015bci Robotniczej",
                "addr:housenumber": "43b",
                "addr:city:simc": 954082,
                "addr:street:sym_ul": 7442,
                "phone": "+48 517981903",
                "email": "pawel.henc@gmail.com",
                "ref:regon": "022306905",
                "operator": "Pawe\u0142 Henc",
                "operator:type": "private",
                "fixme": "w zale\u017cno\u015bci od przedmiotu dzia\u0142alno\u015bci (np. amenity=training + training=*, amenity=dancing_school, amenity=language_school, amenity=music_school)"
            }
        },
        {
            "id": 16015,
            "type": "Feature",
            "geometry": {
                "type": "Point",
                "coordinates": [
                    16.08368,
                    51.66774
                ]
            },
            "properties": {
                "isced:level": "4",
                "ref:rspo": 16015,
                "official_name": "Centrum Edukacji \"Korona\" Szko\u0142a Policealna w G\u0142ogowie",
                "name": "Centrum Edukacji \"Korona\" Szko\u0142a Policealna w G\u0142ogowie",
                "addr:postcode": "67-200",
                "addr:city": "G\u0142og\u00f3w",
                "addr:street": "Poczdamska",
                "addr:housenumber": "1",
                "addr:city:simc": 954082,
                "addr:street:sym_ul": 16576,
                "phone": "+48 768313246",
                "email": "cekorona@gmail.com",
                "website": "http:\/\/www.cekorona.pl",
                "ref:regon": "021966203",
                "ref:vatin": "PL6931333563",
                "operator": "Danuta P\u0142onek",
                "operator:type": "private",
                "amenity": "college"
            }
        },
        {
            "id": 119995,
            "type": "Feature",
            "geometry": {
                "type": "Point",
                "coordinates": [
                    16.08368,
                    51.66771
                ]
            },
            "properties": {
                "isced:level": "3",
                "ref:rspo": 119995,
                "official_name": "Centrum Edukacji \"Korona\" Liceum Og\u00f3lnokszta\u0142c\u0105ce dla Doros\u0142ych",
                "name": "Centrum Edukacji \"Korona\" Liceum Og\u00f3lnokszta\u0142c\u0105ce dla Doros\u0142ych",
                "addr:postcode": "67-200",
                "addr:city": "G\u0142og\u00f3w",
                "addr:street": "Poczdamska",
                "addr:housenumber": "1",
                "addr:city:simc": 954082,
                "addr:street:sym_ul": 16576,
                "phone": "+48 768313246",
                "email": "cekorona@gmail.com",
                "website": "http:\/\/www.cekorona.pl",
                "ref:regon": "022252003",
                "operator": "Danuta P\u0142onek",
                "operator:type": "private",
                "amenity": "school"
            }
        },
        {
            "id": 279112,
            "type": "Feature",
            "geometry": {
                "type": "Point",
                "coordinates": [
                    16.08368,
                    51.667680000000004
                ]
            },
            "properties": {
                "ref:rspo": 279112,
                "official_name": "Centrum Kszta\u0142cenia Ustawicznego \"Korona\" w G\u0142ogowie",
                "name": "Centrum Kszta\u0142cenia Ustawicznego \"Korona\" w G\u0142ogowie",
                "addr:postcode": "67-200",
                "addr:city": "G\u0142og\u00f3w",
                "addr:street": "Poczdamska",
                "addr:housenumber": "1",
                "addr:city:simc": 954082,
                "addr:street:sym_ul": 16576,
                "phone": "+48 768313246",
                "email": "cekorona@gmail.com",
                "website": "http:\/\/www.cekorona.pl",
                "ref:regon": "520677970",
                "operator": "Danuta P\u0142onek",
                "operator:type": "private",
                "fixme": "w zale\u017cno\u015bci od przedmiotu dzia\u0142alno\u015bci (np. amenity=training + training=*, amenity=dancing_school, amenity=language_school, amenity=music_school)"
            }
        },
        {
            "id": 15803,
            "type": "Feature",
            "geometry": {
                "type": "Point",
                "coordinates": [
                    16.08429,
                    51.66791
                ]
            },
            "properties": {
                "isced:level": "4",
                "ref:rspo": 15803,
                "official_name": "Tessa-Instytut Urody I Edukacji w G\u0142ogowie Policealna Szko\u0142a Kosmetyczna",
                "name": "Tessa-Instytut Urody I Edukacji w G\u0142ogowie Policealna Szko\u0142a Kosmetyczna",
                "addr:postcode": "67-200",
                "addr:city": "G\u0142og\u00f3w",
                "addr:street": "Poczdamska",
                "addr:housenumber": "3f",
                "addr:city:simc": 954082,
                "addr:street:sym_ul": 16576,
                "phone": "+48 768334733",
                "email": "instytut.tessa@wp.pl",
                "website": "http:\/\/www.tessa.ede.pl",
                "ref:regon": "021965497",
                "ref:vatin": "PL6931070678",
                "operator": "Wioletta Zawadzka",
                "operator:type": "private",
                "amenity": "college"
            }
        },
        {
            "id": 42882,
            "type": "Feature",
            "geometry": {
                "type": "Point",
                "coordinates": [
                    16.07502,
                    51.66796
                ]
            },
            "properties": {
                "ref:rspo": 42882,
                "official_name": "Przedszkole Publiczne nr 3 w G\u0142ogowie",
                "name": "Przedszkole Publiczne nr 3 w G\u0142ogowie",
                "addr:postcode": "67-200",
                "addr:city": "G\u0142og\u00f3w",
                "addr:street": "Aleja Wolno\u015bci",
                "addr:housenumber": "72",
                "addr:city:simc": 954082,
                "addr:street:sym_ul": 207,
                "phone": "+48 767265632",
                "email": "pp3@www.glogow.pl",
                "website": "http:\/\/www.pp3.glogow.pl",
                "ref:regon": "390243743",
                "ref:vatin": "PL6931910569",
                "operator": "Gmina Miejska G\u0142og\u00f3w",
                "operator:type": "government",
                "amenity": "kindergarten"
            }
        },
        {
            "id": 55894,
            "type": "Feature",
            "geometry": {
                "type": "Point",
                "coordinates": [
                    16.0814999,
                    51.66804
                ]
            },
            "properties": {
                "ref:rspo": 55894,
                "official_name": "Centrum Edukacji I Doradztwa \"Mada 1\"",
                "name": "Centrum Edukacji I Doradztwa \"Mada 1\"",
                "addr:postcode": "67-200",
                "addr:city": "G\u0142og\u00f3w",
                "addr:street": "1 Maja",
                "addr:housenumber": "24",
                "addr:city:simc": 954082,
                "addr:street:sym_ul": 11926,
                "phone": "+48 768342059",
                "email": "oskmada2@poczta.onet.pl",
                "website": "http:\/\/www.mada.glogow.pl",
                "ref:regon": "022000106",
                "ref:vatin": "PL6931147369",
                "operator": "Kamilla Muszy\u0144ska",
                "operator:type": "private",
                "fixme": "w zale\u017cno\u015bci od przedmiotu dzia\u0142alno\u015bci (np. amenity=training + training=*, amenity=dancing_school, amenity=language_school, amenity=music_school)"
            }
        },
        {
            "id": 22348,
            "type": "Feature",
            "geometry": {
                "type": "Point",
                "coordinates": [
                    16.07435,
                    51.66824
                ]
            },
            "properties": {
                "isced:level": "1;2",
                "ref:rspo": 22348,
                "official_name": "Szko\u0142a Podstawowa nr 2 w G\u0142ogowie",
                "name": "Szko\u0142a Podstawowa nr 2 w G\u0142ogowie",
                "addr:postcode": "67-200",
                "addr:city": "G\u0142og\u00f3w",
                "addr:street": "Aleja Wolno\u015bci",
                "addr:housenumber": "74",
                "addr:city:simc": 954082,
                "addr:street:sym_ul": 207,
                "phone": "+48 767265628",
                "email": "sekretariat@sp2glogow.pl",
                "website": "http:\/\/sp2glogow.pl",
                "ref:regon": "000708680",
                "ref:vatin": "PL6931023762",
                "operator": "Gmina Miejska G\u0142og\u00f3w",
                "operator:type": "government",
                "amenity": "school"
            }
        },
        {
            "id": 42848,
            "type": "Feature",
            "geometry": {
                "type": "Point",
                "coordinates": [
                    16.09065,
                    51.66968
                ]
            },
            "properties": {
                "isced:level": "4",
                "ref:rspo": 42848,
                "official_name": "Policealna Szko\u0142a Detektyw\u00f3w I Pracownik\u00f3w Ochrony w G\u0142ogowie",
                "name": "Policealna Szko\u0142a Detektyw\u00f3w I Pracownik\u00f3w Ochrony w G\u0142ogowie",
                "addr:postcode": "67-200",
                "addr:city": "G\u0142og\u00f3w",
                "addr:street": "Obozowa",
                "addr:housenumber": "3",
                "addr:city:simc": 954082,
                "addr:street:sym_ul": 14599,
                "phone": "+48 768322442",
                "email": "sekretariat@certus.edu.pl",
                "website": "http:\/\/www.certus.edu.pl",
                "ref:regon": "021994582",
                "ref:vatin": "PL6931402206",
                "operator": "Ku\u017ania Kadr Sp\u00f3\u0142ka Z Ograniczon\u0105 Odpowiedzialno\u015bci\u0105",
                "operator:type": "private",
                "amenity": "college"
            }
        },
        {
            "id": 48320,
            "type": "Feature",
            "geometry": {
                "type": "Point",
                "coordinates": [
                    16.09065,
                    51.66965
                ]
            },
            "properties": {
                "isced:level": "4",
                "ref:rspo": 48320,
                "official_name": "Policealna Szko\u0142a Edukacji Europejskiej w G\u0142ogowie",
                "name": "Policealna Szko\u0142a Edukacji Europejskiej w G\u0142ogowie",
                "addr:postcode": "67-200",
                "addr:city": "G\u0142og\u00f3w",
                "addr:street": "Obozowa",
                "addr:housenumber": "3",
                "addr:city:simc": 954082,
                "addr:street:sym_ul": 14599,
                "phone": "+48 768322442",
                "email": "sekretariat@certus.edu.pl",
                "website": "http:\/\/www.certus.edu.pl",
                "ref:regon": "021999645",
                "ref:vatin": "PL6931402206",
                "operator": "Ku\u017ania Kadr Sp\u00f3\u0142ka Z Ograniczon\u0105 Odpowiedzialno\u015bci\u0105",
                "operator:type": "private",
                "amenity": "college"
            }
        },
        {
            "id": 55872,
            "type": "Feature",
            "geometry": {
                "type": "Point",
                "coordinates": [
                    16.09065,
                    51.66962
                ]
            },
            "properties": {
                "isced:level": "3",
                "ref:rspo": 55872,
                "official_name": "Liceum Og\u00f3lnokszta\u0142c\u0105ce dla Doros\u0142ych w G\u0142ogowie",
                "name": "Liceum Og\u00f3lnokszta\u0142c\u0105ce dla Doros\u0142ych w G\u0142ogowie",
                "addr:postcode": "67-200",
                "addr:city": "G\u0142og\u00f3w",
                "addr:street": "Obozowa",
                "addr:housenumber": "3",
                "addr:city:simc": 954082,
                "addr:street:sym_ul": 14599,
                "phone": "+48 768322442",
                "email": "sekretariat@certus.edu.pl",
                "website": "http:\/\/www.certus.edu.pl",
                "ref:regon": "022000218",
                "ref:vatin": "PL6931402206",
                "operator": "Ku\u017ania Kadr Sp\u00f3\u0142ka Z Ograniczon\u0105 Odpowiedzialno\u015bci\u0105",
                "operator:type": "private",
                "amenity": "school"
            }
        },
        {
            "id": 122793,
            "type": "Feature",
            "geometry": {
                "type": "Point",
                "coordinates": [
                    16.09065,
                    51.66959
                ]
            },
            "properties": {
                "ref:rspo": 122793,
                "official_name": "O\u015brodek Szkoleniowo-Kursowy Certus w G\u0142ogowie",
                "name": "O\u015brodek Szkoleniowo-Kursowy Certus w G\u0142ogowie",
                "addr:postcode": "67-200",
                "addr:city": "G\u0142og\u00f3w",
                "addr:street": "Obozowa",
                "addr:housenumber": "3",
                "addr:city:simc": 954082,
                "addr:street:sym_ul": 14599,
                "phone": "+48 768532848",
                "email": "info@omnis-group.pl",
                "ref:regon": "022391472",
                "ref:vatin": "PL6932173877",
                "operator": "Omnis Group Sp\u00f3\u0142ka Z Ograniczon\u0105 Odpowiedzialno\u015bci\u0105",
                "operator:type": "private",
                "fixme": "w zale\u017cno\u015bci od przedmiotu dzia\u0142alno\u015bci (np. amenity=training + training=*, amenity=dancing_school, amenity=language_school, amenity=music_school)"
            }
        },
        {
            "id": 127340,
            "type": "Feature",
            "geometry": {
                "type": "Point",
                "coordinates": [
                    16.09065,
                    51.66956
                ]
            },
            "properties": {
                "isced:level": "3",
                "ref:rspo": 127340,
                "official_name": "Liceum Og\u00f3lnokszta\u0142c\u0105ce Mistrzostwa Sportowego Certus w G\u0142ogowie",
                "name": "Liceum Og\u00f3lnokszta\u0142c\u0105ce Mistrzostwa Sportowego Certus w G\u0142ogowie",
                "addr:postcode": "67-200",
                "addr:city": "G\u0142og\u00f3w",
                "addr:street": "Obozowa",
                "addr:housenumber": "3",
                "addr:city:simc": 954082,
                "addr:street:sym_ul": 14599,
                "phone": "+48 768322442",
                "email": "kontakt@sms.glogow.pl",
                "website": "http:\/\/www.sms.glogow.pl",
                "ref:regon": "361376547",
                "operator": "Szko\u0142a Mistrzostwa Sportowego Sp\u00f3\u0142ka Z Ograniczon\u0105 Odpowiedzialno\u015bci\u0105",
                "operator:type": "private",
                "amenity": "school"
            }
        },
        {
            "id": 196386,
            "type": "Feature",
            "geometry": {
                "type": "Point",
                "coordinates": [
                    16.09065,
                    51.66953
                ]
            },
            "properties": {
                "isced:level": "1;2",
                "ref:rspo": 196386,
                "official_name": "Szko\u0142a Podstawowa Mistrzostwa Sportowego Chrobry G\u0142og\u00f3w w G\u0142ogowie",
                "name": "Szko\u0142a Podstawowa Mistrzostwa Sportowego Chrobry G\u0142og\u00f3w w G\u0142ogowie",
                "addr:postcode": "67-200",
                "addr:city": "G\u0142og\u00f3w",
                "addr:street": "Obozowa",
                "addr:housenumber": "3",
                "addr:city:simc": 954082,
                "addr:street:sym_ul": 14599,
                "phone": "+48 768356655",
                "email": "sekretariat@sms.glogow.pl",
                "website": "http:\/\/sms.glogow.pl",
                "ref:regon": "367998439",
                "operator": "Szko\u0142a Mistrzostwa Sportowego Sp\u00f3\u0142ka Z Ograniczon\u0105 Odpowiedzialno\u015bci\u0105",
                "operator:type": "private",
                "amenity": "school"
            }
        },
        {
            "id": 263508,
            "type": "Feature",
            "geometry": {
                "type": "Point",
                "coordinates": [
                    16.09065,
                    51.6695
                ]
            },
            "properties": {
                "isced:level": "1;2",
                "ref:rspo": 263508,
                "official_name": "Szko\u0142a Podstawowa dla Doros\u0142ych w G\u0142ogowie",
                "name": "Szko\u0142a Podstawowa dla Doros\u0142ych w G\u0142ogowie",
                "addr:postcode": "67-200",
                "addr:city": "G\u0142og\u00f3w",
                "addr:street": "Obozowa",
                "addr:housenumber": "3",
                "addr:city:simc": 954082,
                "addr:street:sym_ul": 14599,
                "phone": "+48 768322442",
                "email": "sekretariat@certus.edu.pl",
                "website": "http:\/\/www.certus.edu.pl",
                "ref:regon": "368195560",
                "ref:vatin": "PL6931402206",
                "operator": "Ku\u017ania Kadr Sp\u00f3\u0142ka Z Ograniczon\u0105 Odpowiedzialno\u015bci\u0105",
                "operator:type": "private",
                "amenity": "school"
            }
        },
        {
            "id": 263930,
            "type": "Feature",
            "geometry": {
                "type": "Point",
                "coordinates": [
                    16.09235,
                    51.66993
                ]
            },
            "properties": {
                "ref:rspo": 263930,
                "official_name": "Przedszkole Niepubliczne \"Wyspa Skarb\u00f3w\" Cichych Pracownik\u00f3w Krzy\u017ca",
                "name": "Przedszkole Niepubliczne \"Wyspa Skarb\u00f3w\" Cichych Pracownik\u00f3w Krzy\u017ca",
                "addr:postcode": "67-200",
                "addr:city": "G\u0142og\u00f3w",
                "addr:street": "B\u0142ogos\u0142awionego Luigiego Novarese",
                "addr:housenumber": "8",
                "addr:city:simc": 954082,
                "addr:street:sym_ul": 45972,
                "phone": "+48 768333297",
                "email": "wyspaskarbow@cisi.pl",
                "website": "http:\/\/www.wyspaskarb\u00f3w.cisi.pl",
                "ref:regon": "368243223",
                "ref:vatin": "PL6931792420",
                "operator": "Cisi Pracownicy Krzy\u017ca",
                "operator:type": "religious",
                "amenity": "kindergarten"
            }
        },
        {
            "id": 272620,
            "type": "Feature",
            "geometry": {
                "type": "Point",
                "coordinates": [
                    16.09802,
                    51.67376
                ]
            },
            "properties": {
                "isced:level": "1;2",
                "ref:rspo": 272620,
                "official_name": "Szko\u0142a Podstawowa dla Dzieci Ze Spektrum Autyzmu \"Dalej Razem\" w G\u0142ogowie",
                "name": "Szko\u0142a Podstawowa dla Dzieci Ze Spektrum Autyzmu \"Dalej Razem\" w G\u0142ogowie",
                "addr:postcode": "67-200",
                "addr:city": "G\u0142og\u00f3w",
                "addr:street": "\u0141\u0105kowa",
                "addr:housenumber": "46",
                "addr:city:simc": 954082,
                "addr:street:sym_ul": 11596,
                "email": "fps@onet.pl",
                "ref:regon": "384270331",
                "operator": "Fundacja Przedsi\u0119biorczo\u015bci Spo\u0142ecznej",
                "operator:type": "ngo",
                "amenity": "school"
            }
        }
    ]
}