{
    "type": "FeatureCollection",
    "features": [
        {
            "id": 5525,
            "type": "Feature",
            "geometry": {
                "type": "Point",
                "coordinates": [
                    16.04704,
                    51.59602
                ]
            },
            "properties": {
                "ref:rspo": 5525,
                "official_name": "Przedszkole Gminne \"Kraina Marze\u0144\"",
                "name": "Przedszkole Gminne \"Kraina Marze\u0144\"",
                "addr:postcode": "67-222",
                "addr:city": "Jerzmanowa",
                "addr:street": "Obiszowska",
                "addr:housenumber": "25",
                "addr:city:simc": 364297,
                "addr:street:sym_ul": 14572,
                "phone": "+48 724846572",
                "email": "dyrektor@przedszkolejerzmanowa.szkolnastrona.pl",
                "website": "http:\/\/www.przedszkolejerzmanowa.szkolnastrona.pl",
                "ref:regon": "390243476",
                "ref:vatin": "PL6931896071",
                "operator": "Gmina Jerzmanowa",
                "operator:type": "government",
                "amenity": "kindergarten"
            }
        },
        {
            "id": 5478,
            "type": "Feature",
            "geometry": {
                "type": "Point",
                "coordinates": [
                    16.04375,
                    51.59625
                ]
            },
            "properties": {
                "isced:level": "1;2",
                "ref:rspo": 5478,
                "official_name": "Szko\u0142a Podstawowa im. Jana Paw\u0142a II w Jerzmanowej",
                "name": "Szko\u0142a Podstawowa",
                "addr:postcode": "67-222",
                "addr:city": "Jerzmanowa",
                "addr:street": "G\u0142ogowska",
                "addr:housenumber": "19",
                "addr:city:simc": 364297,
                "addr:street:sym_ul": 5614,
                "phone": "+48 768312124",
                "email": "sp.jerzmanowa@wp.pl",
                "website": "http:\/\/www.szkola.jerzmanowa.com.pl",
                "ref:regon": "000581652",
                "ref:vatin": "PL6931864094",
                "operator": "Gmina Jerzmanowa",
                "operator:type": "government",
                "amenity": "school"
            }
        },
        {
            "id": 274672,
            "type": "Feature",
            "geometry": {
                "type": "Point",
                "coordinates": [
                    16.07436,
                    51.62296
                ]
            },
            "properties": {
                "ref:rspo": 274672,
                "official_name": "Przedszkole Gminne w Jaczowie",
                "name": "Przedszkole Gminne w Jaczowie",
                "addr:postcode": "67-210",
                "addr:city": "Jacz\u00f3w",
                "addr:street": "Smardzowska",
                "addr:housenumber": "1",
                "addr:city:simc": 364280,
                "addr:street:sym_ul": 29468,
                "phone": "+48 768312931",
                "email": "dyrektor@przedszkole.jaczow.pl",
                "ref:regon": "386205467",
                "operator": "Gmina Jerzmanowa",
                "operator:type": "government",
                "amenity": "kindergarten"
            }
        },
        {
            "id": 5488,
            "type": "Feature",
            "geometry": {
                "type": "Point",
                "coordinates": [
                    16.07533,
                    51.62605
                ]
            },
            "properties": {
                "isced:level": "1;2",
                "ref:rspo": 5488,
                "official_name": "Szko\u0142a Podstawowa im.henryka Sienkiewicza w Jaczowie",
                "name": "Szko\u0142a Podstawowa im.henryka Sienkiewicza w Jaczowie",
                "addr:postcode": "67-200",
                "addr:city": "Jacz\u00f3w",
                "addr:street": "G\u0142\u00f3wna",
                "addr:housenumber": "20",
                "addr:city:simc": 364280,
                "addr:street:sym_ul": 5635,
                "phone": "+48 768312250",
                "email": "spjacz@wp.pl",
                "website": "http:\/\/www.spjaczow.pl",
                "ref:regon": "001239370",
                "ref:vatin": "PL6931863657",
                "operator": "Gmina Jerzmanowa",
                "operator:type": "government",
                "amenity": "school"
            }
        }
    ]
}