{
    "type": "FeatureCollection",
    "features": [
        {
            "id": 21059,
            "type": "Feature",
            "geometry": {
                "type": "Point",
                "coordinates": [
                    23.4056219,
                    51.0802379
                ]
            },
            "properties": {
                "isced:level": "1;2",
                "ref:rspo": 21059,
                "official_name": "Szko\u0142a Podstawowa w Uhrze Imienia Romualda Traugutta",
                "name": "Szko\u0142a Podstawowa w Uhrze Imienia Romualda Traugutta",
                "addr:postcode": "22-100",
                "addr:place": "Uher",
                "addr:housenumber": "32",
                "addr:city:simc": 101735,
                "phone": "+48 825697812",
                "email": "uher.szkola@op.pl",
                "website": "http:\/\/www.zsuher.gminachelm.pl",
                "ref:regon": "110709845",
                "operator": "Gmina Che\u0142m",
                "operator:type": "government",
                "amenity": "school"
            }
        },
        {
            "id": 21053,
            "type": "Feature",
            "geometry": {
                "type": "Point",
                "coordinates": [
                    23.502716,
                    51.091273
                ]
            },
            "properties": {
                "isced:level": "1;2",
                "ref:rspo": 21053,
                "official_name": "Szko\u0142a Podstawowa Imienia W\u0142adys\u0142awa Broniewskiego w Strupinie Du\u017cym",
                "name": "Szko\u0142a Podstawowa Imienia W\u0142adys\u0142awa Broniewskiego w Strupinie Du\u017cym",
                "addr:postcode": "22-100",
                "addr:place": "Strupin Du\u017cy",
                "addr:housenumber": "122",
                "addr:city:simc": 101681,
                "phone": "+48 825638016",
                "email": "zsstrupin@wp.pl",
                "website": "http:\/\/www.zsstrupin.gminachelm.pl",
                "ref:regon": "001087411",
                "operator": "Gmina Che\u0142m",
                "operator:type": "government",
                "amenity": "school"
            }
        },
        {
            "id": 21061,
            "type": "Feature",
            "geometry": {
                "type": "Point",
                "coordinates": [
                    23.442600250244,
                    51.113639831543
                ]
            },
            "properties": {
                "isced:level": "1;2",
                "ref:rspo": 21061,
                "official_name": "Szko\u0142a Podstawowa w \u017b\u00f3\u0142ta\u0144cach Imienia Ksi\u0119dza J\u00f3zefa D\u0105browskiego",
                "name": "Szko\u0142a Podstawowa w \u017b\u00f3\u0142ta\u0144cach Imienia Ksi\u0119dza J\u00f3zefa D\u0105browskiego",
                "addr:postcode": "22-100",
                "addr:city": "\u017b\u00f3\u0142ta\u0144ce-Kolonia",
                "addr:street": "Metalowa",
                "addr:housenumber": "89",
                "addr:city:simc": 101860,
                "addr:street:sym_ul": 12627,
                "phone": "+48 825636702",
                "email": "szkola.zoltance_xl@wp.pl",
                "website": "http:\/\/www.zoltance.gminachelm.pl",
                "ref:regon": "001148727",
                "operator": "Gmina Che\u0142m",
                "operator:type": "government",
                "amenity": "school"
            }
        },
        {
            "id": 21063,
            "type": "Feature",
            "geometry": {
                "type": "Point",
                "coordinates": [
                    23.49314,
                    51.15936
                ]
            },
            "properties": {
                "isced:level": "1;2",
                "ref:rspo": 21063,
                "official_name": "Szko\u0142a Podstawowa w Okszowie",
                "name": "Szko\u0142a Podstawowa w Okszowie",
                "addr:postcode": "22-105",
                "addr:city": "Oksz\u00f3w",
                "addr:street": "Che\u0142mska",
                "addr:housenumber": "14",
                "addr:city:simc": 101391,
                "addr:street:sym_ul": 2709,
                "phone": "+48 825690756",
                "email": "sekretariat@spokszow.pl",
                "website": "http:\/\/spokszow.pl",
                "ref:regon": "001176273",
                "operator": "Gmina Che\u0142m",
                "operator:type": "government",
                "amenity": "school"
            }
        },
        {
            "id": 31455,
            "type": "Feature",
            "geometry": {
                "type": "Point",
                "coordinates": [
                    23.49464,
                    51.16052
                ]
            },
            "properties": {
                "ref:rspo": 31455,
                "official_name": "Zesp\u00f3\u0142 Szk\u00f3\u0142 Centrum Kszta\u0142cenia Rolniczego im. J\u00f3zefa Pi\u0142sudskiego w Okszowie",
                "name": "Zesp\u00f3\u0142 Szk\u00f3\u0142 Centrum Kszta\u0142cenia Rolniczego",
                "addr:postcode": "22-105",
                "addr:city": "Oksz\u00f3w",
                "addr:street": "Szkolna",
                "addr:housenumber": "2",
                "addr:city:simc": 101391,
                "addr:street:sym_ul": 21970,
                "phone": "+48 825690722",
                "email": "zsckr@okszow.edu.pl",
                "website": "http:\/\/www.zsckr.okszow.edu.pl",
                "ref:regon": "000096193",
                "ref:vatin": "PL5631003045",
                "operator": "Ministerstwo Rolnictwa I Rozwoju Wsi",
                "operator:type": "public",
                "landuse": "education",
                "fixme": "amenity=school, amenity=college albo landuse=education w zale\u017cno\u015bci od tego, jakie plac\u00f3wki wchodz\u0105 w sk\u0142ad zespo\u0142u. Sprawd\u017a, kiedy stosowa\u0107 amenity=* a kiedy landuse=education.",
                "note": "Children RSPO: 103419;103420;103424;103470;276189"
            }
        },
        {
            "id": 103419,
            "type": "Feature",
            "geometry": {
                "type": "Point",
                "coordinates": [
                    23.49464,
                    51.160489999999996
                ]
            },
            "properties": {
                "isced:level": "3",
                "ref:rspo": 103419,
                "official_name": "Technikum w Okszowie",
                "name": "Technikum w Okszowie",
                "addr:postcode": "22-105",
                "addr:city": "Oksz\u00f3w",
                "addr:street": "Szkolna",
                "addr:housenumber": "2",
                "addr:city:simc": 101391,
                "addr:street:sym_ul": 21970,
                "phone": "+48 825690722",
                "email": "zsckr@okszow.edu.pl",
                "website": "http:\/\/zsckr.okszow.pl",
                "ref:regon": "060283190",
                "operator": "Ministerstwo Rolnictwa I Rozwoju Wsi",
                "operator:type": "public",
                "amenity": "school",
                "note": "Parent RSPO: 31455"
            }
        },
        {
            "id": 103420,
            "type": "Feature",
            "geometry": {
                "type": "Point",
                "coordinates": [
                    23.49464,
                    51.16046
                ]
            },
            "properties": {
                "isced:level": "3",
                "ref:rspo": 103420,
                "official_name": "Bran\u017cowa Szko\u0142a I Stopnia w Okszowie",
                "name": "Bran\u017cowa Szko\u0142a I Stopnia w Okszowie",
                "addr:postcode": "22-105",
                "addr:city": "Oksz\u00f3w",
                "addr:street": "Szkolna",
                "addr:housenumber": "2",
                "addr:city:simc": 101391,
                "addr:street:sym_ul": 21970,
                "phone": "+48 825690722",
                "email": "zsckr@okszow.edu.pl",
                "website": "http:\/\/zsckr.okszow.edu.pl",
                "ref:regon": "110608570",
                "operator": "Ministerstwo Rolnictwa I Rozwoju Wsi",
                "operator:type": "public",
                "amenity": "school",
                "note": "Parent RSPO: 31455"
            }
        },
        {
            "id": 103424,
            "type": "Feature",
            "geometry": {
                "type": "Point",
                "coordinates": [
                    23.49464,
                    51.16043
                ]
            },
            "properties": {
                "isced:level": "4",
                "ref:rspo": 103424,
                "official_name": "Szko\u0142a Policealna w Okszowie",
                "name": "Szko\u0142a Policealna w Okszowie",
                "addr:postcode": "22-105",
                "addr:city": "Oksz\u00f3w",
                "addr:street": "Szkolna",
                "addr:housenumber": "2",
                "addr:city:simc": 101391,
                "addr:street:sym_ul": 21970,
                "phone": "+48 825690722",
                "email": "zsckr@okszow.edu.pl",
                "website": "http:\/\/zsckr.okszow.edu.pl",
                "ref:regon": "110608587",
                "operator": "Ministerstwo Rolnictwa I Rozwoju Wsi",
                "operator:type": "public",
                "amenity": "college",
                "note": "Parent RSPO: 31455"
            }
        },
        {
            "id": 103470,
            "type": "Feature",
            "geometry": {
                "type": "Point",
                "coordinates": [
                    23.49464,
                    51.160399999999996
                ]
            },
            "properties": {
                "ref:rspo": 103470,
                "official_name": "Rolnicze Centrum Kszta\u0142cenia Ustawicznego w Okszowie",
                "name": "Rolnicze Centrum Kszta\u0142cenia Ustawicznego w Okszowie",
                "addr:postcode": "22-105",
                "addr:city": "Oksz\u00f3w",
                "addr:street": "Szkolna",
                "addr:housenumber": "2",
                "addr:city:simc": 101391,
                "addr:street:sym_ul": 21970,
                "phone": "+48 825690722",
                "email": "zsckr@okszow.edu.pl",
                "website": "http:\/\/www.zsckr.okszow.edu.pl",
                "ref:regon": "061501281",
                "operator": "Ministerstwo Rolnictwa I Rozwoju Wsi",
                "operator:type": "public",
                "fixme": "w zale\u017cno\u015bci od przedmiotu dzia\u0142alno\u015bci (np. amenity=training + training=*, amenity=dancing_school, amenity=language_school, amenity=music_school)",
                "note": "Parent RSPO: 31455"
            }
        },
        {
            "id": 276189,
            "type": "Feature",
            "geometry": {
                "type": "Point",
                "coordinates": [
                    23.49464,
                    51.16037
                ]
            },
            "properties": {
                "isced:level": "3",
                "ref:rspo": 276189,
                "official_name": "Bran\u017cowa Szko\u0142a II Stopnia w Okszowie",
                "name": "Bran\u017cowa Szko\u0142a II Stopnia w Okszowie",
                "addr:postcode": "22-105",
                "addr:city": "Oksz\u00f3w",
                "addr:street": "Szkolna",
                "addr:housenumber": "2",
                "addr:city:simc": 101391,
                "addr:street:sym_ul": 21970,
                "phone": "+48 825690722",
                "email": "zsckr@okszow.edu.pl",
                "website": "http:\/\/zsckr.okszow.edu.pl\/",
                "ref:regon": "387024992",
                "operator": "Ministerstwo Rolnictwa I Rozwoju Wsi",
                "operator:type": "public",
                "amenity": "school",
                "note": "Parent RSPO: 31455"
            }
        },
        {
            "id": 21057,
            "type": "Feature",
            "geometry": {
                "type": "Point",
                "coordinates": [
                    23.3200335,
                    51.1701009
                ]
            },
            "properties": {
                "isced:level": "1;2",
                "ref:rspo": 21057,
                "official_name": "Szko\u0142a Podstawowa w Sto\u0142piu Imienia Marii Sk\u0142odowskiej-Curie",
                "name": "Szko\u0142a Podstawowa w Sto\u0142piu Imienia Marii Sk\u0142odowskiej-Curie",
                "addr:postcode": "22-151",
                "addr:place": "Sto\u0142pie",
                "addr:housenumber": "11",
                "addr:city:simc": 101675,
                "phone": "+48 825697225",
                "email": "stolpie@poczta.onet.pl",
                "website": "http:\/\/www.spstolpie.gminachelm.pl",
                "ref:regon": "001176333",
                "operator": "Gmina Che\u0142m",
                "operator:type": "government",
                "amenity": "school"
            }
        },
        {
            "id": 21055,
            "type": "Feature",
            "geometry": {
                "type": "Point",
                "coordinates": [
                    23.391094,
                    51.1862799
                ]
            },
            "properties": {
                "isced:level": "1;2",
                "ref:rspo": 21055,
                "official_name": "Szko\u0142a Podstawowa w Stawie",
                "name": "Szko\u0142a Podstawowa w Stawie",
                "addr:postcode": "22-151",
                "addr:place": "Staw",
                "addr:housenumber": "72",
                "addr:city:simc": 101617,
                "phone": "+48 825697032",
                "email": "zsstaw@gmail.com",
                "website": "http:\/\/spstaw.gminachelm.pl\/",
                "ref:regon": "001176310",
                "operator": "Gmina Che\u0142m",
                "operator:type": "government",
                "amenity": "school"
            }
        }
    ]
}