{
    "type": "FeatureCollection",
    "features": [
        {
            "id": 275589,
            "type": "Feature",
            "geometry": {
                "type": "Point",
                "coordinates": [
                    23.452621,
                    51.2174969
                ]
            },
            "properties": {
                "isced:level": "1;2",
                "ref:rspo": 275589,
                "official_name": "Stowarzyszenie \"Edukator\" w \u0141om\u017cy Szko\u0142a Podstawowa im. Jana Paw\u0142a II w Czu\u0142czycach",
                "name": "Stowarzyszenie \"Edukator\" w \u0141om\u017cy Szko\u0142a Podstawowa",
                "addr:country": "PL",
                "addr:postcode": "22-107",
                "addr:place": "Czu\u0142czyce",
                "addr:housenumber": "71",
                "addr:teryt:simc": 106796,
                "contact:phone": "+48 825674406",
                "contact:email": "spczulczyce@sawin.pl",
                "contact:website": "http:\/\/spczulczyce.sawin.pl",
                "ref:regon": "386926712",
                "operator": "Spo\u0142eczno - O\u015bwiatowe Stowarzyszenie Pomocy Pokrzywdzonym I Niepe\u0142nosprawnym \"Edukator\"",
                "operator:type": "ngo",
                "amenity": "school"
            }
        },
        {
            "id": 270521,
            "type": "Feature",
            "geometry": {
                "type": "Point",
                "coordinates": [
                    23.44181,
                    51.27193
                ]
            },
            "properties": {
                "ref:rspo": 270521,
                "official_name": "Niepubliczny Specjalny O\u015brodek Szkolno - Wychowawczy w Sawinie",
                "name": "Niepubliczny Specjalny O\u015brodek Szkolno - Wychowawczy w Sawinie",
                "addr:country": "PL",
                "addr:postcode": "22-107",
                "addr:city": "Sawin",
                "addr:street": "Ko\u015bcielna",
                "addr:housenumber": "41",
                "addr:teryt:simc": 107175,
                "addr:teryt:sym_ul": 9546,
                "ref:regon": "382714516",
                "operator": "Ewa Sp\u00f3\u0142ka Z Ograniczon\u0105 Odpowiedzialno\u015bci\u0105",
                "operator:type": "private",
                "amenity": "school",
                "note": "Children RSPO: 270568;270569;270849"
            }
        },
        {
            "id": 270568,
            "type": "Feature",
            "geometry": {
                "type": "Point",
                "coordinates": [
                    23.44181,
                    51.271899999999995
                ]
            },
            "properties": {
                "isced:level": "1;2",
                "ref:rspo": 270568,
                "official_name": "Niepubliczna Specjalna Szko\u0142a Podstawowa w Sawinie",
                "name": "Niepubliczna Specjalna Szko\u0142a Podstawowa w Sawinie",
                "addr:country": "PL",
                "addr:postcode": "22-107",
                "addr:city": "Sawin",
                "addr:street": "Ko\u015bcielna",
                "addr:housenumber": "41",
                "addr:teryt:simc": 107175,
                "addr:teryt:sym_ul": 9546,
                "ref:regon": "382774599",
                "operator": "Ewa Sp\u00f3\u0142ka Z Ograniczon\u0105 Odpowiedzialno\u015bci\u0105",
                "operator:type": "private",
                "amenity": "school",
                "note": "Parent RSPO: 270521"
            }
        },
        {
            "id": 270569,
            "type": "Feature",
            "geometry": {
                "type": "Point",
                "coordinates": [
                    23.44181,
                    51.27187
                ]
            },
            "properties": {
                "ref:rspo": 270569,
                "official_name": "Niepubliczna Specjalna Szko\u0142a Przysposabiaj\u0105ca Do Pracy w Sawinie",
                "name": "Niepubliczna Specjalna Szko\u0142a Przysposabiaj\u0105ca Do Pracy w Sawinie",
                "addr:country": "PL",
                "addr:postcode": "22-107",
                "addr:city": "Sawin",
                "addr:street": "Ko\u015bcielna",
                "addr:housenumber": "41",
                "addr:teryt:simc": 107175,
                "addr:teryt:sym_ul": 9546,
                "ref:regon": "382774725",
                "operator": "Ewa Sp\u00f3\u0142ka Z Ograniczon\u0105 Odpowiedzialno\u015bci\u0105",
                "operator:type": "private",
                "amenity": "school",
                "note": "Parent RSPO: 270521"
            }
        },
        {
            "id": 270849,
            "type": "Feature",
            "geometry": {
                "type": "Point",
                "coordinates": [
                    23.44181,
                    51.27184
                ]
            },
            "properties": {
                "isced:level": "3",
                "ref:rspo": 270849,
                "official_name": "Niepubliczna Szko\u0142a Bran\u017cowa I Stopnia w Sawinie",
                "name": "Niepubliczna Szko\u0142a Bran\u017cowa I Stopnia w Sawinie",
                "addr:country": "PL",
                "addr:postcode": "22-107",
                "addr:city": "Sawin",
                "addr:street": "Ko\u015bcielna",
                "addr:housenumber": "41",
                "addr:teryt:simc": 107175,
                "addr:teryt:sym_ul": 9546,
                "ref:regon": "382973790",
                "operator": "Ewa Sp\u00f3\u0142ka Z Ograniczon\u0105 Odpowiedzialno\u015bci\u0105",
                "operator:type": "private",
                "amenity": "school",
                "note": "Parent RSPO: 270521"
            }
        },
        {
            "id": 12602,
            "type": "Feature",
            "geometry": {
                "type": "Point",
                "coordinates": [
                    23.43739,
                    51.2729799
                ]
            },
            "properties": {
                "ref:rspo": 12602,
                "official_name": "Zesp\u00f3\u0142 Szk\u00f3\u0142 w Sawinie",
                "name": "Zesp\u00f3\u0142 Szk\u00f3\u0142 w Sawinie",
                "addr:country": "PL",
                "addr:postcode": "22-107",
                "addr:city": "Sawin",
                "addr:street": "Brzeska",
                "addr:housenumber": "14",
                "addr:teryt:simc": 107175,
                "addr:teryt:sym_ul": 2230,
                "contact:phone": "+48 825673010",
                "contact:email": "zs.sawin@interia.pl",
                "contact:website": "http:\/\/www.zs.sawin.eu.interia.pl",
                "ref:regon": "000593997",
                "ref:vatin": "PL5631995420",
                "operator": "Gmina Sawin",
                "operator:type": "government",
                "landuse": "education",
                "fixme": "amenity=school, amenity=college albo landuse=education w zale\u017cno\u015bci od tego, jakie plac\u00f3wki wchodz\u0105 w sk\u0142ad zespo\u0142u. Sprawd\u017a, kiedy stosowa\u0107 amenity=* a kiedy landuse=education.",
                "note": "Children RSPO: 20084;20085"
            }
        },
        {
            "id": 20084,
            "type": "Feature",
            "geometry": {
                "type": "Point",
                "coordinates": [
                    23.43739,
                    51.2729499
                ]
            },
            "properties": {
                "isced:level": "1;2",
                "ref:rspo": 20084,
                "official_name": "Szko\u0142a Podstawowa im. St.staszica w Sawinie",
                "name": "Szko\u0142a Podstawowa",
                "addr:country": "PL",
                "addr:postcode": "22-107",
                "addr:city": "Sawin",
                "addr:street": "Brzeska",
                "addr:housenumber": "14",
                "addr:teryt:simc": 107175,
                "addr:teryt:sym_ul": 2230,
                "contact:phone": "+48 825673010",
                "contact:email": "zs.sawin@interia.pl",
                "contact:website": "http:\/\/www.szkola.zssawin.pl",
                "ref:regon": "110597961",
                "operator": "Gmina Sawin",
                "operator:type": "government",
                "amenity": "school",
                "note": "Parent RSPO: 12602"
            }
        },
        {
            "id": 20085,
            "type": "Feature",
            "geometry": {
                "type": "Point",
                "coordinates": [
                    23.43739,
                    51.272919900000005
                ]
            },
            "properties": {
                "ref:rspo": 20085,
                "official_name": "Przedszkole Samorz\u0105dowe w Sawinie",
                "name": "Przedszkole Samorz\u0105dowe w Sawinie",
                "addr:country": "PL",
                "addr:postcode": "22-107",
                "addr:city": "Sawin",
                "addr:street": "Brzeska",
                "addr:housenumber": "14",
                "addr:teryt:simc": 107175,
                "addr:teryt:sym_ul": 2230,
                "contact:phone": "+48 825673010",
                "contact:email": "zs.sawin@interia.pl",
                "ref:regon": "061464960",
                "operator": "Gmina Sawin",
                "operator:type": "government",
                "amenity": "kindergarten",
                "note": "Parent RSPO: 12602"
            }
        },
        {
            "id": 275604,
            "type": "Feature",
            "geometry": {
                "type": "Point",
                "coordinates": [
                    23.5095199,
                    51.3080822
                ]
            },
            "properties": {
                "isced:level": "1;2",
                "ref:rspo": 275604,
                "official_name": "Stowarzyszenie \"Edukator\" w \u0141om\u017cy Szko\u0142a Podstawowa im. Marii Konopnickiej w Bukowie Wielkiej",
                "name": "Stowarzyszenie \"Edukator\" w \u0141om\u017cy Szko\u0142a Podstawowa",
                "addr:country": "PL",
                "addr:postcode": "22-107",
                "addr:place": "Bukowa Wielka",
                "addr:housenumber": "34",
                "addr:teryt:simc": 106626,
                "contact:phone": "+48 825672605",
                "contact:email": "spbukowa@op.pl",
                "contact:website": "http:\/\/www.spbukowa.pl",
                "ref:regon": "386927829",
                "operator": "Spo\u0142eczno - O\u015bwiatowe Stowarzyszenie Pomocy Pokrzywdzonym I Niepe\u0142nosprawnym \"Edukator\"",
                "operator:type": "ngo",
                "amenity": "school"
            }
        },
        {
            "id": 275562,
            "type": "Feature",
            "geometry": {
                "type": "Point",
                "coordinates": [
                    23.4278409,
                    51.3455139
                ]
            },
            "properties": {
                "isced:level": "1;2",
                "ref:rspo": 275562,
                "official_name": "Stowarzyszenie \"Edukator\" w \u0141om\u017cy Szko\u0142a Podstawowa w W\u00f3lce Petry\u0142owskiej",
                "name": "Stowarzyszenie \"Edukator\" w \u0141om\u017cy Szko\u0142a Podstawowa w W\u00f3lce Petry\u0142owskiej",
                "addr:country": "PL",
                "addr:postcode": "22-107",
                "addr:place": "Petry\u0142\u00f3w",
                "addr:housenumber": "15",
                "addr:teryt:simc": 107092,
                "contact:phone": "+48 825672508",
                "contact:email": "szkola.petrylow@wp.pl",
                "contact:website": "http:\/\/www.sppetrylow.sawin.pl",
                "ref:regon": "386925109",
                "operator": "Spo\u0142eczno - O\u015bwiatowe Stowarzyszenie Pomocy Pokrzywdzonym I Niepe\u0142nosprawnym \"Edukator\"",
                "operator:type": "ngo",
                "amenity": "school"
            }
        }
    ]
}