{
    "type": "FeatureCollection",
    "features": [
        {
            "id": 89146,
            "type": "Feature",
            "geometry": {
                "type": "Point",
                "coordinates": [
                    23.16001,
                    51.1973
                ]
            },
            "properties": {
                "ref:rspo": 89146,
                "official_name": "Zesp\u00f3\u0142 Szk\u00f3\u0142 im.henryka Sienkiewicza w Siedliszczu",
                "name": "Zesp\u00f3\u0142 Szk\u00f3\u0142 im.henryka Sienkiewicza w Siedliszczu",
                "addr:postcode": "22-130",
                "addr:city": "Siedliszcze",
                "addr:street": "Aleksandra Ba\u0142asza",
                "addr:housenumber": "1",
                "addr:city:simc": 107821,
                "addr:street:sym_ul": 36211,
                "phone": "+48 825692213",
                "email": "sekretariat@zssiedliszcze.edu.pl",
                "website": "http:\/\/zssiedliszcze.edu.pl",
                "ref:regon": "110674874",
                "operator": "Gmina Siedliszcze",
                "operator:type": "government",
                "landuse": "education",
                "fixme": "amenity=school, amenity=college albo landuse=education w zale\u017cno\u015bci od tego, jakie plac\u00f3wki wchodz\u0105 w sk\u0142ad zespo\u0142u. Sprawd\u017a, kiedy stosowa\u0107 amenity=* a kiedy landuse=education.",
                "note": "Children RSPO: 104858;105781"
            }
        },
        {
            "id": 104858,
            "type": "Feature",
            "geometry": {
                "type": "Point",
                "coordinates": [
                    23.16001,
                    51.197269999999996
                ]
            },
            "properties": {
                "isced:level": "1;2",
                "ref:rspo": 104858,
                "official_name": "Szko\u0142a Podstawowa im.h.sienkiewicza w Siedliszczu",
                "name": "Szko\u0142a Podstawowa im.h.sienkiewicza w Siedliszczu",
                "addr:postcode": "22-130",
                "addr:city": "Siedliszcze",
                "addr:street": "Aleksandra Ba\u0142asza",
                "addr:housenumber": "1",
                "addr:city:simc": 107821,
                "addr:street:sym_ul": 36211,
                "phone": "+48 825692213",
                "email": "siedliszczezs@o2.pl",
                "website": "http:\/\/zssiedliszcze.lublin.pl",
                "ref:regon": "000561684",
                "ref:vatin": "PL5631992410",
                "operator": "Gmina Siedliszcze",
                "operator:type": "government",
                "amenity": "school",
                "note": "Parent RSPO: 89146"
            }
        },
        {
            "id": 105781,
            "type": "Feature",
            "geometry": {
                "type": "Point",
                "coordinates": [
                    23.16001,
                    51.19724
                ]
            },
            "properties": {
                "ref:rspo": 105781,
                "official_name": "Przedszkole Samorz\u0105dowe w Siedliszczu",
                "name": "Przedszkole Samorz\u0105dowe w Siedliszczu",
                "addr:postcode": "22-130",
                "addr:city": "Siedliszcze",
                "addr:street": "Aleksandra Ba\u0142asza",
                "addr:housenumber": "1",
                "addr:city:simc": 107821,
                "addr:street:sym_ul": 36211,
                "phone": "+48 825692213",
                "email": "siedliszczezs@o2.pl",
                "website": "http:\/\/przedszkole.zssiedliszcze.lublin.pl",
                "ref:regon": "061507622",
                "operator": "Gmina Siedliszcze",
                "operator:type": "government",
                "amenity": "kindergarten",
                "note": "Parent RSPO: 89146"
            }
        },
        {
            "id": 19487,
            "type": "Feature",
            "geometry": {
                "type": "Point",
                "coordinates": [
                    23.16796,
                    51.19877
                ]
            },
            "properties": {
                "ref:rspo": 19487,
                "official_name": "Zesp\u00f3\u0142 Szk\u00f3\u0142 w Siedliszczu",
                "name": "Zesp\u00f3\u0142 Szk\u00f3\u0142 w Siedliszczu",
                "addr:postcode": "22-130",
                "addr:city": "Siedliszcze",
                "addr:street": "Szkolna",
                "addr:housenumber": "64",
                "addr:city:simc": 107821,
                "addr:street:sym_ul": 21970,
                "phone": "+48 825692270",
                "email": "sekretariat@losiedliszcze.pl",
                "website": "http:\/\/www.losiedliszcze.pl",
                "ref:regon": "110712824",
                "ref:vatin": "PL5632155768",
                "operator": "Powiat Che\u0142mski",
                "operator:type": "government",
                "landuse": "education",
                "fixme": "amenity=school, amenity=college albo landuse=education w zale\u017cno\u015bci od tego, jakie plac\u00f3wki wchodz\u0105 w sk\u0142ad zespo\u0142u. Sprawd\u017a, kiedy stosowa\u0107 amenity=* a kiedy landuse=education.",
                "note": "Children RSPO: 80383;85977;85982"
            }
        },
        {
            "id": 124333,
            "type": "Feature",
            "geometry": {
                "type": "Point",
                "coordinates": [
                    23.16796,
                    51.19874
                ]
            },
            "properties": {
                "isced:level": "3",
                "ref:rspo": 124333,
                "official_name": "Niepubliczne Liceum Og\u00f3lnokszta\u0142c\u0105ce Twp dla Doros\u0142ych w Siedliszczu",
                "name": "Niepubliczne Liceum Og\u00f3lnokszta\u0142c\u0105ce Twp dla Doros\u0142ych w Siedliszczu",
                "addr:postcode": "22-130",
                "addr:city": "Siedliszcze",
                "addr:street": "Szkolna",
                "addr:housenumber": "64",
                "addr:city:simc": 107821,
                "addr:street:sym_ul": 21970,
                "phone": "+48 825692270",
                "email": "zs_siedliszcze@poczta.fm",
                "ref:regon": "061719956",
                "operator": "Towarzystwo Wiedzy Powszechnej Oddzia\u0142 Regionalny W Lublinie",
                "operator:type": "ngo",
                "amenity": "school"
            }
        },
        {
            "id": 129748,
            "type": "Feature",
            "geometry": {
                "type": "Point",
                "coordinates": [
                    23.16796,
                    51.198710000000005
                ]
            },
            "properties": {
                "isced:level": "3",
                "ref:rspo": 129748,
                "official_name": "Rzemie\u015blnicza Szko\u0142a Zawodowa w Siedliszczu",
                "name": "Rzemie\u015blnicza Szko\u0142a Zawodowa w Siedliszczu",
                "addr:postcode": "22-130",
                "addr:city": "Siedliszcze",
                "addr:street": "Szkolna",
                "addr:housenumber": "64",
                "addr:city:simc": 107821,
                "addr:street:sym_ul": 21970,
                "phone": "+48 825692270",
                "email": "zs_siedliszcze@poczta.fm",
                "ref:regon": "362840863",
                "operator": "Towarzystwo Wiedzy Powszechnej Oddzia\u0142 Regionalny W Lublinie",
                "operator:type": "ngo",
                "amenity": "school"
            }
        },
        {
            "id": 80383,
            "type": "Feature",
            "geometry": {
                "type": "Point",
                "coordinates": [
                    23.16796,
                    51.19868
                ]
            },
            "properties": {
                "isced:level": "3",
                "ref:rspo": 80383,
                "official_name": "Zesp\u00f3\u0142 Szk\u00f3\u0142 w Siedliszczu Liceum Og\u00f3lnokszta\u0142c\u0105ce im. Romualda Traugutta w Siedliszczu",
                "name": "Zesp\u00f3\u0142 Szk\u00f3\u0142 w Siedliszczu Liceum Og\u00f3lnokszta\u0142c\u0105ce",
                "addr:postcode": "22-130",
                "addr:city": "Siedliszcze",
                "addr:street": "Szkolna",
                "addr:housenumber": "64",
                "addr:city:simc": 107821,
                "addr:street:sym_ul": 21970,
                "phone": "+48 825692270",
                "email": "sekretariat@losiedliszcze.pl",
                "website": "http:\/\/www.losiedliszcze.pl",
                "ref:regon": "000205038",
                "operator": "Powiat Che\u0142mski",
                "operator:type": "government",
                "amenity": "school",
                "note": "Parent RSPO: 19487"
            }
        },
        {
            "id": 85977,
            "type": "Feature",
            "geometry": {
                "type": "Point",
                "coordinates": [
                    23.16796,
                    51.19865
                ]
            },
            "properties": {
                "isced:level": "4",
                "ref:rspo": 85977,
                "official_name": "Zesp\u00f3\u0142 Szk\u00f3\u0142 w Siedliszczu Szko\u0142a Policealna w Siedliszczu",
                "name": "Zesp\u00f3\u0142 Szk\u00f3\u0142 w Siedliszczu Szko\u0142a Policealna w Siedliszczu",
                "addr:postcode": "22-130",
                "addr:city": "Siedliszcze",
                "addr:street": "Szkolna",
                "addr:housenumber": "64",
                "addr:city:simc": 107821,
                "addr:street:sym_ul": 21970,
                "phone": "+48 825692270",
                "email": "zs_siedliszcze@poczta.fm",
                "ref:regon": "110712830",
                "operator": "Powiat Che\u0142mski",
                "operator:type": "government",
                "amenity": "college",
                "note": "Parent RSPO: 19487"
            }
        },
        {
            "id": 85982,
            "type": "Feature",
            "geometry": {
                "type": "Point",
                "coordinates": [
                    23.16796,
                    51.198620000000005
                ]
            },
            "properties": {
                "isced:level": "3",
                "ref:rspo": 85982,
                "official_name": "Zesp\u00f3\u0142 Szk\u00f3\u0142 w Siedliszczu Technikum w Siedliszczu",
                "name": "Zesp\u00f3\u0142 Szk\u00f3\u0142 w Siedliszczu Technikum w Siedliszczu",
                "addr:postcode": "22-130",
                "addr:city": "Siedliszcze",
                "addr:street": "Szkolna",
                "addr:housenumber": "64",
                "addr:city:simc": 107821,
                "addr:street:sym_ul": 21970,
                "phone": "+48 825692270",
                "email": "zs_siedliszcze@poczta.fm",
                "ref:regon": "061487606",
                "operator": "Powiat Che\u0142mski",
                "operator:type": "government",
                "amenity": "school",
                "note": "Parent RSPO: 19487"
            }
        }
    ]
}