{
    "type": "FeatureCollection",
    "features": [
        {
            "id": 8086,
            "type": "Feature",
            "geometry": {
                "type": "Point",
                "coordinates": [
                    23.623496,
                    51.0840879
                ]
            },
            "properties": {
                "isced:level": "1;2",
                "ref:rspo": 8086,
                "official_name": "Szko\u0142a Podstawowa w Czerniejowie",
                "name": "Szko\u0142a Podstawowa w Czerniejowie",
                "addr:postcode": "22-113",
                "addr:place": "Czerniej\u00f3w",
                "addr:housenumber": "8",
                "addr:teryt:simc": 103929,
                "phone": "+48 825671572",
                "email": "czerniejow@interia.pl",
                "website": "http:\/\/www.spczerniejow.szkolnastrona.pl",
                "ref:regon": "061453369",
                "operator": "Stowarzyszenie Rozwoju Wsi Czerniej\u00f3w, Stowarzyszenie Na Rzecz Inicjatyw Lokalnych",
                "operator:type": "ngo",
                "amenity": "school"
            }
        },
        {
            "id": 31897,
            "type": "Feature",
            "geometry": {
                "type": "Point",
                "coordinates": [
                    23.623496,
                    51.0840579
                ]
            },
            "properties": {
                "ref:rspo": 31897,
                "official_name": "Punkt Przedszkolny w Szkole Podstawowej w Kamieniu Z Siedzib\u0105 w Czerniejowie",
                "name": "Punkt Przedszkolny w Szkole Podstawowej w Kamieniu Z Siedzib\u0105 w Czerniejowie",
                "addr:postcode": "22-113",
                "addr:place": "Czerniej\u00f3w",
                "addr:housenumber": "8",
                "addr:teryt:simc": 103929,
                "phone": "+48 825670112",
                "ref:regon": "061472272",
                "operator": "Gmina Kamie\u0144",
                "operator:type": "government",
                "amenity": "kindergarten"
            }
        },
        {
            "id": 30692,
            "type": "Feature",
            "geometry": {
                "type": "Point",
                "coordinates": [
                    23.553136,
                    51.0907989
                ]
            },
            "properties": {
                "isced:level": "1;2",
                "ref:rspo": 30692,
                "official_name": "Szko\u0142a Podstawowa im.konstytucji 3 Maja w Strachos\u0142awiu",
                "name": "Szko\u0142a Podstawowa im.konstytucji 3 Maja w Strachos\u0142awiu",
                "addr:postcode": "22-113",
                "addr:place": "Strachos\u0142aw",
                "addr:housenumber": "76B",
                "addr:teryt:simc": 104165,
                "phone": "+48 825645854",
                "email": "sekretariat@spstrachoslaw.szkolnastrona.pl",
                "website": "http:\/\/zsstrachoslawszkolnastrona.pl",
                "ref:regon": "001148650",
                "ref:vatin": "PL5632398867",
                "operator": "Gmina Kamie\u0144",
                "operator:type": "government",
                "amenity": "school"
            }
        },
        {
            "id": 126688,
            "type": "Feature",
            "geometry": {
                "type": "Point",
                "coordinates": [
                    23.553136,
                    51.0907689
                ]
            },
            "properties": {
                "ref:rspo": 126688,
                "official_name": "Punkt Przedszkolny w Strachos\u0142awiu",
                "name": "Punkt Przedszkolny w Strachos\u0142awiu",
                "addr:postcode": "22-113",
                "addr:place": "Strachos\u0142aw",
                "addr:housenumber": "76B",
                "addr:teryt:simc": 104165,
                "phone": "+48 825645854",
                "email": "sekretariat@spstrachoslaw.szkolnastrona.pl",
                "ref:regon": "360613531",
                "operator": "Gmina Kamie\u0144",
                "operator:type": "government",
                "amenity": "kindergarten"
            }
        },
        {
            "id": 11032,
            "type": "Feature",
            "geometry": {
                "type": "Point",
                "coordinates": [
                    23.5935849,
                    51.117154
                ]
            },
            "properties": {
                "isced:level": "1;2",
                "ref:rspo": 11032,
                "official_name": "Szko\u0142a Podstawowa im.t.ko\u015bciuszki w Kamieniu",
                "name": "Szko\u0142a Podstawowa im.t.ko\u015bciuszki w Kamieniu",
                "addr:postcode": "22-113",
                "addr:place": "Kamie\u0144-Kolonia",
                "addr:housenumber": "55",
                "addr:teryt:simc": 104030,
                "phone": "+48 825670112",
                "email": "spkamien@o2.pl",
                "website": "http:\/\/www.spkamien.edu.pl",
                "ref:regon": "000941257",
                "ref:vatin": "PL5632029590",
                "operator": "Gmina Kamie\u0144",
                "operator:type": "government",
                "amenity": "school"
            }
        },
        {
            "id": 126635,
            "type": "Feature",
            "geometry": {
                "type": "Point",
                "coordinates": [
                    23.5935849,
                    51.117124
                ]
            },
            "properties": {
                "ref:rspo": 126635,
                "official_name": "Punkt Przedszkolny w Kamieniu",
                "name": "Punkt Przedszkolny w Kamieniu",
                "addr:postcode": "22-113",
                "addr:place": "Kamie\u0144-Kolonia",
                "addr:housenumber": "55",
                "addr:teryt:simc": 104030,
                "phone": "+48 825670112",
                "email": "spkamien@o2.pl",
                "ref:regon": "360576758",
                "operator": "Gmina Kamie\u0144",
                "operator:type": "government",
                "amenity": "kindergarten"
            }
        },
        {
            "id": 19489,
            "type": "Feature",
            "geometry": {
                "type": "Point",
                "coordinates": [
                    23.656042,
                    51.1259279
                ]
            },
            "properties": {
                "ref:rspo": 19489,
                "official_name": "Poradnia Psychologiczno-Pedagogiczna w P\u0142awanicach",
                "name": "Poradnia Psychologiczno-Pedagogiczna w P\u0142awanicach",
                "addr:postcode": "22-113",
                "addr:place": "P\u0142awanice",
                "addr:housenumber": "75",
                "addr:teryt:simc": 104136,
                "phone": "+48 825668088",
                "email": "ppp-dubienka@tlen.pl",
                "ref:regon": "110081192",
                "ref:vatin": "PL5632442491",
                "operator": "Powiat Che\u0142mski",
                "operator:type": "government",
                "healthcare": "counselling",
                "counselling_type": "education",
                "fixme": "w zale\u017cno\u015bci od przedmiotu dzia\u0142alno\u015bci (np. healthcare=counselling + counselling_type=education albo healthcare=psychotherapist)"
            }
        }
    ]
}