{
    "type": "FeatureCollection",
    "features": [
        {
            "id": 83504,
            "type": "Feature",
            "geometry": {
                "type": "Point",
                "coordinates": [
                    20.71691,
                    52.73563
                ]
            },
            "properties": {
                "isced:level": "1;2",
                "ref:rspo": 83504,
                "official_name": "Szko\u0142a Podstawowa w G\u0105socinie",
                "name": "Szko\u0142a Podstawowa w G\u0105socinie",
                "addr:country": "PL",
                "addr:postcode": "06-440",
                "addr:city": "G\u0105socin",
                "addr:street": "B\u0142otna",
                "addr:housenumber": "12",
                "addr:teryt:simc": 126155,
                "addr:teryt:sym_ul": 1473,
                "contact:phone": "+48 236714342",
                "contact:email": "sp.gasocin@wp.pl",
                "contact:website": "https:\/\/spgasocin.edupage.org\/",
                "ref:regon": "001157206",
                "ref:vatin": "PL5661758009",
                "operator": "Gmina So\u0144sk",
                "operator:type": "government",
                "amenity": "school"
            }
        },
        {
            "id": 16040,
            "type": "Feature",
            "geometry": {
                "type": "Point",
                "coordinates": [
                    20.7119199,
                    52.7385432
                ]
            },
            "properties": {
                "isced:level": "3",
                "ref:rspo": 16040,
                "official_name": "Zaoczne Liceum Og\u00f3lnokszta\u0142c\u0105ce dla Doros\u0142ych w Ka\u0142\u0119czynie",
                "name": "Zaoczne Liceum Og\u00f3lnokszta\u0142c\u0105ce dla Doros\u0142ych w Ka\u0142\u0119czynie",
                "addr:country": "PL",
                "addr:postcode": "06-440",
                "addr:place": "Ka\u0142\u0119czyn",
                "addr:housenumber": "11",
                "addr:teryt:simc": 126209,
                "contact:phone": "+48 236765090",
                "contact:email": "zlokaleczyn@o2.pl",
                "ref:regon": "146308704",
                "operator": "Ka\u0142\u0119czy\u0144skie Stowarzyszenie O\u015bwiatowo-Spo\u0142eczne Im. Rodziny S\u0119dzimir\u00f3w",
                "operator:type": "private",
                "amenity": "school"
            }
        },
        {
            "id": 83501,
            "type": "Feature",
            "geometry": {
                "type": "Point",
                "coordinates": [
                    20.7119199,
                    52.7385132
                ]
            },
            "properties": {
                "isced:level": "1;2",
                "ref:rspo": 83501,
                "official_name": "Spo\u0142eczna Szko\u0142a Podstawowa w Ka\u0142\u0119czynie",
                "name": "Spo\u0142eczna Szko\u0142a Podstawowa w Ka\u0142\u0119czynie",
                "addr:country": "PL",
                "addr:postcode": "06-440",
                "addr:place": "Ka\u0142\u0119czyn",
                "addr:housenumber": "11",
                "addr:teryt:simc": 126209,
                "contact:phone": "+48 236765090",
                "contact:email": "szkola-kaleczyn@wp.pl",
                "ref:regon": "146415682",
                "ref:vatin": "PL5661835968",
                "operator": "Ka\u0142\u0119czy\u0144skie Stowarzyszenie O\u015bwiatowo-Spo\u0142eczne Im. Rodziny S\u0119dzimir\u00f3w",
                "operator:type": "private",
                "amenity": "school"
            }
        },
        {
            "id": 83505,
            "type": "Feature",
            "geometry": {
                "type": "Point",
                "coordinates": [
                    20.71593,
                    52.73994
                ]
            },
            "properties": {
                "ref:rspo": 83505,
                "official_name": "Gminne Przedszkole w G\u0105socinie",
                "name": "Gminne Przedszkole w G\u0105socinie",
                "addr:country": "PL",
                "addr:postcode": "06-440",
                "addr:city": "G\u0105socin",
                "addr:street": "Szkolna",
                "addr:housenumber": "1",
                "addr:teryt:simc": 126155,
                "addr:teryt:sym_ul": 21970,
                "contact:phone": "+48 236714090",
                "contact:email": "przedszkole.gasocin@wp.pl",
                "ref:regon": "130500680",
                "ref:vatin": "PL5661758044",
                "operator": "Gmina So\u0144sk",
                "operator:type": "government",
                "amenity": "kindergarten"
            }
        },
        {
            "id": 83502,
            "type": "Feature",
            "geometry": {
                "type": "Point",
                "coordinates": [
                    20.636246,
                    52.7452479
                ]
            },
            "properties": {
                "isced:level": "1;2",
                "ref:rspo": 83502,
                "official_name": "Szko\u0142a Podstawowa im.\" Bohater\u00f3w Bitwy Pod Sarnow\u0105 G\u00f3r\u0105 1920\"W B\u0105dkowie",
                "name": "Szko\u0142a Podstawowa im.\" Bohater\u00f3w Bitwy Pod Sarnow\u0105 G\u00f3r\u0105 1920\"W B\u0105dkowie",
                "addr:country": "PL",
                "addr:postcode": "06-440",
                "addr:place": "B\u0105dkowo",
                "addr:housenumber": "1",
                "addr:teryt:simc": 126014,
                "contact:phone": "+48 236714107",
                "contact:email": "spbadkowo@wp.pl",
                "contact:website": "http:\/\/www.spbadkowo.pl",
                "ref:regon": "001157198",
                "ref:vatin": "PL5661758021",
                "operator": "Gmina So\u0144sk",
                "operator:type": "government",
                "amenity": "school"
            }
        },
        {
            "id": 83506,
            "type": "Feature",
            "geometry": {
                "type": "Point",
                "coordinates": [
                    20.69615,
                    52.77911
                ]
            },
            "properties": {
                "ref:rspo": 83506,
                "official_name": "Gminne Przedszkole w So\u0144sku",
                "name": "Gminne Przedszkole w So\u0144sku",
                "addr:country": "PL",
                "addr:postcode": "06-430",
                "addr:city": "So\u0144sk",
                "addr:street": "Klonowa",
                "addr:housenumber": "2",
                "addr:teryt:simc": 126391,
                "addr:teryt:sym_ul": 8574,
                "contact:phone": "+48 236713015",
                "contact:email": "przed.gol@wp.pl",
                "contact:website": "http:\/\/www.przedszkole.sonsk.pl",
                "ref:regon": "130500673",
                "ref:vatin": "PL5661757955",
                "operator": "Gmina So\u0144sk",
                "operator:type": "government",
                "amenity": "kindergarten"
            }
        },
        {
            "id": 89315,
            "type": "Feature",
            "geometry": {
                "type": "Point",
                "coordinates": [
                    20.69316,
                    52.78436
                ]
            },
            "properties": {
                "isced:level": "1;2",
                "ref:rspo": 89315,
                "official_name": "Szko\u0142a Podstawowa w So\u0144sku",
                "name": "Szko\u0142a Podstawowa w So\u0144sku",
                "addr:country": "PL",
                "addr:postcode": "06-430",
                "addr:city": "So\u0144sk",
                "addr:street": "Szkolna",
                "addr:housenumber": "4",
                "addr:teryt:simc": 126391,
                "addr:teryt:sym_ul": 21970,
                "contact:phone": "+48 236713012",
                "contact:email": "sp.sonsk@wp.pl",
                "contact:website": "http:\/\/www.sonsk.edu.pl",
                "ref:regon": "000662965",
                "ref:vatin": "PL5661757961",
                "operator": "Gmina So\u0144sk",
                "operator:type": "government",
                "amenity": "school"
            }
        },
        {
            "id": 40116,
            "type": "Feature",
            "geometry": {
                "type": "Point",
                "coordinates": [
                    20.692510604858,
                    52.786979675293
                ]
            },
            "properties": {
                "ref:rspo": 40116,
                "official_name": "Zesp\u00f3\u0142 Plac\u00f3wek w Go\u0142otczy\u017anie",
                "name": "Zesp\u00f3\u0142 Plac\u00f3wek w Go\u0142otczy\u017anie",
                "addr:country": "PL",
                "addr:postcode": "06-430",
                "addr:city": "Go\u0142otczyzna",
                "addr:street": "Aleksandry B\u0105kowskiej",
                "addr:housenumber": "29",
                "addr:teryt:simc": 126161,
                "addr:teryt:sym_ul": 944,
                "contact:phone": "+48 236713076",
                "contact:email": "sekretariat@zpgolotczyzna.pl",
                "contact:website": "http:\/\/www.zpgolotczyzna.pl",
                "ref:regon": "141871346",
                "ref:vatin": "PL5661977208",
                "operator": "Wojew\u00f3dztwo Mazowieckie",
                "operator:type": "government",
                "landuse": "education",
                "fixme": "amenity=school, amenity=college albo landuse=education w zale\u017cno\u015bci od tego, jakie plac\u00f3wki wchodz\u0105 w sk\u0142ad zespo\u0142u. Sprawd\u017a, kiedy stosowa\u0107 amenity=* a kiedy landuse=education.",
                "note": "Children RSPO: 118712;119139"
            }
        },
        {
            "id": 118712,
            "type": "Feature",
            "geometry": {
                "type": "Point",
                "coordinates": [
                    20.692510604858,
                    52.786949675292995
                ]
            },
            "properties": {
                "ref:rspo": 118712,
                "official_name": "M\u0142odziezowy O\u015brodek Socjoterapii w Zespole Plac\u00f3wek w Go\u0142otczy\u017anie",
                "name": "M\u0142odziezowy O\u015brodek Socjoterapii w Zespole Plac\u00f3wek w Go\u0142otczy\u017anie",
                "addr:country": "PL",
                "addr:postcode": "06-430",
                "addr:city": "Go\u0142otczyzna",
                "addr:street": "Aleksandry B\u0105kowskiej",
                "addr:housenumber": "29",
                "addr:teryt:simc": 126161,
                "addr:teryt:sym_ul": 944,
                "contact:phone": "+48 236713076",
                "contact:email": "soswgolotczyzna@edukacja.mazovia.pl",
                "contact:website": "http:\/\/www.zpgolotczyzna.pl",
                "ref:regon": "141871375",
                "ref:vatin": "PL5661977208",
                "operator": "Wojew\u00f3dztwo Mazowieckie",
                "operator:type": "government",
                "fixme": "amenity=social_facility + social_facility=group_home + social_facility:for=juvenile",
                "note": "Children RSPO: 119150;263530Parent RSPO: 40116"
            }
        },
        {
            "id": 119139,
            "type": "Feature",
            "geometry": {
                "type": "Point",
                "coordinates": [
                    20.692510604858,
                    52.786919675293
                ]
            },
            "properties": {
                "ref:rspo": 119139,
                "official_name": "M\u0142odzie\u017cowy O\u015brodek Wychowawczy w Zespole Plac\u00f3wek w Go\u0142otczy\u017anie",
                "name": "M\u0142odzie\u017cowy O\u015brodek Wychowawczy w Zespole Plac\u00f3wek w Go\u0142otczy\u017anie",
                "addr:country": "PL",
                "addr:postcode": "06-430",
                "addr:city": "Go\u0142otczyzna",
                "addr:street": "Aleksandry B\u0105kowskiej",
                "addr:housenumber": "29",
                "addr:teryt:simc": 126161,
                "addr:teryt:sym_ul": 944,
                "contact:phone": "+48 236713076",
                "contact:email": "sekretariat@zpgolotczyzna.pl",
                "contact:website": "http:\/\/www.zpgolotczyzna.pl",
                "ref:regon": "146837265",
                "operator": "Wojew\u00f3dztwo Mazowieckie",
                "operator:type": "government",
                "fixme": "amenity=social_facility + social_facility=group_home + social_facility:for=juvenile",
                "note": "Children RSPO: 263535Parent RSPO: 40116"
            }
        },
        {
            "id": 119150,
            "type": "Feature",
            "geometry": {
                "type": "Point",
                "coordinates": [
                    20.692510604858,
                    52.786889675293
                ]
            },
            "properties": {
                "isced:level": "3",
                "ref:rspo": 119150,
                "official_name": "Bran\u017cowa Szko\u0142a I Stopnia",
                "name": "Bran\u017cowa Szko\u0142a I Stopnia",
                "addr:country": "PL",
                "addr:postcode": "06-430",
                "addr:city": "Go\u0142otczyzna",
                "addr:street": "Aleksandry B\u0105kowskiej",
                "addr:housenumber": "29",
                "addr:teryt:simc": 126161,
                "addr:teryt:sym_ul": 944,
                "contact:phone": "+48 236713076",
                "contact:email": "sekretariat@zpgolotczyzna.pl",
                "contact:website": "http:\/\/www.zpgolotczyzna.pl",
                "ref:regon": "146843490",
                "operator": "Wojew\u00f3dztwo Mazowieckie",
                "operator:type": "government",
                "amenity": "school",
                "note": "Parent RSPO: 118712"
            }
        },
        {
            "id": 263530,
            "type": "Feature",
            "geometry": {
                "type": "Point",
                "coordinates": [
                    20.692510604858,
                    52.786859675292995
                ]
            },
            "properties": {
                "isced:level": "1;2",
                "ref:rspo": 263530,
                "official_name": "Szko\u0142a Podstawowa Specjalna w M\u0142odzie\u017cowym O\u015brodku Socjoterapii",
                "name": "Szko\u0142a Podstawowa Specjalna w M\u0142odzie\u017cowym O\u015brodku Socjoterapii",
                "addr:country": "PL",
                "addr:postcode": "06-430",
                "addr:city": "Go\u0142otczyzna",
                "addr:street": "Aleksandry B\u0105kowskiej",
                "addr:housenumber": "29",
                "addr:teryt:simc": 126161,
                "addr:teryt:sym_ul": 944,
                "contact:phone": "+48 236713076",
                "contact:email": "sekretariat@zpgolotczyzna.pl",
                "contact:website": "http:\/\/www.zpgolotczyzna.pl",
                "ref:regon": "368198758",
                "operator": "Wojew\u00f3dztwo Mazowieckie",
                "operator:type": "government",
                "amenity": "school",
                "note": "Parent RSPO: 118712"
            }
        },
        {
            "id": 263535,
            "type": "Feature",
            "geometry": {
                "type": "Point",
                "coordinates": [
                    20.692510604858,
                    52.786829675293
                ]
            },
            "properties": {
                "isced:level": "1;2",
                "ref:rspo": 263535,
                "official_name": "Szko\u0142a Podstawowa Specjalna w M\u0142odzie\u017cowym O\u015brodku Wychowawczym w Go\u0142otczy\u017anie",
                "name": "Szko\u0142a Podstawowa Specjalna w M\u0142odzie\u017cowym O\u015brodku Wychowawczym w Go\u0142otczy\u017anie",
                "addr:country": "PL",
                "addr:postcode": "06-430",
                "addr:city": "Go\u0142otczyzna",
                "addr:street": "Aleksandry B\u0105kowskiej",
                "addr:housenumber": "29",
                "addr:teryt:simc": 126161,
                "addr:teryt:sym_ul": 944,
                "contact:phone": "+48 236713076",
                "contact:email": "sekretariat@zpgolotczyzna.pl",
                "contact:website": "http:\/\/www.zpgolotczyzna.pl",
                "ref:regon": "368199841",
                "operator": "Wojew\u00f3dztwo Mazowieckie",
                "operator:type": "government",
                "amenity": "school",
                "note": "Parent RSPO: 119139"
            }
        },
        {
            "id": 34343,
            "type": "Feature",
            "geometry": {
                "type": "Point",
                "coordinates": [
                    20.68841,
                    52.79237
                ]
            },
            "properties": {
                "ref:rspo": 34343,
                "official_name": "Zesp\u00f3\u0142 Szk\u00f3\u0142 Centrum Kszta\u0142cenia Rolniczego im. Aleksandra \u015awi\u0119tochowskiego w Go\u0142otczy\u017anie",
                "name": "Zesp\u00f3\u0142 Szk\u00f3\u0142 Centrum Kszta\u0142cenia Rolniczego",
                "addr:country": "PL",
                "addr:postcode": "06-430",
                "addr:city": "Go\u0142otczyzna",
                "addr:street": "Ciechanowska",
                "addr:housenumber": "18b",
                "addr:teryt:simc": 126161,
                "addr:teryt:sym_ul": 2994,
                "contact:phone": "+48 236713031",
                "contact:email": "bratne@ci.home.pl",
                "contact:website": "http:\/\/www.bratne.pl",
                "ref:regon": "000861877",
                "ref:vatin": "PL5661362719",
                "operator": "Ministerstwo Rolnictwa I Rozwoju Wsi",
                "operator:type": "public",
                "landuse": "education",
                "fixme": "amenity=school, amenity=college albo landuse=education w zale\u017cno\u015bci od tego, jakie plac\u00f3wki wchodz\u0105 w sk\u0142ad zespo\u0142u. Sprawd\u017a, kiedy stosowa\u0107 amenity=* a kiedy landuse=education.",
                "note": "Children RSPO: 87722;87723;87725;87727;276188"
            }
        },
        {
            "id": 87722,
            "type": "Feature",
            "geometry": {
                "type": "Point",
                "coordinates": [
                    20.68841,
                    52.792339999999996
                ]
            },
            "properties": {
                "isced:level": "3",
                "ref:rspo": 87722,
                "official_name": "Technikum w Go\u0142otczy\u017anie",
                "name": "Technikum w Go\u0142otczy\u017anie",
                "addr:country": "PL",
                "addr:postcode": "06-430",
                "addr:city": "Go\u0142otczyzna",
                "addr:street": "Ciechanowska",
                "addr:housenumber": "18b",
                "addr:teryt:simc": 126161,
                "addr:teryt:sym_ul": 2994,
                "contact:phone": "+48 236713031",
                "contact:email": "bratne@ci.home.pl",
                "contact:website": "http:\/\/www.bratne.pl",
                "ref:regon": "141375848",
                "operator": "Ministerstwo Rolnictwa I Rozwoju Wsi",
                "operator:type": "public",
                "amenity": "school",
                "note": "Parent RSPO: 34343"
            }
        },
        {
            "id": 87723,
            "type": "Feature",
            "geometry": {
                "type": "Point",
                "coordinates": [
                    20.68841,
                    52.79231
                ]
            },
            "properties": {
                "isced:level": "3",
                "ref:rspo": 87723,
                "official_name": "Branzowa Szko\u0142a I Stopnia w Go\u0142otczy\u017anie",
                "name": "Branzowa Szko\u0142a I Stopnia w Go\u0142otczy\u017anie",
                "addr:country": "PL",
                "addr:postcode": "06-430",
                "addr:city": "Go\u0142otczyzna",
                "addr:street": "Ciechanowska",
                "addr:housenumber": "18b",
                "addr:teryt:simc": 126161,
                "addr:teryt:sym_ul": 2994,
                "contact:phone": "+48 236713035",
                "contact:email": "bratne@ci.home.pl",
                "contact:website": "http:\/\/www.bratne.pl",
                "ref:regon": "130916110",
                "operator": "Ministerstwo Rolnictwa I Rozwoju Wsi",
                "operator:type": "public",
                "amenity": "school",
                "note": "Parent RSPO: 34343"
            }
        },
        {
            "id": 87725,
            "type": "Feature",
            "geometry": {
                "type": "Point",
                "coordinates": [
                    20.68841,
                    52.79228
                ]
            },
            "properties": {
                "isced:level": "4",
                "ref:rspo": 87725,
                "official_name": "Szko\u0142a Policealna w Go\u0142otczy\u017anie",
                "name": "Szko\u0142a Policealna w Go\u0142otczy\u017anie",
                "addr:country": "PL",
                "addr:postcode": "06-430",
                "addr:city": "Go\u0142otczyzna",
                "addr:street": "Ciechanowska",
                "addr:housenumber": "18b",
                "addr:teryt:simc": 126161,
                "addr:teryt:sym_ul": 2994,
                "contact:phone": "+48 236713031",
                "contact:email": "bratne@ci.home.pl",
                "contact:website": "http:\/\/www.bratne.pl",
                "ref:regon": "140253617",
                "operator": "Ministerstwo Rolnictwa I Rozwoju Wsi",
                "operator:type": "public",
                "amenity": "college",
                "note": "Parent RSPO: 34343"
            }
        },
        {
            "id": 87727,
            "type": "Feature",
            "geometry": {
                "type": "Point",
                "coordinates": [
                    20.68841,
                    52.792249999999996
                ]
            },
            "properties": {
                "ref:rspo": 87727,
                "official_name": "Rolnicze Centrum Kszta\u0142cenia Ustawicznego w Go\u0142otczy\u017anie",
                "name": "Rolnicze Centrum Kszta\u0142cenia Ustawicznego w Go\u0142otczy\u017anie",
                "addr:country": "PL",
                "addr:postcode": "06-430",
                "addr:city": "Go\u0142otczyzna",
                "addr:street": "Ciechanowska",
                "addr:housenumber": "18b",
                "addr:teryt:simc": 126161,
                "addr:teryt:sym_ul": 2994,
                "contact:phone": "+48 236713031",
                "contact:email": "bratne@ci.home.pl",
                "contact:website": "http:\/\/www.bratne.pl",
                "ref:regon": "146392550",
                "operator": "Ministerstwo Rolnictwa I Rozwoju Wsi",
                "operator:type": "public",
                "fixme": "w zale\u017cno\u015bci od przedmiotu dzia\u0142alno\u015bci (np. amenity=training + training=*, amenity=dancing_school, amenity=language_school, amenity=music_school)",
                "note": "Parent RSPO: 34343"
            }
        },
        {
            "id": 276188,
            "type": "Feature",
            "geometry": {
                "type": "Point",
                "coordinates": [
                    20.68841,
                    52.79222
                ]
            },
            "properties": {
                "isced:level": "3",
                "ref:rspo": 276188,
                "official_name": "Bran\u017cowa Szko\u0142a II Stopnia w Go\u0142otczy\u017anie",
                "name": "Bran\u017cowa Szko\u0142a II Stopnia w Go\u0142otczy\u017anie",
                "addr:country": "PL",
                "addr:postcode": "06-430",
                "addr:city": "Go\u0142otczyzna",
                "addr:street": "Ciechanowska",
                "addr:housenumber": "18b",
                "addr:teryt:simc": 126161,
                "addr:teryt:sym_ul": 2994,
                "contact:phone": "+48 236713031",
                "contact:email": "bratne@ci.home.pl",
                "contact:website": "http:\/\/www.bratne.pl",
                "ref:regon": "387026910",
                "operator": "Ministerstwo Rolnictwa I Rozwoju Wsi",
                "operator:type": "public",
                "amenity": "school",
                "note": "Parent RSPO: 34343"
            }
        }
    ]
}