{
    "type": "FeatureCollection",
    "features": [
        {
            "id": 86846,
            "type": "Feature",
            "geometry": {
                "type": "Point",
                "coordinates": [
                    20.54557,
                    52.76761
                ]
            },
            "properties": {
                "isced:level": "1;2",
                "ref:rspo": 86846,
                "official_name": "Szko\u0142a Podstawowa w Ojrzeniu",
                "name": "Szko\u0142a Podstawowa w Ojrzeniu",
                "addr:postcode": "06-456",
                "addr:city": "Ojrze\u0144",
                "addr:street": "Przedszkolna",
                "addr:housenumber": "7",
                "addr:teryt:simc": 121258,
                "addr:teryt:sym_ul": 17683,
                "phone": "+48 236718367",
                "email": "sp1ojrzen@wp.pl",
                "website": "http:\/\/www.sp1ojrzen.edupage.org",
                "ref:regon": "130181334",
                "operator": "Gmina Ojrze\u0144",
                "operator:type": "government",
                "amenity": "school"
            }
        },
        {
            "id": 3886,
            "type": "Feature",
            "geometry": {
                "type": "Point",
                "coordinates": [
                    20.471367,
                    52.7895789
                ]
            },
            "properties": {
                "isced:level": "1;2",
                "ref:rspo": 3886,
                "official_name": "Szko\u0142a Podstawowa im. Marii Konopnickiej w M\u0142ocku",
                "name": "Szko\u0142a Podstawowa",
                "addr:postcode": "06-456",
                "addr:place": "M\u0142ock",
                "addr:housenumber": "72",
                "addr:teryt:simc": 121212,
                "phone": "+48 236712601",
                "email": "zsmlock@o2.pl",
                "website": "http:\/\/www.spmlock.pl\/",
                "ref:regon": "001157991",
                "ref:vatin": "PL5661755608",
                "operator": "Gmina Ojrze\u0144",
                "operator:type": "government",
                "amenity": "school"
            }
        },
        {
            "id": 3888,
            "type": "Feature",
            "geometry": {
                "type": "Point",
                "coordinates": [
                    20.5723099,
                    52.7919414
                ]
            },
            "properties": {
                "isced:level": "1;2",
                "ref:rspo": 3888,
                "official_name": "Szko\u0142a Podstawowa im. Wac\u0142awa Kozi\u0144skiego w Kraszewie",
                "name": "Szko\u0142a Podstawowa",
                "addr:postcode": "06-456",
                "addr:place": "Kraszewo",
                "addr:housenumber": "57A",
                "addr:teryt:simc": 121152,
                "phone": "+48 236718319",
                "email": "spkraszewo@onet.pl",
                "website": "https:\/\/sites.google.com\/view\/szkolakraszewo",
                "ref:regon": "000784444",
                "ref:vatin": "PL5662018823",
                "operator": "Gmina Ojrze\u0144",
                "operator:type": "government",
                "amenity": "school"
            }
        }
    ]
}