{
    "type": "FeatureCollection",
    "features": [
        {
            "id": 16131,
            "type": "Feature",
            "geometry": {
                "type": "Point",
                "coordinates": [
                    20.6306,
                    52.863
                ]
            },
            "properties": {
                "ref:rspo": 16131,
                "official_name": "Ognisko Pracy Pozaszkolnej Centrum Edukacyjne Idea",
                "name": "Ognisko Pracy Pozaszkolnej Centrum Edukacyjne Idea",
                "addr:postcode": "06-400",
                "addr:city": "Ciechan\u00f3w",
                "addr:street": "P\u0142o\u0144ska",
                "addr:housenumber": "143",
                "addr:city:simc": 930414,
                "addr:street:sym_ul": 16521,
                "phone": "+48 236725487",
                "email": "ciechanow@cnja.com.pl",
                "ref:regon": "146305172",
                "operator": "Witold Szaszkiewicz",
                "operator:type": "private",
                "fixme": "w zale\u017cno\u015bci od przedmiotu dzia\u0142alno\u015bci (np. amenity=training + training=*, amenity=dancing_school, amenity=language_school, amenity=music_school)"
            }
        },
        {
            "id": 29139,
            "type": "Feature",
            "geometry": {
                "type": "Point",
                "coordinates": [
                    20.6306,
                    52.86297
                ]
            },
            "properties": {
                "isced:level": "1;2",
                "ref:rspo": 29139,
                "official_name": "Szko\u0142a Podstawowa nr 4 Im 21. Warszawskiego Pu\u0142ku Piechoty \"Dzieci Warszawy\" w Ciechanowie",
                "name": "Szko\u0142a Podstawowa nr 4 Im 21. Warszawskiego Pu\u0142ku Piechoty \"Dzieci Warszawy\" w Ciechanowie",
                "addr:postcode": "06-400",
                "addr:city": "Ciechan\u00f3w",
                "addr:street": "P\u0142o\u0144ska",
                "addr:housenumber": "143",
                "addr:city:simc": 930414,
                "addr:street:sym_ul": 16521,
                "phone": "+48 236725487",
                "email": "sp4ciechanow@gazeta.pl",
                "website": "http:\/\/www.sp4.ciechanow.pl",
                "ref:regon": "000692765",
                "ref:vatin": "PL5661504119",
                "operator": "Gmina Miejska Ciechan\u00f3w",
                "operator:type": "government",
                "amenity": "school"
            }
        },
        {
            "id": 120247,
            "type": "Feature",
            "geometry": {
                "type": "Point",
                "coordinates": [
                    20.5877899,
                    52.86549
                ]
            },
            "properties": {
                "isced:level": "3",
                "ref:rspo": 120247,
                "official_name": "Szko\u0142a Techniczna Zespo\u0142u Szk\u00f3\u0142 Bzdz w Ciechanowie",
                "name": "Szko\u0142a Techniczna Zespo\u0142u Szk\u00f3\u0142 Bzdz w Ciechanowie",
                "addr:postcode": "06-400",
                "addr:city": "Ciechan\u00f3w",
                "addr:street": "P\u0142ocka",
                "addr:housenumber": "100",
                "addr:city:simc": 930414,
                "addr:street:sym_ul": 16511,
                "phone": "+48 515128396",
                "email": "ciechanow@bzdz.pl",
                "website": "http:\/\/www.bzdz.pl",
                "ref:regon": "146888021",
                "operator": "Bydgoski Zak\u0142ad Doskonalenia Zawodowego Stowarzyszenie O\u015bwiatowo-Techniczne",
                "operator:type": "ngo",
                "amenity": "school"
            }
        },
        {
            "id": 276235,
            "type": "Feature",
            "geometry": {
                "type": "Point",
                "coordinates": [
                    20.5877899,
                    52.86546
                ]
            },
            "properties": {
                "isced:level": "3",
                "ref:rspo": 276235,
                "official_name": "V Liceum Og\u00f3lnokszta\u0142c\u0105ce Bydgoskiego Zak\u0142adu Doskonalenia Zawodowego w Ciechanowie",
                "name": "V Liceum Og\u00f3lnokszta\u0142c\u0105ce Bydgoskiego Zak\u0142adu Doskonalenia Zawodowego w Ciechanowie",
                "addr:postcode": "06-400",
                "addr:city": "Ciechan\u00f3w",
                "addr:street": "P\u0142ocka",
                "addr:housenumber": "100",
                "addr:city:simc": 930414,
                "addr:street:sym_ul": 16511,
                "ref:regon": "387069109",
                "operator": "Bydgoski Zak\u0142ad Doskonalenia Zawodowego Stowarzyszenie O\u015bwiatowo-Techniczne",
                "operator:type": "ngo",
                "amenity": "school"
            }
        },
        {
            "id": 278891,
            "type": "Feature",
            "geometry": {
                "type": "Point",
                "coordinates": [
                    20.5877899,
                    52.86543
                ]
            },
            "properties": {
                "isced:level": "1;2",
                "ref:rspo": 278891,
                "official_name": "Niepubliczna Szko\u0142a Podstawowa Informatyczno J\u0119zykowa Bydgoskiego Zak\u0142adu Doskonalenia Zawodowego w Ciechanowie",
                "name": "Niepubliczna Szko\u0142a Podstawowa Informatyczno J\u0119zykowa Bydgoskiego Zak\u0142adu Doskonalenia Zawodowego w Ciechanowie",
                "addr:postcode": "06-400",
                "addr:city": "Ciechan\u00f3w",
                "addr:street": "P\u0142ocka",
                "addr:housenumber": "100",
                "addr:city:simc": 930414,
                "addr:street:sym_ul": 16511,
                "ref:regon": "520150613",
                "operator": "Bydgoski Zak\u0142ad Doskonalenia Zawodowego Stowarzyszenie O\u015bwiatowo-Techniczne",
                "operator:type": "ngo",
                "amenity": "school"
            }
        },
        {
            "id": 25738,
            "type": "Feature",
            "geometry": {
                "type": "Point",
                "coordinates": [
                    20.63042,
                    52.86721
                ]
            },
            "properties": {
                "ref:rspo": 25738,
                "official_name": "Niepubliczne Przedszkole \"Dom Przedszkolaka Montessori\"",
                "name": "Niepubliczne Przedszkole \"Dom Przedszkolaka Montessori\"",
                "addr:postcode": "06-400",
                "addr:city": "Ciechan\u00f3w",
                "addr:street": "Karola Szwanke",
                "addr:housenumber": "29",
                "addr:city:simc": 930414,
                "addr:street:sym_ul": 22173,
                "phone": "+48 236744040",
                "email": "biuro@domprzedszkolaka.pl",
                "website": "http:\/\/www.domprzedszkolaka.pl",
                "ref:regon": "146342782",
                "ref:vatin": "PL2910125343",
                "operator": "Katarzyna D\u0142ugozima",
                "operator:type": "private",
                "amenity": "kindergarten"
            }
        },
        {
            "id": 10276,
            "type": "Feature",
            "geometry": {
                "type": "Point",
                "coordinates": [
                    20.6008078,
                    52.8696698
                ]
            },
            "properties": {
                "isced:level": "3",
                "ref:rspo": 10276,
                "official_name": "Liceum Og\u00f3lnokszta\u0142c\u0105ce Centrum Szkoleniowego Wiedza",
                "name": "Liceum Og\u00f3lnokszta\u0142c\u0105ce Centrum Szkoleniowego Wiedza",
                "addr:postcode": "06-400",
                "addr:city": "Ciechan\u00f3w",
                "addr:street": "Kazimierza \u017b\u00f3rawskiego",
                "addr:housenumber": "5",
                "addr:city:simc": 930414,
                "addr:street:sym_ul": 29202,
                "phone": "+48 236732781",
                "email": "ciechanow@cswiedza.pl",
                "website": "http:\/\/www.cswiedza.pl",
                "ref:regon": "146302481",
                "operator": "Wanda Musia\u0142",
                "operator:type": "private",
                "amenity": "school"
            }
        },
        {
            "id": 17326,
            "type": "Feature",
            "geometry": {
                "type": "Point",
                "coordinates": [
                    20.6008078,
                    52.869639799999995
                ]
            },
            "properties": {
                "isced:level": "4",
                "ref:rspo": 17326,
                "official_name": "Szko\u0142a Policealna Centrum Szkoleniowego Wiedza",
                "name": "Szko\u0142a Policealna Centrum Szkoleniowego Wiedza",
                "addr:postcode": "06-400",
                "addr:city": "Ciechan\u00f3w",
                "addr:street": "Kazimierza \u017b\u00f3rawskiego",
                "addr:housenumber": "5",
                "addr:city:simc": 930414,
                "addr:street:sym_ul": 29202,
                "phone": "+48 236732781",
                "email": "ciechanow@cswiedza.pl",
                "website": "http:\/\/www.ciechanow.szkoly.cswiedza.pl",
                "ref:regon": "146314107",
                "operator": "Wanda Musia\u0142",
                "operator:type": "private",
                "amenity": "college"
            }
        },
        {
            "id": 271097,
            "type": "Feature",
            "geometry": {
                "type": "Point",
                "coordinates": [
                    20.6008078,
                    52.8696098
                ]
            },
            "properties": {
                "isced:level": "3",
                "ref:rspo": 271097,
                "official_name": "I Liceum Og\u00f3lnokszta\u0142c\u0105ce Cn-B im. Polskich Spadochroniarzy w Ciechanowie",
                "name": "I Liceum Og\u00f3lnokszta\u0142c\u0105ce Cn-B",
                "addr:postcode": "06-400",
                "addr:city": "Ciechan\u00f3w",
                "addr:street": "Kazimierza \u017b\u00f3rawskiego",
                "addr:housenumber": "5",
                "addr:city:simc": 930414,
                "addr:street:sym_ul": 29202,
                "phone": "+48 500185426",
                "email": "ciechanow@cnb-feniks.edu.pl",
                "website": "http:\/\/www.szkolyfeniks.pl",
                "ref:regon": "383085034",
                "operator": "Jaros\u0142aw Chrobot",
                "operator:type": "private",
                "amenity": "school"
            }
        },
        {
            "id": 271098,
            "type": "Feature",
            "geometry": {
                "type": "Point",
                "coordinates": [
                    20.6008078,
                    52.8695798
                ]
            },
            "properties": {
                "isced:level": "3",
                "ref:rspo": 271098,
                "official_name": "Liceum Og\u00f3lnokszta\u0142c\u0105ce Cn-B w Ciechanowie",
                "name": "Liceum Og\u00f3lnokszta\u0142c\u0105ce Cn-B w Ciechanowie",
                "addr:postcode": "06-400",
                "addr:city": "Ciechan\u00f3w",
                "addr:street": "Kazimierza \u017b\u00f3rawskiego",
                "addr:housenumber": "5",
                "addr:city:simc": 930414,
                "addr:street:sym_ul": 29202,
                "phone": "+48 500185426",
                "email": "ciechanow@cnb-feniks.edu.pl",
                "website": "http:\/\/www.szkolyfeniks.pl",
                "ref:regon": "383085063",
                "operator": "Jaros\u0142aw Chrobot",
                "operator:type": "private",
                "amenity": "school"
            }
        },
        {
            "id": 275276,
            "type": "Feature",
            "geometry": {
                "type": "Point",
                "coordinates": [
                    20.6008078,
                    52.869549799999994
                ]
            },
            "properties": {
                "isced:level": "3",
                "ref:rspo": 275276,
                "official_name": "Bran\u017cowa Szko\u0142a II Stopnia Centrum Szkoleniowego Wiedza",
                "name": "Bran\u017cowa Szko\u0142a II Stopnia Centrum Szkoleniowego Wiedza",
                "addr:postcode": "06-400",
                "addr:city": "Ciechan\u00f3w",
                "addr:street": "Kazimierza \u017b\u00f3rawskiego",
                "addr:housenumber": "5",
                "addr:city:simc": 930414,
                "addr:street:sym_ul": 29202,
                "phone": "+48 236722781",
                "email": "ciechanow@cswiedza.pl",
                "website": "http:\/\/www.cswiedza.pl",
                "ref:regon": "386796043",
                "operator": "Wanda Musia\u0142",
                "operator:type": "private",
                "amenity": "school"
            }
        },
        {
            "id": 14761,
            "type": "Feature",
            "geometry": {
                "type": "Point",
                "coordinates": [
                    20.62746,
                    52.86984
                ]
            },
            "properties": {
                "ref:rspo": 14761,
                "official_name": "Zak\u0142ad Doskonalenia Zawodowego w Warszawie Centrum Kszta\u0142cenia w Ciechanowie",
                "name": "Zak\u0142ad Doskonalenia Zawodowego w Warszawie Centrum Kszta\u0142cenia w Ciechanowie",
                "addr:postcode": "06-400",
                "addr:city": "Ciechan\u00f3w",
                "addr:street": "P\u0142o\u0144ska",
                "addr:housenumber": "57a",
                "addr:city:simc": 930414,
                "addr:street:sym_ul": 16521,
                "phone": "+48 236724664",
                "email": "szkola@zdzciechanow.com.pl",
                "website": "http:\/\/www.zdz.edu.pl",
                "ref:regon": "146312539",
                "operator": "Zak\u0142ad Doskonalenia Zawodowego W Warszawie",
                "operator:type": "ngo",
                "fixme": "w zale\u017cno\u015bci od przedmiotu dzia\u0142alno\u015bci (np. amenity=training + training=*, amenity=dancing_school, amenity=language_school, amenity=music_school)"
            }
        },
        {
            "id": 24397,
            "type": "Feature",
            "geometry": {
                "type": "Point",
                "coordinates": [
                    20.62746,
                    52.86981
                ]
            },
            "properties": {
                "isced:level": "3",
                "ref:rspo": 24397,
                "official_name": "Liceum Og\u00f3lnokszta\u0142c\u0105ce Zak\u0142adu Doskonalenia Zawodowego w Warszawie Centrum Kszta\u0142cenia w Ciechanowie",
                "name": "Liceum Og\u00f3lnokszta\u0142c\u0105ce Zak\u0142adu Doskonalenia Zawodowego w Warszawie Centrum Kszta\u0142cenia w Ciechanowie",
                "addr:postcode": "06-400",
                "addr:city": "Ciechan\u00f3w",
                "addr:street": "P\u0142o\u0144ska",
                "addr:housenumber": "57a",
                "addr:city:simc": 930414,
                "addr:street:sym_ul": 16521,
                "phone": "+48 236724664",
                "email": "szkola@zdzciechanow.com.pl",
                "website": "http:\/\/www.zdzciechanow.pl",
                "ref:regon": "146337404",
                "operator": "Zak\u0142ad Doskonalenia Zawodowego W Warszawie",
                "operator:type": "ngo",
                "amenity": "school"
            }
        },
        {
            "id": 130592,
            "type": "Feature",
            "geometry": {
                "type": "Point",
                "coordinates": [
                    20.62746,
                    52.869780000000006
                ]
            },
            "properties": {
                "isced:level": "3",
                "ref:rspo": 130592,
                "official_name": "Technikum Lotnicze w Ciechanowie",
                "name": "Technikum Lotnicze w Ciechanowie",
                "addr:postcode": "06-400",
                "addr:city": "Ciechan\u00f3w",
                "addr:street": "P\u0142o\u0144ska",
                "addr:housenumber": "57a",
                "addr:city:simc": 930414,
                "addr:street:sym_ul": 16521,
                "phone": "+48 236724664",
                "email": "szkola@zdzciechanow.com.pl",
                "website": "http:\/\/www.zdzciechanow.pl",
                "ref:regon": "364225381",
                "operator": "Zak\u0142ad Doskonalenia Zawodowego W Warszawie",
                "operator:type": "ngo",
                "amenity": "school"
            }
        },
        {
            "id": 132107,
            "type": "Feature",
            "geometry": {
                "type": "Point",
                "coordinates": [
                    20.62746,
                    52.86975
                ]
            },
            "properties": {
                "ref:rspo": 132107,
                "official_name": "Niepubliczne Przedszkole Akademia Przedszkolaka",
                "name": "Niepubliczne Przedszkole Akademia Przedszkolaka",
                "addr:postcode": "06-400",
                "addr:city": "Ciechan\u00f3w",
                "addr:street": "P\u0142o\u0144ska",
                "addr:housenumber": "57 A",
                "addr:city:simc": 930414,
                "addr:street:sym_ul": 16521,
                "phone": "+48 236727586",
                "email": "akademia.przedszkolaka.zdz@gmail.com",
                "website": "http:\/\/www.przedszkoleciechanow.pl",
                "ref:regon": "365462367",
                "operator": "Zak\u0142ad Doskonalenia Zawodowego W Warszawie",
                "operator:type": "ngo",
                "amenity": "kindergarten"
            }
        },
        {
            "id": 272731,
            "type": "Feature",
            "geometry": {
                "type": "Point",
                "coordinates": [
                    20.62746,
                    52.86972
                ]
            },
            "properties": {
                "isced:level": "3",
                "ref:rspo": 272731,
                "official_name": "Technikum Lotnicze nr 1 w Ciechanowie",
                "name": "Technikum Lotnicze nr 1 w Ciechanowie",
                "addr:postcode": "06-400",
                "addr:city": "Ciechan\u00f3w",
                "addr:street": "P\u0142o\u0144ska",
                "addr:housenumber": "57a",
                "addr:city:simc": 930414,
                "addr:street:sym_ul": 16521,
                "phone": "+48 236724664",
                "email": "szkola@zdzciechanow.com.pl",
                "website": "http:\/\/www.zdzciechanow.pl",
                "ref:regon": "384281978",
                "operator": "Zak\u0142ad Doskonalenia Zawodowego W Warszawie",
                "operator:type": "ngo",
                "amenity": "school"
            }
        },
        {
            "id": 25723,
            "type": "Feature",
            "geometry": {
                "type": "Point",
                "coordinates": [
                    20.6001,
                    52.87017
                ]
            },
            "properties": {
                "ref:rspo": 25723,
                "official_name": "Miejskie Przedszkole nr 8 w Ciechanowie",
                "name": "Miejskie Przedszkole nr 8 w Ciechanowie",
                "addr:postcode": "06-400",
                "addr:city": "Ciechan\u00f3w",
                "addr:street": "Graniczna",
                "addr:housenumber": "41D",
                "addr:city:simc": 930414,
                "addr:street:sym_ul": 6075,
                "phone": "+48 236734003",
                "email": "kontakt@mp8ciechanow.szkolnastrona.pl",
                "website": "http:\/\/www.mp8ciechanow.szkolnastrona.pl",
                "ref:regon": "130004141",
                "ref:vatin": "PL5661504220",
                "operator": "Gmina Miejska Ciechan\u00f3w",
                "operator:type": "government",
                "amenity": "kindergarten"
            }
        },
        {
            "id": 57848,
            "type": "Feature",
            "geometry": {
                "type": "Point",
                "coordinates": [
                    20.59646,
                    52.87051
                ]
            },
            "properties": {
                "isced:level": "1;2",
                "ref:rspo": 57848,
                "official_name": "Szko\u0142a Podstawowa nr 7 z Oddzia\u0142ami Integracyjnymi im. Jana Paw\u0142a II w Ciechanowie",
                "name": "Szko\u0142a Podstawowa nr 7 z Oddzia\u0142ami Integracyjnymi",
                "addr:postcode": "06-400",
                "addr:city": "Ciechan\u00f3w",
                "addr:street": "Stefana Czarnieckiego",
                "addr:housenumber": "40",
                "addr:city:simc": 930414,
                "addr:street:sym_ul": 3283,
                "phone": "+48 236722246",
                "email": "szkola_p7@wp.pl",
                "website": "http:\/\/www.sp7ciechanow.pl",
                "ref:regon": "130005732",
                "ref:vatin": "PL5661504148",
                "operator": "Gmina Miejska Ciechan\u00f3w",
                "operator:type": "government",
                "amenity": "school"
            }
        },
        {
            "id": 57847,
            "type": "Feature",
            "geometry": {
                "type": "Point",
                "coordinates": [
                    20.5886299,
                    52.87125
                ]
            },
            "properties": {
                "ref:rspo": 57847,
                "official_name": "Niepubliczne Przedszkole J\u0119zykowe Akademia Krasnoludk\u00f3w",
                "name": "Niepubliczne Przedszkole J\u0119zykowe Akademia Krasnoludk\u00f3w",
                "addr:postcode": "06-400",
                "addr:city": "Ciechan\u00f3w",
                "addr:street": "Franciszka Rajkowskiego",
                "addr:housenumber": "6",
                "addr:city:simc": 930414,
                "addr:street:sym_ul": 18400,
                "phone": "+48 698679312",
                "email": "akademiakrasnoludki@gmail.com",
                "ref:regon": "146378395",
                "ref:vatin": "PL7611110000",
                "operator": "Zenon Czaplicki",
                "operator:type": "private",
                "amenity": "kindergarten"
            }
        },
        {
            "id": 118801,
            "type": "Feature",
            "geometry": {
                "type": "Point",
                "coordinates": [
                    20.62238,
                    52.87131
                ]
            },
            "properties": {
                "ref:rspo": 118801,
                "official_name": "Niepubliczne Przedszkole Integracyjne \"Kolorowa Trampolina\"",
                "name": "Niepubliczne Przedszkole Integracyjne \"Kolorowa Trampolina\"",
                "addr:postcode": "06-400",
                "addr:city": "Ciechan\u00f3w",
                "addr:street": "P\u0142o\u0144ska",
                "addr:housenumber": "29",
                "addr:city:simc": 930414,
                "addr:street:sym_ul": 16521,
                "phone": "+48 514188431",
                "email": "kolorowatrampolina@gmail.com",
                "website": "http:\/\/www.kolorowatrampolina-ciechanow.pl",
                "ref:regon": "146821436",
                "ref:vatin": "PL5671904381",
                "operator": "Piotr Rzeczkowski",
                "operator:type": "private",
                "amenity": "kindergarten"
            }
        },
        {
            "id": 25727,
            "type": "Feature",
            "geometry": {
                "type": "Point",
                "coordinates": [
                    20.62926,
                    52.87298
                ]
            },
            "properties": {
                "ref:rspo": 25727,
                "official_name": "J\u0119zykowe Przedszkole \"The Academy Of Smurfs\"",
                "name": "J\u0119zykowe Przedszkole \"The Academy Of Smurfs\"",
                "addr:postcode": "06-400",
                "addr:city": "Ciechan\u00f3w",
                "addr:street": "Armii Krajowej",
                "addr:housenumber": "45",
                "addr:city:simc": 930414,
                "addr:street:sym_ul": 432,
                "phone": "+48 508381371",
                "email": "akademiasmerfa@wp.pl",
                "website": "http:\/\/www.akademiasmerfa.pl",
                "ref:regon": "146339797",
                "ref:vatin": "PL7822316187",
                "operator": "Magdalena Sternal",
                "operator:type": "private",
                "amenity": "kindergarten"
            }
        },
        {
            "id": 16290,
            "type": "Feature",
            "geometry": {
                "type": "Point",
                "coordinates": [
                    20.61835,
                    52.87329
                ]
            },
            "properties": {
                "isced:level": "3",
                "ref:rspo": 16290,
                "official_name": "I Liceum Og\u00f3lnokszta\u0142c\u0105ce Pul im. 11 Pu\u0142ku U\u0142an\u00f3w Legionowych w Ciechanowie",
                "name": "I Liceum Og\u00f3lnokszta\u0142c\u0105ce Pul",
                "addr:postcode": "06-400",
                "addr:city": "Ciechan\u00f3w",
                "addr:street": "Orylska",
                "addr:housenumber": "3",
                "addr:city:simc": 930414,
                "addr:street:sym_ul": 15199,
                "phone": "+48 236724512",
                "email": "ciechanow@pulliceum.edu.pl",
                "website": "http:\/\/www.pulliceum.edu.pl",
                "ref:regon": "146306310",
                "operator": "P\u0142ocki Uniwersytet Ludowy Im.wincentego Witosa",
                "operator:type": "ngo",
                "amenity": "school"
            }
        },
        {
            "id": 133690,
            "type": "Feature",
            "geometry": {
                "type": "Point",
                "coordinates": [
                    20.61835,
                    52.873259999999995
                ]
            },
            "properties": {
                "isced:level": "1;2",
                "ref:rspo": 133690,
                "official_name": "Szko\u0142a Podstawowa nr 1 w Ciechanowie",
                "name": "Szko\u0142a Podstawowa nr 1 w Ciechanowie",
                "addr:postcode": "06-400",
                "addr:city": "Ciechan\u00f3w",
                "addr:street": "Orylska",
                "addr:housenumber": "3",
                "addr:city:simc": 930414,
                "addr:street:sym_ul": 15199,
                "phone": "+48 236724512",
                "email": "ciechanow.gimn1@wp.pl",
                "website": "http:\/\/jedynka-ciechanow.pl",
                "ref:regon": "367540210",
                "operator": "Gmina Miejska Ciechan\u00f3w",
                "operator:type": "government",
                "amenity": "school"
            }
        },
        {
            "id": 4353,
            "type": "Feature",
            "geometry": {
                "type": "Point",
                "coordinates": [
                    20.62959,
                    52.8734899
                ]
            },
            "properties": {
                "ref:rspo": 4353,
                "official_name": "\"Delta\" - Group Marek Rochna",
                "name": "\"Delta\" - Group Marek Rochna",
                "addr:postcode": "06-400",
                "addr:city": "Ciechan\u00f3w",
                "addr:street": "Armii Krajowej",
                "addr:housenumber": "43",
                "addr:door": "29",
                "addr:city:simc": 930414,
                "addr:street:sym_ul": 432,
                "phone": "+48 602523360",
                "email": "marek.rochna@gmail.com",
                "ref:regon": "146261322",
                "ref:vatin": "PL5661089376",
                "operator": "Marek Rochna",
                "operator:type": "private",
                "fixme": "w zale\u017cno\u015bci od przedmiotu dzia\u0142alno\u015bci (np. amenity=training + training=*, amenity=dancing_school, amenity=language_school, amenity=music_school) albo amenity=school, amenity=college, albo landuse=education w zale\u017cno\u015bci od tego, jakie plac\u00f3wki wchodz\u0105 w sk\u0142ad zespo\u0142u. Sprawd\u017a, kiedy stosowa\u0107 amenity=* a kiedy landuse=education."
            }
        },
        {
            "id": 4199,
            "type": "Feature",
            "geometry": {
                "type": "Point",
                "coordinates": [
                    20.61624,
                    52.87386
                ]
            },
            "properties": {
                "ref:rspo": 4199,
                "official_name": "Zesp\u00f3\u0142 Szk\u00f3\u0142 nr 2 im. Adama Mickiewicza w Ciechanowie",
                "name": "Zesp\u00f3\u0142 Szk\u00f3\u0142 nr 2",
                "addr:postcode": "06-400",
                "addr:city": "Ciechan\u00f3w",
                "addr:street": "Orylska",
                "addr:housenumber": "9",
                "addr:city:simc": 930414,
                "addr:street:sym_ul": 15199,
                "phone": "+48 236723448",
                "email": "zespolszkolnr2@gmail.com",
                "website": "http:\/\/www.zs2.com.pl",
                "ref:regon": "000178761",
                "operator": "Powiat Ciechanowski",
                "operator:type": "government",
                "landuse": "education",
                "fixme": "amenity=school, amenity=college albo landuse=education w zale\u017cno\u015bci od tego, jakie plac\u00f3wki wchodz\u0105 w sk\u0142ad zespo\u0142u. Sprawd\u017a, kiedy stosowa\u0107 amenity=* a kiedy landuse=education.",
                "note": "Children RSPO: 12442;12444;12537"
            }
        },
        {
            "id": 121680,
            "type": "Feature",
            "geometry": {
                "type": "Point",
                "coordinates": [
                    20.61624,
                    52.87383
                ]
            },
            "properties": {
                "ref:rspo": 121680,
                "official_name": "Centrum Kszta\u0142cenia Zawodowego Eduart Pawe\u0142 Mieszkowski",
                "name": "Centrum Kszta\u0142cenia Zawodowego Eduart Pawe\u0142 Mieszkowski",
                "addr:postcode": "06-400",
                "addr:city": "Ciechan\u00f3w",
                "addr:street": "Orylska",
                "addr:housenumber": "9",
                "addr:city:simc": 930414,
                "addr:street:sym_ul": 15199,
                "phone": "+48 502380213",
                "email": "eduart@onet.eu",
                "ref:regon": "147077260",
                "operator": "Pawe\u0142 Mieszkowski",
                "operator:type": "private",
                "fixme": "w zale\u017cno\u015bci od przedmiotu dzia\u0142alno\u015bci (np. amenity=training + training=*, amenity=dancing_school, amenity=language_school, amenity=music_school) albo amenity=school, amenity=college, albo landuse=education w zale\u017cno\u015bci od tego, jakie plac\u00f3wki wchodz\u0105 w sk\u0142ad zespo\u0142u. Sprawd\u017a, kiedy stosowa\u0107 amenity=* a kiedy landuse=education."
            }
        },
        {
            "id": 12442,
            "type": "Feature",
            "geometry": {
                "type": "Point",
                "coordinates": [
                    20.61624,
                    52.8738
                ]
            },
            "properties": {
                "isced:level": "3",
                "ref:rspo": 12442,
                "official_name": "Ii Liceum Og\u00f3lnokszta\u0142c\u0105ce im. Adama Mickiewicza w Ciechanowie",
                "name": "Ii Liceum Og\u00f3lnokszta\u0142c\u0105ce",
                "addr:postcode": "06-400",
                "addr:city": "Ciechan\u00f3w",
                "addr:street": "Orylska",
                "addr:housenumber": "9",
                "addr:city:simc": 930414,
                "addr:street:sym_ul": 15199,
                "phone": "+48 236723448",
                "email": "zespolszkolnr2@gmail.com",
                "ref:regon": "130915693",
                "operator": "Powiat Ciechanowski",
                "operator:type": "government",
                "amenity": "school",
                "note": "Parent RSPO: 4199"
            }
        },
        {
            "id": 12444,
            "type": "Feature",
            "geometry": {
                "type": "Point",
                "coordinates": [
                    20.61624,
                    52.87377
                ]
            },
            "properties": {
                "isced:level": "3",
                "ref:rspo": 12444,
                "official_name": "Technikum nr 2 w Ciechanowie",
                "name": "Technikum nr 2 w Ciechanowie",
                "addr:postcode": "06-400",
                "addr:city": "Ciechan\u00f3w",
                "addr:street": "Orylska",
                "addr:housenumber": "9",
                "addr:city:simc": 930414,
                "addr:street:sym_ul": 15199,
                "phone": "+48 236723448",
                "email": "zespolszkolnr2@gmail.com",
                "ref:regon": "130915664",
                "operator": "Powiat Ciechanowski",
                "operator:type": "government",
                "amenity": "school",
                "note": "Parent RSPO: 4199"
            }
        },
        {
            "id": 12537,
            "type": "Feature",
            "geometry": {
                "type": "Point",
                "coordinates": [
                    20.61624,
                    52.87374
                ]
            },
            "properties": {
                "isced:level": "3",
                "ref:rspo": 12537,
                "official_name": "Bran\u017cowa Szko\u0142a I Stopnia nr 2 w Ciechanowie",
                "name": "Bran\u017cowa Szko\u0142a I Stopnia nr 2 w Ciechanowie",
                "addr:postcode": "06-400",
                "addr:city": "Ciechan\u00f3w",
                "addr:street": "Orylska",
                "addr:housenumber": "9",
                "addr:city:simc": 930414,
                "addr:street:sym_ul": 15199,
                "phone": "+48 236723448",
                "email": "zs2@ciechanow.pl",
                "ref:regon": "130915670",
                "operator": "Powiat Ciechanowski",
                "operator:type": "government",
                "amenity": "school",
                "note": "Parent RSPO: 4199"
            }
        },
        {
            "id": 119734,
            "type": "Feature",
            "geometry": {
                "type": "Point",
                "coordinates": [
                    20.60179,
                    52.87475
                ]
            },
            "properties": {
                "ref:rspo": 119734,
                "official_name": "Niepubliczne Przedszkole Sportowo-Matematyczne \"Piaskownica\"",
                "name": "Niepubliczne Przedszkole Sportowo-Matematyczne \"Piaskownica\"",
                "addr:postcode": "06-400",
                "addr:city": "Ciechan\u00f3w",
                "addr:street": "Widna",
                "addr:housenumber": "13",
                "addr:city:simc": 930414,
                "addr:street:sym_ul": 24006,
                "phone": "+48 504414042",
                "email": "przedszkole.piaskownica@gmail.com",
                "ref:regon": "146858445",
                "ref:vatin": "PL5661908199",
                "operator": "Dane Do Uzupe\u0142nienia",
                "operator:type": "private",
                "amenity": "kindergarten"
            }
        },
        {
            "id": 270641,
            "type": "Feature",
            "geometry": {
                "type": "Point",
                "coordinates": [
                    20.62521,
                    52.87503
                ]
            },
            "properties": {
                "ref:rspo": 270641,
                "official_name": "Niepubliczne Przedszkole Muzyczne do Re Mi",
                "name": "Niepubliczne Przedszkole Muzyczne do Re Mi",
                "addr:postcode": "06-400",
                "addr:city": "Ciechan\u00f3w",
                "addr:street": "Wincentego Witosa",
                "addr:housenumber": "50",
                "addr:city:simc": 930414,
                "addr:street:sym_ul": 24459,
                "email": "doremiciechanow@gmail.com",
                "website": "http:\/\/www.przedszkoledoremi.com",
                "ref:regon": "382833712",
                "operator": "Barbara Lusawa",
                "operator:type": "private",
                "amenity": "kindergarten"
            }
        },
        {
            "id": 120252,
            "type": "Feature",
            "geometry": {
                "type": "Point",
                "coordinates": [
                    20.61556,
                    52.87523
                ]
            },
            "properties": {
                "ref:rspo": 120252,
                "official_name": "Niepubliczna Specjalistyczna Poradnia Psychologiczno-Pedagogiczna \"T\u0119czowa Kraina\"",
                "name": "Niepubliczna Specjalistyczna Poradnia Psychologiczno-Pedagogiczna \"T\u0119czowa Kraina\"",
                "addr:postcode": "06-400",
                "addr:city": "Ciechan\u00f3w",
                "addr:street": "3 Maja",
                "addr:housenumber": "3A",
                "addr:city:simc": 930414,
                "addr:street:sym_ul": 11937,
                "phone": "+48 696467329",
                "email": "biuro@teczowa-kraina.eu",
                "website": "http:\/\/teczowa-kraina.eu",
                "ref:regon": "146888044",
                "operator": "Beata Bayer-M\u0105czy\u0144ska",
                "operator:type": "private",
                "healthcare": "counselling",
                "counselling_type": "education",
                "fixme": "w zale\u017cno\u015bci od przedmiotu dzia\u0142alno\u015bci (np. healthcare=counselling + counselling_type=education albo healthcare=psychotherapist)"
            }
        },
        {
            "id": 272740,
            "type": "Feature",
            "geometry": {
                "type": "Point",
                "coordinates": [
                    20.61556,
                    52.8752
                ]
            },
            "properties": {
                "isced:level": "1;2",
                "ref:rspo": 272740,
                "official_name": "Niepubliczna Terapeutyczna Szko\u0142a Podstawowa",
                "name": "Niepubliczna Terapeutyczna Szko\u0142a Podstawowa",
                "addr:postcode": "06-400",
                "addr:city": "Ciechan\u00f3w",
                "addr:street": "3 Maja",
                "addr:housenumber": "3A",
                "addr:city:simc": 930414,
                "addr:street:sym_ul": 11937,
                "phone": "+48 696467329",
                "email": "biuro@teczowa-kraina.eu",
                "website": "http:\/\/teczowa-kraina.eu",
                "ref:regon": "384282618",
                "operator": "Stowarzyszenie Przyjaci\u00f3\u0142 Dzieci Z R\u00f3\u017cnymi Potrzebami O\u015bwiatowo-Wychowawczymi \"T\u0119czowa Kraina\"",
                "operator:type": "ngo",
                "amenity": "school"
            }
        },
        {
            "id": 25743,
            "type": "Feature",
            "geometry": {
                "type": "Point",
                "coordinates": [
                    20.60589,
                    52.8765
                ]
            },
            "properties": {
                "ref:rspo": 25743,
                "official_name": "Przedszkole Niepubliczne \"Akademia Ma\u0142ych Odkrywc\u00f3w\"",
                "name": "Przedszkole Niepubliczne \"Akademia Ma\u0142ych Odkrywc\u00f3w\"",
                "addr:postcode": "06-400",
                "addr:city": "Ciechan\u00f3w",
                "addr:street": "Henryka Sienkiewicza",
                "addr:housenumber": "5",
                "addr:city:simc": 930414,
                "addr:street:sym_ul": 19834,
                "phone": "+48 664702900",
                "email": "biuro@amoprzedszkole.pl",
                "website": "http:\/\/www.amoprzedszkole.pl",
                "ref:regon": "146335109",
                "ref:vatin": "PL5661784231",
                "operator": "Tomasz Kowalski",
                "operator:type": "private",
                "amenity": "kindergarten"
            }
        },
        {
            "id": 6363,
            "type": "Feature",
            "geometry": {
                "type": "Point",
                "coordinates": [
                    20.61473,
                    52.87679
                ]
            },
            "properties": {
                "ref:rspo": 6363,
                "official_name": "Stowarzyszenie Ksi\u0119gowych w Polsce Oddzia\u0142 Okr\u0119gowy w Warszawie Centrum Edukacji Zawodowej",
                "name": "Stowarzyszenie Ksi\u0119gowych w Polsce Oddzia\u0142 Okr\u0119gowy w Warszawie Centrum Edukacji Zawodowej",
                "addr:postcode": "06-400",
                "addr:city": "Ciechan\u00f3w",
                "addr:street": "Ksi\u0119dza Piotra \u015aciegiennego",
                "addr:housenumber": "10",
                "addr:door": "52",
                "addr:city:simc": 930414,
                "addr:street:sym_ul": 22290,
                "phone": "+48 236733200",
                "email": "biuro.ciechanow@skp-ow.com.pl",
                "website": "http:\/\/ciechanow.skp-ow.com.pl",
                "ref:regon": "146295404",
                "operator": "Stowarzyszenie Ksi\u0119gowych W Polsce",
                "operator:type": "ngo",
                "fixme": "w zale\u017cno\u015bci od przedmiotu dzia\u0142alno\u015bci (np. amenity=training + training=*, amenity=dancing_school, amenity=language_school, amenity=music_school)"
            }
        },
        {
            "id": 4270,
            "type": "Feature",
            "geometry": {
                "type": "Point",
                "coordinates": [
                    20.60333,
                    52.8772
                ]
            },
            "properties": {
                "ref:rspo": 4270,
                "official_name": "Specjalny O\u015brodek Szkolno-Wychowawczy w Ciechanowie",
                "name": "Specjalny O\u015brodek Szkolno-Wychowawczy w Ciechanowie",
                "addr:postcode": "06-400",
                "addr:city": "Ciechan\u00f3w",
                "addr:street": "Henryka Sienkiewicza",
                "addr:housenumber": "13",
                "addr:city:simc": 930414,
                "addr:street:sym_ul": 19834,
                "phone": "+48 236723638",
                "email": "sekretariat@soswciechanow.edu.pl",
                "website": "http:\/\/www.soswciechanow.edu.pl",
                "ref:regon": "000202347",
                "operator": "Powiat Ciechanowski",
                "operator:type": "government",
                "amenity": "school",
                "note": "Children RSPO: 20143;20164;20196;20230"
            }
        },
        {
            "id": 20143,
            "type": "Feature",
            "geometry": {
                "type": "Point",
                "coordinates": [
                    20.60333,
                    52.87717
                ]
            },
            "properties": {
                "ref:rspo": 20143,
                "official_name": "Przedszkole Specjalne w Ciechanowie",
                "name": "Przedszkole Specjalne w Ciechanowie",
                "addr:postcode": "06-400",
                "addr:city": "Ciechan\u00f3w",
                "addr:street": "Henryka Sienkiewicza",
                "addr:housenumber": "13",
                "addr:city:simc": 930414,
                "addr:street:sym_ul": 19834,
                "phone": "+48 236722889",
                "email": "sekretariat@soswciechanow.edu.pl",
                "website": "http:\/\/www.soswciechanow.edu.pl",
                "ref:regon": "140639340",
                "operator": "Powiat Ciechanowski",
                "operator:type": "government",
                "amenity": "kindergarten",
                "note": "Parent RSPO: 4270"
            }
        },
        {
            "id": 20164,
            "type": "Feature",
            "geometry": {
                "type": "Point",
                "coordinates": [
                    20.60333,
                    52.877140000000004
                ]
            },
            "properties": {
                "isced:level": "1;2",
                "ref:rspo": 20164,
                "official_name": "Szko\u0142a Podstawowa Specjalna w Ciechanowie",
                "name": "Szko\u0142a Podstawowa Specjalna w Ciechanowie",
                "addr:postcode": "06-400",
                "addr:city": "Ciechan\u00f3w",
                "addr:street": "Henryka Sienkiewicza",
                "addr:housenumber": "13",
                "addr:city:simc": 930414,
                "addr:street:sym_ul": 19834,
                "phone": "+48 236722889",
                "email": "sekretariat@soswciechanow.edu.pl",
                "website": "http:\/\/www.soswciechanow.edu.pl",
                "ref:regon": "130436277",
                "operator": "Powiat Ciechanowski",
                "operator:type": "government",
                "amenity": "school",
                "note": "Parent RSPO: 4270"
            }
        },
        {
            "id": 20196,
            "type": "Feature",
            "geometry": {
                "type": "Point",
                "coordinates": [
                    20.60333,
                    52.87711
                ]
            },
            "properties": {
                "isced:level": "3",
                "ref:rspo": 20196,
                "official_name": "Bran\u017cowa Szko\u0142a I Stopnia Specjalna w Ciechanowie",
                "name": "Bran\u017cowa Szko\u0142a I Stopnia Specjalna w Ciechanowie",
                "addr:postcode": "06-400",
                "addr:city": "Ciechan\u00f3w",
                "addr:street": "Henryka Sienkiewicza",
                "addr:housenumber": "13",
                "addr:city:simc": 930414,
                "addr:street:sym_ul": 19834,
                "phone": "+48 236722889",
                "email": "sekretariat@soswciechanow.edu.pl",
                "website": "http:\/\/www.soswciechanow.edu.pl",
                "ref:regon": "130436290",
                "operator": "Powiat Ciechanowski",
                "operator:type": "government",
                "amenity": "school",
                "note": "Parent RSPO: 4270"
            }
        },
        {
            "id": 20230,
            "type": "Feature",
            "geometry": {
                "type": "Point",
                "coordinates": [
                    20.60333,
                    52.87708
                ]
            },
            "properties": {
                "ref:rspo": 20230,
                "official_name": "Szko\u0142a Specjalna Przysposabiaj\u0105ca do Pracy w Ciechanowie",
                "name": "Szko\u0142a Specjalna Przysposabiaj\u0105ca do Pracy w Ciechanowie",
                "addr:postcode": "06-400",
                "addr:city": "Ciechan\u00f3w",
                "addr:street": "Henryka Sienkiewicza",
                "addr:housenumber": "13",
                "addr:city:simc": 930414,
                "addr:street:sym_ul": 19834,
                "phone": "+48 236722889",
                "email": "sekretariat@soswciechanow.edu.pl",
                "website": "http:\/\/www.soswciechanow.edu.pl",
                "ref:regon": "141092949",
                "operator": "Powiat Ciechanowski",
                "operator:type": "government",
                "amenity": "school",
                "note": "Parent RSPO: 4270"
            }
        },
        {
            "id": 25728,
            "type": "Feature",
            "geometry": {
                "type": "Point",
                "coordinates": [
                    20.62948,
                    52.87746
                ]
            },
            "properties": {
                "ref:rspo": 25728,
                "official_name": "Miejskie Przedszkole nr 10 w Ciechanowie im. Janusza Korczaka",
                "name": "Miejskie Przedszkole nr 10 w Ciechanowie",
                "addr:postcode": "06-413",
                "addr:city": "Ciechan\u00f3w",
                "addr:street": "Batalion\u00f3w Ch\u0142opskich",
                "addr:housenumber": "4",
                "addr:city:simc": 930414,
                "addr:street:sym_ul": 868,
                "phone": "+48 236725761",
                "email": "kontakt@mp10ciech.szkolnastrona.pl",
                "website": "http:\/\/www.mp10ciech.szkolnastrona.pl",
                "ref:regon": "130004158",
                "ref:vatin": "PL5661504243",
                "operator": "Gmina Miejska Ciechan\u00f3w",
                "operator:type": "government",
                "amenity": "kindergarten"
            }
        },
        {
            "id": 10272,
            "type": "Feature",
            "geometry": {
                "type": "Point",
                "coordinates": [
                    20.5903199,
                    52.87757
                ]
            },
            "properties": {
                "ref:rspo": 10272,
                "official_name": "Centrum Kszta\u0142cenia Zawodowego \"Bhp\" Sobolewski w Ciechanowie",
                "name": "Centrum Kszta\u0142cenia Zawodowego \"Bhp\" Sobolewski w Ciechanowie",
                "addr:postcode": "06-400",
                "addr:city": "Ciechan\u00f3w",
                "addr:street": "Rumiankowa",
                "addr:housenumber": "25",
                "addr:city:simc": 930414,
                "addr:street:sym_ul": 19094,
                "phone": "+48 513101678",
                "email": "bhp.sobolewski@wp.pl",
                "ref:regon": "146284079",
                "operator": "Mariusz Sobolewski",
                "operator:type": "private",
                "fixme": "w zale\u017cno\u015bci od przedmiotu dzia\u0142alno\u015bci (np. amenity=training + training=*, amenity=dancing_school, amenity=language_school, amenity=music_school) albo amenity=school, amenity=college, albo landuse=education w zale\u017cno\u015bci od tego, jakie plac\u00f3wki wchodz\u0105 w sk\u0142ad zespo\u0142u. Sprawd\u017a, kiedy stosowa\u0107 amenity=* a kiedy landuse=education."
            }
        },
        {
            "id": 125103,
            "type": "Feature",
            "geometry": {
                "type": "Point",
                "coordinates": [
                    20.63841,
                    52.87829
                ]
            },
            "properties": {
                "ref:rspo": 125103,
                "official_name": "Niepubliczne Przedszkole T\u0119cza",
                "name": "Niepubliczne Przedszkole T\u0119cza",
                "addr:postcode": "06-400",
                "addr:city": "Ciechan\u00f3w",
                "addr:street": "Lazurowa",
                "addr:housenumber": "1",
                "addr:city:simc": 930414,
                "addr:street:sym_ul": 10726,
                "phone": "+48 512425706",
                "email": "cad.tecza@gmail.com",
                "website": "http:\/\/www.cadtecza.przedszkolowo.pl",
                "ref:regon": "147425263",
                "ref:vatin": "PL5661844074",
                "operator": "Anna Koci\u0119cka",
                "operator:type": "private",
                "amenity": "kindergarten"
            }
        },
        {
            "id": 25735,
            "type": "Feature",
            "geometry": {
                "type": "Point",
                "coordinates": [
                    20.60607,
                    52.87832
                ]
            },
            "properties": {
                "isced:level": "1;2",
                "ref:rspo": 25735,
                "official_name": "Szko\u0142a Podstawowa nr 6 im. Tadeusza Ko\u015bciuszki w Ciechanowie",
                "name": "Szko\u0142a Podstawowa nr 6",
                "addr:postcode": "06-400",
                "addr:city": "Ciechan\u00f3w",
                "addr:street": "Wiklinowa",
                "addr:housenumber": "4",
                "addr:city:simc": 930414,
                "addr:street:sym_ul": 24249,
                "phone": "+48 236724671",
                "email": "sekretariat@sp6ciechanow.eu",
                "website": "http:\/\/www.sp6ciechanow.eu",
                "ref:regon": "001133737",
                "ref:vatin": "PL5661504131",
                "operator": "Gmina Miejska Ciechan\u00f3w",
                "operator:type": "government",
                "amenity": "school"
            }
        },
        {
            "id": 4113,
            "type": "Feature",
            "geometry": {
                "type": "Point",
                "coordinates": [
                    20.6152799,
                    52.87859
                ]
            },
            "properties": {
                "ref:rspo": 4113,
                "official_name": "Zesp\u00f3\u0142 Szk\u00f3\u0142 Technicznych Centrum Kszta\u0142cenia Ustawicznego im. Stanis\u0142awa P\u0142oskiego w Ciechanowie",
                "name": "Zesp\u00f3\u0142 Szk\u00f3\u0142 Technicznych Centrum Kszta\u0142cenia Ustawicznego",
                "addr:postcode": "06-400",
                "addr:city": "Ciechan\u00f3w",
                "addr:street": "Miko\u0142aja Kopernika",
                "addr:housenumber": "7",
                "addr:city:simc": 930414,
                "addr:street:sym_ul": 9282,
                "phone": "+48 236725375",
                "email": "sekretariat@zst-ciechanow.pl",
                "website": "http:\/\/www.zst-ciechanow.pl",
                "ref:regon": "000180864",
                "operator": "Powiat Ciechanowski",
                "operator:type": "government",
                "landuse": "education",
                "fixme": "amenity=school, amenity=college albo landuse=education w zale\u017cno\u015bci od tego, jakie plac\u00f3wki wchodz\u0105 w sk\u0142ad zespo\u0142u. Sprawd\u017a, kiedy stosowa\u0107 amenity=* a kiedy landuse=education.",
                "note": "Children RSPO: 4256;10278;10279"
            }
        },
        {
            "id": 277607,
            "type": "Feature",
            "geometry": {
                "type": "Point",
                "coordinates": [
                    20.6152799,
                    52.87856
                ]
            },
            "properties": {
                "isced:level": "3",
                "ref:rspo": 277607,
                "official_name": "Bran\u017cowa Szko\u0142a II Stopnia nr 2 w Ciechanowie",
                "name": "Bran\u017cowa Szko\u0142a II Stopnia nr 2 w Ciechanowie",
                "addr:postcode": "06-400",
                "addr:city": "Ciechan\u00f3w",
                "addr:street": "Miko\u0142aja Kopernika",
                "addr:housenumber": "7",
                "addr:city:simc": 930414,
                "addr:street:sym_ul": 9282,
                "phone": "+48 236722506",
                "email": "sekretariat@cku-ciechanow.pl",
                "ref:regon": "389190306",
                "operator": "Powiat Ciechanowski",
                "operator:type": "government",
                "amenity": "school"
            }
        },
        {
            "id": 4256,
            "type": "Feature",
            "geometry": {
                "type": "Point",
                "coordinates": [
                    20.6152799,
                    52.878530000000005
                ]
            },
            "properties": {
                "ref:rspo": 4256,
                "official_name": "Centrum Kszta\u0142cenia Ustawicznego w Ciechanowie",
                "name": "Centrum Kszta\u0142cenia Ustawicznego w Ciechanowie",
                "addr:postcode": "06-400",
                "addr:city": "Ciechan\u00f3w",
                "addr:street": "Miko\u0142aja Kopernika",
                "addr:housenumber": "7",
                "addr:city:simc": 930414,
                "addr:street:sym_ul": 9282,
                "phone": "+48 236722506",
                "email": "sekretariat@cku-ciechanow.pl",
                "website": "http:\/\/www.cku-ciechanow.pl",
                "ref:regon": "000850649",
                "operator": "Powiat Ciechanowski",
                "operator:type": "government",
                "amenity": "school",
                "fixme": "amenity=school lub amenity=college",
                "note": "Children RSPO: 10273;10275Parent RSPO: 4113"
            }
        },
        {
            "id": 10278,
            "type": "Feature",
            "geometry": {
                "type": "Point",
                "coordinates": [
                    20.6152799,
                    52.8785
                ]
            },
            "properties": {
                "isced:level": "3",
                "ref:rspo": 10278,
                "official_name": "Bran\u017cowa Szko\u0142a I Stopnia nr 4 w Ciechanowie",
                "name": "Bran\u017cowa Szko\u0142a I Stopnia nr 4 w Ciechanowie",
                "addr:postcode": "06-400",
                "addr:city": "Ciechan\u00f3w",
                "addr:street": "Miko\u0142aja Kopernika",
                "addr:housenumber": "7",
                "addr:city:simc": 930414,
                "addr:street:sym_ul": 9282,
                "phone": "+48 236725375",
                "email": "sekretariat@zst-ciechanow.pl",
                "website": "http:\/\/www.zst-ciechanow.pl",
                "ref:regon": "130915701",
                "operator": "Powiat Ciechanowski",
                "operator:type": "government",
                "amenity": "school",
                "note": "Parent RSPO: 4113"
            }
        },
        {
            "id": 10279,
            "type": "Feature",
            "geometry": {
                "type": "Point",
                "coordinates": [
                    20.6152799,
                    52.87847
                ]
            },
            "properties": {
                "isced:level": "3",
                "ref:rspo": 10279,
                "official_name": "Technikum nr 4 w Ciechanowie",
                "name": "Technikum nr 4 w Ciechanowie",
                "addr:postcode": "06-400",
                "addr:city": "Ciechan\u00f3w",
                "addr:street": "Miko\u0142aja Kopernika",
                "addr:housenumber": "7",
                "addr:city:simc": 930414,
                "addr:street:sym_ul": 9282,
                "phone": "+48 236725375",
                "email": "sekretariat@zst-ciechanow.pl",
                "ref:regon": "130915718",
                "operator": "Powiat Ciechanowski",
                "operator:type": "government",
                "amenity": "school",
                "note": "Parent RSPO: 4113"
            }
        },
        {
            "id": 10273,
            "type": "Feature",
            "geometry": {
                "type": "Point",
                "coordinates": [
                    20.6152799,
                    52.878440000000005
                ]
            },
            "properties": {
                "isced:level": "3",
                "ref:rspo": 10273,
                "official_name": "Liceum Og\u00f3lnokszta\u0142c\u0105ce dla Doros\u0142ych w Ciechanowie",
                "name": "Liceum Og\u00f3lnokszta\u0142c\u0105ce dla Doros\u0142ych w Ciechanowie",
                "addr:postcode": "06-400",
                "addr:city": "Ciechan\u00f3w",
                "addr:street": "Miko\u0142aja Kopernika",
                "addr:housenumber": "7",
                "addr:city:simc": 930414,
                "addr:street:sym_ul": 9282,
                "phone": "+48 236722506",
                "email": "sekretariat@cku-ciechanow.pl",
                "website": "http:\/\/www.cku-ciechanow.pl",
                "ref:regon": "146290890",
                "operator": "Powiat Ciechanowski",
                "operator:type": "government",
                "amenity": "school",
                "note": "Parent RSPO: 4256"
            }
        },
        {
            "id": 10275,
            "type": "Feature",
            "geometry": {
                "type": "Point",
                "coordinates": [
                    20.6152799,
                    52.87841
                ]
            },
            "properties": {
                "isced:level": "4",
                "ref:rspo": 10275,
                "official_name": "Szko\u0142a Policealna w Ciechanowie",
                "name": "Szko\u0142a Policealna w Ciechanowie",
                "addr:postcode": "06-400",
                "addr:city": "Ciechan\u00f3w",
                "addr:street": "Miko\u0142aja Kopernika",
                "addr:housenumber": "7",
                "addr:city:simc": 930414,
                "addr:street:sym_ul": 9282,
                "phone": "+48 236722506",
                "email": "sekretariat@cku-ciechanow.pl",
                "website": "http:\/\/www.cku-ciechanow.pl",
                "ref:regon": "140242795",
                "operator": "Powiat Ciechanowski",
                "operator:type": "government",
                "amenity": "college",
                "note": "Parent RSPO: 4256"
            }
        },
        {
            "id": 25726,
            "type": "Feature",
            "geometry": {
                "type": "Point",
                "coordinates": [
                    20.60363,
                    52.87866
                ]
            },
            "properties": {
                "ref:rspo": 25726,
                "official_name": "Miejskie Przedszkole nr 3 w Ciechanowie",
                "name": "Miejskie Przedszkole nr 3 w Ciechanowie",
                "addr:postcode": "06-400",
                "addr:city": "Ciechan\u00f3w",
                "addr:street": "Henryka Sienkiewicza",
                "addr:housenumber": "26A",
                "addr:city:simc": 930414,
                "addr:street:sym_ul": 19834,
                "phone": "+48 236723938",
                "email": "sekretariat@mp3ciechanow.szkolnastrona.pl",
                "website": "http:\/\/mp3ciechanow.szkolnastrona.pl",
                "ref:regon": "130004187",
                "ref:vatin": "PL5661504160",
                "operator": "Gmina Miejska Ciechan\u00f3w",
                "operator:type": "government",
                "amenity": "kindergarten"
            }
        },
        {
            "id": 52716,
            "type": "Feature",
            "geometry": {
                "type": "Point",
                "coordinates": [
                    20.61508,
                    52.87908
                ]
            },
            "properties": {
                "ref:rspo": 52716,
                "official_name": "Pa\u0144stwowa Szko\u0142a Muzyczna I St. im. Stanis\u0142awa Moniuszki w Ciechanowie",
                "name": "Pa\u0144stwowa Szko\u0142a Muzyczna I St.",
                "addr:postcode": "06-400",
                "addr:city": "Ciechan\u00f3w",
                "addr:street": "Ma\u0142gorzacka",
                "addr:housenumber": "16",
                "addr:city:simc": 930414,
                "addr:street:sym_ul": 12153,
                "phone": "+48 236724603",
                "email": "psm_ciechanow@wp.pl",
                "website": "http:\/\/www.psmciechanow.pl",
                "ref:regon": "000692854",
                "operator": "Ministerstwo Kultury I Dziedzictwa Narodowego",
                "operator:type": "government",
                "amenity": "music_school"
            }
        },
        {
            "id": 82542,
            "type": "Feature",
            "geometry": {
                "type": "Point",
                "coordinates": [
                    20.60014,
                    52.87916
                ]
            },
            "properties": {
                "isced:level": "4",
                "ref:rspo": 82542,
                "official_name": "Medyczna Szko\u0142a Policealna w Ciechanowie",
                "name": "Medyczna Szko\u0142a Policealna w Ciechanowie",
                "addr:postcode": "06-400",
                "addr:city": "Ciechan\u00f3w",
                "addr:street": "Henryka Sienkiewicza",
                "addr:housenumber": "33",
                "addr:city:simc": 930414,
                "addr:street:sym_ul": 19834,
                "phone": "+48 236723581",
                "email": "sekretariat@medykciechanow.edu.pl",
                "website": "http:\/\/www.medykciechanow.edu.pl",
                "ref:regon": "130267886",
                "ref:vatin": "PL5661894600",
                "operator": "Wojew\u00f3dztwo Mazowieckie",
                "operator:type": "government",
                "amenity": "college"
            }
        },
        {
            "id": 21791,
            "type": "Feature",
            "geometry": {
                "type": "Point",
                "coordinates": [
                    20.60364,
                    52.87923
                ]
            },
            "properties": {
                "ref:rspo": 21791,
                "official_name": "Ognisko Pracy Pozaszkolnej Towarzystwa Przyjaci\u00f3\u0142 Dzieci w Ciechanowie",
                "name": "Ognisko Pracy Pozaszkolnej Towarzystwa Przyjaci\u00f3\u0142 Dzieci w Ciechanowie",
                "addr:postcode": "06-400",
                "addr:city": "Ciechan\u00f3w",
                "addr:street": "Powsta\u0144c\u00f3w Warszawskich",
                "addr:housenumber": "7a",
                "addr:city:simc": 930414,
                "addr:street:sym_ul": 17368,
                "phone": "+48 236724014",
                "email": "tpd-ciechanow@wp.pl",
                "ref:regon": "146326168",
                "operator": "Towarzystwo Przyjaci\u00f3\u0142 Dzieci Zarz\u0105d Mazowieckiego Oddzia\u0142u Wojew\u00f3dzkiego",
                "operator:type": "ngo",
                "fixme": "w zale\u017cno\u015bci od przedmiotu dzia\u0142alno\u015bci (np. amenity=training + training=*, amenity=dancing_school, amenity=language_school, amenity=music_school)"
            }
        },
        {
            "id": 114281,
            "type": "Feature",
            "geometry": {
                "type": "Point",
                "coordinates": [
                    20.60225,
                    52.87938
                ]
            },
            "properties": {
                "isced:level": "3",
                "ref:rspo": 114281,
                "official_name": "Liceum Og\u00f3lnokszta\u0142c\u0105ce Akademickiego Centrum Kszta\u0142cenia Przy Puz im. Ignacego Mo\u015bcickiego",
                "name": "Liceum Og\u00f3lnokszta\u0142c\u0105ce Akademickiego Centrum Kszta\u0142cenia Przy Puz",
                "addr:postcode": "06-400",
                "addr:city": "Ciechan\u00f3w",
                "addr:street": "Henryka Sienkiewicza",
                "addr:housenumber": "28a",
                "addr:city:simc": 930414,
                "addr:street:sym_ul": 19834,
                "phone": "+48 236549834",
                "email": "sekretariat@ackpwsz.pl",
                "website": "http:\/\/www.ackpwsz.pl",
                "ref:regon": "146664310",
                "operator": "Pa\u0144stwowa Uczelnia Zawodowa Im. Ignacego Mo\u015bcickiego W Ciechanowie",
                "operator:type": "private",
                "amenity": "school"
            }
        },
        {
            "id": 122784,
            "type": "Feature",
            "geometry": {
                "type": "Point",
                "coordinates": [
                    20.60225,
                    52.879349999999995
                ]
            },
            "properties": {
                "isced:level": "4",
                "ref:rspo": 122784,
                "official_name": "Szko\u0142a Policealna Medyczna Akademickiego Centrum Kszta\u0142cenia Przy Puz im. Ignacego Mo\u015bcickiego",
                "name": "Szko\u0142a Policealna Medyczna Akademickiego Centrum Kszta\u0142cenia Przy Puz",
                "addr:postcode": "06-400",
                "addr:city": "Ciechan\u00f3w",
                "addr:street": "Henryka Sienkiewicza",
                "addr:housenumber": "28a",
                "addr:city:simc": 930414,
                "addr:street:sym_ul": 19834,
                "phone": "+48 236549834",
                "email": "sekretariat@ackpwsz.pl",
                "website": "http:\/\/www.ackpwsz.pl",
                "ref:regon": "147188834",
                "operator": "Pa\u0144stwowa Uczelnia Zawodowa Im. Ignacego Mo\u015bcickiego W Ciechanowie",
                "operator:type": "private",
                "amenity": "college"
            }
        },
        {
            "id": 127423,
            "type": "Feature",
            "geometry": {
                "type": "Point",
                "coordinates": [
                    20.60225,
                    52.87932
                ]
            },
            "properties": {
                "isced:level": "3",
                "ref:rspo": 127423,
                "official_name": "Technikum Akademickiego Centrum Kszta\u0142cenia Przy Puz im. Ignacego Mo\u015bcickiego",
                "name": "Technikum Akademickiego Centrum Kszta\u0142cenia Przy Puz",
                "addr:postcode": "06-400",
                "addr:city": "Ciechan\u00f3w",
                "addr:street": "Henryka Sienkiewicza",
                "addr:housenumber": "28a",
                "addr:city:simc": 930414,
                "addr:street:sym_ul": 19834,
                "phone": "+48 236549834",
                "email": "sekretariat@ckapwsz.pl",
                "website": "http:\/\/www.ckapwsz.pl",
                "ref:regon": "361567483",
                "operator": "Pa\u0144stwowa Uczelnia Zawodowa Im. Ignacego Mo\u015bcickiego W Ciechanowie",
                "operator:type": "private",
                "amenity": "school"
            }
        },
        {
            "id": 25722,
            "type": "Feature",
            "geometry": {
                "type": "Point",
                "coordinates": [
                    20.62206,
                    52.87945
                ]
            },
            "properties": {
                "ref:rspo": 25722,
                "official_name": "Miejskie Przedszkole nr 1 w Ciechanowie",
                "name": "Miejskie Przedszkole nr 1 w Ciechanowie",
                "addr:postcode": "06-400",
                "addr:city": "Ciechan\u00f3w",
                "addr:street": "Nadfosna",
                "addr:housenumber": "12",
                "addr:city:simc": 930414,
                "addr:street:sym_ul": 13873,
                "phone": "+48 236724696",
                "email": "przedszk.1@interia.pl",
                "website": "http:\/\/www.jedyneczka.eprzedszkola.pl",
                "ref:regon": "130004201",
                "ref:vatin": "PL5661504154",
                "operator": "Gmina Miejska Ciechan\u00f3w",
                "operator:type": "government",
                "amenity": "kindergarten"
            }
        },
        {
            "id": 25718,
            "type": "Feature",
            "geometry": {
                "type": "Point",
                "coordinates": [
                    20.61293,
                    52.88
                ]
            },
            "properties": {
                "ref:rspo": 25718,
                "official_name": "Miejskie Przedszkole nr 4 z Oddzia\u0142ami Integracyjnymi im. Pluszowego Misia w Ciechanowie",
                "name": "Miejskie Przedszkole nr 4 z Oddzia\u0142ami Integracyjnymi",
                "addr:postcode": "06-400",
                "addr:city": "Ciechan\u00f3w",
                "addr:street": "Tadeusza Wyrzykowskiego",
                "addr:housenumber": "9",
                "addr:city:simc": 930414,
                "addr:street:sym_ul": 43191,
                "phone": "+48 236725455",
                "email": "przedszkolenr.4@poczta.onet.pl",
                "website": "http:\/\/www.mp4ciechanow.pl",
                "ref:regon": "130004164",
                "ref:vatin": "PL5661504177",
                "operator": "Gmina Miejska Ciechan\u00f3w",
                "operator:type": "government",
                "amenity": "kindergarten"
            }
        },
        {
            "id": 25730,
            "type": "Feature",
            "geometry": {
                "type": "Point",
                "coordinates": [
                    20.63251,
                    52.88009
                ]
            },
            "properties": {
                "ref:rspo": 25730,
                "official_name": "Miejskie Przedszkole nr 5 w Ciechanowie",
                "name": "Miejskie Przedszkole nr 5 w Ciechanowie",
                "addr:postcode": "06-400",
                "addr:city": "Ciechan\u00f3w",
                "addr:street": "Gwardii Ludowej WRN",
                "addr:housenumber": "12",
                "addr:city:simc": 930414,
                "addr:street:sym_ul": 52165,
                "phone": "+48 236723888",
                "email": "m.przedszkole.nr5@wp.pl",
                "website": "http:\/\/szkolnastrona.przedszkole5ciech.pl\/",
                "ref:regon": "130004170",
                "ref:vatin": "PL5661504183",
                "operator": "Gmina Miejska Ciechan\u00f3w",
                "operator:type": "government",
                "amenity": "kindergarten"
            }
        },
        {
            "id": 4146,
            "type": "Feature",
            "geometry": {
                "type": "Point",
                "coordinates": [
                    20.60261,
                    52.88039
                ]
            },
            "properties": {
                "ref:rspo": 4146,
                "official_name": "Zesp\u00f3\u0142 Szk\u00f3\u0142 nr 1 im. Gen. J\u00f3zefa Bema w Ciechanowie",
                "name": "Zesp\u00f3\u0142 Szk\u00f3\u0142 nr 1",
                "addr:postcode": "06-400",
                "addr:city": "Ciechan\u00f3w",
                "addr:street": "Powsta\u0144c\u00f3w Warszawskich",
                "addr:housenumber": "24",
                "addr:city:simc": 930414,
                "addr:street:sym_ul": 17368,
                "phone": "+48 236724824",
                "email": "sekretariat@zs1.com.pl",
                "website": "http:\/\/www.zs1.com.pl",
                "ref:regon": "000179499",
                "operator": "Powiat Ciechanowski",
                "operator:type": "government",
                "landuse": "education",
                "fixme": "amenity=school, amenity=college albo landuse=education w zale\u017cno\u015bci od tego, jakie plac\u00f3wki wchodz\u0105 w sk\u0142ad zespo\u0142u. Sprawd\u017a, kiedy stosowa\u0107 amenity=* a kiedy landuse=education.",
                "note": "Children RSPO: 11168;11170;274472"
            }
        },
        {
            "id": 11168,
            "type": "Feature",
            "geometry": {
                "type": "Point",
                "coordinates": [
                    20.60261,
                    52.880359999999996
                ]
            },
            "properties": {
                "isced:level": "3",
                "ref:rspo": 11168,
                "official_name": "Iv Liceum Og\u00f3lnokszta\u0142c\u0105ce w Ciechanowie",
                "name": "Iv Liceum Og\u00f3lnokszta\u0142c\u0105ce w Ciechanowie",
                "addr:postcode": "06-400",
                "addr:city": "Ciechan\u00f3w",
                "addr:street": "Powsta\u0144c\u00f3w Warszawskich",
                "addr:housenumber": "24",
                "addr:city:simc": 930414,
                "addr:street:sym_ul": 17368,
                "phone": "+48 236724824",
                "email": "sekretariat@zs1.com.pl",
                "ref:regon": "130915658",
                "operator": "Powiat Ciechanowski",
                "operator:type": "government",
                "amenity": "school",
                "note": "Parent RSPO: 4146"
            }
        },
        {
            "id": 11170,
            "type": "Feature",
            "geometry": {
                "type": "Point",
                "coordinates": [
                    20.60261,
                    52.88033
                ]
            },
            "properties": {
                "isced:level": "3",
                "ref:rspo": 11170,
                "official_name": "Technikum nr 1 w Ciechanowie",
                "name": "Technikum nr 1 w Ciechanowie",
                "addr:postcode": "06-400",
                "addr:city": "Ciechan\u00f3w",
                "addr:street": "Powsta\u0144c\u00f3w Warszawskich",
                "addr:housenumber": "24",
                "addr:city:simc": 930414,
                "addr:street:sym_ul": 17368,
                "phone": "+48 236724824",
                "email": "sekretariat@zs1.com.pl",
                "website": "http:\/\/www.zs1.com.pl",
                "ref:regon": "130915635",
                "operator": "Powiat Ciechanowski",
                "operator:type": "government",
                "amenity": "school",
                "note": "Parent RSPO: 4146"
            }
        },
        {
            "id": 274472,
            "type": "Feature",
            "geometry": {
                "type": "Point",
                "coordinates": [
                    20.60261,
                    52.8803
                ]
            },
            "properties": {
                "isced:level": "3",
                "ref:rspo": 274472,
                "official_name": "Bran\u017cowa Szko\u0142a I Stopnia nr 1 w Ciechanowie",
                "name": "Bran\u017cowa Szko\u0142a I Stopnia nr 1 w Ciechanowie",
                "addr:postcode": "06-400",
                "addr:city": "Ciechan\u00f3w",
                "addr:street": "Powsta\u0144c\u00f3w Warszawskich",
                "addr:housenumber": "24",
                "addr:city:simc": 930414,
                "addr:street:sym_ul": 17368,
                "phone": "+48 236724824",
                "email": "sekretariat@zs1.com.pl",
                "website": "http:\/\/www.zs1.com.pl",
                "ref:regon": "130915641",
                "operator": "Powiat Ciechanowski",
                "operator:type": "government",
                "amenity": "school",
                "note": "Parent RSPO: 4146"
            }
        },
        {
            "id": 130068,
            "type": "Feature",
            "geometry": {
                "type": "Point",
                "coordinates": [
                    20.61826,
                    52.8808
                ]
            },
            "properties": {
                "ref:rspo": 130068,
                "official_name": "Niepubliczny Punkt Przedszkolny Alpik",
                "name": "Niepubliczny Punkt Przedszkolny Alpik",
                "addr:postcode": "06-400",
                "addr:city": "Ciechan\u00f3w",
                "addr:street": "Warszawska",
                "addr:housenumber": "13",
                "addr:door": "15",
                "addr:city:simc": 930414,
                "addr:street:sym_ul": 23682,
                "email": "pytel.magdalena@interia.pl",
                "website": "http:\/\/przedszkolepanczu.pl",
                "ref:regon": "363402616",
                "operator": "Magdalena Pytel",
                "operator:type": "private",
                "amenity": "kindergarten"
            }
        },
        {
            "id": 276697,
            "type": "Feature",
            "geometry": {
                "type": "Point",
                "coordinates": [
                    20.61826,
                    52.88077
                ]
            },
            "properties": {
                "isced:level": "1;2",
                "ref:rspo": 276697,
                "official_name": "Structured Teacching Niepubliczna Szko\u0142a Podstawowa",
                "name": "Structured Teacching Niepubliczna Szko\u0142a Podstawowa",
                "addr:postcode": "06-400",
                "addr:city": "Ciechan\u00f3w",
                "addr:street": "Warszawska",
                "addr:housenumber": "13",
                "addr:door": "2",
                "addr:city:simc": 930414,
                "addr:street:sym_ul": 23682,
                "ref:regon": "387367545",
                "operator": "Ma\u0142gorzata Siemi\u0105tkowska",
                "operator:type": "private",
                "amenity": "school"
            }
        },
        {
            "id": 122521,
            "type": "Feature",
            "geometry": {
                "type": "Point",
                "coordinates": [
                    20.62487,
                    52.88087
                ]
            },
            "properties": {
                "ref:rspo": 122521,
                "official_name": "O\u015brodek Szkole\u0144 Barbara Agata Dziewicka",
                "name": "O\u015brodek Szkole\u0144 Barbara Agata Dziewicka",
                "addr:postcode": "06-400",
                "addr:city": "Ciechan\u00f3w",
                "addr:street": "Pu\u0142tuska",
                "addr:housenumber": "20 c",
                "addr:door": "19",
                "addr:city:simc": 930414,
                "addr:street:sym_ul": 18168,
                "phone": "+48 236724032",
                "email": "o.szkol@poczta.onet.pl",
                "ref:regon": "147155295",
                "operator": "Barbara Dziewicka",
                "operator:type": "private",
                "fixme": "w zale\u017cno\u015bci od przedmiotu dzia\u0142alno\u015bci (np. amenity=training + training=*, amenity=dancing_school, amenity=language_school, amenity=music_school) albo amenity=school, amenity=college, albo landuse=education w zale\u017cno\u015bci od tego, jakie plac\u00f3wki wchodz\u0105 w sk\u0142ad zespo\u0142u. Sprawd\u017a, kiedy stosowa\u0107 amenity=* a kiedy landuse=education."
            }
        },
        {
            "id": 130684,
            "type": "Feature",
            "geometry": {
                "type": "Point",
                "coordinates": [
                    20.61783,
                    52.88097
                ]
            },
            "properties": {
                "ref:rspo": 130684,
                "official_name": "Centrum Kszta\u0142cenia Ustawicznego Twp",
                "name": "Centrum Kszta\u0142cenia Ustawicznego Twp",
                "addr:postcode": "06-400",
                "addr:city": "Ciechan\u00f3w",
                "addr:street": "Warszawska",
                "addr:housenumber": "10",
                "addr:city:simc": 930414,
                "addr:street:sym_ul": 23682,
                "phone": "+48 236725007",
                "email": "biuro@twpciechanow.pl",
                "ref:regon": "364334160",
                "operator": "Oddzia\u0142 Regionalny Towarzystwa Wiedzy Powszechnej",
                "operator:type": "ngo",
                "fixme": "w zale\u017cno\u015bci od przedmiotu dzia\u0142alno\u015bci (np. amenity=training + training=*, amenity=dancing_school, amenity=language_school, amenity=music_school)"
            }
        },
        {
            "id": 124002,
            "type": "Feature",
            "geometry": {
                "type": "Point",
                "coordinates": [
                    20.60077,
                    52.88117
                ]
            },
            "properties": {
                "ref:rspo": 124002,
                "official_name": "Niepubliczne Centrum Kszta\u0142cenia Zawodowego Edu-Mach",
                "name": "Niepubliczne Centrum Kszta\u0142cenia Zawodowego Edu-Mach",
                "addr:postcode": "06-400",
                "addr:city": "Ciechan\u00f3w",
                "addr:street": "Wyzwolenia",
                "addr:housenumber": "6",
                "addr:door": "12",
                "addr:city:simc": 930414,
                "addr:street:sym_ul": 25133,
                "phone": "+48 888692828",
                "email": "info@edumach.pl",
                "website": "http:\/\/www.edumach.pl",
                "ref:regon": "147368803",
                "operator": "Specjalistyczne Centrum Edukacji Edu-Mach Sp\u00f3\u0142ka Z Ograniczon\u0105 Odpowiedzialno\u015bci\u0105",
                "operator:type": "private",
                "fixme": "w zale\u017cno\u015bci od przedmiotu dzia\u0142alno\u015bci (np. amenity=training + training=*, amenity=dancing_school, amenity=language_school, amenity=music_school) albo amenity=school, amenity=college, albo landuse=education w zale\u017cno\u015bci od tego, jakie plac\u00f3wki wchodz\u0105 w sk\u0142ad zespo\u0142u. Sprawd\u017a, kiedy stosowa\u0107 amenity=* a kiedy landuse=education."
            }
        },
        {
            "id": 273838,
            "type": "Feature",
            "geometry": {
                "type": "Point",
                "coordinates": [
                    20.60077,
                    52.881139999999995
                ]
            },
            "properties": {
                "ref:rspo": 273838,
                "official_name": "O\u015brodek Doskonalenia Nauczycieli Edumach.pl",
                "name": "O\u015brodek Doskonalenia Nauczycieli Edumach.pl",
                "addr:postcode": "06-400",
                "addr:city": "Ciechan\u00f3w",
                "addr:street": "Wyzwolenia",
                "addr:housenumber": "6",
                "addr:city:simc": 930414,
                "addr:street:sym_ul": 25133,
                "email": "info@edumach.pl",
                "website": "http:\/\/www.edumach.pl",
                "ref:regon": "384716577",
                "operator": "Specjalistyczne Centrum Edukacji Edu-Mach Sp\u00f3\u0142ka Z Ograniczon\u0105 Odpowiedzialno\u015bci\u0105",
                "operator:type": "private",
                "amenity": "training"
            }
        },
        {
            "id": 25719,
            "type": "Feature",
            "geometry": {
                "type": "Point",
                "coordinates": [
                    20.617460250854,
                    52.881671905518
                ]
            },
            "properties": {
                "ref:rspo": 25719,
                "official_name": "Miejskie Przedszkole nr 6 w Ciechanowie",
                "name": "Miejskie Przedszkole nr 6 w Ciechanowie",
                "addr:postcode": "06-400",
                "addr:city": "Ciechan\u00f3w",
                "addr:street": "Zbigniewa Herberta",
                "addr:housenumber": "3",
                "addr:city:simc": 930414,
                "addr:street:sym_ul": 31283,
                "phone": "+48 236724940",
                "email": "sekretariat@mp6ciechanow.szkolnastrona.pl",
                "website": "http:\/\/www.mp6ciechanow.szkolnastrona.pl",
                "ref:regon": "130004112",
                "ref:vatin": "PL5661504208",
                "operator": "Gmina Miejska Ciechan\u00f3w",
                "operator:type": "government",
                "amenity": "kindergarten"
            }
        },
        {
            "id": 270447,
            "type": "Feature",
            "geometry": {
                "type": "Point",
                "coordinates": [
                    20.617460250854,
                    52.881641905517995
                ]
            },
            "properties": {
                "ref:rspo": 270447,
                "official_name": "Centrum Edukacji Wiedza w Ciechanowie",
                "name": "Centrum Edukacji Wiedza w Ciechanowie",
                "addr:postcode": "06-400",
                "addr:city": "Ciechan\u00f3w",
                "addr:street": "Maksymiliana Marii Kolbe",
                "addr:housenumber": "16",
                "addr:city:simc": 930414,
                "addr:street:sym_ul": 8800,
                "phone": "+48 604644571",
                "email": "wmostowy@wp.pl",
                "ref:regon": "382597157",
                "ref:vatin": "PL5661305779",
                "operator": "Wies\u0142aw Mostowy",
                "operator:type": "private",
                "fixme": "w zale\u017cno\u015bci od przedmiotu dzia\u0142alno\u015bci (np. amenity=training + training=*, amenity=dancing_school, amenity=language_school, amenity=music_school)"
            }
        },
        {
            "id": 16286,
            "type": "Feature",
            "geometry": {
                "type": "Point",
                "coordinates": [
                    20.60855,
                    52.88216
                ]
            },
            "properties": {
                "isced:level": "3",
                "ref:rspo": 16286,
                "official_name": "Liceum Og\u00f3lnokszta\u0142c\u0105ce dla Doros\u0142ych Edukacji Innowacyjnej w Ciechanowie",
                "name": "Liceum Og\u00f3lnokszta\u0142c\u0105ce dla Doros\u0142ych Edukacji Innowacyjnej w Ciechanowie",
                "addr:postcode": "06-400",
                "addr:city": "Ciechan\u00f3w",
                "addr:street": "17 Stycznia",
                "addr:housenumber": "17",
                "addr:city:simc": 930414,
                "addr:street:sym_ul": 21445,
                "phone": "+48 236724671",
                "email": "edukacja@ipt.pl",
                "website": "http:\/\/www.ipt.pl",
                "ref:regon": "146306289",
                "operator": "Instytut Post\u0119powania Tw\u00f3rczego Sp\u00f3\u0142ka Z Ograniczon\u0105 Odpowiedzialno\u015bci\u0105",
                "operator:type": "private",
                "amenity": "school"
            }
        },
        {
            "id": 63394,
            "type": "Feature",
            "geometry": {
                "type": "Point",
                "coordinates": [
                    20.63245,
                    52.88237
                ]
            },
            "properties": {
                "isced:level": "1;2",
                "ref:rspo": 63394,
                "official_name": "Szko\u0142a Podstawowa nr 3 im. Or\u0142a Bia\u0142ego w Ciechanowie",
                "name": "Szko\u0142a Podstawowa nr 3",
                "addr:postcode": "06-413",
                "addr:city": "Ciechan\u00f3w",
                "addr:street": "Powsta\u0144c\u00f3w Wielkopolskich",
                "addr:housenumber": "1",
                "addr:city:simc": 930414,
                "addr:street:sym_ul": 17377,
                "phone": "+48 236724822",
                "email": "sp3@poczta.onet.pl",
                "website": "http:\/\/www.sp3ciechanow.eu",
                "ref:regon": "002710533",
                "ref:vatin": "PL5661504102",
                "operator": "Gmina Miejska Ciechan\u00f3w",
                "operator:type": "government",
                "amenity": "school"
            }
        },
        {
            "id": 4189,
            "type": "Feature",
            "geometry": {
                "type": "Point",
                "coordinates": [
                    20.60159,
                    52.8825999
                ]
            },
            "properties": {
                "ref:rspo": 4189,
                "official_name": "Zesp\u00f3\u0142 Szk\u00f3\u0142 nr 3 im. Stanis\u0142awa Staszica w Ciechanowie",
                "name": "Zesp\u00f3\u0142 Szk\u00f3\u0142 nr 3",
                "addr:postcode": "06-400",
                "addr:city": "Ciechan\u00f3w",
                "addr:street": "Stefana Okrzei",
                "addr:housenumber": "6",
                "addr:city:simc": 930414,
                "addr:street:sym_ul": 14914,
                "phone": "+48 236723031",
                "email": "zs3ciech@poczta.onet.pl",
                "website": "http:\/\/zs3.ciechanow.pl",
                "ref:regon": "000769367",
                "operator": "Powiat Ciechanowski",
                "operator:type": "government",
                "landuse": "education",
                "fixme": "amenity=school, amenity=college albo landuse=education w zale\u017cno\u015bci od tego, jakie plac\u00f3wki wchodz\u0105 w sk\u0142ad zespo\u0142u. Sprawd\u017a, kiedy stosowa\u0107 amenity=* a kiedy landuse=education.",
                "note": "Children RSPO: 12811;12813;12814;274770"
            }
        },
        {
            "id": 12811,
            "type": "Feature",
            "geometry": {
                "type": "Point",
                "coordinates": [
                    20.60159,
                    52.8825699
                ]
            },
            "properties": {
                "isced:level": "3",
                "ref:rspo": 12811,
                "official_name": "Iii Liceum Og\u00f3lnokszta\u0142c\u0105ce im. Stanis\u0142awa Staszica w Ciechanowie",
                "name": "Iii Liceum Og\u00f3lnokszta\u0142c\u0105ce",
                "addr:postcode": "06-400",
                "addr:city": "Ciechan\u00f3w",
                "addr:street": "Stefana Okrzei",
                "addr:housenumber": "6",
                "addr:city:simc": 930414,
                "addr:street:sym_ul": 14914,
                "phone": "+48 236723051",
                "email": "zs3ciech@poczta.onet.pl",
                "website": "http:\/\/www.zs3.ciechanowedu.pl",
                "ref:regon": "130915598",
                "operator": "Powiat Ciechanowski",
                "operator:type": "government",
                "amenity": "school",
                "note": "Parent RSPO: 4189"
            }
        },
        {
            "id": 12813,
            "type": "Feature",
            "geometry": {
                "type": "Point",
                "coordinates": [
                    20.60159,
                    52.882539900000005
                ]
            },
            "properties": {
                "isced:level": "3",
                "ref:rspo": 12813,
                "official_name": "Technikum nr 3 im. Stanis\u0142awa Staszica w Ciechanowie",
                "name": "Technikum nr 3",
                "addr:postcode": "06-400",
                "addr:city": "Ciechan\u00f3w",
                "addr:street": "Stefana Okrzei",
                "addr:housenumber": "6",
                "addr:city:simc": 930414,
                "addr:street:sym_ul": 14914,
                "phone": "+48 236723051",
                "email": "zs3ciech@poczta.onet.pl",
                "website": "http:\/\/www.zs3.ciechanow.edu.pl",
                "ref:regon": "130947380",
                "operator": "Powiat Ciechanowski",
                "operator:type": "government",
                "amenity": "school",
                "note": "Parent RSPO: 4189"
            }
        },
        {
            "id": 12814,
            "type": "Feature",
            "geometry": {
                "type": "Point",
                "coordinates": [
                    20.60159,
                    52.8825099
                ]
            },
            "properties": {
                "isced:level": "3",
                "ref:rspo": 12814,
                "official_name": "Bran\u017cowa Szko\u0142a I Stopnia nr 3 w Ciechanowie",
                "name": "Bran\u017cowa Szko\u0142a I Stopnia nr 3 w Ciechanowie",
                "addr:postcode": "06-400",
                "addr:city": "Ciechan\u00f3w",
                "addr:street": "Stefana Okrzei",
                "addr:housenumber": "6",
                "addr:city:simc": 930414,
                "addr:street:sym_ul": 14914,
                "phone": "+48 236723051",
                "email": "zs3ciech@poczta.onet.pl",
                "website": "http:\/\/www.zs3ciech.edu.pl",
                "ref:regon": "130915612",
                "operator": "Powiat Ciechanowski",
                "operator:type": "government",
                "amenity": "school",
                "note": "Parent RSPO: 4189"
            }
        },
        {
            "id": 274770,
            "type": "Feature",
            "geometry": {
                "type": "Point",
                "coordinates": [
                    20.60159,
                    52.8824799
                ]
            },
            "properties": {
                "isced:level": "3",
                "ref:rspo": 274770,
                "official_name": "Bran\u017cowa Szko\u0142a II Stopnia nr 1 w Ciechanowie",
                "name": "Bran\u017cowa Szko\u0142a II Stopnia nr 1 w Ciechanowie",
                "addr:postcode": "06-400",
                "addr:city": "Ciechan\u00f3w",
                "addr:street": "Stefana Okrzei",
                "addr:housenumber": "6",
                "addr:city:simc": 930414,
                "addr:street:sym_ul": 14914,
                "phone": "+48 236723051",
                "email": "zs3ciech@poczta.onet.pl",
                "website": "http:\/\/www.zs3ciechanow.edu.pl",
                "ref:regon": "386290600",
                "operator": "Powiat Ciechanowski",
                "operator:type": "government",
                "amenity": "school",
                "note": "Parent RSPO: 4189"
            }
        },
        {
            "id": 5121,
            "type": "Feature",
            "geometry": {
                "type": "Point",
                "coordinates": [
                    20.5979,
                    52.88272
                ]
            },
            "properties": {
                "ref:rspo": 5121,
                "official_name": "Poradnia Psychologiczno-Pedagogiczna w Ciechanowie",
                "name": "Poradnia Psychologiczno-Pedagogiczna w Ciechanowie",
                "addr:postcode": "06-400",
                "addr:city": "Ciechan\u00f3w",
                "addr:street": "Wyzwolenia",
                "addr:housenumber": "10A",
                "addr:city:simc": 930414,
                "addr:street:sym_ul": 25133,
                "phone": "+48 236722673",
                "email": "info@pppciechanow.pl",
                "website": "http:\/\/www.ppp.ciechanow.pl",
                "ref:regon": "001005784",
                "operator": "Powiat Ciechanowski",
                "operator:type": "government",
                "healthcare": "counselling",
                "counselling_type": "education",
                "fixme": "w zale\u017cno\u015bci od przedmiotu dzia\u0142alno\u015bci (np. healthcare=counselling + counselling_type=education albo healthcare=psychotherapist)"
            }
        },
        {
            "id": 25725,
            "type": "Feature",
            "geometry": {
                "type": "Point",
                "coordinates": [
                    20.62166,
                    52.88301
                ]
            },
            "properties": {
                "ref:rspo": 25725,
                "official_name": "Przedszkole \"Zamkowe Skrzaty\" z Oddzia\u0142ami Integracyjnymi",
                "name": "Przedszkole \"Zamkowe Skrzaty\" z Oddzia\u0142ami Integracyjnymi",
                "addr:postcode": "06-400",
                "addr:city": "Ciechan\u00f3w",
                "addr:street": "Nadrzeczna",
                "addr:housenumber": "24",
                "addr:city:simc": 930414,
                "addr:street:sym_ul": 13902,
                "phone": "+48 602690273",
                "email": "zamkoweskrzaty@wp.pl",
                "website": "http:\/\/www.zamkoweskrzaty.pl",
                "ref:regon": "146339774",
                "ref:vatin": "PL5660000351",
                "operator": "Barbara Dzienkiewicz",
                "operator:type": "private",
                "amenity": "kindergarten"
            }
        },
        {
            "id": 271838,
            "type": "Feature",
            "geometry": {
                "type": "Point",
                "coordinates": [
                    20.60616,
                    52.88322
                ]
            },
            "properties": {
                "ref:rspo": 271838,
                "official_name": "Niepubliczne Przedszkole \"Alpik\"",
                "name": "Niepubliczne Przedszkole \"Alpik\"",
                "addr:postcode": "06-400",
                "addr:city": "Ciechan\u00f3w",
                "addr:street": "17 Stycznia",
                "addr:housenumber": "54",
                "addr:city:simc": 930414,
                "addr:street:sym_ul": 21445,
                "email": "pytel.magdalena@interia.pl",
                "website": "http:\/\/www.przedszkolealpik.pl",
                "ref:regon": "383689252",
                "operator": "Magdalena Pytel",
                "operator:type": "private",
                "amenity": "kindergarten"
            }
        },
        {
            "id": 129234,
            "type": "Feature",
            "geometry": {
                "type": "Point",
                "coordinates": [
                    20.62994,
                    52.88434
                ]
            },
            "properties": {
                "ref:rspo": 129234,
                "official_name": "Przedszkole Niepubliczne \"Stumilowy Las\"",
                "name": "Przedszkole Niepubliczne \"Stumilowy Las\"",
                "addr:postcode": "06-400",
                "addr:city": "Ciechan\u00f3w",
                "addr:street": "Powsta\u0144c\u00f3w Wielkopolskich",
                "addr:housenumber": "7A",
                "addr:door": "47",
                "addr:city:simc": 930414,
                "addr:street:sym_ul": 17377,
                "email": "pn.stumilowylas@wp.pl",
                "ref:regon": "362520816",
                "operator": "Przedszkole Niepubliczne \"Stumilowy Las\" Sp\u00f3\u0142ka Cywilna",
                "operator:type": "consortium",
                "amenity": "kindergarten"
            }
        },
        {
            "id": 26343,
            "type": "Feature",
            "geometry": {
                "type": "Point",
                "coordinates": [
                    20.5938,
                    52.88468
                ]
            },
            "properties": {
                "ref:rspo": 26343,
                "official_name": "Biblioteka Pedagogiczna w Ciechanowie",
                "name": "Biblioteka Pedagogiczna w Ciechanowie",
                "addr:postcode": "06-400",
                "addr:city": "Ciechan\u00f3w",
                "addr:street": "17 Stycznia",
                "addr:housenumber": "49",
                "addr:city:simc": 930414,
                "addr:street:sym_ul": 21445,
                "phone": "+48 236723377",
                "email": "sekretariat@bpciechanow.edu.pl",
                "website": "http:\/\/www.bpciechanow.edu.pl",
                "ref:regon": "130944743",
                "ref:vatin": "PL5661888864",
                "operator": "Wojew\u00f3dztwo Mazowieckie",
                "operator:type": "government",
                "amenity": "library",
                "note": "Children RSPO: 104393;104394;104395;104396"
            }
        },
        {
            "id": 4079,
            "type": "Feature",
            "geometry": {
                "type": "Point",
                "coordinates": [
                    20.59874,
                    52.88491
                ]
            },
            "properties": {
                "isced:level": "4",
                "ref:rspo": 4079,
                "official_name": "Szko\u0142a Policealna Farmaceutyczna w Ciechanowie",
                "name": "Szko\u0142a Policealna Farmaceutyczna w Ciechanowie",
                "addr:postcode": "06-400",
                "addr:city": "Ciechan\u00f3w",
                "addr:street": "17 Stycznia",
                "addr:housenumber": "66",
                "addr:city:simc": 930414,
                "addr:street:sym_ul": 21445,
                "phone": "+48 784673863",
                "email": "psfciechanow@interia.pl",
                "website": "http:\/\/www.psfciechanow.eu",
                "ref:regon": "146256580",
                "operator": "Spo\u0142eczne Stowarzyszenie Prasoznawcze \"Stopka\" Im. Stanis\u0142awa Zag\u00f3rskiego W \u0141om\u017cy",
                "operator:type": "ngo",
                "amenity": "college"
            }
        },
        {
            "id": 14971,
            "type": "Feature",
            "geometry": {
                "type": "Point",
                "coordinates": [
                    20.59874,
                    52.884879999999995
                ]
            },
            "properties": {
                "isced:level": "3",
                "ref:rspo": 14971,
                "official_name": "I Liceum Og\u00f3lnokszta\u0142c\u0105ce im. Zygmunta Krasi\u0144skiego w Ciechanowie",
                "name": "I Liceum Og\u00f3lnokszta\u0142c\u0105ce",
                "addr:postcode": "06-400",
                "addr:city": "Ciechan\u00f3w",
                "addr:street": "17 Stycznia",
                "addr:housenumber": "66",
                "addr:city:simc": 930414,
                "addr:street:sym_ul": 21445,
                "phone": "+48 236722404",
                "email": "sekretariat@krasiniak.pl",
                "website": "http:\/\/www.krasiniak.pl",
                "ref:regon": "000256633",
                "operator": "Powiat Ciechanowski",
                "operator:type": "government",
                "amenity": "school"
            }
        },
        {
            "id": 3366,
            "type": "Feature",
            "geometry": {
                "type": "Point",
                "coordinates": [
                    20.59523,
                    52.88508
                ]
            },
            "properties": {
                "isced:level": "4",
                "ref:rspo": 3366,
                "official_name": "Policealna Szko\u0142a Zawodowa \"Edukator\" w Ciechanowie",
                "name": "Policealna Szko\u0142a Zawodowa \"Edukator\" w Ciechanowie",
                "addr:postcode": "06-400",
                "addr:city": "Ciechan\u00f3w",
                "addr:street": "17 Stycznia",
                "addr:housenumber": "43",
                "addr:door": "28",
                "addr:city:simc": 930414,
                "addr:street:sym_ul": 21445,
                "email": "ciechanow@ckedukator.pl",
                "website": "http:\/\/www.ciechanow.ckedukator.pl",
                "ref:regon": "146249551",
                "operator": "Stowarzyszenie O\u015bwiatowe Edukator",
                "operator:type": "ngo",
                "amenity": "college"
            }
        },
        {
            "id": 16304,
            "type": "Feature",
            "geometry": {
                "type": "Point",
                "coordinates": [
                    20.59523,
                    52.88505
                ]
            },
            "properties": {
                "isced:level": "3",
                "ref:rspo": 16304,
                "official_name": "Liceum Og\u00f3lnokszta\u0142c\u0105ce dla Doros\u0142ych \"Edukator\" w Ciechanowie",
                "name": "Liceum Og\u00f3lnokszta\u0142c\u0105ce dla Doros\u0142ych \"Edukator\" w Ciechanowie",
                "addr:postcode": "06-400",
                "addr:city": "Ciechan\u00f3w",
                "addr:street": "17 Stycznia",
                "addr:housenumber": "43",
                "addr:door": "28",
                "addr:city:simc": 930414,
                "addr:street:sym_ul": 21445,
                "phone": "+48 503652305",
                "email": "ciechanow@ckedukator.pl",
                "website": "http:\/\/www.ciechanow.ckedukator.pl",
                "ref:regon": "146306378",
                "operator": "Stowarzyszenie O\u015bwiatowe Edukator",
                "operator:type": "ngo",
                "amenity": "school"
            }
        },
        {
            "id": 126498,
            "type": "Feature",
            "geometry": {
                "type": "Point",
                "coordinates": [
                    20.6024851,
                    52.8858116
                ]
            },
            "properties": {
                "isced:level": "1;2",
                "ref:rspo": 126498,
                "official_name": "Szko\u0142a Podstawowa Twp",
                "name": "Szko\u0142a Podstawowa Twp",
                "addr:postcode": "06-400",
                "addr:city": "Ciechan\u00f3w",
                "addr:street": "Ignacego Kraszewskiego",
                "addr:housenumber": "8a",
                "addr:city:simc": 930414,
                "addr:street:sym_ul": 9870,
                "phone": "+48 236728214",
                "email": "szkola@twpciechanow.pl",
                "website": "http:\/\/szkola.twpciechanow.pl",
                "ref:regon": "360384846",
                "ref:vatin": "PL5661369897",
                "operator": "Oddzia\u0142 Regionalny Towarzystwa Wiedzy Powszechnej",
                "operator:type": "ngo",
                "amenity": "school"
            }
        },
        {
            "id": 131677,
            "type": "Feature",
            "geometry": {
                "type": "Point",
                "coordinates": [
                    20.60118,
                    52.88641
                ]
            },
            "properties": {
                "ref:rspo": 131677,
                "official_name": "Centrum Kszta\u0142cenia Zawodowego Bran\u017cy Odzie\u017cowej w Ciechanowie",
                "name": "Centrum Kszta\u0142cenia Zawodowego Bran\u017cy Odzie\u017cowej w Ciechanowie",
                "addr:postcode": "06-400",
                "addr:city": "Ciechan\u00f3w",
                "addr:street": "W\u0142adys\u0142awa Reymonta",
                "addr:housenumber": "2",
                "addr:city:simc": 930414,
                "addr:street:sym_ul": 18648,
                "phone": "+48 696805011",
                "email": "technikumodziezowe@gmail.com",
                "ref:regon": "365328120",
                "operator": "Barbara Rogowska",
                "operator:type": "private",
                "fixme": "w zale\u017cno\u015bci od przedmiotu dzia\u0142alno\u015bci (np. amenity=training + training=*, amenity=dancing_school, amenity=language_school, amenity=music_school) albo amenity=school, amenity=college, albo landuse=education w zale\u017cno\u015bci od tego, jakie plac\u00f3wki wchodz\u0105 w sk\u0142ad zespo\u0142u. Sprawd\u017a, kiedy stosowa\u0107 amenity=* a kiedy landuse=education."
            }
        },
        {
            "id": 6217,
            "type": "Feature",
            "geometry": {
                "type": "Point",
                "coordinates": [
                    20.59963,
                    52.88675
                ]
            },
            "properties": {
                "ref:rspo": 6217,
                "official_name": "Niepubliczne Przedszkole Sto w Ciechanowie",
                "name": "Niepubliczne Przedszkole Sto w Ciechanowie",
                "addr:postcode": "06-400",
                "addr:city": "Ciechan\u00f3w",
                "addr:street": "Stanis\u0142awa Wyspia\u0144skiego",
                "addr:housenumber": "11a",
                "addr:city:simc": 930414,
                "addr:street:sym_ul": 25084,
                "phone": "+48 236722869",
                "email": "szkola.sto@interia.pl",
                "website": "http:\/\/www.stociechanow.pl",
                "ref:regon": "146273584",
                "operator": "Samodzielne Ko\u0142o Terenowe Spo\u0142ecznego Towarzystwa O\u015bwiatowego Nr 76",
                "operator:type": "ngo",
                "amenity": "kindergarten"
            }
        },
        {
            "id": 25740,
            "type": "Feature",
            "geometry": {
                "type": "Point",
                "coordinates": [
                    20.59963,
                    52.88672
                ]
            },
            "properties": {
                "isced:level": "1;2",
                "ref:rspo": 25740,
                "official_name": "Spo\u0142eczna Szko\u0142a Podstawowa Sto z Oddzia\u0142ami Dwuj\u0119zycznymi im. Ireny Sendlerowej w Ciechanowie",
                "name": "Spo\u0142eczna Szko\u0142a Podstawowa Sto z Oddzia\u0142ami Dwuj\u0119zycznymi",
                "addr:postcode": "06-400",
                "addr:city": "Ciechan\u00f3w",
                "addr:street": "Stanis\u0142awa Wyspia\u0144skiego",
                "addr:housenumber": "11A",
                "addr:city:simc": 930414,
                "addr:street:sym_ul": 25084,
                "phone": "+48 236722869",
                "email": "szkola.sto@interia.pl",
                "website": "http:\/\/www.stociechanow.pl",
                "ref:regon": "146335397",
                "ref:vatin": "PL5661012706",
                "operator": "Samodzielne Ko\u0142o Terenowe Spo\u0142ecznego Towarzystwa O\u015bwiatowego Nr 76",
                "operator:type": "ngo",
                "amenity": "school"
            }
        },
        {
            "id": 270695,
            "type": "Feature",
            "geometry": {
                "type": "Point",
                "coordinates": [
                    20.58849,
                    52.88726
                ]
            },
            "properties": {
                "ref:rspo": 270695,
                "official_name": "Niepubliczne Przedszkole Terapeutyczno-Rehabilitacyjne Kindero",
                "name": "Niepubliczne Przedszkole Terapeutyczno-Rehabilitacyjne Kindero",
                "addr:postcode": "06-400",
                "addr:city": "Ciechan\u00f3w",
                "addr:street": "Henryka Sienkiewicza",
                "addr:housenumber": "120B",
                "addr:city:simc": 930414,
                "addr:street:sym_ul": 19834,
                "email": "mbanasiak83@wp.pl",
                "ref:regon": "382859835",
                "operator": "Magdalena Banasiak",
                "operator:type": "private",
                "amenity": "kindergarten"
            }
        },
        {
            "id": 29137,
            "type": "Feature",
            "geometry": {
                "type": "Point",
                "coordinates": [
                    20.6018,
                    52.88868
                ]
            },
            "properties": {
                "isced:level": "1;2",
                "ref:rspo": 29137,
                "official_name": "Szko\u0142a Podstawowa nr 5 im. W\u0142adys\u0142awa Broniewskiego w Ciechanowie",
                "name": "Szko\u0142a Podstawowa nr 5",
                "addr:postcode": "06-400",
                "addr:city": "Ciechan\u00f3w",
                "addr:street": "W\u0142adys\u0142awa Broniewskiego",
                "addr:housenumber": "1",
                "addr:city:simc": 930414,
                "addr:street:sym_ul": 2125,
                "phone": "+48 236738619",
                "email": "sp5c.now@wp.pl",
                "website": "http:\/\/www.sp5ciechanow.edupage.org",
                "ref:regon": "001134145",
                "ref:vatin": "PL5661504125",
                "operator": "Gmina Miejska Ciechan\u00f3w",
                "operator:type": "government",
                "amenity": "school"
            }
        }
    ]
}