{
    "type": "FeatureCollection",
    "features": [
        {
            "id": 60810,
            "type": "Feature",
            "geometry": {
                "type": "Point",
                "coordinates": [
                    20.417146,
                    52.746997
                ]
            },
            "properties": {
                "isced:level": "1;2",
                "ref:rspo": 60810,
                "official_name": "Szko\u0142a Filialna w Malu\u017cynie",
                "name": "Szko\u0142a Filialna w Malu\u017cynie",
                "addr:postcode": "06-452",
                "addr:place": "Malu\u017cyn",
                "addr:housenumber": "55b",
                "addr:teryt:simc": 114732,
                "phone": "+48 236712623",
                "email": "spwolamlocka@o2.pl",
                "website": "http:\/\/spwolamlocka.edupage.org",
                "ref:regon": "115890900",
                "operator": "Gmina Glinojeck",
                "operator:type": "government",
                "amenity": "school",
                "note": "Parent RSPO: 12051"
            }
        },
        {
            "id": 12051,
            "type": "Feature",
            "geometry": {
                "type": "Point",
                "coordinates": [
                    20.468172,
                    52.793591
                ]
            },
            "properties": {
                "isced:level": "1;2",
                "ref:rspo": 12051,
                "official_name": "Szko\u0142a Podstawowa w Woli M\u0142ockiej",
                "name": "Szko\u0142a Podstawowa w Woli M\u0142ockiej",
                "addr:postcode": "06-452",
                "addr:place": "Wola M\u0142ocka",
                "addr:housenumber": "32",
                "addr:teryt:simc": 114940,
                "phone": "+48 236712623",
                "email": "spwolamlocka@o2.pl",
                "website": "http:\/\/www.spwolamlocka.edupage.org",
                "ref:regon": "001158909",
                "ref:vatin": "PL5661617792",
                "operator": "Gmina Glinojeck",
                "operator:type": "government",
                "amenity": "school",
                "note": "Children RSPO: 60810"
            }
        },
        {
            "id": 12892,
            "type": "Feature",
            "geometry": {
                "type": "Point",
                "coordinates": [
                    20.28653,
                    52.81857
                ]
            },
            "properties": {
                "isced:level": "1;2",
                "ref:rspo": 12892,
                "official_name": "Szko\u0142a Podstawowa im. M. Konopnickiej w Glinojecku",
                "name": "Szko\u0142a Podstawowa",
                "addr:postcode": "06-450",
                "addr:city": "Glinojeck",
                "addr:street": "P\u0142ocka",
                "addr:housenumber": "7",
                "addr:teryt:simc": 114620,
                "addr:teryt:sym_ul": 16511,
                "phone": "+48 236740006",
                "email": "spglinojeck@wp.pl",
                "website": "http:\/\/spglinojeck.pl",
                "ref:regon": "000674313",
                "ref:vatin": "PL5661617869",
                "operator": "Gmina Glinojeck",
                "operator:type": "government",
                "amenity": "school"
            }
        },
        {
            "id": 13317,
            "type": "Feature",
            "geometry": {
                "type": "Point",
                "coordinates": [
                    20.2866406,
                    52.8193951
                ]
            },
            "properties": {
                "ref:rspo": 13317,
                "official_name": "Miejsko-Gminne Przedszkole w Glinojecku",
                "name": "Miejsko-Gminne Przedszkole w Glinojecku",
                "addr:postcode": "06-450",
                "addr:city": "Glinojeck",
                "addr:street": "Ciechanowska",
                "addr:housenumber": "8",
                "addr:teryt:simc": 114620,
                "addr:teryt:sym_ul": 2994,
                "phone": "+48 236740064",
                "email": "przedszkole.glinojeck@op.pl",
                "ref:regon": "130004690",
                "ref:vatin": "PL5661373781",
                "operator": "Gmina Glinojeck",
                "operator:type": "government",
                "amenity": "kindergarten"
            }
        },
        {
            "id": 278309,
            "type": "Feature",
            "geometry": {
                "type": "Point",
                "coordinates": [
                    20.28996,
                    52.82083
                ]
            },
            "properties": {
                "ref:rspo": 278309,
                "official_name": "Przedszkole Niepubliczne ,,Smerfolandia\" Wernicki Emil",
                "name": "Przedszkole Niepubliczne ,,Smerfolandia\" Wernicki Emil",
                "addr:postcode": "06-450",
                "addr:city": "Glinojeck",
                "addr:street": "Torfa Za\u0142\u0119skiego",
                "addr:housenumber": "4",
                "addr:teryt:simc": 114620,
                "addr:teryt:sym_ul": 33680,
                "phone": "+48 694359415",
                "email": "smerfolandia@op.pl",
                "ref:regon": "389886315",
                "ref:vatin": "PL5661874299",
                "operator": "Emil Wernicki",
                "operator:type": "private",
                "amenity": "kindergarten"
            }
        },
        {
            "id": 68145,
            "type": "Feature",
            "geometry": {
                "type": "Point",
                "coordinates": [
                    20.4629519,
                    52.8305049
                ]
            },
            "properties": {
                "isced:level": "1;2",
                "ref:rspo": 68145,
                "official_name": "Szko\u0142a Podstawowa im. \u017bo\u0142nierzy Armii Krajowej w O\u015bcis\u0142owie",
                "name": "Szko\u0142a Podstawowa",
                "addr:postcode": "06-452",
                "addr:place": "O\u015bcis\u0142owo",
                "addr:housenumber": "81",
                "addr:teryt:simc": 114761,
                "phone": "+48 236719091",
                "email": "sposcislowo@e-glinojeck.pl",
                "ref:regon": "001158890",
                "ref:vatin": "PL5661617852",
                "operator": "Gmina Glinojeck",
                "operator:type": "government",
                "amenity": "school"
            }
        },
        {
            "id": 77975,
            "type": "Feature",
            "geometry": {
                "type": "Point",
                "coordinates": [
                    20.4629519,
                    52.8304749
                ]
            },
            "properties": {
                "ref:rspo": 77975,
                "official_name": "Punkt Przedszkolny w O\u015bcis\u0142owie",
                "name": "Punkt Przedszkolny w O\u015bcis\u0142owie",
                "addr:postcode": "06-450",
                "addr:place": "O\u015bcis\u0142owo",
                "addr:housenumber": "81",
                "addr:teryt:simc": 114761,
                "phone": "+48 236719091",
                "ref:regon": "146404715",
                "operator": "Gmina Glinojeck",
                "operator:type": "government",
                "amenity": "kindergarten"
            }
        }
    ]
}