{
    "type": "FeatureCollection",
    "features": [
        {
            "id": 6890,
            "type": "Feature",
            "geometry": {
                "type": "Point",
                "coordinates": [
                    20.5041869,
                    52.8409939
                ]
            },
            "properties": {
                "isced:level": "1;2",
                "ref:rspo": 6890,
                "official_name": "Szko\u0142a Podstawowa im. 11 Pu\u0142ku U\u0142an\u00f3w Legionowych w Gumowie",
                "name": "Szko\u0142a Podstawowa",
                "addr:postcode": "06-410",
                "addr:place": "Gumowo",
                "addr:housenumber": "6",
                "addr:city:simc": 112466,
                "phone": "+48 236711921",
                "email": "spgumowo6@wp.pl",
                "website": "http:\/\/www.spgumowo.edupage.org",
                "ref:regon": "001158714",
                "ref:vatin": "PL5661795016",
                "operator": "Gmina Ciechan\u00f3w",
                "operator:type": "government",
                "amenity": "school"
            }
        },
        {
            "id": 24396,
            "type": "Feature",
            "geometry": {
                "type": "Point",
                "coordinates": [
                    20.4690259,
                    52.8885079
                ]
            },
            "properties": {
                "isced:level": "1;2",
                "ref:rspo": 24396,
                "official_name": "Szko\u0142a Podstawowa w Chotumiu",
                "name": "Szko\u0142a Podstawowa w Chotumiu",
                "addr:postcode": "06-400",
                "addr:place": "Chotum",
                "addr:housenumber": "25",
                "addr:city:simc": 112383,
                "phone": "+48 236131290",
                "email": "sp_chotum@op.pl",
                "website": "http:\/\/www.spchotum.edupage.eu",
                "ref:regon": "001158708",
                "ref:vatin": "PL5661786566",
                "operator": "Gmina Ciechan\u00f3w",
                "operator:type": "government",
                "amenity": "school"
            }
        },
        {
            "id": 7966,
            "type": "Feature",
            "geometry": {
                "type": "Point",
                "coordinates": [
                    20.53651,
                    52.895013
                ]
            },
            "properties": {
                "isced:level": "1;2",
                "ref:rspo": 7966,
                "official_name": "Niepubliczna Szko\u0142a Podstawowa w Goryszach",
                "name": "Niepubliczna Szko\u0142a Podstawowa w Goryszach",
                "addr:postcode": "06-400",
                "addr:place": "Gorysze",
                "addr:housenumber": "14",
                "addr:city:simc": 112443,
                "phone": "+48 236725429",
                "email": "sp_gorysze@wp.pl",
                "ref:regon": "146278587",
                "operator": "Stowarzyszenie Na Rzecz Edukacji \"Dzieci Naszym Dobrem\"",
                "operator:type": "ngo",
                "amenity": "school"
            }
        },
        {
            "id": 29094,
            "type": "Feature",
            "geometry": {
                "type": "Point",
                "coordinates": [
                    20.60382,
                    52.9009
                ]
            },
            "properties": {
                "ref:rspo": 29094,
                "official_name": "Przedszkole Niepubliczne \"Piotru\u015b Pan\"",
                "name": "Przedszkole Niepubliczne \"Piotru\u015b Pan\"",
                "addr:postcode": "06-400",
                "addr:city": "Kargoszyn",
                "addr:street": "Wierzbowa",
                "addr:housenumber": "3",
                "addr:city:simc": 112495,
                "addr:street:sym_ul": 24170,
                "phone": "+48 509552977",
                "email": "a.noremberg@vp.pl",
                "ref:regon": "146347236",
                "ref:vatin": "PL5661064531",
                "operator": "Dane Do Uzupe\u0142nienia",
                "operator:type": "private",
                "amenity": "kindergarten"
            }
        }
    ]
}