{
    "type": "FeatureCollection",
    "features": [
        {
            "id": 26400,
            "type": "Feature",
            "geometry": {
                "type": "Point",
                "coordinates": [
                    16.80869,
                    51.76502
                ]
            },
            "properties": {
                "ref:rspo": 26400,
                "official_name": "Przedszkole Samorz\u0105dowe w Poniecu",
                "name": "Przedszkole Samorz\u0105dowe w Poniecu",
                "addr:postcode": "64-125",
                "addr:city": "Poniec",
                "addr:street": "Tadeusza Ko\u015bciuszki",
                "addr:housenumber": "7",
                "addr:teryt:simc": 954596,
                "addr:teryt:sym_ul": 9572,
                "phone": "+48 655731589",
                "email": "przedszkole.poniec@wp.pl",
                "website": "http:\/\/przedszkole-poniec.pl",
                "ref:regon": "000740464",
                "ref:vatin": "PL6961635926",
                "operator": "Gmina Poniec",
                "operator:type": "government",
                "amenity": "kindergarten"
            }
        },
        {
            "id": 26105,
            "type": "Feature",
            "geometry": {
                "type": "Point",
                "coordinates": [
                    16.80384,
                    51.76645
                ]
            },
            "properties": {
                "isced:level": "1;2",
                "ref:rspo": 26105,
                "official_name": "Szko\u0142a Podstawowa im.podpu\u0142kownika Doktora Bernarda \u015aliwi\u0144skiego w Poniecu",
                "name": "Szko\u0142a Podstawowa im.podpu\u0142kownika Doktora Bernarda \u015aliwi\u0144skiego w Poniecu",
                "addr:postcode": "64-125",
                "addr:city": "Poniec",
                "addr:street": "Szkolna",
                "addr:housenumber": "8",
                "addr:teryt:simc": 954596,
                "addr:teryt:sym_ul": 21970,
                "phone": "+48 655731521",
                "email": "godrys@poczta.onet.pl",
                "website": "http:\/\/www.sp.poniec.pl",
                "ref:regon": "000264710",
                "ref:vatin": "PL6961080687",
                "operator": "Gmina Poniec",
                "operator:type": "government",
                "amenity": "school"
            }
        },
        {
            "id": 53416,
            "type": "Feature",
            "geometry": {
                "type": "Point",
                "coordinates": [
                    16.92633,
                    51.80835
                ]
            },
            "properties": {
                "isced:level": "1;2",
                "ref:rspo": 53416,
                "official_name": "Szko\u0142a Podstawowa im. Gen.dyw. Stefana Roweckiego \"Grota\" w \u017bytowiecku",
                "name": "Szko\u0142a Podstawowa",
                "addr:postcode": "63-805",
                "addr:place": "\u017bytowiecko",
                "addr:housenumber": "46",
                "addr:teryt:simc": 375243,
                "phone": "+48 655733428",
                "email": "gimzyto@wp.pl",
                "website": "http:\/\/www.sp-zytowiecko.poniec.pl.",
                "ref:regon": "001117900",
                "ref:vatin": "PL6961737472",
                "operator": "Gmina Poniec",
                "operator:type": "government",
                "amenity": "school"
            }
        },
        {
            "id": 26444,
            "type": "Feature",
            "geometry": {
                "type": "Point",
                "coordinates": [
                    16.8801,
                    51.8289
                ]
            },
            "properties": {
                "ref:rspo": 26444,
                "official_name": "Przedszkole Samorz\u0105dowe w \u0141\u0119ce Wielkiej",
                "name": "Przedszkole Samorz\u0105dowe w \u0141\u0119ce Wielkiej",
                "addr:postcode": "63-805",
                "addr:place": "\u0141\u0119ka Wielka",
                "addr:housenumber": "23",
                "addr:teryt:simc": 375102,
                "phone": "+48 655733419",
                "email": "grazyna.pierzchala@xl.wp.pl",
                "website": "http:\/\/www.bip.poniec.pl",
                "ref:regon": "301805535",
                "ref:vatin": "PL6961872224",
                "operator": "Gmina Poniec",
                "operator:type": "government",
                "amenity": "kindergarten"
            }
        }
    ]
}