{
    "type": "FeatureCollection",
    "features": [
        {
            "id": 60187,
            "type": "Feature",
            "geometry": {
                "type": "Point",
                "coordinates": [
                    16.99256,
                    51.7087
                ]
            },
            "properties": {
                "isced:level": "1;2",
                "ref:rspo": 60187,
                "official_name": "Szko\u0142a Podstawowa w Nieparcie",
                "name": "Szko\u0142a Podstawowa w Nieparcie",
                "addr:country": "PL",
                "addr:postcode": "63-840",
                "addr:place": "Niepart",
                "addr:housenumber": "45",
                "addr:teryt:sym_ul": 372109,
                "contact:phone": "+48 655474202",
                "contact:email": "sekretariat@spniepart.pl",
                "ref:regon": "301175011",
                "ref:vatin": "PL6991931434",
                "operator": "Edukacyjny Zwi\u0105zek Mi\u0119dzygminny Gostkowo-Niepart",
                "operator:type": "government",
                "amenity": "school"
            }
        },
        {
            "id": 56169,
            "type": "Feature",
            "geometry": {
                "type": "Point",
                "coordinates": [
                    16.93335,
                    51.77109
                ]
            },
            "properties": {
                "isced:level": "1;2",
                "ref:rspo": 56169,
                "official_name": "Szko\u0142a Podstawowa im. Stanis\u0142awa Fenrycha w Pudliszkach Z Klasami Integracyjnymi",
                "name": "Szko\u0142a Podstawowa",
                "addr:country": "PL",
                "addr:postcode": "63-842",
                "addr:city": "Pudliszki",
                "addr:street": "Szkolna",
                "addr:housenumber": "20",
                "addr:teryt:simc": 21970,
                "addr:teryt:sym_ul": 372167,
                "contact:phone": "+48 655738152",
                "contact:email": "sekretariat@sppudliszki.pl",
                "contact:website": "http:\/\/www.sppudliszki.pl",
                "ref:regon": "001118264",
                "ref:vatin": "PL6961766580",
                "operator": "Gmina Krobia",
                "operator:type": "government",
                "amenity": "school"
            }
        },
        {
            "id": 56271,
            "type": "Feature",
            "geometry": {
                "type": "Point",
                "coordinates": [
                    16.98522,
                    51.77261
                ]
            },
            "properties": {
                "ref:rspo": 56271,
                "official_name": "Przedszkole Niepubliczne im. B\u0142. Edmunda Bojanowskiego w Krobi",
                "name": "Przedszkole Niepubliczne",
                "addr:country": "PL",
                "addr:postcode": "63-840",
                "addr:city": "Krobia",
                "addr:street": "Jutrosi\u0144ska",
                "addr:housenumber": "11",
                "addr:teryt:simc": 7696,
                "addr:teryt:sym_ul": 954538,
                "contact:email": "przedszkole-e.bojanowski@wp.pl",
                "ref:regon": "302252660",
                "ref:vatin": "PL6961188686",
                "operator": "Jolanta Skowronek",
                "operator:type": "private",
                "amenity": "kindergarten"
            }
        },
        {
            "id": 56555,
            "type": "Feature",
            "geometry": {
                "type": "Point",
                "coordinates": [
                    16.93504,
                    51.77353
                ]
            },
            "properties": {
                "ref:rspo": 56555,
                "official_name": "Przedszkole Samorz\u0105dowe w Pudliszkach",
                "name": "Przedszkole Samorz\u0105dowe w Pudliszkach",
                "addr:country": "PL",
                "addr:postcode": "63-842",
                "addr:city": "Pudliszki",
                "addr:street": "Fabryczna",
                "addr:housenumber": "54",
                "addr:teryt:simc": 4863,
                "addr:teryt:sym_ul": 372167,
                "contact:phone": "+48 655738221",
                "contact:email": "pspudliszki@interia.pl",
                "ref:regon": "411150980",
                "ref:vatin": "PL6961647912",
                "operator": "Gmina Krobia",
                "operator:type": "government",
                "amenity": "kindergarten"
            }
        },
        {
            "id": 56554,
            "type": "Feature",
            "geometry": {
                "type": "Point",
                "coordinates": [
                    16.98776,
                    51.77466
                ]
            },
            "properties": {
                "ref:rspo": 56554,
                "official_name": "Przedszkole Samorz\u0105dowe \"Pod \u015awierkami\" w Krobi",
                "name": "Przedszkole Samorz\u0105dowe \"Pod \u015awierkami\" w Krobi",
                "addr:country": "PL",
                "addr:postcode": "63-840",
                "addr:city": "Krobia",
                "addr:street": "Kobyli\u0144ska",
                "addr:housenumber": "4",
                "addr:teryt:simc": 8703,
                "addr:teryt:sym_ul": 954538,
                "contact:phone": "+48 655711122",
                "contact:email": "przedszkole@krobia.pl",
                "ref:regon": "000928943",
                "ref:vatin": "PL6961647929",
                "operator": "Gmina Krobia",
                "operator:type": "government",
                "amenity": "kindergarten"
            }
        },
        {
            "id": 68449,
            "type": "Feature",
            "geometry": {
                "type": "Point",
                "coordinates": [
                    16.9908,
                    51.77491
                ]
            },
            "properties": {
                "isced:level": "1;2",
                "ref:rspo": 68449,
                "official_name": "Szko\u0142a Podstawowa im. Prof. J\u00f3zefa Zwierzyckiego w Krobi",
                "name": "Szko\u0142a Podstawowa",
                "addr:country": "PL",
                "addr:postcode": "63-840",
                "addr:city": "Krobia",
                "addr:street": "Profesora J\u00f3zefa Zwierzyckiego",
                "addr:housenumber": "1",
                "addr:teryt:simc": 27084,
                "addr:teryt:sym_ul": 954538,
                "contact:phone": "+48 655711716",
                "contact:email": "dyrektor@gimkrobia.pcdn.edu.pl",
                "contact:website": "http:\/\/gimkrobia.pcdn.edu.pl",
                "ref:regon": "411129431",
                "ref:vatin": "PL6961625715",
                "operator": "Gmina Krobia",
                "operator:type": "government",
                "amenity": "school"
            }
        },
        {
            "id": 28190,
            "type": "Feature",
            "geometry": {
                "type": "Point",
                "coordinates": [
                    16.98949,
                    51.77516
                ]
            },
            "properties": {
                "ref:rspo": 28190,
                "official_name": "Zesp\u00f3\u0142 Szk\u00f3\u0142 Og\u00f3lnokszta\u0142c\u0105cych I Zawodowych w Krobi",
                "name": "Zesp\u00f3\u0142 Szk\u00f3\u0142 Og\u00f3lnokszta\u0142c\u0105cych I Zawodowych w Krobi",
                "addr:country": "PL",
                "addr:postcode": "63-840",
                "addr:city": "Krobia",
                "addr:street": "Ogr\u00f3d Ludowy",
                "addr:housenumber": "2",
                "addr:door": "-",
                "addr:teryt:simc": 14853,
                "addr:teryt:sym_ul": 954538,
                "contact:phone": "+48 655711221",
                "contact:email": "zsoizkrobia1@wp.pl",
                "contact:website": "http:\/\/zsoiz-krobia.com",
                "ref:regon": "410318207",
                "ref:vatin": "PL6961387635",
                "operator": "Powiat Gosty\u0144ski",
                "operator:type": "government",
                "landuse": "education",
                "fixme": "amenity=school, amenity=college albo landuse=education w zale\u017cno\u015bci od tego, jakie plac\u00f3wki wchodz\u0105 w sk\u0142ad zespo\u0142u. Sprawd\u017a, kiedy stosowa\u0107 amenity=* a kiedy landuse=education.",
                "note": "Children RSPO: 55591;55592;55593;55594;55598;127845"
            }
        },
        {
            "id": 55591,
            "type": "Feature",
            "geometry": {
                "type": "Point",
                "coordinates": [
                    16.98949,
                    51.77513
                ]
            },
            "properties": {
                "isced:level": "3",
                "ref:rspo": 55591,
                "official_name": "Bran\u017cowa Szko\u0142a I Stopnia im. Ziemi Krobskiej w Zespole Szk\u00f3\u0142 Og\u00f3lnokszta\u0142c\u0105cych I Zawodowych w Krobi",
                "name": "Bran\u017cowa Szko\u0142a I Stopnia",
                "addr:country": "PL",
                "addr:postcode": "63-840",
                "addr:city": "Krobia",
                "addr:street": "Ogr\u00f3d Ludowy",
                "addr:housenumber": "2",
                "addr:teryt:simc": 14853,
                "addr:teryt:sym_ul": 954538,
                "contact:phone": "+48 655711221",
                "contact:email": "zsoizkrobia1@wp.pl",
                "contact:website": "http:\/\/zsoiz-krobia.com",
                "ref:regon": "411493214",
                "operator": "Powiat Gosty\u0144ski",
                "operator:type": "government",
                "amenity": "school",
                "note": "Parent RSPO: 28190"
            }
        },
        {
            "id": 55592,
            "type": "Feature",
            "geometry": {
                "type": "Point",
                "coordinates": [
                    16.98949,
                    51.7751
                ]
            },
            "properties": {
                "isced:level": "3",
                "ref:rspo": 55592,
                "official_name": "Liceum Og\u00f3lnokszta\u0142c\u0105ce im. Ziemi Krobskiej w Zespole Szk\u00f3\u0142 Og\u00f3lnokszta\u0142c\u0105cych I Zawodowych w Krobi",
                "name": "Liceum Og\u00f3lnokszta\u0142c\u0105ce",
                "addr:country": "PL",
                "addr:postcode": "63-840",
                "addr:city": "Krobia",
                "addr:street": "Ogr\u00f3d Ludowy",
                "addr:housenumber": "2",
                "addr:door": "-",
                "addr:teryt:simc": 14853,
                "addr:teryt:sym_ul": 954538,
                "contact:phone": "+48 655711221",
                "contact:email": "zsoizkrobia1@wp.pl",
                "contact:website": "http:\/\/zsoiz-krobia.com",
                "ref:regon": "411493208",
                "operator": "Powiat Gosty\u0144ski",
                "operator:type": "government",
                "amenity": "school",
                "note": "Parent RSPO: 28190"
            }
        },
        {
            "id": 55593,
            "type": "Feature",
            "geometry": {
                "type": "Point",
                "coordinates": [
                    16.98949,
                    51.77507
                ]
            },
            "properties": {
                "isced:level": "3",
                "ref:rspo": 55593,
                "official_name": "Liceum Og\u00f3lnokszta\u0142c\u0105ce dla Doros\u0142ych im. Ziemi Krobskiej w Zespole Szk\u00f3\u0142 Og\u00f3lnokszta\u0142c\u0105cych I Zawodowych w Krobi",
                "name": "Liceum Og\u00f3lnokszta\u0142c\u0105ce dla Doros\u0142ych",
                "addr:country": "PL",
                "addr:postcode": "63-840",
                "addr:city": "Krobia",
                "addr:street": "Ogr\u00f3d Ludowy",
                "addr:housenumber": "2",
                "addr:door": "-",
                "addr:teryt:simc": 14853,
                "addr:teryt:sym_ul": 954538,
                "contact:phone": "+48 655711221",
                "contact:email": "zsoizkrobia1@wp.pl",
                "contact:website": "http:\/\/zsoiz-krobia.com",
                "ref:regon": "411493250",
                "operator": "Powiat Gosty\u0144ski",
                "operator:type": "government",
                "amenity": "school",
                "note": "Parent RSPO: 28190"
            }
        },
        {
            "id": 55594,
            "type": "Feature",
            "geometry": {
                "type": "Point",
                "coordinates": [
                    16.98949,
                    51.77504
                ]
            },
            "properties": {
                "isced:level": "3",
                "ref:rspo": 55594,
                "official_name": "Technikum im. Ziemi Krobskiej w Zespole Szk\u00f3\u0142 Og\u00f3lnokszta\u0142c\u0105cych I Zawodowych w Krobi",
                "name": "Technikum",
                "addr:country": "PL",
                "addr:postcode": "63-840",
                "addr:city": "Krobia",
                "addr:street": "Ogr\u00f3d Ludowy",
                "addr:housenumber": "2",
                "addr:door": "-",
                "addr:teryt:simc": 14853,
                "addr:teryt:sym_ul": 954538,
                "contact:phone": "+48 655711221",
                "contact:email": "zsoizkrobia1@wp.pl",
                "contact:website": "http:\/\/zsoiz-krobia.com",
                "ref:regon": "300614313",
                "operator": "Powiat Gosty\u0144ski",
                "operator:type": "government",
                "amenity": "school",
                "note": "Parent RSPO: 28190"
            }
        },
        {
            "id": 55598,
            "type": "Feature",
            "geometry": {
                "type": "Point",
                "coordinates": [
                    16.98949,
                    51.77501
                ]
            },
            "properties": {
                "isced:level": "4",
                "ref:rspo": 55598,
                "official_name": "Szko\u0142a Policealna w Zespole Szk\u00f3\u0142 Og\u00f3lnokszta\u0142c\u0105cych I Zawodowych w Krobi",
                "name": "Szko\u0142a Policealna w Zespole Szk\u00f3\u0142 Og\u00f3lnokszta\u0142c\u0105cych I Zawodowych w Krobi",
                "addr:country": "PL",
                "addr:postcode": "63-840",
                "addr:city": "Krobia",
                "addr:street": "Ogr\u00f3d Ludowy",
                "addr:housenumber": "2",
                "addr:door": "-",
                "addr:teryt:simc": 14853,
                "addr:teryt:sym_ul": 954538,
                "contact:phone": "+48 655711221",
                "contact:email": "zsoizkrobia1@wp.pl",
                "contact:website": "http:\/\/zsoiz-krobia.com",
                "ref:regon": "300917019",
                "operator": "Powiat Gosty\u0144ski",
                "operator:type": "government",
                "amenity": "college",
                "note": "Parent RSPO: 28190"
            }
        },
        {
            "id": 127845,
            "type": "Feature",
            "geometry": {
                "type": "Point",
                "coordinates": [
                    16.98949,
                    51.77498
                ]
            },
            "properties": {
                "ref:rspo": 127845,
                "official_name": "Centrum Kszta\u0142cenia Zawodowego w Zespole Szk\u00f3\u0142 Og\u00f3lnokszta\u0142c\u0105cych I Zawodowych w Krobi",
                "name": "Centrum Kszta\u0142cenia Zawodowego w Zespole Szk\u00f3\u0142 Og\u00f3lnokszta\u0142c\u0105cych I Zawodowych w Krobi",
                "addr:country": "PL",
                "addr:postcode": "63-840",
                "addr:city": "Krobia",
                "addr:street": "Ogr\u00f3d Ludowy",
                "addr:housenumber": "2",
                "addr:teryt:simc": 14853,
                "addr:teryt:sym_ul": 954538,
                "contact:phone": "+48 655711221",
                "contact:email": "zsoizkrobia1@wp.pl",
                "contact:website": "http:\/\/zsoiz-krobia.com",
                "ref:regon": "361924115",
                "operator": "Powiat Gosty\u0144ski",
                "operator:type": "government",
                "fixme": "w zale\u017cno\u015bci od przedmiotu dzia\u0142alno\u015bci (np. amenity=training + training=*, amenity=dancing_school, amenity=language_school, amenity=music_school) albo amenity=school, amenity=college, albo landuse=education w zale\u017cno\u015bci od tego, jakie plac\u00f3wki wchodz\u0105 w sk\u0142ad zespo\u0142u. Sprawd\u017a, kiedy stosowa\u0107 amenity=* a kiedy landuse=education.",
                "note": "Parent RSPO: 28190"
            }
        },
        {
            "id": 111796,
            "type": "Feature",
            "geometry": {
                "type": "Point",
                "coordinates": [
                    17.0453,
                    51.78945
                ]
            },
            "properties": {
                "isced:level": "1;2",
                "ref:rspo": 111796,
                "official_name": "Szko\u0142a Podstawowa Filialna w Su\u0142kowicach Przy Szkole Podstawowej im. Ziemi Biskupia\u0144skiej w Starej Krobi",
                "name": "Szko\u0142a Podstawowa Filialna w Su\u0142kowicach Przy Szkole Podstawowej",
                "addr:country": "PL",
                "addr:postcode": "63-840",
                "addr:place": "Su\u0142kowice",
                "addr:housenumber": "86",
                "addr:teryt:sym_ul": 372196,
                "contact:phone": "+48 655713115",
                "contact:email": "sp-sulkowice@oswiata.org.pl",
                "ref:regon": "111825800",
                "ref:vatin": "PL6961627536",
                "operator": "Gmina Krobia",
                "operator:type": "government",
                "amenity": "school",
                "note": "Parent RSPO: 86386"
            }
        },
        {
            "id": 119817,
            "type": "Feature",
            "geometry": {
                "type": "Point",
                "coordinates": [
                    17.07208,
                    51.81191
                ]
            },
            "properties": {
                "ref:rspo": 119817,
                "official_name": "Niepubliczne Przedszkole \"Micha\u0142ek\"",
                "name": "Niepubliczne Przedszkole \"Micha\u0142ek\"",
                "addr:country": "PL",
                "addr:postcode": "63-840",
                "addr:place": "Domachowo",
                "addr:housenumber": "77",
                "addr:teryt:sym_ul": 372032,
                "contact:email": "marcinkowska-aga@wp.pl",
                "ref:regon": "302523767",
                "ref:vatin": "PL6961748808",
                "operator": "Agnieszka Marcinkowska",
                "operator:type": "private",
                "amenity": "kindergarten"
            }
        },
        {
            "id": 86386,
            "type": "Feature",
            "geometry": {
                "type": "Point",
                "coordinates": [
                    17.01775,
                    51.81215
                ]
            },
            "properties": {
                "isced:level": "1;2",
                "ref:rspo": 86386,
                "official_name": "Szko\u0142a Podstawowa im. Ziemi Biskupia\u0144skiej w Starej Krobi",
                "name": "Szko\u0142a Podstawowa",
                "addr:country": "PL",
                "addr:postcode": "63-840",
                "addr:place": "Stara Krobia",
                "addr:housenumber": "71",
                "addr:teryt:sym_ul": 372180,
                "contact:phone": "+48 655711703",
                "contact:email": "starkrob@oswiata.org.pl",
                "contact:website": "http:\/\/www.stara.krobia.org",
                "ref:regon": "001118258",
                "ref:vatin": "PL6961627536",
                "operator": "Gmina Krobia",
                "operator:type": "government",
                "amenity": "school",
                "note": "Children RSPO: 111796"
            }
        }
    ]
}