{"type":"FeatureCollection","features":[{"id":29740,"type":"Feature","geometry":{"type":"Point","coordinates":[17.062475204468,51.829853057861]},"properties":{"ref:rspo":29740,"official_name":"Przedszkole Samorz\u0105dowe \"Pod D\u0119bem\" w Karolewie","name":"Przedszkole Samorz\u0105dowe \"Pod D\u0119bem\" w Karolewie","addr:country":"PL","addr:postcode":"63-810","addr:place":"Karolew","addr:housenumber":"4","addr:teryt:sym_ul":369426,"contact:phone":"+48 655716601","contact:email":"pskarolew@borekwlkp.pl","contact:website":"http:\/\/www.przedszkolekarolew.pl","ref:regon":"411142609","ref:vatin":"PL6961635760","operator":"Gmina Borek Wielkopolski","operator:type":"government","amenity":"kindergarten"}},{"id":133564,"type":"Feature","geometry":{"type":"Point","coordinates":[17.062475204468,51.829823057861]},"properties":{"ref:rspo":133564,"official_name":"Zesp\u00f3\u0142 Szkolno-Przedszkolny w Zimnowodzie","name":"Zesp\u00f3\u0142 Szkolno-Przedszkolny w Zimnowodzie","addr:country":"PL","addr:postcode":"63-810","addr:place":"Zimnowoda","addr:housenumber":"7","addr:teryt:sym_ul":369640,"contact:phone":"+48 655717322","contact:email":"spigzimnowoda@poczta.onet.pl","contact:website":"http:\/\/www.szkola-zimnowoda.pl","ref:regon":"367417744","ref:vatin":"PL6961717848","operator":"Gmina Borek Wielkopolski","operator:type":"government","landuse":"education","fixme":"amenity=school, amenity=college albo landuse=education w zale\u017cno\u015bci od tego, jakie plac\u00f3wki wchodz\u0105 w sk\u0142ad zespo\u0142u. Sprawd\u017a, kiedy stosowa\u0107 amenity=* a kiedy landuse=education.","note":"Children RSPO: 43770;133571"}},{"id":271598,"type":"Feature","geometry":{"type":"Point","coordinates":[17.062475204468,51.829793057861]},"properties":{"ref:rspo":271598,"official_name":"Przedszkole Samorz\u0105dowe w Wycis\u0142owie","name":"Przedszkole Samorz\u0105dowe w Wycis\u0142owie","addr:country":"PL","addr:postcode":"63-810","addr:place":"Wycis\u0142owo","addr:housenumber":"66","addr:teryt:sym_ul":369580,"contact:phone":"+48 655716633","contact:email":"spborek@post.pl","ref:regon":"383438283","operator":"Gmina Borek Wielkopolski","operator:type":"government","amenity":"kindergarten","note":"Parent RSPO: 130778"}},{"id":271599,"type":"Feature","geometry":{"type":"Point","coordinates":[17.062475204468,51.829763057861]},"properties":{"ref:rspo":271599,"official_name":"Przedszkole Samorz\u0105dowe w Zalesiu","name":"Przedszkole Samorz\u0105dowe w Zalesiu","addr:country":"PL","addr:postcode":"63-810","addr:place":"Zalesie","addr:housenumber":"13","addr:teryt:sym_ul":369604,"contact:phone":"+48 655716633","contact:email":"spborek@post.pl","ref:regon":"383438337","operator":"Gmina Borek Wielkopolski","operator:type":"government","amenity":"kindergarten","note":"Parent RSPO: 130778"}},{"id":43770,"type":"Feature","geometry":{"type":"Point","coordinates":[17.062475204468,51.829733057861]},"properties":{"isced:level":"1;2","ref:rspo":43770,"official_name":"Szko\u0142a Podstawowa im. Jana Paw\u0142a II w Zimnowodzie","name":"Szko\u0142a Podstawowa","addr:country":"PL","addr:postcode":"63-810","addr:place":"Zimnowoda","addr:housenumber":"7","addr:teryt:sym_ul":369640,"contact:phone":"+48 655717322","contact:email":"spigzimnowoda@poczta.onet.pl","contact:website":"http:\/\/www.szkola-zimnowoda.pl","ref:regon":"001118130","ref:vatin":"PL6961387629","operator":"Gmina Borek Wielkopolski","operator:type":"government","amenity":"school","note":"Parent RSPO: 133564"}},{"id":133571,"type":"Feature","geometry":{"type":"Point","coordinates":[17.062475204468,51.829703057861]},"properties":{"ref:rspo":133571,"official_name":"Przedszkole Samorz\u0105dowe w Zimnowodzie","name":"Przedszkole Samorz\u0105dowe w Zimnowodzie","addr:country":"PL","addr:postcode":"63-810","addr:place":"Zimnowoda","addr:housenumber":"7","addr:teryt:sym_ul":369640,"contact:phone":"+48 655717322","contact:email":"spigzimnowoda@poczta.onet.pl","contact:website":"http:\/\/www.szkola-zimnowoda.pl","ref:regon":"367420373","operator":"Gmina Borek Wielkopolski","operator:type":"government","amenity":"kindergarten","note":"Parent RSPO: 133564"}},{"id":130778,"type":"Feature","geometry":{"type":"Point","coordinates":[17.24026,51.9189099]},"properties":{"ref:rspo":130778,"official_name":"Zesp\u00f3\u0142 Szkolno-Przedszkolny w Borku Wlkp.","name":"Zesp\u00f3\u0142 Szkolno-Przedszkolny w Borku Wlkp.","addr:country":"PL","addr:postcode":"63-810","addr:city":"Borek Wielkopolski","addr:street":"ul. Szkolna","addr:housenumber":"1","addr:teryt:simc":21970,"addr:teryt:sym_ul":954343,"contact:phone":"+48 655716633","contact:email":"spborek@post.pl","contact:website":"http:\/\/spborek.edupage.org","ref:regon":"364494307","ref:vatin":"PL6961881140","operator":"Gmina Borek Wielkopolski","operator:type":"government","landuse":"education","fixme":"amenity=school, amenity=college albo landuse=education w zale\u017cno\u015bci od tego, jakie plac\u00f3wki wchodz\u0105 w sk\u0142ad zespo\u0142u. Sprawd\u017a, kiedy stosowa\u0107 amenity=* a kiedy landuse=education.","note":"Children RSPO: 43766;43767;44091;130779;271598;271599"}},{"id":43766,"type":"Feature","geometry":{"type":"Point","coordinates":[17.24026,51.9188799]},"properties":{"isced:level":"3","ref:rspo":43766,"official_name":"Liceum Og\u00f3lnokszta\u0142c\u0105ce w Borku Wlkp.","name":"Liceum Og\u00f3lnokszta\u0142c\u0105ce w Borku Wlkp.","addr:country":"PL","addr:postcode":"63-810","addr:city":"Borek Wielkopolski","addr:street":"ul. Szkolna","addr:housenumber":"1","addr:teryt:simc":21970,"addr:teryt:sym_ul":954343,"contact:phone":"+48 655716633","contact:email":"spborek@post.pl","contact:website":"http:\/\/zspborek.edupage.org","ref:regon":"411487857","ref:vatin":"PL6961718925","operator":"Gmina Borek Wielkopolski","operator:type":"government","amenity":"school","note":"Parent RSPO: 130778"}},{"id":43767,"type":"Feature","geometry":{"type":"Point","coordinates":[17.24026,51.918849900000005]},"properties":{"isced:level":"3","ref:rspo":43767,"official_name":"Bran\u017cowa Szko\u0142a I Stopnia w Borku Wlkp.","name":"Bran\u017cowa Szko\u0142a I Stopnia w Borku Wlkp.","addr:country":"PL","addr:postcode":"63-810","addr:city":"Borek Wielkopolski","addr:street":"ul. Szkolna","addr:housenumber":"1","addr:teryt:simc":21970,"addr:teryt:sym_ul":954343,"contact:phone":"+48 655716633","contact:email":"spborek@post.pl","contact:website":"http:\/\/zspborek.edupage.org","ref:regon":"411487834","ref:vatin":"PL6961718925","operator":"Gmina Borek Wielkopolski","operator:type":"government","amenity":"school","note":"Parent RSPO: 130778"}},{"id":44091,"type":"Feature","geometry":{"type":"Point","coordinates":[17.24026,51.9188199]},"properties":{"isced:level":"1;2","ref:rspo":44091,"official_name":"Szko\u0142a Podstawowa im. W\u0142adys\u0142awa Jagie\u0142\u0142y w Borku Wlkp.","name":"Szko\u0142a Podstawowa","addr:country":"PL","addr:postcode":"63-810","addr:city":"Borek Wielkopolski","addr:street":"ul. Szkolna","addr:housenumber":"1","addr:teryt:simc":21970,"addr:teryt:sym_ul":954343,"contact:phone":"+48 655716633","contact:email":"spborek@post.pl","contact:website":"http:\/\/zspborek.edupage.org","ref:regon":"000661010","ref:vatin":"PL6961387612","operator":"Gmina Borek Wielkopolski","operator:type":"government","amenity":"school","note":"Parent RSPO: 130778"}},{"id":130779,"type":"Feature","geometry":{"type":"Point","coordinates":[17.24026,51.9187899]},"properties":{"ref:rspo":130779,"official_name":"Przedszkole Samorz\u0105dowe w Borku Wlkp.","name":"Przedszkole Samorz\u0105dowe w Borku Wlkp.","addr:country":"PL","addr:postcode":"63-810","addr:city":"Borek Wielkopolski","addr:street":"ul. Szkolna","addr:housenumber":"1","addr:teryt:simc":21970,"addr:teryt:sym_ul":954343,"contact:phone":"+48 655716633","contact:email":"spborek@post.pl","contact:website":"http:\/\/spborek.edupage.org","ref:regon":"364494595","operator":"Gmina Borek Wielkopolski","operator:type":"government","amenity":"kindergarten","note":"Parent RSPO: 130778"}}]}