{
    "type": "FeatureCollection",
    "features": [
        {
            "id": 28188,
            "type": "Feature",
            "geometry": {
                "type": "Point",
                "coordinates": [
                    17.062475204468,
                    51.829853057861
                ]
            },
            "properties": {
                "ref:rspo": 28188,
                "official_name": "Zesp\u00f3\u0142 Szk\u00f3L Rolniczych w Grabonogu im. Gen. J\u00f3zefa Wybickiego",
                "name": "Zesp\u00f3\u0142 Szk\u00f3L Rolniczych w Grabonogu",
                "addr:postcode": "63-820",
                "addr:place": "Grabon\u00f3g",
                "addr:housenumber": "63",
                "addr:door": "-",
                "addr:city:simc": 374568,
                "phone": "+48 655739146",
                "email": "sekretariat@grabonog.pl",
                "website": "http:\/\/www.grabonog.pl",
                "ref:regon": "000095911",
                "ref:vatin": "PL6961008721",
                "operator": "Powiat Gosty\u0144ski",
                "operator:type": "government",
                "landuse": "education",
                "fixme": "amenity=school, amenity=college albo landuse=education w zale\u017cno\u015bci od tego, jakie plac\u00f3wki wchodz\u0105 w sk\u0142ad zespo\u0142u. Sprawd\u017a, kiedy stosowa\u0107 amenity=* a kiedy landuse=education.",
                "note": "Children RSPO: 53256;53257;53259;53263;119769;119785"
            }
        },
        {
            "id": 53256,
            "type": "Feature",
            "geometry": {
                "type": "Point",
                "coordinates": [
                    17.062475204468,
                    51.829823057861
                ]
            },
            "properties": {
                "isced:level": "3",
                "ref:rspo": 53256,
                "official_name": "Bran\u017cowa Szko\u0142a I Stopnia w Zespole Szk\u00f3\u0142 Rolniczych im. J\u00f3zefa Wybickiego w Grabonogu",
                "name": "Bran\u017cowa Szko\u0142a I Stopnia w Zespole Szk\u00f3\u0142 Rolniczych",
                "addr:postcode": "63-820",
                "addr:place": "Grabon\u00f3g",
                "addr:housenumber": "63",
                "addr:city:simc": 374568,
                "phone": "+48 655739146",
                "email": "sekretariat@grabonog.pl",
                "ref:regon": "411528869",
                "operator": "Powiat Gosty\u0144ski",
                "operator:type": "government",
                "amenity": "school",
                "note": "Parent RSPO: 28188"
            }
        },
        {
            "id": 53257,
            "type": "Feature",
            "geometry": {
                "type": "Point",
                "coordinates": [
                    17.062475204468,
                    51.829793057861
                ]
            },
            "properties": {
                "isced:level": "3",
                "ref:rspo": 53257,
                "official_name": "Liceum Og\u00f3lnokszta\u0142c\u0105ce w Zespole Szk\u00f3\u0142 Rolniczych im. Gen. J\u00f3zefa Wybickiego w Grabonogu",
                "name": "Liceum Og\u00f3lnokszta\u0142c\u0105ce w Zespole Szk\u00f3\u0142 Rolniczych",
                "addr:postcode": "63-820",
                "addr:place": "Grabon\u00f3g",
                "addr:housenumber": "63",
                "addr:door": "-",
                "addr:city:simc": 374568,
                "phone": "+48 655739146",
                "email": "sekretariat@grabonog.pl",
                "ref:regon": "411528875",
                "operator": "Powiat Gosty\u0144ski",
                "operator:type": "government",
                "amenity": "school",
                "note": "Parent RSPO: 28188"
            }
        },
        {
            "id": 53259,
            "type": "Feature",
            "geometry": {
                "type": "Point",
                "coordinates": [
                    17.062475204468,
                    51.829763057861
                ]
            },
            "properties": {
                "isced:level": "3",
                "ref:rspo": 53259,
                "official_name": "Technikum w Zespole Szk\u00f3\u0142 Rolniczych im. Gen. J\u00f3zefa Wybickiego w Grabonogu",
                "name": "Technikum w Zespole Szk\u00f3\u0142 Rolniczych",
                "addr:postcode": "63-820",
                "addr:place": "Grabon\u00f3g",
                "addr:housenumber": "63",
                "addr:city:simc": 374568,
                "phone": "+48 655739146",
                "email": "sekretariat@grabonog.pl",
                "ref:regon": "300598844",
                "operator": "Powiat Gosty\u0144ski",
                "operator:type": "government",
                "amenity": "school",
                "note": "Parent RSPO: 28188"
            }
        },
        {
            "id": 53263,
            "type": "Feature",
            "geometry": {
                "type": "Point",
                "coordinates": [
                    17.062475204468,
                    51.829733057861
                ]
            },
            "properties": {
                "ref:rspo": 53263,
                "official_name": "Centrum Kszta\u0142cenia Zawodowego w Zespole Szk\u00f3\u0142 Rolniczych im. Gen. J\u00f3zefa Wybickiego w Grabonogu",
                "name": "Centrum Kszta\u0142cenia Zawodowego w Zespole Szk\u00f3\u0142 Rolniczych",
                "addr:postcode": "63-820",
                "addr:place": "Grabon\u00f3g",
                "addr:housenumber": "63",
                "addr:door": "-",
                "addr:city:simc": 374568,
                "phone": "+48 655739146",
                "email": "sekretariat@grabonog.pl",
                "ref:regon": "411528912",
                "operator": "Powiat Gosty\u0144ski",
                "operator:type": "government",
                "fixme": "w zale\u017cno\u015bci od przedmiotu dzia\u0142alno\u015bci (np. amenity=training + training=*, amenity=dancing_school, amenity=language_school, amenity=music_school) albo amenity=school, amenity=college, albo landuse=education w zale\u017cno\u015bci od tego, jakie plac\u00f3wki wchodz\u0105 w sk\u0142ad zespo\u0142u. Sprawd\u017a, kiedy stosowa\u0107 amenity=* a kiedy landuse=education.",
                "note": "Parent RSPO: 28188"
            }
        },
        {
            "id": 119769,
            "type": "Feature",
            "geometry": {
                "type": "Point",
                "coordinates": [
                    17.062475204468,
                    51.829703057861
                ]
            },
            "properties": {
                "isced:level": "3",
                "ref:rspo": 119769,
                "official_name": "Liceum Og\u00f3lnokszta\u0142c\u0105ce dla Doros\u0142ych w Zespole Szk\u00f3\u0142 Rolniczych w Grabonogu",
                "name": "Liceum Og\u00f3lnokszta\u0142c\u0105ce dla Doros\u0142ych w Zespole Szk\u00f3\u0142 Rolniczych w Grabonogu",
                "addr:postcode": "63-820",
                "addr:place": "Piaski",
                "addr:housenumber": "63",
                "addr:city:simc": 374657,
                "phone": "+48 655739146",
                "email": "sekretariat@grabonog.pl",
                "ref:regon": "302522868",
                "operator": "Powiat Gosty\u0144ski",
                "operator:type": "government",
                "amenity": "school",
                "note": "Parent RSPO: 28188"
            }
        },
        {
            "id": 119785,
            "type": "Feature",
            "geometry": {
                "type": "Point",
                "coordinates": [
                    17.062475204468,
                    51.829673057861
                ]
            },
            "properties": {
                "isced:level": "4",
                "ref:rspo": 119785,
                "official_name": "Szko\u0142a Policealna w Zespole Szk\u00f3\u0142 Rolniczych w Grabonogu",
                "name": "Szko\u0142a Policealna w Zespole Szk\u00f3\u0142 Rolniczych w Grabonogu",
                "addr:postcode": "63-820",
                "addr:place": "Grabon\u00f3g",
                "addr:housenumber": "63",
                "addr:city:simc": 374568,
                "phone": "+48 655739146",
                "email": "sekretariat@grabonog.pl",
                "ref:regon": "300598703",
                "operator": "Powiat Gosty\u0144ski",
                "operator:type": "government",
                "amenity": "college",
                "note": "Parent RSPO: 28188"
            }
        },
        {
            "id": 107676,
            "type": "Feature",
            "geometry": {
                "type": "Point",
                "coordinates": [
                    17.07072,
                    51.8486
                ]
            },
            "properties": {
                "isced:level": "1;2",
                "ref:rspo": 107676,
                "official_name": "Szko\u0142a Podstawowa z Oddzia\u0142ami Integracyjnymi im. Powsta\u0144c\u00f3w Wielkopolskich w Bodzewie",
                "name": "Szko\u0142a Podstawowa z Oddzia\u0142ami Integracyjnymi",
                "addr:postcode": "63-820",
                "addr:place": "Bodzewo",
                "addr:housenumber": "35",
                "addr:city:simc": 374485,
                "phone": "+48 655730127",
                "email": "spbodzewo@edu.piaski-wlkp.pl",
                "website": "http:\/\/www.spbodzewo.szkolnastrona.pl",
                "ref:regon": "001118169",
                "operator": "Gmina Piaski",
                "operator:type": "government",
                "amenity": "school"
            }
        },
        {
            "id": 86929,
            "type": "Feature",
            "geometry": {
                "type": "Point",
                "coordinates": [
                    17.02556,
                    51.86255
                ]
            },
            "properties": {
                "ref:rspo": 86929,
                "official_name": "Przedszkole Niepubliczne Ochronka im. E. Bojanowskiego w Podrzeczu",
                "name": "Przedszkole Niepubliczne Ochronka",
                "addr:postcode": "63-800",
                "addr:place": "Podrzecze",
                "addr:housenumber": "3",
                "addr:door": "a",
                "addr:city:simc": 374670,
                "phone": "+48 655723552",
                "email": "ochronkapodrzecze@wp.pl",
                "website": "http:\/\/www.ochronka.com",
                "ref:regon": "302273000",
                "ref:vatin": "PL6961709926",
                "operator": "Zgromadzenie Si\u00f3str S\u0142u\u017cebniczek Niepokalanego Pocz\u0119cia Naj\u015bwi\u0119tszej Maryi Panny",
                "operator:type": "religious",
                "amenity": "kindergarten"
            }
        },
        {
            "id": 107641,
            "type": "Feature",
            "geometry": {
                "type": "Point",
                "coordinates": [
                    17.15893,
                    51.8650499
                ]
            },
            "properties": {
                "isced:level": "1;2",
                "ref:rspo": 107641,
                "official_name": "Szko\u0142a Podstawowa im. B\u0142. Edmunda Bojanowskiego w Szelejewie",
                "name": "Szko\u0142a Podstawowa",
                "addr:postcode": "63-820",
                "addr:place": "Szelejewo Pierwsze",
                "addr:housenumber": "87",
                "addr:city:simc": 374781,
                "phone": "+48 655730518",
                "email": "spszelejewo@edu.piaski-wlkp.pl",
                "website": "http:\/\/spszelejewo.pl",
                "ref:regon": "001118070",
                "operator": "Gmina Piaski",
                "operator:type": "government",
                "amenity": "school"
            }
        },
        {
            "id": 278697,
            "type": "Feature",
            "geometry": {
                "type": "Point",
                "coordinates": [
                    17.0668,
                    51.87982
                ]
            },
            "properties": {
                "ref:rspo": 278697,
                "official_name": "Punkt Przedszkolny Terapeutyczne Senso Szkraby",
                "name": "Punkt Przedszkolny Terapeutyczne Senso Szkraby",
                "addr:postcode": "63-820",
                "addr:city": "Piaski",
                "addr:street": "Dworcowa",
                "addr:housenumber": "21",
                "addr:city:simc": 374657,
                "addr:street:sym_ul": 4434,
                "email": "piaski@senso-szkraby.pl",
                "website": "http:\/\/senso-szkraby.pl",
                "ref:regon": "520041090",
                "operator": "Tomasz Kami\u0144ski",
                "operator:type": "private",
                "amenity": "kindergarten"
            }
        },
        {
            "id": 85300,
            "type": "Feature",
            "geometry": {
                "type": "Point",
                "coordinates": [
                    17.06777,
                    51.88246
                ]
            },
            "properties": {
                "ref:rspo": 85300,
                "official_name": "Przedszkole Samorzadowe z Oddzia\u0142ami Integracyjnymi",
                "name": "Przedszkole Samorzadowe z Oddzia\u0142ami Integracyjnymi",
                "addr:postcode": "63-820",
                "addr:city": "Piaski",
                "addr:street": "Dworcowa",
                "addr:housenumber": "25",
                "addr:city:simc": 374657,
                "addr:street:sym_ul": 4434,
                "phone": "+48 655719043",
                "email": "przedszkole@edu.piaski-wlkp.pl",
                "ref:regon": "411158830",
                "ref:vatin": "PL6961655780",
                "operator": "Gmina Piaski",
                "operator:type": "government",
                "amenity": "kindergarten"
            }
        },
        {
            "id": 54208,
            "type": "Feature",
            "geometry": {
                "type": "Point",
                "coordinates": [
                    17.06371,
                    51.88655
                ]
            },
            "properties": {
                "ref:rspo": 54208,
                "official_name": "Przedszkole \"Enart\"",
                "name": "Przedszkole \"Enart\"",
                "addr:postcode": "63-800",
                "addr:city": "Piaski",
                "addr:street": "Drz\u0119czewska",
                "addr:housenumber": "8",
                "addr:city:simc": 374657,
                "addr:street:sym_ul": 4311,
                "phone": "+48 609450668",
                "email": "przedszkole@enart.com.pl",
                "ref:regon": "302251145",
                "ref:vatin": "PL6961470508",
                "operator": "Aurelia Pikulska",
                "operator:type": "private",
                "amenity": "kindergarten"
            }
        },
        {
            "id": 108955,
            "type": "Feature",
            "geometry": {
                "type": "Point",
                "coordinates": [
                    17.06331,
                    51.88773
                ]
            },
            "properties": {
                "isced:level": "1;2",
                "ref:rspo": 108955,
                "official_name": "Szko\u0142a Podstawowa z Oddzia\u0142ami Integracyjnymi im. Miko\u0142aja Kopernika w Piaskach",
                "name": "Szko\u0142a Podstawowa z Oddzia\u0142ami Integracyjnymi",
                "addr:postcode": "63-820",
                "addr:city": "Piaski",
                "addr:street": "Drz\u0119czewska",
                "addr:housenumber": "9",
                "addr:city:simc": 374657,
                "addr:street:sym_ul": 4311,
                "phone": "+48 655719034",
                "email": "sppiaski@edu.piaski-wlkp.pl",
                "ref:regon": "000636815",
                "operator": "Gmina Piaski",
                "operator:type": "government",
                "amenity": "school"
            }
        }
    ]
}