{
    "type": "FeatureCollection",
    "features": [
        {
            "id": 271689,
            "type": "Feature",
            "geometry": {
                "type": "Point",
                "coordinates": [
                    17.9045,
                    50.43555
                ]
            },
            "properties": {
                "ref:rspo": 271689,
                "official_name": "Zesp\u00f3\u0142 Plac\u00f3wek O\u015bwiatowych w Suchej",
                "name": "Zesp\u00f3\u0142 Plac\u00f3wek O\u015bwiatowych w Suchej",
                "addr:postcode": "47-100",
                "addr:city": "Sucha",
                "addr:street": "Ko\u015bcielna",
                "addr:housenumber": "40",
                "addr:teryt:simc": 503356,
                "addr:teryt:sym_ul": 9546,
                "phone": "+48 774636386",
                "email": "sekretariat@zposucha.strzelceopolskie.edu.pl",
                "ref:regon": "383529413",
                "ref:vatin": "PL7561988372",
                "operator": "Gmina Strzelce Opolskie",
                "operator:type": "government",
                "landuse": "education",
                "fixme": "amenity=school, amenity=college albo landuse=education w zale\u017cno\u015bci od tego, jakie plac\u00f3wki wchodz\u0105 w sk\u0142ad zespo\u0142u. Sprawd\u017a, kiedy stosowa\u0107 amenity=* a kiedy landuse=education.",
                "note": "Children RSPO: 12870;271684"
            }
        },
        {
            "id": 12870,
            "type": "Feature",
            "geometry": {
                "type": "Point",
                "coordinates": [
                    17.9045,
                    50.43552
                ]
            },
            "properties": {
                "isced:level": "1;2",
                "ref:rspo": 12870,
                "official_name": "Publiczna Szko\u0142a Podstawowa w Suchej",
                "name": "Publiczna Szko\u0142a Podstawowa w Suchej",
                "addr:postcode": "47-100",
                "addr:city": "Sucha",
                "addr:street": "Ko\u015bcielna",
                "addr:housenumber": "40",
                "addr:teryt:simc": 503356,
                "addr:teryt:sym_ul": 9546,
                "phone": "+48 774636386",
                "email": "sekretariat@zposucha.strzelceopolskie.edu.pl",
                "website": "http:\/\/www.zposucha.strzelceopolskie.edu.pl",
                "ref:regon": "000697952",
                "ref:vatin": "PL7561846608",
                "operator": "Gmina Strzelce Opolskie",
                "operator:type": "government",
                "amenity": "school",
                "note": "Parent RSPO: 271689"
            }
        },
        {
            "id": 13418,
            "type": "Feature",
            "geometry": {
                "type": "Point",
                "coordinates": [
                    17.85136,
                    50.46034
                ]
            },
            "properties": {
                "ref:rspo": 13418,
                "official_name": "Przedszkole Publiczne w Kad\u0142ubie",
                "name": "Przedszkole Publiczne w Kad\u0142ubie",
                "addr:postcode": "47-175",
                "addr:city": "Kad\u0142ub",
                "addr:street": "Wodna",
                "addr:housenumber": "4",
                "addr:teryt:simc": 503132,
                "addr:teryt:sym_ul": 24550,
                "phone": "+48 774636545",
                "email": "sekretariat@zpokadlub.strzelceopolskie.edu.pl",
                "website": "http:\/\/ppkadlub.strzelceopolskie.edu.pl",
                "ref:regon": "530582492",
                "ref:vatin": "PL7561846413",
                "operator": "Gmina Strzelce Opolskie",
                "operator:type": "government",
                "amenity": "kindergarten",
                "note": "Parent RSPO: 7654"
            }
        },
        {
            "id": 7654,
            "type": "Feature",
            "geometry": {
                "type": "Point",
                "coordinates": [
                    17.7968809,
                    50.4675103
                ]
            },
            "properties": {
                "ref:rspo": 7654,
                "official_name": "Zesp\u00f3\u0142 Plac\u00f3wek O\u015bwiatowych w Kad\u0142ubie",
                "name": "Zesp\u00f3\u0142 Plac\u00f3wek O\u015bwiatowych w Kad\u0142ubie",
                "addr:postcode": "47-175",
                "addr:city": "Kad\u0142ub",
                "addr:street": "Powsta\u0144c\u00f3w \u015al\u0105skich",
                "addr:housenumber": "26",
                "addr:teryt:simc": 503132,
                "addr:teryt:sym_ul": 17366,
                "phone": "+48 774636470",
                "email": "sekretariat@zpokadlub.strzelceopolskie.edu.pl",
                "website": "http:\/\/www.zpokadlub.wodip.opole.pl",
                "ref:regon": "161478461",
                "ref:vatin": "PL7561974200",
                "operator": "Gmina Strzelce Opolskie",
                "operator:type": "government",
                "landuse": "education",
                "fixme": "amenity=school, amenity=college albo landuse=education w zale\u017cno\u015bci od tego, jakie plac\u00f3wki wchodz\u0105 w sk\u0142ad zespo\u0142u. Sprawd\u017a, kiedy stosowa\u0107 amenity=* a kiedy landuse=education.",
                "note": "Children RSPO: 13109;13215;13418"
            }
        },
        {
            "id": 13109,
            "type": "Feature",
            "geometry": {
                "type": "Point",
                "coordinates": [
                    17.7968809,
                    50.4674803
                ]
            },
            "properties": {
                "isced:level": "1;2",
                "ref:rspo": 13109,
                "official_name": "Publiczna Szko\u0142a Podstawowa w Kad\u0142ubie",
                "name": "Publiczna Szko\u0142a Podstawowa w Kad\u0142ubie",
                "addr:postcode": "47-175",
                "addr:city": "Kad\u0142ub",
                "addr:street": "Powsta\u0144c\u00f3w \u015al\u0105skich",
                "addr:housenumber": "26",
                "addr:teryt:simc": 503132,
                "addr:teryt:sym_ul": 17366,
                "phone": "+48 774636470",
                "email": "sekretariat@zpokadlub.strzelceopolskie.edu.pl",
                "website": "http:\/\/www.zpokadlub.wodip.opole.pl",
                "ref:regon": "000697923",
                "ref:vatin": "PL7561846560",
                "operator": "Gmina Strzelce Opolskie",
                "operator:type": "government",
                "amenity": "school",
                "note": "Parent RSPO: 7654"
            }
        },
        {
            "id": 271684,
            "type": "Feature",
            "geometry": {
                "type": "Point",
                "coordinates": [
                    17.79231,
                    50.47028
                ]
            },
            "properties": {
                "ref:rspo": 271684,
                "official_name": "Przedszkole Publiczne w Suchej",
                "name": "Przedszkole Publiczne w Suchej",
                "addr:postcode": "47-100",
                "addr:city": "Sucha",
                "addr:street": "Opolska",
                "addr:housenumber": "17",
                "addr:teryt:simc": 503356,
                "addr:teryt:sym_ul": 15095,
                "phone": "+48 774636288",
                "email": "sekretariat@zposucha.strzelceopolskie.edu.pl",
                "ref:regon": "383527704",
                "operator": "Gmina Strzelce Opolskie",
                "operator:type": "government",
                "amenity": "kindergarten",
                "note": "Parent RSPO: 271689"
            }
        },
        {
            "id": 271682,
            "type": "Feature",
            "geometry": {
                "type": "Point",
                "coordinates": [
                    18.40858,
                    50.48835
                ]
            },
            "properties": {
                "ref:rspo": 271682,
                "official_name": "Przedszkole Publiczne w B\u0142otnicy Strzeleckiej",
                "name": "Przedszkole Publiczne w B\u0142otnicy Strzeleckiej",
                "addr:postcode": "47-100",
                "addr:city": "B\u0142otnica Strzelecka",
                "addr:street": "Dworcowa",
                "addr:housenumber": "6",
                "addr:teryt:simc": 503043,
                "addr:teryt:sym_ul": 4434,
                "phone": "+48 774617179",
                "email": "sekretariat@zpoblotnica.strzelceopolskie.edu.pl",
                "website": "http:\/\/zpoblotnica.strzelceopolskie.edu.pl",
                "ref:regon": "383527680",
                "operator": "Gmina Strzelce Opolskie",
                "operator:type": "government",
                "amenity": "kindergarten",
                "note": "Parent RSPO: 271685"
            }
        },
        {
            "id": 271685,
            "type": "Feature",
            "geometry": {
                "type": "Point",
                "coordinates": [
                    18.41442,
                    50.48868
                ]
            },
            "properties": {
                "ref:rspo": 271685,
                "official_name": "Zesp\u00f3\u0142 Plac\u00f3wek O\u015bwiatowych w B\u0142otnicy Strzeleckiej",
                "name": "Zesp\u00f3\u0142 Plac\u00f3wek O\u015bwiatowych w B\u0142otnicy Strzeleckiej",
                "addr:postcode": "47-100",
                "addr:city": "B\u0142otnica Strzelecka",
                "addr:street": "Toszecka",
                "addr:housenumber": "19",
                "addr:teryt:simc": 503043,
                "addr:teryt:sym_ul": 22904,
                "phone": "+48 774617193",
                "email": "sekretariat@zpoblotnica.strzelceopolskie.edu.pl",
                "website": "http:\/\/zpoblotnica.strzelceopolskie.edu.pl",
                "ref:regon": "383529436",
                "ref:vatin": "PL7561988389",
                "operator": "Gmina Strzelce Opolskie",
                "operator:type": "government",
                "landuse": "education",
                "fixme": "amenity=school, amenity=college albo landuse=education w zale\u017cno\u015bci od tego, jakie plac\u00f3wki wchodz\u0105 w sk\u0142ad zespo\u0142u. Sprawd\u017a, kiedy stosowa\u0107 amenity=* a kiedy landuse=education.",
                "note": "Children RSPO: 6185;271682;271683"
            }
        },
        {
            "id": 6185,
            "type": "Feature",
            "geometry": {
                "type": "Point",
                "coordinates": [
                    18.41442,
                    50.48865
                ]
            },
            "properties": {
                "isced:level": "1;2",
                "ref:rspo": 6185,
                "official_name": "Publiczna Szko\u0142a Podstawowa w B\u0142otnicy Strzeleckiej",
                "name": "Publiczna Szko\u0142a Podstawowa w B\u0142otnicy Strzeleckiej",
                "addr:postcode": "47-134",
                "addr:city": "B\u0142otnica Strzelecka",
                "addr:street": "Toszecka",
                "addr:housenumber": "19",
                "addr:teryt:simc": 503043,
                "addr:teryt:sym_ul": 22904,
                "phone": "+48 774617193",
                "email": "sekretariat@zpoblotnica.strzelceopolskie.edu.pl",
                "website": "http:\/\/zpoblotnica.strzelceopolskie.edu.pl",
                "ref:regon": "000698006",
                "ref:vatin": "PL7561846531",
                "operator": "Gmina Strzelce Opolskie",
                "operator:type": "government",
                "amenity": "school",
                "note": "Parent RSPO: 271685"
            }
        },
        {
            "id": 271683,
            "type": "Feature",
            "geometry": {
                "type": "Point",
                "coordinates": [
                    18.37489,
                    50.48917
                ]
            },
            "properties": {
                "ref:rspo": 271683,
                "official_name": "Przedszkole Publiczne w Warm\u0105towicach",
                "name": "Przedszkole Publiczne w Warm\u0105towicach",
                "addr:postcode": "47-100",
                "addr:city": "Warm\u0105towice",
                "addr:street": "B\u0142otnicka",
                "addr:housenumber": "6",
                "addr:teryt:simc": 503439,
                "addr:teryt:sym_ul": 1475,
                "phone": "+48 774617184",
                "email": "sekretariat@zpoblotnica.strzelceopolskie.edu.pl",
                "website": "http:\/\/zpoblotnica.strzelceopolskie.edu.pl",
                "ref:regon": "383527696",
                "operator": "Gmina Strzelce Opolskie",
                "operator:type": "government",
                "amenity": "kindergarten",
                "note": "Parent RSPO: 271685"
            }
        },
        {
            "id": 12447,
            "type": "Feature",
            "geometry": {
                "type": "Point",
                "coordinates": [
                    18.29301,
                    50.49847
                ]
            },
            "properties": {
                "isced:level": "1;2",
                "ref:rspo": 12447,
                "official_name": "Publiczna Szko\u0142a Podstawowa Nr 1 w Strzelcach Opolskich",
                "name": "Publiczna Szko\u0142a Podstawowa Nr 1 w Strzelcach Opolskich",
                "addr:postcode": "47-100",
                "addr:city": "Strzelce Opolskie",
                "addr:street": "Kozielska",
                "addr:housenumber": "34",
                "addr:teryt:simc": 965915,
                "addr:teryt:sym_ul": 9714,
                "phone": "+48 774049430",
                "email": "sekretariat@psp1.strzelceopolskie.edu.pl",
                "website": "http:\/\/psp1.strzelceopolskie.edu.pl",
                "ref:regon": "000697834",
                "ref:vatin": "PL7561846494",
                "operator": "Gmina Strzelce Opolskie",
                "operator:type": "government",
                "amenity": "school"
            }
        },
        {
            "id": 5443,
            "type": "Feature",
            "geometry": {
                "type": "Point",
                "coordinates": [
                    18.29477,
                    50.50258
                ]
            },
            "properties": {
                "ref:rspo": 5443,
                "official_name": "O\u015brodek Promocji Bezpiecze\u0144stwa Promotor",
                "name": "O\u015brodek Promocji Bezpiecze\u0144stwa Promotor",
                "addr:postcode": "47-100",
                "addr:city": "Strzelce Opolskie",
                "addr:street": "Mostowa",
                "addr:housenumber": "8",
                "addr:teryt:simc": 965915,
                "addr:teryt:sym_ul": 13379,
                "phone": "+48 531270339",
                "email": "biuro@opb-promotor.pl",
                "website": "http:\/\/www.opb-promotor.pl",
                "ref:regon": "161477154",
                "operator": "Piotr Piecyk",
                "operator:type": "private",
                "fixme": "w zale\u017cno\u015bci od przedmiotu dzia\u0142alno\u015bci (np. amenity=training + training=*, amenity=dancing_school, amenity=language_school, amenity=music_school)"
            }
        },
        {
            "id": 128346,
            "type": "Feature",
            "geometry": {
                "type": "Point",
                "coordinates": [
                    18.28504,
                    50.50577
                ]
            },
            "properties": {
                "ref:rspo": 128346,
                "official_name": "Niepubliczne Przedszkole Specjalne \"Dobry Start\"",
                "name": "Niepubliczne Przedszkole Specjalne \"Dobry Start\"",
                "addr:postcode": "47-100",
                "addr:city": "Strzelce Opolskie",
                "addr:street": "Kazimierza Wielkiego",
                "addr:housenumber": "12",
                "addr:teryt:simc": 965915,
                "addr:teryt:sym_ul": 8265,
                "phone": "+48 535376879",
                "email": "snrreiron@vp.pl",
                "ref:regon": "362235926",
                "operator": "Stowarzyszenie Na Rzecz Rozwoju Edukacji I Rehabilitacji Os\u00f3b Niepe\u0142nosprawnych",
                "operator:type": "ngo",
                "amenity": "kindergarten"
            }
        },
        {
            "id": 7636,
            "type": "Feature",
            "geometry": {
                "type": "Point",
                "coordinates": [
                    18.18021,
                    50.50659
                ]
            },
            "properties": {
                "ref:rspo": 7636,
                "official_name": "Zesp\u00f3\u0142 Plac\u00f3wek O\u015bwiatowych w Kalinowicach",
                "name": "Zesp\u00f3\u0142 Plac\u00f3wek O\u015bwiatowych w Kalinowicach",
                "addr:postcode": "47-100",
                "addr:city": "Kalinowice",
                "addr:street": "Szkolna",
                "addr:housenumber": "1",
                "addr:teryt:simc": 503184,
                "addr:teryt:sym_ul": 21970,
                "phone": "+48 774617513",
                "email": "sekretariat@zpokalinowice.strzelceopolskie.edu.pl",
                "website": "http:\/\/www.zpo_kalinowice.wodip.opole.pl",
                "ref:regon": "161478432",
                "ref:vatin": "PL7561974163",
                "operator": "Gmina Strzelce Opolskie",
                "operator:type": "government",
                "landuse": "education",
                "fixme": "amenity=school, amenity=college albo landuse=education w zale\u017cno\u015bci od tego, jakie plac\u00f3wki wchodz\u0105 w sk\u0142ad zespo\u0142u. Sprawd\u017a, kiedy stosowa\u0107 amenity=* a kiedy landuse=education.",
                "note": "Children RSPO: 13036;13065"
            }
        },
        {
            "id": 13036,
            "type": "Feature",
            "geometry": {
                "type": "Point",
                "coordinates": [
                    18.18021,
                    50.50656
                ]
            },
            "properties": {
                "isced:level": "1;2",
                "ref:rspo": 13036,
                "official_name": "Publiczna Szko\u0142a Podstawowa w Kalinowicach",
                "name": "Publiczna Szko\u0142a Podstawowa w Kalinowicach",
                "addr:postcode": "47-100",
                "addr:city": "Kalinowice",
                "addr:street": "Szkolna",
                "addr:housenumber": "1",
                "addr:teryt:simc": 503184,
                "addr:teryt:sym_ul": 21970,
                "phone": "+48 774617513",
                "email": "sekretariat@zpokalinowice.strzelceopolskie.edu.pl",
                "website": "http:\/\/www.zpo_kalinowice.wodip.opole.pl",
                "ref:regon": "000697917",
                "ref:vatin": "PL7561846577",
                "operator": "Gmina Strzelce Opolskie",
                "operator:type": "government",
                "amenity": "school",
                "note": "Parent RSPO: 7636"
            }
        },
        {
            "id": 13065,
            "type": "Feature",
            "geometry": {
                "type": "Point",
                "coordinates": [
                    18.18021,
                    50.506530000000005
                ]
            },
            "properties": {
                "ref:rspo": 13065,
                "official_name": "Przedszkole Publiczne w Kalinowicach",
                "name": "Przedszkole Publiczne w Kalinowicach",
                "addr:postcode": "47-100",
                "addr:city": "Kalinowice",
                "addr:street": "Szkolna",
                "addr:housenumber": "1",
                "addr:teryt:simc": 503184,
                "addr:teryt:sym_ul": 21970,
                "phone": "+48 774617513",
                "email": "sekretariat@zpokalinowice.strzelceopolskie.edu.pl",
                "website": "http:\/\/www.zpo_kalinowice.wodip.opole.pl",
                "ref:regon": "530582500",
                "ref:vatin": "PL7561846382",
                "operator": "Gmina Strzelce Opolskie",
                "operator:type": "government",
                "amenity": "kindergarten",
                "note": "Parent RSPO: 7636"
            }
        },
        {
            "id": 64946,
            "type": "Feature",
            "geometry": {
                "type": "Point",
                "coordinates": [
                    18.30854,
                    50.50772
                ]
            },
            "properties": {
                "isced:level": "3",
                "ref:rspo": 64946,
                "official_name": "Liceum Og\u00f3lnokszta\u0142c\u0105ce Z Oddzia\u0142ami Dwuj\u0119zycznymi im. W\u0142adys\u0142awa Broniewskiego w Strzelcach Opolskich",
                "name": "Liceum Og\u00f3lnokszta\u0142c\u0105ce Z Oddzia\u0142ami Dwuj\u0119zycznymi",
                "addr:postcode": "47-100",
                "addr:city": "Strzelce Opolskie",
                "addr:street": "Krakowska",
                "addr:housenumber": "38",
                "addr:teryt:simc": 965915,
                "addr:teryt:sym_ul": 9796,
                "phone": "+48 774612225",
                "email": "sekretariat@lostrzelce.pl",
                "website": "http:\/\/www.lostrzelce.pl",
                "ref:regon": "532402637",
                "ref:vatin": "PL7561249781",
                "operator": "Powiat Strzelecki Strzelce Opolskie",
                "operator:type": "government",
                "amenity": "school"
            }
        },
        {
            "id": 13340,
            "type": "Feature",
            "geometry": {
                "type": "Point",
                "coordinates": [
                    18.3107599,
                    50.50824
                ]
            },
            "properties": {
                "ref:rspo": 13340,
                "official_name": "Przedszkole Publiczne Nr 10 w Strzelcach Opolskich",
                "name": "Przedszkole Publiczne Nr 10 w Strzelcach Opolskich",
                "addr:postcode": "47-100",
                "addr:city": "Strzelce Opolskie",
                "addr:street": "Adama Asnyka",
                "addr:housenumber": "6",
                "addr:teryt:simc": 965915,
                "addr:teryt:sym_ul": 470,
                "phone": "+48 774612051",
                "email": "sekretariat@pp10.strzelceopolskie.edu.pl",
                "website": "http:\/\/www.pp10.strzelceopolskie.edu.pl",
                "ref:regon": "530582457",
                "ref:vatin": "PL7561760686",
                "operator": "Gmina Strzelce Opolskie",
                "operator:type": "government",
                "amenity": "kindergarten"
            }
        },
        {
            "id": 119314,
            "type": "Feature",
            "geometry": {
                "type": "Point",
                "coordinates": [
                    18.33834,
                    50.50934
                ]
            },
            "properties": {
                "ref:rspo": 119314,
                "official_name": "Zesp\u00f3\u0142 Plac\u00f3wek O\u015bwiatowych \"\u00d3semka\" w Strzelcach Opolskich",
                "name": "Zesp\u00f3\u0142 Plac\u00f3wek O\u015bwiatowych \"\u00d3semka\" w Strzelcach Opolskich",
                "addr:postcode": "47-100",
                "addr:city": "Strzelce Opolskie",
                "addr:street": "Ksi\u0119dza J\u00f3zefa Wajdy",
                "addr:housenumber": "3",
                "addr:teryt:simc": 965915,
                "addr:teryt:sym_ul": 54908,
                "phone": "+48 774612882",
                "email": "stowarzyszenie8strzelce@o2.pl",
                "website": "http:\/\/strzeleckaosemka.pl",
                "ref:regon": "161548960",
                "ref:vatin": "PL7561978089",
                "operator": "Stowarzyszenie Na Rzecz Rozwoju Szko\u0142y Specjalnej \"\u00d3semka\"",
                "operator:type": "ngo",
                "landuse": "education",
                "fixme": "amenity=school, amenity=college albo landuse=education w zale\u017cno\u015bci od tego, jakie plac\u00f3wki wchodz\u0105 w sk\u0142ad zespo\u0142u. Sprawd\u017a, kiedy stosowa\u0107 amenity=* a kiedy landuse=education.",
                "note": "Children RSPO: 115614;123942"
            }
        },
        {
            "id": 125371,
            "type": "Feature",
            "geometry": {
                "type": "Point",
                "coordinates": [
                    18.33834,
                    50.50931
                ]
            },
            "properties": {
                "ref:rspo": 125371,
                "official_name": "Punkt Przedszkolny w Niepublicznej Szkole Podstawowej Specjalnej",
                "name": "Punkt Przedszkolny w Niepublicznej Szkole Podstawowej Specjalnej",
                "addr:postcode": "47-100",
                "addr:city": "Strzelce Opolskie",
                "addr:street": "Ksi\u0119dza J\u00f3zefa Wajdy",
                "addr:housenumber": "3",
                "addr:teryt:simc": 965915,
                "addr:teryt:sym_ul": 54908,
                "phone": "+48 774612882",
                "email": "stowarzyszenie8strzelce@tlen.pl",
                "ref:regon": "161608544",
                "operator": "Stowarzyszenie Na Rzecz Rozwoju Szko\u0142y Specjalnej \"\u00d3semka\"",
                "operator:type": "ngo",
                "amenity": "kindergarten"
            }
        },
        {
            "id": 115614,
            "type": "Feature",
            "geometry": {
                "type": "Point",
                "coordinates": [
                    18.33834,
                    50.509280000000004
                ]
            },
            "properties": {
                "isced:level": "1;2",
                "ref:rspo": 115614,
                "official_name": "Niepubliczna Szko\u0142a Podstawowa Specjalna w Strzelcach Opolskich",
                "name": "Niepubliczna Szko\u0142a Podstawowa Specjalna w Strzelcach Opolskich",
                "addr:postcode": "47-100",
                "addr:city": "Strzelce Opolskie",
                "addr:street": "Ksi\u0119dza J\u00f3zefa Wajdy",
                "addr:housenumber": "3",
                "addr:teryt:simc": 965915,
                "addr:teryt:sym_ul": 54908,
                "phone": "+48 774612882",
                "email": "dyrektor_zpo@wp.pl",
                "website": "http:\/\/strzeleckaosemka.pl",
                "ref:regon": "161540757",
                "operator": "Stowarzyszenie Na Rzecz Rozwoju Szko\u0142y Specjalnej \"\u00d3semka\"",
                "operator:type": "ngo",
                "amenity": "school",
                "note": "Parent RSPO: 119314"
            }
        },
        {
            "id": 123942,
            "type": "Feature",
            "geometry": {
                "type": "Point",
                "coordinates": [
                    18.33834,
                    50.50925
                ]
            },
            "properties": {
                "ref:rspo": 123942,
                "official_name": "Niepubliczna Szko\u0142a Specjalna Przysposabiaj\u0105ca Do Pracy w Strzelcach Opolskich",
                "name": "Niepubliczna Szko\u0142a Specjalna Przysposabiaj\u0105ca Do Pracy w Strzelcach Opolskich",
                "addr:postcode": "47-100",
                "addr:city": "Strzelce Opolskie",
                "addr:street": "Ksi\u0119dza J\u00f3zefa Wajdy",
                "addr:housenumber": "3",
                "addr:teryt:simc": 965915,
                "addr:teryt:sym_ul": 54908,
                "phone": "+48 774612882",
                "email": "stowarzyszenie8strzelce@o2.pl",
                "website": "http:\/\/www.nzss-strzelceopolskie.pl\/",
                "ref:regon": "161601051",
                "operator": "Stowarzyszenie Na Rzecz Rozwoju Szko\u0142y Specjalnej \"\u00d3semka\"",
                "operator:type": "ngo",
                "amenity": "school",
                "note": "Parent RSPO: 119314"
            }
        },
        {
            "id": 13627,
            "type": "Feature",
            "geometry": {
                "type": "Point",
                "coordinates": [
                    18.28771,
                    50.50946
                ]
            },
            "properties": {
                "ref:rspo": 13627,
                "official_name": "Przedszkole Publiczne Nr 9 w Strzelcach Opolskich",
                "name": "Przedszkole Publiczne Nr 9 w Strzelcach Opolskich",
                "addr:postcode": "47-100",
                "addr:city": "Strzelce Opolskie",
                "addr:street": "Kardyna\u0142a Stefana Wyszy\u0144skiego",
                "addr:housenumber": "12",
                "addr:teryt:simc": 965915,
                "addr:teryt:sym_ul": 35421,
                "phone": "+48 774613453",
                "email": "sekretariat@pp9.strzelceopolskie.edu.pl",
                "website": "http:\/\/www.pp9.strzelceopolskie.edu.pl",
                "ref:regon": "530582440",
                "ref:vatin": "PL7561846442",
                "operator": "Gmina Strzelce Opolskie",
                "operator:type": "government",
                "amenity": "kindergarten"
            }
        },
        {
            "id": 12765,
            "type": "Feature",
            "geometry": {
                "type": "Point",
                "coordinates": [
                    18.28634,
                    50.51038
                ]
            },
            "properties": {
                "ref:rspo": 12765,
                "official_name": "Przedszkole Publiczne Nr 8 w Strzelcach Opolskich",
                "name": "Przedszkole Publiczne Nr 8 w Strzelcach Opolskich",
                "addr:postcode": "47-100",
                "addr:city": "Strzelce Opolskie",
                "addr:street": "Kardyna\u0142a Stefana Wyszy\u0144skiego",
                "addr:housenumber": "6",
                "addr:teryt:simc": 965915,
                "addr:teryt:sym_ul": 35421,
                "phone": "+48 774613948",
                "email": "przedszkole@pp8.strzelceopolskie.edu.pl",
                "website": "http:\/\/pp8.strzelceopolskie.edu.pl",
                "ref:regon": "530582434",
                "ref:vatin": "PL7561846459",
                "operator": "Gmina Strzelce Opolskie",
                "operator:type": "government",
                "amenity": "kindergarten"
            }
        },
        {
            "id": 20826,
            "type": "Feature",
            "geometry": {
                "type": "Point",
                "coordinates": [
                    18.28419,
                    50.51039
                ]
            },
            "properties": {
                "isced:level": "1;2",
                "ref:rspo": 20826,
                "official_name": "Publiczna Szko\u0142a Podstawowa Nr 7 w Strzelcach Opolskich",
                "name": "Publiczna Szko\u0142a Podstawowa Nr 7 w Strzelcach Opolskich",
                "addr:postcode": "47-100",
                "addr:city": "Strzelce Opolskie",
                "addr:street": "Kardyna\u0142a Stefana Wyszy\u0144skiego",
                "addr:housenumber": "2",
                "addr:teryt:simc": 965915,
                "addr:teryt:sym_ul": 35421,
                "phone": "+48 774621160",
                "email": "sekretariat@psp7.strzelceopolskie.edu.pl",
                "website": "http:\/\/psp7.strzelceopolskie.edu.pl",
                "ref:regon": "001250680",
                "ref:vatin": "PL7561846525",
                "operator": "Gmina Strzelce Opolskie",
                "operator:type": "government",
                "amenity": "school"
            }
        },
        {
            "id": 13609,
            "type": "Feature",
            "geometry": {
                "type": "Point",
                "coordinates": [
                    18.30625,
                    50.51212
                ]
            },
            "properties": {
                "ref:rspo": 13609,
                "official_name": "Poradnia Psychologiczno - Pedagogiczna w Strzelcach Opolskich",
                "name": "Poradnia Psychologiczno - Pedagogiczna w Strzelcach Opolskich",
                "addr:postcode": "47-100",
                "addr:city": "Strzelce Opolskie",
                "addr:street": "Boles\u0142awa Chrobrego",
                "addr:housenumber": "5",
                "addr:teryt:simc": 965915,
                "addr:teryt:sym_ul": 1742,
                "phone": "+48 774613026",
                "email": "sekretariat@ppp.powiatstrzelecki.pl",
                "website": "http:\/\/www.pppstrzelce.szkolnastrona.pl",
                "ref:regon": "000743014",
                "ref:vatin": "PL7561267129",
                "operator": "Powiat Strzelecki Strzelce Opolskie",
                "operator:type": "government",
                "healthcare": "counselling",
                "counselling_type": "education",
                "fixme": "w zale\u017cno\u015bci od przedmiotu dzia\u0142alno\u015bci (np. healthcare=counselling + counselling_type=education albo healthcare=psychotherapist)"
            }
        },
        {
            "id": 59072,
            "type": "Feature",
            "geometry": {
                "type": "Point",
                "coordinates": [
                    18.3069099,
                    50.5125699
                ]
            },
            "properties": {
                "ref:rspo": 59072,
                "official_name": "Przedsi\u0119biorstwo Szkoleniowo-Us\u0142ugowe \"Polifach\" Sp. Z O.o.",
                "name": "Przedsi\u0119biorstwo Szkoleniowo-Us\u0142ugowe \"Polifach\" Sp. Z O.o.",
                "addr:postcode": "47-100",
                "addr:city": "Strzelce Opolskie",
                "addr:street": "Marka Prawego",
                "addr:housenumber": "27",
                "addr:teryt:simc": 965915,
                "addr:teryt:sym_ul": 17455,
                "phone": "+48 774630560",
                "email": "polifach@poczta.onet.pl",
                "website": "http:\/\/www.polifach.pl",
                "ref:regon": "161489884",
                "ref:vatin": "PL7560005048",
                "operator": "Przedsi\u0119biorstwo Szkoleniowo-Us\u0142ugowe \"Polifach\" Sp\u00f3\u0142ka Z Ograniczon\u0105 Odpowiedzialno\u015bci\u0105",
                "operator:type": "private",
                "fixme": "w zale\u017cno\u015bci od przedmiotu dzia\u0142alno\u015bci (np. amenity=training + training=*, amenity=dancing_school, amenity=language_school, amenity=music_school)"
            }
        },
        {
            "id": 12723,
            "type": "Feature",
            "geometry": {
                "type": "Point",
                "coordinates": [
                    18.30185,
                    50.51392
                ]
            },
            "properties": {
                "ref:rspo": 12723,
                "official_name": "Przedszkole Publiczne Nr 4 w Strzelcach Opolskich",
                "name": "Przedszkole Publiczne Nr 4 w Strzelcach Opolskich",
                "addr:postcode": "47-100",
                "addr:city": "Strzelce Opolskie",
                "addr:street": "Marsza\u0142ka J\u00f3zefa Pi\u0142sudskiego",
                "addr:housenumber": "7",
                "addr:teryt:simc": 965915,
                "addr:teryt:sym_ul": 36029,
                "phone": "+48 774613031",
                "email": "sekretariat@pp4.strzelceopolskie.edu.pl",
                "website": "http:\/\/www.pp4.strzelceopolskie.edu.pl",
                "ref:regon": "530582411",
                "ref:vatin": "PL7561846471",
                "operator": "Gmina Strzelce Opolskie",
                "operator:type": "government",
                "amenity": "kindergarten"
            }
        },
        {
            "id": 12790,
            "type": "Feature",
            "geometry": {
                "type": "Point",
                "coordinates": [
                    18.28898,
                    50.51455
                ]
            },
            "properties": {
                "ref:rspo": 12790,
                "official_name": "Przedszkole Publiczne Nr 5 w Strzelcach Opolskich",
                "name": "Przedszkole Publiczne Nr 5 w Strzelcach Opolskich",
                "addr:postcode": "47-100",
                "addr:city": "Strzelce Opolskie",
                "addr:street": "Strzelc\u00f3w Bytomskich",
                "addr:housenumber": "2",
                "addr:teryt:simc": 965915,
                "addr:teryt:sym_ul": 21365,
                "phone": "+48 774614397",
                "email": "sekretariat@pp5.strzelceopolskie.edu.pl",
                "website": "http:\/\/www.pp5strzelceopolskie.wordpress.com",
                "ref:regon": "530582428",
                "ref:vatin": "PL7561846465",
                "operator": "Gmina Strzelce Opolskie",
                "operator:type": "government",
                "amenity": "kindergarten"
            }
        },
        {
            "id": 271687,
            "type": "Feature",
            "geometry": {
                "type": "Point",
                "coordinates": [
                    18.33538,
                    50.51538
                ]
            },
            "properties": {
                "ref:rspo": 271687,
                "official_name": "Zesp\u00f3\u0142 Plac\u00f3wek O\u015bwiatowych w Dziewkowicach",
                "name": "Zesp\u00f3\u0142 Plac\u00f3wek O\u015bwiatowych w Dziewkowicach",
                "addr:postcode": "47-100",
                "addr:city": "Dziewkowice",
                "addr:street": "Strzelecka",
                "addr:housenumber": "3",
                "addr:teryt:simc": 503072,
                "addr:teryt:sym_ul": 21381,
                "phone": "+48 774612746",
                "email": "sekretariat@zpodziewkowice.strzelceopolskie.edu.pl",
                "ref:regon": "383529442",
                "ref:vatin": "PL7561988366",
                "operator": "Gmina Strzelce Opolskie",
                "operator:type": "government",
                "landuse": "education",
                "fixme": "amenity=school, amenity=college albo landuse=education w zale\u017cno\u015bci od tego, jakie plac\u00f3wki wchodz\u0105 w sk\u0142ad zespo\u0142u. Sprawd\u017a, kiedy stosowa\u0107 amenity=* a kiedy landuse=education.",
                "note": "Children RSPO: 13225;13251"
            }
        },
        {
            "id": 13251,
            "type": "Feature",
            "geometry": {
                "type": "Point",
                "coordinates": [
                    18.33538,
                    50.51535
                ]
            },
            "properties": {
                "isced:level": "1;2",
                "ref:rspo": 13251,
                "official_name": "Publiczna Szko\u0142a Podstawowa w Dziewkowicach",
                "name": "Publiczna Szko\u0142a Podstawowa w Dziewkowicach",
                "addr:postcode": "47-100",
                "addr:city": "Dziewkowice",
                "addr:street": "Strzelecka",
                "addr:housenumber": "3",
                "addr:teryt:simc": 503072,
                "addr:teryt:sym_ul": 21381,
                "phone": "+48 774612746",
                "email": "sekretariat@zpodziewkowice.strzelceopolskie.edu.pl",
                "website": "http:\/\/ppdziewkowice.strzelceopolskie.edu.pl",
                "ref:regon": "000697946",
                "ref:vatin": "PL7561846548",
                "operator": "Gmina Strzelce Opolskie",
                "operator:type": "government",
                "amenity": "school",
                "note": "Parent RSPO: 271687"
            }
        },
        {
            "id": 13225,
            "type": "Feature",
            "geometry": {
                "type": "Point",
                "coordinates": [
                    18.3346899,
                    50.51627
                ]
            },
            "properties": {
                "ref:rspo": 13225,
                "official_name": "Przedszkole Publiczne w Dziewkowicach",
                "name": "Przedszkole Publiczne w Dziewkowicach",
                "addr:postcode": "47-100",
                "addr:city": "Dziewkowice",
                "addr:street": "Strzelecka",
                "addr:housenumber": "1",
                "addr:teryt:simc": 503072,
                "addr:teryt:sym_ul": 21381,
                "phone": "+48 774614778",
                "email": "sekretariat@ppdziewkowice.strzelceopolskie.edu.pl",
                "website": "http:\/\/www.ppdziewkowice.strzelceopolskie.edu.pl",
                "ref:regon": "530582470",
                "ref:vatin": "PL7561846436",
                "operator": "Gmina Strzelce Opolskie",
                "operator:type": "government",
                "amenity": "kindergarten",
                "note": "Parent RSPO: 271687"
            }
        },
        {
            "id": 86375,
            "type": "Feature",
            "geometry": {
                "type": "Point",
                "coordinates": [
                    18.31204,
                    50.5175399
                ]
            },
            "properties": {
                "ref:rspo": 86375,
                "official_name": "Pa\u0144stwowa Szko\u0142a Muzyczna I St. w Strzelcach Opolskich",
                "name": "Pa\u0144stwowa Szko\u0142a Muzyczna I St. w Strzelcach Opolskich",
                "addr:postcode": "47-100",
                "addr:city": "Strzelce Opolskie",
                "addr:street": "Jana Matejki",
                "addr:housenumber": "1",
                "addr:teryt:simc": 965915,
                "addr:teryt:sym_ul": 12489,
                "phone": "+48 774613658",
                "email": "sekretariat@psm-strzelceop.pl",
                "website": "http:\/\/www.psm-strzelceop.pl",
                "ref:regon": "000770904",
                "operator": "Ministerstwo Kultury I Dziedzictwa Narodowego",
                "operator:type": "public",
                "amenity": "music_school"
            }
        },
        {
            "id": 268372,
            "type": "Feature",
            "geometry": {
                "type": "Point",
                "coordinates": [
                    18.30253,
                    50.51917
                ]
            },
            "properties": {
                "isced:level": "3",
                "ref:rspo": 268372,
                "official_name": "Niepubliczna Bran\u017cowa Szko\u0142a I Stopnia w Strzelcach Opolskich",
                "name": "Niepubliczna Bran\u017cowa Szko\u0142a I Stopnia w Strzelcach Opolskich",
                "addr:postcode": "47-100",
                "addr:city": "Strzelce Opolskie",
                "addr:street": "Jana Matejki",
                "addr:housenumber": "21",
                "addr:teryt:simc": 965915,
                "addr:teryt:sym_ul": 12489,
                "phone": "+48 774630090",
                "email": "branzowamatejki@gmail.com",
                "website": "http:\/\/branzowamatejki.pl",
                "ref:regon": "381120393",
                "ref:vatin": "PL7561988308",
                "operator": "Spo\u0142eczno-O\u015bwiatowe Stowarzyszenie Menad\u017cer\u00f3w",
                "operator:type": "ngo",
                "amenity": "school"
            }
        },
        {
            "id": 7726,
            "type": "Feature",
            "geometry": {
                "type": "Point",
                "coordinates": [
                    18.21971,
                    50.53663
                ]
            },
            "properties": {
                "isced:level": "1;2",
                "ref:rspo": 7726,
                "official_name": "Publiczna Szko\u0142a Podstawowa w Szymiszowie",
                "name": "Publiczna Szko\u0142a Podstawowa w Szymiszowie",
                "addr:postcode": "47-100",
                "addr:city": "Szymisz\u00f3w",
                "addr:street": "Szkolna",
                "addr:housenumber": "2",
                "addr:teryt:simc": 503385,
                "addr:teryt:sym_ul": 21970,
                "phone": "+48 774617714",
                "email": "sekretariat@pspszymiszszow.strzelceopolskie.edu.pl",
                "ref:regon": "000697975",
                "ref:vatin": "PL7561846614",
                "operator": "Gmina Strzelce Opolskie",
                "operator:type": "government",
                "amenity": "school"
            }
        },
        {
            "id": 22144,
            "type": "Feature",
            "geometry": {
                "type": "Point",
                "coordinates": [
                    18.22875,
                    50.55639
                ]
            },
            "properties": {
                "isced:level": "1;2",
                "ref:rspo": 22144,
                "official_name": "Publiczna Szko\u0142a Podstawowa Nr 4 w Strzelcach Opolskich",
                "name": "Publiczna Szko\u0142a Podstawowa Nr 4 w Strzelcach Opolskich",
                "addr:postcode": "47-100",
                "addr:city": "Strzelce Opolskie",
                "addr:street": "Sosnowa",
                "addr:housenumber": "3",
                "addr:teryt:simc": 965915,
                "addr:teryt:sym_ul": 20598,
                "phone": "+48 774049210",
                "email": "sekretariat@psp4.strzelceopolskie.edu.pl",
                "website": "http:\/\/www.psp4.strzelceopolskie.edu.pl",
                "ref:regon": "000697863",
                "ref:vatin": "PL7561846519",
                "operator": "Gmina Strzelce Opolskie",
                "operator:type": "government",
                "amenity": "school"
            }
        },
        {
            "id": 6072,
            "type": "Feature",
            "geometry": {
                "type": "Point",
                "coordinates": [
                    18.24783,
                    50.55818
                ]
            },
            "properties": {
                "ref:rspo": 6072,
                "official_name": "Centrum Kszta\u0142cenia Zawodowego I Ustawicznego w Strzelcach Opolskich",
                "name": "Centrum Kszta\u0142cenia Zawodowego I Ustawicznego w Strzelcach Opolskich",
                "addr:postcode": "47-100",
                "addr:city": "Strzelce Opolskie",
                "addr:street": "Powsta\u0144c\u00f3w \u015al\u0105skich",
                "addr:housenumber": "3",
                "addr:teryt:simc": 965915,
                "addr:teryt:sym_ul": 17366,
                "phone": "+48 774612701",
                "email": "ckziu@ckziu-strzelce.pl",
                "website": "http:\/\/www.ckziu-strzelce.pl",
                "ref:regon": "000743155",
                "ref:vatin": "PL7561285512",
                "operator": "Powiat Strzelecki Strzelce Opolskie",
                "operator:type": "government",
                "landuse": "education",
                "fixme": "amenity=school, amenity=college albo landuse=education w zale\u017cno\u015bci od tego, jakie plac\u00f3wki wchodz\u0105 w sk\u0142ad zespo\u0142u. Sprawd\u017a, kiedy stosowa\u0107 amenity=* a kiedy landuse=education.",
                "note": "Children RSPO: 8406;8407;8797;110991"
            }
        },
        {
            "id": 8406,
            "type": "Feature",
            "geometry": {
                "type": "Point",
                "coordinates": [
                    18.24783,
                    50.55815
                ]
            },
            "properties": {
                "isced:level": "3",
                "ref:rspo": 8406,
                "official_name": "Technikum w Strzelcach Opolskich",
                "name": "Technikum w Strzelcach Opolskich",
                "addr:postcode": "47-100",
                "addr:city": "Strzelce Opolskie",
                "addr:street": "Powsta\u0144c\u00f3w \u015al\u0105skich",
                "addr:housenumber": "3",
                "addr:teryt:simc": 965915,
                "addr:teryt:sym_ul": 17366,
                "phone": "+48 774612701",
                "email": "ckziu@ckziu-strzelce.pl",
                "website": "http:\/\/ckziu-strzelce.pl",
                "ref:regon": "532335697",
                "operator": "Powiat Strzelecki Strzelce Opolskie",
                "operator:type": "government",
                "amenity": "school",
                "note": "Parent RSPO: 6072"
            }
        },
        {
            "id": 8407,
            "type": "Feature",
            "geometry": {
                "type": "Point",
                "coordinates": [
                    18.24783,
                    50.55812
                ]
            },
            "properties": {
                "isced:level": "3",
                "ref:rspo": 8407,
                "official_name": "Bran\u017cowa Szko\u0142a I Stopnia w Strzelcach Opolskich",
                "name": "Bran\u017cowa Szko\u0142a I Stopnia w Strzelcach Opolskich",
                "addr:postcode": "47-100",
                "addr:city": "Strzelce Opolskie",
                "addr:street": "Powsta\u0144c\u00f3w \u015al\u0105skich",
                "addr:housenumber": "3",
                "addr:teryt:simc": 965915,
                "addr:teryt:sym_ul": 17366,
                "phone": "+48 774612701",
                "email": "ckziu@ckziu-strzelce.pl",
                "website": "http:\/\/www.ckziu-strzelce.pl",
                "ref:regon": "532335705",
                "operator": "Powiat Strzelecki Strzelce Opolskie",
                "operator:type": "government",
                "amenity": "school",
                "note": "Parent RSPO: 6072"
            }
        },
        {
            "id": 8797,
            "type": "Feature",
            "geometry": {
                "type": "Point",
                "coordinates": [
                    18.24783,
                    50.55809
                ]
            },
            "properties": {
                "ref:rspo": 8797,
                "official_name": "Centrum Kszta\u0142cenia Ustawicznego w Strzelcach Opolskich",
                "name": "Centrum Kszta\u0142cenia Ustawicznego w Strzelcach Opolskich",
                "addr:postcode": "47-100",
                "addr:city": "Strzelce Opolskie",
                "addr:street": "Powsta\u0144c\u00f3w \u015al\u0105skich",
                "addr:housenumber": "3",
                "addr:teryt:simc": 965915,
                "addr:teryt:sym_ul": 17366,
                "phone": "+48 774612701",
                "email": "ckziu@ckziu-strzelce.pl",
                "website": "http:\/\/ckziu-strzelce.pl",
                "ref:regon": "161478828",
                "operator": "Powiat Strzelecki Strzelce Opolskie",
                "operator:type": "government",
                "fixme": "w zale\u017cno\u015bci od przedmiotu dzia\u0142alno\u015bci (np. amenity=training + training=*, amenity=dancing_school, amenity=language_school, amenity=music_school)",
                "note": "Parent RSPO: 6072"
            }
        },
        {
            "id": 110991,
            "type": "Feature",
            "geometry": {
                "type": "Point",
                "coordinates": [
                    18.24783,
                    50.55806
                ]
            },
            "properties": {
                "isced:level": "3",
                "ref:rspo": 110991,
                "official_name": "Liceum Og\u00f3lnokszta\u0142c\u0105ce dla Doros\u0142ych w Strzelcach Opolskich",
                "name": "Liceum Og\u00f3lnokszta\u0142c\u0105ce dla Doros\u0142ych w Strzelcach Opolskich",
                "addr:postcode": "47-100",
                "addr:city": "Strzelce Opolskie",
                "addr:street": "Powsta\u0144c\u00f3w \u015al\u0105skich",
                "addr:housenumber": "3",
                "addr:teryt:simc": 965915,
                "addr:teryt:sym_ul": 17366,
                "phone": "+48 774612701",
                "email": "ckziu@ckziu-strzelce.pl",
                "website": "http:\/\/www.ckziu-strzelce.pl\/",
                "ref:regon": "161514553",
                "operator": "Powiat Strzelecki Strzelce Opolskie",
                "operator:type": "government",
                "amenity": "school",
                "note": "Parent RSPO: 6072"
            }
        },
        {
            "id": 271688,
            "type": "Feature",
            "geometry": {
                "type": "Point",
                "coordinates": [
                    18.26906,
                    50.56054
                ]
            },
            "properties": {
                "ref:rspo": 271688,
                "official_name": "Zesp\u00f3\u0142 Plac\u00f3wek O\u015bwiatowych w Rozmierce",
                "name": "Zesp\u00f3\u0142 Plac\u00f3wek O\u015bwiatowych w Rozmierce",
                "addr:postcode": "47-100",
                "addr:city": "Rozmierka",
                "addr:street": "Szkolna",
                "addr:housenumber": "3",
                "addr:teryt:simc": 503296,
                "addr:teryt:sym_ul": 21970,
                "phone": "+48 774636395",
                "email": "sekretariat@zporozmierka.strzelceopolskie.edu.pl",
                "website": "https:\/\/zporozmierka.strzelceopolskie.edu.pl",
                "ref:regon": "383529502",
                "operator": "Gmina Strzelce Opolskie",
                "operator:type": "government",
                "landuse": "education",
                "fixme": "amenity=school, amenity=college albo landuse=education w zale\u017cno\u015bci od tego, jakie plac\u00f3wki wchodz\u0105 w sk\u0142ad zespo\u0142u. Sprawd\u017a, kiedy stosowa\u0107 amenity=* a kiedy landuse=education.",
                "note": "Children RSPO: 13364;13583"
            }
        },
        {
            "id": 13583,
            "type": "Feature",
            "geometry": {
                "type": "Point",
                "coordinates": [
                    18.26906,
                    50.56051
                ]
            },
            "properties": {
                "isced:level": "1;2",
                "ref:rspo": 13583,
                "official_name": "Publiczna Szko\u0142a Podstawowa w Rozmierce",
                "name": "Publiczna Szko\u0142a Podstawowa w Rozmierce",
                "addr:postcode": "47-171",
                "addr:city": "Rozmierka",
                "addr:street": "Szkolna",
                "addr:housenumber": "3",
                "addr:teryt:simc": 503296,
                "addr:teryt:sym_ul": 21970,
                "phone": "+48 774636395",
                "email": "sekretariat@zporozmierka.strzelceopolskie.edu.pl",
                "website": "http:\/\/www.psprozmierka.szkolnastrona.pl",
                "ref:regon": "000697900",
                "ref:vatin": "PL7561846583",
                "operator": "Gmina Strzelce Opolskie",
                "operator:type": "government",
                "amenity": "school",
                "note": "Parent RSPO: 271688"
            }
        },
        {
            "id": 13364,
            "type": "Feature",
            "geometry": {
                "type": "Point",
                "coordinates": [
                    18.27173,
                    50.56076
                ]
            },
            "properties": {
                "ref:rspo": 13364,
                "official_name": "Przedszkole Publiczne w Rozmierce",
                "name": "Przedszkole Publiczne w Rozmierce",
                "addr:postcode": "47-100",
                "addr:city": "Rozmierka",
                "addr:street": "Strzelecka",
                "addr:housenumber": "33",
                "addr:teryt:simc": 503296,
                "addr:teryt:sym_ul": 21381,
                "phone": "+48 774636395",
                "email": "sekretariat@zporozmierka.strzelceopolskie.edu.pl",
                "ref:regon": "530582523",
                "ref:vatin": "PL7561846407",
                "operator": "Gmina Strzelce Opolskie",
                "operator:type": "government",
                "amenity": "kindergarten",
                "note": "Parent RSPO: 271688"
            }
        },
        {
            "id": 5739,
            "type": "Feature",
            "geometry": {
                "type": "Point",
                "coordinates": [
                    18.2368,
                    50.58549
                ]
            },
            "properties": {
                "isced:level": "1;2",
                "ref:rspo": 5739,
                "official_name": "Niepubliczna Szko\u0142a Podstawowa w Grodzisku",
                "name": "Niepubliczna Szko\u0142a Podstawowa w Grodzisku",
                "addr:postcode": "47-175",
                "addr:city": "Grodzisko",
                "addr:street": "G\u0142\u00f3wna",
                "addr:housenumber": "35",
                "addr:teryt:simc": 503089,
                "addr:teryt:sym_ul": 5635,
                "phone": "+48 774636492",
                "email": "nspg@op.pl",
                "website": "http:\/\/www.nspgrodzisko.edu.pl",
                "ref:regon": "161477970",
                "operator": "Stowarzyszenie Rozwoju Wsi Grodzisko",
                "operator:type": "ngo",
                "amenity": "school"
            }
        },
        {
            "id": 13215,
            "type": "Feature",
            "geometry": {
                "type": "Point",
                "coordinates": [
                    18.30406,
                    50.5917699
                ]
            },
            "properties": {
                "ref:rspo": 13215,
                "official_name": "Przedszkole Publiczne w Osieku",
                "name": "Przedszkole Publiczne w Osieku",
                "addr:postcode": "47-175",
                "addr:city": "Osiek",
                "addr:street": "Strzelecka",
                "addr:housenumber": "1",
                "addr:teryt:simc": 503250,
                "addr:teryt:sym_ul": 21381,
                "phone": "+48 774636419",
                "email": "sekretariat@zpokadlub.strzelceopolskie.edu.pl",
                "website": "http:\/\/www.zpokadlub.wodip.opole.pl",
                "ref:regon": "530582517",
                "ref:vatin": "PL7561846399",
                "operator": "Gmina Strzelce Opolskie",
                "operator:type": "government",
                "amenity": "kindergarten",
                "note": "Parent RSPO: 7654"
            }
        },
        {
            "id": 49206,
            "type": "Feature",
            "geometry": {
                "type": "Point",
                "coordinates": [
                    18.25825,
                    50.6102
                ]
            },
            "properties": {
                "ref:rspo": 49206,
                "official_name": "Zesp\u00f3\u0142 Szk\u00f3\u0142 Specjalnych Przy Domu Pomocy Spo\u0142ecznej w Kad\u0142ubie",
                "name": "Zesp\u00f3\u0142 Szk\u00f3\u0142 Specjalnych Przy Domu Pomocy Spo\u0142ecznej w Kad\u0142ubie",
                "addr:postcode": "47-175",
                "addr:city": "Kad\u0142ub",
                "addr:street": "Zamkowa",
                "addr:housenumber": "5",
                "addr:teryt:simc": 503132,
                "addr:teryt:sym_ul": 25547,
                "phone": "+48 774026319",
                "email": "zsskadlub@wp.pl",
                "website": "http:\/\/www.zsskadlub.szkolnastrona.pl",
                "ref:regon": "531552398",
                "ref:vatin": "PL7561768802",
                "operator": "Powiat Strzelecki Strzelce Opolskie",
                "operator:type": "government",
                "landuse": "education",
                "fixme": "amenity=school, amenity=college albo landuse=education w zale\u017cno\u015bci od tego, jakie plac\u00f3wki wchodz\u0105 w sk\u0142ad zespo\u0142u. Sprawd\u017a, kiedy stosowa\u0107 amenity=* a kiedy landuse=education.",
                "note": "Children RSPO: 62390;62393"
            }
        },
        {
            "id": 62390,
            "type": "Feature",
            "geometry": {
                "type": "Point",
                "coordinates": [
                    18.25825,
                    50.61017
                ]
            },
            "properties": {
                "isced:level": "1;2",
                "ref:rspo": 62390,
                "official_name": "Szko\u0142a Podstawowa Specjalna im.s.zofii Moroz Przy Domu Pomocy Spo\u0142ecznej w Kad\u0142ubie",
                "name": "Szko\u0142a Podstawowa Specjalna im.s.zofii Moroz Przy Domu Pomocy Spo\u0142ecznej w Kad\u0142ubie",
                "addr:postcode": "47-175",
                "addr:city": "Kad\u0142ub",
                "addr:street": "Zamkowa",
                "addr:housenumber": "5",
                "addr:teryt:simc": 503132,
                "addr:teryt:sym_ul": 25547,
                "phone": "+48 774026319",
                "email": "zsskadlub@wp.pl",
                "website": "http:\/\/www.zsskadlub.szkolnastrona.pl",
                "ref:regon": "532211015",
                "operator": "Powiat Strzelecki Strzelce Opolskie",
                "operator:type": "government",
                "amenity": "school",
                "note": "Parent RSPO: 49206"
            }
        },
        {
            "id": 62393,
            "type": "Feature",
            "geometry": {
                "type": "Point",
                "coordinates": [
                    18.25825,
                    50.61014
                ]
            },
            "properties": {
                "ref:rspo": 62393,
                "official_name": "Szko\u0142a Specjalna Przysposabiaj\u0105ca Do Pracy im. S. Zofii Moroz Przy Domu Pomocy Spo\u0142ecznej w Kad\u0142ubie",
                "name": "Szko\u0142a Specjalna Przysposabiaj\u0105ca Do Pracy",
                "addr:postcode": "47-175",
                "addr:city": "Kad\u0142ub",
                "addr:street": "Zamkowa",
                "addr:housenumber": "5",
                "addr:teryt:simc": 503132,
                "addr:teryt:sym_ul": 25547,
                "phone": "+48 774026319",
                "email": "zsskadlub@wp.pl",
                "website": "http:\/\/www.zsskadlub.szkolnastrona.pl",
                "ref:regon": "532458810",
                "operator": "Powiat Strzelecki Strzelce Opolskie",
                "operator:type": "government",
                "amenity": "school",
                "note": "Parent RSPO: 49206"
            }
        }
    ]
}