{
    "type": "FeatureCollection",
    "features": [
        {
            "id": 10251,
            "type": "Feature",
            "geometry": {
                "type": "Point",
                "coordinates": [
                    18.35649,
                    50.4270799
                ]
            },
            "properties": {
                "isced:level": "1;2",
                "ref:rspo": 10251,
                "official_name": "Publiczna Szko\u0142a Podstawowa w Jaryszowie",
                "name": "Publiczna Szko\u0142a Podstawowa w Jaryszowie",
                "addr:postcode": "47-143",
                "addr:city": "Jarysz\u00f3w",
                "addr:street": "Stawowa",
                "addr:housenumber": "1",
                "addr:city:simc": 504321,
                "addr:street:sym_ul": 21101,
                "phone": "+48 774637450",
                "email": "sekretariat@pspjaryszow.pl",
                "website": "https:\/\/www.pspjaryszow.pl\/",
                "ref:regon": "001195945",
                "ref:vatin": "PL7561815022",
                "operator": "Gmina Ujazd",
                "operator:type": "government",
                "amenity": "school",
                "note": "Children RSPO: 110205"
            }
        },
        {
            "id": 55487,
            "type": "Feature",
            "geometry": {
                "type": "Point",
                "coordinates": [
                    18.31265,
                    50.43926
                ]
            },
            "properties": {
                "isced:level": "1;2",
                "ref:rspo": 55487,
                "official_name": "Filia Publicznej Szko\u0142y Podstawowej w Olszowej z Siedzib\u0105 w Zimnej W\u00f3dce",
                "name": "Filia Publicznej Szko\u0142y Podstawowej w Olszowej z Siedzib\u0105 w Zimnej W\u00f3dce",
                "addr:postcode": "47-143",
                "addr:city": "Zimna W\u00f3dka",
                "addr:street": "Strzelecka",
                "addr:housenumber": "2",
                "addr:city:simc": 504479,
                "addr:street:sym_ul": 21381,
                "phone": "+48 774637870",
                "ref:regon": "119596800",
                "ref:vatin": "PL7561815039",
                "operator": "Gmina Ujazd",
                "operator:type": "government",
                "amenity": "school",
                "note": "Parent RSPO: 10250"
            }
        },
        {
            "id": 10250,
            "type": "Feature",
            "geometry": {
                "type": "Point",
                "coordinates": [
                    18.27626,
                    50.45554
                ]
            },
            "properties": {
                "isced:level": "1;2",
                "ref:rspo": 10250,
                "official_name": "Publiczna Szko\u0142a Podstawowa w Olszowej",
                "name": "Publiczna Szko\u0142a Podstawowa w Olszowej",
                "addr:postcode": "47-143",
                "addr:city": "Olszowa",
                "addr:street": "Szkolna",
                "addr:housenumber": "7",
                "addr:city:simc": 504380,
                "addr:street:sym_ul": 21970,
                "phone": "+48 774637412",
                "email": "info@pspolszowa.pl",
                "ref:regon": "001195968",
                "ref:vatin": "PL7561815039",
                "operator": "Gmina Ujazd",
                "operator:type": "government",
                "amenity": "school",
                "note": "Children RSPO: 55487"
            }
        },
        {
            "id": 110205,
            "type": "Feature",
            "geometry": {
                "type": "Point",
                "coordinates": [
                    18.35178,
                    50.45776
                ]
            },
            "properties": {
                "isced:level": "1;2",
                "ref:rspo": 110205,
                "official_name": "Filia Publicznej Szko\u0142y Podstawowej w Jaryszowie z Siedzib\u0105 w Sieroniowicach",
                "name": "Filia Publicznej Szko\u0142y Podstawowej w Jaryszowie z Siedzib\u0105 w Sieroniowicach",
                "addr:postcode": "47-143",
                "addr:city": "Sieroniowice",
                "addr:street": "Strzelecka",
                "addr:housenumber": "26",
                "addr:city:simc": 504427,
                "addr:street:sym_ul": 21381,
                "phone": "+48 774637557",
                "ref:regon": "119594500",
                "ref:vatin": "PL7561815022",
                "operator": "Gmina Ujazd",
                "operator:type": "government",
                "amenity": "school",
                "note": "Parent RSPO: 10251"
            }
        },
        {
            "id": 10253,
            "type": "Feature",
            "geometry": {
                "type": "Point",
                "coordinates": [
                    18.34776,
                    50.4590699
                ]
            },
            "properties": {
                "ref:rspo": 10253,
                "official_name": "Publiczne Przedszkole w Uje\u017adzie",
                "name": "Publiczne Przedszkole w Uje\u017adzie",
                "addr:postcode": "47-143",
                "addr:city": "Ujazd",
                "addr:street": "Strzelecka",
                "addr:housenumber": "8",
                "addr:city:simc": 965967,
                "addr:street:sym_ul": 21381,
                "phone": "+48 774637031",
                "email": "sekretariat@ppujazd.pl",
                "website": "http:\/\/ppujazd.pl",
                "ref:regon": "530574127",
                "ref:vatin": "PL7561817328",
                "operator": "Gmina Ujazd",
                "operator:type": "government",
                "amenity": "kindergarten"
            }
        },
        {
            "id": 10354,
            "type": "Feature",
            "geometry": {
                "type": "Point",
                "coordinates": [
                    18.34615,
                    50.4602
                ]
            },
            "properties": {
                "isced:level": "1;2",
                "ref:rspo": 10354,
                "official_name": "Publiczna Szko\u0142a Podstawowa w Uje\u017adzie",
                "name": "Publiczna Szko\u0142a Podstawowa w Uje\u017adzie",
                "addr:postcode": "47-143",
                "addr:city": "Ujazd",
                "addr:street": "Strzelecka",
                "addr:housenumber": "6",
                "addr:city:simc": 965967,
                "addr:street:sym_ul": 21381,
                "phone": "+48 774637723",
                "email": "sekretariat@pspujazd.pl",
                "ref:regon": "000264704",
                "ref:vatin": "PL7561818003",
                "operator": "Gmina Ujazd",
                "operator:type": "government",
                "amenity": "school"
            }
        }
    ]
}