{
    "type": "FeatureCollection",
    "features": [
        {
            "id": 111063,
            "type": "Feature",
            "geometry": {
                "type": "Point",
                "coordinates": [
                    18.156979,
                    50.5154198
                ]
            },
            "properties": {
                "ref:rspo": 111063,
                "official_name": "Przedszkole w Izbicku",
                "name": "Przedszkole w Izbicku",
                "addr:country": "PL",
                "addr:postcode": "47-180",
                "addr:city": "Izbicko",
                "addr:street": "Powsta\u0144c\u00f3w \u015al\u0105skich",
                "addr:housenumber": "18",
                "addr:teryt:simc": 495480,
                "addr:teryt:sym_ul": 17366,
                "contact:phone": "+48 774026305",
                "contact:email": "sekretariat@pizbicko.pl",
                "contact:website": "http:\/\/www.pizbicko.pl",
                "ref:regon": "530575859",
                "ref:vatin": "PL7561989928",
                "operator": "Gmina Izbicko",
                "operator:type": "government",
                "amenity": "kindergarten"
            }
        },
        {
            "id": 275077,
            "type": "Feature",
            "geometry": {
                "type": "Point",
                "coordinates": [
                    18.14493,
                    50.55446
                ]
            },
            "properties": {
                "ref:rspo": 275077,
                "official_name": "Zesp\u00f3\u0142 Szkolno-Przedszkolny w Otmicach",
                "name": "Zesp\u00f3\u0142 Szkolno-Przedszkolny w Otmicach",
                "addr:country": "PL",
                "addr:postcode": "47-180",
                "addr:city": "Otmice",
                "addr:street": "Klonowa",
                "addr:housenumber": "28",
                "addr:teryt:simc": 495527,
                "addr:teryt:sym_ul": 8574,
                "contact:phone": "+48 774617283",
                "contact:email": "sekretariat@zspotmice.pl",
                "contact:website": "http:\/\/www.zspotmice.pl",
                "ref:regon": "386551034",
                "ref:vatin": "PL7561989957",
                "operator": "Gmina Izbicko",
                "operator:type": "government",
                "landuse": "education",
                "fixme": "amenity=school, amenity=college albo landuse=education w zale\u017cno\u015bci od tego, jakie plac\u00f3wki wchodz\u0105 w sk\u0142ad zespo\u0142u. Sprawd\u017a, kiedy stosowa\u0107 amenity=* a kiedy landuse=education.",
                "note": "Children RSPO: 111000;114819"
            }
        },
        {
            "id": 111000,
            "type": "Feature",
            "geometry": {
                "type": "Point",
                "coordinates": [
                    18.14493,
                    50.554429999999996
                ]
            },
            "properties": {
                "isced:level": "1;2",
                "ref:rspo": 111000,
                "official_name": "Szko\u0142a Podstawowa im. Janusza Korczaka w Otmicach",
                "name": "Szko\u0142a Podstawowa",
                "addr:country": "PL",
                "addr:postcode": "47-180",
                "addr:city": "Otmice",
                "addr:street": "Klonowa",
                "addr:housenumber": "28",
                "addr:teryt:simc": 495527,
                "addr:teryt:sym_ul": 8574,
                "contact:phone": "+48 774617283",
                "contact:email": "sekretariat@zspotmice.pl",
                "contact:website": "http:\/\/www.zspotmice.pl",
                "ref:regon": "001183008",
                "operator": "Gmina Izbicko",
                "operator:type": "government",
                "amenity": "school",
                "note": "Parent RSPO: 275077"
            }
        },
        {
            "id": 114819,
            "type": "Feature",
            "geometry": {
                "type": "Point",
                "coordinates": [
                    18.14493,
                    50.5544
                ]
            },
            "properties": {
                "ref:rspo": 114819,
                "official_name": "Przedszkole w Otmicach",
                "name": "Przedszkole w Otmicach",
                "addr:country": "PL",
                "addr:postcode": "47-180",
                "addr:city": "Otmice",
                "addr:street": "Klonowa",
                "addr:housenumber": "28",
                "addr:teryt:simc": 495527,
                "addr:teryt:sym_ul": 8574,
                "contact:phone": "+48 774617283",
                "contact:email": "sekretariat@zspotmice.pl",
                "contact:website": "http:\/\/www.otmice.przedszkolowo.pl",
                "ref:regon": "530575865",
                "operator": "Gmina Izbicko",
                "operator:type": "government",
                "amenity": "kindergarten",
                "note": "Parent RSPO: 275077"
            }
        },
        {
            "id": 110999,
            "type": "Feature",
            "geometry": {
                "type": "Point",
                "coordinates": [
                    18.1650199,
                    50.57429
                ]
            },
            "properties": {
                "isced:level": "1;2",
                "ref:rspo": 110999,
                "official_name": "Szko\u0142a Podstawowa im. Franciszka My\u015bliwca w Izbicku",
                "name": "Szko\u0142a Podstawowa",
                "addr:country": "PL",
                "addr:postcode": "47-180",
                "addr:city": "Izbicko",
                "addr:street": "15 Grudnia",
                "addr:housenumber": "32",
                "addr:teryt:simc": 495480,
                "addr:teryt:sym_ul": 6224,
                "contact:phone": "+48 774617284",
                "contact:email": "sekretariat@spizbicko.pl",
                "contact:website": "http:\/\/www.spizbicko.pl",
                "ref:regon": "000599617",
                "ref:vatin": "PL7561989934",
                "operator": "Gmina Izbicko",
                "operator:type": "government",
                "amenity": "school"
            }
        },
        {
            "id": 275076,
            "type": "Feature",
            "geometry": {
                "type": "Point",
                "coordinates": [
                    18.1933599,
                    50.61544
                ]
            },
            "properties": {
                "ref:rspo": 275076,
                "official_name": "Zesp\u00f3\u0142 Szkolno-Przedszkolny w Kro\u015bnicy",
                "name": "Zesp\u00f3\u0142 Szkolno-Przedszkolny w Kro\u015bnicy",
                "addr:country": "PL",
                "addr:postcode": "47-180",
                "addr:city": "Kro\u015bnica",
                "addr:street": "Szkolna",
                "addr:housenumber": "18",
                "addr:teryt:simc": 495504,
                "addr:teryt:sym_ul": 21970,
                "contact:phone": "+48 774617623",
                "contact:email": "sekretariat@zspkrosnica.pl",
                "contact:website": "http:\/\/www.zsp.krosnica.pl",
                "ref:regon": "386550951",
                "ref:vatin": "PL7561989940",
                "operator": "Gmina Izbicko",
                "operator:type": "government",
                "landuse": "education",
                "fixme": "amenity=school, amenity=college albo landuse=education w zale\u017cno\u015bci od tego, jakie plac\u00f3wki wchodz\u0105 w sk\u0142ad zespo\u0142u. Sprawd\u017a, kiedy stosowa\u0107 amenity=* a kiedy landuse=education.",
                "note": "Children RSPO: 111001;114820"
            }
        },
        {
            "id": 111001,
            "type": "Feature",
            "geometry": {
                "type": "Point",
                "coordinates": [
                    18.1933599,
                    50.61541
                ]
            },
            "properties": {
                "isced:level": "1;2",
                "ref:rspo": 111001,
                "official_name": "Szko\u0142a Podstawowa im. Josepha Von Eichendorffa w Kro\u015bnicy",
                "name": "Szko\u0142a Podstawowa",
                "addr:country": "PL",
                "addr:postcode": "47-180",
                "addr:city": "Kro\u015bnica",
                "addr:street": "Szkolna",
                "addr:housenumber": "18",
                "addr:teryt:simc": 495504,
                "addr:teryt:sym_ul": 21970,
                "contact:phone": "+48 774617623",
                "contact:email": "sekretariat@zspkrosnica.pl",
                "contact:website": "http:\/\/www.zspkrosnica.pl",
                "ref:regon": "001182990",
                "operator": "Gmina Izbicko",
                "operator:type": "government",
                "amenity": "school",
                "note": "Parent RSPO: 275076"
            }
        },
        {
            "id": 114820,
            "type": "Feature",
            "geometry": {
                "type": "Point",
                "coordinates": [
                    18.1933599,
                    50.61538
                ]
            },
            "properties": {
                "ref:rspo": 114820,
                "official_name": "Przedszkole w Kro\u015bnicy",
                "name": "Przedszkole w Kro\u015bnicy",
                "addr:country": "PL",
                "addr:postcode": "47-180",
                "addr:city": "Kro\u015bnica",
                "addr:street": "Szkolna",
                "addr:housenumber": "18",
                "addr:teryt:simc": 495504,
                "addr:teryt:sym_ul": 21970,
                "contact:phone": "+48 774617623",
                "contact:email": "sekretariat@zspkrosnica.pl",
                "contact:website": "http:\/\/www.zspkrosnica.pl",
                "ref:regon": "530575888",
                "operator": "Gmina Izbicko",
                "operator:type": "government",
                "amenity": "kindergarten",
                "note": "Parent RSPO: 275076"
            }
        }
    ]
}