{
    "type": "FeatureCollection",
    "features": [
        {
            "id": 59662,
            "type": "Feature",
            "geometry": {
                "type": "Point",
                "coordinates": [
                    18.35092,
                    50.64834
                ]
            },
            "properties": {
                "isced:level": "1;2",
                "ref:rspo": 59662,
                "official_name": "Publiczna Szko\u0142a Podstawowa nr 1 im. Marii Sk\u0142odowskiej-Curie w Kolonowskiem",
                "name": "Publiczna Szko\u0142a Podstawowa nr 1",
                "addr:postcode": "47-110",
                "addr:city": "Kolonowskie",
                "addr:street": "1 Maja",
                "addr:housenumber": "5",
                "addr:city:simc": 965631,
                "addr:street:sym_ul": 11926,
                "phone": "+48 774611126",
                "email": "pspnr10@poczta.onet.pl",
                "website": "http:\/\/pspkol.edupage.org",
                "ref:regon": "000562040",
                "ref:vatin": "PL7561812963",
                "operator": "Gmina Kolonowskie",
                "operator:type": "government",
                "amenity": "school"
            }
        },
        {
            "id": 57159,
            "type": "Feature",
            "geometry": {
                "type": "Point",
                "coordinates": [
                    18.35312,
                    50.65052
                ]
            },
            "properties": {
                "ref:rspo": 57159,
                "official_name": "Przedszkole Publiczne w Staniszczach Wielkich",
                "name": "Przedszkole Publiczne w Staniszczach Wielkich",
                "addr:postcode": "47-113",
                "addr:city": "Staniszcze Wielkie",
                "addr:street": "Ko\u015bcielna",
                "addr:housenumber": "15",
                "addr:city:simc": 496745,
                "addr:street:sym_ul": 9546,
                "phone": "+48 774611260",
                "email": "przedszkole.staniszcze@onet.pl",
                "ref:regon": "530583830",
                "ref:vatin": "PL7561862524",
                "operator": "Gmina Kolonowskie",
                "operator:type": "government",
                "amenity": "kindergarten"
            }
        },
        {
            "id": 56596,
            "type": "Feature",
            "geometry": {
                "type": "Point",
                "coordinates": [
                    18.38056,
                    50.65314
                ]
            },
            "properties": {
                "ref:rspo": 56596,
                "official_name": "Przedszkole Publiczne nr 1 w Kolonowskiem",
                "name": "Przedszkole Publiczne nr 1 w Kolonowskiem",
                "addr:postcode": "47-110",
                "addr:city": "Kolonowskie",
                "addr:street": "Ksi\u0119dza Henryka Czerwionki",
                "addr:housenumber": "16",
                "addr:city:simc": 965631,
                "addr:street:sym_ul": 32344,
                "phone": "+48 774611455",
                "email": "przedszkole.kolonowskie@interia.pl",
                "ref:regon": "530583818",
                "ref:vatin": "PL7561862501",
                "operator": "Gmina Kolonowskie",
                "operator:type": "government",
                "amenity": "kindergarten"
            }
        },
        {
            "id": 58114,
            "type": "Feature",
            "geometry": {
                "type": "Point",
                "coordinates": [
                    18.35328,
                    50.66256
                ]
            },
            "properties": {
                "isced:level": "1;2",
                "ref:rspo": 58114,
                "official_name": "Publiczna Szko\u0142a Podstawowa Staniszcze Wielkie-Kolonowskie 3 im. Jana Paw\u0142a Ii",
                "name": "Publiczna Szko\u0142a Podstawowa Staniszcze Wielkie-Kolonowskie 3",
                "addr:postcode": "47-113",
                "addr:city": "Kolonowskie",
                "addr:street": "Jana Paw\u0142a II",
                "addr:housenumber": "4",
                "addr:city:simc": 965631,
                "addr:street:sym_ul": 7123,
                "phone": "+48 774611158",
                "email": "szkolfos@tlen.pl",
                "website": "http:\/\/www.pspstaniszczewielkie.pl",
                "ref:regon": "001182776",
                "ref:vatin": "PL7561826652",
                "operator": "Gmina Kolonowskie",
                "operator:type": "government",
                "amenity": "school"
            }
        },
        {
            "id": 58148,
            "type": "Feature",
            "geometry": {
                "type": "Point",
                "coordinates": [
                    18.31603,
                    50.66327
                ]
            },
            "properties": {
                "isced:level": "1;2",
                "ref:rspo": 58148,
                "official_name": "Publiczna Szko\u0142a Podstawowa Staniszcze Ma\u0142e-Sp\u00f3rok im. \u015aw. Jacka",
                "name": "Publiczna Szko\u0142a Podstawowa Staniszcze Ma\u0142e-Sp\u00f3rok",
                "addr:postcode": "47-113",
                "addr:city": "Staniszcze Ma\u0142e",
                "addr:street": "Szkolna",
                "addr:housenumber": "1",
                "addr:city:simc": 496716,
                "addr:street:sym_ul": 21970,
                "phone": "+48 774611064",
                "email": "pocztapspsms@gmail.com",
                "website": "http:\/\/pspsms.edupage.org",
                "ref:regon": "001182747",
                "ref:vatin": "PL7561809820",
                "operator": "Gmina Kolonowskie",
                "operator:type": "government",
                "amenity": "school"
            }
        }
    ]
}