{
    "type": "FeatureCollection",
    "features": [
        {
            "id": 68278,
            "type": "Feature",
            "geometry": {
                "type": "Point",
                "coordinates": [
                    18.56233,
                    50.56907
                ]
            },
            "properties": {
                "ref:rspo": 68278,
                "official_name": "Przedszkole Publiczne w Kielczy",
                "name": "Przedszkole Publiczne w Kielczy",
                "addr:postcode": "47-126",
                "addr:city": "Kielcza",
                "addr:street": "Szkolna",
                "addr:housenumber": "1",
                "addr:teryt:simc": 505415,
                "addr:teryt:sym_ul": 21970,
                "phone": "+48 774636878",
                "email": "przedszkole@ppkielcza.zawadzkie.pl",
                "ref:regon": "160181888",
                "ref:vatin": "PL7561928097",
                "operator": "Gmina Zawadzkie",
                "operator:type": "government",
                "amenity": "kindergarten"
            }
        },
        {
            "id": 84036,
            "type": "Feature",
            "geometry": {
                "type": "Point",
                "coordinates": [
                    18.56233,
                    50.56904
                ]
            },
            "properties": {
                "isced:level": "1;2",
                "ref:rspo": 84036,
                "official_name": "Publiczna Szko\u0142a Podstawowa im. Wincentego Z Kielczy w Kielczy",
                "name": "Publiczna Szko\u0142a Podstawowa",
                "addr:postcode": "47-126",
                "addr:city": "Kielcza",
                "addr:street": "Szkolna",
                "addr:housenumber": "1",
                "addr:teryt:simc": 505415,
                "addr:teryt:sym_ul": 21970,
                "phone": "+48 774636894",
                "email": "zsgkielcza@poczta.fm",
                "website": "http:\/\/www.zsgkielcza.zawadzkie.pl",
                "ref:regon": "001193640",
                "ref:vatin": "PL7561104404",
                "operator": "Gmina Zawadzkie",
                "operator:type": "government",
                "amenity": "school"
            }
        },
        {
            "id": 273958,
            "type": "Feature",
            "geometry": {
                "type": "Point",
                "coordinates": [
                    18.51503,
                    50.5739
                ]
            },
            "properties": {
                "ref:rspo": 273958,
                "official_name": "Centrum Szkole\u0144 Pinus Niepubliczna Plac\u00f3wka Kszta\u0142cenia Ustawicznego I Praktycznego",
                "name": "Centrum Szkole\u0144 Pinus Niepubliczna Plac\u00f3wka Kszta\u0142cenia Ustawicznego I Praktycznego",
                "addr:postcode": "47-120",
                "addr:city": "\u017b\u0119dowice",
                "addr:street": "Powsta\u0144c\u00f3w \u015al\u0105skich",
                "addr:housenumber": "22A",
                "addr:teryt:simc": 505438,
                "addr:teryt:sym_ul": 17366,
                "phone": "+48 601096607",
                "email": "pinus.zul@gmail.com",
                "ref:regon": "384916997",
                "operator": "Firma Szkoleniowo - Us\u0142ugowa Pinus Piotr Cwynar",
                "operator:type": "consortium",
                "fixme": "w zale\u017cno\u015bci od przedmiotu dzia\u0142alno\u015bci (np. amenity=training + training=*, amenity=dancing_school, amenity=language_school, amenity=music_school)"
            }
        },
        {
            "id": 84033,
            "type": "Feature",
            "geometry": {
                "type": "Point",
                "coordinates": [
                    18.50782,
                    50.58188
                ]
            },
            "properties": {
                "isced:level": "1;2",
                "ref:rspo": 84033,
                "official_name": "Publiczna Szko\u0142a Podstawowa w \u017b\u0119dowicach",
                "name": "Publiczna Szko\u0142a Podstawowa w \u017b\u0119dowicach",
                "addr:postcode": "47-120",
                "addr:city": "\u017b\u0119dowice",
                "addr:street": "Strzelecka",
                "addr:housenumber": "35A",
                "addr:teryt:simc": 505438,
                "addr:teryt:sym_ul": 21381,
                "phone": "+48 774616796",
                "email": "zsgzedowice@wp.pl",
                "website": "http:\/\/pspzedowice.edupage.org",
                "ref:regon": "001193627",
                "ref:vatin": "PL7561104479",
                "operator": "Gmina Zawadzkie",
                "operator:type": "government",
                "amenity": "school"
            }
        },
        {
            "id": 68275,
            "type": "Feature",
            "geometry": {
                "type": "Point",
                "coordinates": [
                    18.50887,
                    50.58298
                ]
            },
            "properties": {
                "ref:rspo": 68275,
                "official_name": "Przedszkole Publiczne w \u017b\u0119dowicach",
                "name": "Przedszkole Publiczne w \u017b\u0119dowicach",
                "addr:postcode": "47-120",
                "addr:city": "\u017b\u0119dowice",
                "addr:street": "Strzelecka",
                "addr:housenumber": "17",
                "addr:teryt:simc": 505438,
                "addr:teryt:sym_ul": 21381,
                "phone": "+48 774616720",
                "email": "ppzedowice@interia.pl",
                "ref:regon": "160181919",
                "ref:vatin": "PL7561928128",
                "operator": "Gmina Zawadzkie",
                "operator:type": "government",
                "amenity": "kindergarten"
            }
        },
        {
            "id": 273429,
            "type": "Feature",
            "geometry": {
                "type": "Point",
                "coordinates": [
                    18.50709,
                    50.5838
                ]
            },
            "properties": {
                "ref:rspo": 273429,
                "official_name": "Akademia Przedszkolaka Krzysztof Krafczyk",
                "name": "Akademia Przedszkolaka Krzysztof Krafczyk",
                "addr:postcode": "47-120",
                "addr:city": "\u017b\u0119dowice",
                "addr:street": "Ksi\u0119dza Wajdy",
                "addr:housenumber": "10",
                "addr:door": "A",
                "addr:teryt:simc": 505438,
                "addr:teryt:sym_ul": 39244,
                "email": "barbara.maciosek1985@o2.pl",
                "website": "https:\/\/www.facebook.com\/akademia-przedszkolaka-%c5%bb%c4%99dowice-103392847720646\/",
                "ref:regon": "384468949",
                "operator": "Krzysztof Krafczyk",
                "operator:type": "private",
                "amenity": "kindergarten"
            }
        },
        {
            "id": 68274,
            "type": "Feature",
            "geometry": {
                "type": "Point",
                "coordinates": [
                    18.49505,
                    50.60425
                ]
            },
            "properties": {
                "ref:rspo": 68274,
                "official_name": "Przedszkole Publiczne Nr 2 Z Oddzia\u0142em Integracyjnym w Zawadzkiem",
                "name": "Przedszkole Publiczne Nr 2 Z Oddzia\u0142em Integracyjnym w Zawadzkiem",
                "addr:postcode": "47-120",
                "addr:city": "Zawadzkie",
                "addr:street": "Ignacego Paderewskiego",
                "addr:housenumber": "1",
                "addr:teryt:simc": 966004,
                "addr:teryt:sym_ul": 15524,
                "phone": "+48 774616485",
                "email": "jolapp2@interia.pl",
                "website": "http:\/\/www.ppnr2.zawadzkie.pl",
                "ref:regon": "160181894",
                "ref:vatin": "PL7561928111",
                "operator": "Gmina Zawadzkie",
                "operator:type": "government",
                "amenity": "kindergarten"
            }
        },
        {
            "id": 68267,
            "type": "Feature",
            "geometry": {
                "type": "Point",
                "coordinates": [
                    18.48396,
                    50.60545
                ]
            },
            "properties": {
                "isced:level": "1;2",
                "ref:rspo": 68267,
                "official_name": "Publiczna Szko\u0142a Podstawowa w Zawadzkiem",
                "name": "Publiczna Szko\u0142a Podstawowa w Zawadzkiem",
                "addr:postcode": "47-120",
                "addr:city": "Zawadzkie",
                "addr:street": "Opolska",
                "addr:housenumber": "47",
                "addr:teryt:simc": 966004,
                "addr:teryt:sym_ul": 15095,
                "phone": "+48 774616375",
                "email": "sekretariat@psp.zawadzkie.pl",
                "website": "http:\/\/psp.zawadzkie.pl",
                "ref:regon": "000264934",
                "ref:vatin": "PL7561104350",
                "operator": "Gmina Zawadzkie",
                "operator:type": "government",
                "amenity": "school"
            }
        },
        {
            "id": 6068,
            "type": "Feature",
            "geometry": {
                "type": "Point",
                "coordinates": [
                    18.47944,
                    50.60661
                ]
            },
            "properties": {
                "ref:rspo": 6068,
                "official_name": "Zesp\u00f3\u0142 Szk\u00f3\u0142 Ponadpodstawowych w Zawadzkiem",
                "name": "Zesp\u00f3\u0142 Szk\u00f3\u0142 Ponadpodstawowych w Zawadzkiem",
                "addr:postcode": "47-120",
                "addr:city": "Zawadzkie",
                "addr:street": "Kr\u00f3tka",
                "addr:housenumber": "1",
                "addr:teryt:simc": 966004,
                "addr:teryt:sym_ul": 10009,
                "phone": "+48 774616430",
                "email": "zspzawadzkie@gmail.com",
                "website": "http:\/\/www.zspzawadzkie.pl",
                "ref:regon": "000026287",
                "ref:vatin": "PL7561264941",
                "operator": "Powiat Strzelecki Strzelce Opolskie",
                "operator:type": "government",
                "landuse": "education",
                "fixme": "amenity=school, amenity=college albo landuse=education w zale\u017cno\u015bci od tego, jakie plac\u00f3wki wchodz\u0105 w sk\u0142ad zespo\u0142u. Sprawd\u017a, kiedy stosowa\u0107 amenity=* a kiedy landuse=education.",
                "note": "Children RSPO: 56036;58667;85757"
            }
        },
        {
            "id": 56036,
            "type": "Feature",
            "geometry": {
                "type": "Point",
                "coordinates": [
                    18.47944,
                    50.60658
                ]
            },
            "properties": {
                "isced:level": "3",
                "ref:rspo": 56036,
                "official_name": "Technikum w Zawadzkiem",
                "name": "Technikum w Zawadzkiem",
                "addr:postcode": "47-120",
                "addr:city": "Zawadzkie",
                "addr:street": "Kr\u00f3tka",
                "addr:housenumber": "1",
                "addr:teryt:simc": 966004,
                "addr:teryt:sym_ul": 10009,
                "phone": "+48 774616430",
                "email": "zspzawadzkie@gmail.com",
                "website": "http:\/\/www.zspzawadzkie.pl",
                "ref:regon": "160040248",
                "operator": "Powiat Strzelecki Strzelce Opolskie",
                "operator:type": "government",
                "amenity": "school",
                "note": "Parent RSPO: 6068"
            }
        },
        {
            "id": 58667,
            "type": "Feature",
            "geometry": {
                "type": "Point",
                "coordinates": [
                    18.47944,
                    50.606550000000006
                ]
            },
            "properties": {
                "isced:level": "3",
                "ref:rspo": 58667,
                "official_name": "Bran\u017cowa Szko\u0142a I Stopnia w Zawadzkiem",
                "name": "Bran\u017cowa Szko\u0142a I Stopnia w Zawadzkiem",
                "addr:postcode": "47-120",
                "addr:city": "Zawadzkie",
                "addr:street": "Kr\u00f3tka",
                "addr:housenumber": "1",
                "addr:teryt:simc": 966004,
                "addr:teryt:sym_ul": 10009,
                "phone": "+48 774616430",
                "email": "zspzawadzkie@gmail.com",
                "website": "http:\/\/www.zspzawadzkie.pl",
                "ref:regon": "532382030",
                "operator": "Powiat Strzelecki Strzelce Opolskie",
                "operator:type": "government",
                "amenity": "school",
                "note": "Parent RSPO: 6068"
            }
        },
        {
            "id": 85757,
            "type": "Feature",
            "geometry": {
                "type": "Point",
                "coordinates": [
                    18.47944,
                    50.60652
                ]
            },
            "properties": {
                "isced:level": "3",
                "ref:rspo": 85757,
                "official_name": "Liceum Og\u00f3lnokszta\u0142c\u0105ce im. Mieszka I w Zawadzkiem",
                "name": "Liceum Og\u00f3lnokszta\u0142c\u0105ce",
                "addr:postcode": "47-120",
                "addr:city": "Zawadzkie",
                "addr:street": "Kr\u00f3tka",
                "addr:housenumber": "1",
                "addr:teryt:simc": 966004,
                "addr:teryt:sym_ul": 10009,
                "phone": "+48 774616430",
                "email": "zspzawadzkie@gmail.com",
                "website": "http:\/\/www.zspzawadzkie.pl",
                "ref:regon": "532398870",
                "operator": "Powiat Strzelecki Strzelce Opolskie",
                "operator:type": "government",
                "amenity": "school",
                "note": "Parent RSPO: 6068"
            }
        },
        {
            "id": 68277,
            "type": "Feature",
            "geometry": {
                "type": "Point",
                "coordinates": [
                    18.47741,
                    50.60742
                ]
            },
            "properties": {
                "ref:rspo": 68277,
                "official_name": "Przedszkole Publiczne Nr 3 w Zawadzkiem",
                "name": "Przedszkole Publiczne Nr 3 w Zawadzkiem",
                "addr:postcode": "47-120",
                "addr:city": "Zawadzkie",
                "addr:street": "Harcerska",
                "addr:housenumber": "7",
                "addr:teryt:simc": 966004,
                "addr:teryt:sym_ul": 6523,
                "phone": "+48 774616497",
                "email": "pp3zawadzkie@op.pl",
                "website": "http:\/\/www.ppnr3.zawadzkie.pl",
                "ref:regon": "160181902",
                "ref:vatin": "PL7561928105",
                "operator": "Gmina Zawadzkie",
                "operator:type": "government",
                "amenity": "kindergarten"
            }
        },
        {
            "id": 41021,
            "type": "Feature",
            "geometry": {
                "type": "Point",
                "coordinates": [
                    18.4379199,
                    50.61705
                ]
            },
            "properties": {
                "ref:rspo": 41021,
                "official_name": "Zesp\u00f3\u0142 Szk\u00f3\u0142 Specjalnych Przy Domu Pomocy Spo\u0142ecznej w Zawadzkiem",
                "name": "Zesp\u00f3\u0142 Szk\u00f3\u0142 Specjalnych Przy Domu Pomocy Spo\u0142ecznej w Zawadzkiem",
                "addr:postcode": "47-120",
                "addr:city": "Zawadzkie",
                "addr:street": "Czarna",
                "addr:housenumber": "2",
                "addr:teryt:simc": 966004,
                "addr:teryt:sym_ul": 3266,
                "phone": "+48 774620049",
                "email": "zss_zawadzkie@interia.pl",
                "website": "http:\/\/www.zsszawadzkie.szkolna.net",
                "ref:regon": "531190966",
                "ref:vatin": "PL7561533111",
                "operator": "Powiat Strzelecki Strzelce Opolskie",
                "operator:type": "government",
                "landuse": "education",
                "fixme": "amenity=school, amenity=college albo landuse=education w zale\u017cno\u015bci od tego, jakie plac\u00f3wki wchodz\u0105 w sk\u0142ad zespo\u0142u. Sprawd\u017a, kiedy stosowa\u0107 amenity=* a kiedy landuse=education.",
                "note": "Children RSPO: 61323;61327"
            }
        },
        {
            "id": 61323,
            "type": "Feature",
            "geometry": {
                "type": "Point",
                "coordinates": [
                    18.4379199,
                    50.61702
                ]
            },
            "properties": {
                "isced:level": "1;2",
                "ref:rspo": 61323,
                "official_name": "Szko\u0142a Podstawowa Specjalna Przy Domu Pomocy Spo\u0142ecznej w Zawadzkiem",
                "name": "Szko\u0142a Podstawowa Specjalna Przy Domu Pomocy Spo\u0142ecznej w Zawadzkiem",
                "addr:postcode": "47-120",
                "addr:city": "Zawadzkie",
                "addr:street": "Czarna",
                "addr:housenumber": "2",
                "addr:teryt:simc": 966004,
                "addr:teryt:sym_ul": 3266,
                "phone": "+48 774620049",
                "email": "zss_zawadzkie@interia.pl",
                "website": "http:\/\/www.zsszawadzkie.szkolna.net",
                "ref:regon": "532210004",
                "operator": "Powiat Strzelecki Strzelce Opolskie",
                "operator:type": "government",
                "amenity": "school",
                "note": "Parent RSPO: 41021"
            }
        },
        {
            "id": 61327,
            "type": "Feature",
            "geometry": {
                "type": "Point",
                "coordinates": [
                    18.4379199,
                    50.61699
                ]
            },
            "properties": {
                "ref:rspo": 61327,
                "official_name": "Szko\u0142a Specjalna Przysposabiaj\u0105ca Do Pracy Przy Domu Pomocy Spo\u0142ecznej w Zawadzkiem",
                "name": "Szko\u0142a Specjalna Przysposabiaj\u0105ca Do Pracy Przy Domu Pomocy Spo\u0142ecznej w Zawadzkiem",
                "addr:postcode": "47-120",
                "addr:city": "Zawadzkie",
                "addr:street": "Czarna",
                "addr:housenumber": "2",
                "addr:teryt:simc": 966004,
                "addr:teryt:sym_ul": 3266,
                "phone": "+48 774620049",
                "email": "zss_zawadzkie@interia.pl",
                "website": "http:\/\/www.zsszawadzkie.szkolna.net",
                "ref:regon": "532458744",
                "operator": "Powiat Strzelecki Strzelce Opolskie",
                "operator:type": "government",
                "amenity": "school",
                "note": "Parent RSPO: 41021"
            }
        }
    ]
}