{"type":"FeatureCollection","features":[{"id":123017,"type":"Feature","geometry":{"type":"Point","coordinates":[21.09951,50.14621]},"properties":{"isced:level":"1;2","ref:rspo":123017,"official_name":"Szko\u0142a Podstawowa im. M. Konopnickiej w Luszowicach","name":"Szko\u0142a Podstawowa","addr:country":"PL","addr:postcode":"33-206","addr:city":"Luszowice","addr:street":"ul. Tarnowska","addr:housenumber":"31","addr:teryt:simc":22681,"addr:teryt:sym_ul":827455,"contact:phone":"+48 146413309","contact:email":"edu_lu@poczta.onet.pl","contact:website":"http:\/\/luszowice.edu.szkolnastrona.pl\/","ref:regon":"001189560","ref:vatin":"PL8711692723","operator":"Gmina Radgoszcz","operator:type":"government","amenity":"school"}},{"id":109683,"type":"Feature","geometry":{"type":"Point","coordinates":[21.10919,50.15029]},"properties":{"ref:rspo":109683,"official_name":"Przedszkole Publiczne w Luszowicach","name":"Przedszkole Publiczne w Luszowicach","addr:country":"PL","addr:postcode":"33-206","addr:city":"Luszowice","addr:street":"ul. 600-lecia Luszowic","addr:housenumber":"16","addr:teryt:simc":28433,"addr:teryt:sym_ul":827455,"contact:phone":"+48 723333307","contact:email":"pp_lusz@op.pl","contact:website":"http:\/\/ppluszowice.szkolnastrona.pl","ref:regon":"852578191","ref:vatin":"PL8711692752","operator":"Gmina Radgoszcz","operator:type":"government","amenity":"kindergarten"}},{"id":268388,"type":"Feature","geometry":{"type":"Point","coordinates":[21.11249,50.20581]},"properties":{"ref:rspo":268388,"official_name":"Zesp\u00f3\u0142 Szkolno - Przedszkolny w Radgoszczy","name":"Zesp\u00f3\u0142 Szkolno - Przedszkolny w Radgoszczy","addr:country":"PL","addr:postcode":"33-207","addr:city":"Radgoszcz","addr:street":"pl. \u015bw. Kazimierza","addr:housenumber":"10","addr:teryt:simc":8254,"addr:teryt:sym_ul":827596,"contact:phone":"+48 146414112","contact:email":"zspwradgoszczy@gmail.com","contact:website":"http:\/\/spradgoszcz.pl","ref:regon":"381134509","ref:vatin":"PL8711774438","operator":"Gmina Radgoszcz","operator:type":"government","landuse":"education","fixme":"amenity=school, amenity=college albo landuse=education w zale\u017cno\u015bci od tego, jakie plac\u00f3wki wchodz\u0105 w sk\u0142ad zespo\u0142u. Sprawd\u017a, kiedy stosowa\u0107 amenity=* a kiedy landuse=education.","note":"Children RSPO: 109654;122982"}},{"id":122982,"type":"Feature","geometry":{"type":"Point","coordinates":[21.11249,50.20578]},"properties":{"isced:level":"1;2","ref:rspo":122982,"official_name":"Szko\u0142a Podstawowa\nIm. Elizy Orzeszkowej w Radgoszczy","name":"Szko\u0142a Podstawowa\nIm. Elizy Orzeszkowej w Radgoszczy","addr:country":"PL","addr:postcode":"33-207","addr:city":"Radgoszcz","addr:street":"pl. \u015bw. Kazimierza","addr:housenumber":"10","addr:teryt:simc":8254,"addr:teryt:sym_ul":827596,"contact:phone":"+48 146414112","contact:email":"zspwradgoszczy@gmail.com","contact:website":"http:\/\/www.spradgoszcz.pl","ref:regon":"000718766","ref:vatin":"PL8711692746","operator":"Gmina Radgoszcz","operator:type":"government","amenity":"school","note":"Parent RSPO: 268388"}},{"id":109654,"type":"Feature","geometry":{"type":"Point","coordinates":[21.11837,50.2088899]},"properties":{"ref:rspo":109654,"official_name":"Przedszkole Publiczne\nW Radgoszczy","name":"Przedszkole Publiczne\nW Radgoszczy","addr:country":"PL","addr:postcode":"33-207","addr:city":"Radgoszcz","addr:street":"ul. Miko\u0142aja Kopernika","addr:housenumber":"7","addr:teryt:simc":9282,"addr:teryt:sym_ul":827596,"contact:phone":"+48 146414111","contact:email":"zspwradgoszczy@gmail.com","ref:regon":"852578216","ref:vatin":"PL8711692717","operator":"Gmina Radgoszcz","operator:type":"government","amenity":"kindergarten","note":"Parent RSPO: 268388"}},{"id":109812,"type":"Feature","geometry":{"type":"Point","coordinates":[21.10167,50.23551]},"properties":{"isced:level":"1;2","ref:rspo":109812,"official_name":"Szko\u0142a Podstawowa w Zarzeczu Du\u017cym","name":"Szko\u0142a Podstawowa w Zarzeczu Du\u017cym","addr:country":"PL","addr:postcode":"33-207","addr:city":"Radgoszcz","addr:street":"ul. Adama Mickiewicza","addr:housenumber":"39","addr:door":"39","addr:teryt:simc":12740,"addr:teryt:sym_ul":827596,"contact:phone":"+48 146414133","contact:email":"zarzecze@vp.pl","contact:website":"http:\/\/spzarzeczeduze.pl","ref:regon":"001189590","ref:vatin":"PL8711692769","operator":"Gmina Radgoszcz","operator:type":"government","amenity":"school"}}]}