{"type":"FeatureCollection","features":[{"id":91377,"type":"Feature","geometry":{"type":"Point","coordinates":[21.03911,50.24205]},"properties":{"ref:rspo":91377,"official_name":"Zesp\u00f3\u0142 Szkolno-Przedszkolny w Radwanie","name":"Zesp\u00f3\u0142 Szkolno-Przedszkolny w Radwanie","addr:country":"PL","addr:postcode":"33-202","addr:place":"Radwan","addr:housenumber":"184","addr:teryt:sym_ul":830871,"contact:phone":"+48 146431701","contact:email":"skrzynkasp@wp.pl","ref:regon":"852745192","ref:vatin":"PL8711677089","operator":"Gmina Szczucin","operator:type":"government","landuse":"education","fixme":"amenity=school, amenity=college albo landuse=education w zale\u017cno\u015bci od tego, jakie plac\u00f3wki wchodz\u0105 w sk\u0142ad zespo\u0142u. Sprawd\u017a, kiedy stosowa\u0107 amenity=* a kiedy landuse=education.","note":"Children RSPO: 103525;103526"}},{"id":103525,"type":"Feature","geometry":{"type":"Point","coordinates":[21.03911,50.24202]},"properties":{"isced:level":"1;2","ref:rspo":103525,"official_name":"Szko\u0142a Podstawowa w Radwanie","name":"Szko\u0142a Podstawowa w Radwanie","addr:country":"PL","addr:postcode":"33-202","addr:place":"Radwan","addr:housenumber":"184","addr:teryt:sym_ul":830871,"contact:phone":"+48 146431701","contact:email":"skrzynkasp@wp.pl","ref:regon":"001188738","ref:vatin":"PL8711589965","operator":"Gmina Szczucin","operator:type":"government","amenity":"school","note":"Parent RSPO: 91377"}},{"id":103526,"type":"Feature","geometry":{"type":"Point","coordinates":[21.03911,50.24199]},"properties":{"ref:rspo":103526,"official_name":"Przedszkole Publiczne w Radwanie","name":"Przedszkole Publiczne w Radwanie","addr:country":"PL","addr:postcode":"33-202","addr:place":"Radwan","addr:housenumber":"184","addr:teryt:sym_ul":830871,"contact:phone":"+48 146431701","contact:email":"skrzynkasp@wp.pl","ref:regon":"122733484","operator":"Gmina Szczucin","operator:type":"government","amenity":"kindergarten","note":"Parent RSPO: 91377"}},{"id":74455,"type":"Feature","geometry":{"type":"Point","coordinates":[21.05625,50.26131]},"properties":{"ref:rspo":74455,"official_name":"Niepubliczny O\u015brodek Rewalidacyjno-Wychowawczy im. Jana Paw\u0142a Ii","name":"Niepubliczny O\u015brodek Rewalidacyjno-Wychowawczy","addr:country":"PL","addr:postcode":"33-230","addr:place":"Skrzynka","addr:housenumber":"146","addr:teryt:sym_ul":830902,"contact:email":"orwskrzynka@interia.pl","ref:regon":"122709132","ref:vatin":"PL8711745224","operator":"Stowarzyszenie Pomocy Dziecku I Rodzinie \"Przyjazny \u015awiat\"","operator:type":"ngo","amenity":"school"}},{"id":278432,"type":"Feature","geometry":{"type":"Point","coordinates":[21.05625,50.26128]},"properties":{"ref:rspo":278432,"official_name":"Niepubliczne Przedszkole Terapeutyczne \"Przyjazny \u015awiat\"","name":"Niepubliczne Przedszkole Terapeutyczne \"Przyjazny \u015awiat\"","addr:country":"PL","addr:postcode":"33-230","addr:place":"Skrzynka","addr:housenumber":"146","addr:teryt:sym_ul":830902,"contact:email":"przedszkoleterapeutyczne@interia.pl","ref:regon":"389892505","operator":"Stowarzyszenie Pomocy Dziecku I Rodzinie \"Przyjazny \u015awiat\"","operator:type":"ngo","amenity":"kindergarten"}},{"id":61525,"type":"Feature","geometry":{"type":"Point","coordinates":[21.1239659,50.280625]},"properties":{"isced:level":"1;2","ref:rspo":61525,"official_name":"Szko\u0142a Podstawowa im. Jana Paw\u0142a II w Zabrniu","name":"Szko\u0142a Podstawowa","addr:country":"PL","addr:postcode":"33-230","addr:place":"Zabrnie","addr:housenumber":"82","addr:teryt:sym_ul":831267,"contact:phone":"+48 146431828","contact:email":"szkolazabrnie@wp.pl","contact:website":"http:\/\/www.szkolapodstawowawzabrniu.edupage.org","ref:regon":"001188336","ref:vatin":"PL8711589907","operator":"Gmina Szczucin","operator:type":"government","amenity":"school"}},{"id":111516,"type":"Feature","geometry":{"type":"Point","coordinates":[21.07823,50.30532]},"properties":{"ref:rspo":111516,"official_name":"Bajkowa Kraina","name":"Bajkowa Kraina","addr:country":"PL","addr:postcode":"33-230","addr:city":"Szczucin","addr:street":"ul. Radomy\u015blska","addr:housenumber":"16","addr:teryt:simc":18318,"addr:teryt:sym_ul":831149,"contact:phone":"+48 880628598","contact:email":"bernadetabogacz@wp.pl","ref:regon":"122806013","ref:vatin":"PL8711470112","operator":"Bernadeta Dobrowolska-Bogacz","operator:type":"private","amenity":"kindergarten"}},{"id":61807,"type":"Feature","geometry":{"type":"Point","coordinates":[21.08205,50.30927]},"properties":{"ref:rspo":61807,"official_name":"Przedszkole Niepubliczne Ochronka \u015aw. J\u00f3zefa Ss. S\u0142u\u017cebniczek Nmp Np w Szczucinie","name":"Przedszkole Niepubliczne Ochronka \u015aw. J\u00f3zefa Ss. S\u0142u\u017cebniczek Nmp Np w Szczucinie","addr:country":"PL","addr:postcode":"33-230","addr:city":"Szczucin","addr:street":"ul. Wolno\u015bci","addr:housenumber":"45","addr:teryt:simc":24687,"addr:teryt:sym_ul":831149,"contact:phone":"+48 146436269","contact:email":"siostryszczucin@wp.pl","contact:website":"https:\/\/www.facebook.com\/ochronka-%c5%9bw-j%c3%b3zefa-w-szczucinie-296350557818197\/?modal=admin_todo_tour","ref:regon":"122699712","ref:vatin":"PL8711651492","operator":"Zgromadzenie Si\u00f3str S\u0142u\u017cebniczek Naj\u015bwi\u0119tszej Maryi Panny Niepokalanie Pocz\u0119tej Prowincja Tarnowska","operator:type":"religious","amenity":"kindergarten"}},{"id":118821,"type":"Feature","geometry":{"type":"Point","coordinates":[21.09012,50.31219]},"properties":{"ref:rspo":118821,"official_name":"Powiatowe Centrum Edukacji I Kompetencji Zawodowych w Szczucinie","name":"Powiatowe Centrum Edukacji I Kompetencji Zawodowych w Szczucinie","addr:country":"PL","addr:postcode":"33-230","addr:city":"Szczucin","addr:street":"ul. Witosa","addr:housenumber":"2","addr:teryt:simc":24454,"addr:teryt:sym_ul":831149,"contact:phone":"+48 146436421","contact:email":"dyrektor@pceikz.pl","ref:regon":"122922564","ref:vatin":"PL8711770328","operator":"Powiat D\u0105browski","operator:type":"government","landuse":"education","fixme":"amenity=school, amenity=college albo landuse=education w zale\u017cno\u015bci od tego, jakie plac\u00f3wki wchodz\u0105 w sk\u0142ad zespo\u0142u. Sprawd\u017a, kiedy stosowa\u0107 amenity=* a kiedy landuse=education.","note":"Children RSPO: 85351;85514;104974;122701;131236"}},{"id":85351,"type":"Feature","geometry":{"type":"Point","coordinates":[21.09012,50.31216]},"properties":{"isced:level":"3","ref:rspo":85351,"official_name":"Liceum Og\u00f3lnokszta\u0142c\u0105ce w Szczucinie","name":"Liceum Og\u00f3lnokszta\u0142c\u0105ce w Szczucinie","addr:country":"PL","addr:postcode":"33-230","addr:city":"Szczucin","addr:street":"ul. Witosa","addr:housenumber":"2","addr:teryt:simc":24454,"addr:teryt:sym_ul":831149,"contact:phone":"+48 146436421","contact:email":"sekretariat@pceikz.pl","contact:website":"http:\/\/www.pceikz.pl","ref:regon":"852714843","operator":"Powiat D\u0105browski","operator:type":"government","amenity":"school","note":"Parent RSPO: 118821"}},{"id":85514,"type":"Feature","geometry":{"type":"Point","coordinates":[21.09012,50.31213]},"properties":{"isced:level":"3","ref:rspo":85514,"official_name":"Technikum w Szczucinie","name":"Technikum w Szczucinie","addr:country":"PL","addr:postcode":"33-230","addr:city":"Szczucin","addr:street":"ul. Witosa","addr:housenumber":"2","addr:teryt:simc":24454,"addr:teryt:sym_ul":831149,"contact:phone":"+48 146436421","contact:email":"sekretariat@pceikz.pl","contact:website":"http:\/\/www.pceikz.pl","ref:regon":"852714850","operator":"Powiat D\u0105browski","operator:type":"government","amenity":"school","note":"Parent RSPO: 118821"}},{"id":104974,"type":"Feature","geometry":{"type":"Point","coordinates":[21.09012,50.3121]},"properties":{"isced:level":"3","ref:rspo":104974,"official_name":"Bran\u017cowa Szko\u0142a I Stopnia w Szczucinie","name":"Bran\u017cowa Szko\u0142a I Stopnia w Szczucinie","addr:country":"PL","addr:postcode":"33-230","addr:city":"Szczucin","addr:street":"ul. Witosa","addr:housenumber":"2","addr:teryt:simc":24454,"addr:teryt:sym_ul":831149,"contact:phone":"+48 146436421","contact:email":"sekretariat@pceikz.pl","contact:website":"http:\/\/www.pceikz.pl","ref:regon":"852714866","operator":"Powiat D\u0105browski","operator:type":"government","amenity":"school","note":"Parent RSPO: 118821"}},{"id":122701,"type":"Feature","geometry":{"type":"Point","coordinates":[21.09012,50.31207]},"properties":{"ref:rspo":122701,"official_name":"Centrum Kszta\u0142cenia Zawodowego w Szczucinie","name":"Centrum Kszta\u0142cenia Zawodowego w Szczucinie","addr:country":"PL","addr:postcode":"33-230","addr:city":"Szczucin","addr:street":"ul. Witosa","addr:housenumber":"2","addr:teryt:simc":24454,"addr:teryt:sym_ul":831149,"contact:phone":"+48 146436421","contact:email":"sekretariat@pceikz.pl","contact:website":"http:\/\/www.pceikz.pl","ref:regon":"123081300","operator":"Powiat D\u0105browski","operator:type":"government","fixme":"w zale\u017cno\u015bci od przedmiotu dzia\u0142alno\u015bci (np. amenity=training + training=*, amenity=dancing_school, amenity=language_school, amenity=music_school) albo amenity=school, amenity=college, albo landuse=education w zale\u017cno\u015bci od tego, jakie plac\u00f3wki wchodz\u0105 w sk\u0142ad zespo\u0142u. Sprawd\u017a, kiedy stosowa\u0107 amenity=* a kiedy landuse=education.","note":"Parent RSPO: 118821"}},{"id":131236,"type":"Feature","geometry":{"type":"Point","coordinates":[21.09012,50.31204]},"properties":{"ref:rspo":131236,"official_name":"Szkolne Schronisko M\u0142odzie\u017cowe w Powiatowym Centrum Edukacji I Kompetencji Zawodowych w Szczucinie","name":"Szkolne Schronisko M\u0142odzie\u017cowe w Powiatowym Centrum Edukacji I Kompetencji Zawodowych w Szczucinie","addr:country":"PL","addr:postcode":"33-230","addr:city":"Szczucin","addr:street":"ul. Witosa","addr:housenumber":"2","addr:teryt:simc":24454,"addr:teryt:sym_ul":831149,"contact:phone":"+48 146436421","ref:regon":"365051492","operator":"Powiat D\u0105browski","operator:type":"government","tourism":"hostel","note":"Parent RSPO: 118821"}},{"id":60809,"type":"Feature","geometry":{"type":"Point","coordinates":[21.07733,50.3123099]},"properties":{"ref:rspo":60809,"official_name":"Przedszkole Publiczne Nr1 w Szczucinie","name":"Przedszkole Publiczne Nr1 w Szczucinie","addr:country":"PL","addr:postcode":"33-230","addr:city":"Szczucin","addr:street":"ul. Rudnickiego","addr:housenumber":"19","addr:teryt:simc":19065,"addr:teryt:sym_ul":831149,"contact:phone":"+48 146436367","contact:email":"przedszkoleszczucin@poczta.onet.pl","ref:regon":"851785321","ref:vatin":"PL8711594848","operator":"Gmina Szczucin","operator:type":"government","amenity":"kindergarten"}},{"id":91375,"type":"Feature","geometry":{"type":"Point","coordinates":[21.07657,50.31373]},"properties":{"isced:level":"1;2","ref:rspo":91375,"official_name":"Szko\u0142a Podstawowa im. Adama Mickiewicza w Szczucinie","name":"Szko\u0142a Podstawowa","addr:country":"PL","addr:postcode":"33-230","addr:city":"Szczucin","addr:street":"ul. Ko\u015bciuszki","addr:housenumber":"30","addr:teryt:simc":9572,"addr:teryt:sym_ul":831149,"contact:phone":"+48 146436426","contact:email":"sekretariat@sp-szczucin.pl","contact:website":"http:\/\/www.sp-szczucin.pl","ref:regon":"000676803","ref:vatin":"PL8711771569","operator":"Gmina Szczucin","operator:type":"government","amenity":"school"}},{"id":268329,"type":"Feature","geometry":{"type":"Point","coordinates":[21.14358,50.3176599]},"properties":{"ref:rspo":268329,"official_name":"Zesp\u00f3\u0142 Szkolno - Przedszkolny w Borkach","name":"Zesp\u00f3\u0142 Szkolno - Przedszkolny w Borkach","addr:country":"PL","addr:postcode":"33-230","addr:place":"Borki","addr:housenumber":"164","addr:teryt:sym_ul":830463,"contact:phone":"+48 146431224","contact:email":"zsborki@poczta.onet.pl","contact:website":"http:\/\/www.zsborki.edu.pl","ref:regon":"381095525","ref:vatin":"PL8711774409","operator":"Gmina Szczucin","operator:type":"government","landuse":"education","fixme":"amenity=school, amenity=college albo landuse=education w zale\u017cno\u015bci od tego, jakie plac\u00f3wki wchodz\u0105 w sk\u0142ad zespo\u0142u. Sprawd\u017a, kiedy stosowa\u0107 amenity=* a kiedy landuse=education.","note":"Children RSPO: 91378;103524"}},{"id":91378,"type":"Feature","geometry":{"type":"Point","coordinates":[21.14358,50.3176299]},"properties":{"ref:rspo":91378,"official_name":"Przedszkole Publiczne w Borkach","name":"Przedszkole Publiczne w Borkach","addr:country":"PL","addr:postcode":"33-230","addr:place":"Borki","addr:housenumber":"164","addr:teryt:sym_ul":830463,"contact:phone":"+48 146431224","contact:email":"zsborki@poczta.onet.pl","ref:regon":"851785309","ref:vatin":"PL8711594854","operator":"Gmina Szczucin","operator:type":"government","amenity":"kindergarten","note":"Parent RSPO: 268329"}},{"id":103524,"type":"Feature","geometry":{"type":"Point","coordinates":[21.14358,50.317599900000005]},"properties":{"isced:level":"1;2","ref:rspo":103524,"official_name":"Szko\u0142a Podstawowa w Borkach","name":"Szko\u0142a Podstawowa w Borkach","addr:country":"PL","addr:postcode":"33-230","addr:place":"Borki","addr:housenumber":"164","addr:teryt:sym_ul":830463,"contact:phone":"+48 146431224","contact:email":"zsborki@poczta.onet.pl","ref:regon":"001188684","ref:vatin":"PL8711645675","operator":"Gmina Szczucin","operator:type":"government","amenity":"school","note":"Parent RSPO: 268329"}},{"id":91314,"type":"Feature","geometry":{"type":"Point","coordinates":[21.19545,50.321]},"properties":{"ref:rspo":91314,"official_name":"Zesp\u00f3\u0142 Szkolno-Przedszkolny w S\u0142upcu","name":"Zesp\u00f3\u0142 Szkolno-Przedszkolny w S\u0142upcu","addr:country":"PL","addr:postcode":"33-230","addr:place":"S\u0142upiec","addr:housenumber":"27","addr:teryt:sym_ul":831008,"contact:phone":"+48 146431296","contact:email":"zspslupiec@op.pl","contact:website":"http:\/\/www.zspslupiec.cba.pl","ref:regon":"852745772","ref:vatin":"PL8711677385","operator":"Gmina Szczucin","operator:type":"government","landuse":"education","fixme":"amenity=school, amenity=college albo landuse=education w zale\u017cno\u015bci od tego, jakie plac\u00f3wki wchodz\u0105 w sk\u0142ad zespo\u0142u. Sprawd\u017a, kiedy stosowa\u0107 amenity=* a kiedy landuse=education.","note":"Children RSPO: 103989;103990"}},{"id":103989,"type":"Feature","geometry":{"type":"Point","coordinates":[21.19545,50.320969999999996]},"properties":{"isced:level":"1;2","ref:rspo":103989,"official_name":"Szko\u0142a Podstawowa im. Stanis\u0142awa Klimczaka w S\u0142upcu","name":"Szko\u0142a Podstawowa","addr:country":"PL","addr:postcode":"33-230","addr:place":"S\u0142upiec","addr:housenumber":"27","addr:teryt:sym_ul":831008,"contact:phone":"+48 146431296","contact:email":"zspslupiec@op.pl","ref:regon":"001188313","ref:vatin":"PL8711589959","operator":"Gmina Szczucin","operator:type":"government","amenity":"school","note":"Parent RSPO: 91314"}},{"id":103990,"type":"Feature","geometry":{"type":"Point","coordinates":[21.19545,50.32094]},"properties":{"ref:rspo":103990,"official_name":"Przedszkole Publiczne w S\u0142upcu","name":"Przedszkole Publiczne w S\u0142upcu","addr:country":"PL","addr:postcode":"33-230","addr:place":"S\u0142upiec","addr:housenumber":"27","addr:teryt:sym_ul":831008,"contact:phone":"+48 146431296","contact:email":"spslupiec@op.pl","ref:regon":"122733461","operator":"Gmina Szczucin","operator:type":"government","amenity":"kindergarten","note":"Parent RSPO: 91314"}},{"id":103998,"type":"Feature","geometry":{"type":"Point","coordinates":[21.13413,50.34589]},"properties":{"ref:rspo":103998,"official_name":"Przedszkole Publiczne w Maniowie","name":"Przedszkole Publiczne w Maniowie","addr:country":"PL","addr:postcode":"33-230","addr:place":"Mani\u00f3w","addr:housenumber":"149","addr:teryt:sym_ul":830820,"contact:phone":"+48 146431227","contact:email":"zspmaniow@onet.eu","ref:regon":"121600663","ref:vatin":"PL8711774415","operator":"Gmina Szczucin","operator:type":"government","amenity":"kindergarten"}}]}