{"type":"FeatureCollection","features":[{"id":5988,"type":"Feature","geometry":{"type":"Point","coordinates":[21.05539,50.11722]},"properties":{"isced:level":"1;2","ref:rspo":5988,"official_name":"Szko\u0142a Podstawowa im.tadeusza Ko\u015bciuszki w Lipinach","name":"Szko\u0142a Podstawowa im.tadeusza Ko\u015bciuszki w Lipinach","addr:country":"PL","addr:postcode":"33-206","addr:place":"Lipiny","addr:housenumber":"106","addr:teryt:sym_ul":817586,"contact:phone":"+48 146421226","contact:email":"psplipiny@op.pl","contact:website":"http:\/\/psplipiny.hejnet.pl","ref:regon":"122646638","ref:vatin":"PL8711598415","operator":"Agata Le\u017co\u0144","operator:type":"private","amenity":"school"}},{"id":115161,"type":"Feature","geometry":{"type":"Point","coordinates":[20.96536,50.12348]},"properties":{"isced:level":"1;2","ref:rspo":115161,"official_name":"Szko\u0142a Podstawowa im. Gen. J\u00f3zefa Bema w Lask\u00f3wce Chor\u0105skiej","name":"Szko\u0142a Podstawowa","addr:country":"PL","addr:postcode":"33-200","addr:city":"Lask\u00f3wka Chor\u0105ska","addr:street":"ul. Centralna","addr:housenumber":"100","addr:teryt:simc":2614,"addr:teryt:sym_ul":817557,"contact:phone":"+48 146421630","contact:email":"splaskowka1@op.pl","contact:website":"http:\/\/splaskowka.pl","ref:regon":"122880713","ref:vatin":"PL8711595776","operator":"Teresa D\u0105browa","operator:type":"private","amenity":"school"}},{"id":115287,"type":"Feature","geometry":{"type":"Point","coordinates":[21.04852,50.14109]},"properties":{"isced:level":"1;2","ref:rspo":115287,"official_name":"Szko\u0142a Podstawowa im. Jubileuszu 2000-Lecia Chrze\u015bcija\u0144stwa w Szarwarku","name":"Szko\u0142a Podstawowa","addr:country":"PL","addr:postcode":"33-200","addr:place":"Szarwark","addr:housenumber":"2","addr:teryt:sym_ul":817818,"contact:phone":"+48 146559330","contact:email":"pspszarwark@wp.pl","contact:website":"http:\/\/pspszarwark.pl","ref:regon":"122885946","ref:vatin":"PL8711595730","operator":"Aneta Or\u0142owska","operator:type":"private","amenity":"school"}},{"id":268131,"type":"Feature","geometry":{"type":"Point","coordinates":[20.98403,50.14855]},"properties":{"ref:rspo":268131,"official_name":"Zesp\u00f3\u0142 Szkolno-Przedszkolny w \u017belaz\u00f3wce","name":"Zesp\u00f3\u0142 Szkolno-Przedszkolny w \u017belaz\u00f3wce","addr:country":"PL","addr:postcode":"33-200","addr:place":"\u017belaz\u00f3wka","addr:housenumber":"1A i 1B","addr:teryt:sym_ul":817847,"contact:phone":"+48 146559237","contact:email":"nnspzelazowka@gmail.com","contact:website":"http:\/\/szkolazelazowka.edupage.org","ref:regon":"380958088","ref:vatin":"PL9930355222","operator":"Magdalena Woynarowska-Piasecka","operator:type":"private","landuse":"education","fixme":"amenity=school, amenity=college albo landuse=education w zale\u017cno\u015bci od tego, jakie plac\u00f3wki wchodz\u0105 w sk\u0142ad zespo\u0142u. Sprawd\u017a, kiedy stosowa\u0107 amenity=* a kiedy landuse=education.","note":"Children RSPO: 83312;267979"}},{"id":83312,"type":"Feature","geometry":{"type":"Point","coordinates":[20.98403,50.14852]},"properties":{"isced:level":"1;2","ref:rspo":83312,"official_name":"Niepubliczna Szko\u0142a Podstawowa w \u017belaz\u00f3wce","name":"Niepubliczna Szko\u0142a Podstawowa w \u017belaz\u00f3wce","addr:country":"PL","addr:postcode":"33-200","addr:place":"\u017belaz\u00f3wka","addr:housenumber":"1","addr:door":"A i B","addr:teryt:sym_ul":817847,"contact:phone":"+48 146559237","contact:email":"nnspzelazowka@gmail.com","contact:website":"http:\/\/szkolazelazowka.edupage.org","ref:regon":"122708670","operator":"Magdalena Woynarowska-Piasecka","operator:type":"private","amenity":"school","note":"Parent RSPO: 268131"}},{"id":267979,"type":"Feature","geometry":{"type":"Point","coordinates":[20.98403,50.14849]},"properties":{"ref:rspo":267979,"official_name":"Przedszkole Niepubliczne w \u017belaz\u00f3wce","name":"Przedszkole Niepubliczne w \u017belaz\u00f3wce","addr:country":"PL","addr:postcode":"33-200","addr:place":"\u017belaz\u00f3wka","addr:housenumber":"1A","addr:teryt:sym_ul":817847,"contact:phone":"+48 502933202","contact:email":"nnspzelazowka@gmail.com","ref:regon":"380808408","operator":"Magdalena Woynarowska-Piasecka","operator:type":"private","amenity":"kindergarten","note":"Parent RSPO: 268131"}},{"id":79044,"type":"Feature","geometry":{"type":"Point","coordinates":[20.98286,50.16848]},"properties":{"isced:level":"3","ref:rspo":79044,"official_name":"I Liceum Og\u00f3lnokszta\u0142c\u0105ce im. Tadeusza Ko\u015bciuszki w D\u0105browie Tarnowskiej","name":"I Liceum Og\u00f3lnokszta\u0142c\u0105ce","addr:country":"PL","addr:postcode":"33-200","addr:city":"D\u0105browa Tarnowska","addr:street":"ul. Marsza\u0142ka J\u00f3zefa Pi\u0142sudskiego","addr:housenumber":"44","addr:teryt:simc":36029,"addr:teryt:sym_ul":982167,"contact:phone":"+48 146422394","contact:email":"sekretariat@lo-dabrowa.tarnow.pl","contact:website":"http:\/\/www.lo-dabrowa.tarnowska.pl","ref:regon":"000738190","ref:vatin":"PL8711648886","operator":"Powiat D\u0105browski","operator:type":"government","amenity":"school"}},{"id":121771,"type":"Feature","geometry":{"type":"Point","coordinates":[20.98415,50.16917]},"properties":{"ref:rspo":121771,"official_name":"Szkolne Schronisko M\u0142odzie\u017cowe w D\u0105browie Tarnowskiej","name":"Szkolne Schronisko M\u0142odzie\u017cowe w D\u0105browie Tarnowskiej","addr:country":"PL","addr:postcode":"33-200","addr:city":"D\u0105browa Tarnowska","addr:street":"ul. Marsza\u0142ka J\u00f3zefa Pi\u0142sudskiego","addr:housenumber":"33","addr:teryt:simc":36029,"addr:teryt:sym_ul":982167,"contact:phone":"+48 146424100","contact:email":"zsp2dt@gmail.com","ref:regon":"123038303","operator":"Powiat D\u0105browski","operator:type":"government","tourism":"hostel","note":"Parent RSPO: 74123"}},{"id":86730,"type":"Feature","geometry":{"type":"Point","coordinates":[21.0641914,50.1702307]},"properties":{"ref:rspo":86730,"official_name":"Przedszkole w Nieczajnie G\u00f3rnej","name":"Przedszkole w Nieczajnie G\u00f3rnej","addr:country":"PL","addr:postcode":"33-205","addr:place":"Nieczajna G\u00f3rna","addr:housenumber":"108","addr:teryt:sym_ul":817652,"contact:phone":"+48 146421425","contact:email":"przedszkole.nieczajna@gmail.com","contact:website":"http:\/\/przedszkolenieczajna.wordpress.com","ref:regon":"851785060","ref:vatin":"PL8711599308","operator":"Gmina D\u0105browa Tarnowska","operator:type":"government","amenity":"kindergarten"}},{"id":84159,"type":"Feature","geometry":{"type":"Point","coordinates":[20.98739,50.17259]},"properties":{"isced:level":"1;2","ref:rspo":84159,"official_name":"Szko\u0142a Podstawowa Nr 1 im. Jana Paw\u0142a II w D\u0105browie Tarnowskiej","name":"Szko\u0142a Podstawowa Nr 1","addr:country":"PL","addr:postcode":"33-200","addr:city":"D\u0105browa Tarnowska","addr:street":"ul. Ko\u015bcielna","addr:housenumber":"25A","addr:teryt:simc":9546,"addr:teryt:sym_ul":982167,"contact:phone":"+48 146554709","contact:email":"pspnr1@interia.pl","contact:website":"http:\/\/pspnr1dt.pl","ref:regon":"001201410","ref:vatin":"PL8711594883","operator":"Gmina D\u0105browa Tarnowska","operator:type":"government","amenity":"school"}},{"id":92943,"type":"Feature","geometry":{"type":"Point","coordinates":[20.98628,50.17273]},"properties":{"ref:rspo":92943,"official_name":"Przedszkole Niepubliczne Ochronka im. Jana Paw\u0142a II Zgromadzenie S.s.s\u0142u\u017cebniczek Nmp Np w D\u0105browie Tarnowskiej","name":"Przedszkole Niepubliczne Ochronka","addr:country":"PL","addr:postcode":"33-200","addr:city":"D\u0105browa Tarnowska","addr:street":"ul. R\u00f3\u017cana","addr:housenumber":"2","addr:teryt:simc":19000,"addr:teryt:sym_ul":982167,"contact:phone":"+48 146422668","contact:email":"martusiak1411@wp.pl","contact:website":"http:\/\/ochronkadt.pl","ref:regon":"122728773","ref:vatin":"PL8711565769","operator":"Zgromadzenie Si\u00f3str S\u0142u\u017cebniczek Naj\u015bwi\u0119tszej Maryi Panny Niepokalanie Pocz\u0119tej Prowincja Tarnowska","operator:type":"religious","amenity":"kindergarten"}},{"id":133829,"type":"Feature","geometry":{"type":"Point","coordinates":[20.97881,50.17306]},"properties":{"isced:level":"1;2","ref:rspo":133829,"official_name":"Szko\u0142a Podstawowa Nr 3 im. Bohater\u00f3w Powi\u015bla D\u0105browskiego w D\u0105browie Tarnowskiej","name":"Szko\u0142a Podstawowa Nr 3","addr:country":"PL","addr:postcode":"33-200","addr:city":"D\u0105browa Tarnowska","addr:street":"ul. Zazamcze","addr:housenumber":"3","addr:teryt:simc":25877,"addr:teryt:sym_ul":982167,"contact:phone":"+48 146554223","contact:email":"dyrpg2dt@poczta.onet.pl","contact:website":"http:\/\/sp3dt.pl","ref:regon":"367676807","ref:vatin":"PL8711773083","operator":"Gmina D\u0105browa Tarnowska","operator:type":"government","amenity":"school"}},{"id":86698,"type":"Feature","geometry":{"type":"Point","coordinates":[20.97887,50.17354]},"properties":{"ref:rspo":86698,"official_name":"Przedszkole Nr 2 w D\u0105browie Tarnowskiej","name":"Przedszkole Nr 2 w D\u0105browie Tarnowskiej","addr:country":"PL","addr:postcode":"33-200","addr:city":"D\u0105browa Tarnowska","addr:street":"ul. Zazamcze","addr:housenumber":"12","addr:teryt:simc":25877,"addr:teryt:sym_ul":982167,"contact:phone":"+48 146559220","contact:email":"ppnr2@ppnr2.pl","contact:website":"http:\/\/ppnr2.pl","ref:regon":"851785025","ref:vatin":"PL8711599225","operator":"Gmina D\u0105browa Tarnowska","operator:type":"government","amenity":"kindergarten"}},{"id":74123,"type":"Feature","geometry":{"type":"Point","coordinates":[20.9835,50.1742599]},"properties":{"ref:rspo":74123,"official_name":"Zesp\u00f3\u0142 Szk\u00f3\u0142 im. Krzysztofa Kamila Baczy\u0144skiego w D\u0105browie Tarnowskiej","name":"Zesp\u00f3\u0142 Szk\u00f3\u0142","addr:country":"PL","addr:postcode":"33-200","addr:city":"D\u0105browa Tarnowska","addr:street":"ul. Ko\u015bciuszki","addr:housenumber":"5","addr:teryt:simc":9572,"addr:teryt:sym_ul":982167,"contact:phone":"+48 146422521","contact:email":"zsp2dt@gmail.com","contact:website":"http:\/\/www.zsdt.edu.pl","ref:regon":"000198491","ref:vatin":"PL8711009838","operator":"Powiat D\u0105browski","operator:type":"government","landuse":"education","fixme":"amenity=school, amenity=college albo landuse=education w zale\u017cno\u015bci od tego, jakie plac\u00f3wki wchodz\u0105 w sk\u0142ad zespo\u0142u. Sprawd\u017a, kiedy stosowa\u0107 amenity=* a kiedy landuse=education.","note":"Children RSPO: 79936;82470;82475;82618;119163;121771"}},{"id":79936,"type":"Feature","geometry":{"type":"Point","coordinates":[20.9835,50.1742299]},"properties":{"isced:level":"3","ref:rspo":79936,"official_name":"Liceum Og\u00f3lnokszta\u0142c\u0105ce dla Doros\u0142ych w D\u0105browie Tarnowskiej","name":"Liceum Og\u00f3lnokszta\u0142c\u0105ce dla Doros\u0142ych w D\u0105browie Tarnowskiej","addr:country":"PL","addr:postcode":"33-200","addr:city":"D\u0105browa Tarnowska","addr:street":"ul. Ko\u015bciuszki","addr:housenumber":"5","addr:teryt:simc":9572,"addr:teryt:sym_ul":982167,"contact:phone":"+48 146424100","ref:regon":"852752186","operator":"Powiat D\u0105browski","operator:type":"government","amenity":"school","note":"Parent RSPO: 74123"}},{"id":82470,"type":"Feature","geometry":{"type":"Point","coordinates":[20.9835,50.174199900000005]},"properties":{"isced:level":"3","ref:rspo":82470,"official_name":"Technikum Nr 1 w D\u0105browie Tarnowskiej","name":"Technikum Nr 1 w D\u0105browie Tarnowskiej","addr:country":"PL","addr:postcode":"33-200","addr:city":"D\u0105browa Tarnowska","addr:street":"ul. Ko\u015bciuszki","addr:housenumber":"5","addr:teryt:simc":9572,"addr:teryt:sym_ul":982167,"contact:phone":"+48 146422521","contact:email":"zsp2dt@gmail.com","contact:website":"http:\/\/www.zsdt.edu.pl","ref:regon":"852709641","operator":"Powiat D\u0105browski","operator:type":"government","amenity":"school","note":"Parent RSPO: 74123"}},{"id":82475,"type":"Feature","geometry":{"type":"Point","coordinates":[20.9835,50.1741699]},"properties":{"isced:level":"3","ref:rspo":82475,"official_name":"Ii Liceum Og\u00f3lnokszta\u0142c\u0105ce w D\u0105browie Tarnowskiej","name":"Ii Liceum Og\u00f3lnokszta\u0142c\u0105ce w D\u0105browie Tarnowskiej","addr:country":"PL","addr:postcode":"33-200","addr:city":"D\u0105browa Tarnowska","addr:street":"ul. Ko\u015bciuszki","addr:housenumber":"5","addr:teryt:simc":9572,"addr:teryt:sym_ul":982167,"contact:phone":"+48 146422521","contact:email":"zsp2dt@gmail.com","contact:website":"http:\/\/www.zsdt.edu.pl","ref:regon":"852650592","operator":"Powiat D\u0105browski","operator:type":"government","amenity":"school","note":"Parent RSPO: 74123"}},{"id":82618,"type":"Feature","geometry":{"type":"Point","coordinates":[20.9835,50.1741399]},"properties":{"isced:level":"3","ref:rspo":82618,"official_name":"Bran\u017cowa Szko\u0142a I Stopnia w D\u0105browie Tarnowskiej","name":"Bran\u017cowa Szko\u0142a I Stopnia w D\u0105browie Tarnowskiej","addr:country":"PL","addr:postcode":"33-200","addr:city":"D\u0105browa Tarnowska","addr:street":"ul. Ko\u015bciuszki","addr:housenumber":"5","addr:teryt:simc":9572,"addr:teryt:sym_ul":982167,"contact:phone":"+48 146422521","contact:email":"zsp2dt@gmail.com","contact:website":"http:\/\/www.zsdt.edu.pl","ref:regon":"852709530","operator":"Powiat D\u0105browski","operator:type":"government","amenity":"school","note":"Parent RSPO: 74123"}},{"id":119163,"type":"Feature","geometry":{"type":"Point","coordinates":[20.9835,50.174109900000005]},"properties":{"isced:level":"4","ref:rspo":119163,"official_name":"Szko\u0142a Policealna Nr 2 w D\u0105browie Tarnowskiej","name":"Szko\u0142a Policealna Nr 2 w D\u0105browie Tarnowskiej","addr:country":"PL","addr:postcode":"33-200","addr:city":"D\u0105browa Tarnowska","addr:street":"ul. Ko\u015bciuszki","addr:housenumber":"5","addr:teryt:simc":9572,"addr:teryt:sym_ul":982167,"contact:phone":"+48 146422521","contact:email":"zsp2dt@gmail.com","ref:regon":"122930598","operator":"Powiat D\u0105browski","operator:type":"government","amenity":"college","note":"Parent RSPO: 74123"}},{"id":86697,"type":"Feature","geometry":{"type":"Point","coordinates":[20.98272,50.17518]},"properties":{"ref:rspo":86697,"official_name":"Przedszkole Nr 1 w D\u0105browie Tarnowskiej","name":"Przedszkole Nr 1 w D\u0105browie Tarnowskiej","addr:country":"PL","addr:postcode":"33-200","addr:city":"D\u0105browa Tarnowska","addr:street":"ul. Jakuba Bojki","addr:housenumber":"4","addr:teryt:simc":1716,"addr:teryt:sym_ul":982167,"contact:phone":"+48 146559226","contact:email":"przedszkole@przedszkole1dt.pl","contact:website":"http:\/\/przedszkole1dt.pl","ref:regon":"851784994","ref:vatin":"PL8711599219","operator":"Gmina D\u0105browa Tarnowska","operator:type":"government","amenity":"kindergarten"}},{"id":84160,"type":"Feature","geometry":{"type":"Point","coordinates":[20.9845,50.17615]},"properties":{"isced:level":"1;2","ref:rspo":84160,"official_name":"Szko\u0142a Podstawowa Nr 2 im. Miko\u0142aja Kopernika w D\u0105browie Tarnowskiej","name":"Szko\u0142a Podstawowa Nr 2","addr:country":"PL","addr:postcode":"33-200","addr:city":"D\u0105browa Tarnowska","addr:street":"ul. Matejki","addr:housenumber":"8","addr:teryt:simc":12485,"addr:teryt:sym_ul":982167,"contact:phone":"+48 731952555","contact:email":"sp2dt@wp.pl","contact:website":"http:\/\/sp2dt.pl","ref:regon":"001201427","ref:vatin":"PL8711595799","operator":"Gmina D\u0105browa Tarnowska","operator:type":"government","amenity":"school"}},{"id":24919,"type":"Feature","geometry":{"type":"Point","coordinates":[20.98707,50.17653]},"properties":{"ref:rspo":24919,"official_name":"Biblioteka Pedagogiczna w Tarnowie Filia w D\u0105browie Tarnowskiej","name":"Biblioteka Pedagogiczna w Tarnowie Filia w D\u0105browie Tarnowskiej","addr:country":"PL","addr:postcode":"33-200","addr:city":"D\u0105browa Tarnowska","addr:street":"ul. Polna","addr:housenumber":"13","addr:teryt:simc":17011,"addr:teryt:sym_ul":982167,"contact:phone":"+48 146422337","contact:email":"dabrowat@bpt.edu.pl","contact:website":"http:\/\/www.bpt.edu.pl","ref:regon":"850002311","operator":"Wojew\u00f3dztwo Ma\u0142opolskie","operator:type":"government","amenity":"library","note":"Parent RSPO: 18897"}},{"id":74353,"type":"Feature","geometry":{"type":"Point","coordinates":[20.9777999,50.17701]},"properties":{"ref:rspo":74353,"official_name":"Poradnia Psychologiczno-Pedagogiczna w D\u0105browie Tarnowskiej","name":"Poradnia Psychologiczno-Pedagogiczna w D\u0105browie Tarnowskiej","addr:country":"PL","addr:postcode":"33-200","addr:city":"D\u0105browa Tarnowska","addr:street":"ul. Szpitalna","addr:housenumber":"1","addr:teryt:simc":22073,"addr:teryt:sym_ul":982167,"contact:phone":"+48 146422711","contact:email":"pppdabrowa@interia.pl","contact:website":"http:\/\/www.poradnia-dt.pl","ref:regon":"001053872","ref:vatin":"PL8711541591","operator":"Powiat D\u0105browski","operator:type":"government","healthcare":"councelling","counselling_type":"education","fixme":"w zale\u017cno\u015bci od przedmiotu dzia\u0142alno\u015bci (np. healthcare=councelling + counselling_type=education albo healthcare=psychotherapist)"}},{"id":86165,"type":"Feature","geometry":{"type":"Point","coordinates":[21.04675,50.17946]},"properties":{"isced:level":"1;2","ref:rspo":86165,"official_name":"Szko\u0142a Podstawowa im. B\u0142ogos\u0142awionego Ks. Jerzego Popie\u0142uszki w Nieczajnie G\u00f3rnej","name":"Szko\u0142a Podstawowa","addr:country":"PL","addr:postcode":"33-205","addr:place":"Nieczajna G\u00f3rna","addr:housenumber":"337","addr:teryt:sym_ul":817652,"contact:phone":"+48 146421424","contact:email":"pspng@wp.pl","contact:website":"http:\/\/www.spnieczajna.pl","ref:regon":"001201462","ref:vatin":"PL8711598421","operator":"Gmina D\u0105browa Tarnowska","operator:type":"government","amenity":"school"}},{"id":89365,"type":"Feature","geometry":{"type":"Point","coordinates":[21.03306,50.19179]},"properties":{"isced:level":"1;2","ref:rspo":89365,"official_name":"Szko\u0142a Podstawowa im. Kardyna\u0142a Stefana Wyszy\u0144skiego w Gruszowie Wielkim","name":"Szko\u0142a Podstawowa","addr:country":"PL","addr:postcode":"33-200","addr:place":"Grusz\u00f3w Wielki","addr:housenumber":"210","addr:teryt:sym_ul":817497,"contact:phone":"+48 146423939","contact:email":"spgruszow@wp.pl","contact:website":"http:\/\/zspiggw.malopolska.pl","ref:regon":"001201433","ref:vatin":"PL8711598384","operator":"Gmina D\u0105browa Tarnowska","operator:type":"government","amenity":"school"}},{"id":74529,"type":"Feature","geometry":{"type":"Point","coordinates":[21.0558799,50.22246]},"properties":{"ref:rspo":74529,"official_name":"O\u015brodek Rewalidacyjno-Wychowawczy dla Dzieci Niepe\u0142nosprawnych w D\u0105browie Tarnowskiej Z Siedzib\u0105 w Sutkowie","name":"O\u015brodek Rewalidacyjno-Wychowawczy dla Dzieci Niepe\u0142nosprawnych w D\u0105browie Tarnowskiej Z Siedzib\u0105 w Sutkowie","addr:country":"PL","addr:postcode":"33-202","addr:place":"Sutk\u00f3w","addr:housenumber":"88","addr:teryt:sym_ul":817770,"contact:phone":"+48 146429119","contact:email":"osrodek@orw-wych.pl","ref:regon":"122709155","ref:vatin":"PL8711743001","operator":"Stowarzyszenie Na Rzecz Os\u00f3b Niepe\u0142nosprawnych \"Pomocna D\u0142o\u0144\" W D\u0105browie Tarnowskiej","operator:type":"ngo","amenity":"school"}},{"id":86238,"type":"Feature","geometry":{"type":"Point","coordinates":[21.004,50.22916]},"properties":{"isced:level":"1;2","ref:rspo":86238,"official_name":"Szko\u0142a Podstawowa im. Kornela Makuszy\u0144skiego w Sm\u0119gorzowie","name":"Szko\u0142a Podstawowa","addr:country":"PL","addr:postcode":"33-202","addr:place":"Sm\u0119gorz\u00f3w","addr:housenumber":"330","addr:teryt:sym_ul":817698,"contact:phone":"+48 146421521","contact:email":"sekretariat@spsmegorzow.pl","contact:website":"http:\/\/www.spsmegorzow.pl","ref:regon":"001201479","ref:vatin":"PL8711595670","operator":"Gmina D\u0105browa Tarnowska","operator:type":"government","amenity":"school"}},{"id":87475,"type":"Feature","geometry":{"type":"Point","coordinates":[20.99548,50.23299]},"properties":{"ref:rspo":87475,"official_name":"Przedszkole w Sm\u0119gorzowie","name":"Przedszkole w Sm\u0119gorzowie","addr:country":"PL","addr:postcode":"33-202","addr:place":"Sm\u0119gorz\u00f3w","addr:housenumber":"2","addr:teryt:sym_ul":817698,"contact:phone":"+48 146421588","contact:email":"przedszkolesmegorzow@gmail.com","contact:website":"http:\/\/przedszkolesmegorzow.wordpress.com","ref:regon":"851785083","ref:vatin":"PL8711599202","operator":"Gmina D\u0105browa Tarnowska","operator:type":"government","amenity":"kindergarten"}}]}