{
    "type": "FeatureCollection",
    "features": [
        {
            "id": 124006,
            "type": "Feature",
            "geometry": {
                "type": "Point",
                "coordinates": [
                    16.91397,
                    52.97285
                ]
            },
            "properties": {
                "isced:level": "1;2",
                "ref:rspo": 124006,
                "official_name": "Prywatna Szko\u0142a Podstawowa im. \u015aw. Jana Bosko",
                "name": "Prywatna Szko\u0142a Podstawowa",
                "addr:country": "PL",
                "addr:postcode": "64-800",
                "addr:city": "Chodzie\u017c",
                "addr:street": "Tadeusza Siejaka",
                "addr:housenumber": "29",
                "addr:teryt:simc": 28069,
                "addr:teryt:sym_ul": 966760,
                "contact:phone": "+48 672810025",
                "contact:email": "jpietraszak@wp.pl",
                "ref:regon": "302795454",
                "operator": "Joanna Pietraszak",
                "operator:type": "private",
                "amenity": "school"
            }
        },
        {
            "id": 267363,
            "type": "Feature",
            "geometry": {
                "type": "Point",
                "coordinates": [
                    16.91348,
                    52.97574
                ]
            },
            "properties": {
                "ref:rspo": 267363,
                "official_name": "Demjark Jaros\u0142aw Demczy\u0144ski",
                "name": "Demjark Jaros\u0142aw Demczy\u0144ski",
                "addr:country": "PL",
                "addr:postcode": "64-800",
                "addr:city": "Chodzie\u017c",
                "addr:street": "Podg\u00f3rna",
                "addr:housenumber": "52c",
                "addr:teryt:simc": 16742,
                "addr:teryt:sym_ul": 966760,
                "ref:regon": "380206537",
                "ref:vatin": "PL7641616572",
                "operator": "Jaros\u0142aw Demczy\u0144ski",
                "operator:type": "private",
                "fixme": "w zale\u017cno\u015bci od przedmiotu dzia\u0142alno\u015bci (np. amenity=training + training=*, amenity=dancing_school, amenity=language_school, amenity=music_school)"
            }
        },
        {
            "id": 58886,
            "type": "Feature",
            "geometry": {
                "type": "Point",
                "coordinates": [
                    16.91473,
                    52.98625
                ]
            },
            "properties": {
                "isced:level": "1;2",
                "ref:rspo": 58886,
                "official_name": "Szko\u0142a Podstawowa Nr 3 im. Powsta\u0144c\u00f3w Wielkopolskich",
                "name": "Szko\u0142a Podstawowa Nr 3",
                "addr:country": "PL",
                "addr:postcode": "64-800",
                "addr:city": "Chodzie\u017c",
                "addr:street": "Jana Kochanowskiego",
                "addr:housenumber": "1",
                "addr:teryt:simc": 8728,
                "addr:teryt:sym_ul": 966760,
                "contact:phone": "+48 672812535",
                "contact:email": "szkola.podstawowa3@chodziez.pl",
                "ref:regon": "000701330",
                "ref:vatin": "PL6070008895",
                "operator": "Gmina Miejska W Chodzie\u017cy",
                "operator:type": "government",
                "amenity": "school"
            }
        },
        {
            "id": 18475,
            "type": "Feature",
            "geometry": {
                "type": "Point",
                "coordinates": [
                    16.909,
                    52.98645
                ]
            },
            "properties": {
                "ref:rspo": 18475,
                "official_name": "M\u0142odzie\u017cowy O\u015brodek Socjoterapii im. Marii Grzegorzewskiej w Chodzie\u017cy",
                "name": "M\u0142odzie\u017cowy O\u015brodek Socjoterapii",
                "addr:country": "PL",
                "addr:postcode": "64-800",
                "addr:city": "Chodzie\u017c",
                "addr:street": "Strzelecka",
                "addr:housenumber": "11",
                "addr:teryt:simc": 21381,
                "addr:teryt:sym_ul": 966760,
                "contact:phone": "+48 672147802",
                "contact:email": "mos-chodziez@wp.pl",
                "contact:website": "http:\/\/www.moschodziez.wordpress.com",
                "ref:regon": "301777112",
                "ref:vatin": "PL6070076313",
                "operator": "Powiat Chodzieski",
                "operator:type": "government",
                "fixme": "amenity=social_facility + social_facility=group_home + social_facility:for=juvenile",
                "note": "Children RSPO: 91262"
            }
        },
        {
            "id": 91262,
            "type": "Feature",
            "geometry": {
                "type": "Point",
                "coordinates": [
                    16.909,
                    52.986419999999995
                ]
            },
            "properties": {
                "isced:level": "1;2",
                "ref:rspo": 91262,
                "official_name": "Szko\u0142a Podstawowa Specjalna w Chodzie\u017cy",
                "name": "Szko\u0142a Podstawowa Specjalna w Chodzie\u017cy",
                "addr:country": "PL",
                "addr:postcode": "64-800",
                "addr:city": "Chodzie\u017c",
                "addr:street": "Strzelecka",
                "addr:housenumber": "11",
                "addr:teryt:simc": 21381,
                "addr:teryt:sym_ul": 966760,
                "contact:phone": "+48 672147802",
                "contact:email": "mos-chodziez@wp.pl",
                "contact:website": "http:\/\/www.moschodziez.wordpress.com",
                "ref:regon": "302281070",
                "ref:vatin": "PL6070076313",
                "operator": "Powiat Chodzieski",
                "operator:type": "government",
                "amenity": "school",
                "note": "Parent RSPO: 18475"
            }
        },
        {
            "id": 5345,
            "type": "Feature",
            "geometry": {
                "type": "Point",
                "coordinates": [
                    16.9183999,
                    52.98865
                ]
            },
            "properties": {
                "ref:rspo": 5345,
                "official_name": "Niepubliczne Przedszkole Nr 2 im. Szewczyka Dratewki",
                "name": "Niepubliczne Przedszkole Nr 2",
                "addr:country": "PL",
                "addr:postcode": "64-800",
                "addr:city": "Chodzie\u017c",
                "addr:street": "Bosa",
                "addr:housenumber": "12",
                "addr:teryt:simc": 1911,
                "addr:teryt:sym_ul": 966760,
                "contact:phone": "+48 672820436",
                "contact:email": "przedszkole2@chodziez.pl",
                "ref:regon": "302193979",
                "operator": "Aleksandra \u017berko",
                "operator:type": "private",
                "amenity": "kindergarten"
            }
        },
        {
            "id": 279049,
            "type": "Feature",
            "geometry": {
                "type": "Point",
                "coordinates": [
                    16.91086,
                    52.98876
                ]
            },
            "properties": {
                "ref:rspo": 279049,
                "official_name": "Akademia Sobala",
                "name": "Akademia Sobala",
                "addr:country": "PL",
                "addr:postcode": "64-800",
                "addr:city": "Chodzie\u017c",
                "addr:street": "Jagiello\u0144ska",
                "addr:housenumber": "26",
                "addr:door": "101-102",
                "addr:teryt:simc": 7029,
                "addr:teryt:sym_ul": 966760,
                "contact:email": "biuro@sobalaakademia.pl",
                "ref:regon": "520492236",
                "operator": "Donata Sobala",
                "operator:type": "private",
                "fixme": "w zale\u017cno\u015bci od przedmiotu dzia\u0142alno\u015bci (np. amenity=training + training=*, amenity=dancing_school, amenity=language_school, amenity=music_school)"
            }
        },
        {
            "id": 273783,
            "type": "Feature",
            "geometry": {
                "type": "Point",
                "coordinates": [
                    16.914,
                    52.9898499
                ]
            },
            "properties": {
                "ref:rspo": 273783,
                "official_name": "Centrum Doskonalenia Nauczycieli Publiczna Biblioteka Pedagogiczna w Pile Filia w Chodzie\u017cy",
                "name": "Centrum Doskonalenia Nauczycieli Publiczna Biblioteka Pedagogiczna w Pile Filia w Chodzie\u017cy",
                "addr:country": "PL",
                "addr:postcode": "64-800",
                "addr:city": "Chodzie\u017c",
                "addr:street": "Jagiello\u0144ska",
                "addr:housenumber": "3",
                "addr:teryt:simc": 7029,
                "addr:teryt:sym_ul": 966760,
                "contact:phone": "+48 672820130",
                "ref:regon": "674276000",
                "operator": "Wojew\u00f3dztwo Wielkopolskie",
                "operator:type": "government",
                "amenity": "library",
                "note": "Parent RSPO: 112145"
            }
        },
        {
            "id": 31481,
            "type": "Feature",
            "geometry": {
                "type": "Point",
                "coordinates": [
                    16.91526,
                    52.98988
                ]
            },
            "properties": {
                "isced:level": "3",
                "ref:rspo": 31481,
                "official_name": "I Liceum Og\u00f3lnokszta\u0142c\u0105ce im. \u015aw. Barbary w Chodzie\u017cy",
                "name": "I Liceum Og\u00f3lnokszta\u0142c\u0105ce",
                "addr:country": "PL",
                "addr:postcode": "64-800",
                "addr:city": "Chodzie\u017c",
                "addr:street": "Stefana \u017beromskiego",
                "addr:housenumber": "11",
                "addr:teryt:simc": 26469,
                "addr:teryt:sym_ul": 966760,
                "contact:phone": "+48 672820752",
                "contact:email": "liceumchodziez@poczta.onet.pl",
                "contact:website": "http:\/\/zerom.pl",
                "ref:regon": "000233678",
                "ref:vatin": "PL7641100905",
                "operator": "Powiat Chodzieski",
                "operator:type": "government",
                "amenity": "school"
            }
        },
        {
            "id": 22961,
            "type": "Feature",
            "geometry": {
                "type": "Point",
                "coordinates": [
                    16.90894,
                    52.99012
                ]
            },
            "properties": {
                "ref:rspo": 22961,
                "official_name": "Niepubliczne Przedszkole J\u0119zykowo-Sportowe \"Czerwona Ciuchcia\"",
                "name": "Niepubliczne Przedszkole J\u0119zykowo-Sportowe \"Czerwona Ciuchcia\"",
                "addr:country": "PL",
                "addr:postcode": "64-800",
                "addr:city": "Chodzie\u017c",
                "addr:street": "\u0141\u0105kowa",
                "addr:housenumber": "1",
                "addr:teryt:simc": 11596,
                "addr:teryt:sym_ul": 966760,
                "contact:phone": "+48 501866843",
                "contact:email": "czerwonaciuchcia@wp.pl",
                "ref:regon": "302231585",
                "operator": "Adam Owczarzak",
                "operator:type": "private",
                "amenity": "kindergarten"
            }
        },
        {
            "id": 279255,
            "type": "Feature",
            "geometry": {
                "type": "Point",
                "coordinates": [
                    16.91767,
                    52.99032
                ]
            },
            "properties": {
                "ref:rspo": 279255,
                "official_name": "O\u015brodek Szkole\u0144 I Bezpiecze\u0144stwa Stanis\u0142aw Jarosz",
                "name": "O\u015brodek Szkole\u0144 I Bezpiecze\u0144stwa Stanis\u0142aw Jarosz",
                "addr:country": "PL",
                "addr:postcode": "64-800",
                "addr:city": "Chodzie\u017c",
                "addr:street": "Garncarska",
                "addr:housenumber": "1",
                "addr:teryt:simc": 5345,
                "addr:teryt:sym_ul": 966760,
                "contact:phone": "+48 728724112",
                "ref:regon": "521010127",
                "operator": "Stanis\u0142aw Jarosz",
                "operator:type": "private",
                "fixme": "w zale\u017cno\u015bci od przedmiotu dzia\u0142alno\u015bci (np. amenity=training + training=*, amenity=dancing_school, amenity=language_school, amenity=music_school)"
            }
        },
        {
            "id": 78006,
            "type": "Feature",
            "geometry": {
                "type": "Point",
                "coordinates": [
                    16.9389499,
                    52.99033
                ]
            },
            "properties": {
                "ref:rspo": 78006,
                "official_name": "English Language Services \"Els\"",
                "name": "English Language Services \"Els\"",
                "addr:country": "PL",
                "addr:postcode": "64-800",
                "addr:city": "Chodzie\u017c",
                "addr:street": "\u015awi\u0119tokrzyska",
                "addr:housenumber": "52a",
                "addr:teryt:simc": 22552,
                "addr:teryt:sym_ul": 966760,
                "contact:phone": "+48 672827909",
                "ref:regon": "302263817",
                "ref:vatin": "PL7641831862",
                "operator": "Bogus\u0142aw Ostrowski",
                "operator:type": "private",
                "fixme": "w zale\u017cno\u015bci od przedmiotu dzia\u0142alno\u015bci (np. amenity=training + training=*, amenity=dancing_school, amenity=language_school, amenity=music_school)"
            }
        },
        {
            "id": 79103,
            "type": "Feature",
            "geometry": {
                "type": "Point",
                "coordinates": [
                    16.91232,
                    52.99047
                ]
            },
            "properties": {
                "ref:rspo": 79103,
                "official_name": "\"Matic\" Izabela Matwiejczuk",
                "name": "\"Matic\" Izabela Matwiejczuk",
                "addr:country": "PL",
                "addr:postcode": "64-800",
                "addr:city": "Chodzie\u017c",
                "addr:street": "Tadeusza Ko\u015bciuszki",
                "addr:housenumber": "25",
                "addr:door": "7",
                "addr:teryt:simc": 9582,
                "addr:teryt:sym_ul": 966760,
                "contact:phone": "+48 672821547",
                "ref:regon": "302264060",
                "ref:vatin": "PL7640204749",
                "operator": "Izabela Matwiejczuk",
                "operator:type": "private",
                "fixme": "w zale\u017cno\u015bci od przedmiotu dzia\u0142alno\u015bci (np. amenity=training + training=*, amenity=dancing_school, amenity=language_school, amenity=music_school)"
            }
        },
        {
            "id": 55478,
            "type": "Feature",
            "geometry": {
                "type": "Point",
                "coordinates": [
                    16.92048,
                    52.9907899
                ]
            },
            "properties": {
                "ref:rspo": 55478,
                "official_name": "M\u0142odzie\u017cowy Dom Kultury im. Janusza Korczaka w Chodzie\u017cy",
                "name": "M\u0142odzie\u017cowy Dom Kultury",
                "addr:country": "PL",
                "addr:postcode": "64-800",
                "addr:city": "Chodzie\u017c",
                "addr:street": "Stanis\u0142awa Staszica",
                "addr:housenumber": "17a",
                "addr:teryt:simc": 21071,
                "addr:teryt:sym_ul": 966760,
                "contact:phone": "+48 672829433",
                "contact:email": "mdkchz@poczta.onet.pl",
                "contact:website": "http:\/\/www.mdkchodziez.com.pl",
                "ref:regon": "000701317",
                "ref:vatin": "PL7642071838",
                "operator": "Powiat Chodzieski",
                "operator:type": "government",
                "amenity": "community_centre",
                "community_centre:for": "juvenile"
            }
        },
        {
            "id": 5763,
            "type": "Feature",
            "geometry": {
                "type": "Point",
                "coordinates": [
                    16.9206,
                    52.99135
                ]
            },
            "properties": {
                "isced:level": "1;2",
                "ref:rspo": 5763,
                "official_name": "Szko\u0142a Podstawowa Nr 1 im. Stanis\u0142awa Staszica",
                "name": "Szko\u0142a Podstawowa Nr 1",
                "addr:country": "PL",
                "addr:postcode": "64-800",
                "addr:city": "Chodzie\u017c",
                "addr:street": "Stanis\u0142awa Staszica",
                "addr:housenumber": "19",
                "addr:teryt:simc": 21071,
                "addr:teryt:sym_ul": 966760,
                "contact:phone": "+48 672820461",
                "contact:email": "szkola.podstawowa1@chodziez.pl",
                "ref:regon": "000701323",
                "ref:vatin": "PL6070008903",
                "operator": "Gmina Miejska W Chodzie\u017cy",
                "operator:type": "government",
                "amenity": "school"
            }
        },
        {
            "id": 5344,
            "type": "Feature",
            "geometry": {
                "type": "Point",
                "coordinates": [
                    16.90832,
                    52.99148
                ]
            },
            "properties": {
                "ref:rspo": 5344,
                "official_name": "Niepubliczne Przedszkole Nr 4 O Profilu Edukacyjno-Przyrodniczym \"Pod D\u0119busiem Olbrzymkiem\"",
                "name": "Niepubliczne Przedszkole Nr 4 O Profilu Edukacyjno-Przyrodniczym \"Pod D\u0119busiem Olbrzymkiem\"",
                "addr:country": "PL",
                "addr:postcode": "64-800",
                "addr:city": "Chodzie\u017c",
                "addr:street": "\u0141\u0105kowa",
                "addr:housenumber": "2",
                "addr:teryt:simc": 11596,
                "addr:teryt:sym_ul": 966760,
                "contact:phone": "+48 672810849",
                "contact:email": "przedszkole4@chodziez.pl",
                "contact:website": "http:\/\/www.przedszkole4chodziez.com",
                "ref:regon": "302193962",
                "operator": "Lucyna R\u00f3\u017cewicz",
                "operator:type": "private",
                "amenity": "kindergarten"
            }
        },
        {
            "id": 17727,
            "type": "Feature",
            "geometry": {
                "type": "Point",
                "coordinates": [
                    16.91098,
                    52.99149
                ]
            },
            "properties": {
                "ref:rspo": 17727,
                "official_name": "Poradnia Psychologiczno-Pedagogiczna",
                "name": "Poradnia Psychologiczno-Pedagogiczna",
                "addr:country": "PL",
                "addr:postcode": "64-800",
                "addr:city": "Chodzie\u017c",
                "addr:street": "Sk\u0142adowa",
                "addr:housenumber": "5",
                "addr:teryt:simc": 20060,
                "addr:teryt:sym_ul": 966760,
                "contact:phone": "+48 672812531",
                "contact:email": "sekretariat@poradniachodziez.edu.pl",
                "contact:website": "http:\/\/www.poradniachodziez.edu.pl",
                "ref:regon": "001238821",
                "ref:vatin": "PL7642221031",
                "operator": "Powiat Chodzieski",
                "operator:type": "government",
                "healthcare": "counselling",
                "counselling_type": "education",
                "fixme": "w zale\u017cno\u015bci od przedmiotu dzia\u0142alno\u015bci (np. healthcare=counselling + counselling_type=education albo healthcare=psychotherapist)"
            }
        },
        {
            "id": 126521,
            "type": "Feature",
            "geometry": {
                "type": "Point",
                "coordinates": [
                    16.91786,
                    52.99189
                ]
            },
            "properties": {
                "ref:rspo": 126521,
                "official_name": "Niepubliczne Przedszkole \"Kubu\u015b Puchatek\"",
                "name": "Niepubliczne Przedszkole \"Kubu\u015b Puchatek\"",
                "addr:country": "PL",
                "addr:postcode": "64-800",
                "addr:city": "Chodzie\u017c",
                "addr:street": "rynek Rynek",
                "addr:housenumber": "11",
                "addr:teryt:simc": 19252,
                "addr:teryt:sym_ul": 966760,
                "contact:phone": "+48 504261885",
                "contact:email": "pilvid@wp.pl",
                "ref:regon": "360411550",
                "ref:vatin": "PL7641172721",
                "operator": "Ewa Wcis\u0142o",
                "operator:type": "private",
                "amenity": "kindergarten"
            }
        },
        {
            "id": 18263,
            "type": "Feature",
            "geometry": {
                "type": "Point",
                "coordinates": [
                    16.91267,
                    52.99227
                ]
            },
            "properties": {
                "ref:rspo": 18263,
                "official_name": "Zesp\u00f3\u0142 Szk\u00f3\u0142 im. Hipolita Cegielskiego w Chodzie\u017cy",
                "name": "Zesp\u00f3\u0142 Szk\u00f3\u0142",
                "addr:country": "PL",
                "addr:postcode": "64-800",
                "addr:city": "Chodzie\u017c",
                "addr:street": "Prymasa Stefana Wyszy\u0144skiego",
                "addr:housenumber": "2",
                "addr:teryt:simc": 25119,
                "addr:teryt:sym_ul": 966760,
                "contact:phone": "+48 672821369",
                "contact:email": "sekretariat@szkola.hipolita.pl",
                "contact:website": "http:\/\/szkola.hipolita.pl",
                "ref:regon": "000196552",
                "ref:vatin": "PL7642312041",
                "operator": "Powiat Chodzieski",
                "operator:type": "government",
                "landuse": "education",
                "fixme": "amenity=school, amenity=college albo landuse=education w zale\u017cno\u015bci od tego, jakie plac\u00f3wki wchodz\u0105 w sk\u0142ad zespo\u0142u. Sprawd\u017a, kiedy stosowa\u0107 amenity=* a kiedy landuse=education.",
                "note": "Children RSPO: 70025;70601;74961;75041;75521;275016"
            }
        },
        {
            "id": 80503,
            "type": "Feature",
            "geometry": {
                "type": "Point",
                "coordinates": [
                    16.91267,
                    52.992239999999995
                ]
            },
            "properties": {
                "ref:rspo": 80503,
                "official_name": "Bezpiecze\u0144stwo Ochrona Rzetelno\u015b\u0107 \"Bor\" Szkolenia, Us\u0142ugi, Zlecenia",
                "name": "Bezpiecze\u0144stwo Ochrona Rzetelno\u015b\u0107 \"Bor\" Szkolenia, Us\u0142ugi, Zlecenia",
                "addr:country": "PL",
                "addr:postcode": "64-800",
                "addr:city": "Chodzie\u017c",
                "addr:street": "Prymasa Stefana Wyszy\u0144skiego",
                "addr:housenumber": "2",
                "addr:teryt:simc": 25119,
                "addr:teryt:sym_ul": 966760,
                "contact:phone": "+48 883010007",
                "ref:regon": "302264828",
                "ref:vatin": "PL7641403994",
                "operator": "Waldemar Lijewski",
                "operator:type": "private",
                "fixme": "w zale\u017cno\u015bci od przedmiotu dzia\u0142alno\u015bci (np. amenity=training + training=*, amenity=dancing_school, amenity=language_school, amenity=music_school)"
            }
        },
        {
            "id": 113634,
            "type": "Feature",
            "geometry": {
                "type": "Point",
                "coordinates": [
                    16.91267,
                    52.99221
                ]
            },
            "properties": {
                "ref:rspo": 113634,
                "official_name": "Centrum Kszta\u0142cenia Zawodowego w Chodzie\u017cy",
                "name": "Centrum Kszta\u0142cenia Zawodowego w Chodzie\u017cy",
                "addr:country": "PL",
                "addr:postcode": "64-800",
                "addr:city": "Chodzie\u017c",
                "addr:street": "Prymasa Stefana Wyszy\u0144skiego",
                "addr:housenumber": "2",
                "addr:teryt:simc": 25119,
                "addr:teryt:sym_ul": 966760,
                "contact:phone": "+48 672820045",
                "contact:email": "zofiacieslak@op.pl",
                "contact:website": "http:\/\/www.ckz-chodziez.pl",
                "ref:regon": "572123640",
                "ref:vatin": "PL6070000089",
                "operator": "Powiat Chodzieski",
                "operator:type": "government",
                "fixme": "w zale\u017cno\u015bci od przedmiotu dzia\u0142alno\u015bci (np. amenity=training + training=*, amenity=dancing_school, amenity=language_school, amenity=music_school) albo amenity=school, amenity=college, albo landuse=education w zale\u017cno\u015bci od tego, jakie plac\u00f3wki wchodz\u0105 w sk\u0142ad zespo\u0142u. Sprawd\u017a, kiedy stosowa\u0107 amenity=* a kiedy landuse=education."
            }
        },
        {
            "id": 70025,
            "type": "Feature",
            "geometry": {
                "type": "Point",
                "coordinates": [
                    16.91267,
                    52.99218
                ]
            },
            "properties": {
                "isced:level": "3",
                "ref:rspo": 70025,
                "official_name": "Ii Liceum Og\u00f3lnokszta\u0142c\u0105ce w Chodzie\u017cy",
                "name": "Ii Liceum Og\u00f3lnokszta\u0142c\u0105ce w Chodzie\u017cy",
                "addr:country": "PL",
                "addr:postcode": "64-800",
                "addr:city": "Chodzie\u017c",
                "addr:street": "Prymasa Stefana Wyszy\u0144skiego",
                "addr:housenumber": "2",
                "addr:teryt:simc": 25119,
                "addr:teryt:sym_ul": 966760,
                "contact:phone": "+48 672821369",
                "contact:email": "sekretariat@szkola.hipolita.pl",
                "contact:website": "http:\/\/szkola.hipolita.pl",
                "ref:regon": "572026344",
                "ref:vatin": "PL7642312041",
                "operator": "Powiat Chodzieski",
                "operator:type": "government",
                "amenity": "school",
                "note": "Parent RSPO: 18263"
            }
        },
        {
            "id": 70601,
            "type": "Feature",
            "geometry": {
                "type": "Point",
                "coordinates": [
                    16.91267,
                    52.992149999999995
                ]
            },
            "properties": {
                "isced:level": "3",
                "ref:rspo": 70601,
                "official_name": "Bran\u017cowa Szko\u0142a I Stopnia w Chodzie\u017cy",
                "name": "Bran\u017cowa Szko\u0142a I Stopnia w Chodzie\u017cy",
                "addr:country": "PL",
                "addr:postcode": "64-800",
                "addr:city": "Chodzie\u017c",
                "addr:street": "Prymasa Stefana Wyszy\u0144skiego",
                "addr:housenumber": "2",
                "addr:teryt:simc": 25119,
                "addr:teryt:sym_ul": 966760,
                "contact:phone": "+48 672821369",
                "contact:email": "sekretariat@szkola.hipolita.pl",
                "contact:website": "http:\/\/szkola.hipolita.pl",
                "ref:regon": "572026380",
                "ref:vatin": "PL7642312041",
                "operator": "Powiat Chodzieski",
                "operator:type": "government",
                "amenity": "school",
                "note": "Parent RSPO: 18263"
            }
        },
        {
            "id": 74961,
            "type": "Feature",
            "geometry": {
                "type": "Point",
                "coordinates": [
                    16.91267,
                    52.99212
                ]
            },
            "properties": {
                "isced:level": "3",
                "ref:rspo": 74961,
                "official_name": "Technikum w Chodzie\u017cy",
                "name": "Technikum w Chodzie\u017cy",
                "addr:country": "PL",
                "addr:postcode": "64-800",
                "addr:city": "Chodzie\u017c",
                "addr:street": "Prymasa Stefana Wyszy\u0144skiego",
                "addr:housenumber": "2",
                "addr:teryt:simc": 25119,
                "addr:teryt:sym_ul": 966760,
                "contact:phone": "+48 672821369",
                "contact:email": "sekretariat@szkola.hipolita.pl",
                "contact:website": "http:\/\/szkola.hipolita.pl",
                "ref:regon": "572026315",
                "ref:vatin": "PL7642312041",
                "operator": "Powiat Chodzieski",
                "operator:type": "government",
                "amenity": "school",
                "note": "Parent RSPO: 18263"
            }
        },
        {
            "id": 75041,
            "type": "Feature",
            "geometry": {
                "type": "Point",
                "coordinates": [
                    16.91267,
                    52.99209
                ]
            },
            "properties": {
                "isced:level": "3",
                "ref:rspo": 75041,
                "official_name": "Liceum Og\u00f3lnokszta\u0142c\u0105ce dla Doros\u0142ych w Chodzie\u017cy",
                "name": "Liceum Og\u00f3lnokszta\u0142c\u0105ce dla Doros\u0142ych w Chodzie\u017cy",
                "addr:country": "PL",
                "addr:postcode": "64-800",
                "addr:city": "Chodzie\u017c",
                "addr:street": "Prymasa Stefana Wyszy\u0144skiego",
                "addr:housenumber": "2",
                "addr:teryt:simc": 25119,
                "addr:teryt:sym_ul": 966760,
                "contact:phone": "+48 672821369",
                "contact:email": "sekretariat@szkola.hipolita.pl",
                "contact:website": "http:\/\/szkola.hipolita.pl",
                "ref:regon": "302258986",
                "ref:vatin": "PL7642312041",
                "operator": "Powiat Chodzieski",
                "operator:type": "government",
                "amenity": "school",
                "note": "Parent RSPO: 18263"
            }
        },
        {
            "id": 75521,
            "type": "Feature",
            "geometry": {
                "type": "Point",
                "coordinates": [
                    16.91267,
                    52.992059999999995
                ]
            },
            "properties": {
                "isced:level": "4",
                "ref:rspo": 75521,
                "official_name": "Szko\u0142a Policealna w Chodzie\u017cy",
                "name": "Szko\u0142a Policealna w Chodzie\u017cy",
                "addr:country": "PL",
                "addr:postcode": "64-800",
                "addr:city": "Chodzie\u017c",
                "addr:street": "Prymasa Stefana Wyszy\u0144skiego",
                "addr:housenumber": "2",
                "addr:teryt:simc": 25119,
                "addr:teryt:sym_ul": 966760,
                "contact:phone": "+48 672821369",
                "contact:email": "sekretariat@szkola.hipolita.pl",
                "contact:website": "http:\/\/szkola.hipolita.pl",
                "ref:regon": "302260256",
                "ref:vatin": "PL7642312041",
                "operator": "Powiat Chodzieski",
                "operator:type": "government",
                "amenity": "college",
                "note": "Parent RSPO: 18263"
            }
        },
        {
            "id": 275016,
            "type": "Feature",
            "geometry": {
                "type": "Point",
                "coordinates": [
                    16.91267,
                    52.99203
                ]
            },
            "properties": {
                "isced:level": "3",
                "ref:rspo": 275016,
                "official_name": "Bran\u017cowa Szko\u0142a II Stopnia w Chodzie\u017cy",
                "name": "Bran\u017cowa Szko\u0142a II Stopnia w Chodzie\u017cy",
                "addr:country": "PL",
                "addr:postcode": "64-800",
                "addr:city": "Chodzie\u017c",
                "addr:street": "Prymasa Stefana Wyszy\u0144skiego",
                "addr:housenumber": "2",
                "addr:teryt:simc": 25119,
                "addr:teryt:sym_ul": 966760,
                "contact:phone": "+48 678281369",
                "contact:email": "sekretariat@szkola.hipolita.pl",
                "contact:website": "http:\/\/zsp.chodziez.pl",
                "ref:regon": "386501480",
                "ref:vatin": "PL7642312041",
                "operator": "Powiat Chodzieski",
                "operator:type": "government",
                "amenity": "school",
                "note": "Parent RSPO: 18263"
            }
        },
        {
            "id": 5350,
            "type": "Feature",
            "geometry": {
                "type": "Point",
                "coordinates": [
                    16.91595,
                    52.99238
                ]
            },
            "properties": {
                "ref:rspo": 5350,
                "official_name": "Niepubliczne Przedszkole im. \u015aw. Teresy Od Dzieci\u0105tka Jezus",
                "name": "Niepubliczne Przedszkole",
                "addr:country": "PL",
                "addr:postcode": "64-800",
                "addr:city": "Chodzie\u017c",
                "addr:street": "Ko\u015bcielna",
                "addr:housenumber": "8",
                "addr:teryt:simc": 9546,
                "addr:teryt:sym_ul": 966760,
                "contact:phone": "+48 672810025",
                "contact:email": "jpietraszak@wp.pl",
                "ref:regon": "302194000",
                "operator": "Joanna Pietraszak",
                "operator:type": "private",
                "amenity": "kindergarten"
            }
        },
        {
            "id": 75973,
            "type": "Feature",
            "geometry": {
                "type": "Point",
                "coordinates": [
                    16.91719,
                    52.99239
                ]
            },
            "properties": {
                "ref:rspo": 75973,
                "official_name": "Prywatne Centrum J\u0119zyk\u00f3w Obcych Atb",
                "name": "Prywatne Centrum J\u0119zyk\u00f3w Obcych Atb",
                "addr:country": "PL",
                "addr:postcode": "64-800",
                "addr:city": "Chodzie\u017c",
                "addr:street": "rynek Rynek",
                "addr:housenumber": "3",
                "addr:teryt:simc": 19252,
                "addr:teryt:sym_ul": 966760,
                "contact:phone": "+48 672812503",
                "ref:regon": "302261511",
                "ref:vatin": "PL7641973409",
                "operator": "Tomasz Broniarczyk",
                "operator:type": "private",
                "fixme": "w zale\u017cno\u015bci od przedmiotu dzia\u0142alno\u015bci (np. amenity=training + training=*, amenity=dancing_school, amenity=language_school, amenity=music_school)"
            }
        },
        {
            "id": 58885,
            "type": "Feature",
            "geometry": {
                "type": "Point",
                "coordinates": [
                    16.92447,
                    52.99272
                ]
            },
            "properties": {
                "ref:rspo": 58885,
                "official_name": "Miejskie Przedszkole Nr 5 \"Pod \u017baglami Pi\u0105tki\"",
                "name": "Miejskie Przedszkole Nr 5 \"Pod \u017baglami Pi\u0105tki\"",
                "addr:country": "PL",
                "addr:postcode": "64-800",
                "addr:city": "Chodzie\u017c",
                "addr:street": "W\u0142adys\u0142awa Reymonta",
                "addr:housenumber": "25",
                "addr:teryt:simc": 18648,
                "addr:teryt:sym_ul": 966760,
                "contact:phone": "+48 672820237",
                "contact:email": "dyrektor@przedszkole5.chodziez.pl",
                "contact:website": "http:\/\/www.przedszkole5.chodziez.pl",
                "ref:regon": "570170864",
                "ref:vatin": "PL6070008932",
                "operator": "Gmina Miejska W Chodzie\u017cy",
                "operator:type": "government",
                "amenity": "kindergarten"
            }
        },
        {
            "id": 31306,
            "type": "Feature",
            "geometry": {
                "type": "Point",
                "coordinates": [
                    16.91867,
                    52.99337
                ]
            },
            "properties": {
                "ref:rspo": 31306,
                "official_name": "Zesp\u00f3\u0142 Prywatnych Szk\u00f3\u0142 w Chodzie\u017cy",
                "name": "Zesp\u00f3\u0142 Prywatnych Szk\u00f3\u0142 w Chodzie\u017cy",
                "addr:country": "PL",
                "addr:postcode": "64-800",
                "addr:city": "Chodzie\u017c",
                "addr:street": "Adama Mickiewicza",
                "addr:housenumber": "3",
                "addr:teryt:simc": 12740,
                "addr:teryt:sym_ul": 966760,
                "contact:phone": "+48 672829969",
                "contact:email": "ploiech@pro.onet.pl",
                "contact:website": "http:\/\/www.szkolajakdom.pl",
                "ref:regon": "302241537",
                "ref:vatin": "PL7631282106",
                "operator": "Teresa Przybyszewska",
                "operator:type": "private",
                "landuse": "education",
                "fixme": "amenity=school, amenity=college albo landuse=education w zale\u017cno\u015bci od tego, jakie plac\u00f3wki wchodz\u0105 w sk\u0142ad zespo\u0142u. Sprawd\u017a, kiedy stosowa\u0107 amenity=* a kiedy landuse=education.",
                "note": "Children RSPO: 5543;56967;57222;58917;59606;60207"
            }
        },
        {
            "id": 5543,
            "type": "Feature",
            "geometry": {
                "type": "Point",
                "coordinates": [
                    16.91867,
                    52.993339999999996
                ]
            },
            "properties": {
                "isced:level": "3",
                "ref:rspo": 5543,
                "official_name": "Prywatne Technikum Architektury Krajobrazu w Chodzie\u017cy",
                "name": "Prywatne Technikum Architektury Krajobrazu w Chodzie\u017cy",
                "addr:country": "PL",
                "addr:postcode": "64-800",
                "addr:city": "Chodzie\u017c",
                "addr:street": "Adama Mickiewicza",
                "addr:housenumber": "3",
                "addr:teryt:simc": 12740,
                "addr:teryt:sym_ul": 966760,
                "contact:phone": "+48 672829969",
                "contact:email": "ploiech@pro.onet.pl",
                "contact:website": "http:\/\/www.szkolajakdom.pl",
                "ref:regon": "302194476",
                "ref:vatin": "PL7631282106",
                "operator": "Teresa Przybyszewska",
                "operator:type": "private",
                "amenity": "school",
                "note": "Parent RSPO: 31306"
            }
        },
        {
            "id": 56967,
            "type": "Feature",
            "geometry": {
                "type": "Point",
                "coordinates": [
                    16.91867,
                    52.99331
                ]
            },
            "properties": {
                "isced:level": "3",
                "ref:rspo": 56967,
                "official_name": "Prywatne Liceum Og\u00f3lnokszta\u0142c\u0105ce",
                "name": "Prywatne Liceum Og\u00f3lnokszta\u0142c\u0105ce",
                "addr:country": "PL",
                "addr:postcode": "64-800",
                "addr:city": "Chodzie\u017c",
                "addr:street": "Adama Mickiewicza",
                "addr:housenumber": "3",
                "addr:teryt:simc": 12740,
                "addr:teryt:sym_ul": 966760,
                "contact:phone": "+48 672829969",
                "contact:email": "ploiech@pro.onet.pl",
                "contact:website": "http:\/\/www.szkolajakdom.pl",
                "ref:regon": "302251139",
                "ref:vatin": "PL7631282106",
                "operator": "Teresa Przybyszewska",
                "operator:type": "private",
                "amenity": "school",
                "note": "Parent RSPO: 31306"
            }
        },
        {
            "id": 57222,
            "type": "Feature",
            "geometry": {
                "type": "Point",
                "coordinates": [
                    16.91867,
                    52.99328
                ]
            },
            "properties": {
                "isced:level": "3",
                "ref:rspo": 57222,
                "official_name": "Prywatne Technikum Logistyczne w Chodzie\u017cy",
                "name": "Prywatne Technikum Logistyczne w Chodzie\u017cy",
                "addr:country": "PL",
                "addr:postcode": "64-800",
                "addr:city": "Chodzie\u017c",
                "addr:street": "Adama Mickiewicza",
                "addr:housenumber": "3",
                "addr:teryt:simc": 12740,
                "addr:teryt:sym_ul": 966760,
                "contact:phone": "+48 672829969",
                "contact:email": "ploiech@pro.onet.pl",
                "contact:website": "http:\/\/www.szkolajakdom.pl",
                "ref:regon": "302251174",
                "ref:vatin": "PL7631282106",
                "operator": "Teresa Przybyszewska",
                "operator:type": "private",
                "amenity": "school",
                "note": "Parent RSPO: 31306"
            }
        },
        {
            "id": 58917,
            "type": "Feature",
            "geometry": {
                "type": "Point",
                "coordinates": [
                    16.91867,
                    52.993249999999996
                ]
            },
            "properties": {
                "isced:level": "3",
                "ref:rspo": 58917,
                "official_name": "Prywatne Technikum Le\u015bne",
                "name": "Prywatne Technikum Le\u015bne",
                "addr:country": "PL",
                "addr:postcode": "64-800",
                "addr:city": "Chodzie\u017c",
                "addr:street": "Adama Mickiewicza",
                "addr:housenumber": "3",
                "addr:teryt:simc": 12740,
                "addr:teryt:sym_ul": 966760,
                "contact:phone": "+48 672829969",
                "contact:email": "ploiech@pro.onet.pl",
                "contact:website": "http:\/\/www.szkolajakdom.pl",
                "ref:regon": "302254391",
                "ref:vatin": "PL7631282106",
                "operator": "Teresa Przybyszewska",
                "operator:type": "private",
                "amenity": "school",
                "note": "Parent RSPO: 31306"
            }
        },
        {
            "id": 59606,
            "type": "Feature",
            "geometry": {
                "type": "Point",
                "coordinates": [
                    16.91867,
                    52.99322
                ]
            },
            "properties": {
                "isced:level": "3",
                "ref:rspo": 59606,
                "official_name": "Prywatne Technikum Informatyczne",
                "name": "Prywatne Technikum Informatyczne",
                "addr:country": "PL",
                "addr:postcode": "64-800",
                "addr:city": "Chodzie\u017c",
                "addr:street": "Adama Mickiewicza",
                "addr:housenumber": "3",
                "addr:teryt:simc": 12740,
                "addr:teryt:sym_ul": 966760,
                "contact:phone": "+48 672829969",
                "contact:email": "ploiech@pro.onet.pl",
                "contact:website": "http:\/\/www.szkolajakdom.pl",
                "ref:regon": "302254860",
                "ref:vatin": "PL7631282106",
                "operator": "Teresa Przybyszewska",
                "operator:type": "private",
                "amenity": "school",
                "note": "Parent RSPO: 31306"
            }
        },
        {
            "id": 60207,
            "type": "Feature",
            "geometry": {
                "type": "Point",
                "coordinates": [
                    16.91867,
                    52.99319
                ]
            },
            "properties": {
                "isced:level": "3",
                "ref:rspo": 60207,
                "official_name": "Prywatne Liceum Og\u00f3lnokszta\u0142c\u0105ce dla Doros\u0142ych",
                "name": "Prywatne Liceum Og\u00f3lnokszta\u0142c\u0105ce dla Doros\u0142ych",
                "addr:country": "PL",
                "addr:postcode": "64-800",
                "addr:city": "Chodzie\u017c",
                "addr:street": "Adama Mickiewicza",
                "addr:housenumber": "3",
                "addr:teryt:simc": 12740,
                "addr:teryt:sym_ul": 966760,
                "contact:phone": "+48 672829969",
                "contact:email": "ploiech@pro.onet.pl",
                "contact:website": "http:\/\/www.szkolajakdom.pl",
                "ref:regon": "302254907",
                "ref:vatin": "PL7631282106",
                "operator": "Teresa Przybyszewska",
                "operator:type": "private",
                "amenity": "school",
                "note": "Parent RSPO: 31306"
            }
        },
        {
            "id": 87432,
            "type": "Feature",
            "geometry": {
                "type": "Point",
                "coordinates": [
                    16.92289,
                    52.9938999
                ]
            },
            "properties": {
                "ref:rspo": 87432,
                "official_name": "Centrum Bhp I P.po\u017c. \"Miel-Pol\" Leszek Mieloch",
                "name": "Centrum Bhp I P.po\u017c. \"Miel-Pol\" Leszek Mieloch",
                "addr:country": "PL",
                "addr:postcode": "64-800",
                "addr:city": "Chodzie\u017c",
                "addr:street": "W\u0142adys\u0142awa Reymonta",
                "addr:housenumber": "14",
                "addr:teryt:simc": 18648,
                "addr:teryt:sym_ul": 966760,
                "contact:phone": "+48 672829633",
                "ref:regon": "302271202",
                "ref:vatin": "PL7640103497",
                "operator": "Leszek Mieloch",
                "operator:type": "private",
                "fixme": "w zale\u017cno\u015bci od przedmiotu dzia\u0142alno\u015bci (np. amenity=training + training=*, amenity=dancing_school, amenity=language_school, amenity=music_school)"
            }
        },
        {
            "id": 114978,
            "type": "Feature",
            "geometry": {
                "type": "Point",
                "coordinates": [
                    16.9148,
                    52.9943
                ]
            },
            "properties": {
                "isced:level": "1;2",
                "ref:rspo": 114978,
                "official_name": "Niepubliczna Szko\u0142a Podstawowa Specjalna",
                "name": "Niepubliczna Szko\u0142a Podstawowa Specjalna",
                "addr:country": "PL",
                "addr:postcode": "64-800",
                "addr:city": "Chodzie\u017c",
                "addr:street": "Ignacego Jana Paderewskiego",
                "addr:housenumber": "13",
                "addr:teryt:simc": 15532,
                "addr:teryt:sym_ul": 966760,
                "contact:phone": "+48 728805437",
                "contact:email": "r.pytlak@poczta.onet.pl",
                "ref:regon": "302449373",
                "ref:vatin": "PL6070080444",
                "operator": "Rafa\u0142 Pytlak",
                "operator:type": "private",
                "amenity": "school"
            }
        },
        {
            "id": 129839,
            "type": "Feature",
            "geometry": {
                "type": "Point",
                "coordinates": [
                    16.91622,
                    52.99515
                ]
            },
            "properties": {
                "ref:rspo": 129839,
                "official_name": "Wielkopolski Instytut Rozwoju Przedsi\u0119biorczo\u015bci I Edukacji \u0141ukasz Dymek",
                "name": "Wielkopolski Instytut Rozwoju Przedsi\u0119biorczo\u015bci I Edukacji \u0141ukasz Dymek",
                "addr:country": "PL",
                "addr:postcode": "64-800",
                "addr:city": "Chodzie\u017c",
                "addr:street": "Stanis\u0142awa Ma\u0142achowskiego",
                "addr:housenumber": "2B",
                "addr:teryt:simc": 12130,
                "addr:teryt:sym_ul": 966760,
                "contact:phone": "+48 672113060",
                "contact:email": "biuro@wirpe.pl",
                "ref:regon": "362972820",
                "ref:vatin": "PL7642058401",
                "operator": "\u0141ukasz Dymek",
                "operator:type": "private",
                "fixme": "w zale\u017cno\u015bci od przedmiotu dzia\u0142alno\u015bci (np. amenity=training + training=*, amenity=dancing_school, amenity=language_school, amenity=music_school)"
            }
        },
        {
            "id": 276588,
            "type": "Feature",
            "geometry": {
                "type": "Point",
                "coordinates": [
                    16.91836,
                    52.9972
                ]
            },
            "properties": {
                "ref:rspo": 276588,
                "official_name": "Niepubliczne Przedszkole Artystyczne Re Re Kum Kum",
                "name": "Niepubliczne Przedszkole Artystyczne Re Re Kum Kum",
                "addr:country": "PL",
                "addr:postcode": "64-800",
                "addr:city": "Chodzie\u017c",
                "addr:street": "Wiosny Lud\u00f3w",
                "addr:housenumber": "18",
                "addr:teryt:simc": 24369,
                "addr:teryt:sym_ul": 966760,
                "contact:phone": "+48 600787477",
                "contact:email": "mgo-expert@wp.pl",
                "ref:regon": "387241152",
                "operator": "Magdalena G\u00f3rna-Orczykowska",
                "operator:type": "private",
                "amenity": "kindergarten"
            }
        },
        {
            "id": 87429,
            "type": "Feature",
            "geometry": {
                "type": "Point",
                "coordinates": [
                    16.92045,
                    52.99788
                ]
            },
            "properties": {
                "ref:rspo": 87429,
                "official_name": "Biuro Bezpiecze\u0144stwa Pracy I Ochrony Przeciwpo\u017carowej - Grzegorz Herman",
                "name": "Biuro Bezpiecze\u0144stwa Pracy I Ochrony Przeciwpo\u017carowej - Grzegorz Herman",
                "addr:country": "PL",
                "addr:postcode": "64-800",
                "addr:city": "Chodzie\u017c",
                "addr:street": "Leona Kruczkowskiego",
                "addr:housenumber": "15B",
                "addr:door": "5",
                "addr:teryt:simc": 10016,
                "addr:teryt:sym_ul": 966760,
                "contact:phone": "+48 605532789",
                "ref:regon": "302271171",
                "ref:vatin": "PL7641565633",
                "operator": "Dane Do Uzupe\u0142nienia",
                "operator:type": "private"
            }
        },
        {
            "id": 5343,
            "type": "Feature",
            "geometry": {
                "type": "Point",
                "coordinates": [
                    16.91389,
                    52.9981099
                ]
            },
            "properties": {
                "ref:rspo": 5343,
                "official_name": "Niepubliczne Przedszkole Nr 3 \"Weso\u0142y Smyk\"",
                "name": "Niepubliczne Przedszkole Nr 3 \"Weso\u0142y Smyk\"",
                "addr:country": "PL",
                "addr:postcode": "64-800",
                "addr:city": "Chodzie\u017c",
                "addr:street": "Boles\u0142awa Prusa",
                "addr:housenumber": "14",
                "addr:teryt:simc": 17577,
                "addr:teryt:sym_ul": 966760,
                "contact:phone": "+48 672820517",
                "contact:email": "info@przedszkolenr3.com.pl",
                "contact:website": "http:\/\/www.przedszkole3chodziez.pl",
                "ref:regon": "302193940",
                "operator": "Magdalena Paw\u0142owska",
                "operator:type": "private",
                "amenity": "kindergarten"
            }
        },
        {
            "id": 118819,
            "type": "Feature",
            "geometry": {
                "type": "Point",
                "coordinates": [
                    16.91386,
                    53.0039299
                ]
            },
            "properties": {
                "ref:rspo": 118819,
                "official_name": "Niepubliczne Przedszkole Ekologiczno-Sportowe \"Mali Odkrywcy\"",
                "name": "Niepubliczne Przedszkole Ekologiczno-Sportowe \"Mali Odkrywcy\"",
                "addr:country": "PL",
                "addr:postcode": "64-800",
                "addr:city": "Chodzie\u017c",
                "addr:street": "Ofiar G\u00f3r Morzewskich",
                "addr:housenumber": "46",
                "addr:teryt:simc": 14788,
                "addr:teryt:sym_ul": 966760,
                "contact:email": "prychlewska@wp.pl",
                "ref:regon": "302503517",
                "ref:vatin": "PL7821686321",
                "operator": "Mariusz B\u0142aszczyk",
                "operator:type": "private",
                "amenity": "kindergarten"
            }
        },
        {
            "id": 87433,
            "type": "Feature",
            "geometry": {
                "type": "Point",
                "coordinates": [
                    16.90773,
                    53.00839
                ]
            },
            "properties": {
                "ref:rspo": 87433,
                "official_name": "Westa Zarz\u0105dzanie Bezpiecze\u0144stwem Pracy",
                "name": "Westa Zarz\u0105dzanie Bezpiecze\u0144stwem Pracy",
                "addr:country": "PL",
                "addr:postcode": "64-800",
                "addr:city": "Chodzie\u017c",
                "addr:street": "Miodowa",
                "addr:housenumber": "3A",
                "addr:teryt:simc": 12991,
                "addr:teryt:sym_ul": 966760,
                "contact:phone": "+48 672824747",
                "ref:regon": "302271308",
                "ref:vatin": "PL7642037497",
                "operator": "Iwona Matkowska",
                "operator:type": "private",
                "fixme": "w zale\u017cno\u015bci od przedmiotu dzia\u0142alno\u015bci (np. amenity=training + training=*, amenity=dancing_school, amenity=language_school, amenity=music_school)"
            }
        }
    ]
}