{
    "type": "FeatureCollection",
    "features": [
        {
            "id": 61332,
            "type": "Feature",
            "geometry": {
                "type": "Point",
                "coordinates": [
                    17.139,
                    52.93836
                ]
            },
            "properties": {
                "isced:level": "3",
                "ref:rspo": 61332,
                "official_name": "Bran\u017cowa Szko\u0142a I Stopnia w Pr\u00f3chnowie",
                "name": "Bran\u017cowa Szko\u0142a I Stopnia w Pr\u00f3chnowie",
                "addr:postcode": "64-830",
                "addr:place": "Pr\u00f3chnowo",
                "addr:housenumber": "26",
                "addr:city:simc": 527925,
                "phone": "+48 672556055",
                "email": "katt9@wp.pl",
                "ref:regon": "302251270",
                "ref:vatin": "PL7632126093",
                "operator": "Renata Ma\u0142ecka",
                "operator:type": "private",
                "amenity": "school"
            }
        },
        {
            "id": 263777,
            "type": "Feature",
            "geometry": {
                "type": "Point",
                "coordinates": [
                    17.139,
                    52.93833
                ]
            },
            "properties": {
                "isced:level": "1;2",
                "ref:rspo": 263777,
                "official_name": "Niepubliczna Szko\u0142a Podstawowa w Pr\u00f3chnowie",
                "name": "Niepubliczna Szko\u0142a Podstawowa w Pr\u00f3chnowie",
                "addr:postcode": "64-830",
                "addr:place": "Pr\u00f3chnowo",
                "addr:housenumber": "26",
                "addr:city:simc": 527925,
                "phone": "+48 672556055",
                "email": "r.malecka@lubasz.edu.pl",
                "ref:regon": "368221670",
                "operator": "Ma\u0142gorzata Biernat",
                "operator:type": "private",
                "amenity": "school"
            }
        },
        {
            "id": 7840,
            "type": "Feature",
            "geometry": {
                "type": "Point",
                "coordinates": [
                    17.02167,
                    52.94389
                ]
            },
            "properties": {
                "isced:level": "1;2",
                "ref:rspo": 7840,
                "official_name": "Szko\u0142a Podstawowa im. Powsta\u0144c\u00f3w Wielkopolskich w Radwankach",
                "name": "Szko\u0142a Podstawowa",
                "addr:postcode": "64-830",
                "addr:place": "Radwanki",
                "addr:housenumber": "31",
                "addr:city:simc": 527960,
                "phone": "+48 672835657",
                "email": "sekretariat@radwanki.edu.pl",
                "website": "http:\/\/www.szkola.radwanki.edu.pl",
                "ref:regon": "001149170",
                "operator": "Gmina Margonin",
                "operator:type": "government",
                "amenity": "school"
            }
        },
        {
            "id": 7839,
            "type": "Feature",
            "geometry": {
                "type": "Point",
                "coordinates": [
                    17.18037,
                    52.96936
                ]
            },
            "properties": {
                "isced:level": "1;2",
                "ref:rspo": 7839,
                "official_name": "Szko\u0142a Podstawowa Im Jana Paw\u0142a II w Lipinach",
                "name": "Szko\u0142a Podstawowa Im Jana Paw\u0142a II w Lipinach",
                "addr:postcode": "64-830",
                "addr:place": "Lipiny",
                "addr:housenumber": "40",
                "addr:city:simc": 527865,
                "phone": "+48 672835410",
                "email": "sekretariat@lipiny.edu.pl",
                "website": "http:\/\/szkola.lipiny.edu.pl",
                "ref:regon": "001149187",
                "operator": "Gmina Margonin",
                "operator:type": "government",
                "amenity": "school"
            }
        },
        {
            "id": 7842,
            "type": "Feature",
            "geometry": {
                "type": "Point",
                "coordinates": [
                    17.09993,
                    52.9709
                ]
            },
            "properties": {
                "ref:rspo": 7842,
                "official_name": "Przedszkole Samorz\u0105dowe w Margoninie",
                "name": "Przedszkole Samorz\u0105dowe w Margoninie",
                "addr:postcode": "64-830",
                "addr:city": "Margonin",
                "addr:street": "Pozna\u0144ska",
                "addr:housenumber": "10",
                "addr:city:simc": 966990,
                "addr:street:sym_ul": 17394,
                "phone": "+48 672846113",
                "email": "sekretariat@przedszkole.margonin.pl",
                "website": "http:\/\/przedszkole.margonin.pl",
                "ref:regon": "570313298",
                "operator": "Gmina Margonin",
                "operator:type": "government",
                "amenity": "kindergarten"
            }
        },
        {
            "id": 9823,
            "type": "Feature",
            "geometry": {
                "type": "Point",
                "coordinates": [
                    17.09828,
                    52.97549
                ]
            },
            "properties": {
                "isced:level": "1;2",
                "ref:rspo": 9823,
                "official_name": "Szko\u0142a Podstawowa im. Miko\u0142aja Kopernika w Margoninie",
                "name": "Szko\u0142a Podstawowa",
                "addr:postcode": "64-830",
                "addr:city": "Margonin",
                "addr:street": "Polna",
                "addr:housenumber": "6",
                "addr:city:simc": 966990,
                "addr:street:sym_ul": 17011,
                "phone": "+48 672846046",
                "email": "sekretariat@sp.margonin.edu.pl",
                "website": "http:\/\/szkola.margonin.edu.pl",
                "ref:regon": "000807748",
                "ref:vatin": "PL6070053536",
                "operator": "Gmina Margonin",
                "operator:type": "government",
                "amenity": "school"
            }
        }
    ]
}