{
    "type": "FeatureCollection",
    "features": [
        {
            "id": 78985,
            "type": "Feature",
            "geometry": {
                "type": "Point",
                "coordinates": [
                    16.991115570068,
                    52.965396881104
                ]
            },
            "properties": {
                "isced:level": "1;2",
                "ref:rspo": 78985,
                "official_name": "Szko\u0142a Podstawowa im. W\u0142adys\u0142awa Reymonta w Lipiej G\u00f3rze",
                "name": "Szko\u0142a Podstawowa",
                "addr:country": "PL",
                "addr:postcode": "64-820",
                "addr:place": "Lipia G\u00f3ra",
                "addr:housenumber": "64",
                "addr:teryt:sym_ul": 529628,
                "contact:phone": "+48 672833610",
                "contact:email": "szkola@lipiagora.com",
                "contact:website": "http:\/\/www.splipiagora.edu.pl",
                "ref:regon": "001148740",
                "operator": "Gmina Szamocin",
                "operator:type": "government",
                "amenity": "school"
            }
        },
        {
            "id": 78983,
            "type": "Feature",
            "geometry": {
                "type": "Point",
                "coordinates": [
                    17.12794,
                    53.02693
                ]
            },
            "properties": {
                "isced:level": "1;2",
                "ref:rspo": 78983,
                "official_name": "Szko\u0142a Podstawowa im. Marii Konopnickiej w Szamocinie",
                "name": "Szko\u0142a Podstawowa",
                "addr:country": "PL",
                "addr:postcode": "64-820",
                "addr:city": "Szamocin",
                "addr:street": "19 Stycznia",
                "addr:housenumber": "19",
                "addr:teryt:simc": 21450,
                "addr:teryt:sym_ul": 967096,
                "contact:phone": "+48 672848094",
                "contact:email": "zsszamocin@poczta.onet.pl",
                "contact:website": "http:\/\/www.zsszamocin.pl",
                "ref:regon": "000807725",
                "operator": "Gmina Szamocin",
                "operator:type": "government",
                "amenity": "school"
            }
        },
        {
            "id": 84643,
            "type": "Feature",
            "geometry": {
                "type": "Point",
                "coordinates": [
                    17.12056,
                    53.02772
                ]
            },
            "properties": {
                "ref:rspo": 84643,
                "official_name": "Gminne Przedszkole Publiczne w Szamocinie",
                "name": "Gminne Przedszkole Publiczne w Szamocinie",
                "addr:country": "PL",
                "addr:postcode": "64-820",
                "addr:city": "Szamocin",
                "addr:street": "Plac Wolno\u015bci",
                "addr:housenumber": "31",
                "addr:teryt:simc": 16415,
                "addr:teryt:sym_ul": 967096,
                "contact:phone": "+48 672848207",
                "contact:email": "gppszamocin@interia.pl",
                "contact:website": "http:\/\/www.przedszkoleszamocin.pl",
                "ref:regon": "570262419",
                "ref:vatin": "PL7642239338",
                "operator": "Gmina Szamocin",
                "operator:type": "government",
                "amenity": "kindergarten"
            }
        },
        {
            "id": 264026,
            "type": "Feature",
            "geometry": {
                "type": "Point",
                "coordinates": [
                    17.12275,
                    53.03411
                ]
            },
            "properties": {
                "isced:level": "1;2",
                "ref:rspo": 264026,
                "official_name": "Niepubliczna Szko\u0142a Podstawowa w Szamocinie",
                "name": "Niepubliczna Szko\u0142a Podstawowa w Szamocinie",
                "addr:country": "PL",
                "addr:postcode": "64-820",
                "addr:city": "Szamocin",
                "addr:street": "Szkolna",
                "addr:housenumber": "11",
                "addr:teryt:simc": 21970,
                "addr:teryt:sym_ul": 967096,
                "contact:phone": "+48 672849093",
                "contact:email": "r.malecka@lubasz.edu.pl",
                "ref:regon": "368252682",
                "operator": "Renata Ma\u0142ecka",
                "operator:type": "private",
                "amenity": "school"
            }
        },
        {
            "id": 272872,
            "type": "Feature",
            "geometry": {
                "type": "Point",
                "coordinates": [
                    17.12275,
                    53.034079999999996
                ]
            },
            "properties": {
                "isced:level": "3",
                "ref:rspo": 272872,
                "official_name": "Bran\u017cowa Szko\u0142a I Stopnia w Szamocinie",
                "name": "Bran\u017cowa Szko\u0142a I Stopnia w Szamocinie",
                "addr:country": "PL",
                "addr:postcode": "64-820",
                "addr:city": "Szamocin",
                "addr:street": "Szkolna",
                "addr:housenumber": "11",
                "addr:teryt:simc": 21970,
                "addr:teryt:sym_ul": 967096,
                "contact:phone": "+48 672556055",
                "ref:regon": "384307169",
                "operator": "Renata Ma\u0142ecka",
                "operator:type": "private",
                "amenity": "school"
            }
        },
        {
            "id": 132052,
            "type": "Feature",
            "geometry": {
                "type": "Point",
                "coordinates": [
                    17.06505,
                    53.0386
                ]
            },
            "properties": {
                "ref:rspo": 132052,
                "official_name": "Niepubliczne Przedszkole \"Akademia Gzuba\" O Profilu Spo\u0142eczno-Ekologicznym Michalina Kulczy\u0144ska-Hajman",
                "name": "Niepubliczne Przedszkole \"Akademia Gzuba\" O Profilu Spo\u0142eczno-Ekologicznym Michalina Kulczy\u0144ska-Hajman",
                "addr:country": "PL",
                "addr:postcode": "64-820",
                "addr:place": "J\u00f3zefowice",
                "addr:housenumber": "38",
                "addr:teryt:sym_ul": 529663,
                "contact:phone": "+48 609747947",
                "contact:email": "akademiagzuba@wp.pl",
                "contact:website": "http:\/\/www.akademiagzuba.com.pl",
                "ref:regon": "365436401",
                "ref:vatin": "PL7642376147",
                "operator": "Michalina Kulczy\u0144ska-Hajman",
                "operator:type": "private",
                "amenity": "kindergarten"
            }
        }
    ]
}