{"type":"FeatureCollection","features":[{"id":124102,"type":"Feature","geometry":{"type":"Point","coordinates":[16.98147,52.87897]},"properties":{"ref:rspo":124102,"official_name":"Niepubliczne Przedszkole \"Ma\u0142y Odkrywca\" Sylwia G\u0142owacka","name":"Niepubliczne Przedszkole \"Ma\u0142y Odkrywca\" Sylwia G\u0142owacka","addr:country":"PL","addr:postcode":"64-840","addr:city":"Budzy\u0144","addr:street":"ul. Rogozi\u0144ska","addr:housenumber":"60","addr:teryt:simc":18776,"addr:teryt:sym_ul":524393,"contact:phone":"+48 603419784","contact:email":"leszek_sylwia@op.pl","ref:regon":"302798748","ref:vatin":"PL7661254563","operator":"Sylwia G\u0142owacka","operator:type":"private","amenity":"kindergarten"}},{"id":29379,"type":"Feature","geometry":{"type":"Point","coordinates":[16.98374,52.88471]},"properties":{"isced:level":"1;2","ref:rspo":29379,"official_name":"Szko\u0142a Podstawowa im. Powsta\u0144c\u00f3w Wielkopolskich w Budzyniu","name":"Szko\u0142a Podstawowa","addr:country":"PL","addr:postcode":"64-840","addr:city":"Budzy\u0144","addr:street":"ul. Rogozi\u0144ska","addr:housenumber":"52","addr:teryt:simc":18776,"addr:teryt:sym_ul":524393,"contact:phone":"+48 672843859","contact:email":"spbudzyn@budzyn.pl","ref:regon":"000769670","ref:vatin":"PL7642249526","operator":"Gmina Budzy\u0144","operator:type":"government","amenity":"school"}},{"id":3965,"type":"Feature","geometry":{"type":"Point","coordinates":[16.98125,52.88794]},"properties":{"ref:rspo":3965,"official_name":"Przedszkole Samorz\u0105dowe im. \"Misia Uszatka\" w Budzyniu","name":"Przedszkole Samorz\u0105dowe","addr:country":"PL","addr:postcode":"64-840","addr:city":"Budzy\u0144","addr:street":"os. Wierzbowe","addr:housenumber":"7a","addr:teryt:simc":24171,"addr:teryt:sym_ul":524393,"contact:phone":"+48 672843239","contact:email":"budzyn.przedszkole@gmail.com","ref:regon":"570271312","ref:vatin":"PL7642249503","operator":"Gmina Budzy\u0144","operator:type":"government","amenity":"kindergarten"}},{"id":3970,"type":"Feature","geometry":{"type":"Point","coordinates":[16.85608,52.88896]},"properties":{"ref:rspo":3970,"official_name":"Przedszkole Samorz\u0105dowe Imienia \"Kozio\u0142ka Mato\u0142ka\" w Wyszynach","name":"Przedszkole Samorz\u0105dowe Imienia \"Kozio\u0142ka Mato\u0142ka\" w Wyszynach","addr:country":"PL","addr:postcode":"64-834","addr:place":"Wyszyny","addr:housenumber":"6","addr:teryt:sym_ul":524542,"contact:phone":"+48 672843873","contact:email":"przedszkole.wyszyny@onet.eu","contact:website":"http:\/\/przedszkolewyszyny.edupage.org","ref:regon":"570271329","ref:vatin":"PL7642249489","operator":"Gmina Budzy\u0144","operator:type":"government","amenity":"kindergarten"}},{"id":3946,"type":"Feature","geometry":{"type":"Point","coordinates":[16.8576799,52.89137]},"properties":{"isced:level":"1;2","ref:rspo":3946,"official_name":"Szko\u0142a Podstawowa im. Miko\u0142aja Kopernika w Wyszynach","name":"Szko\u0142a Podstawowa","addr:country":"PL","addr:postcode":"64-834","addr:place":"Wyszyny","addr:housenumber":"21","addr:teryt:sym_ul":524542,"contact:phone":"+48 672843193","contact:email":"sekretariat@spwyszyny.pl","contact:website":"https:\/\/spwyszyny.pl\/","ref:regon":"001170454","ref:vatin":"PL7642249443","operator":"Gmina Budzy\u0144","operator:type":"government","amenity":"school"}}]}