{
    "type": "FeatureCollection",
    "features": [
        {
            "id": 128971,
            "type": "Feature",
            "geometry": {
                "type": "Point",
                "coordinates": [
                    15.19278,
                    53.83832
                ]
            },
            "properties": {
                "isced:level": "1;2",
                "ref:rspo": 128971,
                "official_name": "Szko\u0142a Podstawowa Specjalna w M\u0142odzie\u017cowym O\u015brodku Socjoterapii w Waniorowie",
                "name": "Szko\u0142a Podstawowa Specjalna w M\u0142odzie\u017cowym O\u015brodku Socjoterapii w Waniorowie",
                "addr:country": "PL",
                "addr:postcode": "72-300",
                "addr:place": "Waniorowo",
                "addr:housenumber": "15",
                "addr:teryt:simc": 776108,
                "contact:phone": "+48 913856245",
                "contact:email": "mos@gryfice.pl",
                "contact:website": "http:\/\/www.mos.waniorowo.pl",
                "ref:regon": "362434005",
                "operator": "Powiat Gryficki",
                "operator:type": "government",
                "amenity": "school",
                "note": "Parent RSPO: 128882"
            }
        },
        {
            "id": 128882,
            "type": "Feature",
            "geometry": {
                "type": "Point",
                "coordinates": [
                    15.1922,
                    53.83945
                ]
            },
            "properties": {
                "ref:rspo": 128882,
                "official_name": "M\u0142odzie\u017cowy O\u015brodek Socjoterapii w Waniorowie",
                "name": "M\u0142odzie\u017cowy O\u015brodek Socjoterapii w Waniorowie",
                "addr:country": "PL",
                "addr:postcode": "72-300",
                "addr:place": "Waniorowo",
                "addr:housenumber": "4",
                "addr:teryt:simc": 776108,
                "contact:phone": "+48 913856245",
                "contact:email": "mos@gryfice.pl",
                "contact:website": "http:\/\/www.mos.waniorowo.pl",
                "ref:regon": "362432526",
                "operator": "Powiat Gryficki",
                "operator:type": "government",
                "fixme": "amenity=social_facility + social_facility=group_home + social_facility:for=juvenile",
                "note": "Children RSPO: 128971"
            }
        },
        {
            "id": 4875,
            "type": "Feature",
            "geometry": {
                "type": "Point",
                "coordinates": [
                    15.16486,
                    53.86047
                ]
            },
            "properties": {
                "isced:level": "1;2",
                "ref:rspo": 4875,
                "official_name": "Szko\u0142a Podstawowa im. Jana Paw\u0142a II w Trzyg\u0142owie",
                "name": "Szko\u0142a Podstawowa",
                "addr:country": "PL",
                "addr:postcode": "72-300",
                "addr:place": "Trzyg\u0142\u00f3w",
                "addr:housenumber": "24",
                "addr:teryt:simc": 776083,
                "contact:phone": "+48 913841691",
                "contact:email": "sz.sz_xl@wp.pl",
                "contact:website": "http:\/\/www.sptrzyglow.dzs.pl",
                "ref:regon": "001222955",
                "ref:vatin": "PL8571799199",
                "operator": "Gmina Gryfice",
                "operator:type": "government",
                "amenity": "school"
            }
        },
        {
            "id": 24883,
            "type": "Feature",
            "geometry": {
                "type": "Point",
                "coordinates": [
                    15.20912,
                    53.90736
                ]
            },
            "properties": {
                "ref:rspo": 24883,
                "official_name": "Firma Doradczo-Us\u0142ugowa Zdzis\u0142aw Wiszniewski",
                "name": "Firma Doradczo-Us\u0142ugowa Zdzis\u0142aw Wiszniewski",
                "addr:country": "PL",
                "addr:postcode": "72-300",
                "addr:city": "Gryfice",
                "addr:street": "Spacerowa",
                "addr:housenumber": "1b",
                "addr:teryt:simc": 979053,
                "addr:teryt:sym_ul": 20641,
                "contact:phone": "+48 913844571",
                "contact:email": "uwiszniewska@wp.pl",
                "ref:regon": "321283624",
                "operator": "Zdzis\u0142aw Wiszniewski",
                "operator:type": "private",
                "fixme": "w zale\u017cno\u015bci od przedmiotu dzia\u0142alno\u015bci (np. amenity=training + training=*, amenity=dancing_school, amenity=language_school, amenity=music_school)"
            }
        },
        {
            "id": 12348,
            "type": "Feature",
            "geometry": {
                "type": "Point",
                "coordinates": [
                    15.19278,
                    53.91153
                ]
            },
            "properties": {
                "ref:rspo": 12348,
                "official_name": "Zesp\u00f3\u0142 Szk\u00f3\u0142 im. Czes\u0142awa Mi\u0142osza w Gryficach",
                "name": "Zesp\u00f3\u0142 Szk\u00f3\u0142",
                "addr:country": "PL",
                "addr:postcode": "72-300",
                "addr:city": "Gryfice",
                "addr:street": "11 Listopada",
                "addr:housenumber": "10",
                "addr:teryt:simc": 979053,
                "addr:teryt:sym_ul": 11205,
                "contact:phone": "+48 913842977",
                "contact:email": "zsgryfice@gryfice.pl",
                "contact:website": "http:\/\/www.zsgryfice.edupage.org\/",
                "ref:regon": "000191595",
                "ref:vatin": "PL8571545004",
                "operator": "Powiat Gryficki",
                "operator:type": "government",
                "landuse": "education",
                "fixme": "amenity=school, amenity=college albo landuse=education w zale\u017cno\u015bci od tego, jakie plac\u00f3wki wchodz\u0105 w sk\u0142ad zespo\u0142u. Sprawd\u017a, kiedy stosowa\u0107 amenity=* a kiedy landuse=education.",
                "note": "Children RSPO: 44209;71514;71515"
            }
        },
        {
            "id": 44209,
            "type": "Feature",
            "geometry": {
                "type": "Point",
                "coordinates": [
                    15.19278,
                    53.9115
                ]
            },
            "properties": {
                "isced:level": "3",
                "ref:rspo": 44209,
                "official_name": "Liceum Og\u00f3lnokszta\u0142c\u0105ce Mistrzostwa Sportowego w Zespole Szk\u00f3\u0142 im. Czes\u0142awa Mi\u0142osza w Gryficach",
                "name": "Liceum Og\u00f3lnokszta\u0142c\u0105ce Mistrzostwa Sportowego w Zespole Szk\u00f3\u0142",
                "addr:country": "PL",
                "addr:postcode": "72-300",
                "addr:city": "Gryfice",
                "addr:street": "11 Listopada",
                "addr:housenumber": "10",
                "addr:teryt:simc": 979053,
                "addr:teryt:sym_ul": 11205,
                "contact:phone": "+48 913842977",
                "contact:email": "zsgryfice@gryfice.pl",
                "contact:website": "http:\/\/www.zsgryfice.edupage.org\/",
                "ref:regon": "812640314",
                "operator": "Powiat Gryficki",
                "operator:type": "government",
                "amenity": "school",
                "note": "Parent RSPO: 12348"
            }
        },
        {
            "id": 71514,
            "type": "Feature",
            "geometry": {
                "type": "Point",
                "coordinates": [
                    15.19278,
                    53.91147
                ]
            },
            "properties": {
                "isced:level": "3",
                "ref:rspo": 71514,
                "official_name": "Technikum Ekonomiczne w Zespole Szk\u00f3\u0142 im. Czes\u0142awa Mi\u0142osza w Gryficach",
                "name": "Technikum Ekonomiczne w Zespole Szk\u00f3\u0142",
                "addr:country": "PL",
                "addr:postcode": "72-300",
                "addr:city": "Gryfice",
                "addr:street": "11 Listopada",
                "addr:housenumber": "10",
                "addr:teryt:simc": 979053,
                "addr:teryt:sym_ul": 11205,
                "contact:phone": "+48 913842977",
                "contact:email": "zsgryfice@gryfice.pl",
                "contact:website": "http:\/\/www.zsgryfice.edupage.org\/",
                "ref:regon": "812077296",
                "operator": "Powiat Gryficki",
                "operator:type": "government",
                "amenity": "school",
                "note": "Parent RSPO: 12348"
            }
        },
        {
            "id": 71515,
            "type": "Feature",
            "geometry": {
                "type": "Point",
                "coordinates": [
                    15.19278,
                    53.91144
                ]
            },
            "properties": {
                "isced:level": "3",
                "ref:rspo": 71515,
                "official_name": "Bran\u017cowa Szko\u0142a I Stopnia w Zespole Szk\u00f3\u0142 im. Czes\u0142awa Mi\u0142osza w Gryficach",
                "name": "Bran\u017cowa Szko\u0142a I Stopnia w Zespole Szk\u00f3\u0142",
                "addr:country": "PL",
                "addr:postcode": "72-300",
                "addr:city": "Gryfice",
                "addr:street": "11 Listopada",
                "addr:housenumber": "10",
                "addr:teryt:simc": 979053,
                "addr:teryt:sym_ul": 11205,
                "contact:phone": "+48 913842977",
                "contact:email": "zsgryfice@gryfice.pl",
                "contact:website": "http:\/\/www.zsgryfice.edupage.org\/",
                "ref:regon": "812077304",
                "operator": "Powiat Gryficki",
                "operator:type": "government",
                "amenity": "school",
                "note": "Parent RSPO: 12348"
            }
        },
        {
            "id": 72303,
            "type": "Feature",
            "geometry": {
                "type": "Point",
                "coordinates": [
                    15.21074,
                    53.9119
                ]
            },
            "properties": {
                "ref:rspo": 72303,
                "official_name": "Przedszkole Nr 1 w Gryficach",
                "name": "Przedszkole Nr 1 w Gryficach",
                "addr:country": "PL",
                "addr:postcode": "72-300",
                "addr:city": "Gryfice",
                "addr:street": "Sportowa",
                "addr:housenumber": "19",
                "addr:teryt:simc": 979053,
                "addr:teryt:sym_ul": 20683,
                "contact:phone": "+48 780070015",
                "contact:email": "przedszkole1.gryfice@wp.pl",
                "contact:website": "http:\/\/www.przedszkole1gryfice.szkolnastrona.pl",
                "ref:regon": "320972936",
                "ref:vatin": "PL8571911035",
                "operator": "Gmina Gryfice",
                "operator:type": "government",
                "amenity": "kindergarten"
            }
        },
        {
            "id": 48367,
            "type": "Feature",
            "geometry": {
                "type": "Point",
                "coordinates": [
                    15.20536,
                    53.91294
                ]
            },
            "properties": {
                "isced:level": "1;2",
                "ref:rspo": 48367,
                "official_name": "Szko\u0142a Podstawowa Nr 3 im. Wojsk Obrony Powietrznej Kraju",
                "name": "Szko\u0142a Podstawowa Nr 3",
                "addr:country": "PL",
                "addr:postcode": "72-300",
                "addr:city": "Gryfice",
                "addr:street": "Rodziewicz\u00f3wny",
                "addr:housenumber": "6",
                "addr:teryt:simc": 979053,
                "addr:teryt:sym_ul": 18723,
                "contact:phone": "+48 913842530",
                "contact:email": "sp_3gryfice@wp.pl",
                "contact:website": "http:\/\/www.sp3.gryfice.eu",
                "ref:regon": "810894157",
                "ref:vatin": "PL8571051302",
                "operator": "Gmina Gryfice",
                "operator:type": "government",
                "amenity": "school"
            }
        },
        {
            "id": 31382,
            "type": "Feature",
            "geometry": {
                "type": "Point",
                "coordinates": [
                    15.19455,
                    53.91406
                ]
            },
            "properties": {
                "ref:rspo": 31382,
                "official_name": "Centrum Kszta\u0142cenia Ustawicznego Cechu Rzemios\u0142 R\u00f3\u017cnych I Przedsi\u0119biorc\u00f3w",
                "name": "Centrum Kszta\u0142cenia Ustawicznego Cechu Rzemios\u0142 R\u00f3\u017cnych I Przedsi\u0119biorc\u00f3w",
                "addr:country": "PL",
                "addr:postcode": "72-300",
                "addr:city": "Gryfice",
                "addr:street": "Adama Mickiewicza",
                "addr:housenumber": "23",
                "addr:teryt:simc": 979053,
                "addr:teryt:sym_ul": 12734,
                "contact:phone": "+48 913843391",
                "contact:email": "cechgryfice@op.pl",
                "contact:website": "http:\/\/cech-gryfice.pl",
                "ref:regon": "321285563",
                "operator": "Cech Rzemios\u0142 R\u00f3\u017cnych I Przedsi\u0119biorc\u00f3w",
                "operator:type": "ngo",
                "fixme": "w zale\u017cno\u015bci od przedmiotu dzia\u0142alno\u015bci (np. amenity=training + training=*, amenity=dancing_school, amenity=language_school, amenity=music_school)"
            }
        },
        {
            "id": 23021,
            "type": "Feature",
            "geometry": {
                "type": "Point",
                "coordinates": [
                    15.1941,
                    53.91446
                ]
            },
            "properties": {
                "ref:rspo": 23021,
                "official_name": "O\u015brodek Rehabilitacyjno-Edukacyjno-Wychowawczy w Gryficach",
                "name": "O\u015brodek Rehabilitacyjno-Edukacyjno-Wychowawczy w Gryficach",
                "addr:country": "PL",
                "addr:postcode": "72-300",
                "addr:city": "Gryfice",
                "addr:street": "Pocztowa",
                "addr:housenumber": "4",
                "addr:teryt:simc": 979053,
                "addr:teryt:sym_ul": 16579,
                "contact:phone": "+48 913842616",
                "contact:email": "zk.gryfice@psoni.org.pl",
                "contact:website": "http:\/\/www.psouugryfice.pl",
                "ref:regon": "321281387",
                "operator": "Polskie Stowarzyszenie Na Rzecz Os\u00f3b Z Niepe\u0142nosprawno\u015bci\u0105 Intelektualn\u0105 Ko\u0142o W Gryficach",
                "operator:type": "ngo",
                "amenity": "school"
            }
        },
        {
            "id": 12372,
            "type": "Feature",
            "geometry": {
                "type": "Point",
                "coordinates": [
                    15.19681,
                    53.91548
                ]
            },
            "properties": {
                "isced:level": "3",
                "ref:rspo": 12372,
                "official_name": "Liceum Og\u00f3lnokszta\u0142c\u0105ce Z Oddzia\u0142ami Dwuj\u0119zycznymi im. Boles\u0142awa Chrobrego w Gryficach",
                "name": "Liceum Og\u00f3lnokszta\u0142c\u0105ce Z Oddzia\u0142ami Dwuj\u0119zycznymi",
                "addr:country": "PL",
                "addr:postcode": "72-300",
                "addr:city": "Gryfice",
                "addr:street": "Wa\u0142owa",
                "addr:housenumber": "18",
                "addr:teryt:simc": 979053,
                "addr:teryt:sym_ul": 23586,
                "contact:phone": "+48 913842670",
                "contact:email": "logryfice@poczta.onet.pl",
                "contact:website": "http:\/\/www.lochrobry.pl",
                "ref:regon": "810934566",
                "ref:vatin": "PL8571496576",
                "operator": "Powiat Gryficki",
                "operator:type": "government",
                "amenity": "school"
            }
        },
        {
            "id": 263280,
            "type": "Feature",
            "geometry": {
                "type": "Point",
                "coordinates": [
                    15.19681,
                    53.91545
                ]
            },
            "properties": {
                "isced:level": "1;2",
                "ref:rspo": 263280,
                "official_name": "Szko\u0142a Podstawowa w Gryficach",
                "name": "Szko\u0142a Podstawowa w Gryficach",
                "addr:country": "PL",
                "addr:postcode": "72-300",
                "addr:city": "Gryfice",
                "addr:street": "Wa\u0142owa",
                "addr:housenumber": "18",
                "addr:teryt:simc": 979053,
                "addr:teryt:sym_ul": 23586,
                "contact:phone": "+48 570193611",
                "contact:email": "sp.gryfice@gmail.com",
                "contact:website": "http:\/\/www.spgryfice.com",
                "ref:regon": "368182295",
                "operator": "Krzysztof Rzo\u0144ca",
                "operator:type": "private",
                "amenity": "school"
            }
        },
        {
            "id": 26825,
            "type": "Feature",
            "geometry": {
                "type": "Point",
                "coordinates": [
                    15.19487,
                    53.91604
                ]
            },
            "properties": {
                "ref:rspo": 26825,
                "official_name": "Prywatne Przedszkole J\u0119zykowe Top Link",
                "name": "Prywatne Przedszkole J\u0119zykowe Top Link",
                "addr:country": "PL",
                "addr:postcode": "72-300",
                "addr:city": "Gryfice",
                "addr:street": "Tadeusza Ko\u015bciuszki",
                "addr:housenumber": "19",
                "addr:teryt:simc": 979053,
                "addr:teryt:sym_ul": 9572,
                "contact:email": "info@toplink.com.pl",
                "contact:website": "http:\/\/www.toplink.edupage.org",
                "ref:regon": "321284049",
                "ref:vatin": "PL8571846906",
                "operator": "Klaudia J\u0119druszek-Farinha",
                "operator:type": "private",
                "amenity": "kindergarten"
            }
        },
        {
            "id": 125220,
            "type": "Feature",
            "geometry": {
                "type": "Point",
                "coordinates": [
                    15.19487,
                    53.91601
                ]
            },
            "properties": {
                "isced:level": "1;2",
                "ref:rspo": 125220,
                "official_name": "Prywatna J\u0119zykowa Szko\u0142a Podstawowa Top Link",
                "name": "Prywatna J\u0119zykowa Szko\u0142a Podstawowa Top Link",
                "addr:country": "PL",
                "addr:postcode": "72-300",
                "addr:city": "Gryfice",
                "addr:street": "Tadeusza Ko\u015bciuszki",
                "addr:housenumber": "19",
                "addr:teryt:simc": 979053,
                "addr:teryt:sym_ul": 9572,
                "contact:email": "info@toplink.com.pl",
                "contact:website": "http:\/\/www.toplink.edupage.org",
                "ref:regon": "321575114",
                "operator": "Klaudia J\u0119druszek-Farinha",
                "operator:type": "private",
                "amenity": "school"
            }
        },
        {
            "id": 270511,
            "type": "Feature",
            "geometry": {
                "type": "Point",
                "coordinates": [
                    15.19487,
                    53.915980000000005
                ]
            },
            "properties": {
                "ref:rspo": 270511,
                "official_name": "Prywatne Przedszkole Terapeutyczne Top Link w Gryficach",
                "name": "Prywatne Przedszkole Terapeutyczne Top Link w Gryficach",
                "addr:country": "PL",
                "addr:postcode": "72-300",
                "addr:city": "Gryfice",
                "addr:street": "Tadeusza Ko\u015bciuszki",
                "addr:housenumber": "19",
                "addr:teryt:simc": 979053,
                "addr:teryt:sym_ul": 9572,
                "contact:email": "info@toplink.com.pl",
                "contact:website": "http:\/\/www.toplink.edupage.org",
                "ref:regon": "382689304",
                "operator": "Klaudia J\u0119druszek-Farinha",
                "operator:type": "private",
                "amenity": "kindergarten"
            }
        },
        {
            "id": 61359,
            "type": "Feature",
            "geometry": {
                "type": "Point",
                "coordinates": [
                    15.1963,
                    53.91622
                ]
            },
            "properties": {
                "ref:rspo": 61359,
                "official_name": "Przedszkole Nr 2 w Gryficach",
                "name": "Przedszkole Nr 2 w Gryficach",
                "addr:country": "PL",
                "addr:postcode": "72-300",
                "addr:city": "Gryfice",
                "addr:street": "3 Maja",
                "addr:housenumber": "1",
                "addr:teryt:simc": 979053,
                "addr:teryt:sym_ul": 11937,
                "contact:phone": "+48 913842427",
                "contact:email": "przedszkole2.gryfice@wp.pl",
                "contact:website": "http:\/\/www.przedszkole2gryfice.szkolnastrona.pl",
                "ref:regon": "320977804",
                "ref:vatin": "PL8571911265",
                "operator": "Gmina Gryfice",
                "operator:type": "government",
                "amenity": "kindergarten"
            }
        },
        {
            "id": 26786,
            "type": "Feature",
            "geometry": {
                "type": "Point",
                "coordinates": [
                    15.18535,
                    53.91672
                ]
            },
            "properties": {
                "isced:level": "1;2",
                "ref:rspo": 26786,
                "official_name": "Szko\u0142a Podstawowa Nr 4 im. I Samodzielnej Warszawskiej Brygady Kawalerii",
                "name": "Szko\u0142a Podstawowa Nr 4",
                "addr:country": "PL",
                "addr:postcode": "72-300",
                "addr:city": "Gryfice",
                "addr:street": "Henryka Sienkiewicza",
                "addr:housenumber": "10",
                "addr:teryt:simc": 979053,
                "addr:teryt:sym_ul": 19830,
                "contact:phone": "+48 913842947",
                "contact:email": "sp4.gryfice@poczta.fm",
                "contact:website": "http:\/\/www.sp4gryfice.pl",
                "ref:regon": "000702469",
                "ref:vatin": "PL8571887259",
                "operator": "Gmina Gryfice",
                "operator:type": "government",
                "amenity": "school"
            }
        },
        {
            "id": 18258,
            "type": "Feature",
            "geometry": {
                "type": "Point",
                "coordinates": [
                    15.19198,
                    53.91702
                ]
            },
            "properties": {
                "isced:level": "3",
                "ref:rspo": 18258,
                "official_name": "Prywatna Bran\u017cowa Szko\u0142a I Stopnia w Gryficach",
                "name": "Prywatna Bran\u017cowa Szko\u0142a I Stopnia w Gryficach",
                "addr:country": "PL",
                "addr:postcode": "72-300",
                "addr:city": "Gryfice",
                "addr:street": "Rapackiego",
                "addr:housenumber": "3A",
                "addr:teryt:simc": 979053,
                "addr:teryt:sym_ul": 18448,
                "contact:phone": "+48 913845896",
                "contact:email": "sekretariat.psz@gmail.com",
                "ref:regon": "321278043",
                "operator": "Sylwester Rzepecki",
                "operator:type": "private",
                "amenity": "school"
            }
        },
        {
            "id": 81511,
            "type": "Feature",
            "geometry": {
                "type": "Point",
                "coordinates": [
                    15.19198,
                    53.91699
                ]
            },
            "properties": {
                "ref:rspo": 81511,
                "official_name": "O\u015brodek Szkolenia Kursowego \"Terminator\" w Gryficach",
                "name": "O\u015brodek Szkolenia Kursowego \"Terminator\" w Gryficach",
                "addr:country": "PL",
                "addr:postcode": "72-300",
                "addr:city": "Gryfice",
                "addr:street": "Rapackiego",
                "addr:housenumber": "3A",
                "addr:teryt:simc": 979053,
                "addr:teryt:sym_ul": 18448,
                "contact:phone": "+48 913845896",
                "contact:email": "sekretariat.psz@gmail.com",
                "ref:regon": "321300647",
                "operator": "Sylwester Rzepecki",
                "operator:type": "private",
                "fixme": "w zale\u017cno\u015bci od przedmiotu dzia\u0142alno\u015bci (np. amenity=training + training=*, amenity=dancing_school, amenity=language_school, amenity=music_school)"
            }
        },
        {
            "id": 41940,
            "type": "Feature",
            "geometry": {
                "type": "Point",
                "coordinates": [
                    15.21425,
                    53.91822
                ]
            },
            "properties": {
                "ref:rspo": 41940,
                "official_name": "Centrum Szkolenia Kursowego \"Educo\"",
                "name": "Centrum Szkolenia Kursowego \"Educo\"",
                "addr:country": "PL",
                "addr:postcode": "72-300",
                "addr:city": "Gryfice",
                "addr:street": "Warszawska",
                "addr:housenumber": "12",
                "addr:teryt:simc": 979053,
                "addr:teryt:sym_ul": 23682,
                "contact:phone": "+48 913844688",
                "contact:email": "cskeduco@onet.eu",
                "ref:regon": "321287740",
                "operator": "Marzena Loduchowska",
                "operator:type": "private",
                "fixme": "w zale\u017cno\u015bci od przedmiotu dzia\u0142alno\u015bci (np. amenity=training + training=*, amenity=dancing_school, amenity=language_school, amenity=music_school)"
            }
        },
        {
            "id": 22940,
            "type": "Feature",
            "geometry": {
                "type": "Point",
                "coordinates": [
                    15.19135,
                    53.91855
                ]
            },
            "properties": {
                "ref:rspo": 22940,
                "official_name": "Zesp\u00f3\u0142 Szk\u00f3\u0142 \"Tom\" w Gryficach",
                "name": "Zesp\u00f3\u0142 Szk\u00f3\u0142 \"Tom\" w Gryficach",
                "addr:country": "PL",
                "addr:postcode": "72-300",
                "addr:city": "Gryfice",
                "addr:street": "6 Marca",
                "addr:housenumber": "6",
                "addr:teryt:simc": 979053,
                "addr:teryt:sym_ul": 12269,
                "contact:phone": "+48 508336884",
                "contact:email": "szkoly.tom@gmail.com",
                "contact:website": "http:\/\/www.szkoly-tom.pl",
                "ref:regon": "321281080",
                "operator": "Tomasz Boruk",
                "operator:type": "private",
                "landuse": "education",
                "fixme": "amenity=school, amenity=college albo landuse=education w zale\u017cno\u015bci od tego, jakie plac\u00f3wki wchodz\u0105 w sk\u0142ad zespo\u0142u. Sprawd\u017a, kiedy stosowa\u0107 amenity=* a kiedy landuse=education.",
                "note": "Children RSPO: 24647;24665;24686;24728"
            }
        },
        {
            "id": 24647,
            "type": "Feature",
            "geometry": {
                "type": "Point",
                "coordinates": [
                    15.19135,
                    53.91852
                ]
            },
            "properties": {
                "isced:level": "3",
                "ref:rspo": 24647,
                "official_name": "Liceum Og\u00f3lnokszta\u0142c\u0105ce dla Doros\u0142ych \"Tom\" w Gryficach",
                "name": "Liceum Og\u00f3lnokszta\u0142c\u0105ce dla Doros\u0142ych \"Tom\" w Gryficach",
                "addr:country": "PL",
                "addr:postcode": "72-300",
                "addr:city": "Gryfice",
                "addr:street": "6 Marca",
                "addr:housenumber": "6",
                "addr:teryt:simc": 979053,
                "addr:teryt:sym_ul": 12269,
                "contact:phone": "+48 508336884",
                "contact:email": "szkoly.tom@gmail.com",
                "contact:website": "http:\/\/www.szkoly-tom.pl",
                "ref:regon": "321288024",
                "operator": "Tomasz Boruk",
                "operator:type": "private",
                "amenity": "school",
                "note": "Parent RSPO: 22940"
            }
        },
        {
            "id": 24665,
            "type": "Feature",
            "geometry": {
                "type": "Point",
                "coordinates": [
                    15.19135,
                    53.918490000000006
                ]
            },
            "properties": {
                "isced:level": "4",
                "ref:rspo": 24665,
                "official_name": "Policealne Studium Zawodowe \"Tom\" w Gryficach",
                "name": "Policealne Studium Zawodowe \"Tom\" w Gryficach",
                "addr:country": "PL",
                "addr:postcode": "72-300",
                "addr:city": "Gryfice",
                "addr:street": "6 Marca",
                "addr:housenumber": "6",
                "addr:teryt:simc": 979053,
                "addr:teryt:sym_ul": 12269,
                "contact:phone": "+48 508336884",
                "contact:email": "szkoly.tom@gmail.com",
                "contact:website": "http:\/\/www.szkoly-tom.pl",
                "ref:regon": "321283009",
                "operator": "Tomasz Boruk",
                "operator:type": "private",
                "amenity": "college",
                "note": "Parent RSPO: 22940"
            }
        },
        {
            "id": 24686,
            "type": "Feature",
            "geometry": {
                "type": "Point",
                "coordinates": [
                    15.19135,
                    53.91846
                ]
            },
            "properties": {
                "isced:level": "4",
                "ref:rspo": 24686,
                "official_name": "Policealne Studium Ochrony Fizycznej Os\u00f3b I Mienia \"Tom\" w Gryficach",
                "name": "Policealne Studium Ochrony Fizycznej Os\u00f3b I Mienia \"Tom\" w Gryficach",
                "addr:country": "PL",
                "addr:postcode": "72-300",
                "addr:city": "Gryfice",
                "addr:street": "6 Marca",
                "addr:housenumber": "6",
                "addr:teryt:simc": 979053,
                "addr:teryt:sym_ul": 12269,
                "contact:phone": "+48 508336884",
                "contact:email": "szkoly.tom@gmail.com",
                "contact:website": "http:\/\/www.szkoly-tom.pl",
                "ref:regon": "321282932",
                "operator": "Tomasz Boruk",
                "operator:type": "private",
                "amenity": "college",
                "note": "Parent RSPO: 22940"
            }
        },
        {
            "id": 24728,
            "type": "Feature",
            "geometry": {
                "type": "Point",
                "coordinates": [
                    15.19135,
                    53.91843
                ]
            },
            "properties": {
                "isced:level": "3",
                "ref:rspo": 24728,
                "official_name": "Liceum Og\u00f3lnokszta\u0142c\u0105ce \"Tom\" w Gryficach",
                "name": "Liceum Og\u00f3lnokszta\u0142c\u0105ce \"Tom\" w Gryficach",
                "addr:country": "PL",
                "addr:postcode": "72-300",
                "addr:city": "Gryfice",
                "addr:street": "6 Marca",
                "addr:housenumber": "6",
                "addr:teryt:simc": 979053,
                "addr:teryt:sym_ul": 12269,
                "contact:phone": "+48 508336884",
                "contact:email": "szkoly.tom@gmail.com",
                "contact:website": "http:\/\/www.szkoly-tom.pl",
                "ref:regon": "321282369",
                "operator": "Tomasz Boruk",
                "operator:type": "private",
                "amenity": "school",
                "note": "Parent RSPO: 22940"
            }
        },
        {
            "id": 16771,
            "type": "Feature",
            "geometry": {
                "type": "Point",
                "coordinates": [
                    15.2117,
                    53.91889
                ]
            },
            "properties": {
                "ref:rspo": 16771,
                "official_name": "Poradnia Psychologiczno-Pedagogiczna w Gryficach",
                "name": "Poradnia Psychologiczno-Pedagogiczna w Gryficach",
                "addr:country": "PL",
                "addr:postcode": "72-300",
                "addr:city": "Gryfice",
                "addr:street": "Polna",
                "addr:housenumber": "8",
                "addr:teryt:simc": 979053,
                "addr:teryt:sym_ul": 17011,
                "contact:phone": "+48 913842441",
                "contact:email": "pppsekretariatgryfice@op.pl",
                "ref:regon": "000703180",
                "operator": "Powiat Gryficki",
                "operator:type": "government",
                "healthcare": "counselling",
                "counselling_type": "education",
                "fixme": "w zale\u017cno\u015bci od przedmiotu dzia\u0142alno\u015bci (np. healthcare=counselling + counselling_type=education albo healthcare=psychotherapist)"
            }
        },
        {
            "id": 12000,
            "type": "Feature",
            "geometry": {
                "type": "Point",
                "coordinates": [
                    15.20014,
                    53.91983
                ]
            },
            "properties": {
                "ref:rspo": 12000,
                "official_name": "Pa\u0144stwowa Szko\u0142a Muzyczna I St. im. Wojciecha Kilara w Gryficach",
                "name": "Pa\u0144stwowa Szko\u0142a Muzyczna I St.",
                "addr:country": "PL",
                "addr:postcode": "72-300",
                "addr:city": "Gryfice",
                "addr:street": "Marsza\u0142ka J\u00f3zefa Pi\u0142sudskiego",
                "addr:housenumber": "3",
                "addr:teryt:simc": 979053,
                "addr:teryt:sym_ul": 36029,
                "contact:phone": "+48 913842733",
                "contact:email": "szm@xl.wp.pl",
                "contact:website": "http:\/\/muzycznagryfice.pl",
                "ref:regon": "006619054",
                "operator": "Ministerstwo Kultury I Dziedzictwa Narodowego",
                "operator:type": "public",
                "amenity": "music_school"
            }
        },
        {
            "id": 2882,
            "type": "Feature",
            "geometry": {
                "type": "Point",
                "coordinates": [
                    15.20093,
                    53.92047
                ]
            },
            "properties": {
                "isced:level": "3",
                "ref:rspo": 2882,
                "official_name": "Technikum Rolnicze Centrum Edukacyjnego Talent-Promocja-Post\u0119p w Gryficach",
                "name": "Technikum Rolnicze Centrum Edukacyjnego Talent-Promocja-Post\u0119p w Gryficach",
                "addr:country": "PL",
                "addr:postcode": "72-300",
                "addr:city": "Gryfice",
                "addr:street": "Cukrownicza",
                "addr:housenumber": "2",
                "addr:teryt:simc": 979053,
                "addr:teryt:sym_ul": 3137,
                "contact:phone": "+48 913846040",
                "contact:email": "cetpp@wp.pl",
                "ref:regon": "321256811",
                "operator": "\u017baneta Bartczak",
                "operator:type": "private",
                "amenity": "school"
            }
        },
        {
            "id": 8041,
            "type": "Feature",
            "geometry": {
                "type": "Point",
                "coordinates": [
                    15.20093,
                    53.92044
                ]
            },
            "properties": {
                "isced:level": "3",
                "ref:rspo": 8041,
                "official_name": "Technikum Samochodowe Centrum Edukacyjnego Talent-Promocja-Post\u0119p w Gryficach",
                "name": "Technikum Samochodowe Centrum Edukacyjnego Talent-Promocja-Post\u0119p w Gryficach",
                "addr:country": "PL",
                "addr:postcode": "73-300",
                "addr:city": "Gryfice",
                "addr:street": "Cukrownicza",
                "addr:housenumber": "2",
                "addr:teryt:simc": 979053,
                "addr:teryt:sym_ul": 3137,
                "contact:phone": "+48 913846040",
                "contact:email": "cetpp@wp.pl",
                "ref:regon": "321268990",
                "operator": "\u017baneta Bartczak",
                "operator:type": "private",
                "amenity": "school"
            }
        },
        {
            "id": 8061,
            "type": "Feature",
            "geometry": {
                "type": "Point",
                "coordinates": [
                    15.20093,
                    53.920410000000004
                ]
            },
            "properties": {
                "isced:level": "3",
                "ref:rspo": 8061,
                "official_name": "Bran\u017cowa Szko\u0142a I Stopnia Centrum Edukacyjnego Talent-Promocja-Post\u0119p w Gryficach",
                "name": "Bran\u017cowa Szko\u0142a I Stopnia Centrum Edukacyjnego Talent-Promocja-Post\u0119p w Gryficach",
                "addr:country": "PL",
                "addr:postcode": "72-300",
                "addr:city": "Gryfice",
                "addr:street": "Cukrownicza",
                "addr:housenumber": "2",
                "addr:teryt:simc": 979053,
                "addr:teryt:sym_ul": 3137,
                "contact:phone": "+48 913846040",
                "contact:email": "cetpp@wp.pl",
                "ref:regon": "321269009",
                "operator": "\u017baneta Bartczak",
                "operator:type": "private",
                "amenity": "school"
            }
        },
        {
            "id": 16749,
            "type": "Feature",
            "geometry": {
                "type": "Point",
                "coordinates": [
                    15.20093,
                    53.92038
                ]
            },
            "properties": {
                "isced:level": "3",
                "ref:rspo": 16749,
                "official_name": "Liceum Og\u00f3lnokszta\u0142c\u0105ce dla Doros\u0142ych Centrum Edukacyjnego Talent-Promocja-Post\u0119p w Gryficach",
                "name": "Liceum Og\u00f3lnokszta\u0142c\u0105ce dla Doros\u0142ych Centrum Edukacyjnego Talent-Promocja-Post\u0119p w Gryficach",
                "addr:country": "PL",
                "addr:postcode": "72-300",
                "addr:city": "Gryfice",
                "addr:street": "Cukrownicza",
                "addr:housenumber": "2",
                "addr:teryt:simc": 979053,
                "addr:teryt:sym_ul": 3137,
                "contact:phone": "+48 913846040",
                "contact:email": "cetpp@wp.pl",
                "ref:regon": "321277279",
                "operator": "\u017baneta Bartczak",
                "operator:type": "private",
                "amenity": "school"
            }
        },
        {
            "id": 273365,
            "type": "Feature",
            "geometry": {
                "type": "Point",
                "coordinates": [
                    15.20093,
                    53.92035
                ]
            },
            "properties": {
                "isced:level": "3",
                "ref:rspo": 273365,
                "official_name": "Liceum Og\u00f3lnokszta\u0142c\u0105ce Centrum Edukacyjnego Talent-Promocja-Post\u0119p w Gryficach",
                "name": "Liceum Og\u00f3lnokszta\u0142c\u0105ce Centrum Edukacyjnego Talent-Promocja-Post\u0119p w Gryficach",
                "addr:country": "PL",
                "addr:postcode": "72-300",
                "addr:city": "Gryfice",
                "addr:street": "Cukrownicza",
                "addr:housenumber": "2",
                "addr:teryt:simc": 979053,
                "addr:teryt:sym_ul": 3137,
                "contact:phone": "+48 913846040",
                "contact:email": "cetpp@wp.pl",
                "ref:regon": "384457615",
                "operator": "\u017baneta Bartczak",
                "operator:type": "private",
                "amenity": "school"
            }
        },
        {
            "id": 110262,
            "type": "Feature",
            "geometry": {
                "type": "Point",
                "coordinates": [
                    15.1988,
                    53.92059
                ]
            },
            "properties": {
                "isced:level": "3",
                "ref:rspo": 110262,
                "official_name": "Liceum Sztuk Plastycznych w Gryficach",
                "name": "Liceum Sztuk Plastycznych w Gryficach",
                "addr:country": "PL",
                "addr:postcode": "73-300",
                "addr:city": "Gryfice",
                "addr:street": "Marsza\u0142ka J\u00f3zefa Pi\u0142sudskiego",
                "addr:housenumber": "34",
                "addr:teryt:simc": 979053,
                "addr:teryt:sym_ul": 36029,
                "contact:phone": "+48 913844732",
                "contact:email": "adomath@wp.pl",
                "contact:website": "http:\/\/lpilogryfice.pl",
                "ref:regon": "320556540",
                "operator": "Halina Adomat",
                "operator:type": "private",
                "amenity": "school"
            }
        },
        {
            "id": 49327,
            "type": "Feature",
            "geometry": {
                "type": "Point",
                "coordinates": [
                    15.19791,
                    53.95196
                ]
            },
            "properties": {
                "isced:level": "1;2",
                "ref:rspo": 49327,
                "official_name": "Szko\u0142a Podstawowa w Prusinowie",
                "name": "Szko\u0142a Podstawowa w Prusinowie",
                "addr:country": "PL",
                "addr:postcode": "72-300",
                "addr:place": "Prusinowo",
                "addr:housenumber": "10",
                "addr:teryt:simc": 775920,
                "contact:phone": "+48 913843157",
                "contact:email": "spprusinowo@interia.pl",
                "contact:website": "http:\/\/www.spprusinowo.szkolnastrona.pl",
                "ref:regon": "001248831",
                "ref:vatin": "PL8571887070",
                "operator": "Gmina Gryfice",
                "operator:type": "government",
                "amenity": "school"
            }
        },
        {
            "id": 4949,
            "type": "Feature",
            "geometry": {
                "type": "Point",
                "coordinates": [
                    15.23696,
                    53.97585
                ]
            },
            "properties": {
                "isced:level": "1;2",
                "ref:rspo": 4949,
                "official_name": "Szko\u0142a Podstawowa w G\u00f3rzycy",
                "name": "Szko\u0142a Podstawowa w G\u00f3rzycy",
                "addr:country": "PL",
                "addr:postcode": "72-300",
                "addr:place": "G\u00f3rzyca",
                "addr:housenumber": "20",
                "addr:teryt:simc": 775787,
                "contact:phone": "+48 913841881",
                "contact:email": "spgorzyca@gmail.com",
                "contact:website": "http:\/\/spgorzyca.szkolnastrona.pl\/",
                "ref:regon": "001222949",
                "ref:vatin": "PL8571887093",
                "operator": "Gmina Gryfice",
                "operator:type": "government",
                "amenity": "school"
            }
        }
    ]
}