{
    "type": "FeatureCollection",
    "features": [
        {
            "id": 115651,
            "type": "Feature",
            "geometry": {
                "type": "Point",
                "coordinates": [
                    19.29696,
                    52.14652
                ]
            },
            "properties": {
                "ref:rspo": 115651,
                "official_name": "Niepubliczne Przedszkolne im. Ma\u0142ego Ksi\u0119cia w Witoni",
                "name": "Niepubliczne Przedszkolne",
                "addr:postcode": "99-335",
                "addr:city": "Witonia",
                "addr:street": "Centralna",
                "addr:housenumber": "13",
                "addr:teryt:simc": 578897,
                "addr:teryt:sym_ul": 2614,
                "phone": "+48 790452424",
                "email": "malyksiazewitonia@interia.pl",
                "ref:regon": "101634063",
                "operator": "Sp\u00f3\u0142dzielnia Socjalna \"Dogoni\u0107 Marzenia\"",
                "operator:type": "cooperative",
                "amenity": "kindergarten"
            }
        },
        {
            "id": 15773,
            "type": "Feature",
            "geometry": {
                "type": "Point",
                "coordinates": [
                    19.2875799,
                    52.14812
                ]
            },
            "properties": {
                "isced:level": "1;2",
                "ref:rspo": 15773,
                "official_name": "Szko\u0142a Podstawowa im. \u015aw. Jadwigi Kr\u00f3lowej Polski w Witoni",
                "name": "Szko\u0142a Podstawowa",
                "addr:postcode": "99-335",
                "addr:city": "Witonia",
                "addr:street": "Szkolna",
                "addr:housenumber": "4",
                "addr:teryt:simc": 578897,
                "addr:teryt:sym_ul": 21970,
                "phone": "+48 243564019",
                "email": "spwitonia@poczta.onet.pl",
                "website": "http:\/\/www.spwitonia.szkolnastrona.pl",
                "ref:regon": "000631775",
                "ref:vatin": "PL7752213038",
                "operator": "Gmina Witonia",
                "operator:type": "government",
                "amenity": "school"
            }
        }
    ]
}