{
    "type": "FeatureCollection",
    "features": [
        {
            "id": 22838,
            "type": "Feature",
            "geometry": {
                "type": "Point",
                "coordinates": [
                    19.41921,
                    52.04337
                ]
            },
            "properties": {
                "isced:level": "1;2",
                "ref:rspo": 22838,
                "official_name": "Szko\u0142a Podstawowa im. Or\u0142a Bia\u0142ego w Czernikowie",
                "name": "Szko\u0142a Podstawowa",
                "addr:postcode": "99-120",
                "addr:place": "Czernik\u00f3w",
                "addr:housenumber": "11",
                "addr:city:simc": 573026,
                "phone": "+48 247221044",
                "email": "szkolaczernikow@interia.pl",
                "website": "http:\/\/spczernikow.edupage.org\/",
                "ref:regon": "610368788",
                "ref:vatin": "PL5070059219",
                "operator": "Gmina Pi\u0105tek",
                "operator:type": "government",
                "amenity": "school"
            }
        },
        {
            "id": 28113,
            "type": "Feature",
            "geometry": {
                "type": "Point",
                "coordinates": [
                    19.48351,
                    52.06915
                ]
            },
            "properties": {
                "ref:rspo": 28113,
                "official_name": "Gminne Przedszkole im. Jana Paw\u0142a II w Pi\u0105tku",
                "name": "Gminne Przedszkole",
                "addr:postcode": "99-120",
                "addr:city": "Pi\u0105tek",
                "addr:street": "Szkolna",
                "addr:housenumber": "1",
                "addr:city:simc": 573256,
                "addr:street:sym_ul": 21970,
                "phone": "+48 247221067",
                "email": "przedszkole_piatek@op.pl",
                "website": "http:\/\/przedszkolepiatek.pl\/",
                "ref:regon": "100535100",
                "ref:vatin": "PL5070065734",
                "operator": "Gmina Pi\u0105tek",
                "operator:type": "government",
                "amenity": "kindergarten"
            }
        },
        {
            "id": 28114,
            "type": "Feature",
            "geometry": {
                "type": "Point",
                "coordinates": [
                    19.48351,
                    52.06912
                ]
            },
            "properties": {
                "isced:level": "1;2",
                "ref:rspo": 28114,
                "official_name": "Szko\u0142a Podstawowa im. Marsza\u0142ka J\u00f3zefa Pi\u0142sudskiego w Pi\u0105tku",
                "name": "Szko\u0142a Podstawowa",
                "addr:postcode": "99-120",
                "addr:city": "Pi\u0105tek",
                "addr:street": "Szkolna",
                "addr:housenumber": "1",
                "addr:city:simc": 573256,
                "addr:street:sym_ul": 21970,
                "phone": "+48 247221195",
                "email": "sppiatek@interia.pl",
                "website": "http:\/\/sppiatek.szkolnastrona.pl",
                "ref:regon": "000631812",
                "ref:vatin": "PL5070055753",
                "operator": "Gmina Pi\u0105tek",
                "operator:type": "government",
                "amenity": "school"
            }
        },
        {
            "id": 41877,
            "type": "Feature",
            "geometry": {
                "type": "Point",
                "coordinates": [
                    19.47901,
                    52.07159
                ]
            },
            "properties": {
                "ref:rspo": 41877,
                "official_name": "Zesp\u00f3\u0142 Szk\u00f3\u0142 Mechanizacji Rolnictwa im. Bohater\u00f3w Walk Nad Bzur\u0105 w Pi\u0105tku",
                "name": "Zesp\u00f3\u0142 Szk\u00f3\u0142 Mechanizacji Rolnictwa",
                "addr:postcode": "99-120",
                "addr:city": "Pi\u0105tek",
                "addr:street": "Kutnowska",
                "addr:housenumber": "19",
                "addr:city:simc": 573256,
                "addr:street:sym_ul": 10502,
                "phone": "+48 243894100",
                "email": "pzsmr@wp.pl",
                "ref:regon": "000184394",
                "ref:vatin": "PL7752054752",
                "operator": "Powiat \u0141\u0119czycki",
                "operator:type": "government",
                "landuse": "education",
                "fixme": "amenity=school, amenity=college albo landuse=education w zale\u017cno\u015bci od tego, jakie plac\u00f3wki wchodz\u0105 w sk\u0142ad zespo\u0142u. Sprawd\u017a, kiedy stosowa\u0107 amenity=* a kiedy landuse=education.",
                "note": "Children RSPO: 53821;53822;56393;59559"
            }
        },
        {
            "id": 53821,
            "type": "Feature",
            "geometry": {
                "type": "Point",
                "coordinates": [
                    19.47901,
                    52.07156
                ]
            },
            "properties": {
                "isced:level": "3",
                "ref:rspo": 53821,
                "official_name": "Zesp\u00f3\u0142 Szk\u00f3\u0142 Mechanizacji Rolnictwa im. Bohater\u00f3w Walk Nad Bzur\u0105 w Pi\u0105tku Bran\u017cowa Szko\u0142a I Stopnia w Pi\u0105tku",
                "name": "Zesp\u00f3\u0142 Szk\u00f3\u0142 Mechanizacji Rolnictwa",
                "addr:postcode": "99-120",
                "addr:city": "Pi\u0105tek",
                "addr:street": "Kutnowska",
                "addr:housenumber": "19",
                "addr:city:simc": 573256,
                "addr:street:sym_ul": 10502,
                "phone": "+48 243894100",
                "email": "pzsmr@wp.pl",
                "ref:regon": "472893245",
                "operator": "Powiat \u0141\u0119czycki",
                "operator:type": "government",
                "amenity": "school",
                "note": "Parent RSPO: 41877"
            }
        },
        {
            "id": 53822,
            "type": "Feature",
            "geometry": {
                "type": "Point",
                "coordinates": [
                    19.47901,
                    52.07153
                ]
            },
            "properties": {
                "isced:level": "3",
                "ref:rspo": 53822,
                "official_name": "Zesp\u00f3\u0142 Szk\u00f3\u0142 Mechanizacji Rolnictwa im. Bohater\u00f3w Walk Nad Bzur\u0105 w Pi\u0105tku Technikum w Pi\u0105tku",
                "name": "Zesp\u00f3\u0142 Szk\u00f3\u0142 Mechanizacji Rolnictwa",
                "addr:postcode": "99-120",
                "addr:city": "Pi\u0105tek",
                "addr:street": "Kutnowska",
                "addr:housenumber": "19",
                "addr:city:simc": 573256,
                "addr:street:sym_ul": 10502,
                "phone": "+48 243894100",
                "email": "pzsmr@wp.pl",
                "ref:regon": "472893239",
                "operator": "Powiat \u0141\u0119czycki",
                "operator:type": "government",
                "amenity": "school",
                "note": "Parent RSPO: 41877"
            }
        },
        {
            "id": 56393,
            "type": "Feature",
            "geometry": {
                "type": "Point",
                "coordinates": [
                    19.47901,
                    52.0715
                ]
            },
            "properties": {
                "ref:rspo": 56393,
                "official_name": "Internat w Zespole Szk\u00f3\u0142 Mechanizacji Rolnictwa w Pi\u0105tku",
                "name": "Internat w Zespole Szk\u00f3\u0142 Mechanizacji Rolnictwa w Pi\u0105tku",
                "addr:postcode": "99-120",
                "addr:city": "Pi\u0105tek",
                "addr:street": "Kutnowska",
                "addr:housenumber": "19",
                "addr:city:simc": 573256,
                "addr:street:sym_ul": 10502,
                "phone": "+48 243894100",
                "email": "pzsmr@wp.pl",
                "ref:regon": "473087820",
                "operator": "Powiat \u0141\u0119czycki",
                "operator:type": "government",
                "building": "dormitory",
                "note": "Parent RSPO: 41877"
            }
        },
        {
            "id": 59559,
            "type": "Feature",
            "geometry": {
                "type": "Point",
                "coordinates": [
                    19.47901,
                    52.07147
                ]
            },
            "properties": {
                "ref:rspo": 59559,
                "official_name": "Zesp\u00f3\u0142 Szk\u00f3\u0142 Mechanizacji Rolnictwa im. Bohater\u00f3w Walk Nad Bzur\u0105 w Pi\u0105tku Centrum Kszta\u0142cenia Zawodowego w Pi\u0105tku",
                "name": "Zesp\u00f3\u0142 Szk\u00f3\u0142 Mechanizacji Rolnictwa",
                "addr:postcode": "99-120",
                "addr:city": "Pi\u0105tek",
                "addr:street": "Kutnowska",
                "addr:housenumber": "19",
                "addr:city:simc": 573256,
                "addr:street:sym_ul": 10502,
                "phone": "+48 243894100",
                "email": "pzsmr@wp.pl",
                "ref:regon": "473086280",
                "ref:vatin": "PL7752409534",
                "operator": "Powiat \u0141\u0119czycki",
                "operator:type": "government",
                "fixme": "w zale\u017cno\u015bci od przedmiotu dzia\u0142alno\u015bci (np. amenity=training + training=*, amenity=dancing_school, amenity=language_school, amenity=music_school) albo amenity=school, amenity=college, albo landuse=education w zale\u017cno\u015bci od tego, jakie plac\u00f3wki wchodz\u0105 w sk\u0142ad zespo\u0142u. Sprawd\u017a, kiedy stosowa\u0107 amenity=* a kiedy landuse=education.",
                "note": "Parent RSPO: 41877"
            }
        }
    ]
}