{
    "type": "FeatureCollection",
    "features": [
        {
            "id": 15194,
            "type": "Feature",
            "geometry": {
                "type": "Point",
                "coordinates": [
                    19.194,
                    52.05183
                ]
            },
            "properties": {
                "ref:rspo": 15194,
                "official_name": "Przedszkole Nr 4 w \u0141\u0119czycy",
                "name": "Przedszkole Nr 4 w \u0141\u0119czycy",
                "addr:postcode": "99-100",
                "addr:city": "\u0141\u0119czyca",
                "addr:street": "Bitwy nad Bzur\u0105",
                "addr:housenumber": "26a",
                "addr:teryt:simc": 969250,
                "addr:teryt:sym_ul": 1378,
                "phone": "+48 247210353",
                "email": "p4leczyca@wikom.pl",
                "website": "http:\/\/wikom.pl\/p4leczyca",
                "ref:regon": "004747090",
                "ref:vatin": "PL7751314932",
                "operator": "Miasto \u0141\u0119czyca",
                "operator:type": "government",
                "amenity": "kindergarten"
            }
        },
        {
            "id": 15193,
            "type": "Feature",
            "geometry": {
                "type": "Point",
                "coordinates": [
                    19.20629,
                    52.05236
                ]
            },
            "properties": {
                "isced:level": "1;2",
                "ref:rspo": 15193,
                "official_name": "Szko\u0142a Podstawowa Nr 4 im. Marii Konopnickej w \u0141\u0119czycy",
                "name": "Szko\u0142a Podstawowa Nr 4",
                "addr:postcode": "99-100",
                "addr:city": "\u0141\u0119czyca",
                "addr:street": "Ozorkowskie Przedmie\u015bcie",
                "addr:housenumber": "6c",
                "addr:teryt:simc": 969250,
                "addr:teryt:sym_ul": 15491,
                "phone": "+48 247212653",
                "email": "szkolapodstawowa4@wp.pl",
                "ref:regon": "000903222",
                "ref:vatin": "PL7751041569",
                "operator": "Miasto \u0141\u0119czyca",
                "operator:type": "government",
                "amenity": "school"
            }
        },
        {
            "id": 59658,
            "type": "Feature",
            "geometry": {
                "type": "Point",
                "coordinates": [
                    19.20532,
                    52.05377
                ]
            },
            "properties": {
                "ref:rspo": 59658,
                "official_name": "Zesp\u00f3\u0142 Szk\u00f3\u0142 Ponadpodstawowych Nr 1 w \u0141\u0119czycy",
                "name": "Zesp\u00f3\u0142 Szk\u00f3\u0142 Ponadpodstawowych Nr 1 w \u0141\u0119czycy",
                "addr:postcode": "99-100",
                "addr:city": "\u0141\u0119czyca",
                "addr:street": "Ozorkowskie Przedmie\u015bcie",
                "addr:housenumber": "2",
                "addr:teryt:simc": 969250,
                "addr:teryt:sym_ul": 15491,
                "phone": "+48 247212341",
                "email": "zsp1@oswiata.org.pl",
                "ref:regon": "000989488",
                "ref:vatin": "PL7752217473",
                "operator": "Powiat \u0141\u0119czycki",
                "operator:type": "government",
                "landuse": "education",
                "fixme": "amenity=school, amenity=college albo landuse=education w zale\u017cno\u015bci od tego, jakie plac\u00f3wki wchodz\u0105 w sk\u0142ad zespo\u0142u. Sprawd\u017a, kiedy stosowa\u0107 amenity=* a kiedy landuse=education.",
                "note": "Children RSPO: 70131;70135;70138;119590"
            }
        },
        {
            "id": 278394,
            "type": "Feature",
            "geometry": {
                "type": "Point",
                "coordinates": [
                    19.20532,
                    52.05374
                ]
            },
            "properties": {
                "ref:rspo": 278394,
                "official_name": "Centrum Kszta\u0142cenia Zawodowego I Ustawicznego im. Zdzis\u0142awa Paszkiewicza w \u0141\u0119czycy",
                "name": "Centrum Kszta\u0142cenia Zawodowego I Ustawicznego",
                "addr:postcode": "99-100",
                "addr:city": "\u0141\u0119czyca",
                "addr:street": "Ozorkowskie Przedmie\u015bcie",
                "addr:housenumber": "2",
                "addr:teryt:simc": 969250,
                "addr:teryt:sym_ul": 15491,
                "phone": "+48 247218982",
                "email": "ckzleczyca@oswiata.org.pl",
                "website": "http:\/\/www.ckpl.pl",
                "ref:regon": "389877782",
                "operator": "Powiat \u0141\u0119czycki",
                "operator:type": "government",
                "landuse": "education",
                "fixme": "amenity=school, amenity=college albo landuse=education w zale\u017cno\u015bci od tego, jakie plac\u00f3wki wchodz\u0105 w sk\u0142ad zespo\u0142u. Sprawd\u017a, kiedy stosowa\u0107 amenity=* a kiedy landuse=education.",
                "note": "Children RSPO: 59558;278407"
            }
        },
        {
            "id": 70131,
            "type": "Feature",
            "geometry": {
                "type": "Point",
                "coordinates": [
                    19.20532,
                    52.05371
                ]
            },
            "properties": {
                "isced:level": "3",
                "ref:rspo": 70131,
                "official_name": "Bran\u017cowa Szko\u0142a I Stopnia Nr 1 im. Kardyna\u0142a Stefana Wyszy\u0144skiego w \u0141\u0119czycy",
                "name": "Bran\u017cowa Szko\u0142a I Stopnia Nr 1",
                "addr:postcode": "99-100",
                "addr:city": "\u0141\u0119czyca",
                "addr:street": "Ozorkowskie Przedmie\u015bcie",
                "addr:housenumber": "2",
                "addr:teryt:simc": 969250,
                "addr:teryt:sym_ul": 15491,
                "phone": "+48 247212341",
                "email": "zsp1@oswiata.org.pl",
                "ref:regon": "472892197",
                "ref:vatin": "PL5070025692",
                "operator": "Powiat \u0141\u0119czycki",
                "operator:type": "government",
                "amenity": "school",
                "note": "Parent RSPO: 59658"
            }
        },
        {
            "id": 70135,
            "type": "Feature",
            "geometry": {
                "type": "Point",
                "coordinates": [
                    19.20532,
                    52.05368
                ]
            },
            "properties": {
                "isced:level": "3",
                "ref:rspo": 70135,
                "official_name": "Technikum Nr 1 im. Kardyna\u0142a Stefana Wyszy\u0144skiego w \u0141\u0119czycy w Zespole Szk\u00f3\u0142 Ponadpodstawowych Nr 1 w \u0141\u0119czycy",
                "name": "Technikum Nr 1",
                "addr:postcode": "99-100",
                "addr:city": "\u0141\u0119czyca",
                "addr:street": "Ozorkowskie Przedmie\u015bcie",
                "addr:housenumber": "2",
                "addr:teryt:simc": 969250,
                "addr:teryt:sym_ul": 15491,
                "phone": "+48 247212341",
                "email": "zsp1@oswiata.org.pl",
                "website": "http:\/\/www.zsp1.oswiata.org.pl",
                "ref:regon": "472892145",
                "ref:vatin": "PL5070025663",
                "operator": "Powiat \u0141\u0119czycki",
                "operator:type": "government",
                "amenity": "school",
                "note": "Parent RSPO: 59658"
            }
        },
        {
            "id": 70138,
            "type": "Feature",
            "geometry": {
                "type": "Point",
                "coordinates": [
                    19.20532,
                    52.05365
                ]
            },
            "properties": {
                "isced:level": "4",
                "ref:rspo": 70138,
                "official_name": "Policealna Szko\u0142a dla M\u0142odzie\u017cy Nr 1 im. Kardyna\u0142a Stefana Wyszy\u0144kiego w \u0141\u0119czycy w Zespole Szk\u00f3\u0142 Ponadpodstawowych Nr 1 w \u0141\u0119czycy",
                "name": "Policealna Szko\u0142a dla M\u0142odzie\u017cy Nr 1",
                "addr:postcode": "99-100",
                "addr:city": "\u0141\u0119czyca",
                "addr:street": "Ozorkowskie Przedmie\u015bcie",
                "addr:housenumber": "2",
                "addr:teryt:simc": 969250,
                "addr:teryt:sym_ul": 15491,
                "phone": "+48 247212341",
                "email": "zsp1@oswiata.org.pl",
                "website": "http:\/\/www.zsp1leczyca.pl",
                "ref:regon": "100064310",
                "ref:vatin": "PL5070025657",
                "operator": "Powiat \u0141\u0119czycki",
                "operator:type": "government",
                "amenity": "college",
                "note": "Parent RSPO: 59658"
            }
        },
        {
            "id": 119590,
            "type": "Feature",
            "geometry": {
                "type": "Point",
                "coordinates": [
                    19.20532,
                    52.05362
                ]
            },
            "properties": {
                "isced:level": "3",
                "ref:rspo": 119590,
                "official_name": "I Liceum Og\u00f3lnokszta\u0142c\u0105ce dla Doros\u0142ych w \u0141\u0119czycy",
                "name": "I Liceum Og\u00f3lnokszta\u0142c\u0105ce dla Doros\u0142ych w \u0141\u0119czycy",
                "addr:postcode": "99-100",
                "addr:city": "\u0141\u0119czyca",
                "addr:street": "Ozorkowskie Przedmie\u015bcie",
                "addr:housenumber": "2",
                "addr:teryt:simc": 969250,
                "addr:teryt:sym_ul": 15491,
                "phone": "+48 247212341",
                "email": "zsp1@oswiata.org.pl",
                "website": "http:\/\/www.zsp1.oswiata.org.pl",
                "ref:regon": "101659650",
                "operator": "Powiat \u0141\u0119czycki",
                "operator:type": "government",
                "amenity": "school",
                "note": "Parent RSPO: 59658"
            }
        },
        {
            "id": 59558,
            "type": "Feature",
            "geometry": {
                "type": "Point",
                "coordinates": [
                    19.20532,
                    52.05359
                ]
            },
            "properties": {
                "ref:rspo": 59558,
                "official_name": "Centrum Kszta\u0142cenia Zawodowego w \u0141\u0119czycy",
                "name": "Centrum Kszta\u0142cenia Zawodowego w \u0141\u0119czycy",
                "addr:postcode": "99-100",
                "addr:city": "\u0141\u0119czyca",
                "addr:street": "Ozorkowskie Przedmie\u015bcie",
                "addr:housenumber": "2",
                "addr:teryt:simc": 969250,
                "addr:teryt:sym_ul": 15491,
                "phone": "+48 247218982",
                "email": "ckzleczyca@oswiata.org.pl",
                "ref:regon": "100566603",
                "ref:vatin": "PL5070062983",
                "operator": "Powiat \u0141\u0119czycki",
                "operator:type": "government",
                "fixme": "w zale\u017cno\u015bci od przedmiotu dzia\u0142alno\u015bci (np. amenity=training + training=*, amenity=dancing_school, amenity=language_school, amenity=music_school) albo amenity=school, amenity=college, albo landuse=education w zale\u017cno\u015bci od tego, jakie plac\u00f3wki wchodz\u0105 w sk\u0142ad zespo\u0142u. Sprawd\u017a, kiedy stosowa\u0107 amenity=* a kiedy landuse=education.",
                "note": "Parent RSPO: 278394"
            }
        },
        {
            "id": 278407,
            "type": "Feature",
            "geometry": {
                "type": "Point",
                "coordinates": [
                    19.20532,
                    52.05356
                ]
            },
            "properties": {
                "isced:level": "3",
                "ref:rspo": 278407,
                "official_name": "Bran\u017cowa Szko\u0142a II Stopnia w \u0141\u0119czycy",
                "name": "Bran\u017cowa Szko\u0142a II Stopnia w \u0141\u0119czycy",
                "addr:postcode": "99-100",
                "addr:city": "\u0141\u0119czyca",
                "addr:street": "Ozorkowskie Przedmie\u015bcie",
                "addr:housenumber": "2",
                "addr:teryt:simc": 969250,
                "addr:teryt:sym_ul": 15491,
                "phone": "+48 247218982",
                "email": "ckzleczyca@oswiata.org.pl",
                "website": "http:\/\/www.ckpl.pl",
                "ref:regon": "389879114",
                "operator": "Powiat \u0141\u0119czycki",
                "operator:type": "government",
                "amenity": "school",
                "note": "Parent RSPO: 278394"
            }
        },
        {
            "id": 47611,
            "type": "Feature",
            "geometry": {
                "type": "Point",
                "coordinates": [
                    19.1934,
                    52.05556
                ]
            },
            "properties": {
                "isced:level": "4",
                "ref:rspo": 47611,
                "official_name": "Policealna Szko\u0142a Zawodowa dla Doros\u0142ych Zdz w Warszawie Centrum Kszta\u0142cenia w Kutnie Z Siedzib\u0105 w \u0141\u0119czyyc",
                "name": "Policealna Szko\u0142a Zawodowa dla Doros\u0142ych Zdz w Warszawie Centrum Kszta\u0142cenia w Kutnie Z Siedzib\u0105 w \u0141\u0119czyyc",
                "addr:postcode": "99-100",
                "addr:city": "\u0141\u0119czyca",
                "addr:street": "Bitwy nad Bzur\u0105",
                "addr:housenumber": "1",
                "addr:teryt:simc": 969250,
                "addr:teryt:sym_ul": 1378,
                "phone": "+48 247213729",
                "email": "szkola@zdz-kutno.pl",
                "ref:regon": "101495992",
                "operator": "Zak\u0142ad Doskonalenia Zawodowego W Warszawie",
                "operator:type": "ngo",
                "amenity": "college"
            }
        },
        {
            "id": 75955,
            "type": "Feature",
            "geometry": {
                "type": "Point",
                "coordinates": [
                    19.1934,
                    52.05553
                ]
            },
            "properties": {
                "ref:rspo": 75955,
                "official_name": "Zdz w Warszawie Ck w Kutnie O\u015brodek Kszta\u0142cenia Zawodowego w \u0141\u0119czycy",
                "name": "Zdz w Warszawie Ck w Kutnie O\u015brodek Kszta\u0142cenia Zawodowego w \u0141\u0119czycy",
                "addr:postcode": "99-100",
                "addr:city": "\u0141\u0119czyca",
                "addr:street": "Bitwy nad Bzur\u0105",
                "addr:housenumber": "1",
                "addr:teryt:simc": 969250,
                "addr:teryt:sym_ul": 1378,
                "phone": "+48 247213729",
                "email": "ckleczyca@zdz.edu.pl",
                "ref:regon": "101496359",
                "operator": "Zak\u0142ad Doskonalenia Zawodowego W Warszawie",
                "operator:type": "ngo",
                "amenity": "school",
                "fixme": "amenity=school lub amenity=college"
            }
        },
        {
            "id": 119778,
            "type": "Feature",
            "geometry": {
                "type": "Point",
                "coordinates": [
                    19.1934,
                    52.0555
                ]
            },
            "properties": {
                "isced:level": "3",
                "ref:rspo": 119778,
                "official_name": "Zasadnicza Szko\u0142a Zawodowa Zak\u0142ad Doskonalenia Zawodowego w Warszawie Centrum Kszta\u0142cenia w Kutnie Z Siedziba w \u0141\u0119czycy",
                "name": "Zasadnicza Szko\u0142a Zawodowa Zak\u0142ad Doskonalenia Zawodowego w Warszawie Centrum Kszta\u0142cenia w Kutnie Z Siedziba w \u0141\u0119czycy",
                "addr:postcode": "99-100",
                "addr:city": "\u0141\u0119czyca",
                "addr:street": "Bitwy nad Bzur\u0105",
                "addr:housenumber": "1",
                "addr:teryt:simc": 969250,
                "addr:teryt:sym_ul": 1378,
                "phone": "+48 243553616",
                "ref:regon": "101661605",
                "operator": "Zak\u0142ad Doskonalenia Zawodowego W Warszawie",
                "operator:type": "ngo",
                "amenity": "school"
            }
        },
        {
            "id": 15195,
            "type": "Feature",
            "geometry": {
                "type": "Point",
                "coordinates": [
                    19.20038,
                    52.05734
                ]
            },
            "properties": {
                "ref:rspo": 15195,
                "official_name": "Przedszkole Nr 2 w \u0141\u0119czycy",
                "name": "Przedszkole Nr 2 w \u0141\u0119czycy",
                "addr:postcode": "99-100",
                "addr:city": "\u0141\u0119czyca",
                "addr:street": "Belwederska",
                "addr:housenumber": "23",
                "addr:teryt:simc": 969250,
                "addr:teryt:sym_ul": 992,
                "phone": "+48 247210352",
                "email": "przedszkole@p2leczyca.edu.pl",
                "ref:regon": "004747078",
                "ref:vatin": "PL7751314961",
                "operator": "Miasto \u0141\u0119czyca",
                "operator:type": "government",
                "amenity": "kindergarten"
            }
        },
        {
            "id": 41879,
            "type": "Feature",
            "geometry": {
                "type": "Point",
                "coordinates": [
                    19.19916,
                    52.05763
                ]
            },
            "properties": {
                "ref:rspo": 41879,
                "official_name": "Zesp\u00f3\u0142 Szk\u00f3\u0142 im. Jadwigi Grodzkiej w \u0141\u0119czycy",
                "name": "Zesp\u00f3\u0142 Szk\u00f3\u0142",
                "addr:postcode": "99-100",
                "addr:city": "\u0141\u0119czyca",
                "addr:street": "Aleje Jana Paw\u0142a II",
                "addr:housenumber": "1",
                "addr:teryt:simc": 969250,
                "addr:teryt:sym_ul": 37819,
                "phone": "+48 243883610",
                "email": "tl2@poczta.onet.pl",
                "website": "http:\/\/www.zsimjg.org.pl",
                "ref:regon": "000181361",
                "ref:vatin": "PL7752218099",
                "operator": "Powiat \u0141\u0119czycki",
                "operator:type": "government",
                "landuse": "education",
                "fixme": "amenity=school, amenity=college albo landuse=education w zale\u017cno\u015bci od tego, jakie plac\u00f3wki wchodz\u0105 w sk\u0142ad zespo\u0142u. Sprawd\u017a, kiedy stosowa\u0107 amenity=* a kiedy landuse=education.",
                "note": "Children RSPO: 53744;53745;53747"
            }
        },
        {
            "id": 53744,
            "type": "Feature",
            "geometry": {
                "type": "Point",
                "coordinates": [
                    19.19916,
                    52.0576
                ]
            },
            "properties": {
                "isced:level": "3",
                "ref:rspo": 53744,
                "official_name": "Technikum Nr 2 w \u0141\u0119czycy",
                "name": "Technikum Nr 2 w \u0141\u0119czycy",
                "addr:postcode": "99-100",
                "addr:city": "\u0141\u0119czyca",
                "addr:street": "Aleje Jana Paw\u0142a II",
                "addr:housenumber": "1",
                "addr:teryt:simc": 969250,
                "addr:teryt:sym_ul": 37819,
                "phone": "+48 243883610",
                "email": "tl2@poczta.onet.pl",
                "website": "http:\/\/www.zsimjg.org.pl",
                "ref:regon": "473078330",
                "operator": "Powiat \u0141\u0119czycki",
                "operator:type": "government",
                "amenity": "school",
                "note": "Parent RSPO: 41879"
            }
        },
        {
            "id": 53745,
            "type": "Feature",
            "geometry": {
                "type": "Point",
                "coordinates": [
                    19.19916,
                    52.057570000000005
                ]
            },
            "properties": {
                "isced:level": "3",
                "ref:rspo": 53745,
                "official_name": "Ii Liceum Og\u00f3lnokszta\u0142c\u0105ce w \u0141\u0119czycy w Zespole Szk\u00f3\u0142 im. Jadwigi Grodzkiej w \u0141\u0119czycy",
                "name": "Ii Liceum Og\u00f3lnokszta\u0142c\u0105ce w \u0141\u0119czycy w Zespole Szk\u00f3\u0142",
                "addr:postcode": "99-100",
                "addr:city": "\u0141\u0119czyca",
                "addr:street": "Aleje Jana Paw\u0142a II",
                "addr:housenumber": "1",
                "addr:teryt:simc": 969250,
                "addr:teryt:sym_ul": 37819,
                "phone": "+48 243883610",
                "email": "tl2@poczta.onet.pl",
                "website": "http:\/\/www.zsimjg.org.pl",
                "ref:regon": "100071451",
                "operator": "Powiat \u0141\u0119czycki",
                "operator:type": "government",
                "amenity": "school",
                "note": "Parent RSPO: 41879"
            }
        },
        {
            "id": 53747,
            "type": "Feature",
            "geometry": {
                "type": "Point",
                "coordinates": [
                    19.19916,
                    52.05754
                ]
            },
            "properties": {
                "isced:level": "3",
                "ref:rspo": 53747,
                "official_name": "Liceum Og\u00f3lnokszta\u0142c\u0105ce dla Doros\u0142ych w \u0141\u0119czycy",
                "name": "Liceum Og\u00f3lnokszta\u0142c\u0105ce dla Doros\u0142ych w \u0141\u0119czycy",
                "addr:postcode": "99-100",
                "addr:city": "\u0141\u0119czyca",
                "addr:street": "Aleje Jana Paw\u0142a II",
                "addr:housenumber": "1",
                "addr:teryt:simc": 969250,
                "addr:teryt:sym_ul": 37819,
                "phone": "+48 243883610",
                "email": "tl2@poczta.onet.pl",
                "website": "http:\/\/www.zsimjg.org.pl",
                "ref:regon": "610013750",
                "operator": "Powiat \u0141\u0119czycki",
                "operator:type": "government",
                "amenity": "school",
                "note": "Parent RSPO: 41879"
            }
        },
        {
            "id": 262328,
            "type": "Feature",
            "geometry": {
                "type": "Point",
                "coordinates": [
                    19.19764,
                    52.05791
                ]
            },
            "properties": {
                "isced:level": "1;2",
                "ref:rspo": 262328,
                "official_name": "Szko\u0142a Podstawowa Nr 1 im. Jana Paw\u0142a II w \u0141\u0119czycy",
                "name": "Szko\u0142a Podstawowa Nr 1",
                "addr:postcode": "99-100",
                "addr:city": "\u0141\u0119czyca",
                "addr:street": "Szkolna",
                "addr:housenumber": "4",
                "addr:teryt:simc": 969250,
                "addr:teryt:sym_ul": 21970,
                "phone": "+48 247210355",
                "email": "sekretariat@sp1leczyca.pl",
                "ref:regon": "367994849",
                "ref:vatin": "PL5070094026",
                "operator": "Miasto \u0141\u0119czyca",
                "operator:type": "government",
                "amenity": "school"
            }
        },
        {
            "id": 267817,
            "type": "Feature",
            "geometry": {
                "type": "Point",
                "coordinates": [
                    19.19764,
                    52.05788
                ]
            },
            "properties": {
                "isced:level": "4",
                "ref:rspo": 267817,
                "official_name": "Prywatna Szko\u0142a Policealna \"Logos\"",
                "name": "Prywatna Szko\u0142a Policealna \"Logos\"",
                "addr:postcode": "99-100",
                "addr:city": "\u0141\u0119czyca",
                "addr:street": "Szkolna",
                "addr:housenumber": "4",
                "addr:teryt:simc": 969250,
                "addr:teryt:sym_ul": 21970,
                "email": "sekretariat@elogos.com.pl",
                "website": "http:\/\/www.elogos.com.pl",
                "ref:regon": "380674103",
                "operator": "Aleksandra Walczak",
                "operator:type": "private",
                "amenity": "college"
            }
        },
        {
            "id": 267990,
            "type": "Feature",
            "geometry": {
                "type": "Point",
                "coordinates": [
                    19.19764,
                    52.05785
                ]
            },
            "properties": {
                "isced:level": "4",
                "ref:rspo": 267990,
                "official_name": "Prywatna Szko\u0142a Policealna \"Logos\"",
                "name": "Prywatna Szko\u0142a Policealna \"Logos\"",
                "addr:postcode": "99-100",
                "addr:city": "\u0141\u0119czyca",
                "addr:street": "Szkolna",
                "addr:housenumber": "4",
                "addr:teryt:simc": 969250,
                "addr:teryt:sym_ul": 21970,
                "email": "sekretariat@elogos.com.pl",
                "website": "http:\/\/www.elogos.com.pl",
                "ref:regon": "380820326",
                "operator": "Aleksandra Walczak",
                "operator:type": "private",
                "amenity": "college"
            }
        },
        {
            "id": 18722,
            "type": "Feature",
            "geometry": {
                "type": "Point",
                "coordinates": [
                    19.20104,
                    52.05813
                ]
            },
            "properties": {
                "ref:rspo": 18722,
                "official_name": "Przedszkole Niepubliczne Zgromadzenia Si\u00f3str Urszulanek Serca Jezusa Konaj\u0105cego im. \u015awi\u0119tej Urszuli Led\u00f3chowskiej",
                "name": "Przedszkole Niepubliczne Zgromadzenia Si\u00f3str Urszulanek Serca Jezusa Konaj\u0105cego",
                "addr:postcode": "99-100",
                "addr:city": "\u0141\u0119czyca",
                "addr:street": "Panie\u0144ska",
                "addr:housenumber": "3",
                "addr:door": "23",
                "addr:teryt:simc": 969250,
                "addr:teryt:sym_ul": 15628,
                "email": "przed-usjk@o2.pl",
                "ref:regon": "101473714",
                "ref:vatin": "PL7752429117",
                "operator": "Dane Do Uzupe\u0142nienia",
                "operator:type": "private",
                "amenity": "kindergarten"
            }
        },
        {
            "id": 115424,
            "type": "Feature",
            "geometry": {
                "type": "Point",
                "coordinates": [
                    19.19378,
                    52.05839
                ]
            },
            "properties": {
                "ref:rspo": 115424,
                "official_name": "Pa\u0144stwowa Szko\u0142a Muzyczna I St. w Kutnie Filia w \u0141\u0119czycy",
                "name": "Pa\u0144stwowa Szko\u0142a Muzyczna I St. w Kutnie Filia w \u0141\u0119czycy",
                "addr:postcode": "99-100",
                "addr:city": "\u0141\u0119czyca",
                "addr:street": "Kaliska",
                "addr:housenumber": "46",
                "addr:teryt:simc": 969250,
                "addr:teryt:sym_ul": 7823,
                "phone": "+48 243371800",
                "ref:regon": "100021810",
                "operator": "Ministerstwo Kultury I Dziedzictwa Narodowego",
                "operator:type": "public",
                "amenity": "music_school",
                "note": "Parent RSPO: 78080"
            }
        },
        {
            "id": 42984,
            "type": "Feature",
            "geometry": {
                "type": "Point",
                "coordinates": [
                    19.19704,
                    52.05882
                ]
            },
            "properties": {
                "ref:rspo": 42984,
                "official_name": "Zesp\u00f3\u0142 Plac\u00f3wek Edukacyjno-Wychowawczych w \u0141\u0119czycy",
                "name": "Zesp\u00f3\u0142 Plac\u00f3wek Edukacyjno-Wychowawczych w \u0141\u0119czycy",
                "addr:postcode": "99-100",
                "addr:city": "\u0141\u0119czyca",
                "addr:street": "Kaliska",
                "addr:housenumber": "13",
                "addr:teryt:simc": 969250,
                "addr:teryt:sym_ul": 7823,
                "phone": "+48 243883600",
                "email": "sekretariat@zpewleczyca.szkolnastrona.pl",
                "ref:regon": "100715523",
                "ref:vatin": "PL5070071367",
                "operator": "Powiat \u0141\u0119czycki",
                "operator:type": "government",
                "landuse": "education",
                "fixme": "amenity=school, amenity=college albo landuse=education w zale\u017cno\u015bci od tego, jakie plac\u00f3wki wchodz\u0105 w sk\u0142ad zespo\u0142u. Sprawd\u017a, kiedy stosowa\u0107 amenity=* a kiedy landuse=education.",
                "note": "Children RSPO: 53738;59557"
            }
        },
        {
            "id": 59556,
            "type": "Feature",
            "geometry": {
                "type": "Point",
                "coordinates": [
                    19.19704,
                    52.058789999999995
                ]
            },
            "properties": {
                "ref:rspo": 59556,
                "official_name": "Powiatowa Poradnia Psychologiczno-Pedagogiczna w \u0141\u0119czycy",
                "name": "Powiatowa Poradnia Psychologiczno-Pedagogiczna w \u0141\u0119czycy",
                "addr:postcode": "99-100",
                "addr:city": "\u0141\u0119czyca",
                "addr:street": "Kaliska",
                "addr:housenumber": "13",
                "addr:teryt:simc": 969250,
                "addr:teryt:sym_ul": 7823,
                "phone": "+48 247212837",
                "email": "ppppleczyca@poczta.fm",
                "ref:regon": "000941694",
                "ref:vatin": "PL7752217941",
                "operator": "Powiat \u0141\u0119czycki",
                "operator:type": "government",
                "healthcare": "counselling",
                "counselling_type": "education",
                "fixme": "w zale\u017cno\u015bci od przedmiotu dzia\u0142alno\u015bci (np. healthcare=counselling + counselling_type=education albo healthcare=psychotherapist)"
            }
        },
        {
            "id": 18413,
            "type": "Feature",
            "geometry": {
                "type": "Point",
                "coordinates": [
                    19.19704,
                    52.05876
                ]
            },
            "properties": {
                "ref:rspo": 18413,
                "official_name": "Pedagogiczna Biblioteka Wojew\u00f3dzka im. Prof. Tadeusza Kotarbi\u0144skiego w \u0141odzi Filia w \u0141\u0119czycy",
                "name": "Pedagogiczna Biblioteka Wojew\u00f3dzka",
                "addr:postcode": "99-100",
                "addr:city": "\u0141\u0119czyca",
                "addr:street": "Kaliska",
                "addr:housenumber": "13",
                "addr:teryt:simc": 969250,
                "addr:teryt:sym_ul": 7823,
                "phone": "+48 247212215",
                "email": "leczyca@pbw.lodz.pl",
                "ref:regon": "196836000",
                "operator": "Wojew\u00f3dztwo \u0141\u00f3dzkie",
                "operator:type": "government",
                "amenity": "library",
                "note": "Parent RSPO: 14754"
            }
        },
        {
            "id": 53738,
            "type": "Feature",
            "geometry": {
                "type": "Point",
                "coordinates": [
                    19.19704,
                    52.05873
                ]
            },
            "properties": {
                "ref:rspo": 53738,
                "official_name": "Bursa Szkolna im. Or\u0142a Bia\u0142ego w \u0141\u0119czycy",
                "name": "Bursa Szkolna",
                "addr:postcode": "99-100",
                "addr:city": "\u0141\u0119czyca",
                "addr:street": "Kaliska",
                "addr:housenumber": "13",
                "addr:teryt:simc": 969250,
                "addr:teryt:sym_ul": 7823,
                "phone": "+48 243883600",
                "email": "sekretariat@zpewleczyca.szkolnastrona.pl",
                "ref:regon": "001079044",
                "operator": "Powiat \u0141\u0119czycki",
                "operator:type": "government",
                "building": "dormitory",
                "note": "Parent RSPO: 42984"
            }
        },
        {
            "id": 59557,
            "type": "Feature",
            "geometry": {
                "type": "Point",
                "coordinates": [
                    19.19704,
                    52.058699999999995
                ]
            },
            "properties": {
                "ref:rspo": 59557,
                "official_name": "Specjalny O\u015brodek Szkolno-Wychowawczy im. Or\u0142a Bia\u0142ego w \u0141\u0119czycy",
                "name": "Specjalny O\u015brodek Szkolno-Wychowawczy",
                "addr:postcode": "99-100",
                "addr:city": "\u0141\u0119czyca",
                "addr:street": "Kaliska",
                "addr:housenumber": "13",
                "addr:teryt:simc": 969250,
                "addr:teryt:sym_ul": 7823,
                "phone": "+48 243883600",
                "email": "sekretariat@zpewleczyca.szkolnastrona.pl",
                "website": "http:\/\/www.zpewleczyca.szkolnastrona.pl",
                "ref:regon": "001070623",
                "operator": "Powiat \u0141\u0119czycki",
                "operator:type": "government",
                "amenity": "school",
                "note": "Children RSPO: 53739;53740;53742;53743Parent RSPO: 42984"
            }
        },
        {
            "id": 53739,
            "type": "Feature",
            "geometry": {
                "type": "Point",
                "coordinates": [
                    19.19704,
                    52.05867
                ]
            },
            "properties": {
                "ref:rspo": 53739,
                "official_name": "Przedszkole Specjalne w \u0141\u0119czycy w Sosw w \u0141\u0119czycy",
                "name": "Przedszkole Specjalne w \u0141\u0119czycy w Sosw w \u0141\u0119czycy",
                "addr:postcode": "99-100",
                "addr:city": "\u0141\u0119czyca",
                "addr:street": "Kaliska",
                "addr:housenumber": "13",
                "addr:teryt:simc": 969250,
                "addr:teryt:sym_ul": 7823,
                "phone": "+48 243883600",
                "email": "sekretariat@zpewleczyca.szkolnastrona.pl",
                "website": "http:\/\/www.zpewleczyca.szkolnastrona.pl",
                "ref:regon": "100962084",
                "operator": "Powiat \u0141\u0119czycki",
                "operator:type": "government",
                "amenity": "kindergarten",
                "note": "Parent RSPO: 59557"
            }
        },
        {
            "id": 53740,
            "type": "Feature",
            "geometry": {
                "type": "Point",
                "coordinates": [
                    19.19704,
                    52.05864
                ]
            },
            "properties": {
                "isced:level": "1;2",
                "ref:rspo": 53740,
                "official_name": "Szko\u0142a Podstawowa Nr 5 Specjalna w \u0141\u0119czycy",
                "name": "Szko\u0142a Podstawowa Nr 5 Specjalna w \u0141\u0119czycy",
                "addr:postcode": "99-100",
                "addr:city": "\u0141\u0119czyca",
                "addr:street": "Kaliska",
                "addr:housenumber": "13",
                "addr:teryt:simc": 969250,
                "addr:teryt:sym_ul": 7823,
                "phone": "+48 243883600",
                "email": "sekretariat@zpewleczyca.szkolnastrona.pl",
                "website": "http:\/\/www.zpewleczyca.szkolnastrona.pl\/",
                "ref:regon": "000965565",
                "operator": "Powiat \u0141\u0119czycki",
                "operator:type": "government",
                "amenity": "school",
                "note": "Parent RSPO: 59557"
            }
        },
        {
            "id": 53742,
            "type": "Feature",
            "geometry": {
                "type": "Point",
                "coordinates": [
                    19.19704,
                    52.058609999999994
                ]
            },
            "properties": {
                "isced:level": "3",
                "ref:rspo": 53742,
                "official_name": "Bran\u017cowa Szko\u0142a Specjalna I Stopnia w \u0141\u0119czycy",
                "name": "Bran\u017cowa Szko\u0142a Specjalna I Stopnia w \u0141\u0119czycy",
                "addr:postcode": "99-100",
                "addr:city": "\u0141\u0119czyca",
                "addr:street": "Kaliska",
                "addr:housenumber": "13",
                "addr:teryt:simc": 969250,
                "addr:teryt:sym_ul": 7823,
                "phone": "+48 243883600",
                "email": "sekretariat@zpewleczyca.szkolnastrona.pl",
                "website": "http:\/\/www.zpewleczyca.szkolnastrona.pl",
                "ref:regon": "472908277",
                "operator": "Powiat \u0141\u0119czycki",
                "operator:type": "government",
                "amenity": "school",
                "note": "Parent RSPO: 59557"
            }
        },
        {
            "id": 53743,
            "type": "Feature",
            "geometry": {
                "type": "Point",
                "coordinates": [
                    19.19704,
                    52.05858
                ]
            },
            "properties": {
                "ref:rspo": 53743,
                "official_name": "Szko\u0142a Specjalna Przysposabiaj\u0105ca Do Pracy w \u0141\u0119czycy",
                "name": "Szko\u0142a Specjalna Przysposabiaj\u0105ca Do Pracy w \u0141\u0119czycy",
                "addr:postcode": "99-100",
                "addr:city": "\u0141\u0119czyca",
                "addr:street": "Kaliska",
                "addr:housenumber": "13",
                "addr:teryt:simc": 969250,
                "addr:teryt:sym_ul": 7823,
                "phone": "+48 243883600",
                "ref:regon": "100715517",
                "operator": "Powiat \u0141\u0119czycki",
                "operator:type": "government",
                "amenity": "school",
                "note": "Parent RSPO: 59557"
            }
        },
        {
            "id": 24410,
            "type": "Feature",
            "geometry": {
                "type": "Point",
                "coordinates": [
                    19.19018,
                    52.05924
                ]
            },
            "properties": {
                "isced:level": "1;2",
                "ref:rspo": 24410,
                "official_name": "Szko\u0142a Podstawowa Nr 3 Im . 25 Kaliskiej Dywizji Piechoty",
                "name": "Szko\u0142a Podstawowa Nr 3 Im . 25 Kaliskiej Dywizji Piechoty",
                "addr:postcode": "99-100",
                "addr:city": "\u0141\u0119czyca",
                "addr:street": "Zachodnia",
                "addr:housenumber": "23",
                "addr:teryt:simc": 969250,
                "addr:teryt:sym_ul": 25305,
                "phone": "+48 247210350",
                "email": "sp3_leczyca@poczta.onet.pl",
                "website": "http:\/\/sp3leczyca.wikom.pl",
                "ref:regon": "000903239",
                "ref:vatin": "PL7751066552",
                "operator": "Miasto \u0141\u0119czyca",
                "operator:type": "government",
                "amenity": "school"
            }
        },
        {
            "id": 34978,
            "type": "Feature",
            "geometry": {
                "type": "Point",
                "coordinates": [
                    19.1952399,
                    52.05989
                ]
            },
            "properties": {
                "isced:level": "3",
                "ref:rspo": 34978,
                "official_name": "I Liceum Og\u00f3lnokszta\u0142c\u0105ce Im Kazimierza Wielkiego w \u0141\u0119czycy",
                "name": "I Liceum Og\u00f3lnokszta\u0142c\u0105ce Im Kazimierza Wielkiego w \u0141\u0119czycy",
                "addr:postcode": "99-100",
                "addr:city": "\u0141\u0119czyca",
                "addr:street": "Marii Konopnickiej",
                "addr:housenumber": "13",
                "addr:teryt:simc": 969250,
                "addr:teryt:sym_ul": 9186,
                "phone": "+48 243882652",
                "email": "sekretariat@1loleczyca.edu.pl",
                "website": "http:\/\/www.1loleczyca.edu.pl\/",
                "ref:regon": "000228861",
                "ref:vatin": "PL7752214368",
                "operator": "Powiat \u0141\u0119czycki",
                "operator:type": "government",
                "amenity": "school"
            }
        },
        {
            "id": 15196,
            "type": "Feature",
            "geometry": {
                "type": "Point",
                "coordinates": [
                    19.1915,
                    52.0603
                ]
            },
            "properties": {
                "ref:rspo": 15196,
                "official_name": "Przedszkole Nr 1 w \u0141\u0119czycy",
                "name": "Przedszkole Nr 1 w \u0141\u0119czycy",
                "addr:postcode": "99-100",
                "addr:city": "\u0141\u0119czyca",
                "addr:street": "Zachodnia",
                "addr:housenumber": "17",
                "addr:teryt:simc": 969250,
                "addr:teryt:sym_ul": 25305,
                "phone": "+48 247210354",
                "email": "przedszkole_1@poczta.onet.pl",
                "website": "http:\/\/www.wikom.pl\/p1leczyca\/",
                "ref:regon": "004747061",
                "ref:vatin": "PL7751775449",
                "operator": "Miasto \u0141\u0119czyca",
                "operator:type": "government",
                "amenity": "kindergarten"
            }
        },
        {
            "id": 271497,
            "type": "Feature",
            "geometry": {
                "type": "Point",
                "coordinates": [
                    19.19909,
                    52.06184
                ]
            },
            "properties": {
                "ref:rspo": 271497,
                "official_name": "Plac\u00f3wka Kszta\u0142cenia Ustawicznego \"Logos\"",
                "name": "Plac\u00f3wka Kszta\u0142cenia Ustawicznego \"Logos\"",
                "addr:postcode": "99-100",
                "addr:city": "\u0141\u0119czyca",
                "addr:street": "Przedrynek",
                "addr:housenumber": "8",
                "addr:teryt:simc": 969250,
                "addr:teryt:sym_ul": 17680,
                "email": "sekretariat@elogos.com.pl",
                "ref:regon": "383368045",
                "operator": "Aleksandra Walczak",
                "operator:type": "private",
                "fixme": "w zale\u017cno\u015bci od przedmiotu dzia\u0142alno\u015bci (np. amenity=training + training=*, amenity=dancing_school, amenity=language_school, amenity=music_school)"
            }
        }
    ]
}