{"type":"FeatureCollection","features":[{"id":132602,"type":"Feature","geometry":{"type":"Point","coordinates":[18.9034359,52.018381]},"properties":{"ref:rspo":132602,"official_name":"Zesp\u00f3\u0142 Plac\u00f3wek Edukacyjno-Wychowawczych I Rehabilitacyjnych w Stemplewie","name":"Zesp\u00f3\u0142 Plac\u00f3wek Edukacyjno-Wychowawczych I Rehabilitacyjnych w Stemplewie","addr:country":"PL","addr:postcode":"99-140","addr:place":"Stemplew","addr:housenumber":"35","addr:teryt:sym_ul":297796,"contact:phone":"+48 632881106","contact:email":"sekretariat@zpewirstemplew.pl","contact:website":"http:\/\/www.zpewirstemplew.pl","ref:regon":"365888184","operator":"Powiat \u0141\u0119czycki","operator:type":"government","landuse":"education","fixme":"amenity=school, amenity=college albo landuse=education w zale\u017cno\u015bci od tego, jakie plac\u00f3wki wchodz\u0105 w sk\u0142ad zespo\u0142u. Sprawd\u017a, kiedy stosowa\u0107 amenity=* a kiedy landuse=education.","note":"Children RSPO: 59560;131207;277553;277554"}},{"id":70393,"type":"Feature","geometry":{"type":"Point","coordinates":[18.9034359,52.018350999999996]},"properties":{"isced:level":"1;2","ref:rspo":70393,"official_name":"Szko\u0142a Podstawowa Specjalna Nr 1 w Stemplewie","name":"Szko\u0142a Podstawowa Specjalna Nr 1 w Stemplewie","addr:country":"PL","addr:postcode":"99-140","addr:place":"Stemplew","addr:housenumber":"35","addr:teryt:sym_ul":297804,"contact:phone":"+48 632881106","contact:email":"dyrektor@zpewirstemplew.pl","contact:website":"http:\/\/www.zpewirstemplew.pl","ref:regon":"001023807","operator":"Powiat \u0141\u0119czycki","operator:type":"government","amenity":"school","note":"Parent RSPO: 59560"}},{"id":70396,"type":"Feature","geometry":{"type":"Point","coordinates":[18.9034359,52.018321]},"properties":{"isced:level":"3","ref:rspo":70396,"official_name":"Bran\u017cowa Szko\u0142a Specjalna I Stopnia Nr 1 w Stemplewie","name":"Bran\u017cowa Szko\u0142a Specjalna I Stopnia Nr 1 w Stemplewie","addr:country":"PL","addr:postcode":"99-140","addr:place":"Stemplew","addr:housenumber":"35","addr:teryt:sym_ul":297804,"contact:phone":"+48 632881106","contact:email":"dyrektor@zpewirstemplew.pl","contact:website":"http:\/\/www.zpewirstemplew.pl","ref:regon":"472893185","operator":"Powiat \u0141\u0119czycki","operator:type":"government","amenity":"school","note":"Parent RSPO: 59560"}},{"id":70468,"type":"Feature","geometry":{"type":"Point","coordinates":[18.9034359,52.018291]},"properties":{"ref:rspo":70468,"official_name":"Szko\u0142a Specjalna Przysposabiaj\u0105ca Do Pracy w Stemplewie","name":"Szko\u0142a Specjalna Przysposabiaj\u0105ca Do Pracy w Stemplewie","addr:country":"PL","addr:postcode":"99-140","addr:place":"Stemplew","addr:housenumber":"35","addr:teryt:sym_ul":297804,"contact:phone":"+48 632881106","contact:email":"dyrektor@zpewirstemplew.pl","contact:website":"http:\/\/www.zpewirstemplew.pl","ref:regon":"100826642","operator":"Powiat \u0141\u0119czycki","operator:type":"government","amenity":"school","note":"Parent RSPO: 59560"}},{"id":85501,"type":"Feature","geometry":{"type":"Point","coordinates":[18.9034359,52.018260999999995]},"properties":{"ref:rspo":85501,"official_name":"Przedszkole Specjalne w Specjalnym O\u015brodku Szkolno-Wychowawczym im. Juliana Tuwima Stemplewie","name":"Przedszkole Specjalne w Specjalnym O\u015brodku Szkolno-Wychowawczym","addr:country":"PL","addr:postcode":"99-140","addr:place":"Stemplew","addr:housenumber":"35","addr:teryt:sym_ul":297804,"contact:phone":"+48 632881106","contact:email":"dyrektor@zpewirstemplew.pl","contact:website":"http:\/\/www.zpewirstemplew.pl","ref:regon":"100826620","operator":"Powiat \u0141\u0119czycki","operator:type":"government","amenity":"kindergarten","note":"Parent RSPO: 59560"}},{"id":131215,"type":"Feature","geometry":{"type":"Point","coordinates":[18.9034359,52.018231]},"properties":{"isced:level":"1;2","ref:rspo":131215,"official_name":"Szko\u0142a Podstawowa Specjalna Nr 2 w Stemplewie","name":"Szko\u0142a Podstawowa Specjalna Nr 2 w Stemplewie","addr:country":"PL","addr:postcode":"99-140","addr:place":"Stemplew","addr:housenumber":"35","addr:teryt:sym_ul":297804,"contact:phone":"+48 632881106","contact:email":"sekretariat@zpewirstemplew.pl","contact:website":"http:\/\/www.zpewirstemplew.pl","ref:regon":"365032833","operator":"Powiat \u0141\u0119czycki","operator:type":"government","amenity":"school","note":"Parent RSPO: 131207"}},{"id":131217,"type":"Feature","geometry":{"type":"Point","coordinates":[18.9034359,52.018201]},"properties":{"isced:level":"3","ref:rspo":131217,"official_name":"Bran\u017cowa Szko\u0142a Specjalna I Stopnia Nr 2 w Stemplewie","name":"Bran\u017cowa Szko\u0142a Specjalna I Stopnia Nr 2 w Stemplewie","addr:country":"PL","addr:postcode":"99-140","addr:place":"Stemplew","addr:housenumber":"35","addr:teryt:sym_ul":297804,"contact:phone":"+48 632881106","contact:email":"sosw.az.stemplew@wp.pl","ref:regon":"365032856","operator":"Powiat \u0141\u0119czycki","operator:type":"government","amenity":"school","note":"Parent RSPO: 131207"}},{"id":59560,"type":"Feature","geometry":{"type":"Point","coordinates":[18.9034359,52.018170999999995]},"properties":{"ref:rspo":59560,"official_name":"Specjalny O\u015brodek Szkolno-Wychowawczy im. Juliana Tuwima w Stemplewie","name":"Specjalny O\u015brodek Szkolno-Wychowawczy","addr:country":"PL","addr:postcode":"99-140","addr:place":"Stemplew","addr:housenumber":"35","addr:teryt:sym_ul":297804,"contact:phone":"+48 632881106","contact:email":"sekretariat@zpewirstemplew.pl","contact:website":"http:\/\/www.zpewirstemplew.pl","ref:regon":"001023813","ref:vatin":"PL6681134666","operator":"Powiat \u0141\u0119czycki","operator:type":"government","amenity":"school","note":"Children RSPO: 70393;70396;70468;85501Parent RSPO: 132602"}},{"id":131207,"type":"Feature","geometry":{"type":"Point","coordinates":[18.9034359,52.018141]},"properties":{"ref:rspo":131207,"official_name":"M\u0142odzie\u017cowy O\u015brodek Socjoterapii w Stemplewie","name":"M\u0142odzie\u017cowy O\u015brodek Socjoterapii w Stemplewie","addr:country":"PL","addr:postcode":"99-140","addr:place":"Stemplew","addr:housenumber":"35","addr:teryt:sym_ul":297804,"contact:phone":"+48 632881106","contact:email":"sekretariat@zpewirstemplew.pl","contact:website":"http:\/\/www.zpewirstemplew.pl","ref:regon":"365031590","operator":"Powiat \u0141\u0119czycki","operator:type":"government","fixme":"amenity=social facility + social_facility=group_home + social_facility:for=juvenile","note":"Children RSPO: 131215;131217Parent RSPO: 132602"}},{"id":277553,"type":"Feature","geometry":{"type":"Point","coordinates":[18.9034359,52.018111]},"properties":{"ref:rspo":277553,"official_name":"Centrum Kszta\u0142cenia Zawodowego w Stemplewie","name":"Centrum Kszta\u0142cenia Zawodowego w Stemplewie","addr:country":"PL","addr:postcode":"99-140","addr:place":"Stemplew","addr:housenumber":"35","addr:teryt:sym_ul":297796,"contact:phone":"+48 632881106","contact:email":"sekretariat@zpewirstemplew.pl","ref:regon":"389091691","operator":"Powiat \u0141\u0119czycki","operator:type":"government","fixme":"w zale\u017cno\u015bci od przedmiotu dzia\u0142alno\u015bci (np. amenity=training + training=*, amenity=dancing_school, amenity=language_school, amenity=music_school) albo amenity=school, amenity=college, albo landuse=education w zale\u017cno\u015bci od tego, jakie plac\u00f3wki wchodz\u0105 w sk\u0142ad zespo\u0142u. Sprawd\u017a, kiedy stosowa\u0107 amenity=* a kiedy landuse=education.","note":"Parent RSPO: 132602"}},{"id":277554,"type":"Feature","geometry":{"type":"Point","coordinates":[18.9034359,52.018080999999995]},"properties":{"ref:rspo":277554,"official_name":"Szkolne Schronisko M\u0142odzie\u017cowe w Stemplewie","name":"Szkolne Schronisko M\u0142odzie\u017cowe w Stemplewie","addr:country":"PL","addr:postcode":"99-140","addr:place":"Stemplew","addr:housenumber":"35","addr:teryt:sym_ul":297796,"contact:phone":"+48 632881106","contact:email":"sekretariat@zpewirstemplew.pl","ref:regon":"389091886","operator":"Powiat \u0141\u0119czycki","operator:type":"government","tourism":"hostel","note":"Parent RSPO: 132602"}},{"id":47178,"type":"Feature","geometry":{"type":"Point","coordinates":[18.9167099,52.03863]},"properties":{"ref:rspo":47178,"official_name":"Zesp\u00f3\u0142 Szkolno - Przedszkolny w \u015awinicach Warckich Przedszkole Gminne","name":"Zesp\u00f3\u0142 Szkolno - Przedszkolny w \u015awinicach Warckich Przedszkole Gminne","addr:country":"PL","addr:postcode":"99-140","addr:city":"\u015awinice Warckie","addr:street":"ul. Zielona","addr:housenumber":"1","addr:teryt:simc":26081,"addr:teryt:sym_ul":297810,"contact:phone":"+48 632881133","contact:email":"przedszkoleswinice@wp.pl","ref:regon":"000996703","ref:vatin":"PL5070090979","operator":"Gmina \u015awinice Warckie","operator:type":"government","amenity":"kindergarten","note":"Parent RSPO: 26512"}},{"id":26512,"type":"Feature","geometry":{"type":"Point","coordinates":[18.92016,52.04229]},"properties":{"ref:rspo":26512,"official_name":"Zesp\u00f3\u0142 Szkolno - Przedszkolny w \u015awinicach Warckich","name":"Zesp\u00f3\u0142 Szkolno - Przedszkolny w \u015awinicach Warckich","addr:country":"PL","addr:postcode":"99-140","addr:city":"\u015awinice Warckie","addr:street":"ul. Szkolna","addr:housenumber":"5","addr:teryt:simc":21970,"addr:teryt:sym_ul":297810,"contact:phone":"+48 632881146","contact:email":"sp-swinice@oswiata.org.pl","ref:regon":"101442151","ref:vatin":"PL5070090979","operator":"Gmina \u015awinice Warckie","operator:type":"government","landuse":"education","fixme":"amenity=school, amenity=college albo landuse=education w zale\u017cno\u015bci od tego, jakie plac\u00f3wki wchodz\u0105 w sk\u0142ad zespo\u0142u. Sprawd\u017a, kiedy stosowa\u0107 amenity=* a kiedy landuse=education.","note":"Children RSPO: 47177;47178"}},{"id":47177,"type":"Feature","geometry":{"type":"Point","coordinates":[18.92016,52.04226]},"properties":{"isced:level":"1;2","ref:rspo":47177,"official_name":"Zesp\u00f3\u0142 Szkolno - Przedszkolny w \u015awinicach Warckich Szko\u0142a Podstawowa im. M. Konopnickiej","name":"Zesp\u00f3\u0142 Szkolno - Przedszkolny w \u015awinicach Warckich Szko\u0142a Podstawowa","addr:country":"PL","addr:postcode":"99-140","addr:city":"\u015awinice Warckie","addr:street":"ul. Szkolna","addr:housenumber":"5","addr:teryt:simc":21970,"addr:teryt:sym_ul":297810,"contact:phone":"+48 632881146","contact:email":"sp-swinice@oswiata.org.pl","ref:regon":"000273011","ref:vatin":"PL5070090979","operator":"Gmina \u015awinice Warckie","operator:type":"government","amenity":"school","note":"Children RSPO: 121780Parent RSPO: 26512"}},{"id":121780,"type":"Feature","geometry":{"type":"Point","coordinates":[18.996166,52.10084]},"properties":{"isced:level":"1;2","ref:rspo":121780,"official_name":"Zesp\u00f3\u0142 Szkolno - Przedszkolny w \u015awinicach Warckich Szko\u0142a Podstawowa im. M. Konopnickiej w \u015awinicach Warckich Filia w Piaskach","name":"Zesp\u00f3\u0142 Szkolno - Przedszkolny w \u015awinicach Warckich Szko\u0142a Podstawowa","addr:country":"PL","addr:postcode":"99-140","addr:place":"Piaski","addr:housenumber":"23","addr:teryt:sym_ul":297738,"contact:phone":"+48 632882210","contact:email":"szkolapiaski5@wp.pl","ref:regon":"273011000","ref:vatin":"PL5070090979","operator":"Gmina \u015awinice Warckie","operator:type":"government","amenity":"school","note":"Parent RSPO: 47177"}}]}