{
    "type": "FeatureCollection",
    "features": [
        {
            "id": 20591,
            "type": "Feature",
            "geometry": {
                "type": "Point",
                "coordinates": [
                    20.338711,
                    51.142514
                ]
            },
            "properties": {
                "isced:level": "1;2",
                "ref:rspo": 20591,
                "official_name": "Szko\u0142a Podstawowa w Dzieba\u0142towie",
                "name": "Szko\u0142a Podstawowa w Dzieba\u0142towie",
                "addr:postcode": "26-200",
                "addr:place": "Nowy Dzieba\u0142t\u00f3w",
                "addr:housenumber": "85",
                "addr:city:simc": 243889,
                "phone": "+48 413720602",
                "email": "spdziebaltow@o2.pl",
                "website": "http:\/\/www.spdziebaltow.pl",
                "ref:regon": "000732890",
                "ref:vatin": "PL6581787831",
                "operator": "Gmina Ko\u0144skie",
                "operator:type": "government",
                "amenity": "school"
            }
        },
        {
            "id": 30670,
            "type": "Feature",
            "geometry": {
                "type": "Point",
                "coordinates": [
                    20.338711,
                    51.142483999999996
                ]
            },
            "properties": {
                "ref:rspo": 30670,
                "official_name": "Ma\u0142e Przedszkole w Dzieba\u0142towie",
                "name": "Ma\u0142e Przedszkole w Dzieba\u0142towie",
                "addr:postcode": "26-200",
                "addr:place": "Nowy Dzieba\u0142t\u00f3w",
                "addr:housenumber": "85",
                "addr:city:simc": 243889,
                "phone": "+48 413720602",
                "email": "spdziebaltow@o2.pl",
                "ref:regon": "260639835",
                "operator": "Gmina Ko\u0144skie",
                "operator:type": "government",
                "amenity": "kindergarten"
            }
        },
        {
            "id": 276294,
            "type": "Feature",
            "geometry": {
                "type": "Point",
                "coordinates": [
                    20.39764,
                    51.17114
                ]
            },
            "properties": {
                "ref:rspo": 276294,
                "official_name": "Niepubliczne Ekologiczne Przedszkole Integracyjne Na Le\u015bnej w Ko\u0144skich",
                "name": "Niepubliczne Ekologiczne Przedszkole Integracyjne Na Le\u015bnej w Ko\u0144skich",
                "addr:postcode": "26-200",
                "addr:city": "Ko\u0144skie",
                "addr:street": "Le\u015bna",
                "addr:housenumber": "73",
                "addr:city:simc": 947136,
                "addr:street:sym_ul": 10898,
                "phone": "+48 574663247",
                "email": "przedszkolenalesnej@gmail.com",
                "ref:regon": "387079600",
                "operator": "Andrzej Szczepanik",
                "operator:type": "private",
                "amenity": "kindergarten"
            }
        },
        {
            "id": 262755,
            "type": "Feature",
            "geometry": {
                "type": "Point",
                "coordinates": [
                    20.4083101,
                    51.1765739
                ]
            },
            "properties": {
                "ref:rspo": 262755,
                "official_name": "Zesp\u00f3\u0142 Plac\u00f3wek O\u015bwiatowych w Stadnickiej Woli",
                "name": "Zesp\u00f3\u0142 Plac\u00f3wek O\u015bwiatowych w Stadnickiej Woli",
                "addr:postcode": "26-200",
                "addr:place": "Stadnicka Wola",
                "addr:housenumber": "55",
                "addr:city:simc": 244239,
                "phone": "+48 413750660",
                "email": "stadwola@interia.pl",
                "website": "http:\/\/www.stadwola.edu.p",
                "ref:regon": "368055510",
                "operator": "Gmina Ko\u0144skie",
                "operator:type": "government",
                "landuse": "education",
                "fixme": "amenity=school, amenity=college albo landuse=education w zale\u017cno\u015bci od tego, jakie plac\u00f3wki wchodz\u0105 w sk\u0142ad zespo\u0142u. Sprawd\u017a, kiedy stosowa\u0107 amenity=* a kiedy landuse=education.",
                "note": "Children RSPO: 48591;262906"
            }
        },
        {
            "id": 48591,
            "type": "Feature",
            "geometry": {
                "type": "Point",
                "coordinates": [
                    20.4083101,
                    51.1765439
                ]
            },
            "properties": {
                "isced:level": "1;2",
                "ref:rspo": 48591,
                "official_name": "Zesp\u00f3\u0142 Plac\u00f3wek O\u015bwiatowych w Stadnickiej Woli Szko\u0142a Podstawowa im. Armii Krajowej w Stadnickiej Woli",
                "name": "Zesp\u00f3\u0142 Plac\u00f3wek O\u015bwiatowych w Stadnickiej Woli Szko\u0142a Podstawowa",
                "addr:postcode": "26-200",
                "addr:place": "Stadnicka Wola",
                "addr:housenumber": "55",
                "addr:city:simc": 244239,
                "phone": "+48 413750660",
                "email": "stadwola@interia.pl",
                "website": "http:\/\/www.stadwola.edu.pl",
                "ref:regon": "292881787",
                "ref:vatin": "PL6581856294",
                "operator": "Gmina Ko\u0144skie",
                "operator:type": "government",
                "amenity": "school",
                "note": "Parent RSPO: 262755"
            }
        },
        {
            "id": 262906,
            "type": "Feature",
            "geometry": {
                "type": "Point",
                "coordinates": [
                    20.4083101,
                    51.1765139
                ]
            },
            "properties": {
                "ref:rspo": 262906,
                "official_name": "Zesp\u00f3\u0142 Plac\u00f3wek O\u015bwiatowych w Stadnickiej Woli Przedszkole w Stadnickiej Woli",
                "name": "Zesp\u00f3\u0142 Plac\u00f3wek O\u015bwiatowych w Stadnickiej Woli Przedszkole w Stadnickiej Woli",
                "addr:postcode": "26-200",
                "addr:place": "Stadnicka Wola",
                "addr:housenumber": "55",
                "addr:city:simc": 244239,
                "phone": "+48 413750660",
                "email": "stadwola@interia.pl",
                "website": "http:\/\/www.stadwola.edu.pl",
                "ref:regon": "368071360",
                "operator": "Gmina Ko\u0144skie",
                "operator:type": "government",
                "amenity": "kindergarten",
                "note": "Parent RSPO: 262755"
            }
        },
        {
            "id": 18436,
            "type": "Feature",
            "geometry": {
                "type": "Point",
                "coordinates": [
                    20.34632,
                    51.17904
                ]
            },
            "properties": {
                "ref:rspo": 18436,
                "official_name": "Zesp\u00f3\u0142 Plac\u00f3wek O\u015bwiatowych w Kazanowie",
                "name": "Zesp\u00f3\u0142 Plac\u00f3wek O\u015bwiatowych w Kazanowie",
                "addr:postcode": "26-200",
                "addr:city": "Nowy Kazan\u00f3w",
                "addr:street": "Konecka",
                "addr:housenumber": "12",
                "addr:city:simc": 243903,
                "addr:street:sym_ul": 9126,
                "phone": "+48 413723612",
                "email": "zpokazanow@onet.eu",
                "website": "http:\/\/zpokazanow.edupage.org",
                "ref:regon": "260019481",
                "ref:vatin": "PL6581698671",
                "operator": "Gmina Ko\u0144skie",
                "operator:type": "government",
                "landuse": "education",
                "fixme": "amenity=school, amenity=college albo landuse=education w zale\u017cno\u015bci od tego, jakie plac\u00f3wki wchodz\u0105 w sk\u0142ad zespo\u0142u. Sprawd\u017a, kiedy stosowa\u0107 amenity=* a kiedy landuse=education.",
                "note": "Children RSPO: 48581;48582"
            }
        },
        {
            "id": 48581,
            "type": "Feature",
            "geometry": {
                "type": "Point",
                "coordinates": [
                    20.34632,
                    51.17901
                ]
            },
            "properties": {
                "isced:level": "1;2",
                "ref:rspo": 48581,
                "official_name": "Zesp\u00f3\u0142 Plac\u00f3wek O\u015bwiatowych w Kazanowie Szko\u0142a Podstawowa im. Stefana \u017beromskiego w Kazanowie",
                "name": "Zesp\u00f3\u0142 Plac\u00f3wek O\u015bwiatowych w Kazanowie Szko\u0142a Podstawowa",
                "addr:postcode": "26-200",
                "addr:city": "Nowy Kazan\u00f3w",
                "addr:street": "Konecka",
                "addr:housenumber": "12",
                "addr:city:simc": 243903,
                "addr:street:sym_ul": 9126,
                "phone": "+48 413723612",
                "email": "zpokazanow@onet.eu",
                "website": "http:\/\/zpokazanow.edupage.org",
                "ref:regon": "000732878",
                "ref:vatin": "PL6581698671",
                "operator": "Gmina Ko\u0144skie",
                "operator:type": "government",
                "amenity": "school",
                "note": "Parent RSPO: 18436"
            }
        },
        {
            "id": 48582,
            "type": "Feature",
            "geometry": {
                "type": "Point",
                "coordinates": [
                    20.34632,
                    51.17898
                ]
            },
            "properties": {
                "ref:rspo": 48582,
                "official_name": "Zesp\u00f3\u0142 Plac\u00f3wek O\u015bwiatowych w Kazanowie Przedszkole w Kazanowie",
                "name": "Zesp\u00f3\u0142 Plac\u00f3wek O\u015bwiatowych w Kazanowie Przedszkole w Kazanowie",
                "addr:postcode": "26-200",
                "addr:city": "Nowy Kazan\u00f3w",
                "addr:street": "Konecka",
                "addr:housenumber": "12",
                "addr:city:simc": 243903,
                "addr:street:sym_ul": 9126,
                "phone": "+48 413723612",
                "email": "zpokazanow@onet.eu",
                "website": "http:\/\/zpokazanow.edupage.org",
                "ref:regon": "292432931",
                "ref:vatin": "PL6581698671",
                "operator": "Gmina Ko\u0144skie",
                "operator:type": "government",
                "amenity": "kindergarten",
                "note": "Parent RSPO: 18436"
            }
        },
        {
            "id": 274499,
            "type": "Feature",
            "geometry": {
                "type": "Point",
                "coordinates": [
                    20.40822,
                    51.18044
                ]
            },
            "properties": {
                "ref:rspo": 274499,
                "official_name": "Centrum Kszta\u0142cenia \u201eWiedza\u201d",
                "name": "Centrum Kszta\u0142cenia \u201eWiedza\u201d",
                "addr:postcode": "26-200",
                "addr:city": "Ko\u0144skie",
                "addr:street": "Po\u0142udniowa",
                "addr:housenumber": "70",
                "addr:city:simc": 947136,
                "addr:street:sym_ul": 17070,
                "phone": "+48 505109797",
                "email": "jaroslaw.wojdyla@gmail.com",
                "ref:regon": "385855513",
                "operator": "Jaros\u0142aw Wojdy\u0142a",
                "operator:type": "private",
                "amenity": "training"
            }
        },
        {
            "id": 18438,
            "type": "Feature",
            "geometry": {
                "type": "Point",
                "coordinates": [
                    20.440534,
                    51.1821519
                ]
            },
            "properties": {
                "ref:rspo": 18438,
                "official_name": "Zesp\u00f3\u0142 Plac\u00f3wek O\u015bwiatowych w Pomykowie",
                "name": "Zesp\u00f3\u0142 Plac\u00f3wek O\u015bwiatowych w Pomykowie",
                "addr:postcode": "26-200",
                "addr:place": "Pomyk\u00f3w",
                "addr:housenumber": "25a",
                "addr:city:simc": 244050,
                "phone": "+48 413722970",
                "email": "zpopomykow1@tlen.pl",
                "website": "http:\/\/www.zpopomykow.edupage.pl",
                "ref:regon": "260019475",
                "ref:vatin": "PL6581787788",
                "operator": "Gmina Ko\u0144skie",
                "operator:type": "government",
                "landuse": "education",
                "fixme": "amenity=school, amenity=college albo landuse=education w zale\u017cno\u015bci od tego, jakie plac\u00f3wki wchodz\u0105 w sk\u0142ad zespo\u0142u. Sprawd\u017a, kiedy stosowa\u0107 amenity=* a kiedy landuse=education.",
                "note": "Children RSPO: 48596;48599"
            }
        },
        {
            "id": 48596,
            "type": "Feature",
            "geometry": {
                "type": "Point",
                "coordinates": [
                    20.440534,
                    51.1821219
                ]
            },
            "properties": {
                "isced:level": "1;2",
                "ref:rspo": 48596,
                "official_name": "Zesp\u00f3\u0142 Plac\u00f3wek O\u015bwiatowych w Pomykowie Szko\u0142a Podstawowa im. Majora Henryka Dobrza\u0144skiego \u201eHubala\u201d w Pomykowie",
                "name": "Zesp\u00f3\u0142 Plac\u00f3wek O\u015bwiatowych w Pomykowie Szko\u0142a Podstawowa",
                "addr:postcode": "26-200",
                "addr:place": "Pomyk\u00f3w",
                "addr:housenumber": "25A",
                "addr:city:simc": 244050,
                "phone": "+48 413722970",
                "email": "zpopomykow1@tlen.pl",
                "website": "http:\/\/www.zpopomykow.edupage.pl",
                "ref:regon": "000732909",
                "ref:vatin": "PL6581787788",
                "operator": "Gmina Ko\u0144skie",
                "operator:type": "government",
                "amenity": "school",
                "note": "Parent RSPO: 18438"
            }
        },
        {
            "id": 48599,
            "type": "Feature",
            "geometry": {
                "type": "Point",
                "coordinates": [
                    20.440534,
                    51.1820919
                ]
            },
            "properties": {
                "ref:rspo": 48599,
                "official_name": "Zesp\u00f3\u0142 Plac\u00f3wek O\u015bwiatowych w Pomykowie Przedszkole w Pomykowie",
                "name": "Zesp\u00f3\u0142 Plac\u00f3wek O\u015bwiatowych w Pomykowie Przedszkole w Pomykowie",
                "addr:postcode": "26-200",
                "addr:place": "Pomyk\u00f3w",
                "addr:housenumber": "25A",
                "addr:city:simc": 244050,
                "phone": "+48 413722970",
                "email": "zpopomykow1@tlen.pl",
                "website": "http:\/\/www.zpopomykow.edupage.org",
                "ref:regon": "292429768",
                "ref:vatin": "PL6581787788",
                "operator": "Gmina Ko\u0144skie",
                "operator:type": "government",
                "amenity": "kindergarten",
                "note": "Parent RSPO: 18438"
            }
        },
        {
            "id": 268922,
            "type": "Feature",
            "geometry": {
                "type": "Point",
                "coordinates": [
                    20.41751,
                    51.18674
                ]
            },
            "properties": {
                "ref:rspo": 268922,
                "official_name": "Niepubliczne Przedszkole \u201eS\u0142oneczko\u201d w Ko\u0144skich",
                "name": "Niepubliczne Przedszkole \u201eS\u0142oneczko\u201d w Ko\u0144skich",
                "addr:postcode": "26-200",
                "addr:city": "Ko\u0144skie",
                "addr:street": "Partyzant\u00f3w",
                "addr:housenumber": "12",
                "addr:city:simc": 947136,
                "addr:street:sym_ul": 15733,
                "phone": "+48 506905516",
                "email": "edy.niz@wp.pl",
                "ref:regon": "381288951",
                "ref:vatin": "PL6581555836",
                "operator": "Edyta Nizio\u0142ek",
                "operator:type": "private",
                "amenity": "kindergarten"
            }
        },
        {
            "id": 23349,
            "type": "Feature",
            "geometry": {
                "type": "Point",
                "coordinates": [
                    20.41191,
                    51.1870199
                ]
            },
            "properties": {
                "ref:rspo": 23349,
                "official_name": "Przedszkole nr 3 w Ko\u0144skich",
                "name": "Przedszkole nr 3 w Ko\u0144skich",
                "addr:postcode": "26-200",
                "addr:city": "Ko\u0144skie",
                "addr:street": "Partyzant\u00f3w",
                "addr:housenumber": "2",
                "addr:city:simc": 947136,
                "addr:street:sym_ul": 15733,
                "phone": "+48 413722758",
                "email": "ps3konskie@wp.pl",
                "website": "http:\/\/www.ps3konskie.szkolnastrona.pl",
                "ref:regon": "260443434",
                "ref:vatin": "PL6581971291",
                "operator": "Gmina Ko\u0144skie",
                "operator:type": "government",
                "amenity": "kindergarten"
            }
        },
        {
            "id": 49345,
            "type": "Feature",
            "geometry": {
                "type": "Point",
                "coordinates": [
                    20.42625,
                    51.1871
                ]
            },
            "properties": {
                "isced:level": "3",
                "ref:rspo": 49345,
                "official_name": "Niepubliczna Bran\u017cowa Szko\u0142a I Stopnia w Ko\u0144skich",
                "name": "Niepubliczna Bran\u017cowa Szko\u0142a I Stopnia w Ko\u0144skich",
                "addr:postcode": "26-200",
                "addr:city": "Ko\u0144skie",
                "addr:street": "Towarowa",
                "addr:housenumber": "4",
                "addr:city:simc": 947136,
                "addr:street:sym_ul": 22907,
                "phone": "+48 413722084",
                "email": "konskie@awans-szkoly.pl",
                "website": "http:\/\/www.szkoly-kielce.pl\/",
                "ref:regon": "260643601",
                "ref:vatin": "PL9591468632",
                "operator": "\u015awi\u0119tokrzyskie Stowarzyszenie Na Rzecz Aktywizacji Zawodowej I Pomocy M\u0142odzie\u017cy",
                "operator:type": "ngo",
                "amenity": "school"
            }
        },
        {
            "id": 57729,
            "type": "Feature",
            "geometry": {
                "type": "Point",
                "coordinates": [
                    20.42625,
                    51.18707
                ]
            },
            "properties": {
                "isced:level": "3",
                "ref:rspo": 57729,
                "official_name": "Prywatne Zaoczne Liceum Og\u00f3lnokszta\u0142c\u0105ce Awans dla Doros\u0142ych w Ko\u0144skich",
                "name": "Prywatne Zaoczne Liceum Og\u00f3lnokszta\u0142c\u0105ce Awans dla Doros\u0142ych w Ko\u0144skich",
                "addr:postcode": "26-200",
                "addr:city": "Ko\u0144skie",
                "addr:street": "Towarowa",
                "addr:housenumber": "4",
                "addr:city:simc": 947136,
                "addr:street:sym_ul": 22907,
                "phone": "+48 413722084",
                "email": "konskie@awans-szkoly.pl",
                "website": "http:\/\/www.awans-szkoly.pl",
                "ref:regon": "260645126",
                "ref:vatin": "PL9590470472",
                "operator": "Andrzej Miszczyk",
                "operator:type": "private",
                "amenity": "school"
            }
        },
        {
            "id": 60945,
            "type": "Feature",
            "geometry": {
                "type": "Point",
                "coordinates": [
                    20.42625,
                    51.18704
                ]
            },
            "properties": {
                "isced:level": "4",
                "ref:rspo": 60945,
                "official_name": "Prywatna Policealna Szko\u0142a Awans w Ko\u0144skich",
                "name": "Prywatna Policealna Szko\u0142a Awans w Ko\u0144skich",
                "addr:postcode": "26-200",
                "addr:city": "Ko\u0144skie",
                "addr:street": "Towarowa",
                "addr:housenumber": "4",
                "addr:city:simc": 947136,
                "addr:street:sym_ul": 22907,
                "phone": "+48 413722084",
                "email": "konskie@awans-szkoly.pl",
                "website": "http:\/\/www.awans-szkoly.pl",
                "ref:regon": "260646663",
                "ref:vatin": "PL9590470472",
                "operator": "Andrzej Miszczyk",
                "operator:type": "private",
                "amenity": "college"
            }
        },
        {
            "id": 60946,
            "type": "Feature",
            "geometry": {
                "type": "Point",
                "coordinates": [
                    20.42625,
                    51.18701
                ]
            },
            "properties": {
                "isced:level": "4",
                "ref:rspo": 60946,
                "official_name": "Policealna Szko\u0142a Awans -Med w Ko\u0144skich",
                "name": "Policealna Szko\u0142a Awans -Med w Ko\u0144skich",
                "addr:postcode": "26-200",
                "addr:city": "Ko\u0144skie",
                "addr:street": "Towarowa",
                "addr:housenumber": "4",
                "addr:city:simc": 947136,
                "addr:street:sym_ul": 22907,
                "phone": "+48 413722084",
                "email": "konskie@awans-szkoly.pl",
                "website": "http:\/\/www.awans-szkoly.pl",
                "ref:regon": "260647119",
                "ref:vatin": "PL9590470472",
                "operator": "Andrzej Miszczyk",
                "operator:type": "private",
                "amenity": "college"
            }
        },
        {
            "id": 84307,
            "type": "Feature",
            "geometry": {
                "type": "Point",
                "coordinates": [
                    20.42625,
                    51.18698
                ]
            },
            "properties": {
                "isced:level": "3",
                "ref:rspo": 84307,
                "official_name": "Prywatna Bran\u017cowa Szko\u0142a I Stopnia Awans w Ko\u0144skich",
                "name": "Prywatna Bran\u017cowa Szko\u0142a I Stopnia Awans w Ko\u0144skich",
                "addr:postcode": "26-200",
                "addr:city": "Ko\u0144skie",
                "addr:street": "Towarowa",
                "addr:housenumber": "4",
                "addr:city:simc": 947136,
                "addr:street:sym_ul": 22907,
                "phone": "+48 413722084",
                "email": "konskie@awans-szkoly.pl",
                "website": "http:\/\/www.awans-szkoly.pl",
                "ref:regon": "260650251",
                "ref:vatin": "PL9590470472",
                "operator": "Andrzej Miszczyk",
                "operator:type": "private",
                "amenity": "school"
            }
        },
        {
            "id": 120646,
            "type": "Feature",
            "geometry": {
                "type": "Point",
                "coordinates": [
                    20.42625,
                    51.18695
                ]
            },
            "properties": {
                "ref:rspo": 120646,
                "official_name": "Niepubliczne Przedszkole Bajkowa Kraina z Oddzia\u0142ami Integracyjnymi w Ko\u0144skich",
                "name": "Niepubliczne Przedszkole Bajkowa Kraina z Oddzia\u0142ami Integracyjnymi w Ko\u0144skich",
                "addr:postcode": "26-200",
                "addr:city": "Ko\u0144skie",
                "addr:street": "Towarowa",
                "addr:housenumber": "4",
                "addr:city:simc": 947136,
                "addr:street:sym_ul": 22907,
                "phone": "+48 413722551",
                "email": "przedszkole@bajkowakraina.edu.pl",
                "website": "http:\/\/www.bajkowakraina.edu.pl",
                "ref:regon": "260726994",
                "operator": "Andrzej Miszczyk",
                "operator:type": "private",
                "amenity": "kindergarten"
            }
        },
        {
            "id": 124262,
            "type": "Feature",
            "geometry": {
                "type": "Point",
                "coordinates": [
                    20.42625,
                    51.18692
                ]
            },
            "properties": {
                "isced:level": "1;2",
                "ref:rspo": 124262,
                "official_name": "Prywatna Szko\u0142a Podstawowa w Ko\u0144skich",
                "name": "Prywatna Szko\u0142a Podstawowa w Ko\u0144skich",
                "addr:postcode": "26-200",
                "addr:city": "Ko\u0144skie",
                "addr:street": "Towarowa",
                "addr:housenumber": "4",
                "addr:city:simc": 947136,
                "addr:street:sym_ul": 22907,
                "phone": "+48 413753327",
                "email": "sekretariat@spkonskie.edu.pl",
                "ref:regon": "260789724",
                "operator": "Andrzej Miszczyk",
                "operator:type": "private",
                "amenity": "school"
            }
        },
        {
            "id": 20244,
            "type": "Feature",
            "geometry": {
                "type": "Point",
                "coordinates": [
                    20.40912,
                    51.18743
                ]
            },
            "properties": {
                "isced:level": "1;2",
                "ref:rspo": 20244,
                "official_name": "Szko\u0142a Podstawowa nr 2 im. Stanis\u0142awa Staszica w Ko\u0144skich",
                "name": "Szko\u0142a Podstawowa nr 2",
                "addr:postcode": "26-200",
                "addr:city": "Ko\u0144skie",
                "addr:street": "Polna",
                "addr:housenumber": "6",
                "addr:city:simc": 947136,
                "addr:street:sym_ul": 17011,
                "phone": "+48 413723171",
                "email": "sp2konskie@poczta.onet.pl",
                "website": "http:\/\/www.sp2konskie.pol.pl",
                "ref:regon": "000732849",
                "ref:vatin": "PL6581787802",
                "operator": "Gmina Ko\u0144skie",
                "operator:type": "government",
                "amenity": "school"
            }
        },
        {
            "id": 23348,
            "type": "Feature",
            "geometry": {
                "type": "Point",
                "coordinates": [
                    20.41716,
                    51.18745
                ]
            },
            "properties": {
                "ref:rspo": 23348,
                "official_name": "Przedszkole nr 2 w Ko\u0144skich",
                "name": "Przedszkole nr 2 w Ko\u0144skich",
                "addr:postcode": "26-200",
                "addr:city": "Ko\u0144skie",
                "addr:street": "Partyzant\u00f3w",
                "addr:housenumber": "5",
                "addr:city:simc": 947136,
                "addr:street:sym_ul": 15733,
                "phone": "+48 413722552",
                "email": "przedszkole2konskie@gmail.com",
                "website": "http:\/\/www.ps2konskie.szkolnastrona.pl",
                "ref:regon": "260443411",
                "ref:vatin": "PL6581971285",
                "operator": "Gmina Ko\u0144skie",
                "operator:type": "government",
                "amenity": "kindergarten"
            }
        },
        {
            "id": 79176,
            "type": "Feature",
            "geometry": {
                "type": "Point",
                "coordinates": [
                    20.406156,
                    51.1884919
                ]
            },
            "properties": {
                "ref:rspo": 79176,
                "official_name": "Pa\u0144stwowa Szko\u0142a Muzyczna I St. w Ko\u0144skich",
                "name": "Pa\u0144stwowa Szko\u0142a Muzyczna I St. w Ko\u0144skich",
                "addr:postcode": "26-200",
                "addr:city": "Ko\u0144skie",
                "addr:street": "\"Majora Henryka Dobrza\u0144skiego \"\"Hubala\"\"\"",
                "addr:housenumber": "9",
                "addr:city:simc": 947136,
                "addr:street:sym_ul": 6771,
                "phone": "+48 413723616",
                "email": "sekretariat@psm1.zkonskich.pl",
                "website": "http:\/\/www.psm1.zkonskich.pl",
                "ref:regon": "000807599",
                "operator": "Ministerstwo Kultury I Dziedzictwa Narodowego",
                "operator:type": "government",
                "amenity": "music_school"
            }
        },
        {
            "id": 5163,
            "type": "Feature",
            "geometry": {
                "type": "Point",
                "coordinates": [
                    20.42177,
                    51.18879
                ]
            },
            "properties": {
                "isced:level": "3",
                "ref:rspo": 5163,
                "official_name": "Ii Liceum Og\u00f3lnokszta\u0142c\u0105ce z Oddzia\u0142ami Dwuj\u0119zycznymi im. Marii Sk\u0142odowskiej-Curie w Ko\u0144skich",
                "name": "Ii Liceum Og\u00f3lnokszta\u0142c\u0105ce z Oddzia\u0142ami Dwuj\u0119zycznymi",
                "addr:postcode": "26-200",
                "addr:city": "Ko\u0144skie",
                "addr:street": "Sportowa",
                "addr:housenumber": "9",
                "addr:city:simc": 947136,
                "addr:street:sym_ul": 20683,
                "phone": "+48 413722556",
                "email": "lo2konskie@poczta.fm",
                "website": "http:\/\/www.lo2konskie.pl",
                "ref:regon": "292379467",
                "ref:vatin": "PL6581785743",
                "operator": "Powiat Konecki",
                "operator:type": "government",
                "amenity": "school"
            }
        },
        {
            "id": 109742,
            "type": "Feature",
            "geometry": {
                "type": "Point",
                "coordinates": [
                    20.42177,
                    51.188759999999995
                ]
            },
            "properties": {
                "isced:level": "4",
                "ref:rspo": 109742,
                "official_name": "Szko\u0142a Policealna Novum w Ko\u0144skich",
                "name": "Szko\u0142a Policealna Novum w Ko\u0144skich",
                "addr:postcode": "26-200",
                "addr:city": "Ko\u0144skie",
                "addr:street": "Sportowa",
                "addr:housenumber": "9",
                "addr:city:simc": 947136,
                "addr:street:sym_ul": 20683,
                "phone": "+48 604733789",
                "email": "w.stanislawska@wp.pl",
                "ref:regon": "260669322",
                "operator": "Micha\u0142 Stanis\u0142awski",
                "operator:type": "private",
                "amenity": "college"
            }
        },
        {
            "id": 275201,
            "type": "Feature",
            "geometry": {
                "type": "Point",
                "coordinates": [
                    20.4102745,
                    51.1899309
                ]
            },
            "properties": {
                "ref:rspo": 275201,
                "official_name": "Zesp\u00f3\u0142 Przedszkolny nr 1 w Ko\u0144skich",
                "name": "Zesp\u00f3\u0142 Przedszkolny nr 1 w Ko\u0144skich",
                "addr:postcode": "26-200",
                "addr:city": "Ko\u0144skie",
                "addr:street": "Ksi\u0119dza J\u00f3zefa Granata",
                "addr:housenumber": "6",
                "addr:city:simc": 947136,
                "addr:street:sym_ul": 33609,
                "phone": "+48 413723148",
                "email": "konskie.ps5@gmail.com",
                "ref:regon": "386689382",
                "ref:vatin": "PL6581991767",
                "operator": "Gmina Ko\u0144skie",
                "operator:type": "government",
                "landuse": "education",
                "fixme": "amenity=school, amenity=college albo landuse=education w zale\u017cno\u015bci od tego, jakie plac\u00f3wki wchodz\u0105 w sk\u0142ad zespo\u0142u. Sprawd\u017a, kiedy stosowa\u0107 amenity=* a kiedy landuse=education.",
                "note": "Children RSPO: 23347;23925"
            }
        },
        {
            "id": 23925,
            "type": "Feature",
            "geometry": {
                "type": "Point",
                "coordinates": [
                    20.4102745,
                    51.1899009
                ]
            },
            "properties": {
                "ref:rspo": 23925,
                "official_name": "Zesp\u00f3\u0142 Przedszkolny nr 1 w Ko\u0144skich Przedszkole nr 5 w Ko\u0144skich",
                "name": "Zesp\u00f3\u0142 Przedszkolny nr 1 w Ko\u0144skich Przedszkole nr 5 w Ko\u0144skich",
                "addr:postcode": "26-200",
                "addr:city": "Ko\u0144skie",
                "addr:street": "Ksi\u0119dza J\u00f3zefa Granata",
                "addr:housenumber": "6",
                "addr:city:simc": 947136,
                "addr:street:sym_ul": 33609,
                "phone": "+48 413723148",
                "email": "konskie.ps5@gmail.com",
                "website": "http:\/\/ps5konskie.edupage.org",
                "ref:regon": "260443463",
                "ref:vatin": "PL6581971322",
                "operator": "Gmina Ko\u0144skie",
                "operator:type": "government",
                "amenity": "kindergarten",
                "note": "Parent RSPO: 275201"
            }
        },
        {
            "id": 13996,
            "type": "Feature",
            "geometry": {
                "type": "Point",
                "coordinates": [
                    20.41111,
                    51.19014
                ]
            },
            "properties": {
                "ref:rspo": 13996,
                "official_name": "Pedagogiczna Biblioteka Wojew\u00f3dzka w Kielcach Filia w Ko\u0144skich",
                "name": "Pedagogiczna Biblioteka Wojew\u00f3dzka w Kielcach Filia w Ko\u0144skich",
                "addr:postcode": "26-200",
                "addr:city": "Ko\u0144skie",
                "addr:street": "Zamkowa",
                "addr:housenumber": "5",
                "addr:city:simc": 947136,
                "addr:street:sym_ul": 25547,
                "email": "konskie@pbw.kielce.pl",
                "website": "http:\/\/www.pbw.kielce.pl",
                "ref:regon": "291170080",
                "operator": "Wojew\u00f3dztwo \u015awi\u0119tokrzyskie",
                "operator:type": "government",
                "amenity": "library",
                "note": "Parent RSPO: 6753"
            }
        },
        {
            "id": 5435,
            "type": "Feature",
            "geometry": {
                "type": "Point",
                "coordinates": [
                    20.4019,
                    51.19037
                ]
            },
            "properties": {
                "ref:rspo": 5435,
                "official_name": "Poradnia Psychologiczno-Pedagogiczna w Ko\u0144skich",
                "name": "Poradnia Psychologiczno-Pedagogiczna w Ko\u0144skich",
                "addr:postcode": "26-200",
                "addr:city": "Ko\u0144skie",
                "addr:street": "Krakowska",
                "addr:housenumber": "38",
                "addr:city:simc": 947136,
                "addr:street:sym_ul": 9796,
                "phone": "+48 413723400",
                "email": "ppp.konskie@wp.pl",
                "ref:regon": "292376090",
                "ref:vatin": "PL6581463353",
                "operator": "Powiat Konecki",
                "operator:type": "government",
                "healthcare": "counselling",
                "counselling_type": "education",
                "fixme": "w zale\u017cno\u015bci od przedmiotu dzia\u0142alno\u015bci (np. healthcare=counselling + counselling_type=education albo healthcare=psychotherapist)"
            }
        },
        {
            "id": 262418,
            "type": "Feature",
            "geometry": {
                "type": "Point",
                "coordinates": [
                    20.40349,
                    51.19042
                ]
            },
            "properties": {
                "ref:rspo": 262418,
                "official_name": "Niepubliczne Przedszkole Czarodziejski M\u0142ynek z Oddzia\u0142ami Integracyjnymi I Specjalnymi w Ko\u0144skich",
                "name": "Niepubliczne Przedszkole Czarodziejski M\u0142ynek z Oddzia\u0142ami Integracyjnymi I Specjalnymi w Ko\u0144skich",
                "addr:postcode": "26-200",
                "addr:city": "Ko\u0144skie",
                "addr:street": "Mi\u0142a",
                "addr:housenumber": "2",
                "addr:city:simc": 947136,
                "addr:street:sym_ul": 12947,
                "phone": "+48 880141141",
                "email": "przedszkole@czarodziejskimlynek.pl",
                "website": "http:\/\/www.czarodziejskimlynek.pl",
                "ref:regon": "368007379",
                "operator": "Beata Nowak",
                "operator:type": "private",
                "amenity": "kindergarten"
            }
        },
        {
            "id": 23347,
            "type": "Feature",
            "geometry": {
                "type": "Point",
                "coordinates": [
                    20.4009,
                    51.19059
                ]
            },
            "properties": {
                "ref:rspo": 23347,
                "official_name": "Zesp\u00f3\u0142 Przedszkolny nr 1 w Ko\u0144skich Przedszkole nr 1 w Ko\u0144skich",
                "name": "Zesp\u00f3\u0142 Przedszkolny nr 1 w Ko\u0144skich Przedszkole nr 1 w Ko\u0144skich",
                "addr:postcode": "26-200",
                "addr:city": "Ko\u0144skie",
                "addr:street": "Krakowska",
                "addr:housenumber": "46",
                "addr:city:simc": 947136,
                "addr:street:sym_ul": 9796,
                "phone": "+48 413723457",
                "email": "ps1.konskie@op.pl",
                "website": "http:\/\/www.psm1konskie.szkolnastrona.pl",
                "ref:regon": "260443405",
                "ref:vatin": "PL6581971279",
                "operator": "Gmina Ko\u0144skie",
                "operator:type": "government",
                "amenity": "kindergarten",
                "note": "Parent RSPO: 275201"
            }
        },
        {
            "id": 264465,
            "type": "Feature",
            "geometry": {
                "type": "Point",
                "coordinates": [
                    20.40208,
                    51.19084
                ]
            },
            "properties": {
                "ref:rspo": 264465,
                "official_name": "Niepubliczne Naukowe Przedszkole Integracyjne \u201eMini College\u201d w Ko\u0144skich",
                "name": "Niepubliczne Naukowe Przedszkole Integracyjne \u201eMini College\u201d w Ko\u0144skich",
                "addr:postcode": "26-200",
                "addr:city": "Ko\u0144skie",
                "addr:street": "Kazanowska",
                "addr:housenumber": "20",
                "addr:city:simc": 947136,
                "addr:street:sym_ul": 8241,
                "phone": "+48 530883530",
                "email": "przedszkole.konskie@minicollege.pl",
                "website": "http:\/\/www.minicollege.pl",
                "ref:regon": "368356105",
                "operator": "Fundacja Mini College",
                "operator:type": "ngo",
                "amenity": "kindergarten"
            }
        },
        {
            "id": 46658,
            "type": "Feature",
            "geometry": {
                "type": "Point",
                "coordinates": [
                    20.40838,
                    51.19139
                ]
            },
            "properties": {
                "isced:level": "3",
                "ref:rspo": 46658,
                "official_name": "Liceum Og\u00f3lnokszta\u0142c\u0105ce dla Doros\u0142ych w Centrum Kszta\u0142cenia Ustawicznego \u201ePerfekt\u201d w Ko\u0144skich",
                "name": "Liceum Og\u00f3lnokszta\u0142c\u0105ce dla Doros\u0142ych w Centrum Kszta\u0142cenia Ustawicznego \u201ePerfekt\u201d w Ko\u0144skich",
                "addr:postcode": "26-200",
                "addr:city": "Ko\u0144skie",
                "addr:street": "\u0141azienna",
                "addr:housenumber": "3",
                "addr:city:simc": 947136,
                "addr:street:sym_ul": 11561,
                "phone": "+48 668895276",
                "email": "ckuperfekt@wp.pl",
                "website": "http:\/\/www.ckuperfekt.szkolnastrona.pl",
                "ref:regon": "260641460",
                "ref:vatin": "PL6581367419",
                "operator": "Magdalena Zaborowska-Szarpak",
                "operator:type": "private",
                "amenity": "school"
            }
        },
        {
            "id": 46660,
            "type": "Feature",
            "geometry": {
                "type": "Point",
                "coordinates": [
                    20.40838,
                    51.191359999999996
                ]
            },
            "properties": {
                "isced:level": "4",
                "ref:rspo": 46660,
                "official_name": "Szko\u0142a Policealna w Centrum Kszta\u0142cenia Ustawicznego \u201ePerfekt\u201d w Ko\u0144skich",
                "name": "Szko\u0142a Policealna w Centrum Kszta\u0142cenia Ustawicznego \u201ePerfekt\u201d w Ko\u0144skich",
                "addr:postcode": "26-200",
                "addr:city": "Ko\u0144skie",
                "addr:street": "\u0141azienna",
                "addr:housenumber": "3",
                "addr:city:simc": 947136,
                "addr:street:sym_ul": 11561,
                "phone": "+48 668895276",
                "email": "ckuperfekt@wp.pl",
                "website": "http:\/\/www.ckuperfekt.szkolnastrona.pl",
                "ref:regon": "260641520",
                "ref:vatin": "PL6581367419",
                "operator": "Magdalena Zaborowska-Szarpak",
                "operator:type": "private",
                "amenity": "college"
            }
        },
        {
            "id": 79108,
            "type": "Feature",
            "geometry": {
                "type": "Point",
                "coordinates": [
                    20.40838,
                    51.19133
                ]
            },
            "properties": {
                "ref:rspo": 79108,
                "official_name": "Niepubliczna Plac\u00f3wka Doskonalenia Nauczycieli w Centrum Kszta\u0142cenia Ustawicznego \u201ePerfekt\u201d w Ko\u0144skich",
                "name": "Niepubliczna Plac\u00f3wka Doskonalenia Nauczycieli w Centrum Kszta\u0142cenia Ustawicznego \u201ePerfekt\u201d w Ko\u0144skich",
                "addr:postcode": "26-200",
                "addr:city": "Ko\u0144skie",
                "addr:street": "\u0141azienna",
                "addr:housenumber": "3",
                "addr:city:simc": 947136,
                "addr:street:sym_ul": 11561,
                "phone": "+48 668895276",
                "email": "ckuperfekt@wp.pl",
                "website": "http:\/\/www.ckuperfekt.szkolnastrona.pl",
                "ref:regon": "260646628",
                "operator": "Magdalena Zaborowska-Szarpak",
                "operator:type": "private",
                "amenity": "training"
            }
        },
        {
            "id": 129536,
            "type": "Feature",
            "geometry": {
                "type": "Point",
                "coordinates": [
                    20.40838,
                    51.1913
                ]
            },
            "properties": {
                "isced:level": "4",
                "ref:rspo": 129536,
                "official_name": "Medyczna Szko\u0142a Policealna w Centrum Kszta\u0142cenia Ustawicznego \u201ePerfekt\u201d w Ko\u0144skich",
                "name": "Medyczna Szko\u0142a Policealna w Centrum Kszta\u0142cenia Ustawicznego \u201ePerfekt\u201d w Ko\u0144skich",
                "addr:postcode": "26-200",
                "addr:city": "Ko\u0144skie",
                "addr:street": "\u0141azienna",
                "addr:housenumber": "3",
                "addr:city:simc": 947136,
                "addr:street:sym_ul": 11561,
                "phone": "+48 668895276",
                "email": "ckuperfekt@wp.pl",
                "ref:regon": "362645937",
                "operator": "Magdalena Zaborowska-Szarpak",
                "operator:type": "private",
                "amenity": "college"
            }
        },
        {
            "id": 5162,
            "type": "Feature",
            "geometry": {
                "type": "Point",
                "coordinates": [
                    20.3963423,
                    51.1921928
                ]
            },
            "properties": {
                "isced:level": "3",
                "ref:rspo": 5162,
                "official_name": "I Liceum Og\u00f3lnokszta\u0142c\u0105ce im. Komisji Edukacji Narodowej w Ko\u0144skich",
                "name": "I Liceum Og\u00f3lnokszta\u0142c\u0105ce",
                "addr:postcode": "26-200",
                "addr:city": "Ko\u0144skie",
                "addr:street": "Kapitana Jana Stoi\u0144skiego",
                "addr:housenumber": "4",
                "addr:city:simc": 947136,
                "addr:street:sym_ul": 21210,
                "phone": "+48 413723108",
                "email": "lo1konskie@wp.pl",
                "website": "http:\/\/lo1konskie.pl\/",
                "ref:regon": "292443739",
                "ref:vatin": "PL6581216123",
                "operator": "Powiat Konecki",
                "operator:type": "government",
                "amenity": "school"
            }
        },
        {
            "id": 4969,
            "type": "Feature",
            "geometry": {
                "type": "Point",
                "coordinates": [
                    20.40213,
                    51.19233
                ]
            },
            "properties": {
                "ref:rspo": 4969,
                "official_name": "Zesp\u00f3\u0142 Szk\u00f3\u0142 Ponadpodstawowych nr 3 w Ko\u0144skich",
                "name": "Zesp\u00f3\u0142 Szk\u00f3\u0142 Ponadpodstawowych nr 3 w Ko\u0144skich",
                "addr:postcode": "26-200",
                "addr:city": "Ko\u0144skie",
                "addr:street": "marsz. Pi\u0142sudskiego",
                "addr:housenumber": "68",
                "addr:city:simc": 947136,
                "addr:street:sym_ul": 16269,
                "phone": "+48 413723468",
                "email": "zsp3.konskie@neostrada.pl",
                "website": "http:\/\/www.ekonomik-konskie.pl\/",
                "ref:regon": "292447476",
                "ref:vatin": "PL6581216117",
                "operator": "Powiat Konecki",
                "operator:type": "government",
                "landuse": "education",
                "fixme": "amenity=school, amenity=college albo landuse=education w zale\u017cno\u015bci od tego, jakie plac\u00f3wki wchodz\u0105 w sk\u0142ad zespo\u0142u. Sprawd\u017a, kiedy stosowa\u0107 amenity=* a kiedy landuse=education.",
                "note": "Children RSPO: 31384;34643"
            }
        },
        {
            "id": 31384,
            "type": "Feature",
            "geometry": {
                "type": "Point",
                "coordinates": [
                    20.40213,
                    51.192299999999996
                ]
            },
            "properties": {
                "isced:level": "3",
                "ref:rspo": 31384,
                "official_name": "Technikum nr 3 w Ko\u0144skich",
                "name": "Technikum nr 3 w Ko\u0144skich",
                "addr:postcode": "26-200",
                "addr:city": "Ko\u0144skie",
                "addr:street": "marsz. Pi\u0142sudskiego",
                "addr:housenumber": "68",
                "addr:city:simc": 947136,
                "addr:street:sym_ul": 16269,
                "phone": "+48 413723468",
                "email": "zsp3.konskie@neostrada.pl",
                "ref:regon": "292442540",
                "ref:vatin": "PL6581216117",
                "operator": "Powiat Konecki",
                "operator:type": "government",
                "amenity": "school",
                "note": "Parent RSPO: 4969"
            }
        },
        {
            "id": 34643,
            "type": "Feature",
            "geometry": {
                "type": "Point",
                "coordinates": [
                    20.40213,
                    51.19227
                ]
            },
            "properties": {
                "isced:level": "4",
                "ref:rspo": 34643,
                "official_name": "Szko\u0142a Policealna nr 3 w Ko\u0144skich",
                "name": "Szko\u0142a Policealna nr 3 w Ko\u0144skich",
                "addr:postcode": "26-200",
                "addr:city": "Ko\u0144skie",
                "addr:street": "marsz. Pi\u0142sudskiego",
                "addr:housenumber": "68",
                "addr:city:simc": 947136,
                "addr:street:sym_ul": 16269,
                "phone": "+48 413723468",
                "email": "zsp3.konskie@neostrada.pl",
                "website": "http:\/\/www.ekonomik-konskie.pl\/index.htm",
                "ref:regon": "260640117",
                "ref:vatin": "PL6581216117",
                "operator": "Powiat Konecki",
                "operator:type": "government",
                "amenity": "college",
                "note": "Parent RSPO: 4969"
            }
        },
        {
            "id": 49346,
            "type": "Feature",
            "geometry": {
                "type": "Point",
                "coordinates": [
                    20.40149,
                    51.19234
                ]
            },
            "properties": {
                "isced:level": "3",
                "ref:rspo": 49346,
                "official_name": "Bran\u017cowa Szko\u0142a I Stopnia Uniwerek w Ko\u0144skich",
                "name": "Bran\u017cowa Szko\u0142a I Stopnia Uniwerek w Ko\u0144skich",
                "addr:postcode": "26-200",
                "addr:city": "Ko\u0144skie",
                "addr:street": "Marsza\u0142ka Pi\u0142sudskiego",
                "addr:housenumber": "72",
                "addr:city:simc": 947136,
                "addr:street:sym_ul": 37694,
                "phone": "+48 413752021",
                "email": "uniwerekkonskie@tlen.pl",
                "website": "http:\/\/uniwerekck.ehost.pl\/",
                "ref:regon": "260643618",
                "ref:vatin": "PL9591889575",
                "operator": "Gra\u017cyna Obara",
                "operator:type": "private",
                "amenity": "school"
            }
        },
        {
            "id": 49347,
            "type": "Feature",
            "geometry": {
                "type": "Point",
                "coordinates": [
                    20.40149,
                    51.19231
                ]
            },
            "properties": {
                "isced:level": "3",
                "ref:rspo": 49347,
                "official_name": "Technikum Zawodowe Uniwerek w Ko\u0144skich",
                "name": "Technikum Zawodowe Uniwerek w Ko\u0144skich",
                "addr:postcode": "26-200",
                "addr:city": "Ko\u0144skie",
                "addr:street": "marsz. Pi\u0142sudskiego",
                "addr:housenumber": "72",
                "addr:city:simc": 947136,
                "addr:street:sym_ul": 16269,
                "phone": "+48 413752021",
                "email": "uniwerekkonskie@tlen.pl",
                "website": "http:\/\/uniwerekck.ehost.pl",
                "ref:regon": "260643570",
                "ref:vatin": "PL9591889575",
                "operator": "Gra\u017cyna Obara",
                "operator:type": "private",
                "amenity": "school"
            }
        },
        {
            "id": 49350,
            "type": "Feature",
            "geometry": {
                "type": "Point",
                "coordinates": [
                    20.40149,
                    51.192280000000004
                ]
            },
            "properties": {
                "isced:level": "3",
                "ref:rspo": 49350,
                "official_name": "Liceum Og\u00f3lnokszta\u0142c\u0105ce Uniwerek w Ko\u0144skich",
                "name": "Liceum Og\u00f3lnokszta\u0142c\u0105ce Uniwerek w Ko\u0144skich",
                "addr:postcode": "26-200",
                "addr:city": "Ko\u0144skie",
                "addr:street": "marsz. Pi\u0142sudskiego",
                "addr:housenumber": "72",
                "addr:city:simc": 947136,
                "addr:street:sym_ul": 16269,
                "phone": "+48 413752021",
                "email": "uniwerekkonskie@tlen.pl",
                "website": "http:\/\/uniwerekck.ehost.pl",
                "ref:regon": "260644380",
                "ref:vatin": "PL9591889575",
                "operator": "Gra\u017cyna Obara",
                "operator:type": "private",
                "amenity": "school"
            }
        },
        {
            "id": 49353,
            "type": "Feature",
            "geometry": {
                "type": "Point",
                "coordinates": [
                    20.40149,
                    51.19225
                ]
            },
            "properties": {
                "isced:level": "3",
                "ref:rspo": 49353,
                "official_name": "Liceum Og\u00f3lnokszta\u0142c\u0105ce dla Doros\u0142ych Uniwerek w Ko\u0144skich",
                "name": "Liceum Og\u00f3lnokszta\u0142c\u0105ce dla Doros\u0142ych Uniwerek w Ko\u0144skich",
                "addr:postcode": "26-200",
                "addr:city": "Ko\u0144skie",
                "addr:street": "marsz. Pi\u0142sudskiego",
                "addr:housenumber": "72",
                "addr:city:simc": 947136,
                "addr:street:sym_ul": 16269,
                "phone": "+48 413752021",
                "email": "uniwerekkonskie@tlen.pl",
                "website": "http:\/\/uniwerekck.ehost.pl",
                "ref:regon": "260642033",
                "ref:vatin": "PL9591889575",
                "operator": "Gra\u017cyna Obara",
                "operator:type": "private",
                "amenity": "school"
            }
        },
        {
            "id": 38793,
            "type": "Feature",
            "geometry": {
                "type": "Point",
                "coordinates": [
                    20.4005,
                    51.1925
                ]
            },
            "properties": {
                "isced:level": "4",
                "ref:rspo": 38793,
                "official_name": "Niepubliczna Szko\u0142a Policealna w Ko\u0144skich Zak\u0142adu Doskonalenia Zawodowego w Kielcach",
                "name": "Niepubliczna Szko\u0142a Policealna w Ko\u0144skich Zak\u0142adu Doskonalenia Zawodowego w Kielcach",
                "addr:postcode": "26-200",
                "addr:city": "Ko\u0144skie",
                "addr:street": "marsz. Pi\u0142sudskiego",
                "addr:housenumber": "82",
                "addr:city:simc": 947136,
                "addr:street:sym_ul": 16269,
                "phone": "+48 413723187",
                "email": "konskie@zdz.kielce.pl",
                "website": "http:\/\/www.zdz.kielce.pl\/konskie.html",
                "ref:regon": "260641329",
                "ref:vatin": "PL6570008869",
                "operator": "Zak\u0142ad Doskonalenia Zawodowego W Kielcach",
                "operator:type": "ngo",
                "amenity": "college"
            }
        },
        {
            "id": 38935,
            "type": "Feature",
            "geometry": {
                "type": "Point",
                "coordinates": [
                    20.4005,
                    51.19247
                ]
            },
            "properties": {
                "isced:level": "3",
                "ref:rspo": 38935,
                "official_name": "Niepubliczne Technikum Zawodowe w Ko\u0144skich Zak\u0142adu Doskonalenia Zawodowego w Kielcach",
                "name": "Niepubliczne Technikum Zawodowe w Ko\u0144skich Zak\u0142adu Doskonalenia Zawodowego w Kielcach",
                "addr:postcode": "26-200",
                "addr:city": "Ko\u0144skie",
                "addr:street": "marsz. Pi\u0142sudskiego",
                "addr:housenumber": "82",
                "addr:city:simc": 947136,
                "addr:street:sym_ul": 16269,
                "phone": "+48 413723187",
                "email": "konskie@zdz.kielce.pl",
                "website": "http:\/\/www.zdz.kielce.pl\/konskie.html",
                "ref:regon": "260641306",
                "ref:vatin": "PL6570008869",
                "operator": "Zak\u0142ad Doskonalenia Zawodowego W Kielcach",
                "operator:type": "ngo",
                "amenity": "school"
            }
        },
        {
            "id": 42045,
            "type": "Feature",
            "geometry": {
                "type": "Point",
                "coordinates": [
                    20.4005,
                    51.192440000000005
                ]
            },
            "properties": {
                "ref:rspo": 42045,
                "official_name": "Centrum Kszta\u0142cenia Zawodowego w Ko\u0144skich Zak\u0142adu Doskonalenia Zawodowego w Kielcach",
                "name": "Centrum Kszta\u0142cenia Zawodowego w Ko\u0144skich Zak\u0142adu Doskonalenia Zawodowego w Kielcach",
                "addr:postcode": "26-200",
                "addr:city": "Ko\u0144skie",
                "addr:street": "marsz. Pi\u0142sudskiego",
                "addr:housenumber": "82",
                "addr:city:simc": 947136,
                "addr:street:sym_ul": 16269,
                "phone": "+48 413723187",
                "email": "konskie@zdz.kielce.pl",
                "website": "http:\/\/www.zdz.kielce.pl\/konskie.html",
                "ref:regon": "260641022",
                "ref:vatin": "PL6570008869",
                "operator": "Zak\u0142ad Doskonalenia Zawodowego W Kielcach",
                "operator:type": "ngo",
                "fixme": "w zale\u017cno\u015bci od przedmiotu dzia\u0142alno\u015bci (np. amenity=training + training=*, amenity=dancing_school, amenity=language_school, amenity=music_school) albo amenity=school, amenity=college, albo landuse=education w zale\u017cno\u015bci od tego, jakie plac\u00f3wki wchodz\u0105 w sk\u0142ad zespo\u0142u. Sprawd\u017a, kiedy stosowa\u0107 amenity=* a kiedy landuse=education."
            }
        },
        {
            "id": 46657,
            "type": "Feature",
            "geometry": {
                "type": "Point",
                "coordinates": [
                    20.4005,
                    51.19241
                ]
            },
            "properties": {
                "isced:level": "3",
                "ref:rspo": 46657,
                "official_name": "Niepubliczne Liceum Og\u00f3lnokszta\u0142c\u0105ce dla Doros\u0142ych w Ko\u0144skich Zak\u0142adu Doskonalenia Zawodowego w Kielcach",
                "name": "Niepubliczne Liceum Og\u00f3lnokszta\u0142c\u0105ce dla Doros\u0142ych w Ko\u0144skich Zak\u0142adu Doskonalenia Zawodowego w Kielcach",
                "addr:postcode": "26-200",
                "addr:city": "Ko\u0144skie",
                "addr:street": "Marsza\u0142ka Pi\u0142sudskiego",
                "addr:housenumber": "82",
                "addr:city:simc": 947136,
                "addr:street:sym_ul": 37694,
                "phone": "+48 413723187",
                "email": "konskie@zdz.kielce.pl",
                "ref:regon": "260644084",
                "ref:vatin": "PL6570008869",
                "operator": "Zak\u0142ad Doskonalenia Zawodowego W Kielcach",
                "operator:type": "ngo",
                "amenity": "school"
            }
        },
        {
            "id": 272235,
            "type": "Feature",
            "geometry": {
                "type": "Point",
                "coordinates": [
                    20.4005,
                    51.19238
                ]
            },
            "properties": {
                "isced:level": "3",
                "ref:rspo": 272235,
                "official_name": "Niepubliczna Bran\u017cowa Szko\u0142a I Stopnia w Ko\u0144skich",
                "name": "Niepubliczna Bran\u017cowa Szko\u0142a I Stopnia w Ko\u0144skich",
                "addr:postcode": "26-200",
                "addr:city": "Ko\u0144skie",
                "addr:street": "marsz. Pi\u0142sudskiego",
                "addr:housenumber": "82",
                "addr:city:simc": 947136,
                "addr:street:sym_ul": 16269,
                "phone": "+48 413723187",
                "email": "konskie@zdz.kielce.pl",
                "website": "http:\/\/szkolykonskie.zdz.kielce.pl",
                "ref:regon": "384065832",
                "operator": "Zak\u0142ad Doskonalenia Zawodowego W Kielcach",
                "operator:type": "ngo",
                "amenity": "school"
            }
        },
        {
            "id": 275957,
            "type": "Feature",
            "geometry": {
                "type": "Point",
                "coordinates": [
                    20.4005,
                    51.192350000000005
                ]
            },
            "properties": {
                "isced:level": "3",
                "ref:rspo": 275957,
                "official_name": "Niepubliczna Bran\u017cowa Szko\u0142a II Stopnia w Ko\u0144skich",
                "name": "Niepubliczna Bran\u017cowa Szko\u0142a II Stopnia w Ko\u0144skich",
                "addr:postcode": "26-200",
                "addr:city": "Ko\u0144skie",
                "addr:street": "Marsza\u0142ka Pi\u0142sudskiego",
                "addr:housenumber": "82",
                "addr:city:simc": 947136,
                "addr:street:sym_ul": 37694,
                "phone": "+48 413723781",
                "email": "konskie@zdz.kielce.pl",
                "website": "http:\/\/szkolykonskie.zdz.kielce.pl",
                "ref:regon": "386961269",
                "operator": "Zak\u0142ad Doskonalenia Zawodowego W Kielcach",
                "operator:type": "ngo",
                "amenity": "school"
            }
        },
        {
            "id": 110127,
            "type": "Feature",
            "geometry": {
                "type": "Point",
                "coordinates": [
                    20.40735,
                    51.1931434
                ]
            },
            "properties": {
                "isced:level": "3",
                "ref:rspo": 110127,
                "official_name": "Liceum Og\u00f3lnokszta\u0142c\u0105ce dla Doros\u0142ych Novum w Ko\u0144skich",
                "name": "Liceum Og\u00f3lnokszta\u0142c\u0105ce dla Doros\u0142ych Novum w Ko\u0144skich",
                "addr:postcode": "26-200",
                "addr:city": "Ko\u0144skie",
                "addr:street": "Warszawska",
                "addr:housenumber": "13",
                "addr:city:simc": 947136,
                "addr:street:sym_ul": 23682,
                "phone": "+48 604733789",
                "email": "w.stanislawska@wp.pl",
                "ref:regon": "260671514",
                "operator": "Micha\u0142 Stanis\u0142awski",
                "operator:type": "private",
                "amenity": "school"
            }
        },
        {
            "id": 23926,
            "type": "Feature",
            "geometry": {
                "type": "Point",
                "coordinates": [
                    20.40192,
                    51.19361
                ]
            },
            "properties": {
                "ref:rspo": 23926,
                "official_name": "Przedszkole nr 6 w Ko\u0144skich",
                "name": "Przedszkole nr 6 w Ko\u0144skich",
                "addr:postcode": "26-200",
                "addr:city": "Ko\u0144skie",
                "addr:street": "1 Maja",
                "addr:housenumber": "5a",
                "addr:city:simc": 947136,
                "addr:street:sym_ul": 11926,
                "phone": "+48 413722271",
                "email": "przedsamnr7@idsl.pl",
                "website": "http:\/\/www.ps7konskie.info",
                "ref:regon": "260443374",
                "ref:vatin": "PL6581971339",
                "operator": "Gmina Ko\u0144skie",
                "operator:type": "government",
                "amenity": "kindergarten"
            }
        },
        {
            "id": 5315,
            "type": "Feature",
            "geometry": {
                "type": "Point",
                "coordinates": [
                    20.3959,
                    51.1943
                ]
            },
            "properties": {
                "ref:rspo": 5315,
                "official_name": "Bursa Szkolna w Ko\u0144skich",
                "name": "Bursa Szkolna w Ko\u0144skich",
                "addr:postcode": "26-200",
                "addr:city": "Ko\u0144skie",
                "addr:street": "marsz. Pi\u0142sudskiego",
                "addr:housenumber": "112",
                "addr:city:simc": 947136,
                "addr:street:sym_ul": 16269,
                "phone": "+48 413722434",
                "email": "bursaszkolna1@op.pl",
                "ref:regon": "291202910",
                "ref:vatin": "PL6581765723",
                "operator": "Powiat Konecki",
                "operator:type": "government",
                "building": "dormitory"
            }
        },
        {
            "id": 129124,
            "type": "Feature",
            "geometry": {
                "type": "Point",
                "coordinates": [
                    20.4034,
                    51.19459
                ]
            },
            "properties": {
                "ref:rspo": 129124,
                "official_name": "Niepubliczne Przedszkole Akademia Przedszkolaka w Ko\u0144skich",
                "name": "Niepubliczne Przedszkole Akademia Przedszkolaka w Ko\u0144skich",
                "addr:postcode": "26-200",
                "addr:city": "Ko\u0144skie",
                "addr:street": "1 Maja",
                "addr:housenumber": "13",
                "addr:city:simc": 947136,
                "addr:street:sym_ul": 11926,
                "phone": "+48 601668592",
                "email": "konskie@akademia-przedszkolaka.com",
                "ref:regon": "362480904",
                "operator": "Agnieszka Klimek",
                "operator:type": "private",
                "amenity": "kindergarten"
            }
        },
        {
            "id": 129289,
            "type": "Feature",
            "geometry": {
                "type": "Point",
                "coordinates": [
                    20.40508,
                    51.19595
                ]
            },
            "properties": {
                "ref:rspo": 129289,
                "official_name": "Niepubliczne Przedszkole \u201eMi\u015b\u201d w Ko\u0144skich",
                "name": "Niepubliczne Przedszkole \u201eMi\u015b\u201d w Ko\u0144skich",
                "addr:postcode": "26-200",
                "addr:city": "Ko\u0144skie",
                "addr:street": "Wjazdowa",
                "addr:housenumber": "13",
                "addr:city:simc": 947136,
                "addr:street:sym_ul": 24477,
                "phone": "+48 605585704",
                "email": "mis.konskie@gmail.com",
                "ref:regon": "362547459",
                "ref:vatin": "PL6581044834",
                "operator": "Miros\u0142aw Bia\u0142y",
                "operator:type": "private",
                "amenity": "kindergarten"
            }
        },
        {
            "id": 20069,
            "type": "Feature",
            "geometry": {
                "type": "Point",
                "coordinates": [
                    20.41209,
                    51.19796
                ]
            },
            "properties": {
                "isced:level": "1;2",
                "ref:rspo": 20069,
                "official_name": "Szko\u0142a Podstawowa nr 1 im. Emilii Plater w Ko\u0144skich",
                "name": "Szko\u0142a Podstawowa nr 1",
                "addr:postcode": "26-200",
                "addr:city": "Ko\u0144skie",
                "addr:street": "Armii Krajowej",
                "addr:housenumber": "2",
                "addr:city:simc": 947136,
                "addr:street:sym_ul": 432,
                "phone": "+48 413729148",
                "email": "sp1konskie@onet.eu",
                "website": "http:\/\/www.sp1konskie.pl",
                "ref:regon": "000733033",
                "ref:vatin": "PL6581787794",
                "operator": "Gmina Ko\u0144skie",
                "operator:type": "government",
                "amenity": "school"
            }
        },
        {
            "id": 23924,
            "type": "Feature",
            "geometry": {
                "type": "Point",
                "coordinates": [
                    20.41224,
                    51.19829
                ]
            },
            "properties": {
                "ref:rspo": 23924,
                "official_name": "Przedszkole nr 4 w Ko\u0144skich",
                "name": "Przedszkole nr 4 w Ko\u0144skich",
                "addr:postcode": "26-200",
                "addr:city": "Ko\u0144skie",
                "addr:street": "Armii Krajowej",
                "addr:housenumber": "24",
                "addr:city:simc": 947136,
                "addr:street:sym_ul": 432,
                "phone": "+48 413729073",
                "email": "ps4konskie@gmail.com",
                "website": "http:\/\/www.ps4konskie.pl",
                "ref:regon": "260443440",
                "ref:vatin": "PL6581971316",
                "operator": "Gmina Ko\u0144skie",
                "operator:type": "government",
                "amenity": "kindergarten"
            }
        },
        {
            "id": 30664,
            "type": "Feature",
            "geometry": {
                "type": "Point",
                "coordinates": [
                    20.41224,
                    51.19826
                ]
            },
            "properties": {
                "ref:rspo": 30664,
                "official_name": "Punkt Przedszkolny Przy Przedszkolu nr 4 w Ko\u0144skich",
                "name": "Punkt Przedszkolny Przy Przedszkolu nr 4 w Ko\u0144skich",
                "addr:postcode": "26-200",
                "addr:city": "Ko\u0144skie",
                "addr:street": "Armii Krajowej",
                "addr:housenumber": "24",
                "addr:city:simc": 947136,
                "addr:street:sym_ul": 432,
                "phone": "+48 413729073",
                "email": "ps4konskie@gmail.com",
                "ref:regon": "260639746",
                "operator": "Gmina Ko\u0144skie",
                "operator:type": "government",
                "amenity": "kindergarten"
            }
        },
        {
            "id": 4798,
            "type": "Feature",
            "geometry": {
                "type": "Point",
                "coordinates": [
                    20.40299,
                    51.19896
                ]
            },
            "properties": {
                "ref:rspo": 4798,
                "official_name": "Zesp\u00f3\u0142 Szk\u00f3\u0142 Ponadpodstawowych nr 1 w Ko\u0144skich",
                "name": "Zesp\u00f3\u0142 Szk\u00f3\u0142 Ponadpodstawowych nr 1 w Ko\u0144skich",
                "addr:postcode": "26-200",
                "addr:city": "Ko\u0144skie",
                "addr:street": "Stanis\u0142awa Staszica",
                "addr:housenumber": "5",
                "addr:city:simc": 947136,
                "addr:street:sym_ul": 21071,
                "phone": "+48 413726941",
                "email": "zsp1kon@gmail.com",
                "website": "http:\/\/www.zsp1konskie.com\/",
                "ref:regon": "291680880",
                "ref:vatin": "PL6581216040",
                "operator": "Powiat Konecki",
                "operator:type": "government",
                "landuse": "education",
                "fixme": "amenity=school, amenity=college albo landuse=education w zale\u017cno\u015bci od tego, jakie plac\u00f3wki wchodz\u0105 w sk\u0142ad zespo\u0142u. Sprawd\u017a, kiedy stosowa\u0107 amenity=* a kiedy landuse=education.",
                "note": "Children RSPO: 15887;279173"
            }
        },
        {
            "id": 15887,
            "type": "Feature",
            "geometry": {
                "type": "Point",
                "coordinates": [
                    20.40299,
                    51.19893
                ]
            },
            "properties": {
                "isced:level": "3",
                "ref:rspo": 15887,
                "official_name": "Technikum nr 1 im. Rotmistrza Witolda Pileckiego w Ko\u0144skich",
                "name": "Technikum nr 1",
                "addr:postcode": "26-200",
                "addr:city": "Ko\u0144skie",
                "addr:street": "Stanis\u0142awa Staszica",
                "addr:housenumber": "5",
                "addr:city:simc": 947136,
                "addr:street:sym_ul": 21071,
                "phone": "+48 413726941",
                "email": "zsp1kon@gmail.com",
                "website": "http:\/\/www.zsp1konskie.com\/index.html",
                "ref:regon": "292441605",
                "ref:vatin": "PL6581216040",
                "operator": "Powiat Konecki",
                "operator:type": "government",
                "amenity": "school",
                "note": "Parent RSPO: 4798"
            }
        },
        {
            "id": 279173,
            "type": "Feature",
            "geometry": {
                "type": "Point",
                "coordinates": [
                    20.40299,
                    51.1989
                ]
            },
            "properties": {
                "isced:level": "4",
                "ref:rspo": 279173,
                "official_name": "Szko\u0142a Policealna nr 1 im.rotmistrza Witolda Pileckiego w Ko\u0144skich",
                "name": "Szko\u0142a Policealna nr 1 im.rotmistrza Witolda Pileckiego w Ko\u0144skich",
                "addr:postcode": "26-200",
                "addr:city": "Ko\u0144skie",
                "addr:street": "Stanis\u0142awa Staszica",
                "addr:housenumber": "5",
                "addr:city:simc": 947136,
                "addr:street:sym_ul": 21071,
                "phone": "+48 413726941",
                "email": "zsp1kon@gmail.com",
                "website": "https:\/\/zsp1konskie.com\/",
                "ref:regon": "520799911",
                "operator": "Powiat Konecki",
                "operator:type": "government",
                "amenity": "college",
                "note": "Parent RSPO: 4798"
            }
        },
        {
            "id": 4780,
            "type": "Feature",
            "geometry": {
                "type": "Point",
                "coordinates": [
                    20.41149,
                    51.20378
                ]
            },
            "properties": {
                "ref:rspo": 4780,
                "official_name": "Zesp\u00f3\u0142 Szk\u00f3\u0142 Ponadpodstawowych nr 2 w Ko\u0144skich",
                "name": "Zesp\u00f3\u0142 Szk\u00f3\u0142 Ponadpodstawowych nr 2 w Ko\u0144skich",
                "addr:postcode": "26-200",
                "addr:city": "Ko\u0144skie",
                "addr:street": "Warszawska",
                "addr:housenumber": "53",
                "addr:city:simc": 947136,
                "addr:street:sym_ul": 23682,
                "phone": "+48 413726557",
                "email": "zsp2konskie@gmail.com",
                "website": "http:\/\/www.zsp2konskie.eu\/",
                "ref:regon": "292441491",
                "ref:vatin": "PL6581392073",
                "operator": "Powiat Konecki",
                "operator:type": "government",
                "landuse": "education",
                "fixme": "amenity=school, amenity=college albo landuse=education w zale\u017cno\u015bci od tego, jakie plac\u00f3wki wchodz\u0105 w sk\u0142ad zespo\u0142u. Sprawd\u017a, kiedy stosowa\u0107 amenity=* a kiedy landuse=education.",
                "note": "Children RSPO: 10832;11318;279175"
            }
        },
        {
            "id": 10832,
            "type": "Feature",
            "geometry": {
                "type": "Point",
                "coordinates": [
                    20.41149,
                    51.20375
                ]
            },
            "properties": {
                "isced:level": "3",
                "ref:rspo": 10832,
                "official_name": "Liceum Og\u00f3lnokszta\u0142c\u0105ce dla Doros\u0142ych w Ko\u0144skich",
                "name": "Liceum Og\u00f3lnokszta\u0142c\u0105ce dla Doros\u0142ych w Ko\u0144skich",
                "addr:postcode": "26-200",
                "addr:city": "Ko\u0144skie",
                "addr:street": "Warszawska",
                "addr:housenumber": "53",
                "addr:city:simc": 947136,
                "addr:street:sym_ul": 23682,
                "phone": "+48 413726557",
                "email": "zsp2konskie@gmail.com",
                "website": "http:\/\/www.zsp2konskie.eu\/",
                "ref:regon": "260630366",
                "operator": "Powiat Konecki",
                "operator:type": "government",
                "amenity": "school",
                "note": "Parent RSPO: 4780"
            }
        },
        {
            "id": 11318,
            "type": "Feature",
            "geometry": {
                "type": "Point",
                "coordinates": [
                    20.41149,
                    51.203720000000004
                ]
            },
            "properties": {
                "isced:level": "3",
                "ref:rspo": 11318,
                "official_name": "Bran\u017cowa Szko\u0142a I Stopnia nr 2 im. Gen. Antoniego Piwowarczyka w Ko\u0144skich",
                "name": "Bran\u017cowa Szko\u0142a I Stopnia nr 2",
                "addr:postcode": "26-200",
                "addr:city": "Ko\u0144skie",
                "addr:street": "Warszawska",
                "addr:housenumber": "53",
                "addr:city:simc": 947136,
                "addr:street:sym_ul": 23682,
                "phone": "+48 413726557",
                "email": "zsp2konskie@gmail.com",
                "ref:regon": "260630604",
                "operator": "Powiat Konecki",
                "operator:type": "government",
                "amenity": "school",
                "note": "Parent RSPO: 4780"
            }
        },
        {
            "id": 279175,
            "type": "Feature",
            "geometry": {
                "type": "Point",
                "coordinates": [
                    20.41149,
                    51.20369
                ]
            },
            "properties": {
                "isced:level": "3",
                "ref:rspo": 279175,
                "official_name": "Bran\u017cowa Szko\u0142a II Stopnia im. Gen. Antoniego Piwowarczyka w Ko\u0144skich",
                "name": "Bran\u017cowa Szko\u0142a II Stopnia",
                "addr:postcode": "26-200",
                "addr:city": "Ko\u0144skie",
                "addr:street": "Warszawska",
                "addr:housenumber": "53",
                "addr:city:simc": 947136,
                "addr:street:sym_ul": 23682,
                "phone": "+48 412604940",
                "email": "zsp2konskie@gmail.com",
                "website": "http:\/\/zsp2konskie.eu\/",
                "ref:regon": "520800040",
                "operator": "Powiat Konecki",
                "operator:type": "government",
                "amenity": "school",
                "note": "Parent RSPO: 4780"
            }
        },
        {
            "id": 262794,
            "type": "Feature",
            "geometry": {
                "type": "Point",
                "coordinates": [
                    20.43597984314,
                    51.203971862793
                ]
            },
            "properties": {
                "ref:rspo": 262794,
                "official_name": "Zesp\u00f3\u0142 Plac\u00f3wek O\u015bwiatowych w Rogowie",
                "name": "Zesp\u00f3\u0142 Plac\u00f3wek O\u015bwiatowych w Rogowie",
                "addr:postcode": "26-200",
                "addr:city": "Rog\u00f3w",
                "addr:street": "Ksi\u0119dza Marcelego Prawicy",
                "addr:housenumber": "18b",
                "addr:city:simc": 244127,
                "addr:street:sym_ul": 53254,
                "phone": "+48 413725702",
                "email": "zs-rogow@wp.pl",
                "website": "http:\/\/www.zsrogow.pl",
                "ref:regon": "368061019",
                "operator": "Gmina Ko\u0144skie",
                "operator:type": "government",
                "landuse": "education",
                "fixme": "amenity=school, amenity=college albo landuse=education w zale\u017cno\u015bci od tego, jakie plac\u00f3wki wchodz\u0105 w sk\u0142ad zespo\u0142u. Sprawd\u017a, kiedy stosowa\u0107 amenity=* a kiedy landuse=education.",
                "note": "Children RSPO: 48584;263565"
            }
        },
        {
            "id": 48584,
            "type": "Feature",
            "geometry": {
                "type": "Point",
                "coordinates": [
                    20.43597984314,
                    51.203941862792995
                ]
            },
            "properties": {
                "isced:level": "1;2",
                "ref:rspo": 48584,
                "official_name": "Zesp\u00f3\u0142 Plac\u00f3wek O\u015bwiatowych w Rogowie Szko\u0142a Podstawowa im. Jana Paw\u0142a II w Rogowie",
                "name": "Zesp\u00f3\u0142 Plac\u00f3wek O\u015bwiatowych w Rogowie Szko\u0142a Podstawowa",
                "addr:postcode": "26-200",
                "addr:city": "Rog\u00f3w",
                "addr:street": "Ksi\u0119dza Marcelego Prawicy",
                "addr:housenumber": "18b",
                "addr:city:simc": 244127,
                "addr:street:sym_ul": 53254,
                "phone": "+48 413725702",
                "email": "zs-rogow@wp.pl",
                "website": "http:\/\/www.zsrogow.pl",
                "ref:regon": "000732915",
                "ref:vatin": "PL6581787877",
                "operator": "Gmina Ko\u0144skie",
                "operator:type": "government",
                "amenity": "school",
                "note": "Parent RSPO: 262794"
            }
        },
        {
            "id": 263565,
            "type": "Feature",
            "geometry": {
                "type": "Point",
                "coordinates": [
                    20.43597984314,
                    51.203911862793
                ]
            },
            "properties": {
                "ref:rspo": 263565,
                "official_name": "Zesp\u00f3\u0142 Plac\u00f3wek O\u015bwiatowych w Rogowie Przedszkole w Rogowie",
                "name": "Zesp\u00f3\u0142 Plac\u00f3wek O\u015bwiatowych w Rogowie Przedszkole w Rogowie",
                "addr:postcode": "26-200",
                "addr:city": "Rog\u00f3w",
                "addr:street": "Ksi\u0119dza Marcelego Prawicy",
                "addr:housenumber": "18b",
                "addr:city:simc": 244127,
                "addr:street:sym_ul": 53254,
                "phone": "+48 413725702",
                "email": "zs-rogow@wp.pl",
                "website": "http:\/\/www.zsrogow.pl",
                "ref:regon": "368201319",
                "operator": "Gmina Ko\u0144skie",
                "operator:type": "government",
                "amenity": "kindergarten",
                "note": "Parent RSPO: 262794"
            }
        },
        {
            "id": 262757,
            "type": "Feature",
            "geometry": {
                "type": "Point",
                "coordinates": [
                    20.36903,
                    51.20562
                ]
            },
            "properties": {
                "ref:rspo": 262757,
                "official_name": "Zesp\u00f3\u0142 Plac\u00f3wek O\u015bwiatowych w Modliszewicach",
                "name": "Zesp\u00f3\u0142 Plac\u00f3wek O\u015bwiatowych w Modliszewicach",
                "addr:postcode": "26-200",
                "addr:city": "Modliszewice",
                "addr:street": "Franciszka Gasi\u0144skiego",
                "addr:housenumber": "2",
                "addr:city:simc": 243820,
                "addr:street:sym_ul": 34105,
                "phone": "+48 413723001",
                "email": "sp.modliszewice@wp.pl",
                "website": "http:\/\/spmodliszewice.edupage.org",
                "ref:regon": "368055585",
                "operator": "Gmina Ko\u0144skie",
                "operator:type": "government",
                "landuse": "education",
                "fixme": "amenity=school, amenity=college albo landuse=education w zale\u017cno\u015bci od tego, jakie plac\u00f3wki wchodz\u0105 w sk\u0142ad zespo\u0142u. Sprawd\u017a, kiedy stosowa\u0107 amenity=* a kiedy landuse=education.",
                "note": "Children RSPO: 20590;262907"
            }
        },
        {
            "id": 20590,
            "type": "Feature",
            "geometry": {
                "type": "Point",
                "coordinates": [
                    20.36903,
                    51.20559
                ]
            },
            "properties": {
                "isced:level": "1;2",
                "ref:rspo": 20590,
                "official_name": "Zesp\u00f3\u0142 Plac\u00f3wek O\u015bwiatowych w Modliszewicach Szko\u0142a Podstawowa w Modliszewicach",
                "name": "Zesp\u00f3\u0142 Plac\u00f3wek O\u015bwiatowych w Modliszewicach Szko\u0142a Podstawowa w Modliszewicach",
                "addr:postcode": "26-200",
                "addr:city": "Modliszewice",
                "addr:street": "Franciszka Gasi\u0144skiego",
                "addr:housenumber": "2",
                "addr:city:simc": 243820,
                "addr:street:sym_ul": 34105,
                "phone": "+48 413723001",
                "email": "sp.modliszewice@wp.pl",
                "website": "http:\/\/www.spmodliszewice.szkolnastrona.pl",
                "ref:regon": "000732884",
                "ref:vatin": "PL6581787860",
                "operator": "Gmina Ko\u0144skie",
                "operator:type": "government",
                "amenity": "school",
                "note": "Parent RSPO: 262757"
            }
        },
        {
            "id": 262907,
            "type": "Feature",
            "geometry": {
                "type": "Point",
                "coordinates": [
                    20.36903,
                    51.205560000000006
                ]
            },
            "properties": {
                "ref:rspo": 262907,
                "official_name": "Zesp\u00f3\u0142 Plac\u00f3wek O\u015bwiatowych w Modliszewicach Przedszkole w Modliszewicach",
                "name": "Zesp\u00f3\u0142 Plac\u00f3wek O\u015bwiatowych w Modliszewicach Przedszkole w Modliszewicach",
                "addr:postcode": "26-200",
                "addr:city": "Modliszewice",
                "addr:street": "Franciszka Gasi\u0144skiego",
                "addr:housenumber": "2",
                "addr:city:simc": 243820,
                "addr:street:sym_ul": 34105,
                "phone": "+48 413723001",
                "email": "sp.modliszewice@wp.pl",
                "website": "http:\/\/spmodliszewice.edupage.org",
                "ref:regon": "368071390",
                "operator": "Gmina Ko\u0144skie",
                "operator:type": "government",
                "amenity": "kindergarten",
                "note": "Parent RSPO: 262757"
            }
        },
        {
            "id": 20068,
            "type": "Feature",
            "geometry": {
                "type": "Point",
                "coordinates": [
                    20.27312,
                    51.20828
                ]
            },
            "properties": {
                "isced:level": "1;2",
                "ref:rspo": 20068,
                "official_name": "Szko\u0142a Podstawowa w Bedlnie",
                "name": "Szko\u0142a Podstawowa w Bedlnie",
                "addr:postcode": "26-200",
                "addr:place": "Bedlno",
                "addr:housenumber": "94C",
                "addr:city:simc": 243458,
                "phone": "+48 413721676",
                "email": "szkolabedlno@wp.pl",
                "ref:regon": "260392004",
                "ref:vatin": "PL6581964859",
                "operator": "Gmina Ko\u0144skie",
                "operator:type": "government",
                "amenity": "school"
            }
        },
        {
            "id": 5411,
            "type": "Feature",
            "geometry": {
                "type": "Point",
                "coordinates": [
                    20.4167839,
                    51.217076
                ]
            },
            "properties": {
                "ref:rspo": 5411,
                "official_name": "Specjalny O\u015brodek Szkolno-Wychowawczy w Baryczy",
                "name": "Specjalny O\u015brodek Szkolno-Wychowawczy w Baryczy",
                "addr:postcode": "26-200",
                "addr:place": "Barycz",
                "addr:housenumber": "64",
                "addr:city:simc": 243398,
                "phone": "+48 413725219",
                "email": "sosw.barycz@onet.pl",
                "website": "http:\/\/www.soswbarycz.szkolnastrona.pl\/",
                "ref:regon": "291150886",
                "ref:vatin": "PL6581437338",
                "operator": "Powiat Konecki",
                "operator:type": "government",
                "amenity": "school",
                "note": "Children RSPO: 38787;38789;119051"
            }
        },
        {
            "id": 38787,
            "type": "Feature",
            "geometry": {
                "type": "Point",
                "coordinates": [
                    20.4167839,
                    51.217045999999996
                ]
            },
            "properties": {
                "isced:level": "1;2",
                "ref:rspo": 38787,
                "official_name": "Publiczna Szko\u0142a Podstawowa Specjalna im. Zdzis\u0142awy I Stanis\u0142awa Bytnar\u00f3w",
                "name": "Publiczna Szko\u0142a Podstawowa Specjalna",
                "addr:postcode": "26-200",
                "addr:place": "Barycz",
                "addr:housenumber": "64",
                "addr:city:simc": 243398,
                "phone": "+48 413725219",
                "email": "sosw.barycz@onet.pl",
                "website": "http:\/\/www.soswbarycz.szkolnastrona.pl\/",
                "ref:regon": "291150917",
                "operator": "Powiat Konecki",
                "operator:type": "government",
                "amenity": "school",
                "note": "Parent RSPO: 5411"
            }
        },
        {
            "id": 38789,
            "type": "Feature",
            "geometry": {
                "type": "Point",
                "coordinates": [
                    20.4167839,
                    51.217016
                ]
            },
            "properties": {
                "ref:rspo": 38789,
                "official_name": "Szko\u0142a Specjalna Przysposabiaj\u0105ca do Pracy im. Zdzis\u0142awy I Stanis\u0142awa Bytnar\u00f3w",
                "name": "Szko\u0142a Specjalna Przysposabiaj\u0105ca do Pracy",
                "addr:postcode": "26-200",
                "addr:place": "Barycz",
                "addr:housenumber": "64",
                "addr:city:simc": 243398,
                "phone": "+48 413725219",
                "email": "sosw.barycz@onet.pl",
                "website": "http:\/\/www.soswbarycz.szkolnastrona.pl\/",
                "ref:regon": "260410630",
                "operator": "Powiat Konecki",
                "operator:type": "government",
                "amenity": "school",
                "note": "Parent RSPO: 5411"
            }
        },
        {
            "id": 119051,
            "type": "Feature",
            "geometry": {
                "type": "Point",
                "coordinates": [
                    20.4167839,
                    51.216986
                ]
            },
            "properties": {
                "isced:level": "3",
                "ref:rspo": 119051,
                "official_name": "Bran\u017cowa Szko\u0142a Specjalna I Stopnia im. Zdzis\u0142awy I Stanis\u0142awa Bytnar\u00f3w",
                "name": "Bran\u017cowa Szko\u0142a Specjalna I Stopnia",
                "addr:postcode": "26-200",
                "addr:place": "Barycz",
                "addr:housenumber": "64",
                "addr:city:simc": 243398,
                "phone": "+48 413725219",
                "email": "sosw.barycz@onet.pl",
                "website": "http:\/\/www.soswbarycz.szkolnastrona.pl",
                "ref:regon": "260715594",
                "operator": "Powiat Konecki",
                "operator:type": "government",
                "amenity": "school",
                "note": "Parent RSPO: 5411"
            }
        },
        {
            "id": 18437,
            "type": "Feature",
            "geometry": {
                "type": "Point",
                "coordinates": [
                    20.47524,
                    51.22884
                ]
            },
            "properties": {
                "ref:rspo": 18437,
                "official_name": "Zesp\u00f3\u0142 Plac\u00f3wek O\u015bwiatowych w Nie\u015bwiniu",
                "name": "Zesp\u00f3\u0142 Plac\u00f3wek O\u015bwiatowych w Nie\u015bwiniu",
                "addr:postcode": "26-200",
                "addr:city": "Nie\u015bwi\u0144",
                "addr:street": "Szkolna",
                "addr:housenumber": "6",
                "addr:city:simc": 243866,
                "addr:street:sym_ul": 21970,
                "phone": "+48 413721329",
                "email": "szkola.nieswin@poczta.onet.pl",
                "website": "http:\/\/szkolanieswin.szkolnastrona.pl",
                "ref:regon": "260019498",
                "ref:vatin": "PL6581787771",
                "operator": "Gmina Ko\u0144skie",
                "operator:type": "government",
                "landuse": "education",
                "fixme": "amenity=school, amenity=college albo landuse=education w zale\u017cno\u015bci od tego, jakie plac\u00f3wki wchodz\u0105 w sk\u0142ad zespo\u0142u. Sprawd\u017a, kiedy stosowa\u0107 amenity=* a kiedy landuse=education.",
                "note": "Children RSPO: 48594;48595"
            }
        },
        {
            "id": 48594,
            "type": "Feature",
            "geometry": {
                "type": "Point",
                "coordinates": [
                    20.47524,
                    51.228809999999996
                ]
            },
            "properties": {
                "isced:level": "1;2",
                "ref:rspo": 48594,
                "official_name": "Zesp\u00f3\u0142 Plac\u00f3wek O\u015bwiatowych w Nie\u015bwiniu Szko\u0142a Podstawowa im. Kpr. Gabrieli Wojciechowskiej w Nie\u015bwiniu",
                "name": "Zesp\u00f3\u0142 Plac\u00f3wek O\u015bwiatowych w Nie\u015bwiniu Szko\u0142a Podstawowa",
                "addr:postcode": "26-200",
                "addr:city": "Nie\u015bwi\u0144",
                "addr:street": "Szkolna",
                "addr:housenumber": "6",
                "addr:city:simc": 243866,
                "addr:street:sym_ul": 21970,
                "phone": "+48 413721329",
                "email": "szkola.nieswin@poczta.onet.pl",
                "website": "http:\/\/www.szkolanieswin.szkolnastrona.pl",
                "ref:regon": "000732861",
                "ref:vatin": "PL6581787771",
                "operator": "Gmina Ko\u0144skie",
                "operator:type": "government",
                "amenity": "school",
                "note": "Parent RSPO: 18437"
            }
        },
        {
            "id": 48595,
            "type": "Feature",
            "geometry": {
                "type": "Point",
                "coordinates": [
                    20.47524,
                    51.22878
                ]
            },
            "properties": {
                "ref:rspo": 48595,
                "official_name": "Zesp\u00f3\u0142 Plac\u00f3wek O\u015bwiatowych w Nie\u015bwiniu Przedszkole w Nie\u015bwiniu",
                "name": "Zesp\u00f3\u0142 Plac\u00f3wek O\u015bwiatowych w Nie\u015bwiniu Przedszkole w Nie\u015bwiniu",
                "addr:postcode": "26-200",
                "addr:city": "Nie\u015bwi\u0144",
                "addr:street": "Szkolna",
                "addr:housenumber": "6",
                "addr:city:simc": 243866,
                "addr:street:sym_ul": 21970,
                "phone": "+48 413721329",
                "email": "szkola.nieswin@poczta.onet.pl",
                "ref:regon": "292432902",
                "ref:vatin": "PL6581787771",
                "operator": "Gmina Ko\u0144skie",
                "operator:type": "government",
                "amenity": "kindergarten",
                "note": "Parent RSPO: 18437"
            }
        }
    ]
}