{
    "type": "FeatureCollection",
    "features": [
        {
            "id": 77982,
            "type": "Feature",
            "geometry": {
                "type": "Point",
                "coordinates": [
                    20.423406,
                    51.0526289
                ]
            },
            "properties": {
                "isced:level": "1;2",
                "ref:rspo": 77982,
                "official_name": "Szko\u0142a Podstawowa w Kr\u00f3lewcu",
                "name": "Szko\u0142a Podstawowa w Kr\u00f3lewcu",
                "addr:country": "PL",
                "addr:postcode": "26-212",
                "addr:place": "Kr\u00f3lewiec",
                "addr:housenumber": "14",
                "addr:door": "-",
                "addr:teryt:sym_ul": 269950,
                "contact:phone": "+48 413739012",
                "contact:email": "spkrolewiec@wp.pl",
                "ref:regon": "001194265",
                "operator": "Gmina Smyk\u00f3w",
                "operator:type": "government",
                "amenity": "school"
            }
        },
        {
            "id": 124962,
            "type": "Feature",
            "geometry": {
                "type": "Point",
                "coordinates": [
                    20.423406,
                    51.0525989
                ]
            },
            "properties": {
                "ref:rspo": 124962,
                "official_name": "Punkt Przedszkolny w Kr\u00f3lewcu",
                "name": "Punkt Przedszkolny w Kr\u00f3lewcu",
                "addr:country": "PL",
                "addr:postcode": "26-212",
                "addr:place": "Kr\u00f3lewiec",
                "addr:housenumber": "14",
                "addr:door": "-",
                "addr:teryt:sym_ul": 269950,
                "contact:phone": "+48 413739012",
                "contact:email": "spkrolewiec@wp.pl",
                "ref:regon": "260794323",
                "operator": "Gmina Smyk\u00f3w",
                "operator:type": "government",
                "amenity": "kindergarten"
            }
        },
        {
            "id": 267995,
            "type": "Feature",
            "geometry": {
                "type": "Point",
                "coordinates": [
                    20.4003,
                    51.05489
                ]
            },
            "properties": {
                "ref:rspo": 267995,
                "official_name": "Przedszkole w Smykowie",
                "name": "Przedszkole w Smykowie",
                "addr:country": "PL",
                "addr:postcode": "26-212",
                "addr:place": "Smyk\u00f3w",
                "addr:housenumber": "91a",
                "addr:teryt:sym_ul": 270076,
                "contact:phone": "+48 412510242",
                "contact:email": "kontakt@przedszkole.smykow.pl",
                "contact:website": "http:\/\/www.przedszkole.smykow.pl",
                "ref:regon": "380832520",
                "operator": "Gmina Smyk\u00f3w",
                "operator:type": "government",
                "amenity": "kindergarten"
            }
        },
        {
            "id": 53769,
            "type": "Feature",
            "geometry": {
                "type": "Point",
                "coordinates": [
                    20.3873619,
                    51.083745
                ]
            },
            "properties": {
                "isced:level": "1;2",
                "ref:rspo": 53769,
                "official_name": "Szko\u0142a Podstawowa im. Majora Henryka Dobrza\u0144skiego \"Hubala\" w Miedzierzy",
                "name": "Szko\u0142a Podstawowa",
                "addr:country": "PL",
                "addr:postcode": "26-212",
                "addr:place": "Miedzierza",
                "addr:housenumber": "79",
                "addr:door": "-",
                "addr:teryt:sym_ul": 270001,
                "contact:phone": "+48 413739045",
                "contact:email": "spmiedzierza@wp.pl",
                "ref:regon": "001194242",
                "operator": "Gmina Smyk\u00f3w",
                "operator:type": "government",
                "amenity": "school"
            }
        },
        {
            "id": 124959,
            "type": "Feature",
            "geometry": {
                "type": "Point",
                "coordinates": [
                    20.3873619,
                    51.083715
                ]
            },
            "properties": {
                "ref:rspo": 124959,
                "official_name": "Punkt Przedszkolny w Miedzierzy",
                "name": "Punkt Przedszkolny w Miedzierzy",
                "addr:country": "PL",
                "addr:postcode": "26-212",
                "addr:place": "Miedzierza",
                "addr:housenumber": "79",
                "addr:door": "-",
                "addr:teryt:sym_ul": 270001,
                "contact:phone": "+48 413739045",
                "contact:email": "spmiedzierza@wp.pl",
                "ref:regon": "260794300",
                "operator": "Gmina Smyk\u00f3w",
                "operator:type": "government",
                "amenity": "kindergarten"
            }
        }
    ]
}