{
    "type": "FeatureCollection",
    "features": [
        {
            "id": 5199,
            "type": "Feature",
            "geometry": {
                "type": "Point",
                "coordinates": [
                    20.4016695,
                    51.0086937
                ]
            },
            "properties": {
                "isced:level": "1;2",
                "ref:rspo": 5199,
                "official_name": "Szko\u0142a Podstawowa im. Majora Henryka Dobrza\u0144skiego \"Hubala\" w K\u0142ucku",
                "name": "Szko\u0142a Podstawowa",
                "addr:postcode": "26-212",
                "addr:place": "K\u0142ucko",
                "addr:housenumber": "39",
                "addr:teryt:simc": 264667,
                "phone": "+48 413739930",
                "email": "skolaklucko@interia.pl",
                "ref:regon": "001217641",
                "ref:vatin": "PL6581785105",
                "operator": "Gmina Radoszyce",
                "operator:type": "government",
                "amenity": "school"
            }
        },
        {
            "id": 130463,
            "type": "Feature",
            "geometry": {
                "type": "Point",
                "coordinates": [
                    20.2855202,
                    51.0120801
                ]
            },
            "properties": {
                "ref:rspo": 130463,
                "official_name": "M\u0142odzie\u017cowy O\u015brodek Wychowawczy w J\u00f3\u017awikowie",
                "name": "M\u0142odzie\u017cowy O\u015brodek Wychowawczy w J\u00f3\u017awikowie",
                "addr:postcode": "26-230",
                "addr:place": "J\u00f3\u017awik\u00f3w",
                "addr:housenumber": "28",
                "addr:teryt:simc": 264584,
                "phone": "+48 730556300",
                "email": "sekretariat@mowjozwikow.eu",
                "website": "http:\/\/mowjozwikow.eu\/",
                "ref:regon": "364042700",
                "operator": "Sentencja Sp\u00f3\u0142ka Z Ograniczon\u0105 Odpowiedzialno\u015bci\u0105",
                "operator:type": "private",
                "fixme": "amenity=social_facility + social_facility=group_home + social_facility:for=juvenile",
                "note": "Children RSPO: 129535;264112"
            }
        },
        {
            "id": 129535,
            "type": "Feature",
            "geometry": {
                "type": "Point",
                "coordinates": [
                    20.2855202,
                    51.012050099999996
                ]
            },
            "properties": {
                "isced:level": "3",
                "ref:rspo": 129535,
                "official_name": "Specjalna Bran\u017cowa Szko\u0142a I Stopnia w J\u00f3\u017awikowie",
                "name": "Specjalna Bran\u017cowa Szko\u0142a I Stopnia w J\u00f3\u017awikowie",
                "addr:postcode": "26-230",
                "addr:place": "J\u00f3\u017awik\u00f3w",
                "addr:housenumber": "28",
                "addr:teryt:simc": 264584,
                "phone": "+48 730640300",
                "email": "sekretariat@mowjozwikow.eu",
                "website": "http:\/\/mowjozwikow.eu\/",
                "ref:regon": "362645819",
                "operator": "Sentencja Sp\u00f3\u0142ka Z Ograniczon\u0105 Odpowiedzialno\u015bci\u0105",
                "operator:type": "private",
                "amenity": "school",
                "note": "Parent RSPO: 130463"
            }
        },
        {
            "id": 264112,
            "type": "Feature",
            "geometry": {
                "type": "Point",
                "coordinates": [
                    20.2855202,
                    51.0120201
                ]
            },
            "properties": {
                "isced:level": "1;2",
                "ref:rspo": 264112,
                "official_name": "Specjalna Szko\u0142a Podstawowa w J\u00f3\u017awikowie",
                "name": "Specjalna Szko\u0142a Podstawowa w J\u00f3\u017awikowie",
                "addr:postcode": "26-230",
                "addr:place": "J\u00f3\u017awik\u00f3w",
                "addr:housenumber": "28",
                "addr:teryt:simc": 264584,
                "phone": "+48 730640300",
                "email": "sekretariat@mowjozwikow.eu",
                "website": "http:\/\/www.mowjozwikow.eu",
                "ref:regon": "368271580",
                "operator": "Sentencja Sp\u00f3\u0142ka Z Ograniczon\u0105 Odpowiedzialno\u015bci\u0105",
                "operator:type": "private",
                "amenity": "school",
                "note": "Parent RSPO: 130463"
            }
        },
        {
            "id": 5201,
            "type": "Feature",
            "geometry": {
                "type": "Point",
                "coordinates": [
                    20.2160161,
                    51.0341991
                ]
            },
            "properties": {
                "isced:level": "1;2",
                "ref:rspo": 5201,
                "official_name": "Szko\u0142a Podstawowa im. \u015aw. Jana Paw\u0142a II w Wilczkowicach",
                "name": "Szko\u0142a Podstawowa",
                "addr:postcode": "26-230",
                "addr:place": "Wilczkowice",
                "addr:housenumber": "34",
                "addr:teryt:simc": 265075,
                "phone": "+48 413735193",
                "email": "dyrektor@szkolawilczkowice.pl",
                "website": "http:\/\/spwilczkowice.superszkolna.pl",
                "ref:regon": "001217865",
                "ref:vatin": "PL6581785111",
                "operator": "Gmina Radoszyce",
                "operator:type": "government",
                "amenity": "school"
            }
        },
        {
            "id": 5198,
            "type": "Feature",
            "geometry": {
                "type": "Point",
                "coordinates": [
                    20.3355573,
                    51.0531773
                ]
            },
            "properties": {
                "isced:level": "1;2",
                "ref:rspo": 5198,
                "official_name": "Szko\u0142a Podstawowa im. Henryka Sienkiewicza w G\u00f3rnikach",
                "name": "Szko\u0142a Podstawowa",
                "addr:postcode": "26-230",
                "addr:place": "G\u00f3rniki",
                "addr:housenumber": "18",
                "addr:teryt:simc": 264420,
                "phone": "+48 413739070",
                "email": "staciwaslawomir@onet.pl",
                "website": "http:\/\/spgorniki.szkolnastrona.pl\/",
                "ref:regon": "001217629",
                "ref:vatin": "PL6581785134",
                "operator": "Gmina Radoszyce",
                "operator:type": "government",
                "amenity": "school"
            }
        },
        {
            "id": 5202,
            "type": "Feature",
            "geometry": {
                "type": "Point",
                "coordinates": [
                    20.24928,
                    51.07114
                ]
            },
            "properties": {
                "ref:rspo": 5202,
                "official_name": "Samorz\u0105dowe Przedszkole w Radoszycach",
                "name": "Samorz\u0105dowe Przedszkole w Radoszycach",
                "addr:postcode": "26-230",
                "addr:city": "Radoszyce",
                "addr:street": "Sportowa",
                "addr:housenumber": "1A",
                "addr:teryt:simc": 264986,
                "addr:teryt:sym_ul": 20683,
                "phone": "+48 663315152",
                "email": "przedszkole@cuwradoszyce.pl",
                "ref:regon": "290013265",
                "ref:vatin": "PL6581970015",
                "operator": "Gmina Radoszyce",
                "operator:type": "government",
                "amenity": "kindergarten"
            }
        },
        {
            "id": 5197,
            "type": "Feature",
            "geometry": {
                "type": "Point",
                "coordinates": [
                    20.2666068,
                    51.0716512
                ]
            },
            "properties": {
                "isced:level": "1;2",
                "ref:rspo": 5197,
                "official_name": "Szko\u0142a Podstawowa w Kapa\u0142owie",
                "name": "Szko\u0142a Podstawowa w Kapa\u0142owie",
                "addr:postcode": "26-230",
                "addr:place": "Kapa\u0142\u00f3w",
                "addr:housenumber": "46",
                "addr:teryt:simc": 264609,
                "phone": "+48 413735029",
                "email": "spkapalow@cuwradoszyce.pl",
                "website": "http:\/\/spkapalow.szkolnastrona.pl\/",
                "ref:regon": "001217894",
                "ref:vatin": "PL6581785128",
                "operator": "Gmina Radoszyce",
                "operator:type": "government",
                "amenity": "school"
            }
        },
        {
            "id": 268794,
            "type": "Feature",
            "geometry": {
                "type": "Point",
                "coordinates": [
                    20.25738,
                    51.0745
                ]
            },
            "properties": {
                "isced:level": "4",
                "ref:rspo": 268794,
                "official_name": "Szko\u0142a Policealna w Radoszycach",
                "name": "Szko\u0142a Policealna w Radoszycach",
                "addr:postcode": "26-230",
                "addr:city": "Radoszyce",
                "addr:street": "Ogrodowa",
                "addr:housenumber": "21",
                "addr:teryt:simc": 264986,
                "addr:teryt:sym_ul": 14834,
                "phone": "+48 413729999",
                "email": "ckupatronus@wp.pl",
                "website": "http:\/\/ckupatronus.pl",
                "ref:regon": "381252953",
                "operator": "Piotr Paj\u0105k",
                "operator:type": "private",
                "amenity": "college"
            }
        },
        {
            "id": 268795,
            "type": "Feature",
            "geometry": {
                "type": "Point",
                "coordinates": [
                    20.25738,
                    51.07447
                ]
            },
            "properties": {
                "isced:level": "3",
                "ref:rspo": 268795,
                "official_name": "Liceum Og\u00f3lnokszta\u0142c\u0105ce dla Doros\u0142ych w Radoszycach",
                "name": "Liceum Og\u00f3lnokszta\u0142c\u0105ce dla Doros\u0142ych w Radoszycach",
                "addr:postcode": "26-230",
                "addr:city": "Radoszyce",
                "addr:street": "Ogrodowa",
                "addr:housenumber": "21",
                "addr:teryt:simc": 264986,
                "addr:teryt:sym_ul": 14834,
                "phone": "+48 413729999",
                "email": "ckupatronus@wp.pl",
                "website": "http:\/\/ckupatronus.pl",
                "ref:regon": "381253007",
                "operator": "Piotr Paj\u0105k",
                "operator:type": "private",
                "amenity": "school"
            }
        },
        {
            "id": 5200,
            "type": "Feature",
            "geometry": {
                "type": "Point",
                "coordinates": [
                    20.25478,
                    51.07484
                ]
            },
            "properties": {
                "isced:level": "1;2",
                "ref:rspo": 5200,
                "official_name": "Szko\u0142a Podstawowa im. Gen. Bryg. Antoniego Hedy - Szarego w Radoszycach",
                "name": "Szko\u0142a Podstawowa",
                "addr:postcode": "26-230",
                "addr:city": "Radoszyce",
                "addr:street": "Szkolna",
                "addr:housenumber": "1",
                "addr:teryt:simc": 264986,
                "addr:teryt:sym_ul": 21970,
                "phone": "+48 413735032",
                "email": "anna.wasik@opoczta.pl",
                "ref:regon": "000645731",
                "ref:vatin": "PL6581785080",
                "operator": "Gmina Radoszyce",
                "operator:type": "government",
                "amenity": "school"
            }
        }
    ]
}