{
    "type": "FeatureCollection",
    "features": [
        {
            "id": 121334,
            "type": "Feature",
            "geometry": {
                "type": "Point",
                "coordinates": [
                    20.528765,
                    51.073589
                ]
            },
            "properties": {
                "ref:rspo": 121334,
                "official_name": "Niepubliczne Przedszkole \u201eT\u0119czowe Przedszkole\u201d",
                "name": "Niepubliczne Przedszkole \u201eT\u0119czowe Przedszkole\u201d",
                "addr:postcode": "26-220",
                "addr:place": "Komor\u00f3w",
                "addr:housenumber": "53",
                "addr:city:simc": 271839,
                "phone": "+48 609650573",
                "email": "snrrwk@o2.pl",
                "website": "http:\/\/www.komorow.eu",
                "ref:regon": "260739637",
                "operator": "Stowarzyszenie Wspierania Edukacji I Rozwoju",
                "operator:type": "ngo",
                "amenity": "kindergarten"
            }
        },
        {
            "id": 18633,
            "type": "Feature",
            "geometry": {
                "type": "Point",
                "coordinates": [
                    20.5486751,
                    51.0783793
                ]
            },
            "properties": {
                "isced:level": "1;2",
                "ref:rspo": 18633,
                "official_name": "Publiczna Szko\u0142a Podstawowa im. Polskich Olimpijczyk\u00f3w w Krasnej",
                "name": "Publiczna Szko\u0142a Podstawowa",
                "addr:postcode": "26-220",
                "addr:place": "Krasna",
                "addr:housenumber": "53",
                "addr:city:simc": 271911,
                "phone": "+48 413711024",
                "email": "ewarupniewska@wp.pl",
                "ref:regon": "001183209",
                "ref:vatin": "PL6581981094",
                "operator": "Gmina St\u0105pork\u00f3w",
                "operator:type": "government",
                "amenity": "school"
            }
        },
        {
            "id": 19244,
            "type": "Feature",
            "geometry": {
                "type": "Point",
                "coordinates": [
                    20.5894309,
                    51.094057
                ]
            },
            "properties": {
                "ref:rspo": 19244,
                "official_name": "Punkt Przedszkolny w Gosaniu",
                "name": "Punkt Przedszkolny w Gosaniu",
                "addr:postcode": "26-220",
                "addr:place": "Gosa\u0144",
                "addr:housenumber": "150",
                "addr:city:simc": 271704,
                "phone": "+48 413711094",
                "email": "nsp_gosan@interia.pl",
                "ref:regon": "260635174",
                "operator": "Stowarzyszenie Na Rzecz Rozwoju Wsi Gosa\u0144 - W\u0142och\u00f3w",
                "operator:type": "ngo",
                "amenity": "kindergarten"
            }
        },
        {
            "id": 66471,
            "type": "Feature",
            "geometry": {
                "type": "Point",
                "coordinates": [
                    20.5894309,
                    51.094027
                ]
            },
            "properties": {
                "isced:level": "1;2",
                "ref:rspo": 66471,
                "official_name": "Niepubliczna Szko\u0142a Podstawowa w Gosaniu",
                "name": "Niepubliczna Szko\u0142a Podstawowa w Gosaniu",
                "addr:postcode": "26-220",
                "addr:place": "Gosa\u0144",
                "addr:housenumber": "150",
                "addr:city:simc": 271704,
                "phone": "+48 413711094",
                "email": "nspgosan@gmail.com",
                "website": "http:\/\/nspgosan.szkolnastrona.pl",
                "ref:regon": "260647295",
                "operator": "Stowarzyszenie Na Rzecz Rozwoju Wsi Gosa\u0144 - W\u0142och\u00f3w",
                "operator:type": "ngo",
                "amenity": "school"
            }
        },
        {
            "id": 43623,
            "type": "Feature",
            "geometry": {
                "type": "Point",
                "coordinates": [
                    20.65245,
                    51.13321
                ]
            },
            "properties": {
                "isced:level": "1;2",
                "ref:rspo": 43623,
                "official_name": "Publiczna Szko\u0142a Podstawowa Nr 1 im. Kornela Makuszy\u0144skiego w St\u0105porkowie",
                "name": "Publiczna Szko\u0142a Podstawowa Nr 1",
                "addr:postcode": "26-220",
                "addr:city": "St\u0105pork\u00f3w",
                "addr:street": "1 Maja",
                "addr:housenumber": "18",
                "addr:city:simc": 948271,
                "addr:street:sym_ul": 11926,
                "phone": "+48 413741018",
                "email": "psp1_stk@wp.pl",
                "website": "http:\/\/www.jedynka-staporkow.pl\/",
                "ref:regon": "001183267",
                "ref:vatin": "PL6581981088",
                "operator": "Gmina St\u0105pork\u00f3w",
                "operator:type": "government",
                "amenity": "school"
            }
        },
        {
            "id": 5009,
            "type": "Feature",
            "geometry": {
                "type": "Point",
                "coordinates": [
                    20.56868,
                    51.13439
                ]
            },
            "properties": {
                "ref:rspo": 5009,
                "official_name": "Zesp\u00f3\u0142 Szk\u00f3\u0142 Ponadpodstawowych im. Stanis\u0142awa Staszica w St\u0105porkowie",
                "name": "Zesp\u00f3\u0142 Szk\u00f3\u0142 Ponadpodstawowych",
                "addr:postcode": "26-220",
                "addr:city": "St\u0105pork\u00f3w",
                "addr:street": "Stanis\u0142awa Staszica",
                "addr:housenumber": "4",
                "addr:city:simc": 948271,
                "addr:street:sym_ul": 21071,
                "phone": "+48 413741144",
                "email": "kontakt@zspstaporkow.pl",
                "website": "http:\/\/www.zspstaporkow.pl",
                "ref:regon": "291225294",
                "ref:vatin": "PL6581225754",
                "operator": "Powiat Konecki",
                "operator:type": "government",
                "landuse": "education",
                "fixme": "amenity=school, amenity=college albo landuse=education w zale\u017cno\u015bci od tego, jakie plac\u00f3wki wchodz\u0105 w sk\u0142ad zespo\u0142u. Sprawd\u017a, kiedy stosowa\u0107 amenity=* a kiedy landuse=education.",
                "note": "Children RSPO: 34740;35112;38785"
            }
        },
        {
            "id": 34740,
            "type": "Feature",
            "geometry": {
                "type": "Point",
                "coordinates": [
                    20.56868,
                    51.13436
                ]
            },
            "properties": {
                "isced:level": "3",
                "ref:rspo": 34740,
                "official_name": "Technikum w St\u0105porkowie",
                "name": "Technikum w St\u0105porkowie",
                "addr:postcode": "26-220",
                "addr:city": "St\u0105pork\u00f3w",
                "addr:street": "Stanis\u0142awa Staszica",
                "addr:housenumber": "4",
                "addr:city:simc": 948271,
                "addr:street:sym_ul": 21071,
                "phone": "+48 413741144",
                "email": "kontakt@zspstaporkow.pl",
                "website": "http:\/\/www.zspstaporkow.pl\/",
                "ref:regon": "292677288",
                "ref:vatin": "PL6581225754",
                "operator": "Powiat Konecki",
                "operator:type": "government",
                "amenity": "school",
                "note": "Parent RSPO: 5009"
            }
        },
        {
            "id": 35112,
            "type": "Feature",
            "geometry": {
                "type": "Point",
                "coordinates": [
                    20.56868,
                    51.134330000000006
                ]
            },
            "properties": {
                "isced:level": "3",
                "ref:rspo": 35112,
                "official_name": "Liceum Og\u00f3lnokszta\u0142c\u0105ce w St\u0105porkowie",
                "name": "Liceum Og\u00f3lnokszta\u0142c\u0105ce w St\u0105porkowie",
                "addr:postcode": "26-220",
                "addr:city": "St\u0105pork\u00f3w",
                "addr:street": "Stanis\u0142awa Staszica",
                "addr:housenumber": "4",
                "addr:city:simc": 948271,
                "addr:street:sym_ul": 21071,
                "phone": "+48 413741144",
                "email": "kontakt@zspstaporkow.pl",
                "website": "http:\/\/www.zspstaporkow.pl\/",
                "ref:regon": "292798709",
                "ref:vatin": "PL6581225754",
                "operator": "Powiat Konecki",
                "operator:type": "government",
                "amenity": "school",
                "note": "Parent RSPO: 5009"
            }
        },
        {
            "id": 38785,
            "type": "Feature",
            "geometry": {
                "type": "Point",
                "coordinates": [
                    20.56868,
                    51.1343
                ]
            },
            "properties": {
                "isced:level": "4",
                "ref:rspo": 38785,
                "official_name": "Szko\u0142a Policealna w St\u0105porkowie",
                "name": "Szko\u0142a Policealna w St\u0105porkowie",
                "addr:postcode": "26-220",
                "addr:city": "St\u0105pork\u00f3w",
                "addr:street": "Stanis\u0142awa Staszica",
                "addr:housenumber": "4",
                "addr:city:simc": 948271,
                "addr:street:sym_ul": 21071,
                "phone": "+48 413741144",
                "email": "kontakt@zspstaporkow.pl",
                "website": "http:\/\/www.zspstaporkow.pl",
                "ref:regon": "292839868",
                "ref:vatin": "PL6581225754",
                "operator": "Powiat Konecki",
                "operator:type": "government",
                "amenity": "college",
                "note": "Parent RSPO: 5009"
            }
        },
        {
            "id": 11894,
            "type": "Feature",
            "geometry": {
                "type": "Point",
                "coordinates": [
                    20.64407,
                    51.13499
                ]
            },
            "properties": {
                "isced:level": "1;2",
                "ref:rspo": 11894,
                "official_name": "Katolicka Szko\u0142a Podstawowa Matki Bo\u017cej Wychowawczyni w Odrow\u0105\u017cu",
                "name": "Katolicka Szko\u0142a Podstawowa Matki Bo\u017cej Wychowawczyni w Odrow\u0105\u017cu",
                "addr:postcode": "26-220",
                "addr:city": "Odrow\u0105\u017c",
                "addr:street": "Szkolna",
                "addr:housenumber": "25",
                "addr:city:simc": 272023,
                "addr:street:sym_ul": 21970,
                "phone": "+48 730340937",
                "email": "kspodrowaz@gmail.com",
                "ref:regon": "260630892",
                "operator": "Towarzystwo Przyjaci\u00f3\u0142 Odrow\u0105\u017ca",
                "operator:type": "ngo",
                "amenity": "school"
            }
        },
        {
            "id": 20060,
            "type": "Feature",
            "geometry": {
                "type": "Point",
                "coordinates": [
                    20.64407,
                    51.13496
                ]
            },
            "properties": {
                "ref:rspo": 20060,
                "official_name": "Punkt Przedszkolny Przy Katolickiej Szkole Podstawowej Matki Bo\u017cej Wychowawczyni w Odrow\u0105\u017cu",
                "name": "Punkt Przedszkolny Przy Katolickiej Szkole Podstawowej Matki Bo\u017cej Wychowawczyni w Odrow\u0105\u017cu",
                "addr:postcode": "26-220",
                "addr:city": "Odrow\u0105\u017c",
                "addr:street": "Szkolna",
                "addr:housenumber": "25",
                "addr:city:simc": 272023,
                "addr:street:sym_ul": 21970,
                "phone": "+48 730340937",
                "email": "kspodrowaz@gmail.com",
                "ref:regon": "260635719",
                "operator": "Towarzystwo Przyjaci\u00f3\u0142 Odrow\u0105\u017ca",
                "operator:type": "ngo",
                "amenity": "kindergarten"
            }
        },
        {
            "id": 106044,
            "type": "Feature",
            "geometry": {
                "type": "Point",
                "coordinates": [
                    20.55774,
                    51.1355999
                ]
            },
            "properties": {
                "ref:rspo": 106044,
                "official_name": "Niepubliczne Przedszkole \u201eBajkowe Przedszkole\u201d",
                "name": "Niepubliczne Przedszkole \u201eBajkowe Przedszkole\u201d",
                "addr:postcode": "26-220",
                "addr:city": "St\u0105pork\u00f3w",
                "addr:street": "Stanis\u0142awa Moniuszki",
                "addr:housenumber": "1A",
                "addr:city:simc": 948271,
                "addr:street:sym_ul": 13246,
                "phone": "+48 502867456",
                "email": "snrrwk@o2.pl",
                "website": "http:\/\/www.komorow.eu",
                "ref:regon": "260660597",
                "operator": "Stowarzyszenie Wspierania Edukacji I Rozwoju",
                "operator:type": "ngo",
                "amenity": "kindergarten"
            }
        },
        {
            "id": 18775,
            "type": "Feature",
            "geometry": {
                "type": "Point",
                "coordinates": [
                    20.56537,
                    51.13602
                ]
            },
            "properties": {
                "ref:rspo": 18775,
                "official_name": "Publiczne Przedszkole w St\u0105porkowie",
                "name": "Publiczne Przedszkole w St\u0105porkowie",
                "addr:postcode": "26-220",
                "addr:city": "St\u0105pork\u00f3w",
                "addr:street": "Juliusza S\u0142owackiego",
                "addr:housenumber": "1",
                "addr:city:simc": 948271,
                "addr:street:sym_ul": 20291,
                "phone": "+48 413741056",
                "email": "przedszkole.stap@interia.pl",
                "website": "http:\/\/przedszkolestaporkow.szkolnastrona.pl\/",
                "ref:regon": "260434748",
                "ref:vatin": "PL6581981125",
                "operator": "Gmina St\u0105pork\u00f3w",
                "operator:type": "government",
                "amenity": "kindergarten"
            }
        },
        {
            "id": 262841,
            "type": "Feature",
            "geometry": {
                "type": "Point",
                "coordinates": [
                    20.528427,
                    51.1362809
                ]
            },
            "properties": {
                "ref:rspo": 262841,
                "official_name": "Zesp\u00f3\u0142 Szk\u00f3\u0142 Specjalnych Przy \u015awi\u0119tokrzyskim Centrum Rehabilitacji w Czarnieckiej G\u00f3rze",
                "name": "Zesp\u00f3\u0142 Szk\u00f3\u0142 Specjalnych Przy \u015awi\u0119tokrzyskim Centrum Rehabilitacji w Czarnieckiej G\u00f3rze",
                "addr:postcode": "26-220",
                "addr:place": "Czarniecka G\u00f3ra",
                "addr:housenumber": "43",
                "addr:city:simc": 271650,
                "phone": "+48 413724938",
                "email": "zssczarnieckagora@wp.pl",
                "ref:regon": "368063320",
                "operator": "Wojew\u00f3dztwo \u015awi\u0119tokrzyskie",
                "operator:type": "government",
                "landuse": "education",
                "fixme": "amenity=school, amenity=college albo landuse=education w zale\u017cno\u015bci od tego, jakie plac\u00f3wki wchodz\u0105 w sk\u0142ad zespo\u0142u. Sprawd\u017a, kiedy stosowa\u0107 amenity=* a kiedy landuse=education.",
                "note": "Children RSPO: 20745;196373"
            }
        },
        {
            "id": 20745,
            "type": "Feature",
            "geometry": {
                "type": "Point",
                "coordinates": [
                    20.528427,
                    51.1362509
                ]
            },
            "properties": {
                "isced:level": "1;2",
                "ref:rspo": 20745,
                "official_name": "Publiczna Szko\u0142a Podstawowa Specjalna Przy \u015awi\u0119tokrzyskim Centrum Rehabilitacji w Czarnieckiej G\u00f3rze",
                "name": "Publiczna Szko\u0142a Podstawowa Specjalna Przy \u015awi\u0119tokrzyskim Centrum Rehabilitacji w Czarnieckiej G\u00f3rze",
                "addr:postcode": "26-220",
                "addr:place": "Czarniecka G\u00f3ra",
                "addr:housenumber": "43",
                "addr:city:simc": 271650,
                "phone": "+48 413724938",
                "email": "zssczarnieckagora@wp.pl",
                "ref:regon": "260002279",
                "operator": "Wojew\u00f3dztwo \u015awi\u0119tokrzyskie",
                "operator:type": "government",
                "amenity": "school",
                "note": "Parent RSPO: 262841"
            }
        },
        {
            "id": 196373,
            "type": "Feature",
            "geometry": {
                "type": "Point",
                "coordinates": [
                    20.528427,
                    51.136220900000005
                ]
            },
            "properties": {
                "isced:level": "3",
                "ref:rspo": 196373,
                "official_name": "Liceum Og\u00f3lnokszta\u0142c\u0105ce Specjalne Przy \u015awi\u0119tokrzyskim Centrum Rehabilitacji w Czarnieckiej G\u00f3rze",
                "name": "Liceum Og\u00f3lnokszta\u0142c\u0105ce Specjalne Przy \u015awi\u0119tokrzyskim Centrum Rehabilitacji w Czarnieckiej G\u00f3rze",
                "addr:postcode": "26-220",
                "addr:place": "Czarniecka G\u00f3ra",
                "addr:housenumber": "43",
                "addr:city:simc": 271650,
                "phone": "+48 413724938",
                "email": "zssczarnieckagora@wp.pl",
                "ref:regon": "367992030",
                "operator": "Wojew\u00f3dztwo \u015awi\u0119tokrzyskie",
                "operator:type": "government",
                "amenity": "school",
                "note": "Parent RSPO: 262841"
            }
        },
        {
            "id": 131859,
            "type": "Feature",
            "geometry": {
                "type": "Point",
                "coordinates": [
                    20.57464,
                    51.13697
                ]
            },
            "properties": {
                "ref:rspo": 131859,
                "official_name": "Niepubliczne Przedszkole \u201eS\u0142oneczko\u201d",
                "name": "Niepubliczne Przedszkole \u201eS\u0142oneczko\u201d",
                "addr:postcode": "26-220",
                "addr:city": "St\u0105pork\u00f3w",
                "addr:street": "Marsza\u0142ka J\u00f3zefa Pi\u0142sudskiego",
                "addr:housenumber": "101",
                "addr:city:simc": 948271,
                "addr:street:sym_ul": 36029,
                "phone": "+48 506905516",
                "email": "edy.niz@wp.pl",
                "ref:regon": "365365552",
                "operator": "Edyta Nizio\u0142ek",
                "operator:type": "private",
                "amenity": "kindergarten"
            }
        },
        {
            "id": 42051,
            "type": "Feature",
            "geometry": {
                "type": "Point",
                "coordinates": [
                    20.57043,
                    51.1379499
                ]
            },
            "properties": {
                "isced:level": "4",
                "ref:rspo": 42051,
                "official_name": "Prywatna Szko\u0142a Policealna w St\u0105porkowie",
                "name": "Prywatna Szko\u0142a Policealna w St\u0105porkowie",
                "addr:postcode": "26-220",
                "addr:city": "St\u0105pork\u00f3w",
                "addr:street": "Marsza\u0142ka J\u00f3zefa Pi\u0142sudskiego",
                "addr:housenumber": "114A",
                "addr:city:simc": 948271,
                "addr:street:sym_ul": 36029,
                "phone": "+48 505551787",
                "email": "pprofesja2009@wp.pl",
                "website": "http:\/\/www.profesja.szkolnastrona.pl",
                "ref:regon": "260643966",
                "operator": "Centrum Kszta\u0142cenia Ustawicznego \"Profesja\" Sp\u00f3\u0142ka Z Ograniczon\u0105 Odpowiedzialno\u015bci\u0105",
                "operator:type": "private",
                "amenity": "college"
            }
        },
        {
            "id": 42053,
            "type": "Feature",
            "geometry": {
                "type": "Point",
                "coordinates": [
                    20.57043,
                    51.1379199
                ]
            },
            "properties": {
                "isced:level": "3",
                "ref:rspo": 42053,
                "official_name": "Prywatne Liceum Og\u00f3lnokszta\u0142c\u0105ce dla Doros\u0142ych w St\u0105porkowie",
                "name": "Prywatne Liceum Og\u00f3lnokszta\u0142c\u0105ce dla Doros\u0142ych w St\u0105porkowie",
                "addr:postcode": "26-220",
                "addr:city": "St\u0105pork\u00f3w",
                "addr:street": "Marsza\u0142ka J\u00f3zefa Pi\u0142sudskiego",
                "addr:housenumber": "114A",
                "addr:city:simc": 948271,
                "addr:street:sym_ul": 36029,
                "phone": "+48 505551787",
                "email": "pprofesja2009@wp.pl",
                "website": "http:\/\/www.profesja.szkolnastrona.pl",
                "ref:regon": "260643943",
                "ref:vatin": "PL6571650645",
                "operator": "Centrum Kszta\u0142cenia Ustawicznego \"Profesja\" Sp\u00f3\u0142ka Z Ograniczon\u0105 Odpowiedzialno\u015bci\u0105",
                "operator:type": "private",
                "amenity": "school"
            }
        },
        {
            "id": 66144,
            "type": "Feature",
            "geometry": {
                "type": "Point",
                "coordinates": [
                    20.57043,
                    51.137889900000005
                ]
            },
            "properties": {
                "isced:level": "1;2",
                "ref:rspo": 66144,
                "official_name": "Publiczna Szko\u0142a Podstawowa Nr 2 w St\u0105porkowie",
                "name": "Publiczna Szko\u0142a Podstawowa Nr 2 w St\u0105porkowie",
                "addr:postcode": "26-220",
                "addr:city": "St\u0105pork\u00f3w",
                "addr:street": "Marsza\u0142ka J\u00f3zefa Pi\u0142sudskiego",
                "addr:housenumber": "114",
                "addr:city:simc": 948271,
                "addr:street:sym_ul": 36029,
                "phone": "+48 413741082",
                "email": "sp2staporkow@op.pl",
                "website": "http:\/\/psp2staporkow.szkolnastrona.pl",
                "ref:regon": "000264058",
                "operator": "Gmina St\u0105pork\u00f3w",
                "operator:type": "government",
                "amenity": "school"
            }
        },
        {
            "id": 66128,
            "type": "Feature",
            "geometry": {
                "type": "Point",
                "coordinates": [
                    20.63037,
                    51.1742599
                ]
            },
            "properties": {
                "isced:level": "1;2",
                "ref:rspo": 66128,
                "official_name": "Publiczna Szko\u0142a Podstawowa im. Ppor. Karola Niedzielskiego \u201eDobosza\u201d w Niek\u0142aniu Wielkim",
                "name": "Publiczna Szko\u0142a Podstawowa",
                "addr:postcode": "26-220",
                "addr:city": "Niek\u0142a\u0144 Wielki",
                "addr:street": "Szkolna",
                "addr:housenumber": "4",
                "addr:city:simc": 272017,
                "addr:street:sym_ul": 21970,
                "phone": "+48 413744014",
                "email": "nieklan@interia.pl",
                "website": "http:\/\/pspnieklan.szkolnastrona.pl\/",
                "ref:regon": "001183190",
                "operator": "Gmina St\u0105pork\u00f3w",
                "operator:type": "government",
                "amenity": "school"
            }
        },
        {
            "id": 270249,
            "type": "Feature",
            "geometry": {
                "type": "Point",
                "coordinates": [
                    20.616670608521,
                    51.183330535889
                ]
            },
            "properties": {
                "ref:rspo": 270249,
                "official_name": "Niepubliczne Przedszkole \u201ePrzedszkole Smerf\u201d",
                "name": "Niepubliczne Przedszkole \u201ePrzedszkole Smerf\u201d",
                "addr:postcode": "26-220",
                "addr:place": "Niek\u0142a\u0144 Wielki",
                "addr:housenumber": "16",
                "addr:city:simc": 272017,
                "phone": "+48 502867456",
                "email": "snrrwk@o2.pl",
                "ref:regon": "382258308",
                "operator": "Stowarzyszenie Wspierania Edukacji I Rozwoju",
                "operator:type": "ngo",
                "amenity": "kindergarten"
            }
        }
    ]
}