{"type":"FeatureCollection","features":[{"id":87168,"type":"Feature","geometry":{"type":"Point","coordinates":[16.64623,51.09619]},"properties":{"ref:rspo":87168,"official_name":"Punkt Przedszkolny w Rakoszycach","name":"Punkt Przedszkolny w Rakoszycach","addr:country":"PL","addr:postcode":"55-300","addr:city":"Rakoszyce","addr:street":"ul. Wroc\u0142awska","addr:housenumber":"44","addr:teryt:simc":24806,"addr:teryt:sym_ul":880946,"contact:phone":"+48 713970527","contact:email":"zsrakoszyce@poczta.fm","ref:regon":"021481701","operator":"Gmina \u015aroda \u015al\u0105ska","operator:type":"government","amenity":"kindergarten"}},{"id":87374,"type":"Feature","geometry":{"type":"Point","coordinates":[16.64623,51.09616]},"properties":{"isced:level":"1;2","ref:rspo":87374,"official_name":"Szko\u0142a Podstawowa im. Sybirak\u00f3w w Rakoszycach","name":"Szko\u0142a Podstawowa","addr:country":"PL","addr:postcode":"55-300","addr:city":"Rakoszyce","addr:street":"ul. Wroc\u0142awska","addr:housenumber":"44","addr:teryt:simc":24806,"addr:teryt:sym_ul":880946,"contact:phone":"+48 713970527","contact:email":"szkola.rakoszyce@interia.pl","contact:website":"http:\/\/www.szkolarakoszyce.pl","ref:regon":"001180984","ref:vatin":"PL9131493166","operator":"Gmina \u015aroda \u015al\u0105ska","operator:type":"government","amenity":"school"}},{"id":127787,"type":"Feature","geometry":{"type":"Point","coordinates":[16.65782,51.09643]},"properties":{"ref:rspo":127787,"official_name":"Powiatowy Zesp\u00f3\u0142 Plac\u00f3wek O\u015bwiatowych","name":"Powiatowy Zesp\u00f3\u0142 Plac\u00f3wek O\u015bwiatowych","addr:country":"PL","addr:postcode":"55-300","addr:city":"\u015aroda \u015al\u0105ska","addr:street":"ul. Wroc\u0142awska","addr:housenumber":"2","addr:teryt:simc":24806,"addr:teryt:sym_ul":987348,"contact:phone":"+48 713173868","contact:email":"ppp@powiat-sredzki.pl","contact:website":"http:\/\/ppp.powiat-sredzki.pl","ref:regon":"361843799","operator":"Powiat \u015aredzki","operator:type":"government","landuse":"education","fixme":"amenity=school, amenity=college albo landuse=education w zale\u017cno\u015bci od tego, jakie plac\u00f3wki wchodz\u0105 w sk\u0142ad zespo\u0142u. Sprawd\u017a, kiedy stosowa\u0107 amenity=* a kiedy landuse=education.","note":"Children RSPO: 20552;22638"}},{"id":20552,"type":"Feature","geometry":{"type":"Point","coordinates":[16.65782,51.096399999999996]},"properties":{"ref:rspo":20552,"official_name":"Poradnia Psychologiczno-Pedagogiczna","name":"Poradnia Psychologiczno-Pedagogiczna","addr:country":"PL","addr:postcode":"55-300","addr:city":"\u015aroda \u015al\u0105ska","addr:street":"ul. Wroc\u0142awska","addr:housenumber":"2","addr:teryt:simc":24806,"addr:teryt:sym_ul":987348,"contact:phone":"+48 713173868","contact:email":"ppp@powiat-sredzki.pl","contact:website":"http:\/\/www.ppp.powiat-sredzki.pl","ref:regon":"020066779","ref:vatin":"PL9131559741","operator":"Powiat \u015aredzki","operator:type":"government","healthcare":"councelling","counselling_type":"education","fixme":"w zale\u017cno\u015bci od przedmiotu dzia\u0142alno\u015bci (np. healthcare=councelling + counselling_type=education albo healthcare=psychotherapist)","note":"Parent RSPO: 127787"}},{"id":19834,"type":"Feature","geometry":{"type":"Point","coordinates":[16.65589,51.09657]},"properties":{"ref:rspo":19834,"official_name":"Powiatowy Zesp\u00f3\u0142 Szk\u00f3\u0142 Nr 1 im. Miko\u0142aja Kopernika w \u015arodzie \u015aL\u0105skiej","name":"Powiatowy Zesp\u00f3\u0142 Szk\u00f3\u0142 Nr 1","addr:country":"PL","addr:postcode":"55-300","addr:city":"\u015aroda \u015al\u0105ska","addr:street":"ul. Wroc\u0142awska","addr:housenumber":"12","addr:teryt:simc":24806,"addr:teryt:sym_ul":987348,"contact:phone":"+48 713173239","contact:email":"pzsp1@powiat-sredzki.pl","contact:website":"http:\/\/www.pszp1.powiat-sredzki.pl","ref:regon":"000191833","ref:vatin":"PL9131096459","operator":"Powiat \u015aredzki","operator:type":"government","landuse":"education","fixme":"amenity=school, amenity=college albo landuse=education w zale\u017cno\u015bci od tego, jakie plac\u00f3wki wchodz\u0105 w sk\u0142ad zespo\u0142u. Sprawd\u017a, kiedy stosowa\u0107 amenity=* a kiedy landuse=education.","note":"Children RSPO: 22643;22646;22647;22648"}},{"id":22643,"type":"Feature","geometry":{"type":"Point","coordinates":[16.65589,51.09654]},"properties":{"isced:level":"3","ref:rspo":22643,"official_name":"Liceum Og\u00f3lnokszta\u0142c\u0105ce","name":"Liceum Og\u00f3lnokszta\u0142c\u0105ce","addr:country":"PL","addr:postcode":"55-300","addr:city":"\u015aroda \u015al\u0105ska","addr:street":"ul. Wroc\u0142awska","addr:housenumber":"12","addr:teryt:simc":24806,"addr:teryt:sym_ul":987348,"contact:phone":"+48 713173239","contact:email":"pzsp1@powiat-sredzki.pl","contact:website":"http:\/\/www.pzsp1.powiat-sredzki.pl","ref:regon":"932826514","operator":"Powiat \u015aredzki","operator:type":"government","amenity":"school","note":"Parent RSPO: 19834"}},{"id":22646,"type":"Feature","geometry":{"type":"Point","coordinates":[16.65589,51.09651]},"properties":{"isced:level":"3","ref:rspo":22646,"official_name":"Technikum Nr 1","name":"Technikum Nr 1","addr:country":"PL","addr:postcode":"55-300","addr:city":"\u015aroda \u015al\u0105ska","addr:street":"ul. Wroc\u0142awska","addr:housenumber":"12","addr:teryt:simc":24806,"addr:teryt:sym_ul":987348,"contact:phone":"+48 713173239","contact:email":"pzsp1@powiat-sredzki.pl","contact:website":"http:\/\/www.pzsp1.powiat-sredzki.pl","ref:regon":"932826508","operator":"Powiat \u015aredzki","operator:type":"government","amenity":"school","note":"Parent RSPO: 19834"}},{"id":22647,"type":"Feature","geometry":{"type":"Point","coordinates":[16.65589,51.09648]},"properties":{"isced:level":"3","ref:rspo":22647,"official_name":"Liceum Og\u00f3lnokszta\u0142c\u0105ce dla Doros\u0142ych","name":"Liceum Og\u00f3lnokszta\u0142c\u0105ce dla Doros\u0142ych","addr:country":"PL","addr:postcode":"55-300","addr:city":"\u015aroda \u015al\u0105ska","addr:street":"ul. Wroc\u0142awska","addr:housenumber":"12","addr:teryt:simc":24806,"addr:teryt:sym_ul":987348,"contact:phone":"+48 713173239","contact:email":"pzsp1@powiat-sredzki.pl","contact:website":"http:\/\/www.pszp1.powiat-sredzki.pl","ref:regon":"020137976","operator":"Powiat \u015aredzki","operator:type":"government","amenity":"school","note":"Parent RSPO: 19834"}},{"id":22648,"type":"Feature","geometry":{"type":"Point","coordinates":[16.65589,51.09645]},"properties":{"isced:level":"3","ref:rspo":22648,"official_name":"Bran\u017cowa Szko\u0142a I Stopnia Nr 1","name":"Bran\u017cowa Szko\u0142a I Stopnia Nr 1","addr:country":"PL","addr:postcode":"55-300","addr:city":"\u015aroda \u015al\u0105ska","addr:street":"ul. Wroc\u0142awska","addr:housenumber":"12","addr:teryt:simc":24806,"addr:teryt:sym_ul":987348,"contact:phone":"+48 713173239","contact:email":"pzsp1@powiat-sredzki.pl","contact:website":"http:\/\/www.pzsp1.powiat-sredzki.pl","ref:regon":"932826483","operator":"Powiat \u015aredzki","operator:type":"government","amenity":"school","note":"Parent RSPO: 19834"}},{"id":22638,"type":"Feature","geometry":{"type":"Point","coordinates":[16.6560099,51.09697]},"properties":{"ref:rspo":22638,"official_name":"Biblioteka Pedagogiczna","name":"Biblioteka Pedagogiczna","addr:country":"PL","addr:postcode":"55-300","addr:city":"\u015aroda \u015al\u0105ska","addr:street":"ul. Wroc\u0142awska","addr:housenumber":"10","addr:teryt:simc":24806,"addr:teryt:sym_ul":987348,"contact:phone":"+48 713172926","contact:email":"poe@powiat-sredzki.pl","contact:website":"http:\/\/poe.powiat-sredzki.pl","ref:regon":"021976182","operator":"Powiat \u015aredzki","operator:type":"government","amenity":"library","note":"Parent RSPO: 127787"}},{"id":88419,"type":"Feature","geometry":{"type":"Point","coordinates":[16.56522,51.12672]},"properties":{"isced:level":"1;2","ref:rspo":88419,"official_name":"Szko\u0142a Podstawowa im. Noblist\u00f3w Polskich w Ciechowie","name":"Szko\u0142a Podstawowa","addr:country":"PL","addr:postcode":"55-300","addr:city":"Ciech\u00f3w","addr:street":"ul. \u015aredzka","addr:housenumber":"1","addr:teryt:simc":22414,"addr:teryt:sym_ul":880780,"contact:phone":"+48 713172400","contact:email":"ciechow@interia.pl","contact:website":"http:\/\/www.zsciechow.pl","ref:regon":"001181015","ref:vatin":"PL9131522519","operator":"Gmina \u015aroda \u015al\u0105ska","operator:type":"government","amenity":"school"}},{"id":81117,"type":"Feature","geometry":{"type":"Point","coordinates":[16.56556,51.13073]},"properties":{"ref:rspo":81117,"official_name":"Przedszkole Publiczne w Ciechowie","name":"Przedszkole Publiczne w Ciechowie","addr:country":"PL","addr:postcode":"55-300","addr:city":"Ciech\u00f3w","addr:street":"ul. Osiedlowa","addr:housenumber":"6","addr:teryt:simc":15300,"addr:teryt:sym_ul":880780,"contact:phone":"+48 713173362","contact:email":"przedszkole.ciechow@srodaslaska.pl","ref:regon":"021427328","ref:vatin":"PL9131609344","operator":"Gmina \u015aroda \u015al\u0105ska","operator:type":"government","amenity":"kindergarten"}},{"id":133194,"type":"Feature","geometry":{"type":"Point","coordinates":[16.59758,51.16193]},"properties":{"ref:rspo":133194,"official_name":"Punkt Przedszkolny Pentliczek 2","name":"Punkt Przedszkolny Pentliczek 2","addr:country":"PL","addr:postcode":"55-300","addr:city":"\u015aroda \u015al\u0105ska","addr:street":"ul. Adama Mickiewicza","addr:housenumber":"1A","addr:teryt:simc":12740,"addr:teryt:sym_ul":987348,"contact:phone":"+48 732722365","contact:email":"biuro@entli.pl","contact:website":"http:\/\/www.entli.pl","ref:regon":"366789811","operator":"Sebastian St\u0119pniak","operator:type":"private","amenity":"kindergarten"}},{"id":83068,"type":"Feature","geometry":{"type":"Point","coordinates":[16.595140457153,51.163570404053]},"properties":{"ref:rspo":83068,"official_name":"Entliczek Niepubliczne Przedszkole w \u015arodzie \u015aL\u0105skiej","name":"Entliczek Niepubliczne Przedszkole w \u015arodzie \u015aL\u0105skiej","addr:country":"PL","addr:postcode":"55-300","addr:city":"\u015aroda \u015al\u0105ska","addr:street":"ul. Wawrzy\u0144ca Korwina","addr:housenumber":"2","addr:teryt:simc":9389,"addr:teryt:sym_ul":987348,"contact:phone":"+48 713961934","contact:email":"biuro@entli.pl","ref:regon":"022008473","ref:vatin":"PL9131397913","operator":"Sebastian St\u0119pniak","operator:type":"private","amenity":"kindergarten"}},{"id":74261,"type":"Feature","geometry":{"type":"Point","coordinates":[16.59189,51.16407]},"properties":{"ref:rspo":74261,"official_name":"Bhp-Partner","name":"Bhp-Partner","addr:country":"PL","addr:postcode":"55-300","addr:city":"\u015aroda \u015al\u0105ska","addr:street":"ul. Legnicka","addr:housenumber":"1","addr:teryt:simc":10780,"addr:teryt:sym_ul":987348,"contact:phone":"+48 502141936","contact:email":"biuro@bhppartner.com.pl","contact:website":"http:\/\/www.bhppartner.com.pl","ref:regon":"022002401","ref:vatin":"PL9131503309","operator":"Tomasz Hamka\u0142o","operator:type":"private","fixme":"w zale\u017cno\u015bci od przedmiotu dzia\u0142alno\u015bci (np. amenity=training + training=*, amenity=dancing_school, amenity=language_school, amenity=music_school)"}},{"id":81007,"type":"Feature","geometry":{"type":"Point","coordinates":[16.60113,51.16467]},"properties":{"isced:level":"1;2","ref:rspo":81007,"official_name":"Szko\u0142a Podstawowa Nr 3 im. W\u0142adys\u0142awa Broniewskiego w \u015arodzie \u015aL\u0105skiej","name":"Szko\u0142a Podstawowa Nr 3","addr:country":"PL","addr:postcode":"55-300","addr:city":"\u015aroda \u015al\u0105ska","addr:street":"ul. G\u00f3rna","addr:housenumber":"1","addr:teryt:simc":5948,"addr:teryt:sym_ul":987348,"contact:phone":"+48 713172470","contact:email":"szkola3.dyrektor@srodaslaska.pl","contact:website":"http:\/\/sp-srodaslaska.edupage.org","ref:regon":"000555086","ref:vatin":"PL9131493108","operator":"Gmina \u015aroda \u015al\u0105ska","operator:type":"government","amenity":"school"}},{"id":120440,"type":"Feature","geometry":{"type":"Point","coordinates":[16.5994237,51.1647565]},"properties":{"ref:rspo":120440,"official_name":"Punkt Przedszkolny Pentliczek","name":"Punkt Przedszkolny Pentliczek","addr:country":"PL","addr:postcode":"55-300","addr:city":"\u015aroda \u015al\u0105ska","addr:street":"ul. Partyzant\u00f3w","addr:housenumber":"12","addr:teryt:simc":15733,"addr:teryt:sym_ul":987348,"contact:phone":"+48 601776365","ref:regon":"022264041","operator":"Sebastian St\u0119pniak","operator:type":"private","amenity":"kindergarten"}},{"id":111099,"type":"Feature","geometry":{"type":"Point","coordinates":[16.58683,51.16478]},"properties":{"ref:rspo":111099,"official_name":"O\u015brodek Rehabilitacyjno-Edukacyjny w \u015arodzie \u015aL\u0105skiej","name":"O\u015brodek Rehabilitacyjno-Edukacyjny w \u015arodzie \u015aL\u0105skiej","addr:country":"PL","addr:postcode":"55-300","addr:city":"\u015aroda \u015al\u0105ska","addr:street":"ul. Malczycka","addr:housenumber":"4","addr:teryt:simc":12042,"addr:teryt:sym_ul":987348,"contact:phone":"+48 713175102","contact:email":"ore.sroda@ostoja.org.pl","contact:website":"http:\/\/www.ostoja.org.pl","ref:regon":"022090954","ref:vatin":"PL8971547751","operator":"Stowarzyszenie \"Ostoja\" Na Rzecz Os\u00f3b Z Niepe\u0142nosprawno\u015bciami","operator:type":"ngo","amenity":"kindergarten"}},{"id":8840,"type":"Feature","geometry":{"type":"Point","coordinates":[16.59174,51.16483]},"properties":{"isced:level":"3","ref:rspo":8840,"official_name":"Niepubliczne Liceum Og\u00f3lnokszta\u0142c\u0105ce dla Doros\u0142ych","name":"Niepubliczne Liceum Og\u00f3lnokszta\u0142c\u0105ce dla Doros\u0142ych","addr:country":"PL","addr:postcode":"55-300","addr:city":"\u015aroda \u015al\u0105ska","addr:street":"ul. \u015bw. Andrzeja","addr:housenumber":"4","addr:teryt:simc":303,"addr:teryt:sym_ul":987348,"contact:phone":"+48 713172083","contact:email":"pawe.dzioba@neostrada.pl","ref:regon":"021954648","ref:vatin":"PL9291227485","operator":"Pawe\u0142 Dzioba","operator:type":"private","amenity":"school"}},{"id":19833,"type":"Feature","geometry":{"type":"Point","coordinates":[16.59174,51.1648]},"properties":{"ref:rspo":19833,"official_name":"Powiatowy Zesp\u00f3\u0142 Szk\u00f3\u0142 Nr 2 im. Wincentego Witosa w \u015arodzie \u015aL\u0105skiej","name":"Powiatowy Zesp\u00f3\u0142 Szk\u00f3\u0142 Nr 2","addr:country":"PL","addr:postcode":"55-300","addr:city":"\u015aroda \u015al\u0105ska","addr:street":"ul. \u015bw. Andrzeja","addr:housenumber":"4","addr:teryt:simc":303,"addr:teryt:sym_ul":987348,"contact:phone":"+48 713172083","contact:email":"pzsp2@powiat-sredzki.pl","contact:website":"http:\/\/www.pzsp2.powiat-sredzki.pl","ref:regon":"000945261","ref:vatin":"PL9131022455","operator":"Powiat \u015aredzki","operator:type":"government","landuse":"education","fixme":"amenity=school, amenity=college albo landuse=education w zale\u017cno\u015bci od tego, jakie plac\u00f3wki wchodz\u0105 w sk\u0142ad zespo\u0142u. Sprawd\u017a, kiedy stosowa\u0107 amenity=* a kiedy landuse=education.","note":"Children RSPO: 24086;24088"}},{"id":24086,"type":"Feature","geometry":{"type":"Point","coordinates":[16.59174,51.164770000000004]},"properties":{"isced:level":"3","ref:rspo":24086,"official_name":"Bran\u017cowa Szko\u0142a I Stopnia Nr 2","name":"Bran\u017cowa Szko\u0142a I Stopnia Nr 2","addr:country":"PL","addr:postcode":"55-300","addr:city":"\u015aroda \u015al\u0105ska","addr:street":"ul. \u015bw. Andrzeja","addr:housenumber":"4","addr:teryt:simc":303,"addr:teryt:sym_ul":987348,"contact:phone":"+48 713172083","contact:email":"pzsp2@powiat-sredzki.pl","contact:website":"http:\/\/www.pzsp2.powiat-sredzki.pl","ref:regon":"932849018","operator":"Powiat \u015aredzki","operator:type":"government","amenity":"school","note":"Parent RSPO: 19833"}},{"id":24088,"type":"Feature","geometry":{"type":"Point","coordinates":[16.59174,51.16474]},"properties":{"isced:level":"3","ref:rspo":24088,"official_name":"Technikum Nr 2","name":"Technikum Nr 2","addr:country":"PL","addr:postcode":"55-300","addr:city":"\u015aroda \u015al\u0105ska","addr:street":"ul. \u015bw. Andrzeja","addr:housenumber":"4","addr:teryt:simc":303,"addr:teryt:sym_ul":987348,"contact:phone":"+48 713172083","contact:email":"pzsp2@powiat-sredzki.pl","contact:website":"http:\/\/www.pzsp2.powiat-sredzki.pl","ref:regon":"932849001","operator":"Powiat \u015aredzki","operator:type":"government","amenity":"school","note":"Parent RSPO: 19833"}},{"id":86526,"type":"Feature","geometry":{"type":"Point","coordinates":[16.59444,51.16524]},"properties":{"ref:rspo":86526,"official_name":"Niepubliczne Przedszkole Si\u00f3str Salezjanek","name":"Niepubliczne Przedszkole Si\u00f3str Salezjanek","addr:country":"PL","addr:postcode":"55-300","addr:city":"\u015aroda \u015al\u0105ska","addr:street":"ul. Ignacego Daszy\u0144skiego","addr:housenumber":"7","addr:teryt:simc":3639,"addr:teryt:sym_ul":987348,"contact:phone":"+48 713172290","contact:email":"przedszkolny@wp.pl","ref:regon":"022011920","ref:vatin":"PL9131397801","operator":"Zgromadzenie C\u00f3rek Maryi Wspomo\u017cycielki (Siostry Salezjanki) Inspektoria Wroc\u0142awska","operator:type":"religious","amenity":"kindergarten"}},{"id":105979,"type":"Feature","geometry":{"type":"Point","coordinates":[16.5968,51.16658]},"properties":{"ref:rspo":105979,"official_name":"O\u015brodek Rewalidacyjno-Wychowawczy","name":"O\u015brodek Rewalidacyjno-Wychowawczy","addr:country":"PL","addr:postcode":"55-300","addr:city":"\u015aroda \u015al\u0105ska","addr:street":"ul. Jana Kili\u0144skiego","addr:housenumber":"30","addr:teryt:simc":8435,"addr:teryt:sym_ul":987348,"contact:phone":"+48 713175102","contact:email":"sekretariat@ostoja.org.pl","ref:regon":"022043676","operator":"Stowarzyszenie \"Ostoja\" Na Rzecz Os\u00f3b Z Niepe\u0142nosprawno\u015bciami","operator:type":"ngo","amenity":"school"}},{"id":131806,"type":"Feature","geometry":{"type":"Point","coordinates":[16.59566,51.1669]},"properties":{"ref:rspo":131806,"official_name":"Przedszkole Publiczne Nr 1 w \u015arodzie \u015aL\u0105skiej","name":"Przedszkole Publiczne Nr 1 w \u015arodzie \u015aL\u0105skiej","addr:country":"PL","addr:postcode":"55-300","addr:city":"\u015aroda \u015al\u0105ska","addr:street":"ul. Strzelecka","addr:housenumber":"6","addr:teryt:simc":21381,"addr:teryt:sym_ul":987348,"contact:phone":"+48 713173332","contact:email":"zzp.sroda@srodaslaska.pl","ref:regon":"365357191","ref:vatin":"PL9131609278","operator":"Gmina \u015aroda \u015al\u0105ska","operator:type":"government","amenity":"kindergarten"}},{"id":81119,"type":"Feature","geometry":{"type":"Point","coordinates":[16.59695,51.16818]},"properties":{"ref:rspo":81119,"official_name":"Przedszkole Publiczne Nr 3 w \u015arodzie \u015aL\u0105skiej","name":"Przedszkole Publiczne Nr 3 w \u015arodzie \u015aL\u0105skiej","addr:country":"PL","addr:postcode":"55-300","addr:city":"\u015aroda \u015al\u0105ska","addr:street":"ul. Jana Kili\u0144skiego","addr:housenumber":"31A","addr:teryt:simc":8435,"addr:teryt:sym_ul":987348,"contact:phone":"+48 713173488","contact:email":"dyrektor.przedszkole3@srodaslaska.pl","ref:regon":"021426323","ref:vatin":"PL9131609410","operator":"Gmina \u015aroda \u015al\u0105ska","operator:type":"government","amenity":"kindergarten"}},{"id":19835,"type":"Feature","geometry":{"type":"Point","coordinates":[16.59926,51.17036]},"properties":{"ref:rspo":19835,"official_name":"Specjalny O\u015brodek Szkolno-Wychowawczy im. Janusza Korczaka w \u015arodzie \u015aL\u0105skiej","name":"Specjalny O\u015brodek Szkolno-Wychowawczy","addr:country":"PL","addr:postcode":"55-300","addr:city":"\u015aroda \u015al\u0105ska","addr:street":"ul. Jana Kili\u0144skiego","addr:housenumber":"33","addr:teryt:simc":8435,"addr:teryt:sym_ul":987348,"contact:phone":"+48 713172181","contact:email":"soszw@powiat-sredzki.pl","contact:website":"http:\/\/soszw.powiat-sredzki.pl","ref:regon":"000702245","ref:vatin":"PL9131312325","operator":"Powiat \u015aredzki","operator:type":"government","amenity":"school","note":"Children RSPO: 10342;22640;22642"}},{"id":10342,"type":"Feature","geometry":{"type":"Point","coordinates":[16.59926,51.17033]},"properties":{"ref:rspo":10342,"official_name":"Szko\u0142a Specjalna Przysposabiaj\u0105ca Do Pracy","name":"Szko\u0142a Specjalna Przysposabiaj\u0105ca Do Pracy","addr:country":"PL","addr:postcode":"55-300","addr:city":"\u015aroda \u015al\u0105ska","addr:street":"ul. Jana Kili\u0144skiego","addr:housenumber":"33","addr:teryt:simc":8435,"addr:teryt:sym_ul":987348,"contact:phone":"+48 713172181","contact:email":"soszw@powiat-sredzki.pl","ref:regon":"021955263","ref:vatin":"PL9131312325","operator":"Powiat \u015aredzki","operator:type":"government","amenity":"school","note":"Parent RSPO: 19835"}},{"id":22640,"type":"Feature","geometry":{"type":"Point","coordinates":[16.59926,51.170300000000005]},"properties":{"isced:level":"1;2","ref:rspo":22640,"official_name":"Szko\u0142a Podstawowa Specjalna","name":"Szko\u0142a Podstawowa Specjalna","addr:country":"PL","addr:postcode":"55-300","addr:city":"\u015aroda \u015al\u0105ska","addr:street":"ul. Jana Kili\u0144skiego","addr:housenumber":"33","addr:teryt:simc":8435,"addr:teryt:sym_ul":987348,"contact:phone":"+48 713172181","contact:email":"soszw@powiat-sredzki.pl","contact:website":"http:\/\/soszw.powiat-sredzki.pl","ref:regon":"001012420","operator":"Powiat \u015aredzki","operator:type":"government","amenity":"school","note":"Parent RSPO: 19835"}},{"id":22642,"type":"Feature","geometry":{"type":"Point","coordinates":[16.59926,51.17027]},"properties":{"isced:level":"3","ref:rspo":22642,"official_name":"Bran\u017cowa Szko\u0142a I Stopnia Specjalna","name":"Bran\u017cowa Szko\u0142a I Stopnia Specjalna","addr:country":"PL","addr:postcode":"55-300","addr:city":"\u015aroda \u015al\u0105ska","addr:street":"ul. Jana Kili\u0144skiego","addr:housenumber":"33","addr:teryt:simc":8435,"addr:teryt:sym_ul":987348,"contact:phone":"+48 713172181","contact:email":"soszw@powiat-sredzki.pl","contact:website":"http:\/\/soszw.powiat-sredzki.pl","ref:regon":"930236079","operator":"Powiat \u015aredzki","operator:type":"government","amenity":"school","note":"Parent RSPO: 19835"}},{"id":81504,"type":"Feature","geometry":{"type":"Point","coordinates":[16.61081,51.19824]},"properties":{"isced:level":"1;2","ref:rspo":81504,"official_name":"Szko\u0142a Podstawowa w Szczepanowie","name":"Szko\u0142a Podstawowa w Szczepanowie","addr:country":"PL","addr:postcode":"55-300","addr:city":"Szczepan\u00f3w","addr:street":"ul. \u015aredzka","addr:housenumber":"14","addr:teryt:simc":22414,"addr:teryt:sym_ul":880975,"contact:phone":"+48 713172226","contact:email":"szkola.szczepanow@srodaslaska.pl","ref:regon":"001181009","ref:vatin":"PL9131493137","operator":"Gmina \u015aroda \u015al\u0105ska","operator:type":"government","amenity":"school"}},{"id":123438,"type":"Feature","geometry":{"type":"Point","coordinates":[16.61009,51.20002]},"properties":{"ref:rspo":123438,"official_name":"Przedszkole Publiczne w Szczepanowie","name":"Przedszkole Publiczne w Szczepanowie","addr:country":"PL","addr:postcode":"55-300","addr:city":"Szczepan\u00f3w","addr:street":"ul. \u015aredzka","addr:housenumber":"19A","addr:teryt:simc":22414,"addr:teryt:sym_ul":880975,"contact:phone":"+48 713990597","contact:email":"przed-zlobek@srodaslaska.pl","ref:regon":"022446670","ref:vatin":"PL9131616924","operator":"Gmina \u015aroda \u015al\u0105ska","operator:type":"government","amenity":"kindergarten"}}]}