{
    "type": "FeatureCollection",
    "features": [
        {
            "id": 7008,
            "type": "Feature",
            "geometry": {
                "type": "Point",
                "coordinates": [
                    16.48494,
                    51.15374
                ]
            },
            "properties": {
                "isced:level": "1;2",
                "ref:rspo": 7008,
                "official_name": "Szko\u0142a Podstawowa im. Skarb\u00f3w Dolnego \u015aL\u0105ska w Malczycach",
                "name": "Szko\u0142a Podstawowa",
                "addr:postcode": "55-320",
                "addr:city": "Malczyce",
                "addr:street": "Szkolna",
                "addr:housenumber": "6",
                "addr:teryt:simc": 876940,
                "addr:teryt:sym_ul": 21970,
                "phone": "+48 713179174",
                "email": "sp.malczyce@wp.pl",
                "website": "https:\/\/szkola-malczyce.edupage.org\/",
                "ref:regon": "000592383",
                "ref:vatin": "PL9131500185",
                "operator": "Gmina Malczyce",
                "operator:type": "government",
                "amenity": "school"
            }
        },
        {
            "id": 13151,
            "type": "Feature",
            "geometry": {
                "type": "Point",
                "coordinates": [
                    16.48935,
                    51.21744
                ]
            },
            "properties": {
                "ref:rspo": 13151,
                "official_name": "Publiczne Przedszkole w Malczycach",
                "name": "Publiczne Przedszkole w Malczycach",
                "addr:postcode": "55-320",
                "addr:city": "Malczyce",
                "addr:street": "Klonowa",
                "addr:housenumber": "1",
                "addr:teryt:simc": 876940,
                "addr:teryt:sym_ul": 8574,
                "phone": "+48 713179511",
                "email": "przedmal@wp.pl",
                "website": "http:\/\/www.publiczneprzedszkole.malczyce.edu.pl",
                "ref:regon": "001012324",
                "ref:vatin": "PL9131500222",
                "operator": "Gmina Malczyce",
                "operator:type": "government",
                "amenity": "kindergarten"
            }
        }
    ]
}