{
    "type": "FeatureCollection",
    "features": [
        {
            "id": 267910,
            "type": "Feature",
            "geometry": {
                "type": "Point",
                "coordinates": [
                    16.78213,
                    51.13157
                ]
            },
            "properties": {
                "ref:rspo": 267910,
                "official_name": "Zesp\u00f3\u0142 Szkolno-Przedszkolny w Lutyni",
                "name": "Zesp\u00f3\u0142 Szkolno-Przedszkolny w Lutyni",
                "addr:postcode": "55-330",
                "addr:city": "Lutynia",
                "addr:street": "Polna",
                "addr:housenumber": "1B",
                "addr:city:simc": 877387,
                "addr:street:sym_ul": 17011,
                "phone": "+48 713171293",
                "email": "zespol.lutynia@op.pl",
                "ref:regon": "380753251",
                "ref:vatin": "PL9131627017",
                "operator": "Gmina Mi\u0119kinia",
                "operator:type": "government",
                "landuse": "education",
                "fixme": "amenity=school, amenity=college albo landuse=education w zale\u017cno\u015bci od tego, jakie plac\u00f3wki wchodz\u0105 w sk\u0142ad zespo\u0142u. Sprawd\u017a, kiedy stosowa\u0107 amenity=* a kiedy landuse=education.",
                "note": "Children RSPO: 53595;266346"
            }
        },
        {
            "id": 53595,
            "type": "Feature",
            "geometry": {
                "type": "Point",
                "coordinates": [
                    16.78213,
                    51.13154
                ]
            },
            "properties": {
                "isced:level": "1;2",
                "ref:rspo": 53595,
                "official_name": "Szko\u0142a Podstawowa w Lutyni",
                "name": "Szko\u0142a Podstawowa w Lutyni",
                "addr:postcode": "55-330",
                "addr:city": "Lutynia",
                "addr:street": "Polna",
                "addr:housenumber": "1B",
                "addr:city:simc": 877387,
                "addr:street:sym_ul": 17011,
                "phone": "+48 713171293",
                "email": "zespol.lutynia@op.pl",
                "website": "http:\/\/zsp-lutynia.pl",
                "ref:regon": "000704110",
                "ref:vatin": "PL9131557251",
                "operator": "Gmina Mi\u0119kinia",
                "operator:type": "government",
                "amenity": "school",
                "note": "Parent RSPO: 267910"
            }
        },
        {
            "id": 266346,
            "type": "Feature",
            "geometry": {
                "type": "Point",
                "coordinates": [
                    16.78213,
                    51.131510000000006
                ]
            },
            "properties": {
                "ref:rspo": 266346,
                "official_name": "Przedszkole Publiczne w Lutyni",
                "name": "Przedszkole Publiczne w Lutyni",
                "addr:postcode": "55-330",
                "addr:city": "Lutynia",
                "addr:street": "Polna",
                "addr:housenumber": "1A",
                "addr:city:simc": 877387,
                "addr:street:sym_ul": 17011,
                "phone": "+48 713171293",
                "email": "zespol.lutynia@op.pl",
                "ref:regon": "369436763",
                "ref:vatin": "PL9131625975",
                "operator": "Gmina Mi\u0119kinia",
                "operator:type": "government",
                "amenity": "kindergarten",
                "note": "Parent RSPO: 267910"
            }
        },
        {
            "id": 275257,
            "type": "Feature",
            "geometry": {
                "type": "Point",
                "coordinates": [
                    16.78731,
                    51.13478
                ]
            },
            "properties": {
                "ref:rspo": 275257,
                "official_name": "Przedszkole Niepubliczne Zak\u0105tek Malucha",
                "name": "Przedszkole Niepubliczne Zak\u0105tek Malucha",
                "addr:postcode": "55-330",
                "addr:city": "Lutynia",
                "addr:street": "Ko\u015bcielna",
                "addr:housenumber": "2",
                "addr:city:simc": 877387,
                "addr:street:sym_ul": 9546,
                "phone": "+48 536006443",
                "email": "zakatek.malucha.lutynia@gmail.com",
                "website": "http:\/\/zakatekmalucha.pl",
                "ref:regon": "386734846",
                "operator": "Anna Stankiewicz",
                "operator:type": "private",
                "amenity": "kindergarten"
            }
        },
        {
            "id": 272522,
            "type": "Feature",
            "geometry": {
                "type": "Point",
                "coordinates": [
                    16.77963,
                    51.13564
                ]
            },
            "properties": {
                "ref:rspo": 272522,
                "official_name": "Przedszkole Niepubliczne Bajkowa Lutynia",
                "name": "Przedszkole Niepubliczne Bajkowa Lutynia",
                "addr:postcode": "55-330",
                "addr:city": "Lutynia",
                "addr:street": "Tadeusza Ko\u015bciuszki",
                "addr:housenumber": "48",
                "addr:city:simc": 877387,
                "addr:street:sym_ul": 9572,
                "phone": "+48 797353899",
                "email": "kontakt@bajkowalutynia.pl",
                "website": "http:\/\/www.bajkowalutynia.pl",
                "ref:regon": "384262337",
                "operator": "Katarzyna Sidor",
                "operator:type": "private",
                "amenity": "kindergarten"
            }
        },
        {
            "id": 127579,
            "type": "Feature",
            "geometry": {
                "type": "Point",
                "coordinates": [
                    16.79043,
                    51.15641
                ]
            },
            "properties": {
                "ref:rspo": 127579,
                "official_name": "Akacjowe Przedszkole Niepubliczne Przedszkole we Wr\u00f3blowicach",
                "name": "Akacjowe Przedszkole Niepubliczne Przedszkole we Wr\u00f3blowicach",
                "addr:postcode": "55-330",
                "addr:city": "Wr\u00f3blowice",
                "addr:street": "Akacjowa",
                "addr:housenumber": "5",
                "addr:city:simc": 877542,
                "addr:street:sym_ul": 157,
                "phone": "+48 600032104",
                "email": "pmatkowska@gmail.com",
                "ref:regon": "361728800",
                "ref:vatin": "PL9131530418",
                "operator": "Paulina Matkowska-Sapieja",
                "operator:type": "private",
                "amenity": "kindergarten"
            }
        },
        {
            "id": 272500,
            "type": "Feature",
            "geometry": {
                "type": "Point",
                "coordinates": [
                    16.784700393677,
                    51.158298492432
                ]
            },
            "properties": {
                "ref:rspo": 272500,
                "official_name": "Przedszkole Niepubliczne Niebieski S\u0142onik",
                "name": "Przedszkole Niepubliczne Niebieski S\u0142onik",
                "addr:postcode": "55-330",
                "addr:city": "Wr\u00f3blowice",
                "addr:street": "Stefana Batorego",
                "addr:housenumber": "12",
                "addr:city:simc": 877542,
                "addr:street:sym_ul": 891,
                "email": "iwonapuszkar@op.pl",
                "ref:regon": "384261013",
                "ref:vatin": "PL8861303723",
                "operator": "Iwona Puszkar",
                "operator:type": "private",
                "amenity": "kindergarten"
            }
        },
        {
            "id": 128137,
            "type": "Feature",
            "geometry": {
                "type": "Point",
                "coordinates": [
                    16.74167,
                    51.16467
                ]
            },
            "properties": {
                "ref:rspo": 128137,
                "official_name": "O\u015brodek Szkoleniowy Helikon-Tex Sp. z o.o.",
                "name": "O\u015brodek Szkoleniowy Helikon-Tex Sp. z o.o.",
                "addr:postcode": "55-330",
                "addr:city": "B\u0142onie",
                "addr:street": "Zachodnia",
                "addr:housenumber": "9",
                "addr:city:simc": 877170,
                "addr:street:sym_ul": 25305,
                "phone": "+48 797301100",
                "email": "j.mieszczak@helikon-tex.com",
                "website": "https:\/\/helikon-tex.com",
                "ref:regon": "362136450",
                "ref:vatin": "PL8943037908",
                "operator": "Entire M Sp\u00f3\u0142ka Z Ograniczon\u0105 Odpowiedzialno\u015bci\u0105",
                "operator:type": "consortium",
                "fixme": "w zale\u017cno\u015bci od przedmiotu dzia\u0142alno\u015bci (np. amenity=training + training=*, amenity=dancing_school, amenity=language_school, amenity=music_school) albo amenity=school, amenity=college, albo landuse=education w zale\u017cno\u015bci od tego, jakie plac\u00f3wki wchodz\u0105 w sk\u0142ad zespo\u0142u. Sprawd\u017a, kiedy stosowa\u0107 amenity=* a kiedy landuse=education."
            }
        },
        {
            "id": 35032,
            "type": "Feature",
            "geometry": {
                "type": "Point",
                "coordinates": [
                    16.7825099,
                    51.1882499
                ]
            },
            "properties": {
                "ref:rspo": 35032,
                "official_name": "Niepubliczne Przedszkole \"Sasanka\" w Mrozowie",
                "name": "Niepubliczne Przedszkole \"Sasanka\" w Mrozowie",
                "addr:postcode": "55-330",
                "addr:city": "Mroz\u00f3w",
                "addr:street": "Boles\u0142awa Chrobrego",
                "addr:housenumber": "20",
                "addr:city:simc": 877447,
                "addr:street:sym_ul": 1742,
                "phone": "+48 713170795",
                "email": "sasanka2015@interia.pl",
                "ref:regon": "021989368",
                "operator": "Mrozowskie Stowarzyszenie Rozwoju \u015arodowiska Lokalnego \"Mrozovia\"",
                "operator:type": "ngo",
                "amenity": "kindergarten"
            }
        },
        {
            "id": 274478,
            "type": "Feature",
            "geometry": {
                "type": "Point",
                "coordinates": [
                    16.85361,
                    51.19107
                ]
            },
            "properties": {
                "ref:rspo": 274478,
                "official_name": "Niepubliczna Poradnia Psychologiczno-Pedagogiczna Edumentor",
                "name": "Niepubliczna Poradnia Psychologiczno-Pedagogiczna Edumentor",
                "addr:postcode": "55-330",
                "addr:city": "Wilkszyn",
                "addr:street": "Wiosenna",
                "addr:housenumber": "14",
                "addr:city:simc": 877520,
                "addr:street:sym_ul": 24364,
                "phone": "+48 713141660",
                "email": "aniaroza@icloud.com",
                "ref:regon": "385832363",
                "ref:vatin": "PL8942392636",
                "operator": "Anna Leszczy\u0144ska",
                "operator:type": "private",
                "healthcare": "counselling",
                "counselling_type": "education",
                "fixme": "w zale\u017cno\u015bci od przedmiotu dzia\u0142alno\u015bci (np. healthcare=counselling + counselling_type=education albo healthcare=psychotherapist)"
            }
        },
        {
            "id": 34618,
            "type": "Feature",
            "geometry": {
                "type": "Point",
                "coordinates": [
                    16.74248,
                    51.19286
                ]
            },
            "properties": {
                "ref:rspo": 34618,
                "official_name": "Zesp\u00f3\u0142 Szkolno-Przedszkolny w Mi\u0119kini",
                "name": "Zesp\u00f3\u0142 Szkolno-Przedszkolny w Mi\u0119kini",
                "addr:postcode": "55-330",
                "addr:city": "Mi\u0119kinia",
                "addr:street": "Szkolna",
                "addr:housenumber": "2",
                "addr:city:simc": 877424,
                "addr:street:sym_ul": 21970,
                "phone": "+48 717360071",
                "email": "sekretariat.zsp@miekinia.pl",
                "website": "http:\/\/www.sp.miekinia.com",
                "ref:regon": "933025006",
                "ref:vatin": "PL9131557222",
                "operator": "Gmina Mi\u0119kinia",
                "operator:type": "government",
                "landuse": "education",
                "fixme": "amenity=school, amenity=college albo landuse=education w zale\u017cno\u015bci od tego, jakie plac\u00f3wki wchodz\u0105 w sk\u0142ad zespo\u0142u. Sprawd\u017a, kiedy stosowa\u0107 amenity=* a kiedy landuse=education.",
                "note": "Children RSPO: 53592;53594"
            }
        },
        {
            "id": 53592,
            "type": "Feature",
            "geometry": {
                "type": "Point",
                "coordinates": [
                    16.74248,
                    51.19283
                ]
            },
            "properties": {
                "isced:level": "1;2",
                "ref:rspo": 53592,
                "official_name": "Szko\u0142a Podstawowa w Mi\u0119kini",
                "name": "Szko\u0142a Podstawowa w Mi\u0119kini",
                "addr:postcode": "55-330",
                "addr:city": "Mi\u0119kinia",
                "addr:street": "Szkolna",
                "addr:housenumber": "2",
                "addr:city:simc": 877424,
                "addr:street:sym_ul": 21970,
                "phone": "+48 717360071",
                "email": "sp.miekinia@wp.pl",
                "website": "http:\/\/www.sp.miekinia.com",
                "ref:regon": "000592377",
                "ref:vatin": "PL9131557191",
                "operator": "Gmina Mi\u0119kinia",
                "operator:type": "government",
                "amenity": "school",
                "note": "Parent RSPO: 34618"
            }
        },
        {
            "id": 53594,
            "type": "Feature",
            "geometry": {
                "type": "Point",
                "coordinates": [
                    16.74248,
                    51.192800000000005
                ]
            },
            "properties": {
                "ref:rspo": 53594,
                "official_name": "Publiczne Przedszkole w Mi\u0119kini im.or\u0142a Bia\u0142ego",
                "name": "Publiczne Przedszkole w Mi\u0119kini im.or\u0142a Bia\u0142ego",
                "addr:postcode": "55-330",
                "addr:city": "Mi\u0119kinia",
                "addr:street": "Szkolna",
                "addr:housenumber": "2",
                "addr:city:simc": 877424,
                "addr:street:sym_ul": 21970,
                "phone": "+48 717360075",
                "email": "sp.przedszkole@op.pl",
                "ref:regon": "000925531",
                "ref:vatin": "PL9131557216",
                "operator": "Gmina Mi\u0119kinia",
                "operator:type": "government",
                "amenity": "kindergarten",
                "note": "Parent RSPO: 34618"
            }
        },
        {
            "id": 34620,
            "type": "Feature",
            "geometry": {
                "type": "Point",
                "coordinates": [
                    16.84893,
                    51.2094
                ]
            },
            "properties": {
                "ref:rspo": 34620,
                "official_name": "Zesp\u00f3\u0142 Szkolno-Przedszkolny w Pisarzowicach",
                "name": "Zesp\u00f3\u0142 Szkolno-Przedszkolny w Pisarzowicach",
                "addr:postcode": "55-330",
                "addr:city": "Pisarzowice",
                "addr:street": "Szkolna",
                "addr:housenumber": "3",
                "addr:door": "A",
                "addr:city:simc": 877476,
                "addr:street:sym_ul": 21970,
                "phone": "+48 713171169",
                "email": "pisarzowicesp@wp.pl",
                "website": "https:\/\/sppisarzowice.szkolnastrona.pl\/",
                "ref:regon": "021918990",
                "ref:vatin": "PL9131615250",
                "operator": "Gmina Mi\u0119kinia",
                "operator:type": "government",
                "landuse": "education",
                "fixme": "amenity=school, amenity=college albo landuse=education w zale\u017cno\u015bci od tego, jakie plac\u00f3wki wchodz\u0105 w sk\u0142ad zespo\u0142u. Sprawd\u017a, kiedy stosowa\u0107 amenity=* a kiedy landuse=education.",
                "note": "Children RSPO: 53598;53599"
            }
        },
        {
            "id": 53598,
            "type": "Feature",
            "geometry": {
                "type": "Point",
                "coordinates": [
                    16.84893,
                    51.20937
                ]
            },
            "properties": {
                "isced:level": "1;2",
                "ref:rspo": 53598,
                "official_name": "Szko\u0142a Podstawowa w Pisarzowicach im.piast\u00f3w \u015aL\u0105skich",
                "name": "Szko\u0142a Podstawowa w Pisarzowicach im.piast\u00f3w \u015aL\u0105skich",
                "addr:postcode": "55-330",
                "addr:city": "Pisarzowice",
                "addr:street": "Szkolna",
                "addr:housenumber": "3A",
                "addr:city:simc": 877476,
                "addr:street:sym_ul": 21970,
                "phone": "+48 713171169",
                "email": "pisarzowicesp@wp.pl",
                "ref:regon": "001268615",
                "ref:vatin": "PL9131557179",
                "operator": "Gmina Mi\u0119kinia",
                "operator:type": "government",
                "amenity": "school",
                "note": "Parent RSPO: 34620"
            }
        },
        {
            "id": 53599,
            "type": "Feature",
            "geometry": {
                "type": "Point",
                "coordinates": [
                    16.84893,
                    51.209340000000005
                ]
            },
            "properties": {
                "ref:rspo": 53599,
                "official_name": "Przedszkole Publiczne w Pisarzowicach im.piast\u00f3w Sl\u0105skich",
                "name": "Przedszkole Publiczne w Pisarzowicach im.piast\u00f3w Sl\u0105skich",
                "addr:postcode": "55-330",
                "addr:city": "Pisarzowice",
                "addr:street": "Szkolna",
                "addr:housenumber": "3B",
                "addr:city:simc": 877476,
                "addr:street:sym_ul": 21970,
                "phone": "+48 713177777",
                "ref:regon": "021858011",
                "ref:vatin": "PL9131614894",
                "operator": "Gmina Mi\u0119kinia",
                "operator:type": "government",
                "amenity": "kindergarten",
                "note": "Parent RSPO: 34620"
            }
        },
        {
            "id": 271096,
            "type": "Feature",
            "geometry": {
                "type": "Point",
                "coordinates": [
                    16.823150634766,
                    51.21656036377
                ]
            },
            "properties": {
                "ref:rspo": 271096,
                "official_name": "O\u015brodek Szkolno - Kursowy Edusport",
                "name": "O\u015brodek Szkolno - Kursowy Edusport",
                "addr:postcode": "55-330",
                "addr:city": "Brzezinka \u015aredzka",
                "addr:street": "Cisowa",
                "addr:housenumber": "11",
                "addr:city:simc": 877192,
                "addr:street:sym_ul": 3098,
                "email": "walendowicz@op.pl",
                "ref:regon": "383084320",
                "operator": "Marcin Walendowicz",
                "operator:type": "private",
                "fixme": "w zale\u017cno\u015bci od przedmiotu dzia\u0142alno\u015bci (np. amenity=training + training=*, amenity=dancing_school, amenity=language_school, amenity=music_school)"
            }
        }
    ]
}