{
    "type": "FeatureCollection",
    "features": [
        {
            "id": 81418,
            "type": "Feature",
            "geometry": {
                "type": "Point",
                "coordinates": [
                    16.53941,
                    51.02802
                ]
            },
            "properties": {
                "isced:level": "1;2",
                "ref:rspo": 81418,
                "official_name": "Szko\u0142a Podstawowa w Mieczkowie",
                "name": "Szko\u0142a Podstawowa w Mieczkowie",
                "addr:postcode": "55-311",
                "addr:place": "Mieczk\u00f3w",
                "addr:housenumber": "14",
                "addr:city:simc": 876086,
                "phone": "+48 713170250",
                "email": "spmieczkow@wp.pl",
                "website": "http:\/\/www.spmieczkow.szkolnastrona.pl",
                "ref:regon": "001181759",
                "ref:vatin": "PL9131602448",
                "operator": "Gmina Kostom\u0142oty",
                "operator:type": "government",
                "amenity": "school"
            }
        },
        {
            "id": 107582,
            "type": "Feature",
            "geometry": {
                "type": "Point",
                "coordinates": [
                    16.6844,
                    51.03305
                ]
            },
            "properties": {
                "ref:rspo": 107582,
                "official_name": "Zesp\u00f3\u0142 Szkolno-Przedszkolny \"Nasza Szko\u0142a\"",
                "name": "Zesp\u00f3\u0142 Szkolno-Przedszkolny \"Nasza Szko\u0142a\"",
                "addr:postcode": "55-311",
                "addr:city": "Piotrowice",
                "addr:street": "G\u0142\u00f3wna",
                "addr:housenumber": "65",
                "addr:city:simc": 876146,
                "addr:street:sym_ul": 5635,
                "email": "sppiotrowice@interia.pl",
                "ref:regon": "022062640",
                "operator": "Stowarzyszenie \"Nasza Szko\u0142a\" W Piotrowicach",
                "operator:type": "ngo",
                "landuse": "education",
                "fixme": "amenity=school, amenity=college albo landuse=education w zale\u017cno\u015bci od tego, jakie plac\u00f3wki wchodz\u0105 w sk\u0142ad zespo\u0142u. Sprawd\u017a, kiedy stosowa\u0107 amenity=* a kiedy landuse=education.",
                "note": "Children RSPO: 106911;107340"
            }
        },
        {
            "id": 106911,
            "type": "Feature",
            "geometry": {
                "type": "Point",
                "coordinates": [
                    16.6823,
                    51.0349
                ]
            },
            "properties": {
                "isced:level": "1;2",
                "ref:rspo": 106911,
                "official_name": "Szko\u0142a Podstawowa \"Nasza Szko\u0142a\"",
                "name": "Szko\u0142a Podstawowa \"Nasza Szko\u0142a\"",
                "addr:postcode": "55-311",
                "addr:place": "Piotrowice",
                "addr:housenumber": "31",
                "addr:city:simc": 876146,
                "phone": "+48 713970286",
                "email": "sppiotrowice@interia.pl",
                "ref:regon": "022055490",
                "operator": "Stowarzyszenie \"Nasza Szko\u0142a\" W Piotrowicach",
                "operator:type": "ngo",
                "amenity": "school",
                "note": "Parent RSPO: 107582"
            }
        },
        {
            "id": 107340,
            "type": "Feature",
            "geometry": {
                "type": "Point",
                "coordinates": [
                    16.6823,
                    51.03487
                ]
            },
            "properties": {
                "ref:rspo": 107340,
                "official_name": "Niepubliczne Przedszkole Stowarzyszenia \"Nasza Szko\u0142a\"",
                "name": "Niepubliczne Przedszkole Stowarzyszenia \"Nasza Szko\u0142a\"",
                "addr:postcode": "55-311",
                "addr:place": "Piotrowice",
                "addr:housenumber": "31",
                "addr:city:simc": 876146,
                "phone": "+48 713970286",
                "email": "sppiotrowice@interia.pl",
                "ref:regon": "022060255",
                "operator": "Stowarzyszenie \"Nasza Szko\u0142a\" W Piotrowicach",
                "operator:type": "ngo",
                "amenity": "kindergarten",
                "note": "Parent RSPO: 107582"
            }
        },
        {
            "id": 81417,
            "type": "Feature",
            "geometry": {
                "type": "Point",
                "coordinates": [
                    16.61573,
                    51.04303
                ]
            },
            "properties": {
                "isced:level": "1;2",
                "ref:rspo": 81417,
                "official_name": "Szko\u0142a Podstawowa im.marii Konopnickiej w Kostom\u0142otach",
                "name": "Szko\u0142a Podstawowa im.marii Konopnickiej w Kostom\u0142otach",
                "addr:postcode": "55-311",
                "addr:city": "Kostom\u0142oty",
                "addr:street": "Wroc\u0142awska",
                "addr:housenumber": "10",
                "addr:city:simc": 876063,
                "addr:street:sym_ul": 24806,
                "phone": "+48 713170206",
                "email": "spkostomloty@op.pl",
                "website": "http:\/\/spkostomloty.eu",
                "ref:regon": "000563364",
                "ref:vatin": "PL9131602230",
                "operator": "Gmina Kostom\u0142oty",
                "operator:type": "government",
                "amenity": "school"
            }
        },
        {
            "id": 83706,
            "type": "Feature",
            "geometry": {
                "type": "Point",
                "coordinates": [
                    16.74249,
                    51.1024
                ]
            },
            "properties": {
                "isced:level": "1;2",
                "ref:rspo": 83706,
                "official_name": "Szko\u0142a Podstawowa im. \u015aw. Jana Boskow Karczycach",
                "name": "Szko\u0142a Podstawowa",
                "addr:postcode": "55-311",
                "addr:place": "Karczyce",
                "addr:housenumber": "12",
                "addr:city:simc": 876040,
                "phone": "+48 713171876",
                "email": "spkarczyce@o2.pl",
                "website": "http:\/\/spkarczyce.szkolnastrona.pl\/",
                "ref:regon": "001181742",
                "ref:vatin": "PL9131601609",
                "operator": "Gmina Kostom\u0142oty",
                "operator:type": "government",
                "amenity": "school"
            }
        }
    ]
}