{
    "type": "FeatureCollection",
    "features": [
        {
            "id": 127028,
            "type": "Feature",
            "geometry": {
                "type": "Point",
                "coordinates": [
                    16.52921,
                    53.15348
                ]
            },
            "properties": {
                "ref:rspo": 127028,
                "official_name": "Przedszkole Niepubliczne Caritas nr 2 w Le\u017cenicy Przy Centrum Charytatywno-Opieku\u0144czym Caritas Diecezji Koszali\u0144sko-Ko\u0142obrzeskiej",
                "name": "Przedszkole Niepubliczne Caritas nr 2 w Le\u017cenicy Przy Centrum Charytatywno-Opieku\u0144czym Caritas Diecezji Koszali\u0144sko-Ko\u0142obrzeskiej",
                "addr:postcode": "64-930",
                "addr:place": "Le\u017cenica",
                "addr:housenumber": "39",
                "addr:city:simc": 529918,
                "email": "przedszkolecaritas2@wp.pl",
                "ref:regon": "361040860",
                "operator": "Caritas Diecezji Koszali\u0144sko-Ko\u0142obrzeskiej",
                "operator:type": "religious",
                "amenity": "kindergarten"
            }
        },
        {
            "id": 28225,
            "type": "Feature",
            "geometry": {
                "type": "Point",
                "coordinates": [
                    16.60999,
                    53.16361
                ]
            },
            "properties": {
                "ref:rspo": 28225,
                "official_name": "Zesp\u00f3\u0142 Szk\u00f3\u0142 im. Janusza Korczaka w Szyd\u0142owie",
                "name": "Zesp\u00f3\u0142 Szk\u00f3\u0142",
                "addr:postcode": "64-930",
                "addr:place": "Szyd\u0142owo",
                "addr:housenumber": "43",
                "addr:city:simc": 530063,
                "phone": "+48 672161129",
                "email": "zsszydlowo@interia.pl",
                "website": "http:\/\/www.zsszydlowo.edupage.org",
                "ref:regon": "570874832",
                "operator": "Gmina Szyd\u0142owo",
                "operator:type": "government",
                "landuse": "education",
                "fixme": "amenity=school, amenity=college albo landuse=education w zale\u017cno\u015bci od tego, jakie plac\u00f3wki wchodz\u0105 w sk\u0142ad zespo\u0142u. Sprawd\u017a, kiedy stosowa\u0107 amenity=* a kiedy landuse=education.",
                "note": "Children RSPO: 54090;54091"
            }
        },
        {
            "id": 54090,
            "type": "Feature",
            "geometry": {
                "type": "Point",
                "coordinates": [
                    16.60999,
                    53.163579999999996
                ]
            },
            "properties": {
                "isced:level": "1;2",
                "ref:rspo": 54090,
                "official_name": "Szko\u0142a Podstawowa w Szyd\u0142owie",
                "name": "Szko\u0142a Podstawowa w Szyd\u0142owie",
                "addr:postcode": "64-930",
                "addr:place": "Szyd\u0142owo",
                "addr:housenumber": "43",
                "addr:city:simc": 530063,
                "phone": "+48 672161129",
                "email": "zsszydlowo@interia.pl",
                "website": "http:\/\/www.zsszydlowo.pl",
                "ref:regon": "000807719",
                "ref:vatin": "PL7642236676",
                "operator": "Gmina Szyd\u0142owo",
                "operator:type": "government",
                "amenity": "school",
                "note": "Parent RSPO: 28225"
            }
        },
        {
            "id": 54091,
            "type": "Feature",
            "geometry": {
                "type": "Point",
                "coordinates": [
                    16.60999,
                    53.16355
                ]
            },
            "properties": {
                "ref:rspo": 54091,
                "official_name": "Przedszkole w Szyd\u0142owie",
                "name": "Przedszkole w Szyd\u0142owie",
                "addr:postcode": "64-930",
                "addr:place": "Szyd\u0142owo",
                "addr:housenumber": "43",
                "addr:city:simc": 530063,
                "phone": "+48 672161129",
                "ref:regon": "570875636",
                "ref:vatin": "PL7642236676",
                "operator": "Gmina Szyd\u0142owo",
                "operator:type": "government",
                "amenity": "kindergarten",
                "note": "Parent RSPO: 28225"
            }
        },
        {
            "id": 28228,
            "type": "Feature",
            "geometry": {
                "type": "Point",
                "coordinates": [
                    16.57771,
                    53.20488
                ]
            },
            "properties": {
                "isced:level": "1;2",
                "ref:rspo": 28228,
                "official_name": "Szko\u0142a Podstawowa im. Bohater\u00f3w Wyzwolenia Ziemi Wa\u0142eckiej w Skrzatuszu",
                "name": "Szko\u0142a Podstawowa",
                "addr:postcode": "64-930",
                "addr:city": "Skrzatusz",
                "addr:street": "Rafa\u0142a Leszczy\u0144skiego",
                "addr:housenumber": "1",
                "addr:city:simc": 529999,
                "addr:street:sym_ul": 45157,
                "phone": "+48 672161229",
                "email": "szkola_skrzatusz@poczta.onet.pl",
                "website": "http:\/\/spskrzatusz.superszkolna.pl",
                "ref:regon": "001148791",
                "operator": "Gmina Szyd\u0142owo",
                "operator:type": "government",
                "amenity": "school"
            }
        },
        {
            "id": 28226,
            "type": "Feature",
            "geometry": {
                "type": "Point",
                "coordinates": [
                    16.68833,
                    53.22788
                ]
            },
            "properties": {
                "ref:rspo": 28226,
                "official_name": "Zesp\u00f3\u0142 Szk\u00f3\u0142 im. W\u0142adys\u0142awa Stanis\u0142awa Reymonta w Starej \u0141ubiance",
                "name": "Zesp\u00f3\u0142 Szk\u00f3\u0142",
                "addr:postcode": "64-932",
                "addr:city": "Stara \u0141ubianka",
                "addr:street": "Polna",
                "addr:housenumber": "8",
                "addr:city:simc": 530040,
                "addr:street:sym_ul": 17011,
                "phone": "+48 672160119",
                "email": "szkola@zsstaralubianka.pl",
                "website": "http:\/\/www.zsstaralubianka.pl",
                "ref:regon": "570874849",
                "operator": "Gmina Szyd\u0142owo",
                "operator:type": "government",
                "landuse": "education",
                "fixme": "amenity=school, amenity=college albo landuse=education w zale\u017cno\u015bci od tego, jakie plac\u00f3wki wchodz\u0105 w sk\u0142ad zespo\u0142u. Sprawd\u017a, kiedy stosowa\u0107 amenity=* a kiedy landuse=education.",
                "note": "Children RSPO: 54093;54094"
            }
        },
        {
            "id": 54093,
            "type": "Feature",
            "geometry": {
                "type": "Point",
                "coordinates": [
                    16.68833,
                    53.22785
                ]
            },
            "properties": {
                "isced:level": "1;2",
                "ref:rspo": 54093,
                "official_name": "Szko\u0142a Podstawowa w Starej \u0141ubiance",
                "name": "Szko\u0142a Podstawowa w Starej \u0141ubiance",
                "addr:postcode": "64-932",
                "addr:city": "Stara \u0141ubianka",
                "addr:street": "Polna",
                "addr:housenumber": "8",
                "addr:city:simc": 530040,
                "addr:street:sym_ul": 17011,
                "phone": "+48 672160119",
                "email": "szkola@zsstaralubianka.pl",
                "website": "http:\/\/www.zsstaralubianka.pl",
                "ref:regon": "001149307",
                "ref:vatin": "PL7642236765",
                "operator": "Gmina Szyd\u0142owo",
                "operator:type": "government",
                "amenity": "school",
                "note": "Parent RSPO: 28226"
            }
        },
        {
            "id": 54094,
            "type": "Feature",
            "geometry": {
                "type": "Point",
                "coordinates": [
                    16.68833,
                    53.22782
                ]
            },
            "properties": {
                "ref:rspo": 54094,
                "official_name": "Przedszkole w Starej \u0141ubiance",
                "name": "Przedszkole w Starej \u0141ubiance",
                "addr:postcode": "64-932",
                "addr:city": "Stara \u0141ubianka",
                "addr:street": "Polna",
                "addr:housenumber": "8",
                "addr:city:simc": 530040,
                "addr:street:sym_ul": 17011,
                "phone": "+48 672160119",
                "email": "szkola@zsstaralubianka.pl",
                "ref:regon": "570875642",
                "ref:vatin": "PL7642236765",
                "operator": "Gmina Szyd\u0142owo",
                "operator:type": "government",
                "amenity": "kindergarten",
                "note": "Parent RSPO: 28226"
            }
        },
        {
            "id": 109132,
            "type": "Feature",
            "geometry": {
                "type": "Point",
                "coordinates": [
                    16.6916699,
                    53.22923
                ]
            },
            "properties": {
                "ref:rspo": 109132,
                "official_name": "Wielkopolskie Samorz\u0105dowe Centrum Edukacji I Terapii w Starej \u0141ubiance",
                "name": "Wielkopolskie Samorz\u0105dowe Centrum Edukacji I Terapii w Starej \u0141ubiance",
                "addr:postcode": "64-932",
                "addr:city": "Stara \u0141ubianka",
                "addr:street": "Ko\u015bciuszkowc\u00f3w",
                "addr:housenumber": "2A",
                "addr:city:simc": 530040,
                "addr:street:sym_ul": 9586,
                "phone": "+48 672160114",
                "email": "zspstaralubianka@op.pl",
                "website": "http:\/\/zspstaralubianka.pl",
                "ref:regon": "570858951",
                "ref:vatin": "PL7642393080",
                "operator": "Wojew\u00f3dztwo Wielkopolskie",
                "operator:type": "government",
                "landuse": "education",
                "fixme": "amenity=school, amenity=college albo landuse=education w zale\u017cno\u015bci od tego, jakie plac\u00f3wki wchodz\u0105 w sk\u0142ad zespo\u0142u. Sprawd\u017a, kiedy stosowa\u0107 amenity=* a kiedy landuse=education.",
                "note": "Children RSPO: 114955;114957;114969;128760;264050;268670;275826"
            }
        },
        {
            "id": 114955,
            "type": "Feature",
            "geometry": {
                "type": "Point",
                "coordinates": [
                    16.6916699,
                    53.2292
                ]
            },
            "properties": {
                "isced:level": "3",
                "ref:rspo": 114955,
                "official_name": "Bran\u017cowa Szko\u0142a I Stopnia",
                "name": "Bran\u017cowa Szko\u0142a I Stopnia",
                "addr:postcode": "64-932",
                "addr:city": "Stara \u0141ubianka",
                "addr:street": "Ko\u015bciuszkowc\u00f3w",
                "addr:housenumber": "2A",
                "addr:city:simc": 530040,
                "addr:street:sym_ul": 9586,
                "phone": "+48 672160114",
                "email": "zspstaralubianka@op.pl",
                "website": "http:\/\/www.zspstaralubianka.pl",
                "ref:regon": "570858968",
                "operator": "Wojew\u00f3dztwo Wielkopolskie",
                "operator:type": "government",
                "amenity": "school",
                "note": "Parent RSPO: 109132"
            }
        },
        {
            "id": 114957,
            "type": "Feature",
            "geometry": {
                "type": "Point",
                "coordinates": [
                    16.6916699,
                    53.22917
                ]
            },
            "properties": {
                "isced:level": "3",
                "ref:rspo": 114957,
                "official_name": "Technikum",
                "name": "Technikum",
                "addr:postcode": "64-932",
                "addr:city": "Stara \u0141ubianka",
                "addr:street": "Ko\u015bciuszkowc\u00f3w",
                "addr:housenumber": "2A",
                "addr:city:simc": 530040,
                "addr:street:sym_ul": 9586,
                "phone": "+48 672160114",
                "email": "zspstaralubianka@op.pl",
                "website": "http:\/\/www.zspstaralubianka.pl",
                "ref:regon": "570858997",
                "operator": "Wojew\u00f3dztwo Wielkopolskie",
                "operator:type": "government",
                "amenity": "school",
                "note": "Parent RSPO: 109132"
            }
        },
        {
            "id": 114969,
            "type": "Feature",
            "geometry": {
                "type": "Point",
                "coordinates": [
                    16.6916699,
                    53.22914
                ]
            },
            "properties": {
                "isced:level": "3",
                "ref:rspo": 114969,
                "official_name": "Liceum Og\u00f3lnokszta\u0142c\u0105ce",
                "name": "Liceum Og\u00f3lnokszta\u0142c\u0105ce",
                "addr:postcode": "64-932",
                "addr:city": "Stara \u0141ubianka",
                "addr:street": "Ko\u015bciuszkowc\u00f3w",
                "addr:housenumber": "2A",
                "addr:city:simc": 530040,
                "addr:street:sym_ul": 9586,
                "phone": "+48 672160114",
                "email": "zspstaralubianka@op.pl",
                "website": "http:\/\/www.zspstaralubianka.pl",
                "ref:regon": "572083810",
                "operator": "Wojew\u00f3dztwo Wielkopolskie",
                "operator:type": "government",
                "amenity": "school",
                "note": "Parent RSPO: 109132"
            }
        },
        {
            "id": 128760,
            "type": "Feature",
            "geometry": {
                "type": "Point",
                "coordinates": [
                    16.6916699,
                    53.22911
                ]
            },
            "properties": {
                "ref:rspo": 128760,
                "official_name": "Szko\u0142a Specjalna Przysposabiaj\u0105ca do Pracy",
                "name": "Szko\u0142a Specjalna Przysposabiaj\u0105ca do Pracy",
                "addr:postcode": "64-932",
                "addr:city": "Stara \u0141ubianka",
                "addr:street": "Ko\u015bciuszkowc\u00f3w",
                "addr:housenumber": "2A",
                "addr:city:simc": 530040,
                "addr:street:sym_ul": 9586,
                "phone": "+48 672160114",
                "email": "zspstaralubianka@op.pl",
                "website": "http:\/\/www.zspstaralubianka.pl",
                "ref:regon": "362380717",
                "operator": "Wojew\u00f3dztwo Wielkopolskie",
                "operator:type": "government",
                "amenity": "school",
                "note": "Parent RSPO: 109132"
            }
        },
        {
            "id": 268670,
            "type": "Feature",
            "geometry": {
                "type": "Point",
                "coordinates": [
                    16.6916699,
                    53.22908
                ]
            },
            "properties": {
                "isced:level": "3",
                "ref:rspo": 268670,
                "official_name": "Liceum Og\u00f3lnokszta\u0142c\u0105ce dla Doros\u0142ych",
                "name": "Liceum Og\u00f3lnokszta\u0142c\u0105ce dla Doros\u0142ych",
                "addr:postcode": "64-932",
                "addr:city": "Stara \u0141ubianka",
                "addr:street": "Ko\u015bciuszkowc\u00f3w",
                "addr:housenumber": "2A",
                "addr:city:simc": 530040,
                "addr:street:sym_ul": 9586,
                "phone": "+48 672160114",
                "email": "zspstaralubianka@op.pl",
                "website": "http:\/\/www.zspstaralubianka.pl",
                "ref:regon": "381231342",
                "operator": "Wojew\u00f3dztwo Wielkopolskie",
                "operator:type": "government",
                "amenity": "school",
                "note": "Parent RSPO: 109132"
            }
        },
        {
            "id": 275826,
            "type": "Feature",
            "geometry": {
                "type": "Point",
                "coordinates": [
                    16.6916699,
                    53.22905
                ]
            },
            "properties": {
                "isced:level": "4",
                "ref:rspo": 275826,
                "official_name": "Szko\u0142a Policealna",
                "name": "Szko\u0142a Policealna",
                "addr:postcode": "64-932",
                "addr:city": "Stara \u0141ubianka",
                "addr:street": "Ko\u015bciuszkowc\u00f3w",
                "addr:housenumber": "2A",
                "addr:city:simc": 530040,
                "addr:street:sym_ul": 9586,
                "phone": "+48 672160114",
                "email": "zspstaralubianka@op.pl",
                "website": "http:\/\/www.zspstaralubianka.pl",
                "ref:regon": "300928218",
                "operator": "Wojew\u00f3dztwo Wielkopolskie",
                "operator:type": "government",
                "amenity": "college",
                "note": "Parent RSPO: 109132"
            }
        },
        {
            "id": 264050,
            "type": "Feature",
            "geometry": {
                "type": "Point",
                "coordinates": [
                    16.6905537,
                    53.2299032
                ]
            },
            "properties": {
                "ref:rspo": 264050,
                "official_name": "Centrum Kszta\u0142cenia Ustawicznego",
                "name": "Centrum Kszta\u0142cenia Ustawicznego",
                "addr:postcode": "64-932",
                "addr:city": "Stara \u0141ubianka",
                "addr:street": "Ko\u015bciuszkowc\u00f3w",
                "addr:housenumber": "2",
                "addr:door": "A",
                "addr:city:simc": 530040,
                "addr:street:sym_ul": 9586,
                "phone": "+48 672160114",
                "email": "zspstaralubianka@op.pl",
                "website": "http:\/\/www.zspstaralubianka.pl",
                "ref:regon": "368255172",
                "operator": "Wojew\u00f3dztwo Wielkopolskie",
                "operator:type": "government",
                "fixme": "w zale\u017cno\u015bci od przedmiotu dzia\u0142alno\u015bci (np. amenity=training + training=*, amenity=dancing_school, amenity=language_school, amenity=music_school)",
                "note": "Parent RSPO: 109132"
            }
        }
    ]
}