{
    "type": "FeatureCollection",
    "features": [
        {
            "id": 119126,
            "type": "Feature",
            "geometry": {
                "type": "Point",
                "coordinates": [
                    14.502960205078,
                    35.87553024292
                ]
            },
            "properties": {
                "ref:rspo": 119126,
                "official_name": "Przedszkole Parafialne im.karola Wojty\u0142y",
                "name": "Przedszkole Parafialne im.karola Wojty\u0142y",
                "addr:country": "PL",
                "addr:postcode": "89-320",
                "addr:city": "Wysoka",
                "addr:street": "Plac \u015awi\u0119tego Jana Paw\u0142a II",
                "addr:housenumber": "2",
                "addr:teryt:simc": 967417,
                "addr:teryt:sym_ul": 46643,
                "contact:phone": "+48 672871022",
                "contact:email": "p-parafialne@wp.pl",
                "contact:website": "http:\/\/www.parafia-wysoka.pl",
                "ref:regon": "302511327",
                "operator": "Parafia Rzym.-Kat. Pw. Naj\u015bwi\u0119tszej Maryi Panny R\u00f3\u017ca\u0144cowej",
                "operator:type": "religious",
                "amenity": "kindergarten"
            }
        },
        {
            "id": 278471,
            "type": "Feature",
            "geometry": {
                "type": "Point",
                "coordinates": [
                    17.0057,
                    53.17008
                ]
            },
            "properties": {
                "isced:level": "1;2",
                "ref:rspo": 278471,
                "official_name": "Szko\u0142a Podstawowa im. Kardyna\u0142a Stefana Wyszy\u0144skiego w Wysokiej Szko\u0142a Filialna w Mo\u015bciskach im. Wac\u0142awa Popiela",
                "name": "Szko\u0142a Podstawowa",
                "addr:country": "PL",
                "addr:postcode": "89-320",
                "addr:place": "Mo\u015bciska",
                "addr:housenumber": "9",
                "addr:teryt:simc": 533676,
                "contact:email": "spmosciska@interia.pl",
                "ref:regon": "265023000",
                "operator": "Miasto I Gmina Wysoka",
                "operator:type": "government",
                "amenity": "school",
                "note": "Parent RSPO: 29409"
            }
        },
        {
            "id": 29409,
            "type": "Feature",
            "geometry": {
                "type": "Point",
                "coordinates": [
                    17.089,
                    53.18433
                ]
            },
            "properties": {
                "isced:level": "1;2",
                "ref:rspo": 29409,
                "official_name": "Szko\u0142a Podstawowa im.kardyna\u0142a Stefana Wyszy\u0144skiego",
                "name": "Szko\u0142a Podstawowa im.kardyna\u0142a Stefana Wyszy\u0144skiego",
                "addr:country": "PL",
                "addr:postcode": "89-320",
                "addr:city": "Wysoka",
                "addr:street": "Szkolna",
                "addr:housenumber": "4",
                "addr:teryt:simc": 967417,
                "addr:teryt:sym_ul": 21970,
                "contact:phone": "+48 672871032",
                "contact:email": "spwysoka@spwysoka.strefa.pl",
                "contact:website": "http:\/\/www.spwysoka.strefa.pl",
                "ref:regon": "000265023",
                "ref:vatin": "PL7641809064",
                "operator": "Miasto I Gmina Wysoka",
                "operator:type": "government",
                "amenity": "school",
                "note": "Children RSPO: 278471;278472"
            }
        },
        {
            "id": 278472,
            "type": "Feature",
            "geometry": {
                "type": "Point",
                "coordinates": [
                    17.11992,
                    53.19082
                ]
            },
            "properties": {
                "isced:level": "1;2",
                "ref:rspo": 278472,
                "official_name": "Szko\u0142a Podstawowa im. Kardyna\u0142a Stefana Wyszy\u0144skiego w Wysokiej Szko\u0142a Filialna w Czajczu im. Jana Paw\u0142a Ii",
                "name": "Szko\u0142a Podstawowa",
                "addr:country": "PL",
                "addr:postcode": "89-320",
                "addr:place": "Czajcze",
                "addr:housenumber": "26",
                "addr:teryt:simc": 533624,
                "contact:email": "czajczeszkola@gmail.com",
                "ref:regon": "265023000",
                "operator": "Miasto I Gmina Wysoka",
                "operator:type": "government",
                "amenity": "school",
                "note": "Parent RSPO: 29409"
            }
        },
        {
            "id": 273003,
            "type": "Feature",
            "geometry": {
                "type": "Point",
                "coordinates": [
                    17.16421,
                    53.20695
                ]
            },
            "properties": {
                "ref:rspo": 273003,
                "official_name": "M\u0142odzie\u017cowy O\u015brodek Socjoterapii w Kijaszkowie",
                "name": "M\u0142odzie\u017cowy O\u015brodek Socjoterapii w Kijaszkowie",
                "addr:country": "PL",
                "addr:postcode": "89-320",
                "addr:place": "Kijaszkowo",
                "addr:housenumber": "23",
                "addr:teryt:simc": 533653,
                "contact:phone": "+48 672147824",
                "contact:email": "mos-kijaszkowo@wp.pl",
                "ref:regon": "384351621",
                "operator": "Powiat Pilski",
                "operator:type": "government",
                "fixme": "amenity=social_facility + social_facility=group_home + social_facility:for=juvenile",
                "note": "Parent RSPO: 272369"
            }
        }
    ]
}