{
    "type": "FeatureCollection",
    "features": [
        {
            "id": 56529,
            "type": "Feature",
            "geometry": {
                "type": "Point",
                "coordinates": [
                    16.92391,
                    53.09322
                ]
            },
            "properties": {
                "ref:rspo": 56529,
                "official_name": "Publiczne Przedszkole w Rzadkowie",
                "name": "Publiczne Przedszkole w Rzadkowie",
                "addr:postcode": "64-810",
                "addr:city": "Rzadkowo",
                "addr:street": "Dworska",
                "addr:housenumber": "1",
                "addr:teryt:simc": 526541,
                "addr:teryt:sym_ul": 4446,
                "phone": "+48 672831163",
                "email": "rzadkowoprzedszkole@interia.pl",
                "ref:regon": "570298630",
                "operator": "Miasto I Gmina Kaczory",
                "operator:type": "government",
                "amenity": "kindergarten"
            }
        },
        {
            "id": 56534,
            "type": "Feature",
            "geometry": {
                "type": "Point",
                "coordinates": [
                    16.88597,
                    53.09827
                ]
            },
            "properties": {
                "ref:rspo": 56534,
                "official_name": "Publiczne Przedszkole w Kaczorach",
                "name": "Publiczne Przedszkole w Kaczorach",
                "addr:postcode": "64-810",
                "addr:city": "Kaczory",
                "addr:street": "Plac Jana Paw\u0142a II",
                "addr:housenumber": "30",
                "addr:teryt:simc": 526469,
                "addr:teryt:sym_ul": 7122,
                "phone": "+48 672842394",
                "email": "przedszkole.kaczory@wp.pl",
                "website": "http:\/\/www.ppkaczory.szkolnastrona.pl",
                "ref:regon": "570298713",
                "operator": "Miasto I Gmina Kaczory",
                "operator:type": "government",
                "amenity": "kindergarten"
            }
        },
        {
            "id": 56549,
            "type": "Feature",
            "geometry": {
                "type": "Point",
                "coordinates": [
                    16.89609,
                    53.10056
                ]
            },
            "properties": {
                "isced:level": "1;2",
                "ref:rspo": 56549,
                "official_name": "Szko\u0142a Podstawowa im. Powsta\u0144c\u00f3w Wielkopolskich w Dziembowie",
                "name": "Szko\u0142a Podstawowa",
                "addr:postcode": "64-810",
                "addr:city": "Dziembowo",
                "addr:street": "Akacjowa",
                "addr:housenumber": "2",
                "addr:teryt:simc": 526423,
                "addr:teryt:sym_ul": 157,
                "phone": "+48 672842715",
                "email": "spdz4@wp.pl",
                "ref:regon": "001149388",
                "operator": "Miasto I Gmina Kaczory",
                "operator:type": "government",
                "amenity": "school"
            }
        },
        {
            "id": 121534,
            "type": "Feature",
            "geometry": {
                "type": "Point",
                "coordinates": [
                    16.89617,
                    53.10133
                ]
            },
            "properties": {
                "ref:rspo": 121534,
                "official_name": "Centrum Szkole\u0144I Zdrowego Stylu \u017bycia Activ&Diet Kamila Lema\u0144ska",
                "name": "Centrum Szkole\u0144I Zdrowego Stylu \u017bycia Activ&Diet Kamila Lema\u0144ska",
                "addr:postcode": "64-810",
                "addr:city": "Kaczory",
                "addr:street": "Osiedle Przylesie",
                "addr:housenumber": "5",
                "addr:door": "6",
                "addr:teryt:simc": 526469,
                "addr:teryt:sym_ul": 17951,
                "phone": "+48 515706943",
                "ref:regon": "302626705",
                "operator": "Kamila Lema\u0144ska",
                "operator:type": "private",
                "fixme": "w zale\u017cno\u015bci od przedmiotu dzia\u0142alno\u015bci (np. amenity=training + training=*, amenity=dancing_school, amenity=language_school, amenity=music_school)"
            }
        },
        {
            "id": 56552,
            "type": "Feature",
            "geometry": {
                "type": "Point",
                "coordinates": [
                    16.88282,
                    53.10165
                ]
            },
            "properties": {
                "isced:level": "1;2",
                "ref:rspo": 56552,
                "official_name": "Szko\u0142a Podstawowa im. \u015aw. Jana Paw\u0142a II w Kaczorach",
                "name": "Szko\u0142a Podstawowa",
                "addr:postcode": "64-810",
                "addr:city": "Kaczory",
                "addr:street": "Chodzieska",
                "addr:housenumber": "5",
                "addr:teryt:simc": 526469,
                "addr:teryt:sym_ul": 2812,
                "phone": "+48 672842318",
                "email": "spkaczory@o2.pl",
                "website": "http:\/\/www.spkaczory.szkolnastrona.pl",
                "ref:regon": "000807694",
                "operator": "Miasto I Gmina Kaczory",
                "operator:type": "government",
                "amenity": "school"
            }
        },
        {
            "id": 56530,
            "type": "Feature",
            "geometry": {
                "type": "Point",
                "coordinates": [
                    16.88769,
                    53.10165
                ]
            },
            "properties": {
                "ref:rspo": 56530,
                "official_name": "Publiczne Przedszkole w Morzewie",
                "name": "Publiczne Przedszkole w Morzewie",
                "addr:postcode": "64-810",
                "addr:city": "Morzewo",
                "addr:street": "Ko\u015bcielna",
                "addr:housenumber": "10",
                "addr:teryt:simc": 526506,
                "addr:teryt:sym_ul": 9546,
                "phone": "+48 672842437",
                "email": "przedszkolemorzewo@op.pl",
                "ref:regon": "570298653",
                "operator": "Miasto I Gmina Kaczory",
                "operator:type": "government",
                "amenity": "kindergarten"
            }
        },
        {
            "id": 56525,
            "type": "Feature",
            "geometry": {
                "type": "Point",
                "coordinates": [
                    16.879,
                    53.10349
                ]
            },
            "properties": {
                "ref:rspo": 56525,
                "official_name": "Publiczne Przedszkole w Dziembowie",
                "name": "Publiczne Przedszkole w Dziembowie",
                "addr:postcode": "64-810",
                "addr:city": "Dziembowo",
                "addr:street": "Sportowa",
                "addr:housenumber": "3",
                "addr:teryt:simc": 526423,
                "addr:teryt:sym_ul": 20683,
                "phone": "+48 672841139",
                "email": "przedszkole.dziembowo@onet.pl",
                "ref:regon": "570298771",
                "operator": "Miasto I Gmina Kaczory",
                "operator:type": "government",
                "amenity": "kindergarten"
            }
        },
        {
            "id": 56535,
            "type": "Feature",
            "geometry": {
                "type": "Point",
                "coordinates": [
                    16.9127,
                    53.13715
                ]
            },
            "properties": {
                "ref:rspo": 56535,
                "official_name": "Publiczne Przedszkole w \u015ami\u0142owie",
                "name": "Publiczne Przedszkole w \u015ami\u0142owie",
                "addr:postcode": "64-810",
                "addr:city": "\u015ami\u0142owo",
                "addr:street": "Pilska",
                "addr:housenumber": "40",
                "addr:teryt:simc": 526558,
                "addr:teryt:sym_ul": 16238,
                "phone": "+48 672838724",
                "email": "przedszkole.smilowo@vp.pl",
                "ref:regon": "570298647",
                "operator": "Miasto I Gmina Kaczory",
                "operator:type": "government",
                "amenity": "kindergarten"
            }
        },
        {
            "id": 56547,
            "type": "Feature",
            "geometry": {
                "type": "Point",
                "coordinates": [
                    16.9127,
                    53.137119999999996
                ]
            },
            "properties": {
                "isced:level": "1;2",
                "ref:rspo": 56547,
                "official_name": "Szko\u0142a Podstawowa im. Stra\u017cy Granicznej II Rzeczpospolitej w \u015ami\u0142owie",
                "name": "Szko\u0142a Podstawowa",
                "addr:postcode": "64-810",
                "addr:city": "\u015ami\u0142owo",
                "addr:street": "Pilska",
                "addr:housenumber": "40",
                "addr:teryt:simc": 526558,
                "addr:teryt:sym_ul": 16238,
                "phone": "+48 672838755",
                "email": "spsmilowo@poczta.fm",
                "website": "http:\/\/www.spsmilowo.szkolnastrona.pl",
                "ref:regon": "001148503",
                "operator": "Miasto I Gmina Kaczory",
                "operator:type": "government",
                "amenity": "school"
            }
        },
        {
            "id": 56531,
            "type": "Feature",
            "geometry": {
                "type": "Point",
                "coordinates": [
                    17.07705,
                    53.18442
                ]
            },
            "properties": {
                "ref:rspo": 56531,
                "official_name": "Publiczne Przedszkole w Dziemb\u00f3wku",
                "name": "Publiczne Przedszkole w Dziemb\u00f3wku",
                "addr:postcode": "64-810",
                "addr:city": "Dziemb\u00f3wko",
                "addr:street": "Dworcowa",
                "addr:housenumber": "19",
                "addr:teryt:simc": 526446,
                "addr:teryt:sym_ul": 4434,
                "phone": "+48 672842158",
                "email": "przedszkoledziembowko@op.pl",
                "ref:regon": "570298759",
                "operator": "Miasto I Gmina Kaczory",
                "operator:type": "government",
                "amenity": "kindergarten"
            }
        },
        {
            "id": 56533,
            "type": "Feature",
            "geometry": {
                "type": "Point",
                "coordinates": [
                    16.95327,
                    53.18642
                ]
            },
            "properties": {
                "ref:rspo": 56533,
                "official_name": "Publiczne Przedszkole w Zelgniewie",
                "name": "Publiczne Przedszkole w Zelgniewie",
                "addr:postcode": "64-810",
                "addr:city": "Zelgniewo",
                "addr:street": "Wsp\u00f3lna",
                "addr:housenumber": "1",
                "addr:teryt:simc": 526593,
                "addr:teryt:sym_ul": 24885,
                "phone": "+48 672838614",
                "email": "przedszkole_zelg@op.pl",
                "ref:regon": "570298742",
                "operator": "Miasto I Gmina Kaczory",
                "operator:type": "government",
                "amenity": "kindergarten"
            }
        }
    ]
}