{
    "type": "FeatureCollection",
    "features": [
        {
            "id": 68064,
            "type": "Feature",
            "geometry": {
                "type": "Point",
                "coordinates": [
                    16.65116,
                    52.96966
                ]
            },
            "properties": {
                "ref:rspo": 68064,
                "official_name": "Firma Handlowo - Us\u0142ugowa Kursy Szkolenia - Waldemar Pietrzycki - Kszta\u0142cenie Ustawiczne w Formach Pozaszkolnych. Niepubliczna Plac\u00f3wka O\u015bwiatowa",
                "name": "Firma Handlowo - Us\u0142ugowa Kursy Szkolenia - Waldemar Pietrzycki - Kszta\u0142cenie Ustawiczne w Formach Pozaszkolnych. Niepubliczna Plac\u00f3wka O\u015bwiatowa",
                "addr:postcode": "64-920",
                "addr:city": "Pi\u0142a",
                "addr:street": "Staromiejska",
                "addr:housenumber": "41",
                "addr:door": "5",
                "addr:teryt:simc": 966530,
                "addr:teryt:sym_ul": 20952,
                "phone": "+48 502140309",
                "email": "f.h.u.waldi@wp.pl",
                "ref:regon": "302252825",
                "ref:vatin": "PL7641648187",
                "operator": "Waldemar Pietrzycki",
                "operator:type": "private",
                "fixme": "w zale\u017cno\u015bci od przedmiotu dzia\u0142alno\u015bci (np. amenity=training + training=*, amenity=dancing_school, amenity=language_school, amenity=music_school)"
            }
        },
        {
            "id": 2994,
            "type": "Feature",
            "geometry": {
                "type": "Point",
                "coordinates": [
                    16.6578,
                    52.97211
                ]
            },
            "properties": {
                "isced:level": "1;2",
                "ref:rspo": 2994,
                "official_name": "Szko\u0142a Podstawowa Nr 1 im. Stanis\u0142awa Staszica w Pile",
                "name": "Szko\u0142a Podstawowa Nr 1",
                "addr:postcode": "64-920",
                "addr:city": "Pi\u0142a",
                "addr:street": "Staromiejska",
                "addr:housenumber": "11",
                "addr:teryt:simc": 966530,
                "addr:teryt:sym_ul": 20952,
                "phone": "+48 672123110",
                "email": "sekretariat@sp1pila.dlaedu.pl",
                "website": "http:\/\/sp1pila.edupage.org",
                "ref:regon": "000228016",
                "ref:vatin": "PL7641090354",
                "operator": "Gmina Pi\u0142a",
                "operator:type": "government",
                "amenity": "school"
            }
        },
        {
            "id": 2906,
            "type": "Feature",
            "geometry": {
                "type": "Point",
                "coordinates": [
                    16.73965,
                    53.0937
                ]
            },
            "properties": {
                "ref:rspo": 2906,
                "official_name": "Publiczne Przedszkole Nr 12 w Pile",
                "name": "Publiczne Przedszkole Nr 12 w Pile",
                "addr:postcode": "64-920",
                "addr:city": "Pi\u0142a",
                "addr:street": "Miko\u0142aja Reja",
                "addr:housenumber": "11",
                "addr:teryt:simc": 966530,
                "addr:teryt:sym_ul": 18562,
                "phone": "+48 672132774",
                "email": "pp12@cuw.pila.pl",
                "website": "https:\/\/publiczneprzedszkole12pila.pl",
                "ref:regon": "301407711",
                "ref:vatin": "PL7642637613",
                "operator": "Gmina Pi\u0142a",
                "operator:type": "government",
                "amenity": "kindergarten"
            }
        },
        {
            "id": 18706,
            "type": "Feature",
            "geometry": {
                "type": "Point",
                "coordinates": [
                    16.73965,
                    53.093669999999996
                ]
            },
            "properties": {
                "isced:level": "3",
                "ref:rspo": 18706,
                "official_name": "I Liceum Og\u00f3lnokszta\u0142c\u0105ce im. Marii Sk\u0142odowskiej - Curie w Pile",
                "name": "I Liceum Og\u00f3lnokszta\u0142c\u0105ce",
                "addr:postcode": "64-920",
                "addr:city": "Pi\u0142a",
                "addr:street": "Wincentego Pola",
                "addr:housenumber": "11",
                "addr:teryt:simc": 966530,
                "addr:teryt:sym_ul": 16961,
                "phone": "+48 673517470",
                "email": "sekretariat.pola@asta-net.com.pl",
                "website": "http:\/\/www.lo.pola.pl",
                "ref:regon": "000242157",
                "ref:vatin": "PL7642261645",
                "operator": "Powiat Pilski",
                "operator:type": "government",
                "amenity": "school"
            }
        },
        {
            "id": 62131,
            "type": "Feature",
            "geometry": {
                "type": "Point",
                "coordinates": [
                    16.73965,
                    53.09364
                ]
            },
            "properties": {
                "isced:level": "3",
                "ref:rspo": 62131,
                "official_name": "Liceum Og\u00f3lnokszta\u0142c\u0105ce Mistrzostwa Sportowego w Pi\u0142ce Siatkowej w Pile",
                "name": "Liceum Og\u00f3lnokszta\u0142c\u0105ce Mistrzostwa Sportowego w Pi\u0142ce Siatkowej w Pile",
                "addr:postcode": "64-920",
                "addr:city": "Pi\u0142a",
                "addr:street": "Wincentego Pola",
                "addr:housenumber": "11",
                "addr:teryt:simc": 966530,
                "addr:teryt:sym_ul": 16961,
                "phone": "+48 673490093",
                "email": "sekretariat@lo-ms.pila.pl",
                "website": "http:\/\/www.lo-ms.pila.pl",
                "ref:regon": "301194913",
                "ref:vatin": "PL7642305615",
                "operator": "Powiat Pilski",
                "operator:type": "government",
                "amenity": "school"
            }
        },
        {
            "id": 121538,
            "type": "Feature",
            "geometry": {
                "type": "Point",
                "coordinates": [
                    16.77046,
                    53.1183
                ]
            },
            "properties": {
                "ref:rspo": 121538,
                "official_name": "Wolf Security Business Training Center-Kszta\u0142cenie Ustawiczne w Formach Pozaszkolnych",
                "name": "Wolf Security Business Training Center-Kszta\u0142cenie Ustawiczne w Formach Pozaszkolnych",
                "addr:postcode": "64-920",
                "addr:city": "Pi\u0142a",
                "addr:street": "Wapienna",
                "addr:housenumber": "32",
                "addr:teryt:simc": 966530,
                "addr:teryt:sym_ul": 23624,
                "email": "kontakt@kursy24.info",
                "website": "http:\/\/www.kury24.info",
                "ref:regon": "302626734",
                "operator": "Tomasz Zegan",
                "operator:type": "private",
                "fixme": "w zale\u017cno\u015bci od przedmiotu dzia\u0142alno\u015bci (np. amenity=training + training=*, amenity=dancing_school, amenity=language_school, amenity=music_school)"
            }
        },
        {
            "id": 105346,
            "type": "Feature",
            "geometry": {
                "type": "Point",
                "coordinates": [
                    16.74317,
                    53.13609
                ]
            },
            "properties": {
                "ref:rspo": 105346,
                "official_name": "Zesp\u00f3\u0142 Szk\u00f3\u0142 Towarzystwa Salezja\u0144skiego w Pile",
                "name": "Zesp\u00f3\u0142 Szk\u00f3\u0142 Towarzystwa Salezja\u0144skiego w Pile",
                "addr:postcode": "64-920",
                "addr:city": "Pi\u0142a",
                "addr:street": "Edwarda Dembowskiego",
                "addr:housenumber": "4",
                "addr:teryt:simc": 966530,
                "addr:teryt:sym_ul": 3746,
                "phone": "+48 672120505",
                "email": "szkola@lots.pila.pl",
                "ref:regon": "302305421",
                "ref:vatin": "PL7642659738",
                "operator": "Towarzystwo Salezja\u0144skie Inspektoria P.w. \u015aw. Wojciecha",
                "operator:type": "religious",
                "landuse": "education",
                "fixme": "amenity=school, amenity=college albo landuse=education w zale\u017cno\u015bci od tego, jakie plac\u00f3wki wchodz\u0105 w sk\u0142ad zespo\u0142u. Sprawd\u017a, kiedy stosowa\u0107 amenity=* a kiedy landuse=education.",
                "note": "Children RSPO: 14597;50242"
            }
        },
        {
            "id": 14597,
            "type": "Feature",
            "geometry": {
                "type": "Point",
                "coordinates": [
                    16.74317,
                    53.13606
                ]
            },
            "properties": {
                "isced:level": "3",
                "ref:rspo": 14597,
                "official_name": "Liceum Og\u00f3lnokszta\u0142c\u0105ce Towarzystwa Salezja\u0144skiego im.\u015bw.jana Bosko",
                "name": "Liceum Og\u00f3lnokszta\u0142c\u0105ce Towarzystwa Salezja\u0144skiego im.\u015bw.jana Bosko",
                "addr:postcode": "64-920",
                "addr:city": "Pi\u0142a",
                "addr:street": "Edwarda Dembowskiego",
                "addr:housenumber": "4",
                "addr:teryt:simc": 966530,
                "addr:teryt:sym_ul": 3746,
                "phone": "+48 672120505",
                "email": "szkola@lots.pila.pl",
                "website": "http:\/\/www.lots.pila.pl",
                "ref:regon": "302218277",
                "ref:vatin": "PL7642008797",
                "operator": "Towarzystwo Salezja\u0144skie Inspektoria P.w. \u015aw. Wojciecha",
                "operator:type": "religious",
                "amenity": "school",
                "note": "Parent RSPO: 105346"
            }
        },
        {
            "id": 58939,
            "type": "Feature",
            "geometry": {
                "type": "Point",
                "coordinates": [
                    16.74401,
                    53.1370999
                ]
            },
            "properties": {
                "ref:rspo": 58939,
                "official_name": "Przedszkole Niepubliczne Dwuj\u0119zyczne \"Bajka\"",
                "name": "Przedszkole Niepubliczne Dwuj\u0119zyczne \"Bajka\"",
                "addr:postcode": "64-920",
                "addr:city": "Pi\u0142a",
                "addr:street": "Wiosny Lud\u00f3w",
                "addr:housenumber": "57",
                "addr:teryt:simc": 966530,
                "addr:teryt:sym_ul": 24369,
                "phone": "+48 605544407",
                "email": "przedszkole@bajka.pila.pl",
                "website": "http:\/\/www.bajka.pila.pl",
                "ref:regon": "302251346",
                "operator": "Ma\u0142gorzata Rzemykowska Centrum Kszta\u0142cenia I Zarz\u0105dzania Rzemyk.info",
                "operator:type": "private",
                "amenity": "kindergarten"
            }
        },
        {
            "id": 263941,
            "type": "Feature",
            "geometry": {
                "type": "Point",
                "coordinates": [
                    16.74548,
                    53.13715
                ]
            },
            "properties": {
                "isced:level": "1;2",
                "ref:rspo": 263941,
                "official_name": "Szko\u0142a Podstawowa Specjalna",
                "name": "Szko\u0142a Podstawowa Specjalna",
                "addr:postcode": "64-920",
                "addr:city": "Pi\u0142a",
                "addr:street": "Henryka Sienkiewicza",
                "addr:housenumber": "26a",
                "addr:teryt:simc": 966530,
                "addr:teryt:sym_ul": 19830,
                "phone": "+48 608692830",
                "email": "tadeuszlukasik@wp.pl",
                "ref:regon": "368243950",
                "operator": "Tadeusz \u0141ukasik",
                "operator:type": "private",
                "amenity": "school"
            }
        },
        {
            "id": 69908,
            "type": "Feature",
            "geometry": {
                "type": "Point",
                "coordinates": [
                    16.74912,
                    53.13787
                ]
            },
            "properties": {
                "isced:level": "1;2",
                "ref:rspo": 69908,
                "official_name": "Szko\u0142a Podstawowa Nr 3 im. Jana Brzechwy w Pile",
                "name": "Szko\u0142a Podstawowa Nr 3",
                "addr:postcode": "64-920",
                "addr:city": "Pi\u0142a",
                "addr:street": "Brzozowa",
                "addr:housenumber": "4",
                "addr:teryt:simc": 966530,
                "addr:teryt:sym_ul": 2276,
                "phone": "+48 672122035",
                "email": "sp3@sp3pila.eu",
                "website": "http:\/\/www.sp3.pila.pl",
                "ref:regon": "000233394",
                "ref:vatin": "PL7642335556",
                "operator": "Gmina Pi\u0142a",
                "operator:type": "government",
                "amenity": "school"
            }
        },
        {
            "id": 2908,
            "type": "Feature",
            "geometry": {
                "type": "Point",
                "coordinates": [
                    16.74472,
                    53.13814
                ]
            },
            "properties": {
                "ref:rspo": 2908,
                "official_name": "Publiczne Przedszkole Nr 14 im. Wr\u00f3belka Elemelka w Pile",
                "name": "Publiczne Przedszkole Nr 14",
                "addr:postcode": "64-920",
                "addr:city": "Pi\u0142a",
                "addr:street": "Jana Brzechwy",
                "addr:housenumber": "10",
                "addr:teryt:simc": 966530,
                "addr:teryt:sym_ul": 2225,
                "phone": "+48 672124053",
                "email": "pp14@cuw.pila.pl",
                "website": "http:\/\/www.publiczneprzedszkole14.pila.pl",
                "ref:regon": "301411902",
                "ref:vatin": "PL7642638848",
                "operator": "Gmina Pi\u0142a",
                "operator:type": "government",
                "amenity": "kindergarten"
            }
        },
        {
            "id": 278842,
            "type": "Feature",
            "geometry": {
                "type": "Point",
                "coordinates": [
                    16.72493,
                    53.14287
                ]
            },
            "properties": {
                "ref:rspo": 278842,
                "official_name": "Niepubliczna Plac\u00f3wka Kszta\u0142cenia Ustawicznego - \"Glam Up\" Akademia Makija\u017cu Profesjonalnego I Stylizacji. Plac\u00f3wka Kszta\u0142cenia Ustawicznego - Bez Szk\u00f3\u0142",
                "name": "Niepubliczna Plac\u00f3wka Kszta\u0142cenia Ustawicznego - \"Glam Up\" Akademia Makija\u017cu Profesjonalnego I Stylizacji. Plac\u00f3wka Kszta\u0142cenia Ustawicznego - Bez Szk\u00f3\u0142",
                "addr:postcode": "64-920",
                "addr:city": "Pi\u0142a",
                "addr:street": "Warsztatowa",
                "addr:housenumber": "6B",
                "addr:teryt:simc": 966530,
                "addr:teryt:sym_ul": 23695,
                "phone": "+48 672148401",
                "email": "sekretariat@nauka.pila.pl",
                "ref:regon": "520105920",
                "operator": "Leniec Sp\u00f3\u0142ka Jawna",
                "operator:type": "private",
                "fixme": "w zale\u017cno\u015bci od przedmiotu dzia\u0142alno\u015bci (np. amenity=training + training=*, amenity=dancing_school, amenity=language_school, amenity=music_school)"
            }
        },
        {
            "id": 12871,
            "type": "Feature",
            "geometry": {
                "type": "Point",
                "coordinates": [
                    16.72532,
                    53.1434799
                ]
            },
            "properties": {
                "ref:rspo": 12871,
                "official_name": "Centrum Kszta\u0142cenia Ustawicznego Przy Centrum Kszta\u0142cenia \"Nauka\" Sp.zo.o.",
                "name": "Centrum Kszta\u0142cenia Ustawicznego Przy Centrum Kszta\u0142cenia \"Nauka\" Sp.zo.o.",
                "addr:postcode": "64-920",
                "addr:city": "Pi\u0142a",
                "addr:street": "Warsztatowa",
                "addr:housenumber": "6",
                "addr:teryt:simc": 966530,
                "addr:teryt:sym_ul": 23695,
                "phone": "+48 672148401",
                "email": "cku@nauka.pila.pl",
                "website": "http:\/\/www.cku.pila.pl",
                "ref:regon": "302217869",
                "ref:vatin": "PL7641773047",
                "operator": "Centrum Kszta\u0142cenia \"Nauka\" Sp\u00f3\u0142ka Z Ograniczon\u0105 Odpowiedzialno\u015bci\u0105",
                "operator:type": "private",
                "fixme": "w zale\u017cno\u015bci od przedmiotu dzia\u0142alno\u015bci (np. amenity=training + training=*, amenity=dancing_school, amenity=language_school, amenity=music_school)"
            }
        },
        {
            "id": 129268,
            "type": "Feature",
            "geometry": {
                "type": "Point",
                "coordinates": [
                    16.72532,
                    53.1434499
                ]
            },
            "properties": {
                "ref:rspo": 129268,
                "official_name": "Zesp\u00f3\u0142 Szk\u00f3\u0142 Centrum Kszta\u0142cenia \"Nauka\" Sp.zo.o. w Pile",
                "name": "Zesp\u00f3\u0142 Szk\u00f3\u0142 Centrum Kszta\u0142cenia \"Nauka\" Sp.zo.o. w Pile",
                "addr:postcode": "64-920",
                "addr:city": "Pi\u0142a",
                "addr:street": "Warsztatowa",
                "addr:housenumber": "6",
                "addr:teryt:simc": 966530,
                "addr:teryt:sym_ul": 23695,
                "phone": "+48 672148401",
                "email": "sekretariat@nauka.pila.pl",
                "website": "http:\/\/www.nauka.pila.pl",
                "ref:regon": "362535002",
                "operator": "Centrum Kszta\u0142cenia \"Nauka\" Sp\u00f3\u0142ka Z Ograniczon\u0105 Odpowiedzialno\u015bci\u0105",
                "operator:type": "private",
                "landuse": "education",
                "fixme": "amenity=school, amenity=college albo landuse=education w zale\u017cno\u015bci od tego, jakie plac\u00f3wki wchodz\u0105 w sk\u0142ad zespo\u0142u. Sprawd\u017a, kiedy stosowa\u0107 amenity=* a kiedy landuse=education.",
                "note": "Children RSPO: 12138;12150;12162;12219;12259;12279"
            }
        },
        {
            "id": 131258,
            "type": "Feature",
            "geometry": {
                "type": "Point",
                "coordinates": [
                    16.72532,
                    53.143419900000005
                ]
            },
            "properties": {
                "ref:rspo": 131258,
                "official_name": "Bursa Szkolna w Pile",
                "name": "Bursa Szkolna w Pile",
                "addr:postcode": "64-920",
                "addr:city": "Pi\u0142a",
                "addr:street": "Warsztatowa",
                "addr:housenumber": "6",
                "addr:teryt:simc": 966530,
                "addr:teryt:sym_ul": 23695,
                "phone": "+48 672148401",
                "email": "sekretariat@nauka.pila.pl",
                "website": "http:\/\/www.nauka.pila.pl",
                "ref:regon": "365072353",
                "operator": "Centrum Kszta\u0142cenia \"Nauka\" Sp\u00f3\u0142ka Z Ograniczon\u0105 Odpowiedzialno\u015bci\u0105",
                "operator:type": "private",
                "building": "dormitory"
            }
        },
        {
            "id": 12138,
            "type": "Feature",
            "geometry": {
                "type": "Point",
                "coordinates": [
                    16.72532,
                    53.1433899
                ]
            },
            "properties": {
                "isced:level": "3",
                "ref:rspo": 12138,
                "official_name": "Bran\u017cowa Szko\u0142a I Stopnia",
                "name": "Bran\u017cowa Szko\u0142a I Stopnia",
                "addr:postcode": "64-920",
                "addr:city": "Pi\u0142a",
                "addr:street": "Warsztatowa",
                "addr:housenumber": "6",
                "addr:teryt:simc": 966530,
                "addr:teryt:sym_ul": 23695,
                "phone": "+48 672148401",
                "email": "sekretariat@nauka.pila.pl",
                "website": "http:\/\/www.nauka.pila.pl",
                "ref:regon": "302217645",
                "ref:vatin": "PL7641773047",
                "operator": "Centrum Kszta\u0142cenia \"Nauka\" Sp\u00f3\u0142ka Z Ograniczon\u0105 Odpowiedzialno\u015bci\u0105",
                "operator:type": "private",
                "amenity": "school",
                "note": "Parent RSPO: 129268"
            }
        },
        {
            "id": 12150,
            "type": "Feature",
            "geometry": {
                "type": "Point",
                "coordinates": [
                    16.72532,
                    53.1433599
                ]
            },
            "properties": {
                "isced:level": "3",
                "ref:rspo": 12150,
                "official_name": "Liceum Og\u00f3lnokszta\u0142c\u0105ce dla Doros\u0142ych",
                "name": "Liceum Og\u00f3lnokszta\u0142c\u0105ce dla Doros\u0142ych",
                "addr:postcode": "64-920",
                "addr:city": "Pi\u0142a",
                "addr:street": "Warsztatowa",
                "addr:housenumber": "6",
                "addr:teryt:simc": 966530,
                "addr:teryt:sym_ul": 23695,
                "phone": "+48 672148401",
                "email": "sekretariat@nauka.pila.pl",
                "website": "http:\/\/www.nauka.pila.pl",
                "ref:regon": "302217616",
                "ref:vatin": "PL7641773047",
                "operator": "Centrum Kszta\u0142cenia \"Nauka\" Sp\u00f3\u0142ka Z Ograniczon\u0105 Odpowiedzialno\u015bci\u0105",
                "operator:type": "private",
                "amenity": "school",
                "note": "Parent RSPO: 129268"
            }
        },
        {
            "id": 12162,
            "type": "Feature",
            "geometry": {
                "type": "Point",
                "coordinates": [
                    16.72532,
                    53.143329900000005
                ]
            },
            "properties": {
                "isced:level": "3",
                "ref:rspo": 12162,
                "official_name": "Liceum Og\u00f3lnokszta\u0142cace",
                "name": "Liceum Og\u00f3lnokszta\u0142cace",
                "addr:postcode": "64-920",
                "addr:city": "Pi\u0142a",
                "addr:street": "Warsztatowa",
                "addr:housenumber": "6",
                "addr:teryt:simc": 966530,
                "addr:teryt:sym_ul": 23695,
                "phone": "+48 672148401",
                "email": "sekretariat@nauka.pila.pl",
                "website": "http:\/\/www.nauka.pila.pl",
                "ref:regon": "302217674",
                "ref:vatin": "PL7641773047",
                "operator": "Centrum Kszta\u0142cenia \"Nauka\" Sp\u00f3\u0142ka Z Ograniczon\u0105 Odpowiedzialno\u015bci\u0105",
                "operator:type": "private",
                "amenity": "school",
                "note": "Parent RSPO: 129268"
            }
        },
        {
            "id": 12219,
            "type": "Feature",
            "geometry": {
                "type": "Point",
                "coordinates": [
                    16.72532,
                    53.1432999
                ]
            },
            "properties": {
                "isced:level": "3",
                "ref:rspo": 12219,
                "official_name": "Technikum Zawodowe",
                "name": "Technikum Zawodowe",
                "addr:postcode": "64-920",
                "addr:city": "Pi\u0142a",
                "addr:street": "Warsztatowa",
                "addr:housenumber": "6",
                "addr:teryt:simc": 966530,
                "addr:teryt:sym_ul": 23695,
                "phone": "+48 672148401",
                "email": "sekretariat@nauka.pila.pl",
                "website": "http:\/\/www.nauka.pila.pl",
                "ref:regon": "302217757",
                "ref:vatin": "PL7641773047",
                "operator": "Centrum Kszta\u0142cenia \"Nauka\" Sp\u00f3\u0142ka Z Ograniczon\u0105 Odpowiedzialno\u015bci\u0105",
                "operator:type": "private",
                "amenity": "school",
                "note": "Parent RSPO: 129268"
            }
        },
        {
            "id": 12259,
            "type": "Feature",
            "geometry": {
                "type": "Point",
                "coordinates": [
                    16.72532,
                    53.1432699
                ]
            },
            "properties": {
                "isced:level": "4",
                "ref:rspo": 12259,
                "official_name": "Medyczna Szko\u0142a Policealna",
                "name": "Medyczna Szko\u0142a Policealna",
                "addr:postcode": "64-920",
                "addr:city": "Pi\u0142a",
                "addr:street": "Warsztatowa",
                "addr:housenumber": "6",
                "addr:teryt:simc": 966530,
                "addr:teryt:sym_ul": 23695,
                "phone": "+48 672148401",
                "email": "sekretariat@nauka.pila.pl",
                "website": "http:\/\/www.nauka.pila.pl",
                "ref:regon": "302217817",
                "ref:vatin": "PL7641773047",
                "operator": "Centrum Kszta\u0142cenia \"Nauka\" Sp\u00f3\u0142ka Z Ograniczon\u0105 Odpowiedzialno\u015bci\u0105",
                "operator:type": "private",
                "amenity": "college",
                "note": "Parent RSPO: 129268"
            }
        },
        {
            "id": 12279,
            "type": "Feature",
            "geometry": {
                "type": "Point",
                "coordinates": [
                    16.72532,
                    53.143239900000005
                ]
            },
            "properties": {
                "isced:level": "4",
                "ref:rspo": 12279,
                "official_name": "Policealne Studium Zawodowe",
                "name": "Policealne Studium Zawodowe",
                "addr:postcode": "64-920",
                "addr:city": "Pi\u0142a",
                "addr:street": "Warsztatowa",
                "addr:housenumber": "6",
                "addr:teryt:simc": 966530,
                "addr:teryt:sym_ul": 23695,
                "phone": "+48 672148401",
                "email": "sekretariat@nauka.pila.pl",
                "website": "http:\/\/www.nauka.pila.pl",
                "ref:regon": "302217800",
                "ref:vatin": "PL7641773047",
                "operator": "Centrum Kszta\u0142cenia \"Nauka\" Sp\u00f3\u0142ka Z Ograniczon\u0105 Odpowiedzialno\u015bci\u0105",
                "operator:type": "private",
                "amenity": "college",
                "note": "Parent RSPO: 129268"
            }
        },
        {
            "id": 2911,
            "type": "Feature",
            "geometry": {
                "type": "Point",
                "coordinates": [
                    16.7192,
                    53.14469
                ]
            },
            "properties": {
                "ref:rspo": 2911,
                "official_name": "Publiczne Przedszkole Nr 18 im. Kubusia Puchatka w Pile",
                "name": "Publiczne Przedszkole Nr 18",
                "addr:postcode": "64-920",
                "addr:city": "Pi\u0142a",
                "addr:street": "Trentowskiego",
                "addr:housenumber": "3",
                "addr:teryt:simc": 966530,
                "addr:teryt:sym_ul": 37834,
                "phone": "+48 672132749",
                "email": "pp18@cuw.pila.pl",
                "ref:regon": "301407697",
                "operator": "Gmina Pi\u0142a",
                "operator:type": "government",
                "amenity": "kindergarten"
            }
        },
        {
            "id": 18735,
            "type": "Feature",
            "geometry": {
                "type": "Point",
                "coordinates": [
                    16.73447,
                    53.1448899
                ]
            },
            "properties": {
                "ref:rspo": 18735,
                "official_name": "M\u0142odzie\u017cowy Dom Kultury \"Iskra\" w Pile",
                "name": "M\u0142odzie\u017cowy Dom Kultury \"Iskra\" w Pile",
                "addr:postcode": "64-920",
                "addr:city": "Pi\u0142a",
                "addr:street": "Okrzei",
                "addr:housenumber": "9",
                "addr:teryt:simc": 966530,
                "addr:teryt:sym_ul": 14909,
                "phone": "+48 673491954",
                "ref:regon": "000244682",
                "ref:vatin": "PL7641104524",
                "operator": "Powiat Pilski",
                "operator:type": "government",
                "amenity": "community_centre",
                "community_centre:for": "juvenile"
            }
        },
        {
            "id": 18533,
            "type": "Feature",
            "geometry": {
                "type": "Point",
                "coordinates": [
                    16.74337,
                    53.14534
                ]
            },
            "properties": {
                "ref:rspo": 18533,
                "official_name": "Zesp\u00f3\u0142 Szk\u00f3\u0142 Przy Teatralnej w Pile",
                "name": "Zesp\u00f3\u0142 Szk\u00f3\u0142 Przy Teatralnej w Pile",
                "addr:postcode": "64-920",
                "addr:city": "Pi\u0142a",
                "addr:street": "Teatralna",
                "addr:housenumber": "1",
                "addr:teryt:simc": 966530,
                "addr:teryt:sym_ul": 22723,
                "phone": "+48 672120868",
                "email": "szkolaprzyteatralnej@gmail.com",
                "website": "http:\/\/www.szkolaprzyteatralnej.pl",
                "ref:regon": "570860209",
                "ref:vatin": "PL7642217236",
                "operator": "Powiat Pilski",
                "operator:type": "government",
                "landuse": "education",
                "fixme": "amenity=school, amenity=college albo landuse=education w zale\u017cno\u015bci od tego, jakie plac\u00f3wki wchodz\u0105 w sk\u0142ad zespo\u0142u. Sprawd\u017a, kiedy stosowa\u0107 amenity=* a kiedy landuse=education.",
                "note": "Children RSPO: 105259;109672;113511;276003"
            }
        },
        {
            "id": 105259,
            "type": "Feature",
            "geometry": {
                "type": "Point",
                "coordinates": [
                    16.74337,
                    53.145309999999995
                ]
            },
            "properties": {
                "isced:level": "3",
                "ref:rspo": 105259,
                "official_name": "Iii Liceum Og\u00f3lnokszta\u0142c\u0105ce w Pile",
                "name": "Iii Liceum Og\u00f3lnokszta\u0142c\u0105ce w Pile",
                "addr:postcode": "64-920",
                "addr:city": "Pi\u0142a",
                "addr:street": "Teatralna",
                "addr:housenumber": "1",
                "addr:teryt:simc": 966530,
                "addr:teryt:sym_ul": 22723,
                "phone": "+48 672120868",
                "email": "szkolaprzyteatralnej@gmail.com",
                "website": "http:\/\/www.szkolaprzyteatralnej.pl",
                "ref:regon": "570860480",
                "ref:vatin": "PL7642217236",
                "operator": "Powiat Pilski",
                "operator:type": "government",
                "amenity": "school",
                "note": "Parent RSPO: 18533"
            }
        },
        {
            "id": 109672,
            "type": "Feature",
            "geometry": {
                "type": "Point",
                "coordinates": [
                    16.74337,
                    53.14528
                ]
            },
            "properties": {
                "isced:level": "3",
                "ref:rspo": 109672,
                "official_name": "Technikum Nr 2 w Pile",
                "name": "Technikum Nr 2 w Pile",
                "addr:postcode": "64-920",
                "addr:city": "Pi\u0142a",
                "addr:street": "Teatralna",
                "addr:housenumber": "1",
                "addr:teryt:simc": 966530,
                "addr:teryt:sym_ul": 22723,
                "phone": "+48 672120868",
                "email": "szkolaprzyteatralnej@gmail.com",
                "website": "http:\/\/www.szkolaprzyteatralnej.pl",
                "ref:regon": "572041929",
                "ref:vatin": "PL7642217236",
                "operator": "Powiat Pilski",
                "operator:type": "government",
                "amenity": "school",
                "note": "Parent RSPO: 18533"
            }
        },
        {
            "id": 113511,
            "type": "Feature",
            "geometry": {
                "type": "Point",
                "coordinates": [
                    16.74337,
                    53.14525
                ]
            },
            "properties": {
                "isced:level": "3",
                "ref:rspo": 113511,
                "official_name": "Bran\u017cowa Szko\u0142a I Stopnia Nr 2",
                "name": "Bran\u017cowa Szko\u0142a I Stopnia Nr 2",
                "addr:postcode": "64-920",
                "addr:city": "Pi\u0142a",
                "addr:street": "Teatralna",
                "addr:housenumber": "1",
                "addr:teryt:simc": 966530,
                "addr:teryt:sym_ul": 22723,
                "phone": "+48 672120868",
                "email": "szkolaprzyteatralnej@gmail.com",
                "website": "http:\/\/www.szkolaprzyteatralnej.pl",
                "ref:regon": "570860505",
                "ref:vatin": "PL7642217236",
                "operator": "Powiat Pilski",
                "operator:type": "government",
                "amenity": "school",
                "note": "Parent RSPO: 18533"
            }
        },
        {
            "id": 276003,
            "type": "Feature",
            "geometry": {
                "type": "Point",
                "coordinates": [
                    16.74337,
                    53.145219999999995
                ]
            },
            "properties": {
                "isced:level": "3",
                "ref:rspo": 276003,
                "official_name": "Bran\u017cowa Szko\u0142a II Stopnia Nr 2 w Pile",
                "name": "Bran\u017cowa Szko\u0142a II Stopnia Nr 2 w Pile",
                "addr:postcode": "64-920",
                "addr:city": "Pi\u0142a",
                "addr:street": "Teatralna",
                "addr:housenumber": "1",
                "addr:teryt:simc": 966530,
                "addr:teryt:sym_ul": 22723,
                "phone": "+48 672106821",
                "email": "szkolaprzyteatralnej@gmail.com",
                "website": "http:\/\/www.szkolaprzyteatralnej.pl",
                "ref:regon": "386964210",
                "operator": "Powiat Pilski",
                "operator:type": "government",
                "amenity": "school",
                "note": "Parent RSPO: 18533"
            }
        },
        {
            "id": 10124,
            "type": "Feature",
            "geometry": {
                "type": "Point",
                "coordinates": [
                    16.71666,
                    53.1456
                ]
            },
            "properties": {
                "ref:rspo": 10124,
                "official_name": "Niepubliczny Punkt Przedszkolny Specjalny \"Marcinek\"",
                "name": "Niepubliczny Punkt Przedszkolny Specjalny \"Marcinek\"",
                "addr:postcode": "64-920",
                "addr:city": "Pi\u0142a",
                "addr:street": "Juliusza S\u0142owackiego",
                "addr:housenumber": "3",
                "addr:teryt:simc": 966530,
                "addr:teryt:sym_ul": 20286,
                "phone": "+48 501385348",
                "email": "anetkania17@gmail.com",
                "ref:regon": "302203844",
                "ref:vatin": "PL7671441686",
                "operator": "Amelia Kania",
                "operator:type": "private",
                "amenity": "kindergarten"
            }
        },
        {
            "id": 11789,
            "type": "Feature",
            "geometry": {
                "type": "Point",
                "coordinates": [
                    16.7175699,
                    53.1460099
                ]
            },
            "properties": {
                "ref:rspo": 11789,
                "official_name": "Uks \"6\" Judo-Jopek-Pi\u0142a",
                "name": "Uks \"6\" Judo-Jopek-Pi\u0142a",
                "addr:postcode": "64-920",
                "addr:city": "Pi\u0142a",
                "addr:street": "Stefana \u017beromskiego",
                "addr:housenumber": "41",
                "addr:teryt:simc": 966530,
                "addr:teryt:sym_ul": 26464,
                "email": "jopas45@wp.pl",
                "ref:regon": "302208333",
                "ref:vatin": "PL7641324450",
                "operator": "J\u00f3zef Jopek",
                "operator:type": "private",
                "fixme": "w zale\u017cno\u015bci od przedmiotu dzia\u0142alno\u015bci (np. amenity=training + training=*, amenity=dancing_school, amenity=language_school, amenity=music_school)"
            }
        },
        {
            "id": 52682,
            "type": "Feature",
            "geometry": {
                "type": "Point",
                "coordinates": [
                    16.7175699,
                    53.1459799
                ]
            },
            "properties": {
                "isced:level": "1;2",
                "ref:rspo": 52682,
                "official_name": "Szko\u0142a Podstawowa Nr 6 im. Lotnik\u00f3w Polskich w Pile",
                "name": "Szko\u0142a Podstawowa Nr 6",
                "addr:postcode": "64-920",
                "addr:city": "Pi\u0142a",
                "addr:street": "Stefana \u017beromskiego",
                "addr:housenumber": "41",
                "addr:teryt:simc": 966530,
                "addr:teryt:sym_ul": 26464,
                "phone": "+48 672117452",
                "email": "sekretariat@sp6pila.dlaedu.pl",
                "website": "http:\/\/www.sp6.pila.pl",
                "ref:regon": "001228828",
                "ref:vatin": "PL7642333770",
                "operator": "Gmina Pi\u0142a",
                "operator:type": "government",
                "amenity": "school"
            }
        },
        {
            "id": 122837,
            "type": "Feature",
            "geometry": {
                "type": "Point",
                "coordinates": [
                    16.7175699,
                    53.145949900000005
                ]
            },
            "properties": {
                "ref:rspo": 122837,
                "official_name": "Centrum Pracy Pozaszkolnej I Kszta\u0142cenia Ustawicznego Edus",
                "name": "Centrum Pracy Pozaszkolnej I Kszta\u0142cenia Ustawicznego Edus",
                "addr:postcode": "64-920",
                "addr:city": "Pi\u0142a",
                "addr:street": "Stefana \u017beromskiego",
                "addr:housenumber": "41",
                "addr:teryt:simc": 966530,
                "addr:teryt:sym_ul": 26464,
                "phone": "+48 673509809",
                "ref:regon": "302702211",
                "operator": "Hanna S\u0142odowicz",
                "operator:type": "private",
                "fixme": "w zale\u017cno\u015bci od przedmiotu dzia\u0142alno\u015bci (np. amenity=training + training=*, amenity=dancing_school, amenity=language_school, amenity=music_school)"
            }
        },
        {
            "id": 17691,
            "type": "Feature",
            "geometry": {
                "type": "Point",
                "coordinates": [
                    16.72372,
                    53.14682
                ]
            },
            "properties": {
                "ref:rspo": 17691,
                "official_name": "Zesp\u00f3\u0142 Szk\u00f3\u0142 Technicznych w Pile",
                "name": "Zesp\u00f3\u0142 Szk\u00f3\u0142 Technicznych w Pile",
                "addr:postcode": "64-920",
                "addr:city": "Pi\u0142a",
                "addr:street": "Ceglana",
                "addr:housenumber": "4",
                "addr:teryt:simc": 966530,
                "addr:teryt:sym_ul": 2587,
                "phone": "+48 672124680",
                "email": "sekretariat@zst.pila.pl",
                "website": "http:\/\/www.zst.pila.pl",
                "ref:regon": "000677932",
                "ref:vatin": "PL7642310421",
                "operator": "Powiat Pilski",
                "operator:type": "government",
                "landuse": "education",
                "fixme": "amenity=school, amenity=college albo landuse=education w zale\u017cno\u015bci od tego, jakie plac\u00f3wki wchodz\u0105 w sk\u0142ad zespo\u0142u. Sprawd\u017a, kiedy stosowa\u0107 amenity=* a kiedy landuse=education.",
                "note": "Children RSPO: 105232;105354"
            }
        },
        {
            "id": 105232,
            "type": "Feature",
            "geometry": {
                "type": "Point",
                "coordinates": [
                    16.72372,
                    53.146789999999996
                ]
            },
            "properties": {
                "isced:level": "3",
                "ref:rspo": 105232,
                "official_name": "Technikum Nr 1 w Pile",
                "name": "Technikum Nr 1 w Pile",
                "addr:postcode": "64-920",
                "addr:city": "Pi\u0142a",
                "addr:street": "Ceglana",
                "addr:housenumber": "4",
                "addr:teryt:simc": 966530,
                "addr:teryt:sym_ul": 2587,
                "phone": "+48 672124680",
                "email": "sekretariat@zst.pila.pl",
                "website": "http:\/\/www.zst.pila.pl",
                "ref:regon": "570865253",
                "ref:vatin": "PL7642310421",
                "operator": "Powiat Pilski",
                "operator:type": "government",
                "amenity": "school",
                "note": "Parent RSPO: 17691"
            }
        },
        {
            "id": 105354,
            "type": "Feature",
            "geometry": {
                "type": "Point",
                "coordinates": [
                    16.72372,
                    53.14676
                ]
            },
            "properties": {
                "isced:level": "3",
                "ref:rspo": 105354,
                "official_name": "Bran\u017cowa Szko\u0142a I Stopnia Nr 1",
                "name": "Bran\u017cowa Szko\u0142a I Stopnia Nr 1",
                "addr:postcode": "64-920",
                "addr:city": "Pi\u0142a",
                "addr:street": "Ceglana",
                "addr:housenumber": "4",
                "addr:teryt:simc": 966530,
                "addr:teryt:sym_ul": 2587,
                "phone": "+48 672124680",
                "email": "sekretariat@zst.pila.pl",
                "website": "http:\/\/www.zst.pila.pl",
                "ref:regon": "570865276",
                "ref:vatin": "PL7642310421",
                "operator": "Powiat Pilski",
                "operator:type": "government",
                "amenity": "school",
                "note": "Parent RSPO: 17691"
            }
        },
        {
            "id": 2895,
            "type": "Feature",
            "geometry": {
                "type": "Point",
                "coordinates": [
                    16.74125,
                    53.14725
                ]
            },
            "properties": {
                "ref:rspo": 2895,
                "official_name": "Publiczne Przedszkole Nr 1 w Pile",
                "name": "Publiczne Przedszkole Nr 1 w Pile",
                "addr:postcode": "64-920",
                "addr:city": "Pi\u0142a",
                "addr:street": "Doktora Franciszka Witaszka",
                "addr:housenumber": "4",
                "addr:teryt:simc": 966530,
                "addr:teryt:sym_ul": 24423,
                "phone": "+48 672123215",
                "email": "przedszkolenr1@asta-net.com.pl",
                "website": "http:\/\/www.przedszkolenr1.asta-net.com.pl",
                "ref:regon": "301412793",
                "ref:vatin": "PL7642638073",
                "operator": "Gmina Pi\u0142a",
                "operator:type": "government",
                "amenity": "kindergarten"
            }
        },
        {
            "id": 105243,
            "type": "Feature",
            "geometry": {
                "type": "Point",
                "coordinates": [
                    16.72336,
                    53.14727
                ]
            },
            "properties": {
                "ref:rspo": 105243,
                "official_name": "Powiatowe Centrum Edukacji w Pile",
                "name": "Powiatowe Centrum Edukacji w Pile",
                "addr:postcode": "64-920",
                "addr:city": "Pi\u0142a",
                "addr:street": "Ceglana",
                "addr:housenumber": "2",
                "addr:teryt:simc": 966530,
                "addr:teryt:sym_ul": 2587,
                "phone": "+48 673512078",
                "email": "sekretariat@pcepila.pl",
                "website": "http:\/\/www.pcepila.pl",
                "ref:regon": "572118336",
                "ref:vatin": "PL7642413724",
                "operator": "Powiat Pilski",
                "operator:type": "government",
                "landuse": "education",
                "fixme": "amenity=school, amenity=college albo landuse=education w zale\u017cno\u015bci od tego, jakie plac\u00f3wki wchodz\u0105 w sk\u0142ad zespo\u0142u. Sprawd\u017a, kiedy stosowa\u0107 amenity=* a kiedy landuse=education.",
                "note": "Children RSPO: 105344;105353;126194"
            }
        },
        {
            "id": 105344,
            "type": "Feature",
            "geometry": {
                "type": "Point",
                "coordinates": [
                    16.72336,
                    53.14724
                ]
            },
            "properties": {
                "ref:rspo": 105344,
                "official_name": "Zawodowe Centrum Kszta\u0142cenia Ustawicznego w Pile",
                "name": "Zawodowe Centrum Kszta\u0142cenia Ustawicznego w Pile",
                "addr:postcode": "64-920",
                "addr:city": "Pi\u0142a",
                "addr:street": "Ceglana",
                "addr:housenumber": "2",
                "addr:teryt:simc": 966530,
                "addr:teryt:sym_ul": 2587,
                "phone": "+48 673512078",
                "email": "pcepila@op.pl",
                "website": "http:\/\/www.pcepila.republika.pl",
                "ref:regon": "572140040",
                "ref:vatin": "PL7642413724",
                "operator": "Powiat Pilski",
                "operator:type": "government",
                "amenity": "school",
                "fixme": "amenity=school lub amenity=college",
                "note": "Children RSPO: 127026;274528Parent RSPO: 105243"
            }
        },
        {
            "id": 105353,
            "type": "Feature",
            "geometry": {
                "type": "Point",
                "coordinates": [
                    16.72336,
                    53.14721
                ]
            },
            "properties": {
                "ref:rspo": 105353,
                "official_name": "Powiatowe Centrum Edukacji - Centrum Kszta\u0142cenia Ustawicznego w Pile",
                "name": "Powiatowe Centrum Edukacji - Centrum Kszta\u0142cenia Ustawicznego w Pile",
                "addr:postcode": "64-920",
                "addr:city": "Pi\u0142a",
                "addr:street": "Ceglana",
                "addr:housenumber": "2",
                "addr:teryt:simc": 966530,
                "addr:teryt:sym_ul": 2587,
                "phone": "+48 673512078",
                "email": "sekretariat@pcepila.pl",
                "website": "http:\/\/www.pcepila.pl",
                "ref:regon": "000840444",
                "ref:vatin": "PL7642413724",
                "operator": "Powiat Pilski",
                "operator:type": "government",
                "amenity": "school",
                "fixme": "amenity=school lub amenity=college",
                "note": "Children RSPO: 127167;127225;277056Parent RSPO: 105243"
            }
        },
        {
            "id": 126194,
            "type": "Feature",
            "geometry": {
                "type": "Point",
                "coordinates": [
                    16.72336,
                    53.14718
                ]
            },
            "properties": {
                "ref:rspo": 126194,
                "official_name": "Centrum Kszta\u0142cenia Zawodowego",
                "name": "Centrum Kszta\u0142cenia Zawodowego",
                "addr:postcode": "64-920",
                "addr:city": "Pi\u0142a",
                "addr:street": "Ceglana",
                "addr:housenumber": "2",
                "addr:teryt:simc": 966530,
                "addr:teryt:sym_ul": 2587,
                "phone": "+48 673512078",
                "email": "sekretariat@pcepila.pl",
                "website": "http:\/\/www.pcepila.pl",
                "ref:regon": "572118342",
                "operator": "Powiat Pilski",
                "operator:type": "government",
                "fixme": "w zale\u017cno\u015bci od przedmiotu dzia\u0142alno\u015bci (np. amenity=training + training=*, amenity=dancing_school, amenity=language_school, amenity=music_school) albo amenity=school, amenity=college, albo landuse=education w zale\u017cno\u015bci od tego, jakie plac\u00f3wki wchodz\u0105 w sk\u0142ad zespo\u0142u. Sprawd\u017a, kiedy stosowa\u0107 amenity=* a kiedy landuse=education.",
                "note": "Parent RSPO: 105243"
            }
        },
        {
            "id": 127026,
            "type": "Feature",
            "geometry": {
                "type": "Point",
                "coordinates": [
                    16.72336,
                    53.147149999999996
                ]
            },
            "properties": {
                "isced:level": "4",
                "ref:rspo": 127026,
                "official_name": "Szko\u0142a Policealna",
                "name": "Szko\u0142a Policealna",
                "addr:postcode": "64-920",
                "addr:city": "Pi\u0142a",
                "addr:street": "Ceglana",
                "addr:housenumber": "2",
                "addr:teryt:simc": 966530,
                "addr:teryt:sym_ul": 2587,
                "phone": "+48 673512078",
                "email": "pcepila@op.pl",
                "website": "http:\/\/www.pcepila.repblika.pl",
                "ref:regon": "300135819",
                "operator": "Powiat Pilski",
                "operator:type": "government",
                "amenity": "college",
                "note": "Parent RSPO: 105344"
            }
        },
        {
            "id": 274528,
            "type": "Feature",
            "geometry": {
                "type": "Point",
                "coordinates": [
                    16.72336,
                    53.14712
                ]
            },
            "properties": {
                "isced:level": "3",
                "ref:rspo": 274528,
                "official_name": "Zasadnicza Szko\u0142a Zawodowa dla Doros\u0142ych",
                "name": "Zasadnicza Szko\u0142a Zawodowa dla Doros\u0142ych",
                "addr:postcode": "64-920",
                "addr:city": "Pi\u0142a",
                "addr:street": "Ceglana",
                "addr:housenumber": "2",
                "addr:teryt:simc": 966530,
                "addr:teryt:sym_ul": 2587,
                "phone": "+48 673512078",
                "email": "sekretariat@pcepila.pl",
                "ref:regon": "300135771",
                "operator": "Powiat Pilski",
                "operator:type": "government",
                "amenity": "school",
                "note": "Parent RSPO: 105344"
            }
        },
        {
            "id": 127167,
            "type": "Feature",
            "geometry": {
                "type": "Point",
                "coordinates": [
                    16.72336,
                    53.14709
                ]
            },
            "properties": {
                "isced:level": "4",
                "ref:rspo": 127167,
                "official_name": "Szko\u0142a Policealna",
                "name": "Szko\u0142a Policealna",
                "addr:postcode": "64-920",
                "addr:city": "Pi\u0142a",
                "addr:street": "Ceglana",
                "addr:housenumber": "2",
                "addr:teryt:simc": 966530,
                "addr:teryt:sym_ul": 2587,
                "phone": "+48 673512078",
                "email": "sekretariat@pcepila.pl",
                "website": "http:\/\/www.pcepila.pl",
                "ref:regon": "570861344",
                "operator": "Powiat Pilski",
                "operator:type": "government",
                "amenity": "college",
                "note": "Parent RSPO: 105353"
            }
        },
        {
            "id": 127225,
            "type": "Feature",
            "geometry": {
                "type": "Point",
                "coordinates": [
                    16.72336,
                    53.147059999999996
                ]
            },
            "properties": {
                "isced:level": "3",
                "ref:rspo": 127225,
                "official_name": "L:iceum Og\u00f3lnokszta\u0142c\u0105ce dla Doros\u0142ych",
                "name": "L:iceum Og\u00f3lnokszta\u0142c\u0105ce dla Doros\u0142ych",
                "addr:postcode": "64-920",
                "addr:city": "Pi\u0142a",
                "addr:street": "Ceglana",
                "addr:housenumber": "2",
                "addr:teryt:simc": 966530,
                "addr:teryt:sym_ul": 2587,
                "phone": "+48 673512078",
                "email": "sekretariat@pcepila.pl",
                "website": "http:\/\/www.pcepila.pl",
                "ref:regon": "572113669",
                "operator": "Powiat Pilski",
                "operator:type": "government",
                "amenity": "school",
                "note": "Parent RSPO: 105353"
            }
        },
        {
            "id": 277056,
            "type": "Feature",
            "geometry": {
                "type": "Point",
                "coordinates": [
                    16.72336,
                    53.14703
                ]
            },
            "properties": {
                "isced:level": "1;2",
                "ref:rspo": 277056,
                "official_name": "Szko\u0142a Podstawowa dla Doros\u0142ych",
                "name": "Szko\u0142a Podstawowa dla Doros\u0142ych",
                "addr:postcode": "64-920",
                "addr:city": "Pi\u0142a",
                "addr:street": "Ceglana",
                "addr:housenumber": "2",
                "addr:teryt:simc": 966530,
                "addr:teryt:sym_ul": 2587,
                "phone": "+48 673512078",
                "email": "sekretariat@pcepila.pl",
                "website": "http:\/\/www.pcepila.pl",
                "ref:regon": "388104730",
                "operator": "Powiat Pilski",
                "operator:type": "government",
                "amenity": "school",
                "note": "Parent RSPO: 105353"
            }
        },
        {
            "id": 78961,
            "type": "Feature",
            "geometry": {
                "type": "Point",
                "coordinates": [
                    16.73919,
                    53.14748
                ]
            },
            "properties": {
                "isced:level": "3",
                "ref:rspo": 78961,
                "official_name": "Liceum Og\u00f3lnokszta\u0142c\u0105ce dla Doros\u0142ych \"\u017bak\" w Pile",
                "name": "Liceum Og\u00f3lnokszta\u0142c\u0105ce dla Doros\u0142ych \"\u017bak\" w Pile",
                "addr:postcode": "64-920",
                "addr:city": "Pi\u0142a",
                "addr:street": "pl. plac Konstytucji 3 Maja",
                "addr:housenumber": "8",
                "addr:teryt:simc": 966530,
                "addr:teryt:sym_ul": 55709,
                "phone": "+48 672155352",
                "email": "pila@zak.edu.pl",
                "website": "http:\/\/www.zak.edu.pl",
                "ref:regon": "302268513",
                "ref:vatin": "PL7292597869",
                "operator": "Centrum Nauki I Biznesu \"\u017bak\" Sp\u00f3\u0142ka Z Ograniczon\u0105 Odpowiedzialno\u015bci\u0105",
                "operator:type": "private",
                "amenity": "school"
            }
        },
        {
            "id": 79132,
            "type": "Feature",
            "geometry": {
                "type": "Point",
                "coordinates": [
                    16.73919,
                    53.14745
                ]
            },
            "properties": {
                "ref:rspo": 79132,
                "official_name": "O\u015brodek Szkoleniowy Centrum Nauki I Biznesu \"\u017bak\" w Pile",
                "name": "O\u015brodek Szkoleniowy Centrum Nauki I Biznesu \"\u017bak\" w Pile",
                "addr:postcode": "64-920",
                "addr:city": "Pi\u0142a",
                "addr:street": "pl. plac Konstytucji 3 Maja",
                "addr:housenumber": "8",
                "addr:teryt:simc": 966530,
                "addr:teryt:sym_ul": 55709,
                "phone": "+48 672155352",
                "email": "pila@zak.edu.pl",
                "website": "http:\/\/www.zak.edu.pl",
                "ref:regon": "302268619",
                "ref:vatin": "PL7292597869",
                "operator": "Centrum Nauki I Biznesu \"\u017bak\" Sp\u00f3\u0142ka Z Ograniczon\u0105 Odpowiedzialno\u015bci\u0105",
                "operator:type": "private",
                "fixme": "w zale\u017cno\u015bci od przedmiotu dzia\u0142alno\u015bci (np. amenity=training + training=*, amenity=dancing_school, amenity=language_school, amenity=music_school)"
            }
        },
        {
            "id": 119186,
            "type": "Feature",
            "geometry": {
                "type": "Point",
                "coordinates": [
                    16.73919,
                    53.147420000000004
                ]
            },
            "properties": {
                "isced:level": "4",
                "ref:rspo": 119186,
                "official_name": "Szko\u0142a Policealna- Szko\u0142a Policealna Szko\u0142a Zawodowa \"\u017bak\" w Pile",
                "name": "Szko\u0142a Policealna- Szko\u0142a Policealna Szko\u0142a Zawodowa \"\u017bak\" w Pile",
                "addr:postcode": "64-920",
                "addr:city": "Pi\u0142a",
                "addr:street": "pl. plac Konstytucji 3 Maja",
                "addr:housenumber": "8",
                "addr:teryt:simc": 966530,
                "addr:teryt:sym_ul": 55709,
                "phone": "+48 672155352",
                "email": "pila@zak.edu.pl",
                "website": "http:\/\/www.zak.edu.pl",
                "ref:regon": "302515242",
                "ref:vatin": "PL7292597869",
                "operator": "Centrum Nauki I Biznesu \"\u017bak\" Sp\u00f3\u0142ka Z Ograniczon\u0105 Odpowiedzialno\u015bci\u0105",
                "operator:type": "private",
                "amenity": "college"
            }
        },
        {
            "id": 129666,
            "type": "Feature",
            "geometry": {
                "type": "Point",
                "coordinates": [
                    16.73919,
                    53.14739
                ]
            },
            "properties": {
                "isced:level": "4",
                "ref:rspo": 129666,
                "official_name": "Policealna Szko\u0142a Opieki Medycznej \"\u017bak\" w Pile",
                "name": "Policealna Szko\u0142a Opieki Medycznej \"\u017bak\" w Pile",
                "addr:postcode": "64-920",
                "addr:city": "Pi\u0142a",
                "addr:street": "pl. plac Konstytucji 3 Maja",
                "addr:housenumber": "8",
                "addr:teryt:simc": 966530,
                "addr:teryt:sym_ul": 55709,
                "phone": "+48 672155352",
                "email": "pila@zak.edu.pl",
                "website": "http:\/\/www..zak.edu.pl",
                "ref:regon": "362726044",
                "operator": "Centrum Nauki I Biznesu \"\u017bak\" Sp\u00f3\u0142ka Z Ograniczon\u0105 Odpowiedzialno\u015bci\u0105",
                "operator:type": "private",
                "amenity": "college"
            }
        },
        {
            "id": 17521,
            "type": "Feature",
            "geometry": {
                "type": "Point",
                "coordinates": [
                    16.73291,
                    53.14785
                ]
            },
            "properties": {
                "ref:rspo": 17521,
                "official_name": "Zesp\u00f3\u0142 Szk\u00f3\u0142 Budowlanych w Pile",
                "name": "Zesp\u00f3\u0142 Szk\u00f3\u0142 Budowlanych w Pile",
                "addr:postcode": "64-920",
                "addr:city": "Pi\u0142a",
                "addr:street": "Jana Kili\u0144skiego",
                "addr:housenumber": "16",
                "addr:teryt:simc": 966530,
                "addr:teryt:sym_ul": 8431,
                "phone": "+48 672126181",
                "email": "zsbpila.sekretariat@gmail.com",
                "website": "http:\/\/zsb.pila.pl",
                "ref:regon": "570860149",
                "ref:vatin": "PL7642238853",
                "operator": "Powiat Pilski",
                "operator:type": "government",
                "landuse": "education",
                "fixme": "amenity=school, amenity=college albo landuse=education w zale\u017cno\u015bci od tego, jakie plac\u00f3wki wchodz\u0105 w sk\u0142ad zespo\u0142u. Sprawd\u017a, kiedy stosowa\u0107 amenity=* a kiedy landuse=education.",
                "note": "Children RSPO: 105350;105351;275945"
            }
        },
        {
            "id": 105350,
            "type": "Feature",
            "geometry": {
                "type": "Point",
                "coordinates": [
                    16.73291,
                    53.147819999999996
                ]
            },
            "properties": {
                "isced:level": "3",
                "ref:rspo": 105350,
                "official_name": "Technikum Nr 4 w Pile",
                "name": "Technikum Nr 4 w Pile",
                "addr:postcode": "64-920",
                "addr:city": "Pi\u0142a",
                "addr:street": "Jana Kili\u0144skiego",
                "addr:housenumber": "16",
                "addr:teryt:simc": 966530,
                "addr:teryt:sym_ul": 8431,
                "phone": "+48 672126181",
                "email": "zsbpila.sekretariat@gmail.com",
                "website": "http:\/\/www.zsb.pila.pl",
                "ref:regon": "570860178",
                "ref:vatin": "PL7642238853",
                "operator": "Powiat Pilski",
                "operator:type": "government",
                "amenity": "school",
                "note": "Parent RSPO: 17521"
            }
        },
        {
            "id": 105351,
            "type": "Feature",
            "geometry": {
                "type": "Point",
                "coordinates": [
                    16.73291,
                    53.14779
                ]
            },
            "properties": {
                "isced:level": "3",
                "ref:rspo": 105351,
                "official_name": "Bran\u017cowa Szko\u0142a I Stopnia Nr 4",
                "name": "Bran\u017cowa Szko\u0142a I Stopnia Nr 4",
                "addr:postcode": "64-920",
                "addr:city": "Pi\u0142a",
                "addr:street": "Jana Kili\u0144skiego",
                "addr:housenumber": "16",
                "addr:teryt:simc": 966530,
                "addr:teryt:sym_ul": 8431,
                "phone": "+48 672126181",
                "email": "zsbpila.sekretariat@gmail.com",
                "website": "http:\/\/www.zsb.pila.pl",
                "ref:regon": "570860190",
                "ref:vatin": "PL7642238853",
                "operator": "Powiat Pilski",
                "operator:type": "government",
                "amenity": "school",
                "note": "Parent RSPO: 17521"
            }
        },
        {
            "id": 275945,
            "type": "Feature",
            "geometry": {
                "type": "Point",
                "coordinates": [
                    16.73291,
                    53.14776
                ]
            },
            "properties": {
                "isced:level": "3",
                "ref:rspo": 275945,
                "official_name": "Bran\u017cowa Szko\u0142a II Stopnia Nr 4 w Pile",
                "name": "Bran\u017cowa Szko\u0142a II Stopnia Nr 4 w Pile",
                "addr:postcode": "64-920",
                "addr:city": "Pi\u0142a",
                "addr:street": "Jana Kili\u0144skiego",
                "addr:housenumber": "16",
                "addr:teryt:simc": 966530,
                "addr:teryt:sym_ul": 8431,
                "phone": "+48 672126181",
                "email": "zsbpila.sekretariat@gmail.com",
                "website": "http:\/\/www.zsb.pila.pl",
                "ref:regon": "386957411",
                "operator": "Powiat Pilski",
                "operator:type": "government",
                "amenity": "school",
                "note": "Parent RSPO: 17521"
            }
        },
        {
            "id": 2905,
            "type": "Feature",
            "geometry": {
                "type": "Point",
                "coordinates": [
                    16.73048,
                    53.14809
                ]
            },
            "properties": {
                "ref:rspo": 2905,
                "official_name": "Publiczne Przedszkole Nr 11 w Pile",
                "name": "Publiczne Przedszkole Nr 11 w Pile",
                "addr:postcode": "64-920",
                "addr:city": "Pi\u0142a",
                "addr:street": "\u015awi\u0119tego Jana Bosko",
                "addr:housenumber": "2",
                "addr:teryt:simc": 966530,
                "addr:teryt:sym_ul": 1915,
                "phone": "+48 673517665",
                "email": "pp11@cuw.pila.pl",
                "website": "http:\/\/www.publiczneprzedszkole11.pila.pl\/",
                "ref:regon": "301406605",
                "ref:vatin": "PL7642637636",
                "operator": "Gmina Pi\u0142a",
                "operator:type": "government",
                "amenity": "kindergarten"
            }
        },
        {
            "id": 13462,
            "type": "Feature",
            "geometry": {
                "type": "Point",
                "coordinates": [
                    16.73555,
                    53.1484499
                ]
            },
            "properties": {
                "isced:level": "4",
                "ref:rspo": 13462,
                "official_name": "Szko\u0142a Policealna Teb Edukacja w Pile",
                "name": "Szko\u0142a Policealna Teb Edukacja w Pile",
                "addr:postcode": "64-920",
                "addr:city": "Pi\u0142a",
                "addr:street": "\u015ar\u00f3dmiejska",
                "addr:housenumber": "16",
                "addr:teryt:simc": 966530,
                "addr:teryt:sym_ul": 22428,
                "phone": "+48 673567350",
                "email": "pila@teb-edukacja.pl",
                "website": "http:\/\/www.teb.pl",
                "ref:regon": "302217875",
                "ref:vatin": "PL7781456499",
                "operator": "Teb Edukacja Sp\u00f3\u0142ka Z Ograniczon\u0105 Odpowiedzialno\u015bci\u0105",
                "operator:type": "private",
                "amenity": "college"
            }
        },
        {
            "id": 14097,
            "type": "Feature",
            "geometry": {
                "type": "Point",
                "coordinates": [
                    16.73555,
                    53.1484199
                ]
            },
            "properties": {
                "isced:level": "3",
                "ref:rspo": 14097,
                "official_name": "Liceum Og\u00f3lnokszta\u0142c\u0105ce Teb Edukacja",
                "name": "Liceum Og\u00f3lnokszta\u0142c\u0105ce Teb Edukacja",
                "addr:postcode": "64-920",
                "addr:city": "Pi\u0142a",
                "addr:street": "\u015ar\u00f3dmiejska",
                "addr:housenumber": "16",
                "addr:teryt:simc": 966530,
                "addr:teryt:sym_ul": 22428,
                "phone": "+48 673567350",
                "email": "pila@teb-edukacja.pl",
                "website": "http:\/\/www.teb.pl",
                "ref:regon": "302245481",
                "ref:vatin": "PL7781456499",
                "operator": "Teb Edukacja Sp\u00f3\u0142ka Z Ograniczon\u0105 Odpowiedzialno\u015bci\u0105",
                "operator:type": "private",
                "amenity": "school"
            }
        },
        {
            "id": 14100,
            "type": "Feature",
            "geometry": {
                "type": "Point",
                "coordinates": [
                    16.73555,
                    53.148389900000005
                ]
            },
            "properties": {
                "isced:level": "3",
                "ref:rspo": 14100,
                "official_name": "Technikum Teb Edukacja w Pile",
                "name": "Technikum Teb Edukacja w Pile",
                "addr:postcode": "64-920",
                "addr:city": "Pi\u0142a",
                "addr:street": "\u015ar\u00f3dmiejska",
                "addr:housenumber": "16",
                "addr:teryt:simc": 966530,
                "addr:teryt:sym_ul": 22428,
                "phone": "+48 673567350",
                "email": "pila@teb-edukacja.pl",
                "website": "http:\/\/www.teb.pl",
                "ref:regon": "302218171",
                "ref:vatin": "PL7781456499",
                "operator": "Teb Edukacja Sp\u00f3\u0142ka Z Ograniczon\u0105 Odpowiedzialno\u015bci\u0105",
                "operator:type": "private",
                "amenity": "school"
            }
        },
        {
            "id": 14538,
            "type": "Feature",
            "geometry": {
                "type": "Point",
                "coordinates": [
                    16.73555,
                    53.1483599
                ]
            },
            "properties": {
                "ref:rspo": 14538,
                "official_name": "Teb Edukacja Studium Kszta\u0142cenia Praktycznego",
                "name": "Teb Edukacja Studium Kszta\u0142cenia Praktycznego",
                "addr:postcode": "64-920",
                "addr:city": "Pi\u0142a",
                "addr:street": "\u015ar\u00f3dmiejska",
                "addr:housenumber": "16",
                "addr:teryt:simc": 966530,
                "addr:teryt:sym_ul": 22428,
                "phone": "+48 673567350",
                "email": "pila@teb-edukacja.pl",
                "website": "http:\/\/www.teb.pl",
                "ref:regon": "302218343",
                "ref:vatin": "PL7781456499",
                "operator": "Teb Edukacja Sp\u00f3\u0142ka Z Ograniczon\u0105 Odpowiedzialno\u015bci\u0105",
                "operator:type": "private",
                "fixme": "w zale\u017cno\u015bci od przedmiotu dzia\u0142alno\u015bci (np. amenity=training + training=*, amenity=dancing_school, amenity=language_school, amenity=music_school)"
            }
        },
        {
            "id": 2899,
            "type": "Feature",
            "geometry": {
                "type": "Point",
                "coordinates": [
                    16.74303,
                    53.14876
                ]
            },
            "properties": {
                "ref:rspo": 2899,
                "official_name": "Publiczne Przedszkole Nr 5 im. Niezapominajki w Pile",
                "name": "Publiczne Przedszkole Nr 5",
                "addr:postcode": "64-920",
                "addr:city": "Pi\u0142a",
                "addr:street": "Marii Konopnickiej",
                "addr:housenumber": "7",
                "addr:teryt:simc": 966530,
                "addr:teryt:sym_ul": 9186,
                "phone": "+48 672123277",
                "email": "pp5@cuw.pila.pl",
                "website": "http:\/\/publiczneprzedszkole5.pila.pl",
                "ref:regon": "301412818",
                "ref:vatin": "PL7642638096",
                "operator": "Gmina Pi\u0142a",
                "operator:type": "government",
                "amenity": "kindergarten"
            }
        },
        {
            "id": 17164,
            "type": "Feature",
            "geometry": {
                "type": "Point",
                "coordinates": [
                    16.73029,
                    53.14908
                ]
            },
            "properties": {
                "isced:level": "4",
                "ref:rspo": 17164,
                "official_name": "Policealne Studium Zawodowe \"Fama\"",
                "name": "Policealne Studium Zawodowe \"Fama\"",
                "addr:postcode": "64-920",
                "addr:city": "Pi\u0142a",
                "addr:street": "Genera\u0142a W\u0142adys\u0142awa Sikorskiego",
                "addr:housenumber": "73",
                "addr:teryt:simc": 966530,
                "addr:teryt:sym_ul": 19901,
                "phone": "+48 673517007",
                "email": "pila@fama.edu.pl",
                "website": "http:\/\/www.fama.pila.pl",
                "ref:regon": "302221990",
                "ref:vatin": "PL9670955912",
                "operator": "Dane Do Uzupe\u0142nienia",
                "operator:type": "private",
                "amenity": "college"
            }
        },
        {
            "id": 17300,
            "type": "Feature",
            "geometry": {
                "type": "Point",
                "coordinates": [
                    16.73029,
                    53.149049999999995
                ]
            },
            "properties": {
                "isced:level": "4",
                "ref:rspo": 17300,
                "official_name": "Policealne Medyczne Studium Zawodowe \"Fama\"",
                "name": "Policealne Medyczne Studium Zawodowe \"Fama\"",
                "addr:postcode": "64-920",
                "addr:city": "Pi\u0142a",
                "addr:street": "Genera\u0142a W\u0142adys\u0142awa Sikorskiego",
                "addr:housenumber": "73",
                "addr:teryt:simc": 966530,
                "addr:teryt:sym_ul": 19901,
                "phone": "+48 673517007",
                "email": "pila@fama.edu.pl",
                "website": "http:\/\/www.fama.pila.pl",
                "ref:regon": "302222095",
                "ref:vatin": "PL9670955912",
                "operator": "Dane Do Uzupe\u0142nienia",
                "operator:type": "private",
                "amenity": "college"
            }
        },
        {
            "id": 17360,
            "type": "Feature",
            "geometry": {
                "type": "Point",
                "coordinates": [
                    16.73029,
                    53.14902
                ]
            },
            "properties": {
                "isced:level": "4",
                "ref:rspo": 17360,
                "official_name": "Studium Policealne \"Fama\" w Pile",
                "name": "Studium Policealne \"Fama\" w Pile",
                "addr:postcode": "64-920",
                "addr:city": "Pi\u0142a",
                "addr:street": "Genera\u0142a W\u0142adys\u0142awa Sikorskiego",
                "addr:housenumber": "73",
                "addr:teryt:simc": 966530,
                "addr:teryt:sym_ul": 19901,
                "phone": "+48 673517007",
                "email": "pila@fama.edu.pl",
                "website": "http:\/\/www.fama.pila.pl",
                "ref:regon": "302220469",
                "ref:vatin": "PL9670955912",
                "operator": "Dane Do Uzupe\u0142nienia",
                "operator:type": "private",
                "amenity": "college"
            }
        },
        {
            "id": 17763,
            "type": "Feature",
            "geometry": {
                "type": "Point",
                "coordinates": [
                    16.73029,
                    53.14899
                ]
            },
            "properties": {
                "ref:rspo": 17763,
                "official_name": "Zesp\u00f3\u0142 Szk\u00f3\u0142 Gastronomicznych w Pile",
                "name": "Zesp\u00f3\u0142 Szk\u00f3\u0142 Gastronomicznych w Pile",
                "addr:postcode": "64-920",
                "addr:city": "Pi\u0142a",
                "addr:street": "Genera\u0142a W\u0142adys\u0142awa Sikorskiego",
                "addr:housenumber": "73",
                "addr:teryt:simc": 966530,
                "addr:teryt:sym_ul": 19901,
                "phone": "+48 672109355",
                "email": "sekretariat@zsg.pila.pl",
                "website": "http:\/\/www.zsg.pila.pl",
                "ref:regon": "000333291",
                "ref:vatin": "PL7642311998",
                "operator": "Powiat Pilski",
                "operator:type": "government",
                "landuse": "education",
                "fixme": "amenity=school, amenity=college albo landuse=education w zale\u017cno\u015bci od tego, jakie plac\u00f3wki wchodz\u0105 w sk\u0142ad zespo\u0142u. Sprawd\u017a, kiedy stosowa\u0107 amenity=* a kiedy landuse=education.",
                "note": "Children RSPO: 46557;46651;105226;105267;115642;276000"
            }
        },
        {
            "id": 46557,
            "type": "Feature",
            "geometry": {
                "type": "Point",
                "coordinates": [
                    16.73029,
                    53.148959999999995
                ]
            },
            "properties": {
                "isced:level": "3",
                "ref:rspo": 46557,
                "official_name": "Bran\u017cowa Szko\u0142a I Stopnia Specjalna",
                "name": "Bran\u017cowa Szko\u0142a I Stopnia Specjalna",
                "addr:postcode": "64-920",
                "addr:city": "Pi\u0142a",
                "addr:street": "Genera\u0142a W\u0142adys\u0142awa Sikorskiego",
                "addr:housenumber": "73",
                "addr:teryt:simc": 966530,
                "addr:teryt:sym_ul": 19901,
                "phone": "+48 672123401",
                "email": "sekretariat@zsg.pila.pl",
                "website": "http:\/\/www.zsg.pila.pl",
                "ref:regon": "570868079",
                "ref:vatin": "PL7642311998",
                "operator": "Powiat Pilski",
                "operator:type": "government",
                "amenity": "school",
                "note": "Parent RSPO: 17763"
            }
        },
        {
            "id": 46651,
            "type": "Feature",
            "geometry": {
                "type": "Point",
                "coordinates": [
                    16.73029,
                    53.14893
                ]
            },
            "properties": {
                "isced:level": "3",
                "ref:rspo": 46651,
                "official_name": "Technikum Nr 5 w Pile",
                "name": "Technikum Nr 5 w Pile",
                "addr:postcode": "64-920",
                "addr:city": "Pi\u0142a",
                "addr:street": "Genera\u0142a W\u0142adys\u0142awa Sikorskiego",
                "addr:housenumber": "73",
                "addr:teryt:simc": 966530,
                "addr:teryt:sym_ul": 19901,
                "phone": "+48 672123401",
                "email": "sekretariat@zsg.pila.pl",
                "website": "http:\/\/www.zsg.pila.pl",
                "ref:regon": "570867915",
                "ref:vatin": "PL7642311998",
                "operator": "Powiat Pilski",
                "operator:type": "government",
                "amenity": "school",
                "note": "Parent RSPO: 17763"
            }
        },
        {
            "id": 105226,
            "type": "Feature",
            "geometry": {
                "type": "Point",
                "coordinates": [
                    16.73029,
                    53.1489
                ]
            },
            "properties": {
                "ref:rspo": 105226,
                "official_name": "Szko\u0142a Specjalna Przysposabiaj\u0105ca Do Pracy",
                "name": "Szko\u0142a Specjalna Przysposabiaj\u0105ca Do Pracy",
                "addr:postcode": "64-920",
                "addr:city": "Pi\u0142a",
                "addr:street": "Genera\u0142a W\u0142adys\u0142awa Sikorskiego",
                "addr:housenumber": "73",
                "addr:teryt:simc": 966530,
                "addr:teryt:sym_ul": 19901,
                "phone": "+48 672123401",
                "email": "sekretariat@zsg.pila.pl",
                "website": "http:\/\/www.zsg.pila.pl",
                "ref:regon": "572137753",
                "ref:vatin": "PL7642311998",
                "operator": "Powiat Pilski",
                "operator:type": "government",
                "amenity": "school",
                "note": "Parent RSPO: 17763"
            }
        },
        {
            "id": 105267,
            "type": "Feature",
            "geometry": {
                "type": "Point",
                "coordinates": [
                    16.73029,
                    53.148869999999995
                ]
            },
            "properties": {
                "isced:level": "3",
                "ref:rspo": 105267,
                "official_name": "Bran\u017cowa Szko\u0142a I Stopnia Nr 5",
                "name": "Bran\u017cowa Szko\u0142a I Stopnia Nr 5",
                "addr:postcode": "64-920",
                "addr:city": "Pi\u0142a",
                "addr:street": "Genera\u0142a W\u0142adys\u0142awa Sikorskiego",
                "addr:housenumber": "73",
                "addr:teryt:simc": 966530,
                "addr:teryt:sym_ul": 19901,
                "phone": "+48 672123401",
                "email": "sekretariat@zsg.pila.pl",
                "website": "http:\/\/www.zsg.pila.pl",
                "ref:regon": "570868056",
                "ref:vatin": "PL7642311998",
                "operator": "Powiat Pilski",
                "operator:type": "government",
                "amenity": "school",
                "note": "Parent RSPO: 17763"
            }
        },
        {
            "id": 115642,
            "type": "Feature",
            "geometry": {
                "type": "Point",
                "coordinates": [
                    16.73029,
                    53.14884
                ]
            },
            "properties": {
                "isced:level": "3",
                "ref:rspo": 115642,
                "official_name": "Liceum Og\u00f3lnokszta\u0142c\u0105ce dla Doros\u0142ych w Pile",
                "name": "Liceum Og\u00f3lnokszta\u0142c\u0105ce dla Doros\u0142ych w Pile",
                "addr:postcode": "64-920",
                "addr:city": "Pi\u0142a",
                "addr:street": "Genera\u0142a W\u0142adys\u0142awa Sikorskiego",
                "addr:housenumber": "73",
                "addr:teryt:simc": 966530,
                "addr:teryt:sym_ul": 19901,
                "phone": "+48 672123401",
                "email": "sekretariat@zsg.pila.pl",
                "website": "http:\/\/www.zsg.pila.pl",
                "ref:regon": "302479316",
                "ref:vatin": "PL7642311998",
                "operator": "Powiat Pilski",
                "operator:type": "government",
                "amenity": "school",
                "note": "Parent RSPO: 17763"
            }
        },
        {
            "id": 276000,
            "type": "Feature",
            "geometry": {
                "type": "Point",
                "coordinates": [
                    16.73029,
                    53.14881
                ]
            },
            "properties": {
                "isced:level": "3",
                "ref:rspo": 276000,
                "official_name": "Bran\u017cowa Szko\u0142a II Stopnia Nr 5",
                "name": "Bran\u017cowa Szko\u0142a II Stopnia Nr 5",
                "addr:postcode": "64-920",
                "addr:city": "Pi\u0142a",
                "addr:street": "Genera\u0142a W\u0142adys\u0142awa Sikorskiego",
                "addr:housenumber": "73",
                "addr:teryt:simc": 966530,
                "addr:teryt:sym_ul": 19901,
                "phone": "+48 672123401",
                "email": "sekretariat@zsg.pila.pl",
                "website": "http:\/\/www.zsg.pila.pl",
                "ref:regon": "386964180",
                "operator": "Powiat Pilski",
                "operator:type": "government",
                "amenity": "school",
                "note": "Parent RSPO: 17763"
            }
        },
        {
            "id": 62044,
            "type": "Feature",
            "geometry": {
                "type": "Point",
                "coordinates": [
                    16.71703,
                    53.1491
                ]
            },
            "properties": {
                "ref:rspo": 62044,
                "official_name": "Niepubliczne Przedszkole \"Z\u0142ota Rybka\"",
                "name": "Niepubliczne Przedszkole \"Z\u0142ota Rybka\"",
                "addr:postcode": "64-920",
                "addr:city": "Pi\u0142a",
                "addr:street": "Jana Kasprowicza",
                "addr:housenumber": "3",
                "addr:teryt:simc": 966530,
                "addr:teryt:sym_ul": 8153,
                "phone": "+48 518559766",
                "email": "klubmaluszka@onet.eu",
                "website": "http:\/\/zlotarybka.pila.pl",
                "ref:regon": "302256102",
                "ref:vatin": "PL7642259654",
                "operator": "Agnieszka Skrypak-Schiller",
                "operator:type": "private",
                "amenity": "kindergarten"
            }
        },
        {
            "id": 105219,
            "type": "Feature",
            "geometry": {
                "type": "Point",
                "coordinates": [
                    16.7292099,
                    53.14916
                ]
            },
            "properties": {
                "ref:rspo": 105219,
                "official_name": "Zesp\u00f3\u0142 Poradni Psychologiczno - Pedagogicznych w Pile",
                "name": "Zesp\u00f3\u0142 Poradni Psychologiczno - Pedagogicznych w Pile",
                "addr:postcode": "64-920",
                "addr:city": "Pi\u0142a",
                "addr:street": "Genera\u0142a W\u0142adys\u0142awa Sikorskiego",
                "addr:housenumber": "19",
                "addr:teryt:simc": 966530,
                "addr:teryt:sym_ul": 19901,
                "phone": "+48 673509097",
                "email": "zppp@op.pl",
                "website": "http:\/\/www.zespolporadni.pila.pl",
                "ref:regon": "300723628",
                "ref:vatin": "PL7642584058",
                "operator": "Powiat Pilski",
                "operator:type": "government",
                "landuse": "education",
                "fixme": "amenity=school, amenity=college albo landuse=education w zale\u017cno\u015bci od tego, jakie plac\u00f3wki wchodz\u0105 w sk\u0142ad zespo\u0142u. Sprawd\u017a, kiedy stosowa\u0107 amenity=* a kiedy landuse=education.",
                "note": "Children RSPO: 109667;109668;113494"
            }
        },
        {
            "id": 109668,
            "type": "Feature",
            "geometry": {
                "type": "Point",
                "coordinates": [
                    16.7292099,
                    53.14913
                ]
            },
            "properties": {
                "ref:rspo": 109668,
                "official_name": "Poradnia Specjalistyczna Wad Mowy I S\u0142uchu w Pile",
                "name": "Poradnia Specjalistyczna Wad Mowy I S\u0142uchu w Pile",
                "addr:postcode": "64-920",
                "addr:city": "Pi\u0142a",
                "addr:street": "Genera\u0142a W\u0142adys\u0142awa Sikorskiego",
                "addr:housenumber": "19",
                "addr:teryt:simc": 966530,
                "addr:teryt:sym_ul": 19901,
                "phone": "+48 673509097",
                "email": "zppp@op.pl",
                "website": "http:\/\/www.zespolporadni.pila.pl",
                "ref:regon": "302350031",
                "ref:vatin": "PL7642584058",
                "operator": "Powiat Pilski",
                "operator:type": "government",
                "fixme": "w zale\u017cno\u015bci od przedmiotu dzia\u0142alno\u015bci (np. healthcare=counselling + counselling_type=education albo healthcare=psychotherapist)",
                "note": "Parent RSPO: 105219"
            }
        },
        {
            "id": 113494,
            "type": "Feature",
            "geometry": {
                "type": "Point",
                "coordinates": [
                    16.7292099,
                    53.149100000000004
                ]
            },
            "properties": {
                "ref:rspo": 113494,
                "official_name": "Poradnia Psychologiczno - Pedagogiczna w Pile",
                "name": "Poradnia Psychologiczno - Pedagogiczna w Pile",
                "addr:postcode": "64-920",
                "addr:city": "Pi\u0142a",
                "addr:street": "Genera\u0142a W\u0142adys\u0142awa Sikorskiego",
                "addr:housenumber": "19",
                "addr:teryt:simc": 966530,
                "addr:teryt:sym_ul": 19901,
                "phone": "+48 673509097",
                "email": "ppppila@op.pl",
                "website": "http:\/\/www.zespolporadni.pila.pl",
                "ref:regon": "302396760",
                "ref:vatin": "PL7642584058",
                "operator": "Powiat Pilski",
                "operator:type": "government",
                "healthcare": "counselling",
                "counselling_type": "education",
                "fixme": "w zale\u017cno\u015bci od przedmiotu dzia\u0142alno\u015bci (np. healthcare=counselling + counselling_type=education albo healthcare=psychotherapist)",
                "note": "Parent RSPO: 105219"
            }
        },
        {
            "id": 109036,
            "type": "Feature",
            "geometry": {
                "type": "Point",
                "coordinates": [
                    16.72606,
                    53.1492099
                ]
            },
            "properties": {
                "ref:rspo": 109036,
                "official_name": "Niepubliczna Plac\u00f3wka Kszta\u0142cenia Ustawicznego. Stowarzyszenie Ksi\u0119gowych w Polsce Oddzia\u0142 Terenowy w Pile Oddzia\u0142u Wielkopolskiego w Poznaniu",
                "name": "Niepubliczna Plac\u00f3wka Kszta\u0142cenia Ustawicznego. Stowarzyszenie Ksi\u0119gowych w Polsce Oddzia\u0142 Terenowy w Pile Oddzia\u0142u Wielkopolskiego w Poznaniu",
                "addr:postcode": "64-920",
                "addr:city": "Pi\u0142a",
                "addr:street": "Genera\u0142a W\u0142adys\u0142awa Sikorskiego",
                "addr:housenumber": "33",
                "addr:teryt:simc": 966530,
                "addr:teryt:sym_ul": 19901,
                "phone": "+48 672155381",
                "email": "pila@skwp.pl",
                "website": "http:\/\/www.skwp.pila.pl",
                "ref:regon": "302341546",
                "ref:vatin": "PL5260307956",
                "operator": "Stowarzyszenie Ksi\u0119gowych W Polsce",
                "operator:type": "ngo",
                "fixme": "w zale\u017cno\u015bci od przedmiotu dzia\u0142alno\u015bci (np. amenity=training + training=*, amenity=dancing_school, amenity=language_school, amenity=music_school)"
            }
        },
        {
            "id": 269625,
            "type": "Feature",
            "geometry": {
                "type": "Point",
                "coordinates": [
                    16.72606,
                    53.1491799
                ]
            },
            "properties": {
                "isced:level": "3",
                "ref:rspo": 269625,
                "official_name": "Szko\u0142a Bran\u017cowa I Stopnia \"\u017bak\" w Pile",
                "name": "Szko\u0142a Bran\u017cowa I Stopnia \"\u017bak\" w Pile",
                "addr:postcode": "64-920",
                "addr:city": "Pi\u0142a",
                "addr:street": "Genera\u0142a W\u0142adys\u0142awa Sikorskiego",
                "addr:housenumber": "33",
                "addr:teryt:simc": 966530,
                "addr:teryt:sym_ul": 19901,
                "phone": "+48 672125352",
                "website": "http:\/\/www.pila.zak.edu.pl",
                "ref:regon": "381603714",
                "operator": "Centrum Nauki I Biznesu \"\u017bak\" Sp\u00f3\u0142ka Z Ograniczon\u0105 Odpowiedzialno\u015bci\u0105",
                "operator:type": "private",
                "amenity": "school"
            }
        },
        {
            "id": 16194,
            "type": "Feature",
            "geometry": {
                "type": "Point",
                "coordinates": [
                    16.74812,
                    53.14946
                ]
            },
            "properties": {
                "ref:rspo": 16194,
                "official_name": "Zesp\u00f3\u0142 Szk\u00f3\u0142 Muzycznych im. Fryderyka Chopina w Pile",
                "name": "Zesp\u00f3\u0142 Szk\u00f3\u0142 Muzycznych",
                "addr:postcode": "64-920",
                "addr:city": "Pi\u0142a",
                "addr:street": "M\u0142odych",
                "addr:housenumber": "1",
                "addr:teryt:simc": 966530,
                "addr:teryt:sym_ul": 13087,
                "phone": "+48 673511470",
                "email": "szkola@fchopin.pila.pl",
                "website": "http:\/\/fchopin.pila.pl",
                "ref:regon": "000777102",
                "operator": "Ministerstwo Kultury I Dziedzictwa Narodowego",
                "operator:type": "public",
                "landuse": "education",
                "fixme": "amenity=school, amenity=college albo landuse=education w zale\u017cno\u015bci od tego, jakie plac\u00f3wki wchodz\u0105 w sk\u0142ad zespo\u0142u. Sprawd\u017a, kiedy stosowa\u0107 amenity=* a kiedy landuse=education.",
                "note": "Children RSPO: 78085;78086"
            }
        },
        {
            "id": 78085,
            "type": "Feature",
            "geometry": {
                "type": "Point",
                "coordinates": [
                    16.74812,
                    53.149429999999995
                ]
            },
            "properties": {
                "ref:rspo": 78085,
                "official_name": "Pa\u0144stwowa Szko\u0142a Muzyczna I St. im. Fryderyka Chopina w Pile",
                "name": "Pa\u0144stwowa Szko\u0142a Muzyczna I St.",
                "addr:postcode": "64-920",
                "addr:city": "Pi\u0142a",
                "addr:street": "M\u0142odych",
                "addr:housenumber": "1",
                "addr:teryt:simc": 966530,
                "addr:teryt:sym_ul": 13087,
                "phone": "+48 673511470",
                "ref:regon": "572044939",
                "operator": "Ministerstwo Kultury I Dziedzictwa Narodowego",
                "operator:type": "public",
                "amenity": "music_school",
                "note": "Parent RSPO: 16194"
            }
        },
        {
            "id": 78086,
            "type": "Feature",
            "geometry": {
                "type": "Point",
                "coordinates": [
                    16.74812,
                    53.1494
                ]
            },
            "properties": {
                "ref:rspo": 78086,
                "official_name": "Pa\u0144stwowa Szko\u0142a Muzyczna II St. im. Fryderyka Chopina w Pile",
                "name": "Pa\u0144stwowa Szko\u0142a Muzyczna II St.",
                "addr:postcode": "64-920",
                "addr:city": "Pi\u0142a",
                "addr:street": "M\u0142odych",
                "addr:housenumber": "1",
                "addr:teryt:simc": 966530,
                "addr:teryt:sym_ul": 13087,
                "phone": "+48 673511470",
                "ref:regon": "300985759",
                "operator": "Ministerstwo Kultury I Dziedzictwa Narodowego",
                "operator:type": "public",
                "amenity": "music_school",
                "note": "Parent RSPO: 16194"
            }
        },
        {
            "id": 2896,
            "type": "Feature",
            "geometry": {
                "type": "Point",
                "coordinates": [
                    16.75237,
                    53.14946
                ]
            },
            "properties": {
                "ref:rspo": 2896,
                "official_name": "Publiczne Przedszkole Nr 2 w Pile",
                "name": "Publiczne Przedszkole Nr 2 w Pile",
                "addr:postcode": "64-920",
                "addr:city": "Pi\u0142a",
                "addr:street": "Franklina Delano Roosevelta",
                "addr:housenumber": "38A",
                "addr:teryt:simc": 966530,
                "addr:teryt:sym_ul": 18854,
                "phone": "+48 672124077",
                "email": "pp2@cuw.pila.pl",
                "website": "http:\/\/www.przedszkole2.pila.pl",
                "ref:regon": "301411641",
                "ref:vatin": "PL7642638110",
                "operator": "Gmina Pi\u0142a",
                "operator:type": "government",
                "amenity": "kindergarten"
            }
        },
        {
            "id": 2996,
            "type": "Feature",
            "geometry": {
                "type": "Point",
                "coordinates": [
                    16.75237,
                    53.149429999999995
                ]
            },
            "properties": {
                "isced:level": "1;2",
                "ref:rspo": 2996,
                "official_name": "Szko\u0142a Podstawowa Nr 2 im. Olimpijczyk\u00f3w Polskich w Pile",
                "name": "Szko\u0142a Podstawowa Nr 2",
                "addr:postcode": "64-920",
                "addr:city": "Pi\u0142a",
                "addr:street": "Franklina Delano Roosevelta",
                "addr:housenumber": "12",
                "addr:teryt:simc": 966530,
                "addr:teryt:sym_ul": 18854,
                "phone": "+48 672123394",
                "email": "sp2@sp2pila.pl",
                "website": "http:\/\/www.sp2pila.pl",
                "ref:regon": "000230786",
                "ref:vatin": "PL7641100911",
                "operator": "Gmina Pi\u0142a",
                "operator:type": "government",
                "amenity": "school"
            }
        },
        {
            "id": 272589,
            "type": "Feature",
            "geometry": {
                "type": "Point",
                "coordinates": [
                    16.73271,
                    53.14956
                ]
            },
            "properties": {
                "ref:rspo": 272589,
                "official_name": "Niepubliczne Przedszkole Little People",
                "name": "Niepubliczne Przedszkole Little People",
                "addr:postcode": "64-920",
                "addr:city": "Pi\u0142a",
                "addr:street": "Genera\u0142a W\u0142adys\u0142awa Sikorskiego",
                "addr:housenumber": "9",
                "addr:teryt:simc": 966530,
                "addr:teryt:sym_ul": 19901,
                "phone": "+48 724842567",
                "email": "littlepeople.przedszkole@gmail.com",
                "website": "http:\/\/www.little-people.pl",
                "ref:regon": "384269032",
                "operator": "Beata Ciurzy\u0144ska",
                "operator:type": "private",
                "amenity": "kindergarten"
            }
        },
        {
            "id": 14640,
            "type": "Feature",
            "geometry": {
                "type": "Point",
                "coordinates": [
                    16.74225,
                    53.14969
                ]
            },
            "properties": {
                "ref:rspo": 14640,
                "official_name": "Beauty Vital Akademia Pi\u0119kna I Zdrowia",
                "name": "Beauty Vital Akademia Pi\u0119kna I Zdrowia",
                "addr:postcode": "64-920",
                "addr:city": "Pi\u0142a",
                "addr:street": "11 Listopada",
                "addr:housenumber": "40",
                "addr:teryt:simc": 966530,
                "addr:teryt:sym_ul": 11205,
                "phone": "+48 673491211",
                "email": "info@beautyvital.pl",
                "website": "http:\/\/www.beautyvital.pl",
                "ref:regon": "302213707",
                "ref:vatin": "PL7641901545",
                "operator": "Agnieszka V\u00f3lker",
                "operator:type": "private",
                "fixme": "w zale\u017cno\u015bci od przedmiotu dzia\u0142alno\u015bci (np. amenity=training + training=*, amenity=dancing_school, amenity=language_school, amenity=music_school)"
            }
        },
        {
            "id": 13250,
            "type": "Feature",
            "geometry": {
                "type": "Point",
                "coordinates": [
                    16.73282,
                    53.14982
                ]
            },
            "properties": {
                "ref:rspo": 13250,
                "official_name": "Magik Komputer Magdalena Perec",
                "name": "Magik Komputer Magdalena Perec",
                "addr:postcode": "64-920",
                "addr:city": "Pi\u0142a",
                "addr:street": "Jana Kili\u0144skiego",
                "addr:housenumber": "7",
                "addr:teryt:simc": 966530,
                "addr:teryt:sym_ul": 8431,
                "phone": "+48 673516700",
                "email": "info@magik.pila.pl",
                "website": "http:\/\/www.magik.pila.pl",
                "ref:regon": "302211068",
                "ref:vatin": "PL7641180927",
                "operator": "Magdalena Perec",
                "operator:type": "private",
                "fixme": "w zale\u017cno\u015bci od przedmiotu dzia\u0142alno\u015bci (np. amenity=training + training=*, amenity=dancing_school, amenity=language_school, amenity=music_school)"
            }
        },
        {
            "id": 17468,
            "type": "Feature",
            "geometry": {
                "type": "Point",
                "coordinates": [
                    16.73033,
                    53.14984
                ]
            },
            "properties": {
                "ref:rspo": 17468,
                "official_name": "Zesp\u00f3\u0142 Szk\u00f3\u0142 Ekonomicznych w Pile",
                "name": "Zesp\u00f3\u0142 Szk\u00f3\u0142 Ekonomicznych w Pile",
                "addr:postcode": "64-920",
                "addr:city": "Pi\u0142a",
                "addr:street": "Genera\u0142a W\u0142adys\u0142awa Sikorskiego",
                "addr:housenumber": "18A",
                "addr:teryt:simc": 966530,
                "addr:teryt:sym_ul": 19901,
                "phone": "+48 672123432",
                "email": "sekretariat@zse.pila.pl",
                "website": "http:\/\/www.zse.pila.pl",
                "ref:regon": "000333316",
                "ref:vatin": "PL7642308950",
                "operator": "Powiat Pilski",
                "operator:type": "government",
                "landuse": "education",
                "fixme": "amenity=school, amenity=college albo landuse=education w zale\u017cno\u015bci od tego, jakie plac\u00f3wki wchodz\u0105 w sk\u0142ad zespo\u0142u. Sprawd\u017a, kiedy stosowa\u0107 amenity=* a kiedy landuse=education.",
                "note": "Children RSPO: 105343"
            }
        },
        {
            "id": 105253,
            "type": "Feature",
            "geometry": {
                "type": "Point",
                "coordinates": [
                    16.73033,
                    53.149809999999995
                ]
            },
            "properties": {
                "isced:level": "4",
                "ref:rspo": 105253,
                "official_name": "Policealne Studium Zawodowe dla Doros\u0142ych",
                "name": "Policealne Studium Zawodowe dla Doros\u0142ych",
                "addr:postcode": "64-920",
                "addr:city": "Pi\u0142a",
                "addr:street": "Genera\u0142a W\u0142adys\u0142awa Sikorskiego",
                "addr:housenumber": "18A",
                "addr:teryt:simc": 966530,
                "addr:teryt:sym_ul": 19901,
                "phone": "+48 672123432",
                "email": "sekretariat@zse.pila.pl",
                "website": "http:\/\/www.zse.pila.pl",
                "ref:regon": "570865230",
                "ref:vatin": "PL7642308950",
                "operator": "Powiat Pilski",
                "operator:type": "government",
                "amenity": "college"
            }
        },
        {
            "id": 105343,
            "type": "Feature",
            "geometry": {
                "type": "Point",
                "coordinates": [
                    16.73033,
                    53.14978
                ]
            },
            "properties": {
                "isced:level": "3",
                "ref:rspo": 105343,
                "official_name": "Technikum Nr 3 w Pile",
                "name": "Technikum Nr 3 w Pile",
                "addr:postcode": "64-920",
                "addr:city": "Pi\u0142a",
                "addr:street": "Genera\u0142a W\u0142adys\u0142awa Sikorskiego",
                "addr:housenumber": "18A",
                "addr:teryt:simc": 966530,
                "addr:teryt:sym_ul": 19901,
                "phone": "+48 672123432",
                "email": "sekretariat@zse.pila.pl",
                "website": "http:\/\/www.zse.pila.pl",
                "ref:regon": "570865224",
                "ref:vatin": "PL7642308950",
                "operator": "Powiat Pilski",
                "operator:type": "government",
                "amenity": "school",
                "note": "Parent RSPO: 17468"
            }
        },
        {
            "id": 2909,
            "type": "Feature",
            "geometry": {
                "type": "Point",
                "coordinates": [
                    16.75967,
                    53.1498599
                ]
            },
            "properties": {
                "ref:rspo": 2909,
                "official_name": "Publiczne Przedszkole Nr 15 w Pile",
                "name": "Publiczne Przedszkole Nr 15 w Pile",
                "addr:postcode": "64-920",
                "addr:city": "Pi\u0142a",
                "addr:street": "Grabowa",
                "addr:housenumber": "20",
                "addr:teryt:simc": 966530,
                "addr:teryt:sym_ul": 6029,
                "phone": "+48 672124278",
                "email": "pp15@cuw.pila.pl",
                "website": "http:\/\/publiczneprzedszkole15.pila.pl",
                "ref:regon": "301409288",
                "operator": "Gmina Pi\u0142a",
                "operator:type": "government",
                "amenity": "kindergarten"
            }
        },
        {
            "id": 52396,
            "type": "Feature",
            "geometry": {
                "type": "Point",
                "coordinates": [
                    16.75824,
                    53.14991
                ]
            },
            "properties": {
                "isced:level": "1;2",
                "ref:rspo": 52396,
                "official_name": "Szko\u0142a Podstawowa Nr 4 im. Miko\u0142aja Kopernika w Pile",
                "name": "Szko\u0142a Podstawowa Nr 4",
                "addr:postcode": "64-920",
                "addr:city": "Pi\u0142a",
                "addr:street": "Grabowa",
                "addr:housenumber": "18",
                "addr:teryt:simc": 966530,
                "addr:teryt:sym_ul": 6029,
                "phone": "+48 672131157",
                "email": "sekretariat@sp4pila.dlaedu.pl",
                "website": "http:\/\/www.sp4.e-pila.pl",
                "ref:regon": "000235654",
                "ref:vatin": "PL7641099875",
                "operator": "Gmina Pi\u0142a",
                "operator:type": "government",
                "amenity": "school"
            }
        },
        {
            "id": 13216,
            "type": "Feature",
            "geometry": {
                "type": "Point",
                "coordinates": [
                    16.74656,
                    53.15001
                ]
            },
            "properties": {
                "ref:rspo": 13216,
                "official_name": "Federacja Stowarzysze\u0144 Naukowo- Technicznych Naczelnej Organizacji Technicznej Rada Regionalna w Pile",
                "name": "Federacja Stowarzysze\u0144 Naukowo- Technicznych Naczelnej Organizacji Technicznej Rada Regionalna w Pile",
                "addr:postcode": "64-920",
                "addr:city": "Pi\u0142a",
                "addr:street": "Browarna",
                "addr:housenumber": "19",
                "addr:teryt:simc": 966530,
                "addr:teryt:sym_ul": 2148,
                "phone": "+48 672131553",
                "email": "oil@pila.not.org.pl",
                "website": "http:\/\/www.not.pila.pl",
                "ref:regon": "302211000",
                "ref:vatin": "PL7640053730",
                "operator": "Federacja Stowarzysze\u0144 Naukowo-Technicznych Naczelnej Organizacji Technicznej Rada Regionalna W Pile",
                "operator:type": "ngo",
                "fixme": "w zale\u017cno\u015bci od przedmiotu dzia\u0142alno\u015bci (np. amenity=training + training=*, amenity=dancing_school, amenity=language_school, amenity=music_school)"
            }
        },
        {
            "id": 13318,
            "type": "Feature",
            "geometry": {
                "type": "Point",
                "coordinates": [
                    16.74656,
                    53.14998
                ]
            },
            "properties": {
                "ref:rspo": 13318,
                "official_name": "O\u015brodek Szkolenia Oddzia\u0142u Pilskiego Stowarzyszenia Elektryk\u00f3w Polskich w Pile",
                "name": "O\u015brodek Szkolenia Oddzia\u0142u Pilskiego Stowarzyszenia Elektryk\u00f3w Polskich w Pile",
                "addr:postcode": "64-920",
                "addr:city": "Pi\u0142a",
                "addr:street": "Browarna",
                "addr:housenumber": "19",
                "addr:teryt:simc": 966530,
                "addr:teryt:sym_ul": 2148,
                "phone": "+48 672129434",
                "email": "seppila@poczta.onet.pl",
                "ref:regon": "302211536",
                "ref:vatin": "PL5260000979",
                "operator": "Stowarzyszenie Elektryk\u00f3w Polskich",
                "operator:type": "ngo",
                "fixme": "w zale\u017cno\u015bci od przedmiotu dzia\u0142alno\u015bci (np. amenity=training + training=*, amenity=dancing_school, amenity=language_school, amenity=music_school)"
            }
        },
        {
            "id": 109024,
            "type": "Feature",
            "geometry": {
                "type": "Point",
                "coordinates": [
                    16.74656,
                    53.149950000000004
                ]
            },
            "properties": {
                "ref:rspo": 109024,
                "official_name": "Zak\u0142ad Doskonalenia Zawodowego Centrum Kszta\u0142cenia w Pile-Kszta\u0142cenie Ustawiczne w Formach Pozaszkolnych",
                "name": "Zak\u0142ad Doskonalenia Zawodowego Centrum Kszta\u0142cenia w Pile-Kszta\u0142cenie Ustawiczne w Formach Pozaszkolnych",
                "addr:postcode": "64-920",
                "addr:city": "Pi\u0142a",
                "addr:street": "Browarna",
                "addr:housenumber": "19",
                "addr:teryt:simc": 966530,
                "addr:teryt:sym_ul": 2148,
                "phone": "+48 672148276",
                "email": "ck_pila@poczta.onet.pl",
                "website": "http:\/\/www.zdz.pila.pl",
                "ref:regon": "302341121",
                "ref:vatin": "PL7770001720",
                "operator": "Zak\u0142ad Doskonalenia Zawodowego",
                "operator:type": "ngo",
                "fixme": "w zale\u017cno\u015bci od przedmiotu dzia\u0142alno\u015bci (np. amenity=training + training=*, amenity=dancing_school, amenity=language_school, amenity=music_school)"
            }
        },
        {
            "id": 132856,
            "type": "Feature",
            "geometry": {
                "type": "Point",
                "coordinates": [
                    16.74656,
                    53.14992
                ]
            },
            "properties": {
                "ref:rspo": 132856,
                "official_name": "Przedszkole \"Jak U Mamy\"",
                "name": "Przedszkole \"Jak U Mamy\"",
                "addr:postcode": "64-920",
                "addr:city": "Pi\u0142a",
                "addr:street": "Browarna",
                "addr:housenumber": "19",
                "addr:teryt:simc": 966530,
                "addr:teryt:sym_ul": 2148,
                "phone": "+48 796338340",
                "email": "mal.sakowicz@wp.pl",
                "ref:regon": "366273102",
                "operator": "Ecce Homo - Oto Cz\u0142owiek  Ma\u0142gorzata Sakowicz-Suwary",
                "operator:type": "consortium",
                "amenity": "kindergarten"
            }
        },
        {
            "id": 58853,
            "type": "Feature",
            "geometry": {
                "type": "Point",
                "coordinates": [
                    16.71345,
                    53.15037
                ]
            },
            "properties": {
                "ref:rspo": 58853,
                "official_name": "Przedszkole Niepubliczne \"Arka Noego\"",
                "name": "Przedszkole Niepubliczne \"Arka Noego\"",
                "addr:postcode": "64-920",
                "addr:city": "Pi\u0142a",
                "addr:street": "Z\u0142ota",
                "addr:housenumber": "1",
                "addr:teryt:simc": 966530,
                "addr:teryt:sym_ul": 26188,
                "phone": "+48 673491415",
                "email": "p.arkanoego@wp.pl",
                "website": "http:\/\/www.arkanoego.ct8.pl",
                "ref:regon": "302251240",
                "operator": "Sp\u00f3\u0142dzielnia Socjalna \"Impet\"",
                "operator:type": "cooperative",
                "amenity": "kindergarten"
            }
        },
        {
            "id": 2897,
            "type": "Feature",
            "geometry": {
                "type": "Point",
                "coordinates": [
                    16.734609603882,
                    53.15145111084
                ]
            },
            "properties": {
                "ref:rspo": 2897,
                "official_name": "Publiczne Przedszkole Nr 3 w Pile",
                "name": "Publiczne Przedszkole Nr 3 w Pile",
                "addr:postcode": "64-920",
                "addr:city": "Pi\u0142a",
                "addr:street": "Wincentego Pola",
                "addr:housenumber": "16",
                "addr:teryt:simc": 966530,
                "addr:teryt:sym_ul": 16961,
                "phone": "+48 672120235",
                "email": "przedszkole03pila@gmail.com",
                "website": "http:\/\/przedszkole3pila.pl",
                "ref:regon": "301408018",
                "ref:vatin": "PL7642638831",
                "operator": "Gmina Pi\u0142a",
                "operator:type": "government",
                "amenity": "kindergarten"
            }
        },
        {
            "id": 10828,
            "type": "Feature",
            "geometry": {
                "type": "Point",
                "coordinates": [
                    16.734609603882,
                    53.15142111084
                ]
            },
            "properties": {
                "isced:level": "1;2",
                "ref:rspo": 10828,
                "official_name": "Szko\u0142a Podstawowa Nr 12 Z Oddzia\u0142ami Integracyjnymi im. Janusza Korczaka w Pile",
                "name": "Szko\u0142a Podstawowa Nr 12 Z Oddzia\u0142ami Integracyjnymi",
                "addr:postcode": "64-920",
                "addr:city": "Pi\u0142a",
                "addr:street": "Lelewela",
                "addr:housenumber": "140",
                "addr:teryt:simc": 966530,
                "addr:teryt:sym_ul": 10790,
                "phone": "+48 672158148",
                "email": "sekretariat@sp12.net.pl",
                "website": "http:\/\/www.sp12.net.pl",
                "ref:regon": "570525267",
                "ref:vatin": "PL7641236674",
                "operator": "Gmina Pi\u0142a",
                "operator:type": "government",
                "amenity": "school"
            }
        },
        {
            "id": 58854,
            "type": "Feature",
            "geometry": {
                "type": "Point",
                "coordinates": [
                    16.76925,
                    53.15201
                ]
            },
            "properties": {
                "ref:rspo": 58854,
                "official_name": "Niepubliczne Przedszkole Angloj\u0119zyczne \"First Steps In English\"",
                "name": "Niepubliczne Przedszkole Angloj\u0119zyczne \"First Steps In English\"",
                "addr:postcode": "64-920",
                "addr:city": "Pi\u0142a",
                "addr:street": "Ja\u0142owcowa",
                "addr:housenumber": "8",
                "addr:teryt:simc": 966530,
                "addr:teryt:sym_ul": 7097,
                "phone": "+48 604314712",
                "email": "vermilion.pila@gmail.com",
                "website": "http:\/\/www.vermilion-pila.com",
                "ref:regon": "302251317",
                "operator": "Danuta \u015al\u0119k",
                "operator:type": "private",
                "amenity": "kindergarten"
            }
        },
        {
            "id": 132858,
            "type": "Feature",
            "geometry": {
                "type": "Point",
                "coordinates": [
                    16.76714,
                    53.15222
                ]
            },
            "properties": {
                "ref:rspo": 132858,
                "official_name": "Salezja\u0144skie Przedszkole im. \u015aw. Dominika Savio",
                "name": "Salezja\u0144skie Przedszkole",
                "addr:postcode": "64-920",
                "addr:city": "Pi\u0142a",
                "addr:street": "Genera\u0142a W\u0142adys\u0142awa Andersa",
                "addr:housenumber": "34",
                "addr:teryt:simc": 966530,
                "addr:teryt:sym_ul": 285,
                "phone": "+48 672157770",
                "email": "pila@spsalezjanska.pl",
                "ref:regon": "366274567",
                "operator": "Towarzystwo Salezja\u0144skie Inspektoria P.w. \u015aw. Wojciecha",
                "operator:type": "religious",
                "amenity": "kindergarten"
            }
        },
        {
            "id": 50242,
            "type": "Feature",
            "geometry": {
                "type": "Point",
                "coordinates": [
                    16.76714,
                    53.15219
                ]
            },
            "properties": {
                "isced:level": "1;2",
                "ref:rspo": 50242,
                "official_name": "Salezja\u0144ska Szko\u0142a Podstawowa im. Jana Paw\u0142a Ii",
                "name": "Salezja\u0144ska Szko\u0142a Podstawowa",
                "addr:postcode": "64-920",
                "addr:city": "Pi\u0142a",
                "addr:street": "Genera\u0142a W\u0142adys\u0142awa Andersa",
                "addr:housenumber": "34",
                "addr:teryt:simc": 966530,
                "addr:teryt:sym_ul": 285,
                "phone": "+48 672157770",
                "email": "pila@spsalezjanska.pl",
                "website": "http:\/\/spsalezjanska.pl",
                "ref:regon": "302256088",
                "ref:vatin": "PL7642278048",
                "operator": "Towarzystwo Salezja\u0144skie Inspektoria P.w. \u015aw. Wojciecha",
                "operator:type": "religious",
                "amenity": "school",
                "note": "Parent RSPO: 105346"
            }
        },
        {
            "id": 13274,
            "type": "Feature",
            "geometry": {
                "type": "Point",
                "coordinates": [
                    16.73481,
                    53.15245
                ]
            },
            "properties": {
                "ref:rspo": 13274,
                "official_name": "Prywatna Szko\u0142a J\u0119zyk\u00f3w Obcych \"Hello\"",
                "name": "Prywatna Szko\u0142a J\u0119zyk\u00f3w Obcych \"Hello\"",
                "addr:postcode": "64-920",
                "addr:city": "Pi\u0142a",
                "addr:street": "Budowlanych",
                "addr:housenumber": "4B",
                "addr:teryt:simc": 966530,
                "addr:teryt:sym_ul": 2337,
                "phone": "+48 673517010",
                "email": "hello@hello.edu.pl",
                "website": "http:\/\/www.hello.edu.pl",
                "ref:regon": "302211080",
                "ref:vatin": "PL7641550844",
                "operator": "Katarzyna Nitecka",
                "operator:type": "private",
                "fixme": "w zale\u017cno\u015bci od przedmiotu dzia\u0142alno\u015bci (np. amenity=training + training=*, amenity=dancing_school, amenity=language_school, amenity=music_school)"
            }
        },
        {
            "id": 10788,
            "type": "Feature",
            "geometry": {
                "type": "Point",
                "coordinates": [
                    16.71419,
                    53.15261
                ]
            },
            "properties": {
                "isced:level": "1;2",
                "ref:rspo": 10788,
                "official_name": "Szko\u0142a Podstawowa Nr 7 im. Adama Mickiewicza w Pile",
                "name": "Szko\u0142a Podstawowa Nr 7",
                "addr:postcode": "64-920",
                "addr:city": "Pi\u0142a",
                "addr:street": "aleja Wojska Polskiego",
                "addr:housenumber": "45",
                "addr:teryt:simc": 966530,
                "addr:teryt:sym_ul": 55704,
                "phone": "+48 672142893",
                "email": "sekretariat@sp7.home.pl",
                "website": "http:\/\/www.sp7.pila.edu.pl",
                "ref:regon": "000238902",
                "ref:vatin": "PL7641768951",
                "operator": "Gmina Pi\u0142a",
                "operator:type": "government",
                "amenity": "school"
            }
        },
        {
            "id": 31307,
            "type": "Feature",
            "geometry": {
                "type": "Point",
                "coordinates": [
                    16.74766,
                    53.15278
                ]
            },
            "properties": {
                "ref:rspo": 31307,
                "official_name": "Centrum Doskonalenia Nauczycieli w Pile",
                "name": "Centrum Doskonalenia Nauczycieli w Pile",
                "addr:postcode": "64-920",
                "addr:city": "Pi\u0142a",
                "addr:street": "Bydgoska",
                "addr:housenumber": "21",
                "addr:teryt:simc": 966530,
                "addr:teryt:sym_ul": 2498,
                "phone": "+48 673527010",
                "email": "g.bogacz@cdn.pila.pl",
                "website": "http:\/\/www.cdn.pila.pl",
                "ref:regon": "301169737",
                "ref:vatin": "PL7642625165",
                "operator": "Wojew\u00f3dztwo Wielkopolskie",
                "operator:type": "government",
                "landuse": "education",
                "fixme": "amenity=school, amenity=college albo landuse=education w zale\u017cno\u015bci od tego, jakie plac\u00f3wki wchodz\u0105 w sk\u0142ad zespo\u0142u. Sprawd\u017a, kiedy stosowa\u0107 amenity=* a kiedy landuse=education.",
                "note": "Children RSPO: 112143;112145"
            }
        },
        {
            "id": 112143,
            "type": "Feature",
            "geometry": {
                "type": "Point",
                "coordinates": [
                    16.74766,
                    53.15275
                ]
            },
            "properties": {
                "ref:rspo": 112143,
                "official_name": "O\u015brodek Doskonalenia Nauczycieli w Pile",
                "name": "O\u015brodek Doskonalenia Nauczycieli w Pile",
                "addr:postcode": "64-920",
                "addr:city": "Pi\u0142a",
                "addr:street": "Bydgoska",
                "addr:housenumber": "21",
                "addr:teryt:simc": 966530,
                "addr:teryt:sym_ul": 2498,
                "phone": "+48 673527010",
                "ref:regon": "570001848",
                "operator": "Wojew\u00f3dztwo Wielkopolskie",
                "operator:type": "government",
                "amenity": "training",
                "note": "Parent RSPO: 31307"
            }
        },
        {
            "id": 112145,
            "type": "Feature",
            "geometry": {
                "type": "Point",
                "coordinates": [
                    16.74766,
                    53.15272
                ]
            },
            "properties": {
                "ref:rspo": 112145,
                "official_name": "Publiczna Biblioteka Pedagogiczna w Pile",
                "name": "Publiczna Biblioteka Pedagogiczna w Pile",
                "addr:postcode": "64-920",
                "addr:city": "Pi\u0142a",
                "addr:street": "Bydgoska",
                "addr:housenumber": "21",
                "addr:teryt:simc": 966530,
                "addr:teryt:sym_ul": 2498,
                "phone": "+48 672131127",
                "email": "biblioteka@cdn.pila.pl",
                "website": "http:\/\/www.bp.pila.pl",
                "ref:regon": "000674276",
                "operator": "Wojew\u00f3dztwo Wielkopolskie",
                "operator:type": "government",
                "amenity": "library",
                "note": "Children RSPO: 128877;129079;129080;269004;273783Parent RSPO: 31307"
            }
        },
        {
            "id": 129605,
            "type": "Feature",
            "geometry": {
                "type": "Point",
                "coordinates": [
                    16.7159119,
                    53.1528032
                ]
            },
            "properties": {
                "ref:rspo": 129605,
                "official_name": "Uniwersytet Malucha - Przedszkole",
                "name": "Uniwersytet Malucha - Przedszkole",
                "addr:postcode": "64-920",
                "addr:city": "Pi\u0142a",
                "addr:street": "Lotnicza",
                "addr:housenumber": "1",
                "addr:door": "2",
                "addr:teryt:simc": 966530,
                "addr:teryt:sym_ul": 11270,
                "phone": "+48 796338340",
                "email": "mal.sakowicz@wp.pl",
                "ref:regon": "362681956",
                "operator": "Ecce Homo - Oto Cz\u0142owiek  Ma\u0142gorzata Sakowicz-Suwary",
                "operator:type": "consortium",
                "amenity": "kindergarten"
            }
        },
        {
            "id": 66183,
            "type": "Feature",
            "geometry": {
                "type": "Point",
                "coordinates": [
                    16.74865,
                    53.15294
                ]
            },
            "properties": {
                "isced:level": "3",
                "ref:rspo": 66183,
                "official_name": "Zaoczne Liceum Og\u00f3lnokszta\u0142c\u0105ce \"Cosinus\" w Pile",
                "name": "Zaoczne Liceum Og\u00f3lnokszta\u0142c\u0105ce \"Cosinus\" w Pile",
                "addr:postcode": "64-920",
                "addr:city": "Pi\u0142a",
                "addr:street": "Bydgoska",
                "addr:housenumber": "23",
                "addr:teryt:simc": 966530,
                "addr:teryt:sym_ul": 2498,
                "phone": "+48 509311425",
                "email": "pila@cosinus.pl",
                "website": "http:\/\/www.cosinus.pl",
                "ref:regon": "302290547",
                "ref:vatin": "PL7261654939",
                "operator": "\"Fundacja Equamp-Fiz\"",
                "operator:type": "ngo",
                "amenity": "school"
            }
        },
        {
            "id": 66330,
            "type": "Feature",
            "geometry": {
                "type": "Point",
                "coordinates": [
                    16.74865,
                    53.15291
                ]
            },
            "properties": {
                "isced:level": "4",
                "ref:rspo": 66330,
                "official_name": "Szko\u0142a Policealna - Zaoczna Policealna Szko\u0142a Ochrony Fizycznej Os\u00f3b I Mienia \"Cosinus\" w Pile",
                "name": "Szko\u0142a Policealna - Zaoczna Policealna Szko\u0142a Ochrony Fizycznej Os\u00f3b I Mienia \"Cosinus\" w Pile",
                "addr:postcode": "64-920",
                "addr:city": "Pi\u0142a",
                "addr:street": "Bydgoska",
                "addr:housenumber": "23",
                "addr:teryt:simc": 966530,
                "addr:teryt:sym_ul": 2498,
                "email": "pila@cosinus.pl",
                "website": "http:\/\/www.cosinus.pl",
                "ref:regon": "302271136",
                "ref:vatin": "PL7261654939",
                "operator": "\"Fundacja Equamp-Fiz\"",
                "operator:type": "ngo",
                "amenity": "college"
            }
        },
        {
            "id": 66391,
            "type": "Feature",
            "geometry": {
                "type": "Point",
                "coordinates": [
                    16.74865,
                    53.15288
                ]
            },
            "properties": {
                "isced:level": "4",
                "ref:rspo": 66391,
                "official_name": "Szkola Policealna \"Cosinus\" w Pile",
                "name": "Szkola Policealna \"Cosinus\" w Pile",
                "addr:postcode": "64-920",
                "addr:city": "Pi\u0142a",
                "addr:street": "Bydgoska",
                "addr:housenumber": "23",
                "addr:teryt:simc": 966530,
                "addr:teryt:sym_ul": 2498,
                "phone": "+48 509311425",
                "email": "pila@cosinus.pl",
                "website": "http:\/\/www.cosinus.pl",
                "ref:regon": "302271165",
                "ref:vatin": "PL7261654939",
                "operator": "\"Fundacja Equamp-Fiz\"",
                "operator:type": "ngo",
                "amenity": "college"
            }
        },
        {
            "id": 66511,
            "type": "Feature",
            "geometry": {
                "type": "Point",
                "coordinates": [
                    16.74865,
                    53.15285
                ]
            },
            "properties": {
                "isced:level": "4",
                "ref:rspo": 66511,
                "official_name": "Szkola Policealna \"Cosinus I\" w Pile",
                "name": "Szkola Policealna \"Cosinus I\" w Pile",
                "addr:postcode": "64-920",
                "addr:city": "Pi\u0142a",
                "addr:street": "Bydgoska",
                "addr:housenumber": "23",
                "addr:teryt:simc": 966530,
                "addr:teryt:sym_ul": 2498,
                "phone": "+48 509311425",
                "email": "pila@cosinus.pl",
                "website": "http:\/\/www.cosinus.pl",
                "ref:regon": "302276139",
                "ref:vatin": "PL7261654939",
                "operator": "\"Fundacja Equamp-Fiz\"",
                "operator:type": "ngo",
                "amenity": "college"
            }
        },
        {
            "id": 126131,
            "type": "Feature",
            "geometry": {
                "type": "Point",
                "coordinates": [
                    16.74865,
                    53.15282
                ]
            },
            "properties": {
                "isced:level": "4",
                "ref:rspo": 126131,
                "official_name": "Medyczna Policealna Szko\u0142a \"Cosinus\" w Pile",
                "name": "Medyczna Policealna Szko\u0142a \"Cosinus\" w Pile",
                "addr:postcode": "64-920",
                "addr:city": "Pi\u0142a",
                "addr:street": "Bydgoska",
                "addr:housenumber": "23",
                "addr:teryt:simc": 966530,
                "addr:teryt:sym_ul": 2498,
                "phone": "+48 509311425",
                "email": "d.huryn@cosinus.pl",
                "website": "http:\/\/www.cosinus.pl",
                "ref:regon": "360155005",
                "operator": "\"Fundacja Equamp-Fiz\"",
                "operator:type": "ngo",
                "amenity": "college"
            }
        },
        {
            "id": 114821,
            "type": "Feature",
            "geometry": {
                "type": "Point",
                "coordinates": [
                    16.73725,
                    53.15313
                ]
            },
            "properties": {
                "ref:rspo": 114821,
                "official_name": "Pracownia Edukacyjna K&K",
                "name": "Pracownia Edukacyjna K&K",
                "addr:postcode": "64-920",
                "addr:city": "Pi\u0142a",
                "addr:street": "Aleja Niepodleg\u0142o\u015bci",
                "addr:housenumber": "2",
                "addr:teryt:simc": 966530,
                "addr:teryt:sym_ul": 14199,
                "phone": "+48 672127310",
                "ref:regon": "302385360",
                "operator": "Dane Do Uzupe\u0142nienia",
                "operator:type": "private",
                "amenity": "training"
            }
        },
        {
            "id": 127012,
            "type": "Feature",
            "geometry": {
                "type": "Point",
                "coordinates": [
                    16.77245,
                    53.15314
                ]
            },
            "properties": {
                "ref:rspo": 127012,
                "official_name": "Bursa Szkolna w Pile",
                "name": "Bursa Szkolna w Pile",
                "addr:postcode": "64-920",
                "addr:city": "Pi\u0142a",
                "addr:street": "Zau\u0142ek",
                "addr:housenumber": "5",
                "addr:teryt:simc": 966530,
                "addr:teryt:sym_ul": 25748,
                "phone": "+48 672148401",
                "ref:regon": "361029716",
                "ref:vatin": "PL7641012503",
                "operator": "Centrum Kszta\u0142cenia \"Wiedza\" Roman Leniec",
                "operator:type": "consortium",
                "building": "dormitory"
            }
        },
        {
            "id": 263970,
            "type": "Feature",
            "geometry": {
                "type": "Point",
                "coordinates": [
                    16.77245,
                    53.15311
                ]
            },
            "properties": {
                "ref:rspo": 263970,
                "official_name": "Niepubliczna Poradnia Psychologiczno - Pedagogiczna",
                "name": "Niepubliczna Poradnia Psychologiczno - Pedagogiczna",
                "addr:postcode": "64-920",
                "addr:city": "Pi\u0142a",
                "addr:street": "Zau\u0142ek",
                "addr:housenumber": "5",
                "addr:teryt:simc": 966530,
                "addr:teryt:sym_ul": 25748,
                "phone": "+48 672148401",
                "email": "poradnia.pila@wp.pl",
                "website": "http:\/\/www.nauka.pila.pl",
                "ref:regon": "368246150",
                "operator": "Roman Leniec",
                "operator:type": "private",
                "healthcare": "counselling",
                "counselling_type": "education",
                "fixme": "w zale\u017cno\u015bci od przedmiotu dzia\u0142alno\u015bci (np. healthcare=counselling + counselling_type=education albo healthcare=psychotherapist)"
            }
        },
        {
            "id": 271859,
            "type": "Feature",
            "geometry": {
                "type": "Point",
                "coordinates": [
                    16.76258,
                    53.15328
                ]
            },
            "properties": {
                "ref:rspo": 271859,
                "official_name": "Centrum Szkoleniowe Ms.niepubliczna Plac\u00f3wka O\u015bwiatowa",
                "name": "Centrum Szkoleniowe Ms.niepubliczna Plac\u00f3wka O\u015bwiatowa",
                "addr:postcode": "64-920",
                "addr:city": "Pi\u0142a",
                "addr:street": "Genera\u0142a W\u0142adys\u0142awa Andersa",
                "addr:housenumber": "14",
                "addr:door": "5",
                "addr:teryt:simc": 966530,
                "addr:teryt:sym_ul": 285,
                "email": "marcel.szwec@gmail.com",
                "ref:regon": "383706074",
                "ref:vatin": "PL7642071815",
                "operator": "Marcel Szwec",
                "operator:type": "private",
                "fixme": "w zale\u017cno\u015bci od przedmiotu dzia\u0142alno\u015bci (np. amenity=training + training=*, amenity=dancing_school, amenity=language_school, amenity=music_school)"
            }
        },
        {
            "id": 2907,
            "type": "Feature",
            "geometry": {
                "type": "Point",
                "coordinates": [
                    16.71844,
                    53.15356
                ]
            },
            "properties": {
                "ref:rspo": 2907,
                "official_name": "Publiczne Przedszkole Nr 13 w Pile",
                "name": "Publiczne Przedszkole Nr 13 w Pile",
                "addr:postcode": "64-920",
                "addr:city": "Pi\u0142a",
                "addr:street": "Kraszewskiego",
                "addr:housenumber": "2",
                "addr:teryt:simc": 966530,
                "addr:teryt:sym_ul": 9869,
                "phone": "+48 672122880",
                "email": "pp13@cuw.pila.pl",
                "website": "http:\/\/publiczneprzedszkole13.pila.pl",
                "ref:regon": "301407680",
                "operator": "Gmina Pi\u0142a",
                "operator:type": "government",
                "amenity": "kindergarten"
            }
        },
        {
            "id": 123986,
            "type": "Feature",
            "geometry": {
                "type": "Point",
                "coordinates": [
                    16.73255,
                    53.15405
                ]
            },
            "properties": {
                "ref:rspo": 123986,
                "official_name": "Niepubliczne Przedszkole Dwuj\u0119zyczne Ogr\u00f3d Montessori",
                "name": "Niepubliczne Przedszkole Dwuj\u0119zyczne Ogr\u00f3d Montessori",
                "addr:postcode": "64-920",
                "addr:city": "Pi\u0142a",
                "addr:street": "Mieszka I",
                "addr:housenumber": "14",
                "addr:teryt:simc": 966530,
                "addr:teryt:sym_ul": 12832,
                "phone": "+48 606649238",
                "email": "monca1@op.pl",
                "ref:regon": "302795193",
                "operator": "Anna Mondry",
                "operator:type": "private",
                "amenity": "kindergarten"
            }
        },
        {
            "id": 2898,
            "type": "Feature",
            "geometry": {
                "type": "Point",
                "coordinates": [
                    16.75893,
                    53.1545
                ]
            },
            "properties": {
                "ref:rspo": 2898,
                "official_name": "Publiczne Przedszkole Nr 4 w Pile",
                "name": "Publiczne Przedszkole Nr 4 w Pile",
                "addr:postcode": "64-920",
                "addr:city": "Pi\u0142a",
                "addr:street": "Kusoci\u0144skiego",
                "addr:housenumber": "10A",
                "addr:teryt:simc": 966530,
                "addr:teryt:sym_ul": 10491,
                "phone": "+48 672123482",
                "email": "pp4@cuw.pila.pl",
                "website": "http:\/\/publiczneprzedszkole4.pila.pl",
                "ref:regon": "301430390",
                "ref:vatin": "PL7642638825",
                "operator": "Gmina Pi\u0142a",
                "operator:type": "government",
                "amenity": "kindergarten"
            }
        },
        {
            "id": 131787,
            "type": "Feature",
            "geometry": {
                "type": "Point",
                "coordinates": [
                    16.7319,
                    53.15457
                ]
            },
            "properties": {
                "ref:rspo": 131787,
                "official_name": "Niepubliczne Przedszkole Artystyczno-J\u0119zykowe Fioletowa Sowa",
                "name": "Niepubliczne Przedszkole Artystyczno-J\u0119zykowe Fioletowa Sowa",
                "addr:postcode": "64-920",
                "addr:city": "Pi\u0142a",
                "addr:street": "Ogi\u0144skiego",
                "addr:housenumber": "3 i 5a",
                "addr:teryt:simc": 966530,
                "addr:teryt:sym_ul": 14811,
                "phone": "+48 601508713",
                "email": "info@fioletowa-sowa.pl",
                "website": "http:\/\/www.fioletowa-sowa.pl",
                "ref:regon": "365346840",
                "operator": "Karolina Stroi\u0144ska",
                "operator:type": "private",
                "amenity": "kindergarten"
            }
        },
        {
            "id": 120064,
            "type": "Feature",
            "geometry": {
                "type": "Point",
                "coordinates": [
                    16.74823,
                    53.15463
                ]
            },
            "properties": {
                "ref:rspo": 120064,
                "official_name": "Przedszkole Niepubliczne Montessori \u015alimaczkowo",
                "name": "Przedszkole Niepubliczne Montessori \u015alimaczkowo",
                "addr:postcode": "64-920",
                "addr:city": "Pi\u0142a",
                "addr:street": "Ojca Maksymiliana Kolbe",
                "addr:housenumber": "9d",
                "addr:teryt:simc": 966530,
                "addr:teryt:sym_ul": 33330,
                "phone": "+48 730435919",
                "email": "slimaczkowo@outlook.com",
                "website": "http:\/\/www.slimaczkowo.pila.pl",
                "ref:regon": "302533990",
                "ref:vatin": "PL7641001020",
                "operator": "Ma\u0142gorzata Kruger",
                "operator:type": "private",
                "amenity": "kindergarten"
            }
        },
        {
            "id": 60219,
            "type": "Feature",
            "geometry": {
                "type": "Point",
                "coordinates": [
                    16.74499,
                    53.15482
                ]
            },
            "properties": {
                "ref:rspo": 60219,
                "official_name": "Niepubliczne Przedszkole \"Disneyland\"",
                "name": "Niepubliczne Przedszkole \"Disneyland\"",
                "addr:postcode": "64-920",
                "addr:city": "Pi\u0142a",
                "addr:street": "D\u0105browskiego",
                "addr:housenumber": "8",
                "addr:teryt:simc": 966530,
                "addr:teryt:sym_ul": 3667,
                "phone": "+48 607507100",
                "email": "disneyland@op.pl",
                "ref:regon": "302256651",
                "ref:vatin": "PL7641412651",
                "operator": "Agnieszka Przybylska",
                "operator:type": "private",
                "amenity": "kindergarten"
            }
        },
        {
            "id": 18631,
            "type": "Feature",
            "geometry": {
                "type": "Point",
                "coordinates": [
                    16.74762,
                    53.15533
                ]
            },
            "properties": {
                "ref:rspo": 18631,
                "official_name": "Zesp\u00f3\u0142 Szk\u00f3\u0142 im. Stanis\u0142awa Staszica w Pile",
                "name": "Zesp\u00f3\u0142 Szk\u00f3\u0142",
                "addr:postcode": "64-920",
                "addr:city": "Pi\u0142a",
                "addr:street": "Aleja Powsta\u0144c\u00f3w Wielkopolskich",
                "addr:housenumber": "18",
                "addr:teryt:simc": 966530,
                "addr:teryt:sym_ul": 17373,
                "phone": "+48 672125199",
                "email": "sekretariat@zsstaszica.pila.pl",
                "website": "http:\/\/www.zsstaszica.pila.pl",
                "ref:regon": "000670427",
                "ref:vatin": "PL7642305615",
                "operator": "Powiat Pilski",
                "operator:type": "government",
                "landuse": "education",
                "fixme": "amenity=school, amenity=college albo landuse=education w zale\u017cno\u015bci od tego, jakie plac\u00f3wki wchodz\u0105 w sk\u0142ad zespo\u0142u. Sprawd\u017a, kiedy stosowa\u0107 amenity=* a kiedy landuse=education.",
                "note": "Children RSPO: 56020;62428"
            }
        },
        {
            "id": 56020,
            "type": "Feature",
            "geometry": {
                "type": "Point",
                "coordinates": [
                    16.74762,
                    53.1553
                ]
            },
            "properties": {
                "isced:level": "3",
                "ref:rspo": 56020,
                "official_name": "Ii Liceum Og\u00f3lnokszta\u0142c\u0105ce w Pile",
                "name": "Ii Liceum Og\u00f3lnokszta\u0142c\u0105ce w Pile",
                "addr:postcode": "64-920",
                "addr:city": "Pi\u0142a",
                "addr:street": "Aleja Powsta\u0144c\u00f3w Wielkopolskich",
                "addr:housenumber": "18",
                "addr:teryt:simc": 966530,
                "addr:teryt:sym_ul": 17373,
                "phone": "+48 672125199",
                "email": "sekretariat@zsstaszica.pila.pl",
                "ref:regon": "300039748",
                "ref:vatin": "PL7642305615",
                "operator": "Powiat Pilski",
                "operator:type": "government",
                "amenity": "school",
                "note": "Parent RSPO: 18631"
            }
        },
        {
            "id": 62428,
            "type": "Feature",
            "geometry": {
                "type": "Point",
                "coordinates": [
                    16.74762,
                    53.15527
                ]
            },
            "properties": {
                "isced:level": "3",
                "ref:rspo": 62428,
                "official_name": "Technikum Nr 6 w Pile",
                "name": "Technikum Nr 6 w Pile",
                "addr:postcode": "64-920",
                "addr:city": "Pi\u0142a",
                "addr:street": "Aleja Powsta\u0144c\u00f3w Wielkopolskich",
                "addr:housenumber": "18",
                "addr:teryt:simc": 966530,
                "addr:teryt:sym_ul": 17373,
                "phone": "+48 672125199",
                "email": "sekretariat@zsstaszica.pila.pl",
                "website": "http:\/\/www.zssstaszica.pila.pl",
                "ref:regon": "300640517",
                "ref:vatin": "PL7642305615",
                "operator": "Powiat Pilski",
                "operator:type": "government",
                "amenity": "school",
                "note": "Parent RSPO: 18631"
            }
        },
        {
            "id": 25223,
            "type": "Feature",
            "geometry": {
                "type": "Point",
                "coordinates": [
                    16.75791,
                    53.15544
                ]
            },
            "properties": {
                "ref:rspo": 25223,
                "official_name": "Szkolenia Bhp I Ppo\u017c \"Mir\"",
                "name": "Szkolenia Bhp I Ppo\u017c \"Mir\"",
                "addr:postcode": "64-920",
                "addr:city": "Pi\u0142a",
                "addr:street": "Kusoci\u0144skiego",
                "addr:housenumber": "22",
                "addr:door": "22",
                "addr:teryt:simc": 966530,
                "addr:teryt:sym_ul": 10491,
                "phone": "+48 600253013",
                "email": "bhp_mir@op.pl",
                "ref:regon": "302235471",
                "ref:vatin": "PL6721202599",
                "operator": "Miros\u0142aw Kulak",
                "operator:type": "private",
                "fixme": "w zale\u017cno\u015bci od przedmiotu dzia\u0142alno\u015bci (np. amenity=training + training=*, amenity=dancing_school, amenity=language_school, amenity=music_school)"
            }
        },
        {
            "id": 52503,
            "type": "Feature",
            "geometry": {
                "type": "Point",
                "coordinates": [
                    16.73677,
                    53.1558
                ]
            },
            "properties": {
                "isced:level": "1;2",
                "ref:rspo": 52503,
                "official_name": "Szko\u0142a Podstawowa Nr 5 im. Dzieci Polskich w Pile",
                "name": "Szko\u0142a Podstawowa Nr 5",
                "addr:postcode": "64-920",
                "addr:city": "Pi\u0142a",
                "addr:street": "aleja Niepodleg\u0142o\u015bci",
                "addr:housenumber": "18",
                "addr:teryt:simc": 966530,
                "addr:teryt:sym_ul": 52732,
                "phone": "+48 672123378",
                "email": "sekretariat@sp5.pila.pl",
                "website": "http:\/\/www.sp5.pila.pl",
                "ref:regon": "000237423",
                "ref:vatin": "PL7641768678",
                "operator": "Gmina Pi\u0142a",
                "operator:type": "government",
                "amenity": "school"
            }
        },
        {
            "id": 24884,
            "type": "Feature",
            "geometry": {
                "type": "Point",
                "coordinates": [
                    16.77436,
                    53.15601
                ]
            },
            "properties": {
                "ref:rspo": 24884,
                "official_name": "Polska Grupa Ratownictwa Medycznego Szymon Koz\u0142owski-Kszta\u0142cenie Ustawiczne w Formach Pozaszkolnych",
                "name": "Polska Grupa Ratownictwa Medycznego Szymon Koz\u0142owski-Kszta\u0142cenie Ustawiczne w Formach Pozaszkolnych",
                "addr:postcode": "64-920",
                "addr:city": "Pi\u0142a",
                "addr:street": "Bluszczowa",
                "addr:housenumber": "9",
                "addr:teryt:simc": 966530,
                "addr:teryt:sym_ul": 1430,
                "phone": "+48 673505359",
                "email": "biuro@pgrm.pl",
                "website": "http:\/\/www.pgrm.pl",
                "ref:regon": "302234589",
                "ref:vatin": "PL7642342786",
                "operator": "Szymon Koz\u0142owski",
                "operator:type": "private",
                "fixme": "w zale\u017cno\u015bci od przedmiotu dzia\u0142alno\u015bci (np. amenity=training + training=*, amenity=dancing_school, amenity=language_school, amenity=music_school)"
            }
        },
        {
            "id": 121532,
            "type": "Feature",
            "geometry": {
                "type": "Point",
                "coordinates": [
                    16.7198,
                    53.15611
                ]
            },
            "properties": {
                "ref:rspo": 121532,
                "official_name": "O\u015brodek Szkolenia Kursowego \"Klemszkol\" w Pile",
                "name": "O\u015brodek Szkolenia Kursowego \"Klemszkol\" w Pile",
                "addr:postcode": "64-920",
                "addr:city": "Pi\u0142a",
                "addr:street": "Matwiejewa",
                "addr:housenumber": "11c",
                "addr:door": "21",
                "addr:teryt:simc": 966530,
                "addr:teryt:sym_ul": 37822,
                "phone": "+48 672132437",
                "ref:regon": "302626668",
                "operator": "Beata Klementowska- Sadkowska",
                "operator:type": "private",
                "fixme": "w zale\u017cno\u015bci od przedmiotu dzia\u0142alno\u015bci (np. amenity=training + training=*, amenity=dancing_school, amenity=language_school, amenity=music_school)"
            }
        },
        {
            "id": 127663,
            "type": "Feature",
            "geometry": {
                "type": "Point",
                "coordinates": [
                    16.74973,
                    53.15621
                ]
            },
            "properties": {
                "ref:rspo": 127663,
                "official_name": "Plac\u00f3wka Kszta\u0142cenia Ustawicznego Euro Consulting w Pile",
                "name": "Plac\u00f3wka Kszta\u0142cenia Ustawicznego Euro Consulting w Pile",
                "addr:postcode": "64-920",
                "addr:city": "Pi\u0142a",
                "addr:street": "Aleja Powsta\u0144c\u00f3w Wielkopolskich",
                "addr:housenumber": "63",
                "addr:door": "2",
                "addr:teryt:simc": 966530,
                "addr:teryt:sym_ul": 17373,
                "phone": "+48 508088326",
                "email": "biuro@euroconsulting.edu.pl",
                "website": "http:\/\/www.euroconsulting.edu.pl",
                "ref:regon": "361794693",
                "ref:vatin": "PL7641089380",
                "operator": "Wioletta \u017bybort",
                "operator:type": "private",
                "fixme": "w zale\u017cno\u015bci od przedmiotu dzia\u0142alno\u015bci (np. amenity=training + training=*, amenity=dancing_school, amenity=language_school, amenity=music_school)"
            }
        },
        {
            "id": 133586,
            "type": "Feature",
            "geometry": {
                "type": "Point",
                "coordinates": [
                    16.76342,
                    53.15622
                ]
            },
            "properties": {
                "isced:level": "1;2",
                "ref:rspo": 133586,
                "official_name": "Niepubliczna Szko\u0142a Podstawowa \"Vermilion\" w Pile",
                "name": "Niepubliczna Szko\u0142a Podstawowa \"Vermilion\" w Pile",
                "addr:postcode": "64-920",
                "addr:city": "Pi\u0142a",
                "addr:street": "Podchor\u0105\u017cych",
                "addr:housenumber": "10 D",
                "addr:teryt:simc": 966530,
                "addr:teryt:sym_ul": 16713,
                "phone": "+48 604314712",
                "email": "vermilion@onet.pl",
                "website": "http:\/\/www.vermilion-pila.com",
                "ref:regon": "367434949",
                "ref:vatin": "PL7641508859",
                "operator": "Danuta \u015al\u0119k",
                "operator:type": "private",
                "amenity": "school"
            }
        },
        {
            "id": 81356,
            "type": "Feature",
            "geometry": {
                "type": "Point",
                "coordinates": [
                    16.716809,
                    53.1568073
                ]
            },
            "properties": {
                "ref:rspo": 81356,
                "official_name": "Szko\u0142a J\u0119zyk\u00f3w Obcych Lucyna Harwas - Kszta\u0142cenie Ustawiczne w Formach Pozaszkolnych.niepubliczna Plac\u00f3wka O\u015bwiatowa",
                "name": "Szko\u0142a J\u0119zyk\u00f3w Obcych Lucyna Harwas - Kszta\u0142cenie Ustawiczne w Formach Pozaszkolnych.niepubliczna Plac\u00f3wka O\u015bwiatowa",
                "addr:postcode": "64-920",
                "addr:city": "Pi\u0142a",
                "addr:street": "Szybownik\u00f3w",
                "addr:housenumber": "4",
                "addr:door": "1",
                "addr:teryt:simc": 966530,
                "addr:teryt:sym_ul": 22211,
                "phone": "+48 672130221",
                "email": "pila@helendoron.pl",
                "ref:regon": "302265294",
                "operator": "Lucyna Harwas",
                "operator:type": "private",
                "fixme": "w zale\u017cno\u015bci od przedmiotu dzia\u0142alno\u015bci (np. amenity=training + training=*, amenity=dancing_school, amenity=language_school, amenity=music_school)"
            }
        },
        {
            "id": 2900,
            "type": "Feature",
            "geometry": {
                "type": "Point",
                "coordinates": [
                    16.73551,
                    53.15692
                ]
            },
            "properties": {
                "ref:rspo": 2900,
                "official_name": "Publiczne Przedszkole Nr 6 im. Jasia I Ma\u0142gosi w Pile",
                "name": "Publiczne Przedszkole Nr 6",
                "addr:postcode": "64-920",
                "addr:city": "Pi\u0142a",
                "addr:street": "\u017bele\u0144skiego",
                "addr:housenumber": "15",
                "addr:teryt:simc": 966530,
                "addr:teryt:sym_ul": 37815,
                "phone": "+48 672126605",
                "email": "przedszkole_publicznenr6@asta-net.com.pl",
                "website": "http:\/\/www.publiczneprzedszkole6.pila.pl",
                "ref:regon": "301406611",
                "operator": "Gmina Pi\u0142a",
                "operator:type": "government",
                "amenity": "kindergarten"
            }
        },
        {
            "id": 2914,
            "type": "Feature",
            "geometry": {
                "type": "Point",
                "coordinates": [
                    16.7463799,
                    53.15708
                ]
            },
            "properties": {
                "ref:rspo": 2914,
                "official_name": "Publiczne Przedszkole Nr 17 im. Krasnala Ha\u0142aba\u0142y w Pile",
                "name": "Publiczne Przedszkole Nr 17",
                "addr:postcode": "64-920",
                "addr:city": "Pi\u0142a",
                "addr:street": "\u015aniadeckich",
                "addr:housenumber": "3A",
                "addr:teryt:simc": 966530,
                "addr:teryt:sym_ul": 22382,
                "phone": "+48 672141196",
                "email": "pp17@cuw.pila.pl",
                "website": "http:\/\/www.publiczneprzedszkole17.pila.pl",
                "ref:regon": "301414160",
                "operator": "Gmina Pi\u0142a",
                "operator:type": "government",
                "amenity": "kindergarten"
            }
        },
        {
            "id": 105538,
            "type": "Feature",
            "geometry": {
                "type": "Point",
                "coordinates": [
                    16.76359,
                    53.15721
                ]
            },
            "properties": {
                "ref:rspo": 105538,
                "official_name": "Niepubliczna Poradnia Psychologiczno - Pedagogiczna w Pile. Niepubliczna Plac\u00f3wka O\u015bwiatowa",
                "name": "Niepubliczna Poradnia Psychologiczno - Pedagogiczna w Pile. Niepubliczna Plac\u00f3wka O\u015bwiatowa",
                "addr:postcode": "64-920",
                "addr:city": "Pi\u0142a",
                "addr:street": "Podchor\u0105\u017cych",
                "addr:housenumber": "1",
                "addr:teryt:simc": 966530,
                "addr:teryt:sym_ul": 16713,
                "phone": "+48 600887372",
                "ref:regon": "302309057",
                "ref:vatin": "PL7671407790",
                "operator": "Katarzyna Horeczy - Grunau",
                "operator:type": "private",
                "healthcare": "counselling",
                "counselling_type": "education",
                "fixme": "w zale\u017cno\u015bci od przedmiotu dzia\u0142alno\u015bci (np. healthcare=counselling + counselling_type=education albo healthcare=psychotherapist)"
            }
        },
        {
            "id": 81281,
            "type": "Feature",
            "geometry": {
                "type": "Point",
                "coordinates": [
                    16.75505,
                    53.15755
                ]
            },
            "properties": {
                "ref:rspo": 81281,
                "official_name": "Przedszkole Niepubliczne Caritas Nr 1 w Pile Caritas Diecezji Koszali\u0144sko-Ko\u0142obrzeskiej",
                "name": "Przedszkole Niepubliczne Caritas Nr 1 w Pile Caritas Diecezji Koszali\u0144sko-Ko\u0142obrzeskiej",
                "addr:postcode": "64-920",
                "addr:city": "Pi\u0142a",
                "addr:street": "Kossaka",
                "addr:housenumber": "16",
                "addr:teryt:simc": 966530,
                "addr:teryt:sym_ul": 9459,
                "phone": "+48 883847631",
                "email": "przedszkolecaritas@wp.pl",
                "website": "http:\/\/przedszkolecaritas.pl",
                "ref:regon": "302265242",
                "ref:vatin": "PL7642285887",
                "operator": "Caritas Diecezji Koszali\u0144sko-Ko\u0142obrzeskiej",
                "operator:type": "religious",
                "amenity": "kindergarten"
            }
        },
        {
            "id": 68130,
            "type": "Feature",
            "geometry": {
                "type": "Point",
                "coordinates": [
                    16.7375599,
                    53.15767
                ]
            },
            "properties": {
                "ref:rspo": 68130,
                "official_name": "Pik-Up J\u00f3zef Kot I Jerzy Pierko - Kszta\u0142cenie Ustawiczne w Formach Pozaszkolnych. Niepubliczna Plac\u00f3wka O\u015bwiatowa",
                "name": "Pik-Up J\u00f3zef Kot I Jerzy Pierko - Kszta\u0142cenie Ustawiczne w Formach Pozaszkolnych. Niepubliczna Plac\u00f3wka O\u015bwiatowa",
                "addr:postcode": "64-920",
                "addr:city": "Pi\u0142a",
                "addr:street": "Aleja Niepodleg\u0142o\u015bci",
                "addr:housenumber": "32",
                "addr:teryt:simc": 966530,
                "addr:teryt:sym_ul": 14199,
                "phone": "+48 672586292",
                "email": "d.kot@pikup.com.pl",
                "website": "http:\/\/www.pikup.com.pl",
                "ref:regon": "302253078",
                "ref:vatin": "PL7642064301",
                "operator": "\"Pik-Up\" J\u00f3zef Kot I Jerzy Pierko Sp\u00f3\u0142ka Jawna",
                "operator:type": "private",
                "fixme": "w zale\u017cno\u015bci od przedmiotu dzia\u0142alno\u015bci (np. amenity=training + training=*, amenity=dancing_school, amenity=language_school, amenity=music_school)"
            }
        },
        {
            "id": 122668,
            "type": "Feature",
            "geometry": {
                "type": "Point",
                "coordinates": [
                    16.75198,
                    53.15784
                ]
            },
            "properties": {
                "ref:rspo": 122668,
                "official_name": "Zesp\u00f3\u0142 Szk\u00f3\u0142 Og\u00f3lnokszta\u0142c\u0105cych Spo\u0142ecznego Towarzystwa O\u015bwiatowego w Pile",
                "name": "Zesp\u00f3\u0142 Szk\u00f3\u0142 Og\u00f3lnokszta\u0142c\u0105cych Spo\u0142ecznego Towarzystwa O\u015bwiatowego w Pile",
                "addr:postcode": "64-920",
                "addr:city": "Pi\u0142a",
                "addr:street": "aleja Powsta\u0144c\u00f3w Wielkopolskich",
                "addr:housenumber": "83",
                "addr:teryt:simc": 966530,
                "addr:teryt:sym_ul": 55706,
                "phone": "+48 672122816",
                "email": "zsosto@poczta.onet.pl",
                "website": "http:\/\/www.szkolaspoleczna.pila.pl",
                "ref:regon": "302689953",
                "operator": "Samodzielne Ko\u0142o Terenowe Nr 106 Spo\u0142ecznego Towarzystwa O\u015bwiatowego W Pile",
                "operator:type": "ngo",
                "landuse": "education",
                "fixme": "amenity=school, amenity=college albo landuse=education w zale\u017cno\u015bci od tego, jakie plac\u00f3wki wchodz\u0105 w sk\u0142ad zespo\u0142u. Sprawd\u017a, kiedy stosowa\u0107 amenity=* a kiedy landuse=education.",
                "note": "Children RSPO: 11939;70276"
            }
        },
        {
            "id": 70276,
            "type": "Feature",
            "geometry": {
                "type": "Point",
                "coordinates": [
                    16.75198,
                    53.15781
                ]
            },
            "properties": {
                "isced:level": "1;2",
                "ref:rspo": 70276,
                "official_name": "Szko\u0142a Podstawowa Spo\u0142ecznego Towarzystwa O\u015bwiatowego",
                "name": "Szko\u0142a Podstawowa Spo\u0142ecznego Towarzystwa O\u015bwiatowego",
                "addr:postcode": "64-920",
                "addr:city": "Pi\u0142a",
                "addr:street": "aleja Powsta\u0144c\u00f3w Wielkopolskich",
                "addr:housenumber": "83",
                "addr:teryt:simc": 966530,
                "addr:teryt:sym_ul": 55706,
                "phone": "+48 672122816",
                "email": "zsosto@poczta.onet.pl",
                "website": "http:\/\/szkolaspoleczna.pila.pl",
                "ref:regon": "302258093",
                "ref:vatin": "PL7641766231",
                "operator": "Samodzielne Ko\u0142o Terenowe Nr 106 Spo\u0142ecznego Towarzystwa O\u015bwiatowego W Pile",
                "operator:type": "ngo",
                "amenity": "school",
                "note": "Parent RSPO: 122668"
            }
        },
        {
            "id": 105717,
            "type": "Feature",
            "geometry": {
                "type": "Point",
                "coordinates": [
                    16.75191,
                    53.15786
                ]
            },
            "properties": {
                "ref:rspo": 105717,
                "official_name": "Niepubliczne Centrum Kszta\u0142cenia Przy Zak\u0142adzie Us\u0142ug Edukacyjnych \"Pedagog\" w Pile - Kszta\u0142cenie Ustawiczne w Formach Pozaszkolnych",
                "name": "Niepubliczne Centrum Kszta\u0142cenia Przy Zak\u0142adzie Us\u0142ug Edukacyjnych \"Pedagog\" w Pile - Kszta\u0142cenie Ustawiczne w Formach Pozaszkolnych",
                "addr:postcode": "64-920",
                "addr:city": "Pi\u0142a",
                "addr:street": "Aleja Powsta\u0144c\u00f3w Wielkopolskich",
                "addr:housenumber": "83",
                "addr:teryt:simc": 966530,
                "addr:teryt:sym_ul": 17373,
                "phone": "+48 604185540",
                "email": "lech.kacprzak@neostrada.pl",
                "ref:regon": "302308891",
                "ref:vatin": "PL7641074970",
                "operator": "Zak\u0142ad Us\u0142ug Edukacyjnych \"Pedagog\" Lucyna El\u017cbieta Kacprzak",
                "operator:type": "consortium",
                "fixme": "w zale\u017cno\u015bci od przedmiotu dzia\u0142alno\u015bci (np. amenity=training + training=*, amenity=dancing_school, amenity=language_school, amenity=music_school)"
            }
        },
        {
            "id": 11939,
            "type": "Feature",
            "geometry": {
                "type": "Point",
                "coordinates": [
                    16.75191,
                    53.15783
                ]
            },
            "properties": {
                "isced:level": "3",
                "ref:rspo": 11939,
                "official_name": "Ii Liceum Og\u00f3lnokszta\u0142c\u0105ce Spo\u0142ecznego Towarzystwa O\u015bwiatowego w Pile",
                "name": "Ii Liceum Og\u00f3lnokszta\u0142c\u0105ce Spo\u0142ecznego Towarzystwa O\u015bwiatowego w Pile",
                "addr:postcode": "64-920",
                "addr:city": "Pi\u0142a",
                "addr:street": "Aleja Powsta\u0144c\u00f3w Wielkopolskich",
                "addr:housenumber": "83",
                "addr:teryt:simc": 966530,
                "addr:teryt:sym_ul": 17373,
                "phone": "+48 672122816",
                "email": "zsosto@poczta.onet.pl",
                "website": "http:\/\/www.szkolaspoleczna.pila.pl",
                "ref:regon": "302217711",
                "ref:vatin": "PL7641766231",
                "operator": "Samodzielne Ko\u0142o Terenowe Nr 106 Spo\u0142ecznego Towarzystwa O\u015bwiatowego W Pile",
                "operator:type": "ngo",
                "amenity": "school",
                "note": "Parent RSPO: 122668"
            }
        },
        {
            "id": 121225,
            "type": "Feature",
            "geometry": {
                "type": "Point",
                "coordinates": [
                    16.73581,
                    53.1582099
                ]
            },
            "properties": {
                "ref:rspo": 121225,
                "official_name": "Prywatna Praktyka Ratownika Medycznego Pawe\u0142 Anio\u0142- Kszta\u0142cenie Ustawiczne w Formach Pozaszkolnych",
                "name": "Prywatna Praktyka Ratownika Medycznego Pawe\u0142 Anio\u0142- Kszta\u0142cenie Ustawiczne w Formach Pozaszkolnych",
                "addr:postcode": "64-920",
                "addr:city": "Pi\u0142a",
                "addr:street": "Juliana Ursyna Niemcewicza",
                "addr:housenumber": "10b",
                "addr:door": "6",
                "addr:teryt:simc": 966530,
                "addr:teryt:sym_ul": 14176,
                "phone": "+48 608440139",
                "email": "pprmpawel.aniol@gmail.com",
                "ref:regon": "302602722",
                "operator": "Pawe\u0142 Anio\u0142",
                "operator:type": "private",
                "fixme": "w zale\u017cno\u015bci od przedmiotu dzia\u0142alno\u015bci (np. amenity=training + training=*, amenity=dancing_school, amenity=language_school, amenity=music_school)"
            }
        },
        {
            "id": 2910,
            "type": "Feature",
            "geometry": {
                "type": "Point",
                "coordinates": [
                    16.75057,
                    53.15829
                ]
            },
            "properties": {
                "ref:rspo": 2910,
                "official_name": "Publiczne Przedszkole Nr 16 im. Czerwonego Kapturka w Pile",
                "name": "Publiczne Przedszkole Nr 16",
                "addr:postcode": "64-920",
                "addr:city": "Pi\u0142a",
                "addr:street": "aleja Powsta\u0144c\u00f3w Wielkopolskich",
                "addr:housenumber": "86A",
                "addr:teryt:simc": 966530,
                "addr:teryt:sym_ul": 55706,
                "phone": "+48 672124662",
                "email": "przedszkole1612@wp.pl",
                "ref:regon": "301414190",
                "operator": "Gmina Pi\u0142a",
                "operator:type": "government",
                "amenity": "kindergarten"
            }
        },
        {
            "id": 18499,
            "type": "Feature",
            "geometry": {
                "type": "Point",
                "coordinates": [
                    16.74883,
                    53.15999
                ]
            },
            "properties": {
                "ref:rspo": 18499,
                "official_name": "Specjalny O\u015brodek Szkolno - Wychowawczy im.marii Grzegorzewskiej w Pile",
                "name": "Specjalny O\u015brodek Szkolno - Wychowawczy im.marii Grzegorzewskiej w Pile",
                "addr:postcode": "64-920",
                "addr:city": "Pi\u0142a",
                "addr:street": "\u015aniadeckich",
                "addr:housenumber": "27A\/B",
                "addr:teryt:simc": 966530,
                "addr:teryt:sym_ul": 22382,
                "phone": "+48 672106881",
                "email": "sekretariat_sosw@wp.pl",
                "website": "http:\/\/www.sosw.pila.pl",
                "ref:regon": "000243524",
                "ref:vatin": "PL7642392672",
                "operator": "Powiat Pilski",
                "operator:type": "government",
                "amenity": "school",
                "note": "Children RSPO: 105265;263786"
            }
        },
        {
            "id": 105265,
            "type": "Feature",
            "geometry": {
                "type": "Point",
                "coordinates": [
                    16.74883,
                    53.15996
                ]
            },
            "properties": {
                "isced:level": "1;2",
                "ref:rspo": 105265,
                "official_name": "Szko\u0142a Podstawowa Specjalna",
                "name": "Szko\u0142a Podstawowa Specjalna",
                "addr:postcode": "64-920",
                "addr:city": "Pi\u0142a",
                "addr:street": "\u015aniadeckich",
                "addr:housenumber": "27A\/B",
                "addr:teryt:simc": 966530,
                "addr:teryt:sym_ul": 22382,
                "phone": "+48 672106881",
                "email": "sekretariat-sosw@wp.pl",
                "website": "http:\/\/www.sosw.pila.pl",
                "ref:regon": "570792531",
                "ref:vatin": "PL7642392672",
                "operator": "Powiat Pilski",
                "operator:type": "government",
                "amenity": "school",
                "note": "Parent RSPO: 18499"
            }
        },
        {
            "id": 263786,
            "type": "Feature",
            "geometry": {
                "type": "Point",
                "coordinates": [
                    16.74883,
                    53.15993
                ]
            },
            "properties": {
                "ref:rspo": 263786,
                "official_name": "Szko\u0142a Specjalna Przysposabiaj\u0105ca Do Pracy",
                "name": "Szko\u0142a Specjalna Przysposabiaj\u0105ca Do Pracy",
                "addr:postcode": "64-920",
                "addr:city": "Pi\u0142a",
                "addr:street": "\u015aniadeckich",
                "addr:housenumber": "27",
                "addr:door": "A\/B",
                "addr:teryt:simc": 966530,
                "addr:teryt:sym_ul": 22382,
                "phone": "+48 672141278",
                "email": "sekretariat_sosw@wp.pl",
                "website": "http:\/\/www.soswpila.pl",
                "ref:regon": "368222681",
                "operator": "Powiat Pilski",
                "operator:type": "government",
                "amenity": "school",
                "note": "Parent RSPO: 18499"
            }
        },
        {
            "id": 12889,
            "type": "Feature",
            "geometry": {
                "type": "Point",
                "coordinates": [
                    16.77295,
                    53.16289
                ]
            },
            "properties": {
                "ref:rspo": 12889,
                "official_name": "O\u015brodek Szkolenia Zawodowego S.c.z&M Romaniszyn",
                "name": "O\u015brodek Szkolenia Zawodowego S.c.z&M Romaniszyn",
                "addr:postcode": "64-920",
                "addr:city": "Pi\u0142a",
                "addr:street": "Kossaka",
                "addr:housenumber": "110",
                "addr:teryt:simc": 966530,
                "addr:teryt:sym_ul": 9459,
                "phone": "+48 672148171",
                "email": "szkolenia@romaniszyn.eu",
                "website": "http:\/\/www.romaniszyn.eu",
                "ref:regon": "302210502",
                "ref:vatin": "PL7642034033",
                "operator": "Zdzis\u0142aw Romaniszyn",
                "operator:type": "private",
                "fixme": "w zale\u017cno\u015bci od przedmiotu dzia\u0142alno\u015bci (np. amenity=training + training=*, amenity=dancing_school, amenity=language_school, amenity=music_school)"
            }
        },
        {
            "id": 13154,
            "type": "Feature",
            "geometry": {
                "type": "Point",
                "coordinates": [
                    16.77419,
                    53.1633
                ]
            },
            "properties": {
                "ref:rspo": 13154,
                "official_name": "Uniwersytet O\u015bwiatowy",
                "name": "Uniwersytet O\u015bwiatowy",
                "addr:postcode": "64-920",
                "addr:city": "Pi\u0142a",
                "addr:street": "Kossaka",
                "addr:housenumber": "118",
                "addr:teryt:simc": 966530,
                "addr:teryt:sym_ul": 9459,
                "phone": "+48 673512626",
                "email": "pila@uo.edu.pl",
                "website": "http:\/\/www.uo.edu.pl",
                "ref:regon": "302211039",
                "ref:vatin": "PL7641009501",
                "operator": "Lubomir Zworecki",
                "operator:type": "private",
                "fixme": "w zale\u017cno\u015bci od przedmiotu dzia\u0142alno\u015bci (np. amenity=training + training=*, amenity=dancing_school, amenity=language_school, amenity=music_school)"
            }
        },
        {
            "id": 61670,
            "type": "Feature",
            "geometry": {
                "type": "Point",
                "coordinates": [
                    16.75026,
                    53.16492
                ]
            },
            "properties": {
                "isced:level": "1;2",
                "ref:rspo": 61670,
                "official_name": "Szko\u0142a Podstawowa Nr 11 im. Kr\u00f3lowej Jadwigi w Pile",
                "name": "Szko\u0142a Podstawowa Nr 11",
                "addr:postcode": "64-920",
                "addr:city": "Pi\u0142a",
                "addr:street": "Kr\u00f3lowej Jadwigi",
                "addr:housenumber": "2",
                "addr:teryt:simc": 966530,
                "addr:teryt:sym_ul": 10003,
                "phone": "+48 672141295",
                "email": "sp11_pila@wp.pl",
                "website": "http:\/\/www.sp11pila.pl",
                "ref:regon": "001397672",
                "ref:vatin": "PL7642331587",
                "operator": "Gmina Pi\u0142a",
                "operator:type": "government",
                "amenity": "school"
            }
        },
        {
            "id": 129193,
            "type": "Feature",
            "geometry": {
                "type": "Point",
                "coordinates": [
                    16.73904,
                    53.16547
                ]
            },
            "properties": {
                "ref:rspo": 129193,
                "official_name": "Przedszkole \"Ma\u0142y Ksi\u0105\u017c\u0119\"",
                "name": "Przedszkole \"Ma\u0142y Ksi\u0105\u017c\u0119\"",
                "addr:postcode": "64-920",
                "addr:city": "Pi\u0142a",
                "addr:street": "aleja Niepodleg\u0142o\u015bci",
                "addr:housenumber": "107",
                "addr:teryt:simc": 966530,
                "addr:teryt:sym_ul": 52732,
                "phone": "+48 603183993",
                "email": "poradniacpt@interia.pl",
                "ref:regon": "362506288",
                "operator": "Aleksandra Iwasieczko \"Pajacyk\" Centrum Psychologiczno -Terapeutyczne",
                "operator:type": "consortium",
                "amenity": "kindergarten"
            }
        },
        {
            "id": 105537,
            "type": "Feature",
            "geometry": {
                "type": "Point",
                "coordinates": [
                    16.7546399,
                    53.16576
                ]
            },
            "properties": {
                "ref:rspo": 105537,
                "official_name": "Centrum Hajdasz Jacek Hajdasz Niepubliczna Plac\u00f3wka O\u015bwiatowo - Wychowawcza",
                "name": "Centrum Hajdasz Jacek Hajdasz Niepubliczna Plac\u00f3wka O\u015bwiatowo - Wychowawcza",
                "addr:postcode": "64-920",
                "addr:city": "Pi\u0142a",
                "addr:street": "\u0141\u0105czna",
                "addr:housenumber": "4a",
                "addr:teryt:simc": 966530,
                "addr:teryt:sym_ul": 11577,
                "phone": "+48 618218757",
                "email": "hajdasz@hajdasz.pl",
                "website": "http:\/\/www.hajdasz.pl",
                "ref:regon": "302308951",
                "ref:vatin": "PL9720905018",
                "operator": "Jacek Hajdasz",
                "operator:type": "private",
                "fixme": "w zale\u017cno\u015bci od przedmiotu dzia\u0142alno\u015bci (np. amenity=training + training=*, amenity=dancing_school, amenity=language_school, amenity=music_school)"
            }
        },
        {
            "id": 128536,
            "type": "Feature",
            "geometry": {
                "type": "Point",
                "coordinates": [
                    16.71987,
                    53.16595
                ]
            },
            "properties": {
                "ref:rspo": 128536,
                "official_name": "Niepubliczna Plac\u00f3wka Kszta\u0142cenia Ustawicznego \"Centrum Kompetencji\"",
                "name": "Niepubliczna Plac\u00f3wka Kszta\u0142cenia Ustawicznego \"Centrum Kompetencji\"",
                "addr:postcode": "64-920",
                "addr:city": "Pi\u0142a",
                "addr:street": "Ko\u0142obrzeska",
                "addr:housenumber": "15",
                "addr:teryt:simc": 966530,
                "addr:teryt:sym_ul": 9009,
                "phone": "+48 618626485",
                "email": "biuro@centrum-kompetencji.pl",
                "website": "http:\/\/www.centrum-kompetencji.pl",
                "ref:regon": "362308335",
                "operator": "Centrum Kompetencji Grupa Szkoleniowo-Doradcza A. Gawro\u0144ska Sp\u00f3\u0142ka Jawna",
                "operator:type": "private",
                "fixme": "w zale\u017cno\u015bci od przedmiotu dzia\u0142alno\u015bci (np. amenity=training + training=*, amenity=dancing_school, amenity=language_school, amenity=music_school)"
            }
        },
        {
            "id": 133657,
            "type": "Feature",
            "geometry": {
                "type": "Point",
                "coordinates": [
                    16.75213,
                    53.1662
                ]
            },
            "properties": {
                "ref:rspo": 133657,
                "official_name": "Akademia Polska w Pile. Niepubliczna Plac\u00f3wka O\u015bwiatowa",
                "name": "Akademia Polska w Pile. Niepubliczna Plac\u00f3wka O\u015bwiatowa",
                "addr:postcode": "64-920",
                "addr:city": "Pi\u0142a",
                "addr:street": "Kr\u00f3lowej Jadwigi",
                "addr:housenumber": "15e",
                "addr:teryt:simc": 966530,
                "addr:teryt:sym_ul": 10003,
                "phone": "+48 603728243",
                "ref:regon": "367516943",
                "operator": "Anna Szulc",
                "operator:type": "private",
                "fixme": "w zale\u017cno\u015bci od przedmiotu dzia\u0142alno\u015bci (np. amenity=training + training=*, amenity=dancing_school, amenity=language_school, amenity=music_school)"
            }
        },
        {
            "id": 2912,
            "type": "Feature",
            "geometry": {
                "type": "Point",
                "coordinates": [
                    16.75232,
                    53.168
                ]
            },
            "properties": {
                "ref:rspo": 2912,
                "official_name": "Publiczne Przedszkole Nr 19 im. Misia Uszatka w Pile",
                "name": "Publiczne Przedszkole Nr 19",
                "addr:postcode": "64-920",
                "addr:city": "Pi\u0142a",
                "addr:street": "Kr\u00f3lowej Jadwigi",
                "addr:housenumber": "20",
                "addr:teryt:simc": 966530,
                "addr:teryt:sym_ul": 10003,
                "phone": "+48 672141685",
                "email": "przedszkole19@pila.edu.pl",
                "ref:regon": "301414183",
                "operator": "Gmina Pi\u0142a",
                "operator:type": "government",
                "amenity": "kindergarten"
            }
        },
        {
            "id": 264051,
            "type": "Feature",
            "geometry": {
                "type": "Point",
                "coordinates": [
                    16.7554148,
                    53.1682335
                ]
            },
            "properties": {
                "ref:rspo": 264051,
                "official_name": "Niepubliczne Przedszkole Terapeutyczne \"Mi\u015b Wojtek\" w Pile",
                "name": "Niepubliczne Przedszkole Terapeutyczne \"Mi\u015b Wojtek\" w Pile",
                "addr:postcode": "64-920",
                "addr:city": "Pi\u0142a",
                "addr:street": "\u015aniadeckich",
                "addr:housenumber": "116",
                "addr:teryt:simc": 966530,
                "addr:teryt:sym_ul": 22382,
                "phone": "+48 536111077",
                "email": "mpolanska10@gmail.com",
                "ref:regon": "368255048",
                "ref:vatin": "PL7642683576",
                "operator": "Marzenna Pola\u0144ska",
                "operator:type": "private",
                "amenity": "kindergarten"
            }
        },
        {
            "id": 22622,
            "type": "Feature",
            "geometry": {
                "type": "Point",
                "coordinates": [
                    16.7382199,
                    53.16829
                ]
            },
            "properties": {
                "ref:rspo": 22622,
                "official_name": "Centrum Edukacji I Zarz\u0105dzania Korporacja \"Romaniszyn\" Sp.zo.o. - Kszta\u0142cenie Ustawiczne w Fomach Pozaszkolnych",
                "name": "Centrum Edukacji I Zarz\u0105dzania Korporacja \"Romaniszyn\" Sp.zo.o. - Kszta\u0142cenie Ustawiczne w Fomach Pozaszkolnych",
                "addr:postcode": "64-920",
                "addr:city": "Pi\u0142a",
                "addr:street": "R\u00f3\u017cana Droga",
                "addr:housenumber": "1A",
                "addr:teryt:simc": 966530,
                "addr:teryt:sym_ul": 34860,
                "phone": "+48 672123375",
                "email": "szkolenia@romaniszyn.com.pl",
                "website": "http:\/\/www.romaniszyn.com.pl",
                "ref:regon": "302230864",
                "ref:vatin": "PL7642373657",
                "operator": "Stanis\u0142aw Romaniszyn",
                "operator:type": "private",
                "fixme": "w zale\u017cno\u015bci od przedmiotu dzia\u0142alno\u015bci (np. amenity=training + training=*, amenity=dancing_school, amenity=language_school, amenity=music_school)"
            }
        },
        {
            "id": 22658,
            "type": "Feature",
            "geometry": {
                "type": "Point",
                "coordinates": [
                    16.7382199,
                    53.16826
                ]
            },
            "properties": {
                "ref:rspo": 22658,
                "official_name": "Korporacja \"Romaniszyn\" Przedsi\u0119biorstwo Produkcyjno - Handlowo - Us\u0142ugowe Stanis\u0142aw Romaniszyn- Kszta\u0142cenie Ustawiczne w Formach Pozaszkolnych",
                "name": "Korporacja \"Romaniszyn\" Przedsi\u0119biorstwo Produkcyjno - Handlowo - Us\u0142ugowe Stanis\u0142aw Romaniszyn- Kszta\u0142cenie Ustawiczne w Formach Pozaszkolnych",
                "addr:postcode": "64-920",
                "addr:city": "Pi\u0142a",
                "addr:street": "R\u00f3\u017cana Droga",
                "addr:housenumber": "1A",
                "addr:teryt:simc": 966530,
                "addr:teryt:sym_ul": 34860,
                "phone": "+48 672123375",
                "ref:regon": "302230901",
                "ref:vatin": "PL7640102144",
                "operator": "Stanis\u0142aw Romaniszyn",
                "operator:type": "private",
                "fixme": "w zale\u017cno\u015bci od przedmiotu dzia\u0142alno\u015bci (np. amenity=training + training=*, amenity=dancing_school, amenity=language_school, amenity=music_school)"
            }
        },
        {
            "id": 11879,
            "type": "Feature",
            "geometry": {
                "type": "Point",
                "coordinates": [
                    16.74018,
                    53.17232
                ]
            },
            "properties": {
                "ref:rspo": 11879,
                "official_name": "Niepubliczna Plac\u00f3wka Kszta\u0142cenia Ustawicznego Ligi Obrony Kraju",
                "name": "Niepubliczna Plac\u00f3wka Kszta\u0142cenia Ustawicznego Ligi Obrony Kraju",
                "addr:postcode": "64-920",
                "addr:city": "Pi\u0142a",
                "addr:street": "Aleja Niepodleg\u0142o\u015bci",
                "addr:housenumber": "154",
                "addr:teryt:simc": 966530,
                "addr:teryt:sym_ul": 14199,
                "phone": "+48 672123263",
                "email": "biuro.oskpila@lok.org.pl",
                "website": "http:\/\/www.lok.org.pl",
                "ref:regon": "302218082",
                "ref:vatin": "PL5210086832",
                "operator": "Liga Obrony Kraju",
                "operator:type": "ngo",
                "fixme": "w zale\u017cno\u015bci od przedmiotu dzia\u0142alno\u015bci (np. amenity=training + training=*, amenity=dancing_school, amenity=language_school, amenity=music_school)"
            }
        },
        {
            "id": 105707,
            "type": "Feature",
            "geometry": {
                "type": "Point",
                "coordinates": [
                    16.75118,
                    53.17429
                ]
            },
            "properties": {
                "ref:rspo": 105707,
                "official_name": "Niepubliczna Plac\u00f3wka O\u015bwiatowa Medica- Kszta\u0142cenie Ustawiczne w Formach Pozaszkolnych",
                "name": "Niepubliczna Plac\u00f3wka O\u015bwiatowa Medica- Kszta\u0142cenie Ustawiczne w Formach Pozaszkolnych",
                "addr:postcode": "64-920",
                "addr:city": "Pi\u0142a",
                "addr:street": "\u015awiatowida",
                "addr:housenumber": "3",
                "addr:door": "7",
                "addr:teryt:simc": 966530,
                "addr:teryt:sym_ul": 22447,
                "phone": "+48 662238133",
                "email": "szkolenia@szkolenia-pila.pl",
                "website": "http:\/\/www.szkolenia-pila.pl",
                "ref:regon": "302308968",
                "ref:vatin": "PL7642016503",
                "operator": "Marcin Rozmus",
                "operator:type": "private",
                "fixme": "w zale\u017cno\u015bci od przedmiotu dzia\u0142alno\u015bci (np. amenity=training + training=*, amenity=dancing_school, amenity=language_school, amenity=music_school)"
            }
        },
        {
            "id": 268367,
            "type": "Feature",
            "geometry": {
                "type": "Point",
                "coordinates": [
                    16.75509,
                    53.17503
                ]
            },
            "properties": {
                "ref:rspo": 268367,
                "official_name": "Niepubliczne Przedszkole Kreatywne Weso\u0142a Przygoda",
                "name": "Niepubliczne Przedszkole Kreatywne Weso\u0142a Przygoda",
                "addr:postcode": "64-920",
                "addr:city": "Pi\u0142a",
                "addr:street": "Poprzeczna",
                "addr:housenumber": "2A",
                "addr:teryt:simc": 966530,
                "addr:teryt:sym_ul": 17171,
                "phone": "+48 530616565",
                "email": "wesolaprzygodapila@gmail.com",
                "website": "http:\/\/www.wesolaprzygoda.pl",
                "ref:regon": "381112560",
                "ref:vatin": "PL7642693586",
                "operator": "Edyta Walewska",
                "operator:type": "private",
                "amenity": "kindergarten"
            }
        },
        {
            "id": 105276,
            "type": "Feature",
            "geometry": {
                "type": "Point",
                "coordinates": [
                    16.75191,
                    53.1754
                ]
            },
            "properties": {
                "ref:rspo": 105276,
                "official_name": "Centrum Szkole\u0144 Marleny P\u0142onki - Kszta\u0142cenie Ustawiczne w Formach Pozaszkolnych",
                "name": "Centrum Szkole\u0144 Marleny P\u0142onki - Kszta\u0142cenie Ustawiczne w Formach Pozaszkolnych",
                "addr:postcode": "64-920",
                "addr:city": "Pi\u0142a",
                "addr:street": "Promienna",
                "addr:housenumber": "11",
                "addr:door": "U1",
                "addr:teryt:simc": 966530,
                "addr:teryt:sym_ul": 17534,
                "phone": "+48 917738919",
                "email": "mplonka@centrum.stargard.pl",
                "website": "http:\/\/www.centrum.stargard.pl",
                "ref:regon": "302305237",
                "ref:vatin": "PL5941153193",
                "operator": "Marlena P\u0142onka",
                "operator:type": "private",
                "fixme": "w zale\u017cno\u015bci od przedmiotu dzia\u0142alno\u015bci (np. amenity=training + training=*, amenity=dancing_school, amenity=language_school, amenity=music_school)"
            }
        },
        {
            "id": 123982,
            "type": "Feature",
            "geometry": {
                "type": "Point",
                "coordinates": [
                    16.7533299,
                    53.17654
                ]
            },
            "properties": {
                "ref:rspo": 123982,
                "official_name": "Niepubliczne Przedszkole Terapeutyczne \"T\u0119czowa Kraina\"",
                "name": "Niepubliczne Przedszkole Terapeutyczne \"T\u0119czowa Kraina\"",
                "addr:postcode": "64-920",
                "addr:city": "Pi\u0142a",
                "addr:street": "M\u0142ynarska",
                "addr:housenumber": "15-17L\/C-D",
                "addr:door": "c",
                "addr:teryt:simc": 966530,
                "addr:teryt:sym_ul": 13112,
                "phone": "+48 673490349",
                "email": "npsteczowakraina@wp.pl",
                "ref:regon": "302794905",
                "operator": "Centrum Diagnozy Terapii \"Bbj\" Sp\u00f3\u0142ka Cywilna Bernadeta Szyma\u0144ska, Jacek Mejster Oraz Niepubliczne Przedszkole Terapeutyczne \"T\u0119czowa Kraina\"",
                "operator:type": "consortium",
                "amenity": "kindergarten"
            }
        },
        {
            "id": 120062,
            "type": "Feature",
            "geometry": {
                "type": "Point",
                "coordinates": [
                    16.75189,
                    53.17767
                ]
            },
            "properties": {
                "ref:rspo": 120062,
                "official_name": "Niepubliczne Przedszkole Zielona Dolina",
                "name": "Niepubliczne Przedszkole Zielona Dolina",
                "addr:postcode": "64-920",
                "addr:city": "Pi\u0142a",
                "addr:street": "M\u0142ynarska",
                "addr:housenumber": "4",
                "addr:door": "2L\/3L",
                "addr:teryt:simc": 966530,
                "addr:teryt:sym_ul": 13112,
                "phone": "+48 602299516",
                "email": "przedszkole-zielonadolina@wp.pl",
                "ref:regon": "302533978",
                "operator": "Lidia Grajkowska",
                "operator:type": "private",
                "amenity": "kindergarten"
            }
        }
    ]
}