{
    "type": "FeatureCollection",
    "features": [
        {
            "id": 70102,
            "type": "Feature",
            "geometry": {
                "type": "Point",
                "coordinates": [
                    17.243001937866,
                    52.330688476562
                ]
            },
            "properties": {
                "isced:level": "1;2",
                "ref:rspo": 70102,
                "official_name": "Szko\u0142a Podstawowa Im Janusza Korczaka",
                "name": "Szko\u0142a Podstawowa Im Janusza Korczaka",
                "addr:country": "PL",
                "addr:postcode": "89-300",
                "addr:place": "Glesno",
                "addr:housenumber": "9",
                "addr:teryt:sym_ul": 533392,
                "contact:phone": "+48 672862372",
                "contact:email": "spglesno@onet.pl",
                "ref:regon": "572039720",
                "ref:vatin": "PL7642340008",
                "operator": "Gmina Wyrzysk",
                "operator:type": "government",
                "amenity": "school"
            }
        },
        {
            "id": 70098,
            "type": "Feature",
            "geometry": {
                "type": "Point",
                "coordinates": [
                    17.28724,
                    53.11782
                ]
            },
            "properties": {
                "ref:rspo": 70098,
                "official_name": "Publiczne Przedszkole",
                "name": "Publiczne Przedszkole",
                "addr:country": "PL",
                "addr:postcode": "89-333",
                "addr:city": "Osiek nad Noteci\u0105",
                "addr:street": "Bohater\u00f3w",
                "addr:housenumber": "28",
                "addr:teryt:simc": 1624,
                "addr:teryt:sym_ul": 533506,
                "contact:phone": "+48 672866069",
                "contact:email": "przedszkole_osiek@op.pl",
                "ref:regon": "301612010",
                "ref:vatin": "PL7642649958",
                "operator": "Gmina Wyrzysk",
                "operator:type": "government",
                "amenity": "kindergarten"
            }
        },
        {
            "id": 105533,
            "type": "Feature",
            "geometry": {
                "type": "Point",
                "coordinates": [
                    17.2872,
                    53.12194
                ]
            },
            "properties": {
                "ref:rspo": 105533,
                "official_name": "O\u015brodek Kszta\u0142cenia Doros\u0142ych - Ratownictwo Medyczne Damian Garlicki- Kszta\u0142cenie Ustawiczne w Formach Pozaszkolnych. Niepubliczna Plac\u00f3wka O\u015bwiatowa",
                "name": "O\u015brodek Kszta\u0142cenia Doros\u0142ych - Ratownictwo Medyczne Damian Garlicki- Kszta\u0142cenie Ustawiczne w Formach Pozaszkolnych. Niepubliczna Plac\u00f3wka O\u015bwiatowa",
                "addr:country": "PL",
                "addr:postcode": "89-333",
                "addr:city": "Osiek nad Noteci\u0105",
                "addr:street": "Bukowa",
                "addr:housenumber": "5",
                "addr:teryt:simc": 2387,
                "addr:teryt:sym_ul": 533506,
                "contact:phone": "+48 504043991",
                "contact:email": "med-life1@wp.pl",
                "contact:website": "http:\/\/www.med-life1.pl",
                "ref:regon": "302308939",
                "ref:vatin": "PL7642081914",
                "operator": "Damian Garlicki",
                "operator:type": "private",
                "fixme": "w zale\u017cno\u015bci od przedmiotu dzia\u0142alno\u015bci (np. amenity=training + training=*, amenity=dancing_school, amenity=language_school, amenity=music_school)"
            }
        },
        {
            "id": 70094,
            "type": "Feature",
            "geometry": {
                "type": "Point",
                "coordinates": [
                    17.29056,
                    53.12211
                ]
            },
            "properties": {
                "isced:level": "1;2",
                "ref:rspo": 70094,
                "official_name": "Szko\u0142a Podstawowa im. Stanis\u0142awa Staszica",
                "name": "Szko\u0142a Podstawowa",
                "addr:country": "PL",
                "addr:postcode": "89-333",
                "addr:city": "Osiek nad Noteci\u0105",
                "addr:street": "Szkolna",
                "addr:housenumber": "2",
                "addr:teryt:simc": 21970,
                "addr:teryt:sym_ul": 533506,
                "contact:phone": "+48 672866028",
                "contact:email": "sposieknn@interia.pl",
                "contact:website": "http:\/\/sp-osiek.pl",
                "ref:regon": "001170402",
                "ref:vatin": "PL7642262509",
                "operator": "Gmina Wyrzysk",
                "operator:type": "government",
                "amenity": "school"
            }
        },
        {
            "id": 70097,
            "type": "Feature",
            "geometry": {
                "type": "Point",
                "coordinates": [
                    17.26798,
                    53.1521199
                ]
            },
            "properties": {
                "ref:rspo": 70097,
                "official_name": "Publiczne Przedszkole im. Chatka Puchatka",
                "name": "Publiczne Przedszkole",
                "addr:country": "PL",
                "addr:postcode": "89-300",
                "addr:city": "Wyrzysk",
                "addr:street": "22 Stycznia",
                "addr:housenumber": "16c",
                "addr:teryt:simc": 21454,
                "addr:teryt:sym_ul": 967392,
                "contact:phone": "+48 672862644",
                "contact:email": "dyrektor@przedszkole.wyrzysk.pl",
                "contact:website": "http:\/\/przedszkole.wyrzysk.pl",
                "ref:regon": "301611995",
                "ref:vatin": "PL7642649941",
                "operator": "Gmina Wyrzysk",
                "operator:type": "government",
                "amenity": "kindergarten"
            }
        },
        {
            "id": 274492,
            "type": "Feature",
            "geometry": {
                "type": "Point",
                "coordinates": [
                    17.3182,
                    53.15236
                ]
            },
            "properties": {
                "ref:rspo": 274492,
                "official_name": "Przedszkole Jak U Mamy",
                "name": "Przedszkole Jak U Mamy",
                "addr:country": "PL",
                "addr:postcode": "89-300",
                "addr:place": "Ruda",
                "addr:housenumber": "4",
                "addr:teryt:sym_ul": 533558,
                "contact:phone": "+48 796338340",
                "ref:regon": "385845911",
                "operator": "Ecce Homo - Oto Cz\u0142owiek  Ma\u0142gorzata Sakowicz-Suwary",
                "operator:type": "consortium",
                "amenity": "kindergarten"
            }
        },
        {
            "id": 70089,
            "type": "Feature",
            "geometry": {
                "type": "Point",
                "coordinates": [
                    17.2627099,
                    53.15275
                ]
            },
            "properties": {
                "isced:level": "1;2",
                "ref:rspo": 70089,
                "official_name": "Szko\u0142a Podstawowa im. Powsta\u0144c\u00f3w Wielkopolskich",
                "name": "Szko\u0142a Podstawowa",
                "addr:country": "PL",
                "addr:postcode": "89-300",
                "addr:city": "Wyrzysk",
                "addr:street": "Parkowa",
                "addr:housenumber": "8",
                "addr:teryt:simc": 15710,
                "addr:teryt:sym_ul": 967392,
                "contact:phone": "+48 672862481",
                "contact:email": "spwyrzysk@vp.pl",
                "contact:website": "http:\/\/www.spwyrzysk.pl",
                "ref:regon": "000264905",
                "ref:vatin": "PL7642262490",
                "operator": "Gmina Wyrzysk",
                "operator:type": "government",
                "amenity": "school"
            }
        },
        {
            "id": 14675,
            "type": "Feature",
            "geometry": {
                "type": "Point",
                "coordinates": [
                    17.2656199,
                    53.15668
                ]
            },
            "properties": {
                "ref:rspo": 14675,
                "official_name": "O\u015brodek Szkolenia Bhp",
                "name": "O\u015brodek Szkolenia Bhp",
                "addr:country": "PL",
                "addr:postcode": "89-300",
                "addr:city": "Wyrzysk",
                "addr:street": "Bydgoska",
                "addr:housenumber": "28",
                "addr:teryt:simc": 2498,
                "addr:teryt:sym_ul": 967392,
                "contact:phone": "+48 672867264",
                "contact:email": "dankosia1960@wp.pl",
                "ref:regon": "302213720",
                "ref:vatin": "PL7641385724",
                "operator": "Danuta Dankowska",
                "operator:type": "private",
                "fixme": "w zale\u017cno\u015bci od przedmiotu dzia\u0142alno\u015bci (np. amenity=training + training=*, amenity=dancing_school, amenity=language_school, amenity=music_school)"
            }
        },
        {
            "id": 118418,
            "type": "Feature",
            "geometry": {
                "type": "Point",
                "coordinates": [
                    17.25978,
                    53.15862
                ]
            },
            "properties": {
                "ref:rspo": 118418,
                "official_name": "Centrum Kszta\u0142cenia Zawodowego I Ustawicznego w Wyrzysku",
                "name": "Centrum Kszta\u0142cenia Zawodowego I Ustawicznego w Wyrzysku",
                "addr:country": "PL",
                "addr:postcode": "89-300",
                "addr:city": "Wyrzysk",
                "addr:street": "Wiejska",
                "addr:housenumber": "1",
                "addr:teryt:simc": 24048,
                "addr:teryt:sym_ul": 967392,
                "contact:phone": "+48 672867709",
                "contact:email": "sekretariat@zspwyrzysk.pl",
                "contact:website": "http:\/\/www.zspwyrzysk.pl",
                "ref:regon": "302491464",
                "ref:vatin": "PL7642664857",
                "operator": "Powiat Pilski",
                "operator:type": "government",
                "landuse": "education",
                "fixme": "amenity=school, amenity=college albo landuse=education w zale\u017cno\u015bci od tego, jakie plac\u00f3wki wchodz\u0105 w sk\u0142ad zespo\u0142u. Sprawd\u017a, kiedy stosowa\u0107 amenity=* a kiedy landuse=education.",
                "note": "Children RSPO: 105229;105268;109671;119381;119384;276005"
            }
        },
        {
            "id": 109667,
            "type": "Feature",
            "geometry": {
                "type": "Point",
                "coordinates": [
                    17.25978,
                    53.15859
                ]
            },
            "properties": {
                "ref:rspo": 109667,
                "official_name": "Poradnia Psychologiczno - Pedagogiczna w Wyrzysku",
                "name": "Poradnia Psychologiczno - Pedagogiczna w Wyrzysku",
                "addr:country": "PL",
                "addr:postcode": "89-300",
                "addr:city": "Wyrzysk",
                "addr:street": "Wiejska",
                "addr:housenumber": "1",
                "addr:teryt:simc": 24048,
                "addr:teryt:sym_ul": 967392,
                "contact:phone": "+48 672862477",
                "contact:email": "pppwyrzysk@interia.pl",
                "contact:website": "http:\/\/zppp.pilanin.pl",
                "ref:regon": "302349996",
                "ref:vatin": "PL7642584058",
                "operator": "Powiat Pilski",
                "operator:type": "government",
                "healthcare": "counselling",
                "counselling_type": "education",
                "fixme": "w zale\u017cno\u015bci od przedmiotu dzia\u0142alno\u015bci (np. healthcare=counselling + counselling_type=education albo healthcare=psychotherapist)",
                "note": "Parent RSPO: 105219"
            }
        },
        {
            "id": 105229,
            "type": "Feature",
            "geometry": {
                "type": "Point",
                "coordinates": [
                    17.25978,
                    53.15856
                ]
            },
            "properties": {
                "isced:level": "3",
                "ref:rspo": 105229,
                "official_name": "Technikum w Wyrzysku",
                "name": "Technikum w Wyrzysku",
                "addr:country": "PL",
                "addr:postcode": "89-300",
                "addr:city": "Wyrzysk",
                "addr:street": "Wiejska",
                "addr:housenumber": "1",
                "addr:teryt:simc": 24048,
                "addr:teryt:sym_ul": 967392,
                "contact:phone": "+48 672867709",
                "contact:email": "sekretariat@zspwyrzysk.pl",
                "contact:website": "http:\/\/www.zspwyrzysk.pl",
                "ref:regon": "572084123",
                "ref:vatin": "PL7642215616",
                "operator": "Powiat Pilski",
                "operator:type": "government",
                "amenity": "school",
                "note": "Parent RSPO: 118418"
            }
        },
        {
            "id": 105268,
            "type": "Feature",
            "geometry": {
                "type": "Point",
                "coordinates": [
                    17.25978,
                    53.15853
                ]
            },
            "properties": {
                "isced:level": "3",
                "ref:rspo": 105268,
                "official_name": "Bran\u017cowa Szko\u0142a I Stopnia w Wyrzysku",
                "name": "Bran\u017cowa Szko\u0142a I Stopnia w Wyrzysku",
                "addr:country": "PL",
                "addr:postcode": "89-300",
                "addr:city": "Wyrzysk",
                "addr:street": "Wiejska",
                "addr:housenumber": "1",
                "addr:teryt:simc": 24048,
                "addr:teryt:sym_ul": 967392,
                "contact:phone": "+48 672867709",
                "contact:email": "sekretariat@zspwyrzysk.pl",
                "contact:website": "http:\/\/www.zspwyrzysk.pl",
                "ref:regon": "001238991",
                "operator": "Powiat Pilski",
                "operator:type": "government",
                "amenity": "school",
                "note": "Parent RSPO: 118418"
            }
        },
        {
            "id": 109671,
            "type": "Feature",
            "geometry": {
                "type": "Point",
                "coordinates": [
                    17.25978,
                    53.1585
                ]
            },
            "properties": {
                "isced:level": "4",
                "ref:rspo": 109671,
                "official_name": "Szko\u0142a Policealna w Wyrzysku",
                "name": "Szko\u0142a Policealna w Wyrzysku",
                "addr:country": "PL",
                "addr:postcode": "89-300",
                "addr:city": "Wyrzysk",
                "addr:street": "Wiejska",
                "addr:housenumber": "1",
                "addr:teryt:simc": 24048,
                "addr:teryt:sym_ul": 967392,
                "contact:phone": "+48 672867709",
                "contact:email": "sekretariat@zspwyrzysk.pl",
                "contact:website": "http:\/\/www.zspwyrzysk.pl",
                "ref:regon": "300145746",
                "operator": "Powiat Pilski",
                "operator:type": "government",
                "amenity": "college",
                "note": "Parent RSPO: 118418"
            }
        },
        {
            "id": 119381,
            "type": "Feature",
            "geometry": {
                "type": "Point",
                "coordinates": [
                    17.25978,
                    53.15847
                ]
            },
            "properties": {
                "isced:level": "3",
                "ref:rspo": 119381,
                "official_name": "Bran\u017cowa Szko\u0142a I Stopnia Specjalna w Wyrzysku",
                "name": "Bran\u017cowa Szko\u0142a I Stopnia Specjalna w Wyrzysku",
                "addr:country": "PL",
                "addr:postcode": "89-300",
                "addr:city": "Wyrzysk",
                "addr:street": "Wiejska",
                "addr:housenumber": "1",
                "addr:teryt:simc": 24048,
                "addr:teryt:sym_ul": 967392,
                "contact:phone": "+48 672867709",
                "contact:email": "sekretariat@zspwyrzysk.pl",
                "contact:website": "http:\/\/www.zspwyrzysk.pl",
                "ref:regon": "302516603",
                "operator": "Powiat Pilski",
                "operator:type": "government",
                "amenity": "school",
                "note": "Parent RSPO: 118418"
            }
        },
        {
            "id": 119384,
            "type": "Feature",
            "geometry": {
                "type": "Point",
                "coordinates": [
                    17.25978,
                    53.15844
                ]
            },
            "properties": {
                "isced:level": "3",
                "ref:rspo": 119384,
                "official_name": "Liceum Og\u00f3lnokszta\u0142c\u0105ce dla Doros\u0142ych w Wyrzysku",
                "name": "Liceum Og\u00f3lnokszta\u0142c\u0105ce dla Doros\u0142ych w Wyrzysku",
                "addr:country": "PL",
                "addr:postcode": "89-300",
                "addr:city": "Wyrzysk",
                "addr:street": "Wiejska",
                "addr:housenumber": "1",
                "addr:teryt:simc": 24048,
                "addr:teryt:sym_ul": 967392,
                "contact:phone": "+48 672867709",
                "contact:email": "sekretariat@zspwyrzysk.pl",
                "contact:website": "http:\/\/www.zspwyrzysk.pl",
                "ref:regon": "302516678",
                "operator": "Powiat Pilski",
                "operator:type": "government",
                "amenity": "school",
                "note": "Parent RSPO: 118418"
            }
        },
        {
            "id": 276005,
            "type": "Feature",
            "geometry": {
                "type": "Point",
                "coordinates": [
                    17.25978,
                    53.158409999999996
                ]
            },
            "properties": {
                "isced:level": "3",
                "ref:rspo": 276005,
                "official_name": "Bran\u017cowa Szko\u0142a II Stopnia w Wyrzysku",
                "name": "Bran\u017cowa Szko\u0142a II Stopnia w Wyrzysku",
                "addr:country": "PL",
                "addr:postcode": "89-300",
                "addr:city": "Wyrzysk",
                "addr:street": "Wiejska",
                "addr:housenumber": "1",
                "addr:teryt:simc": 24048,
                "addr:teryt:sym_ul": 967392,
                "contact:phone": "+48 672867709",
                "contact:email": "sekretariat@zspwyrzysk.pl",
                "contact:website": "http:\/\/www.zspwyrzysk.pl",
                "ref:regon": "386964322",
                "operator": "Powiat Pilski",
                "operator:type": "government",
                "amenity": "school",
                "note": "Parent RSPO: 118418"
            }
        },
        {
            "id": 70093,
            "type": "Feature",
            "geometry": {
                "type": "Point",
                "coordinates": [
                    17.1969972,
                    53.1624338
                ]
            },
            "properties": {
                "isced:level": "1;2",
                "ref:rspo": 70093,
                "official_name": "Szko\u0142a Podstawowa im. Marii Konopnickiej",
                "name": "Szko\u0142a Podstawowa",
                "addr:country": "PL",
                "addr:postcode": "89-300",
                "addr:place": "Kosztowo",
                "addr:housenumber": "79",
                "addr:teryt:sym_ul": 533475,
                "contact:phone": "+48 672863472",
                "contact:email": "sekretariat@spkosztowo.pl",
                "contact:website": "http:\/\/spkosztowo.edupage.org",
                "ref:regon": "001170425",
                "ref:vatin": "PL7642264477",
                "operator": "Gmina Wyrzysk",
                "operator:type": "government",
                "amenity": "school"
            }
        },
        {
            "id": 70104,
            "type": "Feature",
            "geometry": {
                "type": "Point",
                "coordinates": [
                    17.22573,
                    53.19354
                ]
            },
            "properties": {
                "isced:level": "1;2",
                "ref:rspo": 70104,
                "official_name": "Szko\u0142a Podstawowa im. Henryka Sienkiewicza",
                "name": "Szko\u0142a Podstawowa",
                "addr:country": "PL",
                "addr:postcode": "89-311",
                "addr:place": "Falmierowo",
                "addr:housenumber": "30",
                "addr:teryt:sym_ul": 533363,
                "contact:phone": "+48 672863295",
                "contact:email": "spfalmierowo@interia.pl",
                "ref:regon": "001170419",
                "ref:vatin": "PL7642264460",
                "operator": "Gmina Wyrzysk",
                "operator:type": "government",
                "amenity": "school"
            }
        }
    ]
}