{
    "type": "FeatureCollection",
    "features": [
        {
            "id": 61914,
            "type": "Feature",
            "geometry": {
                "type": "Point",
                "coordinates": [
                    16.66081,
                    52.97204
                ]
            },
            "properties": {
                "isced:level": "1;2",
                "ref:rspo": 61914,
                "official_name": "Szko\u0142a Podstawowa im. Kornela Makuszy\u0144skiego w Kruszewie",
                "name": "Szko\u0142a Podstawowa",
                "addr:country": "PL",
                "addr:postcode": "64-850",
                "addr:city": "Kruszewo",
                "addr:street": "Szkolna",
                "addr:housenumber": "1",
                "addr:teryt:simc": 21970,
                "addr:teryt:sym_ul": 530904,
                "contact:phone": "+48 672839117",
                "contact:email": "zskruszewo@wp.pl",
                "contact:website": "http:\/\/szkola.kruszewo.eu\/",
                "ref:regon": "001130584",
                "ref:vatin": "PL7642371776",
                "operator": "Gmina Uj\u015bcie",
                "operator:type": "government",
                "amenity": "school"
            }
        },
        {
            "id": 3609,
            "type": "Feature",
            "geometry": {
                "type": "Point",
                "coordinates": [
                    16.74095,
                    53.03401
                ]
            },
            "properties": {
                "isced:level": "1;2",
                "ref:rspo": 3609,
                "official_name": "Szko\u0142a Podstawowa w Nowej Wsi Ujskiej",
                "name": "Szko\u0142a Podstawowa w Nowej Wsi Ujskiej",
                "addr:country": "PL",
                "addr:postcode": "64-850",
                "addr:place": "Nowa Wie\u015b Ujska",
                "addr:housenumber": "1",
                "addr:teryt:sym_ul": 530962,
                "contact:phone": "+48 672840036",
                "contact:email": "szkola@spnwu.pl",
                "contact:website": "http:\/\/spnwu.pl",
                "ref:regon": "302184791",
                "ref:vatin": "PL7642663467",
                "operator": "Gmina Uj\u015bcie",
                "operator:type": "government",
                "amenity": "school"
            }
        },
        {
            "id": 39137,
            "type": "Feature",
            "geometry": {
                "type": "Point",
                "coordinates": [
                    16.7282,
                    53.05275
                ]
            },
            "properties": {
                "isced:level": "1;2",
                "ref:rspo": 39137,
                "official_name": "Szko\u0142a Podstawowa im. Jana Paw\u0142a Ii",
                "name": "Szko\u0142a Podstawowa",
                "addr:country": "PL",
                "addr:postcode": "64-850",
                "addr:city": "Uj\u015bcie",
                "addr:street": "Czarnkowska",
                "addr:housenumber": "31",
                "addr:teryt:simc": 3284,
                "addr:teryt:sym_ul": 967191,
                "contact:phone": "+48 672840047",
                "contact:email": "spujscie@op.pl",
                "ref:regon": "000767463",
                "ref:vatin": "PL7642296081",
                "operator": "Gmina Uj\u015bcie",
                "operator:type": "government",
                "amenity": "school"
            }
        },
        {
            "id": 39138,
            "type": "Feature",
            "geometry": {
                "type": "Point",
                "coordinates": [
                    16.73364,
                    53.05372
                ]
            },
            "properties": {
                "ref:rspo": 39138,
                "official_name": "Przedszkole Publiczne Z Oddzialem Zamiejscowym Z Siedzib\u0105 w Uj\u015bciu im. Kr\u00f3la Maciusia I",
                "name": "Przedszkole Publiczne Z Oddzialem Zamiejscowym Z Siedzib\u0105 w Uj\u015bciu",
                "addr:country": "PL",
                "addr:postcode": "64-850",
                "addr:city": "Uj\u015bcie",
                "addr:street": "Henryka Sienkiewicza",
                "addr:housenumber": "9",
                "addr:teryt:simc": 19830,
                "addr:teryt:sym_ul": 967191,
                "contact:phone": "+48 672152796",
                "contact:email": "dyrektor@asta-net.com.pl",
                "contact:website": "http:\/\/ppujscie.szkolnastrona.pl",
                "ref:regon": "570262603",
                "ref:vatin": "PL7642296141",
                "operator": "Gmina Uj\u015bcie",
                "operator:type": "government",
                "amenity": "kindergarten"
            }
        }
    ]
}