{
    "type": "FeatureCollection",
    "features": [
        {
            "id": 79082,
            "type": "Feature",
            "geometry": {
                "type": "Point",
                "coordinates": [
                    17.12577,
                    53.1031
                ]
            },
            "properties": {
                "ref:rspo": 79082,
                "official_name": "Samorz\u0105dowe Przedszkole",
                "name": "Samorz\u0105dowe Przedszkole",
                "addr:postcode": "89-340",
                "addr:city": "Bia\u0142o\u015bliwie",
                "addr:street": "Podg\u00f3rna",
                "addr:housenumber": "45A",
                "addr:teryt:simc": 524192,
                "addr:teryt:sym_ul": 16742,
                "phone": "+48 672875025",
                "email": "samorzadoweprzedszkole@o2.pl",
                "website": "http:\/\/psbialosliwie.edupage.org",
                "ref:regon": "301601726",
                "operator": "Gmina Bia\u0142o\u015bliwie",
                "operator:type": "government",
                "amenity": "kindergarten"
            }
        },
        {
            "id": 79279,
            "type": "Feature",
            "geometry": {
                "type": "Point",
                "coordinates": [
                    17.1253,
                    53.10531
                ]
            },
            "properties": {
                "isced:level": "1;2",
                "ref:rspo": 79279,
                "official_name": "Szko\u0142a Podstawowa im. Wiktora Kaji",
                "name": "Szko\u0142a Podstawowa",
                "addr:postcode": "89-340",
                "addr:city": "Bia\u0142o\u015bliwie",
                "addr:street": "4 Stycznia",
                "addr:housenumber": "8",
                "addr:teryt:simc": 524192,
                "addr:teryt:sym_ul": 21468,
                "phone": "+48 672875019",
                "email": "bialosliwieszp@wp.pl",
                "website": "http:\/\/szpbialosliwie.pl",
                "ref:regon": "000266241",
                "operator": "Gmina Bia\u0142o\u015bliwie",
                "operator:type": "government",
                "amenity": "school"
            }
        }
    ]
}