{
    "type": "FeatureCollection",
    "features": [
        {
            "id": 29334,
            "type": "Feature",
            "geometry": {
                "type": "Point",
                "coordinates": [
                    18.79273,
                    49.9355199
                ]
            },
            "properties": {
                "isced:level": "1;2",
                "ref:rspo": 29334,
                "official_name": "Szko\u0142a Podstawowa w Wi\u015ble Ma\u0142ej",
                "name": "Szko\u0142a Podstawowa w Wi\u015ble Ma\u0142ej",
                "addr:postcode": "43-243",
                "addr:city": "Wis\u0142a Ma\u0142a",
                "addr:street": "Sokola",
                "addr:housenumber": "10",
                "addr:city:simc": 220747,
                "addr:street:sym_ul": 20478,
                "phone": "+48 322123419",
                "email": "sp13@pze-pszczyna.pl",
                "website": "http:\/\/www.szkola-wislamala.pl",
                "ref:regon": "000723738",
                "ref:vatin": "PL6381808758",
                "operator": "Gmina Pszczyna",
                "operator:type": "government",
                "amenity": "school"
            }
        },
        {
            "id": 17367,
            "type": "Feature",
            "geometry": {
                "type": "Point",
                "coordinates": [
                    18.9732,
                    49.9433
                ]
            },
            "properties": {
                "isced:level": "1;2",
                "ref:rspo": 17367,
                "official_name": "Szko\u0142a Podstawowa w Por\u0119bie",
                "name": "Szko\u0142a Podstawowa w Por\u0119bie",
                "addr:postcode": "43-200",
                "addr:city": "Por\u0119ba",
                "addr:street": "Szkolna",
                "addr:housenumber": "8",
                "addr:city:simc": 942328,
                "addr:street:sym_ul": 21970,
                "phone": "+48 322120224",
                "email": "spporeba@pze-pszczyna.pl",
                "website": "http:\/\/www.sp11poreba.pless.pl",
                "ref:regon": "000723715",
                "ref:vatin": "PL6381808882",
                "operator": "Gmina Pszczyna",
                "operator:type": "government",
                "amenity": "school"
            }
        },
        {
            "id": 14480,
            "type": "Feature",
            "geometry": {
                "type": "Point",
                "coordinates": [
                    18.85306,
                    49.95295
                ]
            },
            "properties": {
                "ref:rspo": 14480,
                "official_name": "Zesp\u00f3\u0142 Szkolno-Przedszkolny w Wi\u015ble Wielkiej",
                "name": "Zesp\u00f3\u0142 Szkolno-Przedszkolny w Wi\u015ble Wielkiej",
                "addr:postcode": "43-243",
                "addr:city": "Wis\u0142a Wielka",
                "addr:street": "Hodowc\u00f3w",
                "addr:housenumber": "38",
                "addr:city:simc": 220760,
                "addr:street:sym_ul": 6681,
                "phone": "+48 322120476",
                "email": "zspwislawielka@pze-pszczyna.pl",
                "website": "http:\/\/www.zspww.pna.pl",
                "ref:regon": "240681623",
                "ref:vatin": "PL6381809019",
                "operator": "Gmina Pszczyna",
                "operator:type": "government",
                "landuse": "education",
                "fixme": "amenity=school, amenity=college albo landuse=education w zale\u017cno\u015bci od tego, jakie plac\u00f3wki wchodz\u0105 w sk\u0142ad zespo\u0142u. Sprawd\u017a, kiedy stosowa\u0107 amenity=* a kiedy landuse=education.",
                "note": "Children RSPO: 29323;29324"
            }
        },
        {
            "id": 29323,
            "type": "Feature",
            "geometry": {
                "type": "Point",
                "coordinates": [
                    18.85306,
                    49.95292
                ]
            },
            "properties": {
                "ref:rspo": 29323,
                "official_name": "Przedszkole w Wi\u015ble Wielkiej w Zespole Szkolno-Przedszkolnym w Wi\u015ble Wielkiej",
                "name": "Przedszkole w Wi\u015ble Wielkiej w Zespole Szkolno-Przedszkolnym w Wi\u015ble Wielkiej",
                "addr:postcode": "43-243",
                "addr:city": "Wis\u0142a Wielka",
                "addr:street": "Hodowc\u00f3w",
                "addr:housenumber": "38",
                "addr:city:simc": 220760,
                "addr:street:sym_ul": 6681,
                "phone": "+48 322120476",
                "email": "zspwislawielka@pze-pszczyna.pl",
                "website": "http:\/\/www.zspww.pna.pl",
                "ref:regon": "272002413",
                "operator": "Gmina Pszczyna",
                "operator:type": "government",
                "amenity": "kindergarten",
                "note": "Parent RSPO: 14480"
            }
        },
        {
            "id": 29324,
            "type": "Feature",
            "geometry": {
                "type": "Point",
                "coordinates": [
                    18.85306,
                    49.952890000000004
                ]
            },
            "properties": {
                "isced:level": "1;2",
                "ref:rspo": 29324,
                "official_name": "Szko\u0142a Podstawowa w Wi\u015ble Wielkiej w Zespole Szkolno-Przedszkolnym w Wi\u015ble Wielkiej",
                "name": "Szko\u0142a Podstawowa w Wi\u015ble Wielkiej w Zespole Szkolno-Przedszkolnym w Wi\u015ble Wielkiej",
                "addr:postcode": "43-243",
                "addr:city": "Wis\u0142a Wielka",
                "addr:street": "Hodowc\u00f3w",
                "addr:housenumber": "38",
                "addr:city:simc": 220760,
                "addr:street:sym_ul": 6681,
                "phone": "+48 322120476",
                "email": "zspwislawielka@pze-pszczyna.pl",
                "website": "http:\/\/www.zspww.pna.pl",
                "ref:regon": "000723744",
                "operator": "Gmina Pszczyna",
                "operator:type": "government",
                "amenity": "school",
                "note": "Parent RSPO: 14480"
            }
        },
        {
            "id": 61636,
            "type": "Feature",
            "geometry": {
                "type": "Point",
                "coordinates": [
                    19.00549,
                    49.9533
                ]
            },
            "properties": {
                "ref:rspo": 61636,
                "official_name": "Polski Zwi\u0105zek Niewidomych Centrum Edukacyjno-Leczniczo-Rehabilitacyjne dla Dzieci I M\u0142odzie\u017cy",
                "name": "Polski Zwi\u0105zek Niewidomych Centrum Edukacyjno-Leczniczo-Rehabilitacyjne dla Dzieci I M\u0142odzie\u017cy",
                "addr:postcode": "43-229",
                "addr:city": "Rudo\u0142towice",
                "addr:street": "Aleksandra Zawadzkiego",
                "addr:housenumber": "128",
                "addr:city:simc": 942357,
                "addr:street:sym_ul": 25821,
                "phone": "+48 324490559",
                "email": "biuro@zameczek.org.pl",
                "ref:regon": "243091922",
                "ref:vatin": "PL6381590555",
                "operator": "Polski Zwi\u0105zek Niewidomych Okr\u0119g \u015al\u0105ski",
                "operator:type": "ngo",
                "amenity": "school"
            }
        },
        {
            "id": 15081,
            "type": "Feature",
            "geometry": {
                "type": "Point",
                "coordinates": [
                    19.00257,
                    49.9576
                ]
            },
            "properties": {
                "isced:level": "1;2",
                "ref:rspo": 15081,
                "official_name": "Szko\u0142a Podstawowa im. J\u00f3zefa Weszki w Rudo\u0142towicach",
                "name": "Szko\u0142a Podstawowa",
                "addr:postcode": "43-229",
                "addr:city": "Rudo\u0142towice",
                "addr:street": "Anieli Krzywo\u0144",
                "addr:housenumber": "5",
                "addr:city:simc": 942357,
                "addr:street:sym_ul": 10174,
                "phone": "+48 322112100",
                "email": "sprudoltowice@pze-pszczyna.pl",
                "website": "http:\/\/www.sp8.edu.pl",
                "ref:regon": "273185189",
                "ref:vatin": "PL6381808853",
                "operator": "Gmina Pszczyna",
                "operator:type": "government",
                "amenity": "school"
            }
        },
        {
            "id": 14481,
            "type": "Feature",
            "geometry": {
                "type": "Point",
                "coordinates": [
                    18.90511,
                    49.95844
                ]
            },
            "properties": {
                "ref:rspo": 14481,
                "official_name": "Zesp\u00f3\u0142 Szkolno-Przedszkolny w \u0141\u0105ce",
                "name": "Zesp\u00f3\u0142 Szkolno-Przedszkolny w \u0141\u0105ce",
                "addr:postcode": "43-241",
                "addr:city": "\u0141\u0105ka",
                "addr:street": "Grzegorza Fitelberga",
                "addr:housenumber": "1",
                "addr:city:simc": 942297,
                "addr:street:sym_ul": 5048,
                "phone": "+48 322105026",
                "email": "zsp_laka_sekretariat@pze-pszczyna.pl",
                "website": "http:\/\/www.zsp-laka.edu.pl",
                "ref:regon": "240711212",
                "ref:vatin": "PL6381809025",
                "operator": "Gmina Pszczyna",
                "operator:type": "government",
                "landuse": "education",
                "fixme": "amenity=school, amenity=college albo landuse=education w zale\u017cno\u015bci od tego, jakie plac\u00f3wki wchodz\u0105 w sk\u0142ad zespo\u0142u. Sprawd\u017a, kiedy stosowa\u0107 amenity=* a kiedy landuse=education.",
                "note": "Children RSPO: 39207;43703"
            }
        },
        {
            "id": 39207,
            "type": "Feature",
            "geometry": {
                "type": "Point",
                "coordinates": [
                    18.90511,
                    49.95841
                ]
            },
            "properties": {
                "ref:rspo": 39207,
                "official_name": "Przedszkole w \u0141\u0105ce w Zespole Szkolno-Przedszkolnym w \u0141\u0105ce",
                "name": "Przedszkole w \u0141\u0105ce w Zespole Szkolno-Przedszkolnym w \u0141\u0105ce",
                "addr:postcode": "43-241",
                "addr:city": "\u0141\u0105ka",
                "addr:street": "Grzegorza Fitelberga",
                "addr:housenumber": "1",
                "addr:city:simc": 942297,
                "addr:street:sym_ul": 5048,
                "phone": "+48 322105026",
                "email": "zsp_laka_sekretariat@pze-pszczyna.pl",
                "website": "http:\/\/www.zsp-laka.edu.pl",
                "ref:regon": "272002399",
                "operator": "Gmina Pszczyna",
                "operator:type": "government",
                "amenity": "kindergarten",
                "note": "Parent RSPO: 14481"
            }
        },
        {
            "id": 43703,
            "type": "Feature",
            "geometry": {
                "type": "Point",
                "coordinates": [
                    18.90511,
                    49.958380000000005
                ]
            },
            "properties": {
                "isced:level": "1;2",
                "ref:rspo": 43703,
                "official_name": "Szko\u0142a Podstawowa im. Alojzego P\u0142aweckiego w \u0141\u0105ce w Zespole Szkolno-Przedszkolnym w \u0141\u0105ce",
                "name": "Szko\u0142a Podstawowa",
                "addr:postcode": "43-241",
                "addr:city": "\u0141\u0105ka",
                "addr:street": "Grzegorza Fitelberga",
                "addr:housenumber": "1",
                "addr:city:simc": 942297,
                "addr:street:sym_ul": 5048,
                "phone": "+48 322105026",
                "email": "zsp_laka@pze-pszczyna.pl",
                "website": "http:\/\/www.zsp-laka.edu.pl",
                "ref:regon": "000723891",
                "operator": "Gmina Pszczyna",
                "operator:type": "government",
                "amenity": "school",
                "note": "Parent RSPO: 14481"
            }
        },
        {
            "id": 271650,
            "type": "Feature",
            "geometry": {
                "type": "Point",
                "coordinates": [
                    18.7756536,
                    49.9594273
                ]
            },
            "properties": {
                "ref:rspo": 271650,
                "official_name": "Zesp\u00f3\u0142 Szkolno-Przedszkolny w Studzionce",
                "name": "Zesp\u00f3\u0142 Szkolno-Przedszkolny w Studzionce",
                "addr:postcode": "43-245",
                "addr:city": "Studzionka",
                "addr:street": "Henryka Jordana",
                "addr:housenumber": "3",
                "addr:city:simc": 220687,
                "addr:street:sym_ul": 7606,
                "phone": "+48 322123394",
                "email": "sp12sekretariat@pze-pszczyna.pl",
                "ref:regon": "383489524",
                "operator": "Gmina Pszczyna",
                "operator:type": "government",
                "landuse": "education",
                "fixme": "amenity=school, amenity=college albo landuse=education w zale\u017cno\u015bci od tego, jakie plac\u00f3wki wchodz\u0105 w sk\u0142ad zespo\u0142u. Sprawd\u017a, kiedy stosowa\u0107 amenity=* a kiedy landuse=education.",
                "note": "Children RSPO: 29333;30005"
            }
        },
        {
            "id": 29333,
            "type": "Feature",
            "geometry": {
                "type": "Point",
                "coordinates": [
                    18.7756536,
                    49.9593973
                ]
            },
            "properties": {
                "isced:level": "1;2",
                "ref:rspo": 29333,
                "official_name": "Szko\u0142a Podstawowa w Studzionce w Zespole Szkolno-Przedszkolnym w Studzionce",
                "name": "Szko\u0142a Podstawowa w Studzionce w Zespole Szkolno-Przedszkolnym w Studzionce",
                "addr:postcode": "43-245",
                "addr:city": "Studzionka",
                "addr:street": "Henryka Jordana",
                "addr:housenumber": "3",
                "addr:city:simc": 220687,
                "addr:street:sym_ul": 7606,
                "phone": "+48 322123394",
                "email": "sp12sekretariat@pze-pszczyna.pl",
                "website": "http:\/\/www.sp12studzionka.edupage.org",
                "ref:regon": "000723721",
                "ref:vatin": "PL6381808793",
                "operator": "Gmina Pszczyna",
                "operator:type": "government",
                "amenity": "school",
                "note": "Parent RSPO: 271650"
            }
        },
        {
            "id": 29335,
            "type": "Feature",
            "geometry": {
                "type": "Point",
                "coordinates": [
                    18.96159,
                    49.9599
                ]
            },
            "properties": {
                "ref:rspo": 29335,
                "official_name": "Przedszkole Niepubliczne Pociecha",
                "name": "Przedszkole Niepubliczne Pociecha",
                "addr:postcode": "43-200",
                "addr:city": "Pszczyna",
                "addr:street": "Bielska",
                "addr:housenumber": "54",
                "addr:city:simc": 942222,
                "addr:street:sym_ul": 1279,
                "phone": "+48 502243181",
                "email": "elaoles@poczta.onet.pl",
                "website": "http:\/\/www.przedszkolepociecha.pl",
                "ref:regon": "243067065",
                "operator": "El\u017cbieta Ole\u015b-Urdzo\u0144",
                "operator:type": "private",
                "amenity": "kindergarten"
            }
        },
        {
            "id": 128646,
            "type": "Feature",
            "geometry": {
                "type": "Point",
                "coordinates": [
                    18.96159,
                    49.959869999999995
                ]
            },
            "properties": {
                "isced:level": "1;2",
                "ref:rspo": 128646,
                "official_name": "Niepubliczna Szko\u0142a Podstawowa Nr 1",
                "name": "Niepubliczna Szko\u0142a Podstawowa Nr 1",
                "addr:postcode": "43-200",
                "addr:city": "Pszczyna",
                "addr:street": "Bielska",
                "addr:housenumber": "54",
                "addr:city:simc": 942222,
                "addr:street:sym_ul": 1279,
                "phone": "+48 502243181",
                "email": "biuro@nzpe.pl",
                "website": "http:\/\/www.nzpe.pl",
                "ref:regon": "362341545",
                "operator": "El\u017cbieta Ole\u015b-Urdzo\u0144",
                "operator:type": "private",
                "amenity": "school"
            }
        },
        {
            "id": 30005,
            "type": "Feature",
            "geometry": {
                "type": "Point",
                "coordinates": [
                    18.77499,
                    49.96036
                ]
            },
            "properties": {
                "ref:rspo": 30005,
                "official_name": "Przedszkole w Studzionce w Zespole Szkolno-Przedszkolnym w Studzionce",
                "name": "Przedszkole w Studzionce w Zespole Szkolno-Przedszkolnym w Studzionce",
                "addr:postcode": "43-245",
                "addr:city": "Studzionka",
                "addr:street": "Henryka Jordana",
                "addr:housenumber": "3a",
                "addr:city:simc": 220687,
                "addr:street:sym_ul": 7606,
                "phone": "+48 322123326",
                "email": "sp12sekretariat@pze-pszczyna.pl",
                "website": "http:\/\/www.pp14studzionka.edupage.org",
                "ref:regon": "272002407",
                "ref:vatin": "PL6381808988",
                "operator": "Gmina Pszczyna",
                "operator:type": "government",
                "amenity": "kindergarten",
                "note": "Parent RSPO: 271650"
            }
        },
        {
            "id": 105125,
            "type": "Feature",
            "geometry": {
                "type": "Point",
                "coordinates": [
                    18.93172,
                    49.96103
                ]
            },
            "properties": {
                "ref:rspo": 105125,
                "official_name": "Zak\u0142ad Poprawczy I Schronisko dla Nieletnich w Pszczynie - \u0141\u0105ce",
                "name": "Zak\u0142ad Poprawczy I Schronisko dla Nieletnich w Pszczynie - \u0141\u0105ce",
                "addr:postcode": "43-200",
                "addr:city": "Pszczyna",
                "addr:street": "Zdrojowa",
                "addr:housenumber": "64",
                "addr:city:simc": 942222,
                "addr:street:sym_ul": 25944,
                "phone": "+48 322103017",
                "email": "sekretariat@pszczyna.zpisdn.gov.pl",
                "website": "http:\/\/www.zppszczyna.pl",
                "ref:regon": "000322258",
                "operator": "Ministerstwo Sprawiedliwo\u015bci",
                "operator:type": "public",
                "note": "Children RSPO: 124784;124980"
            }
        },
        {
            "id": 124784,
            "type": "Feature",
            "geometry": {
                "type": "Point",
                "coordinates": [
                    18.93172,
                    49.961
                ]
            },
            "properties": {
                "isced:level": "3",
                "ref:rspo": 124784,
                "official_name": "Bran\u017cowa Szko\u0142a I Stopnia w Zak\u0142adzie Poprawczym I Schronisku dla Nieletnich Pszczynie \u0141\u0105ce",
                "name": "Bran\u017cowa Szko\u0142a I Stopnia w Zak\u0142adzie Poprawczym I Schronisku dla Nieletnich Pszczynie \u0141\u0105ce",
                "addr:postcode": "43-200",
                "addr:city": "\u0141\u0105ka",
                "addr:street": "Zdrojowa",
                "addr:housenumber": "64",
                "addr:city:simc": 942297,
                "addr:street:sym_ul": 25944,
                "phone": "+48 322103017",
                "email": "sekretariat@pszczyna.zpisdn.gov.pl",
                "website": "http:\/\/www.pszczyna.zpisdn.gov.pl",
                "ref:regon": "243663643",
                "operator": "Ministerstwo Sprawiedliwo\u015bci",
                "operator:type": "public",
                "amenity": "school",
                "note": "Parent RSPO: 105125"
            }
        },
        {
            "id": 124980,
            "type": "Feature",
            "geometry": {
                "type": "Point",
                "coordinates": [
                    18.93172,
                    49.96097
                ]
            },
            "properties": {
                "isced:level": "1;2",
                "ref:rspo": 124980,
                "official_name": "Szko\u0142a Podstawowa w Zak\u0142adzie Poprawczym I Schronisku dla Nieletnich w Pszczynie \u0141\u0105ce",
                "name": "Szko\u0142a Podstawowa w Zak\u0142adzie Poprawczym I Schronisku dla Nieletnich w Pszczynie \u0141\u0105ce",
                "addr:postcode": "43-200",
                "addr:city": "\u0141\u0105ka",
                "addr:street": "Zdrojowa",
                "addr:housenumber": "64",
                "addr:city:simc": 942297,
                "addr:street:sym_ul": 25944,
                "phone": "+48 322103017",
                "email": "sekretariat@pszczyna.zpisdn.gov.pl",
                "website": "http:\/\/www.pszczyna.zpisdn.gov.pl\/",
                "ref:regon": "243669404",
                "operator": "Ministerstwo Sprawiedliwo\u015bci",
                "operator:type": "public",
                "amenity": "school",
                "note": "Parent RSPO: 105125"
            }
        },
        {
            "id": 270572,
            "type": "Feature",
            "geometry": {
                "type": "Point",
                "coordinates": [
                    18.94286,
                    49.9635
                ]
            },
            "properties": {
                "ref:rspo": 270572,
                "official_name": "Przedszkole Nr 5 w Pszczynie",
                "name": "Przedszkole Nr 5 w Pszczynie",
                "addr:postcode": "43-200",
                "addr:city": "Pszczyna",
                "addr:street": "Marii Sk\u0142odowskiej-Curie",
                "addr:housenumber": "3A",
                "addr:city:simc": 942222,
                "addr:street:sym_ul": 20068,
                "phone": "+48 322103510",
                "email": "p5pszczyna@pze-pszczyna.pl",
                "ref:regon": "382776569",
                "operator": "Gmina Pszczyna",
                "operator:type": "government",
                "amenity": "kindergarten"
            }
        },
        {
            "id": 16320,
            "type": "Feature",
            "geometry": {
                "type": "Point",
                "coordinates": [
                    18.93492,
                    49.965
                ]
            },
            "properties": {
                "ref:rspo": 16320,
                "official_name": "Przedszkole Nr 6 Z Oddzia\u0142ami Specjalnymi im. Misia Puchatka w Pszczynie",
                "name": "Przedszkole Nr 6 Z Oddzia\u0142ami Specjalnymi",
                "addr:postcode": "43-200",
                "addr:city": "Pszczyna",
                "addr:street": "Ksi\u0119\u017cycowa",
                "addr:housenumber": "27",
                "addr:city:simc": 942222,
                "addr:street:sym_ul": 10268,
                "phone": "+48 322104050",
                "email": "p6pszczyna@pze-pszczyna.pl",
                "website": "http:\/\/www.p6-pszczyna.pl",
                "ref:regon": "272002471",
                "ref:vatin": "PL6381808942",
                "operator": "Gmina Pszczyna",
                "operator:type": "government",
                "amenity": "kindergarten"
            }
        },
        {
            "id": 30265,
            "type": "Feature",
            "geometry": {
                "type": "Point",
                "coordinates": [
                    18.93603,
                    49.96505
                ]
            },
            "properties": {
                "isced:level": "1;2",
                "ref:rspo": 30265,
                "official_name": "Szko\u0142a Podstawowa Nr 6 im. Ks. Jana Twardowskiego w Pszczynie",
                "name": "Szko\u0142a Podstawowa Nr 6",
                "addr:postcode": "43-200",
                "addr:city": "Pszczyna",
                "addr:street": "Ksi\u0119\u017cycowa",
                "addr:housenumber": "25",
                "addr:city:simc": 942222,
                "addr:street:sym_ul": 10268,
                "phone": "+48 322104221",
                "email": "sp6@pze-pszczyna.pl",
                "website": "http:\/\/sp6-pszczyna.pl\/",
                "ref:regon": "000946131",
                "ref:vatin": "PL6381808847",
                "operator": "Gmina Pszczyna",
                "operator:type": "government",
                "amenity": "school"
            }
        },
        {
            "id": 14485,
            "type": "Feature",
            "geometry": {
                "type": "Point",
                "coordinates": [
                    18.9457099,
                    49.96588
                ]
            },
            "properties": {
                "ref:rspo": 14485,
                "official_name": "Zesp\u00f3\u0142 Szk\u00f3\u0142 Nr 1 w Pszczynie",
                "name": "Zesp\u00f3\u0142 Szk\u00f3\u0142 Nr 1 w Pszczynie",
                "addr:postcode": "43-200",
                "addr:city": "Pszczyna",
                "addr:street": "Kazimierza Wielkiego",
                "addr:housenumber": "5",
                "addr:city:simc": 942222,
                "addr:street:sym_ul": 8265,
                "phone": "+48 322103620",
                "email": "zs1pszczyna@zs1pszczyna.pl",
                "website": "http:\/\/www.zs1pszczyna.pl",
                "ref:regon": "241038540",
                "ref:vatin": "PL6381808907",
                "operator": "Gmina Pszczyna",
                "operator:type": "government",
                "landuse": "education",
                "fixme": "amenity=school, amenity=college albo landuse=education w zale\u017cno\u015bci od tego, jakie plac\u00f3wki wchodz\u0105 w sk\u0142ad zespo\u0142u. Sprawd\u017a, kiedy stosowa\u0107 amenity=* a kiedy landuse=education.",
                "note": "Children RSPO: 18402;263226"
            }
        },
        {
            "id": 128225,
            "type": "Feature",
            "geometry": {
                "type": "Point",
                "coordinates": [
                    18.9457099,
                    49.965849999999996
                ]
            },
            "properties": {
                "isced:level": "4",
                "ref:rspo": 128225,
                "official_name": "Policealna Szko\u0142a Idea w Pszczynie",
                "name": "Policealna Szko\u0142a Idea w Pszczynie",
                "addr:postcode": "43-200",
                "addr:city": "Pszczyna",
                "addr:street": "Kazimierza Wielkiego",
                "addr:housenumber": "5",
                "addr:city:simc": 942222,
                "addr:street:sym_ul": 8265,
                "phone": "+48 324414318",
                "email": "ideaszkola@gmail.com",
                "website": "http:\/\/www.ideaszkola.edu.pl",
                "ref:regon": "362185950",
                "operator": "Jk-Edu Sp\u00f3\u0142ka Z Ograniczon\u0105 Odpowiedzialno\u015bci\u0105",
                "operator:type": "private",
                "amenity": "college"
            }
        },
        {
            "id": 129108,
            "type": "Feature",
            "geometry": {
                "type": "Point",
                "coordinates": [
                    18.9457099,
                    49.96582
                ]
            },
            "properties": {
                "isced:level": "3",
                "ref:rspo": 129108,
                "official_name": "Liceum Og\u00f3lnokszta\u0142c\u0105ce dla Doros\u0142ych Idea w Pszczynie",
                "name": "Liceum Og\u00f3lnokszta\u0142c\u0105ce dla Doros\u0142ych Idea w Pszczynie",
                "addr:postcode": "43-200",
                "addr:city": "Pszczyna",
                "addr:street": "Kazimierza Wielkiego",
                "addr:housenumber": "5",
                "addr:city:simc": 942222,
                "addr:street:sym_ul": 8265,
                "phone": "+48 324414318",
                "email": "ideaszkola@gmail.com",
                "website": "http:\/\/www.ideaszkola.edu.pl",
                "ref:regon": "362471667",
                "operator": "Jk-Edu Sp\u00f3\u0142ka Z Ograniczon\u0105 Odpowiedzialno\u015bci\u0105",
                "operator:type": "private",
                "amenity": "school"
            }
        },
        {
            "id": 18402,
            "type": "Feature",
            "geometry": {
                "type": "Point",
                "coordinates": [
                    18.9457099,
                    49.96579
                ]
            },
            "properties": {
                "isced:level": "3",
                "ref:rspo": 18402,
                "official_name": "Iii Liceum Og\u00f3lnokszta\u0142c\u0105ce w Pszczynie w Zespole Szk\u00f3\u0142 Nr 1",
                "name": "Iii Liceum Og\u00f3lnokszta\u0142c\u0105ce w Pszczynie w Zespole Szk\u00f3\u0142 Nr 1",
                "addr:postcode": "43-200",
                "addr:city": "Pszczyna",
                "addr:street": "Kazimierza Wielkiego",
                "addr:housenumber": "5",
                "addr:city:simc": 942222,
                "addr:street:sym_ul": 8265,
                "phone": "+48 322103620",
                "email": "zs1pszczyna@zs1pszczyna.pl",
                "website": "http:\/\/www.zs1pszczyna.pl",
                "ref:regon": "273893667",
                "operator": "Gmina Pszczyna",
                "operator:type": "government",
                "amenity": "school",
                "note": "Parent RSPO: 14485"
            }
        },
        {
            "id": 263226,
            "type": "Feature",
            "geometry": {
                "type": "Point",
                "coordinates": [
                    18.9457099,
                    49.965759999999996
                ]
            },
            "properties": {
                "isced:level": "1;2",
                "ref:rspo": 263226,
                "official_name": "Szko\u0142a Podstawowa Nr 5 w Pszczynie w Zespole Szk\u00f3\u0142 Nr 1 w Pszczynie",
                "name": "Szko\u0142a Podstawowa Nr 5 w Pszczynie w Zespole Szk\u00f3\u0142 Nr 1 w Pszczynie",
                "addr:postcode": "43-200",
                "addr:city": "Pszczyna",
                "addr:street": "Kazimierza Wielkiego",
                "addr:housenumber": "5",
                "addr:city:simc": 942222,
                "addr:street:sym_ul": 8265,
                "phone": "+48 322103620",
                "email": "zs1pszczyna@zs1pszczyna.pl",
                "ref:regon": "368128628",
                "operator": "Gmina Pszczyna",
                "operator:type": "government",
                "amenity": "school",
                "note": "Parent RSPO: 14485"
            }
        },
        {
            "id": 275262,
            "type": "Feature",
            "geometry": {
                "type": "Point",
                "coordinates": [
                    18.9564,
                    49.967
                ]
            },
            "properties": {
                "ref:rspo": 275262,
                "official_name": "Niepubliczne Przedszkole Specjalne \"Elfik\"",
                "name": "Niepubliczne Przedszkole Specjalne \"Elfik\"",
                "addr:postcode": "43-200",
                "addr:city": "Pszczyna",
                "addr:street": "Bielska",
                "addr:housenumber": "29",
                "addr:city:simc": 942222,
                "addr:street:sym_ul": 1279,
                "phone": "+48 572679005",
                "email": "sekretariat.integracja@gmail.com",
                "website": "http:\/\/www.p-elfik.pl",
                "ref:regon": "386742403",
                "operator": "Fundacja Wspierania Kultury, Sztuki I Edukacji \"Integracja\"",
                "operator:type": "ngo",
                "amenity": "kindergarten"
            }
        },
        {
            "id": 15929,
            "type": "Feature",
            "geometry": {
                "type": "Point",
                "coordinates": [
                    18.94722,
                    49.96832
                ]
            },
            "properties": {
                "ref:rspo": 15929,
                "official_name": "Niepubliczne Przedszkole Radocha - Radosny Rozw\u00f3j Dziecka",
                "name": "Niepubliczne Przedszkole Radocha - Radosny Rozw\u00f3j Dziecka",
                "addr:postcode": "43-200",
                "addr:city": "Pszczyna",
                "addr:street": "Dobrawy",
                "addr:housenumber": "42",
                "addr:city:simc": 942222,
                "addr:street:sym_ul": 3935,
                "phone": "+48 514031060",
                "email": "dyrektor@radocha.com.pl",
                "website": "http:\/\/www.radocha.com.pl",
                "ref:regon": "243042332",
                "operator": "Radocha Sp\u00f3\u0142ka Z Ograniczon\u0105 Odpowiedzialno\u015bci\u0105",
                "operator:type": "private",
                "amenity": "kindergarten"
            }
        },
        {
            "id": 54133,
            "type": "Feature",
            "geometry": {
                "type": "Point",
                "coordinates": [
                    18.9848582,
                    49.970169
                ]
            },
            "properties": {
                "ref:rspo": 54133,
                "official_name": "Przedszkole w \u0106wiklicach",
                "name": "Przedszkole w \u0106wiklicach",
                "addr:postcode": "43-229",
                "addr:city": "\u0106wiklice",
                "addr:street": "Aleksandra Zawadzkiego",
                "addr:housenumber": "5",
                "addr:city:simc": 942268,
                "addr:street:sym_ul": 25821,
                "phone": "+48 322112128",
                "email": "zspcwiklice.sekretariat@pze-pszczyna.pl",
                "ref:regon": "272002360",
                "ref:vatin": "PL6381808965",
                "operator": "Gmina Pszczyna",
                "operator:type": "government",
                "amenity": "kindergarten",
                "note": "Parent RSPO: 277610"
            }
        },
        {
            "id": 17366,
            "type": "Feature",
            "geometry": {
                "type": "Point",
                "coordinates": [
                    18.96106,
                    49.9712
                ]
            },
            "properties": {
                "isced:level": "1;2",
                "ref:rspo": 17366,
                "official_name": "Szko\u0142a Podstawowa Nr 4 im. J\u00f3zefa Pukowca w Pszczynie",
                "name": "Szko\u0142a Podstawowa Nr 4",
                "addr:postcode": "43-200",
                "addr:city": "Pszczyna",
                "addr:street": "Marii Konopnickiej",
                "addr:housenumber": "44",
                "addr:city:simc": 942222,
                "addr:street:sym_ul": 9186,
                "phone": "+48 322104384",
                "email": "sp4@pze-pszczyna.pl",
                "website": "http:\/\/www.sp4pszczyna.edupage.org",
                "ref:regon": "000723840",
                "ref:vatin": "PL6381808824",
                "operator": "Gmina Pszczyna",
                "operator:type": "government",
                "amenity": "school"
            }
        },
        {
            "id": 38559,
            "type": "Feature",
            "geometry": {
                "type": "Point",
                "coordinates": [
                    18.94978,
                    49.97185
                ]
            },
            "properties": {
                "ref:rspo": 38559,
                "official_name": "Pedagogiczna Biblioteka Wojew\u00f3dzka im. J. Lompy w Katowicach Filia w Pszczynie",
                "name": "Pedagogiczna Biblioteka Wojew\u00f3dzka",
                "addr:postcode": "43-200",
                "addr:city": "Pszczyna",
                "addr:street": "Ksi\u0119dza Biskupa Bernarda Bogedaina",
                "addr:housenumber": "24",
                "addr:city:simc": 942222,
                "addr:street:sym_ul": 31698,
                "phone": "+48 322103950",
                "email": "pszczyna@pbw.katowice.pl",
                "website": "http:\/\/www.pszczyna.pbw.katowice.pl",
                "ref:regon": "195400001",
                "ref:vatin": "PL6341759249",
                "operator": "Wojew\u00f3dztwo \u015al\u0105skie",
                "operator:type": "government",
                "amenity": "library",
                "note": "Parent RSPO: 25643"
            }
        },
        {
            "id": 263550,
            "type": "Feature",
            "geometry": {
                "type": "Point",
                "coordinates": [
                    18.94546,
                    49.97192
                ]
            },
            "properties": {
                "ref:rspo": 263550,
                "official_name": "Niepubliczne Przedszkole Litlle Giants - Mali Giganci",
                "name": "Niepubliczne Przedszkole Litlle Giants - Mali Giganci",
                "addr:postcode": "43-200",
                "addr:city": "Pszczyna",
                "addr:street": "Ksi\u0119dza Biskupa Herberta Bednorza",
                "addr:housenumber": "1",
                "addr:city:simc": 942222,
                "addr:street:sym_ul": 31697,
                "phone": "+48 518620631",
                "email": "przedszkole.pszczyna@maligiganci.eu",
                "website": "http:\/\/maligiganci.eu",
                "ref:regon": "368199485",
                "operator": "Dg & Jg Sp\u00f3\u0142ka Z Ograniczon\u0105 Odpowiedzialno\u015bci\u0105",
                "operator:type": "private",
                "amenity": "kindergarten"
            }
        },
        {
            "id": 277610,
            "type": "Feature",
            "geometry": {
                "type": "Point",
                "coordinates": [
                    18.98806,
                    49.97216
                ]
            },
            "properties": {
                "ref:rspo": 277610,
                "official_name": "Zesp\u00f3\u0142 Szkolno-Przedszkolny w \u0106wiklicach",
                "name": "Zesp\u00f3\u0142 Szkolno-Przedszkolny w \u0106wiklicach",
                "addr:postcode": "43-229",
                "addr:city": "\u0106wiklice",
                "addr:street": "M\u0119czennik\u00f3w O\u015bwi\u0119cimskich",
                "addr:housenumber": "71",
                "addr:city:simc": 942268,
                "addr:street:sym_ul": 12655,
                "phone": "+48 322112140",
                "ref:regon": "389188373",
                "operator": "Gmina Pszczyna",
                "operator:type": "government",
                "landuse": "education",
                "fixme": "amenity=school, amenity=college albo landuse=education w zale\u017cno\u015bci od tego, jakie plac\u00f3wki wchodz\u0105 w sk\u0142ad zespo\u0142u. Sprawd\u017a, kiedy stosowa\u0107 amenity=* a kiedy landuse=education.",
                "note": "Children RSPO: 19776;54133"
            }
        },
        {
            "id": 19776,
            "type": "Feature",
            "geometry": {
                "type": "Point",
                "coordinates": [
                    18.98806,
                    49.97213
                ]
            },
            "properties": {
                "isced:level": "1;2",
                "ref:rspo": 19776,
                "official_name": "Szko\u0142a Podstawowa im. \u017bo\u0142nierzy Wrze\u015bnia w \u0106wiklicach",
                "name": "Szko\u0142a Podstawowa",
                "addr:postcode": "43-229",
                "addr:city": "\u0106wiklice",
                "addr:street": "M\u0119czennik\u00f3w O\u015bwi\u0119cimskich",
                "addr:housenumber": "71",
                "addr:city:simc": 942268,
                "addr:street:sym_ul": 12655,
                "phone": "+48 322112140",
                "email": "zspcwiklice.sekretariat@pze-pszczyna.pl",
                "website": "http:\/\/www.sp7cwiklice.pless.pl",
                "ref:regon": "000723879",
                "ref:vatin": "PL6381808801",
                "operator": "Gmina Pszczyna",
                "operator:type": "government",
                "amenity": "school",
                "note": "Parent RSPO: 277610"
            }
        },
        {
            "id": 58212,
            "type": "Feature",
            "geometry": {
                "type": "Point",
                "coordinates": [
                    18.95026,
                    49.97283
                ]
            },
            "properties": {
                "ref:rspo": 58212,
                "official_name": "Poradnia Psychologiczno - Pedagogiczna w Pszczynie",
                "name": "Poradnia Psychologiczno - Pedagogiczna w Pszczynie",
                "addr:postcode": "43-200",
                "addr:city": "Pszczyna",
                "addr:street": "Ludwika Zamenhofa",
                "addr:housenumber": "5",
                "addr:city:simc": 942222,
                "addr:street:sym_ul": 31704,
                "phone": "+48 322103716",
                "email": "ppped@ppped.pl",
                "website": "http:\/\/www.ppped.pl\/",
                "ref:regon": "000723939",
                "ref:vatin": "PL6381025513",
                "operator": "Powiat Pszczy\u0144ski",
                "operator:type": "government",
                "healthcare": "counselling",
                "counselling_type": "education",
                "fixme": "w zale\u017cno\u015bci od przedmiotu dzia\u0142alno\u015bci (np. healthcare=counselling + counselling_type=education albo healthcare=psychotherapist)"
            }
        },
        {
            "id": 58217,
            "type": "Feature",
            "geometry": {
                "type": "Point",
                "coordinates": [
                    18.95026,
                    49.9728
                ]
            },
            "properties": {
                "ref:rspo": 58217,
                "official_name": "Zesp\u00f3\u0142 Szk\u00f3\u0142 Nr 3 Specjalnych w Pszczynie",
                "name": "Zesp\u00f3\u0142 Szk\u00f3\u0142 Nr 3 Specjalnych w Pszczynie",
                "addr:postcode": "43-200",
                "addr:city": "Pszczyna",
                "addr:street": "Ludwika Zamenhofa",
                "addr:housenumber": "5",
                "addr:city:simc": 942222,
                "addr:street:sym_ul": 31704,
                "phone": "+48 322100340",
                "email": "pzsspszczyna@poczta.onet.pl",
                "website": "http:\/\/www.zs3s.pna.pl\/",
                "ref:regon": "276646001",
                "ref:vatin": "PL6381535964",
                "operator": "Powiat Pszczy\u0144ski",
                "operator:type": "government",
                "landuse": "education",
                "fixme": "amenity=school, amenity=college albo landuse=education w zale\u017cno\u015bci od tego, jakie plac\u00f3wki wchodz\u0105 w sk\u0142ad zespo\u0142u. Sprawd\u017a, kiedy stosowa\u0107 amenity=* a kiedy landuse=education.",
                "note": "Children RSPO: 75537;104119;104120"
            }
        },
        {
            "id": 75537,
            "type": "Feature",
            "geometry": {
                "type": "Point",
                "coordinates": [
                    18.95026,
                    49.972770000000004
                ]
            },
            "properties": {
                "ref:rspo": 75537,
                "official_name": "Szko\u0142a Specjalna Przysposabiaj\u0105ca Do Pracy w Pszczynie",
                "name": "Szko\u0142a Specjalna Przysposabiaj\u0105ca Do Pracy w Pszczynie",
                "addr:postcode": "43-200",
                "addr:city": "Pszczyna",
                "addr:street": "Ludwika Zamenhofa",
                "addr:housenumber": "5",
                "addr:city:simc": 942222,
                "addr:street:sym_ul": 31704,
                "phone": "+48 322100340",
                "email": "pzsspszczyna@poczta.onet.pl",
                "ref:regon": "072918147",
                "operator": "Powiat Pszczy\u0144ski",
                "operator:type": "government",
                "amenity": "school",
                "note": "Parent RSPO: 58217"
            }
        },
        {
            "id": 104119,
            "type": "Feature",
            "geometry": {
                "type": "Point",
                "coordinates": [
                    18.95026,
                    49.97274
                ]
            },
            "properties": {
                "isced:level": "1;2",
                "ref:rspo": 104119,
                "official_name": "Szko\u0142a Podstawowa Nr 23 Specjalna w Pszczynie",
                "name": "Szko\u0142a Podstawowa Nr 23 Specjalna w Pszczynie",
                "addr:postcode": "43-200",
                "addr:city": "Pszczyna",
                "addr:street": "Ludwika Zamenhofa",
                "addr:housenumber": "5",
                "addr:city:simc": 942222,
                "addr:street:sym_ul": 31704,
                "phone": "+48 322100340",
                "email": "pzsspszczyna@poczta.onet.pl",
                "ref:regon": "276646277",
                "operator": "Powiat Pszczy\u0144ski",
                "operator:type": "government",
                "amenity": "school",
                "note": "Parent RSPO: 58217"
            }
        },
        {
            "id": 104120,
            "type": "Feature",
            "geometry": {
                "type": "Point",
                "coordinates": [
                    18.95026,
                    49.97271
                ]
            },
            "properties": {
                "isced:level": "3",
                "ref:rspo": 104120,
                "official_name": "Bran\u017cowa Szko\u0142a I Stopnia Nr 4 Specjalna w Pszczynie",
                "name": "Bran\u017cowa Szko\u0142a I Stopnia Nr 4 Specjalna w Pszczynie",
                "addr:postcode": "43-200",
                "addr:city": "Pszczyna",
                "addr:street": "Ludwika Zamenhofa",
                "addr:housenumber": "5",
                "addr:city:simc": 942222,
                "addr:street:sym_ul": 31704,
                "phone": "+48 322100340",
                "email": "pzsspszczyna@poczta.onet.pl",
                "ref:regon": "072809607",
                "operator": "Powiat Pszczy\u0144ski",
                "operator:type": "government",
                "amenity": "school",
                "note": "Parent RSPO: 58217"
            }
        },
        {
            "id": 66097,
            "type": "Feature",
            "geometry": {
                "type": "Point",
                "coordinates": [
                    18.93521,
                    49.9729699
                ]
            },
            "properties": {
                "ref:rspo": 66097,
                "official_name": "Everest Consulting&Szkolenia Marcin Kotas w Pszczynie",
                "name": "Everest Consulting&Szkolenia Marcin Kotas w Pszczynie",
                "addr:postcode": "43-200",
                "addr:city": "Pszczyna",
                "addr:street": "Sznelowiec",
                "addr:housenumber": "2",
                "addr:city:simc": 942222,
                "addr:street:sym_ul": 22011,
                "phone": "+48 500582587",
                "email": "agata.czerwienska@everest.com.pl",
                "ref:regon": "243092152",
                "operator": "Marcin Kotas",
                "operator:type": "private",
                "fixme": "w zale\u017cno\u015bci od przedmiotu dzia\u0142alno\u015bci (np. amenity=training + training=*, amenity=dancing_school, amenity=language_school, amenity=music_school)"
            }
        },
        {
            "id": 106106,
            "type": "Feature",
            "geometry": {
                "type": "Point",
                "coordinates": [
                    18.93521,
                    49.9729399
                ]
            },
            "properties": {
                "ref:rspo": 106106,
                "official_name": "\u015aL\u0105ska Akademia Nauki I Rozwoju Mirela Jele\u0144",
                "name": "\u015aL\u0105ska Akademia Nauki I Rozwoju Mirela Jele\u0144",
                "addr:postcode": "43-200",
                "addr:city": "Pszczyna",
                "addr:street": "Sznelowiec",
                "addr:housenumber": "2",
                "addr:city:simc": 942222,
                "addr:street:sym_ul": 22011,
                "phone": "+48 500582587",
                "email": "slaska.anir@gmail.com",
                "ref:regon": "243154806",
                "operator": "Mirela Jele\u0144",
                "operator:type": "private",
                "fixme": "w zale\u017cno\u015bci od przedmiotu dzia\u0142alno\u015bci (np. amenity=training + training=*, amenity=dancing_school, amenity=language_school, amenity=music_school)"
            }
        },
        {
            "id": 16316,
            "type": "Feature",
            "geometry": {
                "type": "Point",
                "coordinates": [
                    18.9497399,
                    49.97314
                ]
            },
            "properties": {
                "ref:rspo": 16316,
                "official_name": "Przedszkole Nr 2 im. Juliana Tuwima w Pszczynie",
                "name": "Przedszkole Nr 2",
                "addr:postcode": "43-200",
                "addr:city": "Pszczyna",
                "addr:street": "Ludwika Zamenhofa",
                "addr:housenumber": "12",
                "addr:city:simc": 942222,
                "addr:street:sym_ul": 31704,
                "phone": "+48 322103866",
                "email": "pp2@pze-pszczyna.pl",
                "website": "http:\/\/www.pp2pszczyna.szkolnastrona.pl",
                "ref:regon": "272002287",
                "ref:vatin": "PL6381808913",
                "operator": "Gmina Pszczyna",
                "operator:type": "government",
                "amenity": "kindergarten"
            }
        },
        {
            "id": 66093,
            "type": "Feature",
            "geometry": {
                "type": "Point",
                "coordinates": [
                    18.95133,
                    49.9754
                ]
            },
            "properties": {
                "ref:rspo": 66093,
                "official_name": "Agencja Rozwoju I Promocji Ziemi Pszczy\u0144skiej Plac\u00f3wka Kszta\u0142cenia Ustawicznego w Pszczynie",
                "name": "Agencja Rozwoju I Promocji Ziemi Pszczy\u0144skiej Plac\u00f3wka Kszta\u0142cenia Ustawicznego w Pszczynie",
                "addr:postcode": "43-200",
                "addr:city": "Pszczyna",
                "addr:street": "3 Maja",
                "addr:housenumber": "9",
                "addr:city:simc": 942222,
                "addr:street:sym_ul": 11937,
                "phone": "+48 322103565",
                "email": "sekretariat@pszczyna.info.pl",
                "ref:regon": "243088038",
                "operator": "Agencja Rozwoju I Promocji Ziemi Pszczy\u0144skiej Sp\u00f3\u0142ka Z Ograniczon\u0105 Odpowiedzialno\u015bci\u0105",
                "operator:type": "private",
                "fixme": "w zale\u017cno\u015bci od przedmiotu dzia\u0142alno\u015bci (np. amenity=training + training=*, amenity=dancing_school, amenity=language_school, amenity=music_school)"
            }
        },
        {
            "id": 30003,
            "type": "Feature",
            "geometry": {
                "type": "Point",
                "coordinates": [
                    18.94447,
                    49.97543
                ]
            },
            "properties": {
                "isced:level": "1;2",
                "ref:rspo": 30003,
                "official_name": "Szko\u0142a Podstawowa Nr 1 im. Ksi\u0105\u017c\u0105t Pszczy\u0144skich w Pszczynie",
                "name": "Szko\u0142a Podstawowa Nr 1",
                "addr:postcode": "43-200",
                "addr:city": "Pszczyna",
                "addr:street": "Ksi\u0119dza Biskupa Bernarda Bogedaina",
                "addr:housenumber": "1",
                "addr:city:simc": 942222,
                "addr:street:sym_ul": 31698,
                "phone": "+48 322103686",
                "email": "sp1@pze-pszczyna.pl",
                "website": "http:\/\/www.sp1pszczyna.pl",
                "ref:regon": "000723810",
                "operator": "Gmina Pszczyna",
                "operator:type": "government",
                "amenity": "school"
            }
        },
        {
            "id": 58218,
            "type": "Feature",
            "geometry": {
                "type": "Point",
                "coordinates": [
                    18.95124,
                    49.97586
                ]
            },
            "properties": {
                "ref:rspo": 58218,
                "official_name": "Zesp\u00f3\u0142 Szk\u00f3\u0142 Og\u00f3lnokszta\u0142c\u0105cych w Pszczynie",
                "name": "Zesp\u00f3\u0142 Szk\u00f3\u0142 Og\u00f3lnokszta\u0142c\u0105cych w Pszczynie",
                "addr:postcode": "43-200",
                "addr:city": "Pszczyna",
                "addr:street": "3 Maja",
                "addr:housenumber": "7",
                "addr:city:simc": 942222,
                "addr:street:sym_ul": 11937,
                "phone": "+48 322103727",
                "email": "liceum.pszczyna@post.pl",
                "website": "http:\/\/chrobry.pna.pl\/",
                "ref:regon": "000723773",
                "ref:vatin": "PL6381020496",
                "operator": "Powiat Pszczy\u0144ski",
                "operator:type": "government",
                "landuse": "education",
                "fixme": "amenity=school, amenity=college albo landuse=education w zale\u017cno\u015bci od tego, jakie plac\u00f3wki wchodz\u0105 w sk\u0142ad zespo\u0142u. Sprawd\u017a, kiedy stosowa\u0107 amenity=* a kiedy landuse=education.",
                "note": "Children RSPO: 75655;75657"
            }
        },
        {
            "id": 58535,
            "type": "Feature",
            "geometry": {
                "type": "Point",
                "coordinates": [
                    18.95124,
                    49.975829999999995
                ]
            },
            "properties": {
                "ref:rspo": 58535,
                "official_name": "Powiatowe Ognisko Pracy Pozaszkolnej w Pszczynie",
                "name": "Powiatowe Ognisko Pracy Pozaszkolnej w Pszczynie",
                "addr:postcode": "43-200",
                "addr:city": "Pszczyna",
                "addr:street": "3 Maja",
                "addr:housenumber": "7",
                "addr:city:simc": 942222,
                "addr:street:sym_ul": 11937,
                "phone": "+48 322102498",
                "email": "biuro@popppszczyna.pl",
                "website": "http:\/\/www.popppszczyna.pl",
                "ref:regon": "000723796",
                "ref:vatin": "PL6381019978",
                "operator": "Powiat Pszczy\u0144ski",
                "operator:type": "government",
                "amenity": "community_centre",
                "community_centre:for": "child;juvenile"
            }
        },
        {
            "id": 133458,
            "type": "Feature",
            "geometry": {
                "type": "Point",
                "coordinates": [
                    18.95124,
                    49.9758
                ]
            },
            "properties": {
                "ref:rspo": 133458,
                "official_name": "Plac\u00f3wka Kszta\u0142cenia Ustawicznego \"Behapo\" w Pszczynie",
                "name": "Plac\u00f3wka Kszta\u0142cenia Ustawicznego \"Behapo\" w Pszczynie",
                "addr:postcode": "43-200",
                "addr:city": "Pszczyna",
                "addr:street": "3 Maja",
                "addr:housenumber": "7",
                "addr:city:simc": 942222,
                "addr:street:sym_ul": 11937,
                "phone": "+48 663300483",
                "email": "alicjafilipczuk@wp.pl",
                "ref:regon": "367335489",
                "operator": "Alicja Filipczuk",
                "operator:type": "private",
                "fixme": "w zale\u017cno\u015bci od przedmiotu dzia\u0142alno\u015bci (np. amenity=training + training=*, amenity=dancing_school, amenity=language_school, amenity=music_school)"
            }
        },
        {
            "id": 75655,
            "type": "Feature",
            "geometry": {
                "type": "Point",
                "coordinates": [
                    18.95124,
                    49.97577
                ]
            },
            "properties": {
                "isced:level": "3",
                "ref:rspo": 75655,
                "official_name": "I Liceum Og\u00f3lnokszta\u0142c\u0105ce im. Boles\u0142awa Chrobrego w Pszczynie",
                "name": "I Liceum Og\u00f3lnokszta\u0142c\u0105ce",
                "addr:postcode": "43-200",
                "addr:city": "Pszczyna",
                "addr:street": "3 Maja",
                "addr:housenumber": "7",
                "addr:city:simc": 942222,
                "addr:street:sym_ul": 11937,
                "phone": "+48 322103727",
                "email": "liceum.pszczyna@post.pl",
                "ref:regon": "272126598",
                "operator": "Powiat Pszczy\u0144ski",
                "operator:type": "government",
                "amenity": "school",
                "note": "Parent RSPO: 58218"
            }
        },
        {
            "id": 75657,
            "type": "Feature",
            "geometry": {
                "type": "Point",
                "coordinates": [
                    18.95124,
                    49.975739999999995
                ]
            },
            "properties": {
                "isced:level": "3",
                "ref:rspo": 75657,
                "official_name": "Liceum Og\u00f3lnokszta\u0142c\u0105ce dla Doros\u0142ych w Pszczynie",
                "name": "Liceum Og\u00f3lnokszta\u0142c\u0105ce dla Doros\u0142ych w Pszczynie",
                "addr:postcode": "43-200",
                "addr:city": "Pszczyna",
                "addr:street": "3 Maja",
                "addr:housenumber": "7",
                "addr:city:simc": 942222,
                "addr:street:sym_ul": 11937,
                "phone": "+48 322103727",
                "email": "liceum.pszczyna@post.pl",
                "ref:regon": "240146083",
                "operator": "Powiat Pszczy\u0144ski",
                "operator:type": "government",
                "amenity": "school",
                "note": "Parent RSPO: 58218"
            }
        },
        {
            "id": 58213,
            "type": "Feature",
            "geometry": {
                "type": "Point",
                "coordinates": [
                    18.94569,
                    49.97592
                ]
            },
            "properties": {
                "ref:rspo": 58213,
                "official_name": "Powiatowy Zesp\u00f3\u0142 Szk\u00f3\u0142 Nr 1 im. Genera\u0142a J\u00f3zefa Bema w Pszczynie",
                "name": "Powiatowy Zesp\u00f3\u0142 Szk\u00f3\u0142 Nr 1",
                "addr:postcode": "43-200",
                "addr:city": "Pszczyna",
                "addr:street": "J\u00f3zefa Poniatowskiego",
                "addr:housenumber": "2",
                "addr:city:simc": 942222,
                "addr:street:sym_ul": 17107,
                "phone": "+48 322103624",
                "email": "pzs1.pszczyna@pszczyna.edu.pl",
                "website": "http:\/\/www.samochodowka.pszczyna.edu.pl",
                "ref:regon": "007022677",
                "ref:vatin": "PL6381485901",
                "operator": "Powiat Pszczy\u0144ski",
                "operator:type": "government",
                "landuse": "education",
                "fixme": "amenity=school, amenity=college albo landuse=education w zale\u017cno\u015bci od tego, jakie plac\u00f3wki wchodz\u0105 w sk\u0142ad zespo\u0142u. Sprawd\u017a, kiedy stosowa\u0107 amenity=* a kiedy landuse=education.",
                "note": "Children RSPO: 75658;75779;75784;274775"
            }
        },
        {
            "id": 75658,
            "type": "Feature",
            "geometry": {
                "type": "Point",
                "coordinates": [
                    18.94569,
                    49.97589
                ]
            },
            "properties": {
                "isced:level": "3",
                "ref:rspo": 75658,
                "official_name": "Technikum Nr 1 w Pszczynie",
                "name": "Technikum Nr 1 w Pszczynie",
                "addr:postcode": "43-200",
                "addr:city": "Pszczyna",
                "addr:street": "J\u00f3zefa Poniatowskiego",
                "addr:housenumber": "2",
                "addr:city:simc": 942222,
                "addr:street:sym_ul": 17107,
                "phone": "+48 322103624",
                "email": "pzs1.pszczyna@pszczyna.edu.pl",
                "ref:regon": "272126894",
                "operator": "Powiat Pszczy\u0144ski",
                "operator:type": "government",
                "amenity": "school",
                "note": "Parent RSPO: 58213"
            }
        },
        {
            "id": 75779,
            "type": "Feature",
            "geometry": {
                "type": "Point",
                "coordinates": [
                    18.94569,
                    49.975860000000004
                ]
            },
            "properties": {
                "isced:level": "3",
                "ref:rspo": 75779,
                "official_name": "Bran\u017cowa Szko\u0142a I Stopnia Nr 1 w Pszczynie",
                "name": "Bran\u017cowa Szko\u0142a I Stopnia Nr 1 w Pszczynie",
                "addr:postcode": "43-200",
                "addr:city": "Pszczyna",
                "addr:street": "J\u00f3zefa Poniatowskiego",
                "addr:housenumber": "2",
                "addr:city:simc": 942222,
                "addr:street:sym_ul": 17107,
                "phone": "+48 322103624",
                "email": "pzs1.pszczyna@pszczyna.edu.pl",
                "ref:regon": "272126865",
                "operator": "Powiat Pszczy\u0144ski",
                "operator:type": "government",
                "amenity": "school",
                "note": "Parent RSPO: 58213"
            }
        },
        {
            "id": 75784,
            "type": "Feature",
            "geometry": {
                "type": "Point",
                "coordinates": [
                    18.94569,
                    49.97583
                ]
            },
            "properties": {
                "ref:rspo": 75784,
                "official_name": "Centrum Kszta\u0142cenia Ustawicznego w Pszczynie",
                "name": "Centrum Kszta\u0142cenia Ustawicznego w Pszczynie",
                "addr:postcode": "43-200",
                "addr:city": "Pszczyna",
                "addr:street": "J\u00f3zefa Poniatowskiego",
                "addr:housenumber": "2",
                "addr:city:simc": 942222,
                "addr:street:sym_ul": 17107,
                "phone": "+48 322103624",
                "email": "pzs1.pszczyna@pszczyna.edu.pl",
                "ref:regon": "243095950",
                "operator": "Powiat Pszczy\u0144ski",
                "operator:type": "government",
                "fixme": "w zale\u017cno\u015bci od przedmiotu dzia\u0142alno\u015bci (np. amenity=training + training=*, amenity=dancing_school, amenity=language_school, amenity=music_school)",
                "note": "Parent RSPO: 58213"
            }
        },
        {
            "id": 274775,
            "type": "Feature",
            "geometry": {
                "type": "Point",
                "coordinates": [
                    18.94569,
                    49.9758
                ]
            },
            "properties": {
                "isced:level": "3",
                "ref:rspo": 274775,
                "official_name": "Bran\u017cowa Szko\u0142a II Stopnia w Pszczynie",
                "name": "Bran\u017cowa Szko\u0142a II Stopnia w Pszczynie",
                "addr:postcode": "43-200",
                "addr:city": "Pszczyna",
                "addr:street": "J\u00f3zefa Poniatowskiego",
                "addr:housenumber": "2",
                "addr:city:simc": 942222,
                "addr:street:sym_ul": 17107,
                "phone": "+48 322103624",
                "email": "pzs1.pszczyna@pszczyna.edu.pl",
                "website": "http:\/\/www.samochodowka.pszczyna.edu.pl\/",
                "ref:regon": "386290770",
                "operator": "Powiat Pszczy\u0144ski",
                "operator:type": "government",
                "amenity": "school",
                "note": "Parent RSPO: 58213"
            }
        },
        {
            "id": 104117,
            "type": "Feature",
            "geometry": {
                "type": "Point",
                "coordinates": [
                    18.9442999,
                    49.97595
                ]
            },
            "properties": {
                "ref:rspo": 104117,
                "official_name": "Niepubliczna Plac\u00f3wka Artystyczna Centrum Edukacji Dariusz Kempny w Pszczynie",
                "name": "Niepubliczna Plac\u00f3wka Artystyczna Centrum Edukacji Dariusz Kempny w Pszczynie",
                "addr:postcode": "43-200",
                "addr:city": "Pszczyna",
                "addr:street": "Miko\u0142aja Kopernika",
                "addr:housenumber": "26",
                "addr:city:simc": 942222,
                "addr:street:sym_ul": 31700,
                "phone": "+48 324231651",
                "email": "sekretariat@centrum.edukacji.pl",
                "ref:regon": "243126572",
                "operator": "Dariusz Kempny",
                "operator:type": "private",
                "fixme": "w zale\u017cno\u015bci od przedmiotu dzia\u0142alno\u015bci (np. amenity=community_centre + community_centre:for=child;juvenile, amenity=training + training=*, amenity=dancing_school, amenity=music_school),"
            }
        },
        {
            "id": 104116,
            "type": "Feature",
            "geometry": {
                "type": "Point",
                "coordinates": [
                    18.94609,
                    49.97678
                ]
            },
            "properties": {
                "ref:rspo": 104116,
                "official_name": "Zak\u0142ad Doskonalenia Zawodowego w Katowicach O\u015brodek Kszta\u0142cenia Zawodowego w Pszczynie",
                "name": "Zak\u0142ad Doskonalenia Zawodowego w Katowicach O\u015brodek Kszta\u0142cenia Zawodowego w Pszczynie",
                "addr:postcode": "43-200",
                "addr:city": "Pszczyna",
                "addr:street": "Miko\u0142aja Kopernika",
                "addr:housenumber": "14",
                "addr:city:simc": 942222,
                "addr:street:sym_ul": 31700,
                "phone": "+48 322105388",
                "email": "pszczyna@zdz.katowice.pl",
                "ref:regon": "243126520",
                "ref:vatin": "PL6340135558",
                "operator": "Zak\u0142ad Doskonalenia Zawodowego W Katowicach",
                "operator:type": "ngo",
                "fixme": "w zale\u017cno\u015bci od przedmiotu dzia\u0142alno\u015bci (np. amenity=training + training=*, amenity=dancing_school, amenity=language_school, amenity=music_school)"
            }
        },
        {
            "id": 278013,
            "type": "Feature",
            "geometry": {
                "type": "Point",
                "coordinates": [
                    18.93773,
                    49.97737
                ]
            },
            "properties": {
                "ref:rspo": 278013,
                "official_name": "Przedszkole Montessori Kampus",
                "name": "Przedszkole Montessori Kampus",
                "addr:postcode": "43-200",
                "addr:city": "Pszczyna",
                "addr:street": "Wojska Polskiego",
                "addr:housenumber": "21",
                "addr:city:simc": 942222,
                "addr:street:sym_ul": 24628,
                "email": "biuro@kampus.edu.pl",
                "website": "http:\/\/www.kampus.edu.pl",
                "ref:regon": "389747594",
                "operator": "Edukampus Sp\u00f3\u0142ka Z Ograniczon\u0105 Odpowiedzialno\u015bci\u0105",
                "operator:type": "consortium",
                "amenity": "kindergarten"
            }
        },
        {
            "id": 278014,
            "type": "Feature",
            "geometry": {
                "type": "Point",
                "coordinates": [
                    18.93773,
                    49.97734
                ]
            },
            "properties": {
                "isced:level": "1;2",
                "ref:rspo": 278014,
                "official_name": "Szko\u0142a Podstawowa Kampus",
                "name": "Szko\u0142a Podstawowa Kampus",
                "addr:postcode": "43-200",
                "addr:city": "Pszczyna",
                "addr:street": "Wojska Polskiego",
                "addr:housenumber": "21",
                "addr:city:simc": 942222,
                "addr:street:sym_ul": 24628,
                "email": "biuro@kampus.edu.pl",
                "website": "http:\/\/www.kampus.edu.pl",
                "ref:regon": "389748168",
                "operator": "Edukampus Sp\u00f3\u0142ka Z Ograniczon\u0105 Odpowiedzialno\u015bci\u0105",
                "operator:type": "consortium",
                "amenity": "school"
            }
        },
        {
            "id": 125199,
            "type": "Feature",
            "geometry": {
                "type": "Point",
                "coordinates": [
                    18.9436,
                    49.9794
                ]
            },
            "properties": {
                "ref:rspo": 125199,
                "official_name": "Niepubliczne Przedszkole Integracyjne S\u0142oneczko",
                "name": "Niepubliczne Przedszkole Integracyjne S\u0142oneczko",
                "addr:postcode": "43-200",
                "addr:city": "Pszczyna",
                "addr:street": "Tkacka",
                "addr:housenumber": "7",
                "addr:city:simc": 942222,
                "addr:street:sym_ul": 22794,
                "phone": "+48 696094910",
                "email": "sloneczkopszczyna@gmail.com",
                "website": "http:\/\/www.sloneczkopszczyna.pl",
                "ref:regon": "243674925",
                "operator": "Patrycja Piekarska",
                "operator:type": "private",
                "amenity": "kindergarten"
            }
        },
        {
            "id": 16317,
            "type": "Feature",
            "geometry": {
                "type": "Point",
                "coordinates": [
                    18.9527,
                    49.98172
                ]
            },
            "properties": {
                "ref:rspo": 16317,
                "official_name": "Przedszkole Nr 4 w Pszczynie",
                "name": "Przedszkole Nr 4 w Pszczynie",
                "addr:postcode": "43-200",
                "addr:city": "Pszczyna",
                "addr:street": "Narcyz\u00f3w",
                "addr:housenumber": "30",
                "addr:city:simc": 942222,
                "addr:street:sym_ul": 13999,
                "phone": "+48 322105164",
                "email": "p4pszczyna@pze-pszczyna.pl",
                "website": "http:\/\/www.pp4pszczyna.szkolnastrona.pl",
                "ref:regon": "272002301",
                "ref:vatin": "PL6381808936",
                "operator": "Gmina Pszczyna",
                "operator:type": "government",
                "amenity": "kindergarten"
            }
        },
        {
            "id": 58215,
            "type": "Feature",
            "geometry": {
                "type": "Point",
                "coordinates": [
                    18.9335,
                    49.9842
                ]
            },
            "properties": {
                "ref:rspo": 58215,
                "official_name": "Powiatowy Zesp\u00f3\u0142 Szk\u00f3\u0142 Nr 2 im. Karola Miarki w Pszczynie",
                "name": "Powiatowy Zesp\u00f3\u0142 Szk\u00f3\u0142 Nr 2",
                "addr:postcode": "43-200",
                "addr:city": "Pszczyna",
                "addr:street": "Karola Szymanowskiego",
                "addr:housenumber": "12",
                "addr:city:simc": 942222,
                "addr:street:sym_ul": 22238,
                "phone": "+48 322103463",
                "email": "sekretariat@pzs2pszczyna.pl",
                "website": "http:\/\/pzs2pszczyna.pl\/",
                "ref:regon": "000096980",
                "ref:vatin": "PL6381491600",
                "operator": "Powiat Pszczy\u0144ski",
                "operator:type": "government",
                "landuse": "education",
                "fixme": "amenity=school, amenity=college albo landuse=education w zale\u017cno\u015bci od tego, jakie plac\u00f3wki wchodz\u0105 w sk\u0142ad zespo\u0142u. Sprawd\u017a, kiedy stosowa\u0107 amenity=* a kiedy landuse=education.",
                "note": "Children RSPO: 104142;104143;104154"
            }
        },
        {
            "id": 104142,
            "type": "Feature",
            "geometry": {
                "type": "Point",
                "coordinates": [
                    18.9335,
                    49.98417
                ]
            },
            "properties": {
                "isced:level": "3",
                "ref:rspo": 104142,
                "official_name": "Iv Liceum Og\u00f3lnokszta\u0142c\u0105ce w Pszczynie",
                "name": "Iv Liceum Og\u00f3lnokszta\u0142c\u0105ce w Pszczynie",
                "addr:postcode": "43-200",
                "addr:city": "Pszczyna",
                "addr:street": "Karola Szymanowskiego",
                "addr:housenumber": "12",
                "addr:city:simc": 942222,
                "addr:street:sym_ul": 22238,
                "phone": "+48 322103463",
                "email": "sekretariat@pzs2pszczyna.pl",
                "website": "http:\/\/pzs2pszczyna.pl",
                "ref:regon": "072382379",
                "operator": "Powiat Pszczy\u0144ski",
                "operator:type": "government",
                "amenity": "school",
                "note": "Parent RSPO: 58215"
            }
        },
        {
            "id": 104143,
            "type": "Feature",
            "geometry": {
                "type": "Point",
                "coordinates": [
                    18.9335,
                    49.984140000000004
                ]
            },
            "properties": {
                "isced:level": "3",
                "ref:rspo": 104143,
                "official_name": "Technikum Nr 3 w Pszczynie",
                "name": "Technikum Nr 3 w Pszczynie",
                "addr:postcode": "43-200",
                "addr:city": "Pszczyna",
                "addr:street": "Karola Szymanowskiego",
                "addr:housenumber": "12",
                "addr:city:simc": 942222,
                "addr:street:sym_ul": 22238,
                "phone": "+48 322103463",
                "email": "sekretariat@pzs2pszczyna.pl",
                "website": "http:\/\/pzs2pszczyna.pl\/",
                "ref:regon": "272172575",
                "operator": "Powiat Pszczy\u0144ski",
                "operator:type": "government",
                "amenity": "school",
                "note": "Parent RSPO: 58215"
            }
        },
        {
            "id": 104154,
            "type": "Feature",
            "geometry": {
                "type": "Point",
                "coordinates": [
                    18.9335,
                    49.98411
                ]
            },
            "properties": {
                "isced:level": "3",
                "ref:rspo": 104154,
                "official_name": "Bran\u017cowa Szko\u0142a I Stopnia Nr 2 w Pszczynie",
                "name": "Bran\u017cowa Szko\u0142a I Stopnia Nr 2 w Pszczynie",
                "addr:postcode": "43-200",
                "addr:city": "Pszczyna",
                "addr:street": "Karola Szymanowskiego",
                "addr:housenumber": "12",
                "addr:city:simc": 942222,
                "addr:street:sym_ul": 22238,
                "phone": "+48 322103463",
                "email": "sekretariat@pzs2pszczyna.pl",
                "website": "http:\/\/pzs2pszczyna.pl",
                "ref:regon": "272172440",
                "operator": "Powiat Pszczy\u0144ski",
                "operator:type": "government",
                "amenity": "school",
                "note": "Parent RSPO: 58215"
            }
        },
        {
            "id": 18537,
            "type": "Feature",
            "geometry": {
                "type": "Point",
                "coordinates": [
                    18.83249,
                    49.985
                ]
            },
            "properties": {
                "isced:level": "1;2",
                "ref:rspo": 18537,
                "official_name": "Szko\u0142a Podstawowa w Brze\u017acach",
                "name": "Szko\u0142a Podstawowa w Brze\u017acach",
                "addr:postcode": "43-200",
                "addr:city": "Brze\u017ace",
                "addr:street": "Pokoju",
                "addr:housenumber": "2",
                "addr:city:simc": 942239,
                "addr:street:sym_ul": 16942,
                "phone": "+48 322120345",
                "email": "spbrzezce@pze-pszczyna.pl",
                "website": "http:\/\/www.sp19brzezce.edupage.org",
                "ref:regon": "271503490",
                "ref:vatin": "PL6381808830",
                "operator": "Gmina Pszczyna",
                "operator:type": "government",
                "amenity": "school"
            }
        },
        {
            "id": 271651,
            "type": "Feature",
            "geometry": {
                "type": "Point",
                "coordinates": [
                    18.92455,
                    49.9886
                ]
            },
            "properties": {
                "ref:rspo": 271651,
                "official_name": "Zesp\u00f3\u0142 Szkolno-Przedszkolny w Pszczynie",
                "name": "Zesp\u00f3\u0142 Szkolno-Przedszkolny w Pszczynie",
                "addr:postcode": "43-200",
                "addr:city": "Pszczyna",
                "addr:street": "Staromiejska",
                "addr:housenumber": "41",
                "addr:city:simc": 942222,
                "addr:street:sym_ul": 20952,
                "phone": "+48 322128278",
                "email": "sp3@pze-pszczyna.pl",
                "website": "http:\/\/sp3pszczyna.pl",
                "ref:regon": "383489783",
                "operator": "Gmina Pszczyna",
                "operator:type": "government",
                "landuse": "education",
                "fixme": "amenity=school, amenity=college albo landuse=education w zale\u017cno\u015bci od tego, jakie plac\u00f3wki wchodz\u0105 w sk\u0142ad zespo\u0142u. Sprawd\u017a, kiedy stosowa\u0107 amenity=* a kiedy landuse=education.",
                "note": "Children RSPO: 19777;29336"
            }
        },
        {
            "id": 19777,
            "type": "Feature",
            "geometry": {
                "type": "Point",
                "coordinates": [
                    18.92455,
                    49.988569999999996
                ]
            },
            "properties": {
                "isced:level": "1;2",
                "ref:rspo": 19777,
                "official_name": "Szko\u0142a Podstawowa Nr 3 im. Jana Paw\u0142a II w Pszczynie w Zespole Szkolno-Przedszkolnym w Pszczynie",
                "name": "Szko\u0142a Podstawowa Nr 3",
                "addr:postcode": "43-200",
                "addr:city": "Pszczyna",
                "addr:street": "Staromiejska",
                "addr:housenumber": "41",
                "addr:city:simc": 942222,
                "addr:street:sym_ul": 20952,
                "phone": "+48 322128278",
                "email": "sp3@pze-pszczyna.pl",
                "website": "http:\/\/www.sp3pszczyna.pl",
                "ref:regon": "000723833",
                "operator": "Gmina Pszczyna",
                "operator:type": "government",
                "amenity": "school",
                "note": "Parent RSPO: 271651"
            }
        },
        {
            "id": 29336,
            "type": "Feature",
            "geometry": {
                "type": "Point",
                "coordinates": [
                    18.92455,
                    49.98854
                ]
            },
            "properties": {
                "ref:rspo": 29336,
                "official_name": "Przedszkole Nr 3 w Pszczynie w Zespole Szkolno-Przedszkolnym w Pszczynie",
                "name": "Przedszkole Nr 3 w Pszczynie w Zespole Szkolno-Przedszkolnym w Pszczynie",
                "addr:postcode": "43-200",
                "addr:city": "Pszczyna",
                "addr:street": "Staromiejska",
                "addr:housenumber": "41",
                "addr:city:simc": 942222,
                "addr:street:sym_ul": 20952,
                "phone": "+48 322128278",
                "email": "sp3@pze-pszczyna.pl",
                "website": "http:\/\/www.zsppszczyna.pl",
                "ref:regon": "272002330",
                "ref:vatin": "PL6381808971",
                "operator": "Gmina Pszczyna",
                "operator:type": "government",
                "amenity": "kindergarten",
                "note": "Parent RSPO: 271651"
            }
        },
        {
            "id": 16318,
            "type": "Feature",
            "geometry": {
                "type": "Point",
                "coordinates": [
                    18.94286,
                    49.98871
                ]
            },
            "properties": {
                "ref:rspo": 16318,
                "official_name": "Przedszkole Nr 1 w Pszczynie",
                "name": "Przedszkole Nr 1 w Pszczynie",
                "addr:postcode": "43-200",
                "addr:city": "Pszczyna",
                "addr:street": "Jana Kupca",
                "addr:housenumber": "1",
                "addr:city:simc": 942222,
                "addr:street:sym_ul": 10416,
                "phone": "+48 322103592",
                "email": "p1pszczyna@pze-pszczyna.pl",
                "website": "http:\/\/www.pp8-pszczyna.pl",
                "ref:regon": "272002347",
                "ref:vatin": "PL6381808959",
                "operator": "Gmina Pszczyna",
                "operator:type": "government",
                "amenity": "kindergarten"
            }
        },
        {
            "id": 84458,
            "type": "Feature",
            "geometry": {
                "type": "Point",
                "coordinates": [
                    18.94797,
                    49.99243
                ]
            },
            "properties": {
                "isced:level": "1;2",
                "ref:rspo": 84458,
                "official_name": "Szko\u0142a Podstawowa Nr 2 im. Jadwigi \u015aL\u0105skiej w Pszczynie",
                "name": "Szko\u0142a Podstawowa Nr 2",
                "addr:postcode": "43-200",
                "addr:city": "Pszczyna",
                "addr:street": "Katowicka",
                "addr:housenumber": "47",
                "addr:city:simc": 942222,
                "addr:street:sym_ul": 8206,
                "phone": "+48 322103930",
                "email": "sp2@edukacja-pszczyna.pl",
                "website": "https:\/\/sp2pszczyna.edupage.org",
                "ref:regon": "000723827",
                "ref:vatin": "PL6381808876",
                "operator": "Gmina Pszczyna",
                "operator:type": "government",
                "amenity": "school"
            }
        },
        {
            "id": 278066,
            "type": "Feature",
            "geometry": {
                "type": "Point",
                "coordinates": [
                    18.94214,
                    49.99262
                ]
            },
            "properties": {
                "ref:rspo": 278066,
                "official_name": "Progres Niepubliczna Poradnia Psychologiczno-Pedagogiczna",
                "name": "Progres Niepubliczna Poradnia Psychologiczno-Pedagogiczna",
                "addr:postcode": "43-200",
                "addr:city": "Pszczyna",
                "addr:street": "\u0141owiecka",
                "addr:housenumber": "19A",
                "addr:city:simc": 942222,
                "addr:street:sym_ul": 11695,
                "phone": "+48 516528568",
                "email": "progres-pszczyna@wp.pl",
                "website": "http:\/\/www.progres-pszczyna.pl",
                "ref:regon": "389762553",
                "operator": "Progres Centrum Diagnozy, Edukacji I Terapii Popielarz, Miklewska Spo\u0142ka Jawna",
                "operator:type": "private",
                "healthcare": "counselling",
                "counselling_type": "education",
                "fixme": "w zale\u017cno\u015bci od przedmiotu dzia\u0142alno\u015bci (np. healthcare=counselling + counselling_type=education albo healthcare=psychotherapist)"
            }
        },
        {
            "id": 16319,
            "type": "Feature",
            "geometry": {
                "type": "Point",
                "coordinates": [
                    18.9903,
                    50.00184
                ]
            },
            "properties": {
                "ref:rspo": 16319,
                "official_name": "Przedszkole w Jankowicach w Zespole Szkolno-Przedszkolnym w Jankowicach",
                "name": "Przedszkole w Jankowicach w Zespole Szkolno-Przedszkolnym w Jankowicach",
                "addr:postcode": "43-215",
                "addr:city": "Jankowice",
                "addr:street": "Kasztanowa",
                "addr:housenumber": "7",
                "addr:city:simc": 220500,
                "addr:street:sym_ul": 8171,
                "phone": "+48 322115462",
                "email": "zsp_jankowice@pze-pszczyna.pl",
                "website": "http:\/\/www.zsp-jankowice.eu",
                "ref:regon": "272002459",
                "ref:vatin": "PL6381808994",
                "operator": "Gmina Pszczyna",
                "operator:type": "government",
                "amenity": "kindergarten",
                "note": "Parent RSPO: 123100"
            }
        },
        {
            "id": 123100,
            "type": "Feature",
            "geometry": {
                "type": "Point",
                "coordinates": [
                    18.98941,
                    50.0023399
                ]
            },
            "properties": {
                "ref:rspo": 123100,
                "official_name": "Zesp\u00f3\u0142 Szkolno-Przedszkolny w Jankowicach",
                "name": "Zesp\u00f3\u0142 Szkolno-Przedszkolny w Jankowicach",
                "addr:postcode": "43-215",
                "addr:city": "Jankowice",
                "addr:street": "Baziowa",
                "addr:housenumber": "17",
                "addr:city:simc": 220500,
                "addr:street:sym_ul": 912,
                "phone": "+48 322115462",
                "email": "zsp_jankowice@pze-pszczyna.pl",
                "website": "http:\/\/zsp-jankowice.eu",
                "ref:regon": "243566450",
                "ref:vatin": "PL6381810399",
                "operator": "Gmina Pszczyna",
                "operator:type": "government",
                "landuse": "education",
                "fixme": "amenity=school, amenity=college albo landuse=education w zale\u017cno\u015bci od tego, jakie plac\u00f3wki wchodz\u0105 w sk\u0142ad zespo\u0142u. Sprawd\u017a, kiedy stosowa\u0107 amenity=* a kiedy landuse=education.",
                "note": "Children RSPO: 16319;30264"
            }
        },
        {
            "id": 30264,
            "type": "Feature",
            "geometry": {
                "type": "Point",
                "coordinates": [
                    18.98941,
                    50.0023099
                ]
            },
            "properties": {
                "isced:level": "1;2",
                "ref:rspo": 30264,
                "official_name": "Szko\u0142a Podstawowa w Jankowicach w Zespole Szkolno-Przedszkolnym w Jankowicach",
                "name": "Szko\u0142a Podstawowa w Jankowicach w Zespole Szkolno-Przedszkolnym w Jankowicach",
                "addr:postcode": "43-215",
                "addr:city": "Jankowice",
                "addr:street": "Baziowa",
                "addr:housenumber": "17",
                "addr:city:simc": 220500,
                "addr:street:sym_ul": 912,
                "phone": "+48 322115462",
                "email": "zsp_jankowice@pze-pszczyna.pl",
                "website": "http:\/\/www.zsp-jankowice.eu",
                "ref:regon": "000723750",
                "ref:vatin": "PL6381809143",
                "operator": "Gmina Pszczyna",
                "operator:type": "government",
                "amenity": "school",
                "note": "Parent RSPO: 123100"
            }
        },
        {
            "id": 124198,
            "type": "Feature",
            "geometry": {
                "type": "Point",
                "coordinates": [
                    18.99032,
                    50.00325
                ]
            },
            "properties": {
                "ref:rspo": 124198,
                "official_name": "Niepubliczne Przedszkole \"Troskliwe Misie\" Judyta Marcinkiewicz",
                "name": "Niepubliczne Przedszkole \"Troskliwe Misie\" Judyta Marcinkiewicz",
                "addr:postcode": "43-215",
                "addr:city": "Jankowice",
                "addr:street": "\u017bubr\u00f3w",
                "addr:housenumber": "86",
                "addr:city:simc": 220500,
                "addr:street:sym_ul": 26550,
                "phone": "+48 608150772",
                "email": "judkam79@gmail.com",
                "website": "http:\/\/www.troskliwe-misie.eu",
                "ref:regon": "243647265",
                "operator": "Judyta Marcinkiewicz",
                "operator:type": "private",
                "amenity": "kindergarten"
            }
        },
        {
            "id": 14483,
            "type": "Feature",
            "geometry": {
                "type": "Point",
                "coordinates": [
                    18.94631,
                    50.00955
                ]
            },
            "properties": {
                "ref:rspo": 14483,
                "official_name": "Zesp\u00f3\u0142 Szkolno-Przedszkolny w Piasku",
                "name": "Zesp\u00f3\u0142 Szkolno-Przedszkolny w Piasku",
                "addr:postcode": "43-211",
                "addr:city": "Piasek",
                "addr:street": "Szkolna",
                "addr:housenumber": "4",
                "addr:city:simc": 220598,
                "addr:street:sym_ul": 21970,
                "phone": "+48 322114926",
                "email": "zsp_piasek@pze-pszczyna.pl",
                "website": "http:\/\/www.zsp10.pless.pl",
                "ref:regon": "240187366",
                "ref:vatin": "PL6381809031",
                "operator": "Gmina Pszczyna",
                "operator:type": "government",
                "landuse": "education",
                "fixme": "amenity=school, amenity=college albo landuse=education w zale\u017cno\u015bci od tego, jakie plac\u00f3wki wchodz\u0105 w sk\u0142ad zespo\u0142u. Sprawd\u017a, kiedy stosowa\u0107 amenity=* a kiedy landuse=education.",
                "note": "Children RSPO: 29328;29330"
            }
        },
        {
            "id": 29330,
            "type": "Feature",
            "geometry": {
                "type": "Point",
                "coordinates": [
                    18.94631,
                    50.009519999999995
                ]
            },
            "properties": {
                "isced:level": "1;2",
                "ref:rspo": 29330,
                "official_name": "Szko\u0142a Podstawowa w Piasku w Zespole Szkolno-Przedszkolnym w Piasku",
                "name": "Szko\u0142a Podstawowa w Piasku w Zespole Szkolno-Przedszkolnym w Piasku",
                "addr:postcode": "43-211",
                "addr:city": "Piasek",
                "addr:street": "Szkolna",
                "addr:housenumber": "4",
                "addr:city:simc": 220598,
                "addr:street:sym_ul": 21970,
                "phone": "+48 322114926",
                "email": "zsp_piasek@pze-pszczyna.pl",
                "website": "http:\/\/www.zsp10.pless.pl",
                "ref:regon": "000723900",
                "operator": "Gmina Pszczyna",
                "operator:type": "government",
                "amenity": "school",
                "note": "Parent RSPO: 14483"
            }
        },
        {
            "id": 29328,
            "type": "Feature",
            "geometry": {
                "type": "Point",
                "coordinates": [
                    18.9469,
                    50.00961
                ]
            },
            "properties": {
                "ref:rspo": 29328,
                "official_name": "Przedszkole w Piasku w Zespole Szkolno-Przedszkolnym w Piasku",
                "name": "Przedszkole w Piasku w Zespole Szkolno-Przedszkolnym w Piasku",
                "addr:postcode": "43-211",
                "addr:city": "Piasek",
                "addr:street": "Katowicka",
                "addr:housenumber": "57a",
                "addr:city:simc": 220598,
                "addr:street:sym_ul": 8206,
                "phone": "+48 322114916",
                "email": "zsp_piasek@pze-pszczyna.pl",
                "website": "http:\/\/www.zsp10.pless.pl",
                "ref:regon": "272002436",
                "operator": "Gmina Pszczyna",
                "operator:type": "government",
                "amenity": "kindergarten",
                "note": "Parent RSPO: 14483"
            }
        },
        {
            "id": 14484,
            "type": "Feature",
            "geometry": {
                "type": "Point",
                "coordinates": [
                    18.90944,
                    50.01115
                ]
            },
            "properties": {
                "ref:rspo": 14484,
                "official_name": "Zesp\u00f3\u0142 Szkolno-Przedszkolny w Czarkowie",
                "name": "Zesp\u00f3\u0142 Szkolno-Przedszkolny w Czarkowie",
                "addr:postcode": "43-211",
                "addr:city": "Czark\u00f3w",
                "addr:street": "Powsta\u0144c\u00f3w \u015al\u0105skich",
                "addr:housenumber": "25",
                "addr:city:simc": 220463,
                "addr:street:sym_ul": 17366,
                "phone": "+48 322114759",
                "email": "zsp_czarkow@pze-pszczyna.pl",
                "website": "http:\/\/www.zspczarkow.pl",
                "ref:regon": "240310720",
                "ref:vatin": "PL6381809002",
                "operator": "Gmina Pszczyna",
                "operator:type": "government",
                "landuse": "education",
                "fixme": "amenity=school, amenity=college albo landuse=education w zale\u017cno\u015bci od tego, jakie plac\u00f3wki wchodz\u0105 w sk\u0142ad zespo\u0142u. Sprawd\u017a, kiedy stosowa\u0107 amenity=* a kiedy landuse=education.",
                "note": "Children RSPO: 29326;29327"
            }
        },
        {
            "id": 29326,
            "type": "Feature",
            "geometry": {
                "type": "Point",
                "coordinates": [
                    18.90944,
                    50.01112
                ]
            },
            "properties": {
                "isced:level": "1;2",
                "ref:rspo": 29326,
                "official_name": "Szko\u0142a Podstawowa im. Kornela Makuszy\u0144skiego w Czarkowie w Zespole Szkolno-Przedszkolnym w Czarkowie",
                "name": "Szko\u0142a Podstawowa",
                "addr:postcode": "43-211",
                "addr:city": "Czark\u00f3w",
                "addr:street": "Powsta\u0144c\u00f3w \u015al\u0105skich",
                "addr:housenumber": "25",
                "addr:city:simc": 220463,
                "addr:street:sym_ul": 17366,
                "phone": "+48 322114759",
                "email": "zsp_czarkow@pze-pszczyna.pl",
                "website": "http:\/\/www.zspczarkow.pl",
                "ref:regon": "000723862",
                "operator": "Gmina Pszczyna",
                "operator:type": "government",
                "amenity": "school",
                "note": "Parent RSPO: 14484"
            }
        },
        {
            "id": 29327,
            "type": "Feature",
            "geometry": {
                "type": "Point",
                "coordinates": [
                    18.90944,
                    50.01109
                ]
            },
            "properties": {
                "ref:rspo": 29327,
                "official_name": "Przedszkole im.kornela Makuszy\u0144skiego w Czarkowie w Zespole Szkolno-Przedszkolnym w Czarkowie",
                "name": "Przedszkole im.kornela Makuszy\u0144skiego w Czarkowie w Zespole Szkolno-Przedszkolnym w Czarkowie",
                "addr:postcode": "43-211",
                "addr:city": "Czark\u00f3w",
                "addr:street": "Powsta\u0144c\u00f3w \u015al\u0105skich",
                "addr:housenumber": "25",
                "addr:city:simc": 220463,
                "addr:street:sym_ul": 17366,
                "phone": "+48 322114759",
                "email": "zsp_czarkow@pze-pszczyna.pl",
                "website": "http:\/\/www.zspczarkow.pl",
                "ref:regon": "272002420",
                "operator": "Gmina Pszczyna",
                "operator:type": "government",
                "amenity": "kindergarten",
                "note": "Parent RSPO: 14484"
            }
        },
        {
            "id": 61349,
            "type": "Feature",
            "geometry": {
                "type": "Point",
                "coordinates": [
                    18.94347,
                    50.0116
                ]
            },
            "properties": {
                "ref:rspo": 61349,
                "official_name": "Dzienny O\u015brodek Rehabilitacyjno-Edukacyjno-Wychowawczy",
                "name": "Dzienny O\u015brodek Rehabilitacyjno-Edukacyjno-Wychowawczy",
                "addr:postcode": "43-200",
                "addr:city": "Piasek",
                "addr:street": "Dworcowa",
                "addr:housenumber": "27",
                "addr:city:simc": 220598,
                "addr:street:sym_ul": 4434,
                "phone": "+48 322104847",
                "email": "biuro@psonipszczyna.pl",
                "website": "http:\/\/psonipszczyna.pl",
                "ref:regon": "243090800",
                "operator": "Polskie Stowarzyszenie Na Rzecz Os\u00f3b Z Niepe\u0142nosprawno\u015bci\u0105 Intelektualn\u0105 Ko\u0142o W Pszczynie Z Siedzib\u0105 W Piasku",
                "operator:type": "ngo",
                "amenity": "school"
            }
        },
        {
            "id": 14482,
            "type": "Feature",
            "geometry": {
                "type": "Point",
                "coordinates": [
                    18.982660293579,
                    50.017761230469
                ]
            },
            "properties": {
                "ref:rspo": 14482,
                "official_name": "Zesp\u00f3\u0142 Szkolno-Przedszkolny w Studzienicach",
                "name": "Zesp\u00f3\u0142 Szkolno-Przedszkolny w Studzienicach",
                "addr:postcode": "43-215",
                "addr:city": "Studzienice",
                "addr:street": "\u015awi\u0119tego Jana Paw\u0142a II",
                "addr:housenumber": "74",
                "addr:city:simc": 220635,
                "addr:street:sym_ul": 46615,
                "phone": "+48 322115201",
                "email": "zsp_studzienice@pze-pszczyna.pl",
                "website": "http:\/\/www.zspstudzienice.pl",
                "ref:regon": "072875432",
                "ref:vatin": "PL6381809048",
                "operator": "Gmina Pszczyna",
                "operator:type": "government",
                "landuse": "education",
                "fixme": "amenity=school, amenity=college albo landuse=education w zale\u017cno\u015bci od tego, jakie plac\u00f3wki wchodz\u0105 w sk\u0142ad zespo\u0142u. Sprawd\u017a, kiedy stosowa\u0107 amenity=* a kiedy landuse=education.",
                "note": "Children RSPO: 29322;30006"
            }
        },
        {
            "id": 29322,
            "type": "Feature",
            "geometry": {
                "type": "Point",
                "coordinates": [
                    18.982660293579,
                    50.017731230468996
                ]
            },
            "properties": {
                "isced:level": "1;2",
                "ref:rspo": 29322,
                "official_name": "Szko\u0142a Podstawowa w Studzienicach w Zespole Szkolno-Przedszkolnym w Studzienicach",
                "name": "Szko\u0142a Podstawowa w Studzienicach w Zespole Szkolno-Przedszkolnym w Studzienicach",
                "addr:postcode": "43-215",
                "addr:city": "Studzienice",
                "addr:street": "\u015awi\u0119tego Jana Paw\u0142a II",
                "addr:housenumber": "74",
                "addr:city:simc": 220635,
                "addr:street:sym_ul": 46615,
                "phone": "+48 322115201",
                "email": "zsp_studzienice@pze-pszczyna.pl",
                "website": "http:\/\/www.zspstudzienice.pl",
                "ref:regon": "000723767",
                "operator": "Gmina Pszczyna",
                "operator:type": "government",
                "amenity": "school",
                "note": "Parent RSPO: 14482"
            }
        },
        {
            "id": 30006,
            "type": "Feature",
            "geometry": {
                "type": "Point",
                "coordinates": [
                    18.982660293579,
                    50.017701230469
                ]
            },
            "properties": {
                "ref:rspo": 30006,
                "official_name": "Przedszkole w Studzienicach w Zespole Szkolno-Przedszkolnym w Studzienicach",
                "name": "Przedszkole w Studzienicach w Zespole Szkolno-Przedszkolnym w Studzienicach",
                "addr:postcode": "43-215",
                "addr:city": "Studzienice",
                "addr:street": "\u015awi\u0119tego Jana Paw\u0142a II",
                "addr:housenumber": "74",
                "addr:city:simc": 220635,
                "addr:street:sym_ul": 46615,
                "phone": "+48 322115201",
                "email": "zsp_studzienice@pze-pszczyna.pl",
                "website": "http:\/\/www.zspstudzienice.pl",
                "ref:regon": "272002442",
                "operator": "Gmina Pszczyna",
                "operator:type": "government",
                "amenity": "kindergarten",
                "note": "Parent RSPO: 14482"
            }
        }
    ]
}