{"type":"FeatureCollection","features":[{"id":19452,"type":"Feature","geometry":{"type":"Point","coordinates":[24.84494972229,35.230537414551]},"properties":{"ref:rspo":19452,"official_name":"Gminne Przedszkole Publiczneim Jana Brzechwy w G\u00f3rze","name":"Gminne Przedszkole Publiczneim Jana Brzechwy w G\u00f3rze","addr:country":"PL","addr:postcode":"43-227","addr:city":"G\u00f3ra","addr:street":"ul. Kr\u0119ta","addr:housenumber":"13","addr:teryt:simc":9925,"addr:teryt:sym_ul":216993,"contact:phone":"+48 322117120","contact:email":"sekretariat@przedszkole-gora.pl","contact:website":"http:\/\/www.przedszkole-gora.pl","ref:regon":"271512388","ref:vatin":"PL6381773907","operator":"Gmina Mied\u017ana","operator:type":"government","amenity":"kindergarten"}},{"id":58219,"type":"Feature","geometry":{"type":"Point","coordinates":[18.9691699,49.944]},"properties":{"ref:rspo":58219,"official_name":"Zesp\u00f3\u0142 Szk\u00f3\u0142 Zawodowych I Og\u00f3lnokszta\u0142c\u0105cych w Woli","name":"Zesp\u00f3\u0142 Szk\u00f3\u0142 Zawodowych I Og\u00f3lnokszta\u0142c\u0105cych w Woli","addr:country":"PL","addr:postcode":"43-225","addr:city":"Wola","addr:street":"ul. Poprzeczna","addr:housenumber":"1a","addr:teryt:simc":17171,"addr:teryt:sym_ul":217120,"contact:phone":"+48 322118033","contact:email":"zszwola@powiat.pszczyna.pl","contact:website":"http:\/\/www.zsziowola.pl","ref:regon":"273357644","ref:vatin":"PL6381479728","operator":"Powiat Pszczy\u0144ski","operator:type":"government","landuse":"education","fixme":"amenity=school, amenity=college albo landuse=education w zale\u017cno\u015bci od tego, jakie plac\u00f3wki wchodz\u0105 w sk\u0142ad zespo\u0142u. Sprawd\u017a, kiedy stosowa\u0107 amenity=* a kiedy landuse=education.","note":"Children RSPO: 104156;104160;104162;104163"}},{"id":104156,"type":"Feature","geometry":{"type":"Point","coordinates":[18.9691699,49.94397]},"properties":{"isced:level":"3","ref:rspo":104156,"official_name":"Technikum Nr 2 w Woli","name":"Technikum Nr 2 w Woli","addr:country":"PL","addr:postcode":"43-225","addr:city":"Wola","addr:street":"ul. Poprzeczna","addr:housenumber":"1a","addr:teryt:simc":17171,"addr:teryt:sym_ul":217120,"contact:phone":"+48 322118033","contact:email":"zszwola@powiat.pszczyna.pl","ref:regon":"273150452","operator":"Powiat Pszczy\u0144ski","operator:type":"government","amenity":"school","note":"Parent RSPO: 58219"}},{"id":104160,"type":"Feature","geometry":{"type":"Point","coordinates":[18.9691699,49.943940000000005]},"properties":{"isced:level":"3","ref:rspo":104160,"official_name":"Bran\u017cowa Szko\u0142a I Stopnia w Woli","name":"Bran\u017cowa Szko\u0142a I Stopnia w Woli","addr:country":"PL","addr:postcode":"43-225","addr:city":"Wola","addr:street":"ul. Poprzeczna","addr:housenumber":"1a","addr:teryt:simc":17171,"addr:teryt:sym_ul":217120,"contact:phone":"+48 322118033","contact:email":"zszwola@powiat.pszczyna.pl","ref:regon":"271580102","operator":"Powiat Pszczy\u0144ski","operator:type":"government","amenity":"school","note":"Parent RSPO: 58219"}},{"id":104162,"type":"Feature","geometry":{"type":"Point","coordinates":[18.9691699,49.94391]},"properties":{"isced:level":"4","ref:rspo":104162,"official_name":"Szko\u0142a Policealna w Woli","name":"Szko\u0142a Policealna w Woli","addr:country":"PL","addr:postcode":"43-225","addr:city":"Wola","addr:street":"ul. Poprzeczna","addr:housenumber":"1a","addr:teryt:simc":17171,"addr:teryt:sym_ul":217120,"contact:phone":"+48 322118033","contact:email":"zszwola@powiat.pszczyna.pl","ref:regon":"072863370","operator":"Powiat Pszczy\u0144ski","operator:type":"government","amenity":"college","note":"Parent RSPO: 58219"}},{"id":104163,"type":"Feature","geometry":{"type":"Point","coordinates":[18.9691699,49.94388]},"properties":{"isced:level":"3","ref:rspo":104163,"official_name":"Liceum Og\u00f3lnokszta\u0142c\u0105ce dla Doros\u0142ych w Woli","name":"Liceum Og\u00f3lnokszta\u0142c\u0105ce dla Doros\u0142ych w Woli","addr:country":"PL","addr:postcode":"43-225","addr:city":"Wola","addr:street":"ul. Poprzeczna","addr:housenumber":"1a","addr:teryt:simc":17171,"addr:teryt:sym_ul":217120,"contact:phone":"+48 322118033","contact:email":"zszwola@powiat.pszczyna.pl","ref:regon":"242931395","operator":"Powiat Pszczy\u0144ski","operator:type":"government","amenity":"school","note":"Parent RSPO: 58219"}},{"id":19045,"type":"Feature","geometry":{"type":"Point","coordinates":[19.10147,49.9727]},"properties":{"isced:level":"1;2","ref:rspo":19045,"official_name":"Szko\u0142a Podstawowa im. Janusza Korczaka w G\u00f3rze","name":"Szko\u0142a Podstawowa","addr:country":"PL","addr:postcode":"43-227","addr:city":"G\u00f3ra","addr:street":"ul. Pszczy\u0144ska","addr:housenumber":"34","addr:teryt:simc":18045,"addr:teryt:sym_ul":216993,"contact:phone":"+48 322117129","contact:email":"sp_gora@op.pl","contact:website":"http:\/\/www.spjk.pl","ref:regon":"001191781","ref:vatin":"PL6381774166","operator":"Gmina Mied\u017ana","operator:type":"government","amenity":"school"}},{"id":19418,"type":"Feature","geometry":{"type":"Point","coordinates":[19.05016,49.97622]},"properties":{"ref:rspo":19418,"official_name":"Gminne Publiczne Przedszkole im. Marii Kownackiej w Mied\u017anej","name":"Gminne Publiczne Przedszkole","addr:country":"PL","addr:postcode":"43-227","addr:city":"Mied\u017ana","addr:street":"ul. Wiejska","addr:housenumber":"101","addr:teryt:simc":24048,"addr:teryt:sym_ul":217082,"contact:phone":"+48 322116111","contact:email":"gppmiedzna@onet.eu","contact:website":"http:\/\/zspmiedzna.edupage.org","ref:regon":"271512365","ref:vatin":"PL6381773847","operator":"Gmina Mied\u017ana","operator:type":"government","amenity":"kindergarten","note":"Parent RSPO: 133299"}},{"id":2884,"type":"Feature","geometry":{"type":"Point","coordinates":[19.09479,49.99577]},"properties":{"isced:level":"3","ref:rspo":2884,"official_name":"Liceum Og\u00f3lnokszta\u0142ac\u0105ce im. Prof. Zbigniewa Religi","name":"Liceum Og\u00f3lnokszta\u0142ac\u0105ce","addr:country":"PL","addr:postcode":"43-227","addr:city":"Gilowice","addr:street":"ul. Wojciecha Korfantego","addr:housenumber":"38","addr:teryt:simc":9357,"addr:teryt:sym_ul":216987,"contact:phone":"+48 322117321","contact:email":"logilowice@poczta.onet.pl","contact:website":"https:\/\/logilowice.pl","ref:regon":"272633310","ref:vatin":"PL6381775757","operator":"Gmina Mied\u017ana","operator:type":"government","amenity":"school"}},{"id":19052,"type":"Feature","geometry":{"type":"Point","coordinates":[19.07459,49.99598]},"properties":{"isced:level":"1;2","ref:rspo":19052,"official_name":"Szko\u0142a Podstawowa im. Stanis\u0142awa Hadyny we Frydku","name":"Szko\u0142a Podstawowa","addr:country":"PL","addr:postcode":"43-227","addr:city":"Frydek","addr:street":"ul. Miodowa","addr:housenumber":"17","addr:teryt:simc":12991,"addr:teryt:sym_ul":216941,"contact:phone":"+48 322116229","contact:email":"spfrydek@wp.pl","contact:website":"https:\/\/spfrydek.edupage.org","ref:regon":"000558400","ref:vatin":"PL6381773913","operator":"Gmina Mied\u017ana","operator:type":"government","amenity":"school"}},{"id":19348,"type":"Feature","geometry":{"type":"Point","coordinates":[19.06816,49.99681]},"properties":{"ref:rspo":19348,"official_name":"Gminne Przedszkole Publiczne \"Bajka\" we Frydku","name":"Gminne Przedszkole Publiczne \"Bajka\" we Frydku","addr:country":"PL","addr:postcode":"43-227","addr:city":"Frydek","addr:street":"ul. Sportowa","addr:housenumber":"2","addr:teryt:simc":20683,"addr:teryt:sym_ul":216941,"contact:phone":"+48 322116214","contact:email":"gppfrydek@wp.pl","contact:website":"http:\/\/www.przedszkole-frydek.pl","ref:regon":"271512371","ref:vatin":"PL6381773876","operator":"Gmina Mied\u017ana","operator:type":"government","amenity":"kindergarten"}},{"id":19054,"type":"Feature","geometry":{"type":"Point","coordinates":[19.113,50.01403]},"properties":{"isced:level":"1;2","ref:rspo":19054,"official_name":"Szko\u0142a Podstawowa Nr 1 im. Bronis\u0142awa Malinowskiego w Woli","name":"Szko\u0142a Podstawowa Nr 1","addr:country":"PL","addr:postcode":"43-225","addr:city":"Wola","addr:street":"ul. G\u00f3rnicza","addr:housenumber":"47","addr:teryt:simc":5962,"addr:teryt:sym_ul":217120,"contact:phone":"+48 322118396","contact:email":"zsglwola@o2.pl","contact:website":"http:\/\/www.sp1wola.edupage.org","ref:regon":"271502711","ref:vatin":"PL6381842293","operator":"Gmina Mied\u017ana","operator:type":"government","amenity":"school"}},{"id":19252,"type":"Feature","geometry":{"type":"Point","coordinates":[19.113,50.013999999999996]},"properties":{"ref:rspo":19252,"official_name":"Gminne Przedszkole Publicznenr 2 im. Wandy Chotomskiej w Woli","name":"Gminne Przedszkole Publicznenr 2","addr:country":"PL","addr:postcode":"43-225","addr:city":"Wola","addr:street":"ul. G\u00f3rnicza","addr:housenumber":"47A","addr:teryt:simc":5962,"addr:teryt:sym_ul":217120,"contact:phone":"+48 322118206","contact:email":"p2wola@vp.pl","contact:website":"http:\/\/przedszkole2wola.edupage.org","ref:regon":"271512394","ref:vatin":"PL6381773899","operator":"Gmina Mied\u017ana","operator:type":"government","amenity":"kindergarten"}},{"id":19284,"type":"Feature","geometry":{"type":"Point","coordinates":[19.113,50.01397]},"properties":{"ref:rspo":19284,"official_name":"Gminne Przedszkole Publiczne Nr 3 im. Kubusia Puchatka w Woli","name":"Gminne Przedszkole Publiczne Nr 3","addr:country":"PL","addr:postcode":"43-225","addr:city":"Wola","addr:street":"ul. G\u00f3rnicza","addr:housenumber":"47B","addr:teryt:simc":5962,"addr:teryt:sym_ul":217120,"contact:phone":"+48 322119622","contact:email":"gpp3wolakubus@wp.pl","contact:website":"https:\/\/kubusioweprzedszkole.edu.pl","ref:regon":"271512402","ref:vatin":"PL6381773882","operator":"Gmina Mied\u017ana","operator:type":"government","amenity":"kindergarten"}},{"id":133297,"type":"Feature","geometry":{"type":"Point","coordinates":[19.10087,50.01483]},"properties":{"ref:rspo":133297,"official_name":"Zesp\u00f3\u0142 Szkolno-Przedszkolny w Woli","name":"Zesp\u00f3\u0142 Szkolno-Przedszkolny w Woli","addr:country":"PL","addr:postcode":"43-225","addr:city":"Wola","addr:street":"ul. Lipowa","addr:housenumber":"3","addr:teryt:simc":11139,"addr:teryt:sym_ul":217120,"contact:phone":"+48 322118369","contact:email":"sp2wola@wp.pl","contact:website":"http:\/\/www.zspwola.edupage.org","ref:regon":"366973680","ref:vatin":"PL6381825260","operator":"Gmina Mied\u017ana","operator:type":"government","landuse":"education","fixme":"amenity=school, amenity=college albo landuse=education w zale\u017cno\u015bci od tego, jakie plac\u00f3wki wchodz\u0105 w sk\u0142ad zespo\u0142u. Sprawd\u017a, kiedy stosowa\u0107 amenity=* a kiedy landuse=education.","note":"Children RSPO: 19046;19056"}},{"id":19056,"type":"Feature","geometry":{"type":"Point","coordinates":[19.10087,50.0148]},"properties":{"isced:level":"1;2","ref:rspo":19056,"official_name":"Szko\u0142a Podstawowa Nr 2 Z Oddzialami Integracyjnymi im. Jana Paw\u0142a w Woli","name":"Szko\u0142a Podstawowa Nr 2 Z Oddzialami Integracyjnymi","addr:country":"PL","addr:postcode":"43-225","addr:city":"Wola","addr:street":"ul. Lipowa","addr:housenumber":"3","addr:teryt:simc":11139,"addr:teryt:sym_ul":217120,"contact:phone":"+48 322118369","contact:email":"sp2wola@wp.pl","contact:website":"https:\/\/zspwola.edupage.org\/","ref:regon":"271555162","ref:vatin":"PL6381774195","operator":"Gmina Mied\u017ana","operator:type":"government","amenity":"school","note":"Parent RSPO: 133297"}},{"id":133299,"type":"Feature","geometry":{"type":"Point","coordinates":[19.1184327,50.0149363]},"properties":{"ref:rspo":133299,"official_name":"Zesp\u00f3\u0142 Szkolno-Przedszkolny w Mied\u017anej","name":"Zesp\u00f3\u0142 Szkolno-Przedszkolny w Mied\u017anej","addr:country":"PL","addr:postcode":"43-227","addr:city":"Mied\u017ana","addr:street":"ul. Szkolna","addr:housenumber":"24","addr:teryt:simc":21970,"addr:teryt:sym_ul":217082,"contact:phone":"+48 322113189","contact:email":"zswm@op.pl","contact:website":"https:\/\/zspmiedzna.edupage.org\/","ref:regon":"366977174","ref:vatin":"PL6381825277","operator":"Gmina Mied\u017ana","operator:type":"government","landuse":"education","fixme":"amenity=school, amenity=college albo landuse=education w zale\u017cno\u015bci od tego, jakie plac\u00f3wki wchodz\u0105 w sk\u0142ad zespo\u0142u. Sprawd\u017a, kiedy stosowa\u0107 amenity=* a kiedy landuse=education.","note":"Children RSPO: 19053;19418"}},{"id":19053,"type":"Feature","geometry":{"type":"Point","coordinates":[19.1184327,50.0149063]},"properties":{"isced:level":"1;2","ref:rspo":19053,"official_name":"Szko\u0142a Podstawowa im. Powsta\u0144c\u00f3w \u015aL\u0105skich w Mied\u017anej","name":"Szko\u0142a Podstawowa","addr:country":"PL","addr:postcode":"43-227","addr:city":"Mied\u017ana","addr:street":"ul. Szkolna","addr:housenumber":"24","addr:teryt:simc":21970,"addr:teryt:sym_ul":217082,"contact:phone":"+48 322113189","contact:email":"zswm@op.pl","contact:website":"http:\/\/zspmiedzna.edupage.org","ref:regon":"001191798","ref:vatin":"PL6381774172","operator":"Gmina Mied\u017ana","operator:type":"government","amenity":"school","note":"Parent RSPO: 133299"}},{"id":66089,"type":"Feature","geometry":{"type":"Point","coordinates":[19.10714,50.01656]},"properties":{"ref:rspo":66089,"official_name":"Centrum Przedsi\u0119biorczo\u015bci Cp Sp. Z O.o. Woli","name":"Centrum Przedsi\u0119biorczo\u015bci Cp Sp. Z O.o. Woli","addr:country":"PL","addr:postcode":"43-225","addr:city":"Wola","addr:street":"ul. Kopalniana","addr:housenumber":"6","addr:teryt:simc":9243,"addr:teryt:sym_ul":217120,"contact:phone":"+48 322148300","contact:email":"administracja@szpital.pszczyna.pl","contact:website":"http:\/\/www.cpsa.com.pl","ref:regon":"243089687","operator":"Centrum Przedsi\u0119biorczo\u015bci Cp Sp\u00f3\u0142ka Z Ograniczon\u0105 Odpowiedzialno\u015bci\u0105","operator:type":"private","fixme":"w zale\u017cno\u015bci od przedmiotu dzia\u0142alno\u015bci (np. amenity=training + training=*, amenity=dancing_school, amenity=language_school, amenity=music_school)"}},{"id":19046,"type":"Feature","geometry":{"type":"Point","coordinates":[19.0961,50.01779]},"properties":{"ref:rspo":19046,"official_name":"Gminne Przedszkole Publiczne Nr 1 Z Oddzia\u0142ami Integracyjnymi im.juliana Tuwima w Woli","name":"Gminne Przedszkole Publiczne Nr 1 Z Oddzia\u0142ami Integracyjnymi im.juliana Tuwima w Woli","addr:country":"PL","addr:postcode":"43-225","addr:city":"Wola","addr:street":"ul. Brzozowa","addr:housenumber":"5","addr:teryt:simc":2276,"addr:teryt:sym_ul":217120,"contact:phone":"+48 322118437","contact:email":"gpp1wola@naszeprzedszkole.org","contact:website":"http:\/\/www.zspwola.edupage.org","ref:regon":"270025108","ref:vatin":"PL6381773830","operator":"Gmina Mied\u017ana","operator:type":"government","amenity":"kindergarten","note":"Parent RSPO: 133297"}}]}