{
    "type": "FeatureCollection",
    "features": [
        {
            "id": 88296,
            "type": "Feature",
            "geometry": {
                "type": "Point",
                "coordinates": [
                    18.00815,
                    54.10827
                ]
            },
            "properties": {
                "ref:rspo": 88296,
                "official_name": "Punkt Przedszkolny \"Kubusiowy Lasek\"",
                "name": "Punkt Przedszkolny \"Kubusiowy Lasek\"",
                "addr:country": "PL",
                "addr:postcode": "83-400",
                "addr:city": "Ko\u015bcierzyna",
                "addr:street": "\u015awierkowa",
                "addr:housenumber": "29",
                "addr:teryt:simc": 934553,
                "addr:teryt:sym_ul": 22508,
                "contact:phone": "+48 698140557",
                "contact:email": "trokowie@wp.pl",
                "ref:regon": "221781124",
                "ref:vatin": "PL5911306657",
                "operator": "Lucyna Troka",
                "operator:type": "private",
                "amenity": "kindergarten"
            }
        },
        {
            "id": 22918,
            "type": "Feature",
            "geometry": {
                "type": "Point",
                "coordinates": [
                    17.95476,
                    54.11726
                ]
            },
            "properties": {
                "isced:level": "1;2",
                "ref:rspo": 22918,
                "official_name": "Integracyjna Prywatna Szko\u0142a Podstawowa Montessori im. Teresy Bauman",
                "name": "Integracyjna Prywatna Szko\u0142a Podstawowa Montessori",
                "addr:country": "PL",
                "addr:postcode": "83-400",
                "addr:city": "Ko\u015bcierzyna",
                "addr:street": "Kalinowa",
                "addr:housenumber": "37",
                "addr:teryt:simc": 934553,
                "addr:teryt:sym_ul": 7804,
                "contact:phone": "+48 586868484",
                "contact:email": "montessori-cybula@wp.pl",
                "ref:regon": "221752803",
                "ref:vatin": "PL5911201556",
                "operator": "Miros\u0142awa Cybula",
                "operator:type": "private",
                "amenity": "school"
            }
        },
        {
            "id": 22919,
            "type": "Feature",
            "geometry": {
                "type": "Point",
                "coordinates": [
                    17.95476,
                    54.11723
                ]
            },
            "properties": {
                "ref:rspo": 22919,
                "official_name": "Integracyjne Prywatne Przedszkole Montessori",
                "name": "Integracyjne Prywatne Przedszkole Montessori",
                "addr:country": "PL",
                "addr:postcode": "83-400",
                "addr:city": "Ko\u015bcierzyna",
                "addr:street": "Kalinowa",
                "addr:housenumber": "37",
                "addr:teryt:simc": 934553,
                "addr:teryt:sym_ul": 7804,
                "contact:phone": "+48 586868484",
                "contact:email": "momtessori-cybula@wp.pl",
                "contact:website": "http:\/\/www.montessori.kna.pl",
                "ref:regon": "221752513",
                "ref:vatin": "PL5911201556",
                "operator": "Miros\u0142awa Cybula",
                "operator:type": "private",
                "amenity": "kindergarten"
            }
        },
        {
            "id": 74056,
            "type": "Feature",
            "geometry": {
                "type": "Point",
                "coordinates": [
                    17.95476,
                    54.117200000000004
                ]
            },
            "properties": {
                "ref:rspo": 74056,
                "official_name": "Niepubliczna Poradnia Psychologiczno - Pedagogiczna \"Sara\"",
                "name": "Niepubliczna Poradnia Psychologiczno - Pedagogiczna \"Sara\"",
                "addr:country": "PL",
                "addr:postcode": "83-400",
                "addr:city": "Ko\u015bcierzyna",
                "addr:street": "Kalinowa",
                "addr:housenumber": "37",
                "addr:teryt:simc": 934553,
                "addr:teryt:sym_ul": 7804,
                "contact:phone": "+48 600856941",
                "contact:email": "montessori-cybula@wp.pl",
                "contact:website": "http:\/\/www.montessorii.kna.pl",
                "ref:regon": "221778731",
                "ref:vatin": "PL5911201556",
                "operator": "Miros\u0142awa Cybula",
                "operator:type": "private",
                "healthcare": "counselling",
                "counselling_type": "education",
                "fixme": "w zale\u017cno\u015bci od przedmiotu dzia\u0142alno\u015bci (np. healthcare=counselling + counselling_type=education albo healthcare=psychotherapist)"
            }
        },
        {
            "id": 270775,
            "type": "Feature",
            "geometry": {
                "type": "Point",
                "coordinates": [
                    17.95476,
                    54.11717
                ]
            },
            "properties": {
                "isced:level": "3",
                "ref:rspo": 270775,
                "official_name": "Integracyjna Prywatna Bran\u017cowa Szko\u0142a I Stopnia",
                "name": "Integracyjna Prywatna Bran\u017cowa Szko\u0142a I Stopnia",
                "addr:country": "PL",
                "addr:postcode": "83-400",
                "addr:city": "Ko\u015bcierzyna",
                "addr:street": "Kalinowa",
                "addr:housenumber": "37",
                "addr:teryt:simc": 934553,
                "addr:teryt:sym_ul": 7804,
                "contact:phone": "+48 586868484",
                "contact:email": "montessori-cybula@wp.pl",
                "contact:website": "http:\/\/www.montessori.kna.pl",
                "ref:regon": "382915249",
                "operator": "Miros\u0142awa Cybula",
                "operator:type": "private",
                "amenity": "school"
            }
        },
        {
            "id": 12644,
            "type": "Feature",
            "geometry": {
                "type": "Point",
                "coordinates": [
                    17.99129,
                    54.11856
                ]
            },
            "properties": {
                "ref:rspo": 12644,
                "official_name": "Zesp\u00f3\u0142 Szkolno - Przedszkolny Nr 3 w Ko\u015bcierzynie",
                "name": "Zesp\u00f3\u0142 Szkolno - Przedszkolny Nr 3 w Ko\u015bcierzynie",
                "addr:country": "PL",
                "addr:postcode": "83-400",
                "addr:city": "Ko\u015bcierzyna",
                "addr:street": "Mestwina II",
                "addr:housenumber": "2",
                "addr:teryt:simc": 934553,
                "addr:teryt:sym_ul": 12624,
                "contact:phone": "+48 586863867",
                "contact:email": "sekretariat.zsp3@koscierzyna.gda.pl",
                "contact:website": "http:\/\/zsp3koscierzyna.edupage.org",
                "ref:regon": "190967973",
                "ref:vatin": "PL5911494541",
                "operator": "Gmina Miejska Ko\u015bcierzyna",
                "operator:type": "government",
                "landuse": "education",
                "fixme": "amenity=school, amenity=college albo landuse=education w zale\u017cno\u015bci od tego, jakie plac\u00f3wki wchodz\u0105 w sk\u0142ad zespo\u0142u. Sprawd\u017a, kiedy stosowa\u0107 amenity=* a kiedy landuse=education.",
                "note": "Children RSPO: 22494;132041"
            }
        },
        {
            "id": 22494,
            "type": "Feature",
            "geometry": {
                "type": "Point",
                "coordinates": [
                    17.99129,
                    54.11853
                ]
            },
            "properties": {
                "isced:level": "1;2",
                "ref:rspo": 22494,
                "official_name": "Szko\u0142a Podstawowa Nr 3 im.fr.s\u0119dzickiego w Ko\u015bcierzynie",
                "name": "Szko\u0142a Podstawowa Nr 3 im.fr.s\u0119dzickiego w Ko\u015bcierzynie",
                "addr:country": "PL",
                "addr:postcode": "83-400",
                "addr:city": "Ko\u015bcierzyna",
                "addr:street": "Mestwina II",
                "addr:housenumber": "2",
                "addr:teryt:simc": 934553,
                "addr:teryt:sym_ul": 12624,
                "contact:phone": "+48 586863867",
                "contact:email": "j.breza@koscierzyna.gda.pl",
                "contact:website": "http:\/\/zsp3koscierzyna.edupage.org",
                "ref:regon": "192969195",
                "ref:vatin": "PL5911494541",
                "operator": "Gmina Miejska Ko\u015bcierzyna",
                "operator:type": "government",
                "amenity": "school",
                "note": "Parent RSPO: 12644"
            }
        },
        {
            "id": 132041,
            "type": "Feature",
            "geometry": {
                "type": "Point",
                "coordinates": [
                    17.99129,
                    54.118500000000004
                ]
            },
            "properties": {
                "ref:rspo": 132041,
                "official_name": "Przedszkole Nr 3 w Ko\u015bcierzynie",
                "name": "Przedszkole Nr 3 w Ko\u015bcierzynie",
                "addr:country": "PL",
                "addr:postcode": "83-400",
                "addr:city": "Ko\u015bcierzyna",
                "addr:street": "Mestwina II",
                "addr:housenumber": "2",
                "addr:teryt:simc": 934553,
                "addr:teryt:sym_ul": 12624,
                "contact:phone": "+48 586863867",
                "contact:email": "sekretariat.zsp3@koscierzyna.gda.pl",
                "ref:regon": "365433041",
                "operator": "Gmina Miejska Ko\u015bcierzyna",
                "operator:type": "government",
                "amenity": "kindergarten",
                "note": "Parent RSPO: 12644"
            }
        },
        {
            "id": 272292,
            "type": "Feature",
            "geometry": {
                "type": "Point",
                "coordinates": [
                    17.96331,
                    54.1191
                ]
            },
            "properties": {
                "ref:rspo": 272292,
                "official_name": "Niepubliczne Przedszkole Integracyjne Mi\u015b",
                "name": "Niepubliczne Przedszkole Integracyjne Mi\u015b",
                "addr:country": "PL",
                "addr:postcode": "83-400",
                "addr:city": "Ko\u015bcierzyna",
                "addr:street": "Szydlice",
                "addr:housenumber": "3",
                "addr:teryt:simc": 934553,
                "addr:teryt:sym_ul": 28491,
                "contact:phone": "+48 883375996",
                "contact:email": "mis.koscierzyna@gmail.com",
                "ref:regon": "384089896",
                "operator": "Jolanta Bober",
                "operator:type": "private",
                "amenity": "kindergarten"
            }
        },
        {
            "id": 123843,
            "type": "Feature",
            "geometry": {
                "type": "Point",
                "coordinates": [
                    17.9517099,
                    54.11944
                ]
            },
            "properties": {
                "ref:rspo": 123843,
                "official_name": "Niepubliczne Przedszkole J\u0119zykowe \"Kids Planet\"",
                "name": "Niepubliczne Przedszkole J\u0119zykowe \"Kids Planet\"",
                "addr:country": "PL",
                "addr:postcode": "83-400",
                "addr:city": "Ko\u015bcierzyna",
                "addr:street": "Alojzego Piechowskiego",
                "addr:housenumber": "53",
                "addr:teryt:simc": 934553,
                "addr:teryt:sym_ul": 16085,
                "contact:phone": "+48 608349977",
                "contact:email": "przedszkole@kidsplanet.info",
                "contact:website": "http:\/\/www.kidsplanet.info\/",
                "ref:regon": "222136236",
                "ref:vatin": "PL5911475851",
                "operator": "Aleksandra Tocha",
                "operator:type": "private",
                "amenity": "kindergarten"
            }
        },
        {
            "id": 272952,
            "type": "Feature",
            "geometry": {
                "type": "Point",
                "coordinates": [
                    17.96372,
                    54.11976
                ]
            },
            "properties": {
                "ref:rspo": 272952,
                "official_name": "Przedszkole w Parku",
                "name": "Przedszkole w Parku",
                "addr:country": "PL",
                "addr:postcode": "83-400",
                "addr:city": "Ko\u015bcierzyna",
                "addr:street": "Klonowa",
                "addr:housenumber": "1",
                "addr:teryt:simc": 934553,
                "addr:teryt:sym_ul": 8574,
                "contact:phone": "+48 889635444",
                "contact:email": "biuro@przedszkolewparku.eu",
                "ref:regon": "384345359",
                "operator": "Aleksandra Tocha",
                "operator:type": "private",
                "amenity": "kindergarten"
            }
        },
        {
            "id": 131680,
            "type": "Feature",
            "geometry": {
                "type": "Point",
                "coordinates": [
                    17.9743299,
                    54.11985
                ]
            },
            "properties": {
                "ref:rspo": 131680,
                "official_name": "Zesp\u00f3\u0142 Szkolno-Przedszkolny Nr 1 w Ko\u015bcierzynie",
                "name": "Zesp\u00f3\u0142 Szkolno-Przedszkolny Nr 1 w Ko\u015bcierzynie",
                "addr:country": "PL",
                "addr:postcode": "83-400",
                "addr:city": "Ko\u015bcierzyna",
                "addr:street": "8 Marca",
                "addr:housenumber": "1",
                "addr:teryt:simc": 934553,
                "addr:teryt:sym_ul": 12270,
                "contact:phone": "+48 586863370",
                "contact:email": "sp1@koscierzyna.gda.pl",
                "ref:regon": "365338377",
                "operator": "Gmina Miejska Ko\u015bcierzyna",
                "operator:type": "government",
                "landuse": "education",
                "fixme": "amenity=school, amenity=college albo landuse=education w zale\u017cno\u015bci od tego, jakie plac\u00f3wki wchodz\u0105 w sk\u0142ad zespo\u0142u. Sprawd\u017a, kiedy stosowa\u0107 amenity=* a kiedy landuse=education.",
                "note": "Children RSPO: 8294;131764"
            }
        },
        {
            "id": 8294,
            "type": "Feature",
            "geometry": {
                "type": "Point",
                "coordinates": [
                    17.9743299,
                    54.11982
                ]
            },
            "properties": {
                "isced:level": "1;2",
                "ref:rspo": 8294,
                "official_name": "Szko\u0142a Podstawowa Nr 1 im. Tadeusza Ko\u015bciuszki w Ko\u015bcierzynie",
                "name": "Szko\u0142a Podstawowa Nr 1",
                "addr:country": "PL",
                "addr:postcode": "83-400",
                "addr:city": "Ko\u015bcierzyna",
                "addr:street": "8 Marca",
                "addr:housenumber": "1",
                "addr:teryt:simc": 934553,
                "addr:teryt:sym_ul": 12270,
                "contact:phone": "+48 586863370",
                "contact:email": "dyrektor.sp1@koscierzyna.gda.pl",
                "contact:website": "http:\/\/sp1kna.edupage.org",
                "ref:regon": "190967980",
                "ref:vatin": "PL5911023824",
                "operator": "Gmina Miejska Ko\u015bcierzyna",
                "operator:type": "government",
                "amenity": "school",
                "note": "Parent RSPO: 131680"
            }
        },
        {
            "id": 131764,
            "type": "Feature",
            "geometry": {
                "type": "Point",
                "coordinates": [
                    17.9743299,
                    54.11979
                ]
            },
            "properties": {
                "ref:rspo": 131764,
                "official_name": "Przedszkole Nr 1 w Ko\u015bcierzynie",
                "name": "Przedszkole Nr 1 w Ko\u015bcierzynie",
                "addr:country": "PL",
                "addr:postcode": "83-400",
                "addr:city": "Ko\u015bcierzyna",
                "addr:street": "8 Marca",
                "addr:housenumber": "1",
                "addr:teryt:simc": 934553,
                "addr:teryt:sym_ul": 12270,
                "contact:phone": "+48 586863370",
                "contact:email": "sp1@koscierzyna.gda.pl",
                "ref:regon": "365344142",
                "operator": "Gmina Miejska Ko\u015bcierzyna",
                "operator:type": "government",
                "amenity": "kindergarten",
                "note": "Parent RSPO: 131680"
            }
        },
        {
            "id": 88287,
            "type": "Feature",
            "geometry": {
                "type": "Point",
                "coordinates": [
                    17.98154,
                    54.1203
                ]
            },
            "properties": {
                "ref:rspo": 88287,
                "official_name": "Przedszkole Niepubliczne Zgromadzenia Si\u00f3str \u015awi\u0119tej El\u017cbiety",
                "name": "Przedszkole Niepubliczne Zgromadzenia Si\u00f3str \u015awi\u0119tej El\u017cbiety",
                "addr:country": "PL",
                "addr:postcode": "83-400",
                "addr:city": "Ko\u015bcierzyna",
                "addr:street": "Kapliczna",
                "addr:housenumber": "15",
                "addr:teryt:simc": 934553,
                "addr:teryt:sym_ul": 7984,
                "contact:phone": "+48 605445631",
                "contact:email": "pse_koscierzyna@wp.pl",
                "ref:regon": "221782780",
                "ref:vatin": "PL9561929399",
                "operator": "Zgromadzenie Si\u00f3str \u015awi\u0119tej El\u017cbiety",
                "operator:type": "religious",
                "amenity": "kindergarten"
            }
        },
        {
            "id": 22976,
            "type": "Feature",
            "geometry": {
                "type": "Point",
                "coordinates": [
                    17.97231,
                    54.12092
                ]
            },
            "properties": {
                "ref:rspo": 22976,
                "official_name": "Przedszkole J\u0119zykowe Happy Kids",
                "name": "Przedszkole J\u0119zykowe Happy Kids",
                "addr:country": "PL",
                "addr:postcode": "83-400",
                "addr:city": "Ko\u015bcierzyna",
                "addr:street": "Kupiecka",
                "addr:housenumber": "7",
                "addr:teryt:simc": 934553,
                "addr:teryt:sym_ul": 10417,
                "contact:phone": "+48 586863311",
                "contact:email": "oskar.koseda@sphappykids.pl",
                "ref:regon": "221752520",
                "ref:vatin": "PL5911463345",
                "operator": "Anna Koseda",
                "operator:type": "private",
                "amenity": "kindergarten"
            }
        },
        {
            "id": 68730,
            "type": "Feature",
            "geometry": {
                "type": "Point",
                "coordinates": [
                    17.97231,
                    54.120889999999996
                ]
            },
            "properties": {
                "ref:rspo": 68730,
                "official_name": "Akademia Sukcesu Best Choice Anna Koseda",
                "name": "Akademia Sukcesu Best Choice Anna Koseda",
                "addr:country": "PL",
                "addr:postcode": "83-400",
                "addr:city": "Ko\u015bcierzyna",
                "addr:street": "Kupiecka",
                "addr:housenumber": "7",
                "addr:teryt:simc": 934553,
                "addr:teryt:sym_ul": 10417,
                "contact:phone": "+48 586863311",
                "ref:regon": "221773515",
                "ref:vatin": "PL5911463345",
                "operator": "Anna Koseda",
                "operator:type": "private"
            }
        },
        {
            "id": 68732,
            "type": "Feature",
            "geometry": {
                "type": "Point",
                "coordinates": [
                    17.97231,
                    54.12086
                ]
            },
            "properties": {
                "ref:rspo": 68732,
                "official_name": "Akademia Sukcesu Best Choice",
                "name": "Akademia Sukcesu Best Choice",
                "addr:country": "PL",
                "addr:postcode": "83-400",
                "addr:city": "Ko\u015bcierzyna",
                "addr:street": "Kupiecka",
                "addr:housenumber": "7",
                "addr:teryt:simc": 934553,
                "addr:teryt:sym_ul": 10417,
                "contact:phone": "+48 586863311",
                "ref:regon": "221773521",
                "operator": "Anna Koseda",
                "operator:type": "private",
                "fixme": "w zale\u017cno\u015bci od przedmiotu dzia\u0142alno\u015bci (np. amenity=training + training=*, amenity=dancing_school, amenity=language_school, amenity=music_school)"
            }
        },
        {
            "id": 122332,
            "type": "Feature",
            "geometry": {
                "type": "Point",
                "coordinates": [
                    17.97231,
                    54.12083
                ]
            },
            "properties": {
                "isced:level": "1;2",
                "ref:rspo": 122332,
                "official_name": "Prywatna Szko\u0142a Podstawowa \"Happy Kids''",
                "name": "Prywatna Szko\u0142a Podstawowa \"Happy Kids''",
                "addr:country": "PL",
                "addr:postcode": "83-400",
                "addr:city": "Ko\u015bcierzyna",
                "addr:street": "Kupiecka",
                "addr:housenumber": "7",
                "addr:teryt:simc": 934553,
                "addr:teryt:sym_ul": 10417,
                "contact:phone": "+48 607663311",
                "contact:email": "oskar.koseda@sphappykids.pl",
                "contact:website": "http:\/\/www.sphappykids.pl",
                "ref:regon": "222046243",
                "ref:vatin": "PL5911463345",
                "operator": "Anna Koseda",
                "operator:type": "private",
                "amenity": "school"
            }
        },
        {
            "id": 23376,
            "type": "Feature",
            "geometry": {
                "type": "Point",
                "coordinates": [
                    17.96706,
                    54.1214
                ]
            },
            "properties": {
                "isced:level": "1;2",
                "ref:rspo": 23376,
                "official_name": "Szko\u0142a Podstawowa Nr 6 im. Ks. Bernarda Sychty w Ko\u015bcierzynie",
                "name": "Szko\u0142a Podstawowa Nr 6",
                "addr:country": "PL",
                "addr:postcode": "83-400",
                "addr:city": "Ko\u015bcierzyna",
                "addr:street": "Marii Sk\u0142odowskiej-Curie",
                "addr:housenumber": "19",
                "addr:teryt:simc": 934553,
                "addr:teryt:sym_ul": 20068,
                "contact:phone": "+48 586863434",
                "contact:email": "sekretariat.sp6@koscierzyna.gda.pl",
                "contact:website": "https:\/\/sp6kna.edupage.org\/",
                "ref:regon": "192968994",
                "ref:vatin": "PL5911702318",
                "operator": "Gmina Miejska Ko\u015bcierzyna",
                "operator:type": "government",
                "amenity": "school"
            }
        },
        {
            "id": 111372,
            "type": "Feature",
            "geometry": {
                "type": "Point",
                "coordinates": [
                    17.9764899,
                    54.12156
                ]
            },
            "properties": {
                "ref:rspo": 111372,
                "official_name": "Pedagogiczna Biblioteka Wojew\u00f3dzka w Gda\u0144sku Filia w Ko\u015bcierzynie",
                "name": "Pedagogiczna Biblioteka Wojew\u00f3dzka w Gda\u0144sku Filia w Ko\u015bcierzynie",
                "addr:country": "PL",
                "addr:postcode": "83-400",
                "addr:city": "Ko\u015bcierzyna",
                "addr:street": "D\u0142uga",
                "addr:housenumber": "31",
                "addr:teryt:simc": 934553,
                "addr:teryt:sym_ul": 3839,
                "contact:phone": "+48 797816645",
                "contact:email": "pbwkoscierzyna@pbw.it.pl",
                "ref:regon": "191688264",
                "operator": "Wojew\u00f3dztwo Pomorskie",
                "operator:type": "government",
                "amenity": "library",
                "note": "Parent RSPO: 9619"
            }
        },
        {
            "id": 69951,
            "type": "Feature",
            "geometry": {
                "type": "Point",
                "coordinates": [
                    17.98284,
                    54.12165
                ]
            },
            "properties": {
                "isced:level": "4",
                "ref:rspo": 69951,
                "official_name": "Policealna Szko\u0142a Zawodowa dla Doros\u0142ych",
                "name": "Policealna Szko\u0142a Zawodowa dla Doros\u0142ych",
                "addr:country": "PL",
                "addr:postcode": "83-400",
                "addr:city": "Ko\u015bcierzyna",
                "addr:street": "Dworcowa",
                "addr:housenumber": "6",
                "addr:teryt:simc": 934553,
                "addr:teryt:sym_ul": 4434,
                "contact:phone": "+48 586867988",
                "contact:email": "kcevademecum@wp.pl",
                "ref:regon": "221771901",
                "ref:vatin": "PL5911210259",
                "operator": "Marian Seyda",
                "operator:type": "private",
                "amenity": "college"
            }
        },
        {
            "id": 69954,
            "type": "Feature",
            "geometry": {
                "type": "Point",
                "coordinates": [
                    17.98284,
                    54.12162
                ]
            },
            "properties": {
                "isced:level": "3",
                "ref:rspo": 69954,
                "official_name": "Liceum Og\u00f3lnokszta\u0142c\u0105ce dla Doros\u0142ych",
                "name": "Liceum Og\u00f3lnokszta\u0142c\u0105ce dla Doros\u0142ych",
                "addr:country": "PL",
                "addr:postcode": "83-400",
                "addr:city": "Ko\u015bcierzyna",
                "addr:street": "Dworcowa",
                "addr:housenumber": "6",
                "addr:teryt:simc": 934553,
                "addr:teryt:sym_ul": 4434,
                "contact:phone": "+48 586867988",
                "contact:email": "kcevademecum@wp.pl",
                "ref:regon": "221771841",
                "ref:vatin": "PL5911210259",
                "operator": "Marian Seyda",
                "operator:type": "private",
                "amenity": "school"
            }
        },
        {
            "id": 78060,
            "type": "Feature",
            "geometry": {
                "type": "Point",
                "coordinates": [
                    17.98284,
                    54.121590000000005
                ]
            },
            "properties": {
                "isced:level": "4",
                "ref:rspo": 78060,
                "official_name": "Policealna Szko\u0142a Zawodowa \"Vademecum\" w Ko\u015bcierzynie",
                "name": "Policealna Szko\u0142a Zawodowa \"Vademecum\" w Ko\u015bcierzynie",
                "addr:country": "PL",
                "addr:postcode": "83-400",
                "addr:city": "Ko\u015bcierzyna",
                "addr:street": "Dworcowa",
                "addr:housenumber": "6",
                "addr:teryt:simc": 934553,
                "addr:teryt:sym_ul": 4434,
                "contact:phone": "+48 586867988",
                "ref:regon": "221779469",
                "ref:vatin": "PL5911210259",
                "operator": "Marian Seyda",
                "operator:type": "private",
                "amenity": "college"
            }
        },
        {
            "id": 276739,
            "type": "Feature",
            "geometry": {
                "type": "Point",
                "coordinates": [
                    17.98284,
                    54.12156
                ]
            },
            "properties": {
                "ref:rspo": 276739,
                "official_name": "Niepubliczna Poradnia Psychologiczno - Pedagogiczna \"Vademecum' w Ko\u015bcierzynie",
                "name": "Niepubliczna Poradnia Psychologiczno - Pedagogiczna \"Vademecum' w Ko\u015bcierzynie",
                "addr:country": "PL",
                "addr:postcode": "83-400",
                "addr:city": "Ko\u015bcierzyna",
                "addr:street": "Dworcowa",
                "addr:housenumber": "6",
                "addr:teryt:simc": 934553,
                "addr:teryt:sym_ul": 4434,
                "ref:regon": "387469731",
                "operator": "Stowarzyszenie Kaszubskie Centrum Edukacji \"Vademecum\"",
                "operator:type": "ngo",
                "healthcare": "counselling",
                "counselling_type": "education",
                "fixme": "w zale\u017cno\u015bci od przedmiotu dzia\u0142alno\u015bci (np. healthcare=counselling + counselling_type=education albo healthcare=psychotherapist)"
            }
        },
        {
            "id": 277770,
            "type": "Feature",
            "geometry": {
                "type": "Point",
                "coordinates": [
                    17.98284,
                    54.12153
                ]
            },
            "properties": {
                "isced:level": "3",
                "ref:rspo": 277770,
                "official_name": "Bran\u017cowa Szko\u0142a I Stopnia'vademecum' w Ko\u015bcierzynie",
                "name": "Bran\u017cowa Szko\u0142a I Stopnia'vademecum' w Ko\u015bcierzynie",
                "addr:country": "PL",
                "addr:postcode": "83-400",
                "addr:city": "Ko\u015bcierzyna",
                "addr:street": "Dworcowa",
                "addr:housenumber": "6",
                "addr:teryt:simc": 934553,
                "addr:teryt:sym_ul": 4434,
                "contact:phone": "+48 586867988",
                "contact:email": "kcevademecum@wp.pl",
                "ref:regon": "389502480",
                "operator": "Marian Seyda",
                "operator:type": "private",
                "amenity": "school"
            }
        },
        {
            "id": 68734,
            "type": "Feature",
            "geometry": {
                "type": "Point",
                "coordinates": [
                    18.0117,
                    54.12213
                ]
            },
            "properties": {
                "ref:rspo": 68734,
                "official_name": "O\u015brodek Szkolenia Saper\u00f3w Przy Firmie \"Jakusz\" System Zabezpiecze\u0144 Bankowych Bogdan Jakusz w Ko\u015bcierzynie",
                "name": "O\u015brodek Szkolenia Saper\u00f3w Przy Firmie \"Jakusz\" System Zabezpiecze\u0144 Bankowych Bogdan Jakusz w Ko\u015bcierzynie",
                "addr:country": "PL",
                "addr:postcode": "83-400",
                "addr:city": "Ko\u015bcierzyna",
                "addr:street": "Przemys\u0142owa",
                "addr:housenumber": "40",
                "addr:teryt:simc": 934553,
                "addr:teryt:sym_ul": 17742,
                "contact:phone": "+48 586868527",
                "contact:email": "jakusz@jakusz.com",
                "contact:website": "http:\/\/www.jakusz.com",
                "ref:regon": "221771999",
                "ref:vatin": "PL5890002394",
                "operator": "Jakusz Bogdan",
                "operator:type": "private"
            }
        },
        {
            "id": 58657,
            "type": "Feature",
            "geometry": {
                "type": "Point",
                "coordinates": [
                    17.97459,
                    54.12244
                ]
            },
            "properties": {
                "ref:rspo": 58657,
                "official_name": "Powiatowy Zesp\u00f3\u0142 Szk\u00f3L Nr 1",
                "name": "Powiatowy Zesp\u00f3\u0142 Szk\u00f3L Nr 1",
                "addr:country": "PL",
                "addr:postcode": "83-400",
                "addr:city": "Ko\u015bcierzyna",
                "addr:street": "W\u0142adys\u0142awa Sikorskiego",
                "addr:housenumber": "1",
                "addr:teryt:simc": 934553,
                "addr:teryt:sym_ul": 19914,
                "contact:phone": "+48 586863656",
                "contact:email": "sekretariat@pzs1.pl",
                "contact:website": "http:\/\/www.pzs1.pl",
                "ref:regon": "000184342",
                "ref:vatin": "PL5911017574",
                "operator": "Powiat Ko\u015bcierski",
                "operator:type": "government",
                "landuse": "education",
                "fixme": "amenity=school, amenity=college albo landuse=education w zale\u017cno\u015bci od tego, jakie plac\u00f3wki wchodz\u0105 w sk\u0142ad zespo\u0142u. Sprawd\u017a, kiedy stosowa\u0107 amenity=* a kiedy landuse=education.",
                "note": "Children RSPO: 82886;82887;82888;127733"
            }
        },
        {
            "id": 82886,
            "type": "Feature",
            "geometry": {
                "type": "Point",
                "coordinates": [
                    17.97459,
                    54.122409999999995
                ]
            },
            "properties": {
                "isced:level": "3",
                "ref:rspo": 82886,
                "official_name": "Iv Liceum Og\u00f3lnokszta\u0142c\u0105ce",
                "name": "Iv Liceum Og\u00f3lnokszta\u0142c\u0105ce",
                "addr:country": "PL",
                "addr:postcode": "83-400",
                "addr:city": "Ko\u015bcierzyna",
                "addr:street": "W\u0142adys\u0142awa Sikorskiego",
                "addr:housenumber": "1",
                "addr:teryt:simc": 934553,
                "addr:teryt:sym_ul": 19914,
                "contact:phone": "+48 586863656",
                "contact:email": "pzs1.koscierzyna@powiatkoscierski.pl",
                "contact:website": "http:\/\/www.pzs1.pl",
                "ref:regon": "220038363",
                "operator": "Powiat Ko\u015bcierski",
                "operator:type": "government",
                "amenity": "school",
                "note": "Parent RSPO: 58657"
            }
        },
        {
            "id": 82887,
            "type": "Feature",
            "geometry": {
                "type": "Point",
                "coordinates": [
                    17.97459,
                    54.12238
                ]
            },
            "properties": {
                "isced:level": "3",
                "ref:rspo": 82887,
                "official_name": "Technikum Nr 1",
                "name": "Technikum Nr 1",
                "addr:country": "PL",
                "addr:postcode": "83-400",
                "addr:city": "Ko\u015bcierzyna",
                "addr:street": "W\u0142adys\u0142awa Sikorskiego",
                "addr:housenumber": "1",
                "addr:teryt:simc": 934553,
                "addr:teryt:sym_ul": 19914,
                "contact:phone": "+48 586863656",
                "contact:email": "pzs1.koscierzyna@powiatkoscierski.pl",
                "contact:website": "http:\/\/www.pzs1.pl",
                "ref:regon": "192775255",
                "operator": "Powiat Ko\u015bcierski",
                "operator:type": "government",
                "amenity": "school",
                "note": "Parent RSPO: 58657"
            }
        },
        {
            "id": 82888,
            "type": "Feature",
            "geometry": {
                "type": "Point",
                "coordinates": [
                    17.97459,
                    54.12235
                ]
            },
            "properties": {
                "isced:level": "3",
                "ref:rspo": 82888,
                "official_name": "Szko\u0142a Bran\u017cowa I Stopnia Nr 1",
                "name": "Szko\u0142a Bran\u017cowa I Stopnia Nr 1",
                "addr:country": "PL",
                "addr:postcode": "83-400",
                "addr:city": "Ko\u015bcierzyna",
                "addr:street": "W\u0142adys\u0142awa Sikorskiego",
                "addr:housenumber": "1",
                "addr:teryt:simc": 934553,
                "addr:teryt:sym_ul": 19914,
                "contact:phone": "+48 586863586",
                "contact:email": "pco.koscierzyna@powiatkoscierski.pl",
                "contact:website": "http:\/\/www.pzs1.pl",
                "ref:regon": "192775261",
                "operator": "Powiat Ko\u015bcierski",
                "operator:type": "government",
                "amenity": "school",
                "note": "Parent RSPO: 58657"
            }
        },
        {
            "id": 127733,
            "type": "Feature",
            "geometry": {
                "type": "Point",
                "coordinates": [
                    17.97459,
                    54.122319999999995
                ]
            },
            "properties": {
                "isced:level": "3",
                "ref:rspo": 127733,
                "official_name": "Liceum Og\u00f3lnokszta\u0142c\u0105ce dla Doros\u0142ych",
                "name": "Liceum Og\u00f3lnokszta\u0142c\u0105ce dla Doros\u0142ych",
                "addr:country": "PL",
                "addr:postcode": "83-400",
                "addr:city": "Ko\u015bcierzyna",
                "addr:street": "W\u0142adys\u0142awa Sikorskiego",
                "addr:housenumber": "1",
                "addr:teryt:simc": 934553,
                "addr:teryt:sym_ul": 19914,
                "contact:phone": "+48 586863656",
                "contact:email": "pzs1.koscierzyna@powiatkoscierski.pl",
                "ref:regon": "361825301",
                "operator": "Powiat Ko\u015bcierski",
                "operator:type": "government",
                "amenity": "school",
                "note": "Parent RSPO: 58657"
            }
        },
        {
            "id": 24802,
            "type": "Feature",
            "geometry": {
                "type": "Point",
                "coordinates": [
                    17.98692,
                    54.12268
                ]
            },
            "properties": {
                "ref:rspo": 24802,
                "official_name": "Pa\u0144stwowa Szko\u0142a Muzyczna I St. im. Mazurka D\u0105browskiego w Ko\u015bcierzynie",
                "name": "Pa\u0144stwowa Szko\u0142a Muzyczna I St.",
                "addr:country": "PL",
                "addr:postcode": "83-400",
                "addr:city": "Ko\u015bcierzyna",
                "addr:street": "Dworcowa",
                "addr:housenumber": "12",
                "addr:teryt:simc": 934553,
                "addr:teryt:sym_ul": 4434,
                "contact:phone": "+48 586863585",
                "contact:email": "sekretariat@psmkoscierzyna.pl",
                "contact:website": "http:\/\/psmkoscierzyna.pl",
                "ref:regon": "000987377",
                "operator": "Ministerstwo Kultury I Dziedzictwa Narodowego",
                "operator:type": "public",
                "amenity": "music_school"
            }
        },
        {
            "id": 78061,
            "type": "Feature",
            "geometry": {
                "type": "Point",
                "coordinates": [
                    17.97918,
                    54.12298
                ]
            },
            "properties": {
                "ref:rspo": 78061,
                "official_name": "O\u015brodek Kszta\u0142cenia Cechu Rzemios\u0142 R\u00f3\u017cnych",
                "name": "O\u015brodek Kszta\u0142cenia Cechu Rzemios\u0142 R\u00f3\u017cnych",
                "addr:country": "PL",
                "addr:postcode": "83-400",
                "addr:city": "Ko\u015bcierzyna",
                "addr:street": "\u0179r\u00f3dlana",
                "addr:housenumber": "9",
                "addr:teryt:simc": 934553,
                "addr:teryt:sym_ul": 26359,
                "contact:phone": "+48 586862291",
                "ref:regon": "221779481",
                "ref:vatin": "PL5911004838",
                "operator": "Cech Rzemios\u0142 R\u00f3\u017cnych",
                "operator:type": "private"
            }
        },
        {
            "id": 262425,
            "type": "Feature",
            "geometry": {
                "type": "Point",
                "coordinates": [
                    17.97623,
                    54.12323
                ]
            },
            "properties": {
                "isced:level": "1;2",
                "ref:rspo": 262425,
                "official_name": "Prywatna Szko\u0142a Podstawowa Prymus",
                "name": "Prywatna Szko\u0142a Podstawowa Prymus",
                "addr:country": "PL",
                "addr:postcode": "83-400",
                "addr:city": "Ko\u015bcierzyna",
                "addr:street": "\u015awi\u0119toja\u0144ska",
                "addr:housenumber": "5",
                "addr:door": "A",
                "addr:teryt:simc": 934553,
                "addr:teryt:sym_ul": 22548,
                "contact:phone": "+48 586868332",
                "contact:email": "prymus.nauka@wp.pl",
                "contact:website": "http:\/\/www.prymus.org.pl",
                "ref:regon": "368005630",
                "ref:vatin": "PL5911489014",
                "operator": "Dariusz Troka",
                "operator:type": "private",
                "amenity": "school"
            }
        },
        {
            "id": 80760,
            "type": "Feature",
            "geometry": {
                "type": "Point",
                "coordinates": [
                    17.97212,
                    54.12432
                ]
            },
            "properties": {
                "ref:rspo": 80760,
                "official_name": "Przedszkole Niepubliczne \"Puchatek\" Iwona \u0141anek",
                "name": "Przedszkole Niepubliczne \"Puchatek\" Iwona \u0141anek",
                "addr:country": "PL",
                "addr:postcode": "83-400",
                "addr:city": "Ko\u015bcierzyna",
                "addr:street": "Jana Brzechwy",
                "addr:housenumber": "3",
                "addr:teryt:simc": 934553,
                "addr:teryt:sym_ul": 2225,
                "contact:phone": "+48 586864870",
                "contact:email": "ilanek65@o2.pl",
                "ref:regon": "221777269",
                "ref:vatin": "PL5911068123",
                "operator": "Iwona \u0141anek",
                "operator:type": "private",
                "amenity": "kindergarten"
            }
        },
        {
            "id": 131678,
            "type": "Feature",
            "geometry": {
                "type": "Point",
                "coordinates": [
                    17.97503,
                    54.12453
                ]
            },
            "properties": {
                "ref:rspo": 131678,
                "official_name": "Zesp\u00f3\u0142 Szkolno-Przedszkolny Nr 2 w Ko\u015bcierzynie",
                "name": "Zesp\u00f3\u0142 Szkolno-Przedszkolny Nr 2 w Ko\u015bcierzynie",
                "addr:country": "PL",
                "addr:postcode": "83-400",
                "addr:city": "Ko\u015bcierzyna",
                "addr:street": "Strzelecka",
                "addr:housenumber": "1",
                "addr:teryt:simc": 934553,
                "addr:teryt:sym_ul": 21381,
                "contact:phone": "+48 586864089",
                "contact:email": "sekretariat.sp2@koscierzyna.gda.pl",
                "ref:regon": "365338319",
                "operator": "Gmina Miejska Ko\u015bcierzyna",
                "operator:type": "government",
                "landuse": "education",
                "fixme": "amenity=school, amenity=college albo landuse=education w zale\u017cno\u015bci od tego, jakie plac\u00f3wki wchodz\u0105 w sk\u0142ad zespo\u0142u. Sprawd\u017a, kiedy stosowa\u0107 amenity=* a kiedy landuse=education.",
                "note": "Children RSPO: 27790;131777"
            }
        },
        {
            "id": 27790,
            "type": "Feature",
            "geometry": {
                "type": "Point",
                "coordinates": [
                    17.97503,
                    54.1245
                ]
            },
            "properties": {
                "isced:level": "1;2",
                "ref:rspo": 27790,
                "official_name": "Szko\u0142a Podstawowa Nr 2 Im Dra Leona Heykego w Ko\u015bcierzynie",
                "name": "Szko\u0142a Podstawowa Nr 2 Im Dra Leona Heykego w Ko\u015bcierzynie",
                "addr:country": "PL",
                "addr:postcode": "83-400",
                "addr:city": "Ko\u015bcierzyna",
                "addr:street": "Strzelecka",
                "addr:housenumber": "1",
                "addr:teryt:simc": 934553,
                "addr:teryt:sym_ul": 21381,
                "contact:phone": "+48 586864089",
                "contact:email": "sekretariat.sp2@koscierzyna.gda.pl",
                "contact:website": "http:\/\/sp2kna.edupage.org",
                "ref:regon": "190967996",
                "ref:vatin": "PL5911292895",
                "operator": "Gmina Miejska Ko\u015bcierzyna",
                "operator:type": "government",
                "amenity": "school",
                "note": "Parent RSPO: 131678"
            }
        },
        {
            "id": 131777,
            "type": "Feature",
            "geometry": {
                "type": "Point",
                "coordinates": [
                    17.97503,
                    54.12447
                ]
            },
            "properties": {
                "ref:rspo": 131777,
                "official_name": "Przedszkole Nr 2 w Ko\u015bcierzynie",
                "name": "Przedszkole Nr 2 w Ko\u015bcierzynie",
                "addr:country": "PL",
                "addr:postcode": "83-400",
                "addr:city": "Ko\u015bcierzyna",
                "addr:street": "Strzelecka",
                "addr:housenumber": "1",
                "addr:teryt:simc": 934553,
                "addr:teryt:sym_ul": 21381,
                "contact:phone": "+48 586864089",
                "contact:email": "sekretariat.sp2@koscierzyna.gda.pl",
                "ref:regon": "365344171",
                "operator": "Gmina Miejska Ko\u015bcierzyna",
                "operator:type": "government",
                "amenity": "kindergarten",
                "note": "Parent RSPO: 131678"
            }
        },
        {
            "id": 127929,
            "type": "Feature",
            "geometry": {
                "type": "Point",
                "coordinates": [
                    17.9756399,
                    54.12472
                ]
            },
            "properties": {
                "isced:level": "3",
                "ref:rspo": 127929,
                "official_name": "Szko\u0142a Bran\u017cowa w Ko\u015bcierzynie",
                "name": "Szko\u0142a Bran\u017cowa w Ko\u015bcierzynie",
                "addr:country": "PL",
                "addr:postcode": "83-400",
                "addr:city": "Ko\u015bcierzyna",
                "addr:street": "Strzelecka",
                "addr:housenumber": "34",
                "addr:teryt:simc": 934553,
                "addr:teryt:sym_ul": 21381,
                "contact:email": "biuro@ifundacja.org.pl",
                "ref:regon": "361979441",
                "operator": "\"Fundacja Edukacji, Rozwoju Gospodarczego I Integracji Spo\u0142ecznej Inkubator\"",
                "operator:type": "ngo",
                "amenity": "school"
            }
        },
        {
            "id": 88293,
            "type": "Feature",
            "geometry": {
                "type": "Point",
                "coordinates": [
                    17.96968,
                    54.12557
                ]
            },
            "properties": {
                "ref:rspo": 88293,
                "official_name": "Przedszkole J\u0119zykowe Bluebell",
                "name": "Przedszkole J\u0119zykowe Bluebell",
                "addr:country": "PL",
                "addr:postcode": "83-400",
                "addr:city": "Ko\u015bcierzyna",
                "addr:street": "Henryka Sienkiewicza",
                "addr:housenumber": "3",
                "addr:teryt:simc": 934553,
                "addr:teryt:sym_ul": 19834,
                "contact:phone": "+48 586864956",
                "contact:email": "koscierzyna@helendorn.pl",
                "ref:regon": "221781118",
                "ref:vatin": "PL5911642036",
                "operator": "Ewa Kreft",
                "operator:type": "private",
                "amenity": "kindergarten"
            }
        },
        {
            "id": 60551,
            "type": "Feature",
            "geometry": {
                "type": "Point",
                "coordinates": [
                    17.98039,
                    54.12626
                ]
            },
            "properties": {
                "ref:rspo": 60551,
                "official_name": "Powiatowy Zesp\u00f3\u0142 Szk\u00f3\u0142 Nr 2 im.komisji Edukacji Narodowej w Ko\u015bcierzynie",
                "name": "Powiatowy Zesp\u00f3\u0142 Szk\u00f3\u0142 Nr 2 im.komisji Edukacji Narodowej w Ko\u015bcierzynie",
                "addr:country": "PL",
                "addr:postcode": "83-400",
                "addr:city": "Ko\u015bcierzyna",
                "addr:street": "J\u00f3zefa Wybickiego",
                "addr:housenumber": "1",
                "addr:teryt:simc": 934553,
                "addr:teryt:sym_ul": 24908,
                "contact:phone": "+48 586863586",
                "contact:email": "pzs2.koscierzyna@powiatkoscierski.pl",
                "contact:website": "http:\/\/pzs2.edu.pl",
                "ref:regon": "000184572",
                "ref:vatin": "PL5911031456",
                "operator": "Powiat Ko\u015bcierski",
                "operator:type": "government",
                "landuse": "education",
                "fixme": "amenity=school, amenity=college albo landuse=education w zale\u017cno\u015bci od tego, jakie plac\u00f3wki wchodz\u0105 w sk\u0142ad zespo\u0142u. Sprawd\u017a, kiedy stosowa\u0107 amenity=* a kiedy landuse=education.",
                "note": "Children RSPO: 82889;82890;82891;131149;131150"
            }
        },
        {
            "id": 119221,
            "type": "Feature",
            "geometry": {
                "type": "Point",
                "coordinates": [
                    17.98039,
                    54.12623
                ]
            },
            "properties": {
                "isced:level": "4",
                "ref:rspo": 119221,
                "official_name": "Szko\u0142a Policealna Studium Pracownik\u00f3w Medycznych I Spo\u0142ecznych",
                "name": "Szko\u0142a Policealna Studium Pracownik\u00f3w Medycznych I Spo\u0142ecznych",
                "addr:country": "PL",
                "addr:postcode": "83-400",
                "addr:city": "Ko\u015bcierzyna",
                "addr:street": "J\u00f3zefa Wybickiego",
                "addr:housenumber": "1",
                "addr:teryt:simc": 934553,
                "addr:teryt:sym_ul": 24908,
                "contact:email": "lingwistakosci@gmail.com",
                "ref:regon": "221943970",
                "operator": "\"O\u015bwiata-Lingwista\" Nadba\u0142tyckie Centrum Edukacji Sp\u00f3\u0142ka Z Ograniczon\u0105 Odpowiedzialno\u015bci\u0105",
                "operator:type": "private",
                "amenity": "college"
            }
        },
        {
            "id": 82889,
            "type": "Feature",
            "geometry": {
                "type": "Point",
                "coordinates": [
                    17.98039,
                    54.126200000000004
                ]
            },
            "properties": {
                "isced:level": "3",
                "ref:rspo": 82889,
                "official_name": "Technikum Nr 2",
                "name": "Technikum Nr 2",
                "addr:country": "PL",
                "addr:postcode": "83-400",
                "addr:city": "Ko\u015bcierzyna",
                "addr:street": "J\u00f3zefa Wybickiego",
                "addr:housenumber": "1",
                "addr:teryt:simc": 934553,
                "addr:teryt:sym_ul": 24908,
                "contact:phone": "+48 586863586",
                "contact:email": "pzs2.koscierzyna@powiatkoscierski.pl",
                "ref:regon": "220443550",
                "operator": "Powiat Ko\u015bcierski",
                "operator:type": "government",
                "amenity": "school",
                "note": "Parent RSPO: 60551"
            }
        },
        {
            "id": 82890,
            "type": "Feature",
            "geometry": {
                "type": "Point",
                "coordinates": [
                    17.98039,
                    54.12617
                ]
            },
            "properties": {
                "isced:level": "3",
                "ref:rspo": 82890,
                "official_name": "Szko\u0142a Bran\u017cowa I Stopnia Nr 2",
                "name": "Szko\u0142a Bran\u017cowa I Stopnia Nr 2",
                "addr:country": "PL",
                "addr:postcode": "83-400",
                "addr:city": "Ko\u015bcierzyna",
                "addr:street": "J\u00f3zefa Wybickiego",
                "addr:housenumber": "1",
                "addr:teryt:simc": 934553,
                "addr:teryt:sym_ul": 24908,
                "contact:phone": "+48 586863586",
                "contact:email": "pzs2.koscierzyna@powiatkoscierski.pl",
                "ref:regon": "192781445",
                "operator": "Powiat Ko\u015bcierski",
                "operator:type": "government",
                "amenity": "school",
                "note": "Parent RSPO: 60551"
            }
        },
        {
            "id": 82891,
            "type": "Feature",
            "geometry": {
                "type": "Point",
                "coordinates": [
                    17.98039,
                    54.12614
                ]
            },
            "properties": {
                "isced:level": "3",
                "ref:rspo": 82891,
                "official_name": "Szko\u0142a Bran\u017cowa I Stopnia Specjalna",
                "name": "Szko\u0142a Bran\u017cowa I Stopnia Specjalna",
                "addr:country": "PL",
                "addr:postcode": "83-400",
                "addr:city": "Ko\u015bcierzyna",
                "addr:street": "J\u00f3zefa Wybickiego",
                "addr:housenumber": "1",
                "addr:teryt:simc": 934553,
                "addr:teryt:sym_ul": 24908,
                "contact:phone": "+48 586863586",
                "contact:email": "pzs2.koscierzyna@powiatkoscierski.pl",
                "ref:regon": "192781451",
                "operator": "Powiat Ko\u015bcierski",
                "operator:type": "government",
                "amenity": "school",
                "note": "Parent RSPO: 60551"
            }
        },
        {
            "id": 131149,
            "type": "Feature",
            "geometry": {
                "type": "Point",
                "coordinates": [
                    17.98039,
                    54.126110000000004
                ]
            },
            "properties": {
                "isced:level": "3",
                "ref:rspo": 131149,
                "official_name": "Ii Liceum Og\u00f3lnokszta\u0142c\u0105ce dla Doros\u0142ych",
                "name": "Ii Liceum Og\u00f3lnokszta\u0142c\u0105ce dla Doros\u0142ych",
                "addr:country": "PL",
                "addr:postcode": "83-400",
                "addr:city": "Ko\u015bcierzyna",
                "addr:street": "J\u00f3zefa Wybickiego",
                "addr:housenumber": "1",
                "addr:teryt:simc": 934553,
                "addr:teryt:sym_ul": 24908,
                "contact:phone": "+48 586863586",
                "contact:email": "pzs2.koscierzyna@powiatkoscierski.pl",
                "ref:regon": "364983153",
                "operator": "Powiat Ko\u015bcierski",
                "operator:type": "government",
                "amenity": "school",
                "note": "Parent RSPO: 60551"
            }
        },
        {
            "id": 131150,
            "type": "Feature",
            "geometry": {
                "type": "Point",
                "coordinates": [
                    17.98039,
                    54.12608
                ]
            },
            "properties": {
                "isced:level": "4",
                "ref:rspo": 131150,
                "official_name": "Szko\u0142a Policealna dla Doros\u0142ych",
                "name": "Szko\u0142a Policealna dla Doros\u0142ych",
                "addr:country": "PL",
                "addr:postcode": "83-400",
                "addr:city": "Ko\u015bcierzyna",
                "addr:street": "J\u00f3zefa Wybickiego",
                "addr:housenumber": "1",
                "addr:teryt:simc": 934553,
                "addr:teryt:sym_ul": 24908,
                "contact:phone": "+48 586863586",
                "ref:regon": "364983182",
                "operator": "Powiat Ko\u015bcierski",
                "operator:type": "government",
                "amenity": "college",
                "note": "Parent RSPO: 60551"
            }
        },
        {
            "id": 69994,
            "type": "Feature",
            "geometry": {
                "type": "Point",
                "coordinates": [
                    17.99463,
                    54.12659
                ]
            },
            "properties": {
                "ref:rspo": 69994,
                "official_name": "Biuro Bezpiecze\u0144stwa I Higieny Pracy \"Dalmar\"",
                "name": "Biuro Bezpiecze\u0144stwa I Higieny Pracy \"Dalmar\"",
                "addr:country": "PL",
                "addr:postcode": "83-400",
                "addr:city": "Ko\u015bcierzyna",
                "addr:street": "Drogowc\u00f3w",
                "addr:housenumber": "2",
                "addr:door": "4",
                "addr:teryt:simc": 934553,
                "addr:teryt:sym_ul": 4247,
                "contact:phone": "+48 604065924",
                "ref:regon": "221771798",
                "ref:vatin": "PL5911010129",
                "operator": "Marian Dalecki",
                "operator:type": "private"
            }
        },
        {
            "id": 59054,
            "type": "Feature",
            "geometry": {
                "type": "Point",
                "coordinates": [
                    17.98041,
                    54.12788
                ]
            },
            "properties": {
                "isced:level": "3",
                "ref:rspo": 59054,
                "official_name": "I Liceum Og\u00f3lnokszta\u0142c\u0105ce Im J\u00f3zefa Wybickiego",
                "name": "I Liceum Og\u00f3lnokszta\u0142c\u0105ce Im J\u00f3zefa Wybickiego",
                "addr:country": "PL",
                "addr:postcode": "83-400",
                "addr:city": "Ko\u015bcierzyna",
                "addr:street": "Ignacego Krasickiego",
                "addr:housenumber": "2",
                "addr:teryt:simc": 934553,
                "addr:teryt:sym_ul": 9830,
                "contact:phone": "+48 586863509",
                "contact:email": "lo1.koscierzyna@powiatkoscierski.pl",
                "contact:website": "http:\/\/www.liceum.org.pl",
                "ref:regon": "000783730",
                "ref:vatin": "PL5911276258",
                "operator": "Powiat Ko\u015bcierski",
                "operator:type": "government",
                "amenity": "school"
            }
        },
        {
            "id": 21754,
            "type": "Feature",
            "geometry": {
                "type": "Point",
                "coordinates": [
                    17.97446,
                    54.1295
                ]
            },
            "properties": {
                "ref:rspo": 21754,
                "official_name": "Przedszkole Nr 7 w Ko\u015bcierzynie",
                "name": "Przedszkole Nr 7 w Ko\u015bcierzynie",
                "addr:country": "PL",
                "addr:postcode": "83-400",
                "addr:city": "Ko\u015bcierzyna",
                "addr:street": "Szkolna",
                "addr:housenumber": "2",
                "addr:teryt:simc": 934553,
                "addr:teryt:sym_ul": 21970,
                "contact:phone": "+48 586862955",
                "contact:email": "sekretariat.p7@koscierzyna.gda.pl",
                "ref:regon": "192969210",
                "ref:vatin": "PL5911494529",
                "operator": "Gmina Miejska Ko\u015bcierzyna",
                "operator:type": "government",
                "amenity": "kindergarten"
            }
        },
        {
            "id": 58786,
            "type": "Feature",
            "geometry": {
                "type": "Point",
                "coordinates": [
                    17.98033,
                    54.12974
                ]
            },
            "properties": {
                "ref:rspo": 58786,
                "official_name": "Powiatowy Zesp\u00f3\u0142 Szk\u00f3\u0142 Nr 3 w Ko\u015bcierzynie",
                "name": "Powiatowy Zesp\u00f3\u0142 Szk\u00f3\u0142 Nr 3 w Ko\u015bcierzynie",
                "addr:country": "PL",
                "addr:postcode": "83-400",
                "addr:city": "Ko\u015bcierzyna",
                "addr:street": "Kartuska",
                "addr:housenumber": "48",
                "addr:teryt:simc": 934553,
                "addr:teryt:sym_ul": 8124,
                "contact:phone": "+48 586863661",
                "contact:email": "pzs3.koscierzyna@powiatkoscierski.pl",
                "contact:website": "http:\/\/pzsnr3koscierzyna.edupage.org",
                "ref:regon": "000195133",
                "ref:vatin": "PL5911296479",
                "operator": "Powiat Ko\u015bcierski",
                "operator:type": "government",
                "landuse": "education",
                "fixme": "amenity=school, amenity=college albo landuse=education w zale\u017cno\u015bci od tego, jakie plac\u00f3wki wchodz\u0105 w sk\u0142ad zespo\u0142u. Sprawd\u017a, kiedy stosowa\u0107 amenity=* a kiedy landuse=education.",
                "note": "Children RSPO: 82892;82893;274802"
            }
        },
        {
            "id": 82892,
            "type": "Feature",
            "geometry": {
                "type": "Point",
                "coordinates": [
                    17.98033,
                    54.129709999999996
                ]
            },
            "properties": {
                "isced:level": "3",
                "ref:rspo": 82892,
                "official_name": "Technikum Nr 3 im. Aleksandra Majkowskiego",
                "name": "Technikum Nr 3",
                "addr:country": "PL",
                "addr:postcode": "83-400",
                "addr:city": "Ko\u015bcierzyna",
                "addr:street": "Kartuska",
                "addr:housenumber": "48",
                "addr:teryt:simc": 934553,
                "addr:teryt:sym_ul": 8124,
                "contact:phone": "+48 586863661",
                "contact:email": "pzs3.koscierzyna@powiatkoscierski.pl",
                "contact:website": "http:\/\/pzsnr3koscierzyna.edupage.org",
                "ref:regon": "192776711",
                "operator": "Powiat Ko\u015bcierski",
                "operator:type": "government",
                "amenity": "school",
                "note": "Parent RSPO: 58786"
            }
        },
        {
            "id": 82893,
            "type": "Feature",
            "geometry": {
                "type": "Point",
                "coordinates": [
                    17.98033,
                    54.12968
                ]
            },
            "properties": {
                "isced:level": "3",
                "ref:rspo": 82893,
                "official_name": "Szko\u0142a Bran\u017cowa I Stopnia Nr 3 im.aleksandra Majkowskiego",
                "name": "Szko\u0142a Bran\u017cowa I Stopnia Nr 3 im.aleksandra Majkowskiego",
                "addr:country": "PL",
                "addr:postcode": "83-400",
                "addr:city": "Ko\u015bcierzyna",
                "addr:street": "Kartuska",
                "addr:housenumber": "48",
                "addr:teryt:simc": 934553,
                "addr:teryt:sym_ul": 8124,
                "contact:phone": "+48 586863661",
                "contact:email": "pzs3.koscierzyna@powiatkoscierski.pl",
                "contact:website": "http:\/\/pzsnr3koscierzyna.edupage.org",
                "ref:regon": "192776734",
                "operator": "Powiat Ko\u015bcierski",
                "operator:type": "government",
                "amenity": "school",
                "note": "Parent RSPO: 58786"
            }
        },
        {
            "id": 274802,
            "type": "Feature",
            "geometry": {
                "type": "Point",
                "coordinates": [
                    17.98033,
                    54.12965
                ]
            },
            "properties": {
                "isced:level": "3",
                "ref:rspo": 274802,
                "official_name": "Bran\u017cowa Szko\u0142a II Stopnia",
                "name": "Bran\u017cowa Szko\u0142a II Stopnia",
                "addr:country": "PL",
                "addr:postcode": "83-400",
                "addr:city": "Ko\u015bcierzyna",
                "addr:street": "Kartuska",
                "addr:housenumber": "48",
                "addr:teryt:simc": 934553,
                "addr:teryt:sym_ul": 8124,
                "contact:phone": "+48 586863661",
                "contact:email": "pzs3.koscierzyna@powiatkoscierski.pl",
                "ref:regon": "386306949",
                "operator": "Powiat Ko\u015bcierski",
                "operator:type": "government",
                "amenity": "school",
                "note": "Parent RSPO: 58786"
            }
        },
        {
            "id": 25157,
            "type": "Feature",
            "geometry": {
                "type": "Point",
                "coordinates": [
                    17.97269,
                    54.13008
                ]
            },
            "properties": {
                "isced:level": "1;2",
                "ref:rspo": 25157,
                "official_name": "Szko\u0142a Podstawowa Nr 4 im. Nauczycieli Bohater\u00f3w Ziemi Ko\u015bcierskiej w Koscierzynie",
                "name": "Szko\u0142a Podstawowa Nr 4",
                "addr:country": "PL",
                "addr:postcode": "83-400",
                "addr:city": "Ko\u015bcierzyna",
                "addr:street": "Szkolna",
                "addr:housenumber": "1",
                "addr:teryt:simc": 934553,
                "addr:teryt:sym_ul": 21970,
                "contact:phone": "+48 586863432",
                "contact:email": "sekretariat.sp4@koscierzyna.gda.pl",
                "contact:website": "http:\/\/sp4koscierzyna.szkolnastrona.pl",
                "ref:regon": "192969226",
                "ref:vatin": "PL5911702347",
                "operator": "Gmina Miejska Ko\u015bcierzyna",
                "operator:type": "government",
                "amenity": "school"
            }
        },
        {
            "id": 58855,
            "type": "Feature",
            "geometry": {
                "type": "Point",
                "coordinates": [
                    17.9818399,
                    54.13221
                ]
            },
            "properties": {
                "ref:rspo": 58855,
                "official_name": "Specjalny O\u015brodek Szkolno - Wychowawczy im. Jana Brzechwy w Ko\u015bcierzynie",
                "name": "Specjalny O\u015brodek Szkolno - Wychowawczy",
                "addr:country": "PL",
                "addr:postcode": "83-400",
                "addr:city": "Ko\u015bcierzyna",
                "addr:street": "S\u0142oneczna",
                "addr:housenumber": "1",
                "addr:teryt:simc": 934553,
                "addr:teryt:sym_ul": 20254,
                "contact:phone": "+48 586863433",
                "contact:email": "sekretariat@soswkoscierzyna.com",
                "contact:website": "http:\/\/www.soswkoscierzyna.naszastrona.net",
                "ref:regon": "000783752",
                "ref:vatin": "PL5911288416",
                "operator": "Powiat Ko\u015bcierski",
                "operator:type": "government",
                "amenity": "school",
                "note": "Children RSPO: 60309;82895;82897"
            }
        },
        {
            "id": 59056,
            "type": "Feature",
            "geometry": {
                "type": "Point",
                "coordinates": [
                    17.9818399,
                    54.13218
                ]
            },
            "properties": {
                "ref:rspo": 59056,
                "official_name": "Poradnia Psychologiczno - Pedagogiczna w Ko\u015bcierzynie",
                "name": "Poradnia Psychologiczno - Pedagogiczna w Ko\u015bcierzynie",
                "addr:country": "PL",
                "addr:postcode": "83-400",
                "addr:city": "Ko\u015bcierzyna",
                "addr:street": "S\u0142oneczna",
                "addr:housenumber": "1",
                "addr:teryt:simc": 934553,
                "addr:teryt:sym_ul": 20254,
                "contact:phone": "+48 586864861",
                "contact:email": "ppp.koscierzyna@powiatkoscierski.pl",
                "contact:website": "http:\/\/www.pppkoscierzyna.pl",
                "ref:regon": "000957873",
                "ref:vatin": "PL5911498183",
                "operator": "Powiat Ko\u015bcierski",
                "operator:type": "government",
                "healthcare": "counselling",
                "counselling_type": "education",
                "fixme": "w zale\u017cno\u015bci od przedmiotu dzia\u0142alno\u015bci (np. healthcare=counselling + counselling_type=education albo healthcare=psychotherapist)"
            }
        },
        {
            "id": 60309,
            "type": "Feature",
            "geometry": {
                "type": "Point",
                "coordinates": [
                    17.9818399,
                    54.13215
                ]
            },
            "properties": {
                "ref:rspo": 60309,
                "official_name": "Przedszkole Specjalne w Ko\u015bcierzynie dla Dzieci Z Upo\u015bledzeniem Umys\u0142owym w Stopniu Umiarkowany I Znacznym, Z Autyzmem I Niepe\u0142nosprawno\u015bciami Sprz\u0119\u017conymi",
                "name": "Przedszkole Specjalne w Ko\u015bcierzynie dla Dzieci Z Upo\u015bledzeniem Umys\u0142owym w Stopniu Umiarkowany I Znacznym, Z Autyzmem I Niepe\u0142nosprawno\u015bciami Sprz\u0119\u017conymi",
                "addr:country": "PL",
                "addr:postcode": "83-400",
                "addr:city": "Ko\u015bcierzyna",
                "addr:street": "S\u0142oneczna",
                "addr:housenumber": "1",
                "addr:teryt:simc": 934553,
                "addr:teryt:sym_ul": 20254,
                "contact:phone": "+48 586863433",
                "contact:email": "sekretariat@soswkoscierzyna.com",
                "contact:website": "http:\/\/www.soswkoscierzyna.naszastrona.net",
                "ref:regon": "221768715",
                "ref:vatin": "PL5911288416",
                "operator": "Powiat Ko\u015bcierski",
                "operator:type": "government",
                "amenity": "kindergarten",
                "note": "Parent RSPO: 58855"
            }
        },
        {
            "id": 82895,
            "type": "Feature",
            "geometry": {
                "type": "Point",
                "coordinates": [
                    17.9818399,
                    54.13212
                ]
            },
            "properties": {
                "isced:level": "1;2",
                "ref:rspo": 82895,
                "official_name": "Szko\u0142a Podstawowa Nr 5 Specjalna",
                "name": "Szko\u0142a Podstawowa Nr 5 Specjalna",
                "addr:country": "PL",
                "addr:postcode": "83-400",
                "addr:city": "Ko\u015bcierzyna",
                "addr:street": "S\u0142oneczna",
                "addr:housenumber": "1",
                "addr:teryt:simc": 934553,
                "addr:teryt:sym_ul": 20254,
                "contact:phone": "+48 586863433",
                "contact:email": "sekretariat@soswkoscierzyna.com",
                "contact:website": "http:\/\/www.soswkoscierzyna.naszastrona.net",
                "ref:regon": "220035962",
                "operator": "Powiat Ko\u015bcierski",
                "operator:type": "government",
                "amenity": "school",
                "note": "Parent RSPO: 58855"
            }
        },
        {
            "id": 82897,
            "type": "Feature",
            "geometry": {
                "type": "Point",
                "coordinates": [
                    17.9818399,
                    54.13209
                ]
            },
            "properties": {
                "ref:rspo": 82897,
                "official_name": "Szko\u0142a Przysposabiaj\u0105ca Do Pracy",
                "name": "Szko\u0142a Przysposabiaj\u0105ca Do Pracy",
                "addr:country": "PL",
                "addr:postcode": "83-400",
                "addr:city": "Ko\u015bcierzyna",
                "addr:street": "S\u0142oneczna",
                "addr:housenumber": "1",
                "addr:teryt:simc": 934553,
                "addr:teryt:sym_ul": 20254,
                "contact:phone": "+48 586863433",
                "contact:email": "sekretariat@soswkoscierzyna.com",
                "contact:website": "http:\/\/www.soswkoscierzyna.naszastrona.net",
                "ref:regon": "220301493",
                "operator": "Powiat Ko\u015bcierski",
                "operator:type": "government",
                "amenity": "school",
                "note": "Parent RSPO: 58855"
            }
        }
    ]
}