{
    "type": "FeatureCollection",
    "features": [
        {
            "id": 27137,
            "type": "Feature",
            "geometry": {
                "type": "Point",
                "coordinates": [
                    17.89139,
                    53.87276
                ]
            },
            "properties": {
                "isced:level": "1;2",
                "ref:rspo": 27137,
                "official_name": "Szko\u0142a Podstawowa w Osowie",
                "name": "Szko\u0142a Podstawowa w Osowie",
                "addr:country": "PL",
                "addr:postcode": "83-440",
                "addr:city": "Osowo",
                "addr:street": "Wielewska",
                "addr:housenumber": "23",
                "addr:teryt:simc": 162613,
                "addr:teryt:sym_ul": 24056,
                "contact:phone": "+48 586873385",
                "contact:email": "sposowo@poczta.onet.pl",
                "contact:website": "http:\/\/www.sposowo.vgh.pl",
                "ref:regon": "001172306",
                "ref:vatin": "PL5911670920",
                "operator": "Gmina Karsin",
                "operator:type": "government",
                "amenity": "school"
            }
        },
        {
            "id": 31105,
            "type": "Feature",
            "geometry": {
                "type": "Point",
                "coordinates": [
                    17.89139,
                    53.87273
                ]
            },
            "properties": {
                "ref:rspo": 31105,
                "official_name": "Punkt Przedszkolny w Osowie",
                "name": "Punkt Przedszkolny w Osowie",
                "addr:country": "PL",
                "addr:postcode": "83-440",
                "addr:city": "Osowo",
                "addr:street": "Wielewska",
                "addr:housenumber": "23",
                "addr:teryt:simc": 162613,
                "addr:teryt:sym_ul": 24056,
                "contact:phone": "+48 586873385",
                "contact:email": "sposowo@poczta.onet.pl",
                "ref:regon": "221759395",
                "operator": "Gmina Karsin",
                "operator:type": "government",
                "amenity": "kindergarten"
            }
        },
        {
            "id": 27676,
            "type": "Feature",
            "geometry": {
                "type": "Point",
                "coordinates": [
                    17.9338799,
                    53.89892
                ]
            },
            "properties": {
                "ref:rspo": 27676,
                "official_name": "Publiczne Przedszkole w Karsinie",
                "name": "Publiczne Przedszkole w Karsinie",
                "addr:country": "PL",
                "addr:postcode": "83-440",
                "addr:city": "Karsin",
                "addr:street": "D\u0142uga",
                "addr:housenumber": "31",
                "addr:teryt:simc": 162553,
                "addr:teryt:sym_ul": 3839,
                "contact:phone": "+48 586873267",
                "contact:email": "przedszkolekarsin@gmail.com",
                "ref:regon": "190581771",
                "ref:vatin": "PL5911671658",
                "operator": "Gmina Karsin",
                "operator:type": "government",
                "amenity": "kindergarten"
            }
        },
        {
            "id": 120164,
            "type": "Feature",
            "geometry": {
                "type": "Point",
                "coordinates": [
                    17.93179,
                    53.89893
                ]
            },
            "properties": {
                "ref:rspo": 120164,
                "official_name": "Niepubliczne Przedszkole \"Akademia Malucha\"",
                "name": "Niepubliczne Przedszkole \"Akademia Malucha\"",
                "addr:country": "PL",
                "addr:postcode": "83-440",
                "addr:city": "Karsin",
                "addr:street": "Wi\u015bniowa",
                "addr:housenumber": "4",
                "addr:door": "4",
                "addr:teryt:simc": 162553,
                "addr:teryt:sym_ul": 24412,
                "contact:email": "akademia.malucha@tleno2.pl",
                "ref:regon": "221959310",
                "operator": "Beata Westfal",
                "operator:type": "private",
                "amenity": "kindergarten"
            }
        },
        {
            "id": 31096,
            "type": "Feature",
            "geometry": {
                "type": "Point",
                "coordinates": [
                    17.91964,
                    53.90765
                ]
            },
            "properties": {
                "isced:level": "1;2",
                "ref:rspo": 31096,
                "official_name": "Szko\u0142a Podstawowa im. Wincentego Rogali w Karsinie",
                "name": "Szko\u0142a Podstawowa",
                "addr:country": "PL",
                "addr:postcode": "83-440",
                "addr:city": "Karsin",
                "addr:street": "D\u0142uga",
                "addr:housenumber": "167",
                "addr:teryt:simc": 162553,
                "addr:teryt:sym_ul": 3839,
                "contact:phone": "+48 586873179",
                "contact:email": "sekretariat@szkolakarsin.pl",
                "ref:regon": "000553928",
                "ref:vatin": "PL5911670989",
                "operator": "Gmina Karsin",
                "operator:type": "government",
                "amenity": "school"
            }
        },
        {
            "id": 31099,
            "type": "Feature",
            "geometry": {
                "type": "Point",
                "coordinates": [
                    17.86296,
                    53.92164
                ]
            },
            "properties": {
                "isced:level": "1;2",
                "ref:rspo": 31099,
                "official_name": "Szko\u0142a Podstawowa im. Wicka Rogali w Wielu",
                "name": "Szko\u0142a Podstawowa",
                "addr:country": "PL",
                "addr:postcode": "83-441",
                "addr:city": "Wiele",
                "addr:street": "Wicka Rogali",
                "addr:housenumber": "5",
                "addr:teryt:simc": 162783,
                "addr:teryt:sym_ul": 18745,
                "contact:phone": "+48 586873496",
                "contact:email": "zs2wiele@o2.pl",
                "ref:regon": "001172298",
                "ref:vatin": "PL5911670966",
                "operator": "Gmina Karsin",
                "operator:type": "government",
                "amenity": "school"
            }
        },
        {
            "id": 27674,
            "type": "Feature",
            "geometry": {
                "type": "Point",
                "coordinates": [
                    17.86615,
                    53.92489
                ]
            },
            "properties": {
                "ref:rspo": 27674,
                "official_name": "Publiczne Przedszkole w Wielu",
                "name": "Publiczne Przedszkole w Wielu",
                "addr:country": "PL",
                "addr:postcode": "83-441",
                "addr:city": "Wiele",
                "addr:street": "Ko\u015bcierska",
                "addr:housenumber": "5",
                "addr:teryt:simc": 162783,
                "addr:teryt:sym_ul": 9556,
                "contact:phone": "+48 586873572",
                "contact:email": "przedszkolewiele@wp.pl",
                "ref:regon": "190581788",
                "ref:vatin": "PL5911671641",
                "operator": "Gmina Karsin",
                "operator:type": "government",
                "amenity": "kindergarten"
            }
        }
    ]
}