{
    "type": "FeatureCollection",
    "features": [
        {
            "id": 88714,
            "type": "Feature",
            "geometry": {
                "type": "Point",
                "coordinates": [
                    17.76998,
                    54.00745
                ]
            },
            "properties": {
                "ref:rspo": 88714,
                "official_name": "Zesp\u00f3\u0142 Kszta\u0142cenia I Wychowania Wdziemianach",
                "name": "Zesp\u00f3\u0142 Kszta\u0142cenia I Wychowania Wdziemianach",
                "addr:postcode": "83-425",
                "addr:city": "Dziemiany",
                "addr:street": "Wyzwolenia",
                "addr:housenumber": "20",
                "addr:city:simc": 160614,
                "addr:street:sym_ul": 25133,
                "phone": "+48 586880009",
                "email": "zkiwdziemiany@op.pl",
                "website": "http:\/\/www.zkiwdziemiany.pl",
                "ref:regon": "220015400",
                "ref:vatin": "PL5911432178",
                "operator": "Gmina Dziemiany",
                "operator:type": "government",
                "landuse": "education",
                "fixme": "amenity=school, amenity=college albo landuse=education w zale\u017cno\u015bci od tego, jakie plac\u00f3wki wchodz\u0105 w sk\u0142ad zespo\u0142u. Sprawd\u017a, kiedy stosowa\u0107 amenity=* a kiedy landuse=education.",
                "note": "Children RSPO: 89780;89781"
            }
        },
        {
            "id": 89780,
            "type": "Feature",
            "geometry": {
                "type": "Point",
                "coordinates": [
                    17.76998,
                    54.007419999999996
                ]
            },
            "properties": {
                "isced:level": "1;2",
                "ref:rspo": 89780,
                "official_name": "Zesp\u00f3\u0142 Kszta\u0142cenia I Wychowania w Dziemianach - Szko\u0142a Podstawowa",
                "name": "Zesp\u00f3\u0142 Kszta\u0142cenia I Wychowania w Dziemianach - Szko\u0142a Podstawowa",
                "addr:postcode": "83-425",
                "addr:city": "Dziemiany",
                "addr:street": "Wyzwolenia",
                "addr:housenumber": "20",
                "addr:city:simc": 160614,
                "addr:street:sym_ul": 25133,
                "phone": "+48 586880009",
                "email": "zkiwdziemiany@op.pl",
                "ref:regon": "190582351",
                "ref:vatin": "PL5911432178",
                "operator": "Gmina Dziemiany",
                "operator:type": "government",
                "amenity": "school",
                "note": "Parent RSPO: 88714"
            }
        },
        {
            "id": 89781,
            "type": "Feature",
            "geometry": {
                "type": "Point",
                "coordinates": [
                    17.76998,
                    54.00739
                ]
            },
            "properties": {
                "ref:rspo": 89781,
                "official_name": "Zesp\u00f3\u0142 Kszta\u0142cenia I Wychowani w Dziemianach - Gminne Przedszkole",
                "name": "Zesp\u00f3\u0142 Kszta\u0142cenia I Wychowani w Dziemianach - Gminne Przedszkole",
                "addr:postcode": "83-425",
                "addr:city": "Dziemiany",
                "addr:street": "Wyzwolenia",
                "addr:housenumber": "20",
                "addr:city:simc": 160614,
                "addr:street:sym_ul": 25133,
                "phone": "+48 586880009",
                "ref:regon": "220015439",
                "ref:vatin": "PL5911432178",
                "operator": "Gmina Dziemiany",
                "operator:type": "government",
                "amenity": "kindergarten",
                "note": "Parent RSPO: 88714"
            }
        },
        {
            "id": 68394,
            "type": "Feature",
            "geometry": {
                "type": "Point",
                "coordinates": [
                    17.7027684,
                    54.0131651
                ]
            },
            "properties": {
                "ref:rspo": 68394,
                "official_name": "O\u015brodek Rehabilitacyjno - Edukacyjno - Wychowawczy w Trzebuniu",
                "name": "O\u015brodek Rehabilitacyjno - Edukacyjno - Wychowawczy w Trzebuniu",
                "addr:postcode": "83-425",
                "addr:place": "Trzebu\u0144",
                "addr:housenumber": "50",
                "addr:city:simc": 160956,
                "phone": "+48 586816246",
                "email": "orew.sierakowice@psouu.org.pl",
                "website": "http:\/\/www.psouu-orew.pl",
                "ref:regon": "221771686",
                "ref:vatin": "PL5891734277",
                "operator": "Polskie Stowarzyszenie Na Rzecz Os\u00f3b Z Niepe\u0142nosprawno\u015bci\u0105 Intelektualn\u0105",
                "operator:type": "ngo",
                "amenity": "school"
            }
        },
        {
            "id": 88713,
            "type": "Feature",
            "geometry": {
                "type": "Point",
                "coordinates": [
                    17.79808,
                    54.04237
                ]
            },
            "properties": {
                "isced:level": "1;2",
                "ref:rspo": 88713,
                "official_name": "Szko\u0142a Podstawowa im. Gen. St. Sosabowskiego w Kaliszu",
                "name": "Szko\u0142a Podstawowa",
                "addr:postcode": "83-425",
                "addr:city": "Kalisz",
                "addr:street": "Pomorska",
                "addr:housenumber": "8",
                "addr:city:simc": 160689,
                "addr:street:sym_ul": 17088,
                "phone": "+48 586880151",
                "email": "szkolakalisz@op.pl",
                "website": "http:\/\/www.spkalisz.edupage.org",
                "ref:regon": "190582345",
                "ref:vatin": "PL5911432184",
                "operator": "Gmina Dziemiany",
                "operator:type": "government",
                "amenity": "school"
            }
        }
    ]
}