{
    "type": "FeatureCollection",
    "features": [
        {
            "id": 51278,
            "type": "Feature",
            "geometry": {
                "type": "Point",
                "coordinates": [
                    19.30585,
                    54.08652
                ]
            },
            "properties": {
                "ref:rspo": 51278,
                "official_name": "Przedszkole",
                "name": "Przedszkole",
                "addr:country": "PL",
                "addr:postcode": "83-335",
                "addr:city": "Gronowo Elbl\u0105skie",
                "addr:street": "ul. Elbl\u0105ska",
                "addr:housenumber": "4",
                "addr:teryt:simc": 4758,
                "addr:teryt:sym_ul": 150567,
                "contact:phone": "+48 552315663",
                "contact:email": "przedszkole@gminagronowo.pl",
                "ref:regon": "000985680",
                "operator": "Gmina Gronowo Elbl\u0105skie",
                "operator:type": "government",
                "amenity": "kindergarten",
                "note": "Parent RSPO: 131058"
            }
        },
        {
            "id": 131058,
            "type": "Feature",
            "geometry": {
                "type": "Point",
                "coordinates": [
                    19.30271,
                    54.08659
                ]
            },
            "properties": {
                "ref:rspo": 131058,
                "official_name": "Zesp\u00f3\u0142 Szk\u00f3\u0142 w Gronowie Elbl\u0105skim",
                "name": "Zesp\u00f3\u0142 Szk\u00f3\u0142 w Gronowie Elbl\u0105skim",
                "addr:country": "PL",
                "addr:postcode": "82-335",
                "addr:city": "Gronowo Elbl\u0105skie",
                "addr:street": "ul. Osiedlowa",
                "addr:housenumber": "6a",
                "addr:teryt:simc": 15300,
                "addr:teryt:sym_ul": 150567,
                "contact:phone": "+48 552314333",
                "contact:email": "zs.gronowo@gminagronowo.pl",
                "contact:website": "http:\/\/www.gronowo.schoolepage.pl",
                "ref:regon": "364914471",
                "ref:vatin": "PL5783121224",
                "operator": "Gmina Gronowo Elbl\u0105skie",
                "operator:type": "government",
                "landuse": "education",
                "fixme": "amenity=school, amenity=college albo landuse=education w zale\u017cno\u015bci od tego, jakie plac\u00f3wki wchodz\u0105 w sk\u0142ad zespo\u0142u. Sprawd\u017a, kiedy stosowa\u0107 amenity=* a kiedy landuse=education.",
                "note": "Children RSPO: 51278;91679"
            }
        },
        {
            "id": 91679,
            "type": "Feature",
            "geometry": {
                "type": "Point",
                "coordinates": [
                    19.30271,
                    54.08656
                ]
            },
            "properties": {
                "isced:level": "1;2",
                "ref:rspo": 91679,
                "official_name": "Szko\u0142a Podstawowa im. Jana Paw\u0142a Ii",
                "name": "Szko\u0142a Podstawowa",
                "addr:country": "PL",
                "addr:postcode": "83-335",
                "addr:city": "Gronowo Elbl\u0105skie",
                "addr:street": "ul. Osiedlowa",
                "addr:housenumber": "6A",
                "addr:teryt:simc": 15300,
                "addr:teryt:sym_ul": 150567,
                "contact:phone": "+48 552314333",
                "contact:email": "zs.gronowo@gminagronowo.pl",
                "contact:website": "http:\/\/www.gronowo.schoolpage.pl",
                "ref:regon": "170058393",
                "operator": "Gmina Gronowo Elbl\u0105skie",
                "operator:type": "government",
                "amenity": "school",
                "note": "Parent RSPO: 131058"
            }
        },
        {
            "id": 131057,
            "type": "Feature",
            "geometry": {
                "type": "Point",
                "coordinates": [
                    19.2881534,
                    54.120085
                ]
            },
            "properties": {
                "ref:rspo": 131057,
                "official_name": "Zesp\u00f3\u0142 Szk\u00f3\u0142 w Jeg\u0142owniku",
                "name": "Zesp\u00f3\u0142 Szk\u00f3\u0142 w Jeg\u0142owniku",
                "addr:country": "PL",
                "addr:postcode": "82-335",
                "addr:city": "Jeg\u0142ownik",
                "addr:street": "ul. Malborska",
                "addr:housenumber": "43",
                "addr:teryt:simc": 12031,
                "addr:teryt:sym_ul": 150596,
                "contact:phone": "+48 552312521",
                "contact:email": "jeglownik@elblag.com.pl",
                "ref:regon": "364914169",
                "ref:vatin": "PL5783121247",
                "operator": "Gmina Gronowo Elbl\u0105skie",
                "operator:type": "government",
                "landuse": "education",
                "fixme": "amenity=school, amenity=college albo landuse=education w zale\u017cno\u015bci od tego, jakie plac\u00f3wki wchodz\u0105 w sk\u0142ad zespo\u0142u. Sprawd\u017a, kiedy stosowa\u0107 amenity=* a kiedy landuse=education.",
                "note": "Children RSPO: 91678;131055"
            }
        },
        {
            "id": 91678,
            "type": "Feature",
            "geometry": {
                "type": "Point",
                "coordinates": [
                    19.2881534,
                    54.120055
                ]
            },
            "properties": {
                "isced:level": "1;2",
                "ref:rspo": 91678,
                "official_name": "Szko\u0142a Podstawowa im. Obro\u0144c\u00f3w Westerplatte",
                "name": "Szko\u0142a Podstawowa",
                "addr:country": "PL",
                "addr:postcode": "83-335",
                "addr:city": "Jeg\u0142ownik",
                "addr:street": "ul. Malborska",
                "addr:housenumber": "43",
                "addr:teryt:simc": 12031,
                "addr:teryt:sym_ul": 150596,
                "contact:phone": "+48 552312521",
                "contact:email": "jeglownik@elblag.com.pl",
                "ref:regon": "170058387",
                "operator": "Gmina Gronowo Elbl\u0105skie",
                "operator:type": "government",
                "amenity": "school",
                "note": "Parent RSPO: 131057"
            }
        },
        {
            "id": 131055,
            "type": "Feature",
            "geometry": {
                "type": "Point",
                "coordinates": [
                    19.2881534,
                    54.120025000000005
                ]
            },
            "properties": {
                "ref:rspo": 131055,
                "official_name": "Publiczne Przedszkole w Jeg\u0142owniku",
                "name": "Publiczne Przedszkole w Jeg\u0142owniku",
                "addr:country": "PL",
                "addr:postcode": "82-335",
                "addr:city": "Jeg\u0142ownik",
                "addr:street": "ul. Malborska",
                "addr:housenumber": "43",
                "addr:teryt:simc": 12031,
                "addr:teryt:sym_ul": 150596,
                "contact:phone": "+48 552312521",
                "contact:email": "jeglownik@elblag.com.pl",
                "ref:regon": "364912710",
                "operator": "Gmina Gronowo Elbl\u0105skie",
                "operator:type": "government",
                "amenity": "kindergarten",
                "note": "Parent RSPO: 131057"
            }
        }
    ]
}