{
    "type": "FeatureCollection",
    "features": [
        {
            "id": 68633,
            "type": "Feature",
            "geometry": {
                "type": "Point",
                "coordinates": [
                    16.878925323486,
                    50.572074890137
                ]
            },
            "properties": {
                "ref:rspo": 68633,
                "official_name": "Przedszkole Publiczne w Szklarach Huta",
                "name": "Przedszkole Publiczne w Szklarach Huta",
                "addr:postcode": "57-200",
                "addr:place": "Szklary-Huta",
                "addr:housenumber": "20",
                "addr:teryt:simc": 856652,
                "phone": "+48 748154850",
                "email": "przedszkoleszklary@vp.pl",
                "website": "http:\/\/www.przedszkoleszklary.stronyzklasa.pl",
                "ref:regon": "890522373",
                "ref:vatin": "PL8871096929",
                "operator": "Gmina Z\u0105bkowice \u015al\u0105skie",
                "operator:type": "government",
                "amenity": "kindergarten"
            }
        },
        {
            "id": 70273,
            "type": "Feature",
            "geometry": {
                "type": "Point",
                "coordinates": [
                    16.878925323486,
                    50.572044890137
                ]
            },
            "properties": {
                "isced:level": "1;2",
                "ref:rspo": 70273,
                "official_name": "Szko\u0142a Podstawowa Z Oddzia\u0142em Przedszkolnym w Zwr\u00f3conej",
                "name": "Szko\u0142a Podstawowa Z Oddzia\u0142em Przedszkolnym w Zwr\u00f3conej",
                "addr:postcode": "57-200",
                "addr:place": "Zwr\u00f3cona",
                "addr:housenumber": "68",
                "addr:teryt:simc": 856675,
                "phone": "+48 748157625",
                "email": "spzwrocona@op.pl",
                "website": "http:\/\/zwrocona.pl",
                "ref:regon": "001236845",
                "ref:vatin": "PL8871042448",
                "operator": "Gmina Z\u0105bkowice \u015al\u0105skie",
                "operator:type": "government",
                "amenity": "school"
            }
        },
        {
            "id": 70496,
            "type": "Feature",
            "geometry": {
                "type": "Point",
                "coordinates": [
                    16.878925323486,
                    50.572014890137005
                ]
            },
            "properties": {
                "isced:level": "1;2",
                "ref:rspo": 70496,
                "official_name": "Szko\u0142a Podstawowa w Braszowicach",
                "name": "Szko\u0142a Podstawowa w Braszowicach",
                "addr:postcode": "57-200",
                "addr:place": "Braszowice",
                "addr:housenumber": "76",
                "addr:teryt:simc": 856505,
                "phone": "+48 748169769",
                "email": "sekretariat@spbraszowice.edu.pl",
                "ref:regon": "000860990",
                "ref:vatin": "PL8871023853",
                "operator": "Gmina Z\u0105bkowice \u015al\u0105skie",
                "operator:type": "government",
                "amenity": "school"
            }
        },
        {
            "id": 111634,
            "type": "Feature",
            "geometry": {
                "type": "Point",
                "coordinates": [
                    16.878925323486,
                    50.571984890137
                ]
            },
            "properties": {
                "ref:rspo": 111634,
                "official_name": "Przedszkole Niepubliczne \"Skacz\u0105ce Nutki\"",
                "name": "Przedszkole Niepubliczne \"Skacz\u0105ce Nutki\"",
                "addr:postcode": "57-200",
                "addr:place": "Olbrachcice Wielkie",
                "addr:housenumber": "113",
                "addr:teryt:simc": 856563,
                "phone": "+48 668447283",
                "email": "machnik.marek@wp.pl",
                "ref:regon": "022096164",
                "ref:vatin": "PL8871018562",
                "operator": "Marek Machnik",
                "operator:type": "private",
                "amenity": "kindergarten"
            }
        },
        {
            "id": 69808,
            "type": "Feature",
            "geometry": {
                "type": "Point",
                "coordinates": [
                    16.80824,
                    50.58768
                ]
            },
            "properties": {
                "ref:rspo": 69808,
                "official_name": "Przedszkole Niepubliczne \" Kubu\u015b Puchatek\"",
                "name": "Przedszkole Niepubliczne \" Kubu\u015b Puchatek\"",
                "addr:postcode": "57-200",
                "addr:city": "Z\u0105bkowice \u015al\u0105skie",
                "addr:street": "Krzywa",
                "addr:housenumber": "10",
                "addr:door": "1",
                "addr:teryt:simc": 984692,
                "addr:teryt:sym_ul": 10157,
                "phone": "+48 693954985",
                "email": "luckraj@wp.pl",
                "ref:regon": "021998605",
                "ref:vatin": "PL7352250998",
                "operator": "Lucyna Krajewska",
                "operator:type": "private",
                "amenity": "kindergarten"
            }
        },
        {
            "id": 70405,
            "type": "Feature",
            "geometry": {
                "type": "Point",
                "coordinates": [
                    16.80854,
                    50.58769
                ]
            },
            "properties": {
                "isced:level": "1;2",
                "ref:rspo": 70405,
                "official_name": "Szko\u0142a Podstawowa Nr 1",
                "name": "Szko\u0142a Podstawowa Nr 1",
                "addr:postcode": "57-200",
                "addr:city": "Z\u0105bkowice \u015al\u0105skie",
                "addr:street": "Krzywa",
                "addr:housenumber": "9",
                "addr:teryt:simc": 984692,
                "addr:teryt:sym_ul": 10157,
                "phone": "+48 748151364",
                "email": "sp1zabkowice@wp.pl",
                "website": "http:\/\/www.fajnaszkola.eu",
                "ref:regon": "000691174",
                "ref:vatin": "PL8871021535",
                "operator": "Gmina Z\u0105bkowice \u015al\u0105skie",
                "operator:type": "government",
                "amenity": "school"
            }
        },
        {
            "id": 18894,
            "type": "Feature",
            "geometry": {
                "type": "Point",
                "coordinates": [
                    16.81351,
                    50.5879
                ]
            },
            "properties": {
                "ref:rspo": 18894,
                "official_name": "Specjalny O\u015brodek Szkolno-Wychowawczy im. Janusza Korczaka w Z\u0105bkowicach \u015aL\u0105skich",
                "name": "Specjalny O\u015brodek Szkolno-Wychowawczy",
                "addr:postcode": "57-200",
                "addr:city": "Z\u0105bkowice \u015al\u0105skie",
                "addr:street": "Proletariatczyk\u00f3w",
                "addr:housenumber": "9",
                "addr:teryt:simc": 984692,
                "addr:teryt:sym_ul": 17523,
                "phone": "+48 748157826",
                "email": "soswzce@wp.pl",
                "website": "http:\/\/soswzabkowice.pl",
                "ref:regon": "000230467",
                "ref:vatin": "PL8871305310",
                "operator": "Powiat Z\u0105bkowicki",
                "operator:type": "government",
                "amenity": "school",
                "note": "Children RSPO: 85131;85133;85135;124204"
            }
        },
        {
            "id": 85131,
            "type": "Feature",
            "geometry": {
                "type": "Point",
                "coordinates": [
                    16.81351,
                    50.587869999999995
                ]
            },
            "properties": {
                "isced:level": "1;2",
                "ref:rspo": 85131,
                "official_name": "Szko\u0142a Podstawowa w Specjalnym O\u015brodku Szkolno-Wychowawczym im. Janusza Korczaka w Z\u0105bkowicach \u015aL\u0105skich",
                "name": "Szko\u0142a Podstawowa w Specjalnym O\u015brodku Szkolno-Wychowawczym",
                "addr:postcode": "57-200",
                "addr:city": "Z\u0105bkowice \u015al\u0105skie",
                "addr:street": "Proletariatczyk\u00f3w",
                "addr:housenumber": "9",
                "addr:teryt:simc": 984692,
                "addr:teryt:sym_ul": 17523,
                "phone": "+48 748157826",
                "email": "soswzce@wp.pl",
                "website": "http:\/\/sosw.strefa.pl",
                "ref:regon": "000691139",
                "operator": "Powiat Z\u0105bkowicki",
                "operator:type": "government",
                "amenity": "school",
                "note": "Parent RSPO: 18894"
            }
        },
        {
            "id": 85133,
            "type": "Feature",
            "geometry": {
                "type": "Point",
                "coordinates": [
                    16.81351,
                    50.58784
                ]
            },
            "properties": {
                "ref:rspo": 85133,
                "official_name": "Szko\u0142a Specjalna Przysposabiaj\u0105ca Do Pracy w Specjalnym O\u015brodku Szkolno-Wychowawczym im. Janusza Korczaka w Z\u0105bkowicach \u015aL\u0105skich",
                "name": "Szko\u0142a Specjalna Przysposabiaj\u0105ca Do Pracy w Specjalnym O\u015brodku Szkolno-Wychowawczym",
                "addr:postcode": "57-200",
                "addr:city": "Z\u0105bkowice \u015al\u0105skie",
                "addr:street": "Proletariatczyk\u00f3w",
                "addr:housenumber": "9",
                "addr:teryt:simc": 984692,
                "addr:teryt:sym_ul": 17523,
                "phone": "+48 748157826",
                "email": "soswzce@wp.pl",
                "website": "http:\/\/sosw.strefa.pl",
                "ref:regon": "891540479",
                "operator": "Powiat Z\u0105bkowicki",
                "operator:type": "government",
                "amenity": "school",
                "note": "Parent RSPO: 18894"
            }
        },
        {
            "id": 85135,
            "type": "Feature",
            "geometry": {
                "type": "Point",
                "coordinates": [
                    16.81351,
                    50.58781
                ]
            },
            "properties": {
                "isced:level": "3",
                "ref:rspo": 85135,
                "official_name": "Bran\u017cowa Szko\u0142a Specjalna I Stopnia w Specjalnym O\u015brodku Szkolno-Wychowawczym im. Janusza Korczaka w Z\u0105bkowicach \u015aL\u0105skich",
                "name": "Bran\u017cowa Szko\u0142a Specjalna I Stopnia w Specjalnym O\u015brodku Szkolno-Wychowawczym",
                "addr:postcode": "57-200",
                "addr:city": "Z\u0105bkowice \u015al\u0105skie",
                "addr:street": "Proletariatczyk\u00f3w",
                "addr:housenumber": "9",
                "addr:teryt:simc": 984692,
                "addr:teryt:sym_ul": 17523,
                "phone": "+48 748157826",
                "email": "soswzce@wp.pl",
                "website": "http:\/\/sosw.strefa.pl",
                "ref:regon": "000743652",
                "operator": "Powiat Z\u0105bkowicki",
                "operator:type": "government",
                "amenity": "school",
                "note": "Parent RSPO: 18894"
            }
        },
        {
            "id": 124204,
            "type": "Feature",
            "geometry": {
                "type": "Point",
                "coordinates": [
                    16.81351,
                    50.587779999999995
                ]
            },
            "properties": {
                "ref:rspo": 124204,
                "official_name": "Przedszkole Specjalne w Specjalnym O\u015brodku Szkolno-Wychowawczym im. Janusza Korczaka w Z\u0105bkowicach \u015aL\u0105skich",
                "name": "Przedszkole Specjalne w Specjalnym O\u015brodku Szkolno-Wychowawczym",
                "addr:postcode": "57-200",
                "addr:city": "Z\u0105bkowice \u015al\u0105skie",
                "addr:street": "Proletariatczyk\u00f3w",
                "addr:housenumber": "9",
                "addr:teryt:simc": 984692,
                "addr:teryt:sym_ul": 17523,
                "phone": "+48 748157826",
                "email": "soswzce@wp.pl",
                "website": "http:\/\/sosw.strefa.pl",
                "ref:regon": "022477890",
                "operator": "Powiat Z\u0105bkowicki",
                "operator:type": "government",
                "amenity": "kindergarten",
                "note": "Parent RSPO: 18894"
            }
        },
        {
            "id": 68317,
            "type": "Feature",
            "geometry": {
                "type": "Point",
                "coordinates": [
                    16.80874,
                    50.5881
                ]
            },
            "properties": {
                "ref:rspo": 68317,
                "official_name": "Przedszkole Publiczne Nr 2",
                "name": "Przedszkole Publiczne Nr 2",
                "addr:postcode": "57-200",
                "addr:city": "Z\u0105bkowice \u015al\u0105skie",
                "addr:street": "Krzywa",
                "addr:housenumber": "5",
                "addr:teryt:simc": 984692,
                "addr:teryt:sym_ul": 10157,
                "phone": "+48 748151530",
                "email": "przedszkolepubl2zabkowicesl@interia.pl",
                "website": "http:\/\/www.pp2zabkowice.pl",
                "ref:regon": "890522338",
                "ref:vatin": "PL8871042394",
                "operator": "Gmina Z\u0105bkowice \u015al\u0105skie",
                "operator:type": "government",
                "amenity": "kindergarten"
            }
        },
        {
            "id": 83265,
            "type": "Feature",
            "geometry": {
                "type": "Point",
                "coordinates": [
                    16.88394,
                    50.58823
                ]
            },
            "properties": {
                "ref:rspo": 83265,
                "official_name": "Zesp\u00f3\u0142 Przedszkolno- Szkolny w Stolcu",
                "name": "Zesp\u00f3\u0142 Przedszkolno- Szkolny w Stolcu",
                "addr:postcode": "57-200",
                "addr:place": "Stolec",
                "addr:housenumber": "101",
                "addr:teryt:simc": 856592,
                "phone": "+48 748151771",
                "email": "zpsstolec@op.pl",
                "ref:regon": "891435950",
                "ref:vatin": "PL8871667208",
                "operator": "Gmina Z\u0105bkowice \u015al\u0105skie",
                "operator:type": "government",
                "landuse": "education",
                "fixme": "amenity=school, amenity=college albo landuse=education w zale\u017cno\u015bci od tego, jakie plac\u00f3wki wchodz\u0105 w sk\u0142ad zespo\u0142u. Sprawd\u017a, kiedy stosowa\u0107 amenity=* a kiedy landuse=education.",
                "note": "Children RSPO: 124769;124939"
            }
        },
        {
            "id": 124769,
            "type": "Feature",
            "geometry": {
                "type": "Point",
                "coordinates": [
                    16.88394,
                    50.5882
                ]
            },
            "properties": {
                "isced:level": "1;2",
                "ref:rspo": 124769,
                "official_name": "Szko\u0142a Podstawowa w Stolcu",
                "name": "Szko\u0142a Podstawowa w Stolcu",
                "addr:postcode": "57-200",
                "addr:place": "Stolec",
                "addr:housenumber": "101",
                "addr:teryt:simc": 856592,
                "phone": "+48 748151771",
                "email": "zpsstolec@op.pl",
                "ref:regon": "000860984",
                "ref:vatin": "PL8871020323",
                "operator": "Gmina Z\u0105bkowice \u015al\u0105skie",
                "operator:type": "government",
                "amenity": "school",
                "note": "Parent RSPO: 83265"
            }
        },
        {
            "id": 124939,
            "type": "Feature",
            "geometry": {
                "type": "Point",
                "coordinates": [
                    16.88394,
                    50.588170000000005
                ]
            },
            "properties": {
                "ref:rspo": 124939,
                "official_name": "Przedszkole Publiczne w Stolcu",
                "name": "Przedszkole Publiczne w Stolcu",
                "addr:postcode": "57-200",
                "addr:place": "Stolec",
                "addr:housenumber": "101",
                "addr:teryt:simc": 856592,
                "phone": "+48 748151771",
                "email": "zpsstolec@op.pl",
                "website": "http:\/\/www.zpsstolec.pl",
                "ref:regon": "891435943",
                "operator": "Gmina Z\u0105bkowice \u015al\u0105skie",
                "operator:type": "government",
                "amenity": "kindergarten",
                "note": "Parent RSPO: 83265"
            }
        },
        {
            "id": 66519,
            "type": "Feature",
            "geometry": {
                "type": "Point",
                "coordinates": [
                    16.80833,
                    50.58838
                ]
            },
            "properties": {
                "ref:rspo": 66519,
                "official_name": "Przedszkole Publiczne Nr 1",
                "name": "Przedszkole Publiczne Nr 1",
                "addr:postcode": "57-200",
                "addr:city": "Z\u0105bkowice \u015al\u0105skie",
                "addr:street": "Krzywa",
                "addr:housenumber": "2",
                "addr:teryt:simc": 984692,
                "addr:teryt:sym_ul": 10157,
                "phone": "+48 748151225",
                "email": "krasnal8@o2.pl",
                "website": "http:\/\/www.jedyneczkazabkowice.szkolnastrona.pl",
                "ref:regon": "890522321",
                "ref:vatin": "PL8871096846",
                "operator": "Gmina Z\u0105bkowice \u015al\u0105skie",
                "operator:type": "government",
                "amenity": "kindergarten"
            }
        },
        {
            "id": 69991,
            "type": "Feature",
            "geometry": {
                "type": "Point",
                "coordinates": [
                    16.8032499,
                    50.5887
                ]
            },
            "properties": {
                "isced:level": "1;2",
                "ref:rspo": 69991,
                "official_name": "Szko\u0142a Podstawowa Nr 2 Z Oddzia\u0142ami Przedszkolnymi",
                "name": "Szko\u0142a Podstawowa Nr 2 Z Oddzia\u0142ami Przedszkolnymi",
                "addr:postcode": "57-200",
                "addr:city": "Z\u0105bkowice \u015al\u0105skie",
                "addr:street": "Piastowska",
                "addr:housenumber": "1",
                "addr:teryt:simc": 984692,
                "addr:teryt:sym_ul": 16046,
                "phone": "+48 748157209",
                "email": "sp2zab@poczta.onet.pl",
                "website": "http:\/\/www.sp2-zabkowice.pl",
                "ref:regon": "891047589",
                "ref:vatin": "PL8871587136",
                "operator": "Gmina Z\u0105bkowice \u015al\u0105skie",
                "operator:type": "government",
                "amenity": "school"
            }
        },
        {
            "id": 68469,
            "type": "Feature",
            "geometry": {
                "type": "Point",
                "coordinates": [
                    16.81722,
                    50.58876
                ]
            },
            "properties": {
                "ref:rspo": 68469,
                "official_name": "Przedszkole Publiczne Nr 5",
                "name": "Przedszkole Publiczne Nr 5",
                "addr:postcode": "57-200",
                "addr:city": "Z\u0105bkowice \u015al\u0105skie",
                "addr:street": "Zi\u0119bicka",
                "addr:housenumber": "34",
                "addr:teryt:simc": 984692,
                "addr:teryt:sym_ul": 26141,
                "phone": "+48 748151695",
                "email": "pp5@op.pl",
                "website": "http:\/\/www.facebook.com\/pp5zabkowice\/?ref==bookmarks",
                "ref:regon": "890522367",
                "ref:vatin": "PL8871096527",
                "operator": "Gmina Z\u0105bkowice \u015al\u0105skie",
                "operator:type": "government",
                "amenity": "kindergarten"
            }
        },
        {
            "id": 264404,
            "type": "Feature",
            "geometry": {
                "type": "Point",
                "coordinates": [
                    16.81219,
                    50.5893
                ]
            },
            "properties": {
                "ref:rspo": 264404,
                "official_name": "Niepubliczna Szko\u0142a Muzyczna I St. w Z\u0105bkowicach \u015aL\u0105skich",
                "name": "Niepubliczna Szko\u0142a Muzyczna I St. w Z\u0105bkowicach \u015aL\u0105skich",
                "addr:postcode": "57-200",
                "addr:city": "Z\u0105bkowice \u015al\u0105skie",
                "addr:street": "Rynek",
                "addr:housenumber": "24",
                "addr:teryt:simc": 984692,
                "addr:teryt:sym_ul": 19252,
                "phone": "+48 669134313",
                "email": "szkolamuzycznazabkowice@o2.pl",
                "ref:regon": "368334925",
                "operator": "Micha\u0142 Bartkiewicz",
                "operator:type": "private",
                "amenity": "music_school"
            }
        },
        {
            "id": 130144,
            "type": "Feature",
            "geometry": {
                "type": "Point",
                "coordinates": [
                    16.83117,
                    50.58938
                ]
            },
            "properties": {
                "ref:rspo": 130144,
                "official_name": "Przedszkole Niepubliczne Domino Agnieszka Kulikowska",
                "name": "Przedszkole Niepubliczne Domino Agnieszka Kulikowska",
                "addr:postcode": "57-200",
                "addr:city": "Z\u0105bkowice \u015al\u0105skie",
                "addr:street": "Je\u017cynowa",
                "addr:housenumber": "32",
                "addr:teryt:simc": 984692,
                "addr:teryt:sym_ul": 7562,
                "phone": "+48 606131786",
                "email": "zipdomino@gmail.com",
                "ref:regon": "363538310",
                "ref:vatin": "PL8871372482",
                "operator": "Agnieszka Kulikowska",
                "operator:type": "private",
                "amenity": "kindergarten"
            }
        },
        {
            "id": 21343,
            "type": "Feature",
            "geometry": {
                "type": "Point",
                "coordinates": [
                    16.82363,
                    50.59085
                ]
            },
            "properties": {
                "isced:level": "3",
                "ref:rspo": 21343,
                "official_name": "Liceum Og\u00f3lnokszta\u0142c\u0105ce im. W\u0142adys\u0142awa Jagie\u0142\u0142y w Z\u0105bkowicach \u015aL\u0105skich",
                "name": "Liceum Og\u00f3lnokszta\u0142c\u0105ce",
                "addr:postcode": "57-200",
                "addr:city": "Z\u0105bkowice \u015al\u0105skie",
                "addr:street": "Powsta\u0144c\u00f3w Warszawy",
                "addr:housenumber": "8c",
                "addr:teryt:simc": 984692,
                "addr:teryt:sym_ul": 17372,
                "phone": "+48 748151674",
                "email": "sekretariat@lozabkowice.pl",
                "website": "http:\/\/lozabkowice.pl",
                "ref:regon": "000691168",
                "ref:vatin": "PL8871324595",
                "operator": "Powiat Z\u0105bkowicki",
                "operator:type": "government",
                "amenity": "school"
            }
        },
        {
            "id": 130143,
            "type": "Feature",
            "geometry": {
                "type": "Point",
                "coordinates": [
                    16.82607,
                    50.59172
                ]
            },
            "properties": {
                "ref:rspo": 130143,
                "official_name": "Weso\u0142e Safari Sp.z O.o.",
                "name": "Weso\u0142e Safari Sp.z O.o.",
                "addr:postcode": "57-200",
                "addr:city": "Z\u0105bkowice \u015al\u0105skie",
                "addr:street": "Powsta\u0144c\u00f3w Warszawy",
                "addr:housenumber": "8W",
                "addr:teryt:simc": 984692,
                "addr:teryt:sym_ul": 17372,
                "phone": "+48 695966731",
                "email": "ela.szymo.wojtal@wp.pl",
                "ref:regon": "363537842",
                "ref:vatin": "PL8871811220",
                "operator": "Weso\u0142e Safari Sp\u00f3\u0142ka Z Ograniczon\u0105 Odpowiedzialno\u015bci\u0105",
                "operator:type": "private",
                "amenity": "kindergarten"
            }
        },
        {
            "id": 129366,
            "type": "Feature",
            "geometry": {
                "type": "Point",
                "coordinates": [
                    16.81228,
                    50.59214
                ]
            },
            "properties": {
                "ref:rspo": 129366,
                "official_name": "Centrum Wspomagania Rozwoju Niepubliczna Poradnia Psychologiczno-Pedagogiczna",
                "name": "Centrum Wspomagania Rozwoju Niepubliczna Poradnia Psychologiczno-Pedagogiczna",
                "addr:postcode": "57-200",
                "addr:city": "Z\u0105bkowice \u015al\u0105skie",
                "addr:street": "1 Maja",
                "addr:housenumber": "7",
                "addr:teryt:simc": 984692,
                "addr:teryt:sym_ul": 11926,
                "phone": "+48 697989739",
                "email": "kciostek@op.pl",
                "ref:regon": "362571794",
                "operator": "Katarzyna Ciostek",
                "operator:type": "private",
                "healthcare": "counselling",
                "counselling_type": "education",
                "fixme": "w zale\u017cno\u015bci od przedmiotu dzia\u0142alno\u015bci (np. healthcare=counselling + counselling_type=education albo healthcare=psychotherapist)"
            }
        },
        {
            "id": 24697,
            "type": "Feature",
            "geometry": {
                "type": "Point",
                "coordinates": [
                    16.80113,
                    50.59236
                ]
            },
            "properties": {
                "isced:level": "3",
                "ref:rspo": 24697,
                "official_name": "Bran\u017cowa Szko\u0142a I Stopnia Cechu Rzemios\u0142 R\u00f3\u017cnych I Ma\u0142ej Przedsi\u0119biorczo\u015bci",
                "name": "Bran\u017cowa Szko\u0142a I Stopnia Cechu Rzemios\u0142 R\u00f3\u017cnych I Ma\u0142ej Przedsi\u0119biorczo\u015bci",
                "addr:postcode": "57-200",
                "addr:city": "Z\u0105bkowice \u015al\u0105skie",
                "addr:street": "Kasztanowa",
                "addr:housenumber": "2",
                "addr:teryt:simc": 984692,
                "addr:teryt:sym_ul": 8171,
                "phone": "+48 748100862",
                "email": "cechzabkowice@gmail.com",
                "ref:regon": "021985235",
                "operator": "Cech Rzemios\u0142 R\u00f3\u017cnych I Ma\u0142ej Przedsi\u0119biorczo\u015bci W Z\u0105bkowicach \u015al\u0105skich",
                "operator:type": "cooperative",
                "amenity": "school"
            }
        },
        {
            "id": 70069,
            "type": "Feature",
            "geometry": {
                "type": "Point",
                "coordinates": [
                    16.82008,
                    50.59431
                ]
            },
            "properties": {
                "isced:level": "1;2",
                "ref:rspo": 70069,
                "official_name": "Szko\u0142a Podstawowa Nr 3",
                "name": "Szko\u0142a Podstawowa Nr 3",
                "addr:postcode": "57-200",
                "addr:city": "Z\u0105bkowice \u015al\u0105skie",
                "addr:street": "W\u0142adys\u0142awa Orkana",
                "addr:housenumber": "32",
                "addr:teryt:simc": 984692,
                "addr:teryt:sym_ul": 15140,
                "phone": "+48 748151902",
                "email": "spnr3_zabkowice@op.pl",
                "website": "http:\/\/www.sp3zabkowice.pl",
                "ref:regon": "000691197",
                "ref:vatin": "PL8871023729",
                "operator": "Gmina Z\u0105bkowice \u015al\u0105skie",
                "operator:type": "government",
                "amenity": "school"
            }
        },
        {
            "id": 68407,
            "type": "Feature",
            "geometry": {
                "type": "Point",
                "coordinates": [
                    16.81747,
                    50.59503
                ]
            },
            "properties": {
                "ref:rspo": 68407,
                "official_name": "Przedszkole Publiczne Nr 4",
                "name": "Przedszkole Publiczne Nr 4",
                "addr:postcode": "57-200",
                "addr:city": "Z\u0105bkowice \u015al\u0105skie",
                "addr:street": "Osiedle XX-lecia",
                "addr:housenumber": "53",
                "addr:teryt:simc": 984692,
                "addr:teryt:sym_ul": 15292,
                "phone": "+48 748151818",
                "email": "pp4126@wp.pl",
                "website": "http:\/\/www.przedszkole4.przedszkolowo.pl",
                "ref:regon": "890522350",
                "ref:vatin": "PL8871042000",
                "operator": "Gmina Z\u0105bkowice \u015al\u0105skie",
                "operator:type": "government",
                "amenity": "kindergarten"
            }
        },
        {
            "id": 20696,
            "type": "Feature",
            "geometry": {
                "type": "Point",
                "coordinates": [
                    16.81528,
                    50.5972
                ]
            },
            "properties": {
                "ref:rspo": 20696,
                "official_name": "Powiatowe Centrum Poradnictwa Psychologiczno-Pedagogicznego w Z\u0105bkowicach \u015aL\u0105skich",
                "name": "Powiatowe Centrum Poradnictwa Psychologiczno-Pedagogicznego w Z\u0105bkowicach \u015aL\u0105skich",
                "addr:postcode": "57-200",
                "addr:city": "Z\u0105bkowice \u015al\u0105skie",
                "addr:street": "Adama Mickiewicza",
                "addr:housenumber": "10",
                "addr:teryt:simc": 984692,
                "addr:teryt:sym_ul": 12740,
                "phone": "+48 748157828",
                "email": "por-pp@tlen.pl",
                "website": "http:\/\/centrumporadnictwa.com",
                "ref:regon": "020661312",
                "ref:vatin": "PL8871762622",
                "operator": "Powiat Z\u0105bkowicki",
                "operator:type": "government",
                "landuse": "education",
                "fixme": "amenity=school, amenity=college albo landuse=education w zale\u017cno\u015bci od tego, jakie plac\u00f3wki wchodz\u0105 w sk\u0142ad zespo\u0142u. Sprawd\u017a, kiedy stosowa\u0107 amenity=* a kiedy landuse=education.",
                "note": "Children RSPO: 74292;74294"
            }
        },
        {
            "id": 16864,
            "type": "Feature",
            "geometry": {
                "type": "Point",
                "coordinates": [
                    16.81528,
                    50.59717
                ]
            },
            "properties": {
                "ref:rspo": 16864,
                "official_name": "Centrum Kszta\u0142cenia Zawodowego w Zespole Szk\u00f3\u0142 Zawodowych im. Stanis\u0142awa Staszica w Z\u0105bkowicach \u015aL\u0105skich",
                "name": "Centrum Kszta\u0142cenia Zawodowego w Zespole Szk\u00f3\u0142 Zawodowych",
                "addr:postcode": "57-200",
                "addr:city": "Z\u0105bkowice \u015al\u0105skie",
                "addr:street": "Adama Mickiewicza",
                "addr:housenumber": "10",
                "addr:teryt:simc": 984692,
                "addr:teryt:sym_ul": 12740,
                "phone": "+48 748151647",
                "email": "sekretariat@zszzabkowice.pl",
                "website": "http:\/\/zszzabkowice.pl",
                "ref:regon": "021972570",
                "operator": "Powiat Z\u0105bkowicki",
                "operator:type": "government",
                "fixme": "w zale\u017cno\u015bci od przedmiotu dzia\u0142alno\u015bci (np. amenity=training + training=*, amenity=dancing_school, amenity=language_school, amenity=music_school) albo amenity=school, amenity=college, albo landuse=education w zale\u017cno\u015bci od tego, jakie plac\u00f3wki wchodz\u0105 w sk\u0142ad zespo\u0142u. Sprawd\u017a, kiedy stosowa\u0107 amenity=* a kiedy landuse=education.",
                "note": "Parent RSPO: 14361"
            }
        },
        {
            "id": 74292,
            "type": "Feature",
            "geometry": {
                "type": "Point",
                "coordinates": [
                    16.81528,
                    50.59714
                ]
            },
            "properties": {
                "ref:rspo": 74292,
                "official_name": "Poradnia Psychologiczno-Pedagogiczna w Z\u0105bkowicach \u015aL\u0105skich",
                "name": "Poradnia Psychologiczno-Pedagogiczna w Z\u0105bkowicach \u015aL\u0105skich",
                "addr:postcode": "57-200",
                "addr:city": "Z\u0105bkowice \u015al\u0105skie",
                "addr:street": "Adama Mickiewicza",
                "addr:housenumber": "10",
                "addr:teryt:simc": 984692,
                "addr:teryt:sym_ul": 12740,
                "phone": "+48 748157828",
                "email": "por-pp@tlen.pl",
                "website": "http:\/\/centrumporadnictwa.com",
                "ref:regon": "891092130",
                "operator": "Powiat Z\u0105bkowicki",
                "operator:type": "government",
                "healthcare": "counselling",
                "counselling_type": "education",
                "fixme": "w zale\u017cno\u015bci od przedmiotu dzia\u0142alno\u015bci (np. healthcare=counselling + counselling_type=education albo healthcare=psychotherapist)",
                "note": "Parent RSPO: 20696"
            }
        },
        {
            "id": 74294,
            "type": "Feature",
            "geometry": {
                "type": "Point",
                "coordinates": [
                    16.81528,
                    50.59711
                ]
            },
            "properties": {
                "ref:rspo": 74294,
                "official_name": "Filia Dolno\u015bL\u0105skiej Biblioteki Pedagogicznej Oddzia\u0142 w Wa\u0142brzychu",
                "name": "Filia Dolno\u015bL\u0105skiej Biblioteki Pedagogicznej Oddzia\u0142 w Wa\u0142brzychu",
                "addr:postcode": "57-200",
                "addr:city": "Z\u0105bkowice \u015al\u0105skie",
                "addr:street": "Adama Mickiewicza",
                "addr:housenumber": "10",
                "addr:teryt:simc": 984692,
                "addr:teryt:sym_ul": 12740,
                "phone": "+48 748157828",
                "email": "por-pp@tlen.pl",
                "website": "http:\/\/centrumporadnictwa.com",
                "ref:regon": "020661364",
                "operator": "Powiat Z\u0105bkowicki",
                "operator:type": "government",
                "amenity": "library",
                "note": "Parent RSPO: 20696"
            }
        },
        {
            "id": 14361,
            "type": "Feature",
            "geometry": {
                "type": "Point",
                "coordinates": [
                    16.8174199,
                    50.5978
                ]
            },
            "properties": {
                "ref:rspo": 14361,
                "official_name": "Zesp\u00f3\u0142 Szk\u00f3\u0142 Zawodowych im. Stanis\u0142awa Staszica w Z\u0105bkowicach \u015aL\u0105skich",
                "name": "Zesp\u00f3\u0142 Szk\u00f3\u0142 Zawodowych",
                "addr:postcode": "57-200",
                "addr:city": "Z\u0105bkowice \u015al\u0105skie",
                "addr:street": "Wroc\u0142awska",
                "addr:housenumber": "17",
                "addr:teryt:simc": 984692,
                "addr:teryt:sym_ul": 24806,
                "phone": "+48 748152329",
                "email": "sekretariat@zszzabkowice.pl",
                "website": "http:\/\/www.zszzabkowice.pl",
                "ref:regon": "000196954",
                "ref:vatin": "PL8871019892",
                "operator": "Powiat Z\u0105bkowicki",
                "operator:type": "government",
                "landuse": "education",
                "fixme": "amenity=school, amenity=college albo landuse=education w zale\u017cno\u015bci od tego, jakie plac\u00f3wki wchodz\u0105 w sk\u0142ad zespo\u0142u. Sprawd\u017a, kiedy stosowa\u0107 amenity=* a kiedy landuse=education.",
                "note": "Children RSPO: 16864;18886;18889;18892;24696;276034"
            }
        },
        {
            "id": 18886,
            "type": "Feature",
            "geometry": {
                "type": "Point",
                "coordinates": [
                    16.8174199,
                    50.59777
                ]
            },
            "properties": {
                "isced:level": "3",
                "ref:rspo": 18886,
                "official_name": "Szko\u0142a Bran\u017cowa I Stopnia w Zespole Szk\u00f3\u0142 Zawodowych im. Stanis\u0142awa Staszica w Z\u0105bkowicach \u015aL\u0105skich",
                "name": "Szko\u0142a Bran\u017cowa I Stopnia w Zespole Szk\u00f3\u0142 Zawodowych",
                "addr:postcode": "57-200",
                "addr:city": "Z\u0105bkowice \u015al\u0105skie",
                "addr:street": "Wroc\u0142awska",
                "addr:housenumber": "17",
                "addr:teryt:simc": 984692,
                "addr:teryt:sym_ul": 24806,
                "phone": "+48 748152329",
                "email": "sekretariat@zszzabkowice.pl",
                "website": "http:\/\/zszzabkowice.pl",
                "ref:regon": "891421160",
                "operator": "Powiat Z\u0105bkowicki",
                "operator:type": "government",
                "amenity": "school",
                "note": "Parent RSPO: 14361"
            }
        },
        {
            "id": 18889,
            "type": "Feature",
            "geometry": {
                "type": "Point",
                "coordinates": [
                    16.8174199,
                    50.59774
                ]
            },
            "properties": {
                "isced:level": "4",
                "ref:rspo": 18889,
                "official_name": "Szko\u0142a Policealna w Zespole Szk\u00f3\u0142 Zawodowych im. Stanis\u0142awa Staszica w Z\u0105bkowicach \u015aL\u0105skich",
                "name": "Szko\u0142a Policealna w Zespole Szk\u00f3\u0142 Zawodowych",
                "addr:postcode": "57-200",
                "addr:city": "Z\u0105bkowice \u015al\u0105skie",
                "addr:street": "Wroc\u0142awska",
                "addr:housenumber": "17",
                "addr:teryt:simc": 984692,
                "addr:teryt:sym_ul": 24806,
                "phone": "+48 748152329",
                "email": "sekretariat@zszzabkowice.pl",
                "website": "http:\/\/zszzabkowice.pl",
                "ref:regon": "891421237",
                "operator": "Powiat Z\u0105bkowicki",
                "operator:type": "government",
                "amenity": "college",
                "note": "Parent RSPO: 14361"
            }
        },
        {
            "id": 18892,
            "type": "Feature",
            "geometry": {
                "type": "Point",
                "coordinates": [
                    16.8174199,
                    50.59771
                ]
            },
            "properties": {
                "isced:level": "3",
                "ref:rspo": 18892,
                "official_name": "Liceum Og\u00f3lnokszta\u0142cace dla Doros\u0142ych w Zespole Szk\u00f3\u0142 Zawodowych im. Stanis\u0142awa Staszica w Z\u0105bkowicach \u015aL\u0105skich",
                "name": "Liceum Og\u00f3lnokszta\u0142cace dla Doros\u0142ych w Zespole Szk\u00f3\u0142 Zawodowych",
                "addr:postcode": "57-200",
                "addr:city": "Z\u0105bkowice \u015al\u0105skie",
                "addr:street": "Wroc\u0142awska",
                "addr:housenumber": "17",
                "addr:teryt:simc": 984692,
                "addr:teryt:sym_ul": 24806,
                "phone": "+48 748152329",
                "email": "sekretariat@zszzabkowice.pl",
                "website": "http:\/\/zszzabkowice.pl",
                "ref:regon": "021974102",
                "operator": "Powiat Z\u0105bkowicki",
                "operator:type": "government",
                "amenity": "school",
                "note": "Parent RSPO: 14361"
            }
        },
        {
            "id": 24696,
            "type": "Feature",
            "geometry": {
                "type": "Point",
                "coordinates": [
                    16.8174199,
                    50.59768
                ]
            },
            "properties": {
                "isced:level": "3",
                "ref:rspo": 24696,
                "official_name": "Technikum w Zespole Szk\u00f3\u0142 Zawodowych im. Stanis\u0142awa Staszica w Z\u0105bkowicach \u015aL\u0105skich",
                "name": "Technikum w Zespole Szk\u00f3\u0142 Zawodowych",
                "addr:postcode": "57-200",
                "addr:city": "Z\u0105bkowice \u015al\u0105skie",
                "addr:street": "Wroc\u0142awska",
                "addr:housenumber": "17",
                "addr:teryt:simc": 984692,
                "addr:teryt:sym_ul": 24806,
                "phone": "+48 748152329",
                "email": "sekretariat@zszzabkowice.pl",
                "website": "http:\/\/zszzabkowice.pl",
                "ref:regon": "891420982",
                "operator": "Powiat Z\u0105bkowicki",
                "operator:type": "government",
                "amenity": "school",
                "note": "Parent RSPO: 14361"
            }
        },
        {
            "id": 276034,
            "type": "Feature",
            "geometry": {
                "type": "Point",
                "coordinates": [
                    16.8174199,
                    50.59765
                ]
            },
            "properties": {
                "isced:level": "3",
                "ref:rspo": 276034,
                "official_name": "Bran\u017cowa Szko\u0142a II Stopnia w Zespole Szk\u00f3\u0142 Zawodowych im. Stanis\u0142awa Staszica w Z\u0105bkowicach \u015aL\u0105skich",
                "name": "Bran\u017cowa Szko\u0142a II Stopnia w Zespole Szk\u00f3\u0142 Zawodowych",
                "addr:postcode": "57-200",
                "addr:city": "Z\u0105bkowice \u015al\u0105skie",
                "addr:street": "Wroc\u0142awska",
                "addr:housenumber": "17",
                "addr:teryt:simc": 984692,
                "addr:teryt:sym_ul": 24806,
                "phone": "+48 748152329",
                "email": "sekretariat@zszzabkowice.pl",
                "website": "http:\/\/www.zszzabkowice.pl",
                "ref:regon": "386972540",
                "operator": "Powiat Z\u0105bkowicki",
                "operator:type": "government",
                "amenity": "school",
                "note": "Parent RSPO: 14361"
            }
        },
        {
            "id": 68384,
            "type": "Feature",
            "geometry": {
                "type": "Point",
                "coordinates": [
                    16.81894,
                    50.59933
                ]
            },
            "properties": {
                "ref:rspo": 68384,
                "official_name": "Dolno\u015bL\u0105ski Zak\u0142ad Doskonalenia Zawodowego Oddzia\u0142 I we Wroc\u0142awiu O\u015brodek Kszta\u0142cenia Zawodowego w Z\u0105bkowicach \u015aL\u0105skich",
                "name": "Dolno\u015bL\u0105ski Zak\u0142ad Doskonalenia Zawodowego Oddzia\u0142 I we Wroc\u0142awiu O\u015brodek Kszta\u0142cenia Zawodowego w Z\u0105bkowicach \u015aL\u0105skich",
                "addr:postcode": "57-200",
                "addr:city": "Z\u0105bkowice \u015al\u0105skie",
                "addr:street": "Wroc\u0142awska",
                "addr:housenumber": "27a",
                "addr:teryt:simc": 984692,
                "addr:teryt:sym_ul": 24806,
                "phone": "+48 748154890",
                "email": "okz.zabkowice@dzdz.wroc.pl",
                "website": "http:\/\/dzdz.wroc.pl",
                "ref:regon": "022000394",
                "operator": "Dolno\u015bl\u0105ski Zak\u0142ad Doskonalenia Zawodowego Oddzia\u0142 I We Wroc\u0142awiu",
                "operator:type": "ngo",
                "fixme": "w zale\u017cno\u015bci od przedmiotu dzia\u0142alno\u015bci (np. amenity=training + training=*, amenity=dancing_school, amenity=language_school, amenity=music_school)"
            }
        }
    ]
}