{
    "type": "FeatureCollection",
    "features": [
        {
            "id": 72436,
            "type": "Feature",
            "geometry": {
                "type": "Point",
                "coordinates": [
                    16.87336,
                    50.51993
                ]
            },
            "properties": {
                "ref:rspo": 72436,
                "official_name": "Przedszkole Publiczne Nr 1W Kamie\u0144cu Z\u0105bkowickim",
                "name": "Przedszkole Publiczne Nr 1W Kamie\u0144cu Z\u0105bkowickim",
                "addr:country": "PL",
                "addr:postcode": "57-230",
                "addr:city": "Kamieniec Z\u0105bkowicki",
                "addr:street": "ul. Z\u0142otostocka",
                "addr:housenumber": "23",
                "addr:teryt:simc": 26212,
                "addr:teryt:sym_ul": 852631,
                "contact:phone": "+48 748173153",
                "contact:email": "basniowakrainapp1@interia.pl",
                "ref:regon": "890521942",
                "ref:vatin": "PL8871668018",
                "operator": "Gmina Kamieniec Z\u0105bkowicki",
                "operator:type": "government",
                "amenity": "kindergarten",
                "note": "Parent RSPO: 277791"
            }
        },
        {
            "id": 277791,
            "type": "Feature",
            "geometry": {
                "type": "Point",
                "coordinates": [
                    16.87924,
                    50.52263
                ]
            },
            "properties": {
                "ref:rspo": 277791,
                "official_name": "Zesp\u00f3\u0142 Szkolno-Przedszkolny Nr 1",
                "name": "Zesp\u00f3\u0142 Szkolno-Przedszkolny Nr 1",
                "addr:country": "PL",
                "addr:postcode": "57-230",
                "addr:city": "Kamieniec Z\u0105bkowicki",
                "addr:street": "ul. Zamkowa",
                "addr:housenumber": "4",
                "addr:teryt:simc": 25547,
                "addr:teryt:sym_ul": 852631,
                "contact:phone": "+48 748173230",
                "contact:email": "sekretariat@sp1kamzab.pl",
                "ref:regon": "389521230",
                "operator": "Gmina Kamieniec Z\u0105bkowicki",
                "operator:type": "government",
                "landuse": "education",
                "fixme": "amenity=school, amenity=college albo landuse=education w zale\u017cno\u015bci od tego, jakie plac\u00f3wki wchodz\u0105 w sk\u0142ad zespo\u0142u. Sprawd\u017a, kiedy stosowa\u0107 amenity=* a kiedy landuse=education.",
                "note": "Children RSPO: 3734;72436"
            }
        },
        {
            "id": 3734,
            "type": "Feature",
            "geometry": {
                "type": "Point",
                "coordinates": [
                    16.87146,
                    50.52508
                ]
            },
            "properties": {
                "isced:level": "1;2",
                "ref:rspo": 3734,
                "official_name": "Szko\u0142a Podstawowa Nr 1 im. Boles\u0142awa Chrobrego w Kamie\u0144cu Z\u0105bkowickim",
                "name": "Szko\u0142a Podstawowa Nr 1",
                "addr:country": "PL",
                "addr:postcode": "57-230",
                "addr:city": "Kamieniec Z\u0105bkowicki",
                "addr:street": "ul. Z\u0105bkowicka",
                "addr:housenumber": "24",
                "addr:teryt:simc": 25881,
                "addr:teryt:sym_ul": 852631,
                "contact:phone": "+48 748173230",
                "contact:email": "sekretsp1@wp.pl",
                "contact:website": "http:\/\/www.sp1kamieniec.szkolnastrona.pl",
                "ref:regon": "000560526",
                "ref:vatin": "PL8871344586",
                "operator": "Gmina Kamieniec Z\u0105bkowicki",
                "operator:type": "government",
                "amenity": "school",
                "note": "Parent RSPO: 277791"
            }
        },
        {
            "id": 79025,
            "type": "Feature",
            "geometry": {
                "type": "Point",
                "coordinates": [
                    16.88054,
                    50.52604
                ]
            },
            "properties": {
                "ref:rspo": 79025,
                "official_name": "Samorz\u0105dowe Przedszkole Nr 2 w Kamie\u0144cu Zabkowickim",
                "name": "Samorz\u0105dowe Przedszkole Nr 2 w Kamie\u0144cu Zabkowickim",
                "addr:country": "PL",
                "addr:postcode": "57-230",
                "addr:city": "Kamieniec Z\u0105bkowicki",
                "addr:street": "ul. Kolejowa",
                "addr:housenumber": "84",
                "addr:teryt:simc": 8828,
                "addr:teryt:sym_ul": 852631,
                "contact:phone": "+48 748173175",
                "ref:regon": "890543613",
                "ref:vatin": "PL8871012944",
                "operator": "Gmina Kamieniec Z\u0105bkowicki",
                "operator:type": "government",
                "amenity": "kindergarten",
                "note": "Parent RSPO: 72433"
            }
        },
        {
            "id": 72433,
            "type": "Feature",
            "geometry": {
                "type": "Point",
                "coordinates": [
                    16.89624,
                    50.53793
                ]
            },
            "properties": {
                "ref:rspo": 72433,
                "official_name": "Zesp\u00f3\u0142 Szkolno-Przedszkolny Nr 2",
                "name": "Zesp\u00f3\u0142 Szkolno-Przedszkolny Nr 2",
                "addr:country": "PL",
                "addr:postcode": "57-230",
                "addr:city": "Kamieniec Z\u0105bkowicki",
                "addr:street": "ul. Szkolna",
                "addr:housenumber": "10",
                "addr:teryt:simc": 21970,
                "addr:teryt:sym_ul": 852631,
                "contact:phone": "+48 748173163",
                "contact:email": "zs2_kamieniec@wp.pl",
                "ref:regon": "020574582",
                "ref:vatin": "PL8871757733",
                "operator": "Gmina Kamieniec Z\u0105bkowicki",
                "operator:type": "government",
                "landuse": "education",
                "fixme": "amenity=school, amenity=college albo landuse=education w zale\u017cno\u015bci od tego, jakie plac\u00f3wki wchodz\u0105 w sk\u0142ad zespo\u0142u. Sprawd\u017a, kiedy stosowa\u0107 amenity=* a kiedy landuse=education.",
                "note": "Children RSPO: 79025;111705"
            }
        },
        {
            "id": 84525,
            "type": "Feature",
            "geometry": {
                "type": "Point",
                "coordinates": [
                    16.89624,
                    50.5379
                ]
            },
            "properties": {
                "ref:rspo": 84525,
                "official_name": "Szkolne Schronisko M\u0142odzie\u017cowe Zacisze",
                "name": "Szkolne Schronisko M\u0142odzie\u017cowe Zacisze",
                "addr:country": "PL",
                "addr:postcode": "57-230",
                "addr:city": "Kamieniec Z\u0105bkowicki",
                "addr:street": "ul. Szkolna",
                "addr:housenumber": "10",
                "addr:teryt:simc": 21970,
                "addr:teryt:sym_ul": 852631,
                "contact:phone": "+48 748173163",
                "ref:regon": "022008310",
                "ref:vatin": "PL8871349520",
                "operator": "Gmina Kamieniec Z\u0105bkowicki",
                "operator:type": "government",
                "tourism": "hostel"
            }
        },
        {
            "id": 111705,
            "type": "Feature",
            "geometry": {
                "type": "Point",
                "coordinates": [
                    16.89624,
                    50.537870000000005
                ]
            },
            "properties": {
                "isced:level": "1;2",
                "ref:rspo": 111705,
                "official_name": "Szko\u0142a Podstawowa Nr 2 im. Papie\u017ca Jana Paw\u0142a II w Kamie\u0144cu Z\u0105bkowickim",
                "name": "Szko\u0142a Podstawowa Nr 2",
                "addr:country": "PL",
                "addr:postcode": "57-230",
                "addr:city": "Kamieniec Z\u0105bkowicki",
                "addr:street": "ul. Szkolna",
                "addr:housenumber": "10",
                "addr:teryt:simc": 21970,
                "addr:teryt:sym_ul": 852631,
                "contact:phone": "+48 748173163",
                "contact:email": "zs2_kamieniec@wp.pl",
                "contact:website": "https:\/\/zsnr2.edupage.org\/",
                "ref:regon": "001192906",
                "ref:vatin": "PL8871008693",
                "operator": "Gmina Kamieniec Z\u0105bkowicki",
                "operator:type": "government",
                "amenity": "school",
                "note": "Parent RSPO: 72433"
            }
        }
    ]
}