{
    "type": "FeatureCollection",
    "features": [
        {
            "id": 129062,
            "type": "Feature",
            "geometry": {
                "type": "Point",
                "coordinates": [
                    16.6619199,
                    50.5738
                ]
            },
            "properties": {
                "ref:rspo": 129062,
                "official_name": "Niepubliczny Dom Wczas\u00f3w Dzieci\u0119cych \"Srebrna G\u00f3ra\"",
                "name": "Niepubliczny Dom Wczas\u00f3w Dzieci\u0119cych \"Srebrna G\u00f3ra\"",
                "addr:postcode": "57-212",
                "addr:city": "Srebrna G\u00f3ra",
                "addr:street": "Widokowa",
                "addr:housenumber": "1",
                "addr:teryt:simc": 855500,
                "addr:teryt:sym_ul": 24012,
                "email": "arek2x@op.pl",
                "ref:regon": "362464041",
                "operator": "\"Pod Fortami\" Sp\u00f3\u0142ka Z Ograniczon\u0105 Odpowiedzialno\u015bci\u0105",
                "operator:type": "private",
                "leisure": "resort"
            }
        },
        {
            "id": 86408,
            "type": "Feature",
            "geometry": {
                "type": "Point",
                "coordinates": [
                    16.66497,
                    50.57668
                ]
            },
            "properties": {
                "ref:rspo": 86408,
                "official_name": "Przedszkole Niepubliczne \"Kajtek\"",
                "name": "Przedszkole Niepubliczne \"Kajtek\"",
                "addr:postcode": "57-215",
                "addr:city": "Srebrna G\u00f3ra",
                "addr:street": "K\u0105pielowa",
                "addr:housenumber": "2",
                "addr:door": "-",
                "addr:teryt:simc": 855500,
                "addr:teryt:sym_ul": 8294,
                "phone": "+48 748103924",
                "email": "przedszkole.kajtek@wp.pl",
                "website": "http:\/\/www.przedszkolesrebrnagora.pl",
                "ref:regon": "022011392",
                "ref:vatin": "PL8871066360",
                "operator": "Dane Do Uzupe\u0142nienia",
                "operator:type": "private",
                "amenity": "kindergarten"
            }
        },
        {
            "id": 3719,
            "type": "Feature",
            "geometry": {
                "type": "Point",
                "coordinates": [
                    16.6912999,
                    50.58259
                ]
            },
            "properties": {
                "isced:level": "1;2",
                "ref:rspo": 3719,
                "official_name": "Szko\u0142a Podstawowa w Budzowie Z Fili\u0105 w Grodziszczu",
                "name": "Szko\u0142a Podstawowa w Budzowie Z Fili\u0105 w Grodziszczu",
                "addr:postcode": "57-214",
                "addr:city": "Budz\u00f3w",
                "addr:street": "Henryka Pobo\u017cnego",
                "addr:housenumber": "1",
                "addr:teryt:simc": 855397,
                "addr:teryt:sym_ul": 6602,
                "phone": "+48 748164620",
                "email": "spbudzow@onet.eu",
                "website": "http:\/\/www.spbudzow.pl",
                "ref:regon": "021645930",
                "ref:vatin": "PL8871803143",
                "operator": "Gmina Stoszowice",
                "operator:type": "government",
                "amenity": "school",
                "note": "Children RSPO: 6926"
            }
        },
        {
            "id": 91513,
            "type": "Feature",
            "geometry": {
                "type": "Point",
                "coordinates": [
                    16.7422,
                    50.59962
                ]
            },
            "properties": {
                "ref:rspo": 91513,
                "official_name": "Przedszkole Niepubliczne \"Kolorowy Balonik\"",
                "name": "Przedszkole Niepubliczne \"Kolorowy Balonik\"",
                "addr:postcode": "57-213",
                "addr:place": "Stoszowice",
                "addr:housenumber": "34",
                "addr:door": "-",
                "addr:teryt:simc": 855517,
                "email": "kolorowybalonik@vp.pl",
                "ref:regon": "022021462",
                "ref:vatin": "PL8871066779",
                "operator": "Dane Do Uzupe\u0142nienia",
                "operator:type": "private",
                "amenity": "kindergarten"
            }
        },
        {
            "id": 6926,
            "type": "Feature",
            "geometry": {
                "type": "Point",
                "coordinates": [
                    16.65638,
                    50.62515
                ]
            },
            "properties": {
                "isced:level": "1;2",
                "ref:rspo": 6926,
                "official_name": "Filia w Grodziszczu - Szko\u0142a Podstawowa w Budzowie Z Fili\u0105 w Grodziszczu",
                "name": "Filia w Grodziszczu - Szko\u0142a Podstawowa w Budzowie Z Fili\u0105 w Grodziszczu",
                "addr:postcode": "57-215",
                "addr:place": "Grodziszcze",
                "addr:housenumber": "4",
                "addr:teryt:simc": 855411,
                "phone": "+48 748164620",
                "email": "spbudzow@onet.eu",
                "ref:regon": "216459300",
                "ref:vatin": "PL8871803143",
                "operator": "Gmina Stoszowice",
                "operator:type": "government",
                "amenity": "school",
                "note": "Parent RSPO: 3719"
            }
        },
        {
            "id": 3720,
            "type": "Feature",
            "geometry": {
                "type": "Point",
                "coordinates": [
                    16.72721,
                    50.64287
                ]
            },
            "properties": {
                "ref:rspo": 3720,
                "official_name": "Publiczne Przedszkole w Przedborowej",
                "name": "Publiczne Przedszkole w Przedborowej",
                "addr:postcode": "57-215",
                "addr:place": "Przedborowa",
                "addr:housenumber": "100",
                "addr:teryt:simc": 855470,
                "phone": "+48 748342463",
                "email": "mendyk_d@wp.pl",
                "ref:regon": "021662236",
                "ref:vatin": "PL8871803083",
                "operator": "Gmina Stoszowice",
                "operator:type": "government",
                "amenity": "kindergarten"
            }
        }
    ]
}