{
    "type": "FeatureCollection",
    "features": [
        {
            "id": 17071,
            "type": "Feature",
            "geometry": {
                "type": "Point",
                "coordinates": [
                    19.21803,
                    50.17514
                ]
            },
            "properties": {
                "isced:level": "1;2",
                "ref:rspo": 17071,
                "official_name": "Szko\u0142a Podstawowa Nr 5 Im Gustawa Morcinka w Mys\u0142owicach",
                "name": "Szko\u0142a Podstawowa Nr 5 Im Gustawa Morcinka w Mys\u0142owicach",
                "addr:postcode": "41-409",
                "addr:city": "Mys\u0142owice",
                "addr:street": "D\u0142uga",
                "addr:housenumber": "92",
                "addr:teryt:simc": 941487,
                "addr:teryt:sym_ul": 3839,
                "phone": "+48 322222304",
                "email": "sp5@myslowice.pl",
                "website": "http:\/\/www.sp5myslowice.szkolnastrona.pl",
                "ref:regon": "000721142",
                "ref:vatin": "PL2220832258",
                "operator": "Miasto Mys\u0142owice",
                "operator:type": "government",
                "amenity": "school"
            }
        },
        {
            "id": 3867,
            "type": "Feature",
            "geometry": {
                "type": "Point",
                "coordinates": [
                    19.22207,
                    50.17569
                ]
            },
            "properties": {
                "ref:rspo": 3867,
                "official_name": "Przedszkole Nr 19 w Mys\u0142owicach",
                "name": "Przedszkole Nr 19 w Mys\u0142owicach",
                "addr:postcode": "41-409",
                "addr:city": "Mys\u0142owice",
                "addr:street": "Ignacego \u0141ukasiewicza",
                "addr:housenumber": "34",
                "addr:teryt:simc": 941487,
                "addr:teryt:sym_ul": 11749,
                "phone": "+48 322221439",
                "email": "przedszkole19myslowice@onet.eu",
                "ref:regon": "271049246",
                "ref:vatin": "PL2220836204",
                "operator": "Miasto Mys\u0142owice",
                "operator:type": "government",
                "amenity": "kindergarten"
            }
        },
        {
            "id": 119526,
            "type": "Feature",
            "geometry": {
                "type": "Point",
                "coordinates": [
                    19.14628,
                    50.1805
                ]
            },
            "properties": {
                "ref:rspo": 119526,
                "official_name": "Gumisiowe Przedszkole",
                "name": "Gumisiowe Przedszkole",
                "addr:postcode": "41-400",
                "addr:city": "Mys\u0142owice",
                "addr:street": "Polskiego Czerwonego Krzy\u017ca",
                "addr:housenumber": "113a",
                "addr:teryt:simc": 941487,
                "addr:teryt:sym_ul": 17039,
                "phone": "+48 604504503",
                "email": "krasowy@gumisioweprzedszkole.pl",
                "ref:regon": "243357099",
                "operator": "Edyta Ziomek-Mazur",
                "operator:type": "private",
                "amenity": "kindergarten"
            }
        },
        {
            "id": 130506,
            "type": "Feature",
            "geometry": {
                "type": "Point",
                "coordinates": [
                    19.14267,
                    50.18347
                ]
            },
            "properties": {
                "ref:rspo": 130506,
                "official_name": "Zesp\u00f3\u0142 Szkolno -Przedszkolny Nr 4 w Mys\u0142owicach",
                "name": "Zesp\u00f3\u0142 Szkolno -Przedszkolny Nr 4 w Mys\u0142owicach",
                "addr:postcode": "41-400",
                "addr:city": "Mys\u0142owice",
                "addr:street": "Polskiego Czerwonego Krzy\u017ca",
                "addr:housenumber": "209b",
                "addr:teryt:simc": 941487,
                "addr:teryt:sym_ul": 17039,
                "phone": "+48 322225748",
                "email": "kras17@interia.pl",
                "website": "http:\/\/www.kras17.szkolnastrona.pl",
                "ref:regon": "364124987",
                "ref:vatin": "PL2220900847",
                "operator": "Miasto Mys\u0142owice",
                "operator:type": "government",
                "landuse": "education",
                "fixme": "amenity=school, amenity=college albo landuse=education w zale\u017cno\u015bci od tego, jakie plac\u00f3wki wchodz\u0105 w sk\u0142ad zespo\u0142u. Sprawd\u017a, kiedy stosowa\u0107 amenity=* a kiedy landuse=education.",
                "note": "Children RSPO: 3501;3864"
            }
        },
        {
            "id": 3501,
            "type": "Feature",
            "geometry": {
                "type": "Point",
                "coordinates": [
                    19.14267,
                    50.18344
                ]
            },
            "properties": {
                "isced:level": "1;2",
                "ref:rspo": 3501,
                "official_name": "Szko\u0142a Podstawowa Nr 17 im. Jana Paw\u0142a II w Mys\u0142owicach",
                "name": "Szko\u0142a Podstawowa Nr 17",
                "addr:postcode": "41-409",
                "addr:city": "Mys\u0142owice",
                "addr:street": "Polskiego Czerwonego Krzy\u017ca",
                "addr:housenumber": "209b",
                "addr:teryt:simc": 941487,
                "addr:teryt:sym_ul": 17039,
                "phone": "+48 322225748",
                "email": "kras17@interia.pl",
                "website": "http:\/\/www.kras17.szkolnastrona.pl",
                "ref:regon": "000721136",
                "ref:vatin": "PL2220833507",
                "operator": "Miasto Mys\u0142owice",
                "operator:type": "government",
                "amenity": "school",
                "note": "Parent RSPO: 130506"
            }
        },
        {
            "id": 3864,
            "type": "Feature",
            "geometry": {
                "type": "Point",
                "coordinates": [
                    19.14267,
                    50.18341
                ]
            },
            "properties": {
                "ref:rspo": 3864,
                "official_name": "Przedszkole Nr 17 w Mys\u0142owicach",
                "name": "Przedszkole Nr 17 w Mys\u0142owicach",
                "addr:postcode": "41-409",
                "addr:city": "Mys\u0142owice",
                "addr:street": "Polskiego Czerwonego Krzy\u017ca",
                "addr:housenumber": "209b",
                "addr:teryt:simc": 941487,
                "addr:teryt:sym_ul": 17039,
                "phone": "+48 322251223",
                "email": "kras17@interia.pl",
                "website": "http:\/\/www.kras17.szkolnastrona.pl",
                "ref:regon": "271048577",
                "ref:vatin": "PL2220831661",
                "operator": "Miasto Mys\u0142owice",
                "operator:type": "government",
                "amenity": "kindergarten",
                "note": "Parent RSPO: 130506"
            }
        },
        {
            "id": 3356,
            "type": "Feature",
            "geometry": {
                "type": "Point",
                "coordinates": [
                    19.16077,
                    50.18665
                ]
            },
            "properties": {
                "isced:level": "1;2",
                "ref:rspo": 3356,
                "official_name": "Szko\u0142a Podstawowa Nr 16 Z Oddzia\u0142mi Dwuj\u0119zycznymi im. Jerzego Chromika w Mys\u0142owicach",
                "name": "Szko\u0142a Podstawowa Nr 16 Z Oddzia\u0142mi Dwuj\u0119zycznymi",
                "addr:postcode": "41-409",
                "addr:city": "Mys\u0142owice",
                "addr:street": "Kosztowska",
                "addr:housenumber": "46",
                "addr:teryt:simc": 941487,
                "addr:teryt:sym_ul": 9523,
                "phone": "+48 322250096",
                "email": "szkola16@poczta.onet.pl",
                "website": "http:\/\/www.sp16myslowice.com",
                "ref:regon": "000721120",
                "ref:vatin": "PL2220836517",
                "operator": "Miasto Mys\u0142owice",
                "operator:type": "government",
                "amenity": "school"
            }
        },
        {
            "id": 3347,
            "type": "Feature",
            "geometry": {
                "type": "Point",
                "coordinates": [
                    19.1026,
                    50.1867
                ]
            },
            "properties": {
                "isced:level": "1;2",
                "ref:rspo": 3347,
                "official_name": "Szko\u0142a Podstawowa Nr 15 Z Oddzia\u0142ami Dwuj\u0119zycznymi im. Alfreda Szklarskiego w Mys\u0142owicach",
                "name": "Szko\u0142a Podstawowa Nr 15 Z Oddzia\u0142ami Dwuj\u0119zycznymi",
                "addr:postcode": "41-408",
                "addr:city": "Mys\u0142owice",
                "addr:street": "Piast\u00f3w \u015al\u0105skich",
                "addr:housenumber": "8",
                "addr:teryt:simc": 941487,
                "addr:teryt:sym_ul": 16060,
                "phone": "+48 322224718",
                "email": "sp15@poczta.onet.eu",
                "website": "http:\/\/www.sp15myslowice.szkolnastrona.pl",
                "ref:regon": "000721113",
                "ref:vatin": "PL2220831945",
                "operator": "Miasto Mys\u0142owice",
                "operator:type": "government",
                "amenity": "school"
            }
        },
        {
            "id": 3849,
            "type": "Feature",
            "geometry": {
                "type": "Point",
                "coordinates": [
                    19.10383,
                    50.18765
                ]
            },
            "properties": {
                "ref:rspo": 3849,
                "official_name": "Przedszkole Nr 15 w Mys\u0142owicach",
                "name": "Przedszkole Nr 15 w Mys\u0142owicach",
                "addr:postcode": "41-408",
                "addr:city": "Mys\u0142owice",
                "addr:street": "Edmunda Osma\u0144czyka",
                "addr:housenumber": "2",
                "addr:teryt:simc": 941487,
                "addr:teryt:sym_ul": 15327,
                "phone": "+48 322223227",
                "email": "przedszkole_15@myslowice.pl",
                "ref:regon": "270553860",
                "ref:vatin": "PL2220832264",
                "operator": "Miasto Mys\u0142owice",
                "operator:type": "government",
                "amenity": "kindergarten"
            }
        },
        {
            "id": 3865,
            "type": "Feature",
            "geometry": {
                "type": "Point",
                "coordinates": [
                    19.10221,
                    50.19117
                ]
            },
            "properties": {
                "ref:rspo": 3865,
                "official_name": "Przedszkole Nr 18 w Mys\u0142owicach",
                "name": "Przedszkole Nr 18 w Mys\u0142owicach",
                "addr:postcode": "41-408",
                "addr:city": "Mys\u0142owice",
                "addr:street": "Pocztowa",
                "addr:housenumber": "20",
                "addr:teryt:simc": 941487,
                "addr:teryt:sym_ul": 16579,
                "phone": "+48 322223284",
                "email": "przedszkole18myslowice@gmail.com",
                "website": "https:\/\/p18myslowice.przedszkolowo.pl\/",
                "ref:regon": "270537914",
                "ref:vatin": "PL2220833737",
                "operator": "Miasto Mys\u0142owice",
                "operator:type": "government",
                "amenity": "kindergarten"
            }
        },
        {
            "id": 18212,
            "type": "Feature",
            "geometry": {
                "type": "Point",
                "coordinates": [
                    19.10221,
                    50.19114
                ]
            },
            "properties": {
                "isced:level": "3",
                "ref:rspo": 18212,
                "official_name": "Technikum Nr 2 w Mys\u0142owicach",
                "name": "Technikum Nr 2 w Mys\u0142owicach",
                "addr:postcode": "41-408",
                "addr:city": "Mys\u0142owice",
                "addr:street": "Pocztowa",
                "addr:housenumber": "20",
                "addr:teryt:simc": 941487,
                "addr:teryt:sym_ul": 16579,
                "phone": "+48 322224672",
                "email": "sekretariat@ckziu-myslowice.pl",
                "website": "http:\/\/www.ckziu-myslowice.pl",
                "ref:regon": "271294678",
                "operator": "Miasto Mys\u0142owice",
                "operator:type": "government",
                "amenity": "school",
                "note": "Parent RSPO: 130503"
            }
        },
        {
            "id": 18217,
            "type": "Feature",
            "geometry": {
                "type": "Point",
                "coordinates": [
                    19.10221,
                    50.19111
                ]
            },
            "properties": {
                "isced:level": "3",
                "ref:rspo": 18217,
                "official_name": "Bran\u017cowa Szko\u0142a I Stopnia Nr 2 w Mys\u0142owicach",
                "name": "Bran\u017cowa Szko\u0142a I Stopnia Nr 2 w Mys\u0142owicach",
                "addr:postcode": "41-408",
                "addr:city": "Mys\u0142owice",
                "addr:street": "Pocztowa",
                "addr:housenumber": "20",
                "addr:teryt:simc": 941487,
                "addr:teryt:sym_ul": 16579,
                "phone": "+48 322222641",
                "email": "sekretariat@ckziu-myslowice.pl",
                "website": "http:\/\/www.ckziu-myslowice.pl",
                "ref:regon": "277877240",
                "operator": "Miasto Mys\u0142owice",
                "operator:type": "government",
                "amenity": "school",
                "note": "Parent RSPO: 130503"
            }
        },
        {
            "id": 3705,
            "type": "Feature",
            "geometry": {
                "type": "Point",
                "coordinates": [
                    19.15858,
                    50.19461
                ]
            },
            "properties": {
                "ref:rspo": 3705,
                "official_name": "Przedszkole Nr 10 w Mys\u0142owicach",
                "name": "Przedszkole Nr 10 w Mys\u0142owicach",
                "addr:postcode": "41-400",
                "addr:city": "Mys\u0142owice",
                "addr:street": "Niepodleg\u0142o\u015bci",
                "addr:housenumber": "44",
                "addr:teryt:simc": 941487,
                "addr:teryt:sym_ul": 14203,
                "phone": "+48 322250271",
                "email": "p10myslowice@op.pl",
                "ref:regon": "271049341",
                "ref:vatin": "PL2220836227",
                "operator": "Miasto Mys\u0142owice",
                "operator:type": "government",
                "amenity": "kindergarten"
            }
        },
        {
            "id": 3624,
            "type": "Feature",
            "geometry": {
                "type": "Point",
                "coordinates": [
                    19.12682,
                    50.19704
                ]
            },
            "properties": {
                "ref:rspo": 3624,
                "official_name": "Przedszkole Nr 2W Mys\u0142owicach",
                "name": "Przedszkole Nr 2W Mys\u0142owicach",
                "addr:postcode": "41-404",
                "addr:city": "Mys\u0142owice",
                "addr:street": "Marii Konopnickiej",
                "addr:housenumber": "1",
                "addr:teryt:simc": 941487,
                "addr:teryt:sym_ul": 9186,
                "phone": "+48 322252550",
                "email": "przedszkole.dwa@gmail.com",
                "ref:regon": "271506880",
                "ref:vatin": "PL2220836210",
                "operator": "Miasto Mys\u0142owice",
                "operator:type": "government",
                "amenity": "kindergarten",
                "note": "Parent RSPO: 114789"
            }
        },
        {
            "id": 114789,
            "type": "Feature",
            "geometry": {
                "type": "Point",
                "coordinates": [
                    19.1269,
                    50.1980999
                ]
            },
            "properties": {
                "ref:rspo": 114789,
                "official_name": "Zesp\u00f3\u0142 Szkolno - Przedszkolny Nr 3 w Mys\u0142owicach",
                "name": "Zesp\u00f3\u0142 Szkolno - Przedszkolny Nr 3 w Mys\u0142owicach",
                "addr:postcode": "41-400",
                "addr:city": "Mys\u0142owice",
                "addr:street": "Laryska",
                "addr:housenumber": "101",
                "addr:teryt:simc": 941487,
                "addr:teryt:sym_ul": 10642,
                "phone": "+48 322222766",
                "email": "zsp3myslowice.larysz@gmail.com",
                "website": "http:\/\/www.zsp3myslowice.szkolnastrona.pl",
                "ref:regon": "243276596",
                "ref:vatin": "PL2220896293",
                "operator": "Miasto Mys\u0142owice",
                "operator:type": "government",
                "landuse": "education",
                "fixme": "amenity=school, amenity=college albo landuse=education w zale\u017cno\u015bci od tego, jakie plac\u00f3wki wchodz\u0105 w sk\u0142ad zespo\u0142u. Sprawd\u017a, kiedy stosowa\u0107 amenity=* a kiedy landuse=education.",
                "note": "Children RSPO: 3491;3624"
            }
        },
        {
            "id": 3491,
            "type": "Feature",
            "geometry": {
                "type": "Point",
                "coordinates": [
                    19.1269,
                    50.1980699
                ]
            },
            "properties": {
                "isced:level": "1;2",
                "ref:rspo": 3491,
                "official_name": "Szko\u0142a Podstawowa Nr 11 im. \u015aw Jadwigi Kr\u00f3lowej Polski w Mys\u0142owicach",
                "name": "Szko\u0142a Podstawowa Nr 11",
                "addr:postcode": "41-404",
                "addr:city": "Mys\u0142owice",
                "addr:street": "Laryska",
                "addr:housenumber": "101",
                "addr:teryt:simc": 941487,
                "addr:teryt:sym_ul": 10642,
                "phone": "+48 322222766",
                "email": "zsp3myslowice.larysz@gmail.com",
                "website": "http:\/\/www.zsp3myslowice.szkolnastrona.pl",
                "ref:regon": "000721076",
                "ref:vatin": "PL2220836463",
                "operator": "Miasto Mys\u0142owice",
                "operator:type": "government",
                "amenity": "school",
                "note": "Parent RSPO: 114789"
            }
        },
        {
            "id": 3335,
            "type": "Feature",
            "geometry": {
                "type": "Point",
                "coordinates": [
                    19.1067,
                    50.2018
                ]
            },
            "properties": {
                "isced:level": "1;2",
                "ref:rspo": 3335,
                "official_name": "Szko\u0142a Podstawowa Nr 14 w Mys\u0142owicach",
                "name": "Szko\u0142a Podstawowa Nr 14 w Mys\u0142owicach",
                "addr:postcode": "41-400",
                "addr:city": "Mys\u0142owice",
                "addr:street": "3 Maja",
                "addr:housenumber": "19",
                "addr:teryt:simc": 941487,
                "addr:teryt:sym_ul": 29830,
                "phone": "+48 322223224",
                "email": "sp14myslowice@gmail.com",
                "website": "http:\/\/www.sp14myslowice.pl",
                "ref:regon": "000721107",
                "ref:vatin": "PL2220832703",
                "operator": "Miasto Mys\u0142owice",
                "operator:type": "government",
                "amenity": "school"
            }
        },
        {
            "id": 3622,
            "type": "Feature",
            "geometry": {
                "type": "Point",
                "coordinates": [
                    19.1560697,
                    50.2042894
                ]
            },
            "properties": {
                "ref:rspo": 3622,
                "official_name": "Przedszkole Nr 1 Z Oddzia\u0142ami Integracyjnymi w Mys\u0142owicach",
                "name": "Przedszkole Nr 1 Z Oddzia\u0142ami Integracyjnymi w Mys\u0142owicach",
                "addr:postcode": "41-404",
                "addr:city": "Mys\u0142owice",
                "addr:street": "Laryska",
                "addr:housenumber": "9",
                "addr:teryt:simc": 941487,
                "addr:teryt:sym_ul": 10642,
                "phone": "+48 322226920",
                "email": "przedn1zoddzintegra@wp.pl",
                "ref:regon": "270537200",
                "ref:vatin": "PL2220833766",
                "operator": "Miasto Mys\u0142owice",
                "operator:type": "government",
                "amenity": "kindergarten"
            }
        },
        {
            "id": 3320,
            "type": "Feature",
            "geometry": {
                "type": "Point",
                "coordinates": [
                    19.1246,
                    50.2097
                ]
            },
            "properties": {
                "ref:rspo": 3320,
                "official_name": "Zesp\u00f3\u0142 Szkolno - Przedszkolny Nr 2 w Mys\u0142owicach",
                "name": "Zesp\u00f3\u0142 Szkolno - Przedszkolny Nr 2 w Mys\u0142owicach",
                "addr:postcode": "41-400",
                "addr:city": "Mys\u0142owice",
                "addr:street": "J\u00f3zefa Wybickiego",
                "addr:housenumber": "79",
                "addr:teryt:simc": 941487,
                "addr:teryt:sym_ul": 24908,
                "phone": "+48 322222057",
                "email": "sp12myslowice@op.pl",
                "website": "http:\/\/www.zszp2myslowice.szkolnastrona.pl",
                "ref:regon": "243008944",
                "ref:vatin": "PL2220895017",
                "operator": "Miasto Mys\u0142owice",
                "operator:type": "government",
                "landuse": "education",
                "fixme": "amenity=school, amenity=college albo landuse=education w zale\u017cno\u015bci od tego, jakie plac\u00f3wki wchodz\u0105 w sk\u0142ad zespo\u0142u. Sprawd\u017a, kiedy stosowa\u0107 amenity=* a kiedy landuse=education.",
                "note": "Children RSPO: 6385;6386"
            }
        },
        {
            "id": 6385,
            "type": "Feature",
            "geometry": {
                "type": "Point",
                "coordinates": [
                    19.1246,
                    50.209669999999996
                ]
            },
            "properties": {
                "isced:level": "1;2",
                "ref:rspo": 6385,
                "official_name": "Szko\u0142a Podstawowa Nr 12 im. Bronis\u0142awa Pukowca w Mys\u0142owicach",
                "name": "Szko\u0142a Podstawowa Nr 12",
                "addr:postcode": "41-404",
                "addr:city": "Mys\u0142owice",
                "addr:street": "J\u00f3zefa Wybickiego",
                "addr:housenumber": "79",
                "addr:teryt:simc": 941487,
                "addr:teryt:sym_ul": 24908,
                "phone": "+48 322222057",
                "email": "sp12myslowice@op.pl",
                "website": "http:\/\/www.zszp2myslowice.pl",
                "ref:regon": "000721082",
                "operator": "Miasto Mys\u0142owice",
                "operator:type": "government",
                "amenity": "school",
                "note": "Parent RSPO: 3320"
            }
        },
        {
            "id": 6386,
            "type": "Feature",
            "geometry": {
                "type": "Point",
                "coordinates": [
                    19.1246,
                    50.20964
                ]
            },
            "properties": {
                "ref:rspo": 6386,
                "official_name": "Przedszkole Nr 11 w Mys\u0142owicach",
                "name": "Przedszkole Nr 11 w Mys\u0142owicach",
                "addr:postcode": "41-404",
                "addr:city": "Mys\u0142owice",
                "addr:street": "J\u00f3zefa Wybickiego",
                "addr:housenumber": "79",
                "addr:teryt:simc": 941487,
                "addr:teryt:sym_ul": 24908,
                "phone": "+48 322222057",
                "email": "sp12myslowice@op.pl",
                "website": "http:\/\/www.zszp2myslowice.pl",
                "ref:regon": "271505661",
                "operator": "Miasto Mys\u0142owice",
                "operator:type": "government",
                "amenity": "kindergarten",
                "note": "Parent RSPO: 3320"
            }
        },
        {
            "id": 113993,
            "type": "Feature",
            "geometry": {
                "type": "Point",
                "coordinates": [
                    19.1263,
                    50.2102
                ]
            },
            "properties": {
                "ref:rspo": 113993,
                "official_name": "Przedszkole Niepubliczne Madzik Place Kindergarten",
                "name": "Przedszkole Niepubliczne Madzik Place Kindergarten",
                "addr:postcode": "41-404",
                "addr:city": "Mys\u0142owice",
                "addr:street": "J\u00f3zefa Wybickiego",
                "addr:housenumber": "66",
                "addr:teryt:simc": 941487,
                "addr:teryt:sym_ul": 24908,
                "phone": "+48 501577194",
                "email": "morgi@madzikplace.com",
                "website": "http:\/\/www.madzikplace.com",
                "ref:regon": "243244461",
                "ref:vatin": "PL6341074847",
                "operator": "Firma \"Maran\" Jolanta Wietecha",
                "operator:type": "consortium",
                "amenity": "kindergarten"
            }
        },
        {
            "id": 3417,
            "type": "Feature",
            "geometry": {
                "type": "Point",
                "coordinates": [
                    19.134099960327,
                    50.214679718018
                ]
            },
            "properties": {
                "isced:level": "1;2",
                "ref:rspo": 3417,
                "official_name": "Szko\u0142a Podstawowa Nr 3 im. Kawaler\u00f3w Orderu U\u015bmiechu w Mys\u0142owicach",
                "name": "Szko\u0142a Podstawowa Nr 3",
                "addr:postcode": "41-400",
                "addr:city": "Mys\u0142owice",
                "addr:street": "1000-lecia Pa\u0144stwa Polskiego",
                "addr:housenumber": "6",
                "addr:teryt:simc": 941487,
                "addr:teryt:sym_ul": 11,
                "phone": "+48 322222539",
                "email": "sekretariat@sp3myslowice.pl",
                "website": "http:\/\/www.sp3.myslowice.pl",
                "ref:regon": "000721194",
                "ref:vatin": "PL2220723598",
                "operator": "Miasto Mys\u0142owice",
                "operator:type": "government",
                "amenity": "school"
            }
        },
        {
            "id": 3424,
            "type": "Feature",
            "geometry": {
                "type": "Point",
                "coordinates": [
                    19.134099960327,
                    50.214649718017995
                ]
            },
            "properties": {
                "isced:level": "1;2",
                "ref:rspo": 3424,
                "official_name": "Szko\u0142a Podstawowa Nr 10 Z Oddzia\u0142mi Dwuj\u0119zycznymi im. Karola Miarki w Mys\u0142owicach",
                "name": "Szko\u0142a Podstawowa Nr 10 Z Oddzia\u0142mi Dwuj\u0119zycznymi",
                "addr:postcode": "41-404",
                "addr:city": "Mys\u0142owice",
                "addr:street": "Miko\u0142aja Reja",
                "addr:housenumber": "28",
                "addr:teryt:simc": 941487,
                "addr:teryt:sym_ul": 18565,
                "phone": "+48 322225363",
                "email": "sp10myslowice@gmail.com",
                "website": "http:\/\/sp10.myslowice.net",
                "ref:regon": "000721260",
                "ref:vatin": "PL2220900876",
                "operator": "Miasto Mys\u0142owice",
                "operator:type": "government",
                "amenity": "school"
            }
        },
        {
            "id": 3627,
            "type": "Feature",
            "geometry": {
                "type": "Point",
                "coordinates": [
                    19.134099960327,
                    50.214619718018
                ]
            },
            "properties": {
                "ref:rspo": 3627,
                "official_name": "Przedszkole Nr 3 w Mys\u0142owicach",
                "name": "Przedszkole Nr 3 w Mys\u0142owicach",
                "addr:postcode": "41-412",
                "addr:city": "Mys\u0142owice",
                "addr:street": "Bernarda Wa\u0142y",
                "addr:housenumber": "3",
                "addr:teryt:simc": 941487,
                "addr:teryt:sym_ul": 32498,
                "phone": "+48 322223580",
                "email": "betik66@wp.pl",
                "ref:regon": "271048590",
                "ref:vatin": "PL2220832270",
                "operator": "Miasto Mys\u0142owice",
                "operator:type": "government",
                "amenity": "kindergarten"
            }
        },
        {
            "id": 3859,
            "type": "Feature",
            "geometry": {
                "type": "Point",
                "coordinates": [
                    19.134099960327,
                    50.214589718018
                ]
            },
            "properties": {
                "ref:rspo": 3859,
                "official_name": "Przedszkole Nr 16 Z Oddzia\u0142ami Integracyjnymi w Mys\u0142owicach",
                "name": "Przedszkole Nr 16 Z Oddzia\u0142ami Integracyjnymi w Mys\u0142owicach",
                "addr:postcode": "41-412",
                "addr:city": "Mys\u0142owice",
                "addr:street": "Franciszka Kawy",
                "addr:housenumber": "4",
                "addr:teryt:simc": 941487,
                "addr:teryt:sym_ul": 8240,
                "phone": "+48 322223686",
                "email": "przedszkole_16@myslowice.pl",
                "ref:regon": "271048672",
                "ref:vatin": "PL2220832212",
                "operator": "Miasto Mys\u0142owice",
                "operator:type": "government",
                "amenity": "kindergarten"
            }
        },
        {
            "id": 14766,
            "type": "Feature",
            "geometry": {
                "type": "Point",
                "coordinates": [
                    19.134099960327,
                    50.214559718017995
                ]
            },
            "properties": {
                "ref:rspo": 14766,
                "official_name": "Zesp\u00f3\u0142 Szk\u00f3\u0142 Specjalnych im. Janusza Korczaka w Mys\u0142owicach",
                "name": "Zesp\u00f3\u0142 Szk\u00f3\u0142 Specjalnych",
                "addr:postcode": "41-400",
                "addr:city": "Mys\u0142owice",
                "addr:street": "Bernarda Wa\u0142y",
                "addr:housenumber": "4",
                "addr:teryt:simc": 941487,
                "addr:teryt:sym_ul": 32498,
                "phone": "+48 322222056",
                "email": "zsspecjalnych@myslowice.pl",
                "website": "http:\/\/www.specjalistycznimyslowice.szkolnastrona.pl",
                "ref:regon": "000818717",
                "ref:vatin": "PL2220674871",
                "operator": "Miasto Mys\u0142owice",
                "operator:type": "government",
                "landuse": "education",
                "fixme": "amenity=school, amenity=college albo landuse=education w zale\u017cno\u015bci od tego, jakie plac\u00f3wki wchodz\u0105 w sk\u0142ad zespo\u0142u. Sprawd\u017a, kiedy stosowa\u0107 amenity=* a kiedy landuse=education.",
                "note": "Children RSPO: 40035;50395;50400"
            }
        },
        {
            "id": 40035,
            "type": "Feature",
            "geometry": {
                "type": "Point",
                "coordinates": [
                    19.134099960327,
                    50.214529718018
                ]
            },
            "properties": {
                "isced:level": "1;2",
                "ref:rspo": 40035,
                "official_name": "Szko\u0142a Podstawowa Nr 8 Specjalna w Mys\u0142owicach",
                "name": "Szko\u0142a Podstawowa Nr 8 Specjalna w Mys\u0142owicach",
                "addr:postcode": "41-400",
                "addr:city": "Mys\u0142owice",
                "addr:street": "Bernarda Wa\u0142y",
                "addr:housenumber": "4",
                "addr:teryt:simc": 941487,
                "addr:teryt:sym_ul": 32498,
                "phone": "+48 322222056",
                "email": "zsspecjalnych@myslowice.pl",
                "ref:regon": "000721248",
                "operator": "Miasto Mys\u0142owice",
                "operator:type": "government",
                "amenity": "school",
                "note": "Parent RSPO: 14766"
            }
        },
        {
            "id": 50395,
            "type": "Feature",
            "geometry": {
                "type": "Point",
                "coordinates": [
                    19.134099960327,
                    50.214499718018
                ]
            },
            "properties": {
                "ref:rspo": 50395,
                "official_name": "Szko\u0142a Przysposabiaj\u0105ca Do Pracy w Mys\u0142owicach",
                "name": "Szko\u0142a Przysposabiaj\u0105ca Do Pracy w Mys\u0142owicach",
                "addr:postcode": "41-400",
                "addr:city": "Mys\u0142owice",
                "addr:street": "Bernarda Wa\u0142y",
                "addr:housenumber": "4",
                "addr:teryt:simc": 941487,
                "addr:teryt:sym_ul": 32498,
                "phone": "+48 322222056",
                "ref:regon": "278287859",
                "operator": "Miasto Mys\u0142owice",
                "operator:type": "government",
                "amenity": "school",
                "note": "Parent RSPO: 14766"
            }
        },
        {
            "id": 50400,
            "type": "Feature",
            "geometry": {
                "type": "Point",
                "coordinates": [
                    19.134099960327,
                    50.214469718017995
                ]
            },
            "properties": {
                "isced:level": "3",
                "ref:rspo": 50400,
                "official_name": "Bran\u017cowa Szko\u0142a I Stopnia w Mys\u0142owicach",
                "name": "Bran\u017cowa Szko\u0142a I Stopnia w Mys\u0142owicach",
                "addr:postcode": "41-400",
                "addr:city": "Mys\u0142owice",
                "addr:street": "Bernarda Wa\u0142y",
                "addr:housenumber": "4",
                "addr:teryt:simc": 941487,
                "addr:teryt:sym_ul": 32498,
                "phone": "+48 322222056",
                "email": "zsspecjalnych@myslowice.pl",
                "ref:regon": "272150444",
                "operator": "Miasto Mys\u0142owice",
                "operator:type": "government",
                "amenity": "school",
                "note": "Parent RSPO: 14766"
            }
        },
        {
            "id": 3324,
            "type": "Feature",
            "geometry": {
                "type": "Point",
                "coordinates": [
                    19.1569,
                    50.21571
                ]
            },
            "properties": {
                "ref:rspo": 3324,
                "official_name": "Zesp\u00f3\u0142 Szkolno Przedszkolny Nr 1 w Mys\u0142owicach",
                "name": "Zesp\u00f3\u0142 Szkolno Przedszkolny Nr 1 w Mys\u0142owicach",
                "addr:postcode": "41-400",
                "addr:city": "Mys\u0142owice",
                "addr:street": "Genera\u0142a Jerzego Zi\u0119tka",
                "addr:housenumber": "116",
                "addr:teryt:simc": 941487,
                "addr:teryt:sym_ul": 52073,
                "phone": "+48 322222675",
                "email": "zsp01myslowice@gmail.com",
                "website": "http:\/\/www.zszp1.szkolnastrona.pl",
                "ref:regon": "243009010",
                "ref:vatin": "PL2220895046",
                "operator": "Miasto Mys\u0142owice",
                "operator:type": "government",
                "landuse": "education",
                "fixme": "amenity=school, amenity=college albo landuse=education w zale\u017cno\u015bci od tego, jakie plac\u00f3wki wchodz\u0105 w sk\u0142ad zespo\u0142u. Sprawd\u017a, kiedy stosowa\u0107 amenity=* a kiedy landuse=education.",
                "note": "Children RSPO: 6383;6384"
            }
        },
        {
            "id": 6383,
            "type": "Feature",
            "geometry": {
                "type": "Point",
                "coordinates": [
                    19.1569,
                    50.21568
                ]
            },
            "properties": {
                "isced:level": "1;2",
                "ref:rspo": 6383,
                "official_name": "Szko\u0142a Podstawowa Nr 6 im. Ks. Jana Twardowskiego w Mys\u0142owicach",
                "name": "Szko\u0142a Podstawowa Nr 6",
                "addr:postcode": "41-412",
                "addr:city": "Mys\u0142owice",
                "addr:street": "Genera\u0142a Jerzego Zi\u0119tka",
                "addr:housenumber": "116",
                "addr:teryt:simc": 941487,
                "addr:teryt:sym_ul": 52073,
                "phone": "+48 322222675",
                "email": "zsp01myslowice@gmail.com",
                "website": "http:\/\/zszp1.szkolnastrona.pl",
                "ref:regon": "000721225",
                "operator": "Miasto Mys\u0142owice",
                "operator:type": "government",
                "amenity": "school",
                "note": "Parent RSPO: 3324"
            }
        },
        {
            "id": 6384,
            "type": "Feature",
            "geometry": {
                "type": "Point",
                "coordinates": [
                    19.1569,
                    50.215650000000004
                ]
            },
            "properties": {
                "ref:rspo": 6384,
                "official_name": "Przedszkole Nr 6 w Mys\u0142owicach",
                "name": "Przedszkole Nr 6 w Mys\u0142owicach",
                "addr:postcode": "41-412",
                "addr:city": "Mys\u0142owice",
                "addr:street": "Genera\u0142a Jerzego Zi\u0119tka",
                "addr:housenumber": "116",
                "addr:teryt:simc": 941487,
                "addr:teryt:sym_ul": 52073,
                "phone": "+48 322226334",
                "email": "zsp01myslowice@gmail.com",
                "website": "http:\/\/www.zszp1.szkolnastrona.pl",
                "ref:regon": "271049306",
                "operator": "Miasto Mys\u0142owice",
                "operator:type": "government",
                "amenity": "kindergarten",
                "note": "Parent RSPO: 3324"
            }
        },
        {
            "id": 133153,
            "type": "Feature",
            "geometry": {
                "type": "Point",
                "coordinates": [
                    19.15936,
                    50.22016
                ]
            },
            "properties": {
                "ref:rspo": 133153,
                "official_name": "Publiczne Przedszkole Akademia Przed-Szkolna \"Skrzat\" Z Oddzia\u0142ami Integracyjnymi w Mys\u0142owicach",
                "name": "Publiczne Przedszkole Akademia Przed-Szkolna \"Skrzat\" Z Oddzia\u0142ami Integracyjnymi w Mys\u0142owicach",
                "addr:postcode": "41-400",
                "addr:city": "Mys\u0142owice",
                "addr:street": "Wojciecha Korfantego",
                "addr:housenumber": "9",
                "addr:teryt:simc": 941487,
                "addr:teryt:sym_ul": 9357,
                "phone": "+48 501128659",
                "email": "elaprzybytek@wp.pl",
                "ref:regon": "366730700",
                "operator": "El\u017cbieta Przybytek",
                "operator:type": "private",
                "amenity": "kindergarten"
            }
        },
        {
            "id": 133152,
            "type": "Feature",
            "geometry": {
                "type": "Point",
                "coordinates": [
                    19.15331,
                    50.22281
                ]
            },
            "properties": {
                "ref:rspo": 133152,
                "official_name": "Publiczne Przedszkole \"Cudaczek\" Z Oddzia\u0142ami Integracyjnymi w Mys\u0142owicach",
                "name": "Publiczne Przedszkole \"Cudaczek\" Z Oddzia\u0142ami Integracyjnymi w Mys\u0142owicach",
                "addr:postcode": "41-400",
                "addr:city": "Mys\u0142owice",
                "addr:street": "Genera\u0142a Jerzego Zi\u0119tka",
                "addr:housenumber": "20",
                "addr:teryt:simc": 941487,
                "addr:teryt:sym_ul": 52073,
                "phone": "+48 605218966",
                "email": "henkark@wp.pl",
                "ref:regon": "366730769",
                "operator": "Henryk Karkoszka",
                "operator:type": "private",
                "amenity": "kindergarten"
            }
        },
        {
            "id": 3497,
            "type": "Feature",
            "geometry": {
                "type": "Point",
                "coordinates": [
                    19.15843,
                    50.22303
                ]
            },
            "properties": {
                "isced:level": "1;2",
                "ref:rspo": 3497,
                "official_name": "Szko\u0142a Podstawowa Nr 13 Z Oddzia\u0142ami Integracyjnymi I Dwuj\u0119zycznymi im. Henryka Sienkiewicza w Mys\u0142owicach",
                "name": "Szko\u0142a Podstawowa Nr 13 Z Oddzia\u0142ami Integracyjnymi I Dwuj\u0119zycznymi",
                "addr:postcode": "41-400",
                "addr:city": "Mys\u0142owice",
                "addr:street": "Ksi\u0119dza Kardyna\u0142a Augusta Hlonda",
                "addr:housenumber": "14",
                "addr:teryt:simc": 941487,
                "addr:teryt:sym_ul": 52076,
                "phone": "+48 322223623",
                "email": "myslowice.sp13@gmail.com",
                "ref:regon": "001327329",
                "ref:vatin": "PL2220900899",
                "operator": "Miasto Mys\u0142owice",
                "operator:type": "government",
                "amenity": "school"
            }
        },
        {
            "id": 3642,
            "type": "Feature",
            "geometry": {
                "type": "Point",
                "coordinates": [
                    19.14992,
                    50.22946
                ]
            },
            "properties": {
                "ref:rspo": 3642,
                "official_name": "Przedszkole Integracyjne w Mys\u0142owicach",
                "name": "Przedszkole Integracyjne w Mys\u0142owicach",
                "addr:postcode": "41-400",
                "addr:city": "Mys\u0142owice",
                "addr:street": "Portowa",
                "addr:housenumber": "11a",
                "addr:teryt:simc": 941487,
                "addr:teryt:sym_ul": 17217,
                "phone": "+48 322222823",
                "email": "przedszkole7.myslowice@gmail.com",
                "ref:regon": "271048614",
                "ref:vatin": "PL2220832287",
                "operator": "Miasto Mys\u0142owice",
                "operator:type": "government",
                "amenity": "kindergarten"
            }
        },
        {
            "id": 62332,
            "type": "Feature",
            "geometry": {
                "type": "Point",
                "coordinates": [
                    19.1168,
                    50.232
                ]
            },
            "properties": {
                "ref:rspo": 62332,
                "official_name": "Bhp Ergo-Lex Marek Jab\u0142o\u0144ski",
                "name": "Bhp Ergo-Lex Marek Jab\u0142o\u0144ski",
                "addr:postcode": "41-400",
                "addr:city": "Mys\u0142owice",
                "addr:street": "Miko\u0142owska",
                "addr:housenumber": "29",
                "addr:teryt:simc": 941487,
                "addr:teryt:sym_ul": 12898,
                "phone": "+48 602100105",
                "email": "grzegorz.drzyzdrzyk@gmail.com",
                "ref:regon": "243082811",
                "operator": "Marek Jab\u0142o\u0144ski",
                "operator:type": "private",
                "fixme": "w zale\u017cno\u015bci od przedmiotu dzia\u0142alno\u015bci (np. amenity=training + training=*, amenity=dancing_school, amenity=language_school, amenity=music_school)"
            }
        },
        {
            "id": 15291,
            "type": "Feature",
            "geometry": {
                "type": "Point",
                "coordinates": [
                    19.1246699,
                    50.23514
                ]
            },
            "properties": {
                "ref:rspo": 15291,
                "official_name": "Centrum Kszta\u0142cenia Zawodowego w Mys\u0142owicach",
                "name": "Centrum Kszta\u0142cenia Zawodowego w Mys\u0142owicach",
                "addr:postcode": "41-400",
                "addr:city": "Mys\u0142owice",
                "addr:street": "Miko\u0142owska",
                "addr:housenumber": "44a",
                "addr:teryt:simc": 941487,
                "addr:teryt:sym_ul": 12898,
                "phone": "+48 322226919",
                "email": "sekretariat@ckpmyslowice.pl",
                "website": "http:\/\/www.ckpmyslowice.pl",
                "ref:regon": "276891195",
                "ref:vatin": "PL2220716196",
                "operator": "Miasto Mys\u0142owice",
                "operator:type": "government",
                "fixme": "w zale\u017cno\u015bci od przedmiotu dzia\u0142alno\u015bci (np. amenity=training + training=*, amenity=dancing_school, amenity=language_school, amenity=music_school) albo amenity=school, amenity=college, albo landuse=education w zale\u017cno\u015bci od tego, jakie plac\u00f3wki wchodz\u0105 w sk\u0142ad zespo\u0142u. Sprawd\u017a, kiedy stosowa\u0107 amenity=* a kiedy landuse=education.",
                "note": "Parent RSPO: 130503"
            }
        },
        {
            "id": 130503,
            "type": "Feature",
            "geometry": {
                "type": "Point",
                "coordinates": [
                    19.12577,
                    50.23574
                ]
            },
            "properties": {
                "ref:rspo": 130503,
                "official_name": "Centrum Kszta\u0142cenia Zawodowego I Ustawicznego w Mys\u0142owicach",
                "name": "Centrum Kszta\u0142cenia Zawodowego I Ustawicznego w Mys\u0142owicach",
                "addr:postcode": "41-400",
                "addr:city": "Mys\u0142owice",
                "addr:street": "Miko\u0142owska",
                "addr:housenumber": "44",
                "addr:teryt:simc": 941487,
                "addr:teryt:sym_ul": 12898,
                "phone": "+48 322222641",
                "email": "sekretariat@ckziu-myslowice.pl",
                "website": "http:\/\/www.ckziu-myslowice.pl",
                "ref:regon": "364124349",
                "ref:vatin": "PL2220900818",
                "operator": "Miasto Mys\u0142owice",
                "operator:type": "government",
                "landuse": "education",
                "fixme": "amenity=school, amenity=college albo landuse=education w zale\u017cno\u015bci od tego, jakie plac\u00f3wki wchodz\u0105 w sk\u0142ad zespo\u0142u. Sprawd\u017a, kiedy stosowa\u0107 amenity=* a kiedy landuse=education.",
                "note": "Children RSPO: 15291;17237;17260;17328;18164;18180;18212;18217"
            }
        },
        {
            "id": 17237,
            "type": "Feature",
            "geometry": {
                "type": "Point",
                "coordinates": [
                    19.12577,
                    50.23571
                ]
            },
            "properties": {
                "isced:level": "3",
                "ref:rspo": 17237,
                "official_name": "Bran\u017cowa Szko\u0142a I Stopnia Nr 1 im. Walentego Ro\u017adzie\u0144skiego w Mys\u0142owicach",
                "name": "Bran\u017cowa Szko\u0142a I Stopnia Nr 1",
                "addr:postcode": "41-400",
                "addr:city": "Mys\u0142owice",
                "addr:street": "Miko\u0142owska",
                "addr:housenumber": "44",
                "addr:teryt:simc": 941487,
                "addr:teryt:sym_ul": 12898,
                "phone": "+48 322222641",
                "email": "sekretariat@ckziu-myslowice.pl",
                "website": "http:\/\/www.ckziu-myslowice.pl",
                "ref:regon": "272151337",
                "operator": "Miasto Mys\u0142owice",
                "operator:type": "government",
                "amenity": "school",
                "note": "Parent RSPO: 130503"
            }
        },
        {
            "id": 17260,
            "type": "Feature",
            "geometry": {
                "type": "Point",
                "coordinates": [
                    19.12577,
                    50.23568
                ]
            },
            "properties": {
                "isced:level": "3",
                "ref:rspo": 17260,
                "official_name": "Technikum Nr 1 w Mys\u0142owicach",
                "name": "Technikum Nr 1 w Mys\u0142owicach",
                "addr:postcode": "41-400",
                "addr:city": "Mys\u0142owice",
                "addr:street": "Miko\u0142owska",
                "addr:housenumber": "44",
                "addr:teryt:simc": 941487,
                "addr:teryt:sym_ul": 12898,
                "phone": "+48 322222641",
                "email": "sekretariat@ckziu-myslowice.pl",
                "website": "http:\/\/www.ckziu-myslowice.pl",
                "ref:regon": "272151389",
                "operator": "Miasto Mys\u0142owice",
                "operator:type": "government",
                "amenity": "school",
                "note": "Parent RSPO: 130503"
            }
        },
        {
            "id": 17328,
            "type": "Feature",
            "geometry": {
                "type": "Point",
                "coordinates": [
                    19.12577,
                    50.23565
                ]
            },
            "properties": {
                "isced:level": "3",
                "ref:rspo": 17328,
                "official_name": "Liceum Og\u00f3lnokszta\u0142c\u0105ce dla Doros\u0142ych w Mys\u0142owicach",
                "name": "Liceum Og\u00f3lnokszta\u0142c\u0105ce dla Doros\u0142ych w Mys\u0142owicach",
                "addr:postcode": "41-400",
                "addr:city": "Mys\u0142owice",
                "addr:street": "Miko\u0142owska",
                "addr:housenumber": "44",
                "addr:teryt:simc": 941487,
                "addr:teryt:sym_ul": 12898,
                "phone": "+48 322222641",
                "email": "sekretariat@ckziu-myslowice.pl",
                "website": "http:\/\/www.ckziu-myslowice.pl",
                "ref:regon": "278116862",
                "operator": "Miasto Mys\u0142owice",
                "operator:type": "government",
                "amenity": "school",
                "note": "Parent RSPO: 130503"
            }
        },
        {
            "id": 18164,
            "type": "Feature",
            "geometry": {
                "type": "Point",
                "coordinates": [
                    19.12577,
                    50.23562
                ]
            },
            "properties": {
                "isced:level": "3",
                "ref:rspo": 18164,
                "official_name": "Bran\u017cowa Szko\u0142a I Stopnia Nr 3 im.kardyna\u0142a Augusta Hlonda w Mys\u0142owicach",
                "name": "Bran\u017cowa Szko\u0142a I Stopnia Nr 3 im.kardyna\u0142a Augusta Hlonda w Mys\u0142owicach",
                "addr:postcode": "41-400",
                "addr:city": "Mys\u0142owice",
                "addr:street": "Miko\u0142owska",
                "addr:housenumber": "44",
                "addr:teryt:simc": 941487,
                "addr:teryt:sym_ul": 12898,
                "phone": "+48 322222641",
                "email": "sekretariat@ckziu-myslowice.pl",
                "website": "http:\/\/www.ckziu-myslowice.pl",
                "ref:regon": "277873466",
                "operator": "Miasto Mys\u0142owice",
                "operator:type": "government",
                "amenity": "school",
                "note": "Parent RSPO: 130503"
            }
        },
        {
            "id": 18180,
            "type": "Feature",
            "geometry": {
                "type": "Point",
                "coordinates": [
                    19.12577,
                    50.23559
                ]
            },
            "properties": {
                "isced:level": "3",
                "ref:rspo": 18180,
                "official_name": "Technikum Nr 3 im. Kardyna\u0142a Augusta Hlonda w Mys\u0142owicach",
                "name": "Technikum Nr 3",
                "addr:postcode": "41-400",
                "addr:city": "Mys\u0142owice",
                "addr:street": "Miko\u0142owska",
                "addr:housenumber": "44",
                "addr:teryt:simc": 941487,
                "addr:teryt:sym_ul": 12898,
                "phone": "+48 322222641",
                "email": "sekretariat@ckziu-myslowice.pl",
                "website": "http:\/\/www.ckziu-myslowice.pl",
                "ref:regon": "240450770",
                "operator": "Miasto Mys\u0142owice",
                "operator:type": "government",
                "amenity": "school",
                "note": "Parent RSPO: 130503"
            }
        },
        {
            "id": 3737,
            "type": "Feature",
            "geometry": {
                "type": "Point",
                "coordinates": [
                    19.13577,
                    50.23604
                ]
            },
            "properties": {
                "ref:rspo": 3737,
                "official_name": "Przedszkole Nr 12 w Mys\u0142owicach",
                "name": "Przedszkole Nr 12 w Mys\u0142owicach",
                "addr:postcode": "41-400",
                "addr:city": "Mys\u0142owice",
                "addr:street": "Boles\u0142awa Prusa",
                "addr:housenumber": "5",
                "addr:teryt:simc": 941487,
                "addr:teryt:sym_ul": 17577,
                "phone": "+48 322225305",
                "email": "przedszkolenr12.myslowice@gmail.com",
                "website": "http:\/\/przedszkole12.myslowice.prv.pl",
                "ref:regon": "271048666",
                "ref:vatin": "PL2220840186",
                "operator": "Miasto Mys\u0142owice",
                "operator:type": "government",
                "amenity": "kindergarten"
            }
        },
        {
            "id": 3651,
            "type": "Feature",
            "geometry": {
                "type": "Point",
                "coordinates": [
                    19.12099,
                    50.23653
                ]
            },
            "properties": {
                "ref:rspo": 3651,
                "official_name": "Przedszkole Nr 9 w Mys\u0142owicach",
                "name": "Przedszkole Nr 9 w Mys\u0142owicach",
                "addr:postcode": "41-400",
                "addr:city": "Mys\u0142owice",
                "addr:street": "Janowska",
                "addr:housenumber": "2",
                "addr:teryt:simc": 941487,
                "addr:teryt:sym_ul": 7205,
                "phone": "+48 322226311",
                "email": "przedszkolenr9@o2.pl",
                "ref:regon": "271050048",
                "ref:vatin": "PL2220833743",
                "operator": "Miasto Mys\u0142owice",
                "operator:type": "government",
                "amenity": "kindergarten"
            }
        },
        {
            "id": 3458,
            "type": "Feature",
            "geometry": {
                "type": "Point",
                "coordinates": [
                    19.13727,
                    50.2371399
                ]
            },
            "properties": {
                "isced:level": "1;2",
                "ref:rspo": 3458,
                "official_name": "Szko\u0142a Podstawowa Nr 7 Z Oddzia\u0142ami Dwuj\u0119zycznymi im. Kornela Makuszy\u0144skiego w Mys\u0142owicach",
                "name": "Szko\u0142a Podstawowa Nr 7 Z Oddzia\u0142ami Dwuj\u0119zycznymi",
                "addr:postcode": "41-400",
                "addr:city": "Mys\u0142owice",
                "addr:street": "G\u00f3rnicza",
                "addr:housenumber": "4",
                "addr:teryt:simc": 941487,
                "addr:teryt:sym_ul": 5962,
                "phone": "+48 322225957",
                "email": "sp7_myslowice@op.pl",
                "ref:regon": "000721231",
                "ref:vatin": "PL2220832293",
                "operator": "Miasto Mys\u0142owice",
                "operator:type": "government",
                "amenity": "school"
            }
        },
        {
            "id": 119461,
            "type": "Feature",
            "geometry": {
                "type": "Point",
                "coordinates": [
                    19.14356,
                    50.23745
                ]
            },
            "properties": {
                "isced:level": "4",
                "ref:rspo": 119461,
                "official_name": "Szko\u0142a Policealna \"Socius\"",
                "name": "Szko\u0142a Policealna \"Socius\"",
                "addr:postcode": "41-400",
                "addr:city": "Mys\u0142owice",
                "addr:street": "Powsta\u0144c\u00f3w",
                "addr:housenumber": "19",
                "addr:teryt:simc": 941487,
                "addr:teryt:sym_ul": 17354,
                "phone": "+48 327723780",
                "email": "rektorat@socius.edu.pl",
                "ref:regon": "243356361",
                "operator": "Towarzystwo Jezusowe, Prowincja Polski Po\u0142udniowej",
                "operator:type": "religious",
                "amenity": "college"
            }
        },
        {
            "id": 133689,
            "type": "Feature",
            "geometry": {
                "type": "Point",
                "coordinates": [
                    19.14356,
                    50.23742
                ]
            },
            "properties": {
                "isced:level": "1;2",
                "ref:rspo": 133689,
                "official_name": "Publiczna Szko\u0142a Podstawowa Jezuit\u00f3w w Mys\u0142owicach",
                "name": "Publiczna Szko\u0142a Podstawowa Jezuit\u00f3w w Mys\u0142owicach",
                "addr:postcode": "41-400",
                "addr:city": "Mys\u0142owice",
                "addr:street": "Powsta\u0144c\u00f3w",
                "addr:housenumber": "19",
                "addr:teryt:simc": 941487,
                "addr:teryt:sym_ul": 17354,
                "phone": "+48 327723771",
                "email": "sekretariat@pspj.edu.pl",
                "website": "http:\/\/www.pspj.edu.pl",
                "ref:regon": "367539275",
                "operator": "Towarzystwo Jezusowe, Prowincja Polski Po\u0142udniowej",
                "operator:type": "religious",
                "amenity": "school"
            }
        },
        {
            "id": 272173,
            "type": "Feature",
            "geometry": {
                "type": "Point",
                "coordinates": [
                    19.14356,
                    50.237390000000005
                ]
            },
            "properties": {
                "ref:rspo": 272173,
                "official_name": "Przedszkole Montessori Ziarno",
                "name": "Przedszkole Montessori Ziarno",
                "addr:postcode": "41-400",
                "addr:city": "Mys\u0142owice",
                "addr:street": "Powsta\u0144c\u00f3w",
                "addr:housenumber": "19",
                "addr:teryt:simc": 941487,
                "addr:teryt:sym_ul": 17354,
                "phone": "+48 327723780",
                "email": "kontakt@montessoriziarno.pl",
                "ref:regon": "383992720",
                "ref:vatin": "PL2220916908",
                "operator": "Towarzystwo Jezusowe, Prowincja Polski Po\u0142udniowej (Jezuici)",
                "operator:type": "religious",
                "amenity": "kindergarten"
            }
        },
        {
            "id": 38555,
            "type": "Feature",
            "geometry": {
                "type": "Point",
                "coordinates": [
                    19.14356,
                    50.23736
                ]
            },
            "properties": {
                "ref:rspo": 38555,
                "official_name": "Pedagogiczna Biblioteka Wojew\u00f3dzka im. J. Lompy w Katowicach Filia w Mys\u0142owicach",
                "name": "Pedagogiczna Biblioteka Wojew\u00f3dzka",
                "addr:postcode": "41-400",
                "addr:city": "Mys\u0142owice",
                "addr:street": "Powsta\u0144c\u00f3w",
                "addr:housenumber": "19",
                "addr:teryt:simc": 941487,
                "addr:teryt:sym_ul": 17354,
                "phone": "+48 322250433",
                "email": "myslowice@pbw.katowice.pl",
                "website": "http:\/\/www.myslowice.pbw.katowice.pl",
                "ref:regon": "195400000",
                "ref:vatin": "PL6341759249",
                "operator": "Wojew\u00f3dztwo \u015al\u0105skie",
                "operator:type": "government",
                "amenity": "library",
                "note": "Parent RSPO: 25643"
            }
        },
        {
            "id": 17188,
            "type": "Feature",
            "geometry": {
                "type": "Point",
                "coordinates": [
                    19.13707,
                    50.23804
                ]
            },
            "properties": {
                "isced:level": "3",
                "ref:rspo": 17188,
                "official_name": "I Liceum Og\u00f3lnokszta\u0142c\u0105ce im. Tadeusza Ko\u015bciuszki w Mys\u0142owicach",
                "name": "I Liceum Og\u00f3lnokszta\u0142c\u0105ce",
                "addr:postcode": "41-400",
                "addr:city": "Mys\u0142owice",
                "addr:street": "Adama Mickiewicza",
                "addr:housenumber": "6-8",
                "addr:teryt:simc": 941487,
                "addr:teryt:sym_ul": 12740,
                "phone": "+48 322222438",
                "email": "lomyslowice@gmail.co",
                "website": "http:\/\/www.kosciuszko.pl",
                "ref:regon": "000722325",
                "operator": "Miasto Mys\u0142owice",
                "operator:type": "government",
                "amenity": "school"
            }
        },
        {
            "id": 15311,
            "type": "Feature",
            "geometry": {
                "type": "Point",
                "coordinates": [
                    19.13634,
                    50.23923
                ]
            },
            "properties": {
                "ref:rspo": 15311,
                "official_name": "M\u0142odzie\u017cowy Dom Kultury w Mys\u0142owicach",
                "name": "M\u0142odzie\u017cowy Dom Kultury w Mys\u0142owicach",
                "addr:postcode": "41-400",
                "addr:city": "Mys\u0142owice",
                "addr:street": "Miko\u0142owska",
                "addr:housenumber": "3",
                "addr:teryt:simc": 941487,
                "addr:teryt:sym_ul": 12898,
                "phone": "+48 322222545",
                "email": "sekretariat@mdk.edu.pl",
                "website": "http:\/\/www.mdk.edu.pl",
                "ref:regon": "000722348",
                "ref:vatin": "PL2220731149",
                "operator": "Miasto Mys\u0142owice",
                "operator:type": "government",
                "amenity": "community_centre",
                "community_centre:for": "juvenile"
            }
        },
        {
            "id": 15670,
            "type": "Feature",
            "geometry": {
                "type": "Point",
                "coordinates": [
                    19.13634,
                    50.2392
                ]
            },
            "properties": {
                "isced:level": "3",
                "ref:rspo": 15670,
                "official_name": "Ii Liceum Og\u00f3lnokszta\u0142c\u0105ce im. Powsta\u0144c\u00f3w \u015aL\u0105skich w Mys\u0142owicach",
                "name": "Ii Liceum Og\u00f3lnokszta\u0142c\u0105ce",
                "addr:postcode": "41-400",
                "addr:city": "Mys\u0142owice",
                "addr:street": "Miko\u0142owska",
                "addr:housenumber": "3",
                "addr:teryt:simc": 941487,
                "addr:teryt:sym_ul": 12898,
                "phone": "+48 322222385",
                "email": "lo_2@myslowice.pl",
                "website": "http:\/\/www.drugielo.pl",
                "ref:regon": "271196250",
                "ref:vatin": "PL2220832241",
                "operator": "Miasto Mys\u0142owice",
                "operator:type": "government",
                "amenity": "school"
            }
        },
        {
            "id": 17102,
            "type": "Feature",
            "geometry": {
                "type": "Point",
                "coordinates": [
                    19.13247,
                    50.23994
                ]
            },
            "properties": {
                "isced:level": "1;2",
                "ref:rspo": 17102,
                "official_name": "Szko\u0142a Podstawowa Nr 9 im. Bernarda \u015awierczyny w Mys\u0142owicach",
                "name": "Szko\u0142a Podstawowa Nr 9",
                "addr:postcode": "41-400",
                "addr:city": "Mys\u0142owice",
                "addr:street": "Armii Krajowej",
                "addr:housenumber": "30",
                "addr:teryt:simc": 941487,
                "addr:teryt:sym_ul": 432,
                "phone": "+48 32225439",
                "email": "sp9myslowice@wp.pl",
                "website": "http:\/\/sp9myslowice.szkolnastrona.pl",
                "ref:regon": "000721254",
                "ref:vatin": "PL2220833482",
                "operator": "Miasto Mys\u0142owice",
                "operator:type": "government",
                "amenity": "school"
            }
        },
        {
            "id": 3637,
            "type": "Feature",
            "geometry": {
                "type": "Point",
                "coordinates": [
                    19.13197,
                    50.24044
                ]
            },
            "properties": {
                "ref:rspo": 3637,
                "official_name": "Przedszkole Nr 5 w Mys\u0142owicach",
                "name": "Przedszkole Nr 5 w Mys\u0142owicach",
                "addr:postcode": "41-400",
                "addr:city": "Mys\u0142owice",
                "addr:street": "Armii Krajowej",
                "addr:housenumber": "28",
                "addr:teryt:simc": 941487,
                "addr:teryt:sym_ul": 432,
                "phone": "+48 322222672",
                "email": "malgorzata.przedszkole5@vp.pl",
                "ref:regon": "271048583",
                "ref:vatin": "PL2220834211",
                "operator": "Miasto Mys\u0142owice",
                "operator:type": "government",
                "amenity": "kindergarten"
            }
        },
        {
            "id": 3631,
            "type": "Feature",
            "geometry": {
                "type": "Point",
                "coordinates": [
                    19.13343,
                    50.24103
                ]
            },
            "properties": {
                "ref:rspo": 3631,
                "official_name": "Przedszkole Nr 4 w Mys\u0142owicach",
                "name": "Przedszkole Nr 4 w Mys\u0142owicach",
                "addr:postcode": "41-400",
                "addr:city": "Mys\u0142owice",
                "addr:street": "Stanis\u0142awa Wyspia\u0144skiego",
                "addr:housenumber": "16a",
                "addr:teryt:simc": 941487,
                "addr:teryt:sym_ul": 25084,
                "phone": "+48 322222633",
                "email": "przedszkole_4@myslowice.pl",
                "ref:regon": "271049252",
                "ref:vatin": "PL2220833772",
                "operator": "Miasto Mys\u0142owice",
                "operator:type": "government",
                "amenity": "kindergarten"
            }
        },
        {
            "id": 3870,
            "type": "Feature",
            "geometry": {
                "type": "Point",
                "coordinates": [
                    19.1095,
                    50.242
                ]
            },
            "properties": {
                "ref:rspo": 3870,
                "official_name": "Przedszkole Nr 20 im. Misia Uszatka w Mys\u0142owicach",
                "name": "Przedszkole Nr 20",
                "addr:postcode": "41-400",
                "addr:city": "Mys\u0142owice",
                "addr:street": "Gabrieli Zapolskiej",
                "addr:housenumber": "1",
                "addr:teryt:simc": 941487,
                "addr:teryt:sym_ul": 25632,
                "phone": "+48 322223648",
                "email": "p20mce.mis.uszatek@gmail.com",
                "ref:regon": "271049298",
                "ref:vatin": "PL2220832726",
                "operator": "Miasto Mys\u0142owice",
                "operator:type": "government",
                "amenity": "kindergarten"
            }
        },
        {
            "id": 49542,
            "type": "Feature",
            "geometry": {
                "type": "Point",
                "coordinates": [
                    19.1383607,
                    50.2425095
                ]
            },
            "properties": {
                "ref:rspo": 49542,
                "official_name": "Przedszkole Niepubliczne \"Motylek\" Z Oddzia\u0142em Integracyjnym w Mys\u0142owicach",
                "name": "Przedszkole Niepubliczne \"Motylek\" Z Oddzia\u0142em Integracyjnym w Mys\u0142owicach",
                "addr:postcode": "41-400",
                "addr:city": "Mys\u0142owice",
                "addr:street": "Towarowa",
                "addr:housenumber": "1",
                "addr:teryt:simc": 941487,
                "addr:teryt:sym_ul": 22907,
                "phone": "+48 322226881",
                "email": "pnmotylek@gmail.com",
                "ref:regon": "243077767",
                "operator": "1. Firma Handlowo-Us\u0142ugowa Andrzej Motyl 2. Handlowa Sp\u00f3\u0142ka Cywilna \"Centrum - 4\" Andrzej Motyl",
                "operator:type": "consortium",
                "amenity": "kindergarten"
            }
        },
        {
            "id": 18107,
            "type": "Feature",
            "geometry": {
                "type": "Point",
                "coordinates": [
                    19.134649276733,
                    50.242740631104
                ]
            },
            "properties": {
                "ref:rspo": 18107,
                "official_name": "Niepubliczne Przedszkole Integracyjne Z Oddzia\u0142em Specjalnym \"Zielona Lokomotywa\"",
                "name": "Niepubliczne Przedszkole Integracyjne Z Oddzia\u0142em Specjalnym \"Zielona Lokomotywa\"",
                "addr:postcode": "41-409",
                "addr:city": "Mys\u0142owice",
                "addr:street": "G\u00f3rno\u015bl\u0105ska",
                "addr:housenumber": "5",
                "addr:teryt:simc": 941487,
                "addr:teryt:sym_ul": 5976,
                "phone": "+48 660729903",
                "email": "przedszkole@noemasoft.pl",
                "ref:regon": "243048642",
                "operator": "Noemasoft Sp\u00f3\u0142ka Z Ograniczon\u0105 Odpowiedzialno\u015bci\u0105",
                "operator:type": "private",
                "amenity": "kindergarten"
            }
        },
        {
            "id": 3767,
            "type": "Feature",
            "geometry": {
                "type": "Point",
                "coordinates": [
                    19.1297119,
                    50.2431262
                ]
            },
            "properties": {
                "ref:rspo": 3767,
                "official_name": "Przedszkole Nr 13 im.janusza Korczaka w Mys\u0142owicach",
                "name": "Przedszkole Nr 13 im.janusza Korczaka w Mys\u0142owicach",
                "addr:postcode": "41-400",
                "addr:city": "Mys\u0142owice",
                "addr:street": "Armii Krajowej",
                "addr:housenumber": "19",
                "addr:teryt:simc": 941487,
                "addr:teryt:sym_ul": 432,
                "phone": "+48 322222659",
                "email": "przedszkole.13@vp.pl",
                "ref:regon": "271049281",
                "ref:vatin": "PL2220831690",
                "operator": "Miasto Mys\u0142owice",
                "operator:type": "government",
                "amenity": "kindergarten"
            }
        },
        {
            "id": 15375,
            "type": "Feature",
            "geometry": {
                "type": "Point",
                "coordinates": [
                    19.11654,
                    50.24319
                ]
            },
            "properties": {
                "ref:rspo": 15375,
                "official_name": "Poradnia Psychologiczno-Pedagogiczna w Mys\u0142owicach",
                "name": "Poradnia Psychologiczno-Pedagogiczna w Mys\u0142owicach",
                "addr:postcode": "41-400",
                "addr:city": "Mys\u0142owice",
                "addr:street": "Wielka Skotnica",
                "addr:housenumber": "84a",
                "addr:teryt:simc": 941487,
                "addr:teryt:sym_ul": 24074,
                "phone": "+48 322225203",
                "email": "pppmyslowice@wp.pl",
                "ref:regon": "000722377",
                "ref:vatin": "PL2220680943",
                "operator": "Miasto Mys\u0142owice",
                "operator:type": "government",
                "healthcare": "counselling",
                "counselling_type": "education",
                "fixme": "w zale\u017cno\u015bci od przedmiotu dzia\u0142alno\u015bci (np. healthcare=counselling + counselling_type=education albo healthcare=psychotherapist)"
            }
        },
        {
            "id": 133691,
            "type": "Feature",
            "geometry": {
                "type": "Point",
                "coordinates": [
                    19.11654,
                    50.243159999999996
                ]
            },
            "properties": {
                "isced:level": "1;2",
                "ref:rspo": 133691,
                "official_name": "Szko\u0142a Podstawowa Nr 4 Z Oddzia\u0142ami Dwuj\u0119zycznymi Im Wojciecha Korfantego w Mys\u0142owicach",
                "name": "Szko\u0142a Podstawowa Nr 4 Z Oddzia\u0142ami Dwuj\u0119zycznymi Im Wojciecha Korfantego w Mys\u0142owicach",
                "addr:postcode": "41-400",
                "addr:city": "Mys\u0142owice",
                "addr:street": "Wielka Skotnica",
                "addr:housenumber": "84a",
                "addr:teryt:simc": 941487,
                "addr:teryt:sym_ul": 24074,
                "phone": "+48 322222322",
                "email": "sp_4@myslowice.pl",
                "website": "http:\/\/www.sp4myslowice.pl",
                "ref:regon": "367539571",
                "ref:vatin": "PL2220904727",
                "operator": "Miasto Mys\u0142owice",
                "operator:type": "government",
                "amenity": "school"
            }
        },
        {
            "id": 278698,
            "type": "Feature",
            "geometry": {
                "type": "Point",
                "coordinates": [
                    19.11654,
                    50.24313
                ]
            },
            "properties": {
                "isced:level": "4",
                "ref:rspo": 278698,
                "official_name": "\u015aL\u0105skie Centrum Edukacji Medycznej w Mys\u0142owicach",
                "name": "\u015aL\u0105skie Centrum Edukacji Medycznej w Mys\u0142owicach",
                "addr:postcode": "41-400",
                "addr:city": "Mys\u0142owice",
                "addr:street": "Wielka Skotnica",
                "addr:housenumber": "84A",
                "addr:teryt:simc": 941487,
                "addr:teryt:sym_ul": 24074,
                "email": "sekretariat.scem@gmail.com",
                "ref:regon": "520044733",
                "operator": "\"Fundacja Niedaleko\"",
                "operator:type": "ngo",
                "amenity": "college"
            }
        },
        {
            "id": 278975,
            "type": "Feature",
            "geometry": {
                "type": "Point",
                "coordinates": [
                    19.11654,
                    50.2431
                ]
            },
            "properties": {
                "ref:rspo": 278975,
                "official_name": "Instytut Ksza\u0142cenia Nauczycieli - Niepubliczna Plac\u00f3wka Kszta\u0142cenia Nauczycieli",
                "name": "Instytut Ksza\u0142cenia Nauczycieli - Niepubliczna Plac\u00f3wka Kszta\u0142cenia Nauczycieli",
                "addr:postcode": "41-400",
                "addr:city": "Mys\u0142owice",
                "addr:street": "Wielka Skotnica",
                "addr:housenumber": "84a",
                "addr:teryt:simc": 941487,
                "addr:teryt:sym_ul": 24074,
                "phone": "+48 609407414",
                "email": "magda.jakubczyk@wp.pl",
                "ref:regon": "520332403",
                "operator": "Magdalena Jakubczyk",
                "operator:type": "private",
                "amenity": "training"
            }
        },
        {
            "id": 3464,
            "type": "Feature",
            "geometry": {
                "type": "Point",
                "coordinates": [
                    19.12886,
                    50.24598
                ]
            },
            "properties": {
                "isced:level": "1;2",
                "ref:rspo": 3464,
                "official_name": "Szko\u0142a Podstawowa Nr 1 im. Marii Sk\u0142odowskiej-Curie w Mys\u0142owicach",
                "name": "Szko\u0142a Podstawowa Nr 1",
                "addr:postcode": "41-400",
                "addr:city": "Mys\u0142owice",
                "addr:street": "Wielka Skotnica",
                "addr:housenumber": "2",
                "addr:teryt:simc": 941487,
                "addr:teryt:sym_ul": 24074,
                "phone": "+48 322222546",
                "email": "sp1myslowice@interia.eu",
                "website": "http:\/\/www.sp1myslowice.szkolnastrona.pl",
                "ref:regon": "000721171",
                "ref:vatin": "PL2220830124",
                "operator": "Miasto Mys\u0142owice",
                "operator:type": "government",
                "amenity": "school"
            }
        },
        {
            "id": 3388,
            "type": "Feature",
            "geometry": {
                "type": "Point",
                "coordinates": [
                    19.1384599,
                    50.24655
                ]
            },
            "properties": {
                "isced:level": "1;2",
                "ref:rspo": 3388,
                "official_name": "Szko\u0142a Podstawowa Nr 2 im. Boles\u0142awa Prusa w Mys\u0142owicach",
                "name": "Szko\u0142a Podstawowa Nr 2",
                "addr:postcode": "41-400",
                "addr:city": "Mys\u0142owice",
                "addr:street": "Piastowska",
                "addr:housenumber": "7",
                "addr:teryt:simc": 941487,
                "addr:teryt:sym_ul": 16046,
                "phone": "+48 322222499",
                "email": "sp2@myslowice.pl",
                "website": "http:\/\/www.sp2myslowice.pl",
                "ref:regon": "000721188",
                "ref:vatin": "PL2220837592",
                "operator": "Miasto Mys\u0142owice",
                "operator:type": "government",
                "amenity": "school"
            }
        },
        {
            "id": 3649,
            "type": "Feature",
            "geometry": {
                "type": "Point",
                "coordinates": [
                    19.13473,
                    50.24836
                ]
            },
            "properties": {
                "ref:rspo": 3649,
                "official_name": "Przedszkole Nr 8 w Mys\u0142owicach",
                "name": "Przedszkole Nr 8 w Mys\u0142owicach",
                "addr:postcode": "41-400",
                "addr:city": "Mys\u0142owice",
                "addr:street": "Gwark\u00f3w",
                "addr:housenumber": "22",
                "addr:teryt:simc": 941487,
                "addr:teryt:sym_ul": 6412,
                "phone": "+48 322226346",
                "email": "przed8@wp.pl",
                "website": "http:\/\/www.osemka.edupage.org",
                "ref:regon": "271049275",
                "ref:vatin": "PL2220834205",
                "operator": "Miasto Mys\u0142owice",
                "operator:type": "government",
                "amenity": "kindergarten"
            }
        },
        {
            "id": 17170,
            "type": "Feature",
            "geometry": {
                "type": "Point",
                "coordinates": [
                    19.13269,
                    50.25113
                ]
            },
            "properties": {
                "isced:level": "1;2",
                "ref:rspo": 17170,
                "official_name": "Szko\u0142a Podstawowa Sportowa im. Olimpijczyk\u00f3w \u015aL\u0105skich w Mys\u0142owicach",
                "name": "Szko\u0142a Podstawowa Sportowa",
                "addr:postcode": "41-400",
                "addr:city": "Mys\u0142owice",
                "addr:street": "Gwark\u00f3w",
                "addr:housenumber": "1",
                "addr:teryt:simc": 941487,
                "addr:teryt:sym_ul": 6412,
                "phone": "+48 322223158",
                "email": "sportowa@sportosporto.pl",
                "ref:regon": "000721202",
                "ref:vatin": "PL2220836500",
                "operator": "Miasto Mys\u0142owice",
                "operator:type": "government",
                "amenity": "school"
            }
        },
        {
            "id": 115235,
            "type": "Feature",
            "geometry": {
                "type": "Point",
                "coordinates": [
                    19.1300199,
                    50.25411
                ]
            },
            "properties": {
                "ref:rspo": 115235,
                "official_name": "O\u015brodek Szkole\u0144 Zawodowych \"Diagno - Test\" Sp. Z O. O.",
                "name": "O\u015brodek Szkole\u0144 Zawodowych \"Diagno - Test\" Sp. Z O. O.",
                "addr:postcode": "41-400",
                "addr:city": "Mys\u0142owice",
                "addr:street": "Bernarda \u015awierczyny",
                "addr:housenumber": "72",
                "addr:teryt:simc": 941487,
                "addr:teryt:sym_ul": 22498,
                "phone": "+48 322225257",
                "email": "kadry@diagno-test.pl",
                "ref:regon": "243298735",
                "operator": "O\u015brodek Szkole\u0144 Zawodowych \"Diagno-Test\" Sp\u00f3\u0142ka Z Ograniczon\u0105 Odpowiedzialno\u015bci\u0105",
                "operator:type": "private",
                "fixme": "w zale\u017cno\u015bci od przedmiotu dzia\u0142alno\u015bci (np. amenity=training + training=*, amenity=dancing_school, amenity=language_school, amenity=music_school)"
            }
        },
        {
            "id": 122820,
            "type": "Feature",
            "geometry": {
                "type": "Point",
                "coordinates": [
                    19.1300199,
                    50.254079999999995
                ]
            },
            "properties": {
                "ref:rspo": 122820,
                "official_name": "O\u015brodek Szkoleniowy",
                "name": "O\u015brodek Szkoleniowy",
                "addr:postcode": "41-400",
                "addr:city": "Mys\u0142owice",
                "addr:street": "Bernarda \u015awierczyny",
                "addr:housenumber": "72",
                "addr:teryt:simc": 941487,
                "addr:teryt:sym_ul": 22498,
                "phone": "+48 322221761",
                "email": "edytaklis@interia.pl",
                "ref:regon": "243535402",
                "operator": "Niepubliczne Centrum Kszta\u0142cenia Ustawicznego Sp\u00f3\u0142ka Z Ograniczon\u0105 Odpowiedzialno\u015bci\u0105",
                "operator:type": "private",
                "fixme": "w zale\u017cno\u015bci od przedmiotu dzia\u0142alno\u015bci (np. amenity=training + training=*, amenity=dancing_school, amenity=language_school, amenity=music_school)"
            }
        },
        {
            "id": 125649,
            "type": "Feature",
            "geometry": {
                "type": "Point",
                "coordinates": [
                    18.62938,
                    50.40553
                ]
            },
            "properties": {
                "ref:rspo": 125649,
                "official_name": "Niepubliczne Przedszkole \"Akademia Ma\u0142ego Odkrywcy\"",
                "name": "Niepubliczne Przedszkole \"Akademia Ma\u0142ego Odkrywcy\"",
                "addr:postcode": "41-400",
                "addr:city": "Mys\u0142owice",
                "addr:street": "Kazimierza Wielkiego",
                "addr:housenumber": "2a",
                "addr:teryt:simc": 941487,
                "addr:teryt:sym_ul": 8265,
                "phone": "+48 328887030",
                "email": "akademiaodkrywcy.myslowice@wp.pl",
                "website": "https:\/\/akademiaodkrywcy-myslowice.pl\/",
                "ref:regon": "243692751",
                "operator": "Artur Strzelecki",
                "operator:type": "private",
                "amenity": "kindergarten"
            }
        }
    ]
}