{
    "type": "FeatureCollection",
    "features": [
        {
            "id": 273254,
            "type": "Feature",
            "geometry": {
                "type": "Point",
                "coordinates": [
                    20.35343,
                    52.59586
                ]
            },
            "properties": {
                "ref:rspo": 273254,
                "official_name": "J\u0119zykowo-Sportowe Niepubliczne Przedszkole \"Mali Giganci\"",
                "name": "J\u0119zykowo-Sportowe Niepubliczne Przedszkole \"Mali Giganci\"",
                "addr:country": "PL",
                "addr:postcode": "09-100",
                "addr:city": "P\u0142o\u0144sk",
                "addr:street": "Wyszogrodzka",
                "addr:housenumber": "24",
                "addr:teryt:simc": 25095,
                "addr:teryt:sym_ul": 930800,
                "contact:phone": "+48 530441405",
                "contact:email": "ikraw78@onet.eu",
                "ref:regon": "384418213",
                "operator": "Monika Hartman",
                "operator:type": "private",
                "amenity": "kindergarten"
            }
        },
        {
            "id": 131510,
            "type": "Feature",
            "geometry": {
                "type": "Point",
                "coordinates": [
                    20.38221,
                    52.61669
                ]
            },
            "properties": {
                "isced:level": "4",
                "ref:rspo": 131510,
                "official_name": "Publiczna Szko\u0142a Policealna w P\u0142o\u0144sku",
                "name": "Publiczna Szko\u0142a Policealna w P\u0142o\u0144sku",
                "addr:country": "PL",
                "addr:postcode": "09-100",
                "addr:city": "P\u0142o\u0144sk",
                "addr:street": "Warszawska",
                "addr:housenumber": "70",
                "addr:teryt:simc": 23682,
                "addr:teryt:sym_ul": 930800,
                "contact:phone": "+48 696752066",
                "contact:email": "kontakt@publicznaplonsk.edu.pl",
                "contact:website": "http:\/\/www.publicznaplonsk.pl",
                "ref:regon": "365209585",
                "ref:vatin": "PL5671321900",
                "operator": "Barbara Sawczuk-Go\u0142aszewska",
                "operator:type": "private",
                "amenity": "college"
            }
        },
        {
            "id": 278937,
            "type": "Feature",
            "geometry": {
                "type": "Point",
                "coordinates": [
                    20.38221,
                    52.616659999999996
                ]
            },
            "properties": {
                "ref:rspo": 278937,
                "official_name": "Centrum Kszta\u0142cenia Zawodowego w P\u0142o\u0144sku",
                "name": "Centrum Kszta\u0142cenia Zawodowego w P\u0142o\u0144sku",
                "addr:country": "PL",
                "addr:postcode": "09-100",
                "addr:city": "P\u0142o\u0144sk",
                "addr:street": "Warszawska",
                "addr:housenumber": "70",
                "addr:teryt:simc": 23682,
                "addr:teryt:sym_ul": 930800,
                "contact:phone": "+48 501654124",
                "contact:email": "kontakt@publicznaplonsk.edu.pl",
                "ref:regon": "520240291",
                "operator": "Barbara Sawczuk-Go\u0142aszewska",
                "operator:type": "private",
                "fixme": "w zale\u017cno\u015bci od przedmiotu dzia\u0142alno\u015bci (np. amenity=training + training=*, amenity=dancing_school, amenity=language_school, amenity=music_school) albo amenity=school, amenity=college, albo landuse=education w zale\u017cno\u015bci od tego, jakie plac\u00f3wki wchodz\u0105 w sk\u0142ad zespo\u0142u. Sprawd\u017a, kiedy stosowa\u0107 amenity=* a kiedy landuse=education."
            }
        },
        {
            "id": 132252,
            "type": "Feature",
            "geometry": {
                "type": "Point",
                "coordinates": [
                    20.38154,
                    52.61731
                ]
            },
            "properties": {
                "ref:rspo": 132252,
                "official_name": "Niepubliczne Przedszkole \"Bajkolandia\"",
                "name": "Niepubliczne Przedszkole \"Bajkolandia\"",
                "addr:country": "PL",
                "addr:postcode": "09-100",
                "addr:city": "P\u0142o\u0144sk",
                "addr:street": "Warszawska",
                "addr:housenumber": "68",
                "addr:teryt:simc": 23682,
                "addr:teryt:sym_ul": 930800,
                "contact:phone": "+48 501874896",
                "contact:email": "wojciech.smietanowski@wp.pl",
                "ref:regon": "365524520",
                "ref:vatin": "PL5671248787",
                "operator": "Wojciech \u015amietanowski",
                "operator:type": "private",
                "amenity": "kindergarten"
            }
        },
        {
            "id": 264735,
            "type": "Feature",
            "geometry": {
                "type": "Point",
                "coordinates": [
                    20.38256,
                    52.61945
                ]
            },
            "properties": {
                "ref:rspo": 264735,
                "official_name": "Niepubliczne Przedszkole \"Radosne Brzd\u0105ce\"",
                "name": "Niepubliczne Przedszkole \"Radosne Brzd\u0105ce\"",
                "addr:country": "PL",
                "addr:postcode": "09-100",
                "addr:city": "P\u0142o\u0144sk",
                "addr:street": "Zajazd",
                "addr:housenumber": "3",
                "addr:teryt:simc": 25407,
                "addr:teryt:sym_ul": 930800,
                "contact:phone": "+48 667824504",
                "contact:email": "asienka.13@wp.pl",
                "ref:regon": "368438790",
                "operator": "Joanna Pomoryn",
                "operator:type": "private",
                "amenity": "kindergarten"
            }
        },
        {
            "id": 120092,
            "type": "Feature",
            "geometry": {
                "type": "Point",
                "coordinates": [
                    20.36745,
                    52.61951
                ]
            },
            "properties": {
                "ref:rspo": 120092,
                "official_name": "Niepubliczne Przedszkole \"Kangurek\"",
                "name": "Niepubliczne Przedszkole \"Kangurek\"",
                "addr:country": "PL",
                "addr:postcode": "09-100",
                "addr:city": "P\u0142o\u0144sk",
                "addr:street": "Kolejowa",
                "addr:housenumber": "20",
                "addr:teryt:simc": 8828,
                "addr:teryt:sym_ul": 930800,
                "contact:phone": "+48 608703557",
                "contact:email": "plonsk@akn.pl",
                "contact:website": "http:\/\/kangurek.eu\/",
                "ref:regon": "146882685",
                "ref:vatin": "PL5691768449",
                "operator": "Beata Archutowska",
                "operator:type": "private",
                "amenity": "kindergarten"
            }
        },
        {
            "id": 26605,
            "type": "Feature",
            "geometry": {
                "type": "Point",
                "coordinates": [
                    20.36832,
                    52.62125
                ]
            },
            "properties": {
                "ref:rspo": 26605,
                "official_name": "Przedszkole Nr 1",
                "name": "Przedszkole Nr 1",
                "addr:country": "PL",
                "addr:postcode": "09-100",
                "addr:city": "P\u0142o\u0144sk",
                "addr:street": "Kolejowa",
                "addr:housenumber": "5",
                "addr:teryt:simc": 8828,
                "addr:teryt:sym_ul": 930800,
                "contact:phone": "+48 236622271",
                "contact:email": "pn1@przedszkole1.plonsk.pl",
                "contact:website": "http:\/\/przedszkole1.plonsk.pl",
                "ref:regon": "130501069",
                "ref:vatin": "PL5671590439",
                "operator": "Gmina Miasto P\u0142o\u0144sk",
                "operator:type": "government",
                "amenity": "kindergarten"
            }
        },
        {
            "id": 119572,
            "type": "Feature",
            "geometry": {
                "type": "Point",
                "coordinates": [
                    20.3501,
                    52.62142
                ]
            },
            "properties": {
                "ref:rspo": 119572,
                "official_name": "Niepubliczne Przedszkole \"Sz\u00f3stka\"",
                "name": "Niepubliczne Przedszkole \"Sz\u00f3stka\"",
                "addr:country": "PL",
                "addr:postcode": "09-100",
                "addr:city": "P\u0142o\u0144sk",
                "addr:street": "P\u0142ocka",
                "addr:housenumber": "118",
                "addr:teryt:simc": 16511,
                "addr:teryt:sym_ul": 930800,
                "contact:phone": "+48 501373066",
                "contact:email": "przedszkole.szostka@gmail.com",
                "contact:website": "http:\/\/naszostke.przedszkolowo.pl\/",
                "ref:regon": "146853554",
                "ref:vatin": "PL5671264556",
                "operator": "Ma\u0142gorzata Leszczy\u0144ska",
                "operator:type": "private",
                "amenity": "kindergarten"
            }
        },
        {
            "id": 119984,
            "type": "Feature",
            "geometry": {
                "type": "Point",
                "coordinates": [
                    20.3659399,
                    52.62179
                ]
            },
            "properties": {
                "ref:rspo": 119984,
                "official_name": "Niepubliczne Przedszkole \"Planeta Przedszkolaka\"",
                "name": "Niepubliczne Przedszkole \"Planeta Przedszkolaka\"",
                "addr:country": "PL",
                "addr:postcode": "09-100",
                "addr:city": "P\u0142o\u0144sk",
                "addr:street": "Ignacego Krasickiego",
                "addr:housenumber": "4",
                "addr:teryt:simc": 9830,
                "addr:teryt:sym_ul": 930800,
                "contact:phone": "+48 660528980",
                "contact:email": "agnieszka.biernatowicz@gmail.com",
                "ref:regon": "146873953",
                "ref:vatin": "PL8211749934",
                "operator": "Agnieszka Biernatowicz",
                "operator:type": "private",
                "amenity": "kindergarten"
            }
        },
        {
            "id": 104394,
            "type": "Feature",
            "geometry": {
                "type": "Point",
                "coordinates": [
                    20.37668,
                    52.62206
                ]
            },
            "properties": {
                "ref:rspo": 104394,
                "official_name": "Biblioteka Pedagogiczna w Ciechanowie Filia w P\u0142o\u0144sku",
                "name": "Biblioteka Pedagogiczna w Ciechanowie Filia w P\u0142o\u0144sku",
                "addr:country": "PL",
                "addr:postcode": "09-100",
                "addr:city": "P\u0142o\u0144sk",
                "addr:street": "Warszawska",
                "addr:housenumber": "7",
                "addr:teryt:simc": 23682,
                "addr:teryt:sym_ul": 930800,
                "contact:phone": "+48 236622776",
                "contact:email": "bpplonsk@gmail.com",
                "contact:website": "http:\/\/www.bpplonsk.edu.pl",
                "ref:regon": "130944743",
                "ref:vatin": "PL5661888864",
                "operator": "Wojew\u00f3dztwo Mazowieckie",
                "operator:type": "government",
                "amenity": "library",
                "note": "Parent RSPO: 26343"
            }
        },
        {
            "id": 25248,
            "type": "Feature",
            "geometry": {
                "type": "Point",
                "coordinates": [
                    20.36542,
                    52.62257
                ]
            },
            "properties": {
                "isced:level": "3",
                "ref:rspo": 25248,
                "official_name": "I Liceum Og\u00f3lnokszta\u0142c\u0105ce im. Henryka Sienkiewicza w P\u0142o\u0144sku",
                "name": "I Liceum Og\u00f3lnokszta\u0142c\u0105ce",
                "addr:country": "PL",
                "addr:postcode": "09-100",
                "addr:city": "P\u0142o\u0144sk",
                "addr:street": "P\u0142ocka",
                "addr:housenumber": "56",
                "addr:teryt:simc": 16511,
                "addr:teryt:sym_ul": 930800,
                "contact:phone": "+48 236622145",
                "contact:email": "dyrekcja@loplonsk.pl",
                "contact:website": "http:\/\/www.loplonsk.pl",
                "ref:regon": "000256001",
                "ref:vatin": "PL5671165038",
                "operator": "Powiat P\u0142o\u0144ski",
                "operator:type": "government",
                "amenity": "school"
            }
        },
        {
            "id": 26613,
            "type": "Feature",
            "geometry": {
                "type": "Point",
                "coordinates": [
                    20.3642499,
                    52.62267
                ]
            },
            "properties": {
                "ref:rspo": 26613,
                "official_name": "Punkt Przedszkolny Trampolina",
                "name": "Punkt Przedszkolny Trampolina",
                "addr:country": "PL",
                "addr:postcode": "09-100",
                "addr:city": "P\u0142o\u0144sk",
                "addr:street": "P\u0142ocka",
                "addr:housenumber": "66",
                "addr:teryt:simc": 16511,
                "addr:teryt:sym_ul": 930800,
                "contact:phone": "+48 512602076",
                "contact:email": "przedszkole-trampolina@wp.pl",
                "contact:website": "http:\/\/www.trampolina.edu.pl",
                "ref:regon": "146337380",
                "ref:vatin": "PL5671599825",
                "operator": "Marta J\u00f3\u017awiak",
                "operator:type": "private",
                "amenity": "kindergarten"
            }
        },
        {
            "id": 56158,
            "type": "Feature",
            "geometry": {
                "type": "Point",
                "coordinates": [
                    20.36273,
                    52.62271
                ]
            },
            "properties": {
                "ref:rspo": 56158,
                "official_name": "Pa\u0144stwowa Szko\u0142a Muzyczna I St. w P\u0142o\u0144sku",
                "name": "Pa\u0144stwowa Szko\u0142a Muzyczna I St. w P\u0142o\u0144sku",
                "addr:country": "PL",
                "addr:postcode": "09-100",
                "addr:city": "P\u0142o\u0144sk",
                "addr:street": "P\u0142ocka",
                "addr:housenumber": "76",
                "addr:teryt:simc": 16511,
                "addr:teryt:sym_ul": 930800,
                "contact:phone": "+48 236624472",
                "contact:email": "psm_plonsk@onet.pl",
                "ref:regon": "001109302",
                "operator": "Ministerstwo Kultury I Dziedzictwa Narodowego",
                "operator:type": "public",
                "amenity": "music_school"
            }
        },
        {
            "id": 15903,
            "type": "Feature",
            "geometry": {
                "type": "Point",
                "coordinates": [
                    20.375490188599,
                    52.622898101807
                ]
            },
            "properties": {
                "ref:rspo": 15903,
                "official_name": "Zesp\u00f3\u0142 Szk\u00f3\u0142 Nr 2 im. Leona Rutkowskiego w P\u0142o\u0144sku",
                "name": "Zesp\u00f3\u0142 Szk\u00f3\u0142 Nr 2",
                "addr:country": "PL",
                "addr:postcode": "09-100",
                "addr:city": "P\u0142o\u0144sk",
                "addr:street": "Ksi\u0119dza Jerzego Popie\u0142uszki",
                "addr:housenumber": "14",
                "addr:teryt:simc": 17149,
                "addr:teryt:sym_ul": 930800,
                "contact:phone": "+48 236623377",
                "contact:email": "zsznr2pl@pro.onet.pl",
                "contact:website": "http:\/\/www.zsnr2pl.pl",
                "ref:regon": "000861707",
                "operator": "Powiat P\u0142o\u0144ski",
                "operator:type": "government",
                "landuse": "education",
                "fixme": "amenity=school, amenity=college albo landuse=education w zale\u017cno\u015bci od tego, jakie plac\u00f3wki wchodz\u0105 w sk\u0142ad zespo\u0142u. Sprawd\u017a, kiedy stosowa\u0107 amenity=* a kiedy landuse=education.",
                "note": "Children RSPO: 25255;25257;26521"
            }
        },
        {
            "id": 113557,
            "type": "Feature",
            "geometry": {
                "type": "Point",
                "coordinates": [
                    20.375490188599,
                    52.622868101807
                ]
            },
            "properties": {
                "ref:rspo": 113557,
                "official_name": "J\u0119zykowo \u2013 Sportowe Niepubliczne Przedszkole \u201eMali Giganci\u201d",
                "name": "J\u0119zykowo \u2013 Sportowe Niepubliczne Przedszkole \u201eMali Giganci\u201d",
                "addr:country": "PL",
                "addr:postcode": "09-100",
                "addr:city": "P\u0142o\u0144sk",
                "addr:street": "Szkolna",
                "addr:housenumber": "87",
                "addr:door": "1",
                "addr:teryt:simc": 21970,
                "addr:teryt:sym_ul": 930800,
                "contact:email": "roberthartman@op.pl",
                "contact:website": "http:\/\/www.maligiganciplonsk.pl",
                "ref:regon": "146623080",
                "ref:vatin": "PL5671788070",
                "operator": "Robert Hartman",
                "operator:type": "private",
                "amenity": "kindergarten"
            }
        },
        {
            "id": 25255,
            "type": "Feature",
            "geometry": {
                "type": "Point",
                "coordinates": [
                    20.375490188599,
                    52.622838101807005
                ]
            },
            "properties": {
                "isced:level": "3",
                "ref:rspo": 25255,
                "official_name": "Iii Liceum Og\u00f3lnokszta\u0142c\u0105ce w P\u0142o\u0144sku",
                "name": "Iii Liceum Og\u00f3lnokszta\u0142c\u0105ce w P\u0142o\u0144sku",
                "addr:country": "PL",
                "addr:postcode": "09-100",
                "addr:city": "P\u0142o\u0144sk",
                "addr:street": "Ksi\u0119dza Jerzego Popie\u0142uszki",
                "addr:housenumber": "14",
                "addr:teryt:simc": 17149,
                "addr:teryt:sym_ul": 930800,
                "contact:phone": "+48 236623377",
                "contact:email": "zsznr2pl@pro.onet.pl",
                "contact:website": "http:\/\/www.zsnr2pl.pl",
                "ref:regon": "130915776",
                "operator": "Powiat P\u0142o\u0144ski",
                "operator:type": "government",
                "amenity": "school",
                "note": "Parent RSPO: 15903"
            }
        },
        {
            "id": 25257,
            "type": "Feature",
            "geometry": {
                "type": "Point",
                "coordinates": [
                    20.375490188599,
                    52.622808101807
                ]
            },
            "properties": {
                "isced:level": "3",
                "ref:rspo": 25257,
                "official_name": "Technikum Nr 2 w P\u0142o\u0144sku",
                "name": "Technikum Nr 2 w P\u0142o\u0144sku",
                "addr:country": "PL",
                "addr:postcode": "09-100",
                "addr:city": "P\u0142o\u0144sk",
                "addr:street": "Ksi\u0119dza Jerzego Popie\u0142uszki",
                "addr:housenumber": "14",
                "addr:teryt:simc": 17149,
                "addr:teryt:sym_ul": 930800,
                "contact:phone": "+48 236623377",
                "contact:email": "zsznr2pl@pro.onet.pl",
                "contact:website": "http:\/\/www.zsnr2pl.pl",
                "ref:regon": "130915753",
                "operator": "Powiat P\u0142o\u0144ski",
                "operator:type": "government",
                "amenity": "school",
                "note": "Parent RSPO: 15903"
            }
        },
        {
            "id": 26521,
            "type": "Feature",
            "geometry": {
                "type": "Point",
                "coordinates": [
                    20.375490188599,
                    52.622778101807
                ]
            },
            "properties": {
                "isced:level": "3",
                "ref:rspo": 26521,
                "official_name": "Bran\u017cowa Szko\u0142a I Stopnia Nr 2 w P\u0142o\u0144sku",
                "name": "Bran\u017cowa Szko\u0142a I Stopnia Nr 2 w P\u0142o\u0144sku",
                "addr:country": "PL",
                "addr:postcode": "09-100",
                "addr:city": "P\u0142o\u0144sk",
                "addr:street": "Ksi\u0119dza Jerzego Popie\u0142uszki",
                "addr:housenumber": "14",
                "addr:teryt:simc": 17149,
                "addr:teryt:sym_ul": 930800,
                "contact:phone": "+48 236623377",
                "contact:email": "zsznr2pl@pro.onet.pl",
                "contact:website": "http:\/\/www.zsnr2pl.pl",
                "ref:regon": "130915760",
                "operator": "Powiat P\u0142o\u0144ski",
                "operator:type": "government",
                "amenity": "school",
                "note": "Parent RSPO: 15903"
            }
        },
        {
            "id": 133790,
            "type": "Feature",
            "geometry": {
                "type": "Point",
                "coordinates": [
                    20.37116,
                    52.62337
                ]
            },
            "properties": {
                "isced:level": "1;2",
                "ref:rspo": 133790,
                "official_name": "Szko\u0142a Podstawowa Nr 1 im. Boles\u0142awa Chrobrego w P\u0142o\u0144sku",
                "name": "Szko\u0142a Podstawowa Nr 1",
                "addr:country": "PL",
                "addr:postcode": "09-100",
                "addr:city": "P\u0142o\u0144sk",
                "addr:street": "Wolno\u015bci",
                "addr:housenumber": "4",
                "addr:teryt:simc": 24687,
                "addr:teryt:sym_ul": 930800,
                "contact:phone": "+48 236622162",
                "contact:email": "dyrektor@sp1plonsk.pl",
                "contact:website": "http:\/\/sp1plonsk.pl",
                "ref:regon": "367629630",
                "ref:vatin": "PL5671909993",
                "operator": "Gmina Miasto P\u0142o\u0144sk",
                "operator:type": "government",
                "amenity": "school"
            }
        },
        {
            "id": 15907,
            "type": "Feature",
            "geometry": {
                "type": "Point",
                "coordinates": [
                    20.37227,
                    52.62389
                ]
            },
            "properties": {
                "ref:rspo": 15907,
                "official_name": "Poradnia Psychologiczno-Pedagogiczna w P\u0142o\u0144sku",
                "name": "Poradnia Psychologiczno-Pedagogiczna w P\u0142o\u0144sku",
                "addr:country": "PL",
                "addr:postcode": "09-100",
                "addr:city": "P\u0142o\u0144sk",
                "addr:street": "Wolno\u015bci",
                "addr:housenumber": "8\/10",
                "addr:teryt:simc": 24687,
                "addr:teryt:sym_ul": 930800,
                "contact:phone": "+48 236622954",
                "contact:email": "sekretariat@poradniaplonsk.pl",
                "contact:website": "http:\/\/www.poradniaplonsk.pl",
                "ref:regon": "000947455",
                "operator": "Powiat P\u0142o\u0144ski",
                "operator:type": "government",
                "healthcare": "counselling",
                "counselling_type": "education",
                "fixme": "w zale\u017cno\u015bci od przedmiotu dzia\u0142alno\u015bci (np. healthcare=counselling + counselling_type=education albo healthcare=psychotherapist)"
            }
        },
        {
            "id": 42866,
            "type": "Feature",
            "geometry": {
                "type": "Point",
                "coordinates": [
                    20.36431,
                    52.62444
                ]
            },
            "properties": {
                "isced:level": "1;2",
                "ref:rspo": 42866,
                "official_name": "Szko\u0142a Podstawowa Nr 3 im. Stanis\u0142awa Wyspia\u0144skiego",
                "name": "Szko\u0142a Podstawowa Nr 3",
                "addr:country": "PL",
                "addr:postcode": "09-100",
                "addr:city": "P\u0142o\u0144sk",
                "addr:street": "Stanis\u0142awa Wyspia\u0144skiego",
                "addr:housenumber": "4",
                "addr:teryt:simc": 25084,
                "addr:teryt:sym_ul": 930800,
                "contact:phone": "+48 236622163",
                "contact:email": "sp3.plonsk@wp.pl",
                "contact:website": "http:\/\/www.sp3plonsk.pl\/",
                "ref:regon": "001133111",
                "ref:vatin": "PL5671590563",
                "operator": "Gmina Miasto P\u0142o\u0144sk",
                "operator:type": "government",
                "amenity": "school"
            }
        },
        {
            "id": 26598,
            "type": "Feature",
            "geometry": {
                "type": "Point",
                "coordinates": [
                    20.3720938,
                    52.624603
                ]
            },
            "properties": {
                "ref:rspo": 26598,
                "official_name": "Przedszkole Nr 3",
                "name": "Przedszkole Nr 3",
                "addr:country": "PL",
                "addr:postcode": "09-100",
                "addr:city": "P\u0142o\u0144sk",
                "addr:street": "Wolno\u015bci",
                "addr:housenumber": "18",
                "addr:teryt:simc": 24687,
                "addr:teryt:sym_ul": 930800,
                "contact:phone": "+48 236622610",
                "contact:email": "przedszkole3@plonsk.pl",
                "contact:website": "http:\/\/www.przedszkole3plonsk.pl",
                "ref:regon": "130501046",
                "ref:vatin": "PL5671590540",
                "operator": "Gmina Miasto P\u0142o\u0144sk",
                "operator:type": "government",
                "amenity": "kindergarten"
            }
        },
        {
            "id": 26619,
            "type": "Feature",
            "geometry": {
                "type": "Point",
                "coordinates": [
                    20.37141,
                    52.62753
                ]
            },
            "properties": {
                "ref:rspo": 26619,
                "official_name": "Punkt Przedszkolny \"Czas Dziecka\" Centrum Zabawy I Tw\u00f3rczego Rozwoju Podlaska Ewa",
                "name": "Punkt Przedszkolny \"Czas Dziecka\" Centrum Zabawy I Tw\u00f3rczego Rozwoju Podlaska Ewa",
                "addr:country": "PL",
                "addr:postcode": "09-100",
                "addr:city": "P\u0142o\u0144sk",
                "addr:street": "Nadrzeczna",
                "addr:housenumber": "6",
                "addr:teryt:simc": 13902,
                "addr:teryt:sym_ul": 930800,
                "contact:phone": "+48 784726004",
                "ref:regon": "146337568",
                "ref:vatin": "PL5671289786",
                "operator": "Ewa Podlaska",
                "operator:type": "private",
                "amenity": "kindergarten"
            }
        },
        {
            "id": 119978,
            "type": "Feature",
            "geometry": {
                "type": "Point",
                "coordinates": [
                    20.37141,
                    52.6275
                ]
            },
            "properties": {
                "ref:rspo": 119978,
                "official_name": "Prywatne Przedszkole \nV Czas Dziecka V",
                "name": "Prywatne Przedszkole \nV Czas Dziecka V",
                "addr:country": "PL",
                "addr:postcode": "09-100",
                "addr:city": "P\u0142o\u0144sk",
                "addr:street": "Nadrzeczna",
                "addr:housenumber": "6",
                "addr:teryt:simc": 13902,
                "addr:teryt:sym_ul": 930800,
                "contact:phone": "+48 784726004",
                "contact:email": "czas.dziecka@op.pl",
                "contact:website": "http:\/\/czasdziecka.przedszkolowo.pl\/",
                "ref:regon": "146873775",
                "ref:vatin": "PL5671289786",
                "operator": "Ewa Podlaska",
                "operator:type": "private",
                "amenity": "kindergarten"
            }
        },
        {
            "id": 26604,
            "type": "Feature",
            "geometry": {
                "type": "Point",
                "coordinates": [
                    20.37028,
                    52.62967
                ]
            },
            "properties": {
                "ref:rspo": 26604,
                "official_name": "Przedszkole Nr 2 im.przyjaci\u00f3\u0142 Kubusia Puchatka",
                "name": "Przedszkole Nr 2 im.przyjaci\u00f3\u0142 Kubusia Puchatka",
                "addr:country": "PL",
                "addr:postcode": "09-100",
                "addr:city": "P\u0142o\u0144sk",
                "addr:street": "Zacisze",
                "addr:housenumber": "6",
                "addr:teryt:simc": 25314,
                "addr:teryt:sym_ul": 930800,
                "contact:phone": "+48 236622445",
                "contact:email": "przed2plonsk@wp.pl",
                "contact:website": "http:\/\/przedszkolenr2plonsk.npx.pl\/news.php",
                "ref:regon": "130501052",
                "ref:vatin": "PL5671590557",
                "operator": "Gmina Miasto P\u0142o\u0144sk",
                "operator:type": "government",
                "amenity": "kindergarten"
            }
        },
        {
            "id": 15904,
            "type": "Feature",
            "geometry": {
                "type": "Point",
                "coordinates": [
                    20.37988,
                    52.62973
                ]
            },
            "properties": {
                "ref:rspo": 15904,
                "official_name": "Zesp\u00f3\u0142 Szk\u00f3\u0142 Nr 1 im. Stanis\u0142awa Staszica w P\u0142o\u0144sku",
                "name": "Zesp\u00f3\u0142 Szk\u00f3\u0142 Nr 1",
                "addr:country": "PL",
                "addr:postcode": "09-100",
                "addr:city": "P\u0142o\u0144sk",
                "addr:street": "Henryka Sienkiewicza",
                "addr:housenumber": "8",
                "addr:teryt:simc": 19834,
                "addr:teryt:sym_ul": 930800,
                "contact:phone": "+48 236622987",
                "contact:email": "poczta@zs1plonsk.pl",
                "contact:website": "http:\/\/www.zs1plonsk.pl",
                "ref:regon": "000198829",
                "operator": "Powiat P\u0142o\u0144ski",
                "operator:type": "government",
                "landuse": "education",
                "fixme": "amenity=school, amenity=college albo landuse=education w zale\u017cno\u015bci od tego, jakie plac\u00f3wki wchodz\u0105 w sk\u0142ad zespo\u0142u. Sprawd\u017a, kiedy stosowa\u0107 amenity=* a kiedy landuse=education.",
                "note": "Children RSPO: 25250;25253;25254;271732"
            }
        },
        {
            "id": 15908,
            "type": "Feature",
            "geometry": {
                "type": "Point",
                "coordinates": [
                    20.37988,
                    52.6297
                ]
            },
            "properties": {
                "ref:rspo": 15908,
                "official_name": "Centrum Kszta\u0142cenia Zawodowego Nr 1 w P\u0142o\u0144sku",
                "name": "Centrum Kszta\u0142cenia Zawodowego Nr 1 w P\u0142o\u0144sku",
                "addr:country": "PL",
                "addr:postcode": "09-100",
                "addr:city": "P\u0142o\u0144sk",
                "addr:street": "Henryka Sienkiewicza",
                "addr:housenumber": "8",
                "addr:teryt:simc": 19834,
                "addr:teryt:sym_ul": 930800,
                "contact:phone": "+48 236623250",
                "contact:email": "ckpplonsk@poczta.internetdsl.pl",
                "contact:website": "http:\/\/www.ckpplonsk.internetdsl.pl",
                "ref:regon": "130377480",
                "operator": "Powiat P\u0142o\u0144ski",
                "operator:type": "government",
                "fixme": "w zale\u017cno\u015bci od przedmiotu dzia\u0142alno\u015bci (np. amenity=training + training=*, amenity=dancing_school, amenity=language_school, amenity=music_school) albo amenity=school, amenity=college, albo landuse=education w zale\u017cno\u015bci od tego, jakie plac\u00f3wki wchodz\u0105 w sk\u0142ad zespo\u0142u. Sprawd\u017a, kiedy stosowa\u0107 amenity=* a kiedy landuse=education."
            }
        },
        {
            "id": 25250,
            "type": "Feature",
            "geometry": {
                "type": "Point",
                "coordinates": [
                    20.37988,
                    52.629670000000004
                ]
            },
            "properties": {
                "isced:level": "3",
                "ref:rspo": 25250,
                "official_name": "Ii Liceum Og\u00f3lnokszta\u0142c\u0105ce w P\u0142o\u0144sku",
                "name": "Ii Liceum Og\u00f3lnokszta\u0142c\u0105ce w P\u0142o\u0144sku",
                "addr:country": "PL",
                "addr:postcode": "09-100",
                "addr:city": "P\u0142o\u0144sk",
                "addr:street": "Henryka Sienkiewicza",
                "addr:housenumber": "8",
                "addr:teryt:simc": 19834,
                "addr:teryt:sym_ul": 930800,
                "contact:phone": "+48 236622987",
                "contact:email": "poczta@zs1plonsk.pl",
                "contact:website": "http:\/\/www.zs1plonsk.pl",
                "ref:regon": "130915747",
                "operator": "Powiat P\u0142o\u0144ski",
                "operator:type": "government",
                "amenity": "school",
                "note": "Parent RSPO: 15904"
            }
        },
        {
            "id": 25253,
            "type": "Feature",
            "geometry": {
                "type": "Point",
                "coordinates": [
                    20.37988,
                    52.62964
                ]
            },
            "properties": {
                "isced:level": "3",
                "ref:rspo": 25253,
                "official_name": "Technikum Nr 1 w P\u0142o\u0144sku",
                "name": "Technikum Nr 1 w P\u0142o\u0144sku",
                "addr:country": "PL",
                "addr:postcode": "09-100",
                "addr:city": "P\u0142o\u0144sk",
                "addr:street": "Henryka Sienkiewicza",
                "addr:housenumber": "8",
                "addr:teryt:simc": 19834,
                "addr:teryt:sym_ul": 930800,
                "contact:phone": "+48 236622987",
                "contact:email": "poczta@zs1plonsk.pl",
                "contact:website": "http:\/\/www.zs1plonsk.pl",
                "ref:regon": "130915730",
                "operator": "Powiat P\u0142o\u0144ski",
                "operator:type": "government",
                "amenity": "school",
                "note": "Parent RSPO: 15904"
            }
        },
        {
            "id": 25254,
            "type": "Feature",
            "geometry": {
                "type": "Point",
                "coordinates": [
                    20.37988,
                    52.62961
                ]
            },
            "properties": {
                "isced:level": "3",
                "ref:rspo": 25254,
                "official_name": "Bran\u017cowa Szko\u0142a I Stopnia Nr 1 w P\u0142o\u0144sku",
                "name": "Bran\u017cowa Szko\u0142a I Stopnia Nr 1 w P\u0142o\u0144sku",
                "addr:country": "PL",
                "addr:postcode": "09-100",
                "addr:city": "P\u0142o\u0144sk",
                "addr:street": "Henryka Sienkiewicza",
                "addr:housenumber": "8",
                "addr:teryt:simc": 19834,
                "addr:teryt:sym_ul": 930800,
                "contact:phone": "+48 236622987",
                "contact:email": "poczta@zs1plonsk.pl",
                "contact:website": "http:\/\/zs1plonsk.pl",
                "ref:regon": "130915724",
                "operator": "Powiat P\u0142o\u0144ski",
                "operator:type": "government",
                "amenity": "school",
                "note": "Parent RSPO: 15904"
            }
        },
        {
            "id": 271732,
            "type": "Feature",
            "geometry": {
                "type": "Point",
                "coordinates": [
                    20.37988,
                    52.629580000000004
                ]
            },
            "properties": {
                "ref:rspo": 271732,
                "official_name": "Centrum Kszta\u0142cenia Zawodowego Nr 2 w P\u0142o\u0144sku",
                "name": "Centrum Kszta\u0142cenia Zawodowego Nr 2 w P\u0142o\u0144sku",
                "addr:country": "PL",
                "addr:postcode": "09-100",
                "addr:city": "P\u0142o\u0144sk",
                "addr:street": "Henryka Sienkiewicza",
                "addr:housenumber": "8",
                "addr:teryt:simc": 19834,
                "addr:teryt:sym_ul": 930800,
                "contact:phone": "+48 236622987",
                "contact:email": "poczta@zs1plonsk.pl",
                "contact:website": "http:\/\/zs1plonsk.pl\/",
                "ref:regon": "383584168",
                "operator": "Powiat P\u0142o\u0144ski",
                "operator:type": "government",
                "fixme": "w zale\u017cno\u015bci od przedmiotu dzia\u0142alno\u015bci (np. amenity=training + training=*, amenity=dancing_school, amenity=language_school, amenity=music_school) albo amenity=school, amenity=college, albo landuse=education w zale\u017cno\u015bci od tego, jakie plac\u00f3wki wchodz\u0105 w sk\u0142ad zespo\u0142u. Sprawd\u017a, kiedy stosowa\u0107 amenity=* a kiedy landuse=education.",
                "note": "Parent RSPO: 15904"
            }
        },
        {
            "id": 131410,
            "type": "Feature",
            "geometry": {
                "type": "Point",
                "coordinates": [
                    20.37015,
                    52.63001
                ]
            },
            "properties": {
                "ref:rspo": 131410,
                "official_name": "Specjalny O\u015brodek Szkolno-Wychowawczy w P\u0142o\u0144sku",
                "name": "Specjalny O\u015brodek Szkolno-Wychowawczy w P\u0142o\u0144sku",
                "addr:country": "PL",
                "addr:postcode": "09-100",
                "addr:city": "P\u0142o\u0144sk",
                "addr:street": "M\u0142odzie\u017cowa",
                "addr:housenumber": "11 a",
                "addr:teryt:simc": 13096,
                "addr:teryt:sym_ul": 930800,
                "contact:phone": "+48 236624688",
                "contact:email": "soswwplonsku@gmail.com",
                "ref:regon": "365166960",
                "operator": "Powiat P\u0142o\u0144ski",
                "operator:type": "government",
                "amenity": "school",
                "note": "Children RSPO: 25264;25267;25268;131624"
            }
        },
        {
            "id": 25264,
            "type": "Feature",
            "geometry": {
                "type": "Point",
                "coordinates": [
                    20.37015,
                    52.629979999999996
                ]
            },
            "properties": {
                "isced:level": "1;2",
                "ref:rspo": 25264,
                "official_name": "Szko\u0142a Podstawowa Specjalna w P\u0142o\u0144sku",
                "name": "Szko\u0142a Podstawowa Specjalna w P\u0142o\u0144sku",
                "addr:country": "PL",
                "addr:postcode": "09-100",
                "addr:city": "P\u0142o\u0144sk",
                "addr:street": "M\u0142odzie\u017cowa",
                "addr:housenumber": "11A",
                "addr:teryt:simc": 13096,
                "addr:teryt:sym_ul": 930800,
                "contact:phone": "+48 236624688",
                "contact:email": "zsnr3@onet.pl",
                "contact:website": "http:\/\/www.zs3.plonsk.pl",
                "ref:regon": "130850723",
                "operator": "Powiat P\u0142o\u0144ski",
                "operator:type": "government",
                "amenity": "school",
                "note": "Parent RSPO: 131410"
            }
        },
        {
            "id": 25267,
            "type": "Feature",
            "geometry": {
                "type": "Point",
                "coordinates": [
                    20.37015,
                    52.62995
                ]
            },
            "properties": {
                "isced:level": "3",
                "ref:rspo": 25267,
                "official_name": "Bran\u017cowa Szko\u0142a I Stopnia Specjalna w P\u0142o\u0144sku",
                "name": "Bran\u017cowa Szko\u0142a I Stopnia Specjalna w P\u0142o\u0144sku",
                "addr:country": "PL",
                "addr:postcode": "09-100",
                "addr:city": "P\u0142o\u0144sk",
                "addr:street": "M\u0142odzie\u017cowa",
                "addr:housenumber": "11A",
                "addr:teryt:simc": 13096,
                "addr:teryt:sym_ul": 930800,
                "contact:phone": "+48 236626615",
                "contact:email": "zsnr3@onet.pl",
                "contact:website": "http:\/\/www.zs3.plonsk.pl",
                "ref:regon": "130850730",
                "operator": "Powiat P\u0142o\u0144ski",
                "operator:type": "government",
                "amenity": "school",
                "note": "Parent RSPO: 131410"
            }
        },
        {
            "id": 25268,
            "type": "Feature",
            "geometry": {
                "type": "Point",
                "coordinates": [
                    20.37015,
                    52.62992
                ]
            },
            "properties": {
                "ref:rspo": 25268,
                "official_name": "Szko\u0142a Specjalna Przysposabiaj\u0105ca Do Pracy w P\u0142o\u0144sku",
                "name": "Szko\u0142a Specjalna Przysposabiaj\u0105ca Do Pracy w P\u0142o\u0144sku",
                "addr:country": "PL",
                "addr:postcode": "09-100",
                "addr:city": "P\u0142o\u0144sk",
                "addr:street": "M\u0142odzie\u017cowa",
                "addr:housenumber": "11A",
                "addr:teryt:simc": 13096,
                "addr:teryt:sym_ul": 930800,
                "contact:phone": "+48 236624688",
                "contact:email": "zsnr3@onet.pl",
                "contact:website": "http:\/\/www.zs3.plonsk.pl",
                "ref:regon": "141106456",
                "operator": "Powiat P\u0142o\u0144ski",
                "operator:type": "government",
                "amenity": "school",
                "note": "Parent RSPO: 131410"
            }
        },
        {
            "id": 131624,
            "type": "Feature",
            "geometry": {
                "type": "Point",
                "coordinates": [
                    20.37015,
                    52.629889999999996
                ]
            },
            "properties": {
                "ref:rspo": 131624,
                "official_name": "Przedszkole Specjalne w P\u0142o\u0144sku",
                "name": "Przedszkole Specjalne w P\u0142o\u0144sku",
                "addr:country": "PL",
                "addr:postcode": "09-100",
                "addr:city": "P\u0142o\u0144sk",
                "addr:street": "M\u0142odzie\u017cowa",
                "addr:housenumber": "11 A",
                "addr:teryt:simc": 13096,
                "addr:teryt:sym_ul": 930800,
                "contact:phone": "+48 236624688",
                "contact:email": "soswwplonsku@gmail.com",
                "ref:regon": "365315904",
                "operator": "Powiat P\u0142o\u0144ski",
                "operator:type": "government",
                "amenity": "kindergarten",
                "note": "Parent RSPO: 131410"
            }
        },
        {
            "id": 268539,
            "type": "Feature",
            "geometry": {
                "type": "Point",
                "coordinates": [
                    20.3333799,
                    52.63073
                ]
            },
            "properties": {
                "ref:rspo": 268539,
                "official_name": "J\u0119zykowo-Sportowe Niepubliczne Przedszkole \"Mali Giganci\"",
                "name": "J\u0119zykowo-Sportowe Niepubliczne Przedszkole \"Mali Giganci\"",
                "addr:country": "PL",
                "addr:postcode": "09-100",
                "addr:city": "P\u0142o\u0144sk",
                "addr:street": "Szkolna",
                "addr:housenumber": "35A",
                "addr:teryt:simc": 21970,
                "addr:teryt:sym_ul": 930800,
                "contact:phone": "+48 530441405",
                "contact:email": "ikraw78@onet.eu",
                "ref:regon": "381200525",
                "operator": "Monika Hartman",
                "operator:type": "private",
                "amenity": "kindergarten"
            }
        },
        {
            "id": 54421,
            "type": "Feature",
            "geometry": {
                "type": "Point",
                "coordinates": [
                    20.36849,
                    52.63194
                ]
            },
            "properties": {
                "isced:level": "1;2",
                "ref:rspo": 54421,
                "official_name": "Niepubliczna Szko\u0142a Podstawowa Specjalna \"Na Dobry Pocz\u0105tek\"",
                "name": "Niepubliczna Szko\u0142a Podstawowa Specjalna \"Na Dobry Pocz\u0105tek\"",
                "addr:country": "PL",
                "addr:postcode": "09-100",
                "addr:city": "P\u0142o\u0144sk",
                "addr:street": "Ksi\u0119dza Romualda Jaworskiego",
                "addr:housenumber": "2",
                "addr:teryt:simc": 34837,
                "addr:teryt:sym_ul": 930800,
                "contact:phone": "+48 530339303",
                "contact:email": "podajmysobierece@gmail.com",
                "contact:website": "http:\/\/podajmy-sobie-rece.pl",
                "ref:regon": "146432367",
                "operator": "Stowarzyszenie Na Rzecz Pomocy Osobom Niepe\u0142nosprawnym \"Podajmy Sobie R\u0119ce\"",
                "operator:type": "ngo",
                "amenity": "school"
            }
        },
        {
            "id": 26602,
            "type": "Feature",
            "geometry": {
                "type": "Point",
                "coordinates": [
                    20.37491,
                    52.63249
                ]
            },
            "properties": {
                "ref:rspo": 26602,
                "official_name": "Przedszkole Nr 4\"Pod Zielonym Listkiem\"",
                "name": "Przedszkole Nr 4\"Pod Zielonym Listkiem\"",
                "addr:country": "PL",
                "addr:postcode": "09-100",
                "addr:city": "P\u0142o\u0144sk",
                "addr:street": "Zygmunta Padlewskiego",
                "addr:housenumber": "3",
                "addr:teryt:simc": 55853,
                "addr:teryt:sym_ul": 930800,
                "contact:phone": "+48 236622390",
                "contact:email": "zielony-listek@plonsk.pl",
                "contact:website": "http:\/\/zielonylistek.plonsk.pl",
                "ref:regon": "130501030",
                "ref:vatin": "PL5671596962",
                "operator": "Gmina Miasto P\u0142o\u0144sk",
                "operator:type": "government",
                "amenity": "kindergarten"
            }
        },
        {
            "id": 133791,
            "type": "Feature",
            "geometry": {
                "type": "Point",
                "coordinates": [
                    20.37064,
                    52.63329
                ]
            },
            "properties": {
                "isced:level": "1;2",
                "ref:rspo": 133791,
                "official_name": "Szko\u0142a Podstawowa Nr 4 im. Papie\u017ca Jana Paw\u0142a Ii",
                "name": "Szko\u0142a Podstawowa Nr 4",
                "addr:country": "PL",
                "addr:postcode": "09-100",
                "addr:city": "P\u0142o\u0144sk",
                "addr:street": "Ksi\u0119dza Romualda Jaworskiego",
                "addr:housenumber": "25",
                "addr:teryt:simc": 34837,
                "addr:teryt:sym_ul": 930800,
                "contact:phone": "+48 236622167",
                "contact:email": "plonsksp4@gmail.com",
                "contact:website": "http:\/\/www.sp4plonsk.pl",
                "ref:regon": "367629742",
                "ref:vatin": "PL5671910039",
                "operator": "Gmina Miasto P\u0142o\u0144sk",
                "operator:type": "government",
                "amenity": "school"
            }
        },
        {
            "id": 32009,
            "type": "Feature",
            "geometry": {
                "type": "Point",
                "coordinates": [
                    20.36762,
                    52.63386
                ]
            },
            "properties": {
                "ref:rspo": 32009,
                "official_name": "Przedszkole \"Zaczarowana T\u0119cza\"",
                "name": "Przedszkole \"Zaczarowana T\u0119cza\"",
                "addr:country": "PL",
                "addr:postcode": "09-100",
                "addr:city": "P\u0142o\u0144sk",
                "addr:street": "P\u00f3\u0142nocna",
                "addr:housenumber": "5",
                "addr:teryt:simc": 17421,
                "addr:teryt:sym_ul": 930800,
                "contact:phone": "+48 531077155",
                "contact:email": "podajmysobierece@gmail.com",
                "contact:website": "http:\/\/podajmy-sobie-rece.pl\/index.php\/kontakt",
                "ref:regon": "146365211",
                "ref:vatin": "PL5671830228",
                "operator": "Stowarzyszenie Na Rzecz Pomocy Osobom Niepe\u0142nosprawnym \"Podajmy Sobie R\u0119ce\"",
                "operator:type": "ngo",
                "amenity": "kindergarten"
            }
        },
        {
            "id": 26607,
            "type": "Feature",
            "geometry": {
                "type": "Point",
                "coordinates": [
                    20.47821,
                    52.6845
                ]
            },
            "properties": {
                "ref:rspo": 26607,
                "official_name": "Przedszkole Nr 5 im. Jasia I Ma\u0142gosi",
                "name": "Przedszkole Nr 5",
                "addr:country": "PL",
                "addr:postcode": "09-100",
                "addr:city": "P\u0142o\u0144sk",
                "addr:street": "Szkolna",
                "addr:housenumber": "36a",
                "addr:teryt:simc": 21970,
                "addr:teryt:sym_ul": 930800,
                "contact:phone": "+48 236624926",
                "contact:email": "pnr5@plonsk.pl",
                "contact:website": "http:\/\/pnr5plonsk.edupage.org",
                "ref:regon": "130501017",
                "ref:vatin": "PL5671590534",
                "operator": "Gmina Miasto P\u0142o\u0144sk",
                "operator:type": "government",
                "amenity": "kindergarten"
            }
        },
        {
            "id": 29844,
            "type": "Feature",
            "geometry": {
                "type": "Point",
                "coordinates": [
                    20.47701,
                    52.68502
                ]
            },
            "properties": {
                "isced:level": "3",
                "ref:rspo": 29844,
                "official_name": "Liceum Og\u00f3lnokszta\u0142cace dla Doros\u0142ych w P\u0142o\u0144sku",
                "name": "Liceum Og\u00f3lnokszta\u0142cace dla Doros\u0142ych w P\u0142o\u0144sku",
                "addr:country": "PL",
                "addr:postcode": "09-100",
                "addr:city": "P\u0142o\u0144sk",
                "addr:street": "Szkolna",
                "addr:housenumber": "30",
                "addr:teryt:simc": 21970,
                "addr:teryt:sym_ul": 930800,
                "contact:phone": "+48 236622028",
                "contact:email": "lodladoroslych-plonsk@wp.pl",
                "ref:regon": "146358659",
                "operator": "Witold Szaszkiewicz",
                "operator:type": "private",
                "amenity": "school"
            }
        },
        {
            "id": 42246,
            "type": "Feature",
            "geometry": {
                "type": "Point",
                "coordinates": [
                    20.47701,
                    52.68499
                ]
            },
            "properties": {
                "isced:level": "1;2",
                "ref:rspo": 42246,
                "official_name": "Szko\u0142a Podstawowa Nr 2 w P\u0142o\u0144sku im. Jana Walerego J\u0119drzejewicza",
                "name": "Szko\u0142a Podstawowa Nr 2 w P\u0142o\u0144sku",
                "addr:country": "PL",
                "addr:postcode": "09-100",
                "addr:city": "P\u0142o\u0144sk",
                "addr:street": "Szkolna",
                "addr:housenumber": "30",
                "addr:teryt:simc": 21970,
                "addr:teryt:sym_ul": 930800,
                "contact:phone": "+48 236622028",
                "contact:email": "sekretariat@sp2plonsk.pl",
                "contact:website": "http:\/\/www.sp2plonsk.pl",
                "ref:regon": "001133128",
                "ref:vatin": "PL5671590468",
                "operator": "Gmina Miasto P\u0142o\u0144sk",
                "operator:type": "government",
                "amenity": "school"
            }
        }
    ]
}