{
    "type": "FeatureCollection",
    "features": [
        {
            "id": 51300,
            "type": "Feature",
            "geometry": {
                "type": "Point",
                "coordinates": [
                    22.1757348,
                    52.1770097
                ]
            },
            "properties": {
                "isced:level": "1;2",
                "ref:rspo": 51300,
                "official_name": "Szko\u0142a Podstawowa im. Kardyna\u0142a Stefana Wyszy\u0144skiego w Siedlinie",
                "name": "Szko\u0142a Podstawowa",
                "addr:country": "PL",
                "addr:postcode": "09-100",
                "addr:city": "Siedlin",
                "addr:street": "Jana Paw\u0142a II",
                "addr:housenumber": "12",
                "addr:teryt:simc": 7123,
                "addr:teryt:sym_ul": 122186,
                "contact:phone": "+48 236623148",
                "contact:email": "spsiedlin@gazeta.pl",
                "ref:regon": "001133080",
                "ref:vatin": "PL5671603024",
                "operator": "Gmina P\u0142o\u0144sk",
                "operator:type": "government",
                "amenity": "school"
            }
        },
        {
            "id": 81810,
            "type": "Feature",
            "geometry": {
                "type": "Point",
                "coordinates": [
                    20.4806302,
                    52.6043288
                ]
            },
            "properties": {
                "isced:level": "1;2",
                "ref:rspo": 81810,
                "official_name": "Szko\u0142a Podstawowa w Lisewie",
                "name": "Szko\u0142a Podstawowa w Lisewie",
                "addr:country": "PL",
                "addr:postcode": "09-100",
                "addr:place": "Lisewo",
                "addr:housenumber": "48",
                "addr:teryt:sym_ul": 122097,
                "contact:phone": "+48 236622305",
                "contact:email": "splisewo@wp.pl",
                "contact:website": "http:\/\/zslisewo.pl",
                "ref:regon": "001133097",
                "ref:vatin": "PL5671604868",
                "operator": "Gmina P\u0142o\u0144sk",
                "operator:type": "government",
                "amenity": "school"
            }
        },
        {
            "id": 123687,
            "type": "Feature",
            "geometry": {
                "type": "Point",
                "coordinates": [
                    20.33727,
                    52.62872
                ]
            },
            "properties": {
                "isced:level": "1;2",
                "ref:rspo": 123687,
                "official_name": "Niepubliczna Szko\u0142a Podstawowa \"\u017bywio\u0142y\"",
                "name": "Niepubliczna Szko\u0142a Podstawowa \"\u017bywio\u0142y\"",
                "addr:country": "PL",
                "addr:postcode": "09-100",
                "addr:city": "Szerominek",
                "addr:street": "Po\u0142udniowa",
                "addr:housenumber": "1E",
                "addr:teryt:simc": 17070,
                "addr:teryt:sym_ul": 122335,
                "contact:phone": "+48 236834412",
                "contact:email": "szkola@integritas.pl",
                "contact:website": "http:\/\/integritas.pl\/",
                "ref:regon": "147342123",
                "ref:vatin": "PL5671905618",
                "operator": "Stowarzyszenie \"Integritas\"",
                "operator:type": "ngo",
                "amenity": "school"
            }
        },
        {
            "id": 16455,
            "type": "Feature",
            "geometry": {
                "type": "Point",
                "coordinates": [
                    20.331260681152,
                    52.632549285889
                ]
            },
            "properties": {
                "ref:rspo": 16455,
                "official_name": "Przedszkole Integracyjne \"Akademia Abcd\"",
                "name": "Przedszkole Integracyjne \"Akademia Abcd\"",
                "addr:country": "PL",
                "addr:postcode": "09-100",
                "addr:city": "Szerominek",
                "addr:street": "Baboszewska",
                "addr:housenumber": "10",
                "addr:teryt:simc": 544,
                "addr:teryt:sym_ul": 122335,
                "contact:phone": "+48 530339303",
                "contact:email": "podajmysobierece@gmail.com",
                "contact:website": "http:\/\/podajmy-sobie-rece.wp",
                "ref:regon": "146306792",
                "ref:vatin": "PL5671830228",
                "operator": "Stowarzyszenie Na Rzecz Pomocy Osobom Niepe\u0142nosprawnym \"Podajmy Sobie R\u0119ce\"",
                "operator:type": "ngo",
                "amenity": "kindergarten"
            }
        },
        {
            "id": 118971,
            "type": "Feature",
            "geometry": {
                "type": "Point",
                "coordinates": [
                    20.3016,
                    52.65467
                ]
            },
            "properties": {
                "ref:rspo": 118971,
                "official_name": "Przedszkole Kolorowa Ciuchcia",
                "name": "Przedszkole Kolorowa Ciuchcia",
                "addr:country": "PL",
                "addr:postcode": "09-100",
                "addr:city": "Arcelin",
                "addr:street": "Bitwy Arceli\u0144skiej",
                "addr:housenumber": "4",
                "addr:teryt:simc": 46269,
                "addr:teryt:sym_ul": 121927,
                "contact:phone": "+48 793255055",
                "ref:regon": "146829366",
                "operator": "Stowarzyszenie Na Rzecz Pomocy Osobom Niepe\u0142nosprawnym \"Podajmy Sobie R\u0119ce\"",
                "operator:type": "ngo",
                "amenity": "kindergarten"
            }
        }
    ]
}