{
    "type": "FeatureCollection",
    "features": [
        {
            "id": 4965,
            "type": "Feature",
            "geometry": {
                "type": "Point",
                "coordinates": [
                    20.1204015,
                    52.7137117
                ]
            },
            "properties": {
                "isced:level": "1;2",
                "ref:rspo": 4965,
                "official_name": "Szko\u0142a Podstawowa im.\u015bw.stanis\u0142awa Kostki w Starym Gralewie",
                "name": "Szko\u0142a Podstawowa im.\u015bw.stanis\u0142awa Kostki w Starym Gralewie",
                "addr:country": "PL",
                "addr:postcode": "09-166",
                "addr:place": "Stare Gralewo",
                "addr:housenumber": "13",
                "addr:teryt:sym_ul": 123493,
                "contact:phone": "+48 236793002",
                "contact:email": "zsgralewo@wp.pl",
                "contact:website": "http:\/\/www.zsgralewo.jimdo.com",
                "ref:regon": "001133594",
                "ref:vatin": "PL5671903217",
                "operator": "Gmina Raci\u0105\u017c",
                "operator:type": "government",
                "amenity": "school"
            }
        },
        {
            "id": 17484,
            "type": "Feature",
            "geometry": {
                "type": "Point",
                "coordinates": [
                    20.1204015,
                    52.713681699999995
                ]
            },
            "properties": {
                "ref:rspo": 17484,
                "official_name": "Punkt Przedszkolny w Starym Gralewie",
                "name": "Punkt Przedszkolny w Starym Gralewie",
                "addr:country": "PL",
                "addr:postcode": "09-166",
                "addr:place": "Stare Gralewo",
                "addr:housenumber": "13",
                "addr:teryt:sym_ul": 123493,
                "contact:phone": "+48 236793002",
                "contact:email": "zsgralewo@wp.pl",
                "contact:website": "http:\/\/www.zsgralewo.jimdo.com",
                "ref:regon": "146312918",
                "operator": "Gmina Raci\u0105\u017c",
                "operator:type": "government",
                "amenity": "kindergarten"
            }
        },
        {
            "id": 17479,
            "type": "Feature",
            "geometry": {
                "type": "Point",
                "coordinates": [
                    20.2002306,
                    52.7949443
                ]
            },
            "properties": {
                "ref:rspo": 17479,
                "official_name": "Punkt Przedszkolny w Krajkowie",
                "name": "Punkt Przedszkolny w Krajkowie",
                "addr:country": "PL",
                "addr:postcode": "09-140",
                "addr:place": "Krajkowo",
                "addr:housenumber": "8",
                "addr:teryt:sym_ul": 123671,
                "contact:phone": "+48 236799120",
                "contact:email": "zskrajkowo@wp.pl",
                "contact:website": "http:\/\/www.spkrajkowo.szkolnastrona.pl",
                "ref:regon": "146312730",
                "operator": "Gmina Raci\u0105\u017c",
                "operator:type": "government",
                "amenity": "kindergarten"
            }
        },
        {
            "id": 29262,
            "type": "Feature",
            "geometry": {
                "type": "Point",
                "coordinates": [
                    20.2002306,
                    52.794914299999995
                ]
            },
            "properties": {
                "isced:level": "1;2",
                "ref:rspo": 29262,
                "official_name": "Szko\u0142a Podstawowa im. Stanis\u0142awa Chojnackiego w Krajkowie",
                "name": "Szko\u0142a Podstawowa",
                "addr:country": "PL",
                "addr:postcode": "09-140",
                "addr:place": "Krajkowo",
                "addr:housenumber": "8",
                "addr:teryt:sym_ul": 123671,
                "contact:phone": "+48 236799120",
                "contact:email": "zskrajkowo@wp.pl",
                "contact:website": "http:\/\/www.spkrajkowo.szkolnastrona.pl",
                "ref:regon": "001133602",
                "ref:vatin": "PL5671831765",
                "operator": "Gmina Raci\u0105\u017c",
                "operator:type": "government",
                "amenity": "school"
            }
        },
        {
            "id": 17563,
            "type": "Feature",
            "geometry": {
                "type": "Point",
                "coordinates": [
                    20.0021124,
                    52.8010718
                ]
            },
            "properties": {
                "ref:rspo": 17563,
                "official_name": "Punkt Przedszkolny w Koziebrodach",
                "name": "Punkt Przedszkolny w Koziebrodach",
                "addr:country": "PL",
                "addr:postcode": "09-140",
                "addr:place": "Koziebrody",
                "addr:housenumber": "5",
                "addr:teryt:sym_ul": 123659,
                "contact:phone": "+48 236797012",
                "contact:email": "koziebrody@vp.pl",
                "contact:website": "http:\/\/www.zskoziebrody.szkolnastrona.pl",
                "ref:regon": "146313846",
                "operator": "Gmina Raci\u0105\u017c",
                "operator:type": "government",
                "amenity": "kindergarten"
            }
        },
        {
            "id": 29521,
            "type": "Feature",
            "geometry": {
                "type": "Point",
                "coordinates": [
                    20.0021124,
                    52.8010418
                ]
            },
            "properties": {
                "isced:level": "1;2",
                "ref:rspo": 29521,
                "official_name": "Szko\u0142a Podstawowa im. W\u0142adys\u0142awa Stanis\u0142awa Reymonta w Koziebrodach",
                "name": "Szko\u0142a Podstawowa",
                "addr:country": "PL",
                "addr:postcode": "09-140",
                "addr:place": "Koziebrody",
                "addr:housenumber": "5",
                "addr:teryt:sym_ul": 123659,
                "contact:phone": "+48 236797012",
                "contact:email": "koziebrody@vp.pl",
                "contact:website": "http:\/\/www.zskoziebrody.szkolnastrona.pl",
                "ref:regon": "001134211",
                "ref:vatin": "PL5671831771",
                "operator": "Gmina Raci\u0105\u017c",
                "operator:type": "government",
                "amenity": "school"
            }
        },
        {
            "id": 273181,
            "type": "Feature",
            "geometry": {
                "type": "Point",
                "coordinates": [
                    20.04218,
                    52.81726
                ]
            },
            "properties": {
                "isced:level": "1;2",
                "ref:rspo": 273181,
                "official_name": "Szko\u0142a Podstawowa Specjalna \"Odzyska\u0107 Rado\u015b\u0107\"",
                "name": "Szko\u0142a Podstawowa Specjalna \"Odzyska\u0107 Rado\u015b\u0107\"",
                "addr:country": "PL",
                "addr:postcode": "09-140",
                "addr:place": "Kraszewo-Czubaki",
                "addr:housenumber": "23b",
                "addr:teryt:sym_ul": 123694,
                "contact:phone": "+48 236844004",
                "contact:email": "szkola@odzyskacradosc.pl",
                "ref:regon": "384388400",
                "operator": "Fundacja Odzyska\u0107 Rado\u015b\u0107",
                "operator:type": "ngo",
                "amenity": "school"
            }
        },
        {
            "id": 278435,
            "type": "Feature",
            "geometry": {
                "type": "Point",
                "coordinates": [
                    20.04218,
                    52.817229999999995
                ]
            },
            "properties": {
                "ref:rspo": 278435,
                "official_name": "Przedszkole Integracyjne \"Rado\u015bni Odkrywcy\"",
                "name": "Przedszkole Integracyjne \"Rado\u015bni Odkrywcy\"",
                "addr:country": "PL",
                "addr:postcode": "09-140",
                "addr:place": "Kraszewo-Czubaki",
                "addr:housenumber": "23b",
                "addr:teryt:sym_ul": 123694,
                "ref:regon": "389893574",
                "operator": "Fundacja Odzyska\u0107 Rado\u015b\u0107",
                "operator:type": "ngo",
                "amenity": "kindergarten"
            }
        },
        {
            "id": 17486,
            "type": "Feature",
            "geometry": {
                "type": "Point",
                "coordinates": [
                    20.2002749,
                    52.867923
                ]
            },
            "properties": {
                "ref:rspo": 17486,
                "official_name": "Punkt Przedszkolny w Uniecku",
                "name": "Punkt Przedszkolny w Uniecku",
                "addr:country": "PL",
                "addr:postcode": "09-140",
                "addr:place": "Unieck",
                "addr:housenumber": "80",
                "addr:teryt:sym_ul": 123990,
                "contact:phone": "+48 236793511",
                "contact:email": "spunieck@wp.pl",
                "contact:website": "http:\/\/www.unieck.schoolpage.pl",
                "ref:regon": "146312798",
                "operator": "Gmina Raci\u0105\u017c",
                "operator:type": "government",
                "amenity": "kindergarten"
            }
        },
        {
            "id": 31122,
            "type": "Feature",
            "geometry": {
                "type": "Point",
                "coordinates": [
                    20.2002749,
                    52.867892999999995
                ]
            },
            "properties": {
                "isced:level": "1;2",
                "ref:rspo": 31122,
                "official_name": "Szko\u0142a Podstawowa im. Powsta\u0144c\u00f3w Styczniowych w Uniecku",
                "name": "Szko\u0142a Podstawowa",
                "addr:country": "PL",
                "addr:postcode": "09-140",
                "addr:place": "Unieck",
                "addr:housenumber": "80",
                "addr:teryt:sym_ul": 123990,
                "contact:phone": "+48 236793511",
                "contact:email": "spunieck@wp.pl",
                "contact:website": "http:\/\/www.unieck.schoolpage.pl",
                "ref:regon": "001133631",
                "ref:vatin": "PL5671831759",
                "operator": "Gmina Raci\u0105\u017c",
                "operator:type": "government",
                "amenity": "school"
            }
        }
    ]
}