{
    "type": "FeatureCollection",
    "features": [
        {
            "id": 16624,
            "type": "Feature",
            "geometry": {
                "type": "Point",
                "coordinates": [
                    20.578043,
                    52.595428
                ]
            },
            "properties": {
                "ref:rspo": 16624,
                "official_name": "Specjalny O\u015brodek Szkolno-Wychowawczy w Jo\u0144cu",
                "name": "Specjalny O\u015brodek Szkolno-Wychowawczy w Jo\u0144cu",
                "addr:postcode": "09-131",
                "addr:place": "Joniec",
                "addr:housenumber": "50",
                "addr:teryt:simc": 116599,
                "phone": "+48 236616031",
                "email": "soszw@poczta.onet.eu",
                "website": "http:\/\/www.oswjoniec.pl",
                "ref:regon": "000970856",
                "ref:vatin": "PL5671471114",
                "operator": "Powiat P\u0142o\u0144ski",
                "operator:type": "government",
                "amenity": "school",
                "note": "Children RSPO: 25272;25274"
            }
        },
        {
            "id": 25272,
            "type": "Feature",
            "geometry": {
                "type": "Point",
                "coordinates": [
                    20.578043,
                    52.595397999999996
                ]
            },
            "properties": {
                "isced:level": "1;2",
                "ref:rspo": 25272,
                "official_name": "Szko\u0142a Podstawowa Specjalna w Jo\u0144cu",
                "name": "Szko\u0142a Podstawowa Specjalna w Jo\u0144cu",
                "addr:postcode": "09-131",
                "addr:place": "Joniec",
                "addr:housenumber": "50",
                "addr:teryt:simc": 116599,
                "phone": "+48 236616031",
                "email": "soszw@poczta.onet.eu",
                "website": "http:\/\/www.oswjoniec.pl",
                "ref:regon": "130436768",
                "operator": "Powiat P\u0142o\u0144ski",
                "operator:type": "government",
                "amenity": "school",
                "note": "Parent RSPO: 16624"
            }
        },
        {
            "id": 25274,
            "type": "Feature",
            "geometry": {
                "type": "Point",
                "coordinates": [
                    20.578043,
                    52.595368
                ]
            },
            "properties": {
                "ref:rspo": 25274,
                "official_name": "Szko\u0142a Specjalna Przysposabiaj\u0105ca Do Pracy w Jo\u0144cu",
                "name": "Szko\u0142a Specjalna Przysposabiaj\u0105ca Do Pracy w Jo\u0144cu",
                "addr:postcode": "09-131",
                "addr:place": "Joniec",
                "addr:housenumber": "50",
                "addr:teryt:simc": 116599,
                "phone": "+48 236616031",
                "email": "soszw@poczta.onet.eu",
                "website": "http:\/\/www.oswjoniec.pl",
                "ref:regon": "141101861",
                "operator": "Powiat P\u0142o\u0144ski",
                "operator:type": "government",
                "amenity": "school",
                "note": "Parent RSPO: 16624"
            }
        },
        {
            "id": 108786,
            "type": "Feature",
            "geometry": {
                "type": "Point",
                "coordinates": [
                    20.578815,
                    52.601051
                ]
            },
            "properties": {
                "isced:level": "1;2",
                "ref:rspo": 108786,
                "official_name": "Szko\u0142a Podstawowa im. Bohater\u00f3w Bitwy Nad Wkr\u0105 w Jo\u0144cu",
                "name": "Szko\u0142a Podstawowa",
                "addr:postcode": "09-131",
                "addr:place": "Joniec",
                "addr:housenumber": "69",
                "addr:teryt:simc": 116599,
                "phone": "+48 236616034",
                "email": "sekretariat@spjoniec.pl",
                "ref:regon": "001038192",
                "ref:vatin": "PL5671601864",
                "operator": "Gmina Joniec",
                "operator:type": "government",
                "amenity": "school"
            }
        },
        {
            "id": 103376,
            "type": "Feature",
            "geometry": {
                "type": "Point",
                "coordinates": [
                    20.564753,
                    52.63529
                ]
            },
            "properties": {
                "isced:level": "1;2",
                "ref:rspo": 103376,
                "official_name": "Szko\u0142a Podstawowa w Kr\u00f3lewie",
                "name": "Szko\u0142a Podstawowa w Kr\u00f3lewie",
                "addr:postcode": "09-131",
                "addr:place": "Kr\u00f3lewo",
                "addr:housenumber": "58",
                "addr:teryt:simc": 116636,
                "phone": "+48 236612960",
                "email": "spkrol@wp.pl",
                "website": "http:\/\/www.krolewo.pl",
                "ref:regon": "001156520",
                "ref:vatin": "PL5671618422",
                "operator": "Gmina Joniec",
                "operator:type": "government",
                "amenity": "school"
            }
        }
    ]
}