{
    "type": "FeatureCollection",
    "features": [
        {
            "id": 16622,
            "type": "Feature",
            "geometry": {
                "type": "Point",
                "coordinates": [
                    20.12785,
                    52.77852
                ]
            },
            "properties": {
                "ref:rspo": 16622,
                "official_name": "Zesp\u00f3\u0142 Szk\u00f3\u0142 w Raci\u0105\u017cu",
                "name": "Zesp\u00f3\u0142 Szk\u00f3\u0142 w Raci\u0105\u017cu",
                "addr:country": "PL",
                "addr:postcode": "09-140",
                "addr:city": "Raci\u0105\u017c",
                "addr:street": "ul. Kili\u0144skiego",
                "addr:housenumber": "64",
                "addr:teryt:simc": 8431,
                "addr:teryt:sym_ul": 930839,
                "contact:phone": "+48 236791031",
                "contact:email": "sekretariat-zs@raciaz.edu.pl",
                "contact:website": "http:\/\/zsraciaz.pl",
                "ref:regon": "000201106",
                "ref:vatin": "PL5671459975",
                "operator": "Powiat P\u0142o\u0144ski",
                "operator:type": "government",
                "landuse": "education",
                "fixme": "amenity=school, amenity=college albo landuse=education w zale\u017cno\u015bci od tego, jakie plac\u00f3wki wchodz\u0105 w sk\u0142ad zespo\u0142u. Sprawd\u017a, kiedy stosowa\u0107 amenity=* a kiedy landuse=education.",
                "note": "Children RSPO: 25269;25270;25271;119753;271733"
            }
        },
        {
            "id": 25269,
            "type": "Feature",
            "geometry": {
                "type": "Point",
                "coordinates": [
                    20.12785,
                    52.77849
                ]
            },
            "properties": {
                "isced:level": "3",
                "ref:rspo": 25269,
                "official_name": "Liceum Og\u00f3lnokszta\u0142c\u0105ce im.mjra Henryka Dobrza\u0144skiego \"Hubala\" w Raci\u0105\u017cu",
                "name": "Liceum Og\u00f3lnokszta\u0142c\u0105ce im.mjra Henryka Dobrza\u0144skiego \"Hubala\" w Raci\u0105\u017cu",
                "addr:country": "PL",
                "addr:postcode": "09-140",
                "addr:city": "Raci\u0105\u017c",
                "addr:street": "ul. Kili\u0144skiego",
                "addr:housenumber": "64",
                "addr:teryt:simc": 8431,
                "addr:teryt:sym_ul": 930839,
                "contact:phone": "+48 236791031",
                "contact:email": "sekretariat-zs@raciaz.edu.pl",
                "contact:website": "http:\/\/zsraciaz.pl",
                "ref:regon": "001113657",
                "operator": "Powiat P\u0142o\u0144ski",
                "operator:type": "government",
                "amenity": "school",
                "note": "Parent RSPO: 16622"
            }
        },
        {
            "id": 25270,
            "type": "Feature",
            "geometry": {
                "type": "Point",
                "coordinates": [
                    20.12785,
                    52.77846
                ]
            },
            "properties": {
                "isced:level": "3",
                "ref:rspo": 25270,
                "official_name": "Technikum w Raci\u0105\u017cu",
                "name": "Technikum w Raci\u0105\u017cu",
                "addr:country": "PL",
                "addr:postcode": "09-140",
                "addr:city": "Raci\u0105\u017c",
                "addr:street": "ul. Kili\u0144skiego",
                "addr:housenumber": "64",
                "addr:teryt:simc": 8431,
                "addr:teryt:sym_ul": 930839,
                "contact:phone": "+48 236791031",
                "contact:email": "sekretariat-zs@raciaz.edu.pl",
                "contact:website": "http:\/\/zsraciaz.pl",
                "ref:regon": "130915530",
                "operator": "Powiat P\u0142o\u0144ski",
                "operator:type": "government",
                "amenity": "school",
                "note": "Parent RSPO: 16622"
            }
        },
        {
            "id": 25271,
            "type": "Feature",
            "geometry": {
                "type": "Point",
                "coordinates": [
                    20.12785,
                    52.77843
                ]
            },
            "properties": {
                "isced:level": "3",
                "ref:rspo": 25271,
                "official_name": "Bran\u017cowa Szko\u0142a I Stopnia w Raci\u0105\u017cu",
                "name": "Bran\u017cowa Szko\u0142a I Stopnia w Raci\u0105\u017cu",
                "addr:country": "PL",
                "addr:postcode": "09-140",
                "addr:city": "Raci\u0105\u017c",
                "addr:street": "ul. Kili\u0144skiego",
                "addr:housenumber": "64",
                "addr:teryt:simc": 8431,
                "addr:teryt:sym_ul": 930839,
                "contact:phone": "+48 236791031",
                "contact:email": "sekretariat-zs@raciaz.edu.pl",
                "contact:website": "http:\/\/zsraciaz.pl",
                "ref:regon": "130915500",
                "operator": "Powiat P\u0142o\u0144ski",
                "operator:type": "government",
                "amenity": "school",
                "note": "Parent RSPO: 16622"
            }
        },
        {
            "id": 119753,
            "type": "Feature",
            "geometry": {
                "type": "Point",
                "coordinates": [
                    20.12785,
                    52.7784
                ]
            },
            "properties": {
                "isced:level": "3",
                "ref:rspo": 119753,
                "official_name": "Liceum Og\u00f3lnokszta\u0142c\u0105ce dla Doros\u0142ych w Raci\u0105\u017cu",
                "name": "Liceum Og\u00f3lnokszta\u0142c\u0105ce dla Doros\u0142ych w Raci\u0105\u017cu",
                "addr:country": "PL",
                "addr:postcode": "09-140",
                "addr:city": "Raci\u0105\u017c",
                "addr:street": "ul. Kili\u0144skiego",
                "addr:housenumber": "64",
                "addr:teryt:simc": 8431,
                "addr:teryt:sym_ul": 930839,
                "contact:phone": "+48 236791031",
                "contact:email": "sekretariat-zs@raciaz.edu.pl",
                "contact:website": "http:\/\/zsraciaz.pl",
                "ref:regon": "146859031",
                "operator": "Powiat P\u0142o\u0144ski",
                "operator:type": "government",
                "amenity": "school",
                "note": "Parent RSPO: 16622"
            }
        },
        {
            "id": 271733,
            "type": "Feature",
            "geometry": {
                "type": "Point",
                "coordinates": [
                    20.12785,
                    52.77837
                ]
            },
            "properties": {
                "ref:rspo": 271733,
                "official_name": "Centrum Kszta\u0142cenia Zawodowego w Raci\u0105\u017cu",
                "name": "Centrum Kszta\u0142cenia Zawodowego w Raci\u0105\u017cu",
                "addr:country": "PL",
                "addr:postcode": "09-140",
                "addr:city": "Raci\u0105\u017c",
                "addr:street": "ul. Kili\u0144skiego",
                "addr:housenumber": "64",
                "addr:teryt:simc": 8431,
                "addr:teryt:sym_ul": 930839,
                "contact:phone": "+48 236791031",
                "contact:email": "sekretariat-zs@raciaz.edu.pl",
                "contact:website": "http:\/\/zsraciaz.pl",
                "ref:regon": "383588309",
                "operator": "Powiat P\u0142o\u0144ski",
                "operator:type": "government",
                "fixme": "w zale\u017cno\u015bci od przedmiotu dzia\u0142alno\u015bci (np. amenity=training + training=*, amenity=dancing_school, amenity=language_school, amenity=music_school) albo amenity=school, amenity=college, albo landuse=education w zale\u017cno\u015bci od tego, jakie plac\u00f3wki wchodz\u0105 w sk\u0142ad zespo\u0142u. Sprawd\u017a, kiedy stosowa\u0107 amenity=* a kiedy landuse=education.",
                "note": "Parent RSPO: 16622"
            }
        },
        {
            "id": 17634,
            "type": "Feature",
            "geometry": {
                "type": "Point",
                "coordinates": [
                    20.10581,
                    52.77921
                ]
            },
            "properties": {
                "ref:rspo": 17634,
                "official_name": "Punkt Przedszkolny w Raci\u0105\u017cu",
                "name": "Punkt Przedszkolny w Raci\u0105\u017cu",
                "addr:country": "PL",
                "addr:postcode": "09-140",
                "addr:city": "Raci\u0105\u017c",
                "addr:street": "ul. 11 Listopada",
                "addr:housenumber": "20",
                "addr:teryt:simc": 11205,
                "addr:teryt:sym_ul": 930839,
                "contact:phone": "+48 236791273",
                "contact:email": "koziebrody@vp.pl",
                "contact:website": "http:\/\/www.zskoziebrody.szkolnastrona.pl",
                "ref:regon": "146313579",
                "operator": "Gmina Raci\u0105\u017c",
                "operator:type": "government",
                "amenity": "kindergarten"
            }
        },
        {
            "id": 92879,
            "type": "Feature",
            "geometry": {
                "type": "Point",
                "coordinates": [
                    20.12697,
                    52.77933
                ]
            },
            "properties": {
                "isced:level": "1;2",
                "ref:rspo": 92879,
                "official_name": "Szko\u0142a Podstawowa im. Stanis\u0142awa Konarskiego",
                "name": "Szko\u0142a Podstawowa",
                "addr:country": "PL",
                "addr:postcode": "09-140",
                "addr:city": "Raci\u0105\u017c",
                "addr:street": "ul. Kili\u0144skiego",
                "addr:housenumber": "62B",
                "addr:teryt:simc": 8431,
                "addr:teryt:sym_ul": 930839,
                "contact:phone": "+48 236791181",
                "contact:email": "sekretariat@mzsraciaz.pl",
                "contact:website": "http:\/\/spraciaz.edupage.org",
                "ref:regon": "000648014",
                "ref:vatin": "PL5671827433",
                "operator": "Gmina Miasto Raci\u0105\u017c",
                "operator:type": "government",
                "amenity": "school"
            }
        },
        {
            "id": 26964,
            "type": "Feature",
            "geometry": {
                "type": "Point",
                "coordinates": [
                    20.11526,
                    52.77994
                ]
            },
            "properties": {
                "ref:rspo": 26964,
                "official_name": "Zesp\u00f3\u0142 Szk\u00f3\u0142 Spo\u0142ecznego Towarzystwa O\u015bwiatowego w Raci\u0105\u017cu",
                "name": "Zesp\u00f3\u0142 Szk\u00f3\u0142 Spo\u0142ecznego Towarzystwa O\u015bwiatowego w Raci\u0105\u017cu",
                "addr:country": "PL",
                "addr:postcode": "09-140",
                "addr:city": "Raci\u0105\u017c",
                "addr:street": "ul. P\u0142ocka",
                "addr:housenumber": "28",
                "addr:teryt:simc": 16511,
                "addr:teryt:sym_ul": 930839,
                "contact:phone": "+48 236791071",
                "contact:email": "storaciaz@poczta.onet.pl",
                "contact:website": "http:\/\/www.storaciaz.pl",
                "ref:regon": "146342747",
                "ref:vatin": "PL5671081264",
                "operator": "Samodzielne Ko\u0142o Terenowe Nr 223 Spo\u0142ecznego Towarzystwa O\u015bwiatowego",
                "operator:type": "ngo",
                "landuse": "education",
                "fixme": "amenity=school, amenity=college albo landuse=education w zale\u017cno\u015bci od tego, jakie plac\u00f3wki wchodz\u0105 w sk\u0142ad zespo\u0142u. Sprawd\u017a, kiedy stosowa\u0107 amenity=* a kiedy landuse=education.",
                "note": "Children RSPO: 54424"
            }
        },
        {
            "id": 54428,
            "type": "Feature",
            "geometry": {
                "type": "Point",
                "coordinates": [
                    20.11526,
                    52.77991
                ]
            },
            "properties": {
                "isced:level": "4",
                "ref:rspo": 54428,
                "official_name": "Publiczna Szko\u0142a Policealna Spo\u0142ecznego Towarzystwa O\u015bwiatowego w Raci\u0105\u017cu",
                "name": "Publiczna Szko\u0142a Policealna Spo\u0142ecznego Towarzystwa O\u015bwiatowego w Raci\u0105\u017cu",
                "addr:country": "PL",
                "addr:postcode": "09-140",
                "addr:city": "Raci\u0105\u017c",
                "addr:street": "ul. P\u0142ocka",
                "addr:housenumber": "28",
                "addr:teryt:simc": 16511,
                "addr:teryt:sym_ul": 930839,
                "contact:phone": "+48 236791071",
                "contact:email": "pspraciaz@gmail.com",
                "contact:website": "http:\/\/www.publicznastoraciaz.pl",
                "ref:regon": "146378350",
                "operator": "Samodzielne Ko\u0142o Terenowe Nr 223 Spo\u0142ecznego Towarzystwa O\u015bwiatowego",
                "operator:type": "ngo",
                "amenity": "college"
            }
        },
        {
            "id": 278257,
            "type": "Feature",
            "geometry": {
                "type": "Point",
                "coordinates": [
                    20.11526,
                    52.779880000000006
                ]
            },
            "properties": {
                "ref:rspo": 278257,
                "official_name": "Centrum Kszta\u0142cenia Zawodowego I Ustawicznego Spo\u0142ecznego Towarzystwa O\u015bwiatowego w Raci\u0105\u017cu",
                "name": "Centrum Kszta\u0142cenia Zawodowego I Ustawicznego Spo\u0142ecznego Towarzystwa O\u015bwiatowego w Raci\u0105\u017cu",
                "addr:country": "PL",
                "addr:postcode": "09-140",
                "addr:city": "Raci\u0105\u017c",
                "addr:street": "ul. P\u0142ocka",
                "addr:housenumber": "28",
                "addr:teryt:simc": 16511,
                "addr:teryt:sym_ul": 930839,
                "contact:phone": "+48 236791071",
                "contact:email": "storaciaz@poczta.onet.pl",
                "ref:regon": "389878617",
                "operator": "Samodzielne Ko\u0142o Terenowe Nr 223 Spo\u0142ecznego Towarzystwa O\u015bwiatowego",
                "operator:type": "ngo",
                "fixme": "w zale\u017cno\u015bci od przedmiotu dzia\u0142alno\u015bci (np. amenity=training + training=*, amenity=dancing_school, amenity=language_school, amenity=music_school) albo amenity=school, amenity=college, albo landuse=education w zale\u017cno\u015bci od tego, jakie plac\u00f3wki wchodz\u0105 w sk\u0142ad zespo\u0142u. Sprawd\u017a, kiedy stosowa\u0107 amenity=* a kiedy landuse=education."
            }
        },
        {
            "id": 54424,
            "type": "Feature",
            "geometry": {
                "type": "Point",
                "coordinates": [
                    20.11526,
                    52.77985
                ]
            },
            "properties": {
                "isced:level": "3",
                "ref:rspo": 54424,
                "official_name": "Spo\u0142eczne Liceum Og\u00f3lnokszta\u0142c\u0105ce Spo\u0142ecznego Towarzystwa O\u015bwiatowego w Raci\u0105\u017cu",
                "name": "Spo\u0142eczne Liceum Og\u00f3lnokszta\u0142c\u0105ce Spo\u0142ecznego Towarzystwa O\u015bwiatowego w Raci\u0105\u017cu",
                "addr:country": "PL",
                "addr:postcode": "09-140",
                "addr:city": "Raci\u0105\u017c",
                "addr:street": "ul. P\u0142ocka",
                "addr:housenumber": "28",
                "addr:teryt:simc": 16511,
                "addr:teryt:sym_ul": 930839,
                "contact:phone": "+48 236791071",
                "contact:email": "storaciaz@poczta.onet.pl",
                "contact:website": "http:\/\/www.storaciaz.pl",
                "ref:regon": "146432396",
                "operator": "Samodzielne Ko\u0142o Terenowe Nr 223 Spo\u0142ecznego Towarzystwa O\u015bwiatowego",
                "operator:type": "ngo",
                "amenity": "school",
                "note": "Parent RSPO: 26964"
            }
        },
        {
            "id": 80235,
            "type": "Feature",
            "geometry": {
                "type": "Point",
                "coordinates": [
                    20.1205399,
                    52.78249
                ]
            },
            "properties": {
                "ref:rspo": 80235,
                "official_name": "Miejskie Przedszkole w Raci\u0105\u017cu",
                "name": "Miejskie Przedszkole w Raci\u0105\u017cu",
                "addr:country": "PL",
                "addr:postcode": "09-140",
                "addr:city": "Raci\u0105\u017c",
                "addr:street": "ul. Nadrzeczna",
                "addr:housenumber": "3",
                "addr:teryt:simc": 13902,
                "addr:teryt:sym_ul": 930839,
                "contact:phone": "+48 236791049",
                "contact:email": "przedszkole@miastoraciaz.pl",
                "contact:website": "https:\/\/przedszkole.miastoraciaz.pl\/",
                "ref:regon": "141014961",
                "ref:vatin": "PL5671827456",
                "operator": "Gmina Miasto Raci\u0105\u017c",
                "operator:type": "government",
                "amenity": "kindergarten"
            }
        },
        {
            "id": 129071,
            "type": "Feature",
            "geometry": {
                "type": "Point",
                "coordinates": [
                    20.1232,
                    52.78299
                ]
            },
            "properties": {
                "ref:rspo": 129071,
                "official_name": "Akademia Myszki Miki - Agnieszka Rusin",
                "name": "Akademia Myszki Miki - Agnieszka Rusin",
                "addr:country": "PL",
                "addr:postcode": "09-140",
                "addr:city": "Raci\u0105\u017c",
                "addr:street": "ul. Jana Paw\u0142a II",
                "addr:housenumber": "7",
                "addr:door": "A",
                "addr:teryt:simc": 7123,
                "addr:teryt:sym_ul": 930839,
                "contact:email": "akademiamyszkimiki@op.pl",
                "ref:regon": "362466614",
                "ref:vatin": "PL5691806606",
                "operator": "Akademia Myszki Miki  - Agnieszka Rusin",
                "operator:type": "consortium",
                "amenity": "kindergarten"
            }
        }
    ]
}