{
    "type": "FeatureCollection",
    "features": [
        {
            "id": 105442,
            "type": "Feature",
            "geometry": {
                "type": "Point",
                "coordinates": [
                    20.25218,
                    52.50822
                ]
            },
            "properties": {
                "isced:level": "1;2",
                "ref:rspo": 105442,
                "official_name": "Szko\u0142a Podstawowa im. Piotra S\u0119kowskiego w Nacpolsku",
                "name": "Szko\u0142a Podstawowa",
                "addr:postcode": "09-162",
                "addr:city": "Nacpolsk",
                "addr:street": "Szkolna",
                "addr:housenumber": "18",
                "addr:teryt:simc": 119681,
                "addr:teryt:sym_ul": 21970,
                "phone": "+48 236632002",
                "email": "zsnacpolsk@wp.pl",
                "ref:regon": "001158140",
                "ref:vatin": "PL5671601746",
                "operator": "Gmina Naruszewo",
                "operator:type": "government",
                "amenity": "school"
            }
        },
        {
            "id": 104946,
            "type": "Feature",
            "geometry": {
                "type": "Point",
                "coordinates": [
                    20.3264088,
                    52.5181919
                ]
            },
            "properties": {
                "isced:level": "1;2",
                "ref:rspo": 104946,
                "official_name": "Szko\u0142a Podstawowa im.m.konopnickiej w Naruszewie",
                "name": "Szko\u0142a Podstawowa im.m.konopnickiej w Naruszewie",
                "addr:postcode": "09-152",
                "addr:place": "Naruszewo",
                "addr:housenumber": "17",
                "addr:teryt:simc": 119505,
                "phone": "+48 236631011",
                "email": "zs_naruszewo@wp.pl",
                "ref:regon": "001158111",
                "ref:vatin": "PL5671589867",
                "operator": "Gmina Naruszewo",
                "operator:type": "government",
                "amenity": "school"
            }
        },
        {
            "id": 20572,
            "type": "Feature",
            "geometry": {
                "type": "Point",
                "coordinates": [
                    20.27141,
                    52.548258
                ]
            },
            "properties": {
                "isced:level": "1;2",
                "ref:rspo": 20572,
                "official_name": "Szko\u0142a Podstawowa w Zaborowie",
                "name": "Szko\u0142a Podstawowa w Zaborowie",
                "addr:postcode": "09-162",
                "addr:place": "Zaborowo",
                "addr:housenumber": "77",
                "addr:teryt:simc": 119758,
                "phone": "+48 236632052",
                "email": "sp_zaborowo@wp.pl",
                "ref:regon": "001157956",
                "ref:vatin": "PL5671589850",
                "operator": "Gmina Naruszewo",
                "operator:type": "government",
                "amenity": "school"
            }
        },
        {
            "id": 20571,
            "type": "Feature",
            "geometry": {
                "type": "Point",
                "coordinates": [
                    20.411008,
                    52.549208
                ]
            },
            "properties": {
                "isced:level": "1;2",
                "ref:rspo": 20571,
                "official_name": "Szko\u0142a Podstawowa w Krysku",
                "name": "Szko\u0142a Podstawowa w Krysku",
                "addr:postcode": "09-152",
                "addr:place": "Krysk",
                "addr:housenumber": "47",
                "addr:teryt:simc": 119451,
                "phone": "+48 236631017",
                "email": "sp.krysk@wp.pl",
                "ref:regon": "001158105",
                "ref:vatin": "PL5671589821",
                "operator": "Gmina Naruszewo",
                "operator:type": "government",
                "amenity": "school"
            }
        },
        {
            "id": 20570,
            "type": "Feature",
            "geometry": {
                "type": "Point",
                "coordinates": [
                    20.3447523,
                    52.5691549
                ]
            },
            "properties": {
                "isced:level": "1;2",
                "ref:rspo": 20570,
                "official_name": "Szko\u0142a Podstawowa im.z.padlewskiego",
                "name": "Szko\u0142a Podstawowa im.z.padlewskiego",
                "addr:postcode": "09-152",
                "addr:place": "Radzyminek",
                "addr:housenumber": "17",
                "addr:teryt:simc": 119570,
                "phone": "+48 236617132",
                "email": "sp.radzyminek@op.pl",
                "ref:regon": "000692819",
                "ref:vatin": "PL5671589815",
                "operator": "Gmina Naruszewo",
                "operator:type": "government",
                "amenity": "school"
            }
        }
    ]
}