{"type":"FeatureCollection","features":[{"id":54429,"type":"Feature","geometry":{"type":"Point","coordinates":[20.5922113,52.4451433]},"properties":{"ref:rspo":54429,"official_name":"Niepubliczna Poradnia Psychologiczno-Pedagogiczna \"Dobry Start\" w Za\u0142uskach","name":"Niepubliczna Poradnia Psychologiczno-Pedagogiczna \"Dobry Start\" w Za\u0142uskach","addr:country":"PL","addr:postcode":"09-142","addr:place":"Za\u0142uski","addr:housenumber":"59","addr:teryt:sym_ul":130100,"contact:phone":"+48 602526525","contact:email":"biuro@poradniainfo.pl","ref:regon":"146369835","operator":"Przedsi\u0119biorstwo Rob\u00f3t In\u017cynieryjnych \"Edpol\" Sp. Z O. O.","operator:type":"private","healthcare":"councelling","counselling_type":"education","fixme":"w zale\u017cno\u015bci od przedmiotu dzia\u0142alno\u015bci (np. healthcare=councelling + counselling_type=education albo healthcare=psychotherapist)"}},{"id":13256,"type":"Feature","geometry":{"type":"Point","coordinates":[20.4719762,52.4699243]},"properties":{"isced:level":"1;2","ref:rspo":13256,"official_name":"Szko\u0142a Podstawowa im. Ks. Jana Twardowskiego w Kamienicy","name":"Szko\u0142a Podstawowa","addr:country":"PL","addr:postcode":"09-142","addr:place":"Kamienica","addr:housenumber":"44a","addr:teryt:sym_ul":129774,"contact:phone":"+48 236619217","contact:email":"spkamienica@wp.pl","ref:regon":"001156626","ref:vatin":"PL5671590451","operator":"Gmina Za\u0142uski","operator:type":"government","amenity":"school"}},{"id":13258,"type":"Feature","geometry":{"type":"Point","coordinates":[20.5689069,52.476709]},"properties":{"isced:level":"1;2","ref:rspo":13258,"official_name":"Szko\u0142a Podstawowa im. Jana Paw\u0142a II w Kroczewie","name":"Szko\u0142a Podstawowa","addr:country":"PL","addr:postcode":"09-142","addr:place":"Kroczewo","addr:housenumber":"136","addr:teryt:sym_ul":129840,"contact:phone":"+48 236619044","contact:email":"sekretariat@zsokroczewo.pl","contact:website":"http:\/\/www.spkroczewo.szkolnastrona.pl","ref:regon":"000647167","ref:vatin":"PL5671590445","operator":"Gmina Za\u0142uski","operator:type":"government","amenity":"school"}},{"id":106721,"type":"Feature","geometry":{"type":"Point","coordinates":[20.486808,52.4966189]},"properties":{"ref:rspo":106721,"official_name":"Integracyjne Niepubliczne Przedszkole \"Ma\u0142y Mi\u015b\"","name":"Integracyjne Niepubliczne Przedszkole \"Ma\u0142y Mi\u015b\"","addr:country":"PL","addr:postcode":"09-142","addr:place":"Nabor\u00f3wiec","addr:housenumber":"34a","addr:teryt:sym_ul":129900,"contact:phone":"+48 236641302","contact:email":"przedszkolemalymis@tlen.pl","ref:regon":"146488570","ref:vatin":"PL5671690537","operator":"Jaroslaw Marciniak","operator:type":"private","amenity":"kindergarten"}},{"id":13257,"type":"Feature","geometry":{"type":"Point","coordinates":[20.4977828,52.5180623]},"properties":{"isced:level":"1;2","ref:rspo":13257,"official_name":"Szko\u0142a Podstawowa im. W\u0142. St. Reymonta w Str\u00f3\u017cewie","name":"Szko\u0142a Podstawowa","addr:country":"PL","addr:postcode":"09-142","addr:place":"Str\u00f3\u017cewo","addr:housenumber":"50","addr:teryt:sym_ul":130040,"contact:phone":"+48 236619006","contact:email":"spstrozewo@wp.pl","contact:website":"http:\/\/wwww.spstrozewo.szkolnastrona.pl","ref:regon":"001156431","ref:vatin":"PL5671590505","operator":"Gmina Za\u0142uski","operator:type":"government","amenity":"school"}},{"id":93056,"type":"Feature","geometry":{"type":"Point","coordinates":[20.547247,52.5516469]},"properties":{"ref:rspo":93056,"official_name":"Integracyjne Niepubliczne Przedszkole \"Ma\u0142y Mi\u015b\"","name":"Integracyjne Niepubliczne Przedszkole \"Ma\u0142y Mi\u015b\"","addr:country":"PL","addr:postcode":"09-142","addr:place":"Karolinowo","addr:housenumber":"34","addr:teryt:sym_ul":129828,"contact:phone":"+48 518548447","contact:email":"przedszkolemalymis@tlen.pl","ref:regon":"146415848","ref:vatin":"PL5671690537","operator":"Jaroslaw Marciniak","operator:type":"private","amenity":"kindergarten"}},{"id":123498,"type":"Feature","geometry":{"type":"Point","coordinates":[20.547247,52.5516169]},"properties":{"isced:level":"1;2","ref:rspo":123498,"official_name":"Niepubliczna Szko\u0142a Podstawowa International Elementary School","name":"Niepubliczna Szko\u0142a Podstawowa International Elementary School","addr:country":"PL","addr:postcode":"09-142","addr:place":"Karolinowo","addr:housenumber":"34","addr:teryt:sym_ul":129828,"contact:phone":"+48 533017332","contact:email":"dwujezycznaszkola@tlen.pl","contact:website":"http:\/\/www.malymis.schoolpage.pl","ref:regon":"147320937","ref:vatin":"PL5671904406","operator":"Stowarzyszenie Promocji O\u015bwiaty I Kultury\"Ma\u0142y Mi\u015b\"","operator:type":"ngo","amenity":"school"}},{"id":13259,"type":"Feature","geometry":{"type":"Point","coordinates":[20.4884747,52.5674204]},"properties":{"isced:level":"1;2","ref:rspo":13259,"official_name":"Szko\u0142a Podstawowa im. \u015aw. Stanis\u0142awa Kostki w Szczytnie","name":"Szko\u0142a Podstawowa","addr:country":"PL","addr:postcode":"09-142","addr:place":"Szczytno","addr:housenumber":"3","addr:teryt:sym_ul":130079,"contact:phone":"+48 236619605","contact:email":"zsoszczytno@onet.eu","contact:website":"http:\/\/www.zsoszczytno.szkolnastrona.pl","ref:regon":"001156610","ref:vatin":"PL5671590497","operator":"Gmina Za\u0142uski","operator:type":"government","amenity":"school"}}]}