{
    "type": "FeatureCollection",
    "features": [
        {
            "id": 53829,
            "type": "Feature",
            "geometry": {
                "type": "Point",
                "coordinates": [
                    20.2518964,
                    52.6774322
                ]
            },
            "properties": {
                "isced:level": "1;2",
                "ref:rspo": 53829,
                "official_name": "Szko\u0142a Podstawowa im. J\u00f3zefa Wybickiego w Baboszewie",
                "name": "Szko\u0142a Podstawowa",
                "addr:country": "PL",
                "addr:postcode": "09-130",
                "addr:city": "Baboszewo",
                "addr:street": "Jana i Antoniego Brodeckich",
                "addr:housenumber": "6",
                "addr:teryt:simc": 33454,
                "addr:teryt:sym_ul": 111515,
                "contact:phone": "+48 236611133",
                "contact:email": "szpbaboszewo@wp.pl",
                "ref:regon": "000639357",
                "ref:vatin": "PL5671601835",
                "operator": "Gmina Baboszewo",
                "operator:type": "government",
                "amenity": "school"
            }
        },
        {
            "id": 89985,
            "type": "Feature",
            "geometry": {
                "type": "Point",
                "coordinates": [
                    20.2520914,
                    52.6776472
                ]
            },
            "properties": {
                "ref:rspo": 89985,
                "official_name": "Przedszkole w Baboszewie",
                "name": "Przedszkole w Baboszewie",
                "addr:country": "PL",
                "addr:postcode": "09-130",
                "addr:city": "Baboszewo",
                "addr:street": "Jana i Antoniego Brodeckich",
                "addr:housenumber": "4",
                "addr:teryt:simc": 33454,
                "addr:teryt:sym_ul": 111515,
                "contact:phone": "+48 236611094",
                "contact:email": "przedszkole.w.baboszewie@neostrada.pl",
                "contact:website": "http:\/\/www.przedszkolebaboszewo.szkolnastrona.pl",
                "ref:regon": "130004460",
                "ref:vatin": "PL5671605201",
                "operator": "Gmina Baboszewo",
                "operator:type": "government",
                "amenity": "kindergarten"
            }
        },
        {
            "id": 89841,
            "type": "Feature",
            "geometry": {
                "type": "Point",
                "coordinates": [
                    20.2540968,
                    52.6780972
                ]
            },
            "properties": {
                "isced:level": "1;2",
                "ref:rspo": 89841,
                "official_name": "Szko\u0142a Podstawowa\nIm. Ks. Macieja Kazimierza Sarbiewskiego w Sarbiewie.",
                "name": "Szko\u0142a Podstawowa\nIm. Ks. Macieja Kazimierza Sarbiewskiego w Sarbiewie.",
                "addr:country": "PL",
                "addr:postcode": "09-130",
                "addr:place": "Sarbiewo",
                "addr:housenumber": "17",
                "addr:teryt:sym_ul": 111886,
                "contact:phone": "+48 236612379",
                "contact:email": "szkola.podstawowa.sarbiewo@onet.pl",
                "ref:regon": "001133200",
                "ref:vatin": "PL5671593604",
                "operator": "Gmina Baboszewo",
                "operator:type": "government",
                "amenity": "school"
            }
        },
        {
            "id": 89984,
            "type": "Feature",
            "geometry": {
                "type": "Point",
                "coordinates": [
                    20.2122018,
                    52.7039403
                ]
            },
            "properties": {
                "isced:level": "1;2",
                "ref:rspo": 89984,
                "official_name": "Szko\u0142a Podstawowa w Mystkowie",
                "name": "Szko\u0142a Podstawowa w Mystkowie",
                "addr:country": "PL",
                "addr:postcode": "09-130",
                "addr:place": "Mystkowo",
                "addr:housenumber": "53",
                "addr:teryt:sym_ul": 111768,
                "contact:phone": "+48 236611035",
                "contact:email": "sp_mystkowo@wp.pl",
                "contact:website": "http:\/\/www.spmystkowo.edupage.org",
                "ref:regon": "001133217",
                "ref:vatin": "PL5671593596",
                "operator": "Gmina Baboszewo",
                "operator:type": "government",
                "amenity": "school"
            }
        },
        {
            "id": 104813,
            "type": "Feature",
            "geometry": {
                "type": "Point",
                "coordinates": [
                    20.316429,
                    52.752806
                ]
            },
            "properties": {
                "isced:level": "1;2",
                "ref:rspo": 104813,
                "official_name": "Szko\u0142a Podstawowa im. Jana Brodeckiego w Polesiu",
                "name": "Szko\u0142a Podstawowa",
                "addr:country": "PL",
                "addr:postcode": "09-130",
                "addr:place": "Polesie",
                "addr:housenumber": "9",
                "addr:teryt:sym_ul": 111857,
                "contact:phone": "+48 366122469",
                "contact:email": "zspolesie@wp.pl",
                "ref:regon": "001133223",
                "ref:vatin": "PL5671601835",
                "operator": "Gmina Baboszewo",
                "operator:type": "government",
                "amenity": "school"
            }
        }
    ]
}