{"type":"FeatureCollection","features":[{"id":272919,"type":"Feature","geometry":{"type":"Point","coordinates":[19.67384,52.84603]},"properties":{"ref:rspo":272919,"official_name":"Terapeutyczny Punkt Przedszkolny Edukidsmed","name":"Terapeutyczny Punkt Przedszkolny Edukidsmed","addr:country":"PL","addr:postcode":"09-200","addr:city":"Sierpc","addr:street":"ul. Ignacego Paderewskiego","addr:housenumber":"6a","addr:door":"6","addr:teryt:simc":15529,"addr:teryt:sym_ul":969310,"contact:email":"malgorzata.chmielewska@edukidsmed.pl","ref:regon":"384318902","operator":"Edukidsmed Sp\u00f3\u0142ka Z Ograniczon\u0105 Odpowiedzialno\u015bci\u0105","operator:type":"private","amenity":"kindergarten"}},{"id":24714,"type":"Feature","geometry":{"type":"Point","coordinates":[19.6557,52.84743]},"properties":{"isced:level":"1;2","ref:rspo":24714,"official_name":"I Prywatna Szko\u0142a Podstawowa","name":"I Prywatna Szko\u0142a Podstawowa","addr:country":"PL","addr:postcode":"09-200","addr:city":"Sierpc","addr:street":"ul. Dworcowa","addr:housenumber":"5b","addr:teryt:simc":4434,"addr:teryt:sym_ul":969310,"contact:phone":"+48 780022737","contact:email":"ppsp@interia.pl","contact:website":"http:\/\/www.prywatnasierpc.edupage.org","ref:regon":"146333027","ref:vatin":"PL7761008668","operator":"Danuta \u017bu\u0142awnik","operator:type":"private","amenity":"school"}},{"id":277727,"type":"Feature","geometry":{"type":"Point","coordinates":[19.66656,52.84767]},"properties":{"ref:rspo":277727,"official_name":"Zesp\u00f3\u0142 Miejskich Przedszkoli w Sierpcu","name":"Zesp\u00f3\u0142 Miejskich Przedszkoli w Sierpcu","addr:country":"PL","addr:postcode":"09-200","addr:city":"Sierpc","addr:street":"ul. Kwiatowa","addr:housenumber":"4","addr:teryt:simc":10562,"addr:teryt:sym_ul":969310,"contact:phone":"+48 242753425","contact:email":"zmp@edu.sierpc.pl","ref:regon":"389401878","ref:vatin":"PL7761707426","operator":"Gmina Miasto Sierpc","operator:type":"government","landuse":"education","fixme":"amenity=school, amenity=college albo landuse=education w zale\u017cno\u015bci od tego, jakie plac\u00f3wki wchodz\u0105 w sk\u0142ad zespo\u0142u. Sprawd\u017a, kiedy stosowa\u0107 amenity=* a kiedy landuse=education.","note":"Children RSPO: 24719;25667"}},{"id":24719,"type":"Feature","geometry":{"type":"Point","coordinates":[19.66656,52.84764]},"properties":{"ref:rspo":24719,"official_name":"Miejskie Przedszkole Nr 1 S\u0142oneczna Jedyneczka","name":"Miejskie Przedszkole Nr 1 S\u0142oneczna Jedyneczka","addr:country":"PL","addr:postcode":"09-200","addr:city":"Sierpc","addr:street":"ul. Kwiatowa","addr:housenumber":"4","addr:teryt:simc":10562,"addr:teryt:sym_ul":969310,"contact:phone":"+48 242751311","contact:email":"mp1@edu.sierpc.pl","contact:website":"http:\/\/www.mp1sierpc.edupage.org","ref:regon":"000903570","ref:vatin":"PL7761560319","operator":"Gmina Miasto Sierpc","operator:type":"government","amenity":"kindergarten","note":"Parent RSPO: 277727"}},{"id":25667,"type":"Feature","geometry":{"type":"Point","coordinates":[19.66656,52.84761]},"properties":{"ref:rspo":25667,"official_name":"Miejskie Przedszkole Nr 4 Czerwonego Kapturka w Sierpca","name":"Miejskie Przedszkole Nr 4 Czerwonego Kapturka w Sierpca","addr:country":"PL","addr:postcode":"09-200","addr:city":"Sierpc","addr:street":"ul. Kwiatowa","addr:housenumber":"4","addr:teryt:simc":10562,"addr:teryt:sym_ul":969310,"contact:phone":"+48 242753425","contact:email":"mp4@edu.sierpc.pl","contact:website":"http:\/\/mp4.sierpc.pl","ref:regon":"610023859","ref:vatin":"PL7761560331","operator":"Gmina Miasto Sierpc","operator:type":"government","amenity":"kindergarten","note":"Parent RSPO: 277727"}},{"id":121227,"type":"Feature","geometry":{"type":"Point","coordinates":[19.66533,52.84879]},"properties":{"ref:rspo":121227,"official_name":"Centrum Kszta\u0142cenia Zawodowego Huzar w Sierpcu","name":"Centrum Kszta\u0142cenia Zawodowego Huzar w Sierpcu","addr:country":"PL","addr:postcode":"09-200","addr:city":"Sierpc","addr:street":"ul. Braci Tu\u0142odzieckich","addr:housenumber":"25","addr:teryt:simc":23134,"addr:teryt:sym_ul":969310,"contact:phone":"+48 242754520","contact:email":"sekretariat@huzar-ochrona.pl","ref:regon":"147016530","operator":"Agencja Ochrony Huzar Sp\u00f3\u0142ka Z Ograniczon\u0105 Odpowiedzialno\u015bci\u0105 Sp\u00f3\u0142ka Komandytowa","operator:type":"consortium","fixme":"w zale\u017cno\u015bci od przedmiotu dzia\u0142alno\u015bci (np. amenity=training + training=*, amenity=dancing_school, amenity=language_school, amenity=music_school) albo amenity=school, amenity=college, albo landuse=education w zale\u017cno\u015bci od tego, jakie plac\u00f3wki wchodz\u0105 w sk\u0142ad zespo\u0142u. Sprawd\u017a, kiedy stosowa\u0107 amenity=* a kiedy landuse=education."}},{"id":268373,"type":"Feature","geometry":{"type":"Point","coordinates":[19.66284,52.84989]},"properties":{"ref:rspo":268373,"official_name":"Pierwsze Niepubliczne Przedszkole w Sierpcu Edukidsmed Akademia Samodzielno\u015bci","name":"Pierwsze Niepubliczne Przedszkole w Sierpcu Edukidsmed Akademia Samodzielno\u015bci","addr:country":"PL","addr:postcode":"09-200","addr:city":"Sierpc","addr:street":"ul. Piastowska","addr:housenumber":"42","addr:teryt:simc":16046,"addr:teryt:sym_ul":969310,"contact:email":"edukidsmed@gmail.com","ref:regon":"381119504","operator":"Edukidsmed Sp\u00f3\u0142ka Z Ograniczon\u0105 Odpowiedzialno\u015bci\u0105","operator:type":"private","amenity":"kindergarten"}},{"id":24721,"type":"Feature","geometry":{"type":"Point","coordinates":[19.6644,52.85013]},"properties":{"ref:rspo":24721,"official_name":"Miejskie Przedszkole Nr 3 w Sierpcu im. Nied\u017awiadka Wojtka","name":"Miejskie Przedszkole Nr 3 w Sierpcu","addr:country":"PL","addr:postcode":"09-200","addr:city":"Sierpc","addr:street":"ul. Piastowska","addr:housenumber":"33","addr:teryt:simc":16046,"addr:teryt:sym_ul":969310,"contact:phone":"+48 242752752","contact:email":"mp3@edu.sierpc.pl","contact:website":"http:\/\/www.mp3.sierpc.pl","ref:regon":"610023842","ref:vatin":"PL7761561218","operator":"Gmina Miasto Sierpc","operator:type":"government","amenity":"kindergarten"}},{"id":24722,"type":"Feature","geometry":{"type":"Point","coordinates":[19.66908,52.85016]},"properties":{"isced:level":"1;2","ref:rspo":24722,"official_name":"Szko\u0142a Podstawowa Nr 2 im.armii Krajowej w Sierpcu","name":"Szko\u0142a Podstawowa Nr 2 im.armii Krajowej w Sierpcu","addr:country":"PL","addr:postcode":"09-200","addr:city":"Sierpc","addr:street":"ul. P\u0142ocka","addr:housenumber":"38a","addr:teryt:simc":16511,"addr:teryt:sym_ul":969310,"contact:phone":"+48 242752253","contact:email":"sp2@edu.sierpc.pl","contact:website":"http:\/\/www.sp2.sierpc.pl","ref:regon":"000630534","ref:vatin":"PL7761561224","operator":"Gmina Miasto Sierpc","operator:type":"government","amenity":"school"}},{"id":22938,"type":"Feature","geometry":{"type":"Point","coordinates":[19.66362,52.85063]},"properties":{"ref:rspo":22938,"official_name":"O\u015brodek Kszta\u0142cenia Zawodowego w Sierpcu Zdz W-Wa","name":"O\u015brodek Kszta\u0142cenia Zawodowego w Sierpcu Zdz W-Wa","addr:country":"PL","addr:postcode":"09-200","addr:city":"Sierpc","addr:street":"ul. Piastowska","addr:housenumber":"40","addr:teryt:simc":16046,"addr:teryt:sym_ul":969310,"contact:phone":"+48 242757349","contact:email":"cksierpc@zdz.edu.pl","ref:regon":"146329563","ref:vatin":"PL5260251374","operator":"Zak\u0142ad Doskonalenia Zawodowego W Warszawie","operator:type":"ngo","amenity":"school","fixme":"amenity=school lub amenity=college"}},{"id":17159,"type":"Feature","geometry":{"type":"Point","coordinates":[19.65844,52.85066]},"properties":{"ref:rspo":17159,"official_name":"Zesp\u00f3\u0142 Szk\u00f3\u0142 Nr 1 im. Gen. Jose De San Martin w Sierpcu","name":"Zesp\u00f3\u0142 Szk\u00f3\u0142 Nr 1","addr:country":"PL","addr:postcode":"09-200","addr:city":"Sierpc","addr:street":"ul. Armii Krajowej","addr:housenumber":"10","addr:teryt:simc":432,"addr:teryt:sym_ul":969310,"contact:phone":"+48 242752373","contact:email":"zs1sierpc@op.pl","contact:website":"http:\/\/www.zs1sierpc.cba.pl","ref:regon":"000782540","ref:vatin":"PL7761547514","operator":"Powiat Sierpecki","operator:type":"government","landuse":"education","fixme":"amenity=school, amenity=college albo landuse=education w zale\u017cno\u015bci od tego, jakie plac\u00f3wki wchodz\u0105 w sk\u0142ad zespo\u0142u. Sprawd\u017a, kiedy stosowa\u0107 amenity=* a kiedy landuse=education.","note":"Children RSPO: 25562;26113;26180;26337;130533"}},{"id":17380,"type":"Feature","geometry":{"type":"Point","coordinates":[19.65844,52.850629999999995]},"properties":{"ref:rspo":17380,"official_name":"Centrum Kszta\u0142cenia Zawodowego w Sierpcu","name":"Centrum Kszta\u0142cenia Zawodowego w Sierpcu","addr:country":"PL","addr:postcode":"09-200","addr:city":"Sierpc","addr:street":"ul. Armii Krajowej","addr:housenumber":"10","addr:teryt:simc":432,"addr:teryt:sym_ul":969310,"contact:phone":"+48 242758109","contact:email":"ckps@pro.onet.pl","contact:website":"http:\/\/www.ckp-sierpc.pl","ref:regon":"611318025","ref:vatin":"PL7761569444","operator":"Powiat Sierpecki","operator:type":"government","fixme":"w zale\u017cno\u015bci od przedmiotu dzia\u0142alno\u015bci (np. amenity=training + training=*, amenity=dancing_school, amenity=language_school, amenity=music_school) albo amenity=school, amenity=college, albo landuse=education w zale\u017cno\u015bci od tego, jakie plac\u00f3wki wchodz\u0105 w sk\u0142ad zespo\u0142u. Sprawd\u017a, kiedy stosowa\u0107 amenity=* a kiedy landuse=education."}},{"id":25562,"type":"Feature","geometry":{"type":"Point","coordinates":[19.65844,52.8506]},"properties":{"isced:level":"3","ref:rspo":25562,"official_name":"Bran\u017cowa Szko\u0142a I Stopnia w Zespole Szk\u00f3\u0142 Nr 1 im. Gen. Jose De San Martin w Sierpcu","name":"Bran\u017cowa Szko\u0142a I Stopnia w Zespole Szk\u00f3\u0142 Nr 1","addr:country":"PL","addr:postcode":"09-200","addr:city":"Sierpc","addr:street":"ul. Armii Krajowej","addr:housenumber":"10","addr:teryt:simc":432,"addr:teryt:sym_ul":969310,"contact:phone":"+48 242752373","contact:email":"zs1sierpc@op.pl","ref:regon":"611336833","operator":"Powiat Sierpecki","operator:type":"government","amenity":"school","note":"Parent RSPO: 17159"}},{"id":26113,"type":"Feature","geometry":{"type":"Point","coordinates":[19.65844,52.85057]},"properties":{"isced:level":"3","ref:rspo":26113,"official_name":"Technikum w Zespole Szk\u00f3\u0142 Nr 1 w Sierpcu","name":"Technikum w Zespole Szk\u00f3\u0142 Nr 1 w Sierpcu","addr:country":"PL","addr:postcode":"09-200","addr:city":"Sierpc","addr:street":"ul. Armii Krajowej","addr:housenumber":"10","addr:teryt:simc":432,"addr:teryt:sym_ul":969310,"contact:phone":"+48 242752373","contact:email":"zs1sierpc@op.pl","ref:regon":"611336804","operator":"Powiat Sierpecki","operator:type":"government","amenity":"school","note":"Parent RSPO: 17159"}},{"id":26180,"type":"Feature","geometry":{"type":"Point","coordinates":[19.65844,52.850539999999995]},"properties":{"isced:level":"3","ref:rspo":26180,"official_name":"Liceum Og\u00f3lnokszta\u0142c\u0105ce w Zespole Szk\u00f3\u0142 Nr 1 w Sierpcu","name":"Liceum Og\u00f3lnokszta\u0142c\u0105ce w Zespole Szk\u00f3\u0142 Nr 1 w Sierpcu","addr:country":"PL","addr:postcode":"09-200","addr:city":"Sierpc","addr:street":"ul. Armii Krajowej","addr:housenumber":"10","addr:teryt:simc":432,"addr:teryt:sym_ul":969310,"contact:phone":"+48 242752373","contact:email":"zs1sierpc@op.pl","ref:regon":"146335747","operator":"Powiat Sierpecki","operator:type":"government","amenity":"school","note":"Parent RSPO: 17159"}},{"id":26337,"type":"Feature","geometry":{"type":"Point","coordinates":[19.65844,52.85051]},"properties":{"isced:level":"4","ref:rspo":26337,"official_name":"Szko\u0142a Policealna w Zespole Szk\u00f3\u0142 Nr 1 w Sierpcu","name":"Szko\u0142a Policealna w Zespole Szk\u00f3\u0142 Nr 1 w Sierpcu","addr:country":"PL","addr:postcode":"09-200","addr:city":"Sierpc","addr:street":"ul. Armii Krajowej","addr:housenumber":"10","addr:teryt:simc":432,"addr:teryt:sym_ul":969310,"contact:phone":"+48 242752373","contact:email":"zs1sierpc@op.pl","ref:regon":"611336891","operator":"Powiat Sierpecki","operator:type":"government","amenity":"college","note":"Parent RSPO: 17159"}},{"id":130533,"type":"Feature","geometry":{"type":"Point","coordinates":[19.65844,52.85048]},"properties":{"isced:level":"3","ref:rspo":130533,"official_name":"Liceum Og\u00f3lnokszta\u0142c\u0105ce dla Doros\u0142ych w Zespole Szk\u00f3\u0142 Nr 1 w Sierpcu","name":"Liceum Og\u00f3lnokszta\u0142c\u0105ce dla Doros\u0142ych w Zespole Szk\u00f3\u0142 Nr 1 w Sierpcu","addr:country":"PL","addr:postcode":"09-200","addr:city":"Sierpc","addr:street":"ul. Armii Krajowej","addr:housenumber":"10","addr:teryt:simc":432,"addr:teryt:sym_ul":969310,"contact:phone":"+48 242752373","contact:email":"zs1sierpc@op.pl","ref:regon":"611336900","operator":"Powiat Sierpecki","operator:type":"government","amenity":"school","note":"Parent RSPO: 17159"}},{"id":17457,"type":"Feature","geometry":{"type":"Point","coordinates":[19.65895,52.85161]},"properties":{"ref:rspo":17457,"official_name":"Poradnia Psychologiczno-Pedagogiczna w Sierpcu","name":"Poradnia Psychologiczno-Pedagogiczna w Sierpcu","addr:country":"PL","addr:postcode":"09-200","addr:city":"Sierpc","addr:street":"ul. Armii Krajowej","addr:housenumber":"8b","addr:teryt:simc":432,"addr:teryt:sym_ul":969310,"contact:phone":"+48 242752994","contact:email":"poradniasierpc@wp.pl","ref:regon":"000941671","ref:vatin":"PL7761547371","operator":"Powiat Sierpecki","operator:type":"government","healthcare":"councelling","counselling_type":"education","fixme":"w zale\u017cno\u015bci od przedmiotu dzia\u0142alno\u015bci (np. healthcare=councelling + counselling_type=education albo healthcare=psychotherapist)"}},{"id":56161,"type":"Feature","geometry":{"type":"Point","coordinates":[19.66013,52.85187]},"properties":{"ref:rspo":56161,"official_name":"Pa\u0144stwowa Szko\u0142a Muzyczna I St. im. Marcina Kami\u0144skiego w Sierpcu","name":"Pa\u0144stwowa Szko\u0142a Muzyczna I St.","addr:country":"PL","addr:postcode":"09-200","addr:city":"Sierpc","addr:street":"ul. Armii Krajowej","addr:housenumber":"4","addr:teryt:simc":432,"addr:teryt:sym_ul":969310,"contact:phone":"+48 242751030","contact:email":"psmsierpc@pro.onet.pl","ref:regon":"001286843","operator":"Ministerstwo Kultury I Dziedzictwa Narodowego","operator:type":"public","amenity":"music_school"}},{"id":106185,"type":"Feature","geometry":{"type":"Point","coordinates":[19.66013,52.851839999999996]},"properties":{"ref:rspo":106185,"official_name":"Spo\u0142eczna Szko\u0142a Muzyczna II St. w Sierpcu","name":"Spo\u0142eczna Szko\u0142a Muzyczna II St. w Sierpcu","addr:country":"PL","addr:postcode":"09-200","addr:city":"Sierpc","addr:street":"ul. Armii Krajowej","addr:housenumber":"4","addr:teryt:simc":432,"addr:teryt:sym_ul":969310,"contact:phone":"+48 242751030","ref:regon":"146471746","operator":"Sierpeckie Towarzystwo Muzyczne","operator:type":"ngo","amenity":"music_school"}},{"id":17253,"type":"Feature","geometry":{"type":"Point","coordinates":[19.66294,52.85199]},"properties":{"ref:rspo":17253,"official_name":"Zesp\u00f3\u0142 Szk\u00f3\u0142 Nr 2 im. Z. Wolskiego w Sierpcu","name":"Zesp\u00f3\u0142 Szk\u00f3\u0142 Nr 2","addr:country":"PL","addr:postcode":"09-200","addr:city":"Sierpc","addr:street":"ul. Wiosny Lud\u00f3w","addr:housenumber":"7","addr:teryt:simc":24369,"addr:teryt:sym_ul":969310,"contact:phone":"+48 242752851","contact:email":"zsz.sierpc@gmail.com","contact:website":"http:\/\/www.zsznr2sierpc.pl","ref:regon":"000201158","ref:vatin":"PL7761547224","operator":"Powiat Sierpecki","operator:type":"government","landuse":"education","fixme":"amenity=school, amenity=college albo landuse=education w zale\u017cno\u015bci od tego, jakie plac\u00f3wki wchodz\u0105 w sk\u0142ad zespo\u0142u. Sprawd\u017a, kiedy stosowa\u0107 amenity=* a kiedy landuse=education.","note":"Children RSPO: 26452;26721;26767;27635;126824"}},{"id":26452,"type":"Feature","geometry":{"type":"Point","coordinates":[19.66294,52.85196]},"properties":{"isced:level":"3","ref:rspo":26452,"official_name":"Technikum w Zespole Szk\u00f3\u0142 Nr 2 w Sierpcu","name":"Technikum w Zespole Szk\u00f3\u0142 Nr 2 w Sierpcu","addr:country":"PL","addr:postcode":"09-200","addr:city":"Sierpc","addr:street":"ul. Wiosny Lud\u00f3w","addr:housenumber":"7","addr:teryt:simc":24369,"addr:teryt:sym_ul":969310,"contact:phone":"+48 242752851","contact:email":"zsz.sierpc@gmail.com","ref:regon":"611337821","operator":"Powiat Sierpecki","operator:type":"government","amenity":"school","note":"Parent RSPO: 17253"}},{"id":26721,"type":"Feature","geometry":{"type":"Point","coordinates":[19.66294,52.85193]},"properties":{"isced:level":"3","ref:rspo":26721,"official_name":"Bran\u017cowa Szko\u0142a I Stopnia w Zespole Szk\u00f3\u0142 Nr 2 im. Zygmunta Wolskiego w Sierpcu","name":"Bran\u017cowa Szko\u0142a I Stopnia w Zespole Szk\u00f3\u0142 Nr 2","addr:country":"PL","addr:postcode":"09-200","addr:city":"Sierpc","addr:street":"ul. Wiosny Lud\u00f3w","addr:housenumber":"7","addr:teryt:simc":24369,"addr:teryt:sym_ul":969310,"contact:phone":"+48 242752851","contact:email":"zsz.sierpc@gmail.com","ref:regon":"611337790","operator":"Powiat Sierpecki","operator:type":"government","amenity":"school","note":"Parent RSPO: 17253"}},{"id":26767,"type":"Feature","geometry":{"type":"Point","coordinates":[19.66294,52.8519]},"properties":{"isced:level":"3","ref:rspo":26767,"official_name":"Liceum Og\u00f3lnokszta\u0142c\u0105ce w Zespole Szk\u00f3\u0142 Nr 2 w Sierpcu","name":"Liceum Og\u00f3lnokszta\u0142c\u0105ce w Zespole Szk\u00f3\u0142 Nr 2 w Sierpcu","addr:country":"PL","addr:postcode":"09-200","addr:city":"Sierpc","addr:street":"ul. Wiosny Lud\u00f3w","addr:housenumber":"7","addr:teryt:simc":24369,"addr:teryt:sym_ul":969310,"contact:phone":"+48 242752851","contact:email":"zsz.sierpc@gmail.com","ref:regon":"146338042","operator":"Powiat Sierpecki","operator:type":"government","amenity":"school","note":"Parent RSPO: 17253"}},{"id":27635,"type":"Feature","geometry":{"type":"Point","coordinates":[19.66294,52.85187]},"properties":{"isced:level":"4","ref:rspo":27635,"official_name":"Szko\u0142a Policealna w Zespole Szk\u00f3\u0142 Nr 2 im. Zygmunta Wolskiego w Sierpcu","name":"Szko\u0142a Policealna w Zespole Szk\u00f3\u0142 Nr 2","addr:country":"PL","addr:postcode":"09-200","addr:city":"Sierpc","addr:street":"ul. Wiosny Lud\u00f3w","addr:housenumber":"7","addr:teryt:simc":24369,"addr:teryt:sym_ul":969310,"contact:phone":"+48 242752851","contact:email":"zsz.sierpc@gmail.com","ref:regon":"611371605","operator":"Powiat Sierpecki","operator:type":"government","amenity":"college","note":"Parent RSPO: 17253"}},{"id":126824,"type":"Feature","geometry":{"type":"Point","coordinates":[19.66294,52.85184]},"properties":{"isced:level":"3","ref:rspo":126824,"official_name":"Liceum Og\u00f3lnokszta\u0142c\u0105ce dla Doros\u0142ych w Zespole Szk\u00f3\u0142 Nr 2 w Sierpcu","name":"Liceum Og\u00f3lnokszta\u0142c\u0105ce dla Doros\u0142ych w Zespole Szk\u00f3\u0142 Nr 2 w Sierpcu","addr:country":"PL","addr:postcode":"09-200","addr:city":"Sierpc","addr:street":"ul. Wiosny Lud\u00f3w","addr:housenumber":"7","addr:teryt:simc":24369,"addr:teryt:sym_ul":969310,"contact:phone":"+48 242752851","contact:email":"zsz.sierpc@gmail.com","ref:regon":"360812213","operator":"Powiat Sierpecki","operator:type":"government","amenity":"school","note":"Parent RSPO: 17253"}},{"id":17371,"type":"Feature","geometry":{"type":"Point","coordinates":[19.66152,52.85229]},"properties":{"ref:rspo":17371,"official_name":"Specjalny O\u015brodek Szkolno-Wychowawczy w Sierpcu","name":"Specjalny O\u015brodek Szkolno-Wychowawczy w Sierpcu","addr:country":"PL","addr:postcode":"09-200","addr:city":"Sierpc","addr:street":"ul. Armii Krajowej","addr:housenumber":"1","addr:teryt:simc":432,"addr:teryt:sym_ul":969310,"contact:phone":"+48 242752106","contact:email":"osw.sierpc@wp.pl","contact:website":"http:\/\/www.soswsierpc.pl","ref:regon":"000201230","ref:vatin":"PL7761549499","operator":"Powiat Sierpecki","operator:type":"government","amenity":"school","note":"Children RSPO: 27735;43833;43901;128852"}},{"id":27735,"type":"Feature","geometry":{"type":"Point","coordinates":[19.66152,52.85226]},"properties":{"isced:level":"1;2","ref:rspo":27735,"official_name":"Szko\u0142a Podstawowa Specjalna Nr 4 im. Marii Konopnickiej w Specjalnym O\u015brodku Szkolno-Wychowawczym w Sierpcu","name":"Szko\u0142a Podstawowa Specjalna Nr 4","addr:country":"PL","addr:postcode":"09-200","addr:city":"Sierpc","addr:street":"ul. Armii Krajowej","addr:housenumber":"1","addr:teryt:simc":432,"addr:teryt:sym_ul":969310,"contact:phone":"+48 242752106","contact:email":"osw.sierpc@wp.pl","ref:regon":"000239178","operator":"Powiat Sierpecki","operator:type":"government","amenity":"school","note":"Parent RSPO: 17371"}},{"id":43833,"type":"Feature","geometry":{"type":"Point","coordinates":[19.66152,52.852230000000006]},"properties":{"isced:level":"3","ref:rspo":43833,"official_name":"Bran\u017cowa Szko\u0142a I Stopnia Specjalna w Specjalnym O\u015brodku Szkolno-Wychowawczym w Sierpcu","name":"Bran\u017cowa Szko\u0142a I Stopnia Specjalna w Specjalnym O\u015brodku Szkolno-Wychowawczym w Sierpcu","addr:country":"PL","addr:postcode":"09-200","addr:city":"Sierpc","addr:street":"ul. Armii Krajowej","addr:housenumber":"1","addr:teryt:simc":432,"addr:teryt:sym_ul":969310,"contact:phone":"+48 242752106","contact:email":"osw.sierpc@wp.pl","ref:regon":"611371249","operator":"Powiat Sierpecki","operator:type":"government","amenity":"school","note":"Parent RSPO: 17371"}},{"id":43901,"type":"Feature","geometry":{"type":"Point","coordinates":[19.66152,52.8522]},"properties":{"ref:rspo":43901,"official_name":"Szko\u0142a Specjalna Przysposabiaj\u0105ca Do Pracy w Specjalnym O\u015brodku Szkolno-Wychowawczym w Sierpcu","name":"Szko\u0142a Specjalna Przysposabiaj\u0105ca Do Pracy w Specjalnym O\u015brodku Szkolno-Wychowawczym w Sierpcu","addr:country":"PL","addr:postcode":"09-200","addr:city":"Sierpc","addr:street":"ul. Armii Krajowej","addr:housenumber":"1","addr:teryt:simc":432,"addr:teryt:sym_ul":969310,"contact:phone":"+48 242752106","contact:email":"osw.sierpc@wp.pl","ref:regon":"140994087","operator":"Powiat Sierpecki","operator:type":"government","amenity":"school","note":"Parent RSPO: 17371"}},{"id":128852,"type":"Feature","geometry":{"type":"Point","coordinates":[19.66152,52.85217]},"properties":{"ref:rspo":128852,"official_name":"Przedszkole Specjalne w Specjalnym O\u015brodku Szkolno-Wychowawczym w Sierpcu","name":"Przedszkole Specjalne w Specjalnym O\u015brodku Szkolno-Wychowawczym w Sierpcu","addr:country":"PL","addr:postcode":"09-200","addr:city":"Sierpc","addr:street":"ul. Armii Krajowej","addr:housenumber":"1","addr:teryt:simc":432,"addr:teryt:sym_ul":969310,"contact:phone":"+48 242752106","contact:email":"osw.sierpc@wp.pl","ref:regon":"362408031","operator":"Powiat Sierpecki","operator:type":"government","amenity":"kindergarten","note":"Parent RSPO: 17371"}},{"id":262818,"type":"Feature","geometry":{"type":"Point","coordinates":[19.6685899,52.85246]},"properties":{"isced:level":"3","ref:rspo":262818,"official_name":"Liceum Og\u00f3lnokszta\u0142c\u0105ce im. Biskupa Leona Wetma\u0144skiego w Sierpcu","name":"Liceum Og\u00f3lnokszta\u0142c\u0105ce","addr:country":"PL","addr:postcode":"09-200","addr:city":"Sierpc","addr:street":"ul. Braci Tu\u0142odzieckich","addr:housenumber":"2","addr:teryt:simc":23134,"addr:teryt:sym_ul":969310,"contact:phone":"+48 242753856","contact:email":"sekretariat@leonium.edu.pl","contact:website":"http:\/\/www.leonium.edu.pl","ref:regon":"368074973","operator":"Dom Stowarzyszenia Apostolstwa Katolickiego\/Ksi\u0119\u017ca Pallotyni\/W Sierpcu","operator:type":"religious","amenity":"school"}},{"id":24720,"type":"Feature","geometry":{"type":"Point","coordinates":[19.66515,52.85434]},"properties":{"ref:rspo":24720,"official_name":"Miejskie Przedszkole Nr 2 Bajkowa Kraina w Sierpcu","name":"Miejskie Przedszkole Nr 2 Bajkowa Kraina w Sierpcu","addr:country":"PL","addr:postcode":"09-200","addr:city":"Sierpc","addr:street":"ul. Gabriela Narutowicza","addr:housenumber":"9","addr:teryt:simc":14018,"addr:teryt:sym_ul":969310,"contact:phone":"+48 242753436","contact:email":"mp2@edu.sierpc.pl","contact:website":"http:\/\/www.mp2.sierpc.pl","ref:regon":"610023865","ref:vatin":"PL7761560325","operator":"Gmina Miasto Sierpc","operator:type":"government","amenity":"kindergarten"}},{"id":275481,"type":"Feature","geometry":{"type":"Point","coordinates":[19.66599,52.85454]},"properties":{"ref:rspo":275481,"official_name":"Dwuj\u0119zyczne Przedszkole Happy Academy","name":"Dwuj\u0119zyczne Przedszkole Happy Academy","addr:country":"PL","addr:postcode":"09-200","addr:city":"Sierpc","addr:street":"ul. Gabriela Narutowicza","addr:housenumber":"7","addr:door":"6","addr:teryt:simc":14018,"addr:teryt:sym_ul":969310,"contact:email":"biuro@happyacademy.edu.pl","contact:website":"http:\/\/www.happyacademy.edu.pl","ref:regon":"386925894","operator":"Edu-Inicjatywa Sp\u00f3\u0142ka Z Ograniczon\u0105 Odpowiedzialno\u015bci\u0105","operator:type":"private","amenity":"kindergarten"}},{"id":17101,"type":"Feature","geometry":{"type":"Point","coordinates":[19.65953,52.85464]},"properties":{"isced:level":"3","ref:rspo":17101,"official_name":"Liceum Og\u00f3lnokszta\u0142c\u0105ce im. Mjra. H. Sucharskiego w Sierpcu","name":"Liceum Og\u00f3lnokszta\u0142c\u0105ce","addr:country":"PL","addr:postcode":"09-200","addr:city":"Sierpc","addr:street":"ul. mjr. Henryka Sucharskiego","addr:housenumber":"2","addr:teryt:simc":21499,"addr:teryt:sym_ul":969310,"contact:phone":"+48 242752201","contact:email":"losierpc@losierpc.edu.pl","contact:website":"http:\/\/www.losierpc.edu.pl","ref:regon":"000229470","ref:vatin":"PL7761547885","operator":"Powiat Sierpecki","operator:type":"government","amenity":"school"}},{"id":17617,"type":"Feature","geometry":{"type":"Point","coordinates":[19.65953,52.85461]},"properties":{"ref:rspo":17617,"official_name":"Ognisko Pracy Pozaszkolnej w Sierpcu","name":"Ognisko Pracy Pozaszkolnej w Sierpcu","addr:country":"PL","addr:postcode":"09-200","addr:city":"Sierpc","addr:street":"ul. mjr. Henryka Sucharskiego","addr:housenumber":"2","addr:teryt:simc":21499,"addr:teryt:sym_ul":969310,"contact:phone":"+48 242751309","contact:email":"ognisko.pracy.pozaszkolnej@gmail.com","ref:regon":"610169280","ref:vatin":"PL7761547744","operator":"Powiat Sierpecki","operator:type":"government","amenity":"community_centre","community_centre:for":"child;juvenile"}},{"id":25167,"type":"Feature","geometry":{"type":"Point","coordinates":[19.66263,52.85651]},"properties":{"isced:level":"1;2","ref:rspo":25167,"official_name":"Szko\u0142a Podstawowa Nr 3 im.ks. Jana Twardowskiego w Sierpcu","name":"Szko\u0142a Podstawowa Nr 3 im.ks. Jana Twardowskiego w Sierpcu","addr:country":"PL","addr:postcode":"09-200","addr:city":"Sierpc","addr:street":"ul. Konstytucji 3 Maja","addr:housenumber":"8","addr:teryt:simc":9213,"addr:teryt:sym_ul":969310,"contact:phone":"+48 242752644","contact:email":"sp3@edu.sierpc.pl","contact:website":"http:\/\/www.sp3.sierpc.pl","ref:regon":"000903200","ref:vatin":"PL7761561247","operator":"Gmina Miasto Sierpc","operator:type":"government","amenity":"school"}},{"id":266708,"type":"Feature","geometry":{"type":"Point","coordinates":[19.6764,52.85957]},"properties":{"ref:rspo":266708,"official_name":"Niepubliczne Przedszkole \"Kreatywna Dolina\"","name":"Niepubliczne Przedszkole \"Kreatywna Dolina\"","addr:country":"PL","addr:postcode":"09-200","addr:city":"Sierpc","addr:street":"ul. Jana Kili\u0144skiego","addr:housenumber":"24A","addr:teryt:simc":8435,"addr:teryt:sym_ul":969310,"contact:email":"anetaw3@op.pl","ref:regon":"381549334","ref:vatin":"PL7761575290","operator":"Aneta Witkowska","operator:type":"private","amenity":"kindergarten"}}]}