{
    "type": "FeatureCollection",
    "features": [
        {
            "id": 20699,
            "type": "Feature",
            "geometry": {
                "type": "Point",
                "coordinates": [
                    15.4362282,
                    54.0961262
                ]
            },
            "properties": {
                "isced:level": "1;2",
                "ref:rspo": 20699,
                "official_name": "Szko\u0142a Podstawowa Z Oddzia\u0142ami Przedszkolnymi im. Mieszka I w Drzonowie",
                "name": "Szko\u0142a Podstawowa Z Oddzia\u0142ami Przedszkolnymi",
                "addr:postcode": "78-133",
                "addr:place": "Drzonowo",
                "addr:housenumber": "13",
                "addr:city:simc": 307342,
                "phone": "+48 943587493",
                "email": "sp.drzonowo@list.pl",
                "ref:regon": "001175753",
                "operator": "Gmina Ko\u0142obrzeg",
                "operator:type": "government",
                "amenity": "school"
            }
        },
        {
            "id": 83018,
            "type": "Feature",
            "geometry": {
                "type": "Point",
                "coordinates": [
                    15.4362282,
                    54.0960962
                ]
            },
            "properties": {
                "ref:rspo": 83018,
                "official_name": "Niepubliczne Przedszkole Tpd Morska Kraina",
                "name": "Niepubliczne Przedszkole Tpd Morska Kraina",
                "addr:postcode": "78-133",
                "addr:place": "Drzonowo",
                "addr:housenumber": "60",
                "addr:city:simc": 307342,
                "phone": "+48 943425627",
                "email": "tpd@zeto.koszalin.pl",
                "ref:regon": "321301180",
                "ref:vatin": "PL6691061911",
                "operator": "Towarzystwo Przyjaci\u00f3\u0142 Dzieci Oddzia\u0142 Okr\u0119gowy W Koszalinie",
                "operator:type": "ngo",
                "amenity": "kindergarten"
            }
        },
        {
            "id": 60729,
            "type": "Feature",
            "geometry": {
                "type": "Point",
                "coordinates": [
                    15.4839668,
                    54.1330302
                ]
            },
            "properties": {
                "ref:rspo": 60729,
                "official_name": "Szkolne Schronisko M\u0142odzie\u017cowe",
                "name": "Szkolne Schronisko M\u0142odzie\u017cowe",
                "addr:postcode": "78-132",
                "addr:place": "Stary Borek",
                "addr:housenumber": "33",
                "addr:city:simc": 307543,
                "phone": "+48 943581070",
                "email": "staryborek@wp.pl",
                "website": "http:\/\/ssm.staryborek.nadmorzem.net",
                "ref:regon": "321293210",
                "operator": "Ma\u0142gorzata Adamek",
                "operator:type": "private",
                "tourism": "hostel"
            }
        },
        {
            "id": 83013,
            "type": "Feature",
            "geometry": {
                "type": "Point",
                "coordinates": [
                    15.559439659119,
                    54.144760131836
                ]
            },
            "properties": {
                "ref:rspo": 83013,
                "official_name": "R\u00f3\u017cany Dworek",
                "name": "R\u00f3\u017cany Dworek",
                "addr:postcode": "78-100",
                "addr:city": "Zieleniewo",
                "addr:street": "R\u00f3\u017cana",
                "addr:housenumber": "8",
                "addr:city:simc": 307595,
                "addr:street:sym_ul": 19000,
                "phone": "+48 943514244",
                "email": "rozanydworek1@wp.pl",
                "ref:regon": "321300966",
                "ref:vatin": "PL6711067295",
                "operator": "Beata Bednarczyk",
                "operator:type": "private",
                "amenity": "kindergarten"
            }
        },
        {
            "id": 129570,
            "type": "Feature",
            "geometry": {
                "type": "Point",
                "coordinates": [
                    15.55939,
                    54.14571
                ]
            },
            "properties": {
                "ref:rspo": 129570,
                "official_name": "Wiejskie Ognisko Przedszkolne Tpd Przedszkole \"Troskliwych Misi\u00f3w\"",
                "name": "Wiejskie Ognisko Przedszkolne Tpd Przedszkole \"Troskliwych Misi\u00f3w\"",
                "addr:postcode": "78-100",
                "addr:city": "Zieleniewo",
                "addr:street": "Szczeci\u0144ska",
                "addr:housenumber": "12",
                "addr:city:simc": 307595,
                "addr:street:sym_ul": 21805,
                "phone": "+48 943425627",
                "email": "tpd@zeto.koszalin.pl",
                "ref:regon": "362667264",
                "operator": "Towarzystwo Przyjaci\u00f3\u0142 Dzieci Oddzia\u0142 Okr\u0119gowy W Koszalinie",
                "operator:type": "ngo",
                "amenity": "kindergarten"
            }
        },
        {
            "id": 68484,
            "type": "Feature",
            "geometry": {
                "type": "Point",
                "coordinates": [
                    15.48018,
                    54.15271
                ]
            },
            "properties": {
                "ref:rspo": 68484,
                "official_name": "Szko\u0142a \u017beglarska \"Junga\"",
                "name": "Szko\u0142a \u017beglarska \"Junga\"",
                "addr:postcode": "78-132",
                "addr:city": "Grzybowo",
                "addr:street": "Borkowska",
                "addr:housenumber": "28",
                "addr:city:simc": 307371,
                "addr:street:sym_ul": 1835,
                "phone": "+48 606253114",
                "ref:regon": "321294912",
                "ref:vatin": "PL6711308468",
                "operator": "Mariusz G\u00f3rnisiewicz",
                "operator:type": "private",
                "fixme": "w zale\u017cno\u015bci od przedmiotu dzia\u0142alno\u015bci (np. amenity=training + training=*, amenity=dancing_school, amenity=language_school, amenity=music_school)"
            }
        },
        {
            "id": 20698,
            "type": "Feature",
            "geometry": {
                "type": "Point",
                "coordinates": [
                    15.42589,
                    54.15354
                ]
            },
            "properties": {
                "isced:level": "1;2",
                "ref:rspo": 20698,
                "official_name": "Szko\u0142a Podstawowa Z Oddzia\u0142ami Przedszkolnymi im. Jana Paw\u0142a II w D\u017awirzynie",
                "name": "Szko\u0142a Podstawowa Z Oddzia\u0142ami Przedszkolnymi",
                "addr:postcode": "78-131",
                "addr:city": "D\u017awirzyno",
                "addr:street": "Sportowa",
                "addr:housenumber": "27",
                "addr:city:simc": 307365,
                "addr:street:sym_ul": 20683,
                "phone": "+48 943585410",
                "email": "szkola@dzwirzyno.pl",
                "website": "http:\/\/szkola.dzwirzyno.pl",
                "ref:regon": "001175747",
                "ref:vatin": "PL6711654526",
                "operator": "Gmina Ko\u0142obrzeg",
                "operator:type": "government",
                "amenity": "school"
            }
        },
        {
            "id": 83016,
            "type": "Feature",
            "geometry": {
                "type": "Point",
                "coordinates": [
                    15.49261,
                    54.15895
                ]
            },
            "properties": {
                "ref:rspo": 83016,
                "official_name": "Niepubliczne Przedszkole Tpd Muszelka w Grzybowie Z Oodzia\u0142em Zamiejscowym w Starym Borku",
                "name": "Niepubliczne Przedszkole Tpd Muszelka w Grzybowie Z Oodzia\u0142em Zamiejscowym w Starym Borku",
                "addr:postcode": "78-132",
                "addr:city": "Grzybowo",
                "addr:street": "Szkolna",
                "addr:housenumber": "1",
                "addr:city:simc": 307371,
                "addr:street:sym_ul": 21970,
                "phone": "+48 943425627",
                "email": "tpd@zeto.koszalin.pl",
                "ref:regon": "321300937",
                "ref:vatin": "PL6691061911",
                "operator": "Towarzystwo Przyjaci\u00f3\u0142 Dzieci Oddzia\u0142 Okr\u0119gowy W Koszalinie",
                "operator:type": "ngo",
                "amenity": "kindergarten"
            }
        },
        {
            "id": 83021,
            "type": "Feature",
            "geometry": {
                "type": "Point",
                "coordinates": [
                    15.58999,
                    54.16488
                ]
            },
            "properties": {
                "ref:rspo": 83021,
                "official_name": "Wiejskie Ognisko Przedszkolne Tpd S\u0142oneczko",
                "name": "Wiejskie Ognisko Przedszkolne Tpd S\u0142oneczko",
                "addr:postcode": "78-100",
                "addr:city": "Budzistowo",
                "addr:street": "Ko\u0142obrzeska",
                "addr:housenumber": "1",
                "addr:city:simc": 307460,
                "addr:street:sym_ul": 9009,
                "phone": "+48 943425627",
                "email": "tpd@zeto.koszalin.pl",
                "ref:regon": "321301210",
                "ref:vatin": "PL6691061911",
                "operator": "Towarzystwo Przyjaci\u00f3\u0142 Dzieci Oddzia\u0142 Okr\u0119gowy W Koszalinie",
                "operator:type": "ngo",
                "amenity": "kindergarten"
            }
        }
    ]
}