{
    "type": "FeatureCollection",
    "features": [
        {
            "id": 119839,
            "type": "Feature",
            "geometry": {
                "type": "Point",
                "coordinates": [
                    15.54438,
                    54.15606
                ]
            },
            "properties": {
                "ref:rspo": 119839,
                "official_name": "Przedszkole Angloj\u0119zyczne \"Ma\u0142y Poliglota\"",
                "name": "Przedszkole Angloj\u0119zyczne \"Ma\u0142y Poliglota\"",
                "addr:country": "PL",
                "addr:postcode": "78-100",
                "addr:city": "Ko\u0142obrzeg",
                "addr:street": "Starynowska",
                "addr:housenumber": "38",
                "addr:teryt:simc": 950026,
                "addr:teryt:sym_ul": 21040,
                "contact:phone": "+48 602383243",
                "contact:email": "malypoliglota-kolobrzeg@wp.pl",
                "ref:regon": "321424556",
                "operator": "Ewelina Sutu\u0142a",
                "operator:type": "private",
                "amenity": "kindergarten"
            }
        },
        {
            "id": 129447,
            "type": "Feature",
            "geometry": {
                "type": "Point",
                "coordinates": [
                    15.54266,
                    54.15649
                ]
            },
            "properties": {
                "ref:rspo": 129447,
                "official_name": "Niepubliczne Przedszkole Integracyjne Z Oddzia\u0142ami Specjalnymi \"S\u0142oneczny Domek\"",
                "name": "Niepubliczne Przedszkole Integracyjne Z Oddzia\u0142ami Specjalnymi \"S\u0142oneczny Domek\"",
                "addr:country": "PL",
                "addr:postcode": "78-100",
                "addr:city": "Ko\u0142obrzeg",
                "addr:street": "Karola Szymanowskiego",
                "addr:housenumber": "6",
                "addr:teryt:simc": 950026,
                "addr:teryt:sym_ul": 22238,
                "contact:phone": "+48 606979857",
                "contact:email": "domeksloneczny@gmail.com",
                "ref:regon": "362610040",
                "operator": "Katarzyna Piechowiak",
                "operator:type": "private",
                "amenity": "kindergarten"
            }
        },
        {
            "id": 10671,
            "type": "Feature",
            "geometry": {
                "type": "Point",
                "coordinates": [
                    15.54649,
                    54.16048
                ]
            },
            "properties": {
                "isced:level": "1;2",
                "ref:rspo": 10671,
                "official_name": "Szko\u0142a Podstawowa Nr 6 im. Janusza Korczaka",
                "name": "Szko\u0142a Podstawowa Nr 6",
                "addr:country": "PL",
                "addr:postcode": "78-100",
                "addr:city": "Ko\u0142obrzeg",
                "addr:street": "Pozna\u0144ska",
                "addr:housenumber": "9",
                "addr:teryt:simc": 950026,
                "addr:teryt:sym_ul": 17394,
                "contact:phone": "+48 943523121",
                "contact:email": "dyrektor@sp6kg.pl",
                "contact:website": "http:\/\/www.sp6.kolobrzeg.pl",
                "ref:regon": "330388804",
                "operator": "Gmina Miasto Ko\u0142obrzeg",
                "operator:type": "government",
                "amenity": "school"
            }
        },
        {
            "id": 64878,
            "type": "Feature",
            "geometry": {
                "type": "Point",
                "coordinates": [
                    15.55455,
                    54.16451
                ]
            },
            "properties": {
                "ref:rspo": 64878,
                "official_name": "Instytut Edukacji Komputerowej Alicja B\u0105k",
                "name": "Instytut Edukacji Komputerowej Alicja B\u0105k",
                "addr:country": "PL",
                "addr:postcode": "78-100",
                "addr:city": "Ko\u0142obrzeg",
                "addr:street": "Obozowa",
                "addr:housenumber": "5",
                "addr:teryt:simc": 950026,
                "addr:teryt:sym_ul": 14599,
                "contact:phone": "+48 943534088",
                "contact:email": "oek@kol.pl",
                "contact:website": "http:\/\/www.iek.kol.pl",
                "ref:regon": "321294929",
                "ref:vatin": "PL6711365265",
                "operator": "Alicja B\u0105k",
                "operator:type": "private",
                "fixme": "w zale\u017cno\u015bci od przedmiotu dzia\u0142alno\u015bci (np. amenity=training + training=*, amenity=dancing_school, amenity=language_school, amenity=music_school)"
            }
        },
        {
            "id": 70963,
            "type": "Feature",
            "geometry": {
                "type": "Point",
                "coordinates": [
                    15.56008,
                    54.16644
                ]
            },
            "properties": {
                "ref:rspo": 70963,
                "official_name": "Centrum Szkoleniowe Masa\u017cu Max-Masa\u017c",
                "name": "Centrum Szkoleniowe Masa\u017cu Max-Masa\u017c",
                "addr:country": "PL",
                "addr:postcode": "78-100",
                "addr:city": "Ko\u0142obrzeg",
                "addr:street": "Mazowiecka",
                "addr:housenumber": "24b",
                "addr:door": "13",
                "addr:teryt:simc": 950026,
                "addr:teryt:sym_ul": 12540,
                "contact:phone": "+48 664247507",
                "contact:email": "szkolenia@max-masaz.pl",
                "ref:regon": "321294875",
                "ref:vatin": "PL6711637953",
                "operator": "Robert Kot",
                "operator:type": "private",
                "fixme": "w zale\u017cno\u015bci od przedmiotu dzia\u0142alno\u015bci (np. amenity=training + training=*, amenity=dancing_school, amenity=language_school, amenity=music_school)"
            }
        },
        {
            "id": 125216,
            "type": "Feature",
            "geometry": {
                "type": "Point",
                "coordinates": [
                    15.56845,
                    54.16649
                ]
            },
            "properties": {
                "ref:rspo": 125216,
                "official_name": "Niepubliczna Poradnia Psychologiczno - Pedagogiczna \"Ja\u015b I Ma\u0142gosia\"",
                "name": "Niepubliczna Poradnia Psychologiczno - Pedagogiczna \"Ja\u015b I Ma\u0142gosia\"",
                "addr:country": "PL",
                "addr:postcode": "78-100",
                "addr:city": "Ko\u0142obrzeg",
                "addr:street": "6 Dywizji Piechoty",
                "addr:housenumber": "3",
                "addr:teryt:simc": 950026,
                "addr:teryt:sym_ul": 4547,
                "contact:phone": "+48 531740007",
                "contact:email": "biuro@fikk.pl",
                "contact:website": "http:\/\/www.fikk.pl",
                "ref:regon": "321575137",
                "ref:vatin": "PL6731788371",
                "operator": "\"Ja\u015b I Ma\u0142gosia\" Szko\u0142y I Plac\u00f3wki Terapeutyczne",
                "operator:type": "ngo",
                "healthcare": "counselling",
                "counselling_type": "education",
                "fixme": "w zale\u017cno\u015bci od przedmiotu dzia\u0142alno\u015bci (np. healthcare=counselling + counselling_type=education albo healthcare=psychotherapist)"
            }
        },
        {
            "id": 131905,
            "type": "Feature",
            "geometry": {
                "type": "Point",
                "coordinates": [
                    15.56845,
                    54.16646
                ]
            },
            "properties": {
                "ref:rspo": 131905,
                "official_name": "O\u015brodek Rehabilitacyjno -Edukacyjno - Wychowawczy Ja\u015b I Ma\u0142gosia w Ko\u0142obrzegu",
                "name": "O\u015brodek Rehabilitacyjno -Edukacyjno - Wychowawczy Ja\u015b I Ma\u0142gosia w Ko\u0142obrzegu",
                "addr:country": "PL",
                "addr:postcode": "78-100",
                "addr:city": "Ko\u0142obrzeg",
                "addr:street": "6 Dywizji Piechoty",
                "addr:housenumber": "3",
                "addr:teryt:simc": 950026,
                "addr:teryt:sym_ul": 4547,
                "contact:phone": "+48 535222970",
                "ref:regon": "365374893",
                "operator": "\"Ja\u015b I Ma\u0142gosia\" Szko\u0142y I Plac\u00f3wki Terapeutyczne",
                "operator:type": "ngo",
                "amenity": "school"
            }
        },
        {
            "id": 92615,
            "type": "Feature",
            "geometry": {
                "type": "Point",
                "coordinates": [
                    15.5608,
                    54.16731
                ]
            },
            "properties": {
                "ref:rspo": 92615,
                "official_name": "Przedszkole Rodzinne \"M\u0105drowscy\"",
                "name": "Przedszkole Rodzinne \"M\u0105drowscy\"",
                "addr:country": "PL",
                "addr:postcode": "78-100",
                "addr:city": "Ko\u0142obrzeg",
                "addr:street": "Wielkopolska",
                "addr:housenumber": "7",
                "addr:teryt:simc": 950026,
                "addr:teryt:sym_ul": 24096,
                "contact:phone": "+48 502123192",
                "contact:email": "kontakt@przedszkolemadrowscy.pl",
                "contact:website": "http:\/\/www.przedszkolemadrowscy.pl",
                "ref:regon": "321310172",
                "operator": "Maciej M\u0105drowski",
                "operator:type": "private",
                "amenity": "kindergarten"
            }
        },
        {
            "id": 60581,
            "type": "Feature",
            "geometry": {
                "type": "Point",
                "coordinates": [
                    15.55972,
                    54.16776
                ]
            },
            "properties": {
                "ref:rspo": 60581,
                "official_name": "O\u015brodek Rehabilitacyjno-Edukacyjno-Wychowawczy Przy Polskim Stowarzyszeniu Na Rzecz Os\u00f3b Z Niepe\u0142nosprawno\u015bci\u0105 Intelektualn\u0105 Ko\u0142o w Ko\u0142obrzegu",
                "name": "O\u015brodek Rehabilitacyjno-Edukacyjno-Wychowawczy Przy Polskim Stowarzyszeniu Na Rzecz Os\u00f3b Z Niepe\u0142nosprawno\u015bci\u0105 Intelektualn\u0105 Ko\u0142o w Ko\u0142obrzegu",
                "addr:country": "PL",
                "addr:postcode": "78-100",
                "addr:city": "Ko\u0142obrzeg",
                "addr:street": "Mazowiecka",
                "addr:housenumber": "29",
                "addr:teryt:simc": 950026,
                "addr:teryt:sym_ul": 12540,
                "contact:phone": "+48 943525388",
                "contact:email": "orew.kolobrzeg@onet.eu",
                "contact:website": "http:\/\/psouu.kolobrzeg.pl",
                "ref:regon": "321293195",
                "ref:vatin": "PL6711030458",
                "operator": "Polskie Stowarzyszenie Na Rzecz Os\u00f3b Z Niepe\u0142nosprawno\u015bci\u0105 Intelektualn\u0105 Ko\u0142o W Ko\u0142obrzegu",
                "operator:type": "ngo",
                "amenity": "school"
            }
        },
        {
            "id": 68483,
            "type": "Feature",
            "geometry": {
                "type": "Point",
                "coordinates": [
                    15.55972,
                    54.16773
                ]
            },
            "properties": {
                "ref:rspo": 68483,
                "official_name": "Zachodniopomorskie Centrum Szkole\u0144 I Wspierania Przedsi\u0119biorczo\u015bci Miros\u0142aw Szczeglik",
                "name": "Zachodniopomorskie Centrum Szkole\u0144 I Wspierania Przedsi\u0119biorczo\u015bci Miros\u0142aw Szczeglik",
                "addr:country": "PL",
                "addr:postcode": "78-100",
                "addr:city": "Ko\u0142obrzeg",
                "addr:street": "Mazowiecka",
                "addr:housenumber": "29",
                "addr:teryt:simc": 950026,
                "addr:teryt:sym_ul": 12540,
                "contact:phone": "+48 943523475",
                "contact:email": "szkolenia@zachodniopomorskie.edu.pl",
                "contact:website": "http:\/\/www.zachodniopomorskie.edu.pl",
                "ref:regon": "321295952",
                "ref:vatin": "PL6711183009",
                "operator": "Miros\u0142aw Szczeglik",
                "operator:type": "private",
                "fixme": "w zale\u017cno\u015bci od przedmiotu dzia\u0142alno\u015bci (np. amenity=training + training=*, amenity=dancing_school, amenity=language_school, amenity=music_school)"
            }
        },
        {
            "id": 60886,
            "type": "Feature",
            "geometry": {
                "type": "Point",
                "coordinates": [
                    15.56591,
                    54.17009
                ]
            },
            "properties": {
                "ref:rspo": 60886,
                "official_name": "Zesp\u00f3\u0142 Szk\u00f3\u0142 Nr 1 im. Henryka Sienkiewicza w Ko\u0142obrzegu",
                "name": "Zesp\u00f3\u0142 Szk\u00f3\u0142 Nr 1",
                "addr:country": "PL",
                "addr:postcode": "78-100",
                "addr:city": "Ko\u0142obrzeg",
                "addr:street": "1 Maja",
                "addr:housenumber": "47",
                "addr:teryt:simc": 950026,
                "addr:teryt:sym_ul": 11926,
                "contact:phone": "+48 943523264",
                "contact:email": "szkola@2lo.pl",
                "contact:website": "http:\/\/www.2lo.pl",
                "ref:regon": "000186789",
                "ref:vatin": "PL6711029834",
                "operator": "Powiat Ko\u0142obrzeski",
                "operator:type": "government",
                "landuse": "education",
                "fixme": "amenity=school, amenity=college albo landuse=education w zale\u017cno\u015bci od tego, jakie plac\u00f3wki wchodz\u0105 w sk\u0142ad zespo\u0142u. Sprawd\u017a, kiedy stosowa\u0107 amenity=* a kiedy landuse=education.",
                "note": "Children RSPO: 84181;84183"
            }
        },
        {
            "id": 84181,
            "type": "Feature",
            "geometry": {
                "type": "Point",
                "coordinates": [
                    15.56591,
                    54.17006
                ]
            },
            "properties": {
                "isced:level": "3",
                "ref:rspo": 84181,
                "official_name": "Ii Liceum Og\u00f3lnokszta\u0142c\u0105ce",
                "name": "Ii Liceum Og\u00f3lnokszta\u0142c\u0105ce",
                "addr:country": "PL",
                "addr:postcode": "78-100",
                "addr:city": "Ko\u0142obrzeg",
                "addr:street": "1 Maja",
                "addr:housenumber": "47",
                "addr:teryt:simc": 950026,
                "addr:teryt:sym_ul": 11926,
                "contact:phone": "+48 943523264",
                "contact:email": "zs@kolobrzeg.powiat.pl",
                "contact:website": "http:\/\/www.2lo.pl",
                "ref:regon": "320394971",
                "operator": "Powiat Ko\u0142obrzeski",
                "operator:type": "government",
                "amenity": "school",
                "note": "Parent RSPO: 60886"
            }
        },
        {
            "id": 84183,
            "type": "Feature",
            "geometry": {
                "type": "Point",
                "coordinates": [
                    15.56591,
                    54.170030000000004
                ]
            },
            "properties": {
                "isced:level": "3",
                "ref:rspo": 84183,
                "official_name": "Technikum Zawodowe Nr 2",
                "name": "Technikum Zawodowe Nr 2",
                "addr:country": "PL",
                "addr:postcode": "78-100",
                "addr:city": "Ko\u0142obrzeg",
                "addr:street": "1 Maja",
                "addr:housenumber": "47",
                "addr:teryt:simc": 950026,
                "addr:teryt:sym_ul": 11926,
                "contact:phone": "+48 943523264",
                "contact:email": "zs@kolobrzeg.powiat.pl",
                "contact:website": "http:\/\/www.2lo.pl",
                "ref:regon": "320406444",
                "operator": "Powiat Ko\u0142obrzeski",
                "operator:type": "government",
                "amenity": "school",
                "note": "Parent RSPO: 60886"
            }
        },
        {
            "id": 64899,
            "type": "Feature",
            "geometry": {
                "type": "Point",
                "coordinates": [
                    15.56399,
                    54.1706
                ]
            },
            "properties": {
                "ref:rspo": 64899,
                "official_name": "Ognisko Pracy Pozaszkolnej w Ko\u0142obrzegu",
                "name": "Ognisko Pracy Pozaszkolnej w Ko\u0142obrzegu",
                "addr:country": "PL",
                "addr:postcode": "78-100",
                "addr:city": "Ko\u0142obrzeg",
                "addr:street": "Mazowiecka",
                "addr:housenumber": "1",
                "addr:teryt:simc": 950026,
                "addr:teryt:sym_ul": 12540,
                "contact:phone": "+48 947220512",
                "contact:email": "opp.kolobrzeg@interia.pl",
                "contact:website": "http:\/\/oppkolobrzeg.interia.pl",
                "ref:regon": "330390652",
                "ref:vatin": "PL6711045046",
                "operator": "Powiat Ko\u0142obrzeski",
                "operator:type": "government",
                "amenity": "community_centre",
                "community_centre:for": "child;juvenile"
            }
        },
        {
            "id": 84621,
            "type": "Feature",
            "geometry": {
                "type": "Point",
                "coordinates": [
                    15.56286,
                    54.17211
                ]
            },
            "properties": {
                "isced:level": "1;2",
                "ref:rspo": 84621,
                "official_name": "Prywatna Szko\u0142a Podstawowa \"Morska Kraina\"",
                "name": "Prywatna Szko\u0142a Podstawowa \"Morska Kraina\"",
                "addr:country": "PL",
                "addr:postcode": "78-100",
                "addr:city": "Ko\u0142obrzeg",
                "addr:street": "Jedno\u015bci Narodowej",
                "addr:housenumber": "86",
                "addr:teryt:simc": 950026,
                "addr:teryt:sym_ul": 7435,
                "contact:phone": "+48 943525379",
                "contact:email": "szkola@morskakraina.info",
                "contact:website": "http:\/\/morskakraina.kolobrzeg.pl",
                "ref:regon": "321301173",
                "operator": "Fundacja Integracja \u015arodowisk Edukacyjnych \"Morska Kraina\"",
                "operator:type": "ngo",
                "amenity": "school"
            }
        },
        {
            "id": 84346,
            "type": "Feature",
            "geometry": {
                "type": "Point",
                "coordinates": [
                    15.57055,
                    54.17239
                ]
            },
            "properties": {
                "ref:rspo": 84346,
                "official_name": "Przedszkole Niepubliczne \"Akademia Ma\u0142ego Europejczyka\"",
                "name": "Przedszkole Niepubliczne \"Akademia Ma\u0142ego Europejczyka\"",
                "addr:country": "PL",
                "addr:postcode": "78-100",
                "addr:city": "Ko\u0142obrzeg",
                "addr:street": "Radomska",
                "addr:housenumber": "15",
                "addr:teryt:simc": 950026,
                "addr:teryt:sym_ul": 18316,
                "contact:phone": "+48 691460807",
                "contact:email": "ame-kolobrzeg@wp.pl",
                "ref:regon": "321299559",
                "operator": "Zbigniew Kasznia",
                "operator:type": "private",
                "amenity": "kindergarten"
            }
        },
        {
            "id": 276813,
            "type": "Feature",
            "geometry": {
                "type": "Point",
                "coordinates": [
                    15.56763,
                    54.17265
                ]
            },
            "properties": {
                "ref:rspo": 276813,
                "official_name": "Przedszkole Miejskie Nr 4",
                "name": "Przedszkole Miejskie Nr 4",
                "addr:country": "PL",
                "addr:postcode": "78-100",
                "addr:city": "Ko\u0142obrzeg",
                "addr:street": "Radomska",
                "addr:housenumber": "22a",
                "addr:teryt:simc": 950026,
                "addr:teryt:sym_ul": 18316,
                "contact:phone": "+48 947191550",
                "contact:email": "d.warzocha@pm4kg.pl",
                "ref:regon": "387613180",
                "operator": "Gmina Miasto Ko\u0142obrzeg",
                "operator:type": "government",
                "amenity": "kindergarten"
            }
        },
        {
            "id": 10665,
            "type": "Feature",
            "geometry": {
                "type": "Point",
                "coordinates": [
                    15.5858,
                    54.17352
                ]
            },
            "properties": {
                "ref:rspo": 10665,
                "official_name": "Przedszkole Miejskie Nr 7",
                "name": "Przedszkole Miejskie Nr 7",
                "addr:country": "PL",
                "addr:postcode": "78-100",
                "addr:city": "Ko\u0142obrzeg",
                "addr:street": "Bogus\u0142awa X",
                "addr:housenumber": "20",
                "addr:teryt:simc": 950026,
                "addr:teryt:sym_ul": 1601,
                "contact:phone": "+48 943525782",
                "contact:email": "dyrektor@pm7kg.pl",
                "ref:regon": "320753743",
                "ref:vatin": "PL6711784915",
                "operator": "Gmina Miasto Ko\u0142obrzeg",
                "operator:type": "government",
                "amenity": "kindergarten"
            }
        },
        {
            "id": 114963,
            "type": "Feature",
            "geometry": {
                "type": "Point",
                "coordinates": [
                    15.5649842,
                    54.1735821
                ]
            },
            "properties": {
                "isced:level": "3",
                "ref:rspo": 114963,
                "official_name": "I Liceum Og\u00f3lnokszta\u0142c\u0105ce Dwuj\u0119zyczne im. Miko\u0142aja Kopernika w Ko\u0142obrzegu",
                "name": "I Liceum Og\u00f3lnokszta\u0142c\u0105ce Dwuj\u0119zyczne",
                "addr:country": "PL",
                "addr:postcode": "78-100",
                "addr:city": "Ko\u0142obrzeg",
                "addr:street": "Podporucznika Edmunda \u0141opuskiego",
                "addr:housenumber": "42-44",
                "addr:teryt:simc": 950026,
                "addr:teryt:sym_ul": 11666,
                "contact:phone": "+48 943544633",
                "contact:email": "a.dzierkowski@lokopenik.pl",
                "contact:website": "http:\/\/www.lokopernik.pl",
                "ref:regon": "331406378",
                "ref:vatin": "PL6711833973",
                "operator": "Powiat Ko\u0142obrzeski",
                "operator:type": "government",
                "amenity": "school"
            }
        },
        {
            "id": 10672,
            "type": "Feature",
            "geometry": {
                "type": "Point",
                "coordinates": [
                    15.58707,
                    54.17366
                ]
            },
            "properties": {
                "isced:level": "1;2",
                "ref:rspo": 10672,
                "official_name": "Szko\u0142a Podstawowa Nr 8 im.kpt \u017b.w. Konstantego Maciejewicza",
                "name": "Szko\u0142a Podstawowa Nr 8 im.kpt \u017b.w. Konstantego Maciejewicza",
                "addr:country": "PL",
                "addr:postcode": "78-100",
                "addr:city": "Ko\u0142obrzeg",
                "addr:street": "Bogus\u0142awa X",
                "addr:housenumber": "22",
                "addr:teryt:simc": 950026,
                "addr:teryt:sym_ul": 1601,
                "contact:phone": "+48 943524624",
                "contact:email": "dyrektor@sp8kg.pl",
                "ref:regon": "330388840",
                "operator": "Gmina Miasto Ko\u0142obrzeg",
                "operator:type": "government",
                "amenity": "school"
            }
        },
        {
            "id": 64887,
            "type": "Feature",
            "geometry": {
                "type": "Point",
                "coordinates": [
                    15.60185,
                    54.17452
                ]
            },
            "properties": {
                "ref:rspo": 64887,
                "official_name": "Centrum Edukacji Zawodowej w Ko\u0142obrzegu",
                "name": "Centrum Edukacji Zawodowej w Ko\u0142obrzegu",
                "addr:country": "PL",
                "addr:postcode": "78-100",
                "addr:city": "Ko\u0142obrzeg",
                "addr:street": "Kaszubska",
                "addr:housenumber": "41",
                "addr:teryt:simc": 950026,
                "addr:teryt:sym_ul": 8183,
                "contact:phone": "+48 943520849",
                "ref:regon": "321294102",
                "ref:vatin": "PL6711215206",
                "operator": "Halina Muszy\u0144ska",
                "operator:type": "private",
                "fixme": "w zale\u017cno\u015bci od przedmiotu dzia\u0142alno\u015bci (np. amenity=training + training=*, amenity=dancing_school, amenity=language_school, amenity=music_school)"
            }
        },
        {
            "id": 128088,
            "type": "Feature",
            "geometry": {
                "type": "Point",
                "coordinates": [
                    15.58655,
                    54.17505
                ]
            },
            "properties": {
                "ref:rspo": 128088,
                "official_name": "Niepubliczna Poradnia Psychologiczno - Pedagogiczna R\u00f3wne Szanse Kielnik-Ka\u0142u\u017cna, Skowronek Sp\u00f3\u0142ka Jawna",
                "name": "Niepubliczna Poradnia Psychologiczno - Pedagogiczna R\u00f3wne Szanse Kielnik-Ka\u0142u\u017cna, Skowronek Sp\u00f3\u0142ka Jawna",
                "addr:country": "PL",
                "addr:postcode": "78-100",
                "addr:city": "Ko\u0142obrzeg",
                "addr:street": "Grochowska",
                "addr:housenumber": "9",
                "addr:teryt:simc": 950026,
                "addr:teryt:sym_ul": 6137,
                "contact:phone": "+48 663993384",
                "contact:email": "logopeda.skk@gmail.com",
                "ref:regon": "362082434",
                "operator": "Sandra Kielnik- Ka\u0142u\u017cna",
                "operator:type": "private",
                "healthcare": "counselling",
                "counselling_type": "education",
                "fixme": "w zale\u017cno\u015bci od przedmiotu dzia\u0142alno\u015bci (np. healthcare=counselling + counselling_type=education albo healthcare=psychotherapist)"
            }
        },
        {
            "id": 273049,
            "type": "Feature",
            "geometry": {
                "type": "Point",
                "coordinates": [
                    15.58655,
                    54.175019999999996
                ]
            },
            "properties": {
                "ref:rspo": 273049,
                "official_name": "Niepubliczny Punkt Przedszkolny R\u00f3wne Szanse",
                "name": "Niepubliczny Punkt Przedszkolny R\u00f3wne Szanse",
                "addr:country": "PL",
                "addr:postcode": "78-100",
                "addr:city": "Ko\u0142obrzeg",
                "addr:street": "Grochowska",
                "addr:housenumber": "9",
                "addr:door": "1",
                "addr:teryt:simc": 950026,
                "addr:teryt:sym_ul": 6137,
                "contact:phone": "+48 606459490",
                "contact:email": "logopeda.skk@gmail.com",
                "ref:regon": "384359462",
                "operator": "Fundacja R\u00f3wne Szanse",
                "operator:type": "ngo",
                "amenity": "kindergarten"
            }
        },
        {
            "id": 114962,
            "type": "Feature",
            "geometry": {
                "type": "Point",
                "coordinates": [
                    15.54728,
                    54.17518
                ]
            },
            "properties": {
                "ref:rspo": 114962,
                "official_name": "Ko\u0142obrzeskie Centrum Kszta\u0142cenia",
                "name": "Ko\u0142obrzeskie Centrum Kszta\u0142cenia",
                "addr:country": "PL",
                "addr:postcode": "78-100",
                "addr:city": "Ko\u0142obrzeg",
                "addr:street": "Jedno\u015bci Narodowej",
                "addr:housenumber": "58a",
                "addr:teryt:simc": 950026,
                "addr:teryt:sym_ul": 7435,
                "contact:phone": "+48 943542259",
                "contact:email": "kolobrzeg@ipt.pl",
                "ref:regon": "321385388",
                "ref:vatin": "PL6711567359",
                "operator": "Instytut Post\u0119powania Tw\u00f3rczego Sp\u00f3\u0142ka Z Ograniczon\u0105 Odpowiedzialno\u015bci\u0105",
                "operator:type": "private",
                "fixme": "w zale\u017cno\u015bci od przedmiotu dzia\u0142alno\u015bci (np. amenity=training + training=*, amenity=dancing_school, amenity=language_school, amenity=music_school)"
            }
        },
        {
            "id": 272709,
            "type": "Feature",
            "geometry": {
                "type": "Point",
                "coordinates": [
                    15.54728,
                    54.175149999999995
                ]
            },
            "properties": {
                "isced:level": "3",
                "ref:rspo": 272709,
                "official_name": "Spo\u0142eczne Liceum Og\u00f3lnokszta\u0142c\u0105ce Spo\u0142ecznego Towarzystwa O\u015bwiatowego im. Zbigniewa Herberta w Ko\u0142obrzegu",
                "name": "Spo\u0142eczne Liceum Og\u00f3lnokszta\u0142c\u0105ce Spo\u0142ecznego Towarzystwa O\u015bwiatowego",
                "addr:country": "PL",
                "addr:postcode": "78-100",
                "addr:city": "Ko\u0142obrzeg",
                "addr:street": "Jedno\u015bci Narodowej",
                "addr:housenumber": "58A",
                "addr:teryt:simc": 950026,
                "addr:teryt:sym_ul": 7435,
                "contact:phone": "+48 943517513",
                "contact:email": "slo.kolobrzeg@gmail.com",
                "contact:website": "http:\/\/www.sloherbert.kolobrzeg.pl",
                "ref:regon": "384279533",
                "operator": "Samodzielne Ko\u0142o Terenowe Nr 70 Spo\u0142ecznego Towarzystwa O\u015bwiatowego",
                "operator:type": "ngo",
                "amenity": "school"
            }
        },
        {
            "id": 62310,
            "type": "Feature",
            "geometry": {
                "type": "Point",
                "coordinates": [
                    15.57186,
                    54.17568
                ]
            },
            "properties": {
                "ref:rspo": 62310,
                "official_name": "Specjalny O\u015brodek Szkolno - Wychowawczy \"Okruszek\" w Ko\u0142obrzegu",
                "name": "Specjalny O\u015brodek Szkolno - Wychowawczy \"Okruszek\" w Ko\u0142obrzegu",
                "addr:country": "PL",
                "addr:postcode": "78-100",
                "addr:city": "Ko\u0142obrzeg",
                "addr:street": "Brzozowa",
                "addr:housenumber": "2",
                "addr:teryt:simc": 950026,
                "addr:teryt:sym_ul": 2276,
                "contact:phone": "+48 943549670",
                "contact:email": "sosw@kolobrzeg.powiat.pl",
                "contact:website": "http:\/\/www.soswokruszek.pl",
                "ref:regon": "001257244",
                "ref:vatin": "PL6711043573",
                "operator": "Powiat Ko\u0142obrzeski",
                "operator:type": "government",
                "amenity": "school",
                "note": "Children RSPO: 125346;133214"
            }
        },
        {
            "id": 125346,
            "type": "Feature",
            "geometry": {
                "type": "Point",
                "coordinates": [
                    15.57186,
                    54.17565
                ]
            },
            "properties": {
                "isced:level": "1;2",
                "ref:rspo": 125346,
                "official_name": "Szko\u0142a Podstawowa Specjalna Nr 1",
                "name": "Szko\u0142a Podstawowa Specjalna Nr 1",
                "addr:country": "PL",
                "addr:postcode": "78-100",
                "addr:city": "Ko\u0142obrzeg",
                "addr:street": "Brzozowa",
                "addr:housenumber": "2",
                "addr:teryt:simc": 950026,
                "addr:teryt:sym_ul": 2276,
                "contact:phone": "+48 943549670",
                "contact:email": "sosw@kolobrzeg.powiat.pl",
                "ref:regon": "331439053",
                "operator": "Powiat Ko\u0142obrzeski",
                "operator:type": "government",
                "amenity": "school",
                "note": "Parent RSPO: 62310"
            }
        },
        {
            "id": 133214,
            "type": "Feature",
            "geometry": {
                "type": "Point",
                "coordinates": [
                    15.57186,
                    54.17562
                ]
            },
            "properties": {
                "ref:rspo": 133214,
                "official_name": "Szko\u0142a Specjalna Przysposabiaj\u0105ca Do Pracy w Ko\u0142obrzegu",
                "name": "Szko\u0142a Specjalna Przysposabiaj\u0105ca Do Pracy w Ko\u0142obrzegu",
                "addr:country": "PL",
                "addr:postcode": "78-100",
                "addr:city": "Ko\u0142obrzeg",
                "addr:street": "Brzozowa",
                "addr:housenumber": "2",
                "addr:teryt:simc": 950026,
                "addr:teryt:sym_ul": 2276,
                "contact:phone": "+48 943549670",
                "contact:email": "sosw@kolobrzeg.powiat.pl",
                "ref:regon": "366810698",
                "operator": "Powiat Ko\u0142obrzeski",
                "operator:type": "government",
                "amenity": "school",
                "note": "Parent RSPO: 62310"
            }
        },
        {
            "id": 10670,
            "type": "Feature",
            "geometry": {
                "type": "Point",
                "coordinates": [
                    15.54056,
                    54.17639
                ]
            },
            "properties": {
                "isced:level": "1;2",
                "ref:rspo": 10670,
                "official_name": "Szko\u0142a Podstawowa Nr 5 Z Oddzia\u0142ami Integracyjnymi im. Jana Paw\u0142a Ii",
                "name": "Szko\u0142a Podstawowa Nr 5 Z Oddzia\u0142ami Integracyjnymi",
                "addr:country": "PL",
                "addr:postcode": "78-100",
                "addr:city": "Ko\u0142obrzeg",
                "addr:street": "Krzysztofa Arciszewskiego",
                "addr:housenumber": "20",
                "addr:teryt:simc": 950026,
                "addr:teryt:sym_ul": 393,
                "contact:phone": "+48 943516241",
                "contact:email": "dyrektor@sp5kg.pl",
                "contact:website": "http:\/\/www.sp5kg.pl",
                "ref:regon": "330388796",
                "operator": "Gmina Miasto Ko\u0142obrzeg",
                "operator:type": "government",
                "amenity": "school"
            }
        },
        {
            "id": 64940,
            "type": "Feature",
            "geometry": {
                "type": "Point",
                "coordinates": [
                    15.53715,
                    54.17673
                ]
            },
            "properties": {
                "isced:level": "4",
                "ref:rspo": 64940,
                "official_name": "Policealna Szko\u0142a Kosmetyczna w Ko\u0142obrzegu",
                "name": "Policealna Szko\u0142a Kosmetyczna w Ko\u0142obrzegu",
                "addr:country": "PL",
                "addr:postcode": "78-100",
                "addr:city": "Ko\u0142obrzeg",
                "addr:street": "Krzysztofa Arciszewskiego",
                "addr:housenumber": "21",
                "addr:teryt:simc": 950026,
                "addr:teryt:sym_ul": 393,
                "contact:phone": "+48 601711004",
                "contact:email": "smooth@smooth.pl",
                "ref:regon": "321295538",
                "ref:vatin": "PL7820013873",
                "operator": "Barbara Reimann-Miedziak",
                "operator:type": "private",
                "amenity": "college"
            }
        },
        {
            "id": 66469,
            "type": "Feature",
            "geometry": {
                "type": "Point",
                "coordinates": [
                    15.53715,
                    54.1767
                ]
            },
            "properties": {
                "ref:rspo": 66469,
                "official_name": "Zesp\u00f3\u0142 Szk\u00f3\u0142 Morskich im. Polskich Rybak\u00f3w I Marynarzy w Ko\u0142obrzegu",
                "name": "Zesp\u00f3\u0142 Szk\u00f3\u0142 Morskich",
                "addr:country": "PL",
                "addr:postcode": "78-100",
                "addr:city": "Ko\u0142obrzeg",
                "addr:street": "Krzysztofa Arciszewskiego",
                "addr:housenumber": "21",
                "addr:teryt:simc": 950026,
                "addr:teryt:sym_ul": 393,
                "contact:phone": "+48 943518082",
                "contact:email": "zsmor@kolobrzeg.powiat.pl",
                "contact:website": "http:\/\/www.zsmor.pl",
                "ref:regon": "000144791",
                "ref:vatin": "PL6711049067",
                "operator": "Powiat Ko\u0142obrzeski",
                "operator:type": "government",
                "landuse": "education",
                "fixme": "amenity=school, amenity=college albo landuse=education w zale\u017cno\u015bci od tego, jakie plac\u00f3wki wchodz\u0105 w sk\u0142ad zespo\u0142u. Sprawd\u017a, kiedy stosowa\u0107 amenity=* a kiedy landuse=education.",
                "note": "Children RSPO: 126297;130360"
            }
        },
        {
            "id": 126297,
            "type": "Feature",
            "geometry": {
                "type": "Point",
                "coordinates": [
                    15.53715,
                    54.17667
                ]
            },
            "properties": {
                "isced:level": "3",
                "ref:rspo": 126297,
                "official_name": "Technikum Morskie",
                "name": "Technikum Morskie",
                "addr:country": "PL",
                "addr:postcode": "78-100",
                "addr:city": "Ko\u0142obrzeg",
                "addr:street": "Krzysztofa Arciszewskiego",
                "addr:housenumber": "21",
                "addr:teryt:simc": 950026,
                "addr:teryt:sym_ul": 393,
                "contact:phone": "+48 943518082",
                "contact:email": "zsmor@kolobrzeg.powiat.pl",
                "ref:regon": "320003775",
                "operator": "Powiat Ko\u0142obrzeski",
                "operator:type": "government",
                "amenity": "school",
                "note": "Parent RSPO: 66469"
            }
        },
        {
            "id": 130360,
            "type": "Feature",
            "geometry": {
                "type": "Point",
                "coordinates": [
                    15.53715,
                    54.17664
                ]
            },
            "properties": {
                "isced:level": "3",
                "ref:rspo": 130360,
                "official_name": "Technikum Transportowe",
                "name": "Technikum Transportowe",
                "addr:country": "PL",
                "addr:postcode": "78-100",
                "addr:city": "Ko\u0142obrzeg",
                "addr:street": "Krzysztofa Arciszewskiego",
                "addr:housenumber": "21",
                "addr:teryt:simc": 950026,
                "addr:teryt:sym_ul": 393,
                "contact:phone": "+48 943518082",
                "contact:email": "zsmor@kolobrzeg.powiat.pl",
                "ref:regon": "363912062",
                "operator": "Powiat Ko\u0142obrzeski",
                "operator:type": "government",
                "amenity": "school",
                "note": "Parent RSPO: 66469"
            }
        },
        {
            "id": 10666,
            "type": "Feature",
            "geometry": {
                "type": "Point",
                "coordinates": [
                    15.59072,
                    54.17685
                ]
            },
            "properties": {
                "ref:rspo": 10666,
                "official_name": "Przedszkole Miejskie Nr 8 im. Jana Brzechwy",
                "name": "Przedszkole Miejskie Nr 8",
                "addr:country": "PL",
                "addr:postcode": "78-100",
                "addr:city": "Ko\u0142obrzeg",
                "addr:street": "Bociania",
                "addr:housenumber": "4A",
                "addr:teryt:simc": 950026,
                "addr:teryt:sym_ul": 1518,
                "contact:phone": "+48 943521919",
                "contact:email": "dyrektor@pm8kg.pl",
                "ref:regon": "320753750",
                "ref:vatin": "PL6711784921",
                "operator": "Gmina Miasto Ko\u0142obrzeg",
                "operator:type": "government",
                "amenity": "kindergarten"
            }
        },
        {
            "id": 25860,
            "type": "Feature",
            "geometry": {
                "type": "Point",
                "coordinates": [
                    15.56904,
                    54.17697
                ]
            },
            "properties": {
                "ref:rspo": 25860,
                "official_name": "Pa\u0144stwowa Szko\u0142a Muzyczna I St. w Ko\u0142obrzegu",
                "name": "Pa\u0144stwowa Szko\u0142a Muzyczna I St. w Ko\u0142obrzegu",
                "addr:country": "PL",
                "addr:postcode": "78-100",
                "addr:city": "Ko\u0142obrzeg",
                "addr:street": "Jana Frankowskiego",
                "addr:housenumber": "1",
                "addr:teryt:simc": 950026,
                "addr:teryt:sym_ul": 5163,
                "contact:phone": "+48 943523201",
                "contact:email": "kolmuz@o2.pl",
                "ref:regon": "330019716",
                "operator": "Ministerstwo Kultury I Dziedzictwa Narodowego",
                "operator:type": "public",
                "amenity": "music_school"
            }
        },
        {
            "id": 68474,
            "type": "Feature",
            "geometry": {
                "type": "Point",
                "coordinates": [
                    15.57138,
                    54.17697
                ]
            },
            "properties": {
                "ref:rspo": 68474,
                "official_name": "Szko\u0142a J\u0119zyk\u00f3w Obcych \"Europa\" S.c. Anna W\u0105growska, Bart\u0142omiej W\u0105growski w Ko\u0142obrzegu",
                "name": "Szko\u0142a J\u0119zyk\u00f3w Obcych \"Europa\" S.c. Anna W\u0105growska, Bart\u0142omiej W\u0105growski w Ko\u0142obrzegu",
                "addr:country": "PL",
                "addr:postcode": "78-100",
                "addr:city": "Ko\u0142obrzeg",
                "addr:street": "Podporucznika Edmunda \u0141opuskiego",
                "addr:housenumber": "23",
                "addr:door": "p. 314",
                "addr:teryt:simc": 950026,
                "addr:teryt:sym_ul": 11666,
                "contact:phone": "+48 943540207",
                "contact:email": "bartek@szkolaeuropa.pl",
                "contact:website": "http:\/\/www.szkolaeuropa.pl",
                "ref:regon": "321294898",
                "ref:vatin": "PL6711722400",
                "operator": "Bart\u0142omiej W\u0105growski",
                "operator:type": "private",
                "fixme": "w zale\u017cno\u015bci od przedmiotu dzia\u0142alno\u015bci (np. amenity=training + training=*, amenity=dancing_school, amenity=language_school, amenity=music_school)"
            }
        },
        {
            "id": 10661,
            "type": "Feature",
            "geometry": {
                "type": "Point",
                "coordinates": [
                    15.56449,
                    54.17698
                ]
            },
            "properties": {
                "ref:rspo": 10661,
                "official_name": "Przedszkole Miejskie Nr 1 Z Oddzia\u0142ami Integracyjnymi im. Juliana Tuwima",
                "name": "Przedszkole Miejskie Nr 1 Z Oddzia\u0142ami Integracyjnymi",
                "addr:country": "PL",
                "addr:postcode": "78-100",
                "addr:city": "Ko\u0142obrzeg",
                "addr:street": "Zygmuntowska",
                "addr:housenumber": "38",
                "addr:teryt:simc": 950026,
                "addr:teryt:sym_ul": 26347,
                "contact:phone": "+48 943522712",
                "contact:email": "dyrektor@pm1kg.pl",
                "ref:regon": "320753625",
                "ref:vatin": "PL6711784944",
                "operator": "Gmina Miasto Ko\u0142obrzeg",
                "operator:type": "government",
                "amenity": "kindergarten"
            }
        },
        {
            "id": 10669,
            "type": "Feature",
            "geometry": {
                "type": "Point",
                "coordinates": [
                    15.5836,
                    54.17701
                ]
            },
            "properties": {
                "isced:level": "1;2",
                "ref:rspo": 10669,
                "official_name": "Szko\u0142a Podstawowa Nr 4 im. Bohater\u00f3w I Armii Wojska Polskiego",
                "name": "Szko\u0142a Podstawowa Nr 4",
                "addr:country": "PL",
                "addr:postcode": "78-100",
                "addr:city": "Ko\u0142obrzeg",
                "addr:street": "Kupiecka",
                "addr:housenumber": "1",
                "addr:teryt:simc": 950026,
                "addr:teryt:sym_ul": 10417,
                "contact:phone": "+48 943544876",
                "contact:email": "dyrektor@sp4kg.pl",
                "contact:website": "http:\/\/www.sp4.kolobrzeg.pl",
                "ref:regon": "330388780",
                "operator": "Gmina Miasto Ko\u0142obrzeg",
                "operator:type": "government",
                "amenity": "school"
            }
        },
        {
            "id": 60881,
            "type": "Feature",
            "geometry": {
                "type": "Point",
                "coordinates": [
                    15.57312,
                    54.17729
                ]
            },
            "properties": {
                "ref:rspo": 60881,
                "official_name": "O\u015brodek Szkoleniowy Centrum Nauki I Bizneu \"\u017bak\" w Ko\u0142obrzegu",
                "name": "O\u015brodek Szkoleniowy Centrum Nauki I Bizneu \"\u017bak\" w Ko\u0142obrzegu",
                "addr:country": "PL",
                "addr:postcode": "78-100",
                "addr:city": "Ko\u0142obrzeg",
                "addr:street": "Armii Krajowej",
                "addr:housenumber": "20c",
                "addr:door": "14",
                "addr:teryt:simc": 950026,
                "addr:teryt:sym_ul": 432,
                "contact:phone": "+48 943520292",
                "contact:email": "kolobrzeg@zak.edu.pl",
                "contact:website": "http:\/\/www.zak.edu.pl",
                "ref:regon": "321295811",
                "ref:vatin": "PL7292597869",
                "operator": "Centrum Nauki I Biznesu \"\u017bak\" Sp\u00f3\u0142ka Z Ograniczon\u0105 Odpowiedzialno\u015bci\u0105",
                "operator:type": "private",
                "fixme": "w zale\u017cno\u015bci od przedmiotu dzia\u0142alno\u015bci (np. amenity=training + training=*, amenity=dancing_school, amenity=language_school, amenity=music_school)"
            }
        },
        {
            "id": 10668,
            "type": "Feature",
            "geometry": {
                "type": "Point",
                "coordinates": [
                    15.57411,
                    54.17827
                ]
            },
            "properties": {
                "isced:level": "1;2",
                "ref:rspo": 10668,
                "official_name": "Szko\u0142a Podstawowa Nr 3 im. Marynarzy Polskich",
                "name": "Szko\u0142a Podstawowa Nr 3",
                "addr:country": "PL",
                "addr:postcode": "78-100",
                "addr:city": "Ko\u0142obrzeg",
                "addr:street": "Podporucznika Edmunda \u0141opuskiego",
                "addr:housenumber": "15",
                "addr:teryt:simc": 950026,
                "addr:teryt:sym_ul": 11666,
                "contact:phone": "+48 943522131",
                "contact:email": "dyrektor@sp3kg.pl",
                "contact:website": "http:\/\/sp3kg.pl",
                "ref:regon": "330388773",
                "operator": "Gmina Miasto Ko\u0142obrzeg",
                "operator:type": "government",
                "amenity": "school"
            }
        },
        {
            "id": 60457,
            "type": "Feature",
            "geometry": {
                "type": "Point",
                "coordinates": [
                    15.58493,
                    54.17833
                ]
            },
            "properties": {
                "isced:level": "4",
                "ref:rspo": 60457,
                "official_name": "Szko\u0142a Policelna Administracji \"\u017bak\" w Ko\u0142obrzegu",
                "name": "Szko\u0142a Policelna Administracji \"\u017bak\" w Ko\u0142obrzegu",
                "addr:country": "PL",
                "addr:postcode": "78-100",
                "addr:city": "Ko\u0142obrzeg",
                "addr:street": "Okopowa",
                "addr:housenumber": "1a",
                "addr:teryt:simc": 950026,
                "addr:teryt:sym_ul": 14886,
                "contact:phone": "+48 943520292",
                "contact:email": "kolobrzeg@zak.edu.pl",
                "contact:website": "http:\/\/www.zak.edu.pl",
                "ref:regon": "321295828",
                "ref:vatin": "PL7292597869",
                "operator": "Centrum Nauki I Biznesu \"\u017bak\" Sp\u00f3\u0142ka Z Ograniczon\u0105 Odpowiedzialno\u015bci\u0105",
                "operator:type": "private",
                "amenity": "college"
            }
        },
        {
            "id": 60462,
            "type": "Feature",
            "geometry": {
                "type": "Point",
                "coordinates": [
                    15.58493,
                    54.1783
                ]
            },
            "properties": {
                "isced:level": "4",
                "ref:rspo": 60462,
                "official_name": "Szko\u0142a Policealna Bezpiecze\u0144stwa I Higieny Pracy \"\u017bak\" w Ko\u0142obrzegu",
                "name": "Szko\u0142a Policealna Bezpiecze\u0144stwa I Higieny Pracy \"\u017bak\" w Ko\u0142obrzegu",
                "addr:country": "PL",
                "addr:postcode": "78-100",
                "addr:city": "Ko\u0142obrzeg",
                "addr:street": "Okopowa",
                "addr:housenumber": "1a",
                "addr:teryt:simc": 950026,
                "addr:teryt:sym_ul": 14886,
                "contact:phone": "+48 943520292",
                "contact:email": "kolobrzeg@zak.edu.pl",
                "contact:website": "http:\/\/www.zak.edu.pl",
                "ref:regon": "321295768",
                "ref:vatin": "PL7292597869",
                "operator": "Centrum Nauki I Biznesu \"\u017bak\" Sp\u00f3\u0142ka Z Ograniczon\u0105 Odpowiedzialno\u015bci\u0105",
                "operator:type": "private",
                "amenity": "college"
            }
        },
        {
            "id": 60470,
            "type": "Feature",
            "geometry": {
                "type": "Point",
                "coordinates": [
                    15.58493,
                    54.178270000000005
                ]
            },
            "properties": {
                "isced:level": "3",
                "ref:rspo": 60470,
                "official_name": "Liceum Og\u00f3lnokszta\u0142c\u0105ce dla Doros\u0142ych \"\u017bak\" w Ko\u0142obrzegu",
                "name": "Liceum Og\u00f3lnokszta\u0142c\u0105ce dla Doros\u0142ych \"\u017bak\" w Ko\u0142obrzegu",
                "addr:country": "PL",
                "addr:postcode": "78-100",
                "addr:city": "Ko\u0142obrzeg",
                "addr:street": "Okopowa",
                "addr:housenumber": "1a",
                "addr:teryt:simc": 950026,
                "addr:teryt:sym_ul": 14886,
                "contact:phone": "+48 943520292",
                "contact:email": "kolobrzeg@zak.edu.pl",
                "contact:website": "http:\/\/www.zak.edu.pl",
                "ref:regon": "321295863",
                "ref:vatin": "PL7292597869",
                "operator": "Centrum Nauki I Biznesu \"\u017bak\" Sp\u00f3\u0142ka Z Ograniczon\u0105 Odpowiedzialno\u015bci\u0105",
                "operator:type": "private",
                "amenity": "school"
            }
        },
        {
            "id": 60682,
            "type": "Feature",
            "geometry": {
                "type": "Point",
                "coordinates": [
                    15.58493,
                    54.17824
                ]
            },
            "properties": {
                "isced:level": "4",
                "ref:rspo": 60682,
                "official_name": "Szko\u0142a Policealna Centrum Nauki I Biznesu \"\u017bak\" w Ko\u0142obrzegu",
                "name": "Szko\u0142a Policealna Centrum Nauki I Biznesu \"\u017bak\" w Ko\u0142obrzegu",
                "addr:country": "PL",
                "addr:postcode": "78-100",
                "addr:city": "Ko\u0142obrzeg",
                "addr:street": "Okopowa",
                "addr:housenumber": "1a",
                "addr:teryt:simc": 950026,
                "addr:teryt:sym_ul": 14886,
                "contact:phone": "+48 943520292",
                "contact:email": "kolobrzeg@zak.edu.pl",
                "contact:website": "http:\/\/www.zak.edu.pl",
                "ref:regon": "321295805",
                "ref:vatin": "PL7292597869",
                "operator": "Centrum Nauki I Biznesu \"\u017bak\" Sp\u00f3\u0142ka Z Ograniczon\u0105 Odpowiedzialno\u015bci\u0105",
                "operator:type": "private",
                "amenity": "college"
            }
        },
        {
            "id": 196361,
            "type": "Feature",
            "geometry": {
                "type": "Point",
                "coordinates": [
                    15.58493,
                    54.17821
                ]
            },
            "properties": {
                "isced:level": "1;2",
                "ref:rspo": 196361,
                "official_name": "Szko\u0142a Podstawowa Nr 7 im. Zjednoczonej Europy",
                "name": "Szko\u0142a Podstawowa Nr 7",
                "addr:country": "PL",
                "addr:postcode": "78-100",
                "addr:city": "Ko\u0142obrzeg",
                "addr:street": "Okopowa",
                "addr:housenumber": "1 A",
                "addr:teryt:simc": 950026,
                "addr:teryt:sym_ul": 14886,
                "contact:phone": "+48 943521141",
                "contact:email": "dyrektor@sp7kg.pl",
                "ref:regon": "367991621",
                "operator": "Gmina Miasto Ko\u0142obrzeg",
                "operator:type": "government",
                "amenity": "school"
            }
        },
        {
            "id": 262442,
            "type": "Feature",
            "geometry": {
                "type": "Point",
                "coordinates": [
                    15.58493,
                    54.178180000000005
                ]
            },
            "properties": {
                "isced:level": "4",
                "ref:rspo": 262442,
                "official_name": "Szko\u0142a Policealna Opieki Medycznej \"\u017bak\" w Ko\u0142obrzegu",
                "name": "Szko\u0142a Policealna Opieki Medycznej \"\u017bak\" w Ko\u0142obrzegu",
                "addr:country": "PL",
                "addr:postcode": "78-100",
                "addr:city": "Ko\u0142obrzeg",
                "addr:street": "Okopowa",
                "addr:housenumber": "1a",
                "addr:teryt:simc": 950026,
                "addr:teryt:sym_ul": 14886,
                "contact:phone": "+48 943520292",
                "contact:email": "kolobrzeg@zak.edu.pl",
                "contact:website": "http:\/\/www.zak.edu.pl",
                "ref:regon": "368010074",
                "operator": "Centrum Nauki I Biznesu \"\u017bak\" Sp\u00f3\u0142ka Z Ograniczon\u0105 Odpowiedzialno\u015bci\u0105",
                "operator:type": "private",
                "amenity": "college"
            }
        },
        {
            "id": 66253,
            "type": "Feature",
            "geometry": {
                "type": "Point",
                "coordinates": [
                    15.57447,
                    54.1784
                ]
            },
            "properties": {
                "ref:rspo": 66253,
                "official_name": "Zesp\u00f3\u0142 Szk\u00f3\u0142 Ekonomiczno - Hotelarskich im. Emilii Gierczak w Ko\u0142obrzegu",
                "name": "Zesp\u00f3\u0142 Szk\u00f3\u0142 Ekonomiczno - Hotelarskich",
                "addr:country": "PL",
                "addr:postcode": "78-100",
                "addr:city": "Ko\u0142obrzeg",
                "addr:street": "Podporucznika Edmunda \u0141opuskiego",
                "addr:housenumber": "13",
                "addr:teryt:simc": 950026,
                "addr:teryt:sym_ul": 11666,
                "contact:phone": "+48 943540583",
                "contact:email": "zseh@kolobrzeg.powiat.pl",
                "contact:website": "http:\/\/www.ekonom.kolobrzeg.pl",
                "ref:regon": "331444611",
                "ref:vatin": "PL6711702998",
                "operator": "Powiat Ko\u0142obrzeski",
                "operator:type": "government",
                "landuse": "education",
                "fixme": "amenity=school, amenity=college albo landuse=education w zale\u017cno\u015bci od tego, jakie plac\u00f3wki wchodz\u0105 w sk\u0142ad zespo\u0142u. Sprawd\u017a, kiedy stosowa\u0107 amenity=* a kiedy landuse=education.",
                "note": "Children RSPO: 114966;126176;126177;126178;126181;126182;126224"
            }
        },
        {
            "id": 114966,
            "type": "Feature",
            "geometry": {
                "type": "Point",
                "coordinates": [
                    15.57447,
                    54.17837
                ]
            },
            "properties": {
                "isced:level": "3",
                "ref:rspo": 114966,
                "official_name": "Technikum Ekonomiczne",
                "name": "Technikum Ekonomiczne",
                "addr:country": "PL",
                "addr:postcode": "78-100",
                "addr:city": "Ko\u0142obrzeg",
                "addr:street": "Podporucznika Edmunda \u0141opuskiego",
                "addr:housenumber": "13",
                "addr:teryt:simc": 950026,
                "addr:teryt:sym_ul": 11666,
                "contact:phone": "+48 943540583",
                "contact:email": "zseh@kolobrzeg.powiat.pl",
                "contact:website": "http:\/\/www.ekonom.kolobrzeg.pl",
                "ref:regon": "331405829",
                "operator": "Powiat Ko\u0142obrzeski",
                "operator:type": "government",
                "amenity": "school",
                "note": "Parent RSPO: 66253"
            }
        },
        {
            "id": 126176,
            "type": "Feature",
            "geometry": {
                "type": "Point",
                "coordinates": [
                    15.57447,
                    54.178340000000006
                ]
            },
            "properties": {
                "isced:level": "3",
                "ref:rspo": 126176,
                "official_name": "Technikum Hotelarskie",
                "name": "Technikum Hotelarskie",
                "addr:country": "PL",
                "addr:postcode": "78-100",
                "addr:city": "Ko\u0142obrzeg",
                "addr:street": "Podporucznika Edmunda \u0141opuskiego",
                "addr:housenumber": "13",
                "addr:teryt:simc": 950026,
                "addr:teryt:sym_ul": 11666,
                "contact:phone": "+48 943540583",
                "contact:email": "zseh@kolobrzeg.powiat.pl",
                "ref:regon": "360165268",
                "operator": "Powiat Ko\u0142obrzeski",
                "operator:type": "government",
                "amenity": "school",
                "note": "Parent RSPO: 66253"
            }
        },
        {
            "id": 126177,
            "type": "Feature",
            "geometry": {
                "type": "Point",
                "coordinates": [
                    15.57447,
                    54.17831
                ]
            },
            "properties": {
                "isced:level": "3",
                "ref:rspo": 126177,
                "official_name": "Technikum Handlowe",
                "name": "Technikum Handlowe",
                "addr:country": "PL",
                "addr:postcode": "78-100",
                "addr:city": "Ko\u0142obrzeg",
                "addr:street": "Podporucznika Edmunda \u0141opuskiego",
                "addr:housenumber": "13",
                "addr:teryt:simc": 950026,
                "addr:teryt:sym_ul": 11666,
                "contact:phone": "+48 943540583",
                "contact:email": "zseh@kolobrzeg.powiat.pl",
                "contact:website": "http:\/\/www.ekonom.kolobrzeg.pl",
                "ref:regon": "360166546",
                "operator": "Powiat Ko\u0142obrzeski",
                "operator:type": "government",
                "amenity": "school",
                "note": "Parent RSPO: 66253"
            }
        },
        {
            "id": 126178,
            "type": "Feature",
            "geometry": {
                "type": "Point",
                "coordinates": [
                    15.57447,
                    54.17828
                ]
            },
            "properties": {
                "ref:rspo": 126178,
                "official_name": "Centrum Kszta\u0142cenia Ustawicznego im. Emilii Gierczak",
                "name": "Centrum Kszta\u0142cenia Ustawicznego",
                "addr:country": "PL",
                "addr:postcode": "78-100",
                "addr:city": "Ko\u0142obrzeg",
                "addr:street": "Podporucznika Edmunda \u0141opuskiego",
                "addr:housenumber": "13",
                "addr:teryt:simc": 950026,
                "addr:teryt:sym_ul": 11666,
                "contact:phone": "+48 943540583",
                "contact:email": "zseh@kolobrzeg.powiat.pl",
                "ref:regon": "331277076",
                "operator": "Powiat Ko\u0142obrzeski",
                "operator:type": "government",
                "fixme": "w zale\u017cno\u015bci od przedmiotu dzia\u0142alno\u015bci (np. amenity=training + training=*, amenity=dancing_school, amenity=language_school, amenity=music_school)",
                "note": "Parent RSPO: 66253"
            }
        },
        {
            "id": 126181,
            "type": "Feature",
            "geometry": {
                "type": "Point",
                "coordinates": [
                    15.57447,
                    54.178250000000006
                ]
            },
            "properties": {
                "isced:level": "3",
                "ref:rspo": 126181,
                "official_name": "Technikum Zawodowe Nr 1",
                "name": "Technikum Zawodowe Nr 1",
                "addr:country": "PL",
                "addr:postcode": "78-100",
                "addr:city": "Ko\u0142obrzeg",
                "addr:street": "Podporucznika Edmunda \u0141opuskiego",
                "addr:housenumber": "13",
                "addr:teryt:simc": 950026,
                "addr:teryt:sym_ul": 11666,
                "contact:phone": "+48 943540583",
                "contact:email": "zseh@kolobrzeg.powiat.pl",
                "contact:website": "http:\/\/www.ekonom.kolobrzeg.pl",
                "ref:regon": "360166782",
                "operator": "Powiat Ko\u0142obrzeski",
                "operator:type": "government",
                "amenity": "school",
                "note": "Parent RSPO: 66253"
            }
        },
        {
            "id": 126182,
            "type": "Feature",
            "geometry": {
                "type": "Point",
                "coordinates": [
                    15.57447,
                    54.17822
                ]
            },
            "properties": {
                "isced:level": "4",
                "ref:rspo": 126182,
                "official_name": "Szko\u0142a Policealna Nr 1",
                "name": "Szko\u0142a Policealna Nr 1",
                "addr:country": "PL",
                "addr:postcode": "78-100",
                "addr:city": "Ko\u0142obrzeg",
                "addr:street": "Podporucznika Edmunda \u0141opuskiego",
                "addr:housenumber": "13",
                "addr:teryt:simc": 950026,
                "addr:teryt:sym_ul": 11666,
                "contact:phone": "+48 943540583",
                "contact:email": "zseh@kolobrzeg.powiat.pl",
                "contact:website": "http:\/\/ekonom.kolobrzeg.pl",
                "ref:regon": "331405775",
                "operator": "Powiat Ko\u0142obrzeski",
                "operator:type": "government",
                "amenity": "college",
                "note": "Parent RSPO: 66253"
            }
        },
        {
            "id": 126224,
            "type": "Feature",
            "geometry": {
                "type": "Point",
                "coordinates": [
                    15.57447,
                    54.17819
                ]
            },
            "properties": {
                "ref:rspo": 126224,
                "official_name": "Centrum Kszta\u0142cenia Zawodowego",
                "name": "Centrum Kszta\u0142cenia Zawodowego",
                "addr:country": "PL",
                "addr:postcode": "78-100",
                "addr:city": "Ko\u0142obrzeg",
                "addr:street": "Podporucznika Edmunda \u0141opuskiego",
                "addr:housenumber": "13",
                "addr:teryt:simc": 950026,
                "addr:teryt:sym_ul": 11666,
                "contact:phone": "+48 943540583",
                "contact:email": "zseh@kolobrzeg.powiat.pl",
                "ref:regon": "360178348",
                "operator": "Powiat Ko\u0142obrzeski",
                "operator:type": "government",
                "fixme": "w zale\u017cno\u015bci od przedmiotu dzia\u0142alno\u015bci (np. amenity=training + training=*, amenity=dancing_school, amenity=language_school, amenity=music_school) albo amenity=school, amenity=college, albo landuse=education w zale\u017cno\u015bci od tego, jakie plac\u00f3wki wchodz\u0105 w sk\u0142ad zespo\u0142u. Sprawd\u017a, kiedy stosowa\u0107 amenity=* a kiedy landuse=education.",
                "note": "Parent RSPO: 66253"
            }
        },
        {
            "id": 265244,
            "type": "Feature",
            "geometry": {
                "type": "Point",
                "coordinates": [
                    15.58168,
                    54.17856
                ]
            },
            "properties": {
                "ref:rspo": 265244,
                "official_name": "Niepubliczna Poradnia Psychologiczno-Pedagogiczna \"Centrum Wspierania Dziecka I Rodziny\"",
                "name": "Niepubliczna Poradnia Psychologiczno-Pedagogiczna \"Centrum Wspierania Dziecka I Rodziny\"",
                "addr:country": "PL",
                "addr:postcode": "78-100",
                "addr:city": "Ko\u0142obrzeg",
                "addr:street": "Zapleczna",
                "addr:housenumber": "3 A-F",
                "addr:teryt:simc": 950026,
                "addr:teryt:sym_ul": 25622,
                "contact:email": "jagoda.kalinowska@wp.pl",
                "ref:regon": "368680366",
                "operator": "Jagoda Kalinowska",
                "operator:type": "private",
                "healthcare": "counselling",
                "counselling_type": "education",
                "fixme": "w zale\u017cno\u015bci od przedmiotu dzia\u0142alno\u015bci (np. healthcare=counselling + counselling_type=education albo healthcare=psychotherapist)"
            }
        },
        {
            "id": 68478,
            "type": "Feature",
            "geometry": {
                "type": "Point",
                "coordinates": [
                    15.57027,
                    54.17858
                ]
            },
            "properties": {
                "ref:rspo": 68478,
                "official_name": "Szko\u0142a Kszta\u0142cenia Zawodowego I Technicznego \"Rynio\" Marek Rynio",
                "name": "Szko\u0142a Kszta\u0142cenia Zawodowego I Technicznego \"Rynio\" Marek Rynio",
                "addr:country": "PL",
                "addr:postcode": "78-100",
                "addr:city": "Ko\u0142obrzeg",
                "addr:street": "Armii Krajowej",
                "addr:housenumber": "1",
                "addr:door": "p.120",
                "addr:teryt:simc": 950026,
                "addr:teryt:sym_ul": 432,
                "contact:phone": "+48 502396855",
                "contact:email": "m.rynio@op.pl",
                "ref:regon": "321295917",
                "ref:vatin": "PL6711501248",
                "operator": "Marek Rynio",
                "operator:type": "private",
                "fixme": "w zale\u017cno\u015bci od przedmiotu dzia\u0142alno\u015bci (np. amenity=training + training=*, amenity=dancing_school, amenity=language_school, amenity=music_school) albo amenity=school, amenity=college, albo landuse=education w zale\u017cno\u015bci od tego, jakie plac\u00f3wki wchodz\u0105 w sk\u0142ad zespo\u0142u. Sprawd\u017a, kiedy stosowa\u0107 amenity=* a kiedy landuse=education."
            }
        },
        {
            "id": 10667,
            "type": "Feature",
            "geometry": {
                "type": "Point",
                "coordinates": [
                    15.58215,
                    54.17972
                ]
            },
            "properties": {
                "ref:rspo": 10667,
                "official_name": "Przedszkole Miejskie Nr 10",
                "name": "Przedszkole Miejskie Nr 10",
                "addr:country": "PL",
                "addr:postcode": "78-100",
                "addr:city": "Ko\u0142obrzeg",
                "addr:street": "Okopowa",
                "addr:housenumber": "4",
                "addr:teryt:simc": 950026,
                "addr:teryt:sym_ul": 14886,
                "contact:phone": "+48 943546041",
                "contact:email": "dyrektor@pm10kg.pl",
                "ref:regon": "320753766",
                "ref:vatin": "PL6711784938",
                "operator": "Gmina Miasto Ko\u0142obrzeg",
                "operator:type": "government",
                "amenity": "kindergarten"
            }
        },
        {
            "id": 10663,
            "type": "Feature",
            "geometry": {
                "type": "Point",
                "coordinates": [
                    15.57705,
                    54.17999
                ]
            },
            "properties": {
                "ref:rspo": 10663,
                "official_name": "Przedszkole Miejskie Nr 3 im. Marii Montessori",
                "name": "Przedszkole Miejskie Nr 3",
                "addr:country": "PL",
                "addr:postcode": "78-100",
                "addr:city": "Ko\u0142obrzeg",
                "addr:street": "Unii Lubelskiej",
                "addr:housenumber": "23",
                "addr:teryt:simc": 950026,
                "addr:teryt:sym_ul": 23367,
                "contact:phone": "+48 943523061",
                "contact:email": "dyrektor@pm3kg.pl",
                "contact:website": "http:\/\/www.pm3kg.pl",
                "ref:regon": "320753708",
                "ref:vatin": "PL6711784890",
                "operator": "Gmina Miasto Ko\u0142obrzeg",
                "operator:type": "government",
                "amenity": "kindergarten"
            }
        },
        {
            "id": 68476,
            "type": "Feature",
            "geometry": {
                "type": "Point",
                "coordinates": [
                    15.60046,
                    54.1802
                ]
            },
            "properties": {
                "ref:rspo": 68476,
                "official_name": "Biuro Zarz\u0105dzania Bezbiecze\u0144stwem I Higien\u0105 Pracy",
                "name": "Biuro Zarz\u0105dzania Bezbiecze\u0144stwem I Higien\u0105 Pracy",
                "addr:country": "PL",
                "addr:postcode": "78-100",
                "addr:city": "Ko\u0142obrzeg",
                "addr:street": "Stefana Czarnieckiego",
                "addr:housenumber": "2e",
                "addr:door": "2",
                "addr:teryt:simc": 950026,
                "addr:teryt:sym_ul": 3283,
                "contact:phone": "+48 504245790",
                "contact:email": "w.swiatecki@interia.pl",
                "ref:regon": "321295886",
                "ref:vatin": "PL6711116987",
                "operator": "Wies\u0142aw \u015awi\u0105tecki",
                "operator:type": "private",
                "fixme": "w zale\u017cno\u015bci od przedmiotu dzia\u0142alno\u015bci (np. amenity=training + training=*, amenity=dancing_school, amenity=language_school, amenity=music_school)"
            }
        },
        {
            "id": 62072,
            "type": "Feature",
            "geometry": {
                "type": "Point",
                "coordinates": [
                    15.57099,
                    54.18022
                ]
            },
            "properties": {
                "ref:rspo": 62072,
                "official_name": "Poradnia Psychologiczno - Pedagogiczna w Ko\u0142obrzegu",
                "name": "Poradnia Psychologiczno - Pedagogiczna w Ko\u0142obrzegu",
                "addr:country": "PL",
                "addr:postcode": "78-100",
                "addr:city": "Ko\u0142obrzeg",
                "addr:street": "Piastowska",
                "addr:housenumber": "9",
                "addr:teryt:simc": 950026,
                "addr:teryt:sym_ul": 16046,
                "contact:phone": "+48 943545447",
                "contact:email": "poradniakg@post.pl",
                "contact:website": "http:\/\/www.poradnia-kolobrzeg.pl",
                "ref:regon": "330037298",
                "ref:vatin": "PL6711030085",
                "operator": "Powiat Ko\u0142obrzeski",
                "operator:type": "government",
                "healthcare": "counselling",
                "counselling_type": "education",
                "fixme": "w zale\u017cno\u015bci od przedmiotu dzia\u0142alno\u015bci (np. healthcare=counselling + counselling_type=education albo healthcare=psychotherapist)"
            }
        },
        {
            "id": 57274,
            "type": "Feature",
            "geometry": {
                "type": "Point",
                "coordinates": [
                    15.57141,
                    54.18026
                ]
            },
            "properties": {
                "ref:rspo": 57274,
                "official_name": "Zesp\u00f3\u0142 Szk\u00f3\u0142 Nr 2 im. Boles\u0142awa III Krzywoustego",
                "name": "Zesp\u00f3\u0142 Szk\u00f3\u0142 Nr 2",
                "addr:country": "PL",
                "addr:postcode": "78-100",
                "addr:city": "Ko\u0142obrzeg",
                "addr:street": "Piastowska",
                "addr:housenumber": "5",
                "addr:teryt:simc": 950026,
                "addr:teryt:sym_ul": 16046,
                "contact:phone": "+48 943523936",
                "contact:email": "zs2@kolobrzeg.powiat.pl",
                "contact:website": "http:\/\/www.zs2kolobrzeg.pl",
                "ref:regon": "331337750",
                "ref:vatin": "PL6711043923",
                "operator": "Powiat Ko\u0142obrzeski",
                "operator:type": "government",
                "landuse": "education",
                "fixme": "amenity=school, amenity=college albo landuse=education w zale\u017cno\u015bci od tego, jakie plac\u00f3wki wchodz\u0105 w sk\u0142ad zespo\u0142u. Sprawd\u017a, kiedy stosowa\u0107 amenity=* a kiedy landuse=education.",
                "note": "Children RSPO: 126248;126249;126250;126290;275000"
            }
        },
        {
            "id": 126248,
            "type": "Feature",
            "geometry": {
                "type": "Point",
                "coordinates": [
                    15.57141,
                    54.180229999999995
                ]
            },
            "properties": {
                "isced:level": "3",
                "ref:rspo": 126248,
                "official_name": "Technikum Zawodowe Nr 3",
                "name": "Technikum Zawodowe Nr 3",
                "addr:country": "PL",
                "addr:postcode": "78-100",
                "addr:city": "Ko\u0142obrzeg",
                "addr:street": "Piastowska",
                "addr:housenumber": "5",
                "addr:teryt:simc": 950026,
                "addr:teryt:sym_ul": 16046,
                "contact:phone": "+48 943523936",
                "contact:email": "zs2@kolobrzeg.powiat.pl",
                "ref:regon": "331405539",
                "operator": "Powiat Ko\u0142obrzeski",
                "operator:type": "government",
                "amenity": "school",
                "note": "Parent RSPO: 57274"
            }
        },
        {
            "id": 126249,
            "type": "Feature",
            "geometry": {
                "type": "Point",
                "coordinates": [
                    15.57141,
                    54.1802
                ]
            },
            "properties": {
                "isced:level": "3",
                "ref:rspo": 126249,
                "official_name": "Bran\u017cowa Szko\u0142a I Stopnia w Ko\u0142obrzegu",
                "name": "Bran\u017cowa Szko\u0142a I Stopnia w Ko\u0142obrzegu",
                "addr:country": "PL",
                "addr:postcode": "78-100",
                "addr:city": "Ko\u0142obrzeg",
                "addr:street": "Piastowska",
                "addr:housenumber": "5",
                "addr:teryt:simc": 950026,
                "addr:teryt:sym_ul": 16046,
                "contact:phone": "+48 943523936",
                "contact:email": "zs2@kolobrzeg.powiat.pl",
                "ref:regon": "331405551",
                "operator": "Powiat Ko\u0142obrzeski",
                "operator:type": "government",
                "amenity": "school",
                "note": "Parent RSPO: 57274"
            }
        },
        {
            "id": 126250,
            "type": "Feature",
            "geometry": {
                "type": "Point",
                "coordinates": [
                    15.57141,
                    54.18017
                ]
            },
            "properties": {
                "ref:rspo": 126250,
                "official_name": "Centrum Kszta\u0142cenia Zawodowego",
                "name": "Centrum Kszta\u0142cenia Zawodowego",
                "addr:country": "PL",
                "addr:postcode": "78-100",
                "addr:city": "Ko\u0142obrzeg",
                "addr:street": "Piastowska",
                "addr:housenumber": "5",
                "addr:teryt:simc": 950026,
                "addr:teryt:sym_ul": 16046,
                "contact:phone": "+48 943523936",
                "contact:email": "zs2@kolobrzeg.powiat.pl",
                "ref:regon": "360190421",
                "operator": "Powiat Ko\u0142obrzeski",
                "operator:type": "government",
                "fixme": "w zale\u017cno\u015bci od przedmiotu dzia\u0142alno\u015bci (np. amenity=training + training=*, amenity=dancing_school, amenity=language_school, amenity=music_school) albo amenity=school, amenity=college, albo landuse=education w zale\u017cno\u015bci od tego, jakie plac\u00f3wki wchodz\u0105 w sk\u0142ad zespo\u0142u. Sprawd\u017a, kiedy stosowa\u0107 amenity=* a kiedy landuse=education.",
                "note": "Parent RSPO: 57274"
            }
        },
        {
            "id": 126290,
            "type": "Feature",
            "geometry": {
                "type": "Point",
                "coordinates": [
                    15.57141,
                    54.180139999999994
                ]
            },
            "properties": {
                "isced:level": "3",
                "ref:rspo": 126290,
                "official_name": "Bran\u017cowa Szko\u0142a Specjalna I Stopnia w Ko\u0142obrzegu",
                "name": "Bran\u017cowa Szko\u0142a Specjalna I Stopnia w Ko\u0142obrzegu",
                "addr:country": "PL",
                "addr:postcode": "78-100",
                "addr:city": "Ko\u0142obrzeg",
                "addr:street": "Piastowska",
                "addr:housenumber": "5",
                "addr:teryt:simc": 950026,
                "addr:teryt:sym_ul": 16046,
                "contact:phone": "+48 943523936",
                "contact:email": "zs2@kolobrzeg.powiat.pl",
                "ref:regon": "331406585",
                "operator": "Powiat Ko\u0142obrzeski",
                "operator:type": "government",
                "amenity": "school",
                "note": "Parent RSPO: 57274"
            }
        },
        {
            "id": 275000,
            "type": "Feature",
            "geometry": {
                "type": "Point",
                "coordinates": [
                    15.57141,
                    54.18011
                ]
            },
            "properties": {
                "isced:level": "3",
                "ref:rspo": 275000,
                "official_name": "Bran\u017cowa Szko\u0142a II Stopnia w Ko\u0142obrzegu",
                "name": "Bran\u017cowa Szko\u0142a II Stopnia w Ko\u0142obrzegu",
                "addr:country": "PL",
                "addr:postcode": "78-100",
                "addr:city": "Ko\u0142obrzeg",
                "addr:street": "Piastowska",
                "addr:housenumber": "5",
                "addr:teryt:simc": 950026,
                "addr:teryt:sym_ul": 16046,
                "contact:phone": "+48 943523936",
                "contact:email": "zs2@kolobrzeg.powiat.pl",
                "contact:website": "https:\/\/www.zs2kolobrzeg.pl\/",
                "ref:regon": "386486704",
                "operator": "Powiat Ko\u0142obrzeski",
                "operator:type": "government",
                "amenity": "school",
                "note": "Parent RSPO: 57274"
            }
        },
        {
            "id": 70935,
            "type": "Feature",
            "geometry": {
                "type": "Point",
                "coordinates": [
                    15.55924,
                    54.18193
                ]
            },
            "properties": {
                "isced:level": "3",
                "ref:rspo": 70935,
                "official_name": "Ii Prywatne Liceum Og\u00f3lnokszta\u0142c\u0105ce dla Doros\u0142ych w Ko\u0142obrzegu",
                "name": "Ii Prywatne Liceum Og\u00f3lnokszta\u0142c\u0105ce dla Doros\u0142ych w Ko\u0142obrzegu",
                "addr:country": "PL",
                "addr:postcode": "78-100",
                "addr:city": "Ko\u0142obrzeg",
                "addr:street": "Portowa",
                "addr:housenumber": "37",
                "addr:teryt:simc": 950026,
                "addr:teryt:sym_ul": 17217,
                "contact:phone": "+48 943544349",
                "contact:email": "adianabienkowska@wp.pl",
                "contact:website": "http:\/\/www.szkolanapomorzu.xk.pl",
                "ref:regon": "321295515",
                "ref:vatin": "PL6691117422",
                "operator": "Adriana Bie\u0144kowska",
                "operator:type": "private",
                "amenity": "school"
            }
        },
        {
            "id": 196358,
            "type": "Feature",
            "geometry": {
                "type": "Point",
                "coordinates": [
                    15.55924,
                    54.1819
                ]
            },
            "properties": {
                "isced:level": "1;2",
                "ref:rspo": 196358,
                "official_name": "Szko\u0142a Podstawowa Nr 1 Z Oddzia\u0142ami Integracyjnymi im. Boles\u0142awa Chrobrego",
                "name": "Szko\u0142a Podstawowa Nr 1 Z Oddzia\u0142ami Integracyjnymi",
                "addr:country": "PL",
                "addr:postcode": "78-100",
                "addr:city": "Ko\u0142obrzeg",
                "addr:street": "Portowa",
                "addr:housenumber": "37",
                "addr:teryt:simc": 950026,
                "addr:teryt:sym_ul": 17217,
                "contact:phone": "+48 943522382",
                "contact:email": "dyrektor@sp1kg.pl",
                "contact:website": "http:\/\/jedynkagim.pl",
                "ref:regon": "367991590",
                "operator": "Gmina Miasto Ko\u0142obrzeg",
                "operator:type": "government",
                "amenity": "school"
            }
        },
        {
            "id": 272501,
            "type": "Feature",
            "geometry": {
                "type": "Point",
                "coordinates": [
                    15.55924,
                    54.18187
                ]
            },
            "properties": {
                "ref:rspo": 272501,
                "official_name": "O\u015brodek Szkolenia Morskiego \"Libra\" Nieznaj I Kaniewska Sp\u00f3\u0142ka Jawna",
                "name": "O\u015brodek Szkolenia Morskiego \"Libra\" Nieznaj I Kaniewska Sp\u00f3\u0142ka Jawna",
                "addr:country": "PL",
                "addr:postcode": "78-100",
                "addr:city": "Ko\u0142obrzeg",
                "addr:street": "Portowa",
                "addr:housenumber": "37",
                "addr:teryt:simc": 950026,
                "addr:teryt:sym_ul": 17217,
                "contact:phone": "+48 943554745",
                "contact:email": "info@szkoleniamorskie.pl",
                "contact:website": "http:\/\/www.szkoleniamorskie.pl",
                "ref:regon": "384261616",
                "operator": "O\u015brodek Szkolenia Morskiego \"Libra\" Nieznaj I Kaniewska Sp\u00f3\u0142ka Jawna",
                "operator:type": "private",
                "fixme": "w zale\u017cno\u015bci od przedmiotu dzia\u0142alno\u015bci (np. amenity=training + training=*, amenity=dancing_school, amenity=language_school, amenity=music_school) albo amenity=school, amenity=college, albo landuse=education w zale\u017cno\u015bci od tego, jakie plac\u00f3wki wchodz\u0105 w sk\u0142ad zespo\u0142u. Sprawd\u017a, kiedy stosowa\u0107 amenity=* a kiedy landuse=education."
            }
        },
        {
            "id": 57394,
            "type": "Feature",
            "geometry": {
                "type": "Point",
                "coordinates": [
                    15.57745,
                    54.1825
                ]
            },
            "properties": {
                "ref:rspo": 57394,
                "official_name": "Zesp\u00f3\u0142 Szk\u00f3\u0142 Policealnych w Ko\u0142obrzegu",
                "name": "Zesp\u00f3\u0142 Szk\u00f3\u0142 Policealnych w Ko\u0142obrzegu",
                "addr:country": "PL",
                "addr:postcode": "78-100",
                "addr:city": "Ko\u0142obrzeg",
                "addr:street": "Artura Grottgera",
                "addr:housenumber": "12",
                "addr:teryt:simc": 950026,
                "addr:teryt:sym_ul": 6206,
                "contact:phone": "+48 943522120",
                "contact:email": "zsp@kolobrzeg.powiat.pl",
                "contact:website": "http:\/\/www.zsp.kolobrzeg.pl",
                "ref:regon": "320880163",
                "ref:vatin": "PL6711795126",
                "operator": "Powiat Ko\u0142obrzeski",
                "operator:type": "government",
                "landuse": "education",
                "fixme": "amenity=school, amenity=college albo landuse=education w zale\u017cno\u015bci od tego, jakie plac\u00f3wki wchodz\u0105 w sk\u0142ad zespo\u0142u. Sprawd\u017a, kiedy stosowa\u0107 amenity=* a kiedy landuse=education.",
                "note": "Children RSPO: 84177;126263;131789"
            }
        },
        {
            "id": 84177,
            "type": "Feature",
            "geometry": {
                "type": "Point",
                "coordinates": [
                    15.57745,
                    54.182469999999995
                ]
            },
            "properties": {
                "isced:level": "4",
                "ref:rspo": 84177,
                "official_name": "Policealna Szko\u0142a Nr 2",
                "name": "Policealna Szko\u0142a Nr 2",
                "addr:country": "PL",
                "addr:postcode": "78-100",
                "addr:city": "Ko\u0142obrzeg",
                "addr:street": "Artura Grottgera",
                "addr:housenumber": "12",
                "addr:teryt:simc": 950026,
                "addr:teryt:sym_ul": 6206,
                "contact:phone": "+48 943522120",
                "contact:email": "zsp@kolobrzeg.powiat.pl",
                "contact:website": "http:\/\/www.zsp.kolobrzeg.pl",
                "ref:regon": "320880134",
                "operator": "Powiat Ko\u0142obrzeski",
                "operator:type": "government",
                "amenity": "college",
                "note": "Parent RSPO: 57394"
            }
        },
        {
            "id": 126263,
            "type": "Feature",
            "geometry": {
                "type": "Point",
                "coordinates": [
                    15.57745,
                    54.18244
                ]
            },
            "properties": {
                "ref:rspo": 126263,
                "official_name": "Centrum Kszta\u0142cenia Ustawicznego \"Medyk\"",
                "name": "Centrum Kszta\u0142cenia Ustawicznego \"Medyk\"",
                "addr:country": "PL",
                "addr:postcode": "78-100",
                "addr:city": "Ko\u0142obrzeg",
                "addr:street": "Artura Grottgera",
                "addr:housenumber": "12",
                "addr:teryt:simc": 950026,
                "addr:teryt:sym_ul": 6206,
                "contact:phone": "+48 943522120",
                "contact:email": "zsp@kolobrzeg.powiat.pl",
                "contact:website": "http:\/\/www.zsp.kolobrzeg.pl",
                "ref:regon": "360204614",
                "operator": "Powiat Ko\u0142obrzeski",
                "operator:type": "government",
                "fixme": "w zale\u017cno\u015bci od przedmiotu dzia\u0142alno\u015bci (np. amenity=training + training=*, amenity=dancing_school, amenity=language_school, amenity=music_school)",
                "note": "Parent RSPO: 57394"
            }
        },
        {
            "id": 131789,
            "type": "Feature",
            "geometry": {
                "type": "Point",
                "coordinates": [
                    15.57725,
                    54.1829
                ]
            },
            "properties": {
                "ref:rspo": 131789,
                "official_name": "Bursa Mi\u0119dzyszkolna Nr 2 w Ko\u0142obrzegu",
                "name": "Bursa Mi\u0119dzyszkolna Nr 2 w Ko\u0142obrzegu",
                "addr:country": "PL",
                "addr:postcode": "78-100",
                "addr:city": "Ko\u0142obrzeg",
                "addr:street": "Artura Grottgera",
                "addr:housenumber": "11",
                "addr:teryt:simc": 950026,
                "addr:teryt:sym_ul": 6206,
                "contact:phone": "+48 943522120",
                "contact:email": "zsp@kolobrzeg.powiat.pl",
                "contact:website": "http:\/\/www.zsp.kolobrzeg.pl",
                "ref:regon": "365347471",
                "operator": "Powiat Ko\u0142obrzeski",
                "operator:type": "government",
                "building": "dormitory",
                "note": "Parent RSPO: 57394"
            }
        },
        {
            "id": 27450,
            "type": "Feature",
            "geometry": {
                "type": "Point",
                "coordinates": [
                    15.57287,
                    54.18316
                ]
            },
            "properties": {
                "ref:rspo": 27450,
                "official_name": "Zesp\u00f3\u0142 Szk\u00f3\u0142 Specjalnych Przy Szpitalu Uzdrowiskowym \"S\u0142oneczko\"",
                "name": "Zesp\u00f3\u0142 Szk\u00f3\u0142 Specjalnych Przy Szpitalu Uzdrowiskowym \"S\u0142oneczko\"",
                "addr:country": "PL",
                "addr:postcode": "78-100",
                "addr:city": "Ko\u0142obrzeg",
                "addr:street": "Ksi\u0119dza Piotra \u015aciegiennego",
                "addr:housenumber": "2",
                "addr:teryt:simc": 950026,
                "addr:teryt:sym_ul": 22290,
                "contact:phone": "+48 943544195",
                "contact:email": "slonkol9@poczta.onet.pl",
                "contact:website": "http:\/\/www.zss-sloneczko.edupage.org",
                "ref:regon": "331013727",
                "ref:vatin": "PL6711596964",
                "operator": "Wojew\u00f3dztwo Zachodniopomorskie",
                "operator:type": "government",
                "landuse": "education",
                "fixme": "amenity=school, amenity=college albo landuse=education w zale\u017cno\u015bci od tego, jakie plac\u00f3wki wchodz\u0105 w sk\u0142ad zespo\u0142u. Sprawd\u017a, kiedy stosowa\u0107 amenity=* a kiedy landuse=education.",
                "note": "Children RSPO: 54245;123767"
            }
        },
        {
            "id": 54245,
            "type": "Feature",
            "geometry": {
                "type": "Point",
                "coordinates": [
                    15.57287,
                    54.18313
                ]
            },
            "properties": {
                "isced:level": "1;2",
                "ref:rspo": 54245,
                "official_name": "Szko\u0142a Podstawowa Specjalna",
                "name": "Szko\u0142a Podstawowa Specjalna",
                "addr:country": "PL",
                "addr:postcode": "78-100",
                "addr:city": "Ko\u0142obrzeg",
                "addr:street": "Ksi\u0119dza Piotra \u015aciegiennego",
                "addr:housenumber": "2",
                "addr:teryt:simc": 950026,
                "addr:teryt:sym_ul": 22290,
                "contact:phone": "+48 943544195",
                "contact:email": "slonkol9@poczta.onet.pl",
                "ref:regon": "331038740",
                "operator": "Wojew\u00f3dztwo Zachodniopomorskie",
                "operator:type": "government",
                "amenity": "school",
                "note": "Parent RSPO: 27450"
            }
        },
        {
            "id": 123767,
            "type": "Feature",
            "geometry": {
                "type": "Point",
                "coordinates": [
                    15.57287,
                    54.1831
                ]
            },
            "properties": {
                "isced:level": "3",
                "ref:rspo": 123767,
                "official_name": "Liceum Og\u00f3lnokszta\u0142c\u0105ce Specjalne w Ko\u0142obrzegu",
                "name": "Liceum Og\u00f3lnokszta\u0142c\u0105ce Specjalne w Ko\u0142obrzegu",
                "addr:country": "PL",
                "addr:postcode": "78-100",
                "addr:city": "Ko\u0142obrzeg",
                "addr:street": "Ksi\u0119dza Piotra \u015aciegiennego",
                "addr:housenumber": "2",
                "addr:teryt:simc": 950026,
                "addr:teryt:sym_ul": 22290,
                "contact:phone": "+48 943544195",
                "contact:email": "slonko9@poczta.onet.pl",
                "ref:regon": "321553549",
                "operator": "Wojew\u00f3dztwo Zachodniopomorskie",
                "operator:type": "government",
                "amenity": "school",
                "note": "Parent RSPO: 27450"
            }
        },
        {
            "id": 10664,
            "type": "Feature",
            "geometry": {
                "type": "Point",
                "coordinates": [
                    15.58182,
                    54.18435
                ]
            },
            "properties": {
                "ref:rspo": 10664,
                "official_name": "Miejskie Przedszkole Integracyjne Nr 6 im. Janusza Korczaka",
                "name": "Miejskie Przedszkole Integracyjne Nr 6",
                "addr:country": "PL",
                "addr:postcode": "78-100",
                "addr:city": "Ko\u0142obrzeg",
                "addr:street": "Tadeusza Ko\u015bciuszki",
                "addr:housenumber": "9",
                "addr:teryt:simc": 950026,
                "addr:teryt:sym_ul": 9582,
                "contact:phone": "+48 943524288",
                "contact:email": "dyrektor@pm6kg.pl",
                "ref:regon": "320753714",
                "ref:vatin": "PL6711784909",
                "operator": "Gmina Miasto Ko\u0142obrzeg",
                "operator:type": "government",
                "amenity": "kindergarten"
            }
        },
        {
            "id": 10662,
            "type": "Feature",
            "geometry": {
                "type": "Point",
                "coordinates": [
                    15.56954,
                    54.18464
                ]
            },
            "properties": {
                "ref:rspo": 10662,
                "official_name": "Przedszkole Miejskie Nr 2 im. Wandy Chotomskiej",
                "name": "Przedszkole Miejskie Nr 2",
                "addr:country": "PL",
                "addr:postcode": "78-100",
                "addr:city": "Ko\u0142obrzeg",
                "addr:street": "Marcina Borzymowskiego",
                "addr:housenumber": "8",
                "addr:teryt:simc": 950026,
                "addr:teryt:sym_ul": 1910,
                "contact:phone": "+48 943526199",
                "contact:email": "dyrektor@pm2kg.pl",
                "contact:website": "https:\/\/pm2kg.pl",
                "ref:regon": "320753654",
                "ref:vatin": "PL6711784884",
                "operator": "Gmina Miasto Ko\u0142obrzeg",
                "operator:type": "government",
                "amenity": "kindergarten"
            }
        },
        {
            "id": 92590,
            "type": "Feature",
            "geometry": {
                "type": "Point",
                "coordinates": [
                    15.55674,
                    54.18506
                ]
            },
            "properties": {
                "ref:rspo": 92590,
                "official_name": "Prywatne Przedszkole \"Morska Kraina\"",
                "name": "Prywatne Przedszkole \"Morska Kraina\"",
                "addr:country": "PL",
                "addr:postcode": "78-100",
                "addr:city": "Ko\u0142obrzeg",
                "addr:street": "Obro\u0144c\u00f3w Westerplatte",
                "addr:housenumber": "19",
                "addr:door": "U-1",
                "addr:teryt:simc": 950026,
                "addr:teryt:sym_ul": 14655,
                "contact:phone": "+48 943522431",
                "contact:email": "przedszkole@morskakraina.info",
                "contact:website": "http:\/\/morskakraina.kolobrzeg.pl",
                "ref:regon": "321310628",
                "operator": "Dorota \u017burawska- Nowak",
                "operator:type": "private",
                "amenity": "kindergarten"
            }
        },
        {
            "id": 10675,
            "type": "Feature",
            "geometry": {
                "type": "Point",
                "coordinates": [
                    15.66374,
                    54.19282
                ]
            },
            "properties": {
                "isced:level": "1;2",
                "ref:rspo": 10675,
                "official_name": "Szko\u0142a Podstawowa Nr 9",
                "name": "Szko\u0142a Podstawowa Nr 9",
                "addr:country": "PL",
                "addr:postcode": "78-100",
                "addr:city": "Ko\u0142obrzeg",
                "addr:street": "Lwowska",
                "addr:housenumber": "7",
                "addr:teryt:simc": 950026,
                "addr:teryt:sym_ul": 11467,
                "contact:phone": "+48 943543139",
                "contact:email": "dyrektor@sp9.kolobrzeg.pl",
                "contact:website": "http:\/\/zskolobrzeg.com",
                "ref:regon": "330454731",
                "operator": "Gmina Miasto Ko\u0142obrzeg",
                "operator:type": "government",
                "amenity": "school"
            }
        }
    ]
}