{
    "type": "FeatureCollection",
    "features": [
        {
            "id": 58491,
            "type": "Feature",
            "geometry": {
                "type": "Point",
                "coordinates": [
                    15.72203,
                    54.0088
                ]
            },
            "properties": {
                "isced:level": "1;2",
                "ref:rspo": 58491,
                "official_name": "Szko\u0142a Podstawowa im. Marii Konopnickiej w Robuniu",
                "name": "Szko\u0142a Podstawowa",
                "addr:postcode": "78-120",
                "addr:place": "Robu\u0144",
                "addr:housenumber": "5",
                "addr:city:simc": 306360,
                "phone": "+48 943540935",
                "email": "szkola_robun@poczta.onet.pl",
                "website": "http:\/\/sprobun.szkolnastrona.pl",
                "ref:regon": "001175701",
                "operator": "Gmina Go\u015bcino",
                "operator:type": "government",
                "amenity": "school"
            }
        },
        {
            "id": 66181,
            "type": "Feature",
            "geometry": {
                "type": "Point",
                "coordinates": [
                    15.65528,
                    54.04808
                ]
            },
            "properties": {
                "ref:rspo": 66181,
                "official_name": "Zesp\u00f3\u0142 Szk\u00f3\u0142 im. Macieja Rataja w Go\u015bcinie",
                "name": "Zesp\u00f3\u0142 Szk\u00f3\u0142",
                "addr:postcode": "78-120",
                "addr:city": "Go\u015bcino",
                "addr:street": "IV Dywizji Wojska Polskiego",
                "addr:housenumber": "72",
                "addr:city:simc": 306236,
                "addr:street:sym_ul": 4557,
                "phone": "+48 943512133",
                "email": "zsgz@kolobrzeg.powiat.pl",
                "website": "http:\/\/www.zsgzgoscino.pl",
                "ref:regon": "000115708",
                "ref:vatin": "PL6711365331",
                "operator": "Powiat Ko\u0142obrzeski",
                "operator:type": "government",
                "landuse": "education",
                "fixme": "amenity=school, amenity=college albo landuse=education w zale\u017cno\u015bci od tego, jakie plac\u00f3wki wchodz\u0105 w sk\u0142ad zespo\u0142u. Sprawd\u017a, kiedy stosowa\u0107 amenity=* a kiedy landuse=education.",
                "note": "Children RSPO: 10679;126219;126220"
            }
        },
        {
            "id": 10679,
            "type": "Feature",
            "geometry": {
                "type": "Point",
                "coordinates": [
                    15.65528,
                    54.048049999999996
                ]
            },
            "properties": {
                "ref:rspo": 10679,
                "official_name": "Szkolne Schronisko M\u0142odzie\u017cowe",
                "name": "Szkolne Schronisko M\u0142odzie\u017cowe",
                "addr:postcode": "78-120",
                "addr:city": "Go\u015bcino",
                "addr:street": "IV Dywizji Wojska Polskiego",
                "addr:housenumber": "72",
                "addr:city:simc": 306236,
                "addr:street:sym_ul": 4557,
                "phone": "+48 943512133",
                "email": "zsmr@kolobrzeg.powiat.pl",
                "website": "http:\/\/www.zsgoscino.pl\/",
                "ref:regon": "321270260",
                "operator": "Powiat Ko\u0142obrzeski",
                "operator:type": "government",
                "tourism": "hostel",
                "note": "Parent RSPO: 66181"
            }
        },
        {
            "id": 126219,
            "type": "Feature",
            "geometry": {
                "type": "Point",
                "coordinates": [
                    15.65528,
                    54.04802
                ]
            },
            "properties": {
                "isced:level": "3",
                "ref:rspo": 126219,
                "official_name": "Liceum Og\u00f3lnokszta\u0142c\u0105ce",
                "name": "Liceum Og\u00f3lnokszta\u0142c\u0105ce",
                "addr:postcode": "78-120",
                "addr:city": "Go\u015bcino",
                "addr:street": "IV Dywizji Wojska Polskiego",
                "addr:housenumber": "72",
                "addr:city:simc": 306236,
                "addr:street:sym_ul": 4557,
                "phone": "+48 943512133",
                "email": "zsmr@kolobrzeg.powiat.pl",
                "website": "http:\/\/zsgoscino.pl",
                "ref:regon": "331409260",
                "operator": "Powiat Ko\u0142obrzeski",
                "operator:type": "government",
                "amenity": "school",
                "note": "Parent RSPO: 66181"
            }
        },
        {
            "id": 126220,
            "type": "Feature",
            "geometry": {
                "type": "Point",
                "coordinates": [
                    15.65528,
                    54.04799
                ]
            },
            "properties": {
                "isced:level": "3",
                "ref:rspo": 126220,
                "official_name": "Technikum Zawodowe",
                "name": "Technikum Zawodowe",
                "addr:postcode": "78-120",
                "addr:city": "Go\u015bcino",
                "addr:street": "IV Dywizji Wojska Polskiego",
                "addr:housenumber": "72",
                "addr:city:simc": 306236,
                "addr:street:sym_ul": 4557,
                "phone": "+48 943512133",
                "email": "zsmr@kolobrzeg.powiat.pl",
                "website": "http:\/\/zsgoscino.pl",
                "ref:regon": "331409402",
                "operator": "Powiat Ko\u0142obrzeski",
                "operator:type": "government",
                "amenity": "school",
                "note": "Parent RSPO: 66181"
            }
        },
        {
            "id": 29080,
            "type": "Feature",
            "geometry": {
                "type": "Point",
                "coordinates": [
                    15.65647,
                    54.05063
                ]
            },
            "properties": {
                "ref:rspo": 29080,
                "official_name": "Zesp\u00f3\u0142 Szk\u00f3\u0142 w Go\u015bcinie",
                "name": "Zesp\u00f3\u0142 Szk\u00f3\u0142 w Go\u015bcinie",
                "addr:postcode": "78-120",
                "addr:city": "Go\u015bcino",
                "addr:street": "Tadeusza Ko\u015bciuszki",
                "addr:housenumber": "5",
                "addr:city:simc": 306236,
                "addr:street:sym_ul": 9572,
                "phone": "+48 943512156",
                "email": "dyrektor@zs-spgoscino.pl",
                "website": "https:\/\/spgoscino.edupage.org",
                "ref:regon": "321284693",
                "operator": "Gmina Go\u015bcino",
                "operator:type": "government",
                "landuse": "education",
                "fixme": "amenity=school, amenity=college albo landuse=education w zale\u017cno\u015bci od tego, jakie plac\u00f3wki wchodz\u0105 w sk\u0142ad zespo\u0142u. Sprawd\u017a, kiedy stosowa\u0107 amenity=* a kiedy landuse=education.",
                "note": "Children RSPO: 66095;66096"
            }
        },
        {
            "id": 66095,
            "type": "Feature",
            "geometry": {
                "type": "Point",
                "coordinates": [
                    15.65647,
                    54.050599999999996
                ]
            },
            "properties": {
                "isced:level": "1;2",
                "ref:rspo": 66095,
                "official_name": "Zesp\u00f3\u0142 Szk\u00f3\u0142 w Go\u015bcinie - Szko\u0142a Podstawowa z Oddzia\u0142ami Integracyjnymi im.majora Henryka Sucharskiego",
                "name": "Zesp\u00f3\u0142 Szk\u00f3\u0142 w Go\u015bcinie - Szko\u0142a Podstawowa z Oddzia\u0142ami Integracyjnymi im.majora Henryka Sucharskiego",
                "addr:postcode": "78-120",
                "addr:city": "Go\u015bcino",
                "addr:street": "Tadeusza Ko\u015bciuszki",
                "addr:housenumber": "5",
                "addr:city:simc": 306236,
                "addr:street:sym_ul": 9572,
                "phone": "+48 943512156",
                "email": "sekretariat@zs-spgoscino.pl",
                "website": "https:\/\/spgoscino.edupage.org",
                "ref:regon": "000598931",
                "operator": "Gmina Go\u015bcino",
                "operator:type": "government",
                "amenity": "school",
                "note": "Parent RSPO: 29080"
            }
        },
        {
            "id": 66096,
            "type": "Feature",
            "geometry": {
                "type": "Point",
                "coordinates": [
                    15.65647,
                    54.05057
                ]
            },
            "properties": {
                "ref:rspo": 66096,
                "official_name": "Zesp\u00f3\u0142 Szk\u00f3\u0142 w Go\u015bcinie - Przedszkole z Oddzia\u0142ami Integracyjnymi",
                "name": "Zesp\u00f3\u0142 Szk\u00f3\u0142 w Go\u015bcinie - Przedszkole z Oddzia\u0142ami Integracyjnymi",
                "addr:postcode": "78-120",
                "addr:city": "Go\u015bcino",
                "addr:street": "Tadeusza Ko\u015bciuszki",
                "addr:housenumber": "5",
                "addr:city:simc": 306236,
                "addr:street:sym_ul": 9572,
                "phone": "+48 943512156",
                "email": "sekretariat@spgoscino.pl",
                "website": "https:\/\/spgoscino.edupage.org",
                "ref:regon": "330035508",
                "operator": "Gmina Go\u015bcino",
                "operator:type": "government",
                "amenity": "kindergarten",
                "note": "Parent RSPO: 29080"
            }
        },
        {
            "id": 132033,
            "type": "Feature",
            "geometry": {
                "type": "Point",
                "coordinates": [
                    15.65121,
                    54.05413
                ]
            },
            "properties": {
                "ref:rspo": 132033,
                "official_name": "Niepubliczne Przedszkole \"Ptasie Podw\u00f3rko\" Katarzyna Oleszkiewicz",
                "name": "Niepubliczne Przedszkole \"Ptasie Podw\u00f3rko\" Katarzyna Oleszkiewicz",
                "addr:postcode": "78-120",
                "addr:city": "Go\u015bcino",
                "addr:street": "Karli\u0144ska",
                "addr:housenumber": "2",
                "addr:city:simc": 306236,
                "addr:street:sym_ul": 8050,
                "phone": "+48 516977880",
                "email": "ptasieprzedszkole@wp.pl",
                "ref:regon": "365425805",
                "operator": "Katarzyna Oleszkiewicz",
                "operator:type": "private",
                "amenity": "kindergarten"
            }
        }
    ]
}