{
    "type": "FeatureCollection",
    "features": [
        {
            "id": 268247,
            "type": "Feature",
            "geometry": {
                "type": "Point",
                "coordinates": [
                    20.14174,
                    51.9383
                ]
            },
            "properties": {
                "ref:rspo": 268247,
                "official_name": "Przedszkole Niepubliczne \"Abrakadabra\" Magia Zabawy",
                "name": "Przedszkole Niepubliczne \"Abrakadabra\" Magia Zabawy",
                "addr:postcode": "96-100",
                "addr:city": "Skierniewice",
                "addr:street": "Zad\u0119bie",
                "addr:housenumber": "44",
                "addr:city:simc": 976942,
                "addr:street:sym_ul": 25323,
                "phone": "+48 517398754",
                "email": "kontakt@przedszkole-abrakadabra.pl",
                "website": "http:\/\/www.przedszkole-abrakadabra.pl",
                "ref:regon": "381038390",
                "operator": "Bart\u0142omiej Lesiak",
                "operator:type": "private",
                "amenity": "kindergarten"
            }
        },
        {
            "id": 70547,
            "type": "Feature",
            "geometry": {
                "type": "Point",
                "coordinates": [
                    20.14335,
                    51.94787
                ]
            },
            "properties": {
                "ref:rspo": 70547,
                "official_name": "O\u015brodek Rewalidacyjno-Wychowawczy",
                "name": "O\u015brodek Rewalidacyjno-Wychowawczy",
                "addr:postcode": "96-100",
                "addr:city": "Skierniewice",
                "addr:street": "Stefana Batorego",
                "addr:housenumber": "64H",
                "addr:city:simc": 976942,
                "addr:street:sym_ul": 891,
                "phone": "+48 501664266",
                "email": "asia.pil@op.pl",
                "ref:regon": "101495756",
                "operator": "Stowarzyszenie Rodzic\u00f3w I Opiekun\u00f3w Dzieci Niepe\u0142nosprawnych \"Wsp\u00f3lna Troska\"",
                "operator:type": "ngo",
                "amenity": "school"
            }
        },
        {
            "id": 278073,
            "type": "Feature",
            "geometry": {
                "type": "Point",
                "coordinates": [
                    20.14335,
                    51.94784
                ]
            },
            "properties": {
                "ref:rspo": 278073,
                "official_name": "Centrum Rozwoju Edukacji Wojew\u00f3dztwa \u0141\u00f3dzkiego w Skierniewicach",
                "name": "Centrum Rozwoju Edukacji Wojew\u00f3dztwa \u0141\u00f3dzkiego w Skierniewicach",
                "addr:postcode": "96-100",
                "addr:city": "Skierniewice",
                "addr:street": "Stefana Batorego",
                "addr:housenumber": "64 D",
                "addr:city:simc": 976942,
                "addr:street:sym_ul": 891,
                "phone": "+48 468332004",
                "email": "wodn@wodnskiernie.nazwa.pl",
                "website": "http:\/\/www.wodnskierniewice.eu",
                "ref:regon": "389758959",
                "ref:vatin": "PL8361877467",
                "operator": "Wojew\u00f3dztwo \u0141\u00f3dzkie",
                "operator:type": "government",
                "landuse": "education",
                "fixme": "amenity=school, amenity=college albo landuse=education w zale\u017cno\u015bci od tego, jakie plac\u00f3wki wchodz\u0105 w sk\u0142ad zespo\u0142u. Sprawd\u017a, kiedy stosowa\u0107 amenity=* a kiedy landuse=education.",
                "note": "Children RSPO: 12806;14660"
            }
        },
        {
            "id": 278595,
            "type": "Feature",
            "geometry": {
                "type": "Point",
                "coordinates": [
                    20.14335,
                    51.947810000000004
                ]
            },
            "properties": {
                "ref:rspo": 278595,
                "official_name": "Terapeutyczny Punkt Przedszkolny \"Garnizonki\"",
                "name": "Terapeutyczny Punkt Przedszkolny \"Garnizonki\"",
                "addr:postcode": "96-100",
                "addr:city": "Skierniewice",
                "addr:street": "Stefana Batorego",
                "addr:housenumber": "64 H",
                "addr:city:simc": 976942,
                "addr:street:sym_ul": 891,
                "phone": "+48 504076640",
                "email": "fundacjatroska@wspolnatroska.pl",
                "website": "http:\/\/fundacja.wspolnatroska.pl",
                "ref:regon": "389982473",
                "operator": "Fundacja \"Troska\"",
                "operator:type": "ngo",
                "amenity": "kindergarten"
            }
        },
        {
            "id": 12806,
            "type": "Feature",
            "geometry": {
                "type": "Point",
                "coordinates": [
                    20.1425899,
                    51.94874
                ]
            },
            "properties": {
                "ref:rspo": 12806,
                "official_name": "Biblioteka Pedagogiczna w Skierniewicach",
                "name": "Biblioteka Pedagogiczna w Skierniewicach",
                "addr:postcode": "96-100",
                "addr:city": "Skierniewice",
                "addr:street": "Stefana Batorego",
                "addr:housenumber": "64D",
                "addr:city:simc": 976942,
                "addr:street:sym_ul": 891,
                "phone": "+48 468334013",
                "email": "biblioteka@bpskierniewice.pl",
                "website": "http:\/\/www.bpskierniewice.pl",
                "ref:regon": "000685280",
                "ref:vatin": "PL8361576033",
                "operator": "Wojew\u00f3dztwo \u0141\u00f3dzkie",
                "operator:type": "government",
                "amenity": "library",
                "note": "Children RSPO: 18772;18795;18834Parent RSPO: 278073"
            }
        },
        {
            "id": 14660,
            "type": "Feature",
            "geometry": {
                "type": "Point",
                "coordinates": [
                    20.1425899,
                    51.94871
                ]
            },
            "properties": {
                "ref:rspo": 14660,
                "official_name": "Wojew\u00f3dzki O\u015brodek Doskonalenia Nauczycieli w Skierniewicach",
                "name": "Wojew\u00f3dzki O\u015brodek Doskonalenia Nauczycieli w Skierniewicach",
                "addr:postcode": "96-100",
                "addr:city": "Skierniewice",
                "addr:street": "Stefana Batorego",
                "addr:housenumber": "64D",
                "addr:city:simc": 976942,
                "addr:street:sym_ul": 891,
                "phone": "+48 468332004",
                "email": "wodn@wodnskiernie.nazwa.pl",
                "website": "http:\/\/www.wodnskierniewice.eu",
                "ref:regon": "001369552",
                "ref:vatin": "PL8361038241",
                "operator": "Wojew\u00f3dztwo \u0141\u00f3dzkie",
                "operator:type": "government",
                "amenity": "training",
                "note": "Parent RSPO: 278073"
            }
        },
        {
            "id": 79022,
            "type": "Feature",
            "geometry": {
                "type": "Point",
                "coordinates": [
                    20.1445,
                    51.94962
                ]
            },
            "properties": {
                "ref:rspo": 79022,
                "official_name": "Przedszkole nr 1 w Skierniewicach",
                "name": "Przedszkole nr 1 w Skierniewicach",
                "addr:postcode": "96-100",
                "addr:city": "Skierniewice",
                "addr:street": "Stefana Batorego",
                "addr:housenumber": "61\/63",
                "addr:city:simc": 976942,
                "addr:street:sym_ul": 891,
                "phone": "+48 468332677",
                "email": "p1skierniewice@wikom.pl",
                "website": "http:\/\/www.p1skierniewice.wikom.pl",
                "ref:regon": "750020750",
                "ref:vatin": "PL8361690935",
                "operator": "Skierniewice - Miasto Na Prawach Powiatu",
                "operator:type": "government",
                "amenity": "kindergarten"
            }
        },
        {
            "id": 115391,
            "type": "Feature",
            "geometry": {
                "type": "Point",
                "coordinates": [
                    20.15071,
                    51.95043
                ]
            },
            "properties": {
                "ref:rspo": 115391,
                "official_name": "Przedszkole Niepubliczne \"Bajkowa Kraina\"",
                "name": "Przedszkole Niepubliczne \"Bajkowa Kraina\"",
                "addr:postcode": "96-100",
                "addr:city": "Skierniewice",
                "addr:street": "Trzci\u0144ska",
                "addr:housenumber": "5\/7",
                "addr:city:simc": 976942,
                "addr:street:sym_ul": 23062,
                "phone": "+48 601566604",
                "email": "agasogemini@wp.pl",
                "ref:regon": "101629694",
                "operator": "Agnieszka Sowa",
                "operator:type": "private",
                "amenity": "kindergarten"
            }
        },
        {
            "id": 79067,
            "type": "Feature",
            "geometry": {
                "type": "Point",
                "coordinates": [
                    20.1535,
                    51.95074
                ]
            },
            "properties": {
                "ref:rspo": 79067,
                "official_name": "Przedszkole nr 3 z Oddzia\u0142ami Integracyjnymi w Skierniewicach",
                "name": "Przedszkole nr 3 z Oddzia\u0142ami Integracyjnymi w Skierniewicach",
                "addr:postcode": "96-100",
                "addr:city": "Skierniewice",
                "addr:street": "Miko\u0142aja Kopernika",
                "addr:housenumber": "15",
                "addr:city:simc": 976942,
                "addr:street:sym_ul": 9282,
                "phone": "+48 468334838",
                "email": "p3skierniewice@wikom.pl",
                "website": "http:\/\/www.p3skierniewice.pl",
                "ref:regon": "750020772",
                "ref:vatin": "PL8361690906",
                "operator": "Skierniewice - Miasto Na Prawach Powiatu",
                "operator:type": "government",
                "amenity": "kindergarten"
            }
        },
        {
            "id": 118727,
            "type": "Feature",
            "geometry": {
                "type": "Point",
                "coordinates": [
                    20.1460288,
                    51.9529361
                ]
            },
            "properties": {
                "isced:level": "1;2",
                "ref:rspo": 118727,
                "official_name": "Niepubliczna Szko\u0142a Podstawowa \"\u0179r\u00f3d\u0142a\" im. \u015aw. Stanis\u0142awa Kostki w Skierniewicach",
                "name": "Niepubliczna Szko\u0142a Podstawowa \"\u0179r\u00f3d\u0142a\"",
                "addr:postcode": "96-100",
                "addr:city": "Skierniewice",
                "addr:street": "Aleja Niepodleg\u0142o\u015bci",
                "addr:housenumber": "4",
                "addr:city:simc": 976942,
                "addr:street:sym_ul": 14199,
                "phone": "+48 730450260",
                "email": "sekretariat.szkoly@fundacjazrodla.pl",
                "website": "http:\/\/fundacjazrodla.pl\/",
                "ref:regon": "101647806",
                "operator": "Fundacja Na Rzecz Wspierania Rodziny \"\u0179r\u00f3d\u0142a\"",
                "operator:type": "ngo",
                "amenity": "school"
            }
        },
        {
            "id": 79080,
            "type": "Feature",
            "geometry": {
                "type": "Point",
                "coordinates": [
                    20.13605,
                    51.95321
                ]
            },
            "properties": {
                "isced:level": "1;2",
                "ref:rspo": 79080,
                "official_name": "Szko\u0142a Podstawowa nr 2 im. Tadeusza Ko\u015bciuszki w Skierniewcach",
                "name": "Szko\u0142a Podstawowa nr 2",
                "addr:postcode": "96-100",
                "addr:city": "Skierniewice",
                "addr:street": "1 Maja",
                "addr:housenumber": "15",
                "addr:city:simc": 976942,
                "addr:street:sym_ul": 11926,
                "phone": "+48 468333272",
                "email": "sp2sk@op.pl",
                "website": "http:\/\/sp2sk.pl",
                "ref:regon": "000739350",
                "ref:vatin": "PL8361097516",
                "operator": "Skierniewice - Miasto Na Prawach Powiatu",
                "operator:type": "government",
                "amenity": "school"
            }
        },
        {
            "id": 128869,
            "type": "Feature",
            "geometry": {
                "type": "Point",
                "coordinates": [
                    20.14292,
                    51.95413
                ]
            },
            "properties": {
                "isced:level": "3",
                "ref:rspo": 128869,
                "official_name": "Zaoczne Liceum Og\u00f3lnokszta\u0142c\u0105ce dla Doros\u0142ych \"Cosinus Plus\"W Skierniewicach",
                "name": "Zaoczne Liceum Og\u00f3lnokszta\u0142c\u0105ce dla Doros\u0142ych \"Cosinus Plus\"W Skierniewicach",
                "addr:postcode": "96-100",
                "addr:city": "Skierniewice",
                "addr:street": "Stefana Batorego",
                "addr:housenumber": "21",
                "addr:door": "17",
                "addr:city:simc": 976942,
                "addr:street:sym_ul": 891,
                "phone": "+48 468312281",
                "email": "skierniewice@cosinus.pl",
                "ref:regon": "362409013",
                "operator": "\"Fundacja Cosinus Edukacja Sk\"",
                "operator:type": "ngo",
                "amenity": "school"
            }
        },
        {
            "id": 128872,
            "type": "Feature",
            "geometry": {
                "type": "Point",
                "coordinates": [
                    20.14292,
                    51.9541
                ]
            },
            "properties": {
                "isced:level": "4",
                "ref:rspo": 128872,
                "official_name": "Szko\u0142a Policealna \"Cosinus Plus\" w Skierniewicach",
                "name": "Szko\u0142a Policealna \"Cosinus Plus\" w Skierniewicach",
                "addr:postcode": "96-100",
                "addr:city": "Skierniewice",
                "addr:street": "Stefana Batorego",
                "addr:housenumber": "21",
                "addr:door": "17",
                "addr:city:simc": 976942,
                "addr:street:sym_ul": 891,
                "phone": "+48 468312281",
                "email": "skierniewice@cosinus.pl",
                "website": "http:\/\/www.cosinus.pl",
                "ref:regon": "362410401",
                "operator": "\"Fundacja Cosinus Edukacja Sk\"",
                "operator:type": "ngo",
                "amenity": "college"
            }
        },
        {
            "id": 268283,
            "type": "Feature",
            "geometry": {
                "type": "Point",
                "coordinates": [
                    20.14292,
                    51.95407
                ]
            },
            "properties": {
                "ref:rspo": 268283,
                "official_name": "Niepubliczne Centrum Kszta\u0142cenia Zawodowego Cosinus w Skierniewicach",
                "name": "Niepubliczne Centrum Kszta\u0142cenia Zawodowego Cosinus w Skierniewicach",
                "addr:postcode": "96-100",
                "addr:city": "Skierniewice",
                "addr:street": "Stefana Batorego",
                "addr:housenumber": "21",
                "addr:door": "17",
                "addr:city:simc": 976942,
                "addr:street:sym_ul": 891,
                "phone": "+48 468312281",
                "email": "skierniewice@cosinus.pl",
                "ref:regon": "381059475",
                "operator": "\"Fundacja Equamp-Fiz\"",
                "operator:type": "ngo",
                "fixme": "w zale\u017cno\u015bci od przedmiotu dzia\u0142alno\u015bci (np. amenity=training + training=*, amenity=dancing_school, amenity=language_school, amenity=music_school) albo amenity=school, amenity=college, albo landuse=education w zale\u017cno\u015bci od tego, jakie plac\u00f3wki wchodz\u0105 w sk\u0142ad zespo\u0142u. Sprawd\u017a, kiedy stosowa\u0107 amenity=* a kiedy landuse=education."
            }
        },
        {
            "id": 79069,
            "type": "Feature",
            "geometry": {
                "type": "Point",
                "coordinates": [
                    20.13642,
                    51.95422
                ]
            },
            "properties": {
                "ref:rspo": 79069,
                "official_name": "Przedszkole nr 5 w Skierniewicach",
                "name": "Przedszkole nr 5 w Skierniewicach",
                "addr:postcode": "96-100",
                "addr:city": "Skierniewice",
                "addr:street": "Czysta",
                "addr:housenumber": "38",
                "addr:city:simc": 976942,
                "addr:street:sym_ul": 3513,
                "phone": "+48 468332567",
                "email": "p5skerniewice@wikom.pl",
                "website": "http:\/\/www.p5skierniewice.wikom.pl",
                "ref:regon": "750020789",
                "ref:vatin": "PL8361690881",
                "operator": "Skierniewice - Miasto Na Prawach Powiatu",
                "operator:type": "government",
                "amenity": "kindergarten"
            }
        },
        {
            "id": 70259,
            "type": "Feature",
            "geometry": {
                "type": "Point",
                "coordinates": [
                    20.14977,
                    51.95479
                ]
            },
            "properties": {
                "ref:rspo": 70259,
                "official_name": "Zesp\u00f3\u0142 Sportowych Szk\u00f3\u0142 Og\u00f3lnokszta\u0142c\u0105cych im. Jana Paw\u0142a II w Skierniewicach",
                "name": "Zesp\u00f3\u0142 Sportowych Szk\u00f3\u0142 Og\u00f3lnokszta\u0142c\u0105cych",
                "addr:postcode": "96-100",
                "addr:city": "Skierniewice",
                "addr:street": "Marii Konopnickiej",
                "addr:housenumber": "5",
                "addr:city:simc": 976942,
                "addr:street:sym_ul": 9186,
                "phone": "+48 468332067",
                "email": "zsso@zsso-skierniewice.pl",
                "website": "http:\/\/www.zsso-skierniewice.pl",
                "ref:regon": "001414229",
                "ref:vatin": "PL8361044365",
                "operator": "Skierniewice - Miasto Na Prawach Powiatu",
                "operator:type": "government",
                "landuse": "education",
                "fixme": "amenity=school, amenity=college albo landuse=education w zale\u017cno\u015bci od tego, jakie plac\u00f3wki wchodz\u0105 w sk\u0142ad zespo\u0142u. Sprawd\u017a, kiedy stosowa\u0107 amenity=* a kiedy landuse=education.",
                "note": "Children RSPO: 81549;81552"
            }
        },
        {
            "id": 81549,
            "type": "Feature",
            "geometry": {
                "type": "Point",
                "coordinates": [
                    20.14977,
                    51.95476
                ]
            },
            "properties": {
                "isced:level": "1;2",
                "ref:rspo": 81549,
                "official_name": "Szko\u0142a Podstawowa nr 5 im. Jana Paw\u0142a II w Skierniewicach",
                "name": "Szko\u0142a Podstawowa nr 5",
                "addr:postcode": "96-100",
                "addr:city": "Skierniewice",
                "addr:street": "Marii Konopnickiej",
                "addr:housenumber": "5",
                "addr:city:simc": 976942,
                "addr:street:sym_ul": 9186,
                "phone": "+48 468332067",
                "email": "zsso@zsso-skierniewice.pl",
                "website": "http:\/\/www.zssso-skierniewice.pl",
                "ref:regon": "750214039",
                "operator": "Skierniewice - Miasto Na Prawach Powiatu",
                "operator:type": "government",
                "amenity": "school",
                "note": "Parent RSPO: 70259"
            }
        },
        {
            "id": 81552,
            "type": "Feature",
            "geometry": {
                "type": "Point",
                "coordinates": [
                    20.14977,
                    51.954730000000005
                ]
            },
            "properties": {
                "isced:level": "3",
                "ref:rspo": 81552,
                "official_name": "Liceum Og\u00f3lnokszta\u0142c\u0105ce im. Jana Paw\u0142a II w Skierniewicach",
                "name": "Liceum Og\u00f3lnokszta\u0142c\u0105ce",
                "addr:postcode": "96-100",
                "addr:city": "Skierniewice",
                "addr:street": "Marii Konopnickiej",
                "addr:housenumber": "5",
                "addr:city:simc": 976942,
                "addr:street:sym_ul": 9186,
                "phone": "+48 468332067",
                "ref:regon": "750214051",
                "operator": "Skierniewice - Miasto Na Prawach Powiatu",
                "operator:type": "government",
                "amenity": "school",
                "note": "Parent RSPO: 70259"
            }
        },
        {
            "id": 130060,
            "type": "Feature",
            "geometry": {
                "type": "Point",
                "coordinates": [
                    20.15247,
                    51.95615
                ]
            },
            "properties": {
                "ref:rspo": 130060,
                "official_name": "Centrum Kszta\u0142cenia \"Pro-Edu\"",
                "name": "Centrum Kszta\u0142cenia \"Pro-Edu\"",
                "addr:postcode": "96-100",
                "addr:city": "Skierniewice",
                "addr:street": "Mszczonowska",
                "addr:housenumber": "33",
                "addr:door": "35",
                "addr:city:simc": 976942,
                "addr:street:sym_ul": 13454,
                "phone": "+48 468113407",
                "email": "ck.biuro@pro-edu.com.pl",
                "ref:regon": "363392467",
                "operator": "\"Pro-Edu Sp\u00f3\u0142ka Jawna D.karmazyn, R.krokocki\"",
                "operator:type": "consortium",
                "fixme": "w zale\u017cno\u015bci od przedmiotu dzia\u0142alno\u015bci (np. amenity=training + training=*, amenity=dancing_school, amenity=language_school, amenity=music_school)"
            }
        },
        {
            "id": 74902,
            "type": "Feature",
            "geometry": {
                "type": "Point",
                "coordinates": [
                    20.1433,
                    51.9562
                ]
            },
            "properties": {
                "ref:rspo": 74902,
                "official_name": "O\u015brodek Kszta\u0142cenia Zawodowego nr 11",
                "name": "O\u015brodek Kszta\u0142cenia Zawodowego nr 11",
                "addr:postcode": "96-100",
                "addr:city": "Skierniewice",
                "addr:street": "Rynek",
                "addr:housenumber": "13",
                "addr:city:simc": 976942,
                "addr:street:sym_ul": 19253,
                "phone": "+48 468334572",
                "ref:regon": "101496477",
                "operator": "Zak\u0142ad Doskonalenia Zawodowego W \u0141odzi",
                "operator:type": "ngo",
                "fixme": "w zale\u017cno\u015bci od przedmiotu dzia\u0142alno\u015bci (np. amenity=training + training=*, amenity=dancing_school, amenity=language_school, amenity=music_school)"
            }
        },
        {
            "id": 70253,
            "type": "Feature",
            "geometry": {
                "type": "Point",
                "coordinates": [
                    20.15191,
                    51.95742
                ]
            },
            "properties": {
                "ref:rspo": 70253,
                "official_name": "Zesp\u00f3\u0142 Szk\u00f3\u0142 Zawodowych nr 1 im. Marsza\u0142ka J\u00f3zefa Pi\u0142sudskiego w Skierniewicach",
                "name": "Zesp\u00f3\u0142 Szk\u00f3\u0142 Zawodowych nr 1",
                "addr:postcode": "96-100",
                "addr:city": "Skierniewice",
                "addr:street": "Pomologiczna",
                "addr:housenumber": "6",
                "addr:city:simc": 976942,
                "addr:street:sym_ul": 17086,
                "phone": "+48 468336866",
                "email": "budowlanka1@wp.pl",
                "website": "http:\/\/budowlanka1.edu.pl",
                "ref:regon": "000189109",
                "ref:vatin": "PL8361029868",
                "operator": "Skierniewice - Miasto Na Prawach Powiatu",
                "operator:type": "government",
                "landuse": "education",
                "fixme": "amenity=school, amenity=college albo landuse=education w zale\u017cno\u015bci od tego, jakie plac\u00f3wki wchodz\u0105 w sk\u0142ad zespo\u0142u. Sprawd\u017a, kiedy stosowa\u0107 amenity=* a kiedy landuse=education.",
                "note": "Children RSPO: 81535;81537;118945;118946;118947"
            }
        },
        {
            "id": 81535,
            "type": "Feature",
            "geometry": {
                "type": "Point",
                "coordinates": [
                    20.15191,
                    51.95739
                ]
            },
            "properties": {
                "isced:level": "3",
                "ref:rspo": 81535,
                "official_name": "Bran\u017cowa Szko\u0142a I Stopnia",
                "name": "Bran\u017cowa Szko\u0142a I Stopnia",
                "addr:postcode": "96-100",
                "addr:city": "Skierniewice",
                "addr:street": "Pomologiczna",
                "addr:housenumber": "6",
                "addr:city:simc": 976942,
                "addr:street:sym_ul": 17086,
                "phone": "+48 468336866",
                "email": "budowlanka1@wp.pl",
                "website": "http:\/\/www.budowlanka1.edu.pl",
                "ref:regon": "750215270",
                "operator": "Skierniewice - Miasto Na Prawach Powiatu",
                "operator:type": "government",
                "amenity": "school",
                "note": "Parent RSPO: 70253"
            }
        },
        {
            "id": 81537,
            "type": "Feature",
            "geometry": {
                "type": "Point",
                "coordinates": [
                    20.15191,
                    51.95736
                ]
            },
            "properties": {
                "isced:level": "3",
                "ref:rspo": 81537,
                "official_name": "Technikum",
                "name": "Technikum",
                "addr:postcode": "96-100",
                "addr:city": "Skierniewice",
                "addr:street": "Pomologiczna",
                "addr:housenumber": "6",
                "addr:city:simc": 976942,
                "addr:street:sym_ul": 17086,
                "phone": "+48 468336866",
                "email": "budowlanka1@wp.pl",
                "website": "http:\/\/www.budowlanka1.edu.pl",
                "ref:regon": "750215228",
                "operator": "Skierniewice - Miasto Na Prawach Powiatu",
                "operator:type": "government",
                "amenity": "school",
                "note": "Parent RSPO: 70253"
            }
        },
        {
            "id": 118945,
            "type": "Feature",
            "geometry": {
                "type": "Point",
                "coordinates": [
                    20.15191,
                    51.95733
                ]
            },
            "properties": {
                "isced:level": "3",
                "ref:rspo": 118945,
                "official_name": "Liceum Og\u00f3lnokszta\u0142c\u0105ce dla Doros\u0142ych",
                "name": "Liceum Og\u00f3lnokszta\u0142c\u0105ce dla Doros\u0142ych",
                "addr:postcode": "96-100",
                "addr:city": "Skierniewice",
                "addr:street": "Pomologiczna",
                "addr:housenumber": "6",
                "addr:city:simc": 976942,
                "addr:street:sym_ul": 17086,
                "phone": "+48 468336866",
                "email": "budowlanka1@wp.pl",
                "website": "http:\/\/www.budowlanka1.edu.pl",
                "ref:regon": "101652523",
                "operator": "Skierniewice - Miasto Na Prawach Powiatu",
                "operator:type": "government",
                "amenity": "school",
                "note": "Parent RSPO: 70253"
            }
        },
        {
            "id": 118946,
            "type": "Feature",
            "geometry": {
                "type": "Point",
                "coordinates": [
                    20.15191,
                    51.9573
                ]
            },
            "properties": {
                "isced:level": "4",
                "ref:rspo": 118946,
                "official_name": "Szko\u0142a Policealna",
                "name": "Szko\u0142a Policealna",
                "addr:postcode": "96-100",
                "addr:city": "Skierniewice",
                "addr:street": "Pomologiczna",
                "addr:housenumber": "6",
                "addr:city:simc": 976942,
                "addr:street:sym_ul": 17086,
                "phone": "+48 468336866",
                "email": "budowlanka1@wp.pl",
                "website": "http:\/\/www.budowlanka1.edu.pl",
                "ref:regon": "101652240",
                "operator": "Skierniewice - Miasto Na Prawach Powiatu",
                "operator:type": "government",
                "amenity": "college",
                "note": "Parent RSPO: 70253"
            }
        },
        {
            "id": 118947,
            "type": "Feature",
            "geometry": {
                "type": "Point",
                "coordinates": [
                    20.15191,
                    51.95727
                ]
            },
            "properties": {
                "ref:rspo": 118947,
                "official_name": "Centrum Kszta\u0142cenia Zawodowego",
                "name": "Centrum Kszta\u0142cenia Zawodowego",
                "addr:postcode": "96-100",
                "addr:city": "Skierniewice",
                "addr:street": "Pomologiczna",
                "addr:housenumber": "6",
                "addr:city:simc": 976942,
                "addr:street:sym_ul": 17086,
                "phone": "+48 468336866",
                "email": "budowlanka1@wp.pl",
                "website": "http:\/\/www.budowlanka1.edu.pl",
                "ref:regon": "101652500",
                "operator": "Skierniewice - Miasto Na Prawach Powiatu",
                "operator:type": "government",
                "fixme": "w zale\u017cno\u015bci od przedmiotu dzia\u0142alno\u015bci (np. amenity=training + training=*, amenity=dancing_school, amenity=language_school, amenity=music_school) albo amenity=school, amenity=college, albo landuse=education w zale\u017cno\u015bci od tego, jakie plac\u00f3wki wchodz\u0105 w sk\u0142ad zespo\u0142u. Sprawd\u017a, kiedy stosowa\u0107 amenity=* a kiedy landuse=education.",
                "note": "Parent RSPO: 70253"
            }
        },
        {
            "id": 122852,
            "type": "Feature",
            "geometry": {
                "type": "Point",
                "coordinates": [
                    20.13816,
                    51.95827
                ]
            },
            "properties": {
                "ref:rspo": 122852,
                "official_name": "Przedszkole Ma\u0142ych Odkrywc\u00f3w",
                "name": "Przedszkole Ma\u0142ych Odkrywc\u00f3w",
                "addr:postcode": "96-100",
                "addr:city": "Skierniewice",
                "addr:street": "J\u00f3zefa Pi\u0142sudskiego",
                "addr:housenumber": "7\/9",
                "addr:city:simc": 976942,
                "addr:street:sym_ul": 16264,
                "phone": "+48 605275296",
                "email": "przedszkole@maliodkrywcy.info",
                "website": "http:\/\/www.maliodkrywcy.info",
                "ref:regon": "101764251",
                "ref:vatin": "PL8361333141",
                "operator": "Bo\u017cena \u0141ukasik",
                "operator:type": "private",
                "amenity": "kindergarten"
            }
        },
        {
            "id": 127630,
            "type": "Feature",
            "geometry": {
                "type": "Point",
                "coordinates": [
                    20.14787,
                    51.95972
                ]
            },
            "properties": {
                "ref:rspo": 127630,
                "official_name": "Niepubliczna Szko\u0142a Baletowa Szko\u0142a Sztuki Ta\u0144ca Art Station w Skierniewicach",
                "name": "Niepubliczna Szko\u0142a Baletowa Szko\u0142a Sztuki Ta\u0144ca Art Station w Skierniewicach",
                "addr:postcode": "96-100",
                "addr:city": "Skierniewice",
                "addr:street": "W\u0142adys\u0142awa Stanis\u0142awa Reymonta",
                "addr:housenumber": "33",
                "addr:city:simc": 976942,
                "addr:street:sym_ul": 18652,
                "email": "art.station.sk@gmail.com",
                "ref:regon": "361779535",
                "operator": "Klub Sportowy Art Station",
                "operator:type": "private",
                "amenity": "dancing_school"
            }
        },
        {
            "id": 79077,
            "type": "Feature",
            "geometry": {
                "type": "Point",
                "coordinates": [
                    20.160352706909,
                    51.959796905518
                ]
            },
            "properties": {
                "ref:rspo": 79077,
                "official_name": "Przedszkole Niepubliczne \"Bartek\"",
                "name": "Przedszkole Niepubliczne \"Bartek\"",
                "addr:postcode": "96-100",
                "addr:city": "Skierniewice",
                "addr:street": "Poziomkowa",
                "addr:housenumber": "11",
                "addr:city:simc": 976942,
                "addr:street:sym_ul": 17390,
                "phone": "+48 604561369",
                "email": "kontakt@przedszkolebartek.pl",
                "ref:regon": "101498690",
                "ref:vatin": "PL8361030110",
                "operator": "Joanna W\u00f3jcik",
                "operator:type": "private",
                "amenity": "kindergarten"
            }
        },
        {
            "id": 70252,
            "type": "Feature",
            "geometry": {
                "type": "Point",
                "coordinates": [
                    20.14201,
                    51.9599
                ]
            },
            "properties": {
                "ref:rspo": 70252,
                "official_name": "Samorz\u0105dowa Szko\u0142a Muzyczna II St. w Skierniewicach",
                "name": "Samorz\u0105dowa Szko\u0142a Muzyczna II St. w Skierniewicach",
                "addr:postcode": "96-100",
                "addr:city": "Skierniewice",
                "addr:street": "Prymasowska",
                "addr:housenumber": "6",
                "addr:city:simc": 976942,
                "addr:street:sym_ul": 17606,
                "phone": "+48 468333828",
                "email": "szkomuz.skierniewice85@wp.pl",
                "website": "https:\/\/psmskierniewice.weebly.com\/",
                "ref:regon": "100244236",
                "ref:vatin": "PL8361788580",
                "operator": "Skierniewice - Miasto Na Prawach Powiatu",
                "operator:type": "government",
                "amenity": "music_school"
            }
        },
        {
            "id": 75606,
            "type": "Feature",
            "geometry": {
                "type": "Point",
                "coordinates": [
                    20.14201,
                    51.959869999999995
                ]
            },
            "properties": {
                "ref:rspo": 75606,
                "official_name": "Pa\u0144stwowa Szko\u0142a Muzyczna I St. im. Fryderyka Chopina w Skierniewicach",
                "name": "Pa\u0144stwowa Szko\u0142a Muzyczna I St.",
                "addr:postcode": "96-100",
                "addr:city": "Skierniewice",
                "addr:street": "Prymasowska",
                "addr:housenumber": "6",
                "addr:city:simc": 976942,
                "addr:street:sym_ul": 17606,
                "phone": "+48 468333828",
                "email": "szkomuz.skierniewice85@wp.pl",
                "website": "http:\/\/smskierniewice.edu.pl",
                "ref:regon": "001229153",
                "operator": "Ministerstwo Kultury I Dziedzictwa Narodowego",
                "operator:type": "public",
                "amenity": "music_school"
            }
        },
        {
            "id": 87550,
            "type": "Feature",
            "geometry": {
                "type": "Point",
                "coordinates": [
                    20.14464,
                    51.9602999
                ]
            },
            "properties": {
                "ref:rspo": 87550,
                "official_name": "Powiatowa Poradnia Psychologiczno-Pedagogiczna w Skierniewicach",
                "name": "Powiatowa Poradnia Psychologiczno-Pedagogiczna w Skierniewicach",
                "addr:postcode": "96-100",
                "addr:city": "Skierniewice",
                "addr:street": "Konstytucji 3 Maja",
                "addr:housenumber": "6",
                "addr:city:simc": 976942,
                "addr:street:sym_ul": 9213,
                "phone": "+48 468345966",
                "email": "pppp@powiat-skierniewice.pl",
                "ref:regon": "750722020",
                "operator": "Powiat Skierniewicki",
                "operator:type": "government",
                "healthcare": "counselling",
                "counselling_type": "education",
                "fixme": "w zale\u017cno\u015bci od przedmiotu dzia\u0142alno\u015bci (np. healthcare=counselling + counselling_type=education albo healthcare=psychotherapist)"
            }
        },
        {
            "id": 70254,
            "type": "Feature",
            "geometry": {
                "type": "Point",
                "coordinates": [
                    20.15149,
                    51.96186
                ]
            },
            "properties": {
                "ref:rspo": 70254,
                "official_name": "Zesp\u00f3\u0142 Szk\u00f3\u0142 Zawodowych nr 2 im. Chor. J. Paczkowskiego w Skierniewicach",
                "name": "Zesp\u00f3\u0142 Szk\u00f3\u0142 Zawodowych nr 2",
                "addr:postcode": "96-100",
                "addr:city": "Skierniewice",
                "addr:street": "Pomologiczna",
                "addr:housenumber": "15",
                "addr:city:simc": 976942,
                "addr:street:sym_ul": 17086,
                "phone": "+48 468333267",
                "email": "sekretariat@zsz2skc.pl",
                "website": "http:\/\/zsz2skc.pl",
                "ref:regon": "000189776",
                "ref:vatin": "PL8361029874",
                "operator": "Skierniewice - Miasto Na Prawach Powiatu",
                "operator:type": "government",
                "landuse": "education",
                "fixme": "amenity=school, amenity=college albo landuse=education w zale\u017cno\u015bci od tego, jakie plac\u00f3wki wchodz\u0105 w sk\u0142ad zespo\u0142u. Sprawd\u017a, kiedy stosowa\u0107 amenity=* a kiedy landuse=education.",
                "note": "Children RSPO: 81538;81539;81540"
            }
        },
        {
            "id": 81538,
            "type": "Feature",
            "geometry": {
                "type": "Point",
                "coordinates": [
                    20.15149,
                    51.96183
                ]
            },
            "properties": {
                "isced:level": "3",
                "ref:rspo": 81538,
                "official_name": "Bran\u017cowa Szko\u0142a I Stopnia",
                "name": "Bran\u017cowa Szko\u0142a I Stopnia",
                "addr:postcode": "96-100",
                "addr:city": "Skierniewice",
                "addr:street": "Pomologiczna",
                "addr:housenumber": "15",
                "addr:city:simc": 976942,
                "addr:street:sym_ul": 17086,
                "phone": "+48 468333267",
                "email": "sekretariat@zsz2skc.pl",
                "ref:regon": "750721368",
                "operator": "Skierniewice - Miasto Na Prawach Powiatu",
                "operator:type": "government",
                "amenity": "school",
                "note": "Parent RSPO: 70254"
            }
        },
        {
            "id": 81539,
            "type": "Feature",
            "geometry": {
                "type": "Point",
                "coordinates": [
                    20.15149,
                    51.961800000000004
                ]
            },
            "properties": {
                "isced:level": "3",
                "ref:rspo": 81539,
                "official_name": "Technikum",
                "name": "Technikum",
                "addr:postcode": "96-100",
                "addr:city": "Skierniewice",
                "addr:street": "Pomologiczna",
                "addr:housenumber": "15",
                "addr:city:simc": 976942,
                "addr:street:sym_ul": 17086,
                "phone": "+48 468333267",
                "email": "sekretariat@zsz2skc.pl",
                "website": "http:\/\/zsz2skc.pl",
                "ref:regon": "750721374",
                "operator": "Skierniewice - Miasto Na Prawach Powiatu",
                "operator:type": "government",
                "amenity": "school",
                "note": "Parent RSPO: 70254"
            }
        },
        {
            "id": 81540,
            "type": "Feature",
            "geometry": {
                "type": "Point",
                "coordinates": [
                    20.15149,
                    51.96177
                ]
            },
            "properties": {
                "isced:level": "3",
                "ref:rspo": 81540,
                "official_name": "Liceum Og\u00f3lnokszta\u0142c\u0105ce",
                "name": "Liceum Og\u00f3lnokszta\u0142c\u0105ce",
                "addr:postcode": "96-100",
                "addr:city": "Skierniewice",
                "addr:street": "Pomologiczna",
                "addr:housenumber": "15",
                "addr:city:simc": 976942,
                "addr:street:sym_ul": 17086,
                "phone": "+48 468333267",
                "ref:regon": "100238112",
                "operator": "Skierniewice - Miasto Na Prawach Powiatu",
                "operator:type": "government",
                "amenity": "school",
                "note": "Parent RSPO: 70254"
            }
        },
        {
            "id": 79072,
            "type": "Feature",
            "geometry": {
                "type": "Point",
                "coordinates": [
                    20.14845,
                    51.96203
                ]
            },
            "properties": {
                "ref:rspo": 79072,
                "official_name": "Przedszkole nr 8 \"Zielony Zak\u0105tek\" w Skierniewicach",
                "name": "Przedszkole nr 8 \"Zielony Zak\u0105tek\" w Skierniewicach",
                "addr:postcode": "96-100",
                "addr:city": "Skierniewice",
                "addr:street": "Doktora Stanis\u0142awa Rybickiego",
                "addr:housenumber": "2",
                "addr:city:simc": 976942,
                "addr:street:sym_ul": 19167,
                "phone": "+48 468332128",
                "email": "p8skierniewice@wikom.pl",
                "website": "https:\/\/p8skierniewice.wikom.pl\/",
                "ref:regon": "750020810",
                "ref:vatin": "PL8361690898",
                "operator": "Skierniewice - Miasto Na Prawach Powiatu",
                "operator:type": "government",
                "amenity": "kindergarten"
            }
        },
        {
            "id": 70251,
            "type": "Feature",
            "geometry": {
                "type": "Point",
                "coordinates": [
                    20.15095,
                    51.96204
                ]
            },
            "properties": {
                "ref:rspo": 70251,
                "official_name": "Poradnia Psychologiczno-Pedagogiczna w Skierniewicach",
                "name": "Poradnia Psychologiczno-Pedagogiczna w Skierniewicach",
                "addr:postcode": "96-100",
                "addr:city": "Skierniewice",
                "addr:street": "Doktora Stanis\u0142awa Rybickiego",
                "addr:housenumber": "6",
                "addr:city:simc": 976942,
                "addr:street:sym_ul": 19167,
                "phone": "+48 468332828",
                "email": "sekretariat@poradnia-skierniewice.pl",
                "website": "http:\/\/www.poradnia-skierniewice.pl",
                "ref:regon": "000739455",
                "ref:vatin": "PL8361579818",
                "operator": "Skierniewice - Miasto Na Prawach Powiatu",
                "operator:type": "government",
                "healthcare": "counselling",
                "counselling_type": "education",
                "fixme": "w zale\u017cno\u015bci od przedmiotu dzia\u0142alno\u015bci (np. healthcare=counselling + counselling_type=education albo healthcare=psychotherapist)"
            }
        },
        {
            "id": 133259,
            "type": "Feature",
            "geometry": {
                "type": "Point",
                "coordinates": [
                    20.15374,
                    51.96204
                ]
            },
            "properties": {
                "ref:rspo": 133259,
                "official_name": "Niepubliczny O\u015brodek Dokszta\u0142cania I Doskonalenia Zawodowego \"Sts Security Tactical Service\" w Skierniewicach",
                "name": "Niepubliczny O\u015brodek Dokszta\u0142cania I Doskonalenia Zawodowego \"Sts Security Tactical Service\" w Skierniewicach",
                "addr:postcode": "96-100",
                "addr:city": "Skierniewice",
                "addr:street": "Doktora Stanis\u0142awa Rybickiego",
                "addr:housenumber": "8",
                "addr:city:simc": 976942,
                "addr:street:sym_ul": 19167,
                "phone": "+48 515231518",
                "ref:regon": "366887689",
                "operator": "Marek Kowalski",
                "operator:type": "private",
                "fixme": "w zale\u017cno\u015bci od przedmiotu dzia\u0142alno\u015bci (np. amenity=training + training=*, amenity=dancing_school, amenity=language_school, amenity=music_school) albo amenity=school, amenity=college, albo landuse=education w zale\u017cno\u015bci od tego, jakie plac\u00f3wki wchodz\u0105 w sk\u0142ad zespo\u0142u. Sprawd\u017a, kiedy stosowa\u0107 amenity=* a kiedy landuse=education."
            }
        },
        {
            "id": 277198,
            "type": "Feature",
            "geometry": {
                "type": "Point",
                "coordinates": [
                    20.15374,
                    51.96201
                ]
            },
            "properties": {
                "isced:level": "4",
                "ref:rspo": 277198,
                "official_name": "Publiczna Szko\u0142a Policealna Cosinus w Skierniewicach",
                "name": "Publiczna Szko\u0142a Policealna Cosinus w Skierniewicach",
                "addr:postcode": "96-100",
                "addr:city": "Skierniewice",
                "addr:street": "Doktora Stanis\u0142awa Rybickiego",
                "addr:housenumber": "8",
                "addr:city:simc": 976942,
                "addr:street:sym_ul": 19167,
                "phone": "+48 468312281",
                "email": "skierniewice@cosinus.pl",
                "ref:regon": "388313362",
                "operator": "\"Fundacja Cosinus Edukacja Sk\"",
                "operator:type": "ngo",
                "amenity": "college"
            }
        },
        {
            "id": 70250,
            "type": "Feature",
            "geometry": {
                "type": "Point",
                "coordinates": [
                    20.14728,
                    51.96337
                ]
            },
            "properties": {
                "isced:level": "3",
                "ref:rspo": 70250,
                "official_name": "Liceum Og\u00f3lnokszta\u0142c\u0105ce im. Boles\u0142awa Prusa w Skierniewicach",
                "name": "Liceum Og\u00f3lnokszta\u0142c\u0105ce",
                "addr:postcode": "96-100",
                "addr:city": "Skierniewice",
                "addr:street": "Henryka Sienkiewicza",
                "addr:housenumber": "10",
                "addr:city:simc": 976942,
                "addr:street:sym_ul": 19834,
                "phone": "+48 468333189",
                "email": "lo.prus.skierniewice@interia.eu",
                "website": "http:\/\/www.loprus.pl",
                "ref:regon": "000228909",
                "ref:vatin": "PL8361831577",
                "operator": "Skierniewice - Miasto Na Prawach Powiatu",
                "operator:type": "government",
                "amenity": "school"
            }
        },
        {
            "id": 79079,
            "type": "Feature",
            "geometry": {
                "type": "Point",
                "coordinates": [
                    20.14749,
                    51.96378
                ]
            },
            "properties": {
                "isced:level": "1;2",
                "ref:rspo": 79079,
                "official_name": "Szko\u0142a Podstawowa nr 1 im. Henryka Sienkiewicza w Skierniewicach",
                "name": "Szko\u0142a Podstawowa nr 1",
                "addr:postcode": "96-100",
                "addr:city": "Skierniewice",
                "addr:street": "Henryka Sienkiewicza",
                "addr:housenumber": "14",
                "addr:city:simc": 976942,
                "addr:street:sym_ul": 19834,
                "phone": "+48 468333433",
                "email": "sp1skierniewice@sp1skierniewice.pl",
                "website": "https:\/\/sp1skierniewice.edupage.org",
                "ref:regon": "000739343",
                "ref:vatin": "PL8361298812",
                "operator": "Skierniewice - Miasto Na Prawach Powiatu",
                "operator:type": "government",
                "amenity": "school"
            }
        },
        {
            "id": 74460,
            "type": "Feature",
            "geometry": {
                "type": "Point",
                "coordinates": [
                    20.15007,
                    51.96623
                ]
            },
            "properties": {
                "isced:level": "3",
                "ref:rspo": 74460,
                "official_name": "Liceum Og\u00f3lnokszta\u0142c\u0105ce dla Doros\u0142ych \"\u017bak\"",
                "name": "Liceum Og\u00f3lnokszta\u0142c\u0105ce dla Doros\u0142ych \"\u017bak\"",
                "addr:postcode": "96-100",
                "addr:city": "Skierniewice",
                "addr:street": "Dworcowa",
                "addr:housenumber": "3\/E",
                "addr:city:simc": 976942,
                "addr:street:sym_ul": 4434,
                "phone": "+48 468323738",
                "email": "skierniewice@zak.edu.pl",
                "website": "http:\/\/zak.edu.pl",
                "ref:regon": "101496187",
                "operator": "Centrum Nauki I Biznesu \"\u017bak\" Sp\u00f3\u0142ka Z Ograniczon\u0105 Odpowiedzialno\u015bci\u0105",
                "operator:type": "private",
                "amenity": "school"
            }
        },
        {
            "id": 74462,
            "type": "Feature",
            "geometry": {
                "type": "Point",
                "coordinates": [
                    20.15007,
                    51.9662
                ]
            },
            "properties": {
                "isced:level": "4",
                "ref:rspo": 74462,
                "official_name": "Szko\u0142a Policealna Kosmetyki \"\u017bak\"",
                "name": "Szko\u0142a Policealna Kosmetyki \"\u017bak\"",
                "addr:postcode": "96-100",
                "addr:city": "Skierniewice",
                "addr:street": "Dworcowa",
                "addr:housenumber": "3\/E",
                "addr:city:simc": 976942,
                "addr:street:sym_ul": 4434,
                "phone": "+48 468323738",
                "email": "skierniewice@zak.edu.pl",
                "website": "http:\/\/zak.edu.pl",
                "ref:regon": "101496218",
                "operator": "Centrum Nauki I Biznesu \"\u017bak\" Sp\u00f3\u0142ka Z Ograniczon\u0105 Odpowiedzialno\u015bci\u0105",
                "operator:type": "private",
                "amenity": "college"
            }
        },
        {
            "id": 74463,
            "type": "Feature",
            "geometry": {
                "type": "Point",
                "coordinates": [
                    20.15007,
                    51.966170000000005
                ]
            },
            "properties": {
                "isced:level": "4",
                "ref:rspo": 74463,
                "official_name": "Szko\u0142a Policealna Administracji \"\u017bak\"",
                "name": "Szko\u0142a Policealna Administracji \"\u017bak\"",
                "addr:postcode": "96-100",
                "addr:city": "Skierniewice",
                "addr:street": "Dworcowa",
                "addr:housenumber": "3\/E",
                "addr:city:simc": 976942,
                "addr:street:sym_ul": 4434,
                "phone": "+48 468323738",
                "email": "skierniewice@zak.edu.pl",
                "website": "http:\/\/zak.edu.pl",
                "ref:regon": "101496224",
                "operator": "Centrum Nauki I Biznesu \"\u017bak\" Sp\u00f3\u0142ka Z Ograniczon\u0105 Odpowiedzialno\u015bci\u0105",
                "operator:type": "private",
                "amenity": "college"
            }
        },
        {
            "id": 74489,
            "type": "Feature",
            "geometry": {
                "type": "Point",
                "coordinates": [
                    20.15007,
                    51.96614
                ]
            },
            "properties": {
                "ref:rspo": 74489,
                "official_name": "O\u015brodek Szkoleniowy Centrum Nauki I Biznesu \"\u017bak\" w Skierniewicach",
                "name": "O\u015brodek Szkoleniowy Centrum Nauki I Biznesu \"\u017bak\" w Skierniewicach",
                "addr:postcode": "96-100",
                "addr:city": "Skierniewice",
                "addr:street": "Dworcowa",
                "addr:housenumber": "3\/E",
                "addr:city:simc": 976942,
                "addr:street:sym_ul": 4434,
                "phone": "+48 468323738",
                "email": "skierniewice@zak.edu.pl",
                "website": "http:\/\/zak.edu.pl",
                "ref:regon": "101496247",
                "operator": "Centrum Nauki I Biznesu \"\u017bak\" Sp\u00f3\u0142ka Z Ograniczon\u0105 Odpowiedzialno\u015bci\u0105",
                "operator:type": "private",
                "fixme": "w zale\u017cno\u015bci od przedmiotu dzia\u0142alno\u015bci (np. amenity=training + training=*, amenity=dancing_school, amenity=language_school, amenity=music_school)"
            }
        },
        {
            "id": 74491,
            "type": "Feature",
            "geometry": {
                "type": "Point",
                "coordinates": [
                    20.15007,
                    51.96611
                ]
            },
            "properties": {
                "isced:level": "4",
                "ref:rspo": 74491,
                "official_name": "Szko\u0142a Policealna Centrum Nauki I Biznesu \"\u017bak\" w Skierniewicach",
                "name": "Szko\u0142a Policealna Centrum Nauki I Biznesu \"\u017bak\" w Skierniewicach",
                "addr:postcode": "96-100",
                "addr:city": "Skierniewice",
                "addr:street": "Dworcowa",
                "addr:housenumber": "3\/E",
                "addr:city:simc": 976942,
                "addr:street:sym_ul": 4434,
                "phone": "+48 468323738",
                "email": "skierniewice@zak.edu.pl",
                "website": "http:\/\/zak.edu.pl",
                "ref:regon": "101496253",
                "operator": "Centrum Nauki I Biznesu \"\u017bak\" Sp\u00f3\u0142ka Z Ograniczon\u0105 Odpowiedzialno\u015bci\u0105",
                "operator:type": "private",
                "amenity": "college"
            }
        },
        {
            "id": 128873,
            "type": "Feature",
            "geometry": {
                "type": "Point",
                "coordinates": [
                    20.15007,
                    51.966080000000005
                ]
            },
            "properties": {
                "isced:level": "4",
                "ref:rspo": 128873,
                "official_name": "Szko\u0142a Policealna Opieki Medycznej \"\u017bak\" w Skierniewicach",
                "name": "Szko\u0142a Policealna Opieki Medycznej \"\u017bak\" w Skierniewicach",
                "addr:postcode": "96-100",
                "addr:city": "Skierniewice",
                "addr:street": "Dworcowa",
                "addr:housenumber": "3\/E",
                "addr:city:simc": 976942,
                "addr:street:sym_ul": 4434,
                "phone": "+48 468323738",
                "email": "skierniewice@zak.edu.pl",
                "website": "http:\/\/zak.edu.pl",
                "ref:regon": "362410074",
                "operator": "Centrum Nauki I Biznesu \"\u017bak\" Sp\u00f3\u0142ka Z Ograniczon\u0105 Odpowiedzialno\u015bci\u0105",
                "operator:type": "private",
                "amenity": "college"
            }
        },
        {
            "id": 79070,
            "type": "Feature",
            "geometry": {
                "type": "Point",
                "coordinates": [
                    20.15756,
                    51.96645
                ]
            },
            "properties": {
                "ref:rspo": 79070,
                "official_name": "Przedszkole nr 10 w Skierniewicach",
                "name": "Przedszkole nr 10 w Skierniewicach",
                "addr:postcode": "96-100",
                "addr:city": "Skierniewice",
                "addr:street": "Szkolna",
                "addr:housenumber": "1",
                "addr:city:simc": 976942,
                "addr:street:sym_ul": 21970,
                "phone": "+48 468333867",
                "email": "p10skierniewice@wikom.pl",
                "website": "http:\/\/p10skierniewice.wikom.pl",
                "ref:regon": "750020832",
                "ref:vatin": "PL8361690958",
                "operator": "Skierniewice - Miasto Na Prawach Powiatu",
                "operator:type": "government",
                "amenity": "kindergarten"
            }
        },
        {
            "id": 79083,
            "type": "Feature",
            "geometry": {
                "type": "Point",
                "coordinates": [
                    20.152320861816,
                    51.967010498047
                ]
            },
            "properties": {
                "isced:level": "1;2",
                "ref:rspo": 79083,
                "official_name": "Szko\u0142a Podstawowa nr 7 im. Kornela Makuszy\u0144skiego w Skierniewicach",
                "name": "Szko\u0142a Podstawowa nr 7",
                "addr:postcode": "96-100",
                "addr:city": "Skierniewice",
                "addr:street": "\u015awi\u0119tego Maksymiliana Kolbe",
                "addr:housenumber": "30",
                "addr:city:simc": 976942,
                "addr:street:sym_ul": 12021,
                "phone": "+48 468331027",
                "email": "sp7@sp7skierniewice.pl",
                "website": "http:\/\/www.sp7skierniewice.pl",
                "ref:regon": "001130242",
                "ref:vatin": "PL8361020324",
                "operator": "Skierniewice - Miasto Na Prawach Powiatu",
                "operator:type": "government",
                "amenity": "school"
            }
        },
        {
            "id": 79081,
            "type": "Feature",
            "geometry": {
                "type": "Point",
                "coordinates": [
                    20.14917,
                    51.9704
                ]
            },
            "properties": {
                "isced:level": "1;2",
                "ref:rspo": 79081,
                "official_name": "Szko\u0142a Podstawowa nr 4 im. Marii Sk\u0142odowskiej-Curie w Skierniewicach",
                "name": "Szko\u0142a Podstawowa nr 4",
                "addr:postcode": "96-100",
                "addr:city": "Skierniewice",
                "addr:street": "Jasna",
                "addr:housenumber": "30",
                "addr:city:simc": 976942,
                "addr:street:sym_ul": 7335,
                "phone": "+48 468332738",
                "email": "sekretariat@sp4-skierniewice.pl",
                "website": "http:\/\/sp4-skierniewice.pl\/",
                "ref:regon": "000739372",
                "ref:vatin": "PL8361200658",
                "operator": "Skierniewice - Miasto Na Prawach Powiatu",
                "operator:type": "government",
                "amenity": "school"
            }
        },
        {
            "id": 79074,
            "type": "Feature",
            "geometry": {
                "type": "Point",
                "coordinates": [
                    20.15609,
                    51.9721199
                ]
            },
            "properties": {
                "ref:rspo": 79074,
                "official_name": "Moja Ekolandia",
                "name": "Moja Ekolandia",
                "addr:postcode": "96-100",
                "addr:city": "Skierniewice",
                "addr:street": "Marii Sk\u0142odowskiej-Curie",
                "addr:housenumber": "27",
                "addr:city:simc": 976942,
                "addr:street:sym_ul": 20068,
                "phone": "+48 666121918",
                "email": "przedszkole@mojaekolandia.pl",
                "ref:regon": "101499352",
                "ref:vatin": "PL8361098898",
                "operator": "Ewelina Wis\u0142awska",
                "operator:type": "private",
                "amenity": "kindergarten"
            }
        },
        {
            "id": 123402,
            "type": "Feature",
            "geometry": {
                "type": "Point",
                "coordinates": [
                    20.13702,
                    51.97229
                ]
            },
            "properties": {
                "ref:rspo": 123402,
                "official_name": "Niepubliczna Poradnia Psychologiczno-Pedagogiczna",
                "name": "Niepubliczna Poradnia Psychologiczno-Pedagogiczna",
                "addr:postcode": "96-100",
                "addr:city": "Skierniewice",
                "addr:street": "\u0141owicka",
                "addr:housenumber": "68A",
                "addr:city:simc": 976942,
                "addr:street:sym_ul": 11694,
                "phone": "+48 468335040",
                "email": "poczta@poradniapsychologiczna.info",
                "website": "http:\/\/www.poradniapsychologiczna.info",
                "ref:regon": "101803011",
                "ref:vatin": "PL8361333141",
                "operator": "Bo\u017cena \u0141ukasik",
                "operator:type": "private",
                "healthcare": "counselling",
                "counselling_type": "education",
                "fixme": "w zale\u017cno\u015bci od przedmiotu dzia\u0142alno\u015bci (np. healthcare=counselling + counselling_type=education albo healthcare=psychotherapist)"
            }
        },
        {
            "id": 70262,
            "type": "Feature",
            "geometry": {
                "type": "Point",
                "coordinates": [
                    20.14316,
                    51.97345
                ]
            },
            "properties": {
                "ref:rspo": 70262,
                "official_name": "Zesp\u00f3\u0142 Szk\u00f3\u0142 im. Ks. Stanis\u0142awa Konarskiego w Skierniewicach",
                "name": "Zesp\u00f3\u0142 Szk\u00f3\u0142",
                "addr:postcode": "96-100",
                "addr:city": "Skierniewice",
                "addr:street": "Ksi\u0119dza Kardyna\u0142a Prymasa Stefana Wyszy\u0144skiego",
                "addr:housenumber": "12",
                "addr:city:simc": 976942,
                "addr:street:sym_ul": 25111,
                "phone": "+48 468327478",
                "email": "loklasyk@poczta.onet.pl",
                "website": "http:\/\/www.klasykskierniewice.pl",
                "ref:regon": "101494739",
                "ref:vatin": "PL8361707104",
                "operator": "Diecezja \u0141owicka",
                "operator:type": "religious",
                "landuse": "education",
                "fixme": "amenity=school, amenity=college albo landuse=education w zale\u017cno\u015bci od tego, jakie plac\u00f3wki wchodz\u0105 w sk\u0142ad zespo\u0142u. Sprawd\u017a, kiedy stosowa\u0107 amenity=* a kiedy landuse=education.",
                "note": "Children RSPO: 85915;85917"
            }
        },
        {
            "id": 85915,
            "type": "Feature",
            "geometry": {
                "type": "Point",
                "coordinates": [
                    20.14316,
                    51.97342
                ]
            },
            "properties": {
                "isced:level": "1;2",
                "ref:rspo": 85915,
                "official_name": "Szko\u0142a Podstawowa im. Ks. Stanis\u0142awa Konarskiego w Skierniewicach",
                "name": "Szko\u0142a Podstawowa",
                "addr:postcode": "96-100",
                "addr:city": "Skierniewice",
                "addr:street": "Ksi\u0119dza Kardyna\u0142a Prymasa Stefana Wyszy\u0144skiego",
                "addr:housenumber": "12",
                "addr:city:simc": 976942,
                "addr:street:sym_ul": 25111,
                "phone": "+48 468327478",
                "email": "loklasyk@poczta.onet.pl",
                "website": "http:\/\/www.klasykskierniewice.pl",
                "ref:regon": "101502150",
                "operator": "Diecezja \u0141owicka",
                "operator:type": "religious",
                "amenity": "school",
                "note": "Parent RSPO: 70262"
            }
        },
        {
            "id": 85917,
            "type": "Feature",
            "geometry": {
                "type": "Point",
                "coordinates": [
                    20.14316,
                    51.97339
                ]
            },
            "properties": {
                "isced:level": "3",
                "ref:rspo": 85917,
                "official_name": "Klasyczne Liceum Og\u00f3lnokszta\u0142c\u0105ce im. Ks. Stanis\u0142awa Konarskiego w Skierniewicach",
                "name": "Klasyczne Liceum Og\u00f3lnokszta\u0142c\u0105ce",
                "addr:postcode": "96-100",
                "addr:city": "Skierniewice",
                "addr:street": "Ksi\u0119dza Kardyna\u0142a Prymasa Stefana Wyszy\u0144skiego",
                "addr:housenumber": "12",
                "addr:city:simc": 976942,
                "addr:street:sym_ul": 25111,
                "phone": "+48 468327478",
                "email": "loklasyk@poczta.onet.pl",
                "website": "http:\/\/www.klasykskierniewice.pl",
                "ref:regon": "101502189",
                "operator": "Diecezja \u0141owicka",
                "operator:type": "religious",
                "amenity": "school",
                "note": "Parent RSPO: 70262"
            }
        },
        {
            "id": 85838,
            "type": "Feature",
            "geometry": {
                "type": "Point",
                "coordinates": [
                    20.15153,
                    51.97376
                ]
            },
            "properties": {
                "ref:rspo": 85838,
                "official_name": "Centrum Edukacji \"Milenium\"",
                "name": "Centrum Edukacji \"Milenium\"",
                "addr:postcode": "96-100",
                "addr:city": "Skierniewice",
                "addr:street": "Melchiora Wa\u0144kowicza",
                "addr:housenumber": "9",
                "addr:city:simc": 976942,
                "addr:street:sym_ul": 23620,
                "phone": "+48 468332885",
                "email": "milgim@poczta.onet.pl",
                "website": "http:\/\/www.cemilenium.pl",
                "ref:regon": "101501764",
                "ref:vatin": "PL8361013927",
                "operator": "Barbara Lipi\u0144ska",
                "operator:type": "private",
                "landuse": "education",
                "fixme": "amenity=school, amenity=college albo landuse=education w zale\u017cno\u015bci od tego, jakie plac\u00f3wki wchodz\u0105 w sk\u0142ad zespo\u0142u. Sprawd\u017a, kiedy stosowa\u0107 amenity=* a kiedy landuse=education.",
                "note": "Children RSPO: 89080;89082;127603"
            }
        },
        {
            "id": 89080,
            "type": "Feature",
            "geometry": {
                "type": "Point",
                "coordinates": [
                    20.15153,
                    51.973729999999996
                ]
            },
            "properties": {
                "ref:rspo": 89080,
                "official_name": "Przedszkole Spo\u0142eczne",
                "name": "Przedszkole Spo\u0142eczne",
                "addr:postcode": "96-100",
                "addr:city": "Skierniewice",
                "addr:street": "Melchiora Wa\u0144kowicza",
                "addr:housenumber": "9",
                "addr:city:simc": 976942,
                "addr:street:sym_ul": 23620,
                "phone": "+48 468332885",
                "email": "milgim@poczta.onet.pl",
                "website": "http:\/\/www.cemilenium.pl",
                "ref:regon": "101503770",
                "operator": "Barbara Lipi\u0144ska",
                "operator:type": "private",
                "amenity": "kindergarten",
                "note": "Parent RSPO: 85838"
            }
        },
        {
            "id": 89082,
            "type": "Feature",
            "geometry": {
                "type": "Point",
                "coordinates": [
                    20.15153,
                    51.9737
                ]
            },
            "properties": {
                "isced:level": "3",
                "ref:rspo": 89082,
                "official_name": "Spo\u0142eczne Liceum Og\u00f3lnokszta\u0142c\u0105ce \"Milenium\"",
                "name": "Spo\u0142eczne Liceum Og\u00f3lnokszta\u0142c\u0105ce \"Milenium\"",
                "addr:postcode": "96-100",
                "addr:city": "Skierniewice",
                "addr:street": "Melchiora Wa\u0144kowicza",
                "addr:housenumber": "9",
                "addr:city:simc": 976942,
                "addr:street:sym_ul": 23620,
                "phone": "+48 468332885",
                "email": "milgim@poczta.onet.pl",
                "website": "http:\/\/www.cemilenium.pl",
                "ref:regon": "101503817",
                "operator": "Barbara Lipi\u0144ska",
                "operator:type": "private",
                "amenity": "school",
                "note": "Parent RSPO: 85838"
            }
        },
        {
            "id": 127603,
            "type": "Feature",
            "geometry": {
                "type": "Point",
                "coordinates": [
                    20.15153,
                    51.97367
                ]
            },
            "properties": {
                "isced:level": "1;2",
                "ref:rspo": 127603,
                "official_name": "Niepubliczna Szko\u0142a Podstawowa Novum w Skierniewicach",
                "name": "Niepubliczna Szko\u0142a Podstawowa Novum w Skierniewicach",
                "addr:postcode": "96-100",
                "addr:city": "Skierniewice",
                "addr:street": "Melchiora Wa\u0144kowicza",
                "addr:housenumber": "9",
                "addr:city:simc": 976942,
                "addr:street:sym_ul": 23620,
                "phone": "+48 468332885",
                "email": "milgim@poczta.onet.pl",
                "website": "http:\/\/www.cemilenium.pl",
                "ref:regon": "361747080",
                "operator": "Barbara Lipi\u0144ska",
                "operator:type": "private",
                "amenity": "school",
                "note": "Parent RSPO: 85838"
            }
        },
        {
            "id": 79075,
            "type": "Feature",
            "geometry": {
                "type": "Point",
                "coordinates": [
                    20.16039,
                    51.97504
                ]
            },
            "properties": {
                "ref:rspo": 79075,
                "official_name": "Akademia Ma\u0142ego Przedszkolaka \"Plastu\u015b\"",
                "name": "Akademia Ma\u0142ego Przedszkolaka \"Plastu\u015b\"",
                "addr:postcode": "96-100",
                "addr:city": "Skierniewice",
                "addr:street": "Marii Sk\u0142odowskiej-Curie",
                "addr:housenumber": "68",
                "addr:city:simc": 976942,
                "addr:street:sym_ul": 20068,
                "phone": "+48 600806787",
                "email": "kontakt@plastus.nazwa.pl",
                "ref:regon": "101499429",
                "ref:vatin": "PL8361339913",
                "operator": "Zuzanna Krokowska",
                "operator:type": "private",
                "amenity": "kindergarten"
            }
        },
        {
            "id": 79060,
            "type": "Feature",
            "geometry": {
                "type": "Point",
                "coordinates": [
                    20.1507101,
                    51.9751703
                ]
            },
            "properties": {
                "ref:rspo": 79060,
                "official_name": "Przedszkole nr 2 w Skierniewicach",
                "name": "Przedszkole nr 2 w Skierniewicach",
                "addr:postcode": "96-100",
                "addr:city": "Skierniewice",
                "addr:street": "Szarych Szereg\u00f3w",
                "addr:housenumber": "6",
                "addr:city:simc": 976942,
                "addr:street:sym_ul": 21787,
                "phone": "+48 468335655",
                "email": "p2sloneczko@wikom.pl",
                "website": "http:\/\/www.p2skierniewice.wikom.pl",
                "ref:regon": "750020766",
                "ref:vatin": "PL8361690929",
                "operator": "Skierniewice - Miasto Na Prawach Powiatu",
                "operator:type": "government",
                "amenity": "kindergarten"
            }
        },
        {
            "id": 79071,
            "type": "Feature",
            "geometry": {
                "type": "Point",
                "coordinates": [
                    20.1507101,
                    51.9751403
                ]
            },
            "properties": {
                "ref:rspo": 79071,
                "official_name": "Przedszkole nr 13 w Skierniewicach",
                "name": "Przedszkole nr 13 w Skierniewicach",
                "addr:postcode": "96-100",
                "addr:city": "Skierniewice",
                "addr:street": "Szarych Szereg\u00f3w",
                "addr:housenumber": "6",
                "addr:city:simc": 976942,
                "addr:street:sym_ul": 21787,
                "phone": "+48 468335683",
                "email": "p13skierniewice@wikom.pl",
                "website": "http:\/\/www.p13skierniewice.wikom.pl",
                "ref:regon": "750020861",
                "ref:vatin": "PL8361690941",
                "operator": "Skierniewice - Miasto Na Prawach Powiatu",
                "operator:type": "government",
                "amenity": "kindergarten"
            }
        },
        {
            "id": 81553,
            "type": "Feature",
            "geometry": {
                "type": "Point",
                "coordinates": [
                    20.1434399,
                    51.97533
                ]
            },
            "properties": {
                "isced:level": "1;2",
                "ref:rspo": 81553,
                "official_name": "Szko\u0142a Podstawowa nr 9 im. Marii Grzegorzewskiej w Skierniewicach",
                "name": "Szko\u0142a Podstawowa nr 9",
                "addr:postcode": "96-100",
                "addr:city": "Skierniewice",
                "addr:street": "Kazimierza Przerwy-Tetmajera",
                "addr:housenumber": "7",
                "addr:city:simc": 976942,
                "addr:street:sym_ul": 17755,
                "phone": "+48 468338191",
                "email": "sekretariat@zsi9.pl",
                "website": "http:\/\/www.zsi9.pl",
                "ref:regon": "750454571",
                "operator": "Skierniewice - Miasto Na Prawach Powiatu",
                "operator:type": "government",
                "amenity": "school"
            }
        },
        {
            "id": 267039,
            "type": "Feature",
            "geometry": {
                "type": "Point",
                "coordinates": [
                    20.1434399,
                    51.9753
                ]
            },
            "properties": {
                "isced:level": "3",
                "ref:rspo": 267039,
                "official_name": "Integracyjne Liceum Og\u00f3lnokszta\u0142c\u0105ce w Skierniewicach",
                "name": "Integracyjne Liceum Og\u00f3lnokszta\u0142c\u0105ce w Skierniewicach",
                "addr:postcode": "96-100",
                "addr:city": "Skierniewice",
                "addr:street": "Kazimierza Przerwy-Tetmajera",
                "addr:housenumber": "7",
                "addr:city:simc": 976942,
                "addr:street:sym_ul": 17755,
                "phone": "+48 468338191",
                "ref:regon": "369821886",
                "operator": "Skierniewice - Miasto Na Prawach Powiatu",
                "operator:type": "government",
                "amenity": "school"
            }
        },
        {
            "id": 79068,
            "type": "Feature",
            "geometry": {
                "type": "Point",
                "coordinates": [
                    20.1534,
                    51.97548
                ]
            },
            "properties": {
                "ref:rspo": 79068,
                "official_name": "Przedszkole nr 4 w Skierniewicach",
                "name": "Przedszkole nr 4 w Skierniewicach",
                "addr:postcode": "96-100",
                "addr:city": "Skierniewice",
                "addr:street": "Jaros\u0142awa Iwaszkiewicza",
                "addr:housenumber": "1",
                "addr:city:simc": 976942,
                "addr:street:sym_ul": 6944,
                "phone": "+48 468335430",
                "email": "p4skierniewice@wikom.pl",
                "website": "http:\/\/www.p4skierniewice.wikom.pl",
                "ref:regon": "750731540",
                "ref:vatin": "PL8361690912",
                "operator": "Skierniewice - Miasto Na Prawach Powiatu",
                "operator:type": "government",
                "amenity": "kindergarten"
            }
        },
        {
            "id": 70256,
            "type": "Feature",
            "geometry": {
                "type": "Point",
                "coordinates": [
                    20.2139125,
                    51.9814208
                ]
            },
            "properties": {
                "ref:rspo": 70256,
                "official_name": "Zesp\u00f3\u0142 Szk\u00f3\u0142 nr 4 w Skierniewicach",
                "name": "Zesp\u00f3\u0142 Szk\u00f3\u0142 nr 4 w Skierniewicach",
                "addr:postcode": "96-100",
                "addr:city": "Skierniewice",
                "addr:street": "Podk\u0142adowa",
                "addr:housenumber": "2",
                "addr:city:simc": 976942,
                "addr:street:sym_ul": 16769,
                "phone": "+48 468331020",
                "email": "zsz4@o2.pl",
                "website": "http:\/\/zs4skierniewice.pl",
                "ref:regon": "000029854",
                "ref:vatin": "PL8361090595",
                "operator": "Skierniewice - Miasto Na Prawach Powiatu",
                "operator:type": "government",
                "landuse": "education",
                "fixme": "amenity=school, amenity=college albo landuse=education w zale\u017cno\u015bci od tego, jakie plac\u00f3wki wchodz\u0105 w sk\u0142ad zespo\u0142u. Sprawd\u017a, kiedy stosowa\u0107 amenity=* a kiedy landuse=education.",
                "note": "Children RSPO: 81547;81548"
            }
        },
        {
            "id": 81547,
            "type": "Feature",
            "geometry": {
                "type": "Point",
                "coordinates": [
                    20.2139125,
                    51.9813908
                ]
            },
            "properties": {
                "isced:level": "3",
                "ref:rspo": 81547,
                "official_name": "Liceum Og\u00f3lnokszta\u0142c\u0105ce im. Pp\u0142k. Romualda Suli\u0144skiego",
                "name": "Liceum Og\u00f3lnokszta\u0142c\u0105ce",
                "addr:postcode": "96-100",
                "addr:city": "Skierniewice",
                "addr:street": "Podk\u0142adowa",
                "addr:housenumber": "2",
                "addr:city:simc": 976942,
                "addr:street:sym_ul": 16769,
                "phone": "+48 468331020",
                "email": "zsz4@o2.pl",
                "website": "http:\/\/zs4skierniewice.pl",
                "ref:regon": "750719265",
                "operator": "Skierniewice - Miasto Na Prawach Powiatu",
                "operator:type": "government",
                "amenity": "school",
                "note": "Parent RSPO: 70256"
            }
        },
        {
            "id": 81548,
            "type": "Feature",
            "geometry": {
                "type": "Point",
                "coordinates": [
                    20.2139125,
                    51.981360800000004
                ]
            },
            "properties": {
                "isced:level": "3",
                "ref:rspo": 81548,
                "official_name": "Technikum im. Pp\u0142k. Romualda Suli\u0144skiego",
                "name": "Technikum",
                "addr:postcode": "96-100",
                "addr:city": "Skierniewice",
                "addr:street": "Podk\u0142adowa",
                "addr:housenumber": "2",
                "addr:city:simc": 976942,
                "addr:street:sym_ul": 16769,
                "phone": "+48 468331020",
                "email": "zsz4@o2.pl",
                "website": "http:\/\/zs4skierniewice.pl",
                "ref:regon": "100738168",
                "operator": "Skierniewice - Miasto Na Prawach Powiatu",
                "operator:type": "government",
                "amenity": "school",
                "note": "Parent RSPO: 70256"
            }
        },
        {
            "id": 123401,
            "type": "Feature",
            "geometry": {
                "type": "Point",
                "coordinates": [
                    20.1624,
                    51.98175
                ]
            },
            "properties": {
                "ref:rspo": 123401,
                "official_name": "Przedszkole Niepubliczne Diecezji \u0141owickiej im. \u015awi\u0119tej Rodziny w Skierniewicach",
                "name": "Przedszkole Niepubliczne Diecezji \u0141owickiej",
                "addr:postcode": "96-100",
                "addr:city": "Skierniewice",
                "addr:street": "Armii Krajowej",
                "addr:housenumber": "4",
                "addr:city:simc": 976942,
                "addr:street:sym_ul": 432,
                "phone": "+48 885555375",
                "email": "swrodzina@diecezja.lowicz.pl",
                "website": "http:\/\/swrodzina.diecezja.lowicz.pl",
                "ref:regon": "101803028",
                "operator": "Diecezja \u0141owicka",
                "operator:type": "religious",
                "amenity": "kindergarten"
            }
        },
        {
            "id": 70255,
            "type": "Feature",
            "geometry": {
                "type": "Point",
                "coordinates": [
                    20.1560487,
                    51.9846452
                ]
            },
            "properties": {
                "ref:rspo": 70255,
                "official_name": "Zesp\u00f3\u0142 Szk\u00f3\u0142 nr 3 w Skierniewicach",
                "name": "Zesp\u00f3\u0142 Szk\u00f3\u0142 nr 3 w Skierniewicach",
                "addr:postcode": "96-100",
                "addr:city": "Skierniewice",
                "addr:street": "Dzia\u0142kowa",
                "addr:housenumber": "10",
                "addr:city:simc": 976942,
                "addr:street:sym_ul": 4572,
                "phone": "+48 468333519",
                "email": "ekon-sk@wp.pl",
                "website": "http:\/\/ekonomik.edu.pl",
                "ref:regon": "000189530",
                "ref:vatin": "PL8361023742",
                "operator": "Skierniewice - Miasto Na Prawach Powiatu",
                "operator:type": "government",
                "landuse": "education",
                "fixme": "amenity=school, amenity=college albo landuse=education w zale\u017cno\u015bci od tego, jakie plac\u00f3wki wchodz\u0105 w sk\u0142ad zespo\u0142u. Sprawd\u017a, kiedy stosowa\u0107 amenity=* a kiedy landuse=education.",
                "note": "Children RSPO: 81543;81544"
            }
        },
        {
            "id": 81543,
            "type": "Feature",
            "geometry": {
                "type": "Point",
                "coordinates": [
                    20.1560487,
                    51.9846152
                ]
            },
            "properties": {
                "isced:level": "3",
                "ref:rspo": 81543,
                "official_name": "Technikum im. Wis\u0142awy Szymborskiej",
                "name": "Technikum",
                "addr:postcode": "96-100",
                "addr:city": "Skierniewice",
                "addr:street": "Dzia\u0142kowa",
                "addr:housenumber": "10",
                "addr:city:simc": 976942,
                "addr:street:sym_ul": 4572,
                "phone": "+48 468333519",
                "email": "ekon-sk@wp.pl",
                "website": "http:\/\/www.ekonomik.edu.pl",
                "ref:regon": "750214915",
                "operator": "Skierniewice - Miasto Na Prawach Powiatu",
                "operator:type": "government",
                "amenity": "school",
                "note": "Parent RSPO: 70255"
            }
        },
        {
            "id": 81544,
            "type": "Feature",
            "geometry": {
                "type": "Point",
                "coordinates": [
                    20.1560487,
                    51.984585200000005
                ]
            },
            "properties": {
                "isced:level": "3",
                "ref:rspo": 81544,
                "official_name": "Liceum Og\u00f3lnokszta\u0142c\u0105ce im. Wis\u0142awy Szymborskiej",
                "name": "Liceum Og\u00f3lnokszta\u0142c\u0105ce",
                "addr:postcode": "96-100",
                "addr:city": "Skierniewice",
                "addr:street": "Dzia\u0142kowa",
                "addr:housenumber": "10",
                "addr:city:simc": 976942,
                "addr:street:sym_ul": 4572,
                "phone": "+48 468333519",
                "email": "ekon-sk@wp.pl",
                "website": "http:\/\/www.ekonomik.edu.pl",
                "ref:regon": "750214884",
                "operator": "Skierniewice - Miasto Na Prawach Powiatu",
                "operator:type": "government",
                "amenity": "school",
                "note": "Parent RSPO: 70255"
            }
        },
        {
            "id": 70261,
            "type": "Feature",
            "geometry": {
                "type": "Point",
                "coordinates": [
                    20.15866,
                    51.98634
                ]
            },
            "properties": {
                "ref:rspo": 70261,
                "official_name": "Specjalny O\u015brodek Szkolno-Wychowawczy im. Janusza Korczaka w Skierniewicach",
                "name": "Specjalny O\u015brodek Szkolno-Wychowawczy",
                "addr:postcode": "96-100",
                "addr:city": "Skierniewice",
                "addr:street": "Nowobiela\u0144ska",
                "addr:housenumber": "100",
                "addr:city:simc": 976942,
                "addr:street:sym_ul": 14408,
                "phone": "+48 468339600",
                "email": "kontakt@soswskierniewice.pl",
                "ref:regon": "000197617",
                "ref:vatin": "PL8361210651",
                "operator": "Skierniewice - Miasto Na Prawach Powiatu",
                "operator:type": "government",
                "amenity": "school",
                "note": "Children RSPO: 81559;81561;81562"
            }
        },
        {
            "id": 131605,
            "type": "Feature",
            "geometry": {
                "type": "Point",
                "coordinates": [
                    20.15866,
                    51.986309999999996
                ]
            },
            "properties": {
                "ref:rspo": 131605,
                "official_name": "Bursa Koedukacyjna w Skierniewicach",
                "name": "Bursa Koedukacyjna w Skierniewicach",
                "addr:postcode": "96-100",
                "addr:city": "Skierniewice",
                "addr:street": "Nowobiela\u0144ska",
                "addr:housenumber": "100",
                "addr:city:simc": 976942,
                "addr:street:sym_ul": 14408,
                "phone": "+48 468318831",
                "email": "bursa@bursaskierniewice.pl",
                "website": "http:\/\/bursaskierniewice.pl",
                "ref:regon": "365313874",
                "ref:vatin": "PL8361862129",
                "operator": "Skierniewice - Miasto Na Prawach Powiatu",
                "operator:type": "government",
                "building": "dormitory"
            }
        },
        {
            "id": 81559,
            "type": "Feature",
            "geometry": {
                "type": "Point",
                "coordinates": [
                    20.15866,
                    51.98628
                ]
            },
            "properties": {
                "isced:level": "1;2",
                "ref:rspo": 81559,
                "official_name": "Szko\u0142a Podstawowa Specjalna",
                "name": "Szko\u0142a Podstawowa Specjalna",
                "addr:postcode": "96-100",
                "addr:city": "Skierniewice",
                "addr:street": "Nowobiela\u0144ska",
                "addr:housenumber": "100",
                "addr:city:simc": 976942,
                "addr:street:sym_ul": 14408,
                "phone": "+48 468339600",
                "email": "kontakt@soswskierniewice.pl",
                "ref:regon": "001030977",
                "operator": "Skierniewice - Miasto Na Prawach Powiatu",
                "operator:type": "government",
                "amenity": "school",
                "note": "Parent RSPO: 70261"
            }
        },
        {
            "id": 81561,
            "type": "Feature",
            "geometry": {
                "type": "Point",
                "coordinates": [
                    20.15866,
                    51.98625
                ]
            },
            "properties": {
                "isced:level": "3",
                "ref:rspo": 81561,
                "official_name": "Bran\u017cowa Szko\u0142a I Stopnia",
                "name": "Bran\u017cowa Szko\u0142a I Stopnia",
                "addr:postcode": "96-100",
                "addr:city": "Skierniewice",
                "addr:street": "Nowobiela\u0144ska",
                "addr:housenumber": "100",
                "addr:city:simc": 976942,
                "addr:street:sym_ul": 14408,
                "phone": "+48 468339600",
                "email": "kontakt@soswskierniewice.pl",
                "ref:regon": "000908716",
                "operator": "Skierniewice - Miasto Na Prawach Powiatu",
                "operator:type": "government",
                "amenity": "school",
                "note": "Parent RSPO: 70261"
            }
        },
        {
            "id": 81562,
            "type": "Feature",
            "geometry": {
                "type": "Point",
                "coordinates": [
                    20.15866,
                    51.986219999999996
                ]
            },
            "properties": {
                "ref:rspo": 81562,
                "official_name": "Szko\u0142a Specjalna Przysposabiaj\u0105ca do Pracy",
                "name": "Szko\u0142a Specjalna Przysposabiaj\u0105ca do Pracy",
                "addr:postcode": "96-100",
                "addr:city": "Skierniewice",
                "addr:street": "Nowobiela\u0144ska",
                "addr:housenumber": "100",
                "addr:city:simc": 976942,
                "addr:street:sym_ul": 14408,
                "phone": "+48 468339600",
                "email": "kontakt@soswskierniewice.pl",
                "ref:regon": "100225664",
                "operator": "Skierniewice - Miasto Na Prawach Powiatu",
                "operator:type": "government",
                "amenity": "school",
                "note": "Parent RSPO: 70261"
            }
        }
    ]
}