{"type":"FeatureCollection","features":[{"id":31944,"type":"Feature","geometry":{"type":"Point","coordinates":[17.69266,50.12728]},"properties":{"ref:rspo":31944,"official_name":"Zesp\u00f3\u0142 Szk\u00f3\u0142 w Pietrowicach","name":"Zesp\u00f3\u0142 Szk\u00f3\u0142 w Pietrowicach","addr:country":"PL","addr:postcode":"48-100","addr:place":"Pietrowice","addr:housenumber":"9","addr:teryt:sym_ul":494456,"contact:phone":"+48 774857612","contact:email":"bogdan.kulik@wp.pl","contact:website":"http:\/\/zspietrowice.pl\/","ref:regon":"160004301","ref:vatin":"PL7481516837","operator":"Gmina G\u0142ubczyce","operator:type":"government","landuse":"education","fixme":"amenity=school, amenity=college albo landuse=education w zale\u017cno\u015bci od tego, jakie plac\u00f3wki wchodz\u0105 w sk\u0142ad zespo\u0142u. Sprawd\u017a, kiedy stosowa\u0107 amenity=* a kiedy landuse=education.","note":"Children RSPO: 91586;107585;264136"}},{"id":91586,"type":"Feature","geometry":{"type":"Point","coordinates":[17.69266,50.12725]},"properties":{"ref:rspo":91586,"official_name":"Szkolne Schronisko M\u0142odzie\u017cowe w Pietrowicach","name":"Szkolne Schronisko M\u0142odzie\u017cowe w Pietrowicach","addr:country":"PL","addr:postcode":"48-100","addr:place":"Pietrowice","addr:housenumber":"9","addr:teryt:sym_ul":494456,"contact:phone":"+48 774857612","contact:email":"sekretariatpietrowice@interia.pl","ref:regon":"160004324","operator":"Gmina G\u0142ubczyce","operator:type":"government","tourism":"hostel","note":"Children RSPO: 122711Parent RSPO: 31944"}},{"id":107585,"type":"Feature","geometry":{"type":"Point","coordinates":[17.69266,50.12722]},"properties":{"isced:level":"1;2","ref:rspo":107585,"official_name":"Zesp\u00f3L Szk\u00f3\u0142 w Pietrowicach Szko\u0142a Podstawowa Im Jana Paw\u0142a II w Pietrowicach","name":"Zesp\u00f3L Szk\u00f3\u0142 w Pietrowicach Szko\u0142a Podstawowa Im Jana Paw\u0142a II w Pietrowicach","addr:country":"PL","addr:postcode":"48-100","addr:place":"Pietrowice","addr:housenumber":"9","addr:teryt:sym_ul":494456,"contact:phone":"+48 774857612","contact:email":"sekretariatpietrowice@interia.pl","contact:website":"http:\/\/www.zspietrowice.pl","ref:regon":"000698437","operator":"Gmina G\u0142ubczyce","operator:type":"government","amenity":"school","note":"Parent RSPO: 31944"}},{"id":264136,"type":"Feature","geometry":{"type":"Point","coordinates":[17.69266,50.12719]},"properties":{"ref:rspo":264136,"official_name":"Zesp\u00f3\u0142 Szk\u00f3\u0142 w Pietrowicach Przedszkole w Pietrowicach","name":"Zesp\u00f3\u0142 Szk\u00f3\u0142 w Pietrowicach Przedszkole w Pietrowicach","addr:country":"PL","addr:postcode":"48-100","addr:place":"Pietrowice","addr:housenumber":"9","addr:teryt:sym_ul":494456,"contact:phone":"+48 774857612","contact:email":"sekretariatpietrowice@interia.pl","ref:regon":"368270622","operator":"Gmina G\u0142ubczyce","operator:type":"government","amenity":"kindergarten","note":"Parent RSPO: 31944"}},{"id":91774,"type":"Feature","geometry":{"type":"Point","coordinates":[17.83143,50.1626]},"properties":{"isced:level":"1;2","ref:rspo":91774,"official_name":"Szko\u0142a Podstawowa Z Oddzia\u0142ami Przedszkolnymi Im Marii Konopnickiej w Bogdanowicach","name":"Szko\u0142a Podstawowa Z Oddzia\u0142ami Przedszkolnymi Im Marii Konopnickiej w Bogdanowicach","addr:country":"PL","addr:postcode":"48-100","addr:city":"Bogdanowice","addr:street":"ul. Konopnickiej","addr:housenumber":"15","addr:teryt:simc":9182,"addr:teryt:sym_ul":494114,"contact:phone":"+48 774853826","contact:email":"spbogdanowice@wp.pl","contact:website":"http:\/\/www.spbogdanowice.pl","ref:regon":"161497100","operator":"Spo\u0142eczno-O\u015bwiatowe Stowarzyszenie Na Rzecz Rozwoju Wsi","operator:type":"ngo","amenity":"school"}},{"id":111738,"type":"Feature","geometry":{"type":"Point","coordinates":[17.83961,50.1946299]},"properties":{"isced:level":"1;2","ref:rspo":111738,"official_name":"Podstawowa Szko\u0142a Specjalna w G\u0142ubczycach","name":"Podstawowa Szko\u0142a Specjalna w G\u0142ubczycach","addr:country":"PL","addr:postcode":"48-100","addr:city":"G\u0142ubczyce","addr:street":"ul. Raciborska","addr:housenumber":"19","addr:teryt:simc":18263,"addr:teryt:sym_ul":965329,"contact:phone":"+48 774852720","contact:email":"sosw_glubczyce@poczta.onet.pl","contact:website":"http:\/\/sosw.powiatglubczycki.pl","ref:regon":"532233815","ref:vatin":"PL7481017175","operator":"Powiat G\u0142ubczycki","operator:type":"government","amenity":"school","note":"Parent RSPO: 60123"}},{"id":111750,"type":"Feature","geometry":{"type":"Point","coordinates":[17.83961,50.1945999]},"properties":{"ref:rspo":111750,"official_name":"Szko\u0142a Specjalna Przysposabiaj\u0105ca Do Pracy","name":"Szko\u0142a Specjalna Przysposabiaj\u0105ca Do Pracy","addr:country":"PL","addr:postcode":"48-100","addr:city":"G\u0142ubczyce","addr:street":"ul. Raciborska","addr:housenumber":"19","addr:teryt:simc":18263,"addr:teryt:sym_ul":965329,"contact:phone":"+48 774852720","contact:email":"sosw_glubczyce@poczta.onet.pl","contact:website":"http:\/\/sosw.powiatglubczycki.pl","ref:regon":"160146283","ref:vatin":"PL7481017175","operator":"Powiat G\u0142ubczycki","operator:type":"government","amenity":"school","note":"Parent RSPO: 60123"}},{"id":60123,"type":"Feature","geometry":{"type":"Point","coordinates":[17.83843,50.19474]},"properties":{"ref:rspo":60123,"official_name":"Specjalny O\u015brodek Szkolno-Wychowawczy w G\u0142ubczycach","name":"Specjalny O\u015brodek Szkolno-Wychowawczy w G\u0142ubczycach","addr:country":"PL","addr:postcode":"48-100","addr:city":"G\u0142ubczyce","addr:street":"ul. Raciborska","addr:housenumber":"17","addr:teryt:simc":18263,"addr:teryt:sym_ul":965329,"contact:phone":"+48 774852720","contact:email":"sosw_glubczyce@poczta.onet.pl","contact:website":"http:\/\/sosw.powiatglubczycki.pl","ref:regon":"000180054","ref:vatin":"PL7481017175","operator":"Powiat G\u0142ubczycki","operator:type":"government","amenity":"school","note":"Children RSPO: 111738;111750"}},{"id":112167,"type":"Feature","geometry":{"type":"Point","coordinates":[17.83843,50.19471]},"properties":{"ref:rspo":112167,"official_name":"Poradnia Psychologiczno-Pedagogiczna","name":"Poradnia Psychologiczno-Pedagogiczna","addr:country":"PL","addr:postcode":"48-100","addr:city":"G\u0142ubczyce","addr:street":"ul. Raciborska","addr:housenumber":"17","addr:teryt:simc":18263,"addr:teryt:sym_ul":965329,"contact:phone":"+48 774852995","contact:email":"pppglubczyce@op.pl","contact:website":"http:\/\/www.pppglubczyce.pl","ref:regon":"000743304","ref:vatin":"PL7481524328","operator":"Powiat G\u0142ubczycki","operator:type":"government","healthcare":"councelling","counselling_type":"education","fixme":"w zale\u017cno\u015bci od przedmiotu dzia\u0142alno\u015bci (np. healthcare=councelling + counselling_type=education albo healthcare=psychotherapist)"}},{"id":31928,"type":"Feature","geometry":{"type":"Point","coordinates":[17.82434,50.1962]},"properties":{"isced:level":"1;2","ref:rspo":31928,"official_name":"Szko\u0142a Podstawowa Nr 1 Z Oddzia\u0142ami Integracyjnymi Im Tadeusza Ko\u015bciuszki","name":"Szko\u0142a Podstawowa Nr 1 Z Oddzia\u0142ami Integracyjnymi Im Tadeusza Ko\u015bciuszki","addr:country":"PL","addr:postcode":"48-100","addr:city":"G\u0142ubczyce","addr:street":"ul. Dworcowa","addr:housenumber":"2","addr:teryt:simc":4434,"addr:teryt:sym_ul":965329,"contact:phone":"+48 774852744","contact:email":"sekretariat@sp1glubczyce.eu","ref:regon":"000698420","ref:vatin":"PL7481494225","operator":"Gmina G\u0142ubczyce","operator:type":"government","amenity":"school"}},{"id":11015,"type":"Feature","geometry":{"type":"Point","coordinates":[17.82422,50.19697]},"properties":{"ref:rspo":11015,"official_name":"Zesp\u00f3\u0142 Szk\u00f3\u0142 Mechanicznych w G\u0142ubczycach","name":"Zesp\u00f3\u0142 Szk\u00f3\u0142 Mechanicznych w G\u0142ubczycach","addr:country":"PL","addr:postcode":"48-100","addr:city":"G\u0142ubczyce","addr:street":"al. \u015al\u0105ska","addr:housenumber":"1","addr:teryt:simc":22307,"addr:teryt:sym_ul":965329,"contact:phone":"+48 774853087","contact:email":"sekretariat@zsmglubczyce.pl","contact:website":"http:\/\/www.powiatglubczycki.pl","ref:regon":"000743089","ref:vatin":"PL7481009721","operator":"Powiat G\u0142ubczycki","operator:type":"government","landuse":"education","fixme":"amenity=school, amenity=college albo landuse=education w zale\u017cno\u015bci od tego, jakie plac\u00f3wki wchodz\u0105 w sk\u0142ad zespo\u0142u. Sprawd\u017a, kiedy stosowa\u0107 amenity=* a kiedy landuse=education.","note":"Children RSPO: 11515;11536;11582;273343"}},{"id":11515,"type":"Feature","geometry":{"type":"Point","coordinates":[17.82422,50.19694]},"properties":{"isced:level":"3","ref:rspo":11515,"official_name":"Technikum Nr 2","name":"Technikum Nr 2","addr:country":"PL","addr:postcode":"48-100","addr:city":"G\u0142ubczyce","addr:street":"al. \u015al\u0105ska","addr:housenumber":"1","addr:teryt:simc":22307,"addr:teryt:sym_ul":965329,"contact:phone":"+48 774853087","contact:email":"sekretariat@zsmpowiatglubczycki.pl","contact:website":"http:\/\/zsm.powiatglubczycki.pl","ref:regon":"532335600","ref:vatin":"PL7481009721","operator":"Powiat G\u0142ubczycki","operator:type":"government","amenity":"school","note":"Parent RSPO: 11015"}},{"id":11536,"type":"Feature","geometry":{"type":"Point","coordinates":[17.82422,50.19691]},"properties":{"isced:level":"3","ref:rspo":11536,"official_name":"Iii Liceum Og\u00f3lnokszta\u0142c\u0105ce","name":"Iii Liceum Og\u00f3lnokszta\u0142c\u0105ce","addr:country":"PL","addr:postcode":"48-100","addr:city":"G\u0142ubczyce","addr:street":"al. \u015al\u0105ska","addr:housenumber":"1","addr:teryt:simc":22307,"addr:teryt:sym_ul":965329,"contact:phone":"+48 774853087","contact:email":"sekretariat@zsmglubczyce.pl","contact:website":"http:\/\/zsm.powiatglubczycki.pl","ref:regon":"161479680","ref:vatin":"PL7481009721","operator":"Powiat G\u0142ubczycki","operator:type":"government","amenity":"school","note":"Parent RSPO: 11015"}},{"id":11582,"type":"Feature","geometry":{"type":"Point","coordinates":[17.82422,50.19688]},"properties":{"isced:level":"3","ref:rspo":11582,"official_name":"Bran\u017cowa Szko\u0142a I Stopnia","name":"Bran\u017cowa Szko\u0142a I Stopnia","addr:country":"PL","addr:postcode":"48-100","addr:city":"G\u0142ubczyce","addr:street":"al. \u015al\u0105ska","addr:housenumber":"1","addr:teryt:simc":22307,"addr:teryt:sym_ul":965329,"contact:phone":"+48 774853087","contact:email":"sekretariat@zsmglubczyce.pl","contact:website":"http:\/\/zsm.powiatglubczycki.pl","ref:regon":"532335585","ref:vatin":"PL7481009721","operator":"Powiat G\u0142ubczycki","operator:type":"government","amenity":"school","note":"Parent RSPO: 11015"}},{"id":273343,"type":"Feature","geometry":{"type":"Point","coordinates":[17.82422,50.19685]},"properties":{"ref:rspo":273343,"official_name":"Centrum Kszta\u0142cenia Zawodowego","name":"Centrum Kszta\u0142cenia Zawodowego","addr:country":"PL","addr:postcode":"48-100","addr:city":"G\u0142ubczyce","addr:street":"al. \u015al\u0105ska","addr:housenumber":"1","addr:teryt:simc":22307,"addr:teryt:sym_ul":965329,"contact:phone":"+48 774853087","contact:email":"m.jargon@zsmglubczyce.pl","contact:website":"http:\/\/zsmpowiatglubczyce.pl","ref:regon":"384449946","operator":"Powiat G\u0142ubczycki","operator:type":"government","fixme":"w zale\u017cno\u015bci od przedmiotu dzia\u0142alno\u015bci (np. amenity=training + training=*, amenity=dancing_school, amenity=language_school, amenity=music_school) albo amenity=school, amenity=college, albo landuse=education w zale\u017cno\u015bci od tego, jakie plac\u00f3wki wchodz\u0105 w sk\u0142ad zespo\u0142u. Sprawd\u017a, kiedy stosowa\u0107 amenity=* a kiedy landuse=education.","note":"Parent RSPO: 11015"}},{"id":34829,"type":"Feature","geometry":{"type":"Point","coordinates":[17.86803,50.19705]},"properties":{"isced:level":"1;2","ref:rspo":34829,"official_name":"Publiczna Szko\u0142a Podstawowa Im Marii Konopnickiej w Grobnikach","name":"Publiczna Szko\u0142a Podstawowa Im Marii Konopnickiej w Grobnikach","addr:country":"PL","addr:postcode":"48-100","addr:place":"Grobniki","addr:housenumber":"13","addr:teryt:sym_ul":494232,"contact:phone":"+48 774852420","contact:email":"spgrobniki@o2.pl","ref:regon":"161487951","operator":"Centrum Wspierania Aktywno\u015bci Spo\u0142ecznej \"Inicjatywa\"","operator:type":"ngo","amenity":"school"}},{"id":83618,"type":"Feature","geometry":{"type":"Point","coordinates":[17.82381,50.1987]},"properties":{"isced:level":"3","ref:rspo":83618,"official_name":"Niepubliczne Liceum Og\u00f3lnokszta\u0142c\u0105ce dla Doros\u0142ych","name":"Niepubliczne Liceum Og\u00f3lnokszta\u0142c\u0105ce dla Doros\u0142ych","addr:country":"PL","addr:postcode":"48-100","addr:city":"G\u0142ubczyce","addr:street":"ul. Niepodleg\u0142o\u015bci","addr:housenumber":"1","addr:teryt:simc":14203,"addr:teryt:sym_ul":965329,"contact:phone":"+48 663547994","contact:email":"aakorcz@poczta.onet.pl","ref:regon":"161494388","ref:vatin":"PL7481561588","operator":"Wsp\u00f3lnota Kresowa","operator:type":"ngo","amenity":"school"}},{"id":31458,"type":"Feature","geometry":{"type":"Point","coordinates":[17.82332,50.19874]},"properties":{"ref:rspo":31458,"official_name":"Zesp\u00f3\u0142 Szk\u00f3\u0142 Centrum Kszta\u0142cenia Rolniczego im. W\u0142adys\u0142awa Szafera w G\u0142ubczycach","name":"Zesp\u00f3\u0142 Szk\u00f3\u0142 Centrum Kszta\u0142cenia Rolniczego","addr:country":"PL","addr:postcode":"48-100","addr:city":"G\u0142ubczyce","addr:street":"ul. Niepodleg\u0142o\u015bci","addr:housenumber":"2","addr:teryt:simc":14203,"addr:teryt:sym_ul":965329,"contact:phone":"+48 774853011","contact:email":"cku_zsr_glubczyce@wodip.opole.pl","contact:website":"http:\/\/www.cku_zsr_glubczyce.wodip.opole.pl","ref:regon":"000095905","ref:vatin":"PL7481017614","operator":"Ministerstwo Rolnictwa I Rozwoju Wsi","operator:type":"public","landuse":"education","fixme":"amenity=school, amenity=college albo landuse=education w zale\u017cno\u015bci od tego, jakie plac\u00f3wki wchodz\u0105 w sk\u0142ad zespo\u0142u. Sprawd\u017a, kiedy stosowa\u0107 amenity=* a kiedy landuse=education.","note":"Children RSPO: 87745;87746;87747;87748"}},{"id":87745,"type":"Feature","geometry":{"type":"Point","coordinates":[17.82332,50.19871]},"properties":{"isced:level":"3","ref:rspo":87745,"official_name":"Technikum w G\u0142ubczycach","name":"Technikum w G\u0142ubczycach","addr:country":"PL","addr:postcode":"48-100","addr:city":"G\u0142ubczyce","addr:street":"ul. Niepodleg\u0142o\u015bci","addr:housenumber":"2","addr:teryt:simc":14203,"addr:teryt:sym_ul":965329,"contact:phone":"+48 774853011","contact:email":"sekretariat@rolniczakogl.pl","contact:website":"http:\/\/www.rolniczakogl.pl","ref:regon":"532220362","operator":"Ministerstwo Rolnictwa I Rozwoju Wsi","operator:type":"public","amenity":"school","note":"Parent RSPO: 31458"}},{"id":87746,"type":"Feature","geometry":{"type":"Point","coordinates":[17.82332,50.19868]},"properties":{"isced:level":"3","ref:rspo":87746,"official_name":"Bran\u017cowa Szko\u0142a I Stopnia w G\u0142ubczycach","name":"Bran\u017cowa Szko\u0142a I Stopnia w G\u0142ubczycach","addr:country":"PL","addr:postcode":"48-100","addr:city":"G\u0142ubczyce","addr:street":"ul. Niepodleg\u0142o\u015bci","addr:housenumber":"2","addr:teryt:simc":14203,"addr:teryt:sym_ul":965329,"contact:phone":"+48 774853011","contact:email":"sekretariat@rolniczakogl.pl","contact:website":"http:\/\/www.rolniczakogl.pl","ref:regon":"532220422","operator":"Ministerstwo Rolnictwa I Rozwoju Wsi","operator:type":"public","amenity":"school","note":"Parent RSPO: 31458"}},{"id":87747,"type":"Feature","geometry":{"type":"Point","coordinates":[17.82332,50.19865]},"properties":{"isced:level":"4","ref:rspo":87747,"official_name":"Szko\u0142a Policealna w G\u0142ubczycach","name":"Szko\u0142a Policealna w G\u0142ubczycach","addr:country":"PL","addr:postcode":"48-100","addr:city":"G\u0142ubczyce","addr:street":"ul. Niepodleg\u0142o\u015bci","addr:housenumber":"2","addr:teryt:simc":14203,"addr:teryt:sym_ul":965329,"contact:phone":"+48 774853011","contact:email":"sekretariat@rolniczakogl.pl","contact:website":"http:\/\/www.rolniczakogl.pl","ref:regon":"532220474","operator":"Ministerstwo Rolnictwa I Rozwoju Wsi","operator:type":"public","amenity":"college","note":"Parent RSPO: 31458"}},{"id":87748,"type":"Feature","geometry":{"type":"Point","coordinates":[17.82332,50.19862]},"properties":{"ref:rspo":87748,"official_name":"Centrum Kszta\u0142cenia Ustawicznego w G\u0142ubczycach","name":"Centrum Kszta\u0142cenia Ustawicznego w G\u0142ubczycach","addr:country":"PL","addr:postcode":"48-100","addr:city":"G\u0142ubczyce","addr:street":"ul. Niepodleg\u0142o\u015bci","addr:housenumber":"2","addr:teryt:simc":14203,"addr:teryt:sym_ul":965329,"contact:phone":"+48 774853011","contact:email":"sekretariat@rolniczakogl.pl","contact:website":"http:\/\/www.rolniczakogl.pl","ref:regon":"161494661","operator":"Ministerstwo Rolnictwa I Rozwoju Wsi","operator:type":"public","fixme":"w zale\u017cno\u015bci od przedmiotu dzia\u0142alno\u015bci (np. amenity=training + training=*, amenity=dancing_school, amenity=language_school, amenity=music_school)","note":"Parent RSPO: 31458"}},{"id":31940,"type":"Feature","geometry":{"type":"Point","coordinates":[17.82325,50.19943]},"properties":{"ref:rspo":31940,"official_name":"Przedszkole Nr 2 Z Oddzia\u0142ami Integracyjnymi Im Kubusia Puchatka w G\u0142ubczycach","name":"Przedszkole Nr 2 Z Oddzia\u0142ami Integracyjnymi Im Kubusia Puchatka w G\u0142ubczycach","addr:country":"PL","addr:postcode":"48-100","addr:city":"G\u0142ubczyce","addr:street":"ul. Niepodleg\u0142o\u015bci","addr:housenumber":"8","addr:teryt:simc":14203,"addr:teryt:sym_ul":965329,"contact:phone":"+48 774853116","contact:email":"przedszkole2glubczyce@op.pl","ref:regon":"530572281","ref:vatin":"PL7481494053","operator":"Gmina G\u0142ubczyce","operator:type":"government","amenity":"kindergarten"}},{"id":31941,"type":"Feature","geometry":{"type":"Point","coordinates":[17.8266455,50.2001121]},"properties":{"ref:rspo":31941,"official_name":"Przedszkole Nr 3 G\u0142ubczycach","name":"Przedszkole Nr 3 G\u0142ubczycach","addr:country":"PL","addr:postcode":"48-100","addr:city":"G\u0142ubczyce","addr:street":"ul. Wa\u0142owa","addr:housenumber":"4","addr:teryt:simc":23586,"addr:teryt:sym_ul":965329,"contact:phone":"+48 774853347","contact:email":"przedszkole3glubczyce@wp.pl","ref:regon":"530572269","ref:vatin":"PL7481494030","operator":"Gmina G\u0142ubczyce","operator:type":"government","amenity":"kindergarten"}},{"id":11027,"type":"Feature","geometry":{"type":"Point","coordinates":[17.82051,50.20057]},"properties":{"isced:level":"3","ref:rspo":11027,"official_name":"I Liceum Og\u00f3lnokszta\u0142c\u0105ce im. A. Mickiewicza w G\u0142ubczycach","name":"I Liceum Og\u00f3lnokszta\u0142c\u0105ce","addr:country":"PL","addr:postcode":"48-100","addr:city":"G\u0142ubczyce","addr:street":"ul. Kochanowskiego","addr:housenumber":"22","addr:teryt:simc":8725,"addr:teryt:sym_ul":965329,"contact:phone":"+48 774852701","contact:email":"lo@zso.powiatglubczycki.pl","contact:website":"http:\/\/lo.powiatglubczycki.pl","ref:regon":"532398396","ref:vatin":"PL7481544093","operator":"Powiat G\u0142ubczycki","operator:type":"government","amenity":"school","note":"Parent RSPO: 9706"}},{"id":11048,"type":"Feature","geometry":{"type":"Point","coordinates":[17.82051,50.20054]},"properties":{"isced:level":"3","ref:rspo":11048,"official_name":"Szko\u0142a Mistrzostwa Sportowego","name":"Szko\u0142a Mistrzostwa Sportowego","addr:country":"PL","addr:postcode":"48-100","addr:city":"G\u0142ubczyce","addr:street":"ul. Kochanowskiego","addr:housenumber":"22","addr:teryt:simc":8725,"addr:teryt:sym_ul":965329,"contact:phone":"+48 774852701","contact:email":"lo@zso.powiatglubczycki.pl","contact:website":"http:\/\/lo.powiatglubczycki.pl","ref:regon":"532383727","ref:vatin":"PL7481544093","operator":"Powiat G\u0142ubczycki","operator:type":"government","amenity":"school","note":"Parent RSPO: 9706"}},{"id":11079,"type":"Feature","geometry":{"type":"Point","coordinates":[17.82051,50.20051]},"properties":{"isced:level":"3","ref:rspo":11079,"official_name":"Ii Liceum Og\u00f3lnokszta\u0142c\u0105ce w G\u0142ubczycach","name":"Ii Liceum Og\u00f3lnokszta\u0142c\u0105ce w G\u0142ubczycach","addr:country":"PL","addr:postcode":"48-100","addr:city":"G\u0142ubczyce","addr:street":"ul. Kochanowskiego","addr:housenumber":"22","addr:teryt:simc":8725,"addr:teryt:sym_ul":965329,"contact:phone":"+48 774852701","contact:email":"lo@zso.powiatglubczycki.pl","contact:website":"http:\/\/lo.powiatglubczycki.pl","ref:regon":"532383259","ref:vatin":"PL7481544093","operator":"Powiat G\u0142ubczycki","operator:type":"government","amenity":"school","note":"Parent RSPO: 9706"}},{"id":11155,"type":"Feature","geometry":{"type":"Point","coordinates":[17.82051,50.20048]},"properties":{"isced:level":"3","ref:rspo":11155,"official_name":"Liceum Og\u00f3lnokszta\u0142c\u0105ce dla Doros\u0142ych w G\u0142ubczycach","name":"Liceum Og\u00f3lnokszta\u0142c\u0105ce dla Doros\u0142ych w G\u0142ubczycach","addr:country":"PL","addr:postcode":"48-100","addr:city":"G\u0142ubczyce","addr:street":"ul. Kochanowskiego","addr:housenumber":"22","addr:teryt:simc":8725,"addr:teryt:sym_ul":965329,"contact:phone":"+48 774852701","contact:email":"lo@zso.powiatglubczycki.pl","contact:website":"http:\/\/lo.powiatglubczycki.pl","ref:regon":"532335728","ref:vatin":"PL7481544093","operator":"Powiat G\u0142ubczycki","operator:type":"government","amenity":"school","note":"Parent RSPO: 9706"}},{"id":83428,"type":"Feature","geometry":{"type":"Point","coordinates":[17.81783,50.20087]},"properties":{"isced:level":"4","ref:rspo":83428,"official_name":"Szko\u0142a Policealna Zaoczna w G\u0142ubczycach","name":"Szko\u0142a Policealna Zaoczna w G\u0142ubczycach","addr:country":"PL","addr:postcode":"48-100","addr:city":"G\u0142ubczyce","addr:street":"ul. Kochanowskiego","addr:housenumber":"31","addr:teryt:simc":8725,"addr:teryt:sym_ul":965329,"ref:regon":"161494951","ref:vatin":"PL7471702627","operator":"Ewa Z\u0105bkowska","operator:type":"private","amenity":"college"}},{"id":83483,"type":"Feature","geometry":{"type":"Point","coordinates":[17.81783,50.20084]},"properties":{"isced:level":"3","ref:rspo":83483,"official_name":"Liceum Og\u00f3lnokszta\u0142c\u0105ce dla Doros\u0142ych","name":"Liceum Og\u00f3lnokszta\u0142c\u0105ce dla Doros\u0142ych","addr:country":"PL","addr:postcode":"48-100","addr:city":"G\u0142ubczyce","addr:street":"ul. Kochanowskiego","addr:housenumber":"31","addr:teryt:simc":8725,"addr:teryt:sym_ul":965329,"contact:email":"szkglubczyce@interia.pl","contact:website":"http:\/\/glubczyce.edugrodkow.pl","ref:regon":"161499569","ref:vatin":"PL7471702627","operator":"Ewa Z\u0105bkowska","operator:type":"private","amenity":"school"}},{"id":133776,"type":"Feature","geometry":{"type":"Point","coordinates":[17.81783,50.200810000000004]},"properties":{"isced:level":"1;2","ref:rspo":133776,"official_name":"Szko\u0142a Podstawowa Nr 3 im. Marii Sk\u0142odowskiej Curie w G\u0142ubczycach","name":"Szko\u0142a Podstawowa Nr 3","addr:country":"PL","addr:postcode":"48-100","addr:city":"G\u0142ubczyce","addr:street":"ul. Kochanowskiego","addr:housenumber":"31","addr:teryt:simc":8725,"addr:teryt:sym_ul":965329,"contact:phone":"+48 774852702","contact:email":"sekretariat@sp3glubczyce.pl","contact:website":"http:\/\/www.sp3glubczyce.pl","ref:regon":"367622740","operator":"Gmina G\u0142ubczyce","operator:type":"government","amenity":"school"}},{"id":31939,"type":"Feature","geometry":{"type":"Point","coordinates":[17.81997,50.20098]},"properties":{"ref:rspo":31939,"official_name":"Przedszkole Nr 1 Im Marii Konopnickiej w G\u0142ubczycach","name":"Przedszkole Nr 1 Im Marii Konopnickiej w G\u0142ubczycach","addr:country":"PL","addr:postcode":"48-100","addr:city":"G\u0142ubczyce","addr:street":"ul. Kochanowskiego","addr:housenumber":"23","addr:teryt:simc":8725,"addr:teryt:sym_ul":965329,"contact:phone":"+48 774853143","contact:email":"przedszkole.nr15@interia.pl","ref:regon":"530572217","ref:vatin":"PL7481494076","operator":"Gmina G\u0142ubczyce","operator:type":"government","amenity":"kindergarten"}},{"id":31931,"type":"Feature","geometry":{"type":"Point","coordinates":[17.82705,50.20116]},"properties":{"isced:level":"1;2","ref:rspo":31931,"official_name":"Szko\u0142a Podstawowa Nr 2 Im Janusza Korczaka","name":"Szko\u0142a Podstawowa Nr 2 Im Janusza Korczaka","addr:country":"PL","addr:postcode":"48-100","addr:city":"G\u0142ubczyce","addr:street":"ul. Kochanowskiego","addr:housenumber":"2","addr:teryt:simc":8725,"addr:teryt:sym_ul":965329,"contact:phone":"+48 774852703","contact:email":"sp2glubczyc@wodip.opole.pl","ref:regon":"000698704","ref:vatin":"PL7481495101","operator":"Gmina G\u0142ubczyce","operator:type":"government","amenity":"school"}},{"id":9706,"type":"Feature","geometry":{"type":"Point","coordinates":[17.82203,50.2012]},"properties":{"ref:rspo":9706,"official_name":"Zesp\u00f3\u0142 Szk\u00f3\u0142 Og\u00f3lnokszta\u0142c\u0105cych w G\u0142ubczycach","name":"Zesp\u00f3\u0142 Szk\u00f3\u0142 Og\u00f3lnokszta\u0142c\u0105cych w G\u0142ubczycach","addr:country":"PL","addr:postcode":"48-100","addr:city":"G\u0142ubczyce","addr:street":"ul. Kochanowskiego","addr:housenumber":"15","addr:teryt:simc":8725,"addr:teryt:sym_ul":965329,"contact:phone":"+48 774852701","contact:email":"lo@zso.powiatglubczycki.pl","contact:website":"http:\/\/lo.powiatglubczycki.pl","ref:regon":"160142500","ref:vatin":"PL7481544093","operator":"Powiat G\u0142ubczycki","operator:type":"government","landuse":"education","fixme":"amenity=school, amenity=college albo landuse=education w zale\u017cno\u015bci od tego, jakie plac\u00f3wki wchodz\u0105 w sk\u0142ad zespo\u0142u. Sprawd\u017a, kiedy stosowa\u0107 amenity=* a kiedy landuse=education.","note":"Children RSPO: 11027;11048;11079;11155"}},{"id":34826,"type":"Feature","geometry":{"type":"Point","coordinates":[17.78358,50.20165]},"properties":{"isced:level":"1;2","ref:rspo":34826,"official_name":"Publiczna Szko\u0142a Podstawowa w Go\u0142uszowicach","name":"Publiczna Szko\u0142a Podstawowa w Go\u0142uszowicach","addr:country":"PL","addr:postcode":"48-100","addr:place":"Go\u0142uszowice","addr:housenumber":"34","addr:teryt:sym_ul":494210,"contact:phone":"+48 774853924","contact:email":"spgolszowice@poczta.onet.pl","ref:regon":"161489186","ref:vatin":"PL7481555062","operator":"Stowarzyszenie Na Rzecz Rozwoju Wsi Gadzowice I Go\u0142uszowice","operator:type":"ngo","amenity":"school"}},{"id":75576,"type":"Feature","geometry":{"type":"Point","coordinates":[17.83007,50.20286]},"properties":{"ref:rspo":75576,"official_name":"Pa\u0144stwowa Szko\u0142a Muzyczna I St. im. Ignacego Jana Paderewskiego w G\u0142ubczycach","name":"Pa\u0144stwowa Szko\u0142a Muzyczna I St.","addr:country":"PL","addr:postcode":"48-100","addr:city":"G\u0142ubczyce","addr:street":"ul. Warszawska","addr:housenumber":"18","addr:teryt:simc":23682,"addr:teryt:sym_ul":965329,"contact:phone":"+48 774852303","contact:email":"sekretariat@psm.glubczyce.info","contact:website":"http:\/\/psm.glubczyce.info","ref:regon":"000281973","operator":"Ministerstwo Kultury I Dziedzictwa Narodowego","operator:type":"public","amenity":"music_school"}},{"id":268438,"type":"Feature","geometry":{"type":"Point","coordinates":[17.8215,50.20545]},"properties":{"ref:rspo":268438,"official_name":"Niepubliczne Przedszkole \"Piccolino\" w G\u0142ubczycach","name":"Niepubliczne Przedszkole \"Piccolino\" w G\u0142ubczycach","addr:country":"PL","addr:postcode":"48-100","addr:city":"G\u0142ubczyce","addr:street":"al. Lipowa","addr:housenumber":"5 a","addr:teryt:simc":11138,"addr:teryt:sym_ul":965329,"contact:phone":"+48 669080001","contact:email":"biuro@piccolino-glubczyce.pl","contact:website":"http:\/\/www.piccolino-glubczyce","ref:regon":"381162807","operator":"Mariola Paterek","operator:type":"private","amenity":"kindergarten"}},{"id":91425,"type":"Feature","geometry":{"type":"Point","coordinates":[17.87352,50.26161]},"properties":{"isced:level":"1;2","ref:rspo":91425,"official_name":"Szko\u0142a Podstawowa Z Oddzia\u0142ami Przedszkolnymi im. Weteran\u00f3w II Wojny \u015awiatowej w Lisi\u0119cicach","name":"Szko\u0142a Podstawowa Z Oddzia\u0142ami Przedszkolnymi","addr:country":"PL","addr:postcode":"48-100","addr:city":"Lisi\u0119cice","addr:street":"ul. Szkolna","addr:housenumber":"5","addr:teryt:simc":21970,"addr:teryt:sym_ul":494344,"contact:phone":"+48 774857110","contact:email":"zslisiecice@zslisiecice.pl","contact:website":"http:\/\/zslisiecice.pl","ref:regon":"000698466","ref:vatin":"PL7481514229","operator":"Gmina G\u0142ubczyce","operator:type":"government","amenity":"school"}},{"id":122711,"type":"Feature","geometry":{"type":"Point","coordinates":[17.77664,50.26918]},"properties":{"ref:rspo":122711,"official_name":"Szkolne Schronisko M\u0142odzie\u017cowe w Pietrowicach - Filia w \u015aciborzycach Ma\u0142ych","name":"Szkolne Schronisko M\u0142odzie\u017cowe w Pietrowicach - Filia w \u015aciborzycach Ma\u0142ych","addr:country":"PL","addr:postcode":"48-100","addr:place":"\u015aciborzyce Ma\u0142e","addr:housenumber":"27","addr:teryt:sym_ul":494539,"contact:phone":"+48 774857612","contact:email":"sekretariatpietrowice@interia.pl","ref:regon":"160004324","operator":"Gmina G\u0142ubczyce","operator:type":"government","tourism":"hostel","note":"Parent RSPO: 91586"}},{"id":34830,"type":"Feature","geometry":{"type":"Point","coordinates":[17.8047,50.30148]},"properties":{"isced:level":"1;2","ref:rspo":34830,"official_name":"Publiczna Szko\u0142a Podstawowa Im Kornela Makuszy\u0144skiego w Klisinie","name":"Publiczna Szko\u0142a Podstawowa Im Kornela Makuszy\u0144skiego w Klisinie","addr:country":"PL","addr:postcode":"48-100","addr:place":"Klisino","addr:housenumber":"68","addr:teryt:sym_ul":494261,"contact:phone":"+48 774857591","contact:email":"sp.klisino@wp.pl","ref:regon":"161488040","ref:vatin":"PL7481465519","operator":"Ochotnicza Stra\u017c Po\u017carna W Klisinie","operator:type":"ngo","amenity":"school"}}]}