{
    "type": "FeatureCollection",
    "features": [
        {
            "id": 30879,
            "type": "Feature",
            "geometry": {
                "type": "Point",
                "coordinates": [
                    17.91992,
                    49.9983999
                ]
            },
            "properties": {
                "isced:level": "1;2",
                "ref:rspo": 30879,
                "official_name": "Publiczna Szko\u0142a Podstawowa Z Oddzia\u0142em Przedszkolnym im. Jana III Sobieskiego w Pilszczu Stowarzyszenia Na Rzecz Edukacji I Kultury w Pilszczu",
                "name": "Publiczna Szko\u0142a Podstawowa Z Oddzia\u0142em Przedszkolnym",
                "addr:postcode": "48-130",
                "addr:city": "Pilszcz",
                "addr:street": "Owsiana",
                "addr:housenumber": "3",
                "addr:teryt:simc": 496113,
                "addr:teryt:sym_ul": 15481,
                "phone": "+48 774851693",
                "email": "zsp.pilszcz@op.pl",
                "website": "http:\/\/szkolapilszcz.szkolnastrona.pl",
                "ref:regon": "161489588",
                "operator": "Stowarzyszenie Na Rzecz Edukacji Kultury W Pilszczu",
                "operator:type": "ngo",
                "amenity": "school"
            }
        },
        {
            "id": 105858,
            "type": "Feature",
            "geometry": {
                "type": "Point",
                "coordinates": [
                    17.91992,
                    49.9983699
                ]
            },
            "properties": {
                "ref:rspo": 105858,
                "official_name": "Oddzia\u0142 Przedszkolny Stowarzyszenia Na Rzecz Edukacji I Kultury w Pilszczu",
                "name": "Oddzia\u0142 Przedszkolny Stowarzyszenia Na Rzecz Edukacji I Kultury w Pilszczu",
                "addr:postcode": "48-130",
                "addr:city": "Pilszcz",
                "addr:street": "Owsiana",
                "addr:housenumber": "3",
                "addr:teryt:simc": 496113,
                "addr:teryt:sym_ul": 15481,
                "phone": "+48 774851693",
                "email": "zsp.pilszcz@op.pl",
                "ref:regon": "161502722",
                "operator": "Stowarzyszenie Na Rzecz Edukacji Kultury W Pilszczu",
                "operator:type": "ngo",
                "amenity": "kindergarten"
            }
        },
        {
            "id": 74502,
            "type": "Feature",
            "geometry": {
                "type": "Point",
                "coordinates": [
                    18.02815,
                    50.01956
                ]
            },
            "properties": {
                "isced:level": "1;2",
                "ref:rspo": 74502,
                "official_name": "Szko\u0142a Podstawowa \nZ Oddzia\u0142em Przedszkolnym Przy Stowarzyszeniu Przyjaci\u00f3\u0142 \u015aciborzyc Wielkich \"\u015acibor\" w \u015aciborzycach Wielkich",
                "name": "Szko\u0142a Podstawowa \nZ Oddzia\u0142em Przedszkolnym Przy Stowarzyszeniu Przyjaci\u00f3\u0142 \u015aciborzyc Wielkich \"\u015acibor\" w \u015aciborzycach Wielkich",
                "addr:postcode": "48-130",
                "addr:place": "\u015aciborzyce Wielkie",
                "addr:housenumber": "105",
                "addr:teryt:simc": 496159,
                "phone": "+48 774855174",
                "email": "szkolasciborzyce@wp.pl",
                "ref:regon": "161493035",
                "ref:vatin": "PL7481568260",
                "operator": "Stowarzyszenie Przyjaci\u00f3\u0142 \u015aciborzyc Wielkich \" \u015acibor\"",
                "operator:type": "ngo",
                "amenity": "school"
            }
        },
        {
            "id": 74510,
            "type": "Feature",
            "geometry": {
                "type": "Point",
                "coordinates": [
                    18.02815,
                    50.019529999999996
                ]
            },
            "properties": {
                "ref:rspo": 74510,
                "official_name": "Oddzia\u0142 Przedszkolny Przy Stowarzyszeniu Przyjaci\u00f3\u0142 \u015aciborzyc Wielkich \"\u015acibor\" w \u015aciborzycach Wielkich",
                "name": "Oddzia\u0142 Przedszkolny Przy Stowarzyszeniu Przyjaci\u00f3\u0142 \u015aciborzyc Wielkich \"\u015acibor\" w \u015aciborzycach Wielkich",
                "addr:postcode": "48-130",
                "addr:place": "\u015aciborzyce Wielkie",
                "addr:housenumber": "105",
                "addr:teryt:simc": 496159,
                "phone": "+48 774855174",
                "email": "szkolasciborzyce@wp.pl",
                "ref:regon": "161493035",
                "operator": "Stowarzyszenie Przyjaci\u00f3\u0142 \u015aciborzyc Wielkich \" \u015acibor\"",
                "operator:type": "ngo",
                "amenity": "kindergarten"
            }
        },
        {
            "id": 29206,
            "type": "Feature",
            "geometry": {
                "type": "Point",
                "coordinates": [
                    17.97254,
                    50.02187
                ]
            },
            "properties": {
                "ref:rspo": 29206,
                "official_name": "Publiczne Przedszkole \"Akademia Pluszowych Misi\u00f3w\" Stowarzyszenia Rozw\u00f3j I Odnowa \nW Rozumicach",
                "name": "Publiczne Przedszkole \"Akademia Pluszowych Misi\u00f3w\" Stowarzyszenia Rozw\u00f3j I Odnowa \nW Rozumicach",
                "addr:postcode": "48-130",
                "addr:place": "Rozumice",
                "addr:housenumber": "20",
                "addr:teryt:simc": 496142,
                "phone": "+48 774852222",
                "email": "rozumice0000@wp.pl",
                "ref:regon": "161487282",
                "operator": "Stowarzyszenie Rozw\u00f3j I Odnowa",
                "operator:type": "ngo",
                "amenity": "kindergarten"
            }
        },
        {
            "id": 26762,
            "type": "Feature",
            "geometry": {
                "type": "Point",
                "coordinates": [
                    17.96792,
                    50.04661
                ]
            },
            "properties": {
                "isced:level": "1;2",
                "ref:rspo": 26762,
                "official_name": "Publiczna Szko\u0142a Podstawowa Z Oddzia\u0142em Przedszkolnym Stowarzyszenia Aktywna Spo\u0142eczno\u015b\u0107 Dzier\u017cys\u0142awia",
                "name": "Publiczna Szko\u0142a Podstawowa Z Oddzia\u0142em Przedszkolnym Stowarzyszenia Aktywna Spo\u0142eczno\u015b\u0107 Dzier\u017cys\u0142awia",
                "addr:postcode": "48-130",
                "addr:city": "Dzier\u017cys\u0142aw",
                "addr:street": "Szkolna",
                "addr:housenumber": "4",
                "addr:teryt:simc": 496018,
                "addr:teryt:sym_ul": 21970,
                "phone": "+48 774851515",
                "email": "szkoladzierzyslaw@wp.pl",
                "ref:regon": "161485946",
                "ref:vatin": "PL7481549759",
                "operator": "Stowarzyszenie Aktywna Spo\u0142eczno\u015b\u0107 Dzier\u017cys\u0142awia",
                "operator:type": "ngo",
                "amenity": "school"
            }
        },
        {
            "id": 68644,
            "type": "Feature",
            "geometry": {
                "type": "Point",
                "coordinates": [
                    17.96792,
                    50.04658
                ]
            },
            "properties": {
                "ref:rspo": 68644,
                "official_name": "Oddzia\u0142 Przedszkolny Stowarzyszenia Aktywna Spo\u0142eczno\u015b\u0107 Dzier\u017cys\u0142awia",
                "name": "Oddzia\u0142 Przedszkolny Stowarzyszenia Aktywna Spo\u0142eczno\u015b\u0107 Dzier\u017cys\u0142awia",
                "addr:postcode": "48-130",
                "addr:city": "Dzier\u017cys\u0142aw",
                "addr:street": "Szkolna",
                "addr:housenumber": "4",
                "addr:teryt:simc": 496018,
                "addr:teryt:sym_ul": 21970,
                "phone": "+48 774851515",
                "email": "szkoladzierzyslaw@wp.pl",
                "ref:regon": "161485946",
                "operator": "Stowarzyszenie Aktywna Spo\u0142eczno\u015b\u0107 Dzier\u017cys\u0142awia",
                "operator:type": "ngo",
                "amenity": "kindergarten"
            }
        },
        {
            "id": 28524,
            "type": "Feature",
            "geometry": {
                "type": "Point",
                "coordinates": [
                    17.8889299,
                    50.04807
                ]
            },
            "properties": {
                "isced:level": "1;2",
                "ref:rspo": 28524,
                "official_name": "Publiczna Szko\u0142a Podstawowa Z Oddzia\u0142em Przedszkolnym im.marii Konopnickiej Stowarzyszenia Przyjaci\u00f3\u0142 Szko\u0142y Podstawowej w Nasiedlu",
                "name": "Publiczna Szko\u0142a Podstawowa Z Oddzia\u0142em Przedszkolnym im.marii Konopnickiej Stowarzyszenia Przyjaci\u00f3\u0142 Szko\u0142y Podstawowej w Nasiedlu",
                "addr:postcode": "48-130",
                "addr:city": "Nasiedle",
                "addr:street": "Szkolna",
                "addr:housenumber": "6",
                "addr:teryt:simc": 496076,
                "addr:teryt:sym_ul": 21970,
                "phone": "+48 774851722",
                "email": "szkolanasiedle@onet.pl",
                "website": "http:\/\/szkolanasiedle.szkolna.net",
                "ref:regon": "161487307",
                "operator": "Stowarzyszenie Przyjaci\u00f3\u0142 Szko\u0142y Podstawowej W Nasiedlu",
                "operator:type": "ngo",
                "amenity": "school"
            }
        },
        {
            "id": 278400,
            "type": "Feature",
            "geometry": {
                "type": "Point",
                "coordinates": [
                    17.8889299,
                    50.04804
                ]
            },
            "properties": {
                "ref:rspo": 278400,
                "official_name": "Oddzia\u0142 Przedszkolny Stowarzyszenia Przyjaci\u00f3\u0142 Szko\u0142y Podstawowej w Nasiedlu",
                "name": "Oddzia\u0142 Przedszkolny Stowarzyszenia Przyjaci\u00f3\u0142 Szko\u0142y Podstawowej w Nasiedlu",
                "addr:postcode": "48-130",
                "addr:city": "Nasiedle",
                "addr:street": "Szkolna",
                "addr:housenumber": "6",
                "addr:teryt:simc": 496076,
                "addr:teryt:sym_ul": 21970,
                "phone": "+48 774851722",
                "email": "szkolanasiedle@onet.pl",
                "website": "http:\/\/www.szkolanasiedle.szkolna.net",
                "ref:regon": "389889259",
                "operator": "Stowarzyszenie Przyjaci\u00f3\u0142 Szko\u0142y Podstawowej W Nasiedlu",
                "operator:type": "ngo",
                "amenity": "kindergarten"
            }
        },
        {
            "id": 74505,
            "type": "Feature",
            "geometry": {
                "type": "Point",
                "coordinates": [
                    17.96719,
                    50.05013
                ]
            },
            "properties": {
                "isced:level": "3",
                "ref:rspo": 74505,
                "official_name": "Bran\u017cowa Szko\u0142a I Stopnia",
                "name": "Bran\u017cowa Szko\u0142a I Stopnia",
                "addr:postcode": "48-130",
                "addr:city": "Kietrz",
                "addr:street": "Tadeusza Ko\u015bciuszki",
                "addr:housenumber": "14",
                "addr:teryt:simc": 965602,
                "addr:teryt:sym_ul": 9572,
                "phone": "+48 774854397",
                "email": "zs@lokietrz.pl",
                "ref:regon": "532383851",
                "operator": "Gmina Kietrz",
                "operator:type": "government",
                "amenity": "school",
                "note": "Parent RSPO: 118797"
            }
        },
        {
            "id": 74507,
            "type": "Feature",
            "geometry": {
                "type": "Point",
                "coordinates": [
                    17.96719,
                    50.0501
                ]
            },
            "properties": {
                "isced:level": "3",
                "ref:rspo": 74507,
                "official_name": "Liceum Og\u00f3lnokszta\u0142c\u0105ce im. Cypriana Kamila Norwida w Kietrzu",
                "name": "Liceum Og\u00f3lnokszta\u0142c\u0105ce",
                "addr:postcode": "48-130",
                "addr:city": "Kietrz",
                "addr:street": "Tadeusza Ko\u015bciuszki",
                "addr:housenumber": "14",
                "addr:teryt:simc": 965602,
                "addr:teryt:sym_ul": 9572,
                "phone": "+48 774854397",
                "email": "zs@lokietrz.pl",
                "ref:regon": "532383897",
                "operator": "Gmina Kietrz",
                "operator:type": "government",
                "amenity": "school",
                "note": "Parent RSPO: 118797"
            }
        },
        {
            "id": 118797,
            "type": "Feature",
            "geometry": {
                "type": "Point",
                "coordinates": [
                    18.01272,
                    50.0790999
                ]
            },
            "properties": {
                "ref:rspo": 118797,
                "official_name": "Zesp\u00f3\u0142 Szk\u00f3\u0142 w Kietrzu",
                "name": "Zesp\u00f3\u0142 Szk\u00f3\u0142 w Kietrzu",
                "addr:postcode": "48-130",
                "addr:city": "Kietrz",
                "addr:street": "G\u0142owackiego",
                "addr:housenumber": "37",
                "addr:teryt:simc": 965602,
                "addr:teryt:sym_ul": 5623,
                "phone": "+48 774854484",
                "email": "szkola@kietrz.pl",
                "ref:regon": "161546056",
                "operator": "Gmina Kietrz",
                "operator:type": "government",
                "landuse": "education",
                "fixme": "amenity=school, amenity=college albo landuse=education w zale\u017cno\u015bci od tego, jakie plac\u00f3wki wchodz\u0105 w sk\u0142ad zespo\u0142u. Sprawd\u017a, kiedy stosowa\u0107 amenity=* a kiedy landuse=education.",
                "note": "Children RSPO: 25188;25549;74505;74507"
            }
        },
        {
            "id": 25188,
            "type": "Feature",
            "geometry": {
                "type": "Point",
                "coordinates": [
                    18.01272,
                    50.0790699
                ]
            },
            "properties": {
                "ref:rspo": 25188,
                "official_name": "Publiczne Przedszkolew Kietrzu Ul.g\u0142owackiego 37 48 - 130 Kietrz",
                "name": "Publiczne Przedszkolew Kietrzu Ul.g\u0142owackiego 37 48 - 130 Kietrz",
                "addr:postcode": "48-130",
                "addr:city": "Kietrz",
                "addr:street": "G\u0142owackiego",
                "addr:housenumber": "37",
                "addr:teryt:simc": 965602,
                "addr:teryt:sym_ul": 5623,
                "phone": "+48 774854484",
                "email": "szkola@kietrz.pl",
                "ref:regon": "530579366",
                "ref:vatin": "PL7481495331",
                "operator": "Gmina Kietrz",
                "operator:type": "government",
                "amenity": "kindergarten",
                "note": "Parent RSPO: 118797"
            }
        },
        {
            "id": 25549,
            "type": "Feature",
            "geometry": {
                "type": "Point",
                "coordinates": [
                    18.01272,
                    50.079039900000005
                ]
            },
            "properties": {
                "isced:level": "1;2",
                "ref:rspo": 25549,
                "official_name": "Publiczna Szko\u0142a Podstawowa w Kietrzu\nIm. Jana Paw\u0142a II Ul. G\u0142owackiego 37\n48 - 130 Kietrz",
                "name": "Publiczna Szko\u0142a Podstawowa w Kietrzu\nIm. Jana Paw\u0142a II Ul. G\u0142owackiego 37\n48 - 130 Kietrz",
                "addr:postcode": "48-130",
                "addr:city": "Kietrz",
                "addr:street": "G\u0142owackiego",
                "addr:housenumber": "37",
                "addr:teryt:simc": 965602,
                "addr:teryt:sym_ul": 5623,
                "phone": "+48 774854484",
                "email": "szkola@kietrz.pl",
                "website": "http:\/\/www.psp.kietrz.net",
                "ref:regon": "000264101",
                "ref:vatin": "PL7481581384",
                "operator": "Gmina Kietrz",
                "operator:type": "government",
                "amenity": "school",
                "note": "Parent RSPO: 118797"
            }
        },
        {
            "id": 74508,
            "type": "Feature",
            "geometry": {
                "type": "Point",
                "coordinates": [
                    17.92737,
                    50.09038
                ]
            },
            "properties": {
                "ref:rspo": 74508,
                "official_name": "Publiczne Przedszkole\nW Zespole Szkolno-Przedszkolnym w Nowej Cerekwi",
                "name": "Publiczne Przedszkole\nW Zespole Szkolno-Przedszkolnym w Nowej Cerekwi",
                "addr:postcode": "48-133",
                "addr:city": "Nowa Cerekwia",
                "addr:street": "Rogo\u017ca\u0144ska",
                "addr:housenumber": "4",
                "addr:teryt:simc": 496099,
                "addr:teryt:sym_ul": 18782,
                "phone": "+48 774851841",
                "email": "zsp.nowacerekwia@op.pl",
                "ref:regon": "532232483",
                "operator": "Gmina Kietrz",
                "operator:type": "government",
                "amenity": "kindergarten",
                "note": "Parent RSPO: 25864"
            }
        },
        {
            "id": 109316,
            "type": "Feature",
            "geometry": {
                "type": "Point",
                "coordinates": [
                    17.92737,
                    50.09035
                ]
            },
            "properties": {
                "isced:level": "1;2",
                "ref:rspo": 109316,
                "official_name": "Publiczna Szko\u0142a Podstawowa w Nowej Cerekwi",
                "name": "Publiczna Szko\u0142a Podstawowa w Nowej Cerekwi",
                "addr:postcode": "48-133",
                "addr:city": "Nowa Cerekwia",
                "addr:street": "Rogo\u017ca\u0144ska",
                "addr:housenumber": "4",
                "addr:teryt:simc": 496099,
                "addr:teryt:sym_ul": 18782,
                "phone": "+48 774851841",
                "email": "zsp.nowacerekwia@op.pl",
                "ref:regon": "532232477",
                "operator": "Gmina Kietrz",
                "operator:type": "government",
                "amenity": "school",
                "note": "Parent RSPO: 25864"
            }
        },
        {
            "id": 25864,
            "type": "Feature",
            "geometry": {
                "type": "Point",
                "coordinates": [
                    17.930080413818,
                    50.094371795654
                ]
            },
            "properties": {
                "ref:rspo": 25864,
                "official_name": "Zesp\u00f3\u0142 Szkolno-Przedszkolny w Nowej Cerekwi\nUl. Rogo\u017ca\u0144ska 4\n48 - 133 Nowa Cerekwia",
                "name": "Zesp\u00f3\u0142 Szkolno-Przedszkolny w Nowej Cerekwi\nUl. Rogo\u017ca\u0144ska 4\n48 - 133 Nowa Cerekwia",
                "addr:postcode": "48-133",
                "addr:place": "Nowa Cerekwia",
                "addr:housenumber": "4",
                "addr:teryt:simc": 496107,
                "phone": "+48 774851841",
                "email": "zsp.nowacerekwia@op.pl",
                "ref:regon": "001182701",
                "ref:vatin": "PL7481495360",
                "operator": "Gmina Kietrz",
                "operator:type": "government",
                "landuse": "education",
                "fixme": "amenity=school, amenity=college albo landuse=education w zale\u017cno\u015bci od tego, jakie plac\u00f3wki wchodz\u0105 w sk\u0142ad zespo\u0142u. Sprawd\u017a, kiedy stosowa\u0107 amenity=* a kiedy landuse=education.",
                "note": "Children RSPO: 74508;109316"
            }
        }
    ]
}