{
    "type": "FeatureCollection",
    "features": [
        {
            "id": 130223,
            "type": "Feature",
            "geometry": {
                "type": "Point",
                "coordinates": [
                    17.8776699,
                    50.00561
                ]
            },
            "properties": {
                "ref:rspo": 130223,
                "official_name": "Gimnazjum w Uciechowicach",
                "name": "Gimnazjum w Uciechowicach",
                "addr:postcode": "48-140",
                "addr:place": "Uciechowice",
                "addr:housenumber": "46",
                "addr:city:simc": 491914,
                "phone": "+48 774868722",
                "email": "sp.uciech@pocztz.fm",
                "ref:regon": "161602808",
                "ref:vatin": "PL7481580918",
                "operator": "Stowarzyszenie Przyjaci\u00f3\u0142 Szko\u0142y W Uciechowicach",
                "operator:type": "ngo",
                "amenity": "school"
            }
        },
        {
            "id": 49527,
            "type": "Feature",
            "geometry": {
                "type": "Point",
                "coordinates": [
                    17.7935899,
                    50.05228
                ]
            },
            "properties": {
                "ref:rspo": 49527,
                "official_name": "Publiczne Przedszkole w Branicach Z Oddzia\u0142ami Zamiejscowymi w Bliszczycach I Wysokiej",
                "name": "Publiczne Przedszkole w Branicach Z Oddzia\u0142ami Zamiejscowymi w Bliszczycach I Wysokiej",
                "addr:postcode": "48-140",
                "addr:city": "Branice",
                "addr:street": "1 Maja",
                "addr:housenumber": "8",
                "addr:city:simc": 491742,
                "addr:street:sym_ul": 11926,
                "phone": "+48 774868370",
                "email": "majka29@poczta.onet.eu",
                "ref:regon": "530585154",
                "ref:vatin": "PL7481557339",
                "operator": "Gmina Branice",
                "operator:type": "government",
                "amenity": "kindergarten"
            }
        },
        {
            "id": 72178,
            "type": "Feature",
            "geometry": {
                "type": "Point",
                "coordinates": [
                    17.79929,
                    50.05318
                ]
            },
            "properties": {
                "isced:level": "1;2",
                "ref:rspo": 72178,
                "official_name": "Szko\u0142a Podstawowa im. Marii D\u0105browskiej w Branicach",
                "name": "Szko\u0142a Podstawowa",
                "addr:postcode": "48-140",
                "addr:city": "Branice",
                "addr:street": "Szkolna",
                "addr:housenumber": "8",
                "addr:city:simc": 491742,
                "addr:street:sym_ul": 21970,
                "phone": "+48 774860910",
                "email": "sekretariat@spbranice.pl",
                "ref:regon": "000266815",
                "ref:vatin": "PL7481556038",
                "operator": "Gmina Branice",
                "operator:type": "government",
                "amenity": "school"
            }
        },
        {
            "id": 58965,
            "type": "Feature",
            "geometry": {
                "type": "Point",
                "coordinates": [
                    17.79726,
                    50.05326
                ]
            },
            "properties": {
                "ref:rspo": 58965,
                "official_name": "Katolickie Przedszkole Si\u00f3str Maryi Niepokalanej\nIm. Jana Paw\u0142a II w Branicach",
                "name": "Katolickie Przedszkole Si\u00f3str Maryi Niepokalanej\nIm. Jana Paw\u0142a II w Branicach",
                "addr:postcode": "48-140",
                "addr:city": "Branice",
                "addr:street": "Szpitalna",
                "addr:housenumber": "6",
                "addr:city:simc": 491742,
                "addr:street:sym_ul": 22073,
                "phone": "+48 774860988",
                "email": "biuro@przedszkolebranice.pl",
                "ref:regon": "161491378",
                "ref:vatin": "PL7481017554",
                "operator": "Gmina Branice",
                "operator:type": "government",
                "amenity": "kindergarten"
            }
        },
        {
            "id": 49529,
            "type": "Feature",
            "geometry": {
                "type": "Point",
                "coordinates": [
                    17.83712,
                    50.1201999
                ]
            },
            "properties": {
                "ref:rspo": 49529,
                "official_name": "Publiczne Przedszkole we W\u0142odzieninie Z Oddzia\u0142ami Zamiejscowymi w Lewicach I Dzba\u0144cach",
                "name": "Publiczne Przedszkole we W\u0142odzieninie Z Oddzia\u0142ami Zamiejscowymi w Lewicach I Dzba\u0144cach",
                "addr:postcode": "48-140",
                "addr:place": "W\u0142odzienin",
                "addr:housenumber": "50",
                "addr:city:simc": 491937,
                "phone": "+48 774857053",
                "email": "dmkrupa@wp.pl",
                "ref:regon": "530585190",
                "ref:vatin": "PL7481557345",
                "operator": "Gmina Branice",
                "operator:type": "government",
                "amenity": "kindergarten"
            }
        },
        {
            "id": 54410,
            "type": "Feature",
            "geometry": {
                "type": "Point",
                "coordinates": [
                    17.83712,
                    50.1201699
                ]
            },
            "properties": {
                "isced:level": "1;2",
                "ref:rspo": 54410,
                "official_name": "Szko\u0142a Podstawowa im. Marii Sk\u0142odowskiej - Curie we W\u0142odzieninie",
                "name": "Szko\u0142a Podstawowa",
                "addr:postcode": "48-140",
                "addr:place": "W\u0142odzienin",
                "addr:housenumber": "50",
                "addr:city:simc": 491937,
                "phone": "+48 774857216",
                "email": "sp.wlodzienin@interia.pl",
                "website": "http:\/\/www.spwlodzienin.szkolna.net",
                "ref:regon": "001166010",
                "ref:vatin": "PL7481556446",
                "operator": "Gmina Branice",
                "operator:type": "government",
                "amenity": "school"
            }
        }
    ]
}