{
    "type": "FeatureCollection",
    "features": [
        {
            "id": 60730,
            "type": "Feature",
            "geometry": {
                "type": "Point",
                "coordinates": [
                    19.21646,
                    50.02539
                ]
            },
            "properties": {
                "ref:rspo": 60730,
                "official_name": "Niepubliczne Przedszkole \u201eJedyneczka\u201d Jolanta Mrozik",
                "name": "Niepubliczne Przedszkole \u201eJedyneczka\u201d Jolanta Mrozik",
                "addr:country": "PL",
                "addr:postcode": "32-600",
                "addr:city": "O\u015bwi\u0119cim",
                "addr:street": "ul. Ko\u015bcielecka",
                "addr:housenumber": "1",
                "addr:teryt:simc": 9542,
                "addr:teryt:sym_ul": 924997,
                "contact:phone": "+48 338430454",
                "contact:email": "jedyneczka_oswiecim@o2.pl",
                "contact:website": "http:\/\/jedyneczka.com",
                "ref:regon": "122691952",
                "ref:vatin": "PL5491402703",
                "operator": "Jolanta Mrozik",
                "operator:type": "private",
                "amenity": "kindergarten"
            }
        },
        {
            "id": 61629,
            "type": "Feature",
            "geometry": {
                "type": "Point",
                "coordinates": [
                    19.22257,
                    50.02625
                ]
            },
            "properties": {
                "ref:rspo": 61629,
                "official_name": "Niepubliczne Przedszkole \u201ePrzygoda\u201d S.c. Anna Kupiec, Magdalena Kupiec, Micha\u0142 Kupiec",
                "name": "Niepubliczne Przedszkole \u201ePrzygoda\u201d S.c. Anna Kupiec, Magdalena Kupiec, Micha\u0142 Kupiec",
                "addr:country": "PL",
                "addr:postcode": "32-600",
                "addr:city": "O\u015bwi\u0119cim",
                "addr:street": "ul. 11 Listopada",
                "addr:housenumber": "3C",
                "addr:door": "1A",
                "addr:teryt:simc": 11205,
                "addr:teryt:sym_ul": 924997,
                "contact:phone": "+48 607655600",
                "contact:email": "przygoda@poczta.onet.eu",
                "contact:website": "http:\/\/przygoda.oswiecim.blizej.info",
                "ref:regon": "122692414",
                "ref:vatin": "PL5492373866",
                "operator": "Anna Kupiec",
                "operator:type": "private",
                "amenity": "kindergarten"
            }
        },
        {
            "id": 279245,
            "type": "Feature",
            "geometry": {
                "type": "Point",
                "coordinates": [
                    19.19807,
                    50.0268
                ]
            },
            "properties": {
                "isced:level": "3",
                "ref:rspo": 279245,
                "official_name": "Akademickie Liceum Og\u00f3lnokszta\u0142c\u0105ce im. Rtm. Witolda Pileckiego w O\u015bwi\u0119cimiu",
                "name": "Akademickie Liceum Og\u00f3lnokszta\u0142c\u0105ce",
                "addr:country": "PL",
                "addr:postcode": "32-600",
                "addr:city": "O\u015bwi\u0119cim",
                "addr:street": "ul. Maksymiliana Kolbego",
                "addr:housenumber": "8",
                "addr:teryt:simc": 30067,
                "addr:teryt:sym_ul": 924997,
                "contact:phone": "+48 338430691",
                "contact:email": "kancelaria@uczelniaoswiecim.edu.pl",
                "ref:regon": "520964333",
                "operator": "Ma\u0142opolska Uczelnia Pa\u0144stwowa Im.rotmistrza Witolda Pileckiego W O\u015bwi\u0119cimiu",
                "operator:type": "public",
                "amenity": "school"
            }
        },
        {
            "id": 23921,
            "type": "Feature",
            "geometry": {
                "type": "Point",
                "coordinates": [
                    19.24117,
                    50.02814
                ]
            },
            "properties": {
                "isced:level": "1;2",
                "ref:rspo": 23921,
                "official_name": "Szko\u0142a Podstawowa Z Oddzia\u0142ami Sportowymi Nr 11 im. Miko\u0142aja Kopernika w O\u015bwi\u0119cimiu",
                "name": "Szko\u0142a Podstawowa Z Oddzia\u0142ami Sportowymi Nr 11",
                "addr:country": "PL",
                "addr:postcode": "32-600",
                "addr:city": "O\u015bwi\u0119cim",
                "addr:street": "ul. Aleja Juliusza S\u0142owackiego",
                "addr:housenumber": "2A",
                "addr:teryt:simc": 36348,
                "addr:teryt:sym_ul": 924997,
                "contact:phone": "+48 338445691",
                "contact:email": "sekretariat@sp11oswiecim.pl",
                "contact:website": "http:\/\/sp11oswiecim.pl",
                "ref:regon": "070431814",
                "ref:vatin": "PL5491025821",
                "operator": "Miasto O\u015bwi\u0119cim",
                "operator:type": "government",
                "amenity": "school"
            }
        },
        {
            "id": 24700,
            "type": "Feature",
            "geometry": {
                "type": "Point",
                "coordinates": [
                    19.24149,
                    50.02879
                ]
            },
            "properties": {
                "ref:rspo": 24700,
                "official_name": "Miejskie Przedszkole Nr 7",
                "name": "Miejskie Przedszkole Nr 7",
                "addr:country": "PL",
                "addr:postcode": "32-600",
                "addr:city": "O\u015bwi\u0119cim",
                "addr:street": "ul. Aleja Juliusza S\u0142owackiego",
                "addr:housenumber": "8",
                "addr:teryt:simc": 36348,
                "addr:teryt:sym_ul": 924997,
                "contact:phone": "+48 338422369",
                "contact:email": "mp7@eduoswiecim.pl",
                "contact:website": "http:\/\/przedszkole7.internetdsl.pl",
                "ref:regon": "071009856",
                "ref:vatin": "PL5492097484",
                "operator": "Miasto O\u015bwi\u0119cim",
                "operator:type": "government",
                "amenity": "kindergarten"
            }
        },
        {
            "id": 133610,
            "type": "Feature",
            "geometry": {
                "type": "Point",
                "coordinates": [
                    19.23595,
                    50.03204
                ]
            },
            "properties": {
                "isced:level": "1;2",
                "ref:rspo": 133610,
                "official_name": "Szko\u0142a Podstawowa Z Oddzia\u0142ami Sportowymi Nr 2 im. \u0141ukasza G\u00f3rnickiego w O\u015bwi\u0119cimiu",
                "name": "Szko\u0142a Podstawowa Z Oddzia\u0142ami Sportowymi Nr 2",
                "addr:country": "PL",
                "addr:postcode": "32-600",
                "addr:city": "O\u015bwi\u0119cim",
                "addr:street": "ul. Karola Olszewskiego",
                "addr:housenumber": "2A",
                "addr:teryt:simc": 15008,
                "addr:teryt:sym_ul": 924997,
                "contact:phone": "+48 338422386",
                "contact:email": "sekretariat@sp2osw.pl",
                "contact:website": "http:\/\/sp2osw.pl",
                "ref:regon": "367482776",
                "ref:vatin": "PL5492448386",
                "operator": "Miasto O\u015bwi\u0119cim",
                "operator:type": "government",
                "amenity": "school"
            }
        },
        {
            "id": 134002,
            "type": "Feature",
            "geometry": {
                "type": "Point",
                "coordinates": [
                    19.1960799,
                    50.03225
                ]
            },
            "properties": {
                "ref:rspo": 134002,
                "official_name": "Powiatowe Centrum Kszta\u0142cenia Technicznego I Bran\u017cowego w O\u015bwi\u0119cimiu",
                "name": "Powiatowe Centrum Kszta\u0142cenia Technicznego I Bran\u017cowego w O\u015bwi\u0119cimiu",
                "addr:country": "PL",
                "addr:postcode": "32-600",
                "addr:city": "O\u015bwi\u0119cim",
                "addr:street": "ul. Stanis\u0142awy Leszczy\u0144skiej",
                "addr:housenumber": "8",
                "addr:teryt:simc": 10880,
                "addr:teryt:sym_ul": 924997,
                "contact:phone": "+48 338431680",
                "contact:email": "sekretariat@ozety.edu.pl",
                "contact:website": "http:\/\/ozety.edu.pl",
                "ref:regon": "367772215",
                "operator": "Powiat O\u015bwi\u0119cimski",
                "operator:type": "government",
                "landuse": "education",
                "fixme": "amenity=school, amenity=college albo landuse=education w zale\u017cno\u015bci od tego, jakie plac\u00f3wki wchodz\u0105 w sk\u0142ad zespo\u0142u. Sprawd\u017a, kiedy stosowa\u0107 amenity=* a kiedy landuse=education.",
                "note": "Children RSPO: 3030;22635;79154;89095;89101"
            }
        },
        {
            "id": 3030,
            "type": "Feature",
            "geometry": {
                "type": "Point",
                "coordinates": [
                    19.1960799,
                    50.032219999999995
                ]
            },
            "properties": {
                "ref:rspo": 3030,
                "official_name": "Centrum Kszta\u0142cenia Zawodowego w O\u015bwi\u0119cimiu",
                "name": "Centrum Kszta\u0142cenia Zawodowego w O\u015bwi\u0119cimiu",
                "addr:country": "PL",
                "addr:postcode": "32-600",
                "addr:city": "O\u015bwi\u0119cim",
                "addr:street": "ul. Stanis\u0142awy Leszczy\u0144skiej",
                "addr:housenumber": "8",
                "addr:teryt:simc": 10880,
                "addr:teryt:sym_ul": 924997,
                "contact:phone": "+48 338431680",
                "contact:email": "sekretariat@ozety.edu.pl",
                "contact:website": "http:\/\/ozety.edu.pl",
                "ref:regon": "356855674",
                "ref:vatin": "PL5492196602",
                "operator": "Powiat O\u015bwi\u0119cimski",
                "operator:type": "government",
                "fixme": "w zale\u017cno\u015bci od przedmiotu dzia\u0142alno\u015bci (np. amenity=training + training=*, amenity=dancing_school, amenity=language_school, amenity=music_school) albo amenity=school, amenity=college, albo landuse=education w zale\u017cno\u015bci od tego, jakie plac\u00f3wki wchodz\u0105 w sk\u0142ad zespo\u0142u. Sprawd\u017a, kiedy stosowa\u0107 amenity=* a kiedy landuse=education.",
                "note": "Parent RSPO: 134002"
            }
        },
        {
            "id": 22635,
            "type": "Feature",
            "geometry": {
                "type": "Point",
                "coordinates": [
                    19.1960799,
                    50.03219
                ]
            },
            "properties": {
                "isced:level": "3",
                "ref:rspo": 22635,
                "official_name": "Bran\u017cowa Szko\u0142a I Stopnia Nr 2 w O\u015bwi\u0119cimiu",
                "name": "Bran\u017cowa Szko\u0142a I Stopnia Nr 2 w O\u015bwi\u0119cimiu",
                "addr:country": "PL",
                "addr:postcode": "32-600",
                "addr:city": "O\u015bwi\u0119cim",
                "addr:street": "ul. Stanis\u0142awy Leszczy\u0144skiej",
                "addr:housenumber": "8",
                "addr:teryt:simc": 10880,
                "addr:teryt:sym_ul": 924997,
                "contact:phone": "+48 338431680",
                "contact:email": "sekretariat@ozety.edu.pl",
                "contact:website": "http:\/\/ozety.edu.pl",
                "ref:regon": "356730814",
                "operator": "Powiat O\u015bwi\u0119cimski",
                "operator:type": "government",
                "amenity": "school",
                "note": "Parent RSPO: 134002"
            }
        },
        {
            "id": 79154,
            "type": "Feature",
            "geometry": {
                "type": "Point",
                "coordinates": [
                    19.1960799,
                    50.03216
                ]
            },
            "properties": {
                "isced:level": "3",
                "ref:rspo": 79154,
                "official_name": "Iii Liceum Og\u00f3lnokszta\u0142c\u0105ce w O\u015bwi\u0119cimiu",
                "name": "Iii Liceum Og\u00f3lnokszta\u0142c\u0105ce w O\u015bwi\u0119cimiu",
                "addr:country": "PL",
                "addr:postcode": "32-600",
                "addr:city": "O\u015bwi\u0119cim",
                "addr:street": "ul. Stanis\u0142awy Leszczy\u0144skiej",
                "addr:housenumber": "8",
                "addr:teryt:simc": 10880,
                "addr:teryt:sym_ul": 924997,
                "contact:phone": "+48 338431680",
                "contact:email": "sekretariat@ozety.edu.pl",
                "contact:website": "http:\/\/ozety.edu.pl",
                "ref:regon": "356725049",
                "operator": "Powiat O\u015bwi\u0119cimski",
                "operator:type": "government",
                "amenity": "school",
                "note": "Parent RSPO: 134002"
            }
        },
        {
            "id": 89095,
            "type": "Feature",
            "geometry": {
                "type": "Point",
                "coordinates": [
                    19.1960799,
                    50.032129999999995
                ]
            },
            "properties": {
                "isced:level": "3",
                "ref:rspo": 89095,
                "official_name": "Technikum Nr 2 w O\u015bwi\u0119cimiu",
                "name": "Technikum Nr 2 w O\u015bwi\u0119cimiu",
                "addr:country": "PL",
                "addr:postcode": "32-600",
                "addr:city": "O\u015bwi\u0119cim",
                "addr:street": "ul. Stanis\u0142awy Leszczy\u0144skiej",
                "addr:housenumber": "8",
                "addr:teryt:simc": 10880,
                "addr:teryt:sym_ul": 924997,
                "contact:phone": "+48 338431680",
                "contact:email": "sekretariat@ozety.edu.pl",
                "contact:website": "http:\/\/ozety.edu.pl",
                "ref:regon": "356725061",
                "operator": "Powiat O\u015bwi\u0119cimski",
                "operator:type": "government",
                "amenity": "school",
                "note": "Parent RSPO: 134002"
            }
        },
        {
            "id": 89101,
            "type": "Feature",
            "geometry": {
                "type": "Point",
                "coordinates": [
                    19.1960799,
                    50.0321
                ]
            },
            "properties": {
                "isced:level": "4",
                "ref:rspo": 89101,
                "official_name": "Szko\u0142a Policealna Nr 2 w O\u015bwi\u0119cimiu",
                "name": "Szko\u0142a Policealna Nr 2 w O\u015bwi\u0119cimiu",
                "addr:country": "PL",
                "addr:postcode": "32-600",
                "addr:city": "O\u015bwi\u0119cim",
                "addr:street": "ul. Stanis\u0142awy Leszczy\u0144skiej",
                "addr:housenumber": "8",
                "addr:teryt:simc": 10880,
                "addr:teryt:sym_ul": 924997,
                "contact:phone": "+48 338431680",
                "contact:email": "sekretariat@ozety.edu.pl",
                "contact:website": "http:\/\/ozety.edu.pl",
                "ref:regon": "356725003",
                "operator": "Powiat O\u015bwi\u0119cimski",
                "operator:type": "government",
                "amenity": "college",
                "note": "Parent RSPO: 134002"
            }
        },
        {
            "id": 3002,
            "type": "Feature",
            "geometry": {
                "type": "Point",
                "coordinates": [
                    19.23493,
                    50.0325
                ]
            },
            "properties": {
                "ref:rspo": 3002,
                "official_name": "M\u0142odzie\u017cowy Dom Kultury w O\u015bwi\u0119cimiu",
                "name": "M\u0142odzie\u017cowy Dom Kultury w O\u015bwi\u0119cimiu",
                "addr:country": "PL",
                "addr:postcode": "32-602",
                "addr:city": "O\u015bwi\u0119cim",
                "addr:street": "ul. Karola Olszewskiego",
                "addr:housenumber": "1",
                "addr:teryt:simc": 15008,
                "addr:teryt:sym_ul": 924997,
                "contact:phone": "+48 338424264",
                "contact:email": "sekretariat.mdk@powiat.oswiecim.pl",
                "contact:website": "http:\/\/www.mdkoswiecim.pl",
                "ref:regon": "000747160",
                "operator": "Powiat O\u015bwi\u0119cimski",
                "operator:type": "government",
                "amenity": "community_centre",
                "community_centre:for": "juvenile"
            }
        },
        {
            "id": 41930,
            "type": "Feature",
            "geometry": {
                "type": "Point",
                "coordinates": [
                    19.23288,
                    50.03271
                ]
            },
            "properties": {
                "ref:rspo": 41930,
                "official_name": "Miejskie Przedszkole Nr 16",
                "name": "Miejskie Przedszkole Nr 16",
                "addr:country": "PL",
                "addr:postcode": "32-602",
                "addr:city": "O\u015bwi\u0119cim",
                "addr:street": "ul. Stanis\u0142awa Pilata",
                "addr:housenumber": "1",
                "addr:teryt:simc": 16216,
                "addr:teryt:sym_ul": 924997,
                "contact:phone": "+48 338423431",
                "contact:email": "mp16@eduoswiecim.pl",
                "contact:website": "http:\/\/mp16.eduoswiecim.pl",
                "ref:regon": "071009900",
                "ref:vatin": "PL5492097550",
                "operator": "Miasto O\u015bwi\u0119cim",
                "operator:type": "government",
                "amenity": "kindergarten"
            }
        },
        {
            "id": 25121,
            "type": "Feature",
            "geometry": {
                "type": "Point",
                "coordinates": [
                    19.20501,
                    50.0334
                ]
            },
            "properties": {
                "isced:level": "1;2",
                "ref:rspo": 25121,
                "official_name": "Szko\u0142a Podstawowa Specjalna w O\u015bwi\u0119cimiu",
                "name": "Szko\u0142a Podstawowa Specjalna w O\u015bwi\u0119cimiu",
                "addr:country": "PL",
                "addr:postcode": "32-600",
                "addr:city": "O\u015bwi\u0119cim",
                "addr:street": "ul. Obozowa",
                "addr:housenumber": "40",
                "addr:teryt:simc": 14599,
                "addr:teryt:sym_ul": 924997,
                "contact:phone": "+48 338422147",
                "contact:email": "soswobozowa40@o2.pl",
                "contact:website": "http:\/\/www.sosw-oswiecim.edu.pl",
                "ref:regon": "356737348",
                "operator": "Powiat O\u015bwi\u0119cimski",
                "operator:type": "government",
                "amenity": "school",
                "note": "Parent RSPO: 23111"
            }
        },
        {
            "id": 41934,
            "type": "Feature",
            "geometry": {
                "type": "Point",
                "coordinates": [
                    19.24245,
                    50.03375
                ]
            },
            "properties": {
                "isced:level": "1;2",
                "ref:rspo": 41934,
                "official_name": "Szko\u0142a Podstawowa Sportowa Z Oddzia\u0142ami Mistrzostwa Sportowego Nr 8 im. Marii Sk\u0142odowskiej-Curie w O\u015bwi\u0119cimiu",
                "name": "Szko\u0142a Podstawowa Sportowa Z Oddzia\u0142ami Mistrzostwa Sportowego Nr 8",
                "addr:country": "PL",
                "addr:postcode": "32-602",
                "addr:city": "O\u015bwi\u0119cim",
                "addr:street": "ul. Aleja Juliusza S\u0142owackiego",
                "addr:housenumber": "41",
                "addr:teryt:simc": 36348,
                "addr:teryt:sym_ul": 924997,
                "contact:phone": "+48 338423954",
                "contact:email": "sekretariatsp8@eduoswiecim.pl",
                "contact:website": "http:\/\/sp8oswiecim.edu.pl",
                "ref:regon": "356574389",
                "ref:vatin": "PL5491342496",
                "operator": "Miasto O\u015bwi\u0119cim",
                "operator:type": "government",
                "amenity": "school"
            }
        },
        {
            "id": 41927,
            "type": "Feature",
            "geometry": {
                "type": "Point",
                "coordinates": [
                    19.20593,
                    50.03386
                ]
            },
            "properties": {
                "ref:rspo": 41927,
                "official_name": "Miejskie Przedszkole Nr 17",
                "name": "Miejskie Przedszkole Nr 17",
                "addr:country": "PL",
                "addr:postcode": "32-600",
                "addr:city": "O\u015bwi\u0119cim",
                "addr:street": "ul. Aleksandra Or\u0142owskiego",
                "addr:housenumber": "102",
                "addr:teryt:simc": 15178,
                "addr:teryt:sym_ul": 924997,
                "contact:phone": "+48 338431102",
                "contact:email": "mp17@eduoswiecim.pl",
                "contact:website": "http:\/\/radosna17oswiecim.pl",
                "ref:regon": "071009916",
                "ref:vatin": "PL5492097567",
                "operator": "Miasto O\u015bwi\u0119cim",
                "operator:type": "government",
                "amenity": "kindergarten"
            }
        },
        {
            "id": 60834,
            "type": "Feature",
            "geometry": {
                "type": "Point",
                "coordinates": [
                    19.23905,
                    50.03393
                ]
            },
            "properties": {
                "ref:rspo": 60834,
                "official_name": "Niepubliczne \u201eT\u0119czowe Przedszkole\u201d Urszula Gworek",
                "name": "Niepubliczne \u201eT\u0119czowe Przedszkole\u201d Urszula Gworek",
                "addr:country": "PL",
                "addr:postcode": "32-600",
                "addr:city": "O\u015bwi\u0119cim",
                "addr:street": "ul. Zygmunta Wr\u00f3blewskiego",
                "addr:housenumber": "1",
                "addr:teryt:simc": 24840,
                "addr:teryt:sym_ul": 924997,
                "contact:phone": "+48 338422706",
                "contact:email": "info@teczowe-przedszkole.pl",
                "contact:website": "http:\/\/teczowe-przedszkole.pl",
                "ref:regon": "122691975",
                "ref:vatin": "PL5491402815",
                "operator": "Urszula Gworek",
                "operator:type": "private",
                "amenity": "kindergarten"
            }
        },
        {
            "id": 20868,
            "type": "Feature",
            "geometry": {
                "type": "Point",
                "coordinates": [
                    19.20394,
                    50.03482
                ]
            },
            "properties": {
                "ref:rspo": 20868,
                "official_name": "Powiatowy Zesp\u00f3\u0142 Nr 4 Szk\u00f3\u0142 Ekonomiczno-Gastronomicznych im. Komisji Edukacji Narodowej w O\u015bwi\u0119cimiu",
                "name": "Powiatowy Zesp\u00f3\u0142 Nr 4 Szk\u00f3\u0142 Ekonomiczno-Gastronomicznych",
                "addr:country": "PL",
                "addr:postcode": "32-600",
                "addr:city": "O\u015bwi\u0119cim",
                "addr:street": "ul. Obozowa",
                "addr:housenumber": "39",
                "addr:teryt:simc": 14599,
                "addr:teryt:sym_ul": 924997,
                "contact:phone": "+48 338432515",
                "contact:email": "sekretariat.pz4@powiat.oswiecim.pl",
                "contact:website": "http:\/\/www.pz4seg.pl",
                "ref:regon": "000183590",
                "operator": "Powiat O\u015bwi\u0119cimski",
                "operator:type": "government",
                "landuse": "education",
                "fixme": "amenity=school, amenity=college albo landuse=education w zale\u017cno\u015bci od tego, jakie plac\u00f3wki wchodz\u0105 w sk\u0142ad zespo\u0142u. Sprawd\u017a, kiedy stosowa\u0107 amenity=* a kiedy landuse=education.",
                "note": "Children RSPO: 21940;21952;22004"
            }
        },
        {
            "id": 21940,
            "type": "Feature",
            "geometry": {
                "type": "Point",
                "coordinates": [
                    19.20394,
                    50.03479
                ]
            },
            "properties": {
                "isced:level": "3",
                "ref:rspo": 21940,
                "official_name": "Technikum Nr III w O\u015bwi\u0119cimiu",
                "name": "Technikum Nr III w O\u015bwi\u0119cimiu",
                "addr:country": "PL",
                "addr:postcode": "32-600",
                "addr:city": "O\u015bwi\u0119cim",
                "addr:street": "ul. Obozowa",
                "addr:housenumber": "39",
                "addr:teryt:simc": 14599,
                "addr:teryt:sym_ul": 924997,
                "contact:phone": "+48 338432515",
                "contact:email": "sekretariat@pz4seg.pl",
                "contact:website": "http:\/\/www.pz4seg.pl",
                "ref:regon": "356726592",
                "operator": "Powiat O\u015bwi\u0119cimski",
                "operator:type": "government",
                "amenity": "school",
                "note": "Parent RSPO: 20868"
            }
        },
        {
            "id": 21952,
            "type": "Feature",
            "geometry": {
                "type": "Point",
                "coordinates": [
                    19.20394,
                    50.034760000000006
                ]
            },
            "properties": {
                "isced:level": "3",
                "ref:rspo": 21952,
                "official_name": "Bran\u017cowa Szko\u0142a I Stopnia Nr I w O\u015bwi\u0119cimiu",
                "name": "Bran\u017cowa Szko\u0142a I Stopnia Nr I w O\u015bwi\u0119cimiu",
                "addr:country": "PL",
                "addr:postcode": "32-600",
                "addr:city": "O\u015bwi\u0119cim",
                "addr:street": "ul. Obozowa",
                "addr:housenumber": "39",
                "addr:teryt:simc": 14599,
                "addr:teryt:sym_ul": 924997,
                "contact:phone": "+48 338432515",
                "contact:email": "sekretariat@pz4seg.pl",
                "contact:website": "http:\/\/www.pz4seg.pl",
                "ref:regon": "356726600",
                "operator": "Powiat O\u015bwi\u0119cimski",
                "operator:type": "government",
                "amenity": "school",
                "note": "Parent RSPO: 20868"
            }
        },
        {
            "id": 22004,
            "type": "Feature",
            "geometry": {
                "type": "Point",
                "coordinates": [
                    19.20394,
                    50.03473
                ]
            },
            "properties": {
                "isced:level": "4",
                "ref:rspo": 22004,
                "official_name": "Szko\u0142a Policealna Nr III w O\u015bwi\u0119cimiu",
                "name": "Szko\u0142a Policealna Nr III w O\u015bwi\u0119cimiu",
                "addr:country": "PL",
                "addr:postcode": "32-600",
                "addr:city": "O\u015bwi\u0119cim",
                "addr:street": "ul. Obozowa",
                "addr:housenumber": "39",
                "addr:teryt:simc": 14599,
                "addr:teryt:sym_ul": 924997,
                "contact:phone": "+48 338432515",
                "contact:email": "sekretariat@pz4seg.pl",
                "contact:website": "http:\/\/www.pz4seg.pl",
                "ref:regon": "356726630",
                "operator": "Powiat O\u015bwi\u0119cimski",
                "operator:type": "government",
                "amenity": "college",
                "note": "Parent RSPO: 20868"
            }
        },
        {
            "id": 60545,
            "type": "Feature",
            "geometry": {
                "type": "Point",
                "coordinates": [
                    19.23579,
                    50.0349
                ]
            },
            "properties": {
                "ref:rspo": 60545,
                "official_name": "Niepubliczne Przedszkole \u201eBajka\u201d Barbara G\u0142ozak",
                "name": "Niepubliczne Przedszkole \u201eBajka\u201d Barbara G\u0142ozak",
                "addr:country": "PL",
                "addr:postcode": "32-600",
                "addr:city": "O\u015bwi\u0119cim",
                "addr:street": "ul. Bronis\u0142awa Czecha",
                "addr:housenumber": "6",
                "addr:teryt:simc": 3333,
                "addr:teryt:sym_ul": 924997,
                "contact:phone": "+48 338422394",
                "contact:email": "bajka_n_p@vip.interia.pl",
                "contact:website": "http:\/\/bajkaoswiecim.com.pl",
                "ref:regon": "122691917",
                "ref:vatin": "PL5491399332",
                "operator": "Barbara G\u0142ozak",
                "operator:type": "private",
                "amenity": "kindergarten"
            }
        },
        {
            "id": 23775,
            "type": "Feature",
            "geometry": {
                "type": "Point",
                "coordinates": [
                    19.2226,
                    50.03526
                ]
            },
            "properties": {
                "isced:level": "1;2",
                "ref:rspo": 23775,
                "official_name": "Szko\u0142a Podstawowa Nr 1 im. Kr\u00f3lowej Jadwigi w O\u015bwi\u0119cimiu",
                "name": "Szko\u0142a Podstawowa Nr 1",
                "addr:country": "PL",
                "addr:postcode": "32-600",
                "addr:city": "O\u015bwi\u0119cim",
                "addr:street": "ul. Kr\u00f3lowej Jadwigi",
                "addr:housenumber": "12",
                "addr:teryt:simc": 10003,
                "addr:teryt:sym_ul": 924997,
                "contact:phone": "+48 338425468",
                "contact:email": "sekretariat@sp1oswiecim.pl",
                "contact:website": "http:\/\/sp1oswiecim.edupage.org",
                "ref:regon": "070431820",
                "ref:vatin": "PL5491025790",
                "operator": "Miasto O\u015bwi\u0119cim",
                "operator:type": "government",
                "amenity": "school"
            }
        },
        {
            "id": 3578,
            "type": "Feature",
            "geometry": {
                "type": "Point",
                "coordinates": [
                    19.19604,
                    50.0359399
                ]
            },
            "properties": {
                "ref:rspo": 3578,
                "official_name": "Spo\u0142eczna Szko\u0142a Zarz\u0105dzania I Handlu",
                "name": "Spo\u0142eczna Szko\u0142a Zarz\u0105dzania I Handlu",
                "addr:country": "PL",
                "addr:postcode": "32-600",
                "addr:city": "O\u015bwi\u0119cim",
                "addr:street": "ul. Stanis\u0142awy Leszczy\u0144skiej",
                "addr:housenumber": "7",
                "addr:teryt:simc": 10880,
                "addr:teryt:sym_ul": 924997,
                "contact:phone": "+48 384375475",
                "contact:email": "szih@szih.pl",
                "contact:website": "http:\/\/www.szih.pl",
                "ref:regon": "122647715",
                "operator": "Stowarzyszenie Na Rzecz Szko\u0142y Zarz\u0105dzania I Handlu W O\u015bwi\u0119cimiu",
                "operator:type": "ngo",
                "fixme": "w zale\u017cno\u015bci od przedmiotu dzia\u0142alno\u015bci (np. amenity=training + training=*, amenity=dancing_school, amenity=language_school, amenity=music_school)"
            }
        },
        {
            "id": 23111,
            "type": "Feature",
            "geometry": {
                "type": "Point",
                "coordinates": [
                    19.2049958,
                    50.0360736
                ]
            },
            "properties": {
                "ref:rspo": 23111,
                "official_name": "Specjalny O\u015brodek Szkolno-Wychowawczy w O\u015bwi\u0119cimiu im. Zofii Posmysz",
                "name": "Specjalny O\u015brodek Szkolno-Wychowawczy w O\u015bwi\u0119cimiu",
                "addr:country": "PL",
                "addr:postcode": "32-600",
                "addr:city": "O\u015bwi\u0119cim",
                "addr:street": "ul. Obozowa",
                "addr:housenumber": "31",
                "addr:teryt:simc": 14599,
                "addr:teryt:sym_ul": 924997,
                "contact:phone": "+48 338422147",
                "contact:email": "sekretariat.sosw@powiat.oswiecim.pl",
                "contact:website": "http:\/\/www.sosw-oswiecim.edu.pl",
                "ref:regon": "000745326",
                "ref:vatin": "PL5491217532",
                "operator": "Powiat O\u015bwi\u0119cimski",
                "operator:type": "government",
                "amenity": "school",
                "note": "Children RSPO: 25121;25141;122005"
            }
        },
        {
            "id": 25141,
            "type": "Feature",
            "geometry": {
                "type": "Point",
                "coordinates": [
                    19.2049958,
                    50.0360436
                ]
            },
            "properties": {
                "ref:rspo": 25141,
                "official_name": "Szko\u0142a Specjana Przysposabiaj\u0105ca Do Pracy w O\u015bwi\u0119cimiu",
                "name": "Szko\u0142a Specjana Przysposabiaj\u0105ca Do Pracy w O\u015bwi\u0119cimiu",
                "addr:country": "PL",
                "addr:postcode": "32-600",
                "addr:city": "O\u015bwi\u0119cim",
                "addr:street": "ul. Obozowa",
                "addr:housenumber": "31",
                "addr:teryt:simc": 14599,
                "addr:teryt:sym_ul": 924997,
                "contact:phone": "+48 338422147",
                "contact:email": "sekretariat.sosw@powiat.oswiecim.pl",
                "contact:website": "http:\/\/www.sosw-oswiecim.edu.pl",
                "ref:regon": "356858767",
                "operator": "Powiat O\u015bwi\u0119cimski",
                "operator:type": "government",
                "amenity": "school",
                "note": "Parent RSPO: 23111"
            }
        },
        {
            "id": 122005,
            "type": "Feature",
            "geometry": {
                "type": "Point",
                "coordinates": [
                    19.2049958,
                    50.036013600000004
                ]
            },
            "properties": {
                "isced:level": "3",
                "ref:rspo": 122005,
                "official_name": "Bran\u017cowa Szko\u0142a I Stopnia Specjalna w O\u015bwi\u0119cimiu",
                "name": "Bran\u017cowa Szko\u0142a I Stopnia Specjalna w O\u015bwi\u0119cimiu",
                "addr:country": "PL",
                "addr:postcode": "32-600",
                "addr:city": "O\u015bwi\u0119cim",
                "addr:street": "ul. Obozowa",
                "addr:housenumber": "31",
                "addr:teryt:simc": 14599,
                "addr:teryt:sym_ul": 924997,
                "contact:phone": "+48 338422147",
                "contact:email": "sekretariat.sosw@powiat.oswiecim.pl",
                "contact:website": "http:\/\/www.sosw-oswiecim.edu.pl",
                "ref:regon": "356737450",
                "operator": "Powiat O\u015bwi\u0119cimski",
                "operator:type": "government",
                "amenity": "school",
                "note": "Parent RSPO: 23111"
            }
        },
        {
            "id": 23117,
            "type": "Feature",
            "geometry": {
                "type": "Point",
                "coordinates": [
                    19.2202957,
                    50.0362316
                ]
            },
            "properties": {
                "ref:rspo": 23117,
                "official_name": "Zesp\u00f3\u0142 Szk\u00f3\u0142 Zawodowych Towarzystwa Salezja\u0144skiego w O\u015bwi\u0119cimiu",
                "name": "Zesp\u00f3\u0142 Szk\u00f3\u0142 Zawodowych Towarzystwa Salezja\u0144skiego w O\u015bwi\u0119cimiu",
                "addr:country": "PL",
                "addr:postcode": "32-600",
                "addr:city": "O\u015bwi\u0119cim",
                "addr:street": "ul. W\u0142adys\u0142awa Jagie\u0142\u0142y",
                "addr:housenumber": "10",
                "addr:teryt:simc": 24494,
                "addr:teryt:sym_ul": 924997,
                "contact:phone": "+48 338443464",
                "contact:email": "szkola@salezjanie.edu.pl",
                "contact:website": "http:\/\/www.salezjanie.edu.pl",
                "ref:regon": "122676651",
                "operator": "Towarzystwo Salezja\u0144skie Inspektoria Krakowska P.w. \u015aw.jacka",
                "operator:type": "religious",
                "landuse": "education",
                "fixme": "amenity=school, amenity=college albo landuse=education w zale\u017cno\u015bci od tego, jakie plac\u00f3wki wchodz\u0105 w sk\u0142ad zespo\u0142u. Sprawd\u017a, kiedy stosowa\u0107 amenity=* a kiedy landuse=education.",
                "note": "Children RSPO: 30229;30250;30298;30378;125096"
            }
        },
        {
            "id": 30229,
            "type": "Feature",
            "geometry": {
                "type": "Point",
                "coordinates": [
                    19.2202957,
                    50.0362016
                ]
            },
            "properties": {
                "isced:level": "3",
                "ref:rspo": 30229,
                "official_name": "Salezja\u0144skie Publiczne Liceum Og\u00f3lnokszta\u0142c\u0105ce w O\u015bwi\u0119cimiu",
                "name": "Salezja\u0144skie Publiczne Liceum Og\u00f3lnokszta\u0142c\u0105ce w O\u015bwi\u0119cimiu",
                "addr:country": "PL",
                "addr:postcode": "32-600",
                "addr:city": "O\u015bwi\u0119cim",
                "addr:street": "ul. W\u0142adys\u0142awa Jagie\u0142\u0142y",
                "addr:housenumber": "10",
                "addr:teryt:simc": 24494,
                "addr:teryt:sym_ul": 924997,
                "contact:phone": "+48 338443464",
                "contact:email": "szkola@salezjanie.edu.pl",
                "contact:website": "http:\/\/www.salezjanie.edu.pl",
                "ref:regon": "122685348",
                "operator": "Towarzystwo Salezja\u0144skie Inspektoria Krakowska P.w. \u015aw.jacka",
                "operator:type": "religious",
                "amenity": "school",
                "note": "Parent RSPO: 23117"
            }
        },
        {
            "id": 30250,
            "type": "Feature",
            "geometry": {
                "type": "Point",
                "coordinates": [
                    19.2202957,
                    50.0361716
                ]
            },
            "properties": {
                "isced:level": "3",
                "ref:rspo": 30250,
                "official_name": "Salezja\u0144skie Publiczne Technikum w O\u015bwi\u0119cimiu",
                "name": "Salezja\u0144skie Publiczne Technikum w O\u015bwi\u0119cimiu",
                "addr:country": "PL",
                "addr:postcode": "32-600",
                "addr:city": "O\u015bwi\u0119cim",
                "addr:street": "ul. W\u0142adys\u0142awa Jagie\u0142\u0142y",
                "addr:housenumber": "10",
                "addr:teryt:simc": 24494,
                "addr:teryt:sym_ul": 924997,
                "contact:phone": "+48 338443464",
                "contact:email": "szkola@salezjanie.edu.pl",
                "contact:website": "http:\/\/www.salezjanie.edu.pl",
                "ref:regon": "122685414",
                "operator": "Towarzystwo Salezja\u0144skie Inspektoria Krakowska P.w. \u015aw.jacka",
                "operator:type": "religious",
                "amenity": "school",
                "note": "Parent RSPO: 23117"
            }
        },
        {
            "id": 30298,
            "type": "Feature",
            "geometry": {
                "type": "Point",
                "coordinates": [
                    19.2202957,
                    50.0361416
                ]
            },
            "properties": {
                "isced:level": "3",
                "ref:rspo": 30298,
                "official_name": "Salezja\u0144ska Publiczna Bran\u017cowa Szko\u0142a I Stopnia",
                "name": "Salezja\u0144ska Publiczna Bran\u017cowa Szko\u0142a I Stopnia",
                "addr:country": "PL",
                "addr:postcode": "32-600",
                "addr:city": "O\u015bwi\u0119cim",
                "addr:street": "ul. W\u0142adys\u0142awa Jagie\u0142\u0142y",
                "addr:housenumber": "10",
                "addr:teryt:simc": 24494,
                "addr:teryt:sym_ul": 924997,
                "contact:phone": "+48 338443464",
                "contact:email": "szkola@salezjanie.edu.pl",
                "contact:website": "http:\/\/www.salezjanie.edu.pl",
                "ref:regon": "122685489",
                "operator": "Towarzystwo Salezja\u0144skie Inspektoria Krakowska P.w. \u015aw.jacka",
                "operator:type": "religious",
                "amenity": "school",
                "note": "Parent RSPO: 23117"
            }
        },
        {
            "id": 30378,
            "type": "Feature",
            "geometry": {
                "type": "Point",
                "coordinates": [
                    19.2202957,
                    50.0361116
                ]
            },
            "properties": {
                "ref:rspo": 30378,
                "official_name": "Internat Salezja\u0144ski w O\u015bwi\u0119cimiu",
                "name": "Internat Salezja\u0144ski w O\u015bwi\u0119cimiu",
                "addr:country": "PL",
                "addr:postcode": "32-600",
                "addr:city": "O\u015bwi\u0119cim",
                "addr:street": "ul. W\u0142adys\u0142awa Jagie\u0142\u0142y",
                "addr:housenumber": "10",
                "addr:teryt:simc": 24494,
                "addr:teryt:sym_ul": 924997,
                "contact:phone": "+48 338443464",
                "contact:email": "szkola@salezjanie.edu.pl",
                "contact:website": "http:\/\/www.salezjanie.edu.pl",
                "ref:regon": "122685532",
                "operator": "Towarzystwo Salezja\u0144skie Inspektoria Krakowska P.w. \u015aw.jacka",
                "operator:type": "religious",
                "building": "dormitory",
                "note": "Parent RSPO: 23117"
            }
        },
        {
            "id": 125096,
            "type": "Feature",
            "geometry": {
                "type": "Point",
                "coordinates": [
                    19.2202957,
                    50.0360816
                ]
            },
            "properties": {
                "ref:rspo": 125096,
                "official_name": "Salezja\u0144skie Centrum Kszta\u0142cenia Ustawicznego",
                "name": "Salezja\u0144skie Centrum Kszta\u0142cenia Ustawicznego",
                "addr:country": "PL",
                "addr:postcode": "32-600",
                "addr:city": "O\u015bwi\u0119cim",
                "addr:street": "ul. W\u0142adys\u0142awa Jagie\u0142\u0142y",
                "addr:housenumber": "10",
                "addr:teryt:simc": 24494,
                "addr:teryt:sym_ul": 924997,
                "contact:phone": "+48 338443464",
                "contact:email": "szkola@salezjanie.edu.pl",
                "ref:regon": "123210222",
                "operator": "Towarzystwo Salezja\u0144skie Inspektoria Krakowska P.w. \u015aw.jacka",
                "operator:type": "religious",
                "fixme": "w zale\u017cno\u015bci od przedmiotu dzia\u0142alno\u015bci (np. amenity=training + training=*, amenity=dancing_school, amenity=language_school, amenity=music_school)",
                "note": "Parent RSPO: 23117"
            }
        },
        {
            "id": 40600,
            "type": "Feature",
            "geometry": {
                "type": "Point",
                "coordinates": [
                    19.24133,
                    50.0364
                ]
            },
            "properties": {
                "ref:rspo": 40600,
                "official_name": "Miejskie Przedszkole Nr 14 Z Oddzia\u0142ami Integracyjnymi I Oddzia\u0142em Specjalnym",
                "name": "Miejskie Przedszkole Nr 14 Z Oddzia\u0142ami Integracyjnymi I Oddzia\u0142em Specjalnym",
                "addr:country": "PL",
                "addr:postcode": "32-602",
                "addr:city": "O\u015bwi\u0119cim",
                "addr:street": "ul. W\u0142adys\u0142awa Broniewskiego",
                "addr:housenumber": "12",
                "addr:teryt:simc": 2125,
                "addr:teryt:sym_ul": 924997,
                "contact:phone": "+48 338423725",
                "contact:email": "mp14@eduoswiecim.pl",
                "contact:website": "http:\/\/mp14.eduoswiecim.pl",
                "ref:regon": "071009945",
                "ref:vatin": "PL5492097538",
                "operator": "Miasto O\u015bwi\u0119cim",
                "operator:type": "government",
                "amenity": "kindergarten"
            }
        },
        {
            "id": 23776,
            "type": "Feature",
            "geometry": {
                "type": "Point",
                "coordinates": [
                    19.2398,
                    50.03654
                ]
            },
            "properties": {
                "isced:level": "1;2",
                "ref:rspo": 23776,
                "official_name": "Szko\u0142a Podstawowa Z Oddzia\u0142ami Integracyjnymi Nr 4 im. Stanis\u0142awa Wyspia\u0144skiego w O\u015bwi\u0119cimiu",
                "name": "Szko\u0142a Podstawowa Z Oddzia\u0142ami Integracyjnymi Nr 4",
                "addr:country": "PL",
                "addr:postcode": "32-600",
                "addr:city": "O\u015bwi\u0119cim",
                "addr:street": "ul. J\u0119drzeja \u015aniadeckiego",
                "addr:housenumber": "26",
                "addr:teryt:simc": 22387,
                "addr:teryt:sym_ul": 924997,
                "contact:phone": "+48 338422124",
                "contact:email": "sekretariatsp4@eduoswiecim.pl",
                "contact:website": "http:\/\/www.sp4oswiecim.pl",
                "ref:regon": "070431866",
                "ref:vatin": "PL5491025560",
                "operator": "Miasto O\u015bwi\u0119cim",
                "operator:type": "government",
                "amenity": "school"
            }
        },
        {
            "id": 23841,
            "type": "Feature",
            "geometry": {
                "type": "Point",
                "coordinates": [
                    19.20402,
                    50.03667
                ]
            },
            "properties": {
                "isced:level": "1;2",
                "ref:rspo": 23841,
                "official_name": "Szko\u0142a Podstawowa Nr 5 im. Or\u0142a Bia\u0142ego w O\u015bwi\u0119cimiu",
                "name": "Szko\u0142a Podstawowa Nr 5",
                "addr:country": "PL",
                "addr:postcode": "32-600",
                "addr:city": "O\u015bwi\u0119cim",
                "addr:street": "ul. Eugeniusza Kalici\u0144skiego",
                "addr:housenumber": "5",
                "addr:teryt:simc": 7798,
                "addr:teryt:sym_ul": 924997,
                "contact:phone": "+48 338430551",
                "contact:email": "sekretariat@sp5oswiecim.info",
                "contact:website": "http:\/\/sp5oswiecim.info",
                "ref:regon": "070431872",
                "ref:vatin": "PL5491025637",
                "operator": "Miasto O\u015bwi\u0119cim",
                "operator:type": "government",
                "amenity": "school"
            }
        },
        {
            "id": 24610,
            "type": "Feature",
            "geometry": {
                "type": "Point",
                "coordinates": [
                    19.23459,
                    50.03669
                ]
            },
            "properties": {
                "ref:rspo": 24610,
                "official_name": "Miejskie Przedszkole Nr 15",
                "name": "Miejskie Przedszkole Nr 15",
                "addr:country": "PL",
                "addr:postcode": "32-600",
                "addr:city": "O\u015bwi\u0119cim",
                "addr:street": "ul. Budowlanych",
                "addr:housenumber": "43",
                "addr:teryt:simc": 2337,
                "addr:teryt:sym_ul": 924997,
                "contact:phone": "+48 338424635",
                "contact:email": "dyrekcjamp15@gmail.com",
                "contact:website": "http:\/\/mp15oswiecim.pl",
                "ref:regon": "071009891",
                "ref:vatin": "PL5492097544",
                "operator": "Miasto O\u015bwi\u0119cim",
                "operator:type": "government",
                "amenity": "kindergarten"
            }
        },
        {
            "id": 28702,
            "type": "Feature",
            "geometry": {
                "type": "Point",
                "coordinates": [
                    19.2338099,
                    50.03676
                ]
            },
            "properties": {
                "isced:level": "1;2",
                "ref:rspo": 28702,
                "official_name": "Szko\u0142a Podstawowa Nr 9 im. Or\u0119downik\u00f3w Pokoju w O\u015bwi\u0119cimiu",
                "name": "Szko\u0142a Podstawowa Nr 9",
                "addr:country": "PL",
                "addr:postcode": "32-602",
                "addr:city": "O\u015bwi\u0119cim",
                "addr:street": "ul. Budowlanych",
                "addr:housenumber": "68",
                "addr:teryt:simc": 2337,
                "addr:teryt:sym_ul": 924997,
                "contact:phone": "+48 338423123",
                "contact:email": "sp9@eduoswiecim.pl",
                "contact:website": "http:\/\/sp9oswiecim.pl",
                "ref:regon": "070431926",
                "ref:vatin": "PL5491032784",
                "operator": "Miasto O\u015bwi\u0119cim",
                "operator:type": "government",
                "amenity": "school"
            }
        },
        {
            "id": 61373,
            "type": "Feature",
            "geometry": {
                "type": "Point",
                "coordinates": [
                    19.20314,
                    50.0374
                ]
            },
            "properties": {
                "ref:rspo": 61373,
                "official_name": "Niepubliczne Przedszkole \u201ePromyczek\u201d Joanna Fajferek",
                "name": "Niepubliczne Przedszkole \u201ePromyczek\u201d Joanna Fajferek",
                "addr:country": "PL",
                "addr:postcode": "32-600",
                "addr:city": "O\u015bwi\u0119cim",
                "addr:street": "ul. Powsta\u0144c\u00f3w Warszawy",
                "addr:housenumber": "1a",
                "addr:teryt:simc": 17372,
                "addr:teryt:sym_ul": 924997,
                "contact:phone": "+48 338432630",
                "contact:email": "promyczekorg@wp.pl",
                "contact:website": "http:\/\/promyczek.org",
                "ref:regon": "122692035",
                "ref:vatin": "PL5491401230",
                "operator": "Joanna Fajferek",
                "operator:type": "private",
                "amenity": "kindergarten"
            }
        },
        {
            "id": 2901,
            "type": "Feature",
            "geometry": {
                "type": "Point",
                "coordinates": [
                    19.22205,
                    50.03804
                ]
            },
            "properties": {
                "isced:level": "4",
                "ref:rspo": 2901,
                "official_name": "Szko\u0142a Policealna Administracji \"\u017bak\" w O\u015bwi\u0119cimiu",
                "name": "Szko\u0142a Policealna Administracji \"\u017bak\" w O\u015bwi\u0119cimiu",
                "addr:country": "PL",
                "addr:postcode": "32-600",
                "addr:city": "O\u015bwi\u0119cim",
                "addr:street": "rynek G\u0142\u00f3wny",
                "addr:housenumber": "8",
                "addr:teryt:simc": 5637,
                "addr:teryt:sym_ul": 924997,
                "contact:phone": "+48 338440587",
                "contact:email": "oswiecim@zak.edu.pl",
                "contact:website": "http:\/\/www.zak.edu.pl",
                "ref:regon": "122633015",
                "operator": "Centrum Nauki I Biznesu \"\u017bak\" Sp\u00f3\u0142ka Z Ograniczon\u0105 Odpowiedzialno\u015bci\u0105",
                "operator:type": "private",
                "amenity": "college"
            }
        },
        {
            "id": 23345,
            "type": "Feature",
            "geometry": {
                "type": "Point",
                "coordinates": [
                    19.22205,
                    50.03801
                ]
            },
            "properties": {
                "isced:level": "4",
                "ref:rspo": 23345,
                "official_name": "Szko\u0142a Policealna Bezpiecze\u0144stwa I Higieny Pracy \"\u017bak\" w O\u015bwi\u0119cimiu",
                "name": "Szko\u0142a Policealna Bezpiecze\u0144stwa I Higieny Pracy \"\u017bak\" w O\u015bwi\u0119cimiu",
                "addr:country": "PL",
                "addr:postcode": "32-600",
                "addr:city": "O\u015bwi\u0119cim",
                "addr:street": "rynek G\u0142\u00f3wny",
                "addr:housenumber": "8",
                "addr:teryt:simc": 5637,
                "addr:teryt:sym_ul": 924997,
                "contact:phone": "+48 338440587",
                "contact:email": "oswiecim@zak.edu.pl",
                "contact:website": "http:\/\/www.zak.edu.pl",
                "ref:regon": "122676409",
                "operator": "Centrum Nauki I Biznesu \"\u017bak\" Sp\u00f3\u0142ka Z Ograniczon\u0105 Odpowiedzialno\u015bci\u0105",
                "operator:type": "private",
                "amenity": "college"
            }
        },
        {
            "id": 23368,
            "type": "Feature",
            "geometry": {
                "type": "Point",
                "coordinates": [
                    19.22205,
                    50.037980000000005
                ]
            },
            "properties": {
                "isced:level": "4",
                "ref:rspo": 23368,
                "official_name": "Szko\u0142a Policealna Kosmetyczna \"\u017bak\" w O\u015bwi\u0119cimiu",
                "name": "Szko\u0142a Policealna Kosmetyczna \"\u017bak\" w O\u015bwi\u0119cimiu",
                "addr:country": "PL",
                "addr:postcode": "32-600",
                "addr:city": "O\u015bwi\u0119cim",
                "addr:street": "rynek G\u0142\u00f3wny",
                "addr:housenumber": "8",
                "addr:teryt:simc": 5637,
                "addr:teryt:sym_ul": 924997,
                "contact:phone": "+48 338440587",
                "contact:email": "oswiecim@zak.edu.pl",
                "ref:regon": "122676473",
                "operator": "Centrum Nauki I Biznesu \"\u017bak\" Sp\u00f3\u0142ka Z Ograniczon\u0105 Odpowiedzialno\u015bci\u0105",
                "operator:type": "private",
                "amenity": "college"
            }
        },
        {
            "id": 23690,
            "type": "Feature",
            "geometry": {
                "type": "Point",
                "coordinates": [
                    19.22205,
                    50.03795
                ]
            },
            "properties": {
                "isced:level": "4",
                "ref:rspo": 23690,
                "official_name": "Szko\u0142a Policealna Centrum Nauki I Biznesu \"\u017bak\" w O\u015bwi\u0119cimiu",
                "name": "Szko\u0142a Policealna Centrum Nauki I Biznesu \"\u017bak\" w O\u015bwi\u0119cimiu",
                "addr:country": "PL",
                "addr:postcode": "32-600",
                "addr:city": "O\u015bwi\u0119cim",
                "addr:street": "rynek G\u0142\u00f3wny",
                "addr:housenumber": "8",
                "addr:teryt:simc": 5637,
                "addr:teryt:sym_ul": 924997,
                "contact:phone": "+48 338440587",
                "contact:email": "oswiecim@zak.edu.pl",
                "contact:website": "http:\/\/www.zak.edu.pl",
                "ref:regon": "122676467",
                "operator": "Centrum Nauki I Biznesu \"\u017bak\" Sp\u00f3\u0142ka Z Ograniczon\u0105 Odpowiedzialno\u015bci\u0105",
                "operator:type": "private",
                "amenity": "college"
            }
        },
        {
            "id": 23779,
            "type": "Feature",
            "geometry": {
                "type": "Point",
                "coordinates": [
                    19.22205,
                    50.03792
                ]
            },
            "properties": {
                "isced:level": "3",
                "ref:rspo": 23779,
                "official_name": "Liceum Og\u00f3lnokszta\u0142c\u0105ce dla Doros\u0142ych \"\u017bak\" w O\u015bwi\u0119cimiu",
                "name": "Liceum Og\u00f3lnokszta\u0142c\u0105ce dla Doros\u0142ych \"\u017bak\" w O\u015bwi\u0119cimiu",
                "addr:country": "PL",
                "addr:postcode": "32-600",
                "addr:city": "O\u015bwi\u0119cim",
                "addr:street": "rynek G\u0142\u00f3wny",
                "addr:housenumber": "8",
                "addr:teryt:simc": 5637,
                "addr:teryt:sym_ul": 924997,
                "contact:phone": "+48 338440587",
                "contact:email": "oswiecim@zak.edu.pl",
                "contact:website": "http:\/\/www.zak.edu.pl",
                "ref:regon": "122676616",
                "operator": "Centrum Nauki I Biznesu \"\u017bak\" Sp\u00f3\u0142ka Z Ograniczon\u0105 Odpowiedzialno\u015bci\u0105",
                "operator:type": "private",
                "amenity": "school"
            }
        },
        {
            "id": 23785,
            "type": "Feature",
            "geometry": {
                "type": "Point",
                "coordinates": [
                    19.22205,
                    50.037890000000004
                ]
            },
            "properties": {
                "ref:rspo": 23785,
                "official_name": "O\u015brodek Szkoleniowy Centrum Nauki I Biznesu \"\u017bak' w O\u015bwi\u0119cimiu",
                "name": "O\u015brodek Szkoleniowy Centrum Nauki I Biznesu \"\u017bak' w O\u015bwi\u0119cimiu",
                "addr:country": "PL",
                "addr:postcode": "32-600",
                "addr:city": "O\u015bwi\u0119cim",
                "addr:street": "rynek G\u0142\u00f3wny",
                "addr:housenumber": "8",
                "addr:teryt:simc": 5637,
                "addr:teryt:sym_ul": 924997,
                "contact:phone": "+48 338440587",
                "contact:email": "oswiecim@zak.edu.pl",
                "ref:regon": "122676622",
                "operator": "Centrum Nauki I Biznesu \"\u017bak\" Sp\u00f3\u0142ka Z Ograniczon\u0105 Odpowiedzialno\u015bci\u0105",
                "operator:type": "private",
                "fixme": "w zale\u017cno\u015bci od przedmiotu dzia\u0142alno\u015bci (np. amenity=training + training=*, amenity=dancing_school, amenity=language_school, amenity=music_school)"
            }
        },
        {
            "id": 127446,
            "type": "Feature",
            "geometry": {
                "type": "Point",
                "coordinates": [
                    19.22205,
                    50.03786
                ]
            },
            "properties": {
                "isced:level": "4",
                "ref:rspo": 127446,
                "official_name": "Szko\u0142a Policealna Opieki Medycznej \"\u017bak\" w O\u015bwi\u0119cimiu",
                "name": "Szko\u0142a Policealna Opieki Medycznej \"\u017bak\" w O\u015bwi\u0119cimiu",
                "addr:country": "PL",
                "addr:postcode": "32-600",
                "addr:city": "O\u015bwi\u0119cim",
                "addr:street": "rynek G\u0142\u00f3wny",
                "addr:housenumber": "8",
                "addr:teryt:simc": 5637,
                "addr:teryt:sym_ul": 924997,
                "contact:phone": "+48 338440587",
                "contact:email": "oswiecim@zak.edu.pl",
                "contact:website": "http:\/\/www.oswiecim.zak.edu.pl",
                "ref:regon": "361599307",
                "operator": "Centrum Nauki I Biznesu \"\u017bak\" Sp\u00f3\u0142ka Z Ograniczon\u0105 Odpowiedzialno\u015bci\u0105",
                "operator:type": "private",
                "amenity": "college"
            }
        },
        {
            "id": 127458,
            "type": "Feature",
            "geometry": {
                "type": "Point",
                "coordinates": [
                    19.22205,
                    50.03783
                ]
            },
            "properties": {
                "isced:level": "4",
                "ref:rspo": 127458,
                "official_name": "Szko\u0142a Policealna Medyczna \"\u017bak\" w O\u015bwi\u0119cimiu",
                "name": "Szko\u0142a Policealna Medyczna \"\u017bak\" w O\u015bwi\u0119cimiu",
                "addr:country": "PL",
                "addr:postcode": "32-600",
                "addr:city": "O\u015bwi\u0119cim",
                "addr:street": "rynek G\u0142\u00f3wny",
                "addr:housenumber": "8",
                "addr:teryt:simc": 5637,
                "addr:teryt:sym_ul": 924997,
                "contact:phone": "+48 338440587",
                "contact:email": "oswiecim@zak.edu.pl",
                "contact:website": "http:\/\/www.oswiecim.zak.edu.pl",
                "ref:regon": "361616112",
                "operator": "Centrum Nauki I Biznesu \"\u017bak\" Sp\u00f3\u0142ka Z Ograniczon\u0105 Odpowiedzialno\u015bci\u0105",
                "operator:type": "private",
                "amenity": "college"
            }
        },
        {
            "id": 41938,
            "type": "Feature",
            "geometry": {
                "type": "Point",
                "coordinates": [
                    19.2267,
                    50.0383
                ]
            },
            "properties": {
                "ref:rspo": 41938,
                "official_name": "Przedszkole Nr 8 im. Jana Paw\u0142a II Prowadzone Przez Siostry Serafitki",
                "name": "Przedszkole Nr 8",
                "addr:country": "PL",
                "addr:postcode": "32-600",
                "addr:city": "O\u015bwi\u0119cim",
                "addr:street": "ul. gen. Jaros\u0142awa D\u0105browskiego",
                "addr:housenumber": "14",
                "addr:teryt:simc": 3676,
                "addr:teryt:sym_ul": 924997,
                "contact:phone": "+48 338423320",
                "contact:email": "przedsznr8@bielsko.opoka.org.pl",
                "contact:website": "http:\/\/przedsznr8bielsko.opoka.org",
                "ref:regon": "122689197",
                "ref:vatin": "PL5491579821",
                "operator": "Zgromadzenie C\u00f3rek Matki Bo\u017cej Bolesnej (Siostry Serafitki) Prowincja O\u015bwi\u0119cimska",
                "operator:type": "religious",
                "amenity": "kindergarten"
            }
        },
        {
            "id": 3031,
            "type": "Feature",
            "geometry": {
                "type": "Point",
                "coordinates": [
                    19.233909606934,
                    50.038318634033
                ]
            },
            "properties": {
                "ref:rspo": 3031,
                "official_name": "Poradnia Psychologiczno-Pedagogiczna w O\u015bwi\u0119cimiu",
                "name": "Poradnia Psychologiczno-Pedagogiczna w O\u015bwi\u0119cimiu",
                "addr:country": "PL",
                "addr:postcode": "32-600",
                "addr:city": "O\u015bwi\u0119cim",
                "addr:street": "ul. gen. J\u00f3zefa Bema",
                "addr:housenumber": "4",
                "addr:teryt:simc": 1014,
                "addr:teryt:sym_ul": 924997,
                "contact:phone": "+48 338431162",
                "contact:email": "info@poradnia-oswiecim.pl",
                "contact:website": "http:\/\/www.poradnia-oswiecim.pl",
                "ref:regon": "000745591",
                "ref:vatin": "PL5492053191",
                "operator": "Powiat O\u015bwi\u0119cimski",
                "operator:type": "government",
                "healthcare": "counselling",
                "counselling_type": "education",
                "fixme": "w zale\u017cno\u015bci od przedmiotu dzia\u0142alno\u015bci (np. healthcare=counselling + counselling_type=education albo healthcare=psychotherapist)"
            }
        },
        {
            "id": 20859,
            "type": "Feature",
            "geometry": {
                "type": "Point",
                "coordinates": [
                    19.233909606934,
                    50.038288634032995
                ]
            },
            "properties": {
                "ref:rspo": 20859,
                "official_name": "Powiatowy Zesp\u00f3\u0142 Nr 2 Szk\u00f3\u0142 Og\u00f3lnokszta\u0142c\u0105cych Mistrzostwa Sportowego I Technicznych im. Ignacego \u0141ukasiewicza w O\u015bwi\u0119cimiu",
                "name": "Powiatowy Zesp\u00f3\u0142 Nr 2 Szk\u00f3\u0142 Og\u00f3lnokszta\u0142c\u0105cych Mistrzostwa Sportowego I Technicznych",
                "addr:country": "PL",
                "addr:postcode": "32-602",
                "addr:city": "O\u015bwi\u0119cim",
                "addr:street": "ul. gen. J\u00f3zefa Bema",
                "addr:housenumber": "8",
                "addr:teryt:simc": 1014,
                "addr:teryt:sym_ul": 924997,
                "contact:phone": "+48 338424567",
                "contact:email": "sekretariat@pz2.edu.pl",
                "contact:website": "http:\/\/www.pz2.edu.pl",
                "ref:regon": "357067967",
                "ref:vatin": "PL5491066145",
                "operator": "Powiat O\u015bwi\u0119cimski",
                "operator:type": "government",
                "landuse": "education",
                "fixme": "amenity=school, amenity=college albo landuse=education w zale\u017cno\u015bci od tego, jakie plac\u00f3wki wchodz\u0105 w sk\u0142ad zespo\u0142u. Sprawd\u017a, kiedy stosowa\u0107 amenity=* a kiedy landuse=education.",
                "note": "Children RSPO: 21832;21857;21904"
            }
        },
        {
            "id": 24925,
            "type": "Feature",
            "geometry": {
                "type": "Point",
                "coordinates": [
                    19.233909606934,
                    50.038258634033
                ]
            },
            "properties": {
                "ref:rspo": 24925,
                "official_name": "Pedagogiczna Biblioteka Wojew\u00f3dzka im. Hugona Ko\u0142\u0142\u0105taja w Krakowie Filia w O\u015bwi\u0119cimiu",
                "name": "Pedagogiczna Biblioteka Wojew\u00f3dzka",
                "addr:country": "PL",
                "addr:postcode": "32-600",
                "addr:city": "O\u015bwi\u0119cim",
                "addr:street": "ul. gen. J\u00f3zefa Bema",
                "addr:housenumber": "4",
                "addr:teryt:simc": 1014,
                "addr:teryt:sym_ul": 924997,
                "contact:phone": "+48 338424593",
                "contact:email": "biblioteka@pbw.oswiecim.pl",
                "contact:website": "http:\/\/pbw.oswiecim.pl",
                "ref:regon": "197729000",
                "operator": "Wojew\u00f3dztwo Ma\u0142opolskie",
                "operator:type": "government",
                "amenity": "library",
                "note": "Parent RSPO: 19644"
            }
        },
        {
            "id": 21832,
            "type": "Feature",
            "geometry": {
                "type": "Point",
                "coordinates": [
                    19.233909606934,
                    50.038228634033
                ]
            },
            "properties": {
                "isced:level": "3",
                "ref:rspo": 21832,
                "official_name": "Ii Liceum Og\u00f3lnokszta\u0142c\u0105ce Mistrzostwa Sportowego w O\u015bwi\u0119cimiu",
                "name": "Ii Liceum Og\u00f3lnokszta\u0142c\u0105ce Mistrzostwa Sportowego w O\u015bwi\u0119cimiu",
                "addr:country": "PL",
                "addr:postcode": "32-602",
                "addr:city": "O\u015bwi\u0119cim",
                "addr:street": "ul. gen. J\u00f3zefa Bema",
                "addr:housenumber": "8",
                "addr:teryt:simc": 1014,
                "addr:teryt:sym_ul": 924997,
                "contact:phone": "+48 338424567",
                "contact:email": "sekretariat@pz2.edu.pl",
                "contact:website": "http:\/\/www.pz2.edu.pl",
                "ref:regon": "356725894",
                "operator": "Powiat O\u015bwi\u0119cimski",
                "operator:type": "government",
                "amenity": "school",
                "note": "Parent RSPO: 20859"
            }
        },
        {
            "id": 21857,
            "type": "Feature",
            "geometry": {
                "type": "Point",
                "coordinates": [
                    19.233909606934,
                    50.038198634032995
                ]
            },
            "properties": {
                "isced:level": "3",
                "ref:rspo": 21857,
                "official_name": "Technikum Nr 1 w O\u015bwi\u0119cimiu",
                "name": "Technikum Nr 1 w O\u015bwi\u0119cimiu",
                "addr:country": "PL",
                "addr:postcode": "32-602",
                "addr:city": "O\u015bwi\u0119cim",
                "addr:street": "ul. gen. J\u00f3zefa Bema",
                "addr:housenumber": "8",
                "addr:teryt:simc": 1014,
                "addr:teryt:sym_ul": 924997,
                "contact:phone": "+48 338424567",
                "contact:email": "sekretariat@pz2.edu.pl",
                "contact:website": "http:\/\/www.pz2.edu.pl",
                "ref:regon": "356725842",
                "operator": "Powiat O\u015bwi\u0119cimski",
                "operator:type": "government",
                "amenity": "school",
                "note": "Parent RSPO: 20859"
            }
        },
        {
            "id": 21904,
            "type": "Feature",
            "geometry": {
                "type": "Point",
                "coordinates": [
                    19.233909606934,
                    50.038168634033
                ]
            },
            "properties": {
                "isced:level": "4",
                "ref:rspo": 21904,
                "official_name": "Szko\u0142a Policealna Nr I w O\u015bwi\u0119cimiu",
                "name": "Szko\u0142a Policealna Nr I w O\u015bwi\u0119cimiu",
                "addr:country": "PL",
                "addr:postcode": "32-602",
                "addr:city": "O\u015bwi\u0119cim",
                "addr:street": "ul. gen. J\u00f3zefa Bema",
                "addr:housenumber": "8",
                "addr:teryt:simc": 1014,
                "addr:teryt:sym_ul": 924997,
                "contact:phone": "+48 338424567",
                "contact:website": "http:\/\/www.pz2.edu.pl",
                "ref:regon": "356726014",
                "operator": "Powiat O\u015bwi\u0119cimski",
                "operator:type": "government",
                "amenity": "college",
                "note": "Parent RSPO: 20859"
            }
        },
        {
            "id": 23290,
            "type": "Feature",
            "geometry": {
                "type": "Point",
                "coordinates": [
                    19.22075,
                    50.03869
                ]
            },
            "properties": {
                "ref:rspo": 23290,
                "official_name": "Centrum Szkolenia Atut w O\u015bwi\u0119cimiu",
                "name": "Centrum Szkolenia Atut w O\u015bwi\u0119cimiu",
                "addr:country": "PL",
                "addr:postcode": "32-600",
                "addr:city": "O\u015bwi\u0119cim",
                "addr:street": "rynek G\u0142\u00f3wny",
                "addr:housenumber": "15",
                "addr:teryt:simc": 5637,
                "addr:teryt:sym_ul": 924997,
                "contact:phone": "+48 338442276",
                "contact:email": "atut@atut.edu.pl",
                "ref:regon": "122676728",
                "operator": "Stowarzyszenie Inicjatyw Edukacyjnych W O\u015bwi\u0119cimiu",
                "operator:type": "ngo",
                "fixme": "w zale\u017cno\u015bci od przedmiotu dzia\u0142alno\u015bci (np. amenity=training + training=*, amenity=dancing_school, amenity=language_school, amenity=music_school)"
            }
        },
        {
            "id": 278970,
            "type": "Feature",
            "geometry": {
                "type": "Point",
                "coordinates": [
                    19.20891,
                    50.03955
                ]
            },
            "properties": {
                "isced:level": "1;2",
                "ref:rspo": 278970,
                "official_name": "Niepubliczna Szko\u0142a Podstawowa Fundacji \u015awi\u0119tego J\u00f3zefa",
                "name": "Niepubliczna Szko\u0142a Podstawowa Fundacji \u015awi\u0119tego J\u00f3zefa",
                "addr:country": "PL",
                "addr:postcode": "32-600",
                "addr:city": "O\u015bwi\u0119cim",
                "addr:street": "ul. Jana Kili\u0144skiego",
                "addr:housenumber": "15",
                "addr:teryt:simc": 8435,
                "addr:teryt:sym_ul": 924997,
                "contact:email": "magdamartastepien@gmail.com",
                "ref:regon": "520319561",
                "operator": "Fundacja \u015awi\u0119tego J\u00f3zefa",
                "operator:type": "ngo",
                "amenity": "school"
            }
        },
        {
            "id": 107329,
            "type": "Feature",
            "geometry": {
                "type": "Point",
                "coordinates": [
                    19.2001199,
                    50.03983
                ]
            },
            "properties": {
                "ref:rspo": 107329,
                "official_name": "Akademia Zawodowa Agnieszka Piechoci\u0144ska",
                "name": "Akademia Zawodowa Agnieszka Piechoci\u0144ska",
                "addr:country": "PL",
                "addr:postcode": "32-610",
                "addr:city": "O\u015bwi\u0119cim",
                "addr:street": "ul. Wyzwolenia",
                "addr:housenumber": "3",
                "addr:teryt:simc": 25133,
                "addr:teryt:sym_ul": 924997,
                "contact:phone": "+48 338431971",
                "contact:email": "sekretariat@akademiazawodowa.pl",
                "contact:website": "http:\/\/www.akademiazawodowa.pl",
                "ref:regon": "122763870",
                "operator": "Agnieszka Piechoci\u0144ska",
                "operator:type": "private",
                "landuse": "education",
                "fixme": "amenity=school, amenity=college albo landuse=education w zale\u017cno\u015bci od tego, jakie plac\u00f3wki wchodz\u0105 w sk\u0142ad zespo\u0142u. Sprawd\u017a, kiedy stosowa\u0107 amenity=* a kiedy landuse=education.",
                "note": "Children RSPO: 2894;24054;24064;24070;30825"
            }
        },
        {
            "id": 127447,
            "type": "Feature",
            "geometry": {
                "type": "Point",
                "coordinates": [
                    19.2001199,
                    50.0398
                ]
            },
            "properties": {
                "ref:rspo": 127447,
                "official_name": "Akademia Ktszta\u0142cenia Ustawicznego",
                "name": "Akademia Ktszta\u0142cenia Ustawicznego",
                "addr:country": "PL",
                "addr:postcode": "32-610",
                "addr:city": "O\u015bwi\u0119cim",
                "addr:street": "ul. Wyzwolenia",
                "addr:housenumber": "3",
                "addr:teryt:simc": 25133,
                "addr:teryt:sym_ul": 924997,
                "contact:phone": "+48 338431971",
                "contact:email": "sekretariat@akademiazawodowa.pl",
                "contact:website": "http:\/\/www.akademiazawodowa.pl",
                "ref:regon": "361600387",
                "operator": "Agnieszka Piechoci\u0144ska",
                "operator:type": "private",
                "fixme": "w zale\u017cno\u015bci od przedmiotu dzia\u0142alno\u015bci (np. amenity=training + training=*, amenity=dancing_school, amenity=language_school, amenity=music_school)"
            }
        },
        {
            "id": 133611,
            "type": "Feature",
            "geometry": {
                "type": "Point",
                "coordinates": [
                    19.2001199,
                    50.039770000000004
                ]
            },
            "properties": {
                "isced:level": "1;2",
                "ref:rspo": 133611,
                "official_name": "Szko\u0142a Podstawowa Nr 7 im. Zofii Kossak w O\u015bwi\u0119cimiu",
                "name": "Szko\u0142a Podstawowa Nr 7",
                "addr:country": "PL",
                "addr:postcode": "32-600",
                "addr:city": "O\u015bwi\u0119cim",
                "addr:street": "ul. Wyzwolenia",
                "addr:housenumber": "3",
                "addr:teryt:simc": 25133,
                "addr:teryt:sym_ul": 924997,
                "contact:phone": "+48 338432563",
                "contact:email": "sp7sekretariat@eduoswiecim.pl",
                "contact:website": "http:\/\/sp7oswiecim.edu.pl",
                "ref:regon": "367483267",
                "ref:vatin": "PL5492448357",
                "operator": "Miasto O\u015bwi\u0119cim",
                "operator:type": "government",
                "amenity": "school"
            }
        },
        {
            "id": 2894,
            "type": "Feature",
            "geometry": {
                "type": "Point",
                "coordinates": [
                    19.2001199,
                    50.03974
                ]
            },
            "properties": {
                "isced:level": "4",
                "ref:rspo": 2894,
                "official_name": "Policealne Studium Medyczne w O\u015bwi\u0119cimiu",
                "name": "Policealne Studium Medyczne w O\u015bwi\u0119cimiu",
                "addr:country": "PL",
                "addr:postcode": "32-610",
                "addr:city": "O\u015bwi\u0119cim",
                "addr:street": "ul. Wyzwolenia",
                "addr:housenumber": "3",
                "addr:teryt:simc": 25133,
                "addr:teryt:sym_ul": 924997,
                "contact:phone": "+48 338431971",
                "contact:email": "sekretariat@akademiazawodowa.pl",
                "ref:regon": "122632978",
                "operator": "Agnieszka Piechoci\u0144ska",
                "operator:type": "private",
                "amenity": "college",
                "note": "Parent RSPO: 107329"
            }
        },
        {
            "id": 24054,
            "type": "Feature",
            "geometry": {
                "type": "Point",
                "coordinates": [
                    19.2001199,
                    50.03971
                ]
            },
            "properties": {
                "isced:level": "4",
                "ref:rspo": 24054,
                "official_name": "Policealne Studium Zarz\u0105dzania I Marketingu w O\u015bwi\u0119cimiu",
                "name": "Policealne Studium Zarz\u0105dzania I Marketingu w O\u015bwi\u0119cimiu",
                "addr:country": "PL",
                "addr:postcode": "32-600",
                "addr:city": "O\u015bwi\u0119cim",
                "addr:street": "ul. Wyzwolenia",
                "addr:housenumber": "3",
                "addr:teryt:simc": 25133,
                "addr:teryt:sym_ul": 924997,
                "contact:phone": "+48 338431971",
                "contact:email": "sekretariat@akademiazawodowa.pl",
                "contact:website": "http:\/\/www.akademiazawodowa.pl",
                "ref:regon": "122677142",
                "operator": "Agnieszka Piechoci\u0144ska",
                "operator:type": "private",
                "amenity": "college",
                "note": "Parent RSPO: 107329"
            }
        },
        {
            "id": 24064,
            "type": "Feature",
            "geometry": {
                "type": "Point",
                "coordinates": [
                    19.2001199,
                    50.039680000000004
                ]
            },
            "properties": {
                "isced:level": "3",
                "ref:rspo": 24064,
                "official_name": "Liceum Og\u00f3lnokszta\u0142c\u0105ce dla Doros\u0142ych w O\u015bwi\u0119cimiu",
                "name": "Liceum Og\u00f3lnokszta\u0142c\u0105ce dla Doros\u0142ych w O\u015bwi\u0119cimiu",
                "addr:country": "PL",
                "addr:postcode": "32-600",
                "addr:city": "O\u015bwi\u0119cim",
                "addr:street": "ul. Wyzwolenia",
                "addr:housenumber": "3",
                "addr:teryt:simc": 25133,
                "addr:teryt:sym_ul": 924997,
                "contact:phone": "+48 338431971",
                "contact:email": "sekretariat@akademiazawodowa.pl",
                "contact:website": "http:\/\/www.akademiazawodowa.pl",
                "ref:regon": "122677060",
                "operator": "Agnieszka Piechoci\u0144ska",
                "operator:type": "private",
                "amenity": "school",
                "note": "Parent RSPO: 107329"
            }
        },
        {
            "id": 24070,
            "type": "Feature",
            "geometry": {
                "type": "Point",
                "coordinates": [
                    19.2001199,
                    50.03965
                ]
            },
            "properties": {
                "isced:level": "4",
                "ref:rspo": 24070,
                "official_name": "Ii Policealne Studium Medyczne w O\u015bwi\u0119cimiu",
                "name": "Ii Policealne Studium Medyczne w O\u015bwi\u0119cimiu",
                "addr:country": "PL",
                "addr:postcode": "32-600",
                "addr:city": "O\u015bwi\u0119cim",
                "addr:street": "ul. Wyzwolenia",
                "addr:housenumber": "3",
                "addr:teryt:simc": 25133,
                "addr:teryt:sym_ul": 924997,
                "contact:phone": "+48 338431971",
                "contact:email": "sekretariat@akademiazawodowa.pl",
                "contact:website": "http:\/\/www.akademiazawodowa.pl",
                "ref:regon": "122675410",
                "operator": "Agnieszka Piechoci\u0144ska",
                "operator:type": "private",
                "amenity": "college",
                "note": "Parent RSPO: 107329"
            }
        },
        {
            "id": 30825,
            "type": "Feature",
            "geometry": {
                "type": "Point",
                "coordinates": [
                    19.2001199,
                    50.03962
                ]
            },
            "properties": {
                "isced:level": "4",
                "ref:rspo": 30825,
                "official_name": "Policealne Studium Kosmetyki I Wiza\u017cu w O\u015bwi\u0119cimiu",
                "name": "Policealne Studium Kosmetyki I Wiza\u017cu w O\u015bwi\u0119cimiu",
                "addr:country": "PL",
                "addr:postcode": "32-600",
                "addr:city": "O\u015bwi\u0119cim",
                "addr:street": "ul. Wyzwolenia",
                "addr:housenumber": "3",
                "addr:teryt:simc": 25133,
                "addr:teryt:sym_ul": 924997,
                "contact:phone": "+48 338431971",
                "contact:email": "sekretariat@akademiazawodowa.pl",
                "contact:website": "http:\/\/www.akademiazawodowa.pl",
                "ref:regon": "122683177",
                "operator": "Agnieszka Piechoci\u0144ska",
                "operator:type": "private",
                "amenity": "college",
                "note": "Parent RSPO: 107329"
            }
        },
        {
            "id": 75598,
            "type": "Feature",
            "geometry": {
                "type": "Point",
                "coordinates": [
                    19.23297,
                    50.04002
                ]
            },
            "properties": {
                "ref:rspo": 75598,
                "official_name": "Pa\u0144stwowa Szko\u0142a Muzyczna I St. im. Karola Szymanowskiego w O\u015bwi\u0119cimiu",
                "name": "Pa\u0144stwowa Szko\u0142a Muzyczna I St.",
                "addr:country": "PL",
                "addr:postcode": "32-600",
                "addr:city": "O\u015bwi\u0119cim",
                "addr:street": "ul. Wysokie Brzegi",
                "addr:housenumber": "1",
                "addr:teryt:simc": 25075,
                "addr:teryt:sym_ul": 924997,
                "contact:phone": "+48 338422214",
                "contact:email": "sekretariat@psm-oswiecim.pl",
                "contact:website": "http:\/\/psm-oswiecim.pl",
                "ref:regon": "000277977",
                "operator": "Ministerstwo Kultury I Dziedzictwa Narodowego",
                "operator:type": "public",
                "amenity": "music_school"
            }
        },
        {
            "id": 133601,
            "type": "Feature",
            "geometry": {
                "type": "Point",
                "coordinates": [
                    19.22473,
                    50.04071
                ]
            },
            "properties": {
                "isced:level": "1;2",
                "ref:rspo": 133601,
                "official_name": "Szko\u0142a Podstawowa Nr 3 im. Klementyny Ta\u0144skiej-Hoffmanowej w O\u015bwi\u0119cimiu",
                "name": "Szko\u0142a Podstawowa Nr 3",
                "addr:country": "PL",
                "addr:postcode": "32-600",
                "addr:city": "O\u015bwi\u0119cim",
                "addr:street": "ul. Ignacego Krasickiego",
                "addr:housenumber": "16",
                "addr:teryt:simc": 9830,
                "addr:teryt:sym_ul": 924997,
                "contact:phone": "+48 338423122",
                "contact:email": "mg3@eduoswiecim.pl",
                "contact:website": "http:\/\/sp3osw.pl",
                "ref:regon": "367471761",
                "ref:vatin": "PL5492448340",
                "operator": "Miasto O\u015bwi\u0119cim",
                "operator:type": "government",
                "amenity": "school"
            }
        },
        {
            "id": 62128,
            "type": "Feature",
            "geometry": {
                "type": "Point",
                "coordinates": [
                    19.20517,
                    50.0412
                ]
            },
            "properties": {
                "ref:rspo": 62128,
                "official_name": "Niepubliczne Przedszkole Ekologiczne \u201eBajkowy Dworek\u201d Ludmi\u0142a Mitek-Parcer",
                "name": "Niepubliczne Przedszkole Ekologiczne \u201eBajkowy Dworek\u201d Ludmi\u0142a Mitek-Parcer",
                "addr:country": "PL",
                "addr:postcode": "32-600",
                "addr:city": "O\u015bwi\u0119cim",
                "addr:street": "ul. Boles\u0142awa Prusa",
                "addr:housenumber": "1",
                "addr:teryt:simc": 17577,
                "addr:teryt:sym_ul": 924997,
                "contact:phone": "+48 338485858",
                "contact:email": "biuro@bajkowy-dworek.pl",
                "contact:website": "http:\/\/bajkowy-dworek.pl",
                "ref:regon": "122693075",
                "ref:vatin": "PL5491369087",
                "operator": "Ludmi\u0142a Mitek-Parcer",
                "operator:type": "private",
                "amenity": "kindergarten"
            }
        },
        {
            "id": 20842,
            "type": "Feature",
            "geometry": {
                "type": "Point",
                "coordinates": [
                    19.21121,
                    50.04466
                ]
            },
            "properties": {
                "ref:rspo": 20842,
                "official_name": "Powiatowy Zesp\u00f3\u0142 Nr 1 Szk\u00f3\u0142 Og\u00f3lnokszta\u0142c\u0105cych im. Ks. Stanis\u0142awa Konarskiego w O\u015bwi\u0119cimiu",
                "name": "Powiatowy Zesp\u00f3\u0142 Nr 1 Szk\u00f3\u0142 Og\u00f3lnokszta\u0142c\u0105cych",
                "addr:country": "PL",
                "addr:postcode": "32-600",
                "addr:city": "O\u015bwi\u0119cim",
                "addr:street": "ul. Stanis\u0142awa Konarskiego",
                "addr:housenumber": "24",
                "addr:teryt:simc": 9111,
                "addr:teryt:sym_ul": 924997,
                "contact:phone": "+48 338431456",
                "contact:email": "lo@konarski.edu.pl",
                "contact:website": "http:\/\/www.konarski.edu.pl",
                "ref:regon": "000755425",
                "operator": "Powiat O\u015bwi\u0119cimski",
                "operator:type": "government",
                "landuse": "education",
                "fixme": "amenity=school, amenity=college albo landuse=education w zale\u017cno\u015bci od tego, jakie plac\u00f3wki wchodz\u0105 w sk\u0142ad zespo\u0142u. Sprawd\u017a, kiedy stosowa\u0107 amenity=* a kiedy landuse=education.",
                "note": "Children RSPO: 21652;21802"
            }
        },
        {
            "id": 21652,
            "type": "Feature",
            "geometry": {
                "type": "Point",
                "coordinates": [
                    19.21121,
                    50.04463
                ]
            },
            "properties": {
                "isced:level": "3",
                "ref:rspo": 21652,
                "official_name": "I Liceum Og\u00f3lnokszta\u0142c\u0105ce im. Ks. Stanis\u0142awa Konarskiego w O\u015bwi\u0119cimiu",
                "name": "I Liceum Og\u00f3lnokszta\u0142c\u0105ce",
                "addr:country": "PL",
                "addr:postcode": "32-600",
                "addr:city": "O\u015bwi\u0119cim",
                "addr:street": "ul. Stanis\u0142awa Konarskiego",
                "addr:housenumber": "24",
                "addr:teryt:simc": 9111,
                "addr:teryt:sym_ul": 924997,
                "contact:phone": "+48 338431456",
                "contact:email": "lo@konarski.edu.pl",
                "contact:website": "http:\/\/www.konarski.edu.pl",
                "ref:regon": "356726155",
                "operator": "Powiat O\u015bwi\u0119cimski",
                "operator:type": "government",
                "amenity": "school",
                "note": "Parent RSPO: 20842"
            }
        },
        {
            "id": 21802,
            "type": "Feature",
            "geometry": {
                "type": "Point",
                "coordinates": [
                    19.21121,
                    50.0446
                ]
            },
            "properties": {
                "isced:level": "3",
                "ref:rspo": 21802,
                "official_name": "I Liceum Og\u00f3lnokszta\u0142c\u0105ce dla Doros\u0142ych w O\u015bwi\u0119cimiu",
                "name": "I Liceum Og\u00f3lnokszta\u0142c\u0105ce dla Doros\u0142ych w O\u015bwi\u0119cimiu",
                "addr:country": "PL",
                "addr:postcode": "32-600",
                "addr:city": "O\u015bwi\u0119cim",
                "addr:street": "ul. Stanis\u0142awa Konarskiego",
                "addr:housenumber": "24",
                "addr:teryt:simc": 9111,
                "addr:teryt:sym_ul": 924997,
                "contact:phone": "+48 338431456",
                "contact:email": "lo@konarski.edu.pl",
                "contact:website": "http:\/\/www.konarski.edu.pl",
                "ref:regon": "122672423",
                "operator": "Powiat O\u015bwi\u0119cimski",
                "operator:type": "government",
                "amenity": "school",
                "note": "Parent RSPO: 20842"
            }
        },
        {
            "id": 24626,
            "type": "Feature",
            "geometry": {
                "type": "Point",
                "coordinates": [
                    19.21498,
                    50.04695
                ]
            },
            "properties": {
                "ref:rspo": 24626,
                "official_name": "Miejskie Przedszkole Nr 18",
                "name": "Miejskie Przedszkole Nr 18",
                "addr:country": "PL",
                "addr:postcode": "32-600",
                "addr:city": "O\u015bwi\u0119cim",
                "addr:street": "ul. Andrzeja Nideckiego",
                "addr:housenumber": "24",
                "addr:teryt:simc": 14106,
                "addr:teryt:sym_ul": 924997,
                "contact:phone": "+48 338430823",
                "contact:email": "mp18@eduoswiecim.pl",
                "contact:website": "http:\/\/www.mp18oswiecim.szkolnastrona.pl",
                "ref:regon": "071009922",
                "ref:vatin": "PL5492097573",
                "operator": "Miasto O\u015bwi\u0119cim",
                "operator:type": "government",
                "amenity": "kindergarten"
            }
        },
        {
            "id": 274488,
            "type": "Feature",
            "geometry": {
                "type": "Point",
                "coordinates": [
                    19.21441,
                    50.04902
                ]
            },
            "properties": {
                "ref:rspo": 274488,
                "official_name": "Centrum Szkole\u0144 Specjalistycznych Firma Handlowo-Us\u0142ugowa Euro-Kadr Izabela Borowczyk, Marek Borowczyk S.c.",
                "name": "Centrum Szkole\u0144 Specjalistycznych Firma Handlowo-Us\u0142ugowa Euro-Kadr Izabela Borowczyk, Marek Borowczyk S.c.",
                "addr:country": "PL",
                "addr:postcode": "32-600",
                "addr:city": "O\u015bwi\u0119cim",
                "addr:street": "ul. Andrzeja Nideckiego",
                "addr:housenumber": "38",
                "addr:teryt:simc": 14106,
                "addr:teryt:sym_ul": 924997,
                "contact:phone": "+48 338423345",
                "ref:regon": "385836310",
                "operator": "Izabela Borowczyk",
                "operator:type": "private",
                "fixme": "w zale\u017cno\u015bci od przedmiotu dzia\u0142alno\u015bci (np. amenity=training + training=*, amenity=dancing_school, amenity=language_school, amenity=music_school)"
            }
        }
    ]
}