{
    "type": "FeatureCollection",
    "features": [
        {
            "id": 82373,
            "type": "Feature",
            "geometry": {
                "type": "Point",
                "coordinates": [
                    19.23538,
                    49.97954
                ]
            },
            "properties": {
                "isced:level": "1;2",
                "ref:rspo": 82373,
                "official_name": "Szko\u0142a Podstawowa im. Henryka Sienkiewicza w Grojcu",
                "name": "Szko\u0142a Podstawowa",
                "addr:postcode": "32-615",
                "addr:city": "Grojec",
                "addr:street": "Aleja Ogrodowa",
                "addr:housenumber": "2",
                "addr:city:simc": 63779,
                "addr:street:sym_ul": 14832,
                "phone": "+48 338428373",
                "email": "spgrojec@spgrojec.gminaoswiecim.pl",
                "website": "http:\/\/spgrojec.gminaoswiecim.pl",
                "ref:regon": "070465635",
                "ref:vatin": "PL5492059147",
                "operator": "Gmina O\u015bwi\u0119cim",
                "operator:type": "government",
                "amenity": "school"
            }
        },
        {
            "id": 84678,
            "type": "Feature",
            "geometry": {
                "type": "Point",
                "coordinates": [
                    19.23627,
                    49.9814
                ]
            },
            "properties": {
                "ref:rspo": 84678,
                "official_name": "Przedszkole Samorz\u0105dowe w Grojcu",
                "name": "Przedszkole Samorz\u0105dowe w Grojcu",
                "addr:postcode": "32-615",
                "addr:city": "Grojec",
                "addr:street": "G\u0142\u00f3wna",
                "addr:housenumber": "1",
                "addr:city:simc": 63779,
                "addr:street:sym_ul": 5635,
                "phone": "+48 338428225",
                "email": "psgrojec@psgrojec.gminaoswiecim.pl",
                "ref:regon": "070561066",
                "ref:vatin": "PL5492059319",
                "operator": "Gmina O\u015bwi\u0119cim",
                "operator:type": "government",
                "amenity": "kindergarten"
            }
        },
        {
            "id": 84816,
            "type": "Feature",
            "geometry": {
                "type": "Point",
                "coordinates": [
                    19.30134,
                    50.00573
                ]
            },
            "properties": {
                "isced:level": "1;2",
                "ref:rspo": 84816,
                "official_name": "Szko\u0142a Podstawowa im. Artura Grottgera w Por\u0119bie Wielkiej",
                "name": "Szko\u0142a Podstawowa",
                "addr:postcode": "32-600",
                "addr:city": "Por\u0119ba Wielka",
                "addr:street": "Wadowicka",
                "addr:housenumber": "85",
                "addr:city:simc": 63940,
                "addr:street:sym_ul": 23485,
                "phone": "+48 338428317",
                "email": "spporebawielka@spporebawielka.gminaoswiecim.pl",
                "ref:regon": "070465658",
                "ref:vatin": "PL5492059236",
                "operator": "Gmina O\u015bwi\u0119cim",
                "operator:type": "government",
                "amenity": "school"
            }
        },
        {
            "id": 82450,
            "type": "Feature",
            "geometry": {
                "type": "Point",
                "coordinates": [
                    19.19253,
                    50.00814
                ]
            },
            "properties": {
                "isced:level": "1;2",
                "ref:rspo": 82450,
                "official_name": "Szko\u0142a Podstawowa im. Jana Paw\u0142a II w Rajsku",
                "name": "Szko\u0142a Podstawowa",
                "addr:postcode": "32-600",
                "addr:city": "Rajsko",
                "addr:street": "Edukacyjna",
                "addr:housenumber": "11",
                "addr:city:simc": 64046,
                "addr:street:sym_ul": 4733,
                "phone": "+48 338431229",
                "email": "sprajsko@sprajsko.gminaoswiecim.pl",
                "website": "http:\/\/sprajsko.gminaoswiecim.pl",
                "ref:regon": "070465664",
                "ref:vatin": "PL5492059242",
                "operator": "Gmina O\u015bwi\u0119cim",
                "operator:type": "government",
                "amenity": "school"
            }
        },
        {
            "id": 84654,
            "type": "Feature",
            "geometry": {
                "type": "Point",
                "coordinates": [
                    19.28109,
                    50.01094
                ]
            },
            "properties": {
                "ref:rspo": 84654,
                "official_name": "Przedszkole Samorz\u0105dowe w Por\u0119bie Wielkiej",
                "name": "Przedszkole Samorz\u0105dowe w Por\u0119bie Wielkiej",
                "addr:postcode": "32-600",
                "addr:city": "Por\u0119ba Wielka",
                "addr:street": "Wadowicka",
                "addr:housenumber": "69",
                "addr:city:simc": 63940,
                "addr:street:sym_ul": 23485,
                "phone": "+48 338428402",
                "email": "psporebawielka@psporebawielka.gminaoswiecim.pl",
                "ref:regon": "070561089",
                "ref:vatin": "PL5492059294",
                "operator": "Gmina O\u015bwi\u0119cim",
                "operator:type": "government",
                "amenity": "kindergarten"
            }
        },
        {
            "id": 84411,
            "type": "Feature",
            "geometry": {
                "type": "Point",
                "coordinates": [
                    19.19217,
                    50.01194
                ]
            },
            "properties": {
                "ref:rspo": 84411,
                "official_name": "Przedszkole Samorz\u0105dowe w Rajsku",
                "name": "Przedszkole Samorz\u0105dowe w Rajsku",
                "addr:postcode": "32-600",
                "addr:city": "Rajsko",
                "addr:street": "Rabatkowa",
                "addr:housenumber": "2",
                "addr:city:simc": 64046,
                "addr:street:sym_ul": 18244,
                "phone": "+48 338432590",
                "email": "psrajsko@psrajsko.gminaoswiecim.pl",
                "ref:regon": "070561095",
                "ref:vatin": "PL5492059288",
                "operator": "Gmina O\u015bwi\u0119cim",
                "operator:type": "government",
                "amenity": "kindergarten"
            }
        },
        {
            "id": 123624,
            "type": "Feature",
            "geometry": {
                "type": "Point",
                "coordinates": [
                    19.18572,
                    50.01484
                ]
            },
            "properties": {
                "ref:rspo": 123624,
                "official_name": "Niepubliczne Ekologiczne Przedszkole Integracyjne Gniazdko w Rajsku",
                "name": "Niepubliczne Ekologiczne Przedszkole Integracyjne Gniazdko w Rajsku",
                "addr:postcode": "32-600",
                "addr:city": "Rajsko",
                "addr:street": "Janusza Korczaka",
                "addr:housenumber": "34",
                "addr:city:simc": 64046,
                "addr:street:sym_ul": 9329,
                "phone": "+48 338430841",
                "email": "fundacja@blizejczlowieka.org.pl",
                "ref:regon": "123166283",
                "operator": "Fundacja \"Bli\u017cej Cz\u0142owieka\"",
                "operator:type": "ngo",
                "amenity": "kindergarten"
            }
        },
        {
            "id": 84696,
            "type": "Feature",
            "geometry": {
                "type": "Point",
                "coordinates": [
                    19.2363399,
                    50.01525
                ]
            },
            "properties": {
                "ref:rspo": 84696,
                "official_name": "Przedszkole Samorz\u0105dowe im. Treflika w Zaborzu",
                "name": "Przedszkole Samorz\u0105dowe",
                "addr:postcode": "32-600",
                "addr:city": "Zaborze",
                "addr:street": "Grojecka",
                "addr:housenumber": "54",
                "addr:city:simc": 64164,
                "addr:street:sym_ul": 6167,
                "phone": "+48 338422937",
                "email": "pszaborze@pszaborze.gminaoswiecim.pl",
                "ref:regon": "070397282",
                "ref:vatin": "PL5492059265",
                "operator": "Gmina O\u015bwi\u0119cim",
                "operator:type": "government",
                "amenity": "kindergarten"
            }
        },
        {
            "id": 82509,
            "type": "Feature",
            "geometry": {
                "type": "Point",
                "coordinates": [
                    19.31608,
                    50.0175
                ]
            },
            "properties": {
                "ref:rspo": 82509,
                "official_name": "Przedszkole Samorz\u0105dowe we W\u0142osienicy",
                "name": "Przedszkole Samorz\u0105dowe we W\u0142osienicy",
                "addr:postcode": "32-642",
                "addr:city": "W\u0142osienica",
                "addr:street": "J\u00f3zefa Suskiego",
                "addr:housenumber": "35",
                "addr:city:simc": 64106,
                "addr:street:sym_ul": 21605,
                "phone": "+48 338423189",
                "email": "pswlosienica@pswlosienica.gminaoswiecim.pl",
                "website": "http:\/\/www.poczta.oswiecim-gmina.pl",
                "ref:regon": "070561103",
                "ref:vatin": "PL5492059271",
                "operator": "Gmina O\u015bwi\u0119cim",
                "operator:type": "government",
                "amenity": "kindergarten"
            }
        },
        {
            "id": 83559,
            "type": "Feature",
            "geometry": {
                "type": "Point",
                "coordinates": [
                    19.31856,
                    50.01811
                ]
            },
            "properties": {
                "isced:level": "1;2",
                "ref:rspo": 83559,
                "official_name": "Szko\u0142a Podstawowa im. J\u00f3zefa Suskiego we W\u0142osienicy",
                "name": "Szko\u0142a Podstawowa",
                "addr:postcode": "32-642",
                "addr:city": "W\u0142osienica",
                "addr:street": "J\u00f3zefa Suskiego",
                "addr:housenumber": "53",
                "addr:city:simc": 64106,
                "addr:street:sym_ul": 21605,
                "phone": "+48 338422900",
                "email": "spwlosienica@spwlosienica.gminaoswiecim.pl",
                "website": "http:\/\/www.spwlosienica.gminaoswiecim.pl",
                "ref:regon": "070465670",
                "ref:vatin": "PL5492059259",
                "operator": "Gmina O\u015bwi\u0119cim",
                "operator:type": "government",
                "amenity": "school"
            }
        },
        {
            "id": 91292,
            "type": "Feature",
            "geometry": {
                "type": "Point",
                "coordinates": [
                    19.15931,
                    50.0203
                ]
            },
            "properties": {
                "ref:rspo": 91292,
                "official_name": "Zesp\u00f3\u0142 Szkolno Przedszkolny w Harm\u0119\u017cach",
                "name": "Zesp\u00f3\u0142 Szkolno Przedszkolny w Harm\u0119\u017cach",
                "addr:postcode": "32-600",
                "addr:city": "Harm\u0119\u017ce",
                "addr:street": "Borowskiego",
                "addr:housenumber": "30",
                "addr:city:simc": 63874,
                "addr:street:sym_ul": 1867,
                "phone": "+48 338430955",
                "email": "zspharmeze@zspharmeze.gminaoswiecim.pl",
                "website": "http:\/\/www.zspharmeze.pl",
                "ref:regon": "356591956",
                "ref:vatin": "PL5492149063",
                "operator": "Gmina O\u015bwi\u0119cim",
                "operator:type": "government",
                "landuse": "education",
                "fixme": "amenity=school, amenity=college albo landuse=education w zale\u017cno\u015bci od tego, jakie plac\u00f3wki wchodz\u0105 w sk\u0142ad zespo\u0142u. Sprawd\u017a, kiedy stosowa\u0107 amenity=* a kiedy landuse=education.",
                "note": "Children RSPO: 89996;106138"
            }
        },
        {
            "id": 89996,
            "type": "Feature",
            "geometry": {
                "type": "Point",
                "coordinates": [
                    19.15931,
                    50.02027
                ]
            },
            "properties": {
                "ref:rspo": 89996,
                "official_name": "Przedszkole Samorz\u0105dowe w Harm\u0119\u017cach",
                "name": "Przedszkole Samorz\u0105dowe w Harm\u0119\u017cach",
                "addr:postcode": "32-600",
                "addr:city": "Harm\u0119\u017ce",
                "addr:street": "Borowskiego",
                "addr:housenumber": "30",
                "addr:city:simc": 63874,
                "addr:street:sym_ul": 1867,
                "phone": "+48 338430955",
                "email": "zspharmeze@zspharmeze.gminaoswiecim.pl",
                "ref:regon": "070561072",
                "ref:vatin": "PL5492149063",
                "operator": "Gmina O\u015bwi\u0119cim",
                "operator:type": "government",
                "amenity": "kindergarten",
                "note": "Parent RSPO: 91292"
            }
        },
        {
            "id": 106138,
            "type": "Feature",
            "geometry": {
                "type": "Point",
                "coordinates": [
                    19.15931,
                    50.02024
                ]
            },
            "properties": {
                "isced:level": "1;2",
                "ref:rspo": 106138,
                "official_name": "Szko\u0142a Podstawowa im. \u015aw. Maksymiliana Marii Kolbe w Harm\u0119\u017cach",
                "name": "Szko\u0142a Podstawowa",
                "addr:postcode": "32-600",
                "addr:city": "Harm\u0119\u017ce",
                "addr:street": "Borowskiego",
                "addr:housenumber": "30",
                "addr:city:simc": 63874,
                "addr:street:sym_ul": 1867,
                "phone": "+48 338430955",
                "email": "zspharmeze@zspharmeze.gminaoswiecim.pl",
                "ref:regon": "070465641",
                "ref:vatin": "PL5492149063",
                "operator": "Gmina O\u015bwi\u0119cim",
                "operator:type": "government",
                "amenity": "school",
                "note": "Parent RSPO: 91292"
            }
        },
        {
            "id": 262693,
            "type": "Feature",
            "geometry": {
                "type": "Point",
                "coordinates": [
                    19.24225,
                    50.0241
                ]
            },
            "properties": {
                "isced:level": "1;2",
                "ref:rspo": 262693,
                "official_name": "Szko\u0142a Podstawowa im. Komisji Edukacji Narodowej w Zaborzu",
                "name": "Szko\u0142a Podstawowa",
                "addr:postcode": "32-600",
                "addr:city": "Zaborze",
                "addr:street": "Jezioro",
                "addr:housenumber": "2",
                "addr:city:simc": 64164,
                "addr:street:sym_ul": 7536,
                "phone": "+48 338440219",
                "email": "spzaborze@spzaborze.gminaoswiecim.pl",
                "website": "http:\/\/spwzaborzu.pl",
                "ref:regon": "368051280",
                "ref:vatin": "PL5492448274",
                "operator": "Gmina O\u015bwi\u0119cim",
                "operator:type": "government",
                "amenity": "school"
            }
        },
        {
            "id": 84393,
            "type": "Feature",
            "geometry": {
                "type": "Point",
                "coordinates": [
                    19.18882,
                    50.04239
                ]
            },
            "properties": {
                "ref:rspo": 84393,
                "official_name": "Przedszkole Samorz\u0105dowe w Brzezince",
                "name": "Przedszkole Samorz\u0105dowe w Brzezince",
                "addr:postcode": "32-600",
                "addr:city": "Brzezinka",
                "addr:street": "Czernichowska",
                "addr:housenumber": "2",
                "addr:city:simc": 63680,
                "addr:street:sym_ul": 3388,
                "phone": "+48 338432280",
                "email": "psbrzezinka@psbrzezinka.gminaoswiecim.pl",
                "website": "http:\/\/psbrzezinka.gminaoswiecim.pl",
                "ref:regon": "070561050",
                "ref:vatin": "PL5492059331",
                "operator": "Gmina O\u015bwi\u0119cim",
                "operator:type": "government",
                "amenity": "kindergarten"
            }
        },
        {
            "id": 84813,
            "type": "Feature",
            "geometry": {
                "type": "Point",
                "coordinates": [
                    19.1921399,
                    50.04355
                ]
            },
            "properties": {
                "isced:level": "1;2",
                "ref:rspo": 84813,
                "official_name": "Szko\u0142a Podstawowa im. Pomnik Dzieci-Wi\u0119\u017ani\u00f3w Kl Auschwitz-Birkenau w Brzezince",
                "name": "Szko\u0142a Podstawowa",
                "addr:postcode": "32-600",
                "addr:city": "Brzezinka",
                "addr:street": "Szkolna",
                "addr:housenumber": "19",
                "addr:city:simc": 63680,
                "addr:street:sym_ul": 21970,
                "phone": "+48 338430559",
                "email": "spbrzezinka@spbrzezinka.gminaoswiecim.pl",
                "website": "http:\/\/www.sp.brzezinka.pl",
                "ref:regon": "070465629",
                "ref:vatin": "PL5492059153",
                "operator": "Gmina O\u015bwi\u0119cim",
                "operator:type": "government",
                "amenity": "school"
            }
        },
        {
            "id": 84370,
            "type": "Feature",
            "geometry": {
                "type": "Point",
                "coordinates": [
                    19.20889,
                    50.05328
                ]
            },
            "properties": {
                "isced:level": "1;2",
                "ref:rspo": 84370,
                "official_name": "Szko\u0142a Podstawowa im. Spadochroniarzy Wojska Polskiego w Babicach",
                "name": "Szko\u0142a Podstawowa",
                "addr:postcode": "32-600",
                "addr:city": "Babice",
                "addr:street": "R\u00f3\u017cana",
                "addr:housenumber": "23",
                "addr:city:simc": 63638,
                "addr:street:sym_ul": 19000,
                "phone": "+48 338430312",
                "email": "spbabice@spbabice.gminaoswiecim.pl",
                "website": "http:\/\/spbabice.edupage.org",
                "ref:regon": "070465612",
                "ref:vatin": "PL5492059182",
                "operator": "Gmina O\u015bwi\u0119cim",
                "operator:type": "government",
                "amenity": "school"
            }
        },
        {
            "id": 106033,
            "type": "Feature",
            "geometry": {
                "type": "Point",
                "coordinates": [
                    19.2098,
                    50.05328
                ]
            },
            "properties": {
                "ref:rspo": 106033,
                "official_name": "Niepubliczne Przedszkole \"Smyk\" w Babicach",
                "name": "Niepubliczne Przedszkole \"Smyk\" w Babicach",
                "addr:postcode": "32-600",
                "addr:city": "Babice",
                "addr:street": "R\u00f3\u017cana",
                "addr:housenumber": "25",
                "addr:city:simc": 63638,
                "addr:street:sym_ul": 19000,
                "phone": "+48 338430279",
                "email": "psbabice@wp.pl",
                "website": "http:\/\/www.przedszkole-smyk.pl",
                "ref:regon": "122748735",
                "ref:vatin": "PL5491307620",
                "operator": "Zuzanna Korzeniowska",
                "operator:type": "private",
                "amenity": "kindergarten"
            }
        }
    ]
}