{
    "type": "FeatureCollection",
    "features": [
        {
            "id": 274967,
            "type": "Feature",
            "geometry": {
                "type": "Point",
                "coordinates": [
                    19.19088,
                    49.9601
                ]
            },
            "properties": {
                "ref:rspo": 274967,
                "official_name": "Zesp\u00f3\u0142 Szkolno -Przedszkolny Nr 2 w Zasolu",
                "name": "Zesp\u00f3\u0142 Szkolno -Przedszkolny Nr 2 w Zasolu",
                "addr:postcode": "32-626",
                "addr:city": "Zasole",
                "addr:street": "Kostka Jagie\u0142\u0142y",
                "addr:housenumber": "8",
                "addr:city:simc": 213322,
                "addr:street:sym_ul": 31227,
                "phone": "+48 322111285",
                "email": "sekretariat.zasole2@brzeszcze.edu.pl",
                "website": "http:\/\/www.zsp2.brzeszcze.edu.pl",
                "ref:regon": "386447638",
                "ref:vatin": "PL5492459125",
                "operator": "Gmina Brzeszcze",
                "operator:type": "government",
                "landuse": "education",
                "fixme": "amenity=school, amenity=college albo landuse=education w zale\u017cno\u015bci od tego, jakie plac\u00f3wki wchodz\u0105 w sk\u0142ad zespo\u0142u. Sprawd\u017a, kiedy stosowa\u0107 amenity=* a kiedy landuse=education.",
                "note": "Children RSPO: 274977;274978"
            }
        },
        {
            "id": 274977,
            "type": "Feature",
            "geometry": {
                "type": "Point",
                "coordinates": [
                    19.19088,
                    49.960069999999995
                ]
            },
            "properties": {
                "isced:level": "1;2",
                "ref:rspo": 274977,
                "official_name": "Szko\u0142a Podstawowa im. Kostka Jagie\u0142\u0142y w Zasolu",
                "name": "Szko\u0142a Podstawowa",
                "addr:postcode": "32-626",
                "addr:city": "Zasole",
                "addr:street": "Kostka Jagie\u0142\u0142y",
                "addr:housenumber": "8",
                "addr:city:simc": 213322,
                "addr:street:sym_ul": 31227,
                "phone": "+48 322111285",
                "email": "sekretariat.zasole2@brzeszcze.edu.pl",
                "ref:regon": "386460768",
                "ref:vatin": "PL5492459125",
                "operator": "Gmina Brzeszcze",
                "operator:type": "government",
                "amenity": "school",
                "note": "Parent RSPO: 274967"
            }
        },
        {
            "id": 274978,
            "type": "Feature",
            "geometry": {
                "type": "Point",
                "coordinates": [
                    19.19088,
                    49.96004
                ]
            },
            "properties": {
                "ref:rspo": 274978,
                "official_name": "Przedszkole Publiczne w Zasolu",
                "name": "Przedszkole Publiczne w Zasolu",
                "addr:postcode": "32-626",
                "addr:city": "Zasole",
                "addr:street": "Kostka Jagie\u0142\u0142y",
                "addr:housenumber": "8",
                "addr:city:simc": 213322,
                "addr:street:sym_ul": 31227,
                "phone": "+48 322111285",
                "email": "katarzynablazenek@interia.pl",
                "ref:regon": "386461147",
                "ref:vatin": "PL5492459125",
                "operator": "Gmina Brzeszcze",
                "operator:type": "government",
                "amenity": "kindergarten",
                "note": "Parent RSPO: 274967"
            }
        },
        {
            "id": 82729,
            "type": "Feature",
            "geometry": {
                "type": "Point",
                "coordinates": [
                    19.13793,
                    49.96119
                ]
            },
            "properties": {
                "ref:rspo": 82729,
                "official_name": "Przedszkole Nr 4 \"Pod T\u0119cz\u0105\" w Jawiszowicach",
                "name": "Przedszkole Nr 4 \"Pod T\u0119cz\u0105\" w Jawiszowicach",
                "addr:postcode": "32-626",
                "addr:city": "Jawiszowice",
                "addr:street": "Konstantego Ildefonsa Ga\u0142czy\u0144skiego",
                "addr:housenumber": "1",
                "addr:city:simc": 213144,
                "addr:street:sym_ul": 5298,
                "phone": "+48 322111406",
                "email": "sekretariat.jawiszowice6@brzeszcze.edu.pl",
                "website": "http:\/\/www.przedszkole4.brzeszcze.pl",
                "ref:regon": "270555674",
                "ref:vatin": "PL5492116112",
                "operator": "Gmina Brzeszcze",
                "operator:type": "government",
                "amenity": "kindergarten",
                "note": "Parent RSPO: 4149"
            }
        },
        {
            "id": 4149,
            "type": "Feature",
            "geometry": {
                "type": "Point",
                "coordinates": [
                    19.1377099,
                    49.96165
                ]
            },
            "properties": {
                "ref:rspo": 4149,
                "official_name": "Zesp\u00f3\u0142 Szkolno-Przedszkolny Nr 6 w Jawiszowicach",
                "name": "Zesp\u00f3\u0142 Szkolno-Przedszkolny Nr 6 w Jawiszowicach",
                "addr:postcode": "32-626",
                "addr:city": "Jawiszowice",
                "addr:street": "Kusoci\u0144skiego",
                "addr:housenumber": "1",
                "addr:city:simc": 213144,
                "addr:street:sym_ul": 10491,
                "phone": "+48 327370559",
                "email": "sekretariat.jawiszowice6@brzeszcze.edu.pl",
                "website": "http:\/\/www.spjawiszowice.brzeszcze.edu.pl",
                "ref:regon": "122640363",
                "ref:vatin": "PL5492434013",
                "operator": "Gmina Brzeszcze",
                "operator:type": "government",
                "landuse": "education",
                "fixme": "amenity=school, amenity=college albo landuse=education w zale\u017cno\u015bci od tego, jakie plac\u00f3wki wchodz\u0105 w sk\u0142ad zespo\u0142u. Sprawd\u017a, kiedy stosowa\u0107 amenity=* a kiedy landuse=education.",
                "note": "Children RSPO: 75132;82729"
            }
        },
        {
            "id": 75132,
            "type": "Feature",
            "geometry": {
                "type": "Point",
                "coordinates": [
                    19.1377099,
                    49.961619999999996
                ]
            },
            "properties": {
                "isced:level": "1;2",
                "ref:rspo": 75132,
                "official_name": "Szko\u0142a Podstawowa w Jawiszowicach im. K. I. Ga\u0142czy\u0144skiego",
                "name": "Szko\u0142a Podstawowa w Jawiszowicach",
                "addr:postcode": "32-626",
                "addr:city": "Jawiszowice",
                "addr:street": "Kusoci\u0144skiego",
                "addr:housenumber": "1",
                "addr:city:simc": 213144,
                "addr:street:sym_ul": 10491,
                "phone": "+48 695383129",
                "email": "sekretariat.jawiszowice6@brzeszcze.edu.pl",
                "website": "http:\/\/www.spjawiszowice.brzeszcze.edu.pl",
                "ref:regon": "000737798",
                "ref:vatin": "PL5492031516",
                "operator": "Gmina Brzeszcze",
                "operator:type": "government",
                "amenity": "school",
                "note": "Parent RSPO: 4149"
            }
        },
        {
            "id": 82732,
            "type": "Feature",
            "geometry": {
                "type": "Point",
                "coordinates": [
                    19.13126,
                    49.97033
                ]
            },
            "properties": {
                "ref:rspo": 82732,
                "official_name": "Przedszkole Nr 2 Z Oddzia\u0142ami Integracyjnymi \"S\u0142oneczko\" w Brzeszczach",
                "name": "Przedszkole Nr 2 Z Oddzia\u0142ami Integracyjnymi \"S\u0142oneczko\" w Brzeszczach",
                "addr:postcode": "32-620",
                "addr:city": "Brzeszcze",
                "addr:street": "Gabriela Narutowicza",
                "addr:housenumber": "6",
                "addr:city:simc": 938120,
                "addr:street:sym_ul": 14018,
                "phone": "+48 327372822",
                "email": "p2@brzeszcze.edu.pl",
                "website": "http:\/\/www.p2sloneczko.cba.pl",
                "ref:regon": "270555651",
                "ref:vatin": "PL5492116135",
                "operator": "Gmina Brzeszcze",
                "operator:type": "government",
                "amenity": "kindergarten",
                "note": "Parent RSPO: 4145"
            }
        },
        {
            "id": 82730,
            "type": "Feature",
            "geometry": {
                "type": "Point",
                "coordinates": [
                    19.131,
                    49.97107
                ]
            },
            "properties": {
                "ref:rspo": 82730,
                "official_name": "Przedszkole Nr 3 \"\u017byrafa\" w Brzeszczach",
                "name": "Przedszkole Nr 3 \"\u017byrafa\" w Brzeszczach",
                "addr:postcode": "32-626",
                "addr:city": "Brzeszcze",
                "addr:street": "Kazimierza Wielkiego",
                "addr:housenumber": "38",
                "addr:city:simc": 938120,
                "addr:street:sym_ul": 8265,
                "phone": "+48 693846685",
                "email": "p3@brzeszcze.edu.pl",
                "website": "http:\/\/www.zyrafa.brzeszcze.pl",
                "ref:regon": "270555668",
                "ref:vatin": "PL5492116129",
                "operator": "Gmina Brzeszcze",
                "operator:type": "government",
                "amenity": "kindergarten",
                "note": "Parent RSPO: 4145"
            }
        },
        {
            "id": 4145,
            "type": "Feature",
            "geometry": {
                "type": "Point",
                "coordinates": [
                    19.13515,
                    49.9721199
                ]
            },
            "properties": {
                "ref:rspo": 4145,
                "official_name": "Zesp\u00f3\u0142 Szkolno-Przedszkolny Nr 5 w Brzeszczach",
                "name": "Zesp\u00f3\u0142 Szkolno-Przedszkolny Nr 5 w Brzeszczach",
                "addr:postcode": "32-620",
                "addr:city": "Brzeszcze",
                "addr:street": "A. Mickiewicza",
                "addr:housenumber": "3",
                "addr:city:simc": 938120,
                "addr:street:sym_ul": 32579,
                "phone": "+48 327373800",
                "email": "mkopernik2@poczta.fm",
                "ref:regon": "122640340",
                "ref:vatin": "PL5492434036",
                "operator": "Gmina Brzeszcze",
                "operator:type": "government",
                "landuse": "education",
                "fixme": "amenity=school, amenity=college albo landuse=education w zale\u017cno\u015bci od tego, jakie plac\u00f3wki wchodz\u0105 w sk\u0142ad zespo\u0142u. Sprawd\u017a, kiedy stosowa\u0107 amenity=* a kiedy landuse=education.",
                "note": "Children RSPO: 82730;82732;82830"
            }
        },
        {
            "id": 82830,
            "type": "Feature",
            "geometry": {
                "type": "Point",
                "coordinates": [
                    19.13515,
                    49.97212
                ]
            },
            "properties": {
                "isced:level": "1;2",
                "ref:rspo": 82830,
                "official_name": "Szko\u0142a Podstawowa Nr 2 im. Miko\u0142aja Kopernika",
                "name": "Szko\u0142a Podstawowa Nr 2",
                "addr:postcode": "32-620",
                "addr:city": "Brzeszcze",
                "addr:street": "Adama Mickiewicza",
                "addr:housenumber": "3",
                "addr:city:simc": 938120,
                "addr:street:sym_ul": 12734,
                "phone": "+48 723669503",
                "email": "sekretariat.brzeszcze5@brzeszcze.edu.pl",
                "website": "http:\/\/www.sp2.oswiata.brzeszcze.pl",
                "ref:regon": "000737781",
                "ref:vatin": "PL5492031491",
                "operator": "Gmina Brzeszcze",
                "operator:type": "government",
                "amenity": "school",
                "note": "Parent RSPO: 4145"
            }
        },
        {
            "id": 72932,
            "type": "Feature",
            "geometry": {
                "type": "Point",
                "coordinates": [
                    19.18017,
                    49.9785899
                ]
            },
            "properties": {
                "ref:rspo": 72932,
                "official_name": "Zesp\u00f3\u0142 Szkolno-Przedszkolny Nr 1 w Przecieszynie im. W. Chotomskiej",
                "name": "Zesp\u00f3\u0142 Szkolno-Przedszkolny Nr 1 w Przecieszynie",
                "addr:postcode": "32-625",
                "addr:city": "Przecieszyn",
                "addr:street": "Wyzwolenia",
                "addr:housenumber": "54a",
                "addr:city:simc": 213227,
                "addr:street:sym_ul": 25133,
                "phone": "+48 322111303",
                "email": "przecieszyn.sz@interia.pl",
                "website": "http:\/\/zspprzecieszyn.brzeszcze.edu.pl",
                "ref:regon": "356336690",
                "ref:vatin": "PL5492116230",
                "operator": "Gmina Brzeszcze",
                "operator:type": "government",
                "landuse": "education",
                "fixme": "amenity=school, amenity=college albo landuse=education w zale\u017cno\u015bci od tego, jakie plac\u00f3wki wchodz\u0105 w sk\u0142ad zespo\u0142u. Sprawd\u017a, kiedy stosowa\u0107 amenity=* a kiedy landuse=education.",
                "note": "Children RSPO: 73015;73863"
            }
        },
        {
            "id": 73015,
            "type": "Feature",
            "geometry": {
                "type": "Point",
                "coordinates": [
                    19.18017,
                    49.9785599
                ]
            },
            "properties": {
                "isced:level": "1;2",
                "ref:rspo": 73015,
                "official_name": "Szko\u0142a Podstawowa w Przecieszynie",
                "name": "Szko\u0142a Podstawowa w Przecieszynie",
                "addr:postcode": "32-625",
                "addr:city": "Przecieszyn",
                "addr:street": "Wyzwolenia",
                "addr:housenumber": "54a",
                "addr:city:simc": 213227,
                "addr:street:sym_ul": 25133,
                "phone": "+48 322111303",
                "email": "przecieszyn.sz@interia.pl",
                "website": "http:\/\/zspprzecieszyn.brzeszcze.edu.pl",
                "ref:regon": "001232959",
                "ref:vatin": "PL5492116230",
                "operator": "Gmina Brzeszcze",
                "operator:type": "government",
                "amenity": "school",
                "note": "Parent RSPO: 72932"
            }
        },
        {
            "id": 73863,
            "type": "Feature",
            "geometry": {
                "type": "Point",
                "coordinates": [
                    19.18017,
                    49.978529900000005
                ]
            },
            "properties": {
                "ref:rspo": 73863,
                "official_name": "Przedszkole Publiczne w Przecieszynie",
                "name": "Przedszkole Publiczne w Przecieszynie",
                "addr:postcode": "32-625",
                "addr:city": "Przecieszyn",
                "addr:street": "Wyzwolenia",
                "addr:housenumber": "54a",
                "addr:city:simc": 213227,
                "addr:street:sym_ul": 25133,
                "phone": "+48 322111303",
                "email": "przecieszyn.sz@interia.pl",
                "ref:regon": "270555705",
                "ref:vatin": "PL5492116230",
                "operator": "Gmina Brzeszcze",
                "operator:type": "government",
                "amenity": "kindergarten",
                "note": "Parent RSPO: 72932"
            }
        },
        {
            "id": 125773,
            "type": "Feature",
            "geometry": {
                "type": "Point",
                "coordinates": [
                    19.14252,
                    49.9793
                ]
            },
            "properties": {
                "ref:rspo": 125773,
                "official_name": "Niepubliczne Przedszkole im.dzieci\u0105tka Jezus w Brzeszczach",
                "name": "Niepubliczne Przedszkole im.dzieci\u0105tka Jezus w Brzeszczach",
                "addr:postcode": "32-620",
                "addr:city": "Brzeszcze",
                "addr:street": "Piastowska",
                "addr:housenumber": "12A",
                "addr:city:simc": 938120,
                "addr:street:sym_ul": 16046,
                "phone": "+48 338451616",
                "email": "dyrektor.dzieciatko@gmail.com",
                "ref:regon": "123235972",
                "operator": "Dane Do Uzupe\u0142nienia",
                "operator:type": "private",
                "amenity": "kindergarten"
            }
        },
        {
            "id": 73762,
            "type": "Feature",
            "geometry": {
                "type": "Point",
                "coordinates": [
                    19.1982399,
                    49.98028
                ]
            },
            "properties": {
                "ref:rspo": 73762,
                "official_name": "Zesp\u00f3\u0142 Szkolno-Przedszkolny Nr 3 w Skidziniu im. E. Szelburg-Zarembiny",
                "name": "Zesp\u00f3\u0142 Szkolno-Przedszkolny Nr 3 w Skidziniu",
                "addr:postcode": "32-625",
                "addr:city": "Skidzi\u0144",
                "addr:street": "O\u015bwi\u0119cimska",
                "addr:housenumber": "39",
                "addr:city:simc": 213262,
                "addr:street:sym_ul": 15440,
                "phone": "+48 693846412",
                "email": "sekretariat.skidzin3@brzeszcze.edu.pl",
                "website": "http:\/\/www.zsp3.brzeszcz.pl",
                "ref:regon": "120522040",
                "ref:vatin": "PL5492316650",
                "operator": "Gmina Brzeszcze",
                "operator:type": "government",
                "landuse": "education",
                "fixme": "amenity=school, amenity=college albo landuse=education w zale\u017cno\u015bci od tego, jakie plac\u00f3wki wchodz\u0105 w sk\u0142ad zespo\u0142u. Sprawd\u017a, kiedy stosowa\u0107 amenity=* a kiedy landuse=education.",
                "note": "Children RSPO: 73860;74751"
            }
        },
        {
            "id": 73860,
            "type": "Feature",
            "geometry": {
                "type": "Point",
                "coordinates": [
                    19.1982399,
                    49.98025
                ]
            },
            "properties": {
                "isced:level": "1;2",
                "ref:rspo": 73860,
                "official_name": "Szko\u0142a Podstawowa Im E. Szelburg-Zarembiny",
                "name": "Szko\u0142a Podstawowa Im E. Szelburg-Zarembiny",
                "addr:postcode": "32-625",
                "addr:city": "Skidzi\u0144",
                "addr:street": "O\u015bwi\u0119cimska",
                "addr:housenumber": "39",
                "addr:city:simc": 213262,
                "addr:street:sym_ul": 15440,
                "phone": "+48 693846412",
                "email": "sekretariat.skidzin3@brzeszcze.edu.pl",
                "website": "http:\/\/www.zsp3.brzeszcze.edu.pl\/",
                "ref:regon": "000989985",
                "ref:vatin": "PL5492316650",
                "operator": "Gmina Brzeszcze",
                "operator:type": "government",
                "amenity": "school",
                "note": "Parent RSPO: 73762"
            }
        },
        {
            "id": 74751,
            "type": "Feature",
            "geometry": {
                "type": "Point",
                "coordinates": [
                    19.1982399,
                    49.98022
                ]
            },
            "properties": {
                "ref:rspo": 74751,
                "official_name": "Przedszkole Publiczne w Skidziniu",
                "name": "Przedszkole Publiczne w Skidziniu",
                "addr:postcode": "32-625",
                "addr:city": "Skidzi\u0144",
                "addr:street": "O\u015bwi\u0119cimska",
                "addr:housenumber": "39",
                "addr:city:simc": 213262,
                "addr:street:sym_ul": 15440,
                "phone": "+48 322111310",
                "email": "sekretariat.skidzin3@brzeszcze.edu.pl",
                "website": "http:\/\/www.skidzin.w.interia.pl",
                "ref:regon": "270555697",
                "ref:vatin": "PL5492316650",
                "operator": "Gmina Brzeszcze",
                "operator:type": "government",
                "amenity": "kindergarten",
                "note": "Parent RSPO: 73762"
            }
        },
        {
            "id": 3033,
            "type": "Feature",
            "geometry": {
                "type": "Point",
                "coordinates": [
                    19.15624,
                    49.98383
                ]
            },
            "properties": {
                "ref:rspo": 3033,
                "official_name": "Poradnia Psychologiczno-Pedagogiczna w Brzeszczach",
                "name": "Poradnia Psychologiczno-Pedagogiczna w Brzeszczach",
                "addr:postcode": "32-620",
                "addr:city": "Brzeszcze",
                "addr:street": "Nosala",
                "addr:housenumber": "7",
                "addr:city:simc": 938120,
                "addr:street:sym_ul": 14320,
                "phone": "+48 327374646",
                "email": "sekretariat.pppb@powiat.oswiecim.pl",
                "website": "http:\/\/www.poradnia.brzeszcze.pl",
                "ref:regon": "273875681",
                "ref:vatin": "PL5492181658",
                "operator": "Powiat O\u015bwi\u0119cimski",
                "operator:type": "government",
                "healthcare": "counselling",
                "counselling_type": "education",
                "fixme": "w zale\u017cno\u015bci od przedmiotu dzia\u0142alno\u015bci (np. healthcare=counselling + counselling_type=education albo healthcare=psychotherapist)"
            }
        },
        {
            "id": 47462,
            "type": "Feature",
            "geometry": {
                "type": "Point",
                "coordinates": [
                    19.15268,
                    49.98458
                ]
            },
            "properties": {
                "ref:rspo": 47462,
                "official_name": "Przedszkole Nr 1 \"Pod Kasztanami\" w Brzeszczach",
                "name": "Przedszkole Nr 1 \"Pod Kasztanami\" w Brzeszczach",
                "addr:postcode": "32-620",
                "addr:city": "Brzeszcze",
                "addr:street": "Henryka Sienkiewicza",
                "addr:housenumber": "4",
                "addr:city:simc": 938120,
                "addr:street:sym_ul": 19834,
                "phone": "+48 327374179",
                "email": "sekretariat.brzeszcze4@brzeszcze.edu.pl",
                "website": "http:\/\/www.przedszkole1.brzeszcze.pl",
                "ref:regon": "270555639",
                "ref:vatin": "PL5492116158",
                "operator": "Gmina Brzeszcze",
                "operator:type": "government",
                "amenity": "kindergarten",
                "note": "Parent RSPO: 4136"
            }
        },
        {
            "id": 4136,
            "type": "Feature",
            "geometry": {
                "type": "Point",
                "coordinates": [
                    19.1489,
                    49.98484
                ]
            },
            "properties": {
                "ref:rspo": 4136,
                "official_name": "Zesp\u00f3\u0142 Szkolno-Przedszkolny Nr 4 Z Oddzia\u0142ami Integracyjnymi w Brzeszczach",
                "name": "Zesp\u00f3\u0142 Szkolno-Przedszkolny Nr 4 Z Oddzia\u0142ami Integracyjnymi w Brzeszczach",
                "addr:postcode": "32-620",
                "addr:city": "Brzeszcze",
                "addr:street": "Szkolna",
                "addr:housenumber": "6",
                "addr:city:simc": 938120,
                "addr:street:sym_ul": 21970,
                "phone": "+48 723976623",
                "email": "sekretariat.brzeszcze4@brzeszcze.edu.pl",
                "ref:regon": "122640334",
                "ref:vatin": "PL5492434042",
                "operator": "Gmina Brzeszcze",
                "operator:type": "government",
                "landuse": "education",
                "fixme": "amenity=school, amenity=college albo landuse=education w zale\u017cno\u015bci od tego, jakie plac\u00f3wki wchodz\u0105 w sk\u0142ad zespo\u0142u. Sprawd\u017a, kiedy stosowa\u0107 amenity=* a kiedy landuse=education.",
                "note": "Children RSPO: 47462;68202"
            }
        },
        {
            "id": 68202,
            "type": "Feature",
            "geometry": {
                "type": "Point",
                "coordinates": [
                    19.1489,
                    49.984809999999996
                ]
            },
            "properties": {
                "isced:level": "1;2",
                "ref:rspo": 68202,
                "official_name": "Szko\u0142a Podstawowa Nr 1 Z Oddzia\u0142ami Integracyjnymi Imienia Stanis\u0142awa Staszica w Brzeszczach",
                "name": "Szko\u0142a Podstawowa Nr 1 Z Oddzia\u0142ami Integracyjnymi Imienia Stanis\u0142awa Staszica w Brzeszczach",
                "addr:postcode": "32-620",
                "addr:city": "Brzeszcze",
                "addr:street": "Szkolna",
                "addr:housenumber": "6",
                "addr:city:simc": 938120,
                "addr:street:sym_ul": 21970,
                "phone": "+48 327374325",
                "email": "sekretariat.brzeszcze4@brzeszcze.edu.pl",
                "website": "http:\/\/zsp4.brzeszcze.edu.pl\/",
                "ref:regon": "000737775",
                "ref:vatin": "PL5492116164",
                "operator": "Gmina Brzeszcze",
                "operator:type": "government",
                "amenity": "school",
                "note": "Parent RSPO: 4136"
            }
        },
        {
            "id": 130266,
            "type": "Feature",
            "geometry": {
                "type": "Point",
                "coordinates": [
                    19.15003,
                    49.98553
                ]
            },
            "properties": {
                "ref:rspo": 130266,
                "official_name": "Niepubliczne Przedszkole \"Iskierka\"",
                "name": "Niepubliczne Przedszkole \"Iskierka\"",
                "addr:postcode": "32-620",
                "addr:city": "Brzeszcze",
                "addr:street": "Tadeusza Ko\u015bciuszki",
                "addr:housenumber": "8a",
                "addr:city:simc": 938120,
                "addr:street:sym_ul": 9572,
                "email": "magdamartastepien@gmail.com",
                "ref:regon": "363731515",
                "ref:vatin": "PL5492367943",
                "operator": "Magdalena St\u0119pie\u0144",
                "operator:type": "private",
                "amenity": "kindergarten"
            }
        },
        {
            "id": 20880,
            "type": "Feature",
            "geometry": {
                "type": "Point",
                "coordinates": [
                    19.15252,
                    49.98568
                ]
            },
            "properties": {
                "ref:rspo": 20880,
                "official_name": "Powiatowy Zesp\u00f3\u0142 Nr 6 Szk\u00f3\u0142 Zawodowych I Og\u00f3lnokszta\u0142c\u0105cych im. Kazimierza Bielenina w Brzeszczach",
                "name": "Powiatowy Zesp\u00f3\u0142 Nr 6 Szk\u00f3\u0142 Zawodowych I Og\u00f3lnokszta\u0142c\u0105cych",
                "addr:postcode": "32-620",
                "addr:city": "Brzeszcze",
                "addr:street": "Tadeusza Ko\u015bciuszki",
                "addr:housenumber": "1",
                "addr:city:simc": 938120,
                "addr:street:sym_ul": 9572,
                "phone": "+48 322109340",
                "email": "szkola@pz6.brzeszcze.pl",
                "website": "http:\/\/www.pz6.brzeszcze.edu.pl",
                "ref:regon": "270223587",
                "ref:vatin": "PL6521042820",
                "operator": "Powiat O\u015bwi\u0119cimski",
                "operator:type": "government",
                "landuse": "education",
                "fixme": "amenity=school, amenity=college albo landuse=education w zale\u017cno\u015bci od tego, jakie plac\u00f3wki wchodz\u0105 w sk\u0142ad zespo\u0142u. Sprawd\u017a, kiedy stosowa\u0107 amenity=* a kiedy landuse=education.",
                "note": "Children RSPO: 22034;22119;22128;121632"
            }
        },
        {
            "id": 22034,
            "type": "Feature",
            "geometry": {
                "type": "Point",
                "coordinates": [
                    19.15252,
                    49.98565
                ]
            },
            "properties": {
                "isced:level": "3",
                "ref:rspo": 22034,
                "official_name": "Technikum w Brzeszczach",
                "name": "Technikum w Brzeszczach",
                "addr:postcode": "32-620",
                "addr:city": "Brzeszcze",
                "addr:street": "Tadeusza Ko\u015bciuszki",
                "addr:housenumber": "1",
                "addr:city:simc": 938120,
                "addr:street:sym_ul": 9572,
                "phone": "+48 322109340",
                "email": "szkola@pz6.brzeszcze.pl",
                "website": "http:\/\/www.pz6.brzeszcze.edu.pl",
                "ref:regon": "356564860",
                "operator": "Powiat O\u015bwi\u0119cimski",
                "operator:type": "government",
                "amenity": "school",
                "note": "Parent RSPO: 20880"
            }
        },
        {
            "id": 22119,
            "type": "Feature",
            "geometry": {
                "type": "Point",
                "coordinates": [
                    19.15252,
                    49.985620000000004
                ]
            },
            "properties": {
                "isced:level": "4",
                "ref:rspo": 22119,
                "official_name": "Szko\u0142a Policealna w Brzeszczach",
                "name": "Szko\u0142a Policealna w Brzeszczach",
                "addr:postcode": "32-620",
                "addr:city": "Brzeszcze",
                "addr:street": "Tadeusza Ko\u015bciuszki",
                "addr:housenumber": "1",
                "addr:city:simc": 938120,
                "addr:street:sym_ul": 9572,
                "phone": "+48 322109340",
                "email": "szkola@pz6.brzeszcze.pl",
                "website": "http:\/\/www.pz6.brzeszcze.edu.pl",
                "ref:regon": "357328497",
                "operator": "Powiat O\u015bwi\u0119cimski",
                "operator:type": "government",
                "amenity": "college",
                "note": "Parent RSPO: 20880"
            }
        },
        {
            "id": 22128,
            "type": "Feature",
            "geometry": {
                "type": "Point",
                "coordinates": [
                    19.15252,
                    49.98559
                ]
            },
            "properties": {
                "isced:level": "3",
                "ref:rspo": 22128,
                "official_name": "Bran\u017cowa Szko\u0142a I Stopnia w Brzeszczach",
                "name": "Bran\u017cowa Szko\u0142a I Stopnia w Brzeszczach",
                "addr:postcode": "32-620",
                "addr:city": "Brzeszcze",
                "addr:street": "Tadeusza Ko\u015bciuszki",
                "addr:housenumber": "1",
                "addr:city:simc": 938120,
                "addr:street:sym_ul": 9572,
                "phone": "+48 322109340",
                "email": "szkola@pz6.brzeszcze.pl",
                "website": "http:\/\/www.pz6.brzeszcze.edu.pl",
                "ref:regon": "356564899",
                "operator": "Powiat O\u015bwi\u0119cimski",
                "operator:type": "government",
                "amenity": "school",
                "note": "Parent RSPO: 20880"
            }
        },
        {
            "id": 121632,
            "type": "Feature",
            "geometry": {
                "type": "Point",
                "coordinates": [
                    19.15252,
                    49.98556
                ]
            },
            "properties": {
                "isced:level": "3",
                "ref:rspo": 121632,
                "official_name": "Liceum Og\u00f3lnokszta\u0142c\u0105ce dla Doros\u0142ych w Brzeszczach",
                "name": "Liceum Og\u00f3lnokszta\u0142c\u0105ce dla Doros\u0142ych w Brzeszczach",
                "addr:postcode": "32-620",
                "addr:city": "Brzeszcze",
                "addr:street": "Tadeusza Ko\u015bciuszki",
                "addr:housenumber": "1",
                "addr:city:simc": 938120,
                "addr:street:sym_ul": 9572,
                "phone": "+48 322109340",
                "email": "szkola@pz6.brzeszcze.pl",
                "website": "http:\/\/www.pz6.brzeszcze.edu.pl",
                "ref:regon": "123029675",
                "operator": "Powiat O\u015bwi\u0119cimski",
                "operator:type": "government",
                "amenity": "school",
                "note": "Parent RSPO: 20880"
            }
        }
    ]
}