{"type":"FeatureCollection","features":[{"id":80803,"type":"Feature","geometry":{"type":"Point","coordinates":[19.22597,49.86782]},"properties":{"ref:rspo":80803,"official_name":"Niepubliczne Przedszkole Z Oddzia\u0142ami Integracyjnymi Norlandia","name":"Niepubliczne Przedszkole Z Oddzia\u0142ami Integracyjnymi Norlandia","addr:country":"PL","addr:postcode":"32-650","addr:city":"K\u0119ty","addr:street":"ul. Tadeusza Ko\u015bciuszki","addr:housenumber":"120a","addr:teryt:simc":9582,"addr:teryt:sym_ul":924365,"contact:phone":"+48 530527027","contact:email":"sekretariat@norlandia.com","contact:website":"http:\/\/kety.norlandiaprzedszkola.pl","ref:regon":"122707558","operator":"Norlandia Polska Sp\u00f3\u0142ka Z Ograniczon\u0105 Odpowiedzialno\u015bci\u0105","operator:type":"private","amenity":"kindergarten"}},{"id":64599,"type":"Feature","geometry":{"type":"Point","coordinates":[19.21854,49.87272]},"properties":{"ref:rspo":64599,"official_name":"Samorz\u0105dowa Plac\u00f3wka Wychowania Przedszkolnego Nr 9","name":"Samorz\u0105dowa Plac\u00f3wka Wychowania Przedszkolnego Nr 9","addr:country":"PL","addr:postcode":"32-650","addr:city":"K\u0119ty","addr:street":"ul. \u017bwirki i Wigury","addr:housenumber":"33","addr:teryt:simc":26608,"addr:teryt:sym_ul":924365,"contact:phone":"+48 338453028","contact:email":"spwp9@edukacja.kety.pl","ref:regon":"071007260","ref:vatin":"PL5492051677","operator":"Gmina K\u0119ty","operator:type":"government","amenity":"kindergarten"}},{"id":29768,"type":"Feature","geometry":{"type":"Point","coordinates":[19.21846,49.87364]},"properties":{"ref:rspo":29768,"official_name":"Zak\u0142ad Doskonalenia Zawodowego w Katowicach Centrum Kszta\u0142cenia Zawodowego w K\u0119tach","name":"Zak\u0142ad Doskonalenia Zawodowego w Katowicach Centrum Kszta\u0142cenia Zawodowego w K\u0119tach","addr:country":"PL","addr:postcode":"32-650","addr:city":"K\u0119ty","addr:street":"ul. \u017bwirki i Wigury","addr:housenumber":"27b","addr:teryt:simc":26608,"addr:teryt:sym_ul":924365,"contact:phone":"+48 338453106","contact:email":"s-kety@zdz.katowice.pl","ref:regon":"122687100","operator":"Zak\u0142ad Doskonalenia Zawodowego W Katowicach","operator:type":"ngo","fixme":"w zale\u017cno\u015bci od przedmiotu dzia\u0142alno\u015bci (np. amenity=training + training=*, amenity=dancing_school, amenity=language_school, amenity=music_school)"}},{"id":127576,"type":"Feature","geometry":{"type":"Point","coordinates":[19.21846,49.87361]},"properties":{"isced:level":"3","ref:rspo":127576,"official_name":"Liceum Og\u00f3lnokszta\u0142c\u0105ce w K\u0119tach Zak\u0142adu Doskonalenia Zawodowego w Katowicach","name":"Liceum Og\u00f3lnokszta\u0142c\u0105ce w K\u0119tach Zak\u0142adu Doskonalenia Zawodowego w Katowicach","addr:country":"PL","addr:postcode":"32-650","addr:city":"K\u0119ty","addr:street":"ul. \u017bwirki i Wigury","addr:housenumber":"27b","addr:teryt:simc":26608,"addr:teryt:sym_ul":924365,"contact:phone":"+48 338453106","contact:email":"s-kety@zdz.katowice.pl","contact:website":"http:\/\/www.zdz.katowice.pl","ref:regon":"361718114","operator":"Zak\u0142ad Doskonalenia Zawodowego W Katowicach","operator:type":"ngo","amenity":"school"}},{"id":130615,"type":"Feature","geometry":{"type":"Point","coordinates":[19.21846,49.873580000000004]},"properties":{"isced:level":"3","ref:rspo":130615,"official_name":"Technikum w K\u0119tach Zak\u0142adu Doskonalenia Zawodowego w Katowicach","name":"Technikum w K\u0119tach Zak\u0142adu Doskonalenia Zawodowego w Katowicach","addr:country":"PL","addr:postcode":"32-650","addr:city":"K\u0119ty","addr:street":"ul. \u017bwirki i Wigury","addr:housenumber":"27b","addr:teryt:simc":26608,"addr:teryt:sym_ul":924365,"contact:phone":"+48 338453106","contact:email":"info@zdz.katowice.pl","ref:regon":"364249341","operator":"Zak\u0142ad Doskonalenia Zawodowego W Katowicach","operator:type":"ngo","amenity":"school"}},{"id":272083,"type":"Feature","geometry":{"type":"Point","coordinates":[19.21846,49.87355]},"properties":{"isced:level":"3","ref:rspo":272083,"official_name":"Bran\u017cowa Szko\u0142a I Stopnia w K\u0119tach Zak\u0142adu Doskonalenia Zawodowego w Katowicach","name":"Bran\u017cowa Szko\u0142a I Stopnia w K\u0119tach Zak\u0142adu Doskonalenia Zawodowego w Katowicach","addr:country":"PL","addr:postcode":"32-650","addr:city":"K\u0119ty","addr:street":"ul. \u017bwirki i Wigury","addr:housenumber":"27b","addr:teryt:simc":26608,"addr:teryt:sym_ul":924365,"contact:phone":"+48 338453106","contact:email":"s-kety@zdz.katowice.pl","ref:regon":"383934473","operator":"Zak\u0142ad Doskonalenia Zawodowego W Katowicach","operator:type":"ngo","amenity":"school"}},{"id":64595,"type":"Feature","geometry":{"type":"Point","coordinates":[19.19437,49.87464]},"properties":{"ref:rspo":64595,"official_name":"Samorz\u0105dowa Plac\u00f3wka Wychowania Przedszkolnego Nr 2 w K\u0119tach","name":"Samorz\u0105dowa Plac\u00f3wka Wychowania Przedszkolnego Nr 2 w K\u0119tach","addr:country":"PL","addr:postcode":"32-650","addr:city":"K\u0119ty","addr:street":"ul. Szkolna","addr:housenumber":"5","addr:teryt:simc":21970,"addr:teryt:sym_ul":924365,"contact:phone":"+48 338452642","contact:email":"spwpnr2@interia.pl","ref:regon":"071007202","ref:vatin":"PL5492051565","operator":"Gmina K\u0119ty","operator:type":"government","amenity":"kindergarten","note":"Parent RSPO: 52247"}},{"id":52247,"type":"Feature","geometry":{"type":"Point","coordinates":[19.1935,49.87485]},"properties":{"ref:rspo":52247,"official_name":"Zesp\u00f3\u0142 Szkolno-Przedszkolny Nr 3 w K\u0119tach","name":"Zesp\u00f3\u0142 Szkolno-Przedszkolny Nr 3 w K\u0119tach","addr:country":"PL","addr:postcode":"32-650","addr:city":"K\u0119ty","addr:street":"ul. Szkolna","addr:housenumber":"3","addr:teryt:simc":21970,"addr:teryt:sym_ul":924365,"contact:phone":"+48 338452921","contact:email":"zsp3@edukacja.kety.pl","contact:website":"http:\/\/zsg3.kety.pl","ref:regon":"356561843","ref:vatin":"PL5492141481","operator":"Gmina K\u0119ty","operator:type":"government","landuse":"education","fixme":"amenity=school, amenity=college albo landuse=education w zale\u017cno\u015bci od tego, jakie plac\u00f3wki wchodz\u0105 w sk\u0142ad zespo\u0142u. Sprawd\u017a, kiedy stosowa\u0107 amenity=* a kiedy landuse=education.","note":"Children RSPO: 64595;69833"}},{"id":69833,"type":"Feature","geometry":{"type":"Point","coordinates":[19.1935,49.87482]},"properties":{"isced:level":"1;2","ref:rspo":69833,"official_name":"Szko\u0142a Podstawowa Nr 3 im. Bohater\u00f3w Westerplatte w K\u0119tach","name":"Szko\u0142a Podstawowa Nr 3","addr:country":"PL","addr:postcode":"32-650","addr:city":"K\u0119ty","addr:street":"ul. Szkolna","addr:housenumber":"3","addr:teryt:simc":21970,"addr:teryt:sym_ul":924365,"contact:phone":"+48 338452921","contact:email":"zsp3@edukacja.kety.pl","ref:regon":"070690415","operator":"Gmina K\u0119ty","operator:type":"government","amenity":"school","note":"Parent RSPO: 52247"}},{"id":3038,"type":"Feature","geometry":{"type":"Point","coordinates":[19.2194,49.87491]},"properties":{"ref:rspo":3038,"official_name":"Poradnia Psychologiczno-Pedagogiczna w K\u0119tach","name":"Poradnia Psychologiczno-Pedagogiczna w K\u0119tach","addr:country":"PL","addr:postcode":"32-650","addr:city":"K\u0119ty","addr:street":"ul. \u017bwirki i Wigury","addr:housenumber":"27a","addr:teryt:simc":26608,"addr:teryt:sym_ul":924365,"contact:phone":"+48 338452304","contact:email":"biuro@poradniakety.pl","contact:website":"http:\/\/www.poradniakety.pl","ref:regon":"000831050","ref:vatin":"PL5492176019","operator":"Powiat O\u015bwi\u0119cimski","operator:type":"government","healthcare":"councelling","counselling_type":"education","fixme":"w zale\u017cno\u015bci od przedmiotu dzia\u0142alno\u015bci (np. healthcare=councelling + counselling_type=education albo healthcare=psychotherapist)"}},{"id":3839,"type":"Feature","geometry":{"type":"Point","coordinates":[19.2194,49.87488]},"properties":{"ref:rspo":3839,"official_name":"Powiatowy Zesp\u00f3\u0142 Nr 10 Szk\u00f3\u0142 Mechaniczno-Elektrycznych im. Miko\u0142aja Kopernika w K\u0119tach","name":"Powiatowy Zesp\u00f3\u0142 Nr 10 Szk\u00f3\u0142 Mechaniczno-Elektrycznych","addr:country":"PL","addr:postcode":"32-650","addr:city":"K\u0119ty","addr:street":"ul. \u017bwirki i Wigury","addr:housenumber":"27a","addr:teryt:simc":26608,"addr:teryt:sym_ul":924365,"contact:phone":"+48 338453268","contact:email":"sekretariat.pz10@powiat.oswiecim.pl","contact:website":"http:\/\/www.pz10.eu","ref:regon":"000740955","ref:vatin":"PL5491570211","operator":"Powiat O\u015bwi\u0119cimski","operator:type":"government","landuse":"education","fixme":"amenity=school, amenity=college albo landuse=education w zale\u017cno\u015bci od tego, jakie plac\u00f3wki wchodz\u0105 w sk\u0142ad zespo\u0142u. Sprawd\u017a, kiedy stosowa\u0107 amenity=* a kiedy landuse=education.","note":"Children RSPO: 7119;7138;7154;7184"}},{"id":7119,"type":"Feature","geometry":{"type":"Point","coordinates":[19.2194,49.87485]},"properties":{"isced:level":"3","ref:rspo":7119,"official_name":"Iii Liceum Og\u00f3lnokszta\u0142c\u0105ce Mistrzostwa Sportowego w K\u0119tach","name":"Iii Liceum Og\u00f3lnokszta\u0142c\u0105ce Mistrzostwa Sportowego w K\u0119tach","addr:country":"PL","addr:postcode":"32-650","addr:city":"K\u0119ty","addr:street":"ul. \u017bwirki i Wigury","addr:housenumber":"27a","addr:teryt:simc":26608,"addr:teryt:sym_ul":924365,"contact:phone":"+48 338453268","contact:email":"sekretariat.pz10@powiat.oswiecim.pl","contact:website":"http:\/\/www.pz10.eu","ref:regon":"121176998","operator":"Powiat O\u015bwi\u0119cimski","operator:type":"government","amenity":"school","note":"Parent RSPO: 3839"}},{"id":7138,"type":"Feature","geometry":{"type":"Point","coordinates":[19.2194,49.87482]},"properties":{"isced:level":"3","ref:rspo":7138,"official_name":"Technikum w K\u0119tach","name":"Technikum w K\u0119tach","addr:country":"PL","addr:postcode":"32-650","addr:city":"K\u0119ty","addr:street":"ul. \u017bwirki i Wigury","addr:housenumber":"27a","addr:teryt:simc":26608,"addr:teryt:sym_ul":924365,"contact:phone":"+48 338453268","contact:email":"sekretariat.pz10@powiat.oswiecim.pl","contact:website":"http:\/\/www.pz10.eu","ref:regon":"356569187","operator":"Powiat O\u015bwi\u0119cimski","operator:type":"government","amenity":"school","note":"Parent RSPO: 3839"}},{"id":7154,"type":"Feature","geometry":{"type":"Point","coordinates":[19.2194,49.87479]},"properties":{"isced:level":"3","ref:rspo":7154,"official_name":"Bran\u017cowa Szko\u0142a I Stopnia w K\u0119tach","name":"Bran\u017cowa Szko\u0142a I Stopnia w K\u0119tach","addr:country":"PL","addr:postcode":"32-650","addr:city":"K\u0119ty","addr:street":"ul. \u017bwirki i Wigury","addr:housenumber":"27a","addr:teryt:simc":26608,"addr:teryt:sym_ul":924365,"contact:phone":"+48 338453268","contact:email":"sekretariat.pz10@powiat.oswiecim.pl","contact:website":"http:\/\/www.pz10.eu","ref:regon":"356569170","operator":"Powiat O\u015bwi\u0119cimski","operator:type":"government","amenity":"school","note":"Parent RSPO: 3839"}},{"id":7184,"type":"Feature","geometry":{"type":"Point","coordinates":[19.2194,49.87476]},"properties":{"isced:level":"4","ref:rspo":7184,"official_name":"Szko\u0142a Policealna Nr II w K\u0119tach","name":"Szko\u0142a Policealna Nr II w K\u0119tach","addr:country":"PL","addr:postcode":"32-650","addr:city":"K\u0119ty","addr:street":"ul. \u017bwirki i Wigury","addr:housenumber":"27a","addr:teryt:simc":26608,"addr:teryt:sym_ul":924365,"contact:phone":"+48 338453268","contact:email":"sekretariat.pz10@powiat.oswiecim.pl","contact:website":"http:\/\/www.pz10.eu","ref:regon":"356728846","operator":"Powiat O\u015bwi\u0119cimski","operator:type":"government","amenity":"college","note":"Parent RSPO: 3839"}},{"id":132010,"type":"Feature","geometry":{"type":"Point","coordinates":[19.29347,49.8752799]},"properties":{"ref:rspo":132010,"official_name":"Niepubliczne Przedszkole \"T\u0119czowa Kraina\"","name":"Niepubliczne Przedszkole \"T\u0119czowa Kraina\"","addr:country":"PL","addr:postcode":"32-652","addr:city":"Bulowice","addr:street":"ul. Krakowska","addr:housenumber":"13","addr:teryt:simc":9796,"addr:teryt:sym_ul":57247,"contact:phone":"+48 788475338","contact:email":"teczowakraina.bulowice@gmail.com","contact:website":"http:\/\/www.teczowakraina.pl","ref:regon":"365409172","operator":"Sylwia Szczerba","operator:type":"private","amenity":"kindergarten"}},{"id":55172,"type":"Feature","geometry":{"type":"Point","coordinates":[19.28312,49.87583]},"properties":{"ref:rspo":55172,"official_name":"Zesp\u00f3\u0142 Szkolno-Przedszkolny w Bulowicach","name":"Zesp\u00f3\u0142 Szkolno-Przedszkolny w Bulowicach","addr:country":"PL","addr:postcode":"32-652","addr:city":"Bulowice","addr:street":"ul. Bielska","addr:housenumber":"59","addr:teryt:simc":1279,"addr:teryt:sym_ul":57247,"contact:phone":"+48 338453546","contact:email":"zspbulowice@edukacja.kety.pl","ref:regon":"120307441","ref:vatin":"PL5492280188","operator":"Gmina K\u0119ty","operator:type":"government","landuse":"education","fixme":"amenity=school, amenity=college albo landuse=education w zale\u017cno\u015bci od tego, jakie plac\u00f3wki wchodz\u0105 w sk\u0142ad zespo\u0142u. Sprawd\u017a, kiedy stosowa\u0107 amenity=* a kiedy landuse=education.","note":"Children RSPO: 68136;69406"}},{"id":69406,"type":"Feature","geometry":{"type":"Point","coordinates":[19.28312,49.8758]},"properties":{"isced:level":"1;2","ref:rspo":69406,"official_name":"Szko\u0142a Podstawowa im. Tadeusza Ko\u015bciuszki w Bulowicach","name":"Szko\u0142a Podstawowa","addr:country":"PL","addr:postcode":"32-652","addr:city":"Bulowice","addr:street":"ul. Bielska","addr:housenumber":"59","addr:teryt:simc":1279,"addr:teryt:sym_ul":57247,"contact:phone":"+48 338453546","contact:email":"zspbulowice@edukacja.kety.pl","contact:website":"https:\/\/zspbulowice.edukacja.kety.pl\/","ref:regon":"070690390","operator":"Gmina K\u0119ty","operator:type":"government","amenity":"school","note":"Parent RSPO: 55172"}},{"id":107339,"type":"Feature","geometry":{"type":"Point","coordinates":[19.21854,49.8759]},"properties":{"ref:rspo":107339,"official_name":"Zesp\u00f3\u0142 Szk\u00f3\u0142 Centrum Kszta\u0142cenia Doros\u0142ych Oczko Maria","name":"Zesp\u00f3\u0142 Szk\u00f3\u0142 Centrum Kszta\u0142cenia Doros\u0142ych Oczko Maria","addr:country":"PL","addr:postcode":"32-650","addr:city":"K\u0119ty","addr:street":"ul. \u017bwirki i Wigury","addr:housenumber":"27","addr:teryt:simc":26608,"addr:teryt:sym_ul":924365,"contact:phone":"+48 338452133","contact:email":"ckd@ckd.edu.pl","contact:website":"http:\/\/www.ckd.edu.pl","ref:regon":"122763887","operator":"Maria Oczko","operator:type":"private","landuse":"education","fixme":"amenity=school, amenity=college albo landuse=education w zale\u017cno\u015bci od tego, jakie plac\u00f3wki wchodz\u0105 w sk\u0142ad zespo\u0142u. Sprawd\u017a, kiedy stosowa\u0107 amenity=* a kiedy landuse=education.","note":"Children RSPO: 25961;25990;26399;26490"}},{"id":268645,"type":"Feature","geometry":{"type":"Point","coordinates":[19.21854,49.87587]},"properties":{"isced:level":"1;2","ref:rspo":268645,"official_name":"Niepubliczna Szko\u0142a Podstawowa Fundacji Kr\u00f3lowej \u015awi\u0119tej Jadwigi w K\u0119tach","name":"Niepubliczna Szko\u0142a Podstawowa Fundacji Kr\u00f3lowej \u015awi\u0119tej Jadwigi w K\u0119tach","addr:country":"PL","addr:postcode":"32-650","addr:city":"K\u0119ty","addr:street":"ul. \u017bwirki i Wigury","addr:housenumber":"27","addr:teryt:simc":26608,"addr:teryt:sym_ul":924365,"contact:phone":"+48 334454533","contact:email":"biuromms@szkolamontessori.com.pl","contact:website":"http:\/\/www.szkolamontessori.com.pl","ref:regon":"381221935","operator":"Fundacja Kr\u00f3lowej \u015awi\u0119tej Jadwigi","operator:type":"ngo","amenity":"school"}},{"id":268800,"type":"Feature","geometry":{"type":"Point","coordinates":[19.21854,49.875840000000004]},"properties":{"isced:level":"3","ref:rspo":268800,"official_name":"Niepubliczne Liceum Og\u00f3lnokszta\u0142c\u0105ce Fundacji Kr\u00f3lowej \u015awi\u0119tej Jadwigi w K\u0119tach","name":"Niepubliczne Liceum Og\u00f3lnokszta\u0142c\u0105ce Fundacji Kr\u00f3lowej \u015awi\u0119tej Jadwigi w K\u0119tach","addr:country":"PL","addr:postcode":"32-650","addr:city":"K\u0119ty","addr:street":"ul. \u017bwirki i Wigury","addr:housenumber":"27","addr:teryt:simc":26608,"addr:teryt:sym_ul":924365,"contact:phone":"+48 334454533","contact:email":"biuromms@szkolamontessori.com.pl","contact:website":"http:\/\/www.szkolamontessori.com.pl","ref:regon":"381251830","operator":"Fundacja Kr\u00f3lowej \u015awi\u0119tej Jadwigi","operator:type":"ngo","amenity":"school"}},{"id":277596,"type":"Feature","geometry":{"type":"Point","coordinates":[19.21854,49.87581]},"properties":{"ref:rspo":277596,"official_name":"Niepubliczna Plac\u00f3wka Kszta\u0142cenia Ustawicznego Syntonic","name":"Niepubliczna Plac\u00f3wka Kszta\u0142cenia Ustawicznego Syntonic","addr:country":"PL","addr:postcode":"32-650","addr:city":"K\u0119ty","addr:street":"ul. \u017bwirki i Wigury","addr:housenumber":"27","addr:teryt:simc":26608,"addr:teryt:sym_ul":924365,"contact:email":"kasolik@syntonic.pl","contact:website":"http:\/\/www.syntonic.pl","ref:regon":"389174862","operator":"Dawid Kasolik","operator:type":"private","fixme":"w zale\u017cno\u015bci od przedmiotu dzia\u0142alno\u015bci (np. amenity=training + training=*, amenity=dancing_school, amenity=language_school, amenity=music_school)"}},{"id":25961,"type":"Feature","geometry":{"type":"Point","coordinates":[19.21854,49.87578]},"properties":{"ref:rspo":25961,"official_name":"O\u015brodek Kszta\u0142cenia Zawodowego w K\u0119tach","name":"O\u015brodek Kszta\u0142cenia Zawodowego w K\u0119tach","addr:country":"PL","addr:postcode":"32-650","addr:city":"K\u0119ty","addr:street":"ul. \u017bwirki i Wigury","addr:housenumber":"27","addr:teryt:simc":26608,"addr:teryt:sym_ul":924365,"contact:phone":"+48 338452133","contact:email":"ckd@ckd.edu.pl","ref:regon":"122680196","operator":"Maria Oczko","operator:type":"private","fixme":"w zale\u017cno\u015bci od przedmiotu dzia\u0142alno\u015bci (np. amenity=training + training=*, amenity=dancing_school, amenity=language_school, amenity=music_school)","note":"Parent RSPO: 107339"}},{"id":25990,"type":"Feature","geometry":{"type":"Point","coordinates":[19.21854,49.875750000000004]},"properties":{"isced:level":"4","ref:rspo":25990,"official_name":"Niepubliczna Szko\u0142a Policealna w K\u0119tach","name":"Niepubliczna Szko\u0142a Policealna w K\u0119tach","addr:country":"PL","addr:postcode":"32-650","addr:city":"K\u0119ty","addr:street":"ul. \u017bwirki i Wigury","addr:housenumber":"27","addr:teryt:simc":26608,"addr:teryt:sym_ul":924365,"contact:phone":"+48 338452133","contact:email":"ckd@ckd.edu.pl","ref:regon":"122680227","operator":"Maria Oczko","operator:type":"private","amenity":"college","note":"Parent RSPO: 107339"}},{"id":26399,"type":"Feature","geometry":{"type":"Point","coordinates":[19.21854,49.87572]},"properties":{"isced:level":"3","ref:rspo":26399,"official_name":"Niepubliczne Liceum Og\u00f3lnokszta\u0142cace dla Doros\u0142ych w K\u0119tach","name":"Niepubliczne Liceum Og\u00f3lnokszta\u0142cace dla Doros\u0142ych w K\u0119tach","addr:country":"PL","addr:postcode":"32-650","addr:city":"K\u0119ty","addr:street":"ul. \u017bwirki i Wigury","addr:housenumber":"27","addr:teryt:simc":26608,"addr:teryt:sym_ul":924365,"contact:phone":"+48 338452133","contact:email":"ckd@ckd.edu.pl","ref:regon":"122680492","operator":"Maria Oczko","operator:type":"private","amenity":"school","note":"Parent RSPO: 107339"}},{"id":26490,"type":"Feature","geometry":{"type":"Point","coordinates":[19.21854,49.87569]},"properties":{"isced:level":"4","ref:rspo":26490,"official_name":"Szko\u0142a Policealna w K\u0119tach","name":"Szko\u0142a Policealna w K\u0119tach","addr:country":"PL","addr:postcode":"32-650","addr:city":"K\u0119ty","addr:street":"ul. \u017bwirki i Wigury","addr:housenumber":"27","addr:teryt:simc":26608,"addr:teryt:sym_ul":924365,"contact:phone":"+48 338452133","contact:email":"ckd@ckd.edu.pl","ref:regon":"122680530","operator":"Maria Oczko","operator:type":"private","amenity":"college","note":"Parent RSPO: 107339"}},{"id":64049,"type":"Feature","geometry":{"type":"Point","coordinates":[19.20918,49.87685]},"properties":{"ref:rspo":64049,"official_name":"Samorz\u0105dowa Plac\u00f3wka Wychowania Przedszkolnego Nr 1 w K\u0119tach","name":"Samorz\u0105dowa Plac\u00f3wka Wychowania Przedszkolnego Nr 1 w K\u0119tach","addr:country":"PL","addr:postcode":"32-650","addr:city":"K\u0119ty","addr:street":"os. Nad So\u0142\u0105","addr:housenumber":"12","addr:teryt:simc":13819,"addr:teryt:sym_ul":924365,"contact:phone":"+48 338452549","contact:email":"spwp1@edukacja.kety.pl","ref:regon":"071007194","ref:vatin":"PL5492051542","operator":"Gmina K\u0119ty","operator:type":"government","amenity":"kindergarten"}},{"id":68136,"type":"Feature","geometry":{"type":"Point","coordinates":[19.2831699,49.87704]},"properties":{"ref:rspo":68136,"official_name":"Samorz\u0105dowa Plac\u00f3wka Wychowania Przedszkolnego w Bulowicach","name":"Samorz\u0105dowa Plac\u00f3wka Wychowania Przedszkolnego w Bulowicach","addr:country":"PL","addr:postcode":"32-652","addr:city":"Bulowice","addr:street":"ul. Bielska","addr:housenumber":"38","addr:teryt:simc":1279,"addr:teryt:sym_ul":57247,"contact:phone":"+48 338453546","contact:email":"zspbulowice@edukacja.kety.pl","contact:website":"https:\/\/zspbulowice.edukacja.kety.pl\/","ref:regon":"071007521","operator":"Gmina K\u0119ty","operator:type":"government","amenity":"kindergarten","note":"Parent RSPO: 55172"}},{"id":69832,"type":"Feature","geometry":{"type":"Point","coordinates":[19.21595,49.87717]},"properties":{"isced:level":"1;2","ref:rspo":69832,"official_name":"Szko\u0142a Podstawowa Nr 2 im. Bohater\u00f3w Monte Cassino w K\u0119tach","name":"Szko\u0142a Podstawowa Nr 2","addr:country":"PL","addr:postcode":"32-650","addr:city":"K\u0119ty","addr:street":"ul. Stanis\u0142awa Wyspia\u0144skiego","addr:housenumber":"1","addr:teryt:simc":25084,"addr:teryt:sym_ul":924365,"contact:phone":"+48 338452932","contact:email":"sp2@edukacja.kety.pl","contact:website":"http:\/\/sp2.edukacja.kety.pl","ref:regon":"070690438","operator":"Gmina K\u0119ty","operator:type":"government","amenity":"school"}},{"id":22141,"type":"Feature","geometry":{"type":"Point","coordinates":[19.21589,49.87815]},"properties":{"isced:level":"3","ref:rspo":22141,"official_name":"I Liceum Og\u00f3lnokszta\u0142c\u0105ce im. Stanis\u0142awa Wyspia\u0144skiego w K\u0119tach","name":"I Liceum Og\u00f3lnokszta\u0142c\u0105ce","addr:country":"PL","addr:postcode":"32-650","addr:city":"K\u0119ty","addr:street":"ul. Stanis\u0142awa Wyspia\u0144skiego","addr:housenumber":"2","addr:teryt:simc":25084,"addr:teryt:sym_ul":924365,"contact:phone":"+48 338453730","contact:email":"dyrektor@wyspian.pl","contact:website":"http:\/\/www.wyspian.pl","ref:regon":"356729030","operator":"Powiat O\u015bwi\u0119cimski","operator:type":"government","amenity":"school"}},{"id":64596,"type":"Feature","geometry":{"type":"Point","coordinates":[19.21884,49.8782]},"properties":{"ref:rspo":64596,"official_name":"Samorz\u0105dowa Plac\u00f3wka Wychowania Przedszkolnego Nr 7 w K\u0119tach","name":"Samorz\u0105dowa Plac\u00f3wka Wychowania Przedszkolnego Nr 7 w K\u0119tach","addr:country":"PL","addr:postcode":"32-650","addr:city":"K\u0119ty","addr:street":"ul. \u017bwirki i Wigury","addr:housenumber":"15A","addr:teryt:simc":26608,"addr:teryt:sym_ul":924365,"contact:phone":"+48 338453936","contact:email":"spwp7@edukacja.kety.pl","ref:regon":"071007248","ref:vatin":"PL5492051571","operator":"Gmina K\u0119ty","operator:type":"government","amenity":"kindergarten"}},{"id":20934,"type":"Feature","geometry":{"type":"Point","coordinates":[19.22356,49.87988]},"properties":{"ref:rspo":20934,"official_name":"Powiatowy Zesp\u00f3\u0142 Nr 9 Szk\u00f3\u0142 im. Marii D\u0105browskiej w K\u0119tach","name":"Powiatowy Zesp\u00f3\u0142 Nr 9 Szk\u00f3\u0142","addr:country":"PL","addr:postcode":"32-650","addr:city":"K\u0119ty","addr:street":"ul. Tadeusza Ko\u015bciuszki","addr:housenumber":"29","addr:teryt:simc":9582,"addr:teryt:sym_ul":924365,"contact:phone":"+48 338453072","contact:email":"sekretariat.pz9@powiat.oswiecim.pl","contact:website":"http:\/\/www.dabrowska.info","ref:regon":"000179950","ref:vatin":"PL5491579525","operator":"Powiat O\u015bwi\u0119cimski","operator:type":"government","landuse":"education","fixme":"amenity=school, amenity=college albo landuse=education w zale\u017cno\u015bci od tego, jakie plac\u00f3wki wchodz\u0105 w sk\u0142ad zespo\u0142u. Sprawd\u017a, kiedy stosowa\u0107 amenity=* a kiedy landuse=education.","note":"Children RSPO: 22287;22321;22329"}},{"id":22287,"type":"Feature","geometry":{"type":"Point","coordinates":[19.22356,49.87985]},"properties":{"isced:level":"3","ref:rspo":22287,"official_name":"Ii Liceum Og\u00f3lnokszta\u0142c\u0105ce w K\u0119tach","name":"Ii Liceum Og\u00f3lnokszta\u0142c\u0105ce w K\u0119tach","addr:country":"PL","addr:postcode":"32-650","addr:city":"K\u0119ty","addr:street":"ul. Tadeusza Ko\u015bciuszki","addr:housenumber":"29","addr:teryt:simc":9582,"addr:teryt:sym_ul":924365,"contact:phone":"+48 338453072","contact:email":"sekretariat.pz9@powiat.oswiecim.pl","contact:website":"http:\/\/www.dabrowska.info","ref:regon":"356574923","operator":"Powiat O\u015bwi\u0119cimski","operator:type":"government","amenity":"school","note":"Parent RSPO: 20934"}},{"id":22321,"type":"Feature","geometry":{"type":"Point","coordinates":[19.22356,49.87982]},"properties":{"isced:level":"3","ref:rspo":22321,"official_name":"Liceum Og\u00f3lnokszta\u0142c\u0105ce dla Doros\u0142ych w K\u0119tach","name":"Liceum Og\u00f3lnokszta\u0142c\u0105ce dla Doros\u0142ych w K\u0119tach","addr:country":"PL","addr:postcode":"32-650","addr:city":"K\u0119ty","addr:street":"ul. Tadeusza Ko\u015bciuszki","addr:housenumber":"29","addr:teryt:simc":9582,"addr:teryt:sym_ul":924365,"contact:phone":"+48 338453072","contact:email":"sekretariat.pz9@powiat.oswiecim.pl","contact:website":"http:\/\/www.dabrowska.info","ref:regon":"122673084","operator":"Powiat O\u015bwi\u0119cimski","operator:type":"government","amenity":"school","note":"Parent RSPO: 20934"}},{"id":22329,"type":"Feature","geometry":{"type":"Point","coordinates":[19.22356,49.87979]},"properties":{"isced:level":"4","ref:rspo":22329,"official_name":"Szko\u0142a Policealna Nr I w K\u0119tach","name":"Szko\u0142a Policealna Nr I w K\u0119tach","addr:country":"PL","addr:postcode":"32-650","addr:city":"K\u0119ty","addr:street":"ul. Tadeusza Ko\u015bciuszki","addr:housenumber":"29","addr:teryt:simc":9582,"addr:teryt:sym_ul":924365,"contact:phone":"+48 338453072","contact:email":"sekretariat.pz9@powiat.oswiecim.pl","contact:website":"http:\/\/www.dabrowska.info","ref:regon":"122673115","operator":"Powiat O\u015bwi\u0119cimski","operator:type":"government","amenity":"college","note":"Parent RSPO: 20934"}},{"id":278805,"type":"Feature","geometry":{"type":"Point","coordinates":[19.21802,49.88054]},"properties":{"ref:rspo":278805,"official_name":"Niepubliczna Plac\u00f3wka Kszta\u0142cenia Ustawicznego \"Face 2 Face\"","name":"Niepubliczna Plac\u00f3wka Kszta\u0142cenia Ustawicznego \"Face 2 Face\"","addr:country":"PL","addr:postcode":"32-650","addr:city":"K\u0119ty","addr:street":"ul. \u017bwirki i Wigury","addr:housenumber":"2","addr:teryt:simc":26608,"addr:teryt:sym_ul":924365,"contact:email":"kety@face2face.pl","contact:website":"http:\/\/www.face2face.pl","ref:regon":"520115166","operator":"\u0141ucja Falfus","operator:type":"private","fixme":"w zale\u017cno\u015bci od przedmiotu dzia\u0142alno\u015bci (np. amenity=training + training=*, amenity=dancing_school, amenity=language_school, amenity=music_school)"}},{"id":64598,"type":"Feature","geometry":{"type":"Point","coordinates":[19.2177,49.88239]},"properties":{"ref:rspo":64598,"official_name":"Samorz\u0105dowa Plac\u00f3wka Wychowania Przedszkolnego Nr 8","name":"Samorz\u0105dowa Plac\u00f3wka Wychowania Przedszkolnego Nr 8","addr:country":"PL","addr:postcode":"32-650","addr:city":"K\u0119ty","addr:street":"ul. Jana III Sobieskiego","addr:housenumber":"12","addr:teryt:simc":20431,"addr:teryt:sym_ul":924365,"contact:phone":"+48 338452986","contact:email":"spwp8@edukacja.kety.pl","ref:regon":"071007254","ref:vatin":"PL5492051602","operator":"Gmina K\u0119ty","operator:type":"government","amenity":"kindergarten"}},{"id":69407,"type":"Feature","geometry":{"type":"Point","coordinates":[19.2189799,49.88282]},"properties":{"isced:level":"1;2","ref:rspo":69407,"official_name":"Szko\u0142a Podstawowa Nr 1 im. \u015aw. Jana Kantego w K\u0119tach","name":"Szko\u0142a Podstawowa Nr 1","addr:country":"PL","addr:postcode":"32-650","addr:city":"K\u0119ty","addr:street":"ul. Jana III Sobieskiego","addr:housenumber":"6","addr:teryt:simc":20431,"addr:teryt:sym_ul":924365,"contact:phone":"+48 338452140","contact:email":"sp1@edukacja.kety.pl","contact:website":"http:\/\/sp1.edukacja.kety.pl","ref:regon":"070690444","operator":"Gmina K\u0119ty","operator:type":"government","amenity":"school"}},{"id":57839,"type":"Feature","geometry":{"type":"Point","coordinates":[19.2191,49.8847]},"properties":{"ref:rspo":57839,"official_name":"Publiczne Przedszkole im. B\u0142. M. Celiny Borz\u0119ckiej Zgromadzenia Si\u00f3str Zmartwychwstania Pa\u0144skiego","name":"Publiczne Przedszkole","addr:country":"PL","addr:postcode":"32-650","addr:city":"K\u0119ty","addr:street":"ul. Rajska","addr:housenumber":"4","addr:teryt:simc":18403,"addr:teryt:sym_ul":924365,"contact:phone":"+48 338452429","contact:email":"przedszkolecrkety@gmail.com","contact:website":"http:\/\/przedszkolecr.kety.pl","ref:regon":"122709847","ref:vatin":"PL5491105595","operator":"Zg.ss.zmartwychwstania Pa\u0144skiego,Prowincja Warszawska","operator:type":"religious","amenity":"kindergarten"}},{"id":58533,"type":"Feature","geometry":{"type":"Point","coordinates":[19.22024,49.8853]},"properties":{"ref:rspo":58533,"official_name":"Niepubliczne Przedszkole im. Dzieci\u0105tka Jezus","name":"Niepubliczne Przedszkole","addr:country":"PL","addr:postcode":"32-650","addr:city":"K\u0119ty","addr:street":"ul. Adama Mickiewicza","addr:housenumber":"6","addr:teryt:simc":12740,"addr:teryt:sym_ul":924365,"contact:phone":"+48 338451616","contact:email":"dyrektor.dzieciatko@gmail.com","contact:website":"http:\/\/przedszkoledzieciatkajezus.pl","ref:regon":"122698658","ref:vatin":"PL5492367015","operator":"Parafia Rzym.-Kat. Pw.swi\u0119tej Ma\u0142gorzaty I \u015awi\u0119tej Katarzyny","operator:type":"religious","amenity":"kindergarten"}},{"id":70357,"type":"Feature","geometry":{"type":"Point","coordinates":[19.22775,49.88722]},"properties":{"ref:rspo":70357,"official_name":"Niepubliczne Przedszkole \"Bajeczka\" w K\u0119tach","name":"Niepubliczne Przedszkole \"Bajeczka\" w K\u0119tach","addr:country":"PL","addr:postcode":"32-650","addr:city":"K\u0119ty","addr:street":"os. Batalion\u00f3w Ch\u0142opskich","addr:housenumber":"5","addr:teryt:simc":867,"addr:teryt:sym_ul":924365,"contact:phone":"+48 790698200","contact:email":"o.machniowska.bajeczka@gmail.com","contact:website":"http:\/\/bajeczka-kety.edu.pl","ref:regon":"122698003","ref:vatin":"PL5492255279","operator":"Micha\u0142 Kublin","operator:type":"private","amenity":"kindergarten"}},{"id":133135,"type":"Feature","geometry":{"type":"Point","coordinates":[19.23758,49.88787]},"properties":{"ref:rspo":133135,"official_name":"Niepubliczna Plac\u00f3wka Kszta\u0142cenia Ustawicznego \"Bravo\"","name":"Niepubliczna Plac\u00f3wka Kszta\u0142cenia Ustawicznego \"Bravo\"","addr:country":"PL","addr:postcode":"32-650","addr:city":"K\u0119ty","addr:street":"ul. B\u0142onie","addr:housenumber":"16","addr:teryt:simc":1465,"addr:teryt:sym_ul":924365,"contact:phone":"+48 338448555","contact:email":"biuro@wtorplast.pl","ref:regon":"366704157","operator":"Wt\u00f3rplast Sp\u00f3\u0142ka Akcyjna","operator:type":"private","fixme":"w zale\u017cno\u015bci od przedmiotu dzia\u0142alno\u015bci (np. amenity=training + training=*, amenity=dancing_school, amenity=language_school, amenity=music_school)"}},{"id":69403,"type":"Feature","geometry":{"type":"Point","coordinates":[19.2227,49.9043599]},"properties":{"isced:level":"1;2","ref:rspo":69403,"official_name":"Szko\u0142a Podstawowa im. Gen. W\u0142adys\u0142awa Sikorskiego w Nowej Wsi","name":"Szko\u0142a Podstawowa","addr:country":"PL","addr:postcode":"32-651","addr:city":"Nowa Wie\u015b","addr:street":"ul. Stanis\u0142awa Konarskiego","addr:housenumber":"4","addr:teryt:simc":9111,"addr:teryt:sym_ul":57477,"contact:phone":"+48 338453618","contact:email":"spnowawies@edukacja.kety.pl","contact:website":"http:\/\/spnowawies.edukacja.kety.pl","ref:regon":"070690378","operator":"Gmina K\u0119ty","operator:type":"government","amenity":"school"}},{"id":54007,"type":"Feature","geometry":{"type":"Point","coordinates":[19.27578,49.91372]},"properties":{"ref:rspo":54007,"official_name":"Zesp\u00f3\u0142 Szkolno-Przedszkolny w Witkowicach","name":"Zesp\u00f3\u0142 Szkolno-Przedszkolny w Witkowicach","addr:country":"PL","addr:postcode":"32-650","addr:city":"Witkowice","addr:street":"ul. Beskidzka","addr:housenumber":"98","addr:teryt:simc":1103,"addr:teryt:sym_ul":57520,"contact:phone":"+48 338485139","contact:email":"zspwitkowice@edukacja.kety.pl","ref:regon":"356789760","ref:vatin":"PL5492182296","operator":"Gmina K\u0119ty","operator:type":"government","landuse":"education","fixme":"amenity=school, amenity=college albo landuse=education w zale\u017cno\u015bci od tego, jakie plac\u00f3wki wchodz\u0105 w sk\u0142ad zespo\u0142u. Sprawd\u017a, kiedy stosowa\u0107 amenity=* a kiedy landuse=education.","note":"Children RSPO: 64603;69868"}},{"id":69868,"type":"Feature","geometry":{"type":"Point","coordinates":[19.27578,49.913689999999995]},"properties":{"isced:level":"1;2","ref:rspo":69868,"official_name":"Szko\u0142a Podstawowa im. Bronis\u0142awa Obary w Witkowicach","name":"Szko\u0142a Podstawowa","addr:country":"PL","addr:postcode":"32-650","addr:city":"Witkowice","addr:street":"ul. Beskidzka","addr:housenumber":"98","addr:teryt:simc":1103,"addr:teryt:sym_ul":57520,"contact:phone":"+48 338485139","contact:email":"zspwitkowice@edukacja.kety.pl","ref:regon":"070690355","operator":"Gmina K\u0119ty","operator:type":"government","amenity":"school","note":"Parent RSPO: 54007"}},{"id":64603,"type":"Feature","geometry":{"type":"Point","coordinates":[19.27883,49.91748]},"properties":{"ref:rspo":64603,"official_name":"Samorz\u0105dowa Plac\u00f3wka Wychowania Przedszkolnego w Witkowicach","name":"Samorz\u0105dowa Plac\u00f3wka Wychowania Przedszkolnego w Witkowicach","addr:country":"PL","addr:postcode":"32-650","addr:city":"Witkowice","addr:street":"ul. Dworska","addr:housenumber":"46","addr:teryt:simc":4446,"addr:teryt:sym_ul":57520,"contact:phone":"+48 338485139","contact:email":"zspwitkowice@edukacja.kety.pl","ref:regon":"071007283","operator":"Gmina K\u0119ty","operator:type":"government","amenity":"kindergarten","note":"Parent RSPO: 54007"}},{"id":69401,"type":"Feature","geometry":{"type":"Point","coordinates":[19.23989,49.92058]},"properties":{"isced:level":"1;2","ref:rspo":69401,"official_name":"Szko\u0142a Podstawowa w Malcu","name":"Szko\u0142a Podstawowa w Malcu","addr:country":"PL","addr:postcode":"32-651","addr:city":"Malec","addr:street":"ul. \u015awi\u0119toja\u0144ska","addr:housenumber":"1","addr:teryt:simc":22548,"addr:teryt:sym_ul":57402,"contact:phone":"+48 338455300","contact:email":"spmalec@edukacja.kety.pl","contact:website":"http:\/\/www.spmalec.edukacja.kety.pl","ref:regon":"070690384","ref:vatin":"PL5492048511","operator":"Gmina K\u0119ty","operator:type":"government","amenity":"school"}},{"id":58534,"type":"Feature","geometry":{"type":"Point","coordinates":[19.23602,49.92272]},"properties":{"ref:rspo":58534,"official_name":"Niepubliczne Przedszkole \"Pod D\u0119bami\"","name":"Niepubliczne Przedszkole \"Pod D\u0119bami\"","addr:country":"PL","addr:postcode":"32-651","addr:city":"Malec","addr:street":"ul. \u015awi\u0119toja\u0144ska","addr:housenumber":"63","addr:teryt:simc":22548,"addr:teryt:sym_ul":57402,"contact:phone":"+48 338455165","contact:email":"anna.kublin@gmail.com","contact:website":"http:\/\/pod-debami.edu.pl","ref:regon":"122691219","ref:vatin":"PL5491205782","operator":"Anna Kublin","operator:type":"private","amenity":"kindergarten"}},{"id":64602,"type":"Feature","geometry":{"type":"Point","coordinates":[19.19915,49.93549]},"properties":{"ref:rspo":64602,"official_name":"Samorz\u0105dowa Plac\u00f3wka Wychowania Przedszkolnego w Bielanach","name":"Samorz\u0105dowa Plac\u00f3wka Wychowania Przedszkolnego w Bielanach","addr:country":"PL","addr:postcode":"32-651","addr:city":"Bielany","addr:street":"ul. Solna","addr:housenumber":"37","addr:teryt:simc":20541,"addr:teryt:sym_ul":57135,"contact:phone":"+48 338486045","contact:email":"spwpbielany@edukacja.kety.pl","ref:regon":"071007515","ref:vatin":"PL5492051631","operator":"Gmina K\u0119ty","operator:type":"government","amenity":"kindergarten"}},{"id":69404,"type":"Feature","geometry":{"type":"Point","coordinates":[19.20536,49.94048]},"properties":{"isced:level":"1;2","ref:rspo":69404,"official_name":"Szko\u0142a Podstawowa im. Tadeusza Ko\u015bciuszki w Bielanach","name":"Szko\u0142a Podstawowa","addr:country":"PL","addr:postcode":"32-651","addr:city":"Bielany","addr:street":"ul. \u0141\u0119cka","addr:housenumber":"2","addr:teryt:simc":11604,"addr:teryt:sym_ul":57135,"contact:phone":"+48 338486053","contact:email":"spbielany@edukacja.kety.pl","contact:website":"http:\/\/spbielany.edukacja.kety.pl","ref:regon":"070690409","operator":"Gmina K\u0119ty","operator:type":"government","amenity":"school"}},{"id":55153,"type":"Feature","geometry":{"type":"Point","coordinates":[19.21301,49.95015]},"properties":{"ref:rspo":55153,"official_name":"Zesp\u00f3\u0142 Szkolno-Przedszkolny w \u0141\u0119kach","name":"Zesp\u00f3\u0142 Szkolno-Przedszkolny w \u0141\u0119kach","addr:country":"PL","addr:postcode":"32-651","addr:city":"\u0141\u0119ki","addr:street":"ul. Akacjowa","addr:housenumber":"28","addr:teryt:simc":157,"addr:teryt:sym_ul":57394,"contact:phone":"+48 338428122","contact:email":"zspleki@edukacja.kety.pl","ref:regon":"120310236","ref:vatin":"PL5492281182","operator":"Gmina K\u0119ty","operator:type":"government","landuse":"education","fixme":"amenity=school, amenity=college albo landuse=education w zale\u017cno\u015bci od tego, jakie plac\u00f3wki wchodz\u0105 w sk\u0142ad zespo\u0142u. Sprawd\u017a, kiedy stosowa\u0107 amenity=* a kiedy landuse=education.","note":"Children RSPO: 68200;69867"}},{"id":69867,"type":"Feature","geometry":{"type":"Point","coordinates":[19.21301,49.95012]},"properties":{"isced:level":"1;2","ref:rspo":69867,"official_name":"Szko\u0142a Podstawowa w \u0141\u0119kach","name":"Szko\u0142a Podstawowa w \u0141\u0119kach","addr:country":"PL","addr:postcode":"32-651","addr:city":"\u0141\u0119ki","addr:street":"ul. Akacjowa","addr:housenumber":"28","addr:teryt:simc":157,"addr:teryt:sym_ul":57394,"contact:phone":"+48 338428122","contact:email":"zspleki@edukacja.kety.pl","contact:website":"http:\/\/zspleki.edukacja.kety.pl","ref:regon":"070690361","operator":"Gmina K\u0119ty","operator:type":"government","amenity":"school","note":"Parent RSPO: 55153"}},{"id":68200,"type":"Feature","geometry":{"type":"Point","coordinates":[19.2144,49.95294]},"properties":{"ref:rspo":68200,"official_name":"Samorz\u0105dowa Plac\u00f3wka Wychowania Przedszkolnego w \u0141\u0119kach","name":"Samorz\u0105dowa Plac\u00f3wka Wychowania Przedszkolnego w \u0141\u0119kach","addr:country":"PL","addr:postcode":"32-651","addr:city":"\u0141\u0119ki","addr:street":"ul. Parkowa","addr:housenumber":"4","addr:teryt:simc":15710,"addr:teryt:sym_ul":57394,"contact:phone":"+48 338428122","contact:email":"zspleki@edukacja.kety.pl","ref:regon":"071007509","operator":"Gmina K\u0119ty","operator:type":"government","amenity":"kindergarten","note":"Parent RSPO: 55153"}},{"id":64600,"type":"Feature","geometry":{"type":"Point","coordinates":[19.25653,50.03058]},"properties":{"ref:rspo":64600,"official_name":"Samorz\u0105dowa Plac\u00f3wka Wychowania Przedszkolnego w Nowej Wsi","name":"Samorz\u0105dowa Plac\u00f3wka Wychowania Przedszkolnego w Nowej Wsi","addr:country":"PL","addr:postcode":"32-650","addr:city":"Nowa Wie\u015b","addr:street":"ul. \u015bw. Maksymiliana Marii Kolbe","addr:housenumber":"25","addr:teryt:simc":31856,"addr:teryt:sym_ul":57477,"contact:phone":"+48 338453915","contact:email":"spwpnowawies@edukacja.kety.pl","ref:regon":"071007277","ref:vatin":"PL5492051594","operator":"Gmina K\u0119ty","operator:type":"government","amenity":"kindergarten"}}]}