{
    "type": "FeatureCollection",
    "features": [
        {
            "id": 268326,
            "type": "Feature",
            "geometry": {
                "type": "Point",
                "coordinates": [
                    19.45071,
                    49.94476
                ]
            },
            "properties": {
                "ref:rspo": 268326,
                "official_name": "Zesp\u00f3\u0142 Szkolno - Przedszkolny w Graboszycach Im Jana Szklarza",
                "name": "Zesp\u00f3\u0142 Szkolno - Przedszkolny w Graboszycach Im Jana Szklarza",
                "addr:country": "PL",
                "addr:postcode": "32-640",
                "addr:city": "Graboszyce",
                "addr:street": "Wadowicka",
                "addr:housenumber": "145",
                "addr:teryt:simc": 23485,
                "addr:teryt:sym_ul": 76641,
                "contact:phone": "+48 338412813",
                "contact:email": "sekretariat@zspgraboszyce.pl",
                "contact:website": "http:\/\/www.zspgraboszyce.pl",
                "ref:regon": "381093259",
                "operator": "Gmina Zator",
                "operator:type": "government",
                "landuse": "education",
                "fixme": "amenity=school, amenity=college albo landuse=education w zale\u017cno\u015bci od tego, jakie plac\u00f3wki wchodz\u0105 w sk\u0142ad zespo\u0142u. Sprawd\u017a, kiedy stosowa\u0107 amenity=* a kiedy landuse=education.",
                "note": "Children RSPO: 106645;268324"
            }
        },
        {
            "id": 106645,
            "type": "Feature",
            "geometry": {
                "type": "Point",
                "coordinates": [
                    19.45071,
                    49.94473
                ]
            },
            "properties": {
                "isced:level": "1;2",
                "ref:rspo": 106645,
                "official_name": "Szko\u0142a Podstawowa im. W\u0142adys\u0142awa Broniewskiego w Graboszycach",
                "name": "Szko\u0142a Podstawowa",
                "addr:country": "PL",
                "addr:postcode": "32-640",
                "addr:city": "Graboszyce",
                "addr:street": "Wadowicka",
                "addr:housenumber": "145",
                "addr:teryt:simc": 23485,
                "addr:teryt:sym_ul": 76641,
                "contact:phone": "+48 338412813",
                "contact:email": "sekretariat@zspgraboszyce.pl",
                "contact:website": "http:\/\/www.zsgraboszyce.pl\/",
                "ref:regon": "356858862",
                "ref:vatin": "PL5492060392",
                "operator": "Gmina Zator",
                "operator:type": "government",
                "amenity": "school",
                "note": "Parent RSPO: 268326"
            }
        },
        {
            "id": 268324,
            "type": "Feature",
            "geometry": {
                "type": "Point",
                "coordinates": [
                    19.45071,
                    49.944700000000005
                ]
            },
            "properties": {
                "ref:rspo": 268324,
                "official_name": "Przedszkole Publiczne w Graboszycach",
                "name": "Przedszkole Publiczne w Graboszycach",
                "addr:country": "PL",
                "addr:postcode": "32-640",
                "addr:city": "Graboszyce",
                "addr:street": "Wadowicka",
                "addr:housenumber": "145",
                "addr:teryt:simc": 23485,
                "addr:teryt:sym_ul": 76641,
                "contact:phone": "+48 338412813",
                "contact:email": "sekretariat@zspgraboszyce.pl",
                "contact:website": "http:\/\/www.zspgraboszyce.pl",
                "ref:regon": "381093213",
                "operator": "Gmina Zator",
                "operator:type": "government",
                "amenity": "kindergarten",
                "note": "Parent RSPO: 268326"
            }
        },
        {
            "id": 56100,
            "type": "Feature",
            "geometry": {
                "type": "Point",
                "coordinates": [
                    19.4575639,
                    49.963305
                ]
            },
            "properties": {
                "isced:level": "1;2",
                "ref:rspo": 56100,
                "official_name": "Szko\u0142a Podstawowa w Grodzisku",
                "name": "Szko\u0142a Podstawowa w Grodzisku",
                "addr:country": "PL",
                "addr:postcode": "32-640",
                "addr:place": "Grodzisko",
                "addr:housenumber": "100",
                "addr:teryt:sym_ul": 76701,
                "contact:phone": "+48 338412278",
                "contact:email": "spgrodzisko100@op.pl",
                "contact:website": "https:\/\/spgrodzisko2.jimdofree.com\/",
                "ref:regon": "120310779",
                "ref:vatin": "PL5492282431",
                "operator": "Gmina Zator",
                "operator:type": "government",
                "amenity": "school",
                "note": "Parent RSPO: 114762"
            }
        },
        {
            "id": 114762,
            "type": "Feature",
            "geometry": {
                "type": "Point",
                "coordinates": [
                    19.45871,
                    49.96403
                ]
            },
            "properties": {
                "ref:rspo": 114762,
                "official_name": "Zesp\u00f3\u0142 Szko\u0142y I Szkolnego Schroniska M\u0142odzie\u017cowego w Grodzisku",
                "name": "Zesp\u00f3\u0142 Szko\u0142y I Szkolnego Schroniska M\u0142odzie\u017cowego w Grodzisku",
                "addr:country": "PL",
                "addr:postcode": "32-640",
                "addr:city": "Grodzisko",
                "addr:street": "Grodowa",
                "addr:housenumber": "3",
                "addr:teryt:simc": 6152,
                "addr:teryt:sym_ul": 76701,
                "contact:phone": "+48 338412278",
                "contact:email": "spgrodzisko100@op.pl",
                "ref:regon": "122860870",
                "ref:vatin": "PL5492435751",
                "operator": "Gmina Zator",
                "operator:type": "government",
                "landuse": "education",
                "fixme": "amenity=school, amenity=college albo landuse=education w zale\u017cno\u015bci od tego, jakie plac\u00f3wki wchodz\u0105 w sk\u0142ad zespo\u0142u. Sprawd\u017a, kiedy stosowa\u0107 amenity=* a kiedy landuse=education.",
                "note": "Children RSPO: 56100;104954"
            }
        },
        {
            "id": 104954,
            "type": "Feature",
            "geometry": {
                "type": "Point",
                "coordinates": [
                    19.45871,
                    49.964
                ]
            },
            "properties": {
                "ref:rspo": 104954,
                "official_name": "Szkolne Schronisko M\u0142odzie\u017cowe w Grodzisku",
                "name": "Szkolne Schronisko M\u0142odzie\u017cowe w Grodzisku",
                "addr:country": "PL",
                "addr:postcode": "32-640",
                "addr:city": "Grodzisko",
                "addr:street": "Grodowa",
                "addr:housenumber": "3",
                "addr:teryt:simc": 6152,
                "addr:teryt:sym_ul": 76701,
                "contact:phone": "+48 338412278",
                "contact:email": "spgrodzisko100@op.pl",
                "contact:website": "https:\/\/schroniskomlodziezowegrodzisko.jimdofree.com\/",
                "ref:regon": "122738837",
                "ref:vatin": "PL5492282431",
                "operator": "Gmina Zator",
                "operator:type": "government",
                "tourism": "hostel",
                "note": "Parent RSPO: 114762"
            }
        },
        {
            "id": 56102,
            "type": "Feature",
            "geometry": {
                "type": "Point",
                "coordinates": [
                    19.43697,
                    49.9733
                ]
            },
            "properties": {
                "ref:rspo": 56102,
                "official_name": "Przedszkole Publiczne w Rudzach",
                "name": "Przedszkole Publiczne w Rudzach",
                "addr:country": "PL",
                "addr:postcode": "32-640",
                "addr:place": "Rudze",
                "addr:housenumber": "120",
                "addr:teryt:sym_ul": 76894,
                "contact:phone": "+48 338485556",
                "contact:email": "przedszkolerudze@onet.pl",
                "ref:regon": "070041220",
                "ref:vatin": "PL5492060908",
                "operator": "Gmina Zator",
                "operator:type": "government",
                "amenity": "kindergarten"
            }
        },
        {
            "id": 92803,
            "type": "Feature",
            "geometry": {
                "type": "Point",
                "coordinates": [
                    19.43697,
                    49.97327
                ]
            },
            "properties": {
                "isced:level": "1;2",
                "ref:rspo": 92803,
                "official_name": "Publiczna Szko\u0142a Podstawowa Rudzkiego Stowarzyszenia Kulturalno - O\u015bwiatowego w Rudzach",
                "name": "Publiczna Szko\u0142a Podstawowa Rudzkiego Stowarzyszenia Kulturalno - O\u015bwiatowego w Rudzach",
                "addr:country": "PL",
                "addr:postcode": "32-640",
                "addr:city": "Rudze",
                "addr:street": "Dworska",
                "addr:housenumber": "10",
                "addr:teryt:simc": 4446,
                "addr:teryt:sym_ul": 76894,
                "contact:phone": "+48 338410590",
                "contact:email": "psp_rsko@yahoo.pl",
                "ref:regon": "122728224",
                "ref:vatin": "PL5492017597",
                "operator": "Rudzkie Stowarzyszenie Kulturalno-O\u015bwiatowe W Rudzach",
                "operator:type": "ngo",
                "amenity": "school"
            }
        },
        {
            "id": 92802,
            "type": "Feature",
            "geometry": {
                "type": "Point",
                "coordinates": [
                    19.39804,
                    49.9785899
                ]
            },
            "properties": {
                "ref:rspo": 92802,
                "official_name": "Niepubliczne Przedszkole Z Oddzia\u0142em Integracyjnym \"Szcz\u0119\u015bliwy Karpik\"",
                "name": "Niepubliczne Przedszkole Z Oddzia\u0142em Integracyjnym \"Szcz\u0119\u015bliwy Karpik\"",
                "addr:country": "PL",
                "addr:postcode": "32-640",
                "addr:city": "\u0141owiczki",
                "addr:street": "Centralna",
                "addr:housenumber": "56",
                "addr:teryt:simc": 2614,
                "addr:teryt:sym_ul": 76782,
                "contact:phone": "+48 519579041",
                "contact:email": "przywolajusmiech@o2.pl",
                "contact:website": "http:\/\/www.przywolajusmiech.pl",
                "ref:regon": "122726107",
                "operator": "Fundacja \"Przywo\u0142aj U\u015bmiech\"",
                "operator:type": "ngo",
                "amenity": "kindergarten"
            }
        },
        {
            "id": 56090,
            "type": "Feature",
            "geometry": {
                "type": "Point",
                "coordinates": [
                    19.46411,
                    49.98216
                ]
            },
            "properties": {
                "isced:level": "1;2",
                "ref:rspo": 56090,
                "official_name": "Szko\u0142a Podstawowa im. Henryka Sienkiewicza w Laskowej",
                "name": "Szko\u0142a Podstawowa",
                "addr:country": "PL",
                "addr:postcode": "32-640",
                "addr:city": "Laskowa",
                "addr:street": "Zdrojowa",
                "addr:housenumber": "9",
                "addr:teryt:simc": 25944,
                "addr:teryt:sym_ul": 76747,
                "contact:phone": "+48 338412192",
                "contact:email": "sienko3@poczta.onet.pl",
                "contact:website": "http:\/\/www.splaskowa.cba.pl",
                "ref:regon": "070444975",
                "ref:vatin": "PL5492060498",
                "operator": "Gmina Zator",
                "operator:type": "government",
                "amenity": "school"
            }
        },
        {
            "id": 56101,
            "type": "Feature",
            "geometry": {
                "type": "Point",
                "coordinates": [
                    19.15363,
                    49.98519
                ]
            },
            "properties": {
                "ref:rspo": 56101,
                "official_name": "Samorz\u0105dowe Przedszkole im. Z\u0142otej Rybki w Zatorze",
                "name": "Samorz\u0105dowe Przedszkole",
                "addr:country": "PL",
                "addr:postcode": "32-640",
                "addr:city": "Zator",
                "addr:street": "Plac Jana Matejki",
                "addr:housenumber": "2",
                "addr:teryt:simc": 41686,
                "addr:teryt:sym_ul": 927576,
                "contact:phone": "+48 338412157",
                "contact:email": "sample5@interia.pl",
                "ref:regon": "070041214",
                "ref:vatin": "PL5492060877",
                "operator": "Gmina Zator",
                "operator:type": "government",
                "amenity": "kindergarten"
            }
        },
        {
            "id": 266092,
            "type": "Feature",
            "geometry": {
                "type": "Point",
                "coordinates": [
                    19.43483,
                    49.99264
                ]
            },
            "properties": {
                "ref:rspo": 266092,
                "official_name": "Niepubliczne Przedszkole \"T\u0119cza\"",
                "name": "Niepubliczne Przedszkole \"T\u0119cza\"",
                "addr:country": "PL",
                "addr:postcode": "32-640",
                "addr:city": "Zator",
                "addr:street": "Jana Paw\u0142a II",
                "addr:housenumber": "11",
                "addr:teryt:simc": 7123,
                "addr:teryt:sym_ul": 927576,
                "contact:phone": "+48 334833700",
                "ref:regon": "369248725",
                "operator": "Lidia Wilk",
                "operator:type": "private",
                "amenity": "kindergarten"
            }
        },
        {
            "id": 57317,
            "type": "Feature",
            "geometry": {
                "type": "Point",
                "coordinates": [
                    19.43582,
                    49.99345
                ]
            },
            "properties": {
                "ref:rspo": 57317,
                "official_name": "Zesp\u00f3\u0142 Szk\u00f3\u0142 Og\u00f3lnokszta\u0142c\u0105cych w Zatorze im. Miko\u0142aja Kopernika",
                "name": "Zesp\u00f3\u0142 Szk\u00f3\u0142 Og\u00f3lnokszta\u0142c\u0105cych w Zatorze",
                "addr:country": "PL",
                "addr:postcode": "32-640",
                "addr:city": "Zator",
                "addr:street": "Kongresowa",
                "addr:housenumber": "11",
                "addr:teryt:simc": 9138,
                "addr:teryt:sym_ul": 927576,
                "contact:phone": "+48 338410803",
                "contact:email": "zsozator@wp.pl",
                "contact:website": "http:\/\/www.zsozator.pl",
                "ref:regon": "070729910",
                "ref:vatin": "PL5492060386",
                "operator": "Gmina Zator",
                "operator:type": "government",
                "landuse": "education",
                "fixme": "amenity=school, amenity=college albo landuse=education w zale\u017cno\u015bci od tego, jakie plac\u00f3wki wchodz\u0105 w sk\u0142ad zespo\u0142u. Sprawd\u017a, kiedy stosowa\u0107 amenity=* a kiedy landuse=education.",
                "note": "Children RSPO: 107389;109385;114106"
            }
        },
        {
            "id": 122196,
            "type": "Feature",
            "geometry": {
                "type": "Point",
                "coordinates": [
                    19.43582,
                    49.99342
                ]
            },
            "properties": {
                "ref:rspo": 122196,
                "official_name": "Wielozawodowy Zesp\u00f3\u0142 Szk\u00f3\u0142 w Zatorze",
                "name": "Wielozawodowy Zesp\u00f3\u0142 Szk\u00f3\u0142 w Zatorze",
                "addr:country": "PL",
                "addr:postcode": "32-640",
                "addr:city": "Zator",
                "addr:street": "Kongresowa",
                "addr:housenumber": "11",
                "addr:teryt:simc": 9138,
                "addr:teryt:sym_ul": 927576,
                "contact:email": "wzs.zator@onet.pl",
                "contact:website": "http:\/\/www.wzs.zator.pl",
                "ref:regon": "123054957",
                "ref:vatin": "PL5492437922",
                "operator": "Gmina Zator",
                "operator:type": "government",
                "landuse": "education",
                "fixme": "amenity=school, amenity=college albo landuse=education w zale\u017cno\u015bci od tego, jakie plac\u00f3wki wchodz\u0105 w sk\u0142ad zespo\u0142u. Sprawd\u017a, kiedy stosowa\u0107 amenity=* a kiedy landuse=education.",
                "note": "Children RSPO: 122527;122543"
            }
        },
        {
            "id": 107389,
            "type": "Feature",
            "geometry": {
                "type": "Point",
                "coordinates": [
                    19.43582,
                    49.993390000000005
                ]
            },
            "properties": {
                "isced:level": "1;2",
                "ref:rspo": 107389,
                "official_name": "Szko\u0142a Podstawowa im. Adama Mickiewicza w Zatorze",
                "name": "Szko\u0142a Podstawowa",
                "addr:country": "PL",
                "addr:postcode": "32-640",
                "addr:city": "Zator",
                "addr:street": "Kongresowa",
                "addr:housenumber": "11",
                "addr:teryt:simc": 9138,
                "addr:teryt:sym_ul": 927576,
                "contact:phone": "+48 338410803",
                "contact:email": "zsozator@wp.pl",
                "contact:website": "http:\/\/www.zsozator.pl\/",
                "ref:regon": "357062384",
                "ref:vatin": "PL5492060386",
                "operator": "Gmina Zator",
                "operator:type": "government",
                "amenity": "school",
                "note": "Parent RSPO: 57317"
            }
        },
        {
            "id": 109385,
            "type": "Feature",
            "geometry": {
                "type": "Point",
                "coordinates": [
                    19.43582,
                    49.99336
                ]
            },
            "properties": {
                "isced:level": "3",
                "ref:rspo": 109385,
                "official_name": "Liceum Og\u00f3lnokszta\u0142c\u0105ce w Zatorze",
                "name": "Liceum Og\u00f3lnokszta\u0142c\u0105ce w Zatorze",
                "addr:country": "PL",
                "addr:postcode": "32-640",
                "addr:city": "Zator",
                "addr:street": "Kongresowa",
                "addr:housenumber": "11",
                "addr:teryt:simc": 9138,
                "addr:teryt:sym_ul": 927576,
                "contact:phone": "+48 338410803",
                "contact:email": "zsozator@wp.pl",
                "contact:website": "http:\/\/www.zsozator.pl",
                "ref:regon": "357237004",
                "ref:vatin": "PL5492060386",
                "operator": "Gmina Zator",
                "operator:type": "government",
                "amenity": "school",
                "note": "Parent RSPO: 57317"
            }
        },
        {
            "id": 114106,
            "type": "Feature",
            "geometry": {
                "type": "Point",
                "coordinates": [
                    19.43582,
                    49.99333
                ]
            },
            "properties": {
                "ref:rspo": 114106,
                "official_name": "Szkolne Schronisko M\u0142odzie\u017cowe w Zatorze",
                "name": "Szkolne Schronisko M\u0142odzie\u017cowe w Zatorze",
                "addr:country": "PL",
                "addr:postcode": "32-640",
                "addr:city": "Zator",
                "addr:street": "Kongresowa",
                "addr:housenumber": "11",
                "addr:teryt:simc": 9138,
                "addr:teryt:sym_ul": 927576,
                "contact:email": "zsozator@wp.pl",
                "contact:website": "http:\/\/zsozator.net\/",
                "ref:regon": "122841191",
                "ref:vatin": "PL5492060386",
                "operator": "Gmina Zator",
                "operator:type": "government",
                "tourism": "hostel",
                "note": "Parent RSPO: 57317"
            }
        },
        {
            "id": 122527,
            "type": "Feature",
            "geometry": {
                "type": "Point",
                "coordinates": [
                    19.43582,
                    49.993300000000005
                ]
            },
            "properties": {
                "isced:level": "3",
                "ref:rspo": 122527,
                "official_name": "Bran\u017cowa Szko\u0142a Zawodowa I Stopnia w Zatorze",
                "name": "Bran\u017cowa Szko\u0142a Zawodowa I Stopnia w Zatorze",
                "addr:country": "PL",
                "addr:postcode": "32-640",
                "addr:city": "Zator",
                "addr:street": "Kongresowa",
                "addr:housenumber": "11",
                "addr:teryt:simc": 9138,
                "addr:teryt:sym_ul": 927576,
                "contact:phone": "+48 533312226",
                "contact:email": "wzs.zator@onet.pl",
                "contact:website": "http:\/\/www.wzs.zator.pl",
                "ref:regon": "123069485",
                "operator": "Gmina Zator",
                "operator:type": "government",
                "amenity": "school",
                "note": "Parent RSPO: 122196"
            }
        },
        {
            "id": 122543,
            "type": "Feature",
            "geometry": {
                "type": "Point",
                "coordinates": [
                    19.43582,
                    49.99327
                ]
            },
            "properties": {
                "isced:level": "3",
                "ref:rspo": 122543,
                "official_name": "Technikum dla M\u0142odzie\u017cy w Zatorze",
                "name": "Technikum dla M\u0142odzie\u017cy w Zatorze",
                "addr:country": "PL",
                "addr:postcode": "32-640",
                "addr:city": "Zator",
                "addr:street": "Kongresowa",
                "addr:housenumber": "11",
                "addr:teryt:simc": 9138,
                "addr:teryt:sym_ul": 927576,
                "contact:email": "wzs.zator@onet.pl",
                "contact:website": "http:\/\/www.wzs.zator.pl",
                "ref:regon": "123070086",
                "operator": "Gmina Zator",
                "operator:type": "government",
                "amenity": "school",
                "note": "Parent RSPO: 122196"
            }
        },
        {
            "id": 20955,
            "type": "Feature",
            "geometry": {
                "type": "Point",
                "coordinates": [
                    19.43222,
                    49.99422
                ]
            },
            "properties": {
                "ref:rspo": 20955,
                "official_name": "Niepubliczna Plac\u00f3wka Doskonalenia Nauczycieli Instytut Nauki Lektikon",
                "name": "Niepubliczna Plac\u00f3wka Doskonalenia Nauczycieli Instytut Nauki Lektikon",
                "addr:country": "PL",
                "addr:postcode": "32-640",
                "addr:city": "Zator",
                "addr:street": "Juliusza S\u0142owackiego",
                "addr:housenumber": "15",
                "addr:teryt:simc": 20291,
                "addr:teryt:sym_ul": 927576,
                "contact:phone": "+48 660721999",
                "contact:email": "kontakt@lektikon.edu.pl",
                "ref:regon": "122671033",
                "operator": "Rados\u0142aw \u015awiergosz. Instytut Nauki Lektikon",
                "operator:type": "consortium",
                "amenity": "training"
            }
        },
        {
            "id": 106366,
            "type": "Feature",
            "geometry": {
                "type": "Point",
                "coordinates": [
                    19.4581,
                    50.00227
                ]
            },
            "properties": {
                "ref:rspo": 106366,
                "official_name": "Zesp\u00f3\u0142 Szkolno - Przedszkolny w Palczowicach",
                "name": "Zesp\u00f3\u0142 Szkolno - Przedszkolny w Palczowicach",
                "addr:country": "PL",
                "addr:postcode": "32-640",
                "addr:city": "Palczowice",
                "addr:street": "\u015awi\u0119toja\u0144ska",
                "addr:housenumber": "11",
                "addr:teryt:simc": 22548,
                "addr:teryt:sym_ul": 76813,
                "contact:phone": "+48 338412206",
                "contact:email": "zsppal@wp.pl",
                "ref:regon": "122760156",
                "ref:vatin": "PL5492098414",
                "operator": "Stowarzyszenie Na Rzecz Rozwoju Wsi Palczowice",
                "operator:type": "ngo",
                "landuse": "education",
                "fixme": "amenity=school, amenity=college albo landuse=education w zale\u017cno\u015bci od tego, jakie plac\u00f3wki wchodz\u0105 w sk\u0142ad zespo\u0142u. Sprawd\u017a, kiedy stosowa\u0107 amenity=* a kiedy landuse=education.",
                "note": "Children RSPO: 107495;107501"
            }
        },
        {
            "id": 107495,
            "type": "Feature",
            "geometry": {
                "type": "Point",
                "coordinates": [
                    19.4581,
                    50.00224
                ]
            },
            "properties": {
                "isced:level": "1;2",
                "ref:rspo": 107495,
                "official_name": "Publiczna Szko\u0142a Podstawowa Stowarzyszenia Na Rzecz Rozwoju Wsi w Palczowicach",
                "name": "Publiczna Szko\u0142a Podstawowa Stowarzyszenia Na Rzecz Rozwoju Wsi w Palczowicach",
                "addr:country": "PL",
                "addr:postcode": "32-640",
                "addr:city": "Palczowice",
                "addr:street": "\u015awi\u0119toja\u0144ska",
                "addr:housenumber": "11",
                "addr:teryt:simc": 22548,
                "addr:teryt:sym_ul": 76813,
                "contact:phone": "+48 338412206",
                "contact:email": "zsppal@wp.pl",
                "ref:regon": "122767106",
                "ref:vatin": "PL5492098414",
                "operator": "Stowarzyszenie Na Rzecz Rozwoju Wsi Palczowice",
                "operator:type": "ngo",
                "amenity": "school",
                "note": "Parent RSPO: 106366"
            }
        },
        {
            "id": 107501,
            "type": "Feature",
            "geometry": {
                "type": "Point",
                "coordinates": [
                    19.4581,
                    50.002210000000005
                ]
            },
            "properties": {
                "ref:rspo": 107501,
                "official_name": "Niepubliczne Przedszkole Stowarzyszenia Na Rzecz Rozowju Wsi Palczowice w Palczowicach",
                "name": "Niepubliczne Przedszkole Stowarzyszenia Na Rzecz Rozowju Wsi Palczowice w Palczowicach",
                "addr:country": "PL",
                "addr:postcode": "32-640",
                "addr:city": "Palczowice",
                "addr:street": "\u015awi\u0119toja\u0144ska",
                "addr:housenumber": "11",
                "addr:teryt:simc": 22548,
                "addr:teryt:sym_ul": 76813,
                "contact:phone": "+48 338412206",
                "contact:email": "zsppal@wp.pl",
                "ref:regon": "122767129",
                "ref:vatin": "PL5492098414",
                "operator": "Stowarzyszenie Na Rzecz Rozwoju Wsi Palczowice",
                "operator:type": "ngo",
                "amenity": "kindergarten",
                "note": "Parent RSPO: 106366"
            }
        },
        {
            "id": 3474,
            "type": "Feature",
            "geometry": {
                "type": "Point",
                "coordinates": [
                    19.42718,
                    50.00837
                ]
            },
            "properties": {
                "ref:rspo": 3474,
                "official_name": "O\u015brodek Kszta\u0142cenia Zawodowego w Podolszu",
                "name": "O\u015brodek Kszta\u0142cenia Zawodowego w Podolszu",
                "addr:country": "PL",
                "addr:postcode": "32-640",
                "addr:city": "Podolsze",
                "addr:street": "D\u0142uga",
                "addr:housenumber": "47",
                "addr:teryt:simc": 3839,
                "addr:teryt:sym_ul": 76836,
                "contact:phone": "+48 338412745",
                "contact:email": "a.jazowski@wp.pl",
                "ref:regon": "122635847",
                "operator": "Andrzej Jazowski",
                "operator:type": "private",
                "fixme": "w zale\u017cno\u015bci od przedmiotu dzia\u0142alno\u015bci (np. amenity=training + training=*, amenity=dancing_school, amenity=language_school, amenity=music_school)"
            }
        },
        {
            "id": 106318,
            "type": "Feature",
            "geometry": {
                "type": "Point",
                "coordinates": [
                    19.19238,
                    50.00838
                ]
            },
            "properties": {
                "isced:level": "1;2",
                "ref:rspo": 106318,
                "official_name": "Szko\u0142a Podstawowa im. Aleksandra Kami\u0144skiego w Smolicach",
                "name": "Szko\u0142a Podstawowa",
                "addr:country": "PL",
                "addr:postcode": "32-640",
                "addr:city": "Smolice",
                "addr:street": "Edukacyjna",
                "addr:housenumber": "3",
                "addr:teryt:simc": 4733,
                "addr:teryt:sym_ul": 76925,
                "contact:phone": "+48 338412207",
                "contact:email": "smolice.edu@gmail.com",
                "contact:website": "http:\/\/spsmolice.edu.pl\/",
                "ref:regon": "070444969",
                "ref:vatin": "PL5492060481",
                "operator": "Gmina Zator",
                "operator:type": "government",
                "amenity": "school"
            }
        },
        {
            "id": 57325,
            "type": "Feature",
            "geometry": {
                "type": "Point",
                "coordinates": [
                    19.43316,
                    50.01151
                ]
            },
            "properties": {
                "ref:rspo": 57325,
                "official_name": "Zesp\u00f3\u0142 Szkolno - Przedszkolny im. Tadeusza Ko\u015bciuszki w Podolszu",
                "name": "Zesp\u00f3\u0142 Szkolno - Przedszkolny",
                "addr:country": "PL",
                "addr:postcode": "32-640",
                "addr:city": "Podolsze",
                "addr:street": "Zatorska",
                "addr:housenumber": "37",
                "addr:teryt:simc": 25741,
                "addr:teryt:sym_ul": 76836,
                "contact:phone": "+48 338410551",
                "contact:email": "zsopodolsze@wp.pl",
                "ref:regon": "357069819",
                "ref:vatin": "PL5492060914",
                "operator": "Gmina Zator",
                "operator:type": "government",
                "landuse": "education",
                "fixme": "amenity=school, amenity=college albo landuse=education w zale\u017cno\u015bci od tego, jakie plac\u00f3wki wchodz\u0105 w sk\u0142ad zespo\u0142u. Sprawd\u017a, kiedy stosowa\u0107 amenity=* a kiedy landuse=education.",
                "note": "Children RSPO: 107399;107408"
            }
        },
        {
            "id": 107399,
            "type": "Feature",
            "geometry": {
                "type": "Point",
                "coordinates": [
                    19.43316,
                    50.01148
                ]
            },
            "properties": {
                "isced:level": "1;2",
                "ref:rspo": 107399,
                "official_name": "Szko\u0142a Podstawowa im. Tadeusza Ko\u015bciuszki w Podolszu",
                "name": "Szko\u0142a Podstawowa",
                "addr:country": "PL",
                "addr:postcode": "32-640",
                "addr:city": "Podolsze",
                "addr:street": "Zatorska",
                "addr:housenumber": "37",
                "addr:teryt:simc": 25741,
                "addr:teryt:sym_ul": 76836,
                "contact:phone": "+48 338410551",
                "contact:email": "zsopodolsze@wp.pl",
                "ref:regon": "356771032",
                "ref:vatin": "PL5492060914",
                "operator": "Gmina Zator",
                "operator:type": "government",
                "amenity": "school",
                "note": "Parent RSPO: 57325"
            }
        },
        {
            "id": 107408,
            "type": "Feature",
            "geometry": {
                "type": "Point",
                "coordinates": [
                    19.43316,
                    50.01145
                ]
            },
            "properties": {
                "ref:rspo": 107408,
                "official_name": "Przedszkole Publiczne w Podolszu",
                "name": "Przedszkole Publiczne w Podolszu",
                "addr:country": "PL",
                "addr:postcode": "32-640",
                "addr:city": "Podolsze",
                "addr:street": "Zatorska",
                "addr:housenumber": "37",
                "addr:teryt:simc": 25741,
                "addr:teryt:sym_ul": 76836,
                "contact:phone": "+48 338410551",
                "contact:email": "zsopodolsze@wp.pl",
                "ref:regon": "070041237",
                "ref:vatin": "PL5492060914",
                "operator": "Gmina Zator",
                "operator:type": "government",
                "amenity": "kindergarten",
                "note": "Parent RSPO: 57325"
            }
        }
    ]
}