{
    "type": "FeatureCollection",
    "features": [
        {
            "id": 56482,
            "type": "Feature",
            "geometry": {
                "type": "Point",
                "coordinates": [
                    19.36821,
                    49.97269
                ]
            },
            "properties": {
                "isced:level": "1;2",
                "ref:rspo": 56482,
                "official_name": "Szko\u0142a Podstawowa w Piotrowicach",
                "name": "Szko\u0142a Podstawowa w Piotrowicach",
                "addr:postcode": "32-641",
                "addr:city": "Piotrowice",
                "addr:street": "Andrychowska",
                "addr:housenumber": "222",
                "addr:city:simc": 65293,
                "addr:street:sym_ul": 298,
                "phone": "+48 338413377",
                "email": "piotrowiceszkola@poczta.onet.pl",
                "website": "http:\/\/www.zspg-piotrowice.pl",
                "ref:regon": "070725987",
                "operator": "Gmina Przecisz\u00f3w",
                "operator:type": "government",
                "amenity": "school"
            }
        },
        {
            "id": 58565,
            "type": "Feature",
            "geometry": {
                "type": "Point",
                "coordinates": [
                    19.36497,
                    49.97443
                ]
            },
            "properties": {
                "ref:rspo": 58565,
                "official_name": "Samorz\u0105dowe Przedszkole w Piotrowicach",
                "name": "Samorz\u0105dowe Przedszkole w Piotrowicach",
                "addr:postcode": "32-641",
                "addr:city": "Piotrowice",
                "addr:street": "Andrychowska",
                "addr:housenumber": "204",
                "addr:city:simc": 65293,
                "addr:street:sym_ul": 298,
                "phone": "+48 338413490",
                "email": "dyrektor@piotrowice.przedszkolna.net",
                "ref:regon": "070560316",
                "ref:vatin": "PL5492058030",
                "operator": "Gmina Przecisz\u00f3w",
                "operator:type": "government",
                "amenity": "kindergarten"
            }
        },
        {
            "id": 58428,
            "type": "Feature",
            "geometry": {
                "type": "Point",
                "coordinates": [
                    19.37103,
                    49.99889
                ]
            },
            "properties": {
                "isced:level": "1;2",
                "ref:rspo": 58428,
                "official_name": "Szko\u0142a Podstawowa nr 1 w Przeciszowie",
                "name": "Szko\u0142a Podstawowa nr 1 w Przeciszowie",
                "addr:postcode": "32-641",
                "addr:city": "Przecisz\u00f3w",
                "addr:street": "Szkolna",
                "addr:housenumber": "93",
                "addr:city:simc": 65519,
                "addr:street:sym_ul": 21970,
                "phone": "+48 338414589",
                "email": "dyrektor@sp1przeciszow.pl",
                "website": "https:\/\/sp1przeciszow.edupage.org",
                "ref:regon": "070725993",
                "operator": "Gmina Przecisz\u00f3w",
                "operator:type": "government",
                "amenity": "school"
            }
        },
        {
            "id": 2920,
            "type": "Feature",
            "geometry": {
                "type": "Point",
                "coordinates": [
                    19.37332,
                    50.0049599
                ]
            },
            "properties": {
                "ref:rspo": 2920,
                "official_name": "Samorz\u0105dowe Przedszkole nr 1 w Przeciszowie",
                "name": "Samorz\u0105dowe Przedszkole nr 1 w Przeciszowie",
                "addr:postcode": "32-641",
                "addr:city": "Przecisz\u00f3w",
                "addr:street": "Szkolna",
                "addr:housenumber": "8",
                "addr:city:simc": 65519,
                "addr:street:sym_ul": 21970,
                "phone": "+48 338413378",
                "ref:regon": "070560285",
                "ref:vatin": "PL5492058099",
                "operator": "Gmina Przecisz\u00f3w",
                "operator:type": "government",
                "amenity": "kindergarten"
            }
        },
        {
            "id": 2961,
            "type": "Feature",
            "geometry": {
                "type": "Point",
                "coordinates": [
                    19.3752299,
                    50.02188
                ]
            },
            "properties": {
                "ref:rspo": 2961,
                "official_name": "Samorz\u0105dowe Przedszkole nr 2 w Przeciszowie",
                "name": "Samorz\u0105dowe Przedszkole nr 2 w Przeciszowie",
                "addr:postcode": "32-641",
                "addr:city": "Przecisz\u00f3w",
                "addr:street": "Podlesie",
                "addr:housenumber": "90",
                "addr:city:simc": 65519,
                "addr:street:sym_ul": 16795,
                "phone": "+48 338413313",
                "ref:regon": "122630815",
                "operator": "Gmina Przecisz\u00f3w",
                "operator:type": "government",
                "amenity": "kindergarten"
            }
        },
        {
            "id": 56484,
            "type": "Feature",
            "geometry": {
                "type": "Point",
                "coordinates": [
                    19.37601,
                    50.02244
                ]
            },
            "properties": {
                "isced:level": "1;2",
                "ref:rspo": 56484,
                "official_name": "Szko\u0142a Podstawowa nr 2 im. Jana Paw\u0142a II w Przeciszowie",
                "name": "Szko\u0142a Podstawowa nr 2",
                "addr:postcode": "32-641",
                "addr:city": "Przecisz\u00f3w",
                "addr:street": "Podlesie",
                "addr:housenumber": "92",
                "addr:city:simc": 65519,
                "addr:street:sym_ul": 16795,
                "phone": "+48 338413328",
                "email": "przeciszow.sp@wp.pl",
                "website": "http:\/\/www.sp2przeciszow.pl",
                "ref:regon": "070726001",
                "operator": "Gmina Przecisz\u00f3w",
                "operator:type": "government",
                "amenity": "school"
            }
        }
    ]
}