{
    "type": "FeatureCollection",
    "features": [
        {
            "id": 84069,
            "type": "Feature",
            "geometry": {
                "type": "Point",
                "coordinates": [
                    20.89023,
                    52.1038799
                ]
            },
            "properties": {
                "isced:level": "1;2",
                "ref:rspo": 84069,
                "official_name": "Szko\u0142a Podstawowa im. W\u0142odzimierza Potockiego w S\u0119kocinie",
                "name": "Szko\u0142a Podstawowa",
                "addr:country": "PL",
                "addr:postcode": "05-090",
                "addr:city": "S\u0142omin",
                "addr:street": "Wierzbowa",
                "addr:housenumber": "5",
                "addr:teryt:simc": 8088,
                "addr:teryt:sym_ul": 24170,
                "contact:phone": "+48 227202568",
                "contact:email": "s.p.sekocin@wp.pl",
                "contact:website": "http:\/\/www.spsekocin.edu.pl",
                "ref:regon": "001146770",
                "ref:vatin": "PL5342032454",
                "operator": "Gmina Raszyn",
                "operator:type": "government",
                "amenity": "school"
            }
        },
        {
            "id": 83936,
            "type": "Feature",
            "geometry": {
                "type": "Point",
                "coordinates": [
                    20.88631,
                    52.11143
                ]
            },
            "properties": {
                "ref:rspo": 83936,
                "official_name": "Przedszkole w S\u0119kocinie",
                "name": "Przedszkole w S\u0119kocinie",
                "addr:country": "PL",
                "addr:postcode": "05-090",
                "addr:city": "S\u0119kocin Stary",
                "addr:street": "S\u0119koci\u0144ska",
                "addr:housenumber": "20",
                "addr:teryt:simc": 8094,
                "addr:teryt:sym_ul": 19731,
                "contact:phone": "+48 227202567",
                "contact:email": "przedszkole_sekocin@tlen.pl",
                "ref:regon": "013006981",
                "ref:vatin": "PL5342032460",
                "operator": "Gmina Raszyn",
                "operator:type": "government",
                "amenity": "kindergarten"
            }
        },
        {
            "id": 125683,
            "type": "Feature",
            "geometry": {
                "type": "Point",
                "coordinates": [
                    20.97946,
                    52.12526
                ]
            },
            "properties": {
                "ref:rspo": 125683,
                "official_name": "\"Moje Przedszkole\" Przedszkole Niepubliczne",
                "name": "\"Moje Przedszkole\" Przedszkole Niepubliczne",
                "addr:country": "PL",
                "addr:postcode": "05-090",
                "addr:city": "Dawidy Bankowe",
                "addr:street": "Starzy\u0144skiego",
                "addr:housenumber": "46a",
                "addr:teryt:simc": 7947,
                "addr:teryt:sym_ul": 21043,
                "contact:phone": "+48 791437776",
                "contact:email": "biuro@mojeprzedszkole.waw.pl",
                "ref:regon": "147465512",
                "operator": "Violetta Nojmann",
                "operator:type": "private",
                "amenity": "kindergarten"
            }
        },
        {
            "id": 120879,
            "type": "Feature",
            "geometry": {
                "type": "Point",
                "coordinates": [
                    20.928329467773,
                    52.130001068115
                ]
            },
            "properties": {
                "ref:rspo": 120879,
                "official_name": "Dobre Przedszkole Przedszkole Niepubliczne Konrad Kowalski",
                "name": "Dobre Przedszkole Przedszkole Niepubliczne Konrad Kowalski",
                "addr:country": "PL",
                "addr:postcode": "05-090",
                "addr:city": "Falenty Nowe",
                "addr:street": "Falencka",
                "addr:housenumber": "13",
                "addr:teryt:simc": 8013,
                "addr:teryt:sym_ul": 4875,
                "contact:phone": "+48 884998820",
                "contact:email": "poczta@dobreprzedszkole.eu",
                "ref:regon": "146978280",
                "ref:vatin": "PL9481464857",
                "operator": "Konrad Kowalski",
                "operator:type": "private",
                "amenity": "kindergarten"
            }
        },
        {
            "id": 271985,
            "type": "Feature",
            "geometry": {
                "type": "Point",
                "coordinates": [
                    20.97481,
                    52.1342799
                ]
            },
            "properties": {
                "ref:rspo": 271985,
                "official_name": "Zesp\u00f3\u0142 Szkolno-Przedszkolny w \u0141adach",
                "name": "Zesp\u00f3\u0142 Szkolno-Przedszkolny w \u0141adach",
                "addr:country": "PL",
                "addr:postcode": "05-090",
                "addr:city": "Dawidy Bankowe",
                "addr:street": "D\u0142uga",
                "addr:housenumber": "49",
                "addr:teryt:simc": 7947,
                "addr:teryt:sym_ul": 3839,
                "contact:phone": "+48 227202569",
                "contact:email": "sekretariat@zsplady.raszyn.pl",
                "contact:website": "http:\/\/www.splady.edupage.org",
                "ref:regon": "383857991",
                "ref:vatin": "PL5342032448",
                "operator": "Gmina Raszyn",
                "operator:type": "government",
                "landuse": "education",
                "fixme": "amenity=school, amenity=college albo landuse=education w zale\u017cno\u015bci od tego, jakie plac\u00f3wki wchodz\u0105 w sk\u0142ad zespo\u0142u. Sprawd\u017a, kiedy stosowa\u0107 amenity=* a kiedy landuse=education.",
                "note": "Children RSPO: 69549;83938"
            }
        },
        {
            "id": 69549,
            "type": "Feature",
            "geometry": {
                "type": "Point",
                "coordinates": [
                    20.97481,
                    52.1342499
                ]
            },
            "properties": {
                "isced:level": "1;2",
                "ref:rspo": 69549,
                "official_name": "Szko\u0142a Podstawowa im. Ks. J\u00f3zefa Poniatowskiego w \u0141adach",
                "name": "Szko\u0142a Podstawowa",
                "addr:country": "PL",
                "addr:postcode": "05-090",
                "addr:city": "Dawidy Bankowe",
                "addr:street": "D\u0142uga",
                "addr:housenumber": "49",
                "addr:teryt:simc": 7947,
                "addr:teryt:sym_ul": 3839,
                "contact:phone": "+48 227202569",
                "contact:email": "sekretariat@zsplady.raszyn.pl",
                "contact:website": "http:\/\/www.splady.pl",
                "ref:regon": "001146645",
                "ref:vatin": "PL5342032448",
                "operator": "Gmina Raszyn",
                "operator:type": "government",
                "amenity": "school",
                "note": "Parent RSPO: 271985"
            }
        },
        {
            "id": 83938,
            "type": "Feature",
            "geometry": {
                "type": "Point",
                "coordinates": [
                    20.97481,
                    52.134219900000005
                ]
            },
            "properties": {
                "ref:rspo": 83938,
                "official_name": "\"Bajkowe Przedszkole\" w \u0141adach",
                "name": "\"Bajkowe Przedszkole\" w \u0141adach",
                "addr:country": "PL",
                "addr:postcode": "05-090",
                "addr:city": "Dawidy Bankowe",
                "addr:street": "D\u0142uga",
                "addr:housenumber": "49",
                "addr:teryt:simc": 7947,
                "addr:teryt:sym_ul": 3839,
                "contact:phone": "+48 223539890",
                "contact:email": "sekretariat@bajkowe.raszyn.pl",
                "ref:regon": "013006998",
                "ref:vatin": "PL5342032365",
                "operator": "Gmina Raszyn",
                "operator:type": "government",
                "amenity": "kindergarten",
                "note": "Parent RSPO: 271985"
            }
        },
        {
            "id": 273989,
            "type": "Feature",
            "geometry": {
                "type": "Point",
                "coordinates": [
                    20.90078,
                    52.1343
                ]
            },
            "properties": {
                "ref:rspo": 273989,
                "official_name": "Niepubliczne Przedszkole \"\u0141owcy Przyg\u00f3d\"",
                "name": "Niepubliczne Przedszkole \"\u0141owcy Przyg\u00f3d\"",
                "addr:country": "PL",
                "addr:postcode": "05-090",
                "addr:city": "Janki",
                "addr:street": "Aleja Krakowska",
                "addr:housenumber": "16",
                "addr:teryt:simc": 7976,
                "addr:teryt:sym_ul": 49225,
                "contact:phone": "+48 570560690",
                "contact:email": "kontakt@lowcyprzygod.edu.pl",
                "contact:website": "http:\/\/lowcyprzygod.edu.pl",
                "ref:regon": "384967925",
                "operator": "\"Bcrs\" Sp\u00f3\u0142ka Z Ograniczon\u0105 Odpowiedzialno\u015bci\u0105",
                "operator:type": "private",
                "amenity": "kindergarten"
            }
        },
        {
            "id": 83937,
            "type": "Feature",
            "geometry": {
                "type": "Point",
                "coordinates": [
                    20.92505,
                    52.13722
                ]
            },
            "properties": {
                "ref:rspo": 83937,
                "official_name": "Przedszkole w Falentach",
                "name": "Przedszkole w Falentach",
                "addr:country": "PL",
                "addr:postcode": "05-090",
                "addr:city": "Falenty",
                "addr:street": "Zygmunta Opackiego",
                "addr:housenumber": "44",
                "addr:teryt:simc": 7960,
                "addr:teryt:sym_ul": 39086,
                "contact:phone": "+48 227200548",
                "contact:email": "przedszkole-falenty@o2.pl",
                "ref:regon": "013007006",
                "ref:vatin": "PL5342032342",
                "operator": "Gmina Raszyn",
                "operator:type": "government",
                "amenity": "kindergarten"
            }
        },
        {
            "id": 278737,
            "type": "Feature",
            "geometry": {
                "type": "Point",
                "coordinates": [
                    20.97142,
                    52.13741
                ]
            },
            "properties": {
                "ref:rspo": 278737,
                "official_name": "Niepubliczne Przedszkole Ma\u0142y Da Vinci",
                "name": "Niepubliczne Przedszkole Ma\u0142y Da Vinci",
                "addr:country": "PL",
                "addr:postcode": "05-090",
                "addr:city": "Dawidy",
                "addr:street": "Warszawska",
                "addr:housenumber": "43B",
                "addr:teryt:simc": 7930,
                "addr:teryt:sym_ul": 23682,
                "contact:email": "malydavinci@wp.pl",
                "ref:regon": "520046726",
                "operator": "Aleksandra Sieradzka",
                "operator:type": "private",
                "amenity": "kindergarten"
            }
        },
        {
            "id": 104615,
            "type": "Feature",
            "geometry": {
                "type": "Point",
                "coordinates": [
                    20.93739,
                    52.14745
                ]
            },
            "properties": {
                "ref:rspo": 104615,
                "official_name": "Niepubliczne Przedszkole \"Pociecha\"",
                "name": "Niepubliczne Przedszkole \"Pociecha\"",
                "addr:country": "PL",
                "addr:postcode": "05-090",
                "addr:city": "Rybie",
                "addr:street": "Ceramiczna",
                "addr:housenumber": "9",
                "addr:teryt:simc": 8071,
                "addr:teryt:sym_ul": 2629,
                "contact:phone": "+48 227201697",
                "contact:email": "biuro@przedszkole-pociecha.pl",
                "contact:website": "http:\/\/www.przedszkole-pociecha.pl",
                "ref:regon": "146450282",
                "ref:vatin": "PL5342486020",
                "operator": "Ewa Hermanowicz",
                "operator:type": "private",
                "amenity": "kindergarten"
            }
        },
        {
            "id": 92047,
            "type": "Feature",
            "geometry": {
                "type": "Point",
                "coordinates": [
                    20.81526,
                    52.14792
                ]
            },
            "properties": {
                "ref:rspo": 92047,
                "official_name": "Niepubliczne Przedszkole Muzyczne \"Zebra\"",
                "name": "Niepubliczne Przedszkole Muzyczne \"Zebra\"",
                "addr:country": "PL",
                "addr:postcode": "05-090",
                "addr:city": "Rybie",
                "addr:street": "Rubinowa",
                "addr:housenumber": "15",
                "addr:teryt:simc": 8071,
                "addr:teryt:sym_ul": 19033,
                "contact:phone": "+48 227540928",
                "contact:email": "raszyn@przedszkole-zebra.pl",
                "contact:website": "http:\/\/www.przedszkole-zebra.pl",
                "ref:regon": "146413068",
                "ref:vatin": "PL5342093800",
                "operator": "Zebra Sp\u00f3\u0142ka Cywilna Olga Baca Marcin Brzezi\u0144ski",
                "operator:type": "consortium",
                "amenity": "kindergarten"
            }
        },
        {
            "id": 133868,
            "type": "Feature",
            "geometry": {
                "type": "Point",
                "coordinates": [
                    20.92519,
                    52.15311
                ]
            },
            "properties": {
                "ref:rspo": 133868,
                "official_name": "Przedszkole Nr 3 \"Wyspa Skarb\u00f3w\" w Raszynie",
                "name": "Przedszkole Nr 3 \"Wyspa Skarb\u00f3w\" w Raszynie",
                "addr:country": "PL",
                "addr:postcode": "05-090",
                "addr:city": "Raszyn",
                "addr:street": "Poniatowskiego",
                "addr:housenumber": "18",
                "addr:teryt:simc": 8065,
                "addr:teryt:sym_ul": 17100,
                "contact:phone": "+48 221029908",
                "contact:email": "przedszkole3@raszyn.pl",
                "contact:website": "http:\/\/www.przedszkole3.raszyn.pl",
                "ref:regon": "367705680",
                "ref:vatin": "PL5342553124",
                "operator": "Gmina Raszyn",
                "operator:type": "government",
                "amenity": "kindergarten"
            }
        },
        {
            "id": 104307,
            "type": "Feature",
            "geometry": {
                "type": "Point",
                "coordinates": [
                    20.9150199,
                    52.15326
                ]
            },
            "properties": {
                "ref:rspo": 104307,
                "official_name": "Przedszkole Niepubliczne \"Gwiazdeczka\"",
                "name": "Przedszkole Niepubliczne \"Gwiazdeczka\"",
                "addr:country": "PL",
                "addr:postcode": "05-090",
                "addr:city": "Raszyn",
                "addr:street": "Ogrodowa",
                "addr:housenumber": "16",
                "addr:teryt:simc": 8065,
                "addr:teryt:sym_ul": 14834,
                "contact:phone": "+48 501084545",
                "contact:email": "renatadobosz@vp.pl",
                "ref:regon": "146450371",
                "ref:vatin": "PL5222302075",
                "operator": "Renata Dobosz",
                "operator:type": "private",
                "amenity": "kindergarten"
            }
        },
        {
            "id": 80115,
            "type": "Feature",
            "geometry": {
                "type": "Point",
                "coordinates": [
                    20.92655,
                    52.15339
                ]
            },
            "properties": {
                "isced:level": "1;2",
                "ref:rspo": 80115,
                "official_name": "Szko\u0142a Podstawowa im. Cypriana Godebskiego w Raszynie",
                "name": "Szko\u0142a Podstawowa",
                "addr:country": "PL",
                "addr:postcode": "05-090",
                "addr:city": "Raszyn",
                "addr:street": "Szkolna",
                "addr:housenumber": "2",
                "addr:teryt:simc": 8065,
                "addr:teryt:sym_ul": 21970,
                "contact:phone": "+48 227159910",
                "contact:email": "szkola_raszyn@vp.pl",
                "contact:website": "http:\/\/www.spraszyn.pl",
                "ref:regon": "000554046",
                "ref:vatin": "PL5342032431",
                "operator": "Gmina Raszyn",
                "operator:type": "government",
                "amenity": "school"
            }
        },
        {
            "id": 83935,
            "type": "Feature",
            "geometry": {
                "type": "Point",
                "coordinates": [
                    20.93039,
                    52.15383
                ]
            },
            "properties": {
                "ref:rspo": 83935,
                "official_name": "Przedszkole Nr 2 \"W Stumilowym Lesie\"",
                "name": "Przedszkole Nr 2 \"W Stumilowym Lesie\"",
                "addr:country": "PL",
                "addr:postcode": "05-090",
                "addr:city": "Raszyn",
                "addr:street": "Lotnicza",
                "addr:housenumber": "43a",
                "addr:teryt:simc": 8065,
                "addr:teryt:sym_ul": 11270,
                "contact:phone": "+48 227202572",
                "contact:email": "przedszkole2.raszyn@gmail.com",
                "contact:website": "http:\/\/www.przedszkole2.raszyn.bip.net.pl",
                "ref:regon": "013006975",
                "ref:vatin": "PL5342031839",
                "operator": "Gmina Raszyn",
                "operator:type": "government",
                "amenity": "kindergarten"
            }
        },
        {
            "id": 83933,
            "type": "Feature",
            "geometry": {
                "type": "Point",
                "coordinates": [
                    20.9245899,
                    52.15634
                ]
            },
            "properties": {
                "ref:rspo": 83933,
                "official_name": "Niepubliczny Punkt Przedszkolny Akademia Misia Uszatka Justyna Chraniuk",
                "name": "Niepubliczny Punkt Przedszkolny Akademia Misia Uszatka Justyna Chraniuk",
                "addr:country": "PL",
                "addr:postcode": "05-090",
                "addr:city": "Raszyn",
                "addr:street": "Sokolnickiego",
                "addr:housenumber": "13",
                "addr:teryt:simc": 8065,
                "addr:teryt:sym_ul": 20487,
                "contact:phone": "+48 501373672",
                "contact:email": "justynachraniuk@gmail.com",
                "contact:website": "http:\/\/www.akademiamisiauszatka.com.pl",
                "ref:regon": "146440680",
                "ref:vatin": "PL7162426359",
                "operator": "Justyna Chraniuk",
                "operator:type": "private",
                "amenity": "kindergarten"
            }
        },
        {
            "id": 86357,
            "type": "Feature",
            "geometry": {
                "type": "Point",
                "coordinates": [
                    20.91753,
                    52.15796
                ]
            },
            "properties": {
                "ref:rspo": 86357,
                "official_name": "\"Bajkowe Przedszkole\"",
                "name": "\"Bajkowe Przedszkole\"",
                "addr:country": "PL",
                "addr:postcode": "05-090",
                "addr:city": "Raszyn",
                "addr:street": "Jesienna",
                "addr:housenumber": "16",
                "addr:teryt:simc": 8065,
                "addr:teryt:sym_ul": 7499,
                "contact:phone": "+48 227203617",
                "contact:email": "info@bajkowe-przedszkole.pl",
                "ref:regon": "146441656",
                "ref:vatin": "PL5342272230",
                "operator": "\"Bajkowe Przedszkole\" S.c.",
                "operator:type": "consortium",
                "amenity": "kindergarten"
            }
        },
        {
            "id": 132127,
            "type": "Feature",
            "geometry": {
                "type": "Point",
                "coordinates": [
                    20.93,
                    52.15824
                ]
            },
            "properties": {
                "ref:rspo": 132127,
                "official_name": "Przedszkole Niepubliczne \"Smyk\"",
                "name": "Przedszkole Niepubliczne \"Smyk\"",
                "addr:country": "PL",
                "addr:postcode": "05-090",
                "addr:city": "Raszyn",
                "addr:street": "Wschodnia",
                "addr:housenumber": "18",
                "addr:teryt:simc": 8065,
                "addr:teryt:sym_ul": 24879,
                "contact:phone": "+48 609667619",
                "contact:email": "smykraszyn@gmail.com",
                "ref:regon": "365484877",
                "ref:vatin": "PL5221736541",
                "operator": "Dorota Kaczorowska",
                "operator:type": "private",
                "amenity": "kindergarten"
            }
        },
        {
            "id": 122368,
            "type": "Feature",
            "geometry": {
                "type": "Point",
                "coordinates": [
                    20.93006,
                    52.15945
                ]
            },
            "properties": {
                "ref:rspo": 122368,
                "official_name": "Niepubliczna Poradnia Psychologiczno - Pedagogiczna \"Alan\"",
                "name": "Niepubliczna Poradnia Psychologiczno - Pedagogiczna \"Alan\"",
                "addr:country": "PL",
                "addr:postcode": "05-090",
                "addr:city": "Raszyn",
                "addr:street": "Tadeusza Ko\u015bciuszki",
                "addr:housenumber": "19",
                "addr:teryt:simc": 8065,
                "addr:teryt:sym_ul": 9572,
                "contact:phone": "+48 602664342",
                "contact:email": "logopeda@alanlange.edu.pl",
                "ref:regon": "147137386",
                "operator": "Anna Lange",
                "operator:type": "private",
                "healthcare": "counselling",
                "counselling_type": "education",
                "fixme": "w zale\u017cno\u015bci od przedmiotu dzia\u0142alno\u015bci (np. healthcare=counselling + counselling_type=education albo healthcare=psychotherapist)"
            }
        },
        {
            "id": 83934,
            "type": "Feature",
            "geometry": {
                "type": "Point",
                "coordinates": [
                    20.91642,
                    52.16016
                ]
            },
            "properties": {
                "ref:rspo": 83934,
                "official_name": "Przedszkole Z Oddzia\u0142ami Integracyjnymi Nr 1 \"Pod Topol\u0105\"",
                "name": "Przedszkole Z Oddzia\u0142ami Integracyjnymi Nr 1 \"Pod Topol\u0105\"",
                "addr:country": "PL",
                "addr:postcode": "05-090",
                "addr:city": "Raszyn",
                "addr:street": "Pruszkowska",
                "addr:housenumber": "21c",
                "addr:teryt:simc": 8065,
                "addr:teryt:sym_ul": 17593,
                "contact:phone": "+48 224981406",
                "contact:email": "topola@raszyn.pl",
                "contact:website": "http:\/\/www.przedszkoletopola.pl",
                "ref:regon": "013006969",
                "ref:vatin": "PL5342032477",
                "operator": "Gmina Raszyn",
                "operator:type": "government",
                "amenity": "kindergarten"
            }
        },
        {
            "id": 122366,
            "type": "Feature",
            "geometry": {
                "type": "Point",
                "coordinates": [
                    20.92856,
                    52.16142
                ]
            },
            "properties": {
                "ref:rspo": 122366,
                "official_name": "Lider - Ochrona Detektyw",
                "name": "Lider - Ochrona Detektyw",
                "addr:country": "PL",
                "addr:postcode": "05-090",
                "addr:city": "Raszyn",
                "addr:street": "Aleja Krakowska",
                "addr:housenumber": "80",
                "addr:teryt:simc": 8065,
                "addr:teryt:sym_ul": 49225,
                "contact:phone": "+48 228684577",
                "contact:email": "kontakt@lider-ochrona.pl",
                "ref:regon": "147137340",
                "operator": "Bohdan Szpakowski",
                "operator:type": "private",
                "fixme": "w zale\u017cno\u015bci od przedmiotu dzia\u0142alno\u015bci (np. amenity=training + training=*, amenity=dancing_school, amenity=language_school, amenity=music_school)"
            }
        }
    ]
}