{
    "type": "FeatureCollection",
    "features": [
        {
            "id": 273917,
            "type": "Feature",
            "geometry": {
                "type": "Point",
                "coordinates": [
                    20.80038,
                    52.13222
                ]
            },
            "properties": {
                "ref:rspo": 273917,
                "official_name": "Niepubliczne Przedszkole \"Szumi Las\"",
                "name": "Niepubliczne Przedszkole \"Szumi Las\"",
                "addr:postcode": "05-806",
                "addr:city": "Granica",
                "addr:street": "Szcz\u0119\u015bliwa",
                "addr:housenumber": "1",
                "addr:city:simc": 5196,
                "addr:street:sym_ul": 21846,
                "email": "kontaktszumilas@gmail.com",
                "website": "https:\/\/www.facebook.com\/szumilaswgranicy\/",
                "ref:regon": "384866905",
                "operator": "Kwf Sp\u00f3\u0142ka Z Ograniczon\u0105 Odpowiedzialno\u015bci\u0105",
                "operator:type": "consortium",
                "amenity": "kindergarten"
            }
        },
        {
            "id": 23656,
            "type": "Feature",
            "geometry": {
                "type": "Point",
                "coordinates": [
                    20.80041,
                    52.13515
                ]
            },
            "properties": {
                "ref:rspo": 23656,
                "official_name": "Zesp\u00f3\u0142 Szkolno-Przedszkolny im. Miko\u0142aja Kopernika",
                "name": "Zesp\u00f3\u0142 Szkolno-Przedszkolny",
                "addr:postcode": "05-806",
                "addr:city": "Nowa Wie\u015b",
                "addr:street": "G\u0142\u00f3wna",
                "addr:housenumber": "96",
                "addr:city:simc": 5233,
                "addr:street:sym_ul": 5635,
                "phone": "+48 227582605",
                "email": "szkola@nowawies.pl",
                "website": "http:\/\/zspnowawies.edupage.org.pl",
                "ref:regon": "010671880",
                "ref:vatin": "PL5341576703",
                "operator": "Gmina Micha\u0142owice",
                "operator:type": "government",
                "landuse": "education",
                "fixme": "amenity=school, amenity=college albo landuse=education w zale\u017cno\u015bci od tego, jakie plac\u00f3wki wchodz\u0105 w sk\u0142ad zespo\u0142u. Sprawd\u017a, kiedy stosowa\u0107 amenity=* a kiedy landuse=education.",
                "note": "Children RSPO: 47484;47487"
            }
        },
        {
            "id": 47484,
            "type": "Feature",
            "geometry": {
                "type": "Point",
                "coordinates": [
                    20.80041,
                    52.13512
                ]
            },
            "properties": {
                "isced:level": "1;2",
                "ref:rspo": 47484,
                "official_name": "Szko\u0142a Podstawowa im. Miko\u0142aja Kopernika w Nowej Wsi",
                "name": "Szko\u0142a Podstawowa",
                "addr:postcode": "05-806",
                "addr:city": "Nowa Wie\u015b",
                "addr:street": "G\u0142\u00f3wna",
                "addr:housenumber": "96",
                "addr:city:simc": 5233,
                "addr:street:sym_ul": 5635,
                "phone": "+48 227582605",
                "email": "szkola@nowawies.pl",
                "website": "https:\/\/zspnowawies.edupage.org\/",
                "ref:regon": "001147461",
                "ref:vatin": "PL5341576442",
                "operator": "Gmina Micha\u0142owice",
                "operator:type": "government",
                "amenity": "school",
                "note": "Parent RSPO: 23656"
            }
        },
        {
            "id": 12464,
            "type": "Feature",
            "geometry": {
                "type": "Point",
                "coordinates": [
                    20.82795,
                    52.13652
                ]
            },
            "properties": {
                "ref:rspo": 12464,
                "official_name": "Niepubliczny Punkt Przedszkolny \"S\u0142oneczna Kraina\"",
                "name": "Niepubliczny Punkt Przedszkolny \"S\u0142oneczna Kraina\"",
                "addr:postcode": "05-806",
                "addr:city": "Komor\u00f3w",
                "addr:street": "S\u0142oneczna",
                "addr:housenumber": "11a",
                "addr:city:simc": 5204,
                "addr:street:sym_ul": 20254,
                "phone": "+48 605876543",
                "website": "http:\/\/slonecznakraina.eu",
                "ref:regon": "146324590",
                "ref:vatin": "PL9471811398",
                "operator": "Katarzyna Bors",
                "operator:type": "private",
                "amenity": "kindergarten"
            }
        },
        {
            "id": 47487,
            "type": "Feature",
            "geometry": {
                "type": "Point",
                "coordinates": [
                    20.79372,
                    52.14046
                ]
            },
            "properties": {
                "ref:rspo": 47487,
                "official_name": "Gminne Przedszkole w Nowej Wsi",
                "name": "Gminne Przedszkole w Nowej Wsi",
                "addr:postcode": "05-806",
                "addr:city": "Nowa Wie\u015b",
                "addr:street": "G\u0142\u00f3wna",
                "addr:housenumber": "52a",
                "addr:city:simc": 5233,
                "addr:street:sym_ul": 5635,
                "phone": "+48 227582651",
                "email": "przedszkole@nowawies.pl",
                "website": "https:\/\/zspnowawies.edupage.org\/",
                "ref:regon": "013000369",
                "ref:vatin": "PL5341573900",
                "operator": "Gmina Micha\u0142owice",
                "operator:type": "government",
                "amenity": "kindergarten",
                "note": "Parent RSPO: 23656"
            }
        },
        {
            "id": 106563,
            "type": "Feature",
            "geometry": {
                "type": "Point",
                "coordinates": [
                    20.80561,
                    52.14102
                ]
            },
            "properties": {
                "ref:rspo": 106563,
                "official_name": "Niepubliczne Przedszkole \"Zielone Przedszkole\"",
                "name": "Niepubliczne Przedszkole \"Zielone Przedszkole\"",
                "addr:postcode": "05-806",
                "addr:city": "Granica",
                "addr:street": "D\u0142uga",
                "addr:housenumber": "19",
                "addr:city:simc": 5196,
                "addr:street:sym_ul": 3839,
                "phone": "+48 227580579",
                "website": "http:\/\/www.zieloneprzedszkole.com",
                "ref:regon": "146475112",
                "ref:vatin": "PL5291531979",
                "operator": "Katarzyna Goj\u017cewska",
                "operator:type": "private",
                "amenity": "kindergarten"
            }
        },
        {
            "id": 132405,
            "type": "Feature",
            "geometry": {
                "type": "Point",
                "coordinates": [
                    20.80962,
                    52.14213
                ]
            },
            "properties": {
                "ref:rspo": 132405,
                "official_name": "Niepubliczny Punkt Przedszkolny Inspirowany Pedagogik\u0105 Waldorfsk\u0105",
                "name": "Niepubliczny Punkt Przedszkolny Inspirowany Pedagogik\u0105 Waldorfsk\u0105",
                "addr:postcode": "05-806",
                "addr:city": "Komor\u00f3w",
                "addr:street": "Granicka",
                "addr:housenumber": "7",
                "addr:city:simc": 5204,
                "addr:street:sym_ul": 6074,
                "phone": "+48 601323613",
                "email": "komorowpunktprzedszkolny@gmail.com",
                "ref:regon": "365600591",
                "operator": "Razem Dla Rozwoju",
                "operator:type": "ngo",
                "amenity": "kindergarten"
            }
        },
        {
            "id": 6825,
            "type": "Feature",
            "geometry": {
                "type": "Point",
                "coordinates": [
                    20.81687,
                    52.14285
                ]
            },
            "properties": {
                "ref:rspo": 6825,
                "official_name": "Przedszkole Niepubliczne Zgromadzenia Si\u00f3str Misjonarek \u015aw\u0119tej Rodziny",
                "name": "Przedszkole Niepubliczne Zgromadzenia Si\u00f3str Misjonarek \u015aw\u0119tej Rodziny",
                "addr:postcode": "05-806",
                "addr:city": "Komor\u00f3w",
                "addr:street": "Boles\u0142awa Prusa",
                "addr:housenumber": "4",
                "addr:city:simc": 5204,
                "addr:street:sym_ul": 17577,
                "phone": "+48 227591275",
                "email": "przedszkolemsfkomorow@gmail.com",
                "ref:regon": "146297604",
                "ref:vatin": "PL5342092172",
                "operator": "Zg.ss.misjonarek \u015aw.rodziny, Dom Generalny",
                "operator:type": "religious",
                "amenity": "kindergarten"
            }
        },
        {
            "id": 121323,
            "type": "Feature",
            "geometry": {
                "type": "Point",
                "coordinates": [
                    20.81298,
                    52.14419
                ]
            },
            "properties": {
                "ref:rspo": 121323,
                "official_name": "Niepubliczne Przedszkole \"Prestige For Kids\"",
                "name": "Niepubliczne Przedszkole \"Prestige For Kids\"",
                "addr:postcode": "05-806",
                "addr:city": "Komor\u00f3w",
                "addr:street": "Zygmunta Krasi\u0144skiego",
                "addr:housenumber": "8",
                "addr:city:simc": 5204,
                "addr:street:sym_ul": 9848,
                "phone": "+48 227580500",
                "email": "info@przedszkole-komorow.pl",
                "website": "http:\/\/www.przedszkole-komorow.pl",
                "ref:regon": "147038030",
                "operator": "Kamila Ko\u0142akowska-Bu\u017aniak",
                "operator:type": "private",
                "amenity": "kindergarten"
            }
        },
        {
            "id": 20752,
            "type": "Feature",
            "geometry": {
                "type": "Point",
                "coordinates": [
                    20.81561,
                    52.14653
                ]
            },
            "properties": {
                "ref:rspo": 20752,
                "official_name": "Zesp\u00f3\u0142 Szk\u00f3\u0142 Og\u00f3lnokszta\u0142c\u0105cych im. Marii D\u0105browskiej w Komorowie",
                "name": "Zesp\u00f3\u0142 Szk\u00f3\u0142 Og\u00f3lnokszta\u0142c\u0105cych",
                "addr:postcode": "05-806",
                "addr:city": "Komor\u00f3w",
                "addr:street": "Aleja Marii D\u0105browskiej",
                "addr:housenumber": "12\/20",
                "addr:city:simc": 5204,
                "addr:street:sym_ul": 44226,
                "phone": "+48 227580637",
                "email": "zso@komorow.edu.pl",
                "website": "http:\/\/www.zso.komorow.pl",
                "ref:regon": "010671821",
                "ref:vatin": "PL5341567325",
                "operator": "Gmina Micha\u0142owice",
                "operator:type": "government",
                "landuse": "education",
                "fixme": "amenity=school, amenity=college albo landuse=education w zale\u017cno\u015bci od tego, jakie plac\u00f3wki wchodz\u0105 w sk\u0142ad zespo\u0142u. Sprawd\u017a, kiedy stosowa\u0107 amenity=* a kiedy landuse=education.",
                "note": "Children RSPO: 27150;48076"
            }
        },
        {
            "id": 27150,
            "type": "Feature",
            "geometry": {
                "type": "Point",
                "coordinates": [
                    20.81561,
                    52.146499999999996
                ]
            },
            "properties": {
                "isced:level": "3",
                "ref:rspo": 27150,
                "official_name": "Liceum Og\u00f3lnokszta\u0142c\u0105ce im. Marii D\u0105browskiej",
                "name": "Liceum Og\u00f3lnokszta\u0142c\u0105ce",
                "addr:postcode": "05-806",
                "addr:city": "Komor\u00f3w",
                "addr:street": "Aleja Marii D\u0105browskiej",
                "addr:housenumber": "12\/20",
                "addr:city:simc": 5204,
                "addr:street:sym_ul": 44226,
                "phone": "+48 227580248",
                "email": "liceum@komorow.edu.pl",
                "website": "http:\/\/zso.komorow.pl",
                "ref:regon": "010671844",
                "ref:vatin": "PL5341567236",
                "operator": "Gmina Micha\u0142owice",
                "operator:type": "government",
                "amenity": "school",
                "note": "Parent RSPO: 20752"
            }
        },
        {
            "id": 48076,
            "type": "Feature",
            "geometry": {
                "type": "Point",
                "coordinates": [
                    20.81561,
                    52.14647
                ]
            },
            "properties": {
                "isced:level": "1;2",
                "ref:rspo": 48076,
                "official_name": "Szko\u0142a Podstawowa im. Marii D\u0105browskiej",
                "name": "Szko\u0142a Podstawowa",
                "addr:postcode": "05-806",
                "addr:city": "Komor\u00f3w",
                "addr:street": "Aleja Marii D\u0105browskiej",
                "addr:housenumber": "12\/20",
                "addr:city:simc": 5204,
                "addr:street:sym_ul": 44226,
                "phone": "+48 227580637",
                "email": "sp@komorow.edu.pl",
                "website": "http:\/\/sp.komorow.edu.pl",
                "ref:regon": "000269392",
                "ref:vatin": "PL5341567294",
                "operator": "Gmina Micha\u0142owice",
                "operator:type": "government",
                "amenity": "school",
                "note": "Parent RSPO: 20752"
            }
        },
        {
            "id": 106564,
            "type": "Feature",
            "geometry": {
                "type": "Point",
                "coordinates": [
                    20.80382,
                    52.14793
                ]
            },
            "properties": {
                "ref:rspo": 106564,
                "official_name": "Niepubliczny Punkt Przedszkolny \"Misie Patysie\"",
                "name": "Niepubliczny Punkt Przedszkolny \"Misie Patysie\"",
                "addr:postcode": "05-806",
                "addr:city": "Nowa Wie\u015b",
                "addr:street": "Wi\u015bniowa",
                "addr:housenumber": "3",
                "addr:city:simc": 5233,
                "addr:street:sym_ul": 24412,
                "phone": "+48 664124040",
                "email": "monika@misiepatysie.pl",
                "website": "http:\/\/www.misiepatysie.pl",
                "ref:regon": "146485837",
                "operator": "Monika Ma\u0142achowska",
                "operator:type": "private",
                "amenity": "kindergarten"
            }
        },
        {
            "id": 266082,
            "type": "Feature",
            "geometry": {
                "type": "Point",
                "coordinates": [
                    20.7948,
                    52.14909
                ]
            },
            "properties": {
                "ref:rspo": 266082,
                "official_name": "Niepubliczne Przedszkole \"Sasanka\"",
                "name": "Niepubliczne Przedszkole \"Sasanka\"",
                "addr:postcode": "05-806",
                "addr:city": "Nowa Wie\u015b",
                "addr:street": "Sasanek",
                "addr:housenumber": "6a",
                "addr:city:simc": 5233,
                "addr:street:sym_ul": 19547,
                "email": "kontakt@przedszkolesasanka.pl",
                "website": "http:\/\/www.przedszkolesasanka.pl\/",
                "ref:regon": "369235177",
                "operator": "Anna Peczy\u0144ska",
                "operator:type": "private",
                "amenity": "kindergarten"
            }
        },
        {
            "id": 121482,
            "type": "Feature",
            "geometry": {
                "type": "Point",
                "coordinates": [
                    20.81599,
                    52.14936
                ]
            },
            "properties": {
                "ref:rspo": 121482,
                "official_name": "Niepubliczne Przedszkole \"Dobre Przedszkole\"",
                "name": "Niepubliczne Przedszkole \"Dobre Przedszkole\"",
                "addr:postcode": "05-806",
                "addr:city": "Komor\u00f3w",
                "addr:street": "Turkusowa",
                "addr:housenumber": "5",
                "addr:city:simc": 5204,
                "addr:street:sym_ul": 23160,
                "phone": "+48 227598303",
                "email": "beatabujanowicz@gmail.com",
                "ref:regon": "147053867",
                "operator": "De Facto Beata Bujanowicz",
                "operator:type": "consortium",
                "amenity": "kindergarten"
            }
        },
        {
            "id": 106523,
            "type": "Feature",
            "geometry": {
                "type": "Point",
                "coordinates": [
                    20.8085999,
                    52.1507999
                ]
            },
            "properties": {
                "ref:rspo": 106523,
                "official_name": "Przedszkole (Ochronka) Si\u00f3str S\u0142u\u017cebniczek N M P im. B\u0142. Edmunda Bojanowskiego",
                "name": "Przedszkole (Ochronka) Si\u00f3str S\u0142u\u017cebniczek N M P",
                "addr:postcode": "05-816",
                "addr:city": "Komor\u00f3w",
                "addr:street": "Kolejowa",
                "addr:housenumber": "27",
                "addr:city:simc": 5204,
                "addr:street:sym_ul": 8828,
                "email": "ochronka.komorow@gmail.com",
                "website": "http:\/\/ochronkakomorow.pl",
                "ref:regon": "146484358",
                "operator": "Zgromadzenie Si\u00f3str S\u0142u\u017cebniczek N.m.p.",
                "operator:type": "religious",
                "amenity": "kindergarten"
            }
        },
        {
            "id": 52749,
            "type": "Feature",
            "geometry": {
                "type": "Point",
                "coordinates": [
                    20.8479,
                    52.1515
                ]
            },
            "properties": {
                "ref:rspo": 52749,
                "official_name": "Prywatne Przedszkole Kacprzyk Wanda",
                "name": "Prywatne Przedszkole Kacprzyk Wanda",
                "addr:postcode": "05-816",
                "addr:city": "Micha\u0142owice",
                "addr:street": "Parkowa",
                "addr:housenumber": "6",
                "addr:city:simc": 5210,
                "addr:street:sym_ul": 15710,
                "phone": "+48 227239178",
                "email": "wanda.kacprzyk@prywatneprzedszkole.pl",
                "website": "http:\/\/prywatneprzedszkole.pl",
                "ref:regon": "146379785",
                "operator": "Wanda Kacprzyk",
                "operator:type": "private",
                "amenity": "kindergarten"
            }
        },
        {
            "id": 129153,
            "type": "Feature",
            "geometry": {
                "type": "Point",
                "coordinates": [
                    20.82997,
                    52.15733
                ]
            },
            "properties": {
                "ref:rspo": 129153,
                "official_name": "Przedszkole Niepubliczne \"Bavi\"",
                "name": "Przedszkole Niepubliczne \"Bavi\"",
                "addr:postcode": "05-806",
                "addr:city": "P\u0119cice",
                "addr:street": "P\u0119cicka",
                "addr:housenumber": "10",
                "addr:city:simc": 5279,
                "addr:street:sym_ul": 15987,
                "phone": "+48 737374241",
                "email": "przedszkole@bavi.com.pl",
                "website": "http:\/\/www.bavi.com.pl",
                "ref:regon": "362505969",
                "operator": "El\u017cbieta Rybicka",
                "operator:type": "private",
                "amenity": "kindergarten"
            }
        },
        {
            "id": 109372,
            "type": "Feature",
            "geometry": {
                "type": "Point",
                "coordinates": [
                    20.82434,
                    52.15838
                ]
            },
            "properties": {
                "ref:rspo": 109372,
                "official_name": "Niepubliczna Szko\u0142a Muzyczna I St. Akolada w Komorowie",
                "name": "Niepubliczna Szko\u0142a Muzyczna I St. Akolada w Komorowie",
                "addr:postcode": "05-806",
                "addr:city": "P\u0119cice",
                "addr:street": "Kwiat\u00f3w Polnych",
                "addr:housenumber": "6",
                "addr:city:simc": 5279,
                "addr:street:sym_ul": 10567,
                "phone": "+48 795552070",
                "email": "kontakt@akolada.edu.pl",
                "website": "http:\/\/akolada.edu.pl",
                "ref:regon": "146527547",
                "operator": "Magdalena Artman-Zalewska",
                "operator:type": "private",
                "amenity": "music_school"
            }
        },
        {
            "id": 87838,
            "type": "Feature",
            "geometry": {
                "type": "Point",
                "coordinates": [
                    20.8892099,
                    52.16814
                ]
            },
            "properties": {
                "isced:level": "1;2",
                "ref:rspo": 87838,
                "official_name": "Szko\u0142a Podstawowa w Micha\u0142owicach im. Jana Paw\u0142a Ii",
                "name": "Szko\u0142a Podstawowa w Micha\u0142owicach",
                "addr:postcode": "05-816",
                "addr:city": "Micha\u0142owice",
                "addr:street": "Szkolna",
                "addr:housenumber": "15",
                "addr:city:simc": 5210,
                "addr:street:sym_ul": 21970,
                "phone": "+48 227238621",
                "email": "sekretariat@spmichalowice.pl",
                "website": "http:\/\/www.szkola.michalowice.pl",
                "ref:regon": "001147202",
                "ref:vatin": "PL5341535667",
                "operator": "Gmina Micha\u0142owice",
                "operator:type": "government",
                "amenity": "school"
            }
        },
        {
            "id": 75178,
            "type": "Feature",
            "geometry": {
                "type": "Point",
                "coordinates": [
                    20.8908999,
                    52.1691
                ]
            },
            "properties": {
                "ref:rspo": 75178,
                "official_name": "Gminne Przedszkole w Micha\u0142owicach",
                "name": "Gminne Przedszkole w Micha\u0142owicach",
                "addr:postcode": "05-816",
                "addr:city": "Micha\u0142owice",
                "addr:street": "Szkolna",
                "addr:housenumber": "13",
                "addr:city:simc": 5210,
                "addr:street:sym_ul": 21970,
                "phone": "+48 227238380",
                "email": "pmichalowice@wikom.pl",
                "website": "http:\/\/przedszkole.michalowice.pl",
                "ref:regon": "013000375",
                "ref:vatin": "PL5341563161",
                "operator": "Gmina Micha\u0142owice",
                "operator:type": "government",
                "amenity": "kindergarten"
            }
        },
        {
            "id": 122213,
            "type": "Feature",
            "geometry": {
                "type": "Point",
                "coordinates": [
                    20.89429,
                    52.17037
                ]
            },
            "properties": {
                "ref:rspo": 122213,
                "official_name": "Niepubliczny Punkt Przedszkolny\n\"Ada\u015b\"",
                "name": "Niepubliczny Punkt Przedszkolny\n\"Ada\u015b\"",
                "addr:postcode": "05-816",
                "addr:city": "Micha\u0142owice",
                "addr:street": "Sportowa",
                "addr:housenumber": "7",
                "addr:city:simc": 5210,
                "addr:street:sym_ul": 20683,
                "phone": "+48 696453128",
                "ref:regon": "147123757",
                "ref:vatin": "PL7010390029",
                "operator": "Tarazu Enterprise Sp\u00f3\u0142ka Z Ograniczon\u0105 Odpowiedzialno\u015bci\u0105",
                "operator:type": "private",
                "amenity": "kindergarten"
            }
        },
        {
            "id": 122214,
            "type": "Feature",
            "geometry": {
                "type": "Point",
                "coordinates": [
                    20.88522,
                    52.17076
                ]
            },
            "properties": {
                "ref:rspo": 122214,
                "official_name": "Niepubliczny Punkt Przedszkolny \"Anto\u015b\"",
                "name": "Niepubliczny Punkt Przedszkolny \"Anto\u015b\"",
                "addr:postcode": "05-816",
                "addr:city": "Micha\u0142owice",
                "addr:street": "Raszy\u0144ska",
                "addr:housenumber": "30",
                "addr:city:simc": 5210,
                "addr:street:sym_ul": 18467,
                "phone": "+48 696453128",
                "email": "adamkowscy@poczta.onet.pl",
                "website": "http:\/\/www.integracja-sensoryczna.net",
                "ref:regon": "146563023",
                "ref:vatin": "PL7451323430",
                "operator": "Tarazu Enterprise Sp\u00f3\u0142ka Z Ograniczon\u0105 Odpowiedzialno\u015bci\u0105",
                "operator:type": "private",
                "amenity": "kindergarten"
            }
        },
        {
            "id": 276332,
            "type": "Feature",
            "geometry": {
                "type": "Point",
                "coordinates": [
                    20.85978,
                    52.17346
                ]
            },
            "properties": {
                "ref:rspo": 276332,
                "official_name": "Niepubliczne Przedszkole \"Gumisiowy Kraj\"",
                "name": "Niepubliczne Przedszkole \"Gumisiowy Kraj\"",
                "addr:postcode": "05-816",
                "addr:city": "Regu\u0142y",
                "addr:street": "Kr\u00f3lewska",
                "addr:housenumber": "2",
                "addr:city:simc": 5300,
                "addr:street:sym_ul": 9987,
                "phone": "+48 662359789",
                "ref:regon": "387096900",
                "ref:vatin": "PL5341021738",
                "operator": "Barbara Janczak",
                "operator:type": "private",
                "amenity": "kindergarten"
            }
        },
        {
            "id": 132404,
            "type": "Feature",
            "geometry": {
                "type": "Point",
                "coordinates": [
                    20.86174,
                    52.17956
                ]
            },
            "properties": {
                "ref:rspo": 132404,
                "official_name": "Niepubliczny Terapeutyczny Punkt Przedszkolny \"Pierwsze Kroki\"",
                "name": "Niepubliczny Terapeutyczny Punkt Przedszkolny \"Pierwsze Kroki\"",
                "addr:postcode": "05-816",
                "addr:city": "Regu\u0142y",
                "addr:street": "Boles\u0142awa Prusa",
                "addr:housenumber": "2",
                "addr:city:simc": 5300,
                "addr:street:sym_ul": 17577,
                "phone": "+48 786921868",
                "email": "marcin.biskupski@pierwszekroki.edu.pl",
                "website": "http:\/\/www.pierwszekroki.edu.pl",
                "ref:regon": "365600065",
                "operator": "Marcin Biskupski",
                "operator:type": "private",
                "amenity": "kindergarten"
            }
        },
        {
            "id": 90603,
            "type": "Feature",
            "geometry": {
                "type": "Point",
                "coordinates": [
                    20.87261,
                    52.18047
                ]
            },
            "properties": {
                "ref:rspo": 90603,
                "official_name": "Niepubliczne Przedszkole \"Krokodylek\"",
                "name": "Niepubliczne Przedszkole \"Krokodylek\"",
                "addr:postcode": "05-816",
                "addr:city": "Regu\u0142y",
                "addr:street": "\u017bytnia",
                "addr:housenumber": "10",
                "addr:city:simc": 5300,
                "addr:street:sym_ul": 26635,
                "phone": "+48 509804440",
                "email": "info@krokodylek.edu.pl",
                "website": "http:\/\/www.krokodylek.edu.pl",
                "ref:regon": "146415363",
                "operator": "Mummy & Me S.c.",
                "operator:type": "consortium",
                "amenity": "kindergarten"
            }
        }
    ]
}