{
    "type": "FeatureCollection",
    "features": [
        {
            "id": 20443,
            "type": "Feature",
            "geometry": {
                "type": "Point",
                "coordinates": [
                    20.80664,
                    52.03125
                ]
            },
            "properties": {
                "isced:level": "1;2",
                "ref:rspo": 20443,
                "official_name": "Szko\u0142a Podstawowa im. B\u0142. Ks. Bronis\u0142awa Markiewicza w Woli Krakowia\u0144skiej",
                "name": "Szko\u0142a Podstawowa",
                "addr:country": "PL",
                "addr:postcode": "05-831",
                "addr:city": "Wola Krakowia\u0144ska",
                "addr:street": "ul. Jastrz\u0119bska",
                "addr:housenumber": "34",
                "addr:teryt:simc": 7357,
                "addr:teryt:sym_ul": 5523,
                "contact:phone": "+48 227299181",
                "contact:email": "spwolakrak@nadarzyn.pl",
                "contact:website": "http:\/\/www.spwolakrak.szkolnastrona.pl",
                "ref:regon": "001147395",
                "ref:vatin": "PL5341576666",
                "operator": "Gmina Nadarzyn",
                "operator:type": "government",
                "amenity": "school"
            }
        },
        {
            "id": 26738,
            "type": "Feature",
            "geometry": {
                "type": "Point",
                "coordinates": [
                    20.77943,
                    52.0479399
                ]
            },
            "properties": {
                "ref:rspo": 26738,
                "official_name": "Publiczne Przedszkole w M\u0142ochowie",
                "name": "Publiczne Przedszkole w M\u0142ochowie",
                "addr:country": "PL",
                "addr:postcode": "05-831",
                "addr:city": "M\u0142och\u00f3w",
                "addr:street": "ul. \u0179r\u00f3dlana",
                "addr:housenumber": "3",
                "addr:teryt:simc": 26359,
                "addr:teryt:sym_ul": 5351,
                "contact:phone": "+48 227299019",
                "contact:email": "przedszkolemlochow@wp.pl",
                "contact:website": "http:\/\/ppmlochow.nadarzyn.pl",
                "ref:regon": "013000286",
                "ref:vatin": "PL5341576689",
                "operator": "Gmina Nadarzyn",
                "operator:type": "government",
                "amenity": "kindergarten"
            }
        },
        {
            "id": 20352,
            "type": "Feature",
            "geometry": {
                "type": "Point",
                "coordinates": [
                    20.77319,
                    52.04972
                ]
            },
            "properties": {
                "isced:level": "1;2",
                "ref:rspo": 20352,
                "official_name": "Szko\u0142a Podstawowa w M\u0142ochowie",
                "name": "Szko\u0142a Podstawowa w M\u0142ochowie",
                "addr:country": "PL",
                "addr:postcode": "05-831",
                "addr:city": "M\u0142och\u00f3w",
                "addr:street": "ul. Mazowiecka",
                "addr:housenumber": "46",
                "addr:teryt:simc": 12540,
                "addr:teryt:sym_ul": 5351,
                "contact:phone": "+48 227299140",
                "contact:email": "spmlochow@nadarzyn.pl",
                "contact:website": "http:\/\/www.spmlochow.nadarzyn.pl",
                "ref:regon": "001279346",
                "ref:vatin": "PL5341584507",
                "operator": "Gmina Nadarzyn",
                "operator:type": "government",
                "amenity": "school"
            }
        },
        {
            "id": 125293,
            "type": "Feature",
            "geometry": {
                "type": "Point",
                "coordinates": [
                    20.78227,
                    52.05024
                ]
            },
            "properties": {
                "ref:rspo": 125293,
                "official_name": "Przedszkole Niepubliczne 7 Krasnoludk\u00f3w",
                "name": "Przedszkole Niepubliczne 7 Krasnoludk\u00f3w",
                "addr:country": "PL",
                "addr:postcode": "05-831",
                "addr:city": "M\u0142och\u00f3w",
                "addr:street": "ul. Aleja Kasztanowa",
                "addr:housenumber": "88",
                "addr:teryt:simc": 32289,
                "addr:teryt:sym_ul": 5351,
                "contact:phone": "+48 501700401",
                "contact:email": "kontakt@7krasnoludkow.edu.pl",
                "contact:website": "http:\/\/www.7krasnoludkow.edu.pl",
                "ref:regon": "147434977",
                "ref:vatin": "PL5222569401",
                "operator": "Anna Przysta\u0142owska",
                "operator:type": "private",
                "amenity": "kindergarten"
            }
        },
        {
            "id": 21189,
            "type": "Feature",
            "geometry": {
                "type": "Point",
                "coordinates": [
                    20.74524,
                    52.05726
                ]
            },
            "properties": {
                "ref:rspo": 21189,
                "official_name": "Niepubliczne Przedszkole \" Kubu\u015b \"",
                "name": "Niepubliczne Przedszkole \" Kubu\u015b \"",
                "addr:country": "PL",
                "addr:postcode": "05-831",
                "addr:city": "Rozalin",
                "addr:street": "ul. Przemys\u0142owa",
                "addr:housenumber": "68",
                "addr:teryt:simc": 17742,
                "addr:teryt:sym_ul": 5405,
                "contact:phone": "+48 227299441",
                "contact:email": "kontakt@przedszkole-kubus.com",
                "contact:website": "http:\/\/przedszkole-kubus.com",
                "ref:regon": "146327765",
                "ref:vatin": "PL5340209173",
                "operator": "Jan P\u0105czek",
                "operator:type": "private",
                "amenity": "kindergarten"
            }
        },
        {
            "id": 20393,
            "type": "Feature",
            "geometry": {
                "type": "Point",
                "coordinates": [
                    20.73608,
                    52.06041
                ]
            },
            "properties": {
                "isced:level": "1;2",
                "ref:rspo": 20393,
                "official_name": "Szko\u0142a Podstawowa im. \u015aw. Stanis\u0142awa Kostki w Kostowcu",
                "name": "Szko\u0142a Podstawowa",
                "addr:country": "PL",
                "addr:postcode": "05-831",
                "addr:city": "Kostowiec",
                "addr:street": "ul. Matki Florentyny Dymman",
                "addr:housenumber": "5",
                "addr:teryt:simc": 32478,
                "addr:teryt:sym_ul": 5500,
                "contact:phone": "+48 227299169",
                "contact:email": "spkostowiec@nadarzyn.pl",
                "contact:website": "http:\/\/www.spkostowiec.nadarzyn.pl",
                "ref:regon": "001147410",
                "ref:vatin": "PL5341576643",
                "operator": "Gmina Nadarzyn",
                "operator:type": "government",
                "amenity": "school"
            }
        },
        {
            "id": 21865,
            "type": "Feature",
            "geometry": {
                "type": "Point",
                "coordinates": [
                    20.73608,
                    52.060379999999995
                ]
            },
            "properties": {
                "ref:rspo": 21865,
                "official_name": "Przedszkole Niepubliczne Si\u00f3str Rodziny Maryi",
                "name": "Przedszkole Niepubliczne Si\u00f3str Rodziny Maryi",
                "addr:country": "PL",
                "addr:postcode": "05-831",
                "addr:city": "Kostowiec",
                "addr:street": "ul. Matki Florentyny Dymman",
                "addr:housenumber": "9",
                "addr:teryt:simc": 32478,
                "addr:teryt:sym_ul": 5500,
                "contact:phone": "+48 227299437",
                "contact:email": "pnkostowiec2012@wp.pl",
                "ref:regon": "146324910",
                "operator": "Zgromadzenie Si\u00f3str Franciszkanek Rodziny Maryi Prowincja Niepokalanej-Warszawska",
                "operator:type": "religious",
                "amenity": "kindergarten"
            }
        },
        {
            "id": 275109,
            "type": "Feature",
            "geometry": {
                "type": "Point",
                "coordinates": [
                    20.7866279,
                    52.0625706
                ]
            },
            "properties": {
                "ref:rspo": 275109,
                "official_name": "Zesp\u00f3\u0142 Szkolno-Przedszkolny im. Marii Sk\u0142odowskiej-Curie w Ru\u015bcu",
                "name": "Zesp\u00f3\u0142 Szkolno-Przedszkolny",
                "addr:country": "PL",
                "addr:postcode": "05-830",
                "addr:city": "Rusiec",
                "addr:street": "ul. Osiedlowa",
                "addr:housenumber": "72",
                "addr:teryt:simc": 15300,
                "addr:teryt:sym_ul": 5411,
                "contact:phone": "+48 227298197",
                "contact:email": "sprusiec@nadarzyn.pl",
                "contact:website": "http:\/\/www.sprusiec.nadarzyn.pl",
                "ref:regon": "386574466",
                "ref:vatin": "PL5342624918",
                "operator": "Gmina Nadarzyn",
                "operator:type": "government",
                "landuse": "education",
                "fixme": "amenity=school, amenity=college albo landuse=education w zale\u017cno\u015bci od tego, jakie plac\u00f3wki wchodz\u0105 w sk\u0142ad zespo\u0142u. Sprawd\u017a, kiedy stosowa\u0107 amenity=* a kiedy landuse=education.",
                "note": "Children RSPO: 20408;275108"
            }
        },
        {
            "id": 20408,
            "type": "Feature",
            "geometry": {
                "type": "Point",
                "coordinates": [
                    20.7866279,
                    52.0625406
                ]
            },
            "properties": {
                "isced:level": "1;2",
                "ref:rspo": 20408,
                "official_name": "Szko\u0142a Podstawowa im. Marii Sk\u0142odowskiej-Curie w Ru\u015bcu",
                "name": "Szko\u0142a Podstawowa",
                "addr:country": "PL",
                "addr:postcode": "05-830",
                "addr:city": "Rusiec",
                "addr:street": "ul. Osiedlowa",
                "addr:housenumber": "72",
                "addr:teryt:simc": 15300,
                "addr:teryt:sym_ul": 5411,
                "contact:phone": "+48 227298197",
                "contact:email": "sprusiec@nadarzyn.pl",
                "contact:website": "http:\/\/www.sprusiec.nadarzyn.pl",
                "ref:regon": "001147403",
                "ref:vatin": "PL5341576672",
                "operator": "Gmina Nadarzyn",
                "operator:type": "government",
                "amenity": "school",
                "note": "Parent RSPO: 275109"
            }
        },
        {
            "id": 275108,
            "type": "Feature",
            "geometry": {
                "type": "Point",
                "coordinates": [
                    20.7866279,
                    52.0625106
                ]
            },
            "properties": {
                "ref:rspo": 275108,
                "official_name": "Publiczne Przedszkole w Ru\u015bcu",
                "name": "Publiczne Przedszkole w Ru\u015bcu",
                "addr:country": "PL",
                "addr:postcode": "05-830",
                "addr:city": "Rusiec",
                "addr:street": "ul. Osiedlowa",
                "addr:housenumber": "72",
                "addr:teryt:simc": 15300,
                "addr:teryt:sym_ul": 5411,
                "contact:phone": "+48 227298197",
                "contact:email": "pprusiec@nadarzyn.pl",
                "contact:website": "http:\/\/www.sprusiec.nadarzyn.pl",
                "ref:regon": "386574450",
                "operator": "Gmina Nadarzyn",
                "operator:type": "government",
                "amenity": "kindergarten",
                "note": "Parent RSPO: 275109"
            }
        },
        {
            "id": 16404,
            "type": "Feature",
            "geometry": {
                "type": "Point",
                "coordinates": [
                    20.84741,
                    52.07938
                ]
            },
            "properties": {
                "ref:rspo": 16404,
                "official_name": "Przedszkole Niepubliczne \"Nadzieja\" Zgromadzenia Si\u00f3str Matki Bo\u017cej Mi\u0142osierdzia",
                "name": "Przedszkole Niepubliczne \"Nadzieja\" Zgromadzenia Si\u00f3str Matki Bo\u017cej Mi\u0142osierdzia",
                "addr:country": "PL",
                "addr:postcode": "05-830",
                "addr:city": "Walend\u00f3w",
                "addr:street": "ul. Nad Utrat\u0105",
                "addr:housenumber": "30",
                "addr:teryt:simc": 41069,
                "addr:teryt:sym_ul": 5517,
                "contact:phone": "+48 227298881",
                "contact:email": "walendow@faustyna.pl",
                "ref:regon": "146306616",
                "operator": "Zg.ss.matki Bo\u017cej Mi\u0142osierdzia, Dom Generalny",
                "operator:type": "religious",
                "amenity": "kindergarten"
            }
        },
        {
            "id": 74220,
            "type": "Feature",
            "geometry": {
                "type": "Point",
                "coordinates": [
                    20.82013,
                    52.08798
                ]
            },
            "properties": {
                "isced:level": "4",
                "ref:rspo": 74220,
                "official_name": "Policealna Szko\u0142a Audiologii Instytutu Fizjologii I Patologii S\u0142uchu",
                "name": "Policealna Szko\u0142a Audiologii Instytutu Fizjologii I Patologii S\u0142uchu",
                "addr:country": "PL",
                "addr:postcode": "05-830",
                "addr:city": "Kajetany",
                "addr:street": "ul. Mokra",
                "addr:housenumber": "17",
                "addr:teryt:simc": 13211,
                "addr:teryt:sym_ul": 5339,
                "contact:phone": "+48 223560356",
                "contact:email": "psa@ifps.org.pl",
                "ref:regon": "146456020",
                "ref:vatin": "PL5261744423",
                "operator": "Instytut Fizjologii I Patologii S\u0142uchu",
                "operator:type": "private",
                "amenity": "college"
            }
        },
        {
            "id": 23208,
            "type": "Feature",
            "geometry": {
                "type": "Point",
                "coordinates": [
                    20.80033,
                    52.09323
                ]
            },
            "properties": {
                "ref:rspo": 23208,
                "official_name": "Przedszkole Niepubliczne Smyk",
                "name": "Przedszkole Niepubliczne Smyk",
                "addr:country": "PL",
                "addr:postcode": "05-830",
                "addr:city": "Nadarzyn",
                "addr:street": "ul. Graniczna",
                "addr:housenumber": "10",
                "addr:teryt:simc": 6075,
                "addr:teryt:sym_ul": 5374,
                "contact:phone": "+48 227298214",
                "contact:email": "przedszkole.smyk@vp.pl",
                "contact:website": "http:\/\/www.przedszkolesmyk.pl",
                "ref:regon": "146327883",
                "ref:vatin": "PL5342325133",
                "operator": "Iwona Ertner",
                "operator:type": "private",
                "amenity": "kindergarten"
            }
        },
        {
            "id": 115291,
            "type": "Feature",
            "geometry": {
                "type": "Point",
                "coordinates": [
                    20.7924,
                    52.09536
                ]
            },
            "properties": {
                "ref:rspo": 115291,
                "official_name": "Niepubliczna Szko\u0142a Muzyczna I St. w Nadarzynie",
                "name": "Niepubliczna Szko\u0142a Muzyczna I St. w Nadarzynie",
                "addr:country": "PL",
                "addr:postcode": "05-830",
                "addr:city": "Nadarzyn",
                "addr:street": "ul. \u017b\u00f3\u0142wi\u0144ska",
                "addr:housenumber": "41",
                "addr:teryt:simc": 26538,
                "addr:teryt:sym_ul": 5374,
                "contact:phone": "+48 502936482",
                "contact:email": "malec.iza@gmail.com",
                "contact:website": "http:\/\/niepublicznamuzyczna.pl",
                "ref:regon": "146737836",
                "operator": "Izabela Malec",
                "operator:type": "private",
                "amenity": "music_school"
            }
        },
        {
            "id": 133530,
            "type": "Feature",
            "geometry": {
                "type": "Point",
                "coordinates": [
                    20.7924,
                    52.09533
                ]
            },
            "properties": {
                "isced:level": "3",
                "ref:rspo": 133530,
                "official_name": "Liceum Og\u00f3lnokszta\u0142c\u0105ce im.jana Paw\u0142a II w Nadarzynie",
                "name": "Liceum Og\u00f3lnokszta\u0142c\u0105ce im.jana Paw\u0142a II w Nadarzynie",
                "addr:country": "PL",
                "addr:postcode": "05-830",
                "addr:city": "Nadarzyn",
                "addr:street": "ul. \u017b\u00f3\u0142wi\u0144ska",
                "addr:housenumber": "41",
                "addr:teryt:simc": 26538,
                "addr:teryt:sym_ul": 5374,
                "contact:phone": "+48 227399690",
                "contact:email": "liceum@nadarzyn.pl",
                "contact:website": "http:\/\/liceum.nadarzyn.pl",
                "ref:regon": "367374182",
                "operator": "Gmina Nadarzyn",
                "operator:type": "government",
                "amenity": "school"
            }
        },
        {
            "id": 26761,
            "type": "Feature",
            "geometry": {
                "type": "Point",
                "coordinates": [
                    20.80966,
                    52.09603
                ]
            },
            "properties": {
                "ref:rspo": 26761,
                "official_name": "Publiczne Przedszkole w Nadarzynie",
                "name": "Publiczne Przedszkole w Nadarzynie",
                "addr:country": "PL",
                "addr:postcode": "05-830",
                "addr:city": "Nadarzyn",
                "addr:street": "ul. Sitarskich",
                "addr:housenumber": "2",
                "addr:teryt:simc": 33457,
                "addr:teryt:sym_ul": 5374,
                "contact:phone": "+48 227298170",
                "contact:email": "ppnadarzyn@nadarzyn.pl",
                "contact:website": "http:\/\/www.pp.nadarzyn.pl",
                "ref:regon": "013000292",
                "ref:vatin": "PL5341576488",
                "operator": "Gmina Nadarzyn",
                "operator:type": "government",
                "amenity": "kindergarten"
            }
        },
        {
            "id": 84225,
            "type": "Feature",
            "geometry": {
                "type": "Point",
                "coordinates": [
                    20.80946,
                    52.09646
                ]
            },
            "properties": {
                "isced:level": "1;2",
                "ref:rspo": 84225,
                "official_name": "Szko\u0142a Podstawowa im. Witolda Doroszewskiego w Nadarzynie",
                "name": "Szko\u0142a Podstawowa",
                "addr:country": "PL",
                "addr:postcode": "05-830",
                "addr:city": "Nadarzyn",
                "addr:street": "ul. Jadwigi i Mieczys\u0142awa Sitarskich",
                "addr:housenumber": "4",
                "addr:teryt:simc": 44145,
                "addr:teryt:sym_ul": 5374,
                "contact:phone": "+48 227298166",
                "contact:email": "sekretariat@spnadarzyn.pl",
                "contact:website": "https:\/\/spnadarzyn.edupage.org\/",
                "ref:regon": "000270656",
                "ref:vatin": "PL5341576689",
                "operator": "Gmina Nadarzyn",
                "operator:type": "government",
                "amenity": "school"
            }
        },
        {
            "id": 22407,
            "type": "Feature",
            "geometry": {
                "type": "Point",
                "coordinates": [
                    20.79459,
                    52.09867
                ]
            },
            "properties": {
                "ref:rspo": 22407,
                "official_name": "Przedszkole Niepubliczne \"Jupik\"",
                "name": "Przedszkole Niepubliczne \"Jupik\"",
                "addr:country": "PL",
                "addr:postcode": "05-830",
                "addr:city": "Nadarzyn",
                "addr:street": "ul. Wi\u015bniowa",
                "addr:housenumber": "26",
                "addr:teryt:simc": 24412,
                "addr:teryt:sym_ul": 5374,
                "contact:phone": "+48 227299281",
                "contact:email": "info@jupikprzedszkole.pl",
                "contact:website": "http:\/\/www.jupikprzedszkole.pl",
                "ref:regon": "146326205",
                "ref:vatin": "PL5341031748",
                "operator": "Fundacja Kultury Informatycznej",
                "operator:type": "ngo",
                "amenity": "kindergarten"
            }
        },
        {
            "id": 128621,
            "type": "Feature",
            "geometry": {
                "type": "Point",
                "coordinates": [
                    20.79459,
                    52.098639999999996
                ]
            },
            "properties": {
                "ref:rspo": 128621,
                "official_name": "Niepubliczna Poradnia Psychologiczno - Pedagogiczna Szansa",
                "name": "Niepubliczna Poradnia Psychologiczno - Pedagogiczna Szansa",
                "addr:country": "PL",
                "addr:postcode": "05-830",
                "addr:city": "Nadarzyn",
                "addr:street": "ul. Wi\u015bniowa",
                "addr:housenumber": "26",
                "addr:teryt:simc": 24412,
                "addr:teryt:sym_ul": 5374,
                "contact:phone": "+48 728662112",
                "contact:email": "info@npppszansa.pl",
                "ref:regon": "362335214",
                "operator": "Stanis\u0142awa Ossowska",
                "operator:type": "private",
                "healthcare": "counselling",
                "counselling_type": "education",
                "fixme": "w zale\u017cno\u015bci od przedmiotu dzia\u0142alno\u015bci (np. healthcare=counselling + counselling_type=education albo healthcare=psychotherapist)"
            }
        },
        {
            "id": 130638,
            "type": "Feature",
            "geometry": {
                "type": "Point",
                "coordinates": [
                    20.79459,
                    52.09861
                ]
            },
            "properties": {
                "isced:level": "1;2",
                "ref:rspo": 130638,
                "official_name": "Niepubliczna Szko\u0142a Podstawowa \"Pitagoras\"",
                "name": "Niepubliczna Szko\u0142a Podstawowa \"Pitagoras\"",
                "addr:country": "PL",
                "addr:postcode": "05-830",
                "addr:city": "Nadarzyn",
                "addr:street": "ul. Wi\u015bniowa",
                "addr:housenumber": "26",
                "addr:teryt:simc": 24412,
                "addr:teryt:sym_ul": 5374,
                "contact:phone": "+48 696180279",
                "contact:email": "sekretariat@szkolapitagoras.pl",
                "contact:website": "http:\/\/szkolapitagoras.pl",
                "ref:regon": "364275516",
                "operator": "Nsp Pitagoras Sp\u00f3\u0142ka Z Ograniczon\u0105 Odpowiedzialno\u015bci\u0105",
                "operator:type": "private",
                "amenity": "school"
            }
        },
        {
            "id": 22678,
            "type": "Feature",
            "geometry": {
                "type": "Point",
                "coordinates": [
                    20.81602,
                    52.09986
                ]
            },
            "properties": {
                "ref:rspo": 22678,
                "official_name": "Przedszkole Niepubliczne \"Maluch\"",
                "name": "Przedszkole Niepubliczne \"Maluch\"",
                "addr:country": "PL",
                "addr:postcode": "05-830",
                "addr:city": "Nadarzyn",
                "addr:street": "ul. Komorowska",
                "addr:housenumber": "20",
                "addr:teryt:simc": 9075,
                "addr:teryt:sym_ul": 5374,
                "contact:phone": "+48 227397695",
                "contact:email": "biuro@przedszkolemaluch.pl",
                "contact:website": "http:\/\/www.przedszkolemaluch.pl",
                "ref:regon": "146327920",
                "operator": "Artur Wac\u0142awiak",
                "operator:type": "private",
                "amenity": "kindergarten"
            }
        },
        {
            "id": 74151,
            "type": "Feature",
            "geometry": {
                "type": "Point",
                "coordinates": [
                    20.79485,
                    52.0999399
                ]
            },
            "properties": {
                "ref:rspo": 74151,
                "official_name": "Oficyna Informatyczna",
                "name": "Oficyna Informatyczna",
                "addr:country": "PL",
                "addr:postcode": "05-830",
                "addr:city": "Nadarzyn",
                "addr:street": "ul. B\u0142o\u0144ska",
                "addr:housenumber": "62",
                "addr:teryt:simc": 1469,
                "addr:teryt:sym_ul": 5374,
                "contact:phone": "+48 227299281",
                "contact:email": "oficyna@wsfki.edu.pl",
                "ref:regon": "146404141",
                "operator": "Stanis\u0142awa Ossowska",
                "operator:type": "private",
                "fixme": "w zale\u017cno\u015bci od przedmiotu dzia\u0142alno\u015bci (np. amenity=training + training=*, amenity=dancing_school, amenity=language_school, amenity=music_school)"
            }
        },
        {
            "id": 30249,
            "type": "Feature",
            "geometry": {
                "type": "Point",
                "coordinates": [
                    20.86154,
                    52.11529
                ]
            },
            "properties": {
                "ref:rspo": 30249,
                "official_name": "Publiczne Przedszkole w Wolicy",
                "name": "Publiczne Przedszkole w Wolicy",
                "addr:country": "PL",
                "addr:postcode": "05-830",
                "addr:city": "Wolica",
                "addr:street": "ul. Przedszkolna",
                "addr:housenumber": "2",
                "addr:teryt:simc": 17683,
                "addr:teryt:sym_ul": 5546,
                "contact:phone": "+48 227298165",
                "contact:email": "ppwolica@nadarzyn.pl",
                "ref:regon": "013000300",
                "ref:vatin": "PL5341576519",
                "operator": "Gmina Nadarzyn",
                "operator:type": "government",
                "amenity": "kindergarten"
            }
        },
        {
            "id": 125294,
            "type": "Feature",
            "geometry": {
                "type": "Point",
                "coordinates": [
                    20.93146,
                    52.13047
                ]
            },
            "properties": {
                "ref:rspo": 125294,
                "official_name": "Niepubliczne Przedszkole \" Bajkowy Lasek\"",
                "name": "Niepubliczne Przedszkole \" Bajkowy Lasek\"",
                "addr:country": "PL",
                "addr:postcode": "05-830",
                "addr:city": "Stara Wie\u015b",
                "addr:street": "ul. Sympatyczna",
                "addr:housenumber": "3",
                "addr:teryt:simc": 21666,
                "addr:teryt:sym_ul": 5457,
                "contact:phone": "+48 502060022",
                "contact:email": "bajkowy.lasek@onet.pl",
                "ref:regon": "147435014",
                "ref:vatin": "PL5341210250",
                "operator": "Marlena Chy\u0142a",
                "operator:type": "private",
                "amenity": "kindergarten"
            }
        }
    ]
}